{
  "question": "What restaurant is available as I head towards Lawrence Recreation Center;Rutland Historical Society Museum, VT within 170 kilometers from Sparrow Art Supply, Middlebury, VT?",
  "sql": "WITH\n    angle AS (SELECT degrees(ST_Azimuth(ST_GeomFromText('POINT (-73.168916 44.013286)',4326)::geography, ST_GeomFromText('POINT (-72.974829 43.606735)',4326)::geography)) AS value)\nSELECT * FROM pois,angle\nWHERE amenity = 'restaurant'\nAND ST_DWithin(pois.geometry, ST_GeomFromText('POINT (-73.168916 44.013286)',4326)::geography, 170000)\nAND (degrees(ST_Azimuth(ST_GeomFromText('POINT (-73.168916 44.013286)',4326)::geography, pois.geometry)) BETWEEN angle.value - 22.5 AND angle.value + 22.5);\n",
  "answers": [
    {
      "id": 7908,
      "geometry": "POINT (-73.198464 42.881792)",
      "poi_name": "Dutchman's Tavern",
      "osm_id": 6468320291,
      "amenity": "restaurant",
      "tourism": "attraction",
      "value": 160.86153038272192
    },
    {
      "id": 31928,
      "geometry": "POINT (-72.721516 43.405326)",
      "poi_name": "Sugar House Lodge",
      "osm_id": 2614072432,
      "amenity": "restaurant",
      "value": 160.86153038272192
    },
    {
      "id": 31787,
      "geometry": "POINT (-73.086758 43.798512)",
      "poi_name": "Foley's Taco and Bean",
      "osm_id": 8447067943,
      "amenity": "restaurant",
      "cuisine": "tacos;coffee_shop",
      "opening_hours": "Mo off; Tu off; We-Sa 12:00-19:00; Su off; PH off",
      "addr_city": "Brandon",
      "addr_postcode": "05733",
      "addr_street": "Randle Drive",
      "value": 160.86153038272192
    },
    {
      "id": 31890,
      "geometry": "POINT (-72.817733 43.604927)",
      "poi_name": "The Peak Lodge",
      "osm_id": 2613479324,
      "amenity": "restaurant",
      "value": 160.86153038272192
    },
    {
      "id": 31893,
      "geometry": "POINT (-72.772548 43.596884)",
      "poi_name": "Sunrise Cafe",
      "osm_id": 2613484701,
      "amenity": "restaurant",
      "value": 160.86153038272192
    },
    {
      "id": 39851,
      "geometry": "POINT (-72.443987 43.133983)",
      "poi_name": "Popolo",
      "osm_id": 2942300501,
      "amenity": "restaurant",
      "value": 160.86153038272192
    },
    {
      "id": 39852,
      "geometry": "POINT (-72.447724 43.136509)",
      "poi_name": "China Garden",
      "osm_id": 2942457197,
      "amenity": "restaurant",
      "value": 160.86153038272192
    },
    {
      "id": 47642,
      "geometry": "POINT (-72.556603 42.607816)",
      "poi_name": "Great Falls Harvest",
      "osm_id": 3338986853,
      "amenity": "restaurant",
      "value": 160.86153038272192
    },
    {
      "id": 39933,
      "geometry": "POINT (-72.450599 43.134998)",
      "poi_name": "Famous Pizza",
      "osm_id": 2951505231,
      "amenity": "restaurant",
      "value": 160.86153038272192
    },
    {
      "id": 44066,
      "geometry": "POINT (-72.428693 43.104149)",
      "poi_name": "Diamond Pizza",
      "osm_id": 3142727844,
      "amenity": "restaurant",
      "value": 160.86153038272192
    },
    {
      "id": 43859,
      "geometry": "POINT (-72.597033 42.597312)",
      "poi_name": "Sophia's",
      "osm_id": 3135937876,
      "amenity": "restaurant",
      "cuisine": "pizza",
      "value": 160.86153038272192
    },
    {
      "id": 44044,
      "geometry": "POINT (-72.39324 42.99062)",
      "poi_name": "BBQ Smokehouse",
      "osm_id": 3141076258,
      "amenity": "restaurant",
      "value": 160.86153038272192
    },
    {
      "id": 44045,
      "geometry": "POINT (-72.436477 43.004387)",
      "poi_name": "John & Steward Pancake house",
      "osm_id": 3141076742,
      "amenity": "restaurant",
      "value": 160.86153038272192
    },
    {
      "id": 53960,
      "geometry": "POINT (-72.786567 43.211665)",
      "poi_name": "Revival Kitchen",
      "osm_id": 10109740887,
      "amenity": "restaurant",
      "cuisine": "pizza;burger;sandwich;american",
      "phone": "1 802 787 7195",
      "outdoor_seating": "yes",
      "addr_state": "VT",
      "addr_city": "Londonderry",
      "addr_postcode": "05148",
      "addr_street": "Vermont Route 11",
      "addr_housenumber": "3928",
      "value": 160.86153038272192
    },
    {
      "id": 51819,
      "geometry": "POINT (-72.140177 42.780425)",
      "poi_name": "Casey J's",
      "osm_id": 562214326,
      "amenity": "restaurant",
      "value": 160.86153038272192
    },
    {
      "id": 52107,
      "geometry": "POINT (-72.599181 42.586308)",
      "poi_name": "Hope and Olive",
      "osm_id": 570829744,
      "amenity": "restaurant",
      "cuisine": "regional",
      "website": "https://www.hopeandolive.com/",
      "addr_street": "Hope Street",
      "addr_housenumber": "44",
      "value": 160.86153038272192
    },
    {
      "id": 55057,
      "geometry": "POINT (-72.794708 43.636731)",
      "poi_name": "The Lookout Tavern",
      "osm_id": 10169983841,
      "amenity": "restaurant",
      "website": "https://www.lookoutvt.com",
      "value": 160.86153038272192
    },
    {
      "id": 54061,
      "geometry": "POINT (-72.90883 43.113225)",
      "poi_name": "Base Plate",
      "osm_id": 10112537106,
      "amenity": "restaurant",
      "cuisine": "tacos",
      "value": 160.86153038272192
    },
    {
      "id": 54062,
      "geometry": "POINT (-72.90811 43.113534)",
      "poi_name": "The Market",
      "osm_id": 10112537108,
      "amenity": "restaurant",
      "cuisine": "american",
      "value": 160.86153038272192
    },
    {
      "id": 54063,
      "geometry": "POINT (-72.910818 43.105744)",
      "poi_name": "Mountain Smoke",
      "osm_id": 10112537110,
      "amenity": "restaurant",
      "cuisine": "southern",
      "value": 160.86153038272192
    },
    {
      "id": 54064,
      "geometry": "POINT (-72.906561 43.113587)",
      "poi_name": "Mulligan's at Stratton",
      "osm_id": 10112551334,
      "amenity": "restaurant",
      "cuisine": "american",
      "website": "https://www.mulligansstratton.com/",
      "value": 160.86153038272192
    },
    {
      "id": 54065,
      "geometry": "POINT (-72.906387 43.113601)",
      "poi_name": "Snowfish Sushi Bar",
      "osm_id": 10112551335,
      "amenity": "restaurant",
      "cuisine": "sushi",
      "value": 160.86153038272192
    },
    {
      "id": 54067,
      "geometry": "POINT (-72.90589 43.113433)",
      "poi_name": "Benedict's Eatery",
      "osm_id": 10112551347,
      "amenity": "restaurant",
      "cuisine": "breakfast;brunch",
      "value": 160.86153038272192
    },
    {
      "id": 54068,
      "geometry": "POINT (-72.904683 43.113424)",
      "poi_name": "Firetower at Stratton",
      "osm_id": 10112551351,
      "amenity": "restaurant",
      "cuisine": "upscale",
      "value": 160.86153038272192
    },
    {
      "id": 55309,
      "geometry": "POINT (-72.790246 43.654084)",
      "poi_name": "iPie Pizzeria",
      "osm_id": 10181091556,
      "amenity": "restaurant",
      "cuisine": "pizza",
      "website": "http://www.ipiepizzeria.com",
      "phone": "+18024224111",
      "addr_city": "Killington",
      "addr_postcode": "05751",
      "addr_street": "Killington Road",
      "value": 160.86153038272192
    },
    {
      "id": 66592,
      "geometry": "POINT (-72.335626 42.866339)",
      "poi_name": "Jeanne's Family Diner",
      "osm_id": 11200741485,
      "amenity": "restaurant",
      "value": 160.86153038272192
    },
    {
      "id": 56648,
      "geometry": "POINT (-71.996638 42.823296)",
      "poi_name": "Cafe 532 Grille & Bar",
      "osm_id": 10245507314,
      "amenity": "restaurant",
      "building": "yes",
      "website": "https://cafe-532-and-deli.business.site/",
      "phone": "+1-603-532-7777",
      "addr_state": "NH",
      "addr_city": "Jaffrey",
      "addr_postcode": "03452",
      "addr_street": "Hadley Road",
      "addr_housenumber": "79",
      "value": 160.86153038272192
    },
    {
      "id": 60772,
      "geometry": "POINT (-73.08181 43.921346)",
      "poi_name": "Kampersville Deli",
      "osm_id": 5480037564,
      "amenity": "restaurant",
      "value": 160.86153038272192
    },
    {
      "id": 63313,
      "geometry": "POINT (-72.739322 42.603768)",
      "poi_name": "Hearty Eats",
      "osm_id": 5610306272,
      "amenity": "restaurant",
      "cuisine": "fish",
      "opening_hours": "10:00-20:00",
      "outdoor_seating": "yes",
      "delivery": "no",
      "addr_state": "MA",
      "addr_city": "Shelburne Falls",
      "addr_postcode": "01370",
      "addr_street": "Bridge Street",
      "addr_housenumber": "24",
      "value": 160.86153038272192
    },
    {
      "id": 56455,
      "geometry": "POINT (-72.9329 43.526269)",
      "poi_name": "Whistle Stop",
      "osm_id": 10237961916,
      "amenity": "restaurant",
      "value": 160.86153038272192
    },
    {
      "id": 56731,
      "geometry": "POINT (-72.841677 43.146353)",
      "poi_name": "Family Kitchen & Pizzeria",
      "osm_id": 10247282427,
      "amenity": "restaurant",
      "cuisine": "pizza;asian",
      "website": "https://www.familykitchenpizzeria.com",
      "value": 160.86153038272192
    },
    {
      "id": 60704,
      "geometry": "POINT (-72.739299 42.603451)",
      "poi_name": "Foxtown Diner",
      "osm_id": 5476752155,
      "amenity": "restaurant",
      "cuisine": "american;diner",
      "opening_hours": "Mo-Fr 05:00-07:00; Sa-Su 05:00-18:00",
      "delivery": "no",
      "addr_state": "MA",
      "addr_city": "Shelburne Falls",
      "addr_postcode": "01370",
      "addr_street": "Bridge Street",
      "addr_housenumber": "25",
      "value": 160.86153038272192
    },
    {
      "id": 60706,
      "geometry": "POINT (-72.741526 42.602129)",
      "poi_name": "Blue Rock Restaurant",
      "osm_id": 5476773168,
      "amenity": "restaurant",
      "cuisine": "american",
      "description": "The Blue Rock is on the lower level of this building; the upper level is the Salmon Falls Art Gallery",
      "opening_hours": "Th-Mo 17:00-21:00+ \"sometimes until 22:00?\"",
      "website": "https://thebluerockrestaurant.com/",
      "outdoor_seating": "yes",
      "addr_state": "MA",
      "addr_city": "Shelburne Falls",
      "addr_postcode": "01370",
      "addr_street": "Ashfield Street",
      "addr_housenumber": "1",
      "value": 160.86153038272192
    },
    {
      "id": 74193,
      "geometry": "POINT (-72.557209 42.608599)",
      "poi_name": "Five Eyed Foc",
      "osm_id": 9670402840,
      "amenity": "restaurant",
      "cuisine": "american",
      "website": "https://www.fiveeyedfox.com/",
      "phone": "+1-413-863-5654",
      "addr_state": "MA",
      "addr_city": "Turners Falls",
      "addr_postcode": "01376",
      "addr_street": "Third Street",
      "addr_housenumber": "37",
      "value": 160.86153038272192
    },
    {
      "id": 67239,
      "geometry": "POINT (-72.955045 43.619922)",
      "poi_name": "Applebee's",
      "osm_id": 11229888359,
      "amenity": "restaurant",
      "cuisine": "american",
      "official_name": "Applebee's Neighborhood Grill & Bar",
      "value": 160.86153038272192
    },
    {
      "id": 71163,
      "geometry": "POINT (-72.862124 42.877576)",
      "poi_name": "North Star Pizza",
      "osm_id": 11383112966,
      "amenity": "restaurant",
      "cuisine": "pizza",
      "value": 160.86153038272192
    },
    {
      "id": 71166,
      "geometry": "POINT (-72.861023 42.943548)",
      "poi_name": "TC's",
      "osm_id": 11383136075,
      "amenity": "restaurant",
      "value": 160.86153038272192
    },
    {
      "id": 71167,
      "geometry": "POINT (-72.862881 42.944056)",
      "poi_name": "American Flatbread",
      "osm_id": 11383136077,
      "amenity": "restaurant",
      "cuisine": "pizza",
      "value": 160.86153038272192
    },
    {
      "id": 71168,
      "geometry": "POINT (-72.86314 42.945019)",
      "poi_name": "Tony's Pizza",
      "osm_id": 11383136078,
      "amenity": "restaurant",
      "cuisine": "pizza",
      "value": 160.86153038272192
    },
    {
      "id": 71169,
      "geometry": "POINT (-72.87498 42.949736)",
      "poi_name": "Last Chair",
      "osm_id": 11383136085,
      "amenity": "restaurant",
      "cuisine": "american",
      "value": 160.86153038272192
    },
    {
      "id": 81062,
      "geometry": "POINT (-73.209168 42.899549)",
      "poi_name": "Pizza Hut",
      "osm_id": 1601848043,
      "amenity": "restaurant",
      "cuisine": "pizza",
      "value": 160.86153038272192
    },
    {
      "id": 80621,
      "geometry": "POINT (-72.60039 42.58707)",
      "poi_name": "Magpie Woodfired Pizzeria",
      "osm_id": 887597850,
      "amenity": "restaurant",
      "cuisine": "gourmet;pizza",
      "website": "https://www.magpiepizza.com/",
      "addr_street": "Bank Row",
      "addr_housenumber": "21",
      "value": 160.86153038272192
    },
    {
      "id": 80644,
      "geometry": "POINT (-72.602591 42.587354)",
      "poi_name": "Mesa Verde",
      "osm_id": 889963067,
      "amenity": "restaurant",
      "value": 160.86153038272192
    },
    {
      "id": 81064,
      "geometry": "POINT (-73.208061 42.898022)",
      "poi_name": "Fuji Hibachi, Sushi and Asian Bistro",
      "osm_id": 1601852450,
      "amenity": "restaurant",
      "cuisine": "asian;sushi",
      "value": 160.86153038272192
    },
    {
      "id": 81065,
      "geometry": "POINT (-73.208204 42.891742)",
      "poi_name": "The Grille at Mt Anthony Country Club",
      "osm_id": 1601871953,
      "amenity": "restaurant",
      "value": 160.86153038272192
    },
    {
      "id": 81025,
      "geometry": "POINT (-73.197489 42.885109)",
      "poi_name": "The Blue Benn",
      "osm_id": 1596951681,
      "amenity": "restaurant",
      "cuisine": "american",
      "website": "https://www.bluebenn.com",
      "addr_street": "North Street",
      "addr_housenumber": "314",
      "value": 160.86153038272192
    },
    {
      "id": 82036,
      "geometry": "POINT (-72.184735 42.83121)",
      "poi_name": "Dragon Palace",
      "osm_id": 1676024740,
      "amenity": "restaurant",
      "cuisine": "chinese",
      "value": 160.86153038272192
    },
    {
      "id": 83992,
      "geometry": "POINT (-72.978027 43.605919)",
      "poi_name": "Roots",
      "osm_id": 1773191032,
      "amenity": "restaurant",
      "wheelchair": "yes",
      "addr_street": "Wales Street",
      "addr_housenumber": "51",
      "value": 160.86153038272192
    },
    {
      "id": 97236,
      "geometry": "POINT (-73.198464 42.881792)",
      "poi_name": "Dutchman's Tavern",
      "osm_id": 6468320291,
      "amenity": "restaurant",
      "tourism": "attraction",
      "value": 160.86153038272192
    },
    {
      "id": 85474,
      "geometry": "POINT (-73.228099 42.516113)",
      "poi_name": "Bob's Country Kitchen",
      "osm_id": 1870776481,
      "amenity": "restaurant",
      "cuisine": "american",
      "addr_postcode": "01237",
      "addr_street": "South Main Street",
      "addr_housenumber": "42",
      "value": 160.86153038272192
    },
    {
      "id": 86907,
      "geometry": "POINT (-73.047035 43.172953)",
      "poi_name": "Fire Fly",
      "osm_id": 1958602888,
      "amenity": "restaurant",
      "wheelchair": "no",
      "value": 160.86153038272192
    },
    {
      "id": 86908,
      "geometry": "POINT (-73.112605 42.699347)",
      "poi_name": "The Hub",
      "osm_id": 1958602912,
      "amenity": "restaurant",
      "wheelchair": "no",
      "value": 160.86153038272192
    },
    {
      "id": 112084,
      "geometry": "POINT (-72.698328 43.396291)",
      "poi_name": "Homestyle Hostel",
      "osm_id": 3780353838,
      "amenity": "restaurant",
      "value": 160.86153038272192
    },
    {
      "id": 109896,
      "geometry": "POINT (-73.111711 42.70003)",
      "poi_name": "PUBLIC eat + drink",
      "osm_id": 3677954564,
      "amenity": "restaurant",
      "wheelchair": "limited",
      "value": 160.86153038272192
    },
    {
      "id": 109897,
      "geometry": "POINT (-73.113546 42.699158)",
      "poi_name": "Richmond Grille",
      "osm_id": 3677954566,
      "amenity": "restaurant",
      "value": 160.86153038272192
    },
    {
      "id": 112088,
      "geometry": "POINT (-72.700859 43.395928)",
      "poi_name": "The Hatchery",
      "osm_id": 3780365028,
      "amenity": "restaurant",
      "value": 160.86153038272192
    },
    {
      "id": 112089,
      "geometry": "POINT (-72.698973 43.395937)",
      "poi_name": "The Pot Belly",
      "osm_id": 3780365030,
      "amenity": "restaurant",
      "value": 160.86153038272192
    },
    {
      "id": 98682,
      "geometry": "POINT (-72.601879 42.855199)",
      "poi_name": "West Brattleboro Pizza",
      "osm_id": 6528503263,
      "amenity": "restaurant",
      "cuisine": "pizza",
      "value": 160.86153038272192
    },
    {
      "id": 109197,
      "geometry": "POINT (-72.278538 42.932662)",
      "poi_name": "Fritz's",
      "osm_id": 3653603329,
      "amenity": "restaurant",
      "cuisine": "sandwich",
      "value": 160.86153038272192
    },
    {
      "id": 109198,
      "geometry": "POINT (-72.278876 42.934439)",
      "poi_name": "The Stage",
      "osm_id": 3653607053,
      "amenity": "restaurant",
      "cuisine": "american",
      "value": 160.86153038272192
    },
    {
      "id": 112085,
      "geometry": "POINT (-72.699863 43.39594)",
      "poi_name": "DJ's",
      "osm_id": 3780364976,
      "amenity": "restaurant",
      "value": 160.86153038272192
    },
    {
      "id": 112086,
      "geometry": "POINT (-72.697308 43.395931)",
      "poi_name": "Mojo Cafe",
      "osm_id": 3780364979,
      "amenity": "restaurant",
      "cuisine": "mexican",
      "value": 160.86153038272192
    },
    {
      "id": 112087,
      "geometry": "POINT (-72.701137 43.395549)",
      "poi_name": "The Downtown Grocery",
      "osm_id": 3780365027,
      "amenity": "restaurant",
      "value": 160.86153038272192
    },
    {
      "id": 115946,
      "geometry": "POINT (-73.070608 43.165646)",
      "poi_name": "The Copper Grouse",
      "osm_id": 8920176431,
      "amenity": "restaurant",
      "website": "https://www.coppergrouse.com/",
      "phone": "+18023620176",
      "addr_state": "VT",
      "addr_city": "Manchester",
      "addr_postcode": "05254",
      "addr_street": "Main Street",
      "addr_housenumber": "3835",
      "value": 160.86153038272192
    },
    {
      "id": 112984,
      "geometry": "POINT (-73.199272 42.710783)",
      "poi_name": "Gramercy Bistro",
      "osm_id": 3813319032,
      "amenity": "restaurant",
      "cuisine": "international",
      "website": "https://www.gramercybistro.com/",
      "phone": "+1 413 458-6222",
      "addr_state": "MA",
      "addr_city": "Williamstown",
      "addr_postcode": "01267",
      "addr_street": "Water Street",
      "addr_housenumber": "16",
      "value": 160.86153038272192
    },
    {
      "id": 113172,
      "geometry": "POINT (-72.27787 42.932139)",
      "poi_name": "Local Burger",
      "osm_id": 3823113991,
      "amenity": "restaurant",
      "cuisine": "burger",
      "opening_hours": "Su-Sa 11:30-21:00",
      "website": "https://www.localkeene.com/",
      "phone": "+1-603-355-3993",
      "addr_state": "NH",
      "addr_city": "Keene",
      "addr_postcode": "03431",
      "addr_street": "Main Street",
      "addr_housenumber": "82",
      "value": 160.86153038272192
    },
    {
      "id": 119845,
      "geometry": "POINT (-73.055876 43.177872)",
      "poi_name": "Gourmet Deli & Cafe",
      "osm_id": 9125290274,
      "amenity": "restaurant",
      "cuisine": "deli;coffee_shop",
      "phone": "+1-802-362-1254",
      "addr_state": "VT",
      "addr_city": "Manchester Center",
      "addr_postcode": "05255",
      "addr_street": "Main Street",
      "addr_housenumber": "4961",
      "value": 160.86153038272192
    },
    {
      "id": 117686,
      "geometry": "POINT (-72.870681 42.868463)",
      "poi_name": "Maple Leaf Tavern",
      "osm_id": 9006489116,
      "amenity": "restaurant",
      "addr_state": "VT",
      "addr_city": "Wilmington",
      "addr_postcode": "05363",
      "addr_street": "North Main Street",
      "addr_housenumber": "3",
      "value": 160.86153038272192
    },
    {
      "id": 118788,
      "geometry": "POINT (-72.022497 42.814507)",
      "poi_name": "Golden Wok",
      "osm_id": 9064496986,
      "amenity": "restaurant",
      "cuisine": "chinese",
      "value": 160.86153038272192
    },
    {
      "id": 119846,
      "geometry": "POINT (-73.055571 43.178386)",
      "poi_name": "Sushi Boat Japanese Restaurant",
      "osm_id": 9125290297,
      "amenity": "restaurant",
      "cuisine": "sushi",
      "opening_hours": "We-Sa 16:00-20:00",
      "website": "https://www.sushiboatvt.com/",
      "phone": "+1-802-366-1888",
      "takeaway": "only",
      "addr_state": "VT",
      "addr_city": "Manchester Center",
      "addr_postcode": "05255",
      "addr_street": "Main Street",
      "addr_housenumber": "4971",
      "value": 160.86153038272192
    },
    {
      "id": 125920,
      "geometry": "POINT (-72.55468 43.490182)",
      "poi_name": "Keepers Cafe",
      "osm_id": 6981282701,
      "amenity": "restaurant",
      "phone": "+1 802 484 9090",
      "addr_state": "VT",
      "addr_city": "Reading",
      "addr_postcode": "05062",
      "addr_street": "State Route 106",
      "addr_housenumber": "3685",
      "value": 160.86153038272192
    },
    {
      "id": 120021,
      "geometry": "POINT (-73.04922 43.17312)",
      "poi_name": "Depot Street Burgers",
      "osm_id": 9135492962,
      "amenity": "restaurant",
      "cuisine": "burger",
      "opening_hours": "Tu-Th 11:30-19:00; Fr-Sa 11:30-20:00; Su 12:00-17:00",
      "website": "https://www.depotstreetburgers.com/",
      "phone": "+1 802 362 7500",
      "addr_state": "VT",
      "addr_city": "Manchester Center",
      "addr_postcode": "05255",
      "addr_street": "Depot Street",
      "addr_housenumber": "468",
      "value": 160.86153038272192
    },
    {
      "id": 149039,
      "geometry": "POINT (-71.949269 42.876449)",
      "poi_name": "Aesop's Tables",
      "osm_id": 3993674129,
      "amenity": "restaurant",
      "opening_hours": "Mo-Fr 07:00-16:00; Sa 09:00-16:00",
      "takeaway": "yes",
      "delivery": "no",
      "addr_state": "NH",
      "addr_city": "Peterborough",
      "addr_street": "Depot Square",
      "addr_housenumber": "12",
      "value": 160.86153038272192
    },
    {
      "id": 127886,
      "geometry": "POINT (-72.481201 42.786923)",
      "poi_name": "Bacon Me Crazy",
      "osm_id": 8104887350,
      "amenity": "restaurant",
      "phone": "+1-603-336-6249",
      "addr_state": "NH",
      "addr_city": "Hinsdale",
      "addr_postcode": "03451",
      "addr_street": "Main Street",
      "addr_housenumber": "6",
      "value": 160.86153038272192
    },
    {
      "id": 132331,
      "geometry": "POINT (-72.907052 43.113646)",
      "poi_name": "Verde at Stratton",
      "osm_id": 9951015623,
      "amenity": "restaurant",
      "cuisine": "mediterranean",
      "value": 160.86153038272192
    },
    {
      "id": 132946,
      "geometry": "POINT (-72.880498 43.485625)",
      "poi_name": "Rustic Rooster",
      "osm_id": 9973115562,
      "amenity": "restaurant",
      "cuisine": "beer;wine;wings;burger;poutine;chili;sandwich;salad;soup",
      "website": "http://www.vtrusticrooster.com/",
      "phone": "+1 802-492-3433",
      "addr_state": "VT",
      "addr_city": "Cuttingsville",
      "addr_postcode": "05738",
      "addr_street": "Vermont Route 103",
      "addr_housenumber": "5446",
      "value": 160.86153038272192
    },
    {
      "id": 136425,
      "geometry": "POINT (-72.481619 43.298803)",
      "poi_name": "Sheri's Place",
      "osm_id": 11583700845,
      "amenity": "restaurant",
      "opening_hours": "Mo,Sa,Su off; Tu-Th,Fr 17:00-20:00",
      "phone": "+1-802-885-4240",
      "takeaway": "yes",
      "addr_state": "VT",
      "addr_city": "Springfield",
      "addr_postcode": "05156",
      "addr_street": "Main Street",
      "addr_housenumber": "30",
      "value": 160.86153038272192
    },
    {
      "id": 139578,
      "geometry": "POINT (-72.555827 42.885488)",
      "poi_name": "Village Pizza",
      "osm_id": 6204365989,
      "amenity": "restaurant",
      "cuisine": "pizza",
      "value": 160.86153038272192
    },
    {
      "id": 147051,
      "geometry": "POINT (-72.481664 43.297824)",
      "poi_name": "Copper Fox",
      "osm_id": 7500204423,
      "amenity": "restaurant",
      "website": "https://www.copperfoxvt.com",
      "phone": "+1 802 885 1031",
      "addr_state": "VT",
      "addr_city": "Springfield",
      "addr_postcode": "05156",
      "addr_street": "Main Street",
      "addr_housenumber": "56",
      "value": 160.86153038272192
    },
    {
      "id": 147914,
      "geometry": "POINT (-73.229515 42.512649)",
      "poi_name": "Coyote Den",
      "osm_id": 62866582,
      "amenity": "restaurant",
      "cuisine": "american",
      "addr_postcode": "01237",
      "addr_street": "South Main Street",
      "addr_housenumber": "162",
      "value": 160.86153038272192
    },
    {
      "id": 132332,
      "geometry": "POINT (-72.908181 43.113354)",
      "poi_name": "Grizzly's Bar",
      "osm_id": 9951015624,
      "amenity": "restaurant",
      "cuisine": "burger",
      "value": 160.86153038272192
    },
    {
      "id": 138025,
      "geometry": "POINT (-72.701216 43.395901)",
      "poi_name": "Ma Ma\u2019s",
      "osm_id": 6126942629,
      "amenity": "restaurant",
      "cuisine": "italian",
      "wheelchair": "yes",
      "capacity": "50",
      "phone": "+1-802-288-2333",
      "value": 160.86153038272192
    },
    {
      "id": 138026,
      "geometry": "POINT (-72.70094 43.396496)",
      "poi_name": "Cafe at DeLight",
      "osm_id": 6126942630,
      "amenity": "restaurant",
      "value": 160.86153038272192
    },
    {
      "id": 138027,
      "geometry": "POINT (-72.803952 43.617871)",
      "poi_name": "Waffle House",
      "osm_id": 6126942632,
      "amenity": "restaurant",
      "cuisine": "american",
      "opening_hours": "24/7",
      "drive_through": "no",
      "outdoor_seating": "yes",
      "delivery": "no",
      "value": 160.86153038272192
    },
    {
      "id": 138715,
      "geometry": "POINT (-73.11298 42.699602)",
      "poi_name": "Meng's Pan-Asian",
      "osm_id": 6165679056,
      "amenity": "restaurant",
      "cuisine": "chinese",
      "wheelchair": "limited",
      "outdoor_seating": "no",
      "delivery": "no",
      "toilets": "yes",
      "value": 160.86153038272192
    },
    {
      "id": 138718,
      "geometry": "POINT (-72.511454 42.977847)",
      "poi_name": "Dining Hall",
      "osm_id": 6166016931,
      "amenity": "restaurant",
      "takeaway": "no",
      "outdoor_seating": "no",
      "delivery": "no",
      "value": 160.86153038272192
    },
    {
      "id": 139309,
      "geometry": "POINT (-73.168825 44.012767)",
      "poi_name": "Marquis Southwest Cafe",
      "osm_id": 6192577525,
      "amenity": "restaurant",
      "cuisine": "tacos;tex-mex;burrito",
      "opening_hours": "We 17:00-20:30; Th-Sa 12:00-20:30; Su 12:00-18:30",
      "website": "https://www.middleburymarquis.com/",
      "phone": "+1-802-388-4841",
      "outdoor_seating": "no",
      "addr_state": "VT",
      "addr_city": "Middlebury",
      "addr_postcode": "05753",
      "addr_street": "Main Street",
      "addr_housenumber": "65",
      "value": 160.86153038272192
    },
    {
      "id": 139998,
      "geometry": "POINT (-72.792786 43.637345)",
      "poi_name": "Domenic's Pizzeria",
      "osm_id": 6225434687,
      "amenity": "restaurant",
      "cuisine": "pizza",
      "website": "https://www.domenicspizzeria.com/",
      "addr_state": "VT",
      "addr_city": "Killington",
      "addr_postcode": "05751",
      "addr_street": "Killington Road",
      "addr_housenumber": "2822",
      "value": 160.86153038272192
    },
    {
      "id": 142338,
      "geometry": "POINT (-72.55864 42.85308)",
      "poi_name": "Duo Vermont",
      "osm_id": 6311716602,
      "amenity": "restaurant",
      "website": "https://www.duovermont.com/",
      "phone": "+1-802-254-4141",
      "addr_state": "VT",
      "addr_city": "Brattleboro",
      "addr_postcode": "05301",
      "addr_street": "Main Street",
      "addr_housenumber": "136",
      "value": 160.86153038272192
    },
    {
      "id": 146624,
      "geometry": "POINT (-73.207366 42.704)",
      "poi_name": "The Log",
      "osm_id": 7465068213,
      "amenity": "restaurant",
      "addr_state": "MA",
      "addr_city": "Williamstown",
      "addr_postcode": "01267",
      "addr_street": "Spring Street",
      "addr_housenumber": "78",
      "value": 160.86153038272192
    },
    {
      "id": 149040,
      "geometry": "POINT (-71.949741 42.876284)",
      "poi_name": "Twelve Pine",
      "osm_id": 3993674130,
      "amenity": "restaurant",
      "cuisine": "coffee_shop",
      "opening_hours": "Mo-Fr 08:00-19:00; Sa 09:00-17:00; Su 09:00-16:00",
      "takeaway": "yes",
      "delivery": "no",
      "addr_state": "NH",
      "addr_city": "Peterborough",
      "addr_street": "School Street",
      "addr_housenumber": "11",
      "value": 160.86153038272192
    },
    {
      "id": 149069,
      "geometry": "POINT (-71.96175 42.859851)",
      "poi_name": "Kogetsu",
      "osm_id": 3994633258,
      "amenity": "restaurant",
      "cuisine": "asian",
      "addr_state": "NH",
      "addr_city": "Peterborough",
      "addr_street": "Jaffrey Road",
      "addr_housenumber": "50",
      "value": 160.86153038272192
    },
    {
      "id": 149120,
      "geometry": "POINT (-71.95464 42.8682)",
      "poi_name": "Pearl Restaurant & Oyster Bar",
      "osm_id": 3996663319,
      "amenity": "restaurant",
      "cuisine": "regional",
      "opening_hours": "Mo-Th 17:00-21:00; Fr-Sa 17:00-22:00",
      "delivery": "no",
      "addr_state": "NH",
      "addr_city": "Peterborough",
      "addr_street": "Jaffrey Road",
      "addr_housenumber": "1",
      "value": 160.86153038272192
    },
    {
      "id": 149121,
      "geometry": "POINT (-71.954784 42.868078)",
      "poi_name": "Bantam Grill",
      "osm_id": 3996664197,
      "amenity": "restaurant",
      "cuisine": "italian",
      "opening_hours": "Tu-Th 17:00-21:00; Fr-Sa 17:00-22:00; Su 17:00-21:00",
      "addr_state": "NH",
      "addr_city": "Peterborough",
      "addr_street": "Jaffrey Road",
      "addr_housenumber": "1",
      "value": 160.86153038272192
    },
    {
      "id": 149122,
      "geometry": "POINT (-71.954999 42.866359)",
      "poi_name": "Bagel Mill",
      "osm_id": 3996667803,
      "amenity": "restaurant",
      "cuisine": "bagel",
      "opening_hours": "Mo-Fr 06:00-16:00; Sa 06:00-15:00; Su 07:00-13:00",
      "addr_state": "NH",
      "addr_city": "Peterborough",
      "addr_street": "Grove Street",
      "addr_housenumber": "145",
      "value": 160.86153038272192
    },
    {
      "id": 152072,
      "geometry": "POINT (-73.1431 42.698736)",
      "poi_name": "Oriental Buffet",
      "osm_id": 4126944448,
      "amenity": "restaurant",
      "cuisine": "chinese",
      "value": 160.86153038272192
    },
    {
      "id": 157765,
      "geometry": "POINT (-73.204048 42.711405)",
      "poi_name": "Spice Root",
      "osm_id": 4725049028,
      "amenity": "restaurant",
      "cuisine": "indian",
      "description": "Fresh-baked bread, tandoori dishes & more in open dining room, plus student specials & lunch buffet.",
      "value": 160.86153038272192
    },
    {
      "id": 152104,
      "geometry": "POINT (-73.184672 42.702675)",
      "poi_name": "Desperados",
      "osm_id": 4128375504,
      "amenity": "restaurant",
      "cuisine": "mexican",
      "value": 160.86153038272192
    },
    {
      "id": 152122,
      "geometry": "POINT (-73.190216 42.705255)",
      "poi_name": "Gala",
      "osm_id": 4129070634,
      "amenity": "restaurant",
      "value": 160.86153038272192
    },
    {
      "id": 155600,
      "geometry": "POINT (-72.138147 42.780448)",
      "poi_name": "Crossroads Pizza & Subs",
      "osm_id": 4291998282,
      "amenity": "restaurant",
      "cuisine": "pizza",
      "opening_hours": "Mo 15:00-21:00, Tu-Th 11:00-22:00, Fr-Sa 11:00-23:00, Su 11:00-21:00",
      "website": "http://www.crossroadspizzanh.com",
      "capacity": "50",
      "phone": "+1-603-585-7077",
      "takeaway": "yes",
      "delivery": "yes",
      "addr_state": "NH",
      "addr_city": "Fitzwilliam",
      "addr_postcode": "03447",
      "addr_street": "State Route 12",
      "addr_housenumber": "21",
      "value": 160.86153038272192
    },
    {
      "id": 157767,
      "geometry": "POINT (-73.200382 42.70855)",
      "poi_name": "Hot Tomatoes Neapolitan Pizza",
      "osm_id": 4725049032,
      "amenity": "restaurant",
      "cuisine": "pizza",
      "value": 160.86153038272192
    },
    {
      "id": 166156,
      "geometry": "POINT (-73.062648 42.709398)",
      "poi_name": "The Golden Eagle Restaurant",
      "osm_id": 9577303310,
      "amenity": "restaurant",
      "cuisine": "american",
      "website": "https://facebook.com/HairpinTurn",
      "phone": "+1-413-663-9834",
      "addr_state": "MA",
      "addr_city": "Clarksburg",
      "addr_postcode": "01247",
      "addr_street": "Mohawk Trail",
      "addr_housenumber": "1935",
      "value": 160.86153038272192
    },
    {
      "id": 157760,
      "geometry": "POINT (-73.204111 42.711299)",
      "poi_name": "Blue Mango",
      "osm_id": 4725022884,
      "amenity": "restaurant",
      "value": 160.86153038272192
    },
    {
      "id": 161539,
      "geometry": "POINT (-73.050261 43.449905)",
      "poi_name": "Tinmouth Snack Bar",
      "osm_id": 4886337916,
      "amenity": "restaurant",
      "cuisine": "american",
      "value": 160.86153038272192
    },
    {
      "id": 165849,
      "geometry": "POINT (-72.272418 42.906477)",
      "poi_name": "The Flight Deck",
      "osm_id": 9559223536,
      "amenity": "restaurant",
      "value": 160.86153038272192
    },
    {
      "id": 172987,
      "geometry": "POINT (-72.81543 43.228248)",
      "poi_name": "New American Grill",
      "osm_id": 2420761382,
      "amenity": "restaurant",
      "cuisine": "american",
      "website": "http://www.newamericangrill.com/",
      "phone": "+1-802-824-9844",
      "value": 160.86153038272192
    },
    {
      "id": 172988,
      "geometry": "POINT (-72.814396 43.194154)",
      "poi_name": "SoLo Farm & Table",
      "osm_id": 2420779475,
      "amenity": "restaurant",
      "cuisine": "regional",
      "website": "https://www.solofarmandtable.com/",
      "phone": "+1 802-824-6327",
      "addr_state": "VT",
      "addr_city": "South Londonderry",
      "addr_postcode": "05155",
      "addr_street": "Middletown Road",
      "addr_housenumber": "95",
      "value": 160.86153038272192
    },
    {
      "id": 172989,
      "geometry": "POINT (-72.811019 43.228073)",
      "poi_name": "The Garden Cafe",
      "osm_id": 2420785503,
      "amenity": "restaurant",
      "website": "https://www.gardencafeandgallery.com/restaurant/",
      "phone": "+1-802-824-9574",
      "value": 160.86153038272192
    },
    {
      "id": 192148,
      "geometry": "POINT (-73.055781 43.177327)",
      "poi_name": "Up for Breakfast",
      "osm_id": 1424677507,
      "amenity": "restaurant",
      "wheelchair": "no",
      "opening_hours": "Mo 7:00-12:30; Tu-Fr 7:00-12:30; Sa-Su 7:00-13:30",
      "phone": "+1-802-362-4204",
      "toilets": "yes",
      "addr_state": "VT",
      "addr_city": "Manchester Center",
      "addr_postcode": "05255",
      "addr_street": "Main Street",
      "addr_housenumber": "4935",
      "value": 160.86153038272192
    },
    {
      "id": 183316,
      "geometry": "POINT (-72.285785 42.932789)",
      "poi_name": "Cheshire Village Pizza",
      "osm_id": 10925024732,
      "amenity": "restaurant",
      "cuisine": "pizza",
      "opening_hours": "Mo-Sa 11:00-22:00",
      "website": "https://www.cheshirevillagepizza.com/",
      "phone": "+1-603-357-4604",
      "addr_state": "NH",
      "addr_city": "Keene",
      "addr_postcode": "03431",
      "addr_street": "Ashuelot Street",
      "addr_housenumber": "9",
      "value": 160.86153038272192
    },
    {
      "id": 188637,
      "geometry": "POINT (-72.920256 42.960129)",
      "poi_name": "summit lodge",
      "osm_id": 1168860780,
      "amenity": "restaurant",
      "cuisine": "american",
      "value": 160.86153038272192
    },
    {
      "id": 177891,
      "geometry": "POINT (-72.847333 42.909007)",
      "poi_name": "Creemee Stand",
      "osm_id": 2609587864,
      "amenity": "restaurant",
      "cuisine": "ice_cream",
      "value": 160.86153038272192
    },
    {
      "id": 184691,
      "geometry": "POINT (-72.557394 42.851209)",
      "poi_name": "Blue Moose Italian Bistro",
      "osm_id": 7807174016,
      "amenity": "restaurant",
      "cuisine": "italian",
      "value": 160.86153038272192
    },
    {
      "id": 190232,
      "geometry": "POINT (-72.600974 42.588193)",
      "poi_name": "Thai Blue Ginger",
      "osm_id": 1278128809,
      "amenity": "restaurant",
      "cuisine": "thai",
      "opening_hours": "Tu-Su 11:30-21:00",
      "website": "http://www.thaibluegingers.com/",
      "addr_street": "Main Street",
      "addr_housenumber": "298",
      "value": 160.86153038272192
    },
    {
      "id": 193374,
      "geometry": "POINT (-73.199298 42.885975)",
      "poi_name": "Jensen's",
      "osm_id": 1530445183,
      "amenity": "restaurant",
      "cuisine": "american",
      "value": 160.86153038272192
    },
    {
      "id": 193376,
      "geometry": "POINT (-73.176872 43.611772)",
      "poi_name": "Blue Cat Bistro",
      "osm_id": 1530457679,
      "amenity": "restaurant",
      "opening_hours": "Mo-Th 17:00-22:00; Fr,Sa 17:00-23:00",
      "website": "http://www.bluecatcastleton.com",
      "phone": "+1 802 468 2791",
      "addr_state": "VT",
      "addr_city": "Castleton",
      "addr_postcode": "05735",
      "addr_street": "Main Street",
      "addr_housenumber": "575",
      "value": 160.86153038272192
    },
    {
      "id": 193377,
      "geometry": "POINT (-73.176831 43.611677)",
      "poi_name": "Castleton Pizza Place and Deli",
      "osm_id": 1530458706,
      "amenity": "restaurant",
      "cuisine": "pizza",
      "opening_hours": "10:00-22:00; Fr,Sa 10:00-23:00",
      "website": "https://www.castletonpizza.com/",
      "phone": "+1 802 468 2911",
      "addr_state": "VT",
      "addr_city": "Castleton",
      "addr_postcode": "05735",
      "addr_street": "Main Street",
      "addr_housenumber": "575",
      "value": 160.86153038272192
    },
    {
      "id": 193387,
      "geometry": "POINT (-73.191289 43.658107)",
      "poi_name": "The Lakehouse Pub & Grille",
      "osm_id": 1532039019,
      "amenity": "restaurant",
      "cuisine": "american",
      "value": 160.86153038272192
    },
    {
      "id": 194480,
      "geometry": "POINT (-72.276669 42.931722)",
      "poi_name": "Kurama Omakase",
      "osm_id": 10275678541,
      "amenity": "restaurant",
      "website": "https://kuramaomakase.com",
      "phone": "+1-603-355-3888",
      "addr_state": "NH",
      "addr_city": "Keene",
      "addr_postcode": "03431",
      "addr_street": "Cypress Street",
      "addr_housenumber": "14",
      "value": 160.86153038272192
    },
    {
      "id": 193816,
      "geometry": "POINT (-73.204098 42.710331)",
      "poi_name": "Pera Mediterranean Bistro",
      "osm_id": 1563287360,
      "amenity": "restaurant",
      "cuisine": "italian",
      "phone": "+1 413 458 8676",
      "addr_state": "MA",
      "addr_city": "Williamstown",
      "addr_postcode": "01267",
      "addr_street": "Spring Street",
      "addr_housenumber": "60",
      "value": 160.86153038272192
    },
    {
      "id": 193819,
      "geometry": "POINT (-73.110684 42.69589)",
      "poi_name": "Angelina's Subs",
      "osm_id": 1563323698,
      "amenity": "restaurant",
      "cuisine": "sandwich",
      "wheelchair": "limited",
      "phone": "+1 (413) 664-0315",
      "takeaway": "yes",
      "outdoor_seating": "no",
      "delivery": "no",
      "toilets": "yes",
      "addr_postcode": "01247",
      "addr_street": "American Legion Drive",
      "addr_housenumber": "152",
      "value": 160.86153038272192
    },
    {
      "id": 193820,
      "geometry": "POINT (-73.112778 42.698368)",
      "poi_name": "Papa Gino's",
      "osm_id": 1563326021,
      "amenity": "restaurant",
      "cuisine": "pizza",
      "wheelchair": "limited",
      "value": 160.86153038272192
    },
    {
      "id": 193992,
      "geometry": "POINT (-72.968891 43.586308)",
      "poi_name": "Ninety Nine Restaurant & Pub",
      "osm_id": 1575027391,
      "amenity": "restaurant",
      "cuisine": "american",
      "value": 160.86153038272192
    },
    {
      "id": 194116,
      "geometry": "POINT (-73.16863 44.012951)",
      "poi_name": "The Taste of India",
      "osm_id": 1581860900,
      "amenity": "restaurant",
      "cuisine": "indian",
      "opening_hours": "Tu-Su 11:30-14:00,16:30-20:30",
      "website": "https://www.tasteofindiavt.com/",
      "phone": "+1 802-388-4856",
      "takeaway": "yes",
      "outdoor_seating": "no",
      "addr_state": "VT",
      "addr_city": "Middlebury",
      "addr_street": "Bakery Lane",
      "addr_housenumber": "1",
      "value": 160.86153038272192
    },
    {
      "id": 205289,
      "geometry": "POINT (-73.088209 43.798843)",
      "poi_name": "Cafe Provence",
      "osm_id": 7164265272,
      "amenity": "restaurant",
      "value": 160.86153038272192
    },
    {
      "id": 194716,
      "geometry": "POINT (-72.277851 42.934291)",
      "poi_name": "The Phonky Noodle",
      "osm_id": 10281634885,
      "amenity": "restaurant",
      "cuisine": "vietnamese;asian",
      "website": "https://www.phonkynoodle.com",
      "phone": "603-903-0809",
      "addr_state": "NH",
      "addr_city": "Keene",
      "addr_postcode": "03431",
      "addr_street": "Central Square",
      "addr_housenumber": "11",
      "value": 160.86153038272192
    },
    {
      "id": 195526,
      "geometry": "POINT (-72.284965 42.931241)",
      "poi_name": "Little Zoe's Pizza",
      "osm_id": 10310895290,
      "amenity": "restaurant",
      "cuisine": "pizza",
      "website": "https://littlezoes.com/",
      "phone": "+1-603-358-6001",
      "addr_state": "NH",
      "addr_city": "Keene",
      "addr_postcode": "03431",
      "addr_street": "Emerald Street",
      "addr_housenumber": "149",
      "value": 160.86153038272192
    },
    {
      "id": 197855,
      "geometry": "POINT (-73.186827 42.878901)",
      "poi_name": "The Miller's Toll Dinner Club & Lounge",
      "osm_id": 10679403942,
      "amenity": "restaurant",
      "cuisine": "cocktail_bar;tapas;small_plates",
      "opening_hours": "Th 17:00-21:00; Fr-Sa 17:00-22:00",
      "website": "https://millerstoll.space/",
      "phone": "+1 802 681 7963",
      "addr_state": "VT",
      "addr_city": "Bennington",
      "addr_postcode": "05201",
      "addr_street": "Main Street",
      "addr_housenumber": "716",
      "value": 160.86153038272192
    },
    {
      "id": 198265,
      "geometry": "POINT (-73.196372 42.878111)",
      "poi_name": "421 Craft Bar and Kitchen",
      "osm_id": 10695665361,
      "amenity": "restaurant",
      "cuisine": "american;beer;cocktails",
      "opening_hours": "We-Sa 16:00-21:00",
      "website": "https://www.the421craftbar.com/",
      "phone": "+1 802 440 5972",
      "addr_state": "VT",
      "addr_city": "Bennington",
      "addr_postcode": "05201",
      "addr_street": "Main Street",
      "addr_housenumber": "421",
      "value": 160.86153038272192
    },
    {
      "id": 198267,
      "geometry": "POINT (-72.683129 43.395101)",
      "poi_name": "Mr.Darcys",
      "osm_id": 10695760909,
      "amenity": "restaurant",
      "value": 160.86153038272192
    },
    {
      "id": 198268,
      "geometry": "POINT (-72.706143 43.400869)",
      "poi_name": "Du Jour VT",
      "osm_id": 10695768690,
      "amenity": "restaurant",
      "value": 160.86153038272192
    },
    {
      "id": 198270,
      "geometry": "POINT (-72.6813 43.394573)",
      "poi_name": "Sam's Steakhouse",
      "osm_id": 10695800803,
      "amenity": "restaurant",
      "cuisine": "steak_house",
      "value": 160.86153038272192
    },
    {
      "id": 224873,
      "geometry": "POINT (-71.950238 42.875964)",
      "poi_name": "Waterhouse",
      "osm_id": 11102091871,
      "amenity": "restaurant",
      "cuisine": "american",
      "opening_hours": "Su-Th 11:30-20:00, Fr-Sa 11:30-21:00",
      "website": "https://waterhousenh.com/",
      "phone": "+16039244001",
      "addr_state": "NH",
      "addr_city": "Peterborough",
      "addr_postcode": "03458",
      "addr_street": "Depot Street",
      "addr_housenumber": "18",
      "value": 160.86153038272192
    },
    {
      "id": 223498,
      "geometry": "POINT (-71.951359 42.875271)",
      "poi_name": "Thai Cafe",
      "osm_id": 11055417061,
      "amenity": "restaurant",
      "cuisine": "thai",
      "website": "https://www.thaicafe603.com/",
      "value": 160.86153038272192
    },
    {
      "id": 216401,
      "geometry": "POINT (-72.27916 42.93386)",
      "poi_name": "Pour House Pub",
      "osm_id": 9170412774,
      "amenity": "restaurant",
      "cuisine": "american",
      "building": "yes",
      "opening_hours": "12:00-22:00",
      "website": "https://www.facebook.com/KeenePourHouse",
      "phone": "603-313-4869",
      "addr_state": "NH",
      "addr_city": "Keene",
      "addr_postcode": "03431",
      "addr_street": "Central Square",
      "addr_housenumber": "44",
      "value": 160.86153038272192
    },
    {
      "id": 221929,
      "geometry": "POINT (-72.321352 42.949269)",
      "poi_name": "Pizza Down Under",
      "osm_id": 10997681293,
      "amenity": "restaurant",
      "cuisine": "pizza",
      "value": 160.86153038272192
    },
    {
      "id": 224534,
      "geometry": "POINT (-73.113548 42.699928)",
      "poi_name": "Berkshire Blends",
      "osm_id": 11086042063,
      "amenity": "restaurant",
      "cuisine": "juice",
      "phone": "+1-413-412-9798",
      "addr_state": "MA",
      "addr_city": "North Adams",
      "addr_postcode": "01247",
      "addr_street": "Marshall Street",
      "addr_housenumber": "20",
      "value": 160.86153038272192
    },
    {
      "id": 225659,
      "geometry": "POINT (-73.112055 42.699236)",
      "poi_name": "Ramunto's Pizza",
      "osm_id": 11136726008,
      "amenity": "restaurant",
      "cuisine": "pizza",
      "wheelchair": "yes",
      "takeaway": "yes",
      "toilets": "yes",
      "value": 160.86153038272192
    },
    {
      "id": 230232,
      "geometry": "POINT (-72.557948 42.851344)",
      "poi_name": "Flat Street Pub (Restaurant & Bar)",
      "osm_id": 4418910993,
      "amenity": "restaurant",
      "value": 160.86153038272192
    },
    {
      "id": 226431,
      "geometry": "POINT (-73.04332 43.592229)",
      "poi_name": "Sweet Caroline's Restaurant",
      "osm_id": 11159982898,
      "amenity": "restaurant",
      "cuisine": "american",
      "website": "https://www.sweetcarolines.biz/index.html",
      "phone": "+1 802 438 5696",
      "addr_state": "VT",
      "addr_city": "West Rutland",
      "addr_postcode": "05777",
      "addr_street": "Main Street",
      "value": 160.86153038272192
    },
    {
      "id": 230245,
      "geometry": "POINT (-73.016151 43.178301)",
      "poi_name": "Bob's Diner",
      "osm_id": 4418926992,
      "amenity": "restaurant",
      "value": 160.86153038272192
    },
    {
      "id": 230246,
      "geometry": "POINT (-72.978647 43.606789)",
      "poi_name": "Yellow Deli",
      "osm_id": 4418926993,
      "amenity": "restaurant",
      "value": 160.86153038272192
    },
    {
      "id": 230236,
      "geometry": "POINT (-72.558665 42.871886)",
      "poi_name": "Top of the Hill Grill",
      "osm_id": 4418911290,
      "amenity": "restaurant",
      "cuisine": "american",
      "wheelchair": "yes",
      "capacity": "75",
      "takeaway": "yes",
      "outdoor_seating": "yes",
      "delivery": "no",
      "value": 160.86153038272192
    },
    {
      "id": 230237,
      "geometry": "POINT (-72.977428 43.607225)",
      "poi_name": "Table 24",
      "osm_id": 4418911291,
      "amenity": "restaurant",
      "website": "https://www.table24.net/",
      "phone": "+1 802 775 2424",
      "addr_state": "VT",
      "addr_city": "Rutland",
      "addr_postcode": "05701",
      "addr_street": "Wales Street",
      "addr_housenumber": "24",
      "value": 160.86153038272192
    },
    {
      "id": 230239,
      "geometry": "POINT (-72.976811 43.604106)",
      "poi_name": "The Palms",
      "osm_id": 4418911393,
      "amenity": "restaurant",
      "value": 160.86153038272192
    },
    {
      "id": 230241,
      "geometry": "POINT (-72.974889 43.602546)",
      "poi_name": "Gill's Deli",
      "osm_id": 4418925790,
      "amenity": "restaurant",
      "value": 160.86153038272192
    },
    {
      "id": 230242,
      "geometry": "POINT (-72.5579 42.852392)",
      "poi_name": "Amy's Bakery Arts Cafe",
      "osm_id": 4418925791,
      "amenity": "restaurant",
      "value": 160.86153038272192
    },
    {
      "id": 241204,
      "geometry": "POINT (-72.595701 42.618957)",
      "poi_name": "Terrazza Restaurant at CCG",
      "osm_id": 6012820778,
      "amenity": "restaurant",
      "opening_hours": "Mo-Sa 11:00-21:30, Su 11:00-20:00",
      "website": "https://terrazzagreenfield.com/",
      "phone": "+1 413-772-0970",
      "addr_state": "MA",
      "addr_city": "Greenfield",
      "addr_postcode": "01301",
      "addr_street": "Country Club Road",
      "addr_housenumber": "244",
      "value": 160.86153038272192
    },
    {
      "id": 230384,
      "geometry": "POINT (-71.950766 42.868685)",
      "poi_name": "Mi Jalisco",
      "osm_id": 4424414789,
      "amenity": "restaurant",
      "cuisine": "mexican",
      "addr_postcode": "03458",
      "addr_street": "Wilton Road",
      "addr_housenumber": "19",
      "value": 160.86153038272192
    },
    {
      "id": 234602,
      "geometry": "POINT (-73.087451 43.798433)",
      "poi_name": "Li's Chinese",
      "osm_id": 4630063929,
      "amenity": "restaurant",
      "value": 160.86153038272192
    },
    {
      "id": 234603,
      "geometry": "POINT (-73.088822 43.798957)",
      "poi_name": "Brandon House of Pizza",
      "osm_id": 4630091493,
      "amenity": "restaurant",
      "value": 160.86153038272192
    },
    {
      "id": 234606,
      "geometry": "POINT (-73.096416 43.802303)",
      "poi_name": "Subway and Ramunto's Pizza",
      "osm_id": 4630193621,
      "amenity": "restaurant",
      "value": 160.86153038272192
    },
    {
      "id": 231509,
      "geometry": "POINT (-72.27792 42.93275)",
      "poi_name": "Taqueria Odelay",
      "osm_id": 4470458845,
      "amenity": "restaurant",
      "opening_hours": "11:00-21:00",
      "takeaway": "yes",
      "delivery": "no",
      "addr_state": "NH",
      "addr_city": "Keene",
      "addr_postcode": "03431",
      "addr_street": "Main Street",
      "addr_housenumber": "44",
      "value": 160.86153038272192
    },
    {
      "id": 232071,
      "geometry": "POINT (-72.557767 42.851069)",
      "poi_name": "Superfresh! Organic Cafe",
      "osm_id": 4509183228,
      "amenity": "restaurant",
      "value": 160.86153038272192
    },
    {
      "id": 232073,
      "geometry": "POINT (-72.55781 42.852206)",
      "poi_name": "Twin Flames Taqueria",
      "osm_id": 4509183230,
      "amenity": "restaurant",
      "addr_state": "VT",
      "addr_city": "Brattleboro",
      "addr_postcode": "05301",
      "addr_street": "Main Street",
      "addr_housenumber": "97",
      "value": 160.86153038272192
    },
    {
      "id": 237351,
      "geometry": "POINT (-72.621045 42.867565)",
      "poi_name": "Chelsea Royal Diner",
      "osm_id": 5827481679,
      "amenity": "restaurant",
      "description": "Cash and local checks only",
      "website": "http://www.chelsearoyaldiner.com",
      "phone": "+1 208 254 8399",
      "addr_street": "Marlboro Road",
      "addr_housenumber": "487",
      "value": 160.86153038272192
    },
    {
      "id": 244554,
      "geometry": "POINT (-73.11355 42.700028)",
      "poi_name": "Grazie",
      "osm_id": 7729331928,
      "amenity": "restaurant",
      "cuisine": "italian",
      "wheelchair": "limited",
      "addr_state": "MA",
      "addr_city": "North Adams",
      "addr_postcode": "01247",
      "addr_street": "Marshall Street",
      "addr_housenumber": "26",
      "value": 160.86153038272192
    },
    {
      "id": 243606,
      "geometry": "POINT (-72.555451 42.60916)",
      "poi_name": "Shady Glen Diner",
      "osm_id": 7662183267,
      "amenity": "restaurant",
      "value": 160.86153038272192
    },
    {
      "id": 244555,
      "geometry": "POINT (-73.113548 42.699842)",
      "poi_name": "Tres Ni\u00f1os Taqueria",
      "osm_id": 7729331929,
      "amenity": "restaurant",
      "cuisine": "burrito",
      "wheelchair": "yes",
      "phone": "+1-413-346-4000",
      "takeaway": "yes",
      "toilets": "yes",
      "addr_state": "MA",
      "addr_city": "North Adams",
      "addr_postcode": "01247",
      "addr_street": "Marshall Street",
      "addr_housenumber": "20",
      "value": 160.86153038272192
    }
  ],
  "answer_type": "name",
  "question_entities": {
    "[2]": {
      "distance": 170000,
      "text": "170 kilometers"
    },
    "[3]": {
      "main_category": "tourism",
      "sub_category": "gallery",
      "display_name": "Sparrow Art Supply, Middlebury, VT",
      "geo_wkt": "POINT (-73.168916 44.013286)",
      "poi": {
        "id": 12629,
        "geometry": "POINT (-73.168916 44.013286)",
        "poi_name": "Sparrow Art Supply",
        "osm_id": 7415866323,
        "tourism": "gallery",
        "website": "https://sparrow-art-supply.square.site/",
        "addr_state": "VT",
        "addr_city": "Middlebury",
        "addr_postcode": "05753",
        "addr_street": "Main Street",
        "addr_housenumber": "52"
      }
    },
    "[4]": {
      "main_category": "tourism",
      "sub_category": "museum",
      "display_name": "Lawrence Recreation Center;Rutland Historical Society Museum, VT",
      "geo_wkt": "POINT (-72.974829 43.606735)",
      "poi": {
        "id": 16851,
        "geometry": "POINT (-72.974829 43.606735)",
        "poi_name": "Lawrence Recreation Center;Rutland Historical Society Museum",
        "osm_id": 366668142,
        "leisure": "sports_centre",
        "tourism": "museum",
        "website": "https://rutlandhistory.com/",
        "addr_state": "VT"
      }
    },
    "[1]": {
      "main_category": "amenity",
      "sub_category": "restaurant"
    }
  },
  "id": 1698,
  "type": "range:towards+name"
}