{
  "question": "How distant can I find an attraction positioned from Nokomis Naturescape Garden, Minneapolis, MN within 180 kilometers?",
  "sql": "SELECT *, ST_Distance(ST_GeomFromText('POINT (-93.234364 44.913029)',4326)::geography, pois.geometry) AS distance FROM pois\nWHERE ST_DWithin(pois.geometry, ST_GeomFromText('POINT (-93.234364 44.913029)',4326)::geography, 180000)\nAND tourism = 'attraction';\n",
  "answers": [
    {
      "id": 1440,
      "geometry": "POINT (-94.41017 45.096337)",
      "poi_name": "World's Largest Ball of Twine Made By One Man",
      "osm_id": 2986147781,
      "tourism": "attraction",
      "distance": 94911.98461508
    },
    {
      "id": 4523,
      "geometry": "POINT (-91.271578 44.936015)",
      "poi_name": "Skydive Wissota",
      "osm_id": 11291708026,
      "tourism": "attraction",
      "distance": 154979.81662183
    },
    {
      "id": 4759,
      "geometry": "POINT (-93.006488 45.085148)",
      "poi_name": "White Bear Armory",
      "osm_id": 11447815275,
      "tourism": "attraction",
      "distance": 26243.23429524
    },
    {
      "id": 5704,
      "geometry": "POINT (-94.375388 45.580727)",
      "poi_name": "Maple Sugar Shack",
      "osm_id": 886623403,
      "tourism": "attraction",
      "distance": 116320.07974454
    },
    {
      "id": 5705,
      "geometry": "POINT (-94.396938 45.580206)",
      "poi_name": "Saint John's Pottery Studio",
      "osm_id": 887093105,
      "tourism": "attraction",
      "wheelchair": "yes",
      "distance": 117591.62175465
    },
    {
      "id": 8049,
      "geometry": "POINT (-93.600322 44.74781)",
      "poi_name": "Queen's Gate",
      "osm_id": 6536536578,
      "tourism": "attraction",
      "addr_state": "MN",
      "addr_city": "Shakopee",
      "addr_postcode": "55379-8944",
      "addr_street": "Chestnut Boulevard",
      "addr_housenumber": "12364",
      "distance": 34272.55608218
    },
    {
      "id": 8050,
      "geometry": "POINT (-93.598937 44.746547)",
      "poi_name": "King's Gate",
      "osm_id": 6536536583,
      "tourism": "attraction",
      "addr_state": "MN",
      "addr_city": "Shakopee",
      "addr_postcode": "55379-8944",
      "addr_street": "145th Street West",
      "addr_housenumber": "3525",
      "distance": 34255.97756436
    },
    {
      "id": 8412,
      "geometry": "POINT (-93.271852 44.976045)",
      "poi_name": "Crystal Court Water Fountain",
      "osm_id": 6684839170,
      "amenity": "fountain",
      "tourism": "attraction",
      "distance": 7602.3596976
    },
    {
      "id": 9893,
      "geometry": "POINT (-93.598971 44.746512)",
      "poi_name": "Renaissance Festival - Kings Gate",
      "osm_id": 9046527117,
      "tourism": "attraction",
      "distance": 34260.33508652
    },
    {
      "id": 9930,
      "geometry": "POINT (-93.168286 44.98416)",
      "poi_name": "Math On-A-Stick",
      "osm_id": 9066981317,
      "tourism": "attraction",
      "website": "https://talkingmathwithkids.com/mathonastick/",
      "distance": 9469.88501409
    },
    {
      "id": 10828,
      "geometry": "POINT (-93.462417 44.800278)",
      "poi_name": "Thunder Canyon",
      "osm_id": 8068044653,
      "tourism": "attraction",
      "website": "https://www.valleyfair.com/play/rides/thunder-canyon",
      "distance": 21952.99856473
    },
    {
      "id": 10841,
      "geometry": "POINT (-93.460931 44.799638)",
      "poi_name": "Raging Rapids",
      "osm_id": 8079103672,
      "tourism": "attraction",
      "website": "https://www.valleyfair.com/play/soak-city/raging-rapids",
      "distance": 21897.62363591
    },
    {
      "id": 10849,
      "geometry": "POINT (-93.458239 44.799542)",
      "poi_name": "Breakers Plunge",
      "osm_id": 8087360670,
      "tourism": "attraction",
      "website": "https://www.valleyfair.com/play/soak-city/breakers-plunge",
      "distance": 21730.10873911
    },
    {
      "id": 10850,
      "geometry": "POINT (-93.458216 44.799476)",
      "poi_name": "Breakers Pipeline",
      "osm_id": 8087360671,
      "tourism": "attraction",
      "website": "https://www.valleyfair.com/play/soak-city/breakers-pipeline",
      "distance": 21732.99116567
    },
    {
      "id": 10851,
      "geometry": "POINT (-93.460532 44.799396)",
      "poi_name": "Ripple Rapids",
      "osm_id": 8087387136,
      "tourism": "attraction",
      "website": "https://www.valleyfair.com/play/soak-city/ripple-rapids",
      "distance": 21887.33491068
    },
    {
      "id": 11829,
      "geometry": "POINT (-93.160509 44.456101)",
      "poi_name": "Santa's Cottage",
      "osm_id": 11565357401,
      "tourism": "attraction",
      "distance": 51112.81517069
    },
    {
      "id": 12810,
      "geometry": "POINT (-94.110229 45.255422)",
      "poi_name": "Minnesota Pioneer Park",
      "osm_id": 7566829780,
      "tourism": "attraction",
      "phone": "+1-320-274-8489",
      "addr_state": "MN",
      "addr_city": "Annandale",
      "distance": 78759.10348791
    },
    {
      "id": 16924,
      "geometry": "POINT (-94.461744 44.312372)",
      "poi_name": "John Lind House",
      "osm_id": 367066628,
      "tourism": "attraction",
      "building": "yes",
      "opening_hours": "Jun-Aug We-Su 13:00-16:00;Sep-Oct Fr-Su 13:00-16:00;Nov-May \"by appointment only\"",
      "website": "http://lindhouse.org/",
      "phone": "+1-507-354-8802",
      "addr_state": "MN",
      "addr_city": "New Ulm",
      "addr_postcode": "56073",
      "addr_street": "Center Street",
      "addr_housenumber": "622",
      "distance": 118094.45891891
    },
    {
      "id": 16925,
      "geometry": "POINT (-94.465592 44.314196)",
      "poi_name": "Wanda Gag House",
      "osm_id": 367066631,
      "tourism": "attraction",
      "building": "yes",
      "opening_hours": "May 21-Nov 06: Sa 10:00-15:00, Su 11:00-14:00 || \"Tours by appointment\"",
      "operator": "Wanda Gag House Associates",
      "website": "http://www.wandagaghouse.org/",
      "phone": "+1-507-359-2632",
      "wikidata": "Q42915614",
      "addr_state": "MN",
      "addr_city": "New Ulm",
      "addr_postcode": "56073",
      "addr_street": "North Washington Street",
      "addr_housenumber": "226",
      "distance": 118231.12249113
    },
    {
      "id": 22567,
      "geometry": "POINT (-91.6698 44.556693)",
      "poi_name": "Historical Society Museum",
      "osm_id": 7158332571,
      "tourism": "attraction",
      "distance": 130098.63075146
    },
    {
      "id": 20582,
      "geometry": "POINT (-91.388774 44.886403)",
      "poi_name": "POO Corners",
      "osm_id": 230730335,
      "tourism": "attraction",
      "distance": 145799.43317919
    },
    {
      "id": 20901,
      "geometry": "POINT (-92.741493 45.543139)",
      "poi_name": "amphitheater",
      "osm_id": 1306864604,
      "tourism": "attraction",
      "distance": 80012.98888464
    },
    {
      "id": 22621,
      "geometry": "POINT (-93.385358 45.191643)",
      "poi_name": "Pumpkin Roundabout",
      "osm_id": 7178393485,
      "tourism": "attraction",
      "distance": 33169.20559968
    },
    {
      "id": 24288,
      "geometry": "POINT (-91.933138 44.875973)",
      "poi_name": "brewery n\u00f8nic",
      "osm_id": 10996235776,
      "amenity": "pub",
      "historic": "yes",
      "tourism": "attraction",
      "wheelchair": "yes",
      "website": "https://www.brewerynonic.com/",
      "addr_state": "WI",
      "addr_city": "Menomonie",
      "addr_postcode": "54751",
      "addr_street": "4th Street West",
      "addr_housenumber": "621",
      "distance": 102867.00949164
    },
    {
      "id": 24426,
      "geometry": "POINT (-91.72439 44.135581)",
      "poi_name": "Rock In the House",
      "osm_id": 11048744470,
      "tourism": "attraction",
      "addr_state": "WI",
      "addr_city": "Fountain City",
      "addr_postcode": "54629",
      "addr_housenumber": "440",
      "distance": 147889.58720003
    },
    {
      "id": 26268,
      "geometry": "POINT (-94.614676 45.325096)",
      "poi_name": "A maze'n Farmyard",
      "osm_id": 5830334477,
      "tourism": "attraction",
      "opening_hours": "May Mo[-1]-Sep Mo[1] +1 day Mo-Sa 10:00-18:00; May Mo[-1]-Sep Mo[1] Su 12:00-18:00; Sep Mo[1]-Oct 31 Sa 10:00-18:00; Sep Mo[1]-Oct 31 Su 12:00-18:00",
      "phone": "+1-320-453-6901",
      "addr_state": "MN",
      "addr_city": "Eden Valley",
      "addr_street": "State Hwy 55",
      "addr_housenumber": "57645",
      "distance": 117865.47448403
    }
  ],
  "answer_type": "distance",
  "question_entities": {
    "[1]": {
      "main_category": "tourism",
      "sub_category": "attraction"
    },
    "[2]": {
      "distance": 180000,
      "text": "180 kilometers"
    },
    "[3]": {
      "main_category": "leisure",
      "sub_category": "garden",
      "display_name": "Nokomis Naturescape Garden, Minneapolis, MN",
      "geo_wkt": "POINT (-93.234364 44.913029)",
      "poi": {
        "id": 248857,
        "geometry": "POINT (-93.234364 44.913029)",
        "poi_name": "Nokomis Naturescape Garden",
        "osm_id": 4865581364,
        "leisure": "garden",
        "website": "https://www.facebook.com/NokomisNaturescape/?fref=ts",
        "phone": "+1 612 727 3562",
        "addr_state": "MN",
        "addr_city": "Minneapolis",
        "addr_postcode": "55417",
        "addr_street": "East Lake Nokomis Parkway",
        "addr_housenumber": "5000"
      }
    }
  },
  "id": 702,
  "type": "range+distance"
}