{
  "question": "Where can I find a gallery located in the south of Team 1732 Thunderdome, Milwaukee, WI, within a radius of 190 kilometers?",
  "sql": "\nWITH origin AS  (SELECT ST_GeomFromText('POINT (-87.940945 43.036777)',4326)::geography AS geometry)\nSELECT * FROM pois, origin\nWHERE ST_DWithin(pois.geometry, ST_GeomFromText('POINT (-87.940945 43.036777)',4326)::geography, 190000)\nAND tourism = 'gallery'\nAND degrees(ST_Azimuth(origin.geometry, pois.geometry)) BETWEEN 157.5 AND 202.5;\n",
  "answers": [
    {
      "id": 9001,
      "geometry": "POINT (-87.940945 43.036777)",
      "poi_name": "Alley Gallery",
      "osm_id": 3622594674,
      "tourism": "gallery",
      "website": "https://thealleygallery.com/",
      "addr_city": "Evanston",
      "addr_postcode": "60201",
      "addr_street": "Sherman Avenue",
      "addr_housenumber": "1712 "
    },
    {
      "id": 10026,
      "geometry": "POINT (-87.940945 43.036777)",
      "poi_name": "South Asia Institute",
      "osm_id": 9111624405,
      "tourism": "gallery",
      "opening_hours": "Th-Sa 11:00-18:00 || \"by appointment\"",
      "website": "https://www.saichicago.org/",
      "addr_state": "IL",
      "addr_city": "Chicago",
      "addr_postcode": "60616",
      "addr_street": "S Michigan Ave",
      "addr_housenumber": "1925"
    },
    {
      "id": 10474,
      "geometry": "POINT (-87.940945 43.036777)",
      "poi_name": "All Star Press",
      "osm_id": 6872477634,
      "tourism": "gallery",
      "addr_state": "IL",
      "addr_city": "Chicago",
      "addr_postcode": "60647",
      "addr_street": "North Milwaukee Avenue",
      "addr_housenumber": "2775"
    },
    {
      "id": 12085,
      "geometry": "POINT (-87.940945 43.036777)",
      "poi_name": "Expo 72",
      "osm_id": 6179056467,
      "tourism": "gallery",
      "fee": "no",
      "opening_hours": "24/7",
      "operator": "Chicago Department of Cultural Affairs and Special Events (DCASE)",
      "addr_state": "IL",
      "addr_city": "Chicago",
      "addr_postcode": "60601",
      "addr_street": "East Randolph Street",
      "addr_housenumber": "72"
    },
    {
      "id": 13176,
      "geometry": "POINT (-87.940945 43.036777)",
      "poi_name": "Jake Wittrock Art Gallery",
      "osm_id": 4072641130,
      "tourism": "gallery",
      "operator": "Jake Wittrock",
      "website": "https://jakewittrock.com/",
      "artwork_type": "painting",
      "addr_city": "Chicago",
      "addr_postcode": "60613"
    },
    {
      "id": 26152,
      "geometry": "POINT (-87.940945 43.036777)",
      "poi_name": "345 Gallery",
      "osm_id": 5794649453,
      "tourism": "gallery",
      "website": "https://www.345artgallery.com",
      "phone": "+1-872-444-5544",
      "addr_state": "IL",
      "addr_city": "Chicago",
      "addr_postcode": "60624",
      "addr_street": "North Kedzie Avenue",
      "addr_housenumber": "345"
    },
    {
      "id": 2892,
      "geometry": "POINT (-87.940945 43.036777)",
      "poi_name": "Patron Gallery",
      "osm_id": 10067042360,
      "tourism": "gallery",
      "opening_hours": "Tu-Sa 11:00-18:00",
      "website": "https://patrongallery.com/",
      "phone": "+1 312-846-1500",
      "addr_state": "IL",
      "addr_city": "Chicago",
      "addr_postcode": "60622",
      "addr_street": "West Chicago Avenue",
      "addr_housenumber": "1612"
    },
    {
      "id": 3005,
      "geometry": "POINT (-87.940945 43.036777)",
      "poi_name": "Lemin Street Gallery",
      "osm_id": 10126887495,
      "tourism": "gallery",
      "opening_hours": "Th,Fr,Sa 11:00-17:00, Su 11:00-16:00",
      "phone": "262-605-4745",
      "addr_state": "WI",
      "addr_city": "Kenosha",
      "addr_postcode": "53140",
      "addr_street": "Sheridan Road",
      "addr_housenumber": "4601"
    },
    {
      "id": 9639,
      "geometry": "POINT (-87.940945 43.036777)",
      "poi_name": "The Martin - Gallery + Event Space",
      "osm_id": 8902331412,
      "tourism": "gallery",
      "operator": "Whitney LaMora",
      "addr_state": "IL",
      "addr_city": "Chicago",
      "addr_postcode": "60622",
      "addr_street": "West Chicago Avenue",
      "addr_housenumber": "2500"
    },
    {
      "id": 9649,
      "geometry": "POINT (-87.940945 43.036777)",
      "poi_name": "Corbett vs. Dempsey",
      "osm_id": 8910095375,
      "tourism": "gallery",
      "opening_hours": "Tu-Sa 10:00-17:00",
      "website": "https://www.corbettvsdempsey.com/",
      "phone": "+1-773-278-1664",
      "addr_state": "IL",
      "addr_city": "Chicago",
      "addr_postcode": "60612",
      "addr_street": "West Fulton Street",
      "addr_housenumber": "2156"
    },
    {
      "id": 10295,
      "geometry": "POINT (-87.940945 43.036777)",
      "poi_name": "Rhona Hoffman Gallery",
      "osm_id": 6776086443,
      "tourism": "gallery",
      "wheelchair": "yes",
      "website": "https://www.rhoffmangallery.com/",
      "phone": "+1 312-455-1990",
      "addr_state": "IL",
      "addr_city": "Chicago",
      "addr_postcode": "60622",
      "addr_street": "West Chicago Avenue",
      "addr_housenumber": "1711"
    },
    {
      "id": 11983,
      "geometry": "POINT (-87.940945 43.036777)",
      "poi_name": "Prospectus Art Gallery",
      "osm_id": 6125250112,
      "tourism": "gallery",
      "phone": "+1 312-733-6132",
      "addr_state": "IL",
      "addr_city": "Chicago",
      "addr_postcode": "60608",
      "addr_street": "West 18th Street",
      "addr_housenumber": "1210"
    },
    {
      "id": 12389,
      "geometry": "POINT (-87.940945 43.036777)",
      "poi_name": "Gallery Guichard",
      "osm_id": 6332297187,
      "tourism": "gallery",
      "website": "https://www.galleryguichard.com",
      "phone": "+1-(773) 791-7003",
      "addr_state": "IL",
      "addr_city": "Chicago",
      "addr_postcode": "60615",
      "addr_street": "East 47th Street",
      "addr_housenumber": "436"
    },
    {
      "id": 12625,
      "geometry": "POINT (-87.940945 43.036777)",
      "poi_name": "Union Street Gallery",
      "osm_id": 7405079918,
      "tourism": "gallery",
      "website": "https://www.unionstreetgallery.org/",
      "addr_state": "IL",
      "addr_city": "Chicago Heights",
      "addr_postcode": "60411",
      "addr_street": "Otto Boulevard",
      "addr_housenumber": "1527"
    },
    {
      "id": 18422,
      "geometry": "POINT (-87.940945 43.036777)",
      "poi_name": "Perspective Group and Photography Gallery",
      "osm_id": 2295218499,
      "tourism": "gallery",
      "addr_city": "Evanston",
      "addr_postcode": "60201",
      "addr_street": "Chicago Avenue",
      "addr_housenumber": "1310"
    },
    {
      "id": 18423,
      "geometry": "POINT (-87.940945 43.036777)",
      "poi_name": "Folkworks Gallery",
      "osm_id": 2295218503,
      "tourism": "gallery",
      "addr_city": "Evanston",
      "addr_postcode": "60201",
      "addr_street": "Chicago Avenue",
      "addr_housenumber": "1310"
    },
    {
      "id": 18424,
      "geometry": "POINT (-87.940945 43.036777)",
      "poi_name": "The Galleria in Evanston",
      "osm_id": 2295226297,
      "tourism": "gallery",
      "addr_state": "IL",
      "addr_city": "Evanston",
      "addr_postcode": "60201",
      "addr_street": "Sherman Avenue",
      "addr_housenumber": "1627"
    },
    {
      "id": 21489,
      "geometry": "POINT (-87.940945 43.036777)",
      "poi_name": "Illinois State Museum-Lockport Gallery",
      "osm_id": 10284056341,
      "tourism": "gallery",
      "operator": "Illinois State Museum",
      "website": "https://illinoisstatemuseum.org/content/welcome-ism-lockport-gallery",
      "addr_state": "IL",
      "addr_city": "Lockport",
      "addr_postcode": "60441",
      "addr_street": "West 10th Street",
      "addr_housenumber": "201"
    },
    {
      "id": 22502,
      "geometry": "POINT (-87.940945 43.036777)",
      "poi_name": "Young Chicago Authors",
      "osm_id": 7118225610,
      "tourism": "gallery",
      "website": "https://youngchicagoauthors.org",
      "addr_state": "IL",
      "addr_city": "Chicago",
      "addr_postcode": "60642",
      "addr_street": "North Milwaukee Avenue",
      "addr_housenumber": "1180"
    }
  ],
  "answer_type": "loc",
  "question_entities": {
    "[1]": {
      "main_category": "tourism",
      "sub_category": "gallery"
    },
    "[2]": {
      "distance": 190000,
      "text": "190 kilometers"
    },
    "[3]": {
      "main_category": "leisure",
      "sub_category": "stadium",
      "display_name": "Team 1732 Thunderdome, Milwaukee, WI",
      "geo_wkt": "POINT (-87.940945 43.036777)",
      "poi": {
        "id": 266349,
        "geometry": "POINT (-87.940945 43.036777)",
        "poi_name": "Team 1732 Thunderdome",
        "osm_id": 7209590118,
        "leisure": "stadium",
        "operator": "Hilltopper Robotics Team 1732",
        "addr_state": "WI",
        "addr_city": "Milwaukee",
        "addr_postcode": "53233",
        "addr_street": "West Michigan Street",
        "addr_housenumber": "2203"
      }
    },
    "[4]": {
      "direction_desc": "south",
      "direction_predicate": "degrees(ST_Azimuth(origin.geometry, pois.geometry)) BETWEEN 157.5 AND 202.5"
    }
  },
  "id": 66,
  "type": "range:direction+loc"
}