{
  "question": "Where can I find restaurant heading towards Joppa Hill Farm, Bedford, NH from Radcliffe Institute for Advanced Studies, MA, within a radius of 120 kilometers?",
  "sql": "WITH\n    angle AS (SELECT degrees(ST_Azimuth(ST_GeomFromText('POINT (-71.122317 42.376159)',4326)::geography, ST_GeomFromText('POINT (-71.575992 42.931889)',4326)::geography)) AS value)\nSELECT * FROM pois,angle\nWHERE amenity = 'restaurant'\nAND ST_DWithin(pois.geometry, ST_GeomFromText('POINT (-71.122317 42.376159)',4326)::geography, 120000)\nAND (degrees(ST_Azimuth(ST_GeomFromText('POINT (-71.122317 42.376159)',4326)::geography, pois.geometry)) BETWEEN angle.value - 22.5 AND angle.value + 22.5);\n",
  "answers": [
    {
      "id": 27565,
      "geometry": "POINT (-71.15191 42.414766)",
      "poi_name": "Noodle Market",
      "osm_id": 433558247,
      "amenity": "restaurant",
      "cuisine": "thai;vietnamese",
      "opening_hours": "We-Mo 11:30-21:30",
      "takeaway": "yes",
      "addr_state": "MA",
      "addr_city": "Arlington",
      "addr_postcode": "02474",
      "addr_street": "Massachusetts Avenue",
      "addr_housenumber": "470-472",
      "value": 329.0808668536776
    },
    {
      "id": 27566,
      "geometry": "POINT (-71.148519 42.411319)",
      "poi_name": "Makalu Nepali & Indian Cuisine",
      "osm_id": 433561048,
      "amenity": "restaurant",
      "cuisine": "indian;nepalese",
      "opening_hours": "We-Mo 11:30-21:00",
      "website": "https://www.makalucusine.com/",
      "phone": "+1-781-316-0051",
      "takeaway": "yes",
      "addr_state": "MA",
      "addr_city": "Arlington",
      "addr_street": "Massachusetts Avenue",
      "addr_housenumber": "352",
      "value": 329.0808668536776
    },
    {
      "id": 27858,
      "geometry": "POINT (-71.154504 42.416074)",
      "poi_name": "Pasha",
      "osm_id": 454850422,
      "amenity": "restaurant",
      "cuisine": "turkish",
      "addr_state": "MA",
      "addr_city": "Arlington",
      "addr_postcode": "02476",
      "addr_street": "Massachusetts Avenue",
      "addr_housenumber": "669",
      "value": 329.0808668536776
    },
    {
      "id": 27859,
      "geometry": "POINT (-71.144017 42.406883)",
      "poi_name": "Venice Italian Kitchen",
      "osm_id": 454877046,
      "amenity": "restaurant",
      "cuisine": "italian",
      "opening_hours": "Mo-Fr 10:30-21:30; Sa-Su 11:00-21:30",
      "website": "http://luigisitaliankitchen.com/",
      "phone": "+1-781-777-1719",
      "delivery": "yes",
      "addr_state": "MA",
      "addr_city": "Arlington",
      "addr_postcode": "02474",
      "addr_street": "Massachusetts Avenue",
      "addr_housenumber": "242",
      "value": 329.0808668536776
    },
    {
      "id": 27881,
      "geometry": "POINT (-71.150996 42.415127)",
      "poi_name": "Lucky Dragon",
      "osm_id": 456718606,
      "amenity": "restaurant",
      "cuisine": "chinese",
      "opening_hours": "Mo,We,Th 11:30-23:30; Fr-Sa 11:30-24:00",
      "website": "https://www.luckydragonarlingtonma.com",
      "phone": "+1 (781) 648-8828",
      "addr_state": "MA",
      "addr_city": "Arlington",
      "addr_postcode": "02474",
      "addr_street": "Medford Street",
      "addr_housenumber": "14",
      "value": 329.0808668536776
    },
    {
      "id": 28148,
      "geometry": "POINT (-71.130894 42.405761)",
      "poi_name": "Guru The Caterer",
      "osm_id": 470526078,
      "amenity": "restaurant",
      "cuisine": "indian",
      "website": "https://www.guruthecaterer.com/",
      "phone": "+1-617-718-0078",
      "takeaway": "yes",
      "delivery": "yes",
      "addr_state": "MA",
      "addr_city": "Somerville",
      "addr_street": "Broadway",
      "addr_housenumber": "1297",
      "value": 329.0808668536776
    },
    {
      "id": 33379,
      "geometry": "POINT (-71.208065 42.691887)",
      "poi_name": "Le Ch\u00e2teau",
      "osm_id": 2663932733,
      "amenity": "restaurant",
      "cuisine": "italian",
      "addr_state": "MA",
      "value": 329.0808668536776
    },
    {
      "id": 34941,
      "geometry": "POINT (-71.359021 42.626097)",
      "poi_name": "Pho 88",
      "osm_id": 2707214152,
      "amenity": "restaurant",
      "cuisine": "vietnamese",
      "website": "https://www.pho88online.net/",
      "phone": "+1 978-452-7300",
      "addr_city": "Chelmsford",
      "addr_street": "Westford Street",
      "addr_housenumber": "1270",
      "value": 329.0808668536776
    },
    {
      "id": 27605,
      "geometry": "POINT (-71.152105 42.415236)",
      "poi_name": "Punjab",
      "osm_id": 439211373,
      "amenity": "restaurant",
      "cuisine": "indian",
      "opening_hours": "Mo-Su 11:00-22:00",
      "addr_state": "MA",
      "addr_city": "Arlington",
      "addr_postcode": "02474",
      "addr_street": "Massachusetts Avenue",
      "addr_housenumber": "485",
      "value": 329.0808668536776
    },
    {
      "id": 28058,
      "geometry": "POINT (-71.150585 42.414566)",
      "poi_name": "Donut Villa Brunch & Bar",
      "osm_id": 463156774,
      "amenity": "restaurant",
      "cuisine": "brunch;donut",
      "opening_hours": "Mo-Th 08:00-23:00; Fr,Sa 08:00-24:00; Su 08:00-22:00",
      "website": "https://www.donutvilladiner.com/",
      "addr_state": "MA",
      "addr_city": "Arlington",
      "addr_postcode": "02474",
      "addr_street": "Broadway",
      "addr_housenumber": "319",
      "value": 329.0808668536776
    },
    {
      "id": 28059,
      "geometry": "POINT (-71.150292 42.414436)",
      "poi_name": "Fusion Taste",
      "osm_id": 463157240,
      "amenity": "restaurant",
      "cuisine": "chinese",
      "addr_state": "MA",
      "addr_city": "Arlington",
      "addr_postcode": "02474",
      "addr_street": "Broadway Terrace",
      "addr_housenumber": "303",
      "value": 329.0808668536776
    },
    {
      "id": 28060,
      "geometry": "POINT (-71.151132 42.414297)",
      "poi_name": "Zomsa",
      "osm_id": 463157807,
      "amenity": "restaurant",
      "cuisine": "nepali",
      "addr_state": "MA",
      "addr_city": "Arlington",
      "addr_postcode": "02474",
      "addr_street": "Massachusetts Avenue",
      "addr_housenumber": "434",
      "value": 329.0808668536776
    },
    {
      "id": 28062,
      "geometry": "POINT (-71.141104 42.405076)",
      "poi_name": "Boonnoon Market",
      "osm_id": 463165773,
      "amenity": "restaurant",
      "cuisine": "thai",
      "takeaway": "yes",
      "outdoor_seating": "yes",
      "addr_state": "MA",
      "addr_city": "Arlington",
      "addr_postcode": "02474",
      "addr_street": "Massachusetts Avenue",
      "addr_housenumber": "161",
      "value": 329.0808668536776
    },
    {
      "id": 28064,
      "geometry": "POINT (-71.142542 42.405774)",
      "poi_name": "OTTO",
      "osm_id": 463166248,
      "amenity": "restaurant",
      "cuisine": "pizza",
      "opening_hours": "Su-Th 11:00-21:00; Fr,Sa 11:00-22:00",
      "operator": "OTTO",
      "takeaway": "yes",
      "addr_state": "MA",
      "addr_city": "Arlington",
      "addr_postcode": "02474",
      "addr_street": "Massachusetts Avenue",
      "addr_housenumber": "202",
      "value": 329.0808668536776
    },
    {
      "id": 28085,
      "geometry": "POINT (-71.15532 42.41622)",
      "poi_name": "Mr Sushi",
      "osm_id": 464796838,
      "amenity": "restaurant",
      "cuisine": "sushi",
      "opening_hours": "Mo-Su 11:30-20:15",
      "website": "http://mrsushima.com",
      "phone": "+1-781-643-4175",
      "addr_state": "MA",
      "addr_city": "Arlington",
      "addr_postcode": "02474",
      "addr_street": "Massachusetts Avenue",
      "addr_housenumber": "693",
      "value": 329.0808668536776
    },
    {
      "id": 33425,
      "geometry": "POINT (-71.312332 42.644737)",
      "poi_name": "Athenian Corner",
      "osm_id": 2666884852,
      "amenity": "restaurant",
      "cuisine": "greek",
      "website": "https://www.atheniancorner.com/",
      "phone": "+1 978 458 7052",
      "addr_city": "Lowell",
      "addr_postcode": "01852",
      "addr_street": "Market Street",
      "addr_housenumber": "207",
      "value": 329.0808668536776
    },
    {
      "id": 37847,
      "geometry": "POINT (-71.517091 42.780653)",
      "poi_name": "Midfield Cafe",
      "osm_id": 2833952626,
      "amenity": "restaurant",
      "cuisine": "american",
      "opening_hours": "Mo-Su 07:00-14:00",
      "website": "http://www.midfieldcafe.com/",
      "phone": "+1 603 5940930",
      "addr_city": "Nashua",
      "addr_postcode": "03063",
      "addr_street": "Perimeter Road",
      "addr_housenumber": "83",
      "value": 329.0808668536776
    },
    {
      "id": 35968,
      "geometry": "POINT (-71.317903 42.622273)",
      "poi_name": "China Buffet",
      "osm_id": 2741424021,
      "amenity": "restaurant",
      "cuisine": "chinese",
      "website": "https://www.chinabuffetma.com/",
      "phone": "+1 978-937-8868",
      "addr_city": "Lowell",
      "addr_postcode": "01852",
      "addr_street": "Plain Street",
      "addr_housenumber": "205",
      "value": 329.0808668536776
    },
    {
      "id": 35969,
      "geometry": "POINT (-71.317926 42.622205)",
      "poi_name": "Chuck E. Cheese",
      "osm_id": 2741424026,
      "amenity": "restaurant",
      "cuisine": "pizza",
      "leisure": "amusement_arcade",
      "website": "https://locations.chuckecheese.com/us/ma/lowell/199-plain-st.",
      "phone": "+1 978-970-3636",
      "addr_city": "Lowell",
      "addr_postcode": "01852",
      "addr_street": "Plain Street",
      "addr_housenumber": "209",
      "value": 329.0808668536776
    },
    {
      "id": 35970,
      "geometry": "POINT (-71.221349 42.598854)",
      "poi_name": "Kyoto Japanese Steak House",
      "osm_id": 2741424031,
      "amenity": "restaurant",
      "cuisine": "japanese",
      "website": "http://www.kyototewksbury.com/",
      "phone": "+1 978-863-9889",
      "addr_city": "Tewksbury",
      "addr_postcode": "01876",
      "addr_street": "Main Street",
      "addr_housenumber": "1487",
      "value": 329.0808668536776
    },
    {
      "id": 36151,
      "geometry": "POINT (-71.423302 42.567527)",
      "poi_name": "Classic Kitchen Cafe",
      "osm_id": 2752689397,
      "amenity": "restaurant",
      "cuisine": "diner",
      "website": "https://theclassickitchencafe.com/",
      "phone": "(978) 303-8427",
      "delivery": "no",
      "addr_state": "MA",
      "addr_city": "Westford",
      "addr_postcode": "01886",
      "addr_street": "Littleton Road",
      "addr_housenumber": "175",
      "value": 329.0808668536776
    },
    {
      "id": 36541,
      "geometry": "POINT (-71.427747 42.564931)",
      "poi_name": "The Okipoke",
      "osm_id": 2768664453,
      "amenity": "restaurant",
      "cuisine": "asian",
      "opening_hours": "Mo-Th 11:00-21:00; Fr-Sa 11:00-22:00; Su 11:00-21:00",
      "website": "http://www.theokipokewestford.com/",
      "takeaway": "yes",
      "addr_state": "MA",
      "addr_city": "Westford",
      "addr_postcode": "01886",
      "addr_street": "Cornerstone Square",
      "addr_housenumber": "8",
      "value": 329.0808668536776
    },
    {
      "id": 44500,
      "geometry": "POINT (-71.151716 42.478517)",
      "poi_name": "Peppercorn House Restaurant",
      "osm_id": 3161144396,
      "amenity": "restaurant",
      "cuisine": "asian",
      "opening_hours": "Mo-Th 11:30-21:45; Fr-Sa 11:30-22:45; Su 12:00-21:45",
      "website": "https://peppercornhouserestaurant.com",
      "phone": "+1-781-933-6699",
      "outdoor_seating": "no",
      "addr_city": "Woburn",
      "addr_postcode": "01801",
      "addr_street": "Main Street",
      "addr_housenumber": "318",
      "value": 329.0808668536776
    },
    {
      "id": 43087,
      "geometry": "POINT (-71.129735 42.396701)",
      "poi_name": "Umami",
      "osm_id": 3093455925,
      "amenity": "restaurant",
      "cuisine": "japanese;omakase",
      "opening_hours": "Mo off; Tu-Su 17:30-22:00",
      "website": "https://www.umamiomakase.com/",
      "phone": "+1-617-868-2121",
      "toilets": "yes",
      "addr_state": "MA",
      "addr_city": "Cambridge",
      "addr_postcode": "02140",
      "addr_street": "Massachusetts Avenue",
      "addr_housenumber": "2372",
      "value": 329.0808668536776
    },
    {
      "id": 43088,
      "geometry": "POINT (-71.129875 42.396814)",
      "poi_name": "Qingdao Garden",
      "osm_id": 3093455926,
      "amenity": "restaurant",
      "cuisine": "chinese",
      "website": "http://www.qingdaogarden.com/",
      "phone": "+1 617 4927540",
      "addr_state": "MA",
      "addr_city": "Cambridge",
      "addr_postcode": "02140",
      "addr_street": "Massachusetts Avenue",
      "addr_housenumber": "2382",
      "value": 329.0808668536776
    },
    {
      "id": 48540,
      "geometry": "POINT (-71.212351 42.48622)",
      "poi_name": "bgood",
      "osm_id": 3387058394,
      "amenity": "restaurant",
      "cuisine": "fast_food",
      "website": "https://bgood.com/burlington/",
      "addr_state": "MA",
      "addr_city": "Burlington",
      "addr_postcode": "01803",
      "addr_street": "Burlington Mall Road",
      "addr_housenumber": "82",
      "value": 329.0808668536776
    },
    {
      "id": 48541,
      "geometry": "POINT (-71.212435 42.486195)",
      "poi_name": "Clover",
      "osm_id": 3387058395,
      "amenity": "restaurant",
      "addr_state": "MA",
      "addr_city": "Burlington",
      "addr_postcode": "01803",
      "addr_street": "Burlington Mall Road",
      "addr_housenumber": "100",
      "value": 329.0808668536776
    },
    {
      "id": 48542,
      "geometry": "POINT (-71.212601 42.486124)",
      "poi_name": "Burli Yo",
      "osm_id": 3387058397,
      "amenity": "restaurant",
      "shop": "yes",
      "addr_state": "MA",
      "addr_city": "Burlington",
      "addr_postcode": "01803",
      "addr_street": "Burlington Mall Road",
      "value": 329.0808668536776
    },
    {
      "id": 50697,
      "geometry": "POINT (-71.141447 42.404898)",
      "poi_name": "Zhu",
      "osm_id": 3499703019,
      "amenity": "restaurant",
      "cuisine": "asian",
      "opening_hours": "Mo-Th 11:30-22:00; Fr 11:30-23:00; Sa 12:00-23:00; Su 12:00-22:00",
      "website": "http://zhuvegan.com/",
      "takeaway": "yes",
      "addr_state": "MA",
      "addr_city": "Arlington",
      "addr_postcode": "02474",
      "addr_street": "Massachusetts Avenue",
      "addr_housenumber": "166",
      "value": 329.0808668536776
    },
    {
      "id": 54527,
      "geometry": "POINT (-71.141634 42.461696)",
      "poi_name": "Andrea's Pizza",
      "osm_id": 10138392689,
      "amenity": "restaurant",
      "cuisine": "pizza",
      "phone": "+1-781-729-6541",
      "takeaway": "yes",
      "addr_state": "MA",
      "addr_city": "Winchester",
      "addr_postcode": "01890",
      "addr_street": "Main Street",
      "addr_housenumber": "883",
      "value": 329.0808668536776
    },
    {
      "id": 51141,
      "geometry": "POINT (-71.47864 43.325063)",
      "poi_name": "Brookside Pizza I",
      "osm_id": 513514872,
      "amenity": "restaurant",
      "cuisine": "pizza",
      "opening_hours": "Tu-Sa 11:00-20:00; Su-Mo off",
      "website": "https://www.brooksidepizza.com/index.php",
      "phone": "+1-603-783-4550",
      "addr_state": "NH",
      "addr_city": "Loudon",
      "addr_postcode": "03307",
      "addr_street": "State Route 106 North",
      "addr_housenumber": "563",
      "value": 329.0808668536776
    },
    {
      "id": 53996,
      "geometry": "POINT (-71.166651 42.461631)",
      "poi_name": "Sogno",
      "osm_id": 10110406888,
      "amenity": "restaurant",
      "cuisine": "italian",
      "opening_hours": "Su,We-Th 17:00-21:30; Fr-Sa 17:00-22:30",
      "website": "https://sognoitalian.com/",
      "phone": "+1-781-625-1300",
      "addr_state": "MA",
      "addr_city": "Woburn",
      "addr_postcode": "01801",
      "addr_street": "Cambridge Road",
      "addr_housenumber": "304",
      "value": 329.0808668536776
    },
    {
      "id": 52497,
      "geometry": "POINT (-71.467082 43.239516)",
      "poi_name": "Makris Lobster & Steak House",
      "osm_id": 96264410,
      "amenity": "restaurant",
      "cuisine": "seafood",
      "opening_hours": "Tu-Th 11:00-20:00; Fr-Sa 11:00-21:00",
      "website": "https://www.eatalobster.com/",
      "addr_state": "NH",
      "addr_city": "Concord",
      "addr_postcode": "03301",
      "addr_street": "Sheep Davis Road",
      "addr_housenumber": "354",
      "value": 329.0808668536776
    },
    {
      "id": 58062,
      "geometry": "POINT (-71.15102 42.415108)",
      "poi_name": "La Victoria's Taqueria",
      "osm_id": 5362393825,
      "amenity": "restaurant",
      "cuisine": "mexican",
      "description": "Small authentic Mexican restaurant",
      "opening_hours": "Mo-Sa 11:00-21:00; Su 11:00-20:00",
      "website": "https://www.victoriataqueria.com/",
      "phone": "+1 781 859 5503",
      "addr_state": "MA",
      "addr_city": "Arlington",
      "addr_street": "Medford Street",
      "addr_housenumber": "12",
      "value": 329.0808668536776
    },
    {
      "id": 64045,
      "geometry": "POINT (-71.418497 42.569163)",
      "poi_name": "Seoul Kitchen",
      "osm_id": 5639845936,
      "amenity": "restaurant",
      "cuisine": "korean",
      "opening_hours": "Tu-Th 11:30-21:30; Fr-Sa 11:30-22:00; Su 12:00-21:00",
      "website": "https://www.eatseoulkitchen.com",
      "takeaway": "yes",
      "outdoor_seating": "yes",
      "addr_state": "MA",
      "addr_city": "Westford",
      "addr_postcode": "01886",
      "addr_street": "Littleton Road",
      "addr_housenumber": "142",
      "value": 329.0808668536776
    },
    {
      "id": 59365,
      "geometry": "POINT (-71.212046 42.486353)",
      "poi_name": "SlowBones BBQ",
      "osm_id": 5421425854,
      "amenity": "restaurant",
      "cuisine": "sandwich",
      "website": "http://slowbonesbbq.com/",
      "addr_city": "Burlington",
      "addr_postcode": "01803",
      "addr_street": "Burlington Mall Road",
      "addr_housenumber": "80",
      "value": 329.0808668536776
    },
    {
      "id": 74656,
      "geometry": "POINT (-71.53116 43.194638)",
      "poi_name": "Smokeshow Barbeque",
      "osm_id": 9690919824,
      "amenity": "restaurant",
      "cuisine": "barbecue",
      "opening_hours": "Tu-Su 11:00-20:00",
      "website": "https://smokeshowbbq.com/",
      "phone": "+1-603-227-6399",
      "addr_state": "NH",
      "addr_city": "Concord",
      "addr_postcode": "03301",
      "addr_street": "South Main Street",
      "addr_housenumber": "231",
      "value": 329.0808668536776
    },
    {
      "id": 73363,
      "geometry": "POINT (-71.46282 42.974831)",
      "poi_name": "Mangia",
      "osm_id": 9629387440,
      "amenity": "restaurant",
      "cuisine": "italian",
      "building": "yes",
      "website": "https://www.gomangia.com/",
      "addr_city": "Manchester",
      "addr_postcode": "03101",
      "addr_street": "Elm Street",
      "addr_housenumber": "33A",
      "value": 329.0808668536776
    },
    {
      "id": 73965,
      "geometry": "POINT (-71.433108 43.040214)",
      "poi_name": "Block Party Social",
      "osm_id": 9659758110,
      "amenity": "restaurant",
      "cuisine": "american",
      "building": "yes",
      "opening_hours": "Su-Th 10:00-22:00; Fr-Sa 10:00-24:00",
      "website": "https://blockpartysocial.com/",
      "phone": "+1-603-621-5150",
      "addr_state": "NH",
      "addr_city": "Hooksett",
      "addr_postcode": "03106",
      "addr_street": "Zapora Drive",
      "addr_housenumber": "51",
      "value": 329.0808668536776
    },
    {
      "id": 68360,
      "geometry": "POINT (-71.894169 43.11492)",
      "poi_name": "Tooky Mills Pub & Restaurant",
      "osm_id": 11267155619,
      "amenity": "restaurant",
      "cuisine": "american;burger;salad;sandwich",
      "website": "https://tookymillspub.com/",
      "phone": "+1-603-464-6700",
      "addr_state": "NH",
      "addr_city": "Hillsborough",
      "addr_postcode": "03244",
      "addr_street": "Depot Street",
      "addr_housenumber": "9",
      "value": 329.0808668536776
    },
    {
      "id": 75271,
      "geometry": "POINT (-71.462715 42.991948)",
      "poi_name": "Republic",
      "osm_id": 9721902832,
      "amenity": "restaurant",
      "addr_state": "NH",
      "addr_city": "Manchester",
      "addr_postcode": "03101",
      "addr_street": "Elm Street",
      "addr_housenumber": "969",
      "value": 329.0808668536776
    },
    {
      "id": 75272,
      "geometry": "POINT (-71.462869 42.992891)",
      "poi_name": "Margaritas",
      "osm_id": 9721902837,
      "amenity": "restaurant",
      "cuisine": "mexican",
      "opening_hours": "Su-We 11:30-24:00, Th-Sa 11:30-25:00",
      "website": "https://www.margs.com/",
      "official_name": "Margaritas Mexican Restaurant",
      "addr_state": "NH",
      "addr_city": "Manchester",
      "addr_postcode": "03101",
      "addr_street": "Elm Street",
      "addr_housenumber": "1037",
      "value": 329.0808668536776
    },
    {
      "id": 75273,
      "geometry": "POINT (-71.462862 42.993275)",
      "poi_name": "Thai food connection",
      "osm_id": 9721902839,
      "amenity": "restaurant",
      "cuisine": "thai",
      "addr_state": "NH",
      "addr_city": "Manchester",
      "addr_postcode": "03101",
      "addr_street": "Elm Street",
      "addr_housenumber": "1069",
      "value": 329.0808668536776
    },
    {
      "id": 75274,
      "geometry": "POINT (-71.463376 42.996334)",
      "poi_name": "Steve's House Restaurant",
      "osm_id": 9721942032,
      "amenity": "restaurant",
      "phone": "+16036695559",
      "addr_state": "NH",
      "addr_city": "Manchester",
      "addr_postcode": "03101",
      "addr_street": "Elm Street",
      "addr_housenumber": "1265",
      "value": 329.0808668536776
    },
    {
      "id": 75275,
      "geometry": "POINT (-71.46356 42.997394)",
      "poi_name": "North End Bistro",
      "osm_id": 9721942043,
      "amenity": "restaurant",
      "phone": "+16032323527",
      "addr_state": "NH",
      "addr_city": "Manchester",
      "addr_postcode": "03101",
      "addr_street": "Elm Street",
      "addr_housenumber": "1361",
      "value": 329.0808668536776
    },
    {
      "id": 79302,
      "geometry": "POINT (-71.460901 42.761784)",
      "poi_name": "Collins Brothers Chowder",
      "osm_id": 793807330,
      "amenity": "restaurant",
      "addr_city": "Nashua",
      "addr_postcode": "03060",
      "addr_street": "Temple Street",
      "addr_housenumber": "59",
      "value": 329.0808668536776
    },
    {
      "id": 82097,
      "geometry": "POINT (-71.534359 43.203182)",
      "poi_name": "Hermanos Cocina Mexicana",
      "osm_id": 1682563461,
      "amenity": "restaurant",
      "cuisine": "mexican",
      "website": "https://www.hermanosmexican.com/",
      "addr_state": "NH",
      "addr_city": "Concord",
      "addr_postcode": "03301",
      "addr_street": "Hills Avenue",
      "addr_housenumber": "11",
      "value": 329.0808668536776
    },
    {
      "id": 82098,
      "geometry": "POINT (-71.534853 43.202537)",
      "poi_name": "Constantly Pizza",
      "osm_id": 1682563468,
      "amenity": "restaurant",
      "cuisine": "pizza",
      "website": "https://www.constantlypizza.net/",
      "addr_state": "NH",
      "addr_city": "Concord",
      "addr_postcode": "03301",
      "addr_street": "South Main Street",
      "addr_housenumber": "39",
      "value": 329.0808668536776
    },
    {
      "id": 82101,
      "geometry": "POINT (-71.534944 43.205298)",
      "poi_name": "Cheers",
      "osm_id": 1682563477,
      "amenity": "restaurant",
      "website": "https://www.cheersnh.com/",
      "outdoor_seating": "yes",
      "addr_state": "NH",
      "addr_city": "Concord",
      "addr_postcode": "03301",
      "addr_street": "Depot Street",
      "addr_housenumber": "17",
      "value": 329.0808668536776
    },
    {
      "id": 82401,
      "geometry": "POINT (-71.536546 43.20494)",
      "poi_name": "Margaritas",
      "osm_id": 1696893740,
      "amenity": "restaurant",
      "cuisine": "mexican",
      "opening_hours": "Su 11:30-24:00; Mo-We 16:00-24:00; Th 16:00-25:00; Fr-Sa 11:30-25:00",
      "phone": "+1-603-224-2821",
      "official_name": "Margaritas Mexican Restaurant",
      "addr_state": "NH",
      "addr_city": "Concord",
      "addr_postcode": "03301",
      "addr_street": "Bicentennial Square",
      "addr_housenumber": "1",
      "value": 329.0808668536776
    },
    {
      "id": 81272,
      "geometry": "POINT (-71.197842 42.583967)",
      "poi_name": "Mango II",
      "osm_id": 1619195827,
      "amenity": "restaurant",
      "cuisine": "thai",
      "opening_hours": "Tu-Th 11:30-21:00; Fr 11:30-21:30; Sa 16:00-21:30",
      "website": "http://www.mangoii.com/",
      "phone": "+1 (978) 988-9779",
      "addr_state": "MA",
      "addr_city": "Tewksbury",
      "addr_postcode": "01876",
      "addr_street": "Main Street",
      "addr_housenumber": "2171",
      "value": 329.0808668536776
    },
    {
      "id": 82956,
      "geometry": "POINT (-71.603793 42.829908)",
      "poi_name": "Amherst Tap N Grill",
      "osm_id": 1722539727,
      "amenity": "restaurant",
      "cuisine": "sandwich",
      "website": "http://amherstcountryclub.com/",
      "addr_state": "NH",
      "addr_city": "Amherst",
      "addr_postcode": "03031",
      "addr_street": "Ponemah Road",
      "addr_housenumber": "72",
      "value": 329.0808668536776
    },
    {
      "id": 85494,
      "geometry": "POINT (-71.133834 42.383587)",
      "poi_name": "House of Chang",
      "osm_id": 1872094196,
      "amenity": "restaurant",
      "cuisine": "chinese",
      "opening_hours": "Tu-We 11:30-21:30; Fr-Sa 11:30-22:30; Su 11:30-21:30",
      "website": "https://houseofchangcambridge.com/",
      "phone": "+1 617 547 9888",
      "takeaway": "yes",
      "addr_state": "MA",
      "addr_city": "Cambridge",
      "addr_postcode": "02138",
      "addr_street": "Concord Avenue",
      "addr_housenumber": "282",
      "value": 329.0808668536776
    },
    {
      "id": 88205,
      "geometry": "POINT (-71.464112 42.757703)",
      "poi_name": "7 Star Pizza",
      "osm_id": 8773566900,
      "amenity": "restaurant",
      "cuisine": "pizza",
      "opening_hours": "00:00-01:00,11:00-24:00",
      "website": "https://www.7starpizza.com/",
      "phone": "+1-603-889-8810",
      "delivery": "yes",
      "addr_state": "NH",
      "addr_city": "Nashua",
      "addr_postcode": "03060",
      "addr_street": "Main Street",
      "addr_housenumber": "235",
      "value": 329.0808668536776
    },
    {
      "id": 88208,
      "geometry": "POINT (-71.464461 42.759646)",
      "poi_name": "MT's Local",
      "osm_id": 8773566914,
      "amenity": "restaurant",
      "cuisine": "american",
      "opening_hours": "Mo-Su 16:00-21:00; Fr,Sa 16:00-22:00",
      "website": "https://www.mtslocal.com/",
      "phone": "+1-603-595-9334",
      "addr_state": "NH",
      "addr_city": "Nashua",
      "addr_postcode": "03060",
      "addr_street": "Main Street",
      "addr_housenumber": "212",
      "value": 329.0808668536776
    },
    {
      "id": 89535,
      "geometry": "POINT (-71.449123 42.964701)",
      "poi_name": "Golden Corral",
      "osm_id": 8851008078,
      "amenity": "restaurant",
      "cuisine": "american;buffet",
      "opening_hours": "Mo-Fr 11:00-20:00; Sa, Su 08:00-20:00",
      "website": "https://www.goldencorral.com/locations/location-detail/2717/golden-corral-s-willow-street/",
      "phone": "+1-603- 232-4896",
      "addr_state": "NH",
      "addr_city": "Manchester",
      "addr_postcode": "03103",
      "addr_street": "South Willow Street",
      "addr_housenumber": "655",
      "value": 329.0808668536776
    },
    {
      "id": 91653,
      "geometry": "POINT (-71.483859 43.213817)",
      "poi_name": "B\u0101ked Caf\u00e9 and Bakery",
      "osm_id": 2080766973,
      "amenity": "restaurant",
      "opening_hours": "Mo-Fr 08:00-15:00",
      "website": "https://www.bakeddowntown.com/",
      "addr_state": "NH",
      "addr_city": "Concord",
      "addr_street": "Sheep Davis Road",
      "addr_housenumber": "249",
      "value": 329.0808668536776
    },
    {
      "id": 93971,
      "geometry": "POINT (-71.67066 42.8386)",
      "poi_name": "Sake House",
      "osm_id": 2195939880,
      "amenity": "restaurant",
      "cuisine": "japanese",
      "website": "sakehousemilford.com",
      "phone": "+1-603-673-1836",
      "addr_state": "NH",
      "addr_city": "Milford",
      "addr_postcode": "03055",
      "addr_street": "Elm Street",
      "addr_housenumber": "222",
      "value": 329.0808668536776
    },
    {
      "id": 103507,
      "geometry": "POINT (-71.201515 42.512526)",
      "poi_name": "The Pizza Works",
      "osm_id": 8505618148,
      "amenity": "restaurant",
      "cuisine": "italian_pizza",
      "opening_hours": "Mo-Sa 11:00-21:00",
      "website": "https://www.pizzaworksonline.com",
      "addr_state": "MA",
      "addr_city": "Burlington",
      "addr_postcode": "01803",
      "addr_street": "Cambridge Street",
      "addr_housenumber": "222",
      "value": 329.0808668536776
    },
    {
      "id": 95998,
      "geometry": "POINT (-71.508816 42.956134)",
      "poi_name": "The Tavern at the Bedford Village Inn",
      "osm_id": 6417765849,
      "amenity": "restaurant",
      "cuisine": "american",
      "outdoor_seating": "yes",
      "addr_state": "NH",
      "addr_city": "Bedford",
      "addr_postcode": "03110",
      "addr_street": "Olde Bedford Way",
      "addr_housenumber": "2",
      "value": 329.0808668536776
    },
    {
      "id": 95999,
      "geometry": "POINT (-71.508736 42.956076)",
      "poi_name": "The Dining Room at the Bedford Village Inn",
      "osm_id": 6417765850,
      "amenity": "restaurant",
      "cuisine": "new_hampshire;traditional",
      "outdoor_seating": "no",
      "addr_state": "NH",
      "addr_city": "Bedford",
      "addr_postcode": "03110",
      "addr_street": "Olde Bedford Way",
      "addr_housenumber": "2",
      "value": 329.0808668536776
    },
    {
      "id": 98542,
      "geometry": "POINT (-71.449597 43.017158)",
      "poi_name": "Villaggio",
      "osm_id": 6522381314,
      "amenity": "restaurant",
      "cuisine": "italian",
      "opening_hours": "Mo-Th 16:00-21:00; Fr 16:00-23:00; Sa 12:00-23:00; Su 12:00-21:00",
      "phone": "+1-603-627-2424",
      "addr_state": "NH",
      "addr_city": "Manchester",
      "addr_postcode": "03104",
      "addr_street": "Hooksett Road",
      "addr_housenumber": "677",
      "value": 329.0808668536776
    },
    {
      "id": 101409,
      "geometry": "POINT (-71.61345 42.874763)",
      "poi_name": "The Black Forest",
      "osm_id": 6625303096,
      "amenity": "restaurant",
      "cuisine": "regional",
      "opening_hours": "Mo 08:00-15:00; Tu-Sa 08:00-20:00; Su 08:00-14:30",
      "website": "http://www.theblackforestcafe.com/",
      "phone": "+1-603-672-0500",
      "addr_state": "NH",
      "addr_city": "Amherst",
      "addr_postcode": "03031",
      "addr_street": "Route 101",
      "addr_housenumber": "212",
      "value": 329.0808668536776
    },
    {
      "id": 110721,
      "geometry": "POINT (-71.224001 42.487421)",
      "poi_name": "Osteria Nino",
      "osm_id": 3714392100,
      "amenity": "restaurant",
      "cuisine": "italian",
      "opening_hours": "Su-Th 11:30-21:00; Fr-Sa 11:30-22:00",
      "website": "https://www.osterianino.com/",
      "phone": "+1-781-272-1600",
      "takeaway": "yes",
      "outdoor_seating": "yes",
      "delivery": "yes",
      "addr_state": "MA",
      "addr_city": "Burlington",
      "addr_postcode": "01803",
      "addr_street": "Third Avenue",
      "addr_housenumber": "19",
      "value": 329.0808668536776
    },
    {
      "id": 110723,
      "geometry": "POINT (-71.223462 42.487648)",
      "poi_name": "Tony C's",
      "osm_id": 3714392103,
      "amenity": "restaurant",
      "cuisine": "american",
      "opening_hours": "11:30-01:00",
      "website": "https://www.tonycssportsbar.com/location/burlington/",
      "phone": "+1-781-238-8282",
      "takeaway": "yes",
      "delivery": "yes",
      "addr_state": "MA",
      "addr_city": "Burlington",
      "addr_postcode": "01803",
      "addr_street": "Third Avenue",
      "addr_housenumber": "17",
      "value": 329.0808668536776
    },
    {
      "id": 103740,
      "geometry": "POINT (-71.140332 42.460295)",
      "poi_name": "Mitho Restaurant",
      "osm_id": 8521964070,
      "amenity": "restaurant",
      "cuisine": "asian;himalayan",
      "website": "http://www.mithoma.com/",
      "phone": "+1 781 369 1477",
      "takeaway": "yes",
      "outdoor_seating": "yes",
      "delivery": "yes",
      "addr_state": "MA",
      "addr_city": "Winchester",
      "addr_postcode": "01890",
      "addr_street": "Main Street",
      "addr_housenumber": "831",
      "value": 329.0808668536776
    },
    {
      "id": 103741,
      "geometry": "POINT (-71.143232 42.462318)",
      "poi_name": "Gloria's Pizzeria",
      "osm_id": 8521964880,
      "amenity": "restaurant",
      "cuisine": "pizza",
      "wheelchair": "yes",
      "opening_hours": "Mo-Su 09:30-21:00",
      "website": "https://gloriaspizzeria.com/",
      "phone": "+1 781 729 8843",
      "takeaway": "yes",
      "delivery": "yes",
      "addr_state": "MA",
      "addr_city": "Winchester",
      "addr_postcode": "01890",
      "addr_street": "Main Street",
      "addr_housenumber": "920",
      "value": 329.0808668536776
    },
    {
      "id": 103743,
      "geometry": "POINT (-71.138892 42.45747)",
      "poi_name": "Toscano's Italian Kitchen",
      "osm_id": 8522009533,
      "amenity": "restaurant",
      "cuisine": "pizza;italian",
      "wheelchair": "yes",
      "opening_hours": "Mo-Sa 10:00-21:45, Su 11:00-20:45",
      "website": "http://toscanositaliankitchen.net/",
      "phone": "+1 781 729 6700",
      "takeaway": "yes",
      "addr_state": "MA",
      "addr_city": "Winchester",
      "addr_postcode": "01890",
      "addr_street": "Main Street",
      "addr_housenumber": "740",
      "value": 329.0808668536776
    },
    {
      "id": 103744,
      "geometry": "POINT (-71.138832 42.451405)",
      "poi_name": "A Tavola",
      "osm_id": 8522046197,
      "amenity": "restaurant",
      "cuisine": "italian",
      "opening_hours": "Tu-Sa 17:00-21:00",
      "website": "https://www.atavolawinchester.com/",
      "phone": "+1 781 729 1040",
      "outdoor_seating": "yes",
      "addr_state": "MA",
      "addr_city": "Winchester",
      "addr_postcode": "01890",
      "addr_street": "Church Street",
      "addr_housenumber": "34",
      "value": 329.0808668536776
    },
    {
      "id": 104028,
      "geometry": "POINT (-71.503082 43.217724)",
      "poi_name": "Arnie's Place",
      "osm_id": 8541453533,
      "amenity": "restaurant",
      "cuisine": "barbecue;ice_cream",
      "website": "https://www.arniesplace.com/",
      "addr_state": "NH",
      "addr_city": "Concord",
      "addr_postcode": "03301",
      "addr_street": "Loudon Road",
      "addr_housenumber": "164",
      "value": 329.0808668536776
    },
    {
      "id": 109706,
      "geometry": "POINT (-71.459239 43.007232)",
      "poi_name": "Pizza 911",
      "osm_id": 3670668578,
      "amenity": "restaurant",
      "cuisine": "pizza;sandwich;pasta",
      "opening_hours": "Su-Th 10:30-23:00, Fr-Sa 10:30-26:00",
      "website": "http://manchester.pizza911nh.com/",
      "phone": "+1 603-625-2201",
      "takeaway": "yes",
      "delivery": "yes",
      "addr_state": "NH",
      "addr_city": "Manchester",
      "addr_postcode": "03104",
      "addr_street": "Webster Street",
      "addr_housenumber": "108",
      "value": 329.0808668536776
    },
    {
      "id": 113254,
      "geometry": "POINT (-71.22442 42.487306)",
      "poi_name": "The OkiPok\u00e9",
      "osm_id": 3827259067,
      "amenity": "restaurant",
      "cuisine": "japanese",
      "opening_hours": "11:00-21:00",
      "website": "https://theokipoke.com/",
      "phone": "+1-781-365-0890",
      "addr_state": "MA",
      "addr_city": "Burlington",
      "addr_postcode": "01803",
      "addr_street": "Third Avenue",
      "addr_housenumber": "19",
      "value": 329.0808668536776
    },
    {
      "id": 111961,
      "geometry": "POINT (-71.161173 42.499664)",
      "poi_name": "Strega Prime Italian Steakhouse",
      "osm_id": 3772668445,
      "amenity": "restaurant",
      "website": "https://stregaprime.com/",
      "phone": "+1 781 9333333",
      "addr_city": "Woburn",
      "addr_postcode": "01801",
      "addr_street": "Sylvan Road",
      "addr_housenumber": "100",
      "value": 329.0808668536776
    },
    {
      "id": 113186,
      "geometry": "POINT (-71.149511 42.475367)",
      "poi_name": "Adega Restaurant",
      "osm_id": 3823762286,
      "amenity": "restaurant",
      "cuisine": "portuguese",
      "website": "http://www.adegarestaurant.com/",
      "phone": "+1 781 2812639",
      "addr_city": "Woburn",
      "addr_postcode": "01801",
      "addr_street": "Main Street",
      "addr_housenumber": "229",
      "value": 329.0808668536776
    },
    {
      "id": 113255,
      "geometry": "POINT (-71.22389 42.488059)",
      "poi_name": "Redstone American Grill",
      "osm_id": 3827259070,
      "amenity": "restaurant",
      "cuisine": "american",
      "website": "https://www.redstonegrill.com/restaurants/burlington/",
      "phone": "+1-781-229-0330",
      "addr_state": "MA",
      "addr_city": "Burlington",
      "addr_postcode": "01803",
      "addr_street": "Third Avenue",
      "addr_housenumber": "20",
      "value": 329.0808668536776
    },
    {
      "id": 113256,
      "geometry": "POINT (-71.222496 42.487904)",
      "poi_name": "The Bancroft",
      "osm_id": 3827259071,
      "amenity": "restaurant",
      "cuisine": "steak_house",
      "opening_hours": "Mo-Sa 11:30-21:00; Su 11:30-20:00",
      "website": "https://www.the-bancroft.com/",
      "phone": "+1-781-221-2100",
      "takeaway": "no",
      "addr_state": "MA",
      "addr_city": "Burlington",
      "addr_postcode": "01803",
      "addr_street": "Third Avenue",
      "addr_housenumber": "15",
      "value": 329.0808668536776
    },
    {
      "id": 113512,
      "geometry": "POINT (-71.151634 42.479255)",
      "poi_name": "Ixtapa Cantina",
      "osm_id": 3836771757,
      "amenity": "restaurant",
      "cuisine": "mexican",
      "website": "https://ixtapacantina.com/",
      "addr_city": "Woburn",
      "addr_postcode": "01801",
      "addr_street": "Main Street",
      "addr_housenumber": "349",
      "value": 329.0808668536776
    },
    {
      "id": 113517,
      "geometry": "POINT (-71.1516 42.479746)",
      "poi_name": "The Brickyard",
      "osm_id": 3837346732,
      "amenity": "restaurant",
      "cuisine": "pizza;burger",
      "website": "http://www.brickyardbar.com/",
      "phone": "+1 781 9356699",
      "addr_state": "MA",
      "addr_city": "Woburn",
      "addr_postcode": "01801",
      "addr_street": "Main Street",
      "addr_housenumber": "371",
      "value": 329.0808668536776
    },
    {
      "id": 113518,
      "geometry": "POINT (-71.151396 42.480124)",
      "poi_name": "Tre Mont\u00e9",
      "osm_id": 3837346733,
      "amenity": "restaurant",
      "cuisine": "italian",
      "website": "http://www.tremonterestaurant.com/",
      "phone": "+1 781 9384020",
      "addr_state": "MA",
      "addr_city": "Woburn",
      "addr_postcode": "01801",
      "addr_street": "Main Street",
      "addr_housenumber": "397",
      "value": 329.0808668536776
    },
    {
      "id": 113521,
      "geometry": "POINT (-71.151508 42.480596)",
      "poi_name": "Andrea's Pizza",
      "osm_id": 3837502655,
      "amenity": "restaurant",
      "cuisine": "pizza",
      "opening_hours": "Mo-Fr 11:00-21:00; Sa 11:15-21:00",
      "website": "http://www.andreaspizzawoburn.com/",
      "phone": "+1 781 9352222",
      "addr_state": "MA",
      "addr_city": "Woburn",
      "addr_postcode": "01801",
      "addr_street": "Main Street",
      "addr_housenumber": "418",
      "value": 329.0808668536776
    },
    {
      "id": 114812,
      "geometry": "POINT (-71.129476 42.396467)",
      "poi_name": "Greek Corner",
      "osm_id": 3895953857,
      "amenity": "restaurant",
      "cuisine": "greek",
      "opening_hours": "Tu-Sa 11:00-21:30; Mo, Su 11:00-21:00",
      "website": "https://greekcorner.us/",
      "phone": "+1 617 661 5655",
      "addr_state": "MA",
      "addr_city": "Cambridge",
      "addr_postcode": "02140",
      "addr_street": "Massachusetts Avenue",
      "addr_housenumber": "2366",
      "value": 329.0808668536776
    },
    {
      "id": 114813,
      "geometry": "POINT (-71.128287 42.395431)",
      "poi_name": "Frank's Steak House",
      "osm_id": 3895955612,
      "amenity": "restaurant",
      "cuisine": "american",
      "opening_hours": "Mo-We 16:00-21:30; Th-Sa 15:30-23:00; Su 12:00-21:30",
      "website": "http://www.frankssteakhouse.com/",
      "phone": "+1 617 661 0666",
      "addr_state": "MA",
      "addr_city": "Cambridge",
      "addr_postcode": "02140",
      "addr_street": "Massachusetts Avenue",
      "addr_housenumber": "2310",
      "value": 329.0808668536776
    },
    {
      "id": 115649,
      "geometry": "POINT (-71.664265 42.730124)",
      "poi_name": "The Alamo",
      "osm_id": 8908315553,
      "amenity": "restaurant",
      "cuisine": "barbecue",
      "website": "https://www.alamobarbecue.com/",
      "addr_state": "NH",
      "addr_city": "Brookline",
      "addr_postcode": "03033",
      "addr_street": "Route 13",
      "addr_housenumber": "99",
      "value": 329.0808668536776
    },
    {
      "id": 115650,
      "geometry": "POINT (-71.545057 42.918416)",
      "poi_name": "Murphy's Taproom",
      "osm_id": 8908321692,
      "amenity": "restaurant",
      "addr_state": "NH",
      "addr_city": "Bedford",
      "addr_postcode": "03110",
      "addr_street": "NH-101",
      "addr_housenumber": "393",
      "value": 329.0808668536776
    },
    {
      "id": 115651,
      "geometry": "POINT (-71.479689 42.963276)",
      "poi_name": "T-Bones",
      "osm_id": 8908331600,
      "amenity": "restaurant",
      "cuisine": "american",
      "website": "https://www.t-bones.com/",
      "addr_state": "NH",
      "addr_city": "Bedford",
      "addr_postcode": "03110",
      "addr_street": "South River Road",
      "addr_housenumber": "25",
      "value": 329.0808668536776
    },
    {
      "id": 115835,
      "geometry": "POINT (-71.142232 42.405965)",
      "poi_name": "Town Tavern",
      "osm_id": 8914817418,
      "amenity": "restaurant",
      "cuisine": "international;burger",
      "description": "Friendly town restaurant and bar with creative food, from burgers to soba noodle bowls to salads  - check for regular specials that rotate monthly. Hosts live music regularly.",
      "opening_hours": "Mo-Su 12:00=21:00.",
      "website": "https://towntavern.net/",
      "phone": "+1 781 859 5413",
      "takeaway": "yes",
      "outdoor_seating": "yes",
      "delivery": "yes",
      "addr_state": "MA",
      "addr_city": "Arlington",
      "addr_postcode": "02474",
      "addr_street": "Massachusetts Avenue",
      "addr_housenumber": "201",
      "value": 329.0808668536776
    },
    {
      "id": 113482,
      "geometry": "POINT (-71.151026 42.482476)",
      "poi_name": "Eri's Wings & Seafood",
      "osm_id": 3835747483,
      "amenity": "restaurant",
      "website": "http://www.eriswingsandseafood.com/",
      "phone": "+1 781 9333747",
      "addr_city": "Woburn",
      "addr_postcode": "01801",
      "addr_street": "Main Street",
      "addr_housenumber": "502",
      "value": 329.0808668536776
    },
    {
      "id": 113483,
      "geometry": "POINT (-71.150895 42.482141)",
      "poi_name": "Pizza Market",
      "osm_id": 3835747486,
      "amenity": "restaurant",
      "cuisine": "pizza",
      "website": "http://www.pizzamarketofwoburn.com/",
      "phone": "+1 781 9359955",
      "addr_city": "Woburn",
      "addr_postcode": "01801",
      "addr_street": "Main Street",
      "addr_housenumber": "492",
      "value": 329.0808668536776
    },
    {
      "id": 113484,
      "geometry": "POINT (-71.150587 42.482604)",
      "poi_name": "The Restaurant Bar & Grille",
      "osm_id": 3835747488,
      "amenity": "restaurant",
      "opening_hours": "Mo-Fr 07:00-15:00; Sa,Su 07:00-13:00",
      "website": "https://www.therestaurantwoburn.com",
      "phone": "+1 781 9352511",
      "addr_city": "Woburn",
      "addr_postcode": "01801",
      "addr_street": "Main Street",
      "addr_housenumber": "489",
      "value": 329.0808668536776
    },
    {
      "id": 114259,
      "geometry": "POINT (-71.309844 42.645539)",
      "poi_name": "El Potro Mexican Grill",
      "osm_id": 3875015057,
      "amenity": "restaurant",
      "wheelchair": "yes",
      "phone": "+1 978 4552840",
      "addr_city": "Lowell",
      "addr_postcode": "01854",
      "addr_street": "Merrimack Street",
      "addr_housenumber": "124",
      "value": 329.0808668536776
    },
    {
      "id": 114872,
      "geometry": "POINT (-71.22633 42.447177)",
      "poi_name": "Beijing",
      "osm_id": 3899915447,
      "amenity": "restaurant",
      "cuisine": "chinese",
      "phone": "+1-781-863-2900",
      "addr_city": "Lexington",
      "addr_postcode": "02420",
      "addr_street": "Massachusetts Avenue",
      "addr_housenumber": "1709",
      "value": 329.0808668536776
    },
    {
      "id": 115188,
      "geometry": "POINT (-71.150915 42.481905)",
      "poi_name": "The Fox Den",
      "osm_id": 3916960581,
      "amenity": "restaurant",
      "cuisine": "polish;portuguese",
      "opening_hours": "We,Th 16:00-22:00; Fr 16:00-23:00; Sa 12:00-23:00; Su 12:00-20:00",
      "website": "https://www.thefoxdenwoburn.com",
      "phone": "+1-781-305-3869",
      "outdoor_seating": "no",
      "addr_state": "MA",
      "addr_city": "Woburn",
      "addr_postcode": "01801",
      "addr_street": "Main Street",
      "addr_housenumber": "482",
      "value": 329.0808668536776
    },
    {
      "id": 115644,
      "geometry": "POINT (-71.5756 42.901625)",
      "poi_name": "The Bistro at LaBelle Winery",
      "osm_id": 8908045323,
      "amenity": "restaurant",
      "website": "https://labellewinery.com/labelle-winery-amherst/the-bistro/",
      "addr_state": "NH",
      "addr_city": "Amherst",
      "addr_postcode": "03031",
      "addr_street": "Route 101",
      "addr_housenumber": "345",
      "value": 329.0808668536776
    },
    {
      "id": 115647,
      "geometry": "POINT (-71.379803 43.014589)",
      "poi_name": "Auburn Pitts",
      "osm_id": 8908093008,
      "amenity": "restaurant",
      "opening_hours": "Mo-We 11:00-21:00; Th-Sa 11:00-22:00; Su 11:00-20:00",
      "website": "https://www.auburnpitts.com/",
      "addr_state": "NH",
      "addr_city": "Auburn",
      "addr_postcode": "03032",
      "addr_street": "Rockingham Road",
      "addr_housenumber": "167",
      "value": 329.0808668536776
    },
    {
      "id": 116546,
      "geometry": "POINT (-71.536238 43.204369)",
      "poi_name": "Penuche's Ale House",
      "osm_id": 8946843650,
      "amenity": "restaurant",
      "addr_state": "NH",
      "addr_city": "Concord",
      "addr_postcode": "03301",
      "addr_street": "Bicentennial Square",
      "addr_housenumber": "16",
      "value": 329.0808668536776
    },
    {
      "id": 117992,
      "geometry": "POINT (-71.460947 42.995797)",
      "poi_name": "Annula's Pizza & Deli",
      "osm_id": 9021730356,
      "amenity": "restaurant",
      "cuisine": "pizza",
      "addr_state": "NH",
      "addr_city": "Manchester",
      "addr_postcode": "03101",
      "addr_street": "Chestnut Street",
      "addr_housenumber": "525",
      "value": 329.0808668536776
    },
    {
      "id": 122661,
      "geometry": "POINT (-71.479418 42.975667)",
      "poi_name": "Ritu's Spice Utsav",
      "osm_id": 6814401018,
      "amenity": "restaurant",
      "cuisine": "indian",
      "phone": "+1-603-836-5652",
      "takeaway": "yes",
      "toilets": "yes",
      "addr_state": "NH",
      "addr_city": "Manchester",
      "addr_street": "South Main Street",
      "addr_housenumber": "484",
      "value": 329.0808668536776
    },
    {
      "id": 124121,
      "geometry": "POINT (-71.30302 42.666719)",
      "poi_name": "The Pizza Club",
      "osm_id": 6900690213,
      "amenity": "restaurant",
      "cuisine": "pizza",
      "phone": "+1 978 453 4800",
      "addr_state": "MA",
      "addr_city": "Dracut",
      "addr_postcode": "01826",
      "addr_street": "Bridge Street",
      "addr_housenumber": "1275",
      "value": 329.0808668536776
    },
    {
      "id": 125307,
      "geometry": "POINT (-71.462663 42.993502)",
      "poi_name": "Penuche's Bar & Grill",
      "osm_id": 6954486699,
      "amenity": "restaurant",
      "cuisine": "american",
      "addr_state": "NH",
      "addr_city": "Manchester",
      "addr_postcode": "03101",
      "addr_street": "Elm Street",
      "addr_housenumber": "1087",
      "value": 329.0808668536776
    },
    {
      "id": 124830,
      "geometry": "POINT (-71.536008 43.207096)",
      "poi_name": "Tandy's Pub & Grille",
      "osm_id": 6935616585,
      "amenity": "restaurant",
      "website": "https://www.tandyspub.com/",
      "addr_state": "NH",
      "addr_city": "Concord",
      "addr_postcode": "03301",
      "addr_street": "Eagle Square",
      "addr_housenumber": "1",
      "value": 329.0808668536776
    },
    {
      "id": 124938,
      "geometry": "POINT (-71.529757 43.211812)",
      "poi_name": "Moritomo",
      "osm_id": 6943090128,
      "amenity": "restaurant",
      "cuisine": "japanese",
      "website": "https://www.moritomonh.com/",
      "addr_state": "NH",
      "addr_city": "Concord",
      "addr_postcode": "03301",
      "addr_street": "Fort Eddy Road",
      "addr_housenumber": "32",
      "value": 329.0808668536776
    },
    {
      "id": 125308,
      "geometry": "POINT (-71.462857 42.993367)",
      "poi_name": "Osaka",
      "osm_id": 6954486700,
      "amenity": "restaurant",
      "cuisine": "seafood",
      "addr_state": "NH",
      "addr_city": "Manchester",
      "addr_postcode": "03101",
      "addr_street": "Elm Street",
      "addr_housenumber": "1077",
      "value": 329.0808668536776
    },
    {
      "id": 125310,
      "geometry": "POINT (-71.46285 42.991939)",
      "poi_name": "Campo Enoteca",
      "osm_id": 6954486702,
      "amenity": "restaurant",
      "cuisine": "italian",
      "addr_state": "NH",
      "addr_city": "Manchester",
      "addr_postcode": "03101",
      "addr_street": "Elm Street",
      "addr_housenumber": "969",
      "value": 329.0808668536776
    },
    {
      "id": 125311,
      "geometry": "POINT (-71.46285 42.991889)",
      "poi_name": "Taj India",
      "osm_id": 6954486703,
      "amenity": "restaurant",
      "cuisine": "indian",
      "addr_state": "NH",
      "addr_city": "Manchester",
      "addr_postcode": "03101",
      "addr_street": "Elm Street",
      "addr_housenumber": "967",
      "value": 329.0808668536776
    },
    {
      "id": 130723,
      "geometry": "POINT (-71.428958 42.985584)",
      "poi_name": "Pizza Market",
      "osm_id": 9887545611,
      "amenity": "restaurant",
      "cuisine": "pizza;sandwich;sandwich",
      "opening_hours": "Sa-Th 11:00-22:00, Fr 10:00-23:00",
      "website": "http://www.pizzamarket.net/",
      "phone": "+1-603-627-7100",
      "outdoor_seating": "no",
      "addr_state": "NH",
      "addr_city": "Manchester",
      "addr_postcode": "03104",
      "addr_street": "Hanover Street",
      "addr_housenumber": "845",
      "value": 329.0808668536776
    },
    {
      "id": 127887,
      "geometry": "POINT (-71.438148 42.958216)",
      "poi_name": "South Side Tavern",
      "osm_id": 8105158229,
      "amenity": "restaurant",
      "opening_hours": "Su-Th 11:30-23:00; Fr,Sa 11:30-25:00",
      "website": "https://www.southsidetavernnh.com/index.php",
      "phone": "+1-603-935-9947",
      "takeaway": "yes",
      "delivery": "yes",
      "addr_state": "NH",
      "addr_city": "Manchester",
      "addr_postcode": "03103",
      "addr_street": "South Willow Street",
      "addr_housenumber": "1279",
      "value": 329.0808668536776
    },
    {
      "id": 128589,
      "geometry": "POINT (-71.434768 42.948821)",
      "poi_name": "Clemento's Pizzeria & Brew",
      "osm_id": 8172267976,
      "amenity": "restaurant",
      "cuisine": "pizza",
      "opening_hours": "Mo-We 11:30-22:00; Th-Sa 11:30-23:00; Su 11:30-20:00",
      "website": "https://www.clementospizzeriabrew.com/",
      "phone": "+1-603-782-8450",
      "takeaway": "yes",
      "delivery": "yes",
      "addr_state": "NH",
      "addr_city": "Manchester",
      "addr_postcode": "03103",
      "addr_street": "South Willow Street",
      "addr_housenumber": "1875",
      "value": 329.0808668536776
    },
    {
      "id": 130725,
      "geometry": "POINT (-71.426564 42.986417)",
      "poi_name": "Aloha Restaurant",
      "osm_id": 9887596655,
      "amenity": "restaurant",
      "cuisine": "chinese;polynesian",
      "opening_hours": "Su 12:00-23:45, Mo-Th 11:30-24:45, Fr-Sa 11:30-25:15",
      "phone": "+1-603-647-2100",
      "takeaway": "yes",
      "outdoor_seating": "no",
      "addr_state": "NH",
      "addr_city": "Manchester",
      "addr_postcode": "03104",
      "addr_street": "Hanover Street",
      "addr_housenumber": "901",
      "value": 329.0808668536776
    },
    {
      "id": 133127,
      "geometry": "POINT (-71.150535 42.414544)",
      "poi_name": "Thai Moon",
      "osm_id": 9980940011,
      "amenity": "restaurant",
      "cuisine": "thai",
      "opening_hours": "Tu-Fr 11:00-15:00, Sa,Su 12:00-15:00, Tu-Th 16:00-21:00, Fr,Sa 16:00-21:30, Su 16:00-21:00",
      "addr_state": "MA",
      "addr_city": "Arlington",
      "addr_postcode": "02474",
      "addr_street": "Broadway",
      "addr_housenumber": "315",
      "value": 329.0808668536776
    },
    {
      "id": 138656,
      "geometry": "POINT (-71.486996 43.179711)",
      "poi_name": "Veano's Italian Kitchen",
      "osm_id": 6161520043,
      "amenity": "restaurant",
      "cuisine": "italian",
      "opening_hours": "Su-Th 11:00-21:00; Fr-Sa 11:00-22:00",
      "addr_state": "NH",
      "addr_city": "Pembroke",
      "addr_postcode": "03275",
      "addr_street": "Sheep Davis Road",
      "addr_housenumber": "16",
      "value": 329.0808668536776
    },
    {
      "id": 133072,
      "geometry": "POINT (-71.140514 42.404175)",
      "poi_name": "Fattoush Restaurant",
      "osm_id": 9979004035,
      "amenity": "restaurant",
      "cuisine": "lebanese",
      "takeaway": "yes",
      "outdoor_seating": "yes",
      "addr_state": "MA",
      "addr_city": "Arlington",
      "addr_postcode": "02474",
      "addr_street": "Massachusetts Avenue",
      "addr_housenumber": "142",
      "value": 329.0808668536776
    },
    {
      "id": 133073,
      "geometry": "POINT (-71.140466 42.404136)",
      "poi_name": "Za Pizza",
      "osm_id": 9979004036,
      "amenity": "restaurant",
      "cuisine": "pizza",
      "takeaway": "yes",
      "outdoor_seating": "yes",
      "toilets": "yes",
      "addr_state": "MA",
      "addr_city": "Arlington",
      "addr_postcode": "02474",
      "addr_street": "Massachusetts Avenue",
      "addr_housenumber": "138",
      "value": 329.0808668536776
    },
    {
      "id": 135844,
      "geometry": "POINT (-71.142377 42.388006)",
      "poi_name": "Ma Magoo's",
      "osm_id": 11539050015,
      "amenity": "restaurant",
      "cuisine": "pizza",
      "website": "https://mamagoos.foodtecsolutions.com/menu",
      "phone": "+1 617 354 9139",
      "addr_state": "MA",
      "addr_city": "Cambridge",
      "addr_postcode": "02138",
      "addr_street": "Concord Lane",
      "addr_housenumber": "6",
      "value": 329.0808668536776
    },
    {
      "id": 138304,
      "geometry": "POINT (-71.427283 42.565904)",
      "poi_name": "Evviva Trattoria",
      "osm_id": 6140343289,
      "amenity": "restaurant",
      "cuisine": "italian",
      "addr_state": "MA",
      "addr_city": "Westford",
      "addr_postcode": "01886",
      "addr_street": "Cornerstone Square",
      "addr_housenumber": "7",
      "value": 329.0808668536776
    },
    {
      "id": 143848,
      "geometry": "POINT (-71.165317 42.541684)",
      "poi_name": "As Good As It Gets",
      "osm_id": 6353198575,
      "amenity": "restaurant",
      "cuisine": "breakfast",
      "addr_state": "MA",
      "addr_city": "Wilmington",
      "addr_postcode": "01887",
      "addr_street": "Lowell Street",
      "addr_housenumber": "35",
      "value": 329.0808668536776
    },
    {
      "id": 143479,
      "geometry": "POINT (-71.231856 42.610409)",
      "poi_name": "Wicked Cheesy",
      "osm_id": 6342142424,
      "amenity": "restaurant",
      "cuisine": "pizza;salad;wrap;breadsticks;calzone;sandwich;fries;wings",
      "opening_hours": "Mo-Th 11:00-21:00, Fr 11:00-22:00, Sa 11:00-21:00, Su 11:00-20:00",
      "website": "http://www.wickedcheesy.com/index.php",
      "phone": "+1 978-863-1901",
      "takeaway": "yes",
      "delivery": "yes",
      "addr_state": "MA",
      "addr_city": "Tewksbury",
      "addr_postcode": "01876",
      "addr_street": "Main Street",
      "addr_housenumber": "1079",
      "value": 329.0808668536776
    },
    {
      "id": 143527,
      "geometry": "POINT (-71.131341 42.38233)",
      "poi_name": "Armando's Pizza & Subs",
      "osm_id": 6343831765,
      "amenity": "restaurant",
      "cuisine": "pizza;sandwich",
      "addr_state": "MA",
      "addr_city": "Cambridge",
      "addr_postcode": "02138",
      "addr_street": "Huron Avenue",
      "addr_housenumber": "163",
      "value": 329.0808668536776
    },
    {
      "id": 143849,
      "geometry": "POINT (-71.166931 42.543024)",
      "poi_name": "Peter's Pizza Wilmington",
      "osm_id": 6353300855,
      "amenity": "restaurant",
      "cuisine": "pizza",
      "opening_hours": "Mo-Sa 10:30-21:00; Su 12:00-21:00",
      "addr_state": "MA",
      "addr_city": "Wilmington",
      "addr_postcode": "01887",
      "addr_street": "Lowell Street",
      "addr_housenumber": "2",
      "value": 329.0808668536776
    },
    {
      "id": 149039,
      "geometry": "POINT (-71.949269 42.876449)",
      "poi_name": "Aesop's Tables",
      "osm_id": 3993674129,
      "amenity": "restaurant",
      "opening_hours": "Mo-Fr 07:00-16:00; Sa 09:00-16:00",
      "takeaway": "yes",
      "delivery": "no",
      "addr_state": "NH",
      "addr_city": "Peterborough",
      "addr_street": "Depot Square",
      "addr_housenumber": "12",
      "value": 329.0808668536776
    },
    {
      "id": 147725,
      "geometry": "POINT (-71.477694 42.990163)",
      "poi_name": "Fricker's Neighborhood Grill",
      "osm_id": 7556859656,
      "amenity": "restaurant",
      "phone": "+1-603-206-5749",
      "addr_state": "NH",
      "addr_city": "Manchester",
      "addr_postcode": "03102",
      "addr_street": "Dubuque Street",
      "addr_housenumber": "250",
      "value": 329.0808668536776
    },
    {
      "id": 147730,
      "geometry": "POINT (-71.474227 42.988498)",
      "poi_name": "Rita Mae's Restaurant",
      "osm_id": 7556871694,
      "amenity": "restaurant",
      "opening_hours": "Sa-Th 07:00-14:00; We 07:00-20:00",
      "phone": "+1-603-668-4077",
      "addr_state": "NH",
      "addr_city": "Manchester",
      "addr_postcode": "03102",
      "addr_street": "Main Street",
      "addr_housenumber": "280",
      "value": 329.0808668536776
    },
    {
      "id": 149040,
      "geometry": "POINT (-71.949741 42.876284)",
      "poi_name": "Twelve Pine",
      "osm_id": 3993674130,
      "amenity": "restaurant",
      "cuisine": "coffee_shop",
      "opening_hours": "Mo-Fr 08:00-19:00; Sa 09:00-17:00; Su 09:00-16:00",
      "takeaway": "yes",
      "delivery": "no",
      "addr_state": "NH",
      "addr_city": "Peterborough",
      "addr_street": "School Street",
      "addr_housenumber": "11",
      "value": 329.0808668536776
    },
    {
      "id": 149069,
      "geometry": "POINT (-71.96175 42.859851)",
      "poi_name": "Kogetsu",
      "osm_id": 3994633258,
      "amenity": "restaurant",
      "cuisine": "asian",
      "addr_state": "NH",
      "addr_city": "Peterborough",
      "addr_street": "Jaffrey Road",
      "addr_housenumber": "50",
      "value": 329.0808668536776
    },
    {
      "id": 149120,
      "geometry": "POINT (-71.95464 42.8682)",
      "poi_name": "Pearl Restaurant & Oyster Bar",
      "osm_id": 3996663319,
      "amenity": "restaurant",
      "cuisine": "regional",
      "opening_hours": "Mo-Th 17:00-21:00; Fr-Sa 17:00-22:00",
      "delivery": "no",
      "addr_state": "NH",
      "addr_city": "Peterborough",
      "addr_street": "Jaffrey Road",
      "addr_housenumber": "1",
      "value": 329.0808668536776
    },
    {
      "id": 149121,
      "geometry": "POINT (-71.954784 42.868078)",
      "poi_name": "Bantam Grill",
      "osm_id": 3996664197,
      "amenity": "restaurant",
      "cuisine": "italian",
      "opening_hours": "Tu-Th 17:00-21:00; Fr-Sa 17:00-22:00; Su 17:00-21:00",
      "addr_state": "NH",
      "addr_city": "Peterborough",
      "addr_street": "Jaffrey Road",
      "addr_housenumber": "1",
      "value": 329.0808668536776
    },
    {
      "id": 149122,
      "geometry": "POINT (-71.954999 42.866359)",
      "poi_name": "Bagel Mill",
      "osm_id": 3996667803,
      "amenity": "restaurant",
      "cuisine": "bagel",
      "opening_hours": "Mo-Fr 06:00-16:00; Sa 06:00-15:00; Su 07:00-13:00",
      "addr_state": "NH",
      "addr_city": "Peterborough",
      "addr_street": "Grove Street",
      "addr_housenumber": "145",
      "value": 329.0808668536776
    },
    {
      "id": 157859,
      "geometry": "POINT (-71.13138 42.417696)",
      "poi_name": "Pikaichi",
      "osm_id": 4727413213,
      "amenity": "restaurant",
      "cuisine": "ramen",
      "website": "https://www.pikaichiramen.com/",
      "addr_state": "MA",
      "addr_city": "Medford",
      "addr_postcode": "02155",
      "addr_street": "Boston Avenue",
      "addr_housenumber": "123",
      "value": 329.0808668536776
    },
    {
      "id": 158355,
      "geometry": "POINT (-71.685394 43.047228)",
      "poi_name": "Stark House Tavern",
      "osm_id": 4744349788,
      "amenity": "restaurant",
      "opening_hours": "Su 08:00-22:00; Mo-We 11:30-22:00; Th-Fr 11:30-24:00; Sa 08:00-24:00",
      "phone": "+1-603-529-0901",
      "takeaway": "yes",
      "outdoor_seating": "yes",
      "delivery": "yes",
      "addr_state": "NH",
      "addr_city": "Weare",
      "addr_postcode": "03281",
      "addr_street": "South Stark Highway",
      "addr_housenumber": "487",
      "value": 329.0808668536776
    },
    {
      "id": 163356,
      "geometry": "POINT (-71.462846 42.987359)",
      "poi_name": "Kisaki Japanese Cuisine",
      "osm_id": 9413763813,
      "amenity": "restaurant",
      "cuisine": "sushi",
      "building": "retail",
      "opening_hours": "Mo-Th 11:00-22:00; Fr-Sa 11:00-23:00; Su 12:00-22:00",
      "website": "https://kisakisushi.com/",
      "phone": "+1 603 668 8001",
      "takeaway": "yes",
      "addr_state": "NH",
      "addr_city": "Manchester",
      "addr_postcode": "03101",
      "addr_street": "Elm Street",
      "addr_housenumber": "641",
      "value": 329.0808668536776
    },
    {
      "id": 162995,
      "geometry": "POINT (-71.463289 42.990335)",
      "poi_name": "Matbah",
      "osm_id": 9394421929,
      "amenity": "restaurant",
      "cuisine": "mediterranean",
      "addr_city": "Manchester",
      "addr_postcode": "03101",
      "addr_street": "Elm Street",
      "addr_housenumber": "866",
      "value": 329.0808668536776
    },
    {
      "id": 162996,
      "geometry": "POINT (-71.463293 42.990241)",
      "poi_name": "Diz's Cafe",
      "osm_id": 9394421932,
      "amenity": "restaurant",
      "addr_city": "Manchester",
      "addr_postcode": "03101",
      "addr_street": "Elm Street",
      "addr_housenumber": "860",
      "value": 329.0808668536776
    },
    {
      "id": 163131,
      "geometry": "POINT (-71.463305 42.989474)",
      "poi_name": "Portland Pie Company",
      "osm_id": 9402167040,
      "amenity": "restaurant",
      "cuisine": "pizza",
      "website": "https://www.portlandpie.com/",
      "addr_city": "Manchester",
      "addr_postcode": "03101",
      "addr_street": "Elm Street",
      "addr_housenumber": "786",
      "value": 329.0808668536776
    },
    {
      "id": 163357,
      "geometry": "POINT (-71.462652 42.987358)",
      "poi_name": "El Rincon",
      "osm_id": 9413763814,
      "amenity": "restaurant",
      "cuisine": "mexican",
      "building": "retail",
      "opening_hours": "Tu-Th 11:00-21:00; Fr 09:00-23:00; Sa 11:00-21:00; Su 11:00-18:00",
      "website": "https://elrinconnh.com/",
      "phone": "+1-603-232-4530",
      "addr_state": "NH",
      "addr_city": "Manchester",
      "addr_postcode": "03101",
      "addr_street": "Lake Avenue",
      "addr_housenumber": "10",
      "value": 329.0808668536776
    },
    {
      "id": 163358,
      "geometry": "POINT (-71.462557 42.987358)",
      "poi_name": "Golden Bowl",
      "osm_id": 9413763815,
      "amenity": "restaurant",
      "cuisine": "vietnamese",
      "building": "retail",
      "opening_hours": "Mo-Sa 11:30-20:00",
      "website": "https://www.phogoldenbowlnh.com/",
      "phone": "+1-603-622-2000",
      "addr_state": "NH",
      "addr_city": "Manchester",
      "addr_postcode": "03101",
      "addr_street": "Lake Avenue",
      "addr_housenumber": "12",
      "value": 329.0808668536776
    },
    {
      "id": 163810,
      "geometry": "POINT (-71.459182 42.99068)",
      "poi_name": "The Market Deli & Caf\u00e9",
      "osm_id": 9437776837,
      "amenity": "restaurant",
      "addr_state": "NH",
      "addr_city": "Manchester",
      "addr_postcode": "03103",
      "addr_street": "Pine Street",
      "addr_housenumber": "361",
      "value": 329.0808668536776
    },
    {
      "id": 163648,
      "geometry": "POINT (-71.460792 42.991047)",
      "poi_name": "Hooked Seafood Restaurant",
      "osm_id": 9428923476,
      "amenity": "restaurant",
      "cuisine": "seafood",
      "website": "http://www.hookednh.com/",
      "addr_city": "Manchester",
      "addr_postcode": "03101",
      "addr_street": "Hanover Street",
      "addr_housenumber": "110",
      "value": 329.0808668536776
    },
    {
      "id": 163649,
      "geometry": "POINT (-71.460877 42.991048)",
      "poi_name": "Ignite Bar & Grille",
      "osm_id": 9428923477,
      "amenity": "restaurant",
      "website": "http://ignitebng.com/",
      "addr_city": "Manchester",
      "addr_postcode": "03101",
      "addr_street": "Hanover Street",
      "addr_housenumber": "100",
      "value": 329.0808668536776
    },
    {
      "id": 163651,
      "geometry": "POINT (-71.462796 42.99104)",
      "poi_name": "Greenhouse Manchester",
      "osm_id": 9429025673,
      "amenity": "restaurant",
      "addr_state": "NH",
      "addr_city": "Manchester",
      "addr_postcode": "03101",
      "addr_street": "Elm Street",
      "addr_housenumber": "889",
      "value": 329.0808668536776
    },
    {
      "id": 163466,
      "geometry": "POINT (-71.46215 42.991872)",
      "poi_name": "Consuelo's Taqueria",
      "osm_id": 9420531399,
      "amenity": "restaurant",
      "cuisine": "mexican",
      "website": "http://www.consuelostaqueria.com/",
      "addr_city": "Manchester",
      "addr_postcode": "03101",
      "addr_street": "Amherst Street",
      "addr_housenumber": "36",
      "value": 329.0808668536776
    },
    {
      "id": 163705,
      "geometry": "POINT (-71.223153 42.769753)",
      "poi_name": "The Beach Plum",
      "osm_id": 9431723089,
      "amenity": "restaurant",
      "cuisine": "seafood",
      "addr_state": "NH",
      "addr_city": "Salem",
      "value": 329.0808668536776
    },
    {
      "id": 163707,
      "geometry": "POINT (-71.461215 42.990818)",
      "poi_name": "Suddenly Susan's Deli",
      "osm_id": 9431875902,
      "amenity": "restaurant",
      "cuisine": "sandwich",
      "website": "http://www.suddenlysusans.com/",
      "addr_state": "NH",
      "addr_city": "Manchester",
      "addr_postcode": "03101",
      "addr_street": "Hanover Street",
      "addr_housenumber": "87",
      "value": 329.0808668536776
    },
    {
      "id": 163708,
      "geometry": "POINT (-71.462816 42.990358)",
      "poi_name": "110 Grill",
      "osm_id": 9431924638,
      "amenity": "restaurant",
      "cuisine": "american",
      "addr_state": "NH",
      "addr_city": "Manchester",
      "addr_postcode": "03101",
      "addr_street": "Elm Street",
      "addr_housenumber": "875",
      "value": 329.0808668536776
    },
    {
      "id": 163710,
      "geometry": "POINT (-71.462828 42.989535)",
      "poi_name": "Thirsty Moose Taphouse",
      "osm_id": 9432042648,
      "amenity": "restaurant",
      "website": "https://www.thirstymoosetaphouse.com/manchester/",
      "addr_city": "Manchester",
      "addr_postcode": "03101",
      "addr_street": "Elm Street",
      "addr_housenumber": "795",
      "value": 329.0808668536776
    },
    {
      "id": 163811,
      "geometry": "POINT (-71.458988 42.990832)",
      "poi_name": "Madear's",
      "osm_id": 9437776838,
      "amenity": "restaurant",
      "addr_state": "NH",
      "addr_city": "Manchester",
      "addr_postcode": "03104",
      "addr_street": "Hanover Street",
      "addr_housenumber": "175",
      "value": 329.0808668536776
    },
    {
      "id": 164785,
      "geometry": "POINT (-71.536074 43.206344)",
      "poi_name": "Street",
      "osm_id": 9501122499,
      "amenity": "restaurant",
      "website": "https://www.streetfood360.com/",
      "addr_state": "NH",
      "addr_city": "Concord",
      "addr_postcode": "03301",
      "addr_street": "North Main Street",
      "addr_housenumber": "76",
      "value": 329.0808668536776
    },
    {
      "id": 176499,
      "geometry": "POINT (-71.202707 42.561267)",
      "poi_name": "Uncle Mickey's",
      "osm_id": 2561993154,
      "amenity": "restaurant",
      "cuisine": "sandwich",
      "takeaway": "only",
      "outdoor_seating": "no",
      "delivery": "yes",
      "addr_state": "MA",
      "addr_city": "Wilmington",
      "addr_postcode": "01887",
      "addr_street": "Shawsheen Avenue",
      "addr_housenumber": "296",
      "value": 329.0808668536776
    },
    {
      "id": 166416,
      "geometry": "POINT (-71.445888 42.986637)",
      "poi_name": "Pindos",
      "osm_id": 9591652823,
      "amenity": "restaurant",
      "cuisine": "pizza",
      "phone": "+1-603-669-2019",
      "addr_state": "NH",
      "addr_city": "Manchester",
      "addr_postcode": "03103",
      "addr_street": "Massabesic Street",
      "addr_housenumber": "49",
      "value": 329.0808668536776
    },
    {
      "id": 166425,
      "geometry": "POINT (-71.449007 42.9832)",
      "poi_name": "Bamboo Garden",
      "osm_id": 9592507701,
      "amenity": "restaurant",
      "cuisine": "chinese",
      "website": "http://www.nh-bamboogarden.com/",
      "addr_city": "Manchester",
      "addr_postcode": "03103",
      "addr_street": "Lincoln Street",
      "addr_housenumber": "329",
      "value": 329.0808668536776
    },
    {
      "id": 166438,
      "geometry": "POINT (-71.452696 42.981952)",
      "poi_name": "PizzaExpress",
      "osm_id": 9592859959,
      "amenity": "restaurant",
      "cuisine": "pizza",
      "addr_city": "Manchester",
      "addr_postcode": "03103",
      "addr_street": "Maple Street",
      "addr_housenumber": "245",
      "value": 329.0808668536776
    },
    {
      "id": 166439,
      "geometry": "POINT (-71.452506 42.981944)",
      "poi_name": "Szechuan House",
      "osm_id": 9592859961,
      "amenity": "restaurant",
      "cuisine": "chinese",
      "website": "https://www.szechuanhousenh.com/",
      "addr_city": "Manchester",
      "addr_postcode": "03103",
      "addr_street": "Maple Street",
      "addr_housenumber": "245",
      "value": 329.0808668536776
    },
    {
      "id": 173429,
      "geometry": "POINT (-71.143372 42.411598)",
      "poi_name": "My Brother's Place",
      "osm_id": 2439296493,
      "amenity": "restaurant",
      "cuisine": "american;greek;pizza",
      "website": "http://mybrothersplacearlington.com/",
      "phone": "+1 781-646-0110",
      "addr_city": "Arlington",
      "addr_postcode": "02474",
      "addr_street": "Broadway",
      "addr_housenumber": "181",
      "value": 329.0808668536776
    },
    {
      "id": 174974,
      "geometry": "POINT (-71.182696 42.424388)",
      "poi_name": "Boston Pizza & Gyro",
      "osm_id": 2502359000,
      "amenity": "restaurant",
      "cuisine": "pizza;italian;greek;sandwich",
      "website": "https://www.bostonpizzagyro.com/",
      "phone": "+1 781-777-2770",
      "outdoor_seating": "no",
      "addr_state": "MA",
      "addr_city": "Arlington",
      "addr_postcode": "02476",
      "addr_street": "Massachusetts Avenue",
      "addr_housenumber": "1323",
      "value": 329.0808668536776
    },
    {
      "id": 172327,
      "geometry": "POINT (-71.141371 42.405288)",
      "poi_name": "Thrive Juice Cafe",
      "osm_id": 2400006231,
      "amenity": "restaurant",
      "cuisine": "wrap;juice;sandwich",
      "opening_hours": "Mo off; Tu-Fr 08:30-18:00; Sa-Su 8:30-16:00",
      "website": "https://www.thrivejuicecafe.com/",
      "phone": "+1 781-777-1451",
      "takeaway": "yes",
      "outdoor_seating": "yes",
      "addr_state": "MA",
      "addr_city": "Arlington",
      "addr_postcode": "02474",
      "addr_street": "Massachusetts Avenue",
      "addr_housenumber": "169",
      "value": 329.0808668536776
    },
    {
      "id": 172328,
      "geometry": "POINT (-71.141237 42.405182)",
      "poi_name": "Number 1 Taste",
      "osm_id": 2400007794,
      "amenity": "restaurant",
      "cuisine": "chinese",
      "addr_state": "MA",
      "addr_city": "Arlington",
      "addr_postcode": "02474",
      "addr_street": "Massachusetts Avenue",
      "addr_housenumber": "165",
      "value": 329.0808668536776
    },
    {
      "id": 172329,
      "geometry": "POINT (-71.14104 42.405029)",
      "poi_name": "Anthony's East Side Deli",
      "osm_id": 2400007834,
      "amenity": "restaurant",
      "cuisine": "sandwich",
      "addr_state": "MA",
      "addr_city": "Arlington",
      "addr_postcode": "02474",
      "addr_street": "Massachusetts Avenue",
      "addr_housenumber": "159",
      "value": 329.0808668536776
    },
    {
      "id": 177996,
      "geometry": "POINT (-71.13681 42.401622)",
      "poi_name": "Menotomy Grill and Tavern",
      "osm_id": 2611798603,
      "amenity": "restaurant",
      "cuisine": "pub",
      "website": "https://www.menotomygrill.com/",
      "capacity": "100",
      "addr_state": "MA",
      "addr_city": "Arlington",
      "addr_postcode": "02474",
      "addr_street": "Massachusetts Avenue",
      "addr_housenumber": "25",
      "value": 329.0808668536776
    },
    {
      "id": 177997,
      "geometry": "POINT (-71.138564 42.40259)",
      "poi_name": "Maria's Pizzeria and Grille",
      "osm_id": 2611798739,
      "amenity": "restaurant",
      "cuisine": "pizza",
      "opening_hours": "Mo-Sa 11:00-22:00; Su 12:00-21:00",
      "website": "http://mariaspizzeriaandgrille.com/",
      "capacity": "10",
      "addr_state": "MA",
      "addr_city": "Arlington",
      "addr_postcode": "02476",
      "addr_street": "Massachusetts Avenue",
      "addr_housenumber": "86",
      "value": 329.0808668536776
    },
    {
      "id": 178203,
      "geometry": "POINT (-71.71415 43.223633)",
      "poi_name": "Riverside Pizza",
      "osm_id": 10717880153,
      "amenity": "restaurant",
      "cuisine": "pizza;italian;sandwich;ice_cream",
      "wheelchair": "yes",
      "opening_hours": "Daily 11am-8pm",
      "website": "RiversidePizzaNH.com",
      "internet_access": "wlan",
      "phone": "603-746-4300",
      "outdoor_seating": "yes",
      "addr_state": "NH",
      "addr_city": "Contoocook",
      "addr_postcode": "03229",
      "addr_street": "Park Avenue",
      "addr_housenumber": "14",
      "value": 329.0808668536776
    },
    {
      "id": 179917,
      "geometry": "POINT (-71.151899 42.480218)",
      "poi_name": "Spicy Hunan Kitchen",
      "osm_id": 10781960905,
      "amenity": "restaurant",
      "cuisine": "chinese",
      "opening_hours": "Mo,We-Fr 11:30-21:00; Sa-Su 11:30-22:00",
      "website": "https://www.spicyhunan.com",
      "phone": "+1-781-496-2909",
      "addr_state": "MA",
      "addr_city": "Woburn",
      "addr_postcode": "01801",
      "addr_street": "Main Street",
      "addr_housenumber": "390",
      "value": 329.0808668536776
    },
    {
      "id": 178511,
      "geometry": "POINT (-71.19615 42.426393)",
      "poi_name": "Nick's Place",
      "osm_id": 10728632900,
      "amenity": "restaurant",
      "cuisine": "pizza;sandwich",
      "website": "https://nicksplacelexington.com/",
      "phone": "+1-781-863-0509",
      "takeaway": "yes",
      "delivery": "yes",
      "addr_state": "MA",
      "addr_city": "Lexington",
      "addr_postcode": "02420",
      "addr_street": "Massachusetts Avenue",
      "addr_housenumber": "197",
      "value": 329.0808668536776
    },
    {
      "id": 185595,
      "geometry": "POINT (-71.449791 43.016819)",
      "poi_name": "Cheng Du Kitchen",
      "osm_id": 7869908458,
      "amenity": "restaurant",
      "cuisine": "chinese",
      "website": "https://www.chengdumanchester.com/",
      "phone": "+1-603-626-1689",
      "addr_state": "NH",
      "addr_city": "Manchester",
      "addr_postcode": "03104",
      "addr_street": "Hooksett Road",
      "addr_housenumber": "665",
      "value": 329.0808668536776
    },
    {
      "id": 181003,
      "geometry": "POINT (-71.151894 42.415141)",
      "poi_name": "Acitron Cocina Mexicana",
      "osm_id": 10828163818,
      "amenity": "restaurant",
      "cuisine": "mexican",
      "opening_hours": "Mo-Sa 17:00-21:30, Su 17:00-21:00, Fr,Sa 11:30-15:00",
      "addr_state": "MA",
      "addr_city": "Arlington",
      "addr_postcode": "02476",
      "addr_street": "Massachusetts Avenue",
      "addr_housenumber": "473",
      "value": 329.0808668536776
    },
    {
      "id": 181006,
      "geometry": "POINT (-71.150391 42.41449)",
      "poi_name": "Brickstone Cafe",
      "osm_id": 10828220909,
      "amenity": "restaurant",
      "cuisine": "pizza",
      "addr_state": "MA",
      "addr_city": "Arlington",
      "addr_postcode": "02474",
      "addr_street": "Broadway Terrace",
      "addr_housenumber": "309",
      "value": 329.0808668536776
    },
    {
      "id": 185381,
      "geometry": "POINT (-71.46919 43.068406)",
      "poi_name": "Pizza Man Restaurant and Bar",
      "osm_id": 7851351328,
      "amenity": "restaurant",
      "cuisine": "pizza",
      "website": "https://thepizzamandelivers.com/",
      "phone": "+1-603-626-7499",
      "addr_state": "NH",
      "addr_city": "Hooksett",
      "addr_postcode": "03106",
      "addr_street": "West River Road",
      "addr_housenumber": "254",
      "value": 329.0808668536776
    },
    {
      "id": 186280,
      "geometry": "POINT (-71.820164 43.179735)",
      "poi_name": "SuperScoops",
      "osm_id": 7924437828,
      "amenity": "restaurant",
      "cuisine": "ice_cream",
      "opening_hours": "Tu-Su 10:30-21:00",
      "website": "https://superscoops.com/",
      "phone": "+1-603-717-0661",
      "addr_state": "NH",
      "addr_city": "Henniker",
      "addr_postcode": "03242",
      "addr_street": "Main Street",
      "addr_housenumber": "58",
      "value": 329.0808668536776
    },
    {
      "id": 186678,
      "geometry": "POINT (-71.60516 43.290726)",
      "poi_name": "Alan's of Boscawen",
      "osm_id": 7943313310,
      "amenity": "restaurant",
      "website": "https://alansofboscawen.com/",
      "phone": "+1-603-753-6631",
      "addr_state": "NH",
      "addr_city": "Boscawen",
      "addr_postcode": "03303",
      "addr_street": "North Main Street",
      "addr_housenumber": "133",
      "value": 329.0808668536776
    },
    {
      "id": 187118,
      "geometry": "POINT (-71.540353 43.202337)",
      "poi_name": "Nonas Place",
      "osm_id": 7973651761,
      "amenity": "restaurant",
      "cuisine": "italian",
      "opening_hours": "Mo-Th 11:00-21:00; Fr,Sa 11:00-22:00",
      "addr_state": "NH",
      "addr_city": "Concord",
      "addr_street": "Pleasant Street",
      "addr_housenumber": "60",
      "value": 329.0808668536776
    },
    {
      "id": 191733,
      "geometry": "POINT (-71.22762 42.44703)",
      "poi_name": "The Upper Crust",
      "osm_id": 1390181592,
      "amenity": "restaurant",
      "cuisine": "pizza",
      "wheelchair": "no",
      "opening_hours": "Su-Th 11:00-22:00; Fr-Sa 11:00-23:00",
      "website": "https://theuppercrustpizzeria.com/locations/#LEXINGTON",
      "internet_access": "wlan",
      "phone": "+1-781-274-0089",
      "delivery": "yes",
      "addr_state": "MA",
      "addr_city": "Lexington",
      "addr_postcode": "02421",
      "addr_street": "Waltham Street",
      "addr_housenumber": "41",
      "value": 329.0808668536776
    },
    {
      "id": 193209,
      "geometry": "POINT (-71.432041 42.687728)",
      "poi_name": "Bella Italia",
      "osm_id": 1509405141,
      "amenity": "restaurant",
      "cuisine": "italian",
      "website": "http://www.bellaitaliarestaurant.com/",
      "addr_city": "Tyngsboro",
      "addr_postcode": "01879",
      "addr_street": "Pondview Place",
      "addr_housenumber": "22",
      "value": 329.0808668536776
    },
    {
      "id": 195544,
      "geometry": "POINT (-71.666481 42.837384)",
      "poi_name": "Grill 603",
      "osm_id": 10311405097,
      "amenity": "restaurant",
      "opening_hours": "Mo-Th 11:30-21:00; Fr-Sa 11:30-22:00; Su 11:30-20:00",
      "website": "https://www.grill603.com/",
      "phone": "+1-603-213-6764",
      "addr_state": "NH",
      "addr_city": "Milford",
      "addr_postcode": "03055",
      "addr_street": "Elm Street",
      "addr_housenumber": "168",
      "value": 329.0808668536776
    },
    {
      "id": 197083,
      "geometry": "POINT (-71.567646 43.258909)",
      "poi_name": "The 19th Hole at Beaver Meadow",
      "osm_id": 10611797809,
      "amenity": "restaurant",
      "phone": "+16032285308",
      "addr_state": "NH",
      "addr_city": "Concord",
      "addr_postcode": "03301",
      "addr_street": "Beaver Meadow Drive",
      "addr_housenumber": "1",
      "value": 329.0808668536776
    },
    {
      "id": 200181,
      "geometry": "POINT (-71.352026 42.596574)",
      "poi_name": "Rosco's Diner",
      "osm_id": 1020805873,
      "amenity": "restaurant",
      "addr_city": "Chelmsford",
      "addr_street": "Central Square",
      "addr_housenumber": "11",
      "value": 329.0808668536776
    },
    {
      "id": 201456,
      "geometry": "POINT (-71.15067 42.415027)",
      "poi_name": "WooRi Korean Fusion Grill",
      "osm_id": 633118822,
      "amenity": "restaurant",
      "cuisine": "korean",
      "opening_hours": "Mo-Fr 11:00-15:00,16:30-21:30; Sa,Su 11:00-21:30",
      "takeaway": "yes",
      "addr_state": "MA",
      "addr_city": "Arlington",
      "addr_street": "Medford Street",
      "addr_housenumber": "9",
      "value": 329.0808668536776
    },
    {
      "id": 202591,
      "geometry": "POINT (-71.471651 42.984131)",
      "poi_name": "Giorgio's Ristorante & Bar",
      "osm_id": 7039512829,
      "amenity": "restaurant",
      "cuisine": "italian",
      "opening_hours": "Mo-Su 11:30-20:00",
      "website": "https://giorgios.com/",
      "phone": "+1-603-232-3323",
      "addr_state": "NH",
      "addr_city": "Manchester",
      "addr_postcode": "03102",
      "addr_street": "Granite Street",
      "addr_housenumber": "270",
      "value": 329.0808668536776
    },
    {
      "id": 204360,
      "geometry": "POINT (-71.353782 43.293644)",
      "poi_name": "Flannel Tavern",
      "osm_id": 7124425321,
      "amenity": "restaurant",
      "website": "https://www.flanneltavern.com/",
      "addr_state": "NH",
      "addr_city": "Chichester",
      "addr_postcode": "03258",
      "addr_street": "Suncook Valley Road",
      "addr_housenumber": "345",
      "value": 329.0808668536776
    },
    {
      "id": 205039,
      "geometry": "POINT (-71.463785 42.992516)",
      "poi_name": "Thousand Crane",
      "osm_id": 7154858791,
      "amenity": "restaurant",
      "cuisine": "asian",
      "website": "https://www.thousandcranenh.com/",
      "addr_city": "Manchester",
      "addr_postcode": "03101",
      "addr_street": "Elm Street",
      "addr_housenumber": "1000",
      "value": 329.0808668536776
    },
    {
      "id": 205040,
      "geometry": "POINT (-71.463307 42.991671)",
      "poi_name": "Torched",
      "osm_id": 7154858799,
      "amenity": "restaurant",
      "cuisine": "pizza",
      "addr_state": "NH",
      "addr_city": "Manchester",
      "addr_postcode": "03101",
      "addr_street": "Elm Street",
      "addr_housenumber": "946",
      "value": 329.0808668536776
    },
    {
      "id": 205041,
      "geometry": "POINT (-71.46331 42.991732)",
      "poi_name": "Bonfire Restaurant & Country Bar",
      "osm_id": 7154858801,
      "amenity": "restaurant",
      "addr_state": "NH",
      "addr_city": "Manchester",
      "addr_postcode": "03101",
      "addr_street": "Elm Street",
      "addr_housenumber": "950",
      "value": 329.0808668536776
    },
    {
      "id": 205049,
      "geometry": "POINT (-71.46285 42.993203)",
      "poi_name": "Caesario's",
      "osm_id": 7155042143,
      "amenity": "restaurant",
      "cuisine": "pizza",
      "website": "http://www.caesariospizza.com/",
      "phone": "+1-603-669-8383",
      "addr_state": "NH",
      "addr_city": "Manchester",
      "addr_postcode": "03101",
      "addr_street": "Elm Street",
      "addr_housenumber": "1057",
      "value": 329.0808668536776
    },
    {
      "id": 205915,
      "geometry": "POINT (-71.521582 42.792954)",
      "poi_name": "India Palace",
      "osm_id": 7188768314,
      "amenity": "restaurant",
      "cuisine": "indian",
      "website": "https://www.indiapalacenh.com/",
      "addr_state": "NH",
      "addr_city": "Nashua",
      "addr_postcode": "03063",
      "addr_street": "Amherst Street",
      "addr_housenumber": "493",
      "value": 329.0808668536776
    },
    {
      "id": 205395,
      "geometry": "POINT (-71.649828 42.835135)",
      "poi_name": "Pasta Loft",
      "osm_id": 7167606635,
      "amenity": "restaurant",
      "cuisine": "italian",
      "opening_hours": "Su-Tu 11:30-21:30; We,Th 11:30-23:00; Fr,Sa 11:30-23:30",
      "website": "https://www.pastaloft.com/",
      "outdoor_seating": "yes",
      "addr_state": "NH",
      "addr_city": "Milford",
      "addr_postcode": "03055",
      "addr_street": "Union Square",
      "addr_housenumber": "241",
      "value": 329.0808668536776
    },
    {
      "id": 205916,
      "geometry": "POINT (-71.522481 42.793235)",
      "poi_name": "Ciao's Pizza",
      "osm_id": 7188768316,
      "amenity": "restaurant",
      "cuisine": "pizza",
      "website": "http://www.ciaospizza.com/",
      "addr_state": "NH",
      "addr_city": "Nashua",
      "addr_postcode": "03063",
      "addr_street": "Amherst Street",
      "addr_housenumber": "495",
      "value": 329.0808668536776
    },
    {
      "id": 205917,
      "geometry": "POINT (-71.535468 42.800474)",
      "poi_name": "Uno Pizzaria & Grill",
      "osm_id": 7188789802,
      "amenity": "restaurant",
      "cuisine": "american",
      "website": "https://www.unos.com/",
      "addr_state": "NH",
      "addr_city": "Nashua",
      "addr_postcode": "03063",
      "addr_street": "Amherst Street",
      "addr_housenumber": "593",
      "value": 329.0808668536776
    },
    {
      "id": 205918,
      "geometry": "POINT (-71.544465 42.804987)",
      "poi_name": "Giorgio's Ristorante & Martini Bar",
      "osm_id": 7188789812,
      "amenity": "restaurant",
      "cuisine": "italian",
      "opening_hours": "Mo-Sa 11:30-21:00; Su 12:00-20:00",
      "website": "https://www.giorgios.com/",
      "addr_state": "NH",
      "addr_city": "Merrimack",
      "addr_postcode": "03054",
      "addr_street": "Milford Road",
      "addr_housenumber": "707",
      "value": 329.0808668536776
    },
    {
      "id": 210045,
      "geometry": "POINT (-71.722102 43.07322)",
      "poi_name": "Dimitri's Pizza & Restaurant",
      "osm_id": 5073868140,
      "amenity": "restaurant",
      "cuisine": "pizza;fried_chicken;sandwich",
      "opening_hours": "Mo-Su 11:00-20:30",
      "website": "https://dimitrispizza.webs.com/",
      "phone": "+1-603-529-4300",
      "takeaway": "yes",
      "delivery": "no",
      "addr_state": "NH",
      "addr_city": "Weare",
      "addr_postcode": "03281",
      "addr_street": "South Stark Highway",
      "addr_housenumber": "1111",
      "value": 329.0808668536776
    },
    {
      "id": 207102,
      "geometry": "POINT (-71.464128 43.096452)",
      "poi_name": "Roots Community Table & Cafe",
      "osm_id": 7237696800,
      "amenity": "restaurant",
      "opening_hours": "Tu-Su 07:00-15:00",
      "addr_state": "NH",
      "addr_city": "Hooksett",
      "addr_postcode": "03106",
      "addr_street": "Riverside Street",
      "addr_housenumber": "9",
      "value": 329.0808668536776
    },
    {
      "id": 210079,
      "geometry": "POINT (-71.713751 43.056088)",
      "poi_name": "Generals Sports Bar and Grill",
      "osm_id": 5077381045,
      "amenity": "restaurant",
      "cuisine": "american;regional",
      "opening_hours": "Mo,Tu 15:00-21:00; We 11:00-21:00; Th,Fr 11:00-22:00; Sa 07:00-22:00; Su 07:00-21:00",
      "website": "http://generalsbargrill.comcastbiz.net/",
      "phone": "+1-603-529-3663",
      "takeaway": "yes",
      "outdoor_seating": "yes",
      "addr_state": "NH",
      "addr_city": "Weare",
      "addr_postcode": "03281",
      "addr_street": "South Stark Highway",
      "addr_housenumber": "840",
      "value": 329.0808668536776
    },
    {
      "id": 211883,
      "geometry": "POINT (-71.383661 42.639866)",
      "poi_name": "Zesty's Pizza",
      "osm_id": 5178356808,
      "amenity": "restaurant",
      "cuisine": "pizza",
      "opening_hours": "Mo-Sa 11:00-21:00; Su 11:00-20:00",
      "takeaway": "yes",
      "delivery": "yes",
      "addr_state": "MA",
      "addr_city": "North Chelmsford",
      "addr_postcode": "01863",
      "addr_street": "Vinal Square",
      "addr_housenumber": "10",
      "value": 329.0808668536776
    },
    {
      "id": 211884,
      "geometry": "POINT (-71.34904 42.600262)",
      "poi_name": "Zesty's Pizza",
      "osm_id": 5178363533,
      "amenity": "restaurant",
      "cuisine": "pizza",
      "opening_hours": "Mo-Sa 11:00-21:00; Su 11:00-20:00",
      "takeaway": "yes",
      "delivery": "yes",
      "addr_state": "MA",
      "addr_city": "Chelmsford",
      "addr_postcode": "01824",
      "addr_street": "Fletcher Street",
      "addr_housenumber": "14",
      "value": 329.0808668536776
    },
    {
      "id": 211889,
      "geometry": "POINT (-71.483735 42.673746)",
      "poi_name": "The Farmhouse Cafe",
      "osm_id": 5178704490,
      "amenity": "restaurant",
      "cuisine": "coffee_shop",
      "opening_hours": "Mo-Sa 06:00-16:00; Su 07:00-13:00",
      "addr_state": "MA",
      "addr_city": "Dunstable",
      "addr_postcode": "01827",
      "addr_street": "Pleasant Street",
      "addr_housenumber": "17",
      "value": 329.0808668536776
    },
    {
      "id": 218587,
      "geometry": "POINT (-71.457586 42.995473)",
      "poi_name": "Julien's Corner Kitchen",
      "osm_id": 9286974118,
      "amenity": "restaurant",
      "phone": "+1-603-622-4044",
      "addr_state": "NH",
      "addr_city": "Manchester",
      "addr_postcode": "03104",
      "addr_street": "Bridge Street",
      "addr_housenumber": "150",
      "value": 329.0808668536776
    },
    {
      "id": 220655,
      "geometry": "POINT (-71.463355 42.99183)",
      "poi_name": "Noodz",
      "osm_id": 9382026287,
      "amenity": "restaurant",
      "addr_city": "Manchester",
      "addr_postcode": "03101",
      "addr_street": "Elm Street",
      "addr_housenumber": "968",
      "value": 329.0808668536776
    },
    {
      "id": 219561,
      "geometry": "POINT (-71.462853 42.993104)",
      "poi_name": "Cheers & Beers",
      "osm_id": 9335647548,
      "amenity": "restaurant",
      "addr_state": "NH",
      "addr_city": "Manchester",
      "addr_postcode": "03101",
      "addr_street": "Elm Street",
      "addr_housenumber": "1055",
      "value": 329.0808668536776
    },
    {
      "id": 227393,
      "geometry": "POINT (-71.390828 42.581841)",
      "poi_name": "Thai Jasmine",
      "osm_id": 4306240161,
      "amenity": "restaurant",
      "cuisine": "thai",
      "opening_hours": "Mo-Fr 11:30-14:30,16:00-20:30,Sa 16:00-20:30",
      "website": "https://www.thaijasminema.com",
      "phone": "+1-978-250-9509",
      "addr_state": "MA",
      "addr_city": "Chelmsford",
      "addr_postcode": "01824",
      "addr_street": "Littleton Road",
      "addr_housenumber": "313",
      "value": 329.0808668536776
    },
    {
      "id": 223284,
      "geometry": "POINT (-71.151191 42.481113)",
      "poi_name": "Zaika Indian Bistro",
      "osm_id": 11049886584,
      "amenity": "restaurant",
      "cuisine": "indian",
      "opening_hours": "Mo-Su 12:00-21:00",
      "website": "https://www.zaikaindianbistro.com",
      "phone": "+1-781-933-9090",
      "addr_state": "MA",
      "addr_city": "Woburn",
      "addr_postcode": "01801",
      "addr_street": "Main Street",
      "addr_housenumber": "442",
      "value": 329.0808668536776
    },
    {
      "id": 223285,
      "geometry": "POINT (-71.150906 42.48164)",
      "poi_name": "Gene's Chinese Flatbread Cafe",
      "osm_id": 11049886586,
      "amenity": "restaurant",
      "cuisine": "chinese",
      "opening_hours": "Tu-Su 11:00-20:00",
      "website": "https://genescafewoburn.com",
      "phone": "+1-781-938-6888",
      "addr_state": "MA",
      "addr_city": "Woburn",
      "addr_postcode": "01801",
      "addr_street": "Main Street",
      "addr_housenumber": "466",
      "value": 329.0808668536776
    },
    {
      "id": 223289,
      "geometry": "POINT (-71.151185 42.478405)",
      "poi_name": "Sam's Kitchen",
      "osm_id": 11049921658,
      "amenity": "restaurant",
      "cuisine": "italian",
      "opening_hours": "Mo-Th 16:00-21:00; Fr-Sa 16:00-22:00",
      "website": "https://www.samskitchenwoburn.com",
      "phone": "+1-781-305-3375",
      "outdoor_seating": "no",
      "addr_state": "MA",
      "addr_city": "Woburn",
      "addr_postcode": "01801",
      "addr_street": "Main Street",
      "addr_housenumber": "307",
      "value": 329.0808668536776
    },
    {
      "id": 223290,
      "geometry": "POINT (-71.151736 42.4799)",
      "poi_name": "3 Country Bistro",
      "osm_id": 11049922647,
      "amenity": "restaurant",
      "cuisine": "korean;thai;japanese",
      "opening_hours": "Mo-Sa 11:30-15:00,16:30-21:00",
      "website": "https://www.threecountrybistro.com",
      "phone": "+1-781-376-8030",
      "addr_state": "MA",
      "addr_city": "Woburn",
      "addr_postcode": "01801",
      "addr_street": "Main Street",
      "addr_housenumber": "379",
      "value": 329.0808668536776
    },
    {
      "id": 224873,
      "geometry": "POINT (-71.950238 42.875964)",
      "poi_name": "Waterhouse",
      "osm_id": 11102091871,
      "amenity": "restaurant",
      "cuisine": "american",
      "opening_hours": "Su-Th 11:30-20:00, Fr-Sa 11:30-21:00",
      "website": "https://waterhousenh.com/",
      "phone": "+16039244001",
      "addr_state": "NH",
      "addr_city": "Peterborough",
      "addr_postcode": "03458",
      "addr_street": "Depot Street",
      "addr_housenumber": "18",
      "value": 329.0808668536776
    },
    {
      "id": 229646,
      "geometry": "POINT (-71.490389 42.776691)",
      "poi_name": "Ninety Nine",
      "osm_id": 4391346445,
      "amenity": "restaurant",
      "opening_hours": "Mo-We 11:00-23:00; Th-Sa 11:00-24:00; Su 11:00-22:00",
      "phone": "+1-603-883-9998",
      "addr_state": "NH",
      "addr_city": "Nashua",
      "addr_postcode": "03064",
      "addr_street": "Saint Laurent Street",
      "addr_housenumber": "10",
      "value": 329.0808668536776
    },
    {
      "id": 232629,
      "geometry": "POINT (-71.194556 42.484474)",
      "poi_name": "Not Your Average Joe's",
      "osm_id": 4535677044,
      "amenity": "restaurant",
      "cuisine": "american",
      "opening_hours": "Mo-Th 11:45-21:00; Fr 11:30-22:00; Sa 11:00-22:00; Su 11:00-21:00",
      "website": "https://www.notyouraveragejoes.com/locations/massachusetts/burlington/",
      "phone": "+1 781 505 1303",
      "takeaway": "yes",
      "outdoor_seating": "yes",
      "addr_city": "Burlington",
      "addr_postcode": "01803",
      "addr_street": "Wayside Road",
      "addr_housenumber": "4C",
      "value": 329.0808668536776
    },
    {
      "id": 232630,
      "geometry": "POINT (-71.194365 42.484319)",
      "poi_name": "The Treasury Indian & Greek Kitchen",
      "osm_id": 4535677045,
      "amenity": "restaurant",
      "cuisine": "indian;greek",
      "opening_hours": "Mo-Su 11:00-15:00,17:00-22:00",
      "website": "https://treasuryrestaurant.com/",
      "phone": "+1-781-202-8000",
      "takeaway": "yes",
      "delivery": "yes",
      "addr_city": "Burlington",
      "addr_postcode": "01803",
      "addr_street": "Wayside Road",
      "addr_housenumber": "4A",
      "value": 329.0808668536776
    },
    {
      "id": 233571,
      "geometry": "POINT (-71.192599 42.485617)",
      "poi_name": "Seasons 52",
      "osm_id": 4579939622,
      "amenity": "restaurant",
      "cuisine": "american",
      "opening_hours": "Mo-Sa 11:30-22:00; Su 11:30-21:00",
      "website": "https://www.seasons52.com/locations/ma/burlington/burlington/4530",
      "phone": "+1-781-272-5552",
      "takeaway": "yes",
      "outdoor_seating": "yes",
      "addr_city": "Burlington",
      "addr_postcode": "01803",
      "addr_street": "Wayside Road",
      "addr_housenumber": "6",
      "value": 329.0808668536776
    },
    {
      "id": 233729,
      "geometry": "POINT (-71.130781 42.405716)",
      "poi_name": "Venus Pizza and Grill",
      "osm_id": 4584792121,
      "amenity": "restaurant",
      "cuisine": "pizza",
      "addr_state": "MA",
      "addr_city": "Somerville",
      "addr_street": "Broadway",
      "addr_housenumber": "1293",
      "value": 329.0808668536776
    },
    {
      "id": 234485,
      "geometry": "POINT (-71.184712 42.565284)",
      "poi_name": "Greg's Pizza and Roast Beef",
      "osm_id": 4624465340,
      "amenity": "restaurant",
      "cuisine": "pizza",
      "takeaway": "only",
      "delivery": "yes",
      "addr_state": "MA",
      "addr_city": "Wilmington",
      "addr_postcode": "01887",
      "addr_street": "Main Street",
      "addr_housenumber": "101",
      "value": 329.0808668536776
    },
    {
      "id": 236946,
      "geometry": "POINT (-71.45259 43.130835)",
      "poi_name": "Mei's Chinese Restaurant",
      "osm_id": 5813369704,
      "amenity": "restaurant",
      "cuisine": "chinese",
      "opening_hours": "Tu-Th 11:00-22:00; Fr-Sa 11:00-22:30; Su 12:00-21:00",
      "takeaway": "yes",
      "addr_state": "NH",
      "addr_city": "Pembroke",
      "addr_postcode": "03275",
      "addr_street": "Main Street",
      "addr_housenumber": "117",
      "value": 329.0808668536776
    },
    {
      "id": 239460,
      "geometry": "POINT (-71.312182 42.657198)",
      "poi_name": "Vic\u2019s Breakfast, Subs and Bakery",
      "osm_id": 5922356542,
      "amenity": "restaurant",
      "addr_state": "MA",
      "addr_city": "Lowell",
      "addr_postcode": "01850",
      "addr_street": "Lilley Avenue",
      "addr_housenumber": "1",
      "value": 329.0808668536776
    },
    {
      "id": 242528,
      "geometry": "POINT (-71.531303 43.222747)",
      "poi_name": "Capital Commons Cafeteria",
      "osm_id": 7576453244,
      "amenity": "restaurant",
      "description": "Dining hall at NHTI campus featuring all-you-can-eat buffet-style cuisine.",
      "website": "https://www.dineoncampus.com/nhti",
      "addr_state": "NH",
      "addr_city": "Concord",
      "addr_postcode": "03301",
      "addr_street": "College Drive",
      "addr_housenumber": "31",
      "value": 329.0808668536776
    },
    {
      "id": 240773,
      "geometry": "POINT (-71.64397 42.832459)",
      "poi_name": "Golden Palace Restaurant",
      "osm_id": 5987922481,
      "amenity": "restaurant",
      "website": "https://www.goldenpalacerestaurant.net/",
      "phone": "+1-603-673-1323",
      "addr_state": "NH",
      "addr_city": "Milford",
      "addr_postcode": "03055",
      "addr_street": "Nashua Street",
      "addr_housenumber": "321",
      "value": 329.0808668536776
    }
  ],
  "answer_type": "loc",
  "question_entities": {
    "[2]": {
      "distance": 120000,
      "text": "120 kilometers"
    },
    "[3]": {
      "main_category": "amenity",
      "sub_category": "university",
      "display_name": "Radcliffe Institute for Advanced Studies, MA",
      "geo_wkt": "POINT (-71.122317 42.376159)",
      "poi": {
        "id": 70992,
        "geometry": "POINT (-71.122317 42.376159)",
        "poi_name": "Radcliffe Institute for Advanced Studies",
        "osm_id": 11378728082,
        "amenity": "university",
        "wikidata": "Q7280030",
        "addr_state": "MA"
      }
    },
    "[4]": {
      "main_category": "tourism",
      "sub_category": "zoo",
      "display_name": "Joppa Hill Farm, Bedford, NH",
      "geo_wkt": "POINT (-71.575992 42.931889)",
      "poi": {
        "id": 10743,
        "geometry": "POINT (-71.575992 42.931889)",
        "poi_name": "Joppa Hill Farm",
        "osm_id": 8014170407,
        "tourism": "zoo",
        "zoo": "petting_zoo",
        "addr_state": "NH",
        "addr_city": "Bedford",
        "addr_postcode": "03110"
      }
    },
    "[1]": {
      "main_category": "amenity",
      "sub_category": "restaurant"
    }
  },
  "id": 1240,
  "type": "range:towards+loc"
}