{
  "question": "How far can I find a museum from Nokomis Naturescape Garden, Minneapolis, MN within 110 kilometers?",
  "sql": "SELECT *, ST_Distance(ST_GeomFromText('POINT (-93.234364 44.913029)',4326)::geography, pois.geometry) AS distance FROM pois\nWHERE ST_DWithin(pois.geometry, ST_GeomFromText('POINT (-93.234364 44.913029)',4326)::geography, 110000)\nAND tourism = 'museum';\n",
  "answers": [
    {
      "id": 1381,
      "geometry": "POINT (-93.16041 44.455853)",
      "poi_name": "Northfield Historical Society",
      "osm_id": 2966235618,
      "tourism": "museum",
      "museum": "history",
      "addr_postcode": "55057",
      "addr_street": "DIvision Street South",
      "addr_housenumber": "408",
      "distance": 51141.11080596
    },
    {
      "id": 2689,
      "geometry": "POINT (-93.096904 44.947714)",
      "poi_name": "Minnesota Children's Museum",
      "osm_id": 546885175,
      "tourism": "museum",
      "fee": "yes",
      "website": "https://mcm.org/",
      "distance": 11515.65121302
    },
    {
      "id": 4773,
      "geometry": "POINT (-93.360941 44.938725)",
      "poi_name": "St Louis Park Historical Society",
      "osm_id": 9604575735,
      "tourism": "museum",
      "website": "https://slphistory.org/",
      "museum": "history",
      "addr_state": "MN",
      "addr_city": "Saint Louis Park",
      "addr_postcode": "55416",
      "addr_street": "Dakota Avenue South",
      "addr_housenumber": "3546",
      "distance": 10393.07552766
    },
    {
      "id": 6209,
      "geometry": "POINT (-93.271565 44.974564)",
      "poi_name": "Foshay Tower Museum/Observation Deck",
      "osm_id": 1781956452,
      "tourism": "museum",
      "website": "https://www.exploreminnesota.com/profile/foshay-museum-observation-deck/3510",
      "phone": "+1-651-556-8465",
      "addr_state": "MN",
      "addr_city": "St. Paul",
      "addr_postcode": "55101",
      "addr_street": "7th Place E",
      "addr_housenumber": "121",
      "distance": 7442.07574235
    },
    {
      "id": 6326,
      "geometry": "POINT (-93.998518 44.147882)",
      "poi_name": "Conkling Art Center",
      "osm_id": 1819686132,
      "tourism": "museum",
      "opening_hours": "Mo-Fr 9:00-16:00",
      "website": "https://hss.mnsu.edu/academic-programs/art/galleries/conkling-gallery/",
      "addr_city": "Mankato",
      "distance": 104491.77595241
    },
    {
      "id": 7312,
      "geometry": "POINT (-93.910264 44.528026)",
      "poi_name": "Sibley County Historic Society and Museum",
      "osm_id": 2084977431,
      "tourism": "museum",
      "website": "https://www.sibleycountyhistoricalsociety.com/",
      "distance": 68542.82773467
    },
    {
      "id": 7313,
      "geometry": "POINT (-93.885646 44.540095)",
      "poi_name": "Ney Nature Center",
      "osm_id": 2084979819,
      "tourism": "museum",
      "distance": 66177.93612496
    },
    {
      "id": 8572,
      "geometry": "POINT (-93.46528 44.832588)",
      "poi_name": "Wings of the North Air Museum",
      "osm_id": 8567241145,
      "tourism": "museum",
      "opening_hours": "closed \"Temporarily Closed\"",
      "operator": "Wings of the North",
      "website": "https://wotn.org/",
      "museum": "aviation",
      "addr_state": "MN",
      "addr_city": "Eden Prairie",
      "addr_postcode": "55347",
      "addr_street": "Pioneer Trail",
      "addr_housenumber": "14857",
      "distance": 20319.26664051
    },
    {
      "id": 10318,
      "geometry": "POINT (-93.227565 44.975158)",
      "poi_name": "Heritage Gallery",
      "osm_id": 6781878128,
      "tourism": "museum",
      "website": "https://mac-events.org/about/heritagegallery.html",
      "distance": 6925.21320663
    },
    {
      "id": 11283,
      "geometry": "POINT (-93.428932 45.118444)",
      "poi_name": "Maple Grove History Museum",
      "osm_id": 9919948195,
      "tourism": "museum",
      "opening_hours": "Su 13:00-16:00",
      "operator": "City of Maple Grove",
      "website": "https://www.maplegrovemnhistory.org/",
      "museum": "history",
      "addr_state": "MN",
      "addr_city": "Maple Grove",
      "addr_street": "Forestview Lane North",
      "addr_housenumber": "9030",
      "distance": 27501.75151102
    },
    {
      "id": 14395,
      "geometry": "POINT (-92.683843 45.77642)",
      "poi_name": "Grantsburg Area Historical Society Museum",
      "osm_id": 4296966419,
      "tourism": "museum",
      "opening_hours": "May Mo[-1]-Sep Mo[1]: Su 13:00-16:00",
      "operator": "Grantsburg Area Historical Society",
      "website": "http://www.grantsburgwi.com/",
      "addr_state": "WI",
      "addr_city": "Grantsburg",
      "addr_postcode": "54840",
      "addr_housenumber": "133",
      "distance": 105209.08531336
    },
    {
      "id": 14396,
      "geometry": "POINT (-92.6838 45.776231)",
      "poi_name": "Original Burnett County Jail",
      "osm_id": 4297022382,
      "tourism": "museum",
      "operator": "Grantsburg Area Historica Society",
      "website": "https://grantsburgareahistoricalsociety.weebly.com/",
      "addr_state": "WI",
      "addr_city": "Grantsburg",
      "addr_postcode": "54840",
      "addr_street": "South Oak Street",
      "distance": 105191.33517914
    },
    {
      "id": 14397,
      "geometry": "POINT (-92.683824 45.77601)",
      "poi_name": "Emma's House",
      "osm_id": 4297023587,
      "tourism": "museum",
      "operator": "Grantsburg Area Historica Society",
      "addr_state": "WI",
      "addr_city": "Grantsburg",
      "addr_postcode": "54840",
      "addr_street": "South Oak Street",
      "distance": 105168.22395909
    },
    {
      "id": 14398,
      "geometry": "POINT (-92.671096 45.773394)",
      "poi_name": "Reed Lake School",
      "osm_id": 4297032677,
      "tourism": "museum",
      "opening_hours": "\"By Appointment Only\"",
      "operator": "Grantsburg Area Historical Society",
      "website": "https://grantsburgareahistoricalsociety.weebly.com/buildings.html",
      "addr_state": "WI",
      "addr_city": "Grantsburg",
      "addr_postcode": "54840",
      "distance": 105317.78159885
    },
    {
      "id": 16923,
      "geometry": "POINT (-92.785372 45.492969)",
      "poi_name": "Amador Heritage Center",
      "osm_id": 367058114,
      "tourism": "museum",
      "addr_state": "MN",
      "distance": 73474.08993088
    },
    {
      "id": 16936,
      "geometry": "POINT (-92.821522 45.039043)",
      "poi_name": "Washington County Historical Society Museum",
      "osm_id": 367068133,
      "tourism": "museum",
      "website": "https://www.wchsmn.org/",
      "addr_state": "MN",
      "addr_city": "Stillwater",
      "addr_street": "Greeley Street South",
      "addr_housenumber": "1862",
      "distance": 35448.30628235
    },
    {
      "id": 16937,
      "geometry": "POINT (-92.782778 44.902778)",
      "poi_name": "Afton Historical Museum",
      "osm_id": 367068136,
      "tourism": "museum",
      "addr_state": "MN",
      "distance": 35681.28163705
    },
    {
      "id": 16939,
      "geometry": "POINT (-93.582632 44.583053)",
      "poi_name": "Gopher State Railroad Museum",
      "osm_id": 367068149,
      "tourism": "museum",
      "website": "http://www.gsrm.org/",
      "addr_state": "MN",
      "distance": 45883.2341534
    },
    {
      "id": 16951,
      "geometry": "POINT (-93.237716 44.094073)",
      "poi_name": "Union Depot (Historic)",
      "osm_id": 367068193,
      "tourism": "museum",
      "addr_state": "MN",
      "distance": 91004.43795122
    },
    {
      "id": 16954,
      "geometry": "POINT (-94.003011 44.159966)",
      "poi_name": "Blue Earth County Heritage Center Museum",
      "osm_id": 367068236,
      "tourism": "museum",
      "website": "https://blueearthcountyhistory.com/",
      "addr_state": "MN",
      "addr_city": "Mankato",
      "distance": 103608.55388436
    },
    {
      "id": 16955,
      "geometry": "POINT (-93.673056 44.201111)",
      "poi_name": "Le Sueur County Museum",
      "osm_id": 367068237,
      "tourism": "museum",
      "addr_state": "MN",
      "distance": 86448.1203088
    },
    {
      "id": 16958,
      "geometry": "POINT (-93.910013 44.465525)",
      "poi_name": "Le Sueur Museum",
      "osm_id": 367068249,
      "tourism": "museum",
      "addr_state": "MN",
      "distance": 73086.18292789
    },
    {
      "id": 16959,
      "geometry": "POINT (-93.915142 44.462192)",
      "poi_name": "Mayoview History Center",
      "osm_id": 367068250,
      "tourism": "museum",
      "addr_state": "MN",
      "distance": 73637.21976428
    },
    {
      "id": 16960,
      "geometry": "POINT (-93.950391 44.348838)",
      "poi_name": "Treaty Site History Center Museum",
      "osm_id": 367068253,
      "tourism": "museum",
      "wheelchair": "yes",
      "website": "https://www.nchsmn.org/visit/treaty-site-history-center/",
      "addr_state": "MN",
      "distance": 84610.00628987
    },
    {
      "id": 16974,
      "geometry": "POINT (-93.503538 44.078713)",
      "poi_name": "Waseca County Historical Society Museum",
      "osm_id": 367068290,
      "tourism": "museum",
      "opening_hours": "Tu-Fr 09:00-16:30",
      "website": "https://www.historical.waseca.mn.us/",
      "addr_state": "MN",
      "addr_city": "Waseca",
      "addr_postcode": "56093",
      "addr_street": "Second Avenue Northeast",
      "addr_housenumber": "315",
      "distance": 95150.37625279
    },
    {
      "id": 16975,
      "geometry": "POINT (-94.526335 45.128891)",
      "poi_name": "Meeker County Historical Society Museum",
      "osm_id": 367068294,
      "tourism": "museum",
      "fee": "no",
      "addr_state": "MN",
      "distance": 104616.93965956
    },
    {
      "id": 16976,
      "geometry": "POINT (-94.3152 45.081117)",
      "poi_name": "Depot Museum",
      "osm_id": 367068297,
      "tourism": "museum",
      "addr_state": "MN",
      "distance": 87247.2487411
    },
    {
      "id": 16980,
      "geometry": "POINT (-94.308582 45.087814)",
      "poi_name": "Dassel Museum",
      "osm_id": 367068315,
      "tourism": "museum",
      "website": "https://dassel.com/hs/page/museum",
      "addr_city": "Dassel",
      "addr_postcode": "55325",
      "addr_street": "1st Street",
      "addr_housenumber": "901",
      "distance": 86896.10347078
    },
    {
      "id": 16983,
      "geometry": "POINT (-94.526389 45.128874)",
      "poi_name": "Meeker County Historical Society Museum",
      "osm_id": 367068323,
      "tourism": "museum",
      "website": "https://www.meekercomuseum.org/",
      "addr_state": "MN",
      "distance": 104620.63312003
    },
    {
      "id": 16990,
      "geometry": "POINT (-92.543552 44.559241)",
      "poi_name": "Goodhue County Historical Society Museum",
      "osm_id": 367068337,
      "tourism": "museum",
      "website": "https://goodhuecountyhistory.org/",
      "phone": "651-388-6024",
      "museum": "history",
      "addr_state": "MN",
      "addr_city": "Oak Street",
      "addr_postcode": "55066",
      "addr_street": "Oak Street",
      "addr_housenumber": "1166",
      "distance": 67377.03633609
    },
    {
      "id": 16993,
      "geometry": "POINT (-94.396944 44.893889)",
      "poi_name": "McLeod County Historical Society / Museum",
      "osm_id": 367068351,
      "tourism": "museum",
      "website": "https://www.mcleodhistory.org/",
      "addr_state": "MN",
      "distance": 91843.43549931
    },
    {
      "id": 16996,
      "geometry": "POINT (-92.534598 44.566198)",
      "poi_name": "Red Wing Shoe Museum",
      "osm_id": 367068362,
      "tourism": "museum",
      "website": "https://www.exploreminnesota.com/profile/red-wing-shoe-company-museum/4469",
      "addr_state": "MN",
      "addr_city": "Red Wing",
      "addr_postcode": "55066",
      "addr_street": "Main Street",
      "addr_housenumber": "315",
      "distance": 67507.24290507
    },
    {
      "id": 16997,
      "geometry": "POINT (-92.722979 44.503917)",
      "poi_name": "Vasa Museum",
      "osm_id": 367068368,
      "tourism": "museum",
      "website": "https://www.vasalutheran.org/vasa-museum",
      "addr_state": "MN",
      "distance": 60902.68820753
    },
    {
      "id": 16998,
      "geometry": "POINT (-92.903384 44.508129)",
      "poi_name": "Cannon Falls Historical Museum",
      "osm_id": 367068369,
      "tourism": "museum",
      "addr_state": "MN",
      "distance": 52081.03061208
    },
    {
      "id": 17002,
      "geometry": "POINT (-92.971111 45.819722)",
      "poi_name": "Rural School Museum",
      "osm_id": 367068374,
      "tourism": "museum",
      "addr_state": "MN",
      "distance": 102857.5988645
    },
    {
      "id": 17003,
      "geometry": "POINT (-93.886572 45.400547)",
      "poi_name": "Sherburne County Historical Society Museum",
      "osm_id": 367068394,
      "tourism": "museum",
      "addr_state": "MN",
      "distance": 74602.13550227
    },
    {
      "id": 17011,
      "geometry": "POINT (-94.155974 45.561668)",
      "poi_name": "Minnesota Baseball Hall of Fame Museum",
      "osm_id": 367068424,
      "tourism": "museum",
      "website": "https://www.mnamateurbaseballhof.com/index.asp",
      "addr_state": "MN",
      "distance": 102142.38100955
    },
    {
      "id": 17012,
      "geometry": "POINT (-94.19078 45.075383)",
      "poi_name": "Cokato Museum",
      "osm_id": 367068425,
      "tourism": "museum",
      "website": "https://www.cokatomuseum.org/",
      "addr_state": "MN",
      "distance": 77545.64818192
    },
    {
      "id": 17016,
      "geometry": "POINT (-92.98 45.684722)",
      "poi_name": "Chisago County Historical Society Museum",
      "osm_id": 367068439,
      "tourism": "museum",
      "website": "https://www.chisagocountyhistory.org/",
      "addr_state": "MN",
      "distance": 88054.05271157
    },
    {
      "id": 18843,
      "geometry": "POINT (-93.216739 44.066963)",
      "poi_name": "Steele County Historical Society",
      "osm_id": 2421424702,
      "tourism": "museum",
      "fee": "no",
      "opening_hours": "Tu-Fr 10:00-16:00; Sa 10:00-15:00",
      "website": "https://www.schsmn.org/",
      "addr_city": "Owatonna",
      "addr_street": "Austin Road",
      "addr_housenumber": "1700",
      "distance": 94026.80537231
    },
    {
      "id": 19410,
      "geometry": "POINT (-94.37931 44.876301)",
      "poi_name": "Wheel and Cog",
      "osm_id": 10749810416,
      "tourism": "museum",
      "museum": "children",
      "distance": 90531.88982751
    },
    {
      "id": 20049,
      "geometry": "POINT (-93.308062 44.991366)",
      "poi_name": "Minnesota African American Heritage Museum",
      "osm_id": 7838137944,
      "tourism": "museum",
      "website": "https://www.maahmg.org/",
      "addr_postcode": "55411",
      "addr_street": "North Penn Avenue",
      "addr_housenumber": "1256",
      "distance": 10469.54974107
    },
    {
      "id": 20746,
      "geometry": "POINT (-93.52548 45.041046)",
      "poi_name": "Uptown Hamel Library/Museum",
      "osm_id": 1233417493,
      "historic": "yes",
      "tourism": "museum",
      "building": "yes",
      "fee": "no",
      "opening_hours": "Jun - Aug : Fr 15:00 - 17:30 open \"During Summer months.\"",
      "website": "http://www.ci.medina.mn.us/uptown_hamel/Historic_Uptown_Hamel_Library.pdf",
      "distance": 27012.7052656
    },
    {
      "id": 21092,
      "geometry": "POINT (-93.01049 45.084897)",
      "poi_name": "White Bear Lake Historical Society",
      "osm_id": 1395622797,
      "tourism": "museum",
      "distance": 26007.78267411
    },
    {
      "id": 22166,
      "geometry": "POINT (-93.188674 44.992547)",
      "poi_name": "Gibb's Museum",
      "osm_id": 588286103,
      "tourism": "museum",
      "fee": "yes",
      "website": "https://rchs.com/gibbs-farm/",
      "distance": 9544.08624165
    },
    {
      "id": 22644,
      "geometry": "POINT (-93.185557 44.960835)",
      "poi_name": "Twin City Model Railroad Museum",
      "osm_id": 7192306902,
      "tourism": "museum",
      "fee": "yes",
      "opening_hours": "Mo 10:00-15:00; Fr 10:00-15:00; Sa 10:00-17:00, 18:00-21:00; Su 12:00-17:00",
      "website": "https://www.tcmrm.org/",
      "phone": "+1-651-647-9628",
      "museum": "model railroad",
      "wikidata": "Q22073678",
      "addr_state": "MN",
      "addr_city": "55114",
      "addr_street": "Transfer Road",
      "addr_housenumber": "668",
      "distance": 6562.4954139
    },
    {
      "id": 23870,
      "geometry": "POINT (-92.790527 44.301393)",
      "poi_name": "Larson Log House",
      "osm_id": 9170767578,
      "tourism": "museum",
      "museum": "history",
      "addr_state": "MN",
      "addr_city": "Wanamingo",
      "addr_postcode": "55983",
      "addr_street": "Main Street",
      "distance": 76556.69643412
    },
    {
      "id": 24755,
      "geometry": "POINT (-92.654099 45.400452)",
      "poi_name": "Folsom House",
      "osm_id": 4311620089,
      "tourism": "museum",
      "opening_hours": "Fr-Su 13:00-16:00",
      "website": "http://events.mnhs.org/media/kits/sites/fh/index.cfm",
      "phone": "+1-651-465-3125",
      "addr_postcode": "55084",
      "addr_street": "Government Street",
      "addr_housenumber": "272",
      "distance": 70824.6967852
    },
    {
      "id": 24846,
      "geometry": "POINT (-93.1835 44.985359)",
      "poi_name": "Goldstein Museum of Design",
      "osm_id": 4343628176,
      "tourism": "museum",
      "wheelchair": "yes",
      "opening_hours": "Tu-Su 10:00-16:30",
      "website": "https://design.umn.edu/goldstein-museum-design",
      "distance": 8984.60203635
    },
    {
      "id": 26068,
      "geometry": "POINT (-92.452746 45.452179)",
      "poi_name": "Polk County Museum",
      "osm_id": 5779676286,
      "tourism": "museum",
      "website": "https://www.polkcountyhistoricalsociety.org/",
      "distance": 85813.68222631
    }
  ],
  "answer_type": "distance",
  "question_entities": {
    "[1]": {
      "main_category": "tourism",
      "sub_category": "museum"
    },
    "[2]": {
      "distance": 110000,
      "text": "110 kilometers"
    },
    "[3]": {
      "main_category": "leisure",
      "sub_category": "garden",
      "display_name": "Nokomis Naturescape Garden, Minneapolis, MN",
      "geo_wkt": "POINT (-93.234364 44.913029)",
      "poi": {
        "id": 248857,
        "geometry": "POINT (-93.234364 44.913029)",
        "poi_name": "Nokomis Naturescape Garden",
        "osm_id": 4865581364,
        "leisure": "garden",
        "website": "https://www.facebook.com/NokomisNaturescape/?fref=ts",
        "phone": "+1 612 727 3562",
        "addr_state": "MN",
        "addr_city": "Minneapolis",
        "addr_postcode": "55417",
        "addr_street": "East Lake Nokomis Parkway",
        "addr_housenumber": "5000"
      }
    }
  },
  "id": 774,
  "type": "range+distance"
}