{
  "question": "How distant can I find a hospital from Italian Cultural Garden, Cleveland, OH within a span of 180 kilometers?",
  "sql": "SELECT *, ST_Distance(ST_GeomFromText('POINT (-81.627165 41.528395)',4326)::geography, pois.geometry) AS distance FROM pois\nWHERE ST_DWithin(pois.geometry, ST_GeomFromText('POINT (-81.627165 41.528395)',4326)::geography, 180000)\nAND amenity = 'hospital';\n",
  "answers": [
    {
      "id": 182737,
      "geometry": "POINT (-81.492157 41.472929)",
      "poi_name": "Cleveland Clinic Rehabilitation Hospital - Beachwood",
      "osm_id": 10903753102,
      "amenity": "hospital",
      "website": "https://my.clevelandclinic.org/locations/directions/472-cleveland-clinic-rehabilitation-hospital-beachwood",
      "phone": "+1 216 455 6400",
      "healthcare": "rehabilitation",
      "addr_state": "OH",
      "addr_city": "Beachwood",
      "addr_postcode": "44122",
      "addr_street": "Science Park Drive",
      "addr_housenumber": "3025",
      "distance": 12845.95765964
    },
    {
      "id": 31875,
      "geometry": "POINT (-82.756088 42.676753)",
      "poi_name": "Harbor Oaks Hospital",
      "osm_id": 8453619003,
      "amenity": "hospital",
      "website": "https://www.harboroaks.com/",
      "phone": "+1-586-684-4870",
      "healthcare": "hospital",
      "emergency": "no",
      "addr_state": "MI",
      "addr_city": "New Baltimore",
      "addr_postcode": "48047",
      "addr_street": "23 Mile Road",
      "addr_housenumber": "35031",
      "distance": 158079.36231442
    },
    {
      "id": 68846,
      "geometry": "POINT (-83.050851 41.263392)",
      "poi_name": "Legends Recovery Center of Ohio",
      "osm_id": 11286548185,
      "amenity": "hospital",
      "description": "At Legends Recovery Center of Ohio in Green Springs, our skilled team of trained addiction specialists will assist each individual in identifying positive coping skills and developing meaningful support systems at home",
      "opening_hours": "24/7",
      "website": "https://www.legendsrecovery.com/",
      "phone": "844-534-3638",
      "healthcare": "hospital",
      "addr_state": "OH",
      "addr_city": "Green Springs",
      "addr_postcode": "44836",
      "addr_street": "North Broadway Street",
      "addr_housenumber": "430",
      "distance": 122644.59542093
    },
    {
      "id": 70111,
      "geometry": "POINT (-80.780983 41.100522)",
      "poi_name": "Mercy Health Emergency",
      "osm_id": 11345436469,
      "amenity": "hospital",
      "opening_hours": "24/7",
      "distance": 85313.02060649
    },
    {
      "id": 75922,
      "geometry": "POINT (-82.236734 41.436258)",
      "poi_name": "Akron Children's Hospital NICU at Mercy Lorain",
      "osm_id": 9752675535,
      "amenity": "hospital",
      "operator": "Akron Children's Hospital",
      "healthcare": "hospital",
      "addr_state": "OH",
      "addr_city": "Lorain",
      "addr_postcode": "44053",
      "addr_street": "Kolbe Road",
      "addr_housenumber": "3700",
      "distance": 51928.65082462
    },
    {
      "id": 118809,
      "geometry": "POINT (-80.32197 40.712052)",
      "poi_name": "Heritage Valley",
      "osm_id": 9064866291,
      "amenity": "hospital",
      "healthcare": "hospital",
      "distance": 142244.00230668
    },
    {
      "id": 167459,
      "geometry": "POINT (-79.748383 40.93923)",
      "poi_name": "Chicora Medical Center",
      "osm_id": 357363756,
      "amenity": "hospital",
      "emergency": "no",
      "distance": 170556.62073233
    },
    {
      "id": 167469,
      "geometry": "POINT (-80.655667 41.161098)",
      "poi_name": "Belmont Pines Hospital",
      "osm_id": 357477471,
      "amenity": "hospital",
      "website": "https://www.belmontpines.com/",
      "phone": "+1 330 759 2700",
      "healthcare": "hospital",
      "emergency": "no",
      "addr_city": "Youngstown",
      "addr_postcode": "44505",
      "addr_street": "Churchill Hubbard Road",
      "addr_housenumber": "615",
      "distance": 90967.77371148
    },
    {
      "id": 181340,
      "geometry": "POINT (-80.2088 40.438549)",
      "poi_name": "Curahealth Pittsburgh",
      "osm_id": 10840934159,
      "amenity": "hospital",
      "website": "https://curahealth.com",
      "phone": "+1 412 494 5500",
      "addr_state": "PA",
      "addr_city": "Oakdale",
      "addr_postcode": "15071",
      "addr_street": "Steubensville Pike",
      "addr_housenumber": "7777",
      "distance": 169984.3393113
    },
    {
      "id": 31591,
      "geometry": "POINT (-80.080644 42.110128)",
      "poi_name": "AHN Cancer Institute",
      "osm_id": 8435416613,
      "amenity": "hospital",
      "operator": "Allegheny Health Network",
      "healthcare": "hospital",
      "addr_state": "PA",
      "addr_city": "Erie",
      "addr_postcode": "16544",
      "addr_street": "Myrtle Street",
      "addr_housenumber": "2508",
      "distance": 143819.99659036
    },
    {
      "id": 31592,
      "geometry": "POINT (-80.080993 42.110692)",
      "poi_name": "Saint Vincent Surgery Center",
      "osm_id": 8435416614,
      "amenity": "hospital",
      "operator": "Allegheny Health Network",
      "healthcare": "hospital",
      "addr_state": "PA",
      "addr_city": "Erie",
      "addr_postcode": "16544",
      "addr_street": "West 25th Street",
      "addr_housenumber": "312",
      "distance": 143821.8064708
    },
    {
      "id": 64505,
      "geometry": "POINT (-81.605748 41.504861)",
      "poi_name": "UH Rainbow Babies & Children\u2019s Hospital",
      "osm_id": 5656050761,
      "amenity": "hospital",
      "opening_hours": "24/7",
      "operator": "University Hospitals",
      "website": "https://www.uhhospitals.org/rainbow",
      "phone": "+1 216 844 5437",
      "healthcare": "hospital",
      "emergency": "yes",
      "wikidata": "Q7284577",
      "addr_state": "OH",
      "addr_city": "Cleveland",
      "addr_postcode": "44106",
      "addr_street": "Adelbert Road",
      "addr_housenumber": "2101",
      "distance": 3166.67775335
    },
    {
      "id": 75382,
      "geometry": "POINT (-80.66182 41.032633)",
      "poi_name": "Emergency Department - Akron Children's Hospital - Mahoning Valley",
      "osm_id": 9727145700,
      "amenity": "hospital",
      "healthcare": "hospital",
      "distance": 97836.17715279
    },
    {
      "id": 75383,
      "geometry": "POINT (-80.661233 41.033194)",
      "poi_name": "Ambulance Entrance - Akron Children's Hospital - Mahoning Valley",
      "osm_id": 9727145701,
      "amenity": "hospital",
      "healthcare": "hospital",
      "distance": 97841.53337389
    },
    {
      "id": 75797,
      "geometry": "POINT (-81.532421 41.078412)",
      "poi_name": "Akron Children's Hospital NICU at Akron General",
      "osm_id": 9744098634,
      "amenity": "hospital",
      "operator": "Akron Children's Hospital",
      "healthcare": "hospital",
      "distance": 50601.00116178
    },
    {
      "id": 75823,
      "geometry": "POINT (-81.50133 41.080742)",
      "poi_name": "Akron Children's Hospital NICU at Summa",
      "osm_id": 9749113787,
      "amenity": "hospital",
      "operator": "Akron Children's Hospital",
      "healthcare": "hospital",
      "emergency": "no",
      "addr_state": "OH",
      "addr_city": "Akron",
      "addr_postcode": "44304",
      "addr_street": "North Forge Street",
      "addr_housenumber": "141",
      "distance": 50820.82237018
    },
    {
      "id": 75833,
      "geometry": "POINT (-80.660157 40.994394)",
      "poi_name": "Akron Children's Hospital NICU at St. Elizabeth Boardman",
      "osm_id": 9749787876,
      "amenity": "hospital",
      "operator": "Akron Children's Hospital",
      "healthcare": "hospital",
      "addr_state": "OH",
      "addr_city": "Boardman",
      "addr_postcode": "44512",
      "addr_street": "Market Street",
      "addr_housenumber": "8401",
      "distance": 100418.89507973
    },
    {
      "id": 75839,
      "geometry": "POINT (-81.403977 40.796197)",
      "poi_name": "Akron Children's Hospital at Aultman",
      "osm_id": 9749878252,
      "amenity": "hospital",
      "operator": "Akron Children's Hospital",
      "healthcare": "hospital",
      "addr_state": "OH",
      "addr_city": "Canton",
      "addr_postcode": "44710",
      "addr_street": "6th Street Southwest",
      "addr_housenumber": "2600",
      "distance": 83445.32798843
    },
    {
      "id": 76141,
      "geometry": "POINT (-80.202584 40.577494)",
      "poi_name": "Encompass Health Rehabilitation",
      "osm_id": 9761774816,
      "amenity": "hospital",
      "website": "https://encompasshealth.com/sewickleyrehab",
      "phone": "(412) 741-9500",
      "healthcare": "rehabilitation",
      "addr_postcode": "15143-8348",
      "addr_street": "Camp Meeting Road",
      "addr_housenumber": "351",
      "distance": 159666.00722725
    },
    {
      "id": 76649,
      "geometry": "POINT (-81.93207 40.820745)",
      "poi_name": "Akron Children's Hospital at Wooster",
      "osm_id": 9786687958,
      "amenity": "hospital",
      "operator": "Akron Children's Hospital",
      "healthcare": "hospital",
      "addr_state": "OH",
      "addr_city": "Wooster",
      "addr_postcode": "44691",
      "addr_street": "Beall Avenue",
      "addr_housenumber": "1761",
      "distance": 82649.40762098
    },
    {
      "id": 142128,
      "geometry": "POINT (-81.538471 41.466564)",
      "poi_name": "UH Rainbow Suburban Pediatrics",
      "osm_id": 6303389304,
      "amenity": "hospital",
      "operator": "University Hospitals of Cleveland",
      "healthcare": "hospital",
      "addr_state": "OH",
      "addr_city": "Shaker Heights",
      "addr_postcode": "44122",
      "addr_street": "Farnsleigh Road",
      "addr_housenumber": "20220",
      "distance": 10099.75662113
    },
    {
      "id": 182745,
      "geometry": "POINT (-81.487966 41.236342)",
      "poi_name": "Assurance Health Hudson",
      "osm_id": 10903813165,
      "amenity": "hospital",
      "website": "http://assurancehealthsystem.com/locations/hudson-oh",
      "phone": "+1 330 208 9317",
      "healthcare": "hospital",
      "addr_state": "OH",
      "addr_city": "Hudson",
      "addr_postcode": "44236",
      "addr_street": "Hudson Crossing Parkway",
      "addr_housenumber": "6260",
      "distance": 34462.40103199
    },
    {
      "id": 182748,
      "geometry": "POINT (-82.464662 40.042559)",
      "poi_name": "Select Specialty Hospital Southeast Ohio",
      "osm_id": 10903818303,
      "amenity": "hospital",
      "website": "https://www.selectspecialtyhospitals.com/locations-and-tours/oh/newark/southeast-ohio/",
      "healthcare": "hospital",
      "addr_state": "OH",
      "addr_city": "Newark",
      "addr_postcode": "43055",
      "addr_street": "Tamarack Road",
      "addr_housenumber": "2000",
      "distance": 179504.38288096
    },
    {
      "id": 182749,
      "geometry": "POINT (-81.690868 41.480695)",
      "poi_name": "Grace Hospital",
      "osm_id": 10903823968,
      "amenity": "hospital",
      "website": "https://www.gracehospital.org",
      "phone": "+1 216 456 3891",
      "healthcare": "hospital",
      "addr_state": "OH",
      "addr_city": "Cleveland",
      "addr_postcode": "44113",
      "addr_street": "West 14th Street",
      "addr_housenumber": "2307",
      "distance": 7506.89315736
    },
    {
      "id": 182750,
      "geometry": "POINT (-82.043924 41.467909)",
      "poi_name": "University Hospitals Avon Rehabilitation Hospital",
      "osm_id": 10903827375,
      "amenity": "hospital",
      "website": "https://www.uhhospitals.org/uh-avon-rehabilitation-hospital",
      "phone": "+1 440 695 7100",
      "healthcare": "rehabilitation",
      "addr_state": "OH",
      "addr_city": "Avon",
      "addr_postcode": "44011",
      "addr_street": "Chester Road",
      "addr_housenumber": "37900",
      "distance": 35441.23105962
    },
    {
      "id": 182757,
      "geometry": "POINT (-81.499007 41.464971)",
      "poi_name": "Lake Health Beachwood Medical Center",
      "osm_id": 10904088785,
      "amenity": "hospital",
      "website": "https://lakehealth.org/location/beachwood-medical-center",
      "phone": "+1 440 375 8700",
      "healthcare": "hospital",
      "addr_state": "OH",
      "addr_city": "Beachwood",
      "addr_postcode": "44122",
      "addr_street": "Chagrin Boulevard",
      "addr_housenumber": "25501",
      "distance": 12811.57918071
    },
    {
      "id": 182760,
      "geometry": "POINT (-81.506498 41.432263)",
      "poi_name": "Regency Hospital Of Cleveland East",
      "osm_id": 10904092272,
      "amenity": "hospital",
      "website": "https://www.regencyhospital.com/locations-and-tours/oh/warrensville-heights/cleveland-east/",
      "phone": "+1 216 910 3802",
      "healthcare": "hospital",
      "addr_state": "OH",
      "addr_city": "Warrensville Heights",
      "addr_postcode": "44128",
      "addr_street": "Interchange Corporate Center Road",
      "addr_housenumber": "4200",
      "distance": 14682.15621744
    },
    {
      "id": 182762,
      "geometry": "POINT (-81.985816 41.473132)",
      "poi_name": "Cleveland Clinic Rehabilitation Hospitals",
      "osm_id": 10904092552,
      "amenity": "hospital",
      "website": "https://my.clevelandclinic.org/locations/directions/415-cleveland-clinic-rehabilitation-hospital-avon",
      "phone": "+1 440 937 9099",
      "healthcare": "rehabilitation",
      "addr_state": "OH",
      "addr_city": "Avon",
      "addr_postcode": "44011",
      "addr_street": "Health Campus Boulevard",
      "addr_housenumber": "33355",
      "distance": 30568.14787358
    },
    {
      "id": 182764,
      "geometry": "POINT (-81.827654 41.377343)",
      "poi_name": "Regency Hospital Of Cleveland West",
      "osm_id": 10904095975,
      "amenity": "hospital",
      "website": "https://www.regencyhospital.com/locations-and-tours/oh/middleburg-heights/cleveland-west/",
      "phone": "+1 717 975 4503",
      "healthcare": "hospital",
      "addr_state": "OH",
      "addr_city": "Middleburg Heights",
      "addr_postcode": "44130",
      "addr_street": "Engle Road",
      "addr_housenumber": "6990",
      "distance": 23708.16668915
    },
    {
      "id": 182765,
      "geometry": "POINT (-81.522281 41.450391)",
      "poi_name": "Highland Springs Hospital",
      "osm_id": 10904097060,
      "amenity": "hospital",
      "website": "https://www.highlandspringshealth.com",
      "phone": "+1 216 302 3070",
      "healthcare": "hospital",
      "addr_state": "OH",
      "addr_city": "Highland Hills",
      "addr_postcode": "44122",
      "addr_street": "Mill Pond Drive",
      "addr_housenumber": "4199",
      "distance": 12319.56682804
    },
    {
      "id": 182771,
      "geometry": "POINT (-81.510174 41.45192)",
      "poi_name": "University Hospitals Rehabilitation Hospital",
      "osm_id": 10904110452,
      "amenity": "hospital",
      "phone": "+1 216 593 2200",
      "healthcare": "rehabilitation",
      "addr_state": "OH",
      "addr_city": "Beachwood",
      "addr_postcode": "44122",
      "addr_street": "Harvard Road",
      "addr_housenumber": "23333",
      "distance": 12945.64439326
    },
    {
      "id": 182772,
      "geometry": "POINT (-80.632972 41.005169)",
      "poi_name": "Select Specialty Hospital - Boardman",
      "osm_id": 10904111646,
      "amenity": "hospital",
      "website": "https://www.selectspecialtyhospitals.com/locations-and-tours/oh/youngstown/boardman/",
      "phone": "+1 330 726 5000",
      "healthcare": "hospital",
      "addr_state": "OH",
      "addr_city": "Boardman",
      "addr_postcode": "44512",
      "addr_street": "South Avenue",
      "addr_housenumber": "8049",
      "distance": 101571.1852982
    },
    {
      "id": 182773,
      "geometry": "POINT (-81.511774 41.082916)",
      "poi_name": "Select Specialty Hospital - Akron",
      "osm_id": 10904112286,
      "amenity": "hospital",
      "website": "https://www.selectspecialtyhospitals.com/locations-and-tours/oh/akron/akron/",
      "phone": "+1 330 605 1565",
      "healthcare": "hospital",
      "addr_state": "OH",
      "addr_city": "Akron",
      "addr_postcode": "44308",
      "addr_street": "East Market Street",
      "addr_housenumber": "200",
      "distance": 50409.71488932
    },
    {
      "id": 182738,
      "geometry": "POINT (-81.37244 40.809954)",
      "poi_name": "Sunrise Vista Behavioral Health",
      "osm_id": 10903790622,
      "amenity": "hospital",
      "website": "https://newvistahealth.com/location/behavioral-health/inpatient-psychiatric-facilities/canton",
      "phone": "+1 856 723 4496",
      "healthcare": "hospital",
      "addr_state": "OH",
      "addr_city": "Canton",
      "addr_postcode": "44714",
      "addr_street": "Market Avenue North",
      "addr_housenumber": "1223",
      "distance": 82601.85613254
    },
    {
      "id": 182740,
      "geometry": "POINT (-82.453675 40.041073)",
      "poi_name": "Shepherd Hill Hospital",
      "osm_id": 10903802867,
      "amenity": "hospital",
      "website": "https://www.shepherdhill.net",
      "phone": "+1 220 564 4100",
      "healthcare": "hospital",
      "addr_state": "OH",
      "addr_city": "Newark",
      "addr_postcode": "43055",
      "addr_street": "Messimer Drive",
      "addr_housenumber": "200",
      "distance": 179293.63403419
    },
    {
      "id": 182744,
      "geometry": "POINT (-83.722064 41.689749)",
      "poi_name": "Assurance Health Toledo",
      "osm_id": 10903812923,
      "amenity": "hospital",
      "website": "http://assurancehealthsystem.com/locations/toledo-oh",
      "phone": "+1 219 510 3776",
      "healthcare": "hospital",
      "addr_state": "OH",
      "addr_city": "Sylvania",
      "addr_postcode": "43560",
      "addr_street": "King Road",
      "addr_housenumber": "4040",
      "distance": 175534.96755314
    },
    {
      "id": 222957,
      "geometry": "POINT (-82.900778 42.460402)",
      "poi_name": "Cosmetic Surgeons of Michigan, PC",
      "osm_id": 11042343299,
      "amenity": "hospital",
      "opening_hours": "Mo-Sa 09:00-17:00",
      "website": "https://www.cosmeticsurgeonsofmichigan.net/",
      "phone": "+1-586-773-6900",
      "healthcare": "hospital",
      "addr_state": "MI",
      "addr_city": "St. Clair Shores",
      "addr_postcode": "48080",
      "addr_street": "Greater Mack Avenue",
      "addr_housenumber": "22631",
      "distance": 147823.97945293
    },
    {
      "id": 221932,
      "geometry": "POINT (-82.43341 42.956016)",
      "poi_name": "Lake Huron Medical Center",
      "osm_id": 10997796678,
      "amenity": "hospital",
      "healthcare": "hospital",
      "addr_state": "MI",
      "addr_city": "Port Huron",
      "addr_postcode": "48060",
      "addr_street": "Electric Avenue",
      "addr_housenumber": "2601",
      "distance": 171971.0092091
    },
    {
      "id": 221948,
      "geometry": "POINT (-82.429893 42.986385)",
      "poi_name": "McLaren Port Huron Hospital",
      "osm_id": 10998386954,
      "amenity": "hospital",
      "healthcare": "hospital",
      "addr_state": "MI",
      "addr_city": "Port Huron",
      "addr_postcode": "48060",
      "addr_street": "Pine Grove Avenue",
      "addr_housenumber": "1221",
      "distance": 174970.70000487
    },
    {
      "id": 221949,
      "geometry": "POINT (-82.479812 42.785435)",
      "poi_name": "Ascension River District Hospital",
      "osm_id": 10998413640,
      "amenity": "hospital",
      "healthcare": "hospital",
      "addr_state": "MI",
      "addr_city": "East China",
      "addr_postcode": "48054",
      "addr_street": "River Road",
      "addr_housenumber": "4100",
      "distance": 156399.83274134
    },
    {
      "id": 242825,
      "geometry": "POINT (-80.137019 42.10374)",
      "poi_name": "UPMC Hillman Cancer Center",
      "osm_id": 7600984051,
      "amenity": "hospital",
      "operator": "University of Pittsburgh Medical Center",
      "healthcare": "hospital",
      "addr_state": "PA",
      "addr_city": "Erie",
      "addr_postcode": "16505",
      "addr_street": "West 12th Street",
      "addr_housenumber": "2500",
      "distance": 139330.12018113
    },
    {
      "id": 223720,
      "geometry": "POINT (-83.358081 42.504982)",
      "poi_name": "Aesthetic Plastic Surgery & Laser Center, Michelle Hardaway M.D.",
      "osm_id": 11061931854,
      "amenity": "hospital",
      "opening_hours": "Mo-Fr 09:00-17:00",
      "website": "https://michellehardawaymd.com/",
      "phone": "+1-248-855-6030",
      "healthcare": "hospital",
      "addr_state": "MI",
      "addr_city": "Farmington Hills",
      "addr_postcode": "48334",
      "addr_street": "Orchard Lake Road",
      "addr_housenumber": "27920",
      "distance": 179774.92647057
    },
    {
      "id": 231220,
      "geometry": "POINT (-83.721983 41.674958)",
      "poi_name": "Mercy Health Sylvania Medical Center",
      "osm_id": 4459970689,
      "amenity": "hospital",
      "opening_hours": "24/7",
      "operator": "Mercy Health",
      "website": "https://www.mercy.com/toledo/locations/medical-centers/mercy-health-sylvania-medical-center",
      "phone": "+1 567 455 5800",
      "healthcare": "hospital",
      "emergency": "yes",
      "addr_city": "Sylvania",
      "addr_postcode": "43560",
      "addr_street": "King Road",
      "addr_housenumber": "3100",
      "distance": 175388.03309173
    },
    {
      "id": 243110,
      "geometry": "POINT (-80.145459 42.071204)",
      "poi_name": "Sterrettania Medical Center",
      "osm_id": 7626162251,
      "amenity": "hospital",
      "operator": "LECOM",
      "healthcare": "hospital",
      "addr_state": "PA",
      "addr_city": "Erie",
      "addr_postcode": "16506",
      "addr_street": "Sterrettania Road",
      "addr_housenumber": "4000",
      "distance": 137108.09748998
    }
  ],
  "answer_type": "distance",
  "question_entities": {
    "[1]": {
      "main_category": "amenity",
      "sub_category": "hospital"
    },
    "[2]": {
      "distance": 180000,
      "text": "180 kilometers"
    },
    "[3]": {
      "main_category": "leisure",
      "sub_category": "garden",
      "display_name": "Italian Cultural Garden, Cleveland, OH",
      "geo_wkt": "POINT (-81.627165 41.528395)",
      "poi": {
        "id": 247012,
        "geometry": "POINT (-81.627165 41.528395)",
        "poi_name": "Italian Cultural Garden",
        "osm_id": 8567373865,
        "leisure": "garden",
        "fee": "no",
        "addr_state": "OH",
        "addr_city": "Cleveland",
        "addr_street": "Martin Luther King Junior Drive",
        "addr_housenumber": "1000"
      }
    }
  },
  "id": 746,
  "type": "range+distance"
}