{
  "question": "Where can I find caf\u00e9 as you head towards Dewey Farm Conservation Land, Millis, MA from Joppa Hill Farm, Bedford, NH, within a radius of 50 kilometers?",
  "sql": "WITH\n    angle AS (SELECT degrees(ST_Azimuth(ST_GeomFromText('POINT (-71.575992 42.931889)',4326)::geography, ST_GeomFromText('POINT (-71.364939 42.185888)',4326)::geography)) AS value)\nSELECT * FROM pois,angle\nWHERE amenity = 'cafe'\nAND ST_DWithin(pois.geometry, ST_GeomFromText('POINT (-71.575992 42.931889)',4326)::geography, 50000)\nAND (degrees(ST_Azimuth(ST_GeomFromText('POINT (-71.575992 42.931889)',4326)::geography, pois.geometry)) BETWEEN angle.value - 22.5 AND angle.value + 22.5);\n",
  "answers": [
    {
      "id": 28760,
      "geometry": "POINT (-71.573179 42.809933)",
      "poi_name": "Aroma Joe's",
      "osm_id": 8257750188,
      "amenity": "cafe",
      "cuisine": "coffee_shop",
      "building": "yes",
      "opening_hours": "Mo-Sa 05:15-21:00; Su 05:45-21:00",
      "takeaway": "only",
      "addr_state": "NH",
      "addr_city": "Amherst",
      "addr_street": "Paul's Way",
      "addr_housenumber": "2",
      "value": 168.11538618651645
    },
    {
      "id": 116830,
      "geometry": "POINT (-71.565121 42.805581)",
      "poi_name": "A&E Coffee and Tea",
      "osm_id": 8963863811,
      "amenity": "cafe",
      "cuisine": "coffee_shop;cafe",
      "opening_hours": "Mo-Fr 07:00-17:00, Sa 09:00-17:00, Su 09:00-17:00",
      "website": "https://aeroastery.com",
      "internet_access": "wlan",
      "phone": "+1 603 578-3338",
      "outdoor_seating": "yes",
      "addr_state": "NH",
      "addr_city": "Amherst",
      "addr_postcode": "03031",
      "addr_street": "NH 101A",
      "addr_housenumber": "135",
      "value": 168.11538618651645
    },
    {
      "id": 115137,
      "geometry": "POINT (-71.47686 42.55157)",
      "poi_name": "Starbucks",
      "osm_id": 3913138259,
      "amenity": "cafe",
      "cuisine": "coffee_shop",
      "opening_hours": "Mo-Th 04:30-21:00; Fr 04:30-21:30; Sa 05:30-21:30; Su 05:30-21:00",
      "internet_access": "wlan",
      "phone": "+1 978 440 0729",
      "takeaway": "yes",
      "official_name": "Starbucks Coffee",
      "addr_state": "MA",
      "addr_city": "Littleton",
      "addr_postcode": "01460",
      "addr_street": "Constitution Avenue",
      "addr_housenumber": "495",
      "value": 168.11538618651645
    },
    {
      "id": 116831,
      "geometry": "POINT (-71.570805 42.80874)",
      "poi_name": "Etagere",
      "osm_id": 8963943259,
      "amenity": "cafe",
      "cuisine": "coffee_shop;tea",
      "opening_hours": "We-Fr 8:00-18:00, Sa 9:00-18:00, Su 10:00-16:00",
      "website": "https://sipshopsoak.com",
      "phone": "+1 603 417-3121",
      "addr_state": "NH",
      "addr_city": "Amherst",
      "addr_postcode": "03031",
      "addr_street": "NH 101A",
      "addr_housenumber": "114",
      "value": 168.11538618651645
    },
    {
      "id": 119808,
      "geometry": "POINT (-71.319418 42.64005)",
      "poi_name": "Tiny Arms Coffee Roasters",
      "osm_id": 9123163903,
      "amenity": "cafe",
      "cuisine": "coffee_shop",
      "website": "https://tinyarms.co/",
      "outdoor_seating": "yes",
      "addr_state": "MA",
      "addr_city": "Lowell",
      "addr_postcode": "01851",
      "addr_street": "Western Avenue",
      "addr_housenumber": "122",
      "value": 168.11538618651645
    },
    {
      "id": 140976,
      "geometry": "POINT (-71.5059 42.82422)",
      "poi_name": "Starbucks",
      "osm_id": 6268905785,
      "amenity": "cafe",
      "cuisine": "coffee_shop",
      "opening_hours": "Mo-Th 05:30-20:00; Fr 05:30-20:30; Sa 06:30-21:00; Su 05:30-19:30",
      "phone": "+1 603 429 0448",
      "takeaway": "yes",
      "official_name": "Starbucks Coffee",
      "addr_state": "NH",
      "addr_city": "Merrimack",
      "addr_postcode": "03054",
      "addr_street": "Premium Outlets Boulevard",
      "addr_housenumber": "17A",
      "value": 168.11538618651645
    },
    {
      "id": 144822,
      "geometry": "POINT (-71.391084 42.60581)",
      "poi_name": "Country Creamery and Coffeehouse",
      "osm_id": 7289524193,
      "amenity": "cafe",
      "cuisine": "coffee_shop;ice_cream",
      "addr_state": "MA",
      "addr_city": "Chelmsford",
      "addr_postcode": "01824",
      "addr_street": "Old Westford Road",
      "addr_housenumber": "272",
      "value": 168.11538618651645
    },
    {
      "id": 155648,
      "geometry": "POINT (-71.442902 42.710832)",
      "poi_name": "Barnes & Noble Cafe",
      "osm_id": 4295448814,
      "amenity": "cafe",
      "cuisine": "coffee_shop",
      "opening_hours": "Mo-Th 09:00-21:00; Fr,Sa 09:00-23:00; Su 10:00-21:00",
      "operator": "Barnes & Noble",
      "website": "https://www.barnesandnoble.com/",
      "phone": "+1-603-888-0533",
      "addr_state": "NH",
      "addr_city": "Nashua",
      "addr_postcode": "03060",
      "addr_street": "Daniel Webster Highway",
      "addr_housenumber": "235",
      "value": 168.11538618651645
    },
    {
      "id": 172725,
      "geometry": "POINT (-71.58647 42.619642)",
      "poi_name": "Cafe at Groton Wellness",
      "osm_id": 2411563915,
      "amenity": "cafe",
      "cuisine": "sandwich;coffee_shop;chicken;pizza;international;burger;greek;italian;american",
      "opening_hours": "Mo-Th 08:00-18:00,Fr 08:00-17:00,Sa 10:00-15:00",
      "website": "https://gwcafe.revelup.com/weborder/?establishment",
      "capacity": "25",
      "phone": "+1 978-449-9919",
      "takeaway": "no",
      "outdoor_seating": "yes",
      "addr_state": "MA",
      "addr_city": "Groton",
      "addr_postcode": "01450",
      "addr_street": "Main Street",
      "addr_housenumber": "493",
      "value": 168.11538618651645
    },
    {
      "id": 205914,
      "geometry": "POINT (-71.521649 42.792893)",
      "poi_name": "Kung Fu Tea",
      "osm_id": 7188768313,
      "amenity": "cafe",
      "cuisine": "bubble_tea",
      "shop": "tea",
      "takeaway": "yes",
      "addr_state": "NH",
      "addr_city": "Nashua",
      "addr_postcode": "03063",
      "addr_street": "Amherst Street",
      "addr_housenumber": "493",
      "value": 168.11538618651645
    },
    {
      "id": 227346,
      "geometry": "POINT (-71.436085 42.699701)",
      "poi_name": "Starbucks",
      "osm_id": 4305086556,
      "amenity": "cafe",
      "cuisine": "coffee_shop",
      "opening_hours": "Mo-Sa 08:00-21:00; Su 10:30-18:00",
      "internet_access": "wlan",
      "phone": "+1-603-897-1860",
      "takeaway": "yes",
      "official_name": "Starbucks Coffee",
      "addr_state": "NH",
      "addr_city": "Nashua",
      "addr_postcode": "03060",
      "addr_street": "Daniel Webster Highway",
      "addr_housenumber": "310",
      "value": 168.11538618651645
    },
    {
      "id": 227355,
      "geometry": "POINT (-71.437074 42.700942)",
      "poi_name": "Nature's Nectar",
      "osm_id": 4305086954,
      "amenity": "cafe",
      "cuisine": "smoothie",
      "opening_hours": "Mo-Sa 10:00-21:00; Su 12:00-18:00",
      "website": "https://naturesnectarsmoothies.wordpress.com/",
      "addr_state": "NH",
      "addr_city": "Nashua",
      "addr_postcode": "03060",
      "addr_street": "Daniel Webster Highway",
      "addr_housenumber": "310",
      "value": 168.11538618651645
    }
  ],
  "answer_type": "loc",
  "question_entities": {
    "[2]": {
      "distance": 50000,
      "text": "50 kilometers"
    },
    "[3]": {
      "main_category": "tourism",
      "sub_category": "zoo",
      "display_name": "Joppa Hill Farm, Bedford, NH",
      "geo_wkt": "POINT (-71.575992 42.931889)",
      "poi": {
        "id": 10743,
        "geometry": "POINT (-71.575992 42.931889)",
        "poi_name": "Joppa Hill Farm",
        "osm_id": 8014170407,
        "tourism": "zoo",
        "zoo": "petting_zoo",
        "addr_state": "NH",
        "addr_city": "Bedford",
        "addr_postcode": "03110"
      }
    },
    "[4]": {
      "main_category": "leisure",
      "sub_category": "nature reserve",
      "display_name": "Dewey Farm Conservation Land, Millis, MA",
      "geo_wkt": "POINT (-71.364939 42.185888)",
      "poi": {
        "id": 246989,
        "geometry": "POINT (-71.364939 42.185888)",
        "poi_name": "Dewey Farm Conservation Land",
        "osm_id": 8514570141,
        "leisure": "nature_reserve",
        "opening_hours": "sunrise-sunset",
        "operator": "Millis Conservation Commission",
        "addr_state": "MA",
        "addr_city": "Millis",
        "addr_postcode": "02054",
        "addr_street": "Orchard Street"
      }
    },
    "[1]": {
      "main_category": "amenity",
      "sub_category": "cafe"
    }
  },
  "id": 1250,
  "type": "range:towards+loc"
}