{
  "question": "Where can I find fast food restaurant as you progress towards Lake Health Beachwood Medical Center, Beachwood, OH within 100 kilometers from Mentor Civic Arena, Mentor, OH?",
  "sql": "WITH\n    angle AS (SELECT degrees(ST_Azimuth(ST_GeomFromText('POINT (-81.332139 41.698458)',4326)::geography, ST_GeomFromText('POINT (-81.499007 41.464971)',4326)::geography)) AS value)\nSELECT * FROM pois,angle\nWHERE amenity = 'fast_food'\nAND ST_DWithin(pois.geometry, ST_GeomFromText('POINT (-81.332139 41.698458)',4326)::geography, 100000)\nAND (degrees(ST_Azimuth(ST_GeomFromText('POINT (-81.332139 41.698458)',4326)::geography, pois.geometry)) BETWEEN angle.value - 22.5 AND angle.value + 22.5);\n",
  "answers": [
    {
      "id": 28620,
      "geometry": "POINT (-81.468757 41.520419)",
      "poi_name": "Taco Bell",
      "osm_id": 8245265951,
      "amenity": "fast_food",
      "cuisine": "tex-mex",
      "website": "https://locations.tacobell.com/oh/mayfield-heights/5855-mayfield-road.html",
      "takeaway": "yes",
      "drive_through": "yes",
      "addr_state": "OH",
      "addr_city": "Mayfield Heights",
      "addr_postcode": "44124",
      "addr_street": "Mayfield Road",
      "addr_housenumber": "5855",
      "value": 208.2735045024788
    },
    {
      "id": 28621,
      "geometry": "POINT (-81.450138 41.519636)",
      "poi_name": "Chick-fil-A",
      "osm_id": 8245281223,
      "amenity": "fast_food",
      "cuisine": "chicken",
      "takeaway": "yes",
      "addr_state": "OH",
      "addr_city": "Mayfield Heights",
      "addr_postcode": "44124",
      "addr_street": "Mayfield Road",
      "addr_housenumber": "6390",
      "value": 208.2735045024788
    },
    {
      "id": 29183,
      "geometry": "POINT (-81.441446 41.102296)",
      "poi_name": "Fresh Planet",
      "osm_id": 8286826080,
      "amenity": "fast_food",
      "website": "https://fresh-planet.com/",
      "phone": "+13308495099",
      "addr_state": "OH",
      "addr_city": "Tallmadge",
      "addr_postcode": "44278",
      "addr_street": "Tallmadge Circle",
      "addr_housenumber": "116",
      "value": 208.2735045024788
    },
    {
      "id": 29781,
      "geometry": "POINT (-81.417009 41.083389)",
      "poi_name": "Gionino's Pizzeria",
      "osm_id": 8326565859,
      "amenity": "fast_food",
      "cuisine": "pizza",
      "website": "https://www.gioninos.com/locations/oh-tallmadge-676-eastwood-ave-44278",
      "phone": "+1-330-630-2010",
      "takeaway": "yes",
      "addr_state": "OH",
      "addr_city": "Tallmadge",
      "addr_postcode": "44278",
      "addr_street": "Eastwood Avenue",
      "addr_housenumber": "676",
      "value": 208.2735045024788
    },
    {
      "id": 30734,
      "geometry": "POINT (-81.570327 41.110295)",
      "poi_name": "Moe's Southwest Grill",
      "osm_id": 8379715148,
      "amenity": "fast_food",
      "cuisine": "mexican",
      "takeaway": "yes",
      "addr_state": "OH",
      "addr_city": "Akron",
      "addr_postcode": "44313",
      "addr_street": "West Market Street",
      "value": 208.2735045024788
    },
    {
      "id": 31390,
      "geometry": "POINT (-81.507233 41.148124)",
      "poi_name": "BurgerFi",
      "osm_id": 8421643884,
      "amenity": "fast_food",
      "cuisine": "burger",
      "phone": "+1-330-217-1471",
      "takeaway": "yes",
      "addr_state": "OH",
      "addr_city": "Cuyahoga Falls",
      "addr_postcode": "44223",
      "addr_street": "Portage Trail",
      "addr_housenumber": "2002",
      "value": 208.2735045024788
    },
    {
      "id": 31435,
      "geometry": "POINT (-81.74516 41.384089)",
      "poi_name": "Wingstop",
      "osm_id": 8423653252,
      "amenity": "fast_food",
      "cuisine": "wings",
      "takeaway": "yes",
      "addr_state": "OH",
      "addr_city": "Parma",
      "addr_postcode": "44129",
      "addr_street": "West Ridgewood Drive",
      "addr_housenumber": "8641",
      "value": 208.2735045024788
    },
    {
      "id": 31436,
      "geometry": "POINT (-81.742969 41.384075)",
      "poi_name": "Five Guys",
      "osm_id": 8423653254,
      "amenity": "fast_food",
      "cuisine": "burger",
      "takeaway": "yes",
      "official_name": "Five Guys Burgers and Fries",
      "addr_state": "OH",
      "addr_city": "Parma",
      "addr_postcode": "44129",
      "addr_street": "West Ridgewood Drive",
      "addr_housenumber": "8249",
      "value": 208.2735045024788
    },
    {
      "id": 31437,
      "geometry": "POINT (-81.741522 41.384197)",
      "poi_name": "Panera Bread",
      "osm_id": 8423653256,
      "amenity": "fast_food",
      "cuisine": "sandwich;bakery",
      "takeaway": "yes",
      "addr_state": "OH",
      "addr_city": "Parma",
      "addr_postcode": "44129",
      "addr_street": "West Ridgewood Drive",
      "addr_housenumber": "8109",
      "value": 208.2735045024788
    },
    {
      "id": 38474,
      "geometry": "POINT (-81.553347 41.011203)",
      "poi_name": "Subway",
      "osm_id": 2867814555,
      "amenity": "fast_food",
      "cuisine": "sandwich",
      "website": "https://www.subway.com/",
      "takeaway": "yes",
      "addr_state": "OH",
      "addr_city": "Akron",
      "addr_postcode": "44319",
      "addr_street": "Manchester Road",
      "addr_housenumber": "3235",
      "value": 208.2735045024788
    },
    {
      "id": 36132,
      "geometry": "POINT (-81.45156 41.539582)",
      "poi_name": "Panera Bread",
      "osm_id": 2751045267,
      "amenity": "fast_food",
      "cuisine": "sandwich;bakery",
      "takeaway": "yes",
      "drive_through": "no",
      "outdoor_seating": "yes",
      "addr_city": "Highland Heights",
      "value": 208.2735045024788
    },
    {
      "id": 36484,
      "geometry": "POINT (-81.445332 41.2397)",
      "poi_name": "Bruegger's Bagels",
      "osm_id": 2767085937,
      "amenity": "fast_food",
      "cuisine": "bagel",
      "takeaway": "yes",
      "addr_city": "hudson",
      "addr_postcode": "44236",
      "value": 208.2735045024788
    },
    {
      "id": 38011,
      "geometry": "POINT (-81.702378 41.440377)",
      "poi_name": "China Wok",
      "osm_id": 2841597268,
      "amenity": "fast_food",
      "cuisine": "chinese",
      "takeaway": "yes",
      "addr_state": "OH",
      "addr_city": "Cleveland",
      "addr_postcode": "44109",
      "addr_street": "Broadview Road",
      "addr_housenumber": "3006",
      "value": 208.2735045024788
    },
    {
      "id": 38480,
      "geometry": "POINT (-81.834582 41.308871)",
      "poi_name": "McDonald's",
      "osm_id": 2867826001,
      "amenity": "fast_food",
      "cuisine": "burger",
      "website": "https://www.mcdonalds.com/us/en-us/location/oh/strongsville/14615-pearl-rd/3314.html",
      "takeaway": "yes",
      "addr_city": "Strongsville",
      "addr_postcode": "44136",
      "addr_street": "Pearl Road",
      "addr_housenumber": "14615",
      "value": 208.2735045024788
    },
    {
      "id": 39595,
      "geometry": "POINT (-81.834616 41.306239)",
      "poi_name": "Chipotle",
      "osm_id": 2930400821,
      "amenity": "fast_food",
      "cuisine": "mexican",
      "website": "https://www.chipotle.com/",
      "phone": "+1-440-846-9625",
      "takeaway": "yes",
      "official_name": "Chipotle Mexican Grill",
      "addr_city": "Strongsville",
      "addr_postcode": "44136",
      "addr_street": "Pearl Road",
      "addr_housenumber": "15029",
      "value": 208.2735045024788
    },
    {
      "id": 38927,
      "geometry": "POINT (-81.437199 41.525095)",
      "poi_name": "Chipotle",
      "osm_id": 2892442002,
      "amenity": "fast_food",
      "cuisine": "mexican",
      "takeaway": "yes",
      "official_name": "Chipotle Mexican Grill",
      "addr_state": "OH",
      "addr_city": "Mayfield Heights",
      "addr_postcode": "44124",
      "addr_street": "Eastgate Drive",
      "addr_housenumber": "6717",
      "value": 208.2735045024788
    },
    {
      "id": 38832,
      "geometry": "POINT (-81.834612 41.306303)",
      "poi_name": "Jimmy John's",
      "osm_id": 2884626332,
      "amenity": "fast_food",
      "cuisine": "sandwich",
      "website": "https://www.jimmyjohns.com/",
      "takeaway": "yes",
      "addr_city": "Strongsville",
      "addr_postcode": "44136",
      "addr_street": "Pearl Road",
      "addr_housenumber": "14993",
      "value": 208.2735045024788
    },
    {
      "id": 39997,
      "geometry": "POINT (-81.536777 41.499107)",
      "poi_name": "McDonald's",
      "osm_id": 2953985983,
      "amenity": "fast_food",
      "cuisine": "burger",
      "website": "https://www.mcdonalds.com/us/en-us/location/oh/university-heights/2224-warrensville-center-rd/32808.html",
      "takeaway": "yes",
      "addr_state": "OH",
      "addr_city": "University Heights",
      "addr_postcode": "44118",
      "addr_street": "Warrensville Center Road",
      "addr_housenumber": "2224",
      "value": 208.2735045024788
    },
    {
      "id": 41167,
      "geometry": "POINT (-81.536677 41.393425)",
      "poi_name": "Burger King",
      "osm_id": 3003066333,
      "amenity": "fast_food",
      "cuisine": "burger",
      "takeaway": "yes",
      "addr_state": "OH",
      "addr_city": "Bedford",
      "addr_postcode": "44146",
      "addr_street": "Center Road",
      "addr_housenumber": "4",
      "value": 208.2735045024788
    },
    {
      "id": 45386,
      "geometry": "POINT (-81.834459 41.312547)",
      "poi_name": "Dunkin'",
      "osm_id": 3204196528,
      "amenity": "fast_food",
      "cuisine": "donut;coffee_shop",
      "takeaway": "yes",
      "addr_city": "Strongsville",
      "addr_postcode": "44136",
      "addr_street": "Pearl Road",
      "addr_housenumber": "14009",
      "value": 208.2735045024788
    },
    {
      "id": 45946,
      "geometry": "POINT (-81.827805 41.342697)",
      "poi_name": "McDonald's",
      "osm_id": 3237282873,
      "amenity": "fast_food",
      "cuisine": "burger",
      "website": "https://www.mcdonalds.com/us/en-us/location/oh/strongsville/9192-pearl-road/36762.html",
      "takeaway": "yes",
      "addr_city": "Strongsville",
      "addr_postcode": "44136",
      "addr_street": "Pearl Road",
      "addr_housenumber": "9192",
      "value": 208.2735045024788
    },
    {
      "id": 45744,
      "geometry": "POINT (-81.438491 41.307494)",
      "poi_name": "Arby's",
      "osm_id": 3227141037,
      "amenity": "fast_food",
      "cuisine": "sandwich",
      "addr_state": "OH",
      "value": 208.2735045024788
    },
    {
      "id": 46665,
      "geometry": "POINT (-81.517016 41.085383)",
      "poi_name": "Subway",
      "osm_id": 3281436608,
      "amenity": "fast_food",
      "cuisine": "sandwich",
      "takeaway": "yes",
      "addr_state": "OH",
      "addr_city": "Akron",
      "addr_postcode": "44308",
      "addr_street": "North Main Street",
      "addr_housenumber": "10",
      "value": 208.2735045024788
    },
    {
      "id": 55403,
      "geometry": "POINT (-81.465783 40.965533)",
      "poi_name": "Taco Bell",
      "osm_id": 10186045452,
      "amenity": "fast_food",
      "cuisine": "tex-mex",
      "website": "https://locations.tacobell.com/oh/uniontown/3532-massillon-road.html",
      "phone": "+1-234-270-0247",
      "takeaway": "yes",
      "drive_through": "yes",
      "addr_state": "OH",
      "addr_city": "Uniontown",
      "addr_postcode": "44685",
      "addr_street": "Massillon Road",
      "addr_housenumber": "3532",
      "value": 208.2735045024788
    },
    {
      "id": 54384,
      "geometry": "POINT (-81.466334 40.954014)",
      "poi_name": "Jersey Mike's Subs",
      "osm_id": 10130250410,
      "amenity": "fast_food",
      "cuisine": "sandwich",
      "takeaway": "yes",
      "addr_state": "OH",
      "addr_city": "Uniontown",
      "addr_postcode": "44685",
      "addr_street": "Massillon Road",
      "addr_housenumber": "3944",
      "value": 208.2735045024788
    },
    {
      "id": 55406,
      "geometry": "POINT (-81.464419 40.967095)",
      "poi_name": "Subway",
      "osm_id": 10186046225,
      "amenity": "fast_food",
      "cuisine": "sandwich",
      "website": "https://restaurants.subway.com/united-states/oh/uniontown/3471-massillon-rd",
      "phone": "+1-330-896-9181",
      "takeaway": "yes",
      "drive_through": "no",
      "addr_state": "OH",
      "addr_city": "Uniontown",
      "addr_postcode": "44685",
      "addr_street": "Massillon Road",
      "addr_housenumber": "3471",
      "value": 208.2735045024788
    },
    {
      "id": 55407,
      "geometry": "POINT (-81.464433 40.966761)",
      "poi_name": "Gionino's Pizzeria",
      "osm_id": 10186046229,
      "amenity": "fast_food",
      "cuisine": "pizza",
      "website": "http://www.gioninos.com/",
      "phone": "+1-330-896-1002",
      "takeaway": "yes",
      "addr_state": "OH",
      "addr_city": "Uniontown",
      "addr_postcode": "44685",
      "addr_street": "Massillon Road",
      "addr_housenumber": "3483",
      "value": 208.2735045024788
    },
    {
      "id": 55871,
      "geometry": "POINT (-81.469615 41.101657)",
      "poi_name": "Gionino's Pizzeria",
      "osm_id": 10212206517,
      "amenity": "fast_food",
      "cuisine": "pizza",
      "website": "https://www.gioninos.com/locations/oh-akron-1250-e-tallmadge-ave-44310",
      "phone": "+1-330-634-1110",
      "takeaway": "yes",
      "addr_state": "OH",
      "addr_city": "Akron",
      "addr_postcode": "44310",
      "addr_street": "East Tallmadge Avenue",
      "addr_housenumber": "1250",
      "value": 208.2735045024788
    },
    {
      "id": 58382,
      "geometry": "POINT (-81.729574 41.418898)",
      "poi_name": "Little Caesars",
      "osm_id": 5372998972,
      "amenity": "fast_food",
      "cuisine": "pizza",
      "website": "https://littlecaesars.com/en-us/store/8115/",
      "takeaway": "yes",
      "addr_state": "OH",
      "addr_city": "Cleveland",
      "addr_postcode": "44136",
      "addr_street": "Pearl Road",
      "value": 208.2735045024788
    },
    {
      "id": 59583,
      "geometry": "POINT (-81.425135 41.03202)",
      "poi_name": "Subway",
      "osm_id": 5433629368,
      "amenity": "fast_food",
      "cuisine": "sandwich",
      "phone": "+1-330-628-7449",
      "takeaway": "yes",
      "addr_state": "OH",
      "addr_city": "Akron",
      "addr_postcode": "44312",
      "addr_street": "East Waterloo Road",
      "addr_housenumber": "2843",
      "value": 208.2735045024788
    },
    {
      "id": 59584,
      "geometry": "POINT (-81.425038 41.032016)",
      "poi_name": "Papa John's",
      "osm_id": 5433629369,
      "amenity": "fast_food",
      "cuisine": "pizza",
      "phone": "+1-330-628-4100",
      "takeaway": "yes",
      "addr_state": "OH",
      "addr_city": "Akron",
      "addr_postcode": "44312",
      "addr_street": "East Waterloo Road",
      "addr_housenumber": "2845",
      "value": 208.2735045024788
    },
    {
      "id": 62441,
      "geometry": "POINT (-81.685264 41.359373)",
      "poi_name": "Little Caesars",
      "osm_id": 5567870615,
      "amenity": "fast_food",
      "cuisine": "pizza",
      "website": "https://littlecaesars.com/en-us/store/8729/",
      "takeaway": "yes",
      "addr_state": "OH",
      "addr_city": "Parma",
      "addr_postcode": "44134",
      "addr_street": "West Pleasant Valley Road",
      "addr_housenumber": "1011",
      "value": 208.2735045024788
    },
    {
      "id": 66241,
      "geometry": "POINT (-81.486686 41.45306)",
      "poi_name": "Shake Shack",
      "osm_id": 5732611222,
      "amenity": "fast_food",
      "cuisine": "burger",
      "internet_access": "wlan",
      "takeaway": "yes",
      "addr_state": "OH",
      "addr_city": "Beachwood",
      "addr_postcode": "44122",
      "addr_street": "Park Avenue",
      "addr_housenumber": "311",
      "value": 208.2735045024788
    },
    {
      "id": 68650,
      "geometry": "POINT (-81.440593 41.60843)",
      "poi_name": "Robeks",
      "osm_id": 11279674496,
      "amenity": "fast_food",
      "cuisine": "juice",
      "opening_hours": "Su 09:30-18:00; Mo-Fr 07:00-19:00; Sa 08:30-18:00",
      "website": "https://locations.robeks.com/oh/willoughby/5874-som-center-rd/",
      "phone": "+1 440 278 4232",
      "takeaway": "yes",
      "addr_state": "OH",
      "addr_city": "Willoughby",
      "addr_postcode": "44094",
      "addr_street": "SOM Center Road",
      "addr_housenumber": "5874",
      "value": 208.2735045024788
    },
    {
      "id": 68581,
      "geometry": "POINT (-81.527738 41.521059)",
      "poi_name": "Baskin Robins",
      "osm_id": 11275812591,
      "amenity": "fast_food",
      "cuisine": "ice_cream",
      "opening_hours": "Su-Sa 00:00-23:59",
      "website": "https://locations.baskinrobbins.com/oh/south-euclid/4233-mayfield-rd-343184-br",
      "phone": "+1 216 382 5937",
      "addr_state": "OH",
      "addr_city": "South Euclid",
      "addr_postcode": "44121",
      "addr_street": "Mayfield Road",
      "value": 208.2735045024788
    },
    {
      "id": 68582,
      "geometry": "POINT (-81.527734 41.521181)",
      "poi_name": "Dunkin'",
      "osm_id": 11275812592,
      "amenity": "fast_food",
      "cuisine": "donut;coffee_shop",
      "opening_hours": "Su-Sa 00:00-24:00",
      "website": "https://locations.dunkindonuts.com/en/oh/south-euclid/4233-mayfield-rd/343184",
      "phone": "+1 216 382 5937",
      "takeaway": "yes",
      "addr_state": "OH",
      "addr_city": "South Euclid",
      "addr_postcode": "44121",
      "addr_street": "Mayfield Road",
      "value": 208.2735045024788
    },
    {
      "id": 71589,
      "geometry": "POINT (-81.426676 41.627256)",
      "poi_name": "Pulp Juice and Smoothie Bar",
      "osm_id": 11394916719,
      "amenity": "fast_food",
      "opening_hours": "Su 09:00-21:00; Mo-Fr 07:00-21:00; Sa 09:00-21:00",
      "phone": "440) 269-1354",
      "addr_state": "OH",
      "addr_city": "Willoughby",
      "addr_postcode": "44094",
      "addr_street": "Robinhood Drive",
      "addr_housenumber": "4829",
      "value": 208.2735045024788
    },
    {
      "id": 70499,
      "geometry": "POINT (-81.432198 41.627087)",
      "poi_name": "Smoothie King",
      "osm_id": 11365054359,
      "amenity": "fast_food",
      "cuisine": "juice",
      "opening_hours": "Su 10:00-20:00; Mo-Fr 07:00-21:00; Sa 08:00-21:00",
      "website": "https://locations.smoothieking.com/ll/us/oh/willoughby/E28306",
      "phone": "+1 440 525 5107",
      "takeaway": "yes",
      "addr_state": "OH",
      "addr_city": "Willoughby",
      "addr_postcode": "44094",
      "addr_street": "Euclid Avenue",
      "addr_housenumber": "36001",
      "value": 208.2735045024788
    },
    {
      "id": 71272,
      "geometry": "POINT (-81.473392 41.519848)",
      "poi_name": "Shawrma Bro's",
      "osm_id": 11384964689,
      "amenity": "fast_food",
      "cuisine": "mediterranean;middle_eastern;shawarma",
      "wheelchair": "yes",
      "opening_hours": "Mo-Sa 11:00-22:00; Su off",
      "internet_access": "no",
      "phone": "+1 (234) 400-4082",
      "takeaway": "yes",
      "drive_through": "no",
      "delivery": "yes",
      "addr_state": "OH",
      "addr_city": "Lyndhurst",
      "addr_postcode": "44124",
      "addr_street": "Mayfield Road",
      "addr_housenumber": "5720",
      "value": 208.2735045024788
    },
    {
      "id": 71273,
      "geometry": "POINT (-81.473455 41.51985)",
      "poi_name": "Sharpy's Subs",
      "osm_id": 11384964690,
      "amenity": "fast_food",
      "cuisine": "sandwich",
      "description": "Sharpy's Subs provides the food for the bar next door, Scalpers.",
      "opening_hours": "Mo-Su 11:00-02:00",
      "website": "https://scalpersbarandgrille.com/",
      "drive_through": "no",
      "addr_state": "OH",
      "addr_city": "Lyndhurst",
      "addr_postcode": "44124",
      "addr_street": "Mayfield Road",
      "addr_housenumber": "5718",
      "value": 208.2735045024788
    },
    {
      "id": 71275,
      "geometry": "POINT (-81.473944 41.518966)",
      "poi_name": "Camy's Caribbean Mart and Eatery",
      "osm_id": 11384964696,
      "amenity": "fast_food",
      "cuisine": "caribbean",
      "opening_hours": "Mo-Th 10:00-20:00; Fr-Sa 10:00-21:00; Su off",
      "website": "https://www.camyscaribbeanmart.com/",
      "shop": "supermarket",
      "phone": "+1 440-459-1390",
      "addr_state": "OH",
      "addr_city": "Lyndhurst",
      "addr_postcode": "44124",
      "addr_street": "Mayfield Road",
      "addr_housenumber": "5702",
      "value": 208.2735045024788
    },
    {
      "id": 70166,
      "geometry": "POINT (-81.342693 41.682438)",
      "poi_name": "Subway",
      "osm_id": 11347084064,
      "amenity": "fast_food",
      "cuisine": "sandwich",
      "opening_hours": "Su off; Mo-Fr 10:00-20:00; Sa 11:00-15:00",
      "website": "https://restaurants.subway.com/united-states/oh/mentor/8318-tyler-blvd",
      "phone": "+1 440 266 2000",
      "takeaway": "yes",
      "addr_state": "OH",
      "addr_city": "Mentor",
      "addr_postcode": "44060",
      "addr_street": "Tyler Boulevard",
      "addr_housenumber": "8318",
      "value": 208.2735045024788
    },
    {
      "id": 70589,
      "geometry": "POINT (-81.434527 41.62651)",
      "poi_name": "Dunkin'",
      "osm_id": 11367422043,
      "amenity": "fast_food",
      "cuisine": "donut;coffee_shop",
      "opening_hours": "Su-Sa 05:00-20:00",
      "website": "https://locations.dunkindonuts.com/en/oh/willoughby/35535-euclid-ave/338084",
      "phone": "+1 440 953 4402",
      "takeaway": "yes",
      "drive_through": "yes",
      "addr_state": "OH",
      "addr_city": "Willoughby",
      "addr_postcode": "44094",
      "addr_street": "Euclid Avenue",
      "addr_housenumber": "35535",
      "value": 208.2735045024788
    },
    {
      "id": 70590,
      "geometry": "POINT (-81.434324 41.626542)",
      "poi_name": "Subway",
      "osm_id": 11367422044,
      "amenity": "fast_food",
      "cuisine": "sandwich",
      "opening_hours": "Su 00:00-24:00; Mo-We 10:00-19:00; Th off; Fr 10:00-18:00; Sa 10:00-15:00",
      "website": "https://restaurants.subway.com/united-states/oh/willoughby/35535-euclid-ave",
      "phone": "+1 440 954 7827",
      "takeaway": "yes",
      "addr_state": "OH",
      "addr_city": "Willoughby",
      "addr_postcode": "44094",
      "addr_street": "Euclid Avenue",
      "addr_housenumber": "35535",
      "value": 208.2735045024788
    },
    {
      "id": 70591,
      "geometry": "POINT (-81.43397 41.626611)",
      "poi_name": "Wingstop",
      "osm_id": 11367422045,
      "amenity": "fast_food",
      "cuisine": "wings",
      "opening_hours": "Su-We 11:00-24:00; Th off; Fr-Sa 11:00-24:00",
      "website": "https://www.wingstop.com",
      "phone": "+1 440 571 8700",
      "takeaway": "yes",
      "addr_state": "OH",
      "addr_city": "Willoughby",
      "addr_postcode": "44094",
      "addr_street": "Euclid Avenue",
      "addr_housenumber": "35535",
      "value": 208.2735045024788
    },
    {
      "id": 71590,
      "geometry": "POINT (-81.426692 41.627057)",
      "poi_name": "Mr. Hero",
      "osm_id": 11394916720,
      "amenity": "fast_food",
      "cuisine": "sandwich;burger",
      "opening_hours": "Su-We 11:00-21:00; Th 11:00-22:00; Fr 11:00-21:00; Sa 11:00-22:00",
      "phone": "+1 440 946 9393",
      "takeaway": "yes",
      "addr_state": "OH",
      "addr_city": "Willoughby",
      "addr_postcode": "44094",
      "addr_street": "Robinhood Drive",
      "addr_housenumber": "4839",
      "value": 208.2735045024788
    },
    {
      "id": 72234,
      "geometry": "POINT (-81.4395 41.624637)",
      "poi_name": "Papa John's",
      "osm_id": 11417958547,
      "amenity": "fast_food",
      "cuisine": "pizza",
      "website": "https://locations.papajohns.com/united-states/oh/44094/willoughby/34804-euclid-avenue",
      "phone": "+1 440 602 7272",
      "takeaway": "yes",
      "addr_state": "OH",
      "addr_city": "Willoughby",
      "addr_postcode": "44094",
      "addr_street": "Euclid Avenue",
      "addr_housenumber": "34804",
      "value": 208.2735045024788
    },
    {
      "id": 72235,
      "geometry": "POINT (-81.43361 41.626582)",
      "poi_name": "Tropical Smoothie Cafe",
      "osm_id": 11418054055,
      "amenity": "fast_food",
      "cuisine": "juice",
      "opening_hours": "Su 10:00-20:00; Mo-Fr 07:00-21:00; Sa 08:00-21:00",
      "website": "https://locations.tropicalsmoothiecafe.com/oh/willoughby/35535-euclid-ave",
      "phone": "+1 440 527 8112",
      "takeaway": "yes",
      "addr_state": "OH",
      "addr_city": "Willoughby",
      "addr_postcode": "44094",
      "addr_street": "Euclid Avenue",
      "addr_housenumber": "35535",
      "value": 208.2735045024788
    },
    {
      "id": 72236,
      "geometry": "POINT (-81.429673 41.626805)",
      "poi_name": "Chipotle",
      "osm_id": 11418054057,
      "amenity": "fast_food",
      "cuisine": "mexican",
      "opening_hours": "Su-Sa 10:45-23:00",
      "website": "https://locations.chipotle.com/oh/willoughby/36200-euclid-ave?restaurant=765",
      "phone": "+1 440 942 5897",
      "takeaway": "yes",
      "official_name": "Chipotle Mexican Grill",
      "addr_state": "OH",
      "addr_city": "Willoughby",
      "addr_postcode": "44094",
      "addr_street": "Euclid Avenue",
      "addr_housenumber": "36200",
      "value": 208.2735045024788
    },
    {
      "id": 72237,
      "geometry": "POINT (-81.429718 41.626629)",
      "poi_name": "Marco's Pizza",
      "osm_id": 11418054058,
      "amenity": "fast_food",
      "cuisine": "pizza",
      "website": "https://order.marcosoms.com/?id=LP98JA&orderType=Pickup",
      "phone": "+1 440 975 8888",
      "takeaway": "yes",
      "addr_state": "OH",
      "addr_city": "Willoughby",
      "addr_postcode": "44094",
      "addr_street": "Euclid Avenue",
      "addr_housenumber": "36200",
      "value": 208.2735045024788
    },
    {
      "id": 72629,
      "geometry": "POINT (-81.431914 41.627146)",
      "poi_name": "Charleys Philly Steaks",
      "osm_id": 11439302497,
      "amenity": "fast_food",
      "cuisine": "sandwich",
      "opening_hours": "Su-Sa 10:00-22:00",
      "website": "https://www.charleys.com/locations/menu-willow-plaza-oh",
      "phone": "+1 833 230 2930",
      "takeaway": "yes",
      "addr_state": "OH",
      "addr_city": "Willoughby",
      "addr_postcode": "44094",
      "addr_street": "Euclid Avenue",
      "addr_housenumber": "36001",
      "value": 208.2735045024788
    },
    {
      "id": 76036,
      "geometry": "POINT (-81.436692 41.625981)",
      "poi_name": "Honey Baked Ham",
      "osm_id": 9757558104,
      "amenity": "fast_food",
      "cuisine": "american",
      "opening_hours": "Su off; Mo-Fr 09:30-18:30; Sa 10:00-18:00",
      "phone": "+1 440 946 8585",
      "takeaway": "yes",
      "official_name": "The Honey Baked Ham Company",
      "addr_state": "OH",
      "addr_city": "Willoughby",
      "addr_postcode": "44094",
      "addr_street": "Euclid Avenue",
      "addr_housenumber": "35101",
      "value": 208.2735045024788
    },
    {
      "id": 82596,
      "geometry": "POINT (-81.580127 41.51123)",
      "poi_name": "Grum's Sub Shoppe",
      "osm_id": 1705311375,
      "amenity": "fast_food",
      "cuisine": "sandwich",
      "takeaway": "only",
      "drive_through": "no",
      "addr_state": "OH",
      "addr_city": "Cleveland Heights",
      "addr_postcode": "44106",
      "addr_street": "Coventry Road",
      "addr_housenumber": "1776",
      "value": 208.2735045024788
    },
    {
      "id": 88374,
      "geometry": "POINT (-81.74455 41.380118)",
      "poi_name": "Mr. Hero",
      "osm_id": 8781130051,
      "amenity": "fast_food",
      "cuisine": "sandwich",
      "addr_state": "OH",
      "addr_city": "Parma",
      "addr_postcode": "44129",
      "addr_street": "Day Drive",
      "addr_housenumber": "8505",
      "value": 208.2735045024788
    },
    {
      "id": 85842,
      "geometry": "POINT (-81.604072 41.50966)",
      "poi_name": "Jimmy John's",
      "osm_id": 1901678648,
      "amenity": "fast_food",
      "cuisine": "sandwich",
      "takeaway": "yes",
      "official_name": "Jimmy John's Gourmet Sandwiches",
      "addr_state": "OH",
      "addr_city": "Cleveland",
      "addr_postcode": "44106",
      "addr_street": "Euclid Avenue",
      "addr_housenumber": "11446",
      "value": 208.2735045024788
    },
    {
      "id": 85843,
      "geometry": "POINT (-81.603778 41.509844)",
      "poi_name": "Panera Bread",
      "osm_id": 1901678660,
      "amenity": "fast_food",
      "cuisine": "sandwich;bakery",
      "takeaway": "yes",
      "addr_state": "OH",
      "addr_city": "Cleveland",
      "addr_postcode": "44106",
      "addr_street": "Euclid Avenue",
      "addr_housenumber": "11490",
      "value": 208.2735045024788
    },
    {
      "id": 85844,
      "geometry": "POINT (-81.603882 41.509756)",
      "poi_name": "Chipotle",
      "osm_id": 1901678665,
      "amenity": "fast_food",
      "cuisine": "mexican",
      "takeaway": "yes",
      "official_name": "Chipotle Mexican Grill",
      "addr_state": "OH",
      "addr_city": "Cleveland",
      "addr_postcode": "44106",
      "addr_street": "Euclid Avenue",
      "addr_housenumber": "11452",
      "value": 208.2735045024788
    },
    {
      "id": 88379,
      "geometry": "POINT (-81.735233 41.380153)",
      "poi_name": "Charleys Philly Steaks",
      "osm_id": 8781361246,
      "amenity": "fast_food",
      "cuisine": "sandwich",
      "takeaway": "yes",
      "addr_state": "OH",
      "addr_city": "Parma",
      "addr_postcode": "44129",
      "addr_street": "Ridge Road",
      "addr_housenumber": "6780",
      "value": 208.2735045024788
    },
    {
      "id": 88380,
      "geometry": "POINT (-81.738051 41.379794)",
      "poi_name": "Subway",
      "osm_id": 8781361260,
      "amenity": "fast_food",
      "cuisine": "sandwich",
      "takeaway": "yes",
      "addr_state": "OH",
      "addr_city": "Parma",
      "addr_postcode": "44129",
      "addr_street": "Day Drive",
      "addr_housenumber": "7759",
      "value": 208.2735045024788
    },
    {
      "id": 88381,
      "geometry": "POINT (-81.735619 41.380213)",
      "poi_name": "Taco Bell",
      "osm_id": 8781366119,
      "amenity": "fast_food",
      "cuisine": "tex-mex",
      "website": "https://locations.tacobell.com/oh/parma/7475-day-dr.html",
      "takeaway": "yes",
      "addr_state": "OH",
      "addr_city": "Parma",
      "addr_postcode": "44129",
      "addr_street": "Day Drive",
      "addr_housenumber": "7475",
      "value": 208.2735045024788
    },
    {
      "id": 88854,
      "geometry": "POINT (-81.537682 41.509786)",
      "poi_name": "Penn Station",
      "osm_id": 8804851242,
      "amenity": "fast_food",
      "cuisine": "sandwich",
      "takeaway": "yes",
      "addr_state": "OH",
      "addr_city": "South Euclid",
      "addr_postcode": "44121",
      "addr_street": "Warrensville Center Road",
      "addr_housenumber": "1840",
      "value": 208.2735045024788
    },
    {
      "id": 88535,
      "geometry": "POINT (-81.736139 41.379982)",
      "poi_name": "McDonald's",
      "osm_id": 8786733581,
      "amenity": "fast_food",
      "cuisine": "burger",
      "website": "https://www.mcdonalds.com/us/en-us/location/oh/parma/7505-day-dr/3529.html",
      "takeaway": "yes",
      "addr_state": "OH",
      "addr_city": "Parma",
      "addr_postcode": "44129",
      "addr_street": "Day Drive",
      "addr_housenumber": "7505",
      "value": 208.2735045024788
    },
    {
      "id": 88536,
      "geometry": "POINT (-81.737158 41.38)",
      "poi_name": "Arby's",
      "osm_id": 8786757359,
      "amenity": "fast_food",
      "cuisine": "sandwich",
      "takeaway": "yes",
      "addr_state": "OH",
      "addr_city": "Parma",
      "addr_postcode": "44129",
      "addr_street": "Day Drive",
      "addr_housenumber": "7647",
      "value": 208.2735045024788
    },
    {
      "id": 88651,
      "geometry": "POINT (-81.597245 41.399754)",
      "poi_name": "McDonald's",
      "osm_id": 8789977409,
      "amenity": "fast_food",
      "cuisine": "burger",
      "website": "https://www.mcdonalds.com/us/en-us/location/oh/garfield-heights/12690-rockside-rd/33898.html",
      "takeaway": "yes",
      "addr_state": "OH",
      "addr_city": "Garfield Heights",
      "addr_postcode": "44125",
      "addr_street": "Rockside Road",
      "addr_housenumber": "12690",
      "value": 208.2735045024788
    },
    {
      "id": 88669,
      "geometry": "POINT (-81.684016 41.357067)",
      "poi_name": "Burger King",
      "osm_id": 8791842899,
      "amenity": "fast_food",
      "cuisine": "burger",
      "takeaway": "yes",
      "addr_state": "OH",
      "addr_city": "Seven Hills",
      "addr_postcode": "44131",
      "addr_street": "Broadview Road",
      "addr_housenumber": "7677",
      "value": 208.2735045024788
    },
    {
      "id": 88781,
      "geometry": "POINT (-81.525877 41.430211)",
      "poi_name": "Taco Bell",
      "osm_id": 8795542256,
      "amenity": "fast_food",
      "cuisine": "tex-mex",
      "website": "https://locations.tacobell.com/oh/north-randall/4660-northfield-rd.html",
      "takeaway": "yes",
      "addr_state": "OH",
      "addr_city": "North Randall",
      "addr_postcode": "44128",
      "addr_street": "Northfield Road",
      "addr_housenumber": "4660",
      "value": 208.2735045024788
    },
    {
      "id": 88791,
      "geometry": "POINT (-81.524951 41.430686)",
      "poi_name": "Popeyes",
      "osm_id": 8795926542,
      "amenity": "fast_food",
      "cuisine": "chicken",
      "takeaway": "yes",
      "official_name": "Popeyes Louisiana Kitchen",
      "addr_state": "OH",
      "addr_city": "North Randall",
      "addr_postcode": "44128",
      "addr_street": "Northfield Road",
      "addr_housenumber": "4645",
      "value": 208.2735045024788
    },
    {
      "id": 88793,
      "geometry": "POINT (-81.525422 41.432216)",
      "poi_name": "Burger King",
      "osm_id": 8795952821,
      "amenity": "fast_food",
      "cuisine": "burger",
      "takeaway": "yes",
      "addr_state": "OH",
      "addr_city": "North Randall",
      "addr_postcode": "44128",
      "addr_street": "Northfield Road",
      "addr_housenumber": "4625",
      "value": 208.2735045024788
    },
    {
      "id": 88850,
      "geometry": "POINT (-81.553213 41.516288)",
      "poi_name": "Subway",
      "osm_id": 8804566593,
      "amenity": "fast_food",
      "cuisine": "sandwich",
      "takeaway": "yes",
      "addr_state": "OH",
      "addr_city": "Cleveland Heights",
      "addr_postcode": "44118",
      "addr_street": "Mayfield Road",
      "addr_housenumber": "3610",
      "value": 208.2735045024788
    },
    {
      "id": 88855,
      "geometry": "POINT (-81.53705 41.508475)",
      "poi_name": "Popeyes",
      "osm_id": 8804858326,
      "amenity": "fast_food",
      "cuisine": "chicken",
      "takeaway": "yes",
      "official_name": "Popeyes Louisiana Kitchen",
      "addr_state": "OH",
      "addr_city": "South Euclid",
      "addr_postcode": "44121",
      "addr_street": "Warrensville Center Road",
      "addr_housenumber": "1878",
      "value": 208.2735045024788
    },
    {
      "id": 89848,
      "geometry": "POINT (-81.380586 41.651562)",
      "poi_name": "Melt",
      "osm_id": 8866621532,
      "amenity": "fast_food",
      "cuisine": "sandwich",
      "addr_state": "OH",
      "addr_city": "Mentor",
      "addr_postcode": "44060",
      "addr_street": "Mentor Avenue",
      "addr_housenumber": "7289",
      "value": 208.2735045024788
    },
    {
      "id": 88925,
      "geometry": "POINT (-81.791233 41.377335)",
      "poi_name": "Krispy Kreme",
      "osm_id": 8809276392,
      "amenity": "fast_food",
      "cuisine": "donut",
      "takeaway": "yes",
      "addr_state": "OH",
      "addr_city": "Middleburg Heights",
      "addr_postcode": "44130",
      "addr_street": "Pearl Road",
      "addr_housenumber": "6907",
      "value": 208.2735045024788
    },
    {
      "id": 89103,
      "geometry": "POINT (-81.582194 41.530741)",
      "poi_name": "Rally's",
      "osm_id": 8825635932,
      "amenity": "fast_food",
      "cuisine": "burger",
      "takeaway": "yes",
      "addr_state": "OH",
      "addr_city": "East Cleveland",
      "addr_postcode": "44112",
      "addr_street": "Euclid Avenue",
      "addr_housenumber": "14421",
      "value": 208.2735045024788
    },
    {
      "id": 89251,
      "geometry": "POINT (-81.492843 40.976545)",
      "poi_name": "East of Chicago Pizza",
      "osm_id": 8833837939,
      "amenity": "fast_food",
      "cuisine": "pizza",
      "phone": "+13308962699",
      "takeaway": "yes",
      "drive_through": "no",
      "addr_state": "OH",
      "addr_city": "Akron",
      "addr_postcode": "44312",
      "addr_street": "South Arlington Road",
      "addr_housenumber": "3465",
      "value": 208.2735045024788
    },
    {
      "id": 89252,
      "geometry": "POINT (-81.492674 40.977834)",
      "poi_name": "Subway",
      "osm_id": 8833837953,
      "amenity": "fast_food",
      "cuisine": "sandwich",
      "phone": "+13306444762",
      "takeaway": "yes",
      "addr_state": "OH",
      "addr_city": "Akron",
      "addr_postcode": "44312",
      "addr_street": "South Arlington Road",
      "addr_housenumber": "3421",
      "value": 208.2735045024788
    },
    {
      "id": 88959,
      "geometry": "POINT (-81.506422 41.465782)",
      "poi_name": "Marco's Pizza",
      "osm_id": 8812012895,
      "amenity": "fast_food",
      "cuisine": "pizza",
      "takeaway": "yes",
      "addr_state": "OH",
      "addr_city": "Beachwood",
      "addr_postcode": "44122",
      "addr_street": "Chagrin Boulevard",
      "addr_housenumber": "24335",
      "value": 208.2735045024788
    },
    {
      "id": 88960,
      "geometry": "POINT (-81.507705 41.46594)",
      "poi_name": "Subway",
      "osm_id": 8812018335,
      "amenity": "fast_food",
      "cuisine": "sandwich",
      "takeaway": "yes",
      "addr_state": "OH",
      "addr_city": "Beachwood",
      "addr_postcode": "44122",
      "addr_street": "Chagrin Boulevard",
      "addr_housenumber": "24175",
      "value": 208.2735045024788
    },
    {
      "id": 89010,
      "geometry": "POINT (-81.537928 41.414774)",
      "poi_name": "Wendy's",
      "osm_id": 8814947751,
      "amenity": "fast_food",
      "cuisine": "burger",
      "takeaway": "yes",
      "addr_state": "OH",
      "addr_city": "Maple Heights",
      "addr_postcode": "44137",
      "addr_street": "Warrensville Center Road",
      "addr_housenumber": "5360",
      "value": 208.2735045024788
    },
    {
      "id": 89779,
      "geometry": "POINT (-81.428877 41.6278)",
      "poi_name": "Penn Station",
      "osm_id": 8861298734,
      "amenity": "fast_food",
      "cuisine": "sandwich",
      "opening_hours": "Su 11:30-20:00; Mo-Sa 10:30-22:00",
      "website": "https://www.penn-station.com/",
      "phone": "+1 440 510 8766",
      "takeaway": "yes",
      "addr_state": "OH",
      "addr_city": "Willoughby",
      "addr_postcode": "44094",
      "addr_street": "Euclid Avenue",
      "addr_housenumber": "36245",
      "value": 208.2735045024788
    },
    {
      "id": 89780,
      "geometry": "POINT (-81.428661 41.627862)",
      "poi_name": "Jersey Mike's Subs",
      "osm_id": 8861298735,
      "amenity": "fast_food",
      "cuisine": "sandwich",
      "opening_hours": "Su-Sa 10:00-21:00",
      "website": "https://www.jerseymikes.com/2025/willoughby-oh",
      "phone": "+1 440 951 7827",
      "takeaway": "yes",
      "addr_state": "OH",
      "addr_city": "Willoughby",
      "addr_postcode": "44094",
      "addr_street": "Euclid Avenue",
      "addr_housenumber": "36295",
      "value": 208.2735045024788
    },
    {
      "id": 89781,
      "geometry": "POINT (-81.430347 41.627369)",
      "poi_name": "Firehouse Subs",
      "osm_id": 8861298740,
      "amenity": "fast_food",
      "cuisine": "sandwich",
      "takeaway": "yes",
      "addr_state": "OH",
      "addr_city": "Willoughby",
      "addr_postcode": "44094",
      "addr_street": "Euclid Avenue",
      "addr_housenumber": "36161",
      "value": 208.2735045024788
    },
    {
      "id": 90019,
      "geometry": "POINT (-81.589612 41.523825)",
      "poi_name": "Papa John's",
      "osm_id": 8875835018,
      "amenity": "fast_food",
      "cuisine": "pizza",
      "takeaway": "yes",
      "addr_state": "OH",
      "addr_city": "East Cleveland",
      "addr_postcode": "44112",
      "addr_street": "Euclid Avenue",
      "addr_housenumber": "13515",
      "value": 208.2735045024788
    },
    {
      "id": 91668,
      "geometry": "POINT (-81.63968 41.025548)",
      "poi_name": "Wendy's",
      "osm_id": 2082205169,
      "amenity": "fast_food",
      "cuisine": "burger",
      "takeaway": "yes",
      "drive_through": "yes",
      "addr_state": "OH",
      "addr_city": "Norton",
      "addr_postcode": "44203",
      "addr_street": "Greenwich Road",
      "addr_housenumber": "3175",
      "value": 208.2735045024788
    },
    {
      "id": 91669,
      "geometry": "POINT (-81.63964 41.026274)",
      "poi_name": "McDonald's",
      "osm_id": 2082205173,
      "amenity": "fast_food",
      "cuisine": "burger",
      "website": "https://www.mcdonalds.com/us/en-us/location/oh/norton/3177-greenwich-rd/7250.html",
      "takeaway": "yes",
      "drive_through": "yes",
      "addr_state": "OH",
      "addr_city": "Norton",
      "addr_postcode": "44203",
      "addr_street": "Greenwich Road",
      "addr_housenumber": "3177",
      "value": 208.2735045024788
    },
    {
      "id": 91671,
      "geometry": "POINT (-81.640287 41.026206)",
      "poi_name": "Arby's",
      "osm_id": 2082205180,
      "amenity": "fast_food",
      "cuisine": "sandwich",
      "takeaway": "yes",
      "addr_state": "OH",
      "addr_city": "Norton",
      "addr_postcode": "44203",
      "addr_street": "Greenwich Road",
      "addr_housenumber": "3193",
      "value": 208.2735045024788
    },
    {
      "id": 92266,
      "geometry": "POINT (-81.527032 41.434609)",
      "poi_name": "Wendy's",
      "osm_id": 2109051509,
      "amenity": "fast_food",
      "cuisine": "burger",
      "takeaway": "yes",
      "drive_through": "yes",
      "addr_state": "OH",
      "addr_city": "North Randall",
      "addr_postcode": "44128",
      "addr_street": "Northfield Road",
      "addr_housenumber": "4602",
      "value": 208.2735045024788
    },
    {
      "id": 92237,
      "geometry": "POINT (-81.827041 41.313001)",
      "poi_name": "Robek's",
      "osm_id": 2107734031,
      "amenity": "fast_food",
      "cuisine": "ice_cream",
      "addr_city": "Strongsville",
      "addr_postcode": "44136",
      "addr_street": "Royalton Road",
      "addr_housenumber": "18025",
      "value": 208.2735045024788
    },
    {
      "id": 92387,
      "geometry": "POINT (-81.690349 41.460075)",
      "poi_name": "Chipotle",
      "osm_id": 2118729535,
      "amenity": "fast_food",
      "cuisine": "mexican",
      "takeaway": "yes",
      "official_name": "Chipotle Mexican Grill",
      "addr_state": "OH",
      "addr_city": "Cleveland",
      "addr_postcode": "44109",
      "addr_street": "Steelyard Drive",
      "addr_housenumber": "3471",
      "value": 208.2735045024788
    },
    {
      "id": 92388,
      "geometry": "POINT (-81.687144 41.464491)",
      "poi_name": "Five Guys",
      "osm_id": 2118729537,
      "amenity": "fast_food",
      "cuisine": "burger",
      "takeaway": "yes",
      "official_name": "Five Guys Burgers and Fries",
      "addr_state": "OH",
      "addr_city": "Cleveland",
      "addr_postcode": "44109",
      "addr_street": "Steelyard Drive",
      "addr_housenumber": "3273",
      "value": 208.2735045024788
    },
    {
      "id": 92389,
      "geometry": "POINT (-81.690442 41.460086)",
      "poi_name": "Guthrie's",
      "osm_id": 2118729538,
      "amenity": "fast_food",
      "cuisine": "chicken",
      "takeaway": "yes",
      "addr_state": "OH",
      "addr_city": "Cleveland",
      "addr_postcode": "44109",
      "addr_street": "Steelyard Drive",
      "addr_housenumber": "3465",
      "value": 208.2735045024788
    },
    {
      "id": 92390,
      "geometry": "POINT (-81.686985 41.464706)",
      "poi_name": "Penn Station",
      "osm_id": 2118729544,
      "amenity": "fast_food",
      "cuisine": "sandwich",
      "takeaway": "yes",
      "addr_state": "OH",
      "addr_city": "Cleveland",
      "addr_postcode": "44109",
      "addr_street": "Steelyard Drive",
      "addr_housenumber": "3257",
      "value": 208.2735045024788
    },
    {
      "id": 93184,
      "geometry": "POINT (-81.605132 41.508482)",
      "poi_name": "Capo's Steaks",
      "osm_id": 2153951773,
      "amenity": "fast_food",
      "cuisine": "sandwich",
      "takeaway": "yes",
      "drive_through": "no",
      "outdoor_seating": "yes",
      "addr_state": "OH",
      "addr_city": "Cleveland",
      "addr_street": "Euclid Avenue",
      "addr_housenumber": "11332",
      "value": 208.2735045024788
    },
    {
      "id": 94971,
      "geometry": "POINT (-81.549388 41.132553)",
      "poi_name": "Gionino's Pizzeria",
      "osm_id": 6382305314,
      "amenity": "fast_food",
      "cuisine": "pizza",
      "website": "https://www.gioninos.com/locations/oh-akron-1376-n-portage-path-44313",
      "phone": "+1-330-867-3337",
      "takeaway": "yes",
      "addr_state": "OH",
      "addr_city": "Akron",
      "addr_postcode": "44313",
      "addr_street": "North Portage Path",
      "addr_housenumber": "1376",
      "value": 208.2735045024788
    },
    {
      "id": 96181,
      "geometry": "POINT (-81.496867 41.446959)",
      "poi_name": "Five Guys",
      "osm_id": 6422141137,
      "amenity": "fast_food",
      "cuisine": "burger",
      "takeaway": "yes",
      "official_name": "Five Guys Burgers and Fries",
      "addr_state": "OH",
      "addr_city": "Warrensville Heights",
      "addr_postcode": "44122",
      "addr_street": "Richmond Road",
      "addr_housenumber": "4025",
      "value": 208.2735045024788
    },
    {
      "id": 96182,
      "geometry": "POINT (-81.49687 41.447282)",
      "poi_name": "Robeks",
      "osm_id": 6422141142,
      "amenity": "fast_food",
      "cuisine": "juice",
      "takeaway": "yes",
      "addr_state": "OH",
      "addr_city": "Warrensville Heights",
      "addr_postcode": "44122",
      "addr_street": "Richmond Road",
      "addr_housenumber": "4025",
      "value": 208.2735045024788
    },
    {
      "id": 97924,
      "geometry": "POINT (-81.491607 41.520214)",
      "poi_name": "Mr. Hero",
      "osm_id": 6501146900,
      "amenity": "fast_food",
      "cuisine": "sandwich",
      "outdoor_seating": "no",
      "addr_state": "OH",
      "addr_city": "Lyndhurst",
      "addr_street": "Mayfield Road",
      "addr_housenumber": "5217",
      "value": 208.2735045024788
    },
    {
      "id": 97572,
      "geometry": "POINT (-81.723782 41.440627)",
      "poi_name": "Pizza Joe's",
      "osm_id": 6484091523,
      "amenity": "fast_food",
      "cuisine": "pizza",
      "delivery": "yes",
      "addr_state": "OH",
      "addr_city": "Cleveland",
      "addr_postcode": "44109",
      "addr_street": "Fulton Road",
      "addr_housenumber": "4260",
      "value": 208.2735045024788
    },
    {
      "id": 106124,
      "geometry": "POINT (-81.367458 41.659631)",
      "poi_name": "Tommy's Old Fashioned Subs",
      "osm_id": 8665711353,
      "amenity": "fast_food",
      "cuisine": "sandwich",
      "addr_state": "OH",
      "addr_city": "Mentor",
      "addr_postcode": "44060",
      "addr_street": "Mentor Avenue",
      "addr_housenumber": "7671",
      "value": 208.2735045024788
    },
    {
      "id": 105988,
      "geometry": "POINT (-81.529281 41.416132)",
      "poi_name": "Mr. Hero",
      "osm_id": 8657279015,
      "amenity": "fast_food",
      "cuisine": "sandwich",
      "addr_state": "OH",
      "addr_city": "Maple Heights",
      "addr_postcode": "44137",
      "addr_street": "Libby Road",
      "addr_housenumber": "21680",
      "value": 208.2735045024788
    },
    {
      "id": 105295,
      "geometry": "POINT (-81.73498 41.425427)",
      "poi_name": "Pulp",
      "osm_id": 8616150115,
      "amenity": "fast_food",
      "cuisine": "juice",
      "addr_state": "OH",
      "addr_city": "Brooklyn",
      "addr_street": "Ridge Road",
      "addr_housenumber": "4746",
      "value": 208.2735045024788
    },
    {
      "id": 106127,
      "geometry": "POINT (-81.367924 41.658093)",
      "poi_name": "Subway",
      "osm_id": 8665779509,
      "amenity": "fast_food",
      "cuisine": "sandwich",
      "takeaway": "yes",
      "addr_state": "OH",
      "addr_city": "Mentor",
      "addr_postcode": "44060",
      "addr_street": "Mentor Avenue",
      "addr_housenumber": "7652",
      "value": 208.2735045024788
    },
    {
      "id": 106125,
      "geometry": "POINT (-81.367764 41.659465)",
      "poi_name": "Empower Nutrition",
      "osm_id": 8665711358,
      "amenity": "fast_food",
      "cuisine": "juice",
      "addr_state": "OH",
      "addr_city": "Mentor",
      "addr_postcode": "44060",
      "addr_street": "Mentor Avenue",
      "addr_housenumber": "7659",
      "value": 208.2735045024788
    },
    {
      "id": 106479,
      "geometry": "POINT (-81.464876 40.947924)",
      "poi_name": "Subway",
      "osm_id": 8681475722,
      "amenity": "fast_food",
      "cuisine": "sandwich",
      "website": "https://restaurants.subway.com/united-states/oh/uniontown/4195-massillon-rd",
      "phone": "+1-330-899-9936",
      "takeaway": "yes",
      "addr_state": "OH",
      "addr_city": "Uniontown",
      "addr_postcode": "44685",
      "addr_street": "Massillon Road",
      "addr_housenumber": "4195",
      "value": 208.2735045024788
    },
    {
      "id": 106500,
      "geometry": "POINT (-81.466127 40.949514)",
      "poi_name": "Dairy Queen",
      "osm_id": 8684440456,
      "amenity": "fast_food",
      "cuisine": "ice_cream;burger",
      "website": "https://www.dairyqueen.com/en-us/locations/oh/uniontown/1840-town-park-blvd-ste-r/14326/",
      "phone": "+1-330-896-9817",
      "takeaway": "yes",
      "drive_through": "yes",
      "addr_state": "OH",
      "addr_city": "Uniontown",
      "addr_postcode": "44685",
      "addr_street": "Town Park Boulevard",
      "addr_housenumber": "1840",
      "value": 208.2735045024788
    },
    {
      "id": 108962,
      "geometry": "POINT (-81.556288 41.500856)",
      "poi_name": "Irv's Sandwich Shop",
      "osm_id": 3643063135,
      "amenity": "fast_food",
      "cuisine": "sandwich",
      "phone": "+1-216-321-6812",
      "drive_through": "no",
      "addr_state": "OH",
      "addr_city": "Cleveland Heights",
      "addr_postcode": "44118",
      "addr_street": "South Taylor Road",
      "addr_housenumber": "2164",
      "value": 208.2735045024788
    },
    {
      "id": 108889,
      "geometry": "POINT (-81.565515 41.498592)",
      "poi_name": "Subway",
      "osm_id": 3637861774,
      "amenity": "fast_food",
      "cuisine": "sandwich",
      "wheelchair": "no",
      "takeaway": "yes",
      "drive_through": "no",
      "addr_state": "OH",
      "addr_city": "Cleveland Heights",
      "addr_postcode": "44118",
      "addr_street": "Lee Road",
      "addr_housenumber": "2234",
      "value": 208.2735045024788
    },
    {
      "id": 110809,
      "geometry": "POINT (-81.637784 41.137027)",
      "poi_name": "Jimmy John's",
      "osm_id": 3718589941,
      "amenity": "fast_food",
      "cuisine": "sandwich",
      "takeaway": "yes",
      "drive_through": "no",
      "official_name": "Jimmy John's Gourmet Sandwiches",
      "delivery": "yes",
      "addr_state": "OH",
      "addr_city": "Akron",
      "addr_postcode": "44333",
      "addr_street": "Medina Road",
      "addr_housenumber": "3867",
      "value": 208.2735045024788
    },
    {
      "id": 111267,
      "geometry": "POINT (-81.539897 41.500997)",
      "poi_name": "Chicken Ranch",
      "osm_id": 3739573264,
      "amenity": "fast_food",
      "cuisine": "chicken",
      "addr_state": "OH",
      "addr_city": "University Heights",
      "addr_postcode": "44118",
      "addr_street": "Cedar Road",
      "addr_housenumber": "13892",
      "value": 208.2735045024788
    },
    {
      "id": 112795,
      "geometry": "POINT (-81.540398 41.500987)",
      "poi_name": "Dunkin'",
      "osm_id": 3805625765,
      "amenity": "fast_food",
      "cuisine": "donut;coffee_shop",
      "takeaway": "yes",
      "addr_state": "OH",
      "addr_city": "University Heights",
      "addr_postcode": "44118",
      "addr_street": "Cedar Road",
      "addr_housenumber": "13880",
      "value": 208.2735045024788
    },
    {
      "id": 112578,
      "geometry": "POINT (-81.539185 41.502404)",
      "poi_name": "Little Caesars",
      "osm_id": 3796979062,
      "amenity": "fast_food",
      "cuisine": "pizza",
      "website": "https://littlecaesars.com/en-us/store/10260/",
      "phone": "+1-216-371-3464",
      "takeaway": "only",
      "delivery": "yes",
      "addr_state": "OH",
      "addr_city": "South Euclid",
      "addr_postcode": "44118",
      "addr_street": "Cedar Road",
      "addr_housenumber": "13917",
      "value": 208.2735045024788
    },
    {
      "id": 112584,
      "geometry": "POINT (-81.537626 41.502424)",
      "poi_name": "Zoup!",
      "osm_id": 3797008968,
      "amenity": "fast_food",
      "cuisine": "soup;sandwich",
      "website": "https://zoup.com/",
      "phone": "+1-216-430-0880",
      "takeaway": "yes",
      "addr_state": "OH",
      "addr_city": "South Euclid",
      "addr_postcode": "44118",
      "addr_street": "Cedar Road",
      "addr_housenumber": "13955",
      "value": 208.2735045024788
    },
    {
      "id": 112585,
      "geometry": "POINT (-81.537292 41.501705)",
      "poi_name": "Wingstop",
      "osm_id": 3797067766,
      "amenity": "fast_food",
      "cuisine": "wings",
      "takeaway": "yes",
      "addr_state": "OH",
      "addr_city": "South Euclid",
      "addr_postcode": "44118",
      "addr_street": "Cedar Road",
      "addr_housenumber": "13963",
      "value": 208.2735045024788
    },
    {
      "id": 115283,
      "geometry": "POINT (-81.75899 41.418912)",
      "poi_name": "McDonald's",
      "osm_id": 8888030205,
      "amenity": "fast_food",
      "cuisine": "burger",
      "website": "https://www.mcdonalds.com/us/en-us/location/oh/brooklyn/10700-brookpark-rd/3517.html",
      "takeaway": "yes",
      "addr_state": "OH",
      "addr_city": "Brooklyn",
      "addr_postcode": "44144",
      "addr_street": "Brookpark Road",
      "addr_housenumber": "10700",
      "value": 208.2735045024788
    },
    {
      "id": 115285,
      "geometry": "POINT (-81.75899 41.419678)",
      "poi_name": "Raising Cane's",
      "osm_id": 8888048170,
      "amenity": "fast_food",
      "cuisine": "chicken",
      "takeaway": "yes",
      "official_name": "Raising Cane's Chicken Fingers",
      "addr_state": "OH",
      "addr_city": "Brooklyn",
      "addr_postcode": "44144",
      "addr_street": "Tiedeman Road",
      "addr_housenumber": "5180",
      "value": 208.2735045024788
    },
    {
      "id": 115301,
      "geometry": "POINT (-81.735504 41.424468)",
      "poi_name": "Penn Station",
      "osm_id": 8888542060,
      "amenity": "fast_food",
      "cuisine": "sandwich",
      "takeaway": "yes",
      "addr_state": "OH",
      "addr_city": "Brooklyn",
      "addr_postcode": "44144",
      "addr_street": "Ridge Road",
      "addr_housenumber": "4804",
      "value": 208.2735045024788
    },
    {
      "id": 115353,
      "geometry": "POINT (-81.734895 41.426346)",
      "poi_name": "McDonald's",
      "osm_id": 8890480542,
      "amenity": "fast_food",
      "cuisine": "burger",
      "website": "https://www.mcdonalds.com/us/en-us/location/oh/brooklyn/4738-ridge-rd/10427.html",
      "takeaway": "yes",
      "addr_state": "OH",
      "addr_city": "Brooklyn",
      "addr_postcode": "44144",
      "addr_street": "Ridge Road",
      "addr_housenumber": "4738",
      "value": 208.2735045024788
    },
    {
      "id": 115286,
      "geometry": "POINT (-81.759767 41.418941)",
      "poi_name": "Long John Silver's",
      "osm_id": 8888222491,
      "amenity": "fast_food",
      "cuisine": "seafood",
      "takeaway": "yes",
      "addr_state": "OH",
      "addr_city": "Brooklyn",
      "addr_postcode": "44144",
      "addr_street": "Brookpark Road",
      "addr_housenumber": "10780",
      "value": 208.2735045024788
    },
    {
      "id": 115354,
      "geometry": "POINT (-81.734968 41.425812)",
      "poi_name": "Dunkin'",
      "osm_id": 8890480575,
      "amenity": "fast_food",
      "cuisine": "donut;coffee_shop",
      "takeaway": "yes",
      "addr_state": "OH",
      "addr_city": "Brooklyn",
      "addr_postcode": "44144",
      "addr_street": "Ridge Road",
      "addr_housenumber": "4740",
      "value": 208.2735045024788
    },
    {
      "id": 115396,
      "geometry": "POINT (-81.759359 41.423117)",
      "poi_name": "Chipotle",
      "osm_id": 8892804284,
      "amenity": "fast_food",
      "cuisine": "mexican",
      "takeaway": "yes",
      "official_name": "Chipotle Mexican Grill",
      "addr_state": "OH",
      "addr_city": "Brooklyn",
      "addr_postcode": "44144",
      "addr_street": "Cascade Crossing",
      "addr_housenumber": "10325",
      "value": 208.2735045024788
    },
    {
      "id": 115398,
      "geometry": "POINT (-81.760825 41.423121)",
      "poi_name": "Panera Bread",
      "osm_id": 8892918424,
      "amenity": "fast_food",
      "cuisine": "sandwich;bakery",
      "takeaway": "yes",
      "addr_state": "OH",
      "addr_city": "Brooklyn",
      "addr_postcode": "44144",
      "addr_street": "Tiedeman Road",
      "addr_housenumber": "5090",
      "value": 208.2735045024788
    },
    {
      "id": 116166,
      "geometry": "POINT (-81.795767 41.405364)",
      "poi_name": "Arby's",
      "osm_id": 8930909357,
      "amenity": "fast_food",
      "cuisine": "sandwich",
      "takeaway": "yes",
      "addr_state": "OH",
      "addr_city": "Brook Park",
      "addr_postcode": "44142",
      "addr_street": "Snow Road",
      "addr_housenumber": "14500",
      "value": 208.2735045024788
    },
    {
      "id": 115623,
      "geometry": "POINT (-81.733157 41.414739)",
      "poi_name": "KFC",
      "osm_id": 8905694538,
      "amenity": "fast_food",
      "cuisine": "chicken",
      "website": "https://locations.kfc.com/oh/parma/5380-pearl-road",
      "takeaway": "yes",
      "addr_state": "OH",
      "addr_city": "Parma",
      "addr_postcode": "44129",
      "addr_street": "Pearl Road",
      "addr_housenumber": "5380",
      "value": 208.2735045024788
    },
    {
      "id": 115816,
      "geometry": "POINT (-81.520131 41.519874)",
      "poi_name": "Fawaky Burst",
      "osm_id": 8914260018,
      "amenity": "fast_food",
      "cuisine": "juice",
      "addr_state": "OH",
      "addr_city": "South Euclid",
      "addr_postcode": "44121",
      "addr_street": "Mayfield Road",
      "addr_housenumber": "4442",
      "value": 208.2735045024788
    },
    {
      "id": 115820,
      "geometry": "POINT (-81.518032 41.519447)",
      "poi_name": "McDonald's",
      "osm_id": 8914307655,
      "amenity": "fast_food",
      "cuisine": "burger",
      "website": "https://www.mcdonalds.com/us/en-us/location/oh/south-euclid/4500-mayfield-rd/504.html",
      "takeaway": "yes",
      "addr_state": "OH",
      "addr_city": "South Euclid",
      "addr_postcode": "44121",
      "addr_street": "Mayfield Road",
      "addr_housenumber": "4500",
      "value": 208.2735045024788
    },
    {
      "id": 115823,
      "geometry": "POINT (-81.516473 41.520078)",
      "poi_name": "Taco Bell",
      "osm_id": 8914398364,
      "amenity": "fast_food",
      "cuisine": "tex-mex",
      "website": "https://locations.tacobell.com/oh/cleveland/4537-mayfield-road.html",
      "takeaway": "yes",
      "addr_state": "OH",
      "addr_city": "South Euclid",
      "addr_postcode": "44121",
      "addr_street": "Mayfield Road",
      "addr_housenumber": "4537",
      "value": 208.2735045024788
    },
    {
      "id": 115825,
      "geometry": "POINT (-81.518344 41.521036)",
      "poi_name": "Subway",
      "osm_id": 8914398536,
      "amenity": "fast_food",
      "cuisine": "sandwich",
      "takeaway": "yes",
      "addr_state": "OH",
      "addr_city": "South Euclid",
      "addr_postcode": "44121",
      "addr_street": "Mayfield Road",
      "addr_housenumber": "4501",
      "value": 208.2735045024788
    },
    {
      "id": 116000,
      "geometry": "POINT (-81.493744 41.593825)",
      "poi_name": "Five Star Subs",
      "osm_id": 8923112689,
      "amenity": "fast_food",
      "cuisine": "sandwich",
      "addr_state": "OH",
      "addr_city": "Euclid",
      "addr_postcode": "44132",
      "addr_street": "Euclid Avenue",
      "addr_housenumber": "27575",
      "value": 208.2735045024788
    },
    {
      "id": 115596,
      "geometry": "POINT (-81.734852 41.415155)",
      "poi_name": "Dairy Queen",
      "osm_id": 8904884400,
      "amenity": "fast_food",
      "cuisine": "ice_cream;burger",
      "takeaway": "yes",
      "addr_state": "OH",
      "addr_city": "Parma",
      "addr_postcode": "44129",
      "addr_street": "Ridge Road",
      "addr_housenumber": "5342",
      "value": 208.2735045024788
    },
    {
      "id": 115874,
      "geometry": "POINT (-81.501125 41.587917)",
      "poi_name": "Arby's",
      "osm_id": 8917517045,
      "amenity": "fast_food",
      "cuisine": "sandwich",
      "opening_hours": "Su-Sa 10:00-25:00",
      "website": "https://locations.arbys.com/oh/euclid/26000-euclid-ave.html",
      "phone": "+1 216 731 5394",
      "takeaway": "yes",
      "drive_through": "yes",
      "addr_state": "OH",
      "addr_city": "Euclid",
      "addr_postcode": "44132",
      "addr_street": "Euclid Avenue",
      "addr_housenumber": "26000",
      "value": 208.2735045024788
    },
    {
      "id": 115875,
      "geometry": "POINT (-81.500784 41.588173)",
      "poi_name": "Taco Bell",
      "osm_id": 8917517058,
      "amenity": "fast_food",
      "cuisine": "tex-mex",
      "website": "https://locations.tacobell.com/oh/euclid/26002-euclid-ave.html",
      "takeaway": "yes",
      "addr_state": "OH",
      "addr_city": "Euclid",
      "addr_postcode": "44132",
      "addr_street": "Euclid Avenue",
      "addr_housenumber": "26002",
      "value": 208.2735045024788
    },
    {
      "id": 115877,
      "geometry": "POINT (-81.499642 41.588824)",
      "poi_name": "Popeyes",
      "osm_id": 8917519218,
      "amenity": "fast_food",
      "cuisine": "chicken",
      "opening_hours": "Su-Sa 10:30-23:00",
      "website": "https://www.popeyes.com/store-locator/store/restaurant_82861",
      "phone": "+1 216 797 0770",
      "takeaway": "yes",
      "official_name": "Popeyes Louisiana Kitchen",
      "addr_state": "OH",
      "addr_city": "Euclid",
      "addr_postcode": "44132",
      "addr_street": "Euclid Avenue",
      "addr_housenumber": "26030",
      "value": 208.2735045024788
    },
    {
      "id": 116168,
      "geometry": "POINT (-81.802244 41.404386)",
      "poi_name": "Mr. Hero",
      "osm_id": 8930911092,
      "amenity": "fast_food",
      "cuisine": "sandwich",
      "addr_state": "OH",
      "addr_city": "Brook Park",
      "addr_postcode": "44142",
      "addr_street": "Smith Road",
      "addr_housenumber": "5875",
      "value": 208.2735045024788
    },
    {
      "id": 116174,
      "geometry": "POINT (-81.797138 41.404083)",
      "poi_name": "Burger King",
      "osm_id": 8931064083,
      "amenity": "fast_food",
      "cuisine": "burger",
      "takeaway": "yes",
      "addr_state": "OH",
      "addr_city": "Brook Park",
      "addr_postcode": "44142",
      "addr_street": "Snow Road",
      "addr_housenumber": "14601",
      "value": 208.2735045024788
    },
    {
      "id": 116255,
      "geometry": "POINT (-81.805529 41.238732)",
      "poi_name": "Wendy's",
      "osm_id": 8934133902,
      "amenity": "fast_food",
      "cuisine": "burger",
      "takeaway": "yes",
      "addr_state": "OH",
      "addr_city": "Brunswick",
      "addr_postcode": "44212",
      "addr_street": "Center Road",
      "addr_housenumber": "3309",
      "value": 208.2735045024788
    },
    {
      "id": 116257,
      "geometry": "POINT (-81.80284 41.239699)",
      "poi_name": "McDonald's",
      "osm_id": 8934140226,
      "amenity": "fast_food",
      "cuisine": "burger",
      "website": "https://www.mcdonalds.com/us/en-us/location/oh/brunswick/3115-center-rd/10859.html",
      "takeaway": "yes",
      "addr_state": "OH",
      "addr_city": "Brunswick",
      "addr_postcode": "44212",
      "addr_street": "Center Road",
      "addr_housenumber": "3115",
      "value": 208.2735045024788
    },
    {
      "id": 116266,
      "geometry": "POINT (-81.807615 41.239912)",
      "poi_name": "Subway",
      "osm_id": 8934324189,
      "amenity": "fast_food",
      "cuisine": "sandwich",
      "takeaway": "yes",
      "addr_state": "OH",
      "addr_city": "Brunswick",
      "addr_postcode": "44212",
      "addr_street": "North Carpenter Road",
      "addr_housenumber": "1319",
      "value": 208.2735045024788
    },
    {
      "id": 116267,
      "geometry": "POINT (-81.806003 41.237784)",
      "poi_name": "Steak 'n Shake",
      "osm_id": 8934343026,
      "amenity": "fast_food",
      "cuisine": "burger",
      "takeaway": "yes",
      "addr_state": "OH",
      "addr_city": "Brunswick",
      "addr_postcode": "44212",
      "addr_street": "Center Road",
      "addr_housenumber": "3316",
      "value": 208.2735045024788
    },
    {
      "id": 116268,
      "geometry": "POINT (-81.806838 41.2378)",
      "poi_name": "Chipotle",
      "osm_id": 8934343040,
      "amenity": "fast_food",
      "cuisine": "mexican",
      "takeaway": "yes",
      "official_name": "Chipotle Mexican Grill",
      "addr_state": "OH",
      "addr_city": "Brunswick",
      "addr_postcode": "44212",
      "addr_street": "Center Road",
      "addr_housenumber": "3362",
      "value": 208.2735045024788
    },
    {
      "id": 116269,
      "geometry": "POINT (-81.807186 41.237801)",
      "poi_name": "Jersey Mike's Subs",
      "osm_id": 8934343042,
      "amenity": "fast_food",
      "cuisine": "sandwich",
      "takeaway": "yes",
      "addr_state": "OH",
      "addr_city": "Brunswick",
      "addr_postcode": "44212",
      "addr_street": "Center Road",
      "addr_housenumber": "3362",
      "value": 208.2735045024788
    },
    {
      "id": 116271,
      "geometry": "POINT (-81.808551 41.237147)",
      "poi_name": "Pulp",
      "osm_id": 8934343104,
      "amenity": "fast_food",
      "cuisine": "juice",
      "addr_state": "OH",
      "addr_city": "Brunswick",
      "addr_postcode": "44212",
      "addr_street": "Town Center Boulevard",
      "addr_housenumber": "1418",
      "value": 208.2735045024788
    },
    {
      "id": 116283,
      "geometry": "POINT (-81.810282 41.237855)",
      "poi_name": "Chick-fil-A",
      "osm_id": 8934457959,
      "amenity": "fast_food",
      "cuisine": "chicken",
      "takeaway": "yes",
      "addr_state": "OH",
      "addr_city": "Brunswick",
      "addr_postcode": "44212",
      "addr_street": "Center Road",
      "addr_housenumber": "3470",
      "value": 208.2735045024788
    },
    {
      "id": 116175,
      "geometry": "POINT (-81.798062 41.404068)",
      "poi_name": "Taco Bell",
      "osm_id": 8931064104,
      "amenity": "fast_food",
      "cuisine": "tex-mex",
      "website": "https://locations.tacobell.com/oh/brook-park/14701-snow-rd-.html",
      "takeaway": "yes",
      "addr_state": "OH",
      "addr_city": "Brook Park",
      "addr_postcode": "44142",
      "addr_street": "Snow Road",
      "addr_housenumber": "14701",
      "value": 208.2735045024788
    },
    {
      "id": 116624,
      "geometry": "POINT (-81.462017 41.519595)",
      "poi_name": "Panera Bread",
      "osm_id": 8950322902,
      "amenity": "fast_food",
      "cuisine": "sandwich;bakery",
      "takeaway": "yes",
      "drive_through": "yes",
      "addr_state": "OH",
      "addr_city": "Mayfield Heights",
      "addr_postcode": "44124",
      "addr_street": "Mayfield Road",
      "addr_housenumber": "6036",
      "value": 208.2735045024788
    },
    {
      "id": 116562,
      "geometry": "POINT (-81.437728 41.526197)",
      "poi_name": "Honey Baked Ham",
      "osm_id": 8947064898,
      "amenity": "fast_food",
      "cuisine": "american",
      "takeaway": "yes",
      "official_name": "The Honey Baked Ham Company",
      "addr_state": "OH",
      "addr_city": "Mayfield Heights",
      "addr_postcode": "44124",
      "addr_street": "Som Center Road",
      "addr_housenumber": "1257",
      "value": 208.2735045024788
    },
    {
      "id": 117511,
      "geometry": "POINT (-81.464687 40.957864)",
      "poi_name": "Hot Head Burritos",
      "osm_id": 8999077914,
      "amenity": "fast_food",
      "cuisine": "mexican",
      "website": "https://hotheadburritos.com/green-oh",
      "phone": "+1-330-563-4201",
      "takeaway": "yes",
      "addr_state": "OH",
      "addr_city": "Uniontown",
      "addr_postcode": "44685",
      "addr_street": "Massillon Road",
      "addr_housenumber": "3875",
      "value": 208.2735045024788
    },
    {
      "id": 116750,
      "geometry": "POINT (-81.834863 41.316277)",
      "poi_name": "Hot Head Burritos",
      "osm_id": 8958333986,
      "amenity": "fast_food",
      "cuisine": "mexican",
      "takeaway": "yes",
      "addr_state": "OH",
      "addr_city": "Strongsville",
      "addr_postcode": "44136",
      "addr_street": "Pearl Road",
      "addr_housenumber": "13405",
      "value": 208.2735045024788
    },
    {
      "id": 116751,
      "geometry": "POINT (-81.834531 41.316874)",
      "poi_name": "Jersey Mike's Subs",
      "osm_id": 8958333987,
      "amenity": "fast_food",
      "cuisine": "sandwich",
      "takeaway": "yes",
      "addr_state": "OH",
      "addr_city": "Strongsville",
      "addr_postcode": "44136",
      "addr_street": "Pearl Road",
      "addr_housenumber": "13309",
      "value": 208.2735045024788
    },
    {
      "id": 117513,
      "geometry": "POINT (-81.464678 40.957992)",
      "poi_name": "Jimmy John's",
      "osm_id": 8999105217,
      "amenity": "fast_food",
      "cuisine": "sandwich",
      "website": "https://www.jimmyjohns.com/",
      "phone": "+1-330-899-9460",
      "takeaway": "yes",
      "drive_through": "no",
      "official_name": "Jimmy John's Gourmet Sandwiches",
      "addr_state": "OH",
      "addr_city": "Uniontown",
      "addr_postcode": "44685",
      "addr_street": "U",
      "addr_housenumber": "3875",
      "value": 208.2735045024788
    },
    {
      "id": 117514,
      "geometry": "POINT (-81.466336 40.953959)",
      "poi_name": "Beyond Juciery and Eatery",
      "osm_id": 8999105482,
      "amenity": "fast_food",
      "cuisine": "smoothie",
      "website": "https://beyondjuiceryeatery.com/",
      "phone": "+1-234-294-0912",
      "addr_state": "OH",
      "addr_city": "Uniontown",
      "addr_postcode": "44685",
      "addr_street": "Massillon Road",
      "addr_housenumber": "3944",
      "value": 208.2735045024788
    },
    {
      "id": 117516,
      "geometry": "POINT (-81.465103 40.953856)",
      "poi_name": "Nectar Smoothie Cafe",
      "osm_id": 8999105498,
      "amenity": "fast_food",
      "cuisine": "smoothie",
      "website": "http://nectarsmoothiecafe.com/",
      "phone": "+1-330-899-3077",
      "addr_state": "OH",
      "addr_city": "Uniontown",
      "addr_postcode": "44685",
      "addr_street": "Massillon Road",
      "addr_housenumber": "3939",
      "value": 208.2735045024788
    },
    {
      "id": 117517,
      "geometry": "POINT (-81.465104 40.953912)",
      "poi_name": "Hungry Howie's",
      "osm_id": 8999105499,
      "amenity": "fast_food",
      "cuisine": "pizza",
      "website": "https://www.hungryhowies.com/store/hungry-howies-00873",
      "phone": "+1-330-899-9993",
      "takeaway": "yes",
      "addr_state": "OH",
      "addr_city": "Uniontown",
      "addr_postcode": "44685",
      "addr_street": "Massillon Road",
      "addr_housenumber": "3939",
      "value": 208.2735045024788
    },
    {
      "id": 117603,
      "geometry": "POINT (-81.496872 41.44736)",
      "poi_name": "DiBella's Subs",
      "osm_id": 9002181941,
      "amenity": "fast_food",
      "cuisine": "sandwich",
      "addr_state": "OH",
      "addr_city": "Warrensville Heights",
      "addr_postcode": "44122",
      "addr_street": "Richmond Road",
      "addr_housenumber": "4025",
      "value": 208.2735045024788
    },
    {
      "id": 117604,
      "geometry": "POINT (-81.497007 41.448196)",
      "poi_name": "Chick-fil-A",
      "osm_id": 9002181964,
      "amenity": "fast_food",
      "cuisine": "chicken",
      "takeaway": "yes",
      "addr_state": "OH",
      "addr_city": "Warrensville Heights",
      "addr_postcode": "44122",
      "addr_street": "Richmond Road",
      "addr_housenumber": "4001",
      "value": 208.2735045024788
    },
    {
      "id": 117608,
      "geometry": "POINT (-81.497192 41.444827)",
      "poi_name": "Panera Bread",
      "osm_id": 9002182033,
      "amenity": "fast_food",
      "cuisine": "sandwich;bakery",
      "takeaway": "yes",
      "addr_state": "OH",
      "addr_city": "Warrensville Heights",
      "addr_postcode": "44122",
      "addr_street": "Richmond Road",
      "addr_housenumber": "4301",
      "value": 208.2735045024788
    },
    {
      "id": 117532,
      "geometry": "POINT (-81.385844 41.352699)",
      "poi_name": "McDonald's",
      "osm_id": 8999420192,
      "amenity": "fast_food",
      "cuisine": "burger",
      "website": "https://www.mcdonalds.com/us/en-us/location/oh/aurora/7195-aurora-rd/26316.html",
      "takeaway": "yes",
      "addr_state": "OH",
      "addr_city": "Aurora",
      "addr_postcode": "44202",
      "addr_street": "Aurora Road",
      "addr_housenumber": "7195",
      "value": 208.2735045024788
    },
    {
      "id": 117609,
      "geometry": "POINT (-81.495854 41.448179)",
      "poi_name": "Chipotle",
      "osm_id": 9002182042,
      "amenity": "fast_food",
      "cuisine": "mexican",
      "takeaway": "yes",
      "official_name": "Chipotle Mexican Grill",
      "addr_state": "OH",
      "addr_city": "Warrensville Heights",
      "addr_postcode": "44122",
      "addr_street": "Richmond Road",
      "addr_housenumber": "4015",
      "value": 208.2735045024788
    },
    {
      "id": 117533,
      "geometry": "POINT (-81.389557 41.356831)",
      "poi_name": "Chipotle",
      "osm_id": 8999471796,
      "amenity": "fast_food",
      "cuisine": "mexican",
      "takeaway": "yes",
      "official_name": "Chipotle Mexican Grill",
      "addr_state": "OH",
      "addr_city": "Aurora",
      "addr_postcode": "44202",
      "addr_street": "Aurora Road",
      "addr_housenumber": "7020",
      "value": 208.2735045024788
    },
    {
      "id": 117656,
      "geometry": "POINT (-81.688353 41.464376)",
      "poi_name": "Steak 'n Shake",
      "osm_id": 9005044163,
      "amenity": "fast_food",
      "cuisine": "burger",
      "takeaway": "yes",
      "addr_state": "OH",
      "addr_city": "Cleveland",
      "addr_postcode": "44109",
      "addr_street": "Steelyard Drive",
      "addr_housenumber": "3294",
      "value": 208.2735045024788
    },
    {
      "id": 117657,
      "geometry": "POINT (-81.688899 41.463855)",
      "poi_name": "Taco Bell",
      "osm_id": 9005044178,
      "amenity": "fast_food",
      "cuisine": "tex-mex",
      "website": "https://locations.tacobell.com/oh/cleveland/3314-steelyard-drive.html",
      "takeaway": "yes",
      "addr_state": "OH",
      "addr_city": "Cleveland",
      "addr_postcode": "44109",
      "addr_street": "Steelyard Drive",
      "addr_housenumber": "3314",
      "value": 208.2735045024788
    },
    {
      "id": 119626,
      "geometry": "POINT (-81.485685 41.116878)",
      "poi_name": "Steak 'n Shake",
      "osm_id": 9110884319,
      "amenity": "fast_food",
      "cuisine": "burger",
      "takeaway": "yes",
      "addr_state": "OH",
      "addr_city": "Akron",
      "addr_postcode": "44310",
      "addr_street": "Home Avenue",
      "addr_housenumber": "1684",
      "value": 208.2735045024788
    },
    {
      "id": 117658,
      "geometry": "POINT (-81.687439 41.463854)",
      "poi_name": "Burger King",
      "osm_id": 9005044187,
      "amenity": "fast_food",
      "cuisine": "burger",
      "takeaway": "yes",
      "addr_state": "OH",
      "addr_city": "Cleveland",
      "addr_postcode": "44109",
      "addr_street": "Steelyard Drive",
      "addr_housenumber": "3299",
      "value": 208.2735045024788
    },
    {
      "id": 117659,
      "geometry": "POINT (-81.687498 41.465522)",
      "poi_name": "Panda Express",
      "osm_id": 9005044261,
      "amenity": "fast_food",
      "cuisine": "chinese",
      "takeaway": "yes",
      "addr_state": "OH",
      "addr_city": "Cleveland",
      "addr_postcode": "44109",
      "addr_street": "Steelyard Drive",
      "addr_housenumber": "3244",
      "value": 208.2735045024788
    },
    {
      "id": 118805,
      "geometry": "POINT (-81.588733 41.009873)",
      "poi_name": "Jimmy John's",
      "osm_id": 9064853937,
      "amenity": "fast_food",
      "cuisine": "sandwich",
      "takeaway": "yes",
      "official_name": "Jimmy John's Gourmet Sandwiches",
      "addr_state": "OH",
      "addr_city": "Barberton",
      "addr_postcode": "44203",
      "addr_street": "Robinson Avenue",
      "addr_housenumber": "446",
      "value": 208.2735045024788
    },
    {
      "id": 118806,
      "geometry": "POINT (-81.588606 41.009867)",
      "poi_name": "Chipotle",
      "osm_id": 9064853940,
      "amenity": "fast_food",
      "cuisine": "mexican",
      "takeaway": "yes",
      "official_name": "Chipotle Mexican Grill",
      "addr_state": "OH",
      "addr_city": "Barberton",
      "addr_postcode": "44203",
      "addr_street": "Robinson Avenue",
      "addr_housenumber": "446",
      "value": 208.2735045024788
    },
    {
      "id": 119498,
      "geometry": "POINT (-81.479868 41.118747)",
      "poi_name": "Chick-fil-A",
      "osm_id": 9105683925,
      "amenity": "fast_food",
      "cuisine": "chicken",
      "takeaway": "yes",
      "addr_state": "OH",
      "addr_city": "Cuyahoga Falls",
      "addr_postcode": "44221",
      "addr_street": "Howe Avenue",
      "addr_housenumber": "420",
      "value": 208.2735045024788
    },
    {
      "id": 119499,
      "geometry": "POINT (-81.483954 41.118823)",
      "poi_name": "Raising Cane's",
      "osm_id": 9105683994,
      "amenity": "fast_food",
      "cuisine": "chicken",
      "takeaway": "yes",
      "official_name": "Raising Cane's Chicken Fingers",
      "addr_state": "OH",
      "addr_city": "Cuyahoga Falls",
      "addr_postcode": "44221",
      "addr_street": "Howe Avenue",
      "addr_housenumber": "200",
      "value": 208.2735045024788
    },
    {
      "id": 119500,
      "geometry": "POINT (-81.47885 41.118738)",
      "poi_name": "Wendy's",
      "osm_id": 9105684205,
      "amenity": "fast_food",
      "cuisine": "burger",
      "takeaway": "yes",
      "addr_state": "OH",
      "addr_city": "Cuyahoga Falls",
      "addr_postcode": "44221",
      "addr_street": "Howe Avenue",
      "addr_housenumber": "460",
      "value": 208.2735045024788
    },
    {
      "id": 119502,
      "geometry": "POINT (-81.477198 41.118616)",
      "poi_name": "McDonald's",
      "osm_id": 9105684358,
      "amenity": "fast_food",
      "cuisine": "burger",
      "website": "https://www.mcdonalds.com/us/en-us/location/oh/cuyahoga-falls/482-howe-ave/11090.html",
      "takeaway": "yes",
      "addr_state": "OH",
      "addr_city": "Cuyahoga Falls",
      "addr_postcode": "44221",
      "addr_street": "Howe Avenue",
      "addr_housenumber": "482",
      "value": 208.2735045024788
    },
    {
      "id": 119391,
      "geometry": "POINT (-81.581874 41.045723)",
      "poi_name": "Long John Silver's",
      "osm_id": 9101528676,
      "amenity": "fast_food",
      "cuisine": "seafood",
      "takeaway": "yes",
      "addr_state": "OH",
      "addr_city": "Akron",
      "addr_postcode": "44320",
      "addr_street": "Romig Road",
      "addr_housenumber": "2520",
      "value": 208.2735045024788
    },
    {
      "id": 119566,
      "geometry": "POINT (-81.474222 41.119496)",
      "poi_name": "Boston Market",
      "osm_id": 9107805035,
      "amenity": "fast_food",
      "cuisine": "american;chicken",
      "takeaway": "yes",
      "addr_state": "OH",
      "addr_city": "Cuyahoga Falls",
      "addr_postcode": "44221",
      "addr_street": "Howe Avenue",
      "addr_housenumber": "699",
      "value": 208.2735045024788
    },
    {
      "id": 120140,
      "geometry": "POINT (-81.58024 41.048421)",
      "poi_name": "Taco Bell",
      "osm_id": 9142789566,
      "amenity": "fast_food",
      "cuisine": "tex-mex",
      "takeaway": "yes",
      "addr_state": "OH",
      "addr_city": "Akron",
      "addr_postcode": "44320",
      "addr_street": "Romig Road",
      "addr_housenumber": "2419",
      "value": 208.2735045024788
    },
    {
      "id": 120143,
      "geometry": "POINT (-81.617924 41.133633)",
      "poi_name": "Duck Donuts",
      "osm_id": 9142944968,
      "amenity": "fast_food",
      "cuisine": "donut",
      "addr_state": "OH",
      "addr_city": "Fairlawn",
      "addr_postcode": "44333",
      "addr_street": "West Market Street",
      "addr_housenumber": "3265",
      "value": 208.2735045024788
    },
    {
      "id": 128663,
      "geometry": "POINT (-81.735312 41.382702)",
      "poi_name": "Chick-fil-A",
      "osm_id": 8176969463,
      "amenity": "fast_food",
      "cuisine": "chicken",
      "takeaway": "yes",
      "drive_through": "yes",
      "addr_state": "OH",
      "addr_city": "Parma",
      "addr_postcode": "44129",
      "addr_street": "Ridge Road",
      "addr_housenumber": "6676",
      "value": 208.2735045024788
    },
    {
      "id": 132016,
      "geometry": "POINT (-81.783741 41.315115)",
      "poi_name": "Subway",
      "osm_id": 9938103384,
      "amenity": "fast_food",
      "cuisine": "sandwich",
      "phone": "+1-440-628-8700",
      "takeaway": "yes",
      "addr_state": "OH",
      "addr_city": "North Royalton",
      "addr_postcode": "44133",
      "addr_street": "Royalton Road",
      "addr_housenumber": "12786",
      "value": 208.2735045024788
    },
    {
      "id": 130650,
      "geometry": "POINT (-81.515852 41.435675)",
      "poi_name": "Subway",
      "osm_id": 9881513304,
      "amenity": "fast_food",
      "cuisine": "sandwich",
      "phone": "+1-216-831-9388",
      "takeaway": "yes",
      "addr_state": "OH",
      "addr_city": "Warrensville Heights",
      "addr_postcode": "44128",
      "addr_street": "Emery Road",
      "addr_housenumber": "23051",
      "value": 208.2735045024788
    },
    {
      "id": 135631,
      "geometry": "POINT (-81.494584 41.520229)",
      "poi_name": "Domino's",
      "osm_id": 11527352554,
      "amenity": "fast_food",
      "cuisine": "pizza",
      "opening_hours": "Mo-Th,Su 10:30-24:00; Fr-Sa 10:30-01:00",
      "phone": "+12163400888",
      "takeaway": "yes",
      "drive_through": "no",
      "delivery": "yes",
      "addr_state": "OH",
      "addr_city": "Lyndhurst",
      "addr_postcode": "44124",
      "addr_street": "Mayfield Road",
      "addr_housenumber": "5139",
      "value": 208.2735045024788
    },
    {
      "id": 135794,
      "geometry": "POINT (-81.605413 41.5048)",
      "poi_name": "Einstein Bros. Bagels",
      "osm_id": 11536727645,
      "amenity": "fast_food",
      "cuisine": "bagel",
      "opening_hours": "Mo-Fr 06:30-14:00",
      "website": "https://locations.einsteinbros.com/us/oh/cleveland/11100-euclid-ave",
      "phone": "+1 216-844-1880",
      "takeaway": "yes",
      "addr_state": "OH",
      "addr_city": "Cleveland",
      "addr_postcode": "44106",
      "addr_street": "Euclid Avenue",
      "addr_housenumber": "11100",
      "value": 208.2735045024788
    },
    {
      "id": 139477,
      "geometry": "POINT (-81.404674 41.166953)",
      "poi_name": "Dunkin'",
      "osm_id": 6198968353,
      "amenity": "fast_food",
      "cuisine": "donut;coffee_shop",
      "takeaway": "yes",
      "addr_state": "OH",
      "addr_city": "Stow",
      "addr_postcode": "44224",
      "addr_street": "Graham Road",
      "addr_housenumber": "3027",
      "value": 208.2735045024788
    },
    {
      "id": 139478,
      "geometry": "POINT (-81.404666 41.166897)",
      "poi_name": "Jersey Mike's Subs",
      "osm_id": 6198968354,
      "amenity": "fast_food",
      "cuisine": "sandwich",
      "takeaway": "yes",
      "addr_state": "OH",
      "addr_city": "Stow",
      "addr_postcode": "44224",
      "addr_street": "Graham Road",
      "addr_housenumber": "3037",
      "value": 208.2735045024788
    },
    {
      "id": 140463,
      "geometry": "POINT (-81.432382 41.03268)",
      "poi_name": "Dunkin'",
      "osm_id": 6248205367,
      "amenity": "fast_food",
      "cuisine": "donut;coffee_shop",
      "phone": "+1-330-818-6334",
      "takeaway": "yes",
      "drive_through": "yes",
      "addr_state": "OH",
      "addr_city": "Akron",
      "addr_postcode": "44312",
      "addr_street": "Shanafelt Avenue",
      "addr_housenumber": "1286",
      "value": 208.2735045024788
    },
    {
      "id": 140276,
      "geometry": "POINT (-81.734337 41.403304)",
      "poi_name": "P. Jay's Pizza",
      "osm_id": 6238670315,
      "amenity": "fast_food",
      "cuisine": "pizza;pasta;salad",
      "phone": "+1 440 885 4355",
      "drive_through": "no",
      "addr_state": "OH",
      "addr_city": "Parma",
      "addr_street": "Ridge Road",
      "addr_housenumber": "5859",
      "value": 208.2735045024788
    },
    {
      "id": 140971,
      "geometry": "POINT (-81.729353 41.025014)",
      "poi_name": "Domino's",
      "osm_id": 6268727895,
      "amenity": "fast_food",
      "cuisine": "pizza",
      "takeaway": "yes",
      "addr_state": "OH",
      "addr_city": "Wadsworth",
      "addr_postcode": "44281",
      "addr_street": "Main Street",
      "addr_housenumber": "117",
      "value": 208.2735045024788
    },
    {
      "id": 141883,
      "geometry": "POINT (-81.472674 41.119605)",
      "poi_name": "Penn Station",
      "osm_id": 6299193687,
      "amenity": "fast_food",
      "cuisine": "sandwich",
      "takeaway": "yes",
      "addr_state": "OH",
      "addr_city": "Cuyahoga Falls",
      "addr_postcode": "44221",
      "addr_street": "Howe Avenue",
      "addr_housenumber": "753",
      "value": 208.2735045024788
    },
    {
      "id": 141884,
      "geometry": "POINT (-81.472536 41.1196)",
      "poi_name": "Moe's Southwest Grill",
      "osm_id": 6299193688,
      "amenity": "fast_food",
      "cuisine": "mexican",
      "takeaway": "yes",
      "addr_state": "OH",
      "addr_city": "Cuyahoga Falls",
      "addr_postcode": "44221",
      "addr_street": "Howe Avenue",
      "addr_housenumber": "753",
      "value": 208.2735045024788
    },
    {
      "id": 143643,
      "geometry": "POINT (-81.739375 41.383449)",
      "poi_name": "Pulp",
      "osm_id": 6345983695,
      "amenity": "fast_food",
      "cuisine": "juice",
      "addr_state": "OH",
      "addr_city": "Parma",
      "addr_postcode": "44129",
      "addr_street": "West Ridgewood Drive",
      "addr_housenumber": "7727",
      "value": 208.2735045024788
    },
    {
      "id": 143240,
      "geometry": "POINT (-81.378368 41.653997)",
      "poi_name": "Panera Bread",
      "osm_id": 6333352690,
      "amenity": "fast_food",
      "cuisine": "sandwich;bakery",
      "takeaway": "yes",
      "addr_state": "OH",
      "addr_city": "Mentor",
      "addr_postcode": "44060",
      "addr_street": "Mentor Avenue",
      "addr_housenumber": "7357",
      "value": 208.2735045024788
    },
    {
      "id": 147262,
      "geometry": "POINT (-81.729369 41.0449)",
      "poi_name": "KFC",
      "osm_id": 7519238201,
      "amenity": "fast_food",
      "cuisine": "chicken",
      "website": "https://locations.kfc.com/oh/wadsworth/802-high-street",
      "takeaway": "yes",
      "addr_state": "OH",
      "addr_city": "Wadsworth",
      "addr_postcode": "44281",
      "addr_street": "High Street",
      "addr_housenumber": "802",
      "value": 208.2735045024788
    },
    {
      "id": 147393,
      "geometry": "POINT (-81.728131 41.045711)",
      "poi_name": "Dairy Queen",
      "osm_id": 7528883548,
      "amenity": "fast_food",
      "cuisine": "ice_cream;burger",
      "takeaway": "yes",
      "addr_state": "OH",
      "addr_city": "Wadsworth",
      "addr_postcode": "44281",
      "addr_street": "High Street",
      "addr_housenumber": "835",
      "value": 208.2735045024788
    },
    {
      "id": 148893,
      "geometry": "POINT (-81.735345 41.412693)",
      "poi_name": "Subway",
      "osm_id": 3987162135,
      "amenity": "fast_food",
      "cuisine": "sandwich",
      "takeaway": "yes",
      "addr_state": "OH",
      "addr_city": "Parma",
      "addr_postcode": "44129",
      "addr_street": "Pearl Road",
      "addr_housenumber": "5466",
      "value": 208.2735045024788
    },
    {
      "id": 152880,
      "geometry": "POINT (-81.536729 41.50248)",
      "poi_name": "Panda Express",
      "osm_id": 4163472748,
      "amenity": "fast_food",
      "cuisine": "chinese",
      "takeaway": "yes",
      "drive_through": "yes",
      "addr_state": "OH",
      "addr_city": "South Euclid",
      "addr_postcode": "44118",
      "addr_street": "Warrensville Center Road",
      "addr_housenumber": "2100",
      "value": 208.2735045024788
    },
    {
      "id": 154985,
      "geometry": "POINT (-81.756183 41.417933)",
      "poi_name": "Subway",
      "osm_id": 4264582314,
      "amenity": "fast_food",
      "cuisine": "sandwich",
      "takeaway": "yes",
      "addr_state": "OH",
      "addr_city": "Parma",
      "addr_postcode": "44129",
      "addr_street": "Brookpark Road",
      "addr_housenumber": "10233",
      "value": 208.2735045024788
    },
    {
      "id": 153479,
      "geometry": "POINT (-81.788267 41.379419)",
      "poi_name": "Longetivity Drive-Thru",
      "osm_id": 4198873572,
      "amenity": "fast_food",
      "cuisine": "smoothie",
      "takeaway": "yes",
      "drive_through": "yes",
      "outdoor_seating": "no",
      "addr_state": "OH",
      "addr_city": "Middleburgh Heights",
      "addr_postcode": "44130",
      "addr_street": "Pearl Road",
      "addr_housenumber": "6872",
      "value": 208.2735045024788
    },
    {
      "id": 154354,
      "geometry": "POINT (-81.658442 41.492088)",
      "poi_name": "Subway",
      "osm_id": 4234355002,
      "amenity": "fast_food",
      "cuisine": "sandwich",
      "opening_hours": "09:00-21:00",
      "phone": "+1-216-432-3105",
      "takeaway": "yes",
      "delivery": "no",
      "addr_state": "OH",
      "addr_city": "Cleveland",
      "addr_postcode": "44104",
      "addr_street": "East 40th Street",
      "addr_housenumber": "2504",
      "value": 208.2735045024788
    },
    {
      "id": 154533,
      "geometry": "POINT (-81.6498 41.45566)",
      "poi_name": "Daisy's Ice Cream",
      "osm_id": 4242899944,
      "amenity": "fast_food",
      "cuisine": "ice_cream",
      "description": "#Icecream #Daisys",
      "phone": "+1-216-441-3426",
      "addr_state": "OH",
      "addr_city": "Cleveland",
      "addr_postcode": "44105",
      "addr_street": "Fleet Avenue",
      "addr_housenumber": "5614",
      "value": 208.2735045024788
    },
    {
      "id": 156305,
      "geometry": "POINT (-81.616344 41.409504)",
      "poi_name": "Chipotle",
      "osm_id": 4646615637,
      "amenity": "fast_food",
      "cuisine": "mexican",
      "takeaway": "yes",
      "official_name": "Chipotle Mexican Grill",
      "addr_state": "OH",
      "addr_city": "Garfield Heights",
      "addr_postcode": "44125",
      "addr_street": "Vista Way",
      "addr_housenumber": "9761",
      "value": 208.2735045024788
    },
    {
      "id": 156306,
      "geometry": "POINT (-81.61759 41.409562)",
      "poi_name": "Penn Station",
      "osm_id": 4646615638,
      "amenity": "fast_food",
      "cuisine": "sandwich",
      "takeaway": "yes",
      "addr_state": "OH",
      "addr_city": "Garfield Heights",
      "addr_postcode": "44125",
      "addr_street": "Vista Way",
      "addr_housenumber": "9591",
      "value": 208.2735045024788
    },
    {
      "id": 158349,
      "geometry": "POINT (-81.502364 41.588085)",
      "poi_name": "KFC",
      "osm_id": 4744031629,
      "amenity": "fast_food",
      "cuisine": "chicken",
      "website": "https://locations.kfc.com/oh/euclid/26021-euclid-avenue",
      "takeaway": "yes",
      "addr_state": "OH",
      "addr_city": "Euclid",
      "addr_postcode": "44132",
      "addr_street": "Euclid Avenue",
      "addr_housenumber": "26021",
      "value": 208.2735045024788
    },
    {
      "id": 159446,
      "geometry": "POINT (-81.8408 41.228271)",
      "poi_name": "McDonald's",
      "osm_id": 4793534809,
      "amenity": "fast_food",
      "cuisine": "burger",
      "website": "https://www.mcdonalds.com/us/en-us/location/oh/brunswick/1733-pearl-rd/25335.html",
      "takeaway": "yes",
      "addr_state": "OH",
      "addr_city": "Brunswick",
      "addr_postcode": "44212",
      "addr_street": "Pearl Road",
      "addr_housenumber": "1733",
      "value": 208.2735045024788
    },
    {
      "id": 159448,
      "geometry": "POINT (-81.840774 41.227316)",
      "poi_name": "Mr. Hero's",
      "osm_id": 4793534811,
      "amenity": "fast_food",
      "cuisine": "sandwich",
      "addr_state": "OH",
      "addr_city": "Brunswick",
      "addr_postcode": "44212",
      "addr_street": "Pearl Road",
      "addr_housenumber": "1737",
      "value": 208.2735045024788
    },
    {
      "id": 161131,
      "geometry": "POINT (-81.722894 41.441587)",
      "poi_name": "China City",
      "osm_id": 4868045299,
      "amenity": "fast_food",
      "cuisine": "asian",
      "drive_through": "no",
      "addr_state": "OH",
      "addr_city": "Cleveland",
      "addr_postcode": "44109",
      "addr_street": "Fulton Road",
      "addr_housenumber": "4225",
      "value": 208.2735045024788
    },
    {
      "id": 161145,
      "geometry": "POINT (-81.512741 41.072644)",
      "poi_name": "Arby's",
      "osm_id": 4868359194,
      "amenity": "fast_food",
      "cuisine": "sandwich",
      "takeaway": "yes",
      "addr_state": "OH",
      "value": 208.2735045024788
    },
    {
      "id": 161611,
      "geometry": "POINT (-81.782958 41.380752)",
      "poi_name": "Arby's",
      "osm_id": 4892123150,
      "amenity": "fast_food",
      "cuisine": "sandwich",
      "takeaway": "yes",
      "addr_state": "OH",
      "addr_city": "Parma Heights",
      "addr_postcode": "44130",
      "addr_street": "Pearl Road",
      "addr_housenumber": "6677",
      "value": 208.2735045024788
    },
    {
      "id": 162646,
      "geometry": "POINT (-81.575664 41.391265)",
      "poi_name": "China Wok",
      "osm_id": 4937651893,
      "amenity": "fast_food",
      "cuisine": "chinese",
      "takeaway": "yes",
      "addr_city": "Maple Heights",
      "addr_street": "Dunham Road",
      "addr_housenumber": "6178",
      "value": 208.2735045024788
    },
    {
      "id": 164432,
      "geometry": "POINT (-81.863736 41.156396)",
      "poi_name": "Mr. Hero",
      "osm_id": 9471460066,
      "amenity": "fast_food",
      "cuisine": "sandwich",
      "addr_state": "OH",
      "addr_city": "Medina",
      "addr_postcode": "44256",
      "addr_street": "North Court Street",
      "addr_housenumber": "1029",
      "value": 208.2735045024788
    },
    {
      "id": 168595,
      "geometry": "POINT (-81.73498 41.425572)",
      "poi_name": "Boston Market",
      "osm_id": 2271205430,
      "amenity": "fast_food",
      "cuisine": "american;chicken",
      "takeaway": "yes",
      "addr_state": "OH",
      "addr_city": "Brooklyn",
      "addr_postcode": "44144",
      "addr_street": "Ridge Road",
      "addr_housenumber": "4742",
      "value": 208.2735045024788
    },
    {
      "id": 168596,
      "geometry": "POINT (-81.735172 41.425388)",
      "poi_name": "Mr. Hero",
      "osm_id": 2271205431,
      "amenity": "fast_food",
      "addr_state": "OH",
      "addr_city": "Brooklyn",
      "addr_postcode": "44144",
      "addr_street": "Ridge Road",
      "addr_housenumber": "4750",
      "value": 208.2735045024788
    },
    {
      "id": 177166,
      "geometry": "POINT (-81.70101 41.45928)",
      "poi_name": "Subway",
      "osm_id": 2575931762,
      "amenity": "fast_food",
      "cuisine": "sandwich",
      "drive_through": "no",
      "addr_city": "Cleveland",
      "addr_street": "West 25th Street",
      "addr_housenumber": "3494",
      "value": 208.2735045024788
    },
    {
      "id": 177574,
      "geometry": "POINT (-81.606093 41.481868)",
      "poi_name": "Little Caesars",
      "osm_id": 2594003248,
      "amenity": "fast_food",
      "cuisine": "pizza",
      "website": "https://littlecaesars.com/en-us/store/7993/",
      "takeaway": "yes",
      "addr_state": "OH",
      "addr_city": "Cleveland",
      "addr_street": "Buckeye Road",
      "addr_housenumber": "11311",
      "value": 208.2735045024788
    },
    {
      "id": 177302,
      "geometry": "POINT (-81.538349 41.501697)",
      "poi_name": "Chipotle",
      "osm_id": 2582557338,
      "amenity": "fast_food",
      "cuisine": "mexican",
      "takeaway": "yes",
      "official_name": "Chipotle Mexican Grill",
      "addr_state": "OH",
      "addr_city": "South Euclid",
      "addr_postcode": "44118",
      "addr_street": "Cedar Road",
      "addr_housenumber": "13937",
      "value": 208.2735045024788
    },
    {
      "id": 177303,
      "geometry": "POINT (-81.539403 41.501608)",
      "poi_name": "Panera Bread",
      "osm_id": 2582557342,
      "amenity": "fast_food",
      "cuisine": "sandwich;bakery",
      "takeaway": "yes",
      "addr_state": "OH",
      "addr_city": "South Euclid",
      "addr_postcode": "44118",
      "addr_street": "Cedar Road",
      "addr_housenumber": "13901",
      "value": 208.2735045024788
    },
    {
      "id": 177304,
      "geometry": "POINT (-81.537293 41.50156)",
      "poi_name": "Five Guys",
      "osm_id": 2582557343,
      "amenity": "fast_food",
      "cuisine": "burger",
      "phone": "+1-216-320-1700",
      "takeaway": "yes",
      "official_name": "Five Guys Burgers and Fries",
      "delivery": "no",
      "addr_state": "OH",
      "addr_city": "South Euclid",
      "addr_postcode": "44118",
      "addr_street": "Cedar Road",
      "addr_housenumber": "13971",
      "value": 208.2735045024788
    },
    {
      "id": 177309,
      "geometry": "POINT (-81.534687 41.487193)",
      "poi_name": "Dave's Cosmic Subs",
      "osm_id": 2582606743,
      "amenity": "fast_food",
      "cuisine": "sandwich",
      "addr_state": "OH",
      "addr_city": "University Heights",
      "addr_postcode": "44118",
      "addr_street": "John Carroll Boulevard",
      "addr_housenumber": "20660",
      "value": 208.2735045024788
    },
    {
      "id": 178006,
      "geometry": "POINT (-81.686169 41.313617)",
      "poi_name": "Dunkin' Donuts",
      "osm_id": 2612235162,
      "amenity": "fast_food",
      "cuisine": "donut",
      "addr_city": "Broadview Heights",
      "addr_postcode": "44147",
      "addr_street": "Royalton Road",
      "addr_housenumber": "1057",
      "value": 208.2735045024788
    },
    {
      "id": 179215,
      "geometry": "POINT (-81.787941 41.378325)",
      "poi_name": "Charleys Philly Steaks",
      "osm_id": 10753368029,
      "amenity": "fast_food",
      "cuisine": "sandwich",
      "takeaway": "yes",
      "addr_state": "OH",
      "addr_city": "Middleburg Heights",
      "addr_postcode": "44130",
      "addr_street": "Pearl Road",
      "addr_housenumber": "6869",
      "value": 208.2735045024788
    },
    {
      "id": 179972,
      "geometry": "POINT (-81.491518 40.993806)",
      "poi_name": "Pulp Juice and Smoothie Bar",
      "osm_id": 10784242056,
      "amenity": "fast_food",
      "cuisine": "juice",
      "addr_state": "OH",
      "addr_city": "Akron",
      "addr_postcode": "44312",
      "addr_street": "South Arlington Road",
      "addr_housenumber": "2863",
      "value": 208.2735045024788
    },
    {
      "id": 179280,
      "geometry": "POINT (-81.597104 41.400874)",
      "poi_name": "Arthur Treacher's",
      "osm_id": 10756133264,
      "amenity": "fast_food",
      "cuisine": "fish_and_chips",
      "addr_state": "OH",
      "addr_city": "Garfield Heights",
      "addr_postcode": "44125",
      "addr_street": "Rockside Road",
      "addr_housenumber": "12585",
      "value": 208.2735045024788
    },
    {
      "id": 179611,
      "geometry": "POINT (-81.517766 41.313387)",
      "poi_name": "Jersey Mike's Subs",
      "osm_id": 10771264020,
      "amenity": "fast_food",
      "cuisine": "sandwich",
      "takeaway": "yes",
      "addr_state": "OH",
      "addr_city": "Macedonia",
      "addr_postcode": "44056",
      "addr_street": "Macedonia Commons Boulevard",
      "addr_housenumber": "8210",
      "value": 208.2735045024788
    },
    {
      "id": 179973,
      "geometry": "POINT (-81.491403 40.993804)",
      "poi_name": "Jimmy John's",
      "osm_id": 10784242057,
      "amenity": "fast_food",
      "cuisine": "sandwich",
      "takeaway": "yes",
      "official_name": "Jimmy John's Gourmet Sandwiches",
      "addr_state": "OH",
      "addr_city": "Akron",
      "addr_postcode": "44312",
      "addr_street": "South Arlington Road",
      "addr_housenumber": "2863",
      "value": 208.2735045024788
    },
    {
      "id": 179974,
      "geometry": "POINT (-81.491773 40.993932)",
      "poi_name": "Mr. Hero",
      "osm_id": 10784242061,
      "amenity": "fast_food",
      "cuisine": "sandwich",
      "addr_state": "OH",
      "addr_city": "Akron",
      "addr_postcode": "44312",
      "addr_street": "South Arlington Road",
      "addr_housenumber": "2863",
      "value": 208.2735045024788
    },
    {
      "id": 183811,
      "geometry": "POINT (-81.440552 41.607987)",
      "poi_name": "Bruegger's Bagels",
      "osm_id": 10946819549,
      "amenity": "fast_food",
      "cuisine": "bagel",
      "opening_hours": "Su-Sa 06:00-14:00",
      "website": "https://locations.brueggers.com/us/oh/willoughby/5900-som-center-road",
      "phone": "+1-440-944-8865",
      "takeaway": "yes",
      "addr_state": "OH",
      "addr_city": "Willoughby",
      "addr_postcode": "44094",
      "addr_street": "SOM Center Road",
      "addr_housenumber": "5900",
      "value": 208.2735045024788
    },
    {
      "id": 180768,
      "geometry": "POINT (-81.530072 41.416001)",
      "poi_name": "Little Caesars",
      "osm_id": 10817016174,
      "amenity": "fast_food",
      "cuisine": "pizza",
      "website": "https://littlecaesars.com/en-us/store/20427/",
      "takeaway": "yes",
      "addr_state": "OH",
      "addr_city": "Maple Heights",
      "addr_postcode": "44137",
      "addr_street": "Libby Road",
      "addr_housenumber": "21650",
      "value": 208.2735045024788
    },
    {
      "id": 182358,
      "geometry": "POINT (-81.648221 41.464848)",
      "poi_name": "Dunkin'",
      "osm_id": 10888973690,
      "amenity": "fast_food",
      "cuisine": "donut;coffee_shop",
      "opening_hours": "Mo-Su 05:00-20:00",
      "operator": "Dunkin' Donuts",
      "takeaway": "yes",
      "drive_through": "yes",
      "addr_state": "OH",
      "addr_city": "Cleveland",
      "addr_postcode": "44127",
      "addr_street": "Broadway Avenue",
      "addr_housenumber": "6001",
      "value": 208.2735045024788
    },
    {
      "id": 189312,
      "geometry": "POINT (-81.536607 41.500293)",
      "poi_name": "Boston Market",
      "osm_id": 1226810660,
      "amenity": "fast_food",
      "cuisine": "american;chicken",
      "takeaway": "yes",
      "drive_through": "no",
      "addr_state": "OH",
      "addr_city": "University Heights",
      "addr_postcode": "44118",
      "addr_street": "Warrensville Center Road",
      "addr_housenumber": "2184",
      "value": 208.2735045024788
    },
    {
      "id": 189321,
      "geometry": "POINT (-81.507465 41.465935)",
      "poi_name": "Bruegger's Bagels",
      "osm_id": 1226822147,
      "amenity": "fast_food",
      "cuisine": "bagel",
      "takeaway": "yes",
      "addr_state": "OH",
      "addr_city": "Beachwood",
      "addr_postcode": "44122",
      "addr_street": "Chagrin Boulevard",
      "addr_housenumber": "24215",
      "value": 208.2735045024788
    },
    {
      "id": 195429,
      "geometry": "POINT (-81.463934 40.948168)",
      "poi_name": "Whitehouse Chicken",
      "osm_id": 10304751185,
      "amenity": "fast_food",
      "cuisine": "chicken",
      "website": "http://www.whitehousechicken.com/",
      "phone": "+1-330-896-5644",
      "addr_state": "OH",
      "addr_city": "Uniontown",
      "addr_postcode": "44685",
      "addr_street": "Massillon Road",
      "addr_housenumber": "4195",
      "value": 208.2735045024788
    },
    {
      "id": 195826,
      "geometry": "POINT (-81.526742 41.537449)",
      "poi_name": "Bite Creole Kitchen",
      "osm_id": 10542211795,
      "amenity": "fast_food",
      "website": "https://www.bitecreolekitchen.com/",
      "phone": "+1 216 505 5344",
      "takeaway": "yes",
      "drive_through": "no",
      "addr_state": "OH",
      "addr_city": "South Euclid",
      "addr_postcode": "44121",
      "addr_street": "Monticello Boulevard",
      "addr_housenumber": "4262",
      "value": 208.2735045024788
    },
    {
      "id": 197552,
      "geometry": "POINT (-81.852899 41.368538)",
      "poi_name": "Boss Chickn Beer",
      "osm_id": 10653006484,
      "amenity": "fast_food",
      "cuisine": "chicken",
      "website": "https://www.bosschicknbeer.com",
      "addr_state": "OH",
      "addr_city": "Berea",
      "addr_street": "Front Street",
      "addr_housenumber": "120",
      "value": 208.2735045024788
    },
    {
      "id": 197553,
      "geometry": "POINT (-81.852901 41.368472)",
      "poi_name": "Dave's Cosmic Subs",
      "osm_id": 10653006485,
      "amenity": "fast_food",
      "cuisine": "sandwich",
      "takeaway": "yes",
      "addr_state": "OH",
      "addr_city": "Berea",
      "addr_street": "Front Street",
      "addr_housenumber": "118",
      "value": 208.2735045024788
    },
    {
      "id": 197554,
      "geometry": "POINT (-81.852903 41.368392)",
      "poi_name": "Papa John's",
      "osm_id": 10653006486,
      "amenity": "fast_food",
      "cuisine": "pizza",
      "takeaway": "yes",
      "addr_state": "OH",
      "addr_city": "Berea",
      "addr_street": "Front Street",
      "addr_housenumber": "114",
      "value": 208.2735045024788
    },
    {
      "id": 203288,
      "geometry": "POINT (-81.525876 41.434017)",
      "poi_name": "Mr. Hero",
      "osm_id": 7076451359,
      "amenity": "fast_food",
      "cuisine": "sandwich",
      "addr_state": "OH",
      "addr_city": "North Randall",
      "addr_postcode": "44128",
      "addr_street": "Northfield Road",
      "addr_housenumber": "4601",
      "value": 208.2735045024788
    },
    {
      "id": 205246,
      "geometry": "POINT (-81.817978 41.236571)",
      "poi_name": "Jimmy John's",
      "osm_id": 7161367599,
      "amenity": "fast_food",
      "cuisine": "sandwich",
      "takeaway": "yes",
      "official_name": "Jimmy John's Gourmet Sandwiches",
      "addr_state": "OH",
      "addr_city": "Brunswick",
      "addr_postcode": "44212",
      "addr_street": "Center Road",
      "addr_housenumber": "3668",
      "value": 208.2735045024788
    },
    {
      "id": 209530,
      "geometry": "POINT (-81.479427 41.119583)",
      "poi_name": "Chipotle",
      "osm_id": 5042003022,
      "amenity": "fast_food",
      "cuisine": "mexican",
      "takeaway": "yes",
      "official_name": "Chipotle Mexican Grill",
      "addr_state": "OH",
      "addr_city": "Cuyahoga Falls",
      "addr_postcode": "44221",
      "addr_street": "Howe Avenue",
      "addr_housenumber": "371",
      "value": 208.2735045024788
    },
    {
      "id": 212389,
      "geometry": "POINT (-81.596706 41.39819)",
      "poi_name": "Subway",
      "osm_id": 5205002078,
      "amenity": "fast_food",
      "cuisine": "sandwich",
      "takeaway": "yes",
      "addr_state": "OH",
      "addr_city": "Garfield Heights",
      "addr_postcode": "44125",
      "addr_street": "Rockside Road",
      "addr_housenumber": "12598",
      "value": 208.2735045024788
    },
    {
      "id": 209533,
      "geometry": "POINT (-81.481424 41.118819)",
      "poi_name": "Taco Bell",
      "osm_id": 5042020824,
      "amenity": "fast_food",
      "cuisine": "tex-mex",
      "website": "https://locations.tacobell.com/oh/cuyahoga-falls/360-howe-ave.html",
      "takeaway": "yes",
      "addr_state": "OH",
      "addr_city": "Cuyahoga Falls",
      "addr_postcode": "44221",
      "addr_street": "Howe Avenue",
      "addr_housenumber": "360",
      "value": 208.2735045024788
    },
    {
      "id": 209534,
      "geometry": "POINT (-81.482262 41.118798)",
      "poi_name": "Burger King",
      "osm_id": 5042020825,
      "amenity": "fast_food",
      "cuisine": "burger",
      "takeaway": "yes",
      "addr_state": "OH",
      "addr_city": "Cuyahoga Falls",
      "addr_postcode": "44221",
      "addr_street": "Howe Avenue",
      "addr_housenumber": "290",
      "value": 208.2735045024788
    },
    {
      "id": 215500,
      "geometry": "POINT (-81.472271 41.119596)",
      "poi_name": "Five Guys",
      "osm_id": 5300908879,
      "amenity": "fast_food",
      "cuisine": "burger",
      "takeaway": "yes",
      "official_name": "Five Guys Burgers and Fries",
      "addr_state": "OH",
      "addr_city": "Cuyahoga Falls",
      "addr_postcode": "44221",
      "addr_street": "Howe Avenue",
      "addr_housenumber": "753",
      "value": 208.2735045024788
    },
    {
      "id": 213154,
      "geometry": "POINT (-81.738162 41.383298)",
      "poi_name": "Jimmy John's",
      "osm_id": 5237912350,
      "amenity": "fast_food",
      "cuisine": "sandwich",
      "takeaway": "yes",
      "official_name": "Jimmy John's Gourmet Sandwiches",
      "addr_state": "OH",
      "addr_city": "Parma",
      "addr_postcode": "44129",
      "addr_street": "West Ridgewood Drive",
      "addr_housenumber": "7701",
      "value": 208.2735045024788
    },
    {
      "id": 215646,
      "geometry": "POINT (-81.385038 41.352008)",
      "poi_name": "Subway",
      "osm_id": 5307983559,
      "amenity": "fast_food",
      "cuisine": "sandwich",
      "takeaway": "yes",
      "addr_state": "OH",
      "addr_city": "Aurora",
      "addr_postcode": "44202",
      "addr_street": "Market Place Drive",
      "addr_housenumber": "7725",
      "value": 208.2735045024788
    },
    {
      "id": 228248,
      "geometry": "POINT (-81.81282 41.237311)",
      "poi_name": "Panera Bread",
      "osm_id": 4336207317,
      "amenity": "fast_food",
      "cuisine": "sandwich",
      "takeaway": "yes",
      "addr_state": "OH",
      "addr_city": "Brunswick",
      "addr_postcode": "44212",
      "addr_street": "Parschen",
      "addr_housenumber": "1405",
      "value": 208.2735045024788
    },
    {
      "id": 225431,
      "geometry": "POINT (-81.440551 41.607913)",
      "poi_name": "Subway",
      "osm_id": 11126361298,
      "amenity": "fast_food",
      "cuisine": "sandwich",
      "opening_hours": "Su 10:00-20:00; Mo 10:00-21:00; Tu 14:00-21:00; We-Fr 10:00-21:00; Sa 10:00-20:00",
      "website": "https://restaurants.subway.com/united-states/oh/willoughby/5900-som-center-rd",
      "phone": "+1 440 516 4500",
      "takeaway": "yes",
      "addr_state": "OH",
      "addr_city": "Willoughby",
      "addr_postcode": "44094",
      "addr_street": "SOM Center Road",
      "addr_housenumber": "5900",
      "value": 208.2735045024788
    },
    {
      "id": 233742,
      "geometry": "POINT (-81.735773 41.424594)",
      "poi_name": "Wingstop",
      "osm_id": 4585637243,
      "amenity": "fast_food",
      "cuisine": "wings",
      "takeaway": "yes",
      "addr_state": "OH",
      "addr_city": "Brooklyn",
      "addr_postcode": "44144",
      "addr_street": "Northcliff Avenue",
      "addr_housenumber": "7317",
      "value": 208.2735045024788
    },
    {
      "id": 233743,
      "geometry": "POINT (-81.738329 41.384114)",
      "poi_name": "Chipotle",
      "osm_id": 4585637265,
      "amenity": "fast_food",
      "cuisine": "mexican",
      "takeaway": "yes",
      "official_name": "Chipotle Mexican Grill",
      "addr_state": "OH",
      "addr_city": "Parma",
      "addr_postcode": "44129",
      "addr_street": "West Ridgewood Drive",
      "addr_housenumber": "7683",
      "value": 208.2735045024788
    },
    {
      "id": 231526,
      "geometry": "POINT (-81.606097 41.48197)",
      "poi_name": "Mr. Hero",
      "osm_id": 4471710727,
      "amenity": "fast_food",
      "addr_state": "OH",
      "addr_city": "Cleveland",
      "addr_street": "Buckeye Road",
      "addr_housenumber": "11321",
      "value": 208.2735045024788
    },
    {
      "id": 232573,
      "geometry": "POINT (-81.525098 41.428116)",
      "poi_name": "Subway",
      "osm_id": 4532677435,
      "amenity": "fast_food",
      "cuisine": "sandwich",
      "takeaway": "yes",
      "addr_state": "OH",
      "addr_city": "North Randall",
      "addr_postcode": "44128",
      "addr_street": "Northfield Road",
      "addr_housenumber": "4771",
      "value": 208.2735045024788
    },
    {
      "id": 233631,
      "geometry": "POINT (-81.438664 41.139223)",
      "poi_name": "Subway",
      "osm_id": 4582150850,
      "amenity": "fast_food",
      "cuisine": "sandwich",
      "takeaway": "yes",
      "outdoor_seating": "no",
      "delivery": "no",
      "addr_city": "Munroe Falls",
      "addr_street": "South Main Street",
      "addr_housenumber": "14",
      "value": 208.2735045024788
    },
    {
      "id": 234624,
      "geometry": "POINT (-81.516466 41.074148)",
      "poi_name": "Steak 'n Shake",
      "osm_id": 4630819210,
      "amenity": "fast_food",
      "cuisine": "burger",
      "takeaway": "yes",
      "addr_state": "OH",
      "addr_city": "Akron",
      "addr_postcode": "44325",
      "addr_street": "East Exchange Street",
      "value": 208.2735045024788
    },
    {
      "id": 235653,
      "geometry": "POINT (-81.474665 41.12004)",
      "poi_name": "Panera Bread",
      "osm_id": 5762309453,
      "amenity": "fast_food",
      "cuisine": "sandwich;bakery",
      "takeaway": "yes",
      "addr_state": "OH",
      "addr_city": "Cuyahoga Falls",
      "addr_postcode": "44221",
      "addr_street": "Howe Avenue",
      "addr_housenumber": "689",
      "value": 208.2735045024788
    },
    {
      "id": 235758,
      "geometry": "POINT (-81.543433 41.092429)",
      "poi_name": "Portage Path Broaster and Mini Mart",
      "osm_id": 5765955225,
      "amenity": "fast_food",
      "cuisine": "chicken",
      "operator": "Portage Path Broaster",
      "addr_state": "OH",
      "addr_city": "Akron",
      "addr_postcode": "44302",
      "addr_street": "South Portage Path",
      "addr_housenumber": "183",
      "value": 208.2735045024788
    },
    {
      "id": 235760,
      "geometry": "POINT (-81.567433 41.084189)",
      "poi_name": "Little Caesars",
      "osm_id": 5766083263,
      "amenity": "fast_food",
      "cuisine": "pizza",
      "takeaway": "only",
      "drive_through": "yes",
      "addr_state": "OH",
      "addr_city": "Akron",
      "addr_postcode": "44320",
      "addr_street": "Copley Road",
      "addr_housenumber": "1260",
      "value": 208.2735045024788
    },
    {
      "id": 239655,
      "geometry": "POINT (-81.437692 41.100451)",
      "poi_name": "Subway",
      "osm_id": 5932948285,
      "amenity": "fast_food",
      "cuisine": "sandwich",
      "takeaway": "yes",
      "drive_through": "no",
      "addr_state": "OH",
      "addr_city": "Tallmadge",
      "addr_postcode": "44278",
      "addr_street": "Erie Road",
      "addr_housenumber": "35",
      "value": 208.2735045024788
    },
    {
      "id": 239807,
      "geometry": "POINT (-81.361383 41.661328)",
      "poi_name": "Dunkin'",
      "osm_id": 5939965148,
      "amenity": "fast_food",
      "cuisine": "donut;coffee_shop",
      "takeaway": "yes",
      "addr_state": "OH",
      "addr_city": "Mentor",
      "addr_postcode": "44060",
      "addr_street": "Mentor Avenue",
      "addr_housenumber": "7825",
      "value": 208.2735045024788
    },
    {
      "id": 239808,
      "geometry": "POINT (-81.368371 41.658512)",
      "poi_name": "Wendy's",
      "osm_id": 5939965150,
      "amenity": "fast_food",
      "cuisine": "burger",
      "takeaway": "yes",
      "drive_through": "yes",
      "addr_state": "OH",
      "addr_city": "Mentor",
      "addr_postcode": "44060",
      "addr_street": "Mentor Avenue",
      "addr_housenumber": "7635",
      "value": 208.2735045024788
    },
    {
      "id": 239809,
      "geometry": "POINT (-81.363938 41.660633)",
      "poi_name": "Taco Bell",
      "osm_id": 5939965152,
      "amenity": "fast_food",
      "cuisine": "tex-mex",
      "website": "https://locations.tacobell.com/oh/mentor/7753-mentor-avenue.html",
      "takeaway": "yes",
      "addr_state": "OH",
      "addr_city": "Mentor",
      "addr_postcode": "44060",
      "addr_street": "Mentor Avenue",
      "addr_housenumber": "7753",
      "value": 208.2735045024788
    },
    {
      "id": 239813,
      "geometry": "POINT (-81.366311 41.658735)",
      "poi_name": "Arby's",
      "osm_id": 5939968096,
      "amenity": "fast_food",
      "cuisine": "sandwich",
      "takeaway": "yes",
      "addr_state": "OH",
      "addr_city": "Mentor",
      "addr_postcode": "44060",
      "addr_street": "Mentor Avenue",
      "addr_housenumber": "7690",
      "value": 208.2735045024788
    },
    {
      "id": 240905,
      "geometry": "POINT (-81.785922 41.379225)",
      "poi_name": "Mr. Hero",
      "osm_id": 5998515136,
      "amenity": "fast_food",
      "cuisine": "sandwich",
      "addr_state": "OH",
      "addr_city": "Middleburg Heights",
      "addr_postcode": "44130",
      "addr_street": "Pearl Road",
      "addr_housenumber": "6833",
      "value": 208.2735045024788
    }
  ],
  "answer_type": "loc",
  "question_entities": {
    "[2]": {
      "distance": 100000,
      "text": "100 kilometers"
    },
    "[3]": {
      "main_category": "leisure",
      "sub_category": "stadium",
      "display_name": "Mentor Civic Arena, Mentor, OH",
      "geo_wkt": "POINT (-81.332139 41.698458)",
      "poi": {
        "id": 246704,
        "geometry": "POINT (-81.332139 41.698458)",
        "poi_name": "Mentor Civic Arena",
        "osm_id": 8842654476,
        "leisure": "stadium",
        "operator": "City of Mentor",
        "addr_state": "OH",
        "addr_city": "Mentor",
        "addr_postcode": "44060",
        "addr_street": "Munson Road",
        "addr_housenumber": "8600"
      }
    },
    "[4]": {
      "main_category": "amenity",
      "sub_category": "hospital",
      "display_name": "Lake Health Beachwood Medical Center, Beachwood, OH",
      "geo_wkt": "POINT (-81.499007 41.464971)",
      "poi": {
        "id": 182757,
        "geometry": "POINT (-81.499007 41.464971)",
        "poi_name": "Lake Health Beachwood Medical Center",
        "osm_id": 10904088785,
        "amenity": "hospital",
        "website": "https://lakehealth.org/location/beachwood-medical-center",
        "phone": "+1 440 375 8700",
        "healthcare": "hospital",
        "addr_state": "OH",
        "addr_city": "Beachwood",
        "addr_postcode": "44122",
        "addr_street": "Chagrin Boulevard",
        "addr_housenumber": "25501"
      }
    },
    "[1]": {
      "main_category": "amenity",
      "sub_category": "fast_food"
    }
  },
  "id": 1295,
  "type": "range:towards+loc"
}