{
  "question": "What restaurant can I find as I progress towards Royal Oaks, Grafton, OH from Firelands Museum, Norwalk, OH, within a radius of 50 kilometers?",
  "sql": "WITH\n    angle AS (SELECT degrees(ST_Azimuth(ST_GeomFromText('POINT (-82.617848 41.24218)',4326)::geography, ST_GeomFromText('POINT (-82.070554 41.273665)',4326)::geography)) AS value)\nSELECT * FROM pois,angle\nWHERE amenity = 'restaurant'\nAND ST_DWithin(pois.geometry, ST_GeomFromText('POINT (-82.617848 41.24218)',4326)::geography, 50000)\nAND (degrees(ST_Azimuth(ST_GeomFromText('POINT (-82.617848 41.24218)',4326)::geography, pois.geometry)) BETWEEN angle.value - 22.5 AND angle.value + 22.5);\n",
  "answers": [
    {
      "id": 30785,
      "geometry": "POINT (-82.108398 41.368059)",
      "poi_name": "Foundry Kitchen & Bar",
      "osm_id": 8381530002,
      "amenity": "restaurant",
      "cuisine": "american",
      "addr_state": "OH",
      "addr_city": "Elyria",
      "addr_postcode": "44035",
      "addr_street": "Broad Street",
      "addr_housenumber": "525",
      "value": 85.46001440554683
    },
    {
      "id": 39800,
      "geometry": "POINT (-82.602124 41.247635)",
      "poi_name": "Star Diner",
      "osm_id": 2940529789,
      "amenity": "restaurant",
      "cuisine": "american",
      "value": 85.46001440554683
    },
    {
      "id": 72363,
      "geometry": "POINT (-82.104125 41.367872)",
      "poi_name": "Pasquale's Pasta House",
      "osm_id": 11423466736,
      "amenity": "restaurant",
      "cuisine": "italian",
      "value": 85.46001440554683
    },
    {
      "id": 54234,
      "geometry": "POINT (-82.217678 41.2893)",
      "poi_name": "Lupita",
      "osm_id": 10121985264,
      "amenity": "restaurant",
      "cuisine": "mexican",
      "value": 85.46001440554683
    },
    {
      "id": 66135,
      "geometry": "POINT (-82.133787 41.405192)",
      "poi_name": "Oh Boy",
      "osm_id": 5731324223,
      "amenity": "restaurant",
      "value": 85.46001440554683
    },
    {
      "id": 95997,
      "geometry": "POINT (-82.120476 41.399006)",
      "poi_name": "Rubin's",
      "osm_id": 6417723169,
      "amenity": "restaurant",
      "opening_hours": "Mo-Sa 10:30-21:00",
      "website": "https://www.eatatrubins.com/",
      "phone": "+1-440-324-3666",
      "takeaway": "yes",
      "addr_state": "OH",
      "addr_city": "Elyria",
      "addr_street": "Leona Street",
      "addr_housenumber": "616",
      "value": 85.46001440554683
    },
    {
      "id": 84320,
      "geometry": "POINT (-82.217157 41.291211)",
      "poi_name": "Black River Cafe",
      "osm_id": 1783879309,
      "amenity": "restaurant",
      "opening_hours": "Th 12:00-20:00; Fr,Sa 12:00-21:00",
      "website": "https://www.facebook.com/OberlinBlackRiverCafe",
      "addr_postcode": "44074",
      "addr_street": "South Main Street",
      "addr_housenumber": "15",
      "value": 85.46001440554683
    },
    {
      "id": 73835,
      "geometry": "POINT (-82.615807 41.242438)",
      "poi_name": "Peking House",
      "osm_id": 9656406475,
      "amenity": "restaurant",
      "addr_street": "W Main St",
      "addr_housenumber": "2",
      "value": 85.46001440554683
    },
    {
      "id": 73838,
      "geometry": "POINT (-82.616283 41.242208)",
      "poi_name": "16 West",
      "osm_id": 9656427141,
      "amenity": "restaurant",
      "addr_street": "W Main St",
      "addr_housenumber": "16",
      "value": 85.46001440554683
    },
    {
      "id": 73839,
      "geometry": "POINT (-82.616045 41.241924)",
      "poi_name": "Berry's Restaurant",
      "osm_id": 9656460369,
      "amenity": "restaurant",
      "opening_hours": "\"temporarily closed\"",
      "addr_street": "W Main St",
      "addr_housenumber": "13",
      "value": 85.46001440554683
    },
    {
      "id": 74258,
      "geometry": "POINT (-82.112268 41.397296)",
      "poi_name": "Wasabi Steakhouse",
      "osm_id": 9672598840,
      "amenity": "restaurant",
      "cuisine": "japanese",
      "addr_state": "OH",
      "addr_city": "Elyria",
      "addr_postcode": "44035",
      "addr_street": "Midway Mall",
      "addr_housenumber": "3598",
      "value": 85.46001440554683
    },
    {
      "id": 117118,
      "geometry": "POINT (-82.10634 41.389154)",
      "poi_name": "Texas Roadhouse",
      "osm_id": 8977554590,
      "amenity": "restaurant",
      "cuisine": "steak_house",
      "addr_state": "OH",
      "addr_city": "Elyria",
      "addr_postcode": "44035",
      "addr_street": "Market Drive",
      "addr_housenumber": "245",
      "value": 85.46001440554683
    },
    {
      "id": 117030,
      "geometry": "POINT (-82.10751 41.395637)",
      "poi_name": "Applebee's",
      "osm_id": 8975213187,
      "amenity": "restaurant",
      "cuisine": "american",
      "official_name": "Applebee's Neighborhood Grill & Bar",
      "addr_state": "OH",
      "addr_city": "Elyria",
      "addr_postcode": "44035",
      "addr_street": "West River Road North",
      "addr_housenumber": "1540",
      "value": 85.46001440554683
    },
    {
      "id": 117136,
      "geometry": "POINT (-82.105198 41.400147)",
      "poi_name": "Buffalo Wild Wings",
      "osm_id": 8977869060,
      "amenity": "restaurant",
      "cuisine": "wings",
      "addr_state": "OH",
      "addr_city": "Elyria",
      "addr_postcode": "44035",
      "addr_street": "Midway Boulevard",
      "addr_housenumber": "239",
      "value": 85.46001440554683
    },
    {
      "id": 117122,
      "geometry": "POINT (-82.106491 41.397515)",
      "poi_name": "Olive Garden",
      "osm_id": 8977646392,
      "amenity": "restaurant",
      "cuisine": "italian",
      "addr_state": "OH",
      "addr_city": "Elyria",
      "addr_postcode": "44035",
      "addr_street": "West River Road North",
      "addr_housenumber": "1635",
      "value": 85.46001440554683
    },
    {
      "id": 120872,
      "geometry": "POINT (-82.114978 41.398317)",
      "poi_name": "Red Lobster",
      "osm_id": 6727624036,
      "amenity": "restaurant",
      "cuisine": "seafood",
      "addr_state": "OH",
      "addr_city": "Elyria",
      "addr_postcode": "44035",
      "addr_street": "Midway Mall",
      "addr_housenumber": "6935",
      "value": 85.46001440554683
    },
    {
      "id": 117228,
      "geometry": "POINT (-82.065769 41.347247)",
      "poi_name": "Golden Bowl",
      "osm_id": 8983873302,
      "amenity": "restaurant",
      "cuisine": "chinese",
      "addr_state": "OH",
      "addr_city": "Elyria",
      "addr_postcode": "44035",
      "addr_street": "Chestnut Commons Drive",
      "addr_housenumber": "649",
      "value": 85.46001440554683
    },
    {
      "id": 117229,
      "geometry": "POINT (-82.065738 41.346826)",
      "poi_name": "El Patron",
      "osm_id": 8983873307,
      "amenity": "restaurant",
      "cuisine": "mexican",
      "addr_state": "OH",
      "addr_city": "Elyria",
      "addr_postcode": "44035",
      "addr_street": "Chestnut Commons Drive",
      "addr_housenumber": "629",
      "value": 85.46001440554683
    },
    {
      "id": 119166,
      "geometry": "POINT (-82.077629 41.421065)",
      "poi_name": "Ruby Tuesday",
      "osm_id": 9085148556,
      "amenity": "restaurant",
      "cuisine": "american",
      "addr_state": "OH",
      "addr_city": "Sheffield",
      "addr_postcode": "44035",
      "addr_street": "North Abbe Road",
      "addr_housenumber": "5274",
      "value": 85.46001440554683
    },
    {
      "id": 119188,
      "geometry": "POINT (-82.080215 41.423611)",
      "poi_name": "Sugarcreek Restaurant",
      "osm_id": 9087983018,
      "amenity": "restaurant",
      "addr_state": "OH",
      "addr_city": "Sheffield",
      "addr_postcode": "44035",
      "addr_street": "Detroit Road",
      "addr_housenumber": "5196",
      "value": 85.46001440554683
    },
    {
      "id": 119189,
      "geometry": "POINT (-82.080233 41.423827)",
      "poi_name": "China Star",
      "osm_id": 9087983019,
      "amenity": "restaurant",
      "cuisine": "chinese",
      "addr_state": "OH",
      "addr_city": "Sheffield",
      "addr_postcode": "44035",
      "addr_street": "Detroit Road",
      "addr_housenumber": "5194",
      "value": 85.46001440554683
    },
    {
      "id": 117232,
      "geometry": "POINT (-82.067491 41.345387)",
      "poi_name": "Romeo's Pizza",
      "osm_id": 8983873319,
      "amenity": "restaurant",
      "cuisine": "pizza",
      "addr_state": "OH",
      "addr_city": "Elyria",
      "addr_postcode": "44035",
      "addr_street": "Chestnut Commons Drive",
      "addr_housenumber": "354",
      "value": 85.46001440554683
    },
    {
      "id": 117233,
      "geometry": "POINT (-82.067401 41.345063)",
      "poi_name": "Rubin's Restaurant",
      "osm_id": 8983873323,
      "amenity": "restaurant",
      "cuisine": "american",
      "addr_state": "OH",
      "addr_city": "Elyria",
      "addr_postcode": "44035",
      "addr_street": "Chestnut Commons Drive",
      "addr_housenumber": "312",
      "value": 85.46001440554683
    },
    {
      "id": 120873,
      "geometry": "POINT (-82.113629 41.400051)",
      "poi_name": "Denny's",
      "osm_id": 6727624042,
      "amenity": "restaurant",
      "cuisine": "american",
      "addr_city": "Elyria",
      "addr_postcode": "44035",
      "addr_street": "Tillotson Street",
      "addr_housenumber": "640",
      "value": 85.46001440554683
    },
    {
      "id": 120874,
      "geometry": "POINT (-82.113306 41.401258)",
      "poi_name": "Bob Evans",
      "osm_id": 6727624043,
      "amenity": "restaurant",
      "cuisine": "american",
      "addr_city": "Elyria",
      "addr_postcode": "44035",
      "addr_street": "Griswold Road",
      "addr_housenumber": "503",
      "value": 85.46001440554683
    },
    {
      "id": 152285,
      "geometry": "POINT (-82.085808 41.425163)",
      "poi_name": "Quaker Steak & Lube",
      "osm_id": 4136568809,
      "amenity": "restaurant",
      "cuisine": "wings",
      "value": 85.46001440554683
    },
    {
      "id": 123426,
      "geometry": "POINT (-82.10587 41.39448)",
      "poi_name": "Golden Corral",
      "osm_id": 6853889018,
      "amenity": "restaurant",
      "cuisine": "american;buffet",
      "value": 85.46001440554683
    },
    {
      "id": 195277,
      "geometry": "POINT (-82.217594 41.291494)",
      "poi_name": "Aladdin's Eatery",
      "osm_id": 10299283704,
      "amenity": "restaurant",
      "opening_hours": "Su-Th 11:00-21:30; Fr,Sa 11:00-22:00",
      "value": 85.46001440554683
    },
    {
      "id": 160778,
      "geometry": "POINT (-82.150033 41.207532)",
      "poi_name": "Pheasant run Inn",
      "osm_id": 4846801510,
      "amenity": "restaurant",
      "addr_state": "OH",
      "addr_city": "Lagrange",
      "addr_postcode": "44050",
      "addr_street": "pheasant run dr",
      "addr_housenumber": "1",
      "value": 85.46001440554683
    },
    {
      "id": 178169,
      "geometry": "POINT (-82.108329 41.394708)",
      "poi_name": "Uncle Bo's Slow-N-Low BBQ",
      "osm_id": 10717363144,
      "amenity": "restaurant",
      "addr_state": "OH",
      "addr_city": "Elyria",
      "addr_postcode": "44035",
      "addr_street": "Midway Mall",
      "addr_housenumber": "2000",
      "value": 85.46001440554683
    },
    {
      "id": 194488,
      "geometry": "POINT (-82.217948 41.289306)",
      "poi_name": "The Mandarin",
      "osm_id": 10276315394,
      "amenity": "restaurant",
      "cuisine": "chinese",
      "value": 85.46001440554683
    },
    {
      "id": 195279,
      "geometry": "POINT (-82.215491 41.291534)",
      "poi_name": "Bistro Bella Luna",
      "osm_id": 10299319269,
      "amenity": "restaurant",
      "opening_hours": "Mo 08:00-14:00; Tu-Fr 08:00-20:00; Sa 09:00-20:00; Su 10:00-14:00",
      "value": 85.46001440554683
    },
    {
      "id": 195280,
      "geometry": "POINT (-82.217148 41.291362)",
      "poi_name": "Bingo",
      "osm_id": 10299333592,
      "amenity": "restaurant",
      "cuisine": "chinese",
      "opening_hours": "Mo,Th-Sa 11:00-21:00; Su 16:00-21:00",
      "value": 85.46001440554683
    },
    {
      "id": 195293,
      "geometry": "POINT (-82.218134 41.290762)",
      "poi_name": "Thini",
      "osm_id": 10299393052,
      "amenity": "restaurant",
      "cuisine": "thai",
      "opening_hours": "Mo-Sa 16:00-21:00",
      "value": 85.46001440554683
    },
    {
      "id": 195264,
      "geometry": "POINT (-82.218082 41.291502)",
      "poi_name": "The Arb",
      "osm_id": 10299276777,
      "amenity": "restaurant",
      "opening_hours": "Mo-Sa 08:00-18:00; Su 09:00-15:00",
      "value": 85.46001440554683
    },
    {
      "id": 198259,
      "geometry": "POINT (-82.218853 41.168991)",
      "poi_name": "Dog Tracks Diner",
      "osm_id": 10695557378,
      "amenity": "restaurant",
      "cuisine": "diner",
      "opening_hours": "Mo-Fr 06:30-21:00; Sa 07:00-21:00; Su 07:00-15:00",
      "value": 85.46001440554683
    },
    {
      "id": 198262,
      "geometry": "POINT (-82.217637 41.168184)",
      "poi_name": "Pizza House",
      "osm_id": 10695624470,
      "amenity": "restaurant",
      "cuisine": "pizza",
      "phone": "+4406474348",
      "value": 85.46001440554683
    },
    {
      "id": 198388,
      "geometry": "POINT (-82.08102 41.419306)",
      "poi_name": "Royal Grill Sushi Buffet",
      "osm_id": 10702218994,
      "amenity": "restaurant",
      "cuisine": "sushi",
      "addr_state": "OH",
      "addr_city": "Sheffield",
      "addr_postcode": "44035",
      "addr_street": "Cobblestone Road",
      "addr_housenumber": "5234",
      "value": 85.46001440554683
    },
    {
      "id": 222490,
      "geometry": "POINT (-82.216531 41.168396)",
      "poi_name": "La Troje",
      "osm_id": 11020704938,
      "amenity": "restaurant",
      "opening_hours": "Su-Th 11:00-21:00; Fr,Sa 11:00-22:00",
      "value": 85.46001440554683
    },
    {
      "id": 222495,
      "geometry": "POINT (-82.217295 41.168705)",
      "poi_name": "Dimitri's Corner",
      "osm_id": 11020798889,
      "amenity": "restaurant",
      "cuisine": "american",
      "value": 85.46001440554683
    },
    {
      "id": 222496,
      "geometry": "POINT (-82.119429 41.23764)",
      "poi_name": "LaGrange Village Pizza",
      "osm_id": 11020870423,
      "amenity": "restaurant",
      "cuisine": "pizza",
      "opening_hours": "Tu-Th 15:00-21:00; Fr,Sa 11:00-22:00; Su 11:00-21:00",
      "value": 85.46001440554683
    },
    {
      "id": 222497,
      "geometry": "POINT (-82.116372 41.236485)",
      "poi_name": "Choo Choo's Restaurant",
      "osm_id": 11020897129,
      "amenity": "restaurant",
      "opening_hours": "Tu-Fr 07:00-14:00, Fr,Sa 07:00-15:00",
      "value": 85.46001440554683
    }
  ],
  "answer_type": "name",
  "question_entities": {
    "[2]": {
      "distance": 50000,
      "text": "50 kilometers"
    },
    "[3]": {
      "main_category": "tourism",
      "sub_category": "museum",
      "display_name": "Firelands Museum, Norwalk, OH",
      "geo_wkt": "POINT (-82.617848 41.24218)",
      "poi": {
        "id": 17868,
        "geometry": "POINT (-82.617848 41.24218)",
        "poi_name": "Firelands Museum",
        "osm_id": 368155573,
        "tourism": "museum",
        "fee": "yes",
        "website": "https://www.firelandsmuseum.com/",
        "museum": "local",
        "wikidata": "Q18150078",
        "addr_state": "OH",
        "addr_city": "Norwalk",
        "addr_postcode": "44857",
        "addr_street": "Case Avenue",
        "addr_housenumber": "4"
      }
    },
    "[4]": {
      "main_category": "leisure",
      "sub_category": "park",
      "display_name": "Royal Oaks, Grafton, OH",
      "geo_wkt": "POINT (-82.070554 41.273665)",
      "poi": {
        "id": 265816,
        "geometry": "POINT (-82.070554 41.273665)",
        "poi_name": "Royal Oaks",
        "osm_id": 7836243396,
        "leisure": "park",
        "opening_hours": "Mo-Su 08:00-20:00",
        "addr_state": "OH",
        "addr_city": "Grafton",
        "addr_postcode": "44044",
        "addr_street": "Parsons Road",
        "addr_housenumber": "1057"
      }
    },
    "[1]": {
      "main_category": "amenity",
      "sub_category": "restaurant"
    }
  },
  "id": 1694,
  "type": "range:towards+name"
}