{
  "question": "Where can I find a caf\u00e9 located in the south of Anvil Arts Studio, Newland, NC, within a radius of 190 kilometers?",
  "sql": "\nWITH origin AS  (SELECT ST_GeomFromText('POINT (-81.957927 35.968786)',4326)::geography AS geometry)\nSELECT * FROM pois, origin\nWHERE ST_DWithin(pois.geometry, ST_GeomFromText('POINT (-81.957927 35.968786)',4326)::geography, 190000)\nAND amenity = 'cafe'\nAND degrees(ST_Azimuth(origin.geometry, pois.geometry)) BETWEEN 157.5 AND 202.5;\n",
  "answers": [
    {
      "id": 27790,
      "geometry": "POINT (-81.957927 35.968786)",
      "poi_name": "Cuppa Jones",
      "osm_id": 449565526,
      "amenity": "cafe",
      "cuisine": "coffee",
      "opening_hours": "Mo-Fr 07:30-21:45; Sa 11:30-21:45",
      "internet_access": "wlan",
      "addr_state": "SC",
      "addr_city": "Greenville",
      "addr_postcode": "29614"
    },
    {
      "id": 28560,
      "geometry": "POINT (-81.957927 35.968786)",
      "poi_name": "Summer Moon Coffee",
      "osm_id": 491509184,
      "amenity": "cafe",
      "addr_state": "SC",
      "addr_city": "Simpsonville",
      "addr_postcode": "29681",
      "addr_street": "Woodruff Road",
      "addr_housenumber": "2201"
    },
    {
      "id": 30835,
      "geometry": "POINT (-81.957927 35.968786)",
      "poi_name": "Starbucks",
      "osm_id": 8388212955,
      "amenity": "cafe",
      "cuisine": "coffee_shop",
      "takeaway": "yes",
      "official_name": "Starbucks Coffee",
      "addr_state": "SC",
      "addr_city": "Greenville",
      "addr_postcode": "29605",
      "addr_street": "Augusta Street",
      "addr_housenumber": "3227"
    },
    {
      "id": 30977,
      "geometry": "POINT (-81.957927 35.968786)",
      "poi_name": "FengCha",
      "osm_id": 8398490067,
      "amenity": "cafe",
      "cuisine": "bubble_tea",
      "addr_state": "SC",
      "addr_city": "Greenville",
      "addr_postcode": "29601",
      "addr_street": "North Spring Street",
      "addr_housenumber": "12"
    },
    {
      "id": 31444,
      "geometry": "POINT (-81.957927 35.968786)",
      "poi_name": "Chestnut Coffee House + Local Market",
      "osm_id": 8423745703,
      "amenity": "cafe",
      "addr_state": "SC",
      "addr_city": "Greenville",
      "addr_postcode": "29607",
      "addr_street": "Rocky Slope Road",
      "addr_housenumber": "325"
    },
    {
      "id": 41617,
      "geometry": "POINT (-81.957927 35.968786)",
      "poi_name": "Ding Tea",
      "osm_id": 3022871346,
      "amenity": "cafe",
      "cuisine": "bubble_tea",
      "website": "https://dingteagreenvillesc.ecwid.com/",
      "takeaway": "yes",
      "addr_state": "SC",
      "addr_city": "Greenville",
      "addr_postcode": "29615",
      "addr_street": "Orchard Park Drive",
      "addr_housenumber": "30"
    },
    {
      "id": 44001,
      "geometry": "POINT (-81.957927 35.968786)",
      "poi_name": "Java Bistro",
      "osm_id": 3140255858,
      "amenity": "cafe",
      "addr_city": "Simpsonville",
      "addr_street": "Batesville Road",
      "addr_housenumber": "102"
    },
    {
      "id": 50534,
      "geometry": "POINT (-81.957927 35.968786)",
      "poi_name": "Starbucks",
      "osm_id": 3489147162,
      "amenity": "cafe",
      "cuisine": "coffee_shop",
      "takeaway": "yes",
      "official_name": "Starbucks Coffee",
      "addr_state": "SC",
      "addr_city": "Greenville",
      "addr_postcode": "29605",
      "addr_street": "Augusta Street",
      "addr_housenumber": "2111"
    },
    {
      "id": 49863,
      "geometry": "POINT (-81.957927 35.968786)",
      "poi_name": "Southern Pressed Juicery",
      "osm_id": 3451956021,
      "amenity": "cafe",
      "cuisine": "juice",
      "website": "https://southernpressedjuicery.com/",
      "addr_city": "Greenville",
      "addr_postcode": "29601",
      "addr_street": "West Washington Street",
      "addr_housenumber": "2"
    },
    {
      "id": 60658,
      "geometry": "POINT (-81.957927 35.968786)",
      "poi_name": "Exchange Co. Coffee",
      "osm_id": 5475368771,
      "amenity": "cafe",
      "wheelchair": "yes",
      "addr_city": "Simpsonville",
      "addr_postcode": "29681",
      "addr_street": "South Main Street",
      "addr_housenumber": "110"
    },
    {
      "id": 51682,
      "geometry": "POINT (-81.957927 35.968786)",
      "poi_name": "Coffee Underground",
      "osm_id": 550547161,
      "amenity": "cafe",
      "cuisine": "coffee_shop",
      "opening_hours": "Su 08:00-22:00; Mo-Th 07:00-22:00; Fr 07:00-23:30; Sa 08:00-23:30",
      "website": "https://www.coffeeunderground.info/",
      "phone": "+1 864 298 0494",
      "addr_state": "SC",
      "addr_city": "Greenville",
      "addr_postcode": "29601",
      "addr_street": "East Coffee Street",
      "addr_housenumber": "1"
    },
    {
      "id": 51214,
      "geometry": "POINT (-81.957927 35.968786)",
      "poi_name": "Starbucks",
      "osm_id": 519923082,
      "amenity": "cafe",
      "cuisine": "coffee_shop",
      "takeaway": "yes",
      "official_name": "Starbucks Coffee",
      "addr_state": "SC",
      "addr_city": "Greenville",
      "addr_postcode": "29607",
      "addr_street": "Woodruff Road",
      "addr_housenumber": "1130"
    },
    {
      "id": 51560,
      "geometry": "POINT (-81.957927 35.968786)",
      "poi_name": "Kung Fu Tea",
      "osm_id": 540291718,
      "amenity": "cafe",
      "cuisine": "bubble_tea",
      "takeaway": "yes",
      "addr_state": "SC",
      "addr_city": "Greenville",
      "addr_postcode": "29601",
      "addr_street": "North Main Street",
      "addr_housenumber": "233"
    },
    {
      "id": 52135,
      "geometry": "POINT (-81.957927 35.968786)",
      "poi_name": "Cosmic Rabbits Tea Company",
      "osm_id": 571697754,
      "amenity": "cafe",
      "website": "https://cosmicrabbitstea.com/",
      "addr_city": "Greenville",
      "addr_postcode": "29601",
      "addr_street": "East McBee Avenue",
      "addr_housenumber": "131"
    },
    {
      "id": 52143,
      "geometry": "POINT (-81.957927 35.968786)",
      "poi_name": "Starbucks",
      "osm_id": 571721791,
      "amenity": "cafe",
      "cuisine": "coffee_shop",
      "takeaway": "yes",
      "official_name": "Starbucks Coffee",
      "addr_state": "SC",
      "addr_city": "Taylors",
      "addr_postcode": "29687",
      "addr_street": "Wade Hampton Boulevard",
      "addr_housenumber": "2801"
    },
    {
      "id": 52315,
      "geometry": "POINT (-81.957927 35.968786)",
      "poi_name": "Northgate Soda Shop",
      "osm_id": 577320287,
      "amenity": "cafe",
      "addr_state": "SC",
      "addr_city": "Greenville",
      "addr_postcode": "29609",
      "addr_street": "North Main Street",
      "addr_housenumber": "918"
    },
    {
      "id": 52416,
      "geometry": "POINT (-81.957927 35.968786)",
      "poi_name": "Starbucks",
      "osm_id": 582775502,
      "amenity": "cafe",
      "cuisine": "coffee_shop",
      "takeaway": "yes",
      "official_name": "Starbucks Coffee",
      "addr_city": "Greenville",
      "addr_postcode": "29601",
      "addr_street": "South Main Street",
      "addr_housenumber": "550"
    },
    {
      "id": 52417,
      "geometry": "POINT (-81.957927 35.968786)",
      "poi_name": "O-CHA tea bar",
      "osm_id": 582775573,
      "amenity": "cafe",
      "phone": "864-283-6702",
      "addr_state": "SC",
      "addr_city": "Greenville",
      "addr_postcode": "29601",
      "addr_street": "River Street",
      "addr_housenumber": "300"
    },
    {
      "id": 52418,
      "geometry": "POINT (-81.957927 35.968786)",
      "poi_name": "Methodical Downtown",
      "osm_id": 582775579,
      "amenity": "cafe",
      "cuisine": "coffee_shop",
      "opening_hours": "Mo-Fr 07:00-16:00; Sa-Su 08:00-16:00",
      "website": "https://methodicalcoffee.com/blogs/cafes/methodical-downtown",
      "internet_access": "wlan",
      "phone": "864-349-1913",
      "outdoor_seating": "yes",
      "addr_city": "Greenville",
      "addr_postcode": "29601",
      "addr_street": "North Main Street",
      "addr_housenumber": "101"
    },
    {
      "id": 52420,
      "geometry": "POINT (-81.957927 35.968786)",
      "poi_name": "Cafe West",
      "osm_id": 582775645,
      "amenity": "cafe",
      "addr_state": "SC",
      "addr_city": "Greenville",
      "addr_postcode": "29601",
      "addr_street": "East Coffee Street",
      "addr_housenumber": "206"
    },
    {
      "id": 67282,
      "geometry": "POINT (-81.957927 35.968786)",
      "poi_name": "El Panal Bee Cafe",
      "osm_id": 11231069372,
      "amenity": "cafe",
      "cuisine": "equadorian",
      "website": "https://elpanalbeecafe.net/",
      "addr_state": "SC",
      "addr_city": "Simpsonville",
      "addr_postcode": "29680",
      "addr_street": "Fairview Road",
      "addr_housenumber": "654"
    },
    {
      "id": 63672,
      "geometry": "POINT (-81.957927 35.968786)",
      "poi_name": "Starbucks",
      "osm_id": 5627289112,
      "amenity": "cafe",
      "cuisine": "coffee_shop",
      "takeaway": "yes",
      "official_name": "Starbucks Coffee",
      "outdoor_seating": "yes",
      "addr_state": "SC",
      "addr_city": "Spartanburg",
      "addr_postcode": "29306",
      "addr_street": "West Main Street",
      "addr_housenumber": "156"
    },
    {
      "id": 62573,
      "geometry": "POINT (-81.957927 35.968786)",
      "poi_name": "Spill The Beans",
      "osm_id": 5577029426,
      "amenity": "cafe",
      "cuisine": "coffee_shop;ice_cream",
      "addr_state": "SC",
      "addr_city": "Spartanburg",
      "addr_postcode": "29306",
      "addr_street": "East Main Street",
      "addr_housenumber": "174"
    },
    {
      "id": 71144,
      "geometry": "POINT (-81.957927 35.968786)",
      "poi_name": "Figs Cafe & Farmacy",
      "osm_id": 11382768589,
      "amenity": "cafe",
      "cuisine": "coffee_shop;sandwich;american",
      "website": "https://www.figscafeandfarmacy.com/",
      "outdoor_seating": "yes",
      "addr_state": "SC",
      "addr_city": "Anderson",
      "addr_postcode": "29621",
      "addr_street": "North Main Street",
      "addr_housenumber": "200"
    },
    {
      "id": 71148,
      "geometry": "POINT (-81.957927 35.968786)",
      "poi_name": "eCity Java",
      "osm_id": 11382799979,
      "amenity": "cafe",
      "cuisine": "coffee_shop",
      "addr_state": "SC",
      "addr_city": "Anderson",
      "addr_postcode": "29624",
      "addr_street": "South Main Street",
      "addr_housenumber": "208"
    },
    {
      "id": 75980,
      "geometry": "POINT (-81.957927 35.968786)",
      "poi_name": "Bridge City Coffee",
      "osm_id": 9754347740,
      "amenity": "cafe",
      "addr_state": "SC",
      "addr_city": "Travelers Rest",
      "addr_postcode": "29690",
      "addr_street": "South Main Street",
      "addr_housenumber": "164"
    },
    {
      "id": 72482,
      "geometry": "POINT (-81.957927 35.968786)",
      "poi_name": "Big Apple Donut & Cafe",
      "osm_id": 11428989232,
      "amenity": "cafe",
      "website": "https://bigappledonutsandcafe.com/",
      "addr_state": "SC",
      "addr_city": "Taylors",
      "addr_postcode": "29687",
      "addr_street": "Wade Hampton Boulevard",
      "addr_housenumber": "3245"
    },
    {
      "id": 85810,
      "geometry": "POINT (-81.957927 35.968786)",
      "poi_name": "Mochibees Donut Cafe",
      "osm_id": 1898474495,
      "amenity": "cafe",
      "cuisine": "donut",
      "addr_state": "SC",
      "addr_city": "Greenville",
      "addr_postcode": "29607",
      "addr_street": "Woodruff Road",
      "addr_housenumber": "1270"
    },
    {
      "id": 101192,
      "geometry": "POINT (-81.957927 35.968786)",
      "poi_name": "Black Sheep Cafe",
      "osm_id": 6614737703,
      "amenity": "cafe",
      "website": "http://www.blacksheepcafecatering.com/",
      "addr_state": "SC",
      "addr_city": "Piedmont",
      "addr_postcode": "29673",
      "addr_street": "Highway 86",
      "addr_housenumber": "1413"
    },
    {
      "id": 86582,
      "geometry": "POINT (-81.957927 35.968786)",
      "poi_name": "Summer Moon Coffee",
      "osm_id": 1939789351,
      "amenity": "cafe",
      "addr_state": "SC",
      "addr_city": "Greenville",
      "addr_postcode": "29605",
      "addr_street": "Mills Avenue",
      "addr_housenumber": "409"
    },
    {
      "id": 88282,
      "geometry": "POINT (-81.957927 35.968786)",
      "poi_name": "The Vestibule Coffee & Tea",
      "osm_id": 8777769337,
      "amenity": "cafe",
      "opening_hours": "Mo-Fr 07:00-16:00; Sa 08:00-14:00",
      "website": "https://www.facebook.com/vestibulecoffee/",
      "internet_access": "wlan",
      "phone": "+1-864-547-2326",
      "outdoor_seating": "yes",
      "addr_state": "SC",
      "addr_city": "Clinton",
      "addr_postcode": "29325",
      "addr_street": "East Carolina Avenue",
      "addr_housenumber": "310"
    },
    {
      "id": 99766,
      "geometry": "POINT (-81.957927 35.968786)",
      "poi_name": "Junto Coffee",
      "osm_id": 6564475894,
      "amenity": "cafe",
      "opening_hours": "Tu-Sa 09:00-17:00, Su 11:00-17:00",
      "addr_state": "SC",
      "addr_city": "Taylors",
      "addr_postcode": "29687",
      "addr_street": "Mill Street",
      "addr_housenumber": "232"
    },
    {
      "id": 126176,
      "geometry": "POINT (-81.957927 35.968786)",
      "poi_name": "Whitmire Cafe",
      "osm_id": 6986588398,
      "amenity": "cafe",
      "addr_state": "SC",
      "addr_city": "Whitmire",
      "addr_postcode": "29178",
      "addr_street": "Main Street",
      "addr_housenumber": "153"
    },
    {
      "id": 103320,
      "geometry": "POINT (-81.957927 35.968786)",
      "poi_name": "Big Apple Donuts & cafe",
      "osm_id": 8495309647,
      "amenity": "cafe",
      "cuisine": "donut",
      "website": "https://bigappledonutsandcafe.com/",
      "addr_state": "SC",
      "addr_city": "Mauldin",
      "addr_postcode": "29662",
      "addr_street": "West Butler Road",
      "addr_housenumber": "219"
    },
    {
      "id": 106158,
      "geometry": "POINT (-81.957927 35.968786)",
      "poi_name": "Green Laundry Lounge",
      "osm_id": 8668240159,
      "amenity": "cafe",
      "website": "https://www.greenlaundrylounge.com/",
      "addr_state": "SC",
      "addr_city": "Greer",
      "addr_postcode": "29650",
      "addr_street": "Moorlyn Lane",
      "addr_housenumber": "10"
    },
    {
      "id": 125631,
      "geometry": "POINT (-81.957927 35.968786)",
      "poi_name": "Chestnut Coffee House + Market",
      "osm_id": 6967672942,
      "amenity": "cafe",
      "addr_state": "SC",
      "addr_city": "Simpsonville",
      "addr_postcode": "29681",
      "addr_street": "East Curtis Street",
      "addr_housenumber": "110A"
    },
    {
      "id": 126542,
      "geometry": "POINT (-81.957927 35.968786)",
      "poi_name": "Cohesive Coffee",
      "osm_id": 7010286484,
      "amenity": "cafe",
      "website": "https://www.cohesivecoffee.com/",
      "addr_state": "SC",
      "addr_city": "Greenville",
      "addr_postcode": "29607",
      "addr_street": "Airport Road",
      "addr_housenumber": "301"
    },
    {
      "id": 142265,
      "geometry": "POINT (-81.957927 35.968786)",
      "poi_name": "Milltown Coffee Co.",
      "osm_id": 6308830215,
      "amenity": "cafe",
      "cuisine": "coffee_shop",
      "outdoor_seating": "yes",
      "addr_state": "SC",
      "addr_city": "Spartanburg",
      "addr_postcode": "29307",
      "addr_street": "East Main Street",
      "addr_housenumber": "2601"
    },
    {
      "id": 132828,
      "geometry": "POINT (-81.957927 35.968786)",
      "poi_name": "Chestnut Coffee House + Local Market",
      "osm_id": 9968388927,
      "amenity": "cafe",
      "addr_state": "SC",
      "addr_city": "Simpsonville",
      "addr_postcode": "29681",
      "addr_street": "East Curtis Street",
      "addr_housenumber": "110"
    },
    {
      "id": 137482,
      "geometry": "POINT (-81.957927 35.968786)",
      "poi_name": "Buck 'N Brew Coffee",
      "osm_id": 6101504465,
      "amenity": "cafe",
      "opening_hours": "Mo-Fr 06:00-17:00; Sa 07:30-14:00",
      "internet_access": "yes",
      "phone": "+1 864 457 1515",
      "addr_state": "SC",
      "addr_city": "Campobello",
      "addr_postcode": "29322",
      "addr_street": "Asheville Highway",
      "addr_housenumber": "18981"
    },
    {
      "id": 141771,
      "geometry": "POINT (-81.957927 35.968786)",
      "poi_name": "Pharmacy Coffee",
      "osm_id": 6296910868,
      "amenity": "cafe",
      "cuisine": "coffee",
      "website": "https://www.facebook.com/pharmacycoffee864/",
      "addr_state": "SC",
      "addr_city": "Spartanburg",
      "addr_postcode": "29306",
      "addr_street": "North Church Street",
      "addr_housenumber": "187"
    },
    {
      "id": 142336,
      "geometry": "POINT (-81.957927 35.968786)",
      "poi_name": "Little River Roasting",
      "osm_id": 6311630936,
      "amenity": "cafe",
      "website": "https://www.littleriverroasting.com/",
      "phone": "+18645827900",
      "addr_state": "SC",
      "addr_city": "Spartanburg",
      "addr_postcode": "29306",
      "addr_street": "Fretwell Street",
      "addr_housenumber": "101"
    },
    {
      "id": 133525,
      "geometry": "POINT (-81.957927 35.968786)",
      "poi_name": "Lickin Good Donuts",
      "osm_id": 9997996683,
      "amenity": "cafe",
      "cuisine": "donut",
      "addr_state": "SC",
      "addr_city": "Simpsonville",
      "addr_postcode": "29681",
      "addr_street": "Northeast Main Street",
      "addr_housenumber": "926"
    },
    {
      "id": 141911,
      "geometry": "POINT (-81.957927 35.968786)",
      "poi_name": "Humble Grounds Coffe Shop",
      "osm_id": 6299660502,
      "amenity": "cafe",
      "addr_state": "SC",
      "addr_city": "Woodruff",
      "addr_postcode": "29388",
      "addr_street": "South Main Street",
      "addr_housenumber": "132"
    },
    {
      "id": 142019,
      "geometry": "POINT (-81.957927 35.968786)",
      "poi_name": "TruBroth",
      "osm_id": 6301037301,
      "amenity": "cafe",
      "cuisine": "broth",
      "website": "https://www.facebook.com/trubroth",
      "addr_city": "Travelers Rest",
      "addr_postcode": "29690",
      "addr_street": "South Main Street",
      "addr_housenumber": "36"
    },
    {
      "id": 151328,
      "geometry": "POINT (-81.957927 35.968786)",
      "poi_name": "Camilla Kitchen",
      "osm_id": 4093546046,
      "amenity": "cafe",
      "addr_state": "SC",
      "addr_city": "Greenville",
      "addr_postcode": "29601",
      "addr_street": "South Main Street",
      "addr_housenumber": "130"
    },
    {
      "id": 143004,
      "geometry": "POINT (-81.957927 35.968786)",
      "poi_name": "Starbucks",
      "osm_id": 6327006940,
      "amenity": "cafe",
      "cuisine": "coffee_shop",
      "takeaway": "yes",
      "official_name": "Starbucks Coffee",
      "addr_state": "SC",
      "addr_city": "Boiling Springs",
      "addr_postcode": "29316",
      "addr_street": "Mcmillin Road",
      "addr_housenumber": "107"
    },
    {
      "id": 161250,
      "geometry": "POINT (-81.957927 35.968786)",
      "poi_name": "Kuka Juice",
      "osm_id": 4871893942,
      "amenity": "cafe",
      "cuisine": "juice",
      "website": "https://www.kukajuice.com/",
      "addr_city": "Greenville",
      "addr_postcode": "29611",
      "addr_street": "Perry Avenue",
      "addr_housenumber": "580"
    },
    {
      "id": 160806,
      "geometry": "POINT (-81.957927 35.968786)",
      "poi_name": "Courthouse Coffee",
      "osm_id": 4848509941,
      "amenity": "cafe",
      "addr_state": "SC",
      "addr_city": "Laurens",
      "addr_postcode": "29360",
      "addr_street": "East Public Square",
      "addr_housenumber": "124"
    },
    {
      "id": 164027,
      "geometry": "POINT (-81.957927 35.968786)",
      "poi_name": "White Rabbit Tea Shoppe",
      "osm_id": 9447364798,
      "amenity": "cafe",
      "addr_state": "SC",
      "addr_city": "Powdersville",
      "addr_postcode": "29673",
      "addr_street": "Highway 153",
      "addr_housenumber": "3407"
    },
    {
      "id": 165319,
      "geometry": "POINT (-81.957927 35.968786)",
      "poi_name": "Starbucks",
      "osm_id": 9526163578,
      "amenity": "cafe",
      "cuisine": "coffee_shop",
      "takeaway": "yes",
      "official_name": "Starbucks Coffee",
      "addr_state": "SC",
      "addr_city": "Spartanburg",
      "addr_postcode": "29301",
      "addr_street": "West Blackstock Road",
      "addr_housenumber": "210"
    },
    {
      "id": 184751,
      "geometry": "POINT (-81.957927 35.968786)",
      "poi_name": "Starbucks",
      "osm_id": 7810731165,
      "amenity": "cafe",
      "cuisine": "coffee_shop",
      "takeaway": "yes",
      "official_name": "Starbucks Coffee",
      "addr_state": "SC",
      "addr_city": "Greenville",
      "addr_postcode": "29607",
      "addr_street": "Haywood Road",
      "addr_housenumber": "649"
    },
    {
      "id": 185892,
      "geometry": "POINT (-81.957927 35.968786)",
      "poi_name": "Unlocked Coffee",
      "osm_id": 7890022425,
      "amenity": "cafe",
      "website": "https://www.unlockedcoffee.com/",
      "outdoor_seating": "yes",
      "addr_state": "SC",
      "addr_city": "Greenville",
      "addr_postcode": "29611",
      "addr_street": "Perry Avenue",
      "addr_housenumber": "566"
    },
    {
      "id": 188662,
      "geometry": "POINT (-81.957927 35.968786)",
      "poi_name": "Little River Coffee Bar",
      "osm_id": 1172966671,
      "amenity": "cafe",
      "cuisine": "coffee_shop",
      "website": "https://www.littleriverroasting.com/",
      "internet_access": "wlan",
      "phone": "+18645821227",
      "outdoor_seating": "yes",
      "addr_state": "SC",
      "addr_city": "Spartanburg",
      "addr_postcode": "29306",
      "addr_street": "West Main Street",
      "addr_housenumber": "188"
    },
    {
      "id": 191567,
      "geometry": "POINT (-81.957927 35.968786)",
      "poi_name": "Crave Coffee",
      "osm_id": 1375786549,
      "amenity": "cafe",
      "website": "https://www.cravecoffeeonbutler.com/",
      "addr_city": "Greenville",
      "addr_postcode": "29607",
      "addr_street": "East Butler Road",
      "addr_housenumber": "1099"
    },
    {
      "id": 201095,
      "geometry": "POINT (-81.957927 35.968786)",
      "poi_name": "Rainer's",
      "osm_id": 611965243,
      "amenity": "cafe",
      "website": "https://rainerscafeandbar.com/",
      "phone": "864-232-1753",
      "addr_state": "SC",
      "addr_city": "Greenville",
      "addr_postcode": "29601",
      "addr_street": "South Main Street",
      "addr_housenumber": "610"
    },
    {
      "id": 200284,
      "geometry": "POINT (-81.957927 35.968786)",
      "poi_name": "Leopard Forest Coffee Company",
      "osm_id": 1030055051,
      "amenity": "cafe",
      "website": "https://www.leopardforestcoffee.com/",
      "addr_city": "Travelers Rest",
      "addr_postcode": "29690",
      "addr_street": "North Poinsett Highway",
      "addr_housenumber": "403"
    },
    {
      "id": 201097,
      "geometry": "POINT (-81.957927 35.968786)",
      "poi_name": "OneNation Coffee",
      "osm_id": 611965248,
      "amenity": "cafe",
      "addr_state": "SC",
      "addr_city": "Greenville",
      "addr_postcode": "29601",
      "addr_street": "South Main Street",
      "addr_housenumber": "612"
    },
    {
      "id": 211465,
      "geometry": "POINT (-81.957927 35.968786)",
      "poi_name": "Steam",
      "osm_id": 5158706444,
      "amenity": "cafe",
      "website": "https://www.steamcoffeecream.com/",
      "addr_city": "Fountain Inn",
      "addr_postcode": "29644",
      "addr_street": "South Main Street",
      "addr_housenumber": "113"
    },
    {
      "id": 207862,
      "geometry": "POINT (-81.957927 35.968786)",
      "poi_name": "Coyote Coffee Cafe",
      "osm_id": 4964184441,
      "amenity": "cafe",
      "opening_hours": "Mo-Sa 06:00-22:00; Su 08:00-20:00",
      "website": "https://www.coyotecoffeecafe.com/",
      "phone": "+1.864-509-0334",
      "addr_state": "SC",
      "addr_city": "Powdersville",
      "addr_postcode": "29611",
      "addr_street": "Highway 153",
      "addr_housenumber": "3527"
    },
    {
      "id": 206873,
      "geometry": "POINT (-81.957927 35.968786)",
      "poi_name": "Cafe Zorba",
      "osm_id": 7231292184,
      "amenity": "cafe",
      "cuisine": "mediterranean",
      "outdoor_seating": "yes",
      "addr_state": "SC",
      "addr_city": "Greenville",
      "addr_postcode": "29601",
      "addr_street": "Augusta Street",
      "addr_housenumber": "126"
    },
    {
      "id": 209057,
      "geometry": "POINT (-81.957927 35.968786)",
      "poi_name": "Bella Latte",
      "osm_id": 5020963544,
      "amenity": "cafe",
      "cuisine": "coffee_shop",
      "addr_state": "SC",
      "addr_city": "Spartanburg",
      "addr_postcode": "29307",
      "addr_street": "Drayton Road",
      "addr_housenumber": "1802"
    },
    {
      "id": 210081,
      "geometry": "POINT (-81.957927 35.968786)",
      "poi_name": "Lazy Latte Coffee",
      "osm_id": 5077391047,
      "amenity": "cafe",
      "addr_city": "Taylors",
      "addr_postcode": "29687",
      "addr_street": "Wade Hampton Boulevard",
      "addr_housenumber": "4800"
    },
    {
      "id": 224856,
      "geometry": "POINT (-81.957927 35.968786)",
      "poi_name": "boba ocha tea company",
      "osm_id": 11101393895,
      "amenity": "cafe",
      "cuisine": "bubble_tea",
      "addr_state": "SC",
      "addr_city": "Fountain Inn",
      "addr_postcode": "29644",
      "addr_street": "Trade Street",
      "addr_housenumber": "101"
    },
    {
      "id": 215251,
      "geometry": "POINT (-81.957927 35.968786)",
      "poi_name": "Cork and Beans",
      "osm_id": 5292567714,
      "amenity": "cafe",
      "cuisine": "coffee_shop;sandwich",
      "wheelchair": "yes",
      "website": "https://www.corkandbeanscoffee.com/",
      "internet_access": "yes",
      "phone": "+1 864-249-6588",
      "drive_through": "yes",
      "outdoor_seating": "yes",
      "addr_state": "SC",
      "addr_city": "Duncan",
      "addr_postcode": "29334",
      "addr_street": "East Main Street",
      "addr_housenumber": "2099"
    },
    {
      "id": 216238,
      "geometry": "POINT (-81.957927 35.968786)",
      "poi_name": "Starbucks",
      "osm_id": 9163536171,
      "amenity": "cafe",
      "cuisine": "coffee_shop",
      "takeaway": "yes",
      "official_name": "Starbucks Coffee",
      "addr_state": "SC",
      "addr_city": "Greenville",
      "addr_postcode": "29601",
      "addr_street": "Falls Street",
      "addr_housenumber": "320"
    },
    {
      "id": 236523,
      "geometry": "POINT (-81.957927 35.968786)",
      "poi_name": "The Village Grind",
      "osm_id": 5795690825,
      "amenity": "cafe",
      "website": "https://www.thevillagegrindgvl.com/",
      "phone": "864-915-8600",
      "addr_state": "SC",
      "addr_city": "Greenville",
      "addr_postcode": "29611",
      "addr_street": "Pendleton Street",
      "addr_housenumber": "1258"
    },
    {
      "id": 244561,
      "geometry": "POINT (-81.957927 35.968786)",
      "poi_name": "Black Cow Coffee House",
      "osm_id": 7729706878,
      "amenity": "cafe",
      "addr_state": "SC",
      "addr_city": "Honea Path",
      "addr_postcode": "29654",
      "addr_street": "North Main Street",
      "addr_housenumber": "3"
    }
  ],
  "answer_type": "loc",
  "question_entities": {
    "[1]": {
      "main_category": "amenity",
      "sub_category": "cafe"
    },
    "[2]": {
      "distance": 190000,
      "text": "190 kilometers"
    },
    "[3]": {
      "main_category": "tourism",
      "sub_category": "gallery",
      "display_name": "Anvil Arts Studio, Newland, NC",
      "geo_wkt": "POINT (-81.957927 35.968786)",
      "poi": {
        "id": 537,
        "geometry": "POINT (-81.957927 35.968786)",
        "poi_name": "Anvil Arts Studio",
        "osm_id": 8432590370,
        "tourism": "gallery",
        "phone": "+18287656226",
        "addr_state": "NC",
        "addr_city": "Newland",
        "addr_postcode": "28657",
        "addr_street": "Linville Falls Highway",
        "addr_housenumber": "9600"
      }
    },
    "[4]": {
      "direction_desc": "south",
      "direction_predicate": "degrees(ST_Azimuth(origin.geometry, pois.geometry)) BETWEEN 157.5 AND 202.5"
    }
  },
  "id": 54,
  "type": "range:direction+loc"
}