{
  "question": "Could you help me locate a museum that's within 70 kilometers from Hurricane Valley Farm, Falmouth, ME?",
  "sql": "SELECT * FROM pois\nWHERE ST_DWithin(pois.geometry, ST_GeomFromText('POINT (-70.304594 43.787343)',4326)::geography, 70000)\nAND tourism = 'museum';\n",
  "answers": [
    {
      "id": 4544,
      "geometry": "POINT (-69.963585 43.913908)",
      "poi_name": "Pejepscot Historical Society",
      "osm_id": 11301454667,
      "tourism": "museum",
      "operator": "Pejepscot Historical Society",
      "museum": "history",
      "addr_state": "ME",
      "addr_city": "Brunswick",
      "addr_postcode": "04011",
      "addr_street": "Park Row",
      "addr_housenumber": "159"
    },
    {
      "id": 7930,
      "geometry": "POINT (-69.624042 44.060971)",
      "poi_name": "Wiscasset, Waterville and Farmington Railway Museum",
      "osm_id": 6479386753,
      "tourism": "museum",
      "wheelchair": "limited",
      "fee": "yes",
      "opening_hours": "Sa 10:00-15:00 || \"Saturdays and Sundays Memorial Day through Labor Day Weekends.\"",
      "website": "https://www.wwfry.org",
      "phone": "+1-207-882-4193",
      "wikidata": "Q2586049",
      "addr_state": "ME",
      "addr_city": "Alna",
      "addr_postcode": "04535",
      "addr_street": "Cross Road",
      "addr_housenumber": "97"
    },
    {
      "id": 12575,
      "geometry": "POINT (-70.6004 43.24471)",
      "poi_name": "Ogunquit Heritage Museum",
      "osm_id": 7344012555,
      "tourism": "museum",
      "website": "http://www.ogunquitheritagemuseum.com/",
      "addr_state": "ME",
      "addr_city": "Ogunquit",
      "addr_postcode": "03907",
      "addr_street": "Obeds Lane",
      "addr_housenumber": "86"
    },
    {
      "id": 12019,
      "geometry": "POINT (-70.529647 43.382825)",
      "poi_name": "The Hagenarium",
      "osm_id": 6141232885,
      "tourism": "museum",
      "addr_state": "ME",
      "addr_city": "Kennebunk",
      "addr_postcode": "04043",
      "addr_street": "Depot Street",
      "addr_housenumber": "11"
    },
    {
      "id": 14656,
      "geometry": "POINT (-70.035614 44.23796)",
      "poi_name": "Monmouth Museum",
      "osm_id": 4679478404,
      "tourism": "museum",
      "addr_state": "ME",
      "addr_city": "Monmouth",
      "addr_postcode": "04259",
      "addr_street": "Main Street",
      "addr_housenumber": "748"
    },
    {
      "id": 24386,
      "geometry": "POINT (-69.627169 43.850744)",
      "poi_name": "Windjammer Maritime Museum",
      "osm_id": 11032450667,
      "tourism": "museum",
      "operator": "Windjammer Emporium",
      "museum": "history",
      "addr_state": "ME",
      "addr_city": "Boothbay Harbor",
      "addr_postcode": "04538",
      "addr_street": "Wharf Street",
      "addr_housenumber": "16"
    },
    {
      "id": 17429,
      "geometry": "POINT (-70.051993 43.712286)",
      "poi_name": "Admiral Robert E. Peary Home Museum",
      "osm_id": 367795463,
      "tourism": "museum",
      "website": "https://www.pearyeagleisland.org",
      "addr_state": "ME"
    },
    {
      "id": 17430,
      "geometry": "POINT (-70.704658 44.053556)",
      "poi_name": "Bridgton Historical Society Museum",
      "osm_id": 367795464,
      "historic": "yes",
      "tourism": "museum",
      "website": "https://www.bridgtonhistory.org/",
      "museum": "local",
      "addr_state": "ME"
    },
    {
      "id": 17431,
      "geometry": "POINT (-70.55157 43.736032)",
      "poi_name": "Daniel Marrett House Museum",
      "osm_id": 367795467,
      "tourism": "museum",
      "wikidata": "Q6772810",
      "addr_state": "ME"
    },
    {
      "id": 17432,
      "geometry": "POINT (-70.60968 43.970601)",
      "poi_name": "Naples Historical Society Museum",
      "osm_id": 367795471,
      "tourism": "museum",
      "website": "https://www.townofnaples.org/museum",
      "addr_state": "ME",
      "addr_city": "Naples",
      "addr_postcode": "04055",
      "addr_street": "Village Green Lane",
      "addr_housenumber": "21"
    },
    {
      "id": 17433,
      "geometry": "POINT (-70.441626 43.501225)",
      "poi_name": "York Institute Museum",
      "osm_id": 367795474,
      "tourism": "museum",
      "website": "https://www.sacomuseum.org/",
      "addr_state": "ME"
    },
    {
      "id": 17437,
      "geometry": "POINT (-70.537201 43.38742)",
      "poi_name": "Brick Store Museum",
      "osm_id": 367795494,
      "tourism": "museum",
      "website": "https://www.brickstoremuseum.org/",
      "wikidata": "Q4965948",
      "addr_state": "ME",
      "addr_city": "Kennebunk",
      "addr_postcode": "04043",
      "addr_street": "Main Street",
      "addr_housenumber": "117"
    },
    {
      "id": 17438,
      "geometry": "POINT (-70.472551 43.354808)",
      "poi_name": "Kennebunk Marine Museum",
      "osm_id": 367795498,
      "tourism": "museum",
      "addr_state": "ME"
    },
    {
      "id": 17439,
      "geometry": "POINT (-70.472551 43.360086)",
      "poi_name": "Lord Mansion Museum",
      "osm_id": 367795503,
      "tourism": "museum",
      "addr_state": "ME"
    },
    {
      "id": 17440,
      "geometry": "POINT (-70.37804 43.517815)",
      "poi_name": "Old Orchard Beach Historical Society Museum",
      "osm_id": 367795506,
      "tourism": "museum",
      "website": "https://www.harmonmuseum.org/",
      "phone": "+1 207 934 9319",
      "museum": "history",
      "addr_state": "ME"
    },
    {
      "id": 17442,
      "geometry": "POINT (-69.557824 43.879527)",
      "poi_name": "Thompson Harvesting Museum",
      "osm_id": 367795510,
      "tourism": "museum",
      "website": "https://www.thompsonicehouse.com/",
      "addr_state": "ME"
    },
    {
      "id": 17456,
      "geometry": "POINT (-70.290768 43.65073)",
      "poi_name": "Children's Museum & Theatre of Maine",
      "osm_id": 367795543,
      "tourism": "museum",
      "wheelchair": "yes",
      "fee": "yes",
      "opening_hours": "We-Su 09:00-16:00",
      "website": "https://www.kitetails.org/",
      "wikidata": "Q5098174",
      "addr_state": "ME",
      "addr_city": "Portland",
      "addr_postcode": "04102",
      "addr_street": "Thompsons Point Road",
      "addr_housenumber": "250"
    },
    {
      "id": 17457,
      "geometry": "POINT (-70.391138 43.56848)",
      "poi_name": "Scarborough Museum",
      "osm_id": 367795547,
      "tourism": "museum",
      "addr_state": "ME"
    },
    {
      "id": 17458,
      "geometry": "POINT (-70.262585 43.65389)",
      "poi_name": "Portland Museum of Art",
      "osm_id": 367795548,
      "tourism": "museum",
      "wheelchair": "yes",
      "website": "https://www.portlandmuseum.org/",
      "phone": "+1-207-775-6148",
      "wikidata": "Q2105170",
      "addr_state": "ME",
      "addr_city": "Portland",
      "addr_postcode": "04101",
      "addr_street": "Congress Street",
      "addr_housenumber": "7"
    },
    {
      "id": 20433,
      "geometry": "POINT (-70.25303 43.662536)",
      "poi_name": "Maine Jewish Museum",
      "osm_id": 1167617649,
      "tourism": "museum",
      "website": "https://mainejewishmuseum.org/",
      "addr_state": "ME",
      "addr_city": "Portland",
      "addr_postcode": "04101",
      "addr_street": "Congress Street",
      "addr_housenumber": "267"
    },
    {
      "id": 22683,
      "geometry": "POINT (-70.722782 43.982438)",
      "poi_name": "Naramissic Farm Bridgton Historical Society",
      "osm_id": 7215330981,
      "historic": "yes",
      "tourism": "museum",
      "website": "https://www.bridgtonhistory.org/narramissic",
      "museum": "history",
      "addr_state": "ME",
      "addr_city": "Bridgton",
      "addr_postcode": "04009",
      "addr_street": "Naramissic Road",
      "addr_housenumber": "46"
    },
    {
      "id": 16816,
      "geometry": "POINT (-70.99154 43.463203)",
      "poi_name": "New Hampshire Farm Museum",
      "osm_id": 366495270,
      "tourism": "museum",
      "website": "https://nhfarmmuseum.org/",
      "addr_state": "NH"
    },
    {
      "id": 17401,
      "geometry": "POINT (-69.529275 44.031979)",
      "poi_name": "Chapman-Hall House Museum",
      "osm_id": 367795349,
      "tourism": "museum",
      "building": "yes",
      "opening_hours": "Sa-Su 12:00-16:00",
      "website": "https://www.lincolncountyhistory.org/visit/museums/chapman-hall-house/",
      "museum": "history",
      "wikidata": "Q23128520",
      "addr_state": "ME",
      "addr_city": "Damariscotta",
      "addr_postcode": "04543",
      "addr_street": "Main Street",
      "addr_housenumber": "270"
    },
    {
      "id": 17406,
      "geometry": "POINT (-70.201919 44.108097)",
      "poi_name": "Bates College Museum of Art",
      "osm_id": 367795366,
      "tourism": "museum",
      "opening_hours": "Mo-Sa 10:00-17:00",
      "website": "https://www.bates.edu/museum/",
      "wikidata": "Q4868797",
      "addr_state": "ME",
      "addr_city": "Lewiston",
      "addr_postcode": "04240",
      "addr_street": "Russell Street",
      "addr_housenumber": "75"
    },
    {
      "id": 17417,
      "geometry": "POINT (-70.968957 44.033681)",
      "poi_name": "Fryeburg Fair Farm Museum",
      "osm_id": 367795395,
      "tourism": "museum",
      "website": "https://www.fryeburgfair.org/p/exhibitions/history-museum",
      "phone": "+1-207-935-6097",
      "addr_state": "ME"
    },
    {
      "id": 17419,
      "geometry": "POINT (-70.249777 44.082018)",
      "poi_name": "Auburn Fire Department Museum",
      "osm_id": 367795398,
      "tourism": "museum",
      "addr_state": "ME"
    },
    {
      "id": 17420,
      "geometry": "POINT (-70.223806 44.098111)",
      "poi_name": "Androscoggin County Historical Museum",
      "osm_id": 367795399,
      "tourism": "museum",
      "website": "https://androhistory.org/museum-library-2/",
      "addr_state": "ME"
    },
    {
      "id": 17424,
      "geometry": "POINT (-69.815457 43.893986)",
      "poi_name": "Maine Maritime Museum Library Archives",
      "osm_id": 367795414,
      "tourism": "museum",
      "website": "https://www.mainemaritimemuseum.org/collection/research/",
      "addr_state": "ME"
    },
    {
      "id": 17425,
      "geometry": "POINT (-69.803935 43.787861)",
      "poi_name": "Phippsburg Historical Museum",
      "osm_id": 367795415,
      "tourism": "museum",
      "website": "https://www.phippsburghistorical.com/",
      "addr_state": "ME"
    },
    {
      "id": 17426,
      "geometry": "POINT (-69.803176 44.088348)",
      "poi_name": "CHTJ Southard House Museum",
      "osm_id": 367795437,
      "tourism": "museum",
      "website": "https://www.richmondmaine.com/SouthardHouseMuseum",
      "phone": "+1 (207) 737-8202",
      "museum": "history",
      "addr_state": "ME",
      "addr_city": "Richmond",
      "addr_postcode": "04357",
      "addr_street": "Main Street",
      "addr_housenumber": "75"
    },
    {
      "id": 21438,
      "geometry": "POINT (-69.959918 43.907904)",
      "poi_name": "Peary\u2013MacMillan Arctic Museum",
      "osm_id": 10262962459,
      "tourism": "museum",
      "operator": "Bowdoin College",
      "wikidata": "Q7158400",
      "addr_state": "ME",
      "addr_city": "Brunswick",
      "addr_postcode": "04011",
      "addr_street": "Polar Loop",
      "addr_housenumber": "10"
    },
    {
      "id": 23564,
      "geometry": "POINT (-70.290529 43.651576)",
      "poi_name": "International Cryptozoology Museum",
      "osm_id": 5255083521,
      "tourism": "museum",
      "opening_hours": "We-Mo 11:00-15:30",
      "website": "https://cryptozoologymuseum.com/",
      "addr_state": "ME",
      "addr_city": "Portland",
      "addr_postcode": "04102",
      "addr_street": "Thompsons Point",
      "addr_housenumber": "106"
    }
  ],
  "answer_type": "loc",
  "question_entities": {
    "[1]": {
      "main_category": "tourism",
      "sub_category": "museum"
    },
    "[2]": {
      "distance": 70000,
      "text": "70 kilometers"
    },
    "[3]": {
      "main_category": "leisure",
      "sub_category": "garden",
      "display_name": "Hurricane Valley Farm, Falmouth, ME",
      "geo_wkt": "POINT (-70.304594 43.787343)",
      "poi": {
        "id": 266340,
        "geometry": "POINT (-70.304594 43.787343)",
        "poi_name": "Hurricane Valley Farm",
        "osm_id": 7188370375,
        "leisure": "garden",
        "addr_state": "ME",
        "addr_city": "Falmouth",
        "addr_postcode": "04105",
        "addr_street": "Gray Road",
        "addr_housenumber": "459"
      }
    }
  },
  "id": 2090,
  "type": "range+loc"
}