{
  "question": "Within a radius of 50 kilometers, what caf\u00e9 is available located en route to the Last House on Mulholland, Los Angeles, CA from Aquatic Zoo Tropical Fish, Thousand Oaks, CA?",
  "sql": "WITH\n    angle AS (SELECT degrees(ST_Azimuth(ST_GeomFromText('POINT (-118.840161 34.172588)',4326)::geography, ST_GeomFromText('POINT (-118.320457 34.131243)',4326)::geography)) AS value)\nSELECT * FROM pois,angle\nWHERE amenity = 'cafe'\nAND ST_DWithin(pois.geometry, ST_GeomFromText('POINT (-118.840161 34.172588)',4326)::geography, 50000)\nAND (degrees(ST_Azimuth(ST_GeomFromText('POINT (-118.840161 34.172588)',4326)::geography, pois.geometry)) BETWEEN angle.value - 22.5 AND angle.value + 22.5);\n",
  "answers": [
    {
      "id": 27607,
      "geometry": "POINT (-118.486294 34.028622)",
      "poi_name": "Cafe Berlina",
      "osm_id": 439817143,
      "amenity": "cafe",
      "opening_hours": "Mo-Fr 07:00-15:00; Sa 08:00-14:00",
      "website": "https://cafeberlina.com/",
      "outdoor_seating": "no",
      "addr_state": "CA",
      "addr_city": "Santa Monica",
      "addr_postcode": "90403",
      "addr_street": "Wilshire Boulevard",
      "addr_housenumber": "1620",
      "value": 95.32013944847463
    },
    {
      "id": 27610,
      "geometry": "POINT (-118.494226 34.032792)",
      "poi_name": "Starbucks",
      "osm_id": 439932222,
      "amenity": "cafe",
      "cuisine": "coffee_shop",
      "internet_access": "wlan",
      "takeaway": "yes",
      "official_name": "Starbucks Coffee",
      "addr_postcode": "90402",
      "addr_street": "Montana Avenue",
      "addr_housenumber": "1426",
      "value": 95.32013944847463
    },
    {
      "id": 27611,
      "geometry": "POINT (-118.494338 34.032714)",
      "poi_name": "Via Dolce",
      "osm_id": 439932447,
      "amenity": "cafe",
      "value": 95.32013944847463
    },
    {
      "id": 27618,
      "geometry": "POINT (-118.501788 34.027054)",
      "poi_name": "Starbucks",
      "osm_id": 439949776,
      "amenity": "cafe",
      "cuisine": "coffee_shop",
      "takeaway": "yes",
      "official_name": "Starbucks Coffee",
      "value": 95.32013944847463
    },
    {
      "id": 27619,
      "geometry": "POINT (-118.501065 34.027246)",
      "poi_name": "Marmalade",
      "osm_id": 439949779,
      "amenity": "cafe",
      "value": 95.32013944847463
    },
    {
      "id": 27642,
      "geometry": "POINT (-118.337332 34.101722)",
      "poi_name": "Starbucks",
      "osm_id": 440621215,
      "amenity": "cafe",
      "cuisine": "coffee_shop",
      "opening_hours": "Mo-Sa 05:00-22:00; Su 05:00-20:00",
      "takeaway": "yes",
      "official_name": "Starbucks Coffee",
      "value": 95.32013944847463
    },
    {
      "id": 29168,
      "geometry": "POINT (-118.431612 34.043154)",
      "poi_name": "Starbucks",
      "osm_id": 8285304709,
      "amenity": "cafe",
      "cuisine": "coffee_shop",
      "opening_hours": "Mo-Fr 05:00-20:00; Sa,Su 05:30-20:00",
      "takeaway": "yes",
      "official_name": "Starbucks Coffee",
      "value": 95.32013944847463
    },
    {
      "id": 29173,
      "geometry": "POINT (-118.431045 34.053087)",
      "poi_name": "Cafe Chez Marie",
      "osm_id": 8285344917,
      "amenity": "cafe",
      "value": 95.32013944847463
    },
    {
      "id": 29427,
      "geometry": "POINT (-118.413238 34.008937)",
      "poi_name": "Metro Cafe",
      "osm_id": 8301099719,
      "amenity": "cafe",
      "value": 95.32013944847463
    },
    {
      "id": 29430,
      "geometry": "POINT (-118.40838 34.003981)",
      "poi_name": "Tanner's Coffee",
      "osm_id": 8301099754,
      "amenity": "cafe",
      "cuisine": "coffee_shop",
      "value": 95.32013944847463
    },
    {
      "id": 29434,
      "geometry": "POINT (-118.393463 34.003704)",
      "poi_name": "Starbucks",
      "osm_id": 8301099768,
      "amenity": "cafe",
      "cuisine": "coffee_shop",
      "opening_hours": "Sa,Su 05:30-20:30; Mo-Fr 04:30-20:30",
      "takeaway": "yes",
      "official_name": "Starbucks Coffee",
      "value": 95.32013944847463
    },
    {
      "id": 29437,
      "geometry": "POINT (-118.40088 34.011871)",
      "poi_name": "Cafe Laurent",
      "osm_id": 8301099777,
      "amenity": "cafe",
      "value": 95.32013944847463
    },
    {
      "id": 29457,
      "geometry": "POINT (-118.38732 34.027211)",
      "poi_name": "Boba Guys",
      "osm_id": 8303884636,
      "amenity": "cafe",
      "cuisine": "bubble_tea",
      "value": 95.32013944847463
    },
    {
      "id": 29739,
      "geometry": "POINT (-118.422277 34.018795)",
      "poi_name": "Starbucks",
      "osm_id": 8322266840,
      "amenity": "cafe",
      "cuisine": "coffee_shop",
      "takeaway": "yes",
      "official_name": "Starbucks Coffee",
      "value": 95.32013944847463
    },
    {
      "id": 29742,
      "geometry": "POINT (-118.438882 34.022196)",
      "poi_name": "New York Bagel and Deli",
      "osm_id": 8322266864,
      "amenity": "cafe",
      "cuisine": "bagel",
      "value": 95.32013944847463
    },
    {
      "id": 29743,
      "geometry": "POINT (-118.43342 34.025848)",
      "poi_name": "Starbucks",
      "osm_id": 8322266868,
      "amenity": "cafe",
      "cuisine": "coffee_shop",
      "takeaway": "yes",
      "official_name": "Starbucks Coffee",
      "value": 95.32013944847463
    },
    {
      "id": 30176,
      "geometry": "POINT (-118.405501 34.017132)",
      "poi_name": "Starbucks",
      "osm_id": 8336631376,
      "amenity": "cafe",
      "cuisine": "coffee_shop",
      "takeaway": "yes",
      "official_name": "Starbucks Coffee",
      "value": 95.32013944847463
    },
    {
      "id": 30296,
      "geometry": "POINT (-118.397599 34.019701)",
      "poi_name": "Super Domestic",
      "osm_id": 8346283476,
      "amenity": "cafe",
      "value": 95.32013944847463
    },
    {
      "id": 30448,
      "geometry": "POINT (-118.387559 34.040789)",
      "poi_name": "Bagel Factory",
      "osm_id": 8359021438,
      "amenity": "cafe",
      "cuisine": "bagel",
      "value": 95.32013944847463
    },
    {
      "id": 30373,
      "geometry": "POINT (-118.445337 34.046938)",
      "poi_name": "Market Cafe",
      "osm_id": 8356082440,
      "amenity": "cafe",
      "value": 95.32013944847463
    },
    {
      "id": 30376,
      "geometry": "POINT (-118.429362 34.027441)",
      "poi_name": "Boba Time",
      "osm_id": 8356082517,
      "amenity": "cafe",
      "cuisine": "bubble_tea",
      "value": 95.32013944847463
    },
    {
      "id": 30421,
      "geometry": "POINT (-118.381364 34.024595)",
      "poi_name": "Destroyer",
      "osm_id": 8358349874,
      "amenity": "cafe",
      "opening_hours": "Mo-Su 08:00-16:00",
      "website": "https://destroyer.la/",
      "phone": "+1 310 360-3860",
      "outdoor_seating": "yes",
      "addr_state": "CA",
      "addr_city": "Culver City",
      "addr_postcode": "90232",
      "addr_street": "Hayden Avenue",
      "addr_housenumber": "3578",
      "value": 95.32013944847463
    },
    {
      "id": 30446,
      "geometry": "POINT (-118.376784 34.042962)",
      "poi_name": "The Coffee Bean & Tea Leaf",
      "osm_id": 8359021427,
      "amenity": "cafe",
      "cuisine": "coffee_shop",
      "takeaway": "yes",
      "value": 95.32013944847463
    },
    {
      "id": 30543,
      "geometry": "POINT (-118.421242 34.004648)",
      "poi_name": "310 Coffee",
      "osm_id": 8365286757,
      "amenity": "cafe",
      "value": 95.32013944847463
    },
    {
      "id": 30737,
      "geometry": "POINT (-118.418694 34.05779)",
      "poi_name": "85\u00b0C",
      "osm_id": 8379778566,
      "amenity": "cafe",
      "cuisine": "coffee_shop;chinese",
      "takeaway": "yes",
      "value": 95.32013944847463
    },
    {
      "id": 30740,
      "geometry": "POINT (-118.421372 34.04403)",
      "poi_name": "Food",
      "osm_id": 8379778597,
      "amenity": "cafe",
      "value": 95.32013944847463
    },
    {
      "id": 31081,
      "geometry": "POINT (-118.416347 34.001484)",
      "poi_name": "Ma\u00f1ana Coffee",
      "osm_id": 8403520476,
      "amenity": "cafe",
      "value": 95.32013944847463
    },
    {
      "id": 31084,
      "geometry": "POINT (-118.411053 34.010189)",
      "poi_name": "Millcross",
      "osm_id": 8403520485,
      "amenity": "cafe",
      "value": 95.32013944847463
    },
    {
      "id": 31085,
      "geometry": "POINT (-118.410852 34.010353)",
      "poi_name": "Tr\u00e0 Space",
      "osm_id": 8403520486,
      "amenity": "cafe",
      "cuisine": "bubble_tea",
      "value": 95.32013944847463
    },
    {
      "id": 31184,
      "geometry": "POINT (-118.431128 34.043895)",
      "poi_name": "Bueller's Bagels",
      "osm_id": 8409854704,
      "amenity": "cafe",
      "cuisine": "bagel",
      "value": 95.32013944847463
    },
    {
      "id": 31425,
      "geometry": "POINT (-118.438559 34.009954)",
      "poi_name": "Rustic Kitchen",
      "osm_id": 8423626429,
      "amenity": "cafe",
      "value": 95.32013944847463
    },
    {
      "id": 31576,
      "geometry": "POINT (-118.316879 34.097023)",
      "poi_name": "Studio Cafe",
      "osm_id": 8433224385,
      "amenity": "cafe",
      "value": 95.32013944847463
    },
    {
      "id": 31596,
      "geometry": "POINT (-118.317378 34.082197)",
      "poi_name": "Raleigh Studios Cafe",
      "osm_id": 8435718900,
      "amenity": "cafe",
      "value": 95.32013944847463
    },
    {
      "id": 31602,
      "geometry": "POINT (-118.388819 34.037397)",
      "poi_name": "Undergrind",
      "osm_id": 8435941823,
      "amenity": "cafe",
      "opening_hours": "Mo-Fr 07:30-16:00; Sa-Su 08:00-16:00",
      "website": "https://undergrindcafe.com/",
      "phone": "+1-310-730-6392",
      "outdoor_seating": "yes",
      "addr_state": "CA",
      "addr_city": "Los Angeles",
      "addr_postcode": "90034",
      "addr_street": "South Robertson Boulevard",
      "addr_housenumber": "2713",
      "value": 95.32013944847463
    },
    {
      "id": 31604,
      "geometry": "POINT (-118.38936 34.035348)",
      "poi_name": "Dolce Isola",
      "osm_id": 8435941826,
      "amenity": "cafe",
      "value": 95.32013944847463
    },
    {
      "id": 31638,
      "geometry": "POINT (-118.400003 34.018963)",
      "poi_name": "Gower cafe",
      "osm_id": 8439467190,
      "amenity": "cafe",
      "value": 95.32013944847463
    },
    {
      "id": 31641,
      "geometry": "POINT (-118.401145 34.0181)",
      "poi_name": "The Coffee Bean & Tea Leaf",
      "osm_id": 8439536120,
      "amenity": "cafe",
      "cuisine": "coffee_shop",
      "takeaway": "yes",
      "value": 95.32013944847463
    },
    {
      "id": 31791,
      "geometry": "POINT (-118.334561 34.148014)",
      "poi_name": "Bridge Cafe",
      "osm_id": 8447205722,
      "amenity": "cafe",
      "value": 95.32013944847463
    },
    {
      "id": 33727,
      "geometry": "POINT (-118.785745 34.183386)",
      "poi_name": "Starbucks",
      "osm_id": 2679647243,
      "amenity": "cafe",
      "cuisine": "coffee_shop",
      "internet_access": "wlan",
      "takeaway": "yes",
      "official_name": "Starbucks Coffee",
      "value": 95.32013944847463
    },
    {
      "id": 37961,
      "geometry": "POINT (-118.60558 34.157097)",
      "poi_name": "Starbucks",
      "osm_id": 2838988398,
      "amenity": "cafe",
      "cuisine": "coffee_shop",
      "opening_hours": "Mo-Fr 05:30-19:00; Sa-Su 06:00-19:00",
      "website": "https://www.starbucks.com/store-locator/store/18669/topanga-canyon-dumetz-4900-topanga-canyon-blvd-woodland-hills-ca-9136431",
      "internet_access": "wlan",
      "phone": "+1-818-704-1730",
      "takeaway": "yes",
      "official_name": "Starbucks Coffee",
      "outdoor_seating": "yes",
      "addr_state": "CA",
      "addr_city": "Woodland Hills",
      "addr_postcode": "91364",
      "addr_street": "Topanga Canyon Boulevard",
      "addr_housenumber": "4900",
      "value": 95.32013944847463
    },
    {
      "id": 34048,
      "geometry": "POINT (-118.312438 34.101873)",
      "poi_name": "Sabor y Cultura Caf\u00e9",
      "osm_id": 2691929919,
      "amenity": "cafe",
      "website": "https://flavorandculture.wordpress.com/",
      "internet_access": "wlan",
      "phone": "+1 323 466 0481",
      "addr_state": "CA",
      "addr_city": "Los Angeles",
      "addr_postcode": "90028",
      "addr_street": "Hollywood Boulevard",
      "addr_housenumber": "5625",
      "value": 95.32013944847463
    },
    {
      "id": 37463,
      "geometry": "POINT (-118.52613 34.047272)",
      "poi_name": "Starbucks",
      "osm_id": 2812582564,
      "amenity": "cafe",
      "cuisine": "coffee_shop",
      "takeaway": "yes",
      "official_name": "Starbucks Coffee",
      "value": 95.32013944847463
    },
    {
      "id": 41562,
      "geometry": "POINT (-118.355134 34.137183)",
      "poi_name": "Starbucks",
      "osm_id": 3020603016,
      "amenity": "cafe",
      "cuisine": "coffee_shop",
      "takeaway": "yes",
      "official_name": "Starbucks Coffee",
      "value": 95.32013944847463
    },
    {
      "id": 38968,
      "geometry": "POINT (-118.363757 34.057959)",
      "poi_name": "Starbucks",
      "osm_id": 2894755518,
      "amenity": "cafe",
      "cuisine": "coffee_shop",
      "takeaway": "yes",
      "official_name": "Starbucks Coffee",
      "value": 95.32013944847463
    },
    {
      "id": 39599,
      "geometry": "POINT (-118.378841 34.149426)",
      "poi_name": "Aroma Coffee & Tea",
      "osm_id": 2930473434,
      "amenity": "cafe",
      "cuisine": "coffee_shop",
      "internet_access": "no",
      "addr_city": "Studio City",
      "addr_postcode": "91604",
      "addr_street": "Tujunga Avenue",
      "addr_housenumber": "4360",
      "value": 95.32013944847463
    },
    {
      "id": 51194,
      "geometry": "POINT (-118.346991 34.155649)",
      "poi_name": "Starbucks",
      "osm_id": 518251995,
      "amenity": "cafe",
      "cuisine": "coffee_shop",
      "takeaway": "yes",
      "official_name": "Starbucks Coffee",
      "value": 95.32013944847463
    },
    {
      "id": 46596,
      "geometry": "POINT (-118.404709 34.179743)",
      "poi_name": "Lilly Cafe",
      "osm_id": 3277564338,
      "amenity": "cafe",
      "cuisine": "donut",
      "value": 95.32013944847463
    },
    {
      "id": 49202,
      "geometry": "POINT (-118.405259 33.982494)",
      "poi_name": "Big Mango Cafe",
      "osm_id": 3418371421,
      "amenity": "cafe",
      "value": 95.32013944847463
    },
    {
      "id": 46730,
      "geometry": "POINT (-118.447529 34.172432)",
      "poi_name": "Starbucks",
      "osm_id": 3285424880,
      "amenity": "cafe",
      "cuisine": "coffee_shop",
      "takeaway": "yes",
      "official_name": "Starbucks Coffee",
      "value": 95.32013944847463
    },
    {
      "id": 53426,
      "geometry": "POINT (-118.421634 34.019173)",
      "poi_name": "Ume Tea",
      "osm_id": 10080333179,
      "amenity": "cafe",
      "cuisine": "bubble_tea",
      "value": 95.32013944847463
    },
    {
      "id": 51553,
      "geometry": "POINT (-118.477724 34.036039)",
      "poi_name": "Starbucks",
      "osm_id": 539830065,
      "amenity": "cafe",
      "cuisine": "coffee_shop",
      "takeaway": "yes",
      "official_name": "Starbucks Coffee",
      "value": 95.32013944847463
    },
    {
      "id": 51771,
      "geometry": "POINT (-118.455564 34.026927)",
      "poi_name": "Unurban Cafe",
      "osm_id": 559279241,
      "amenity": "cafe",
      "value": 95.32013944847463
    },
    {
      "id": 51983,
      "geometry": "POINT (-118.443378 34.070569)",
      "poi_name": "Kerckhoff Coffee House",
      "osm_id": 566762873,
      "amenity": "cafe",
      "value": 95.32013944847463
    },
    {
      "id": 52992,
      "geometry": "POINT (-118.465384 34.021906)",
      "poi_name": "Groundwork",
      "osm_id": 10059092895,
      "amenity": "cafe",
      "cuisine": "coffee_shop",
      "value": 95.32013944847463
    },
    {
      "id": 52998,
      "geometry": "POINT (-118.452004 34.028711)",
      "poi_name": "Kiff Kafe",
      "osm_id": 10059097827,
      "amenity": "cafe",
      "cuisine": "breakfast;coffee_shop;sandwich",
      "opening_hours": "Su, Tu-Fr 09:00-15:00; Sa 09:00-16:00",
      "website": "https://www.kiffkafe.com/",
      "addr_postcode": "90064",
      "addr_street": "West Pico Boulevard",
      "addr_housenumber": "12229",
      "value": 95.32013944847463
    },
    {
      "id": 53201,
      "geometry": "POINT (-118.459704 34.050832)",
      "poi_name": "Bluestone Lane",
      "osm_id": 10068030352,
      "amenity": "cafe",
      "cuisine": "coffee_shop",
      "value": 95.32013944847463
    },
    {
      "id": 53378,
      "geometry": "POINT (-118.447981 34.046195)",
      "poi_name": "Tea Mug Boba",
      "osm_id": 10078071574,
      "amenity": "cafe",
      "cuisine": "bubble_tea",
      "value": 95.32013944847463
    },
    {
      "id": 53427,
      "geometry": "POINT (-118.421593 34.019195)",
      "poi_name": "Mia's Cafe",
      "osm_id": 10080333180,
      "amenity": "cafe",
      "value": 95.32013944847463
    },
    {
      "id": 55296,
      "geometry": "POINT (-118.466076 34.053756)",
      "poi_name": "Starbucks",
      "osm_id": 10180090926,
      "amenity": "cafe",
      "cuisine": "coffee_shop",
      "takeaway": "yes",
      "official_name": "Starbucks Coffee",
      "value": 95.32013944847463
    },
    {
      "id": 54238,
      "geometry": "POINT (-118.460797 34.04189)",
      "poi_name": "Board House Coffee",
      "osm_id": 10122690295,
      "amenity": "cafe",
      "opening_hours": "Mo-Sa 06:30-17:00; Su 06:30-15:30",
      "value": 95.32013944847463
    },
    {
      "id": 54274,
      "geometry": "POINT (-118.455118 34.019465)",
      "poi_name": "Bubble Boba",
      "osm_id": 10124683911,
      "amenity": "cafe",
      "cuisine": "bubble_tea",
      "value": 95.32013944847463
    },
    {
      "id": 54425,
      "geometry": "POINT (-118.320564 34.08438)",
      "poi_name": "The Coffee Bean & Tea Leaf",
      "osm_id": 10133254411,
      "amenity": "cafe",
      "cuisine": "coffee_shop",
      "takeaway": "yes",
      "value": 95.32013944847463
    },
    {
      "id": 55267,
      "geometry": "POINT (-118.376335 34.023033)",
      "poi_name": "Jackson's Cafe",
      "osm_id": 10179024378,
      "amenity": "cafe",
      "value": 95.32013944847463
    },
    {
      "id": 55315,
      "geometry": "POINT (-118.47055 34.052396)",
      "poi_name": "Joe & The Juice",
      "osm_id": 10181219305,
      "amenity": "cafe",
      "cuisine": "coffee_shop",
      "takeaway": "yes",
      "value": 95.32013944847463
    },
    {
      "id": 55333,
      "geometry": "POINT (-118.472707 34.039596)",
      "poi_name": "Oakberry A\u00e7ai",
      "osm_id": 10181657129,
      "amenity": "cafe",
      "cuisine": "a\u00e7a\u00ed",
      "value": 95.32013944847463
    },
    {
      "id": 55722,
      "geometry": "POINT (-118.457964 34.043107)",
      "poi_name": "Manoly's",
      "osm_id": 10204880964,
      "amenity": "cafe",
      "value": 95.32013944847463
    },
    {
      "id": 56982,
      "geometry": "POINT (-118.457204 34.018279)",
      "poi_name": "Estate Coffee",
      "osm_id": 10257892621,
      "amenity": "cafe",
      "value": 95.32013944847463
    },
    {
      "id": 56743,
      "geometry": "POINT (-118.47267 34.01815)",
      "poi_name": "Dr. T House",
      "osm_id": 10247574003,
      "amenity": "cafe",
      "cuisine": "bubble_tea",
      "value": 95.32013944847463
    },
    {
      "id": 61001,
      "geometry": "POINT (-118.398912 34.062705)",
      "poi_name": "Brooklyn Water Bagel",
      "osm_id": 5492221511,
      "amenity": "cafe",
      "cuisine": "coffee_shop;bagel;sandwich",
      "opening_hours": "Mo-Fr 05:30-16:00; Sa-Su 06:30-16:00",
      "phone": "+1-310-786-7400",
      "toilets": "yes",
      "addr_street": "South Beverly Drive",
      "addr_housenumber": "262",
      "value": 95.32013944847463
    },
    {
      "id": 57183,
      "geometry": "POINT (-118.369105 34.083744)",
      "poi_name": "carrera cafe",
      "osm_id": 5329104421,
      "amenity": "cafe",
      "addr_postcode": "90046",
      "addr_street": "Melrose Avenue",
      "addr_housenumber": "8251",
      "value": 95.32013944847463
    },
    {
      "id": 57903,
      "geometry": "POINT (-118.432873 34.003064)",
      "poi_name": "Coffee Connection",
      "osm_id": 5355703024,
      "amenity": "cafe",
      "value": 95.32013944847463
    },
    {
      "id": 61319,
      "geometry": "POINT (-118.310738 34.18253)",
      "poi_name": "Starbucks",
      "osm_id": 5512762943,
      "amenity": "cafe",
      "cuisine": "coffee_shop",
      "internet_access": "wlan",
      "takeaway": "yes",
      "official_name": "Starbucks Coffee",
      "value": 95.32013944847463
    },
    {
      "id": 61323,
      "geometry": "POINT (-118.311435 34.183016)",
      "poi_name": "The Coffee Bean",
      "osm_id": 5512762953,
      "amenity": "cafe",
      "website": "https://www.coffeebean.com/stores/ca/burbank/340-n-san-fernando-blvd",
      "phone": "(818) 842-2394",
      "outdoor_seating": "yes",
      "addr_state": "CA",
      "addr_city": "Burbank",
      "addr_postcode": "91502",
      "addr_street": "North San Fernando Boulevard",
      "addr_housenumber": "340",
      "value": 95.32013944847463
    },
    {
      "id": 61342,
      "geometry": "POINT (-118.31048 34.181911)",
      "poi_name": "Republik Coffee",
      "osm_id": 5512810109,
      "amenity": "cafe",
      "cuisine": "coffee_shop",
      "opening_hours": "Mo-Su 07:00-18:00",
      "website": "https://republikcoffee.com/",
      "outdoor_seating": "yes",
      "addr_state": "CA",
      "addr_city": "Burbank",
      "addr_postcode": "91502",
      "addr_street": "East Palm Avenue",
      "addr_housenumber": "164",
      "value": 95.32013944847463
    },
    {
      "id": 64203,
      "geometry": "POINT (-118.342655 34.152205)",
      "poi_name": "Magazzino Cafe",
      "osm_id": 5644514774,
      "amenity": "cafe",
      "value": 95.32013944847463
    },
    {
      "id": 62338,
      "geometry": "POINT (-118.443322 34.065913)",
      "poi_name": "Starbucks",
      "osm_id": 5565062633,
      "amenity": "cafe",
      "cuisine": "coffee_shop",
      "wheelchair": "yes",
      "opening_hours": "Mo-Fr 07:00-15:30;Sa-Su closed",
      "takeaway": "yes",
      "official_name": "Starbucks Coffee",
      "value": 95.32013944847463
    },
    {
      "id": 62339,
      "geometry": "POINT (-118.443299 34.065914)",
      "poi_name": "Cafe Med",
      "osm_id": 5565062634,
      "amenity": "cafe",
      "cuisine": "burger;salad;sushi;soup;quesadilla",
      "wheelchair": "yes",
      "opening_hours": "Mo-Fr 07:00-14:00;PH,Sa-Su closed",
      "internet_access": "wlan",
      "takeaway": "yes",
      "outdoor_seating": "yes",
      "toilets": "yes",
      "addr_state": "CA",
      "addr_city": "Los Angeles",
      "addr_postcode": "90025",
      "addr_street": "Camden Avenue",
      "value": 95.32013944847463
    },
    {
      "id": 64224,
      "geometry": "POINT (-118.300705 34.174536)",
      "poi_name": "Starbucks",
      "osm_id": 5644995324,
      "amenity": "cafe",
      "cuisine": "coffee_shop",
      "takeaway": "yes",
      "official_name": "Starbucks Coffee",
      "value": 95.32013944847463
    },
    {
      "id": 64346,
      "geometry": "POINT (-118.41256 34.006892)",
      "poi_name": "Starbucks",
      "osm_id": 5649042872,
      "amenity": "cafe",
      "cuisine": "coffee_shop",
      "opening_hours": "Mo-Su 05:30-20:00",
      "website": "https://www.starbucks.com/store-locator/store/113207/sepulveda-washington-4114-sepulveda-blvd-culver-city-ca-902304700-us",
      "internet_access": "wlan",
      "phone": "+1 (310) 390-3561",
      "takeaway": "yes",
      "official_name": "Starbucks Coffee",
      "addr_postcode": "90230",
      "addr_street": "Sepulveda Boulevard",
      "addr_housenumber": "4114",
      "value": 95.32013944847463
    },
    {
      "id": 68205,
      "geometry": "POINT (-118.525158 34.045725)",
      "poi_name": "Palisades Garden Cafe",
      "osm_id": 11263475957,
      "amenity": "cafe",
      "value": 95.32013944847463
    },
    {
      "id": 67996,
      "geometry": "POINT (-118.376289 34.074679)",
      "poi_name": "Corner Bakery",
      "osm_id": 11255964565,
      "amenity": "cafe",
      "cuisine": "coffee_shop",
      "takeaway": "yes",
      "value": 95.32013944847463
    },
    {
      "id": 70617,
      "geometry": "POINT (-118.533966 34.20146)",
      "poi_name": "Aura's",
      "osm_id": 11368158303,
      "amenity": "cafe",
      "cuisine": "salvadoran",
      "addr_city": "Reseda",
      "value": 95.32013944847463
    },
    {
      "id": 70181,
      "geometry": "POINT (-118.421566 34.220924)",
      "poi_name": "Steeple House Coffee",
      "osm_id": 11347894484,
      "amenity": "cafe",
      "cuisine": "coffee_shop",
      "opening_hours": "Mo-Fr 08:00-15:00; Su 12:30-20:00",
      "phone": "818-909-5727",
      "addr_street": "Roscoe Boulevard",
      "addr_housenumber": "13248",
      "value": 95.32013944847463
    },
    {
      "id": 70538,
      "geometry": "POINT (-118.536256 34.202174)",
      "poi_name": "Fresh t",
      "osm_id": 11365685819,
      "amenity": "cafe",
      "cuisine": "bubble_tea",
      "value": 95.32013944847463
    },
    {
      "id": 70550,
      "geometry": "POINT (-118.535398 34.208967)",
      "poi_name": "A Tea Thing",
      "osm_id": 11365685833,
      "amenity": "cafe",
      "cuisine": "bubble_tea",
      "value": 95.32013944847463
    },
    {
      "id": 69252,
      "geometry": "POINT (-118.39951 34.065096)",
      "poi_name": "Kreation Organic",
      "osm_id": 11298663969,
      "amenity": "cafe",
      "website": "https://www.kreationjuice.com/",
      "phone": "+1 (310) 247-8110",
      "addr_postcode": "90212",
      "addr_street": "Charleville Boulevard",
      "addr_housenumber": "9465",
      "value": 95.32013944847463
    },
    {
      "id": 70308,
      "geometry": "POINT (-118.438225 34.023096)",
      "poi_name": "The Lazy Daisy",
      "osm_id": 11358784639,
      "amenity": "cafe",
      "value": 95.32013944847463
    },
    {
      "id": 74295,
      "geometry": "POINT (-118.468295 34.201449)",
      "poi_name": "Starbucks",
      "osm_id": 9673870606,
      "amenity": "cafe",
      "cuisine": "coffee_shop",
      "takeaway": "yes",
      "official_name": "Starbucks Coffee",
      "value": 95.32013944847463
    },
    {
      "id": 71613,
      "geometry": "POINT (-118.331473 34.172905)",
      "poi_name": "Pl\u00e1ntate Caf\u00e9",
      "osm_id": 11395319154,
      "amenity": "cafe",
      "cuisine": "coffee_shop",
      "value": 95.32013944847463
    },
    {
      "id": 71619,
      "geometry": "POINT (-118.318925 34.177604)",
      "poi_name": "The Boba Bar",
      "osm_id": 11395339080,
      "amenity": "cafe",
      "cuisine": "bubble_tea",
      "value": 95.32013944847463
    },
    {
      "id": 72394,
      "geometry": "POINT (-118.419953 34.060683)",
      "poi_name": "Hank's Cafe",
      "osm_id": 11425030950,
      "amenity": "cafe",
      "value": 95.32013944847463
    },
    {
      "id": 72180,
      "geometry": "POINT (-118.441919 34.038267)",
      "poi_name": "Alfred",
      "osm_id": 11415460228,
      "amenity": "cafe",
      "cuisine": "coffee_shop",
      "website": "https://alfred.la/",
      "phone": "+1-424-535-3145",
      "outdoor_seating": "yes",
      "addr_state": "CA",
      "addr_city": "Los Angeles",
      "addr_postcode": "90064",
      "addr_street": "West Olympic Boulevard",
      "addr_housenumber": "11301",
      "value": 95.32013944847463
    },
    {
      "id": 74140,
      "geometry": "POINT (-118.388912 34.028355)",
      "poi_name": "Equator Coffee",
      "osm_id": 9668604231,
      "amenity": "cafe",
      "cuisine": "coffee_shop",
      "value": 95.32013944847463
    },
    {
      "id": 75351,
      "geometry": "POINT (-118.495986 34.031719)",
      "poi_name": "Sam's Bagels",
      "osm_id": 9725324466,
      "amenity": "cafe",
      "value": 95.32013944847463
    },
    {
      "id": 74742,
      "geometry": "POINT (-118.491686 34.024248)",
      "poi_name": "Starbucks",
      "osm_id": 9694122484,
      "amenity": "cafe",
      "cuisine": "coffee_shop",
      "takeaway": "yes",
      "official_name": "Starbucks Coffee",
      "addr_street": "Wilshire Boulevard",
      "addr_housenumber": "1030",
      "value": 95.32013944847463
    },
    {
      "id": 75394,
      "geometry": "POINT (-118.387936 34.157287)",
      "poi_name": "Marie et Cie",
      "osm_id": 9727752547,
      "amenity": "cafe",
      "cuisine": "breakfast;coffee_shop",
      "phone": "(818) 508-5049",
      "outdoor_seating": "yes",
      "value": 95.32013944847463
    },
    {
      "id": 74519,
      "geometry": "POINT (-118.343939 34.051719)",
      "poi_name": "Starbucks",
      "osm_id": 9684100262,
      "amenity": "cafe",
      "cuisine": "coffee_shop",
      "takeaway": "yes",
      "official_name": "Starbucks Coffee",
      "outdoor_seating": "yes",
      "addr_state": "CA",
      "addr_city": "Los Angeles",
      "addr_postcode": "90019",
      "addr_street": "S La Brea Avenue",
      "addr_housenumber": "1250",
      "value": 95.32013944847463
    },
    {
      "id": 74986,
      "geometry": "POINT (-118.468976 34.076659)",
      "poi_name": "Organic Coffee and Fine Tea",
      "osm_id": 9705471775,
      "amenity": "cafe",
      "cuisine": "coffee_shop",
      "internet_access": "yes",
      "addr_state": "CA",
      "addr_city": "los angeles",
      "addr_postcode": "90049",
      "addr_street": "North Sepulveda Boulevard",
      "addr_housenumber": "651",
      "value": 95.32013944847463
    },
    {
      "id": 75880,
      "geometry": "POINT (-118.488908 34.026463)",
      "poi_name": "Boba Tea & Me",
      "osm_id": 9750530094,
      "amenity": "cafe",
      "cuisine": "bubble_tea",
      "addr_street": "Wilshire Boulevard",
      "addr_housenumber": "1328",
      "value": 95.32013944847463
    },
    {
      "id": 75885,
      "geometry": "POINT (-118.480341 34.028681)",
      "poi_name": "10 Speed Coffee",
      "osm_id": 9750613485,
      "amenity": "cafe",
      "cuisine": "coffee_shop",
      "outdoor_seating": "yes",
      "value": 95.32013944847463
    },
    {
      "id": 76899,
      "geometry": "POINT (-118.45342 34.045135)",
      "poi_name": "Emili's Pastry and Cafe",
      "osm_id": 9796057987,
      "amenity": "cafe",
      "value": 95.32013944847463
    },
    {
      "id": 76208,
      "geometry": "POINT (-118.429189 33.996738)",
      "poi_name": "Menotti's Coffee Stop",
      "osm_id": 9765149417,
      "amenity": "cafe",
      "cuisine": "coffee_shop",
      "opening_hours": "Mo-Su 07:00-14:00",
      "website": "https://menottis.com/",
      "phone": "+1 (916) 501-2472",
      "addr_postcode": "90066",
      "addr_street": "Washington Boulevard",
      "addr_housenumber": "12430",
      "value": 95.32013944847463
    },
    {
      "id": 82619,
      "geometry": "POINT (-118.374243 34.164744)",
      "poi_name": "Starbucks",
      "osm_id": 1706143203,
      "amenity": "cafe",
      "cuisine": "coffee_shop",
      "internet_access": "wlan",
      "takeaway": "yes",
      "official_name": "Starbucks Coffee",
      "addr_postcode": "91601",
      "addr_street": "Lankershim",
      "addr_housenumber": "5166 A",
      "value": 95.32013944847463
    },
    {
      "id": 77969,
      "geometry": "POINT (-118.345318 34.062477)",
      "poi_name": "Starbucks",
      "osm_id": 732741444,
      "amenity": "cafe",
      "cuisine": "coffee_shop",
      "phone": "3239392071",
      "takeaway": "yes",
      "official_name": "Starbucks Coffee",
      "addr_street": "Wilshire Boulevard",
      "addr_housenumber": "5353",
      "value": 95.32013944847463
    },
    {
      "id": 77134,
      "geometry": "POINT (-118.366992 34.221156)",
      "poi_name": "Starbucks",
      "osm_id": 9808876823,
      "amenity": "cafe",
      "cuisine": "coffee_shop",
      "takeaway": "yes",
      "official_name": "Starbucks Coffee",
      "addr_state": "CA",
      "addr_city": "Los Angeles",
      "addr_street": "Sunland Boulevard",
      "addr_housenumber": "8274",
      "value": 95.32013944847463
    },
    {
      "id": 85807,
      "geometry": "POINT (-118.399308 34.063724)",
      "poi_name": "The Coffee Bean & Tea Leaf",
      "osm_id": 1898409087,
      "amenity": "cafe",
      "cuisine": "coffee_shop",
      "takeaway": "yes",
      "value": 95.32013944847463
    },
    {
      "id": 84983,
      "geometry": "POINT (-118.329719 34.098189)",
      "poi_name": "greenwork",
      "osm_id": 1830411804,
      "amenity": "cafe",
      "value": 95.32013944847463
    },
    {
      "id": 83923,
      "geometry": "POINT (-118.371881 34.026787)",
      "poi_name": "Starbucks",
      "osm_id": 1770936966,
      "amenity": "cafe",
      "cuisine": "coffee_shop",
      "takeaway": "yes",
      "official_name": "Starbucks Coffee",
      "value": 95.32013944847463
    },
    {
      "id": 83953,
      "geometry": "POINT (-118.392844 34.027212)",
      "poi_name": "Starbucks",
      "osm_id": 1771061796,
      "amenity": "cafe",
      "cuisine": "coffee_shop",
      "takeaway": "yes",
      "official_name": "Starbucks Coffee",
      "value": 95.32013944847463
    },
    {
      "id": 87975,
      "geometry": "POINT (-118.420264 33.997709)",
      "poi_name": "Lodge Bread",
      "osm_id": 8756227260,
      "amenity": "cafe",
      "value": 95.32013944847463
    },
    {
      "id": 86799,
      "geometry": "POINT (-118.443739 34.073907)",
      "poi_name": "North Campus Shop",
      "osm_id": 1952112120,
      "amenity": "cafe",
      "wheelchair": "yes",
      "opening_hours": "Mo-Fr 10:00-16:00",
      "internet_access": "wlan",
      "value": 95.32013944847463
    },
    {
      "id": 87330,
      "geometry": "POINT (-118.44316 34.046617)",
      "poi_name": "Cat Cafe",
      "osm_id": 8707394226,
      "amenity": "cafe",
      "website": "https://www.catcafelounge.com/",
      "value": 95.32013944847463
    },
    {
      "id": 86361,
      "geometry": "POINT (-118.328919 34.191472)",
      "poi_name": "Starbucks",
      "osm_id": 1928485522,
      "amenity": "cafe",
      "cuisine": "coffee_shop",
      "takeaway": "yes",
      "official_name": "Starbucks Coffee",
      "value": 95.32013944847463
    },
    {
      "id": 86862,
      "geometry": "POINT (-118.444746 34.059414)",
      "poi_name": "Starbucks",
      "osm_id": 1955171366,
      "amenity": "cafe",
      "cuisine": "coffee_shop",
      "opening_hours": "Mo-Fr 04:30-21:30; Sa 05:00-20:30; Su 05:30-20:30",
      "phone": "+3102085505",
      "takeaway": "yes",
      "official_name": "Starbucks Coffee",
      "addr_postcode": "90024",
      "addr_street": "Westwood Boulevard",
      "addr_housenumber": "1161",
      "value": 95.32013944847463
    },
    {
      "id": 87979,
      "geometry": "POINT (-118.430145 33.997006)",
      "poi_name": "\"Le\" Coffee Shop",
      "osm_id": 8756227298,
      "amenity": "cafe",
      "cuisine": "coffee_shop",
      "value": 95.32013944847463
    },
    {
      "id": 87991,
      "geometry": "POINT (-118.442516 34.039134)",
      "poi_name": "Volcano Tea House",
      "osm_id": 8756620422,
      "amenity": "cafe",
      "cuisine": "bubble_tea",
      "opening_hours": "Mo-Su 11:00-23:00",
      "website": "https://www.volcanoteahouse2111.com/",
      "phone": "+1-310-445-5326",
      "addr_state": "CA",
      "addr_city": "Los Angeles",
      "addr_postcode": "90025",
      "addr_street": "Sawtelle Boulevard",
      "addr_housenumber": "2111",
      "value": 95.32013944847463
    },
    {
      "id": 87992,
      "geometry": "POINT (-118.44283 34.03949)",
      "poi_name": "Noble Tea",
      "osm_id": 8756620424,
      "amenity": "cafe",
      "cuisine": "bubble_tea",
      "addr_state": "CA",
      "addr_city": "Los Angeles",
      "addr_postcode": "90025",
      "addr_street": "Mississippi Avenue",
      "addr_housenumber": "11307",
      "value": 95.32013944847463
    },
    {
      "id": 88073,
      "geometry": "POINT (-118.41994 34.059307)",
      "poi_name": "Wushiland",
      "osm_id": 8759214981,
      "amenity": "cafe",
      "cuisine": "bubble_tea",
      "value": 95.32013944847463
    },
    {
      "id": 88000,
      "geometry": "POINT (-118.443252 34.040742)",
      "poi_name": "Yi Fang Tea",
      "osm_id": 8756620436,
      "amenity": "cafe",
      "cuisine": "bubble_tea",
      "takeaway": "yes",
      "value": 95.32013944847463
    },
    {
      "id": 88122,
      "geometry": "POINT (-118.44397 34.058229)",
      "poi_name": "Comoncy",
      "osm_id": 8765781543,
      "amenity": "cafe",
      "value": 95.32013944847463
    },
    {
      "id": 88003,
      "geometry": "POINT (-118.445229 34.04256)",
      "poi_name": "LA Prime Caffe",
      "osm_id": 8756620439,
      "amenity": "cafe",
      "opening_hours": "Mo-Fr 07:00-17:00; Sa,Su 08:00-17:00",
      "value": 95.32013944847463
    },
    {
      "id": 88004,
      "geometry": "POINT (-118.444981 34.042712)",
      "poi_name": "Chitchat",
      "osm_id": 8756620440,
      "amenity": "cafe",
      "cuisine": "coffee_shop",
      "outdoor_seating": "yes",
      "value": 95.32013944847463
    },
    {
      "id": 89186,
      "geometry": "POINT (-118.442815 34.056678)",
      "poi_name": "Espressoteric",
      "osm_id": 8830476553,
      "amenity": "cafe",
      "cuisine": "coffee_shop",
      "value": 95.32013944847463
    },
    {
      "id": 88936,
      "geometry": "POINT (-118.452792 34.032731)",
      "poi_name": "The Coffee Bean & Tea Leaf",
      "osm_id": 8809792872,
      "amenity": "cafe",
      "cuisine": "coffee_shop",
      "takeaway": "yes",
      "value": 95.32013944847463
    },
    {
      "id": 88938,
      "geometry": "POINT (-118.44083 34.037979)",
      "poi_name": "Sunright Tea Studio",
      "osm_id": 8809792895,
      "amenity": "cafe",
      "cuisine": "bubble_tea",
      "opening_hours": "Mo-Su 12:00-22:00",
      "website": "https://www.snrtea.com/",
      "addr_state": "CA",
      "addr_city": "Los Angeles",
      "addr_postcode": "90064",
      "addr_street": "Sawtelle Boulevard",
      "addr_housenumber": "2206",
      "value": 95.32013944847463
    },
    {
      "id": 89679,
      "geometry": "POINT (-118.44673 34.062461)",
      "poi_name": "It's Boba Time",
      "osm_id": 8855515458,
      "amenity": "cafe",
      "cuisine": "bubble_tea",
      "value": 95.32013944847463
    },
    {
      "id": 89685,
      "geometry": "POINT (-118.446582 34.059994)",
      "poi_name": "Lazy Daisy",
      "osm_id": 8855515472,
      "amenity": "cafe",
      "value": 95.32013944847463
    },
    {
      "id": 89687,
      "geometry": "POINT (-118.445698 34.059556)",
      "poi_name": "Le Pain Quotidien",
      "osm_id": 8855515484,
      "amenity": "cafe",
      "cuisine": "coffee_shop",
      "opening_hours": "Mo-Su 06:30-17:00",
      "takeaway": "yes",
      "value": 95.32013944847463
    },
    {
      "id": 89691,
      "geometry": "POINT (-118.448155 34.062918)",
      "poi_name": "Just Boba Tea House",
      "osm_id": 8855515496,
      "amenity": "cafe",
      "cuisine": "bubble_tea",
      "value": 95.32013944847463
    },
    {
      "id": 90410,
      "geometry": "POINT (-118.398915 34.06486)",
      "poi_name": "Starbucks",
      "osm_id": 1996096482,
      "amenity": "cafe",
      "cuisine": "coffee_shop",
      "takeaway": "yes",
      "official_name": "Starbucks Coffee",
      "value": 95.32013944847463
    },
    {
      "id": 91170,
      "geometry": "POINT (-118.487396 34.028487)",
      "poi_name": "Cafe zella",
      "osm_id": 2048544118,
      "amenity": "cafe",
      "opening_hours": "Mo-Fr 07:00-18:00; Sa-Su 08:00-17:00",
      "website": "http://www.cafezella.com/",
      "internet_access": "wlan",
      "phone": "+1 310 260 9479",
      "addr_state": "CA",
      "addr_city": "Santa Monica",
      "addr_postcode": "90403",
      "addr_street": "Wilshire Boulevard",
      "addr_housenumber": "1531",
      "value": 95.32013944847463
    },
    {
      "id": 92783,
      "geometry": "POINT (-118.33061 34.105077)",
      "poi_name": "Solar de Cahuenga",
      "osm_id": 2134181443,
      "amenity": "cafe",
      "cuisine": "coffee_shop",
      "opening_hours": "Mo-Su 08:00-16:00",
      "value": 95.32013944847463
    },
    {
      "id": 102042,
      "geometry": "POINT (-118.527128 34.239855)",
      "poi_name": "Freudian Sip",
      "osm_id": 6654147190,
      "amenity": "cafe",
      "value": 95.32013944847463
    },
    {
      "id": 93429,
      "geometry": "POINT (-118.341244 34.101337)",
      "poi_name": "The Coffee Bean & Tea Leaf",
      "osm_id": 2164946875,
      "amenity": "cafe",
      "cuisine": "coffee_shop",
      "website": "https://www.coffeebean.com/",
      "takeaway": "yes",
      "value": 95.32013944847463
    },
    {
      "id": 93437,
      "geometry": "POINT (-118.329709 34.101191)",
      "poi_name": "Greco's New York Pizzeria",
      "osm_id": 2165194439,
      "amenity": "cafe",
      "cuisine": "pizza",
      "opening_hours": "Mo-Fr 11:00-22:00; Sa-Su 12:00-22:00",
      "website": "http://www.californiawingscafe.info/",
      "phone": "(323) 465-2000",
      "value": 95.32013944847463
    },
    {
      "id": 93444,
      "geometry": "POINT (-118.326932 34.100806)",
      "poi_name": "Ten Forward Coffee and Tea Lounge",
      "osm_id": 2165685719,
      "amenity": "cafe",
      "opening_hours": "Mo-Fr 6:45-23:00; Sa 9:00-23:00; Su 9:00-22:00",
      "website": "http://www.10forwardcoffee.com/",
      "phone": "+1 323-871-4104",
      "value": 95.32013944847463
    },
    {
      "id": 96910,
      "geometry": "POINT (-118.452724 34.045412)",
      "poi_name": "Churros Calientes",
      "osm_id": 6450887874,
      "amenity": "cafe",
      "cuisine": "mexican",
      "opening_hours": "Tu-Su 17:00-23:30",
      "website": "http://churroscalientes.com",
      "takeaway": "yes",
      "outdoor_seating": "yes",
      "addr_postcode": "90025",
      "addr_street": "Santa Monica Boulevard",
      "addr_housenumber": "11521",
      "value": 95.32013944847463
    },
    {
      "id": 98117,
      "geometry": "POINT (-118.385337 34.081833)",
      "poi_name": "The Assembly",
      "osm_id": 6507196849,
      "amenity": "cafe",
      "cuisine": "coffee_shop",
      "website": "http://www.theassemblycafe.com",
      "phone": "+1-424-245-4954",
      "addr_state": "CA",
      "addr_city": "West Hollywood",
      "addr_postcode": "90069",
      "addr_street": "North Robertson Boulevard",
      "addr_housenumber": "634",
      "value": 95.32013944847463
    },
    {
      "id": 97083,
      "geometry": "POINT (-118.419829 34.059504)",
      "poi_name": "Blue Bottle Coffee",
      "osm_id": 6460691785,
      "amenity": "cafe",
      "cuisine": "coffee_shop",
      "opening_hours": "Mo-Su 07:00-19:00",
      "website": "https://bluebottlecoffee.com/cafes",
      "phone": "+1 510-653-3394",
      "takeaway": "yes",
      "value": 95.32013944847463
    },
    {
      "id": 102826,
      "geometry": "POINT (-118.342349 34.100802)",
      "poi_name": "Tropicana Pool & Caf\u00e9",
      "osm_id": 8460211080,
      "amenity": "cafe",
      "website": "https://www.thehollywoodroosevelt.com/pool/tropicana-pool-cafe",
      "value": 95.32013944847463
    },
    {
      "id": 104441,
      "geometry": "POINT (-118.440886 34.038044)",
      "poi_name": "Matcha Village",
      "osm_id": 8569870499,
      "amenity": "cafe",
      "cuisine": "tea;dessert",
      "addr_state": "CA",
      "addr_city": "Los Angeles",
      "addr_postcode": "90064",
      "addr_street": "Sawtelle Boulevard",
      "addr_housenumber": "2202",
      "value": 95.32013944847463
    },
    {
      "id": 102757,
      "geometry": "POINT (-118.39035 34.144482)",
      "poi_name": "Carla's Cafe",
      "osm_id": 8455747789,
      "amenity": "cafe",
      "value": 95.32013944847463
    },
    {
      "id": 103072,
      "geometry": "POINT (-118.39644 34.020874)",
      "poi_name": "Village Well Coffee",
      "osm_id": 8480409550,
      "amenity": "cafe",
      "cuisine": "coffee_shop",
      "internet_access": "wlan",
      "outdoor_seating": "yes",
      "addr_street": "Culver Boulevard",
      "addr_housenumber": "9900",
      "value": 95.32013944847463
    },
    {
      "id": 103310,
      "geometry": "POINT (-118.409721 34.017492)",
      "poi_name": "Coppelia's Bakery and Restaurant",
      "osm_id": 8495089798,
      "amenity": "cafe",
      "value": 95.32013944847463
    },
    {
      "id": 104059,
      "geometry": "POINT (-118.466894 34.053055)",
      "poi_name": "A\u00e7ai Nation",
      "osm_id": 8542665998,
      "amenity": "cafe",
      "cuisine": "a\u00e7a\u00ed",
      "value": 95.32013944847463
    },
    {
      "id": 104077,
      "geometry": "POINT (-118.396156 33.994955)",
      "poi_name": "Kings Cafe",
      "osm_id": 8543216425,
      "amenity": "cafe",
      "value": 95.32013944847463
    },
    {
      "id": 103153,
      "geometry": "POINT (-118.350281 34.195085)",
      "poi_name": "Starbucks",
      "osm_id": 8486878216,
      "amenity": "cafe",
      "cuisine": "coffee_shop",
      "wheelchair": "yes",
      "internet_access": "wlan",
      "takeaway": "yes",
      "official_name": "Starbucks Coffee",
      "outdoor_seating": "no",
      "toilets": "yes",
      "value": 95.32013944847463
    },
    {
      "id": 103160,
      "geometry": "POINT (-118.372176 34.029613)",
      "poi_name": "Blackwelder",
      "osm_id": 8487325143,
      "amenity": "cafe",
      "value": 95.32013944847463
    },
    {
      "id": 103533,
      "geometry": "POINT (-118.42775 34.001074)",
      "poi_name": "Grandview Cafe and Store",
      "osm_id": 8508057817,
      "amenity": "cafe",
      "value": 95.32013944847463
    },
    {
      "id": 103694,
      "geometry": "POINT (-118.396115 34.022281)",
      "poi_name": "Starbucks",
      "osm_id": 8519602526,
      "amenity": "cafe",
      "cuisine": "coffee_shop",
      "takeaway": "yes",
      "official_name": "Starbucks Coffee",
      "value": 95.32013944847463
    },
    {
      "id": 103696,
      "geometry": "POINT (-118.393704 34.024242)",
      "poi_name": "Philz Coffee",
      "osm_id": 8519602532,
      "amenity": "cafe",
      "cuisine": "coffee_shop",
      "takeaway": "yes",
      "value": 95.32013944847463
    },
    {
      "id": 105054,
      "geometry": "POINT (-118.406721 34.002664)",
      "poi_name": "Allegra California Cafe",
      "osm_id": 8600081897,
      "amenity": "cafe",
      "value": 95.32013944847463
    },
    {
      "id": 105020,
      "geometry": "POINT (-118.314594 34.162472)",
      "poi_name": "Starbucks",
      "osm_id": 8596722536,
      "amenity": "cafe",
      "cuisine": "coffee_shop",
      "takeaway": "yes",
      "official_name": "Starbucks Coffee",
      "value": 95.32013944847463
    },
    {
      "id": 105022,
      "geometry": "POINT (-118.430488 34.201589)",
      "poi_name": "Starbucks",
      "osm_id": 8596739227,
      "amenity": "cafe",
      "cuisine": "coffee_shop",
      "takeaway": "yes",
      "official_name": "Starbucks Coffee",
      "value": 95.32013944847463
    },
    {
      "id": 105057,
      "geometry": "POINT (-118.398444 34.009351)",
      "poi_name": "The Spot Cafe",
      "osm_id": 8600090147,
      "amenity": "cafe",
      "value": 95.32013944847463
    },
    {
      "id": 105085,
      "geometry": "POINT (-118.339634 34.170106)",
      "poi_name": "The Palm Coffee Bar",
      "osm_id": 8600503230,
      "amenity": "cafe",
      "cuisine": "coffee_shop",
      "opening_hours": "Mo-Su 08:00-17:00",
      "website": "https://www.thepalmcoffeebar.com/",
      "phone": "+18189191375",
      "outdoor_seating": "no",
      "addr_state": "CA",
      "addr_city": "Burbank",
      "addr_postcode": "91505",
      "addr_street": "West Magnolia Boulevard",
      "addr_housenumber": "2922",
      "value": 95.32013944847463
    },
    {
      "id": 105588,
      "geometry": "POINT (-118.443971 34.032277)",
      "poi_name": "Federal Coffee",
      "osm_id": 8634288869,
      "amenity": "cafe",
      "cuisine": "coffee_shop",
      "value": 95.32013944847463
    },
    {
      "id": 107763,
      "geometry": "POINT (-118.448471 34.214534)",
      "poi_name": "Starbucks",
      "osm_id": 3577490879,
      "amenity": "cafe",
      "cuisine": "coffee_shop",
      "takeaway": "yes",
      "official_name": "Starbucks Coffee",
      "value": 95.32013944847463
    },
    {
      "id": 107552,
      "geometry": "POINT (-118.414484 34.145071)",
      "poi_name": "Coffee Bean",
      "osm_id": 3567233817,
      "amenity": "cafe",
      "cuisine": "coffee_shop",
      "value": 95.32013944847463
    },
    {
      "id": 112852,
      "geometry": "POINT (-118.604521 34.190903)",
      "poi_name": "Starbucks",
      "osm_id": 3807721020,
      "amenity": "cafe",
      "cuisine": "coffee_shop",
      "takeaway": "yes",
      "official_name": "Starbucks Coffee",
      "value": 95.32013944847463
    },
    {
      "id": 112303,
      "geometry": "POINT (-118.604599 34.185857)",
      "poi_name": "The Coffee Bean & Tea Leaf",
      "osm_id": 3785833193,
      "amenity": "cafe",
      "cuisine": "coffee_shop",
      "takeaway": "yes",
      "value": 95.32013944847463
    },
    {
      "id": 110185,
      "geometry": "POINT (-118.413995 34.164544)",
      "poi_name": "Donut Inn",
      "osm_id": 3690542639,
      "amenity": "cafe",
      "cuisine": "donut",
      "value": 95.32013944847463
    },
    {
      "id": 111659,
      "geometry": "POINT (-118.32084 34.085769)",
      "poi_name": "Water Tower Market & Cafe",
      "osm_id": 3758329250,
      "amenity": "cafe",
      "value": 95.32013944847463
    },
    {
      "id": 111817,
      "geometry": "POINT (-118.361177 34.173799)",
      "poi_name": "Moby's",
      "osm_id": 3763314215,
      "amenity": "cafe",
      "internet_access": "yes",
      "value": 95.32013944847463
    },
    {
      "id": 112141,
      "geometry": "POINT (-118.3466 34.167764)",
      "poi_name": "Porto's Bakery & Cafe",
      "osm_id": 3781744981,
      "amenity": "cafe",
      "website": "https://www.portosbakery.com/",
      "addr_city": "Burbank",
      "addr_postcode": "91505",
      "addr_street": "West Magnolia Boulevard",
      "addr_housenumber": "3614",
      "value": 95.32013944847463
    },
    {
      "id": 112858,
      "geometry": "POINT (-118.603642 34.178697)",
      "poi_name": "Starbucks",
      "osm_id": 3807737614,
      "amenity": "cafe",
      "cuisine": "coffee_shop",
      "opening_hours": "Mo-Su 06:00-18:00",
      "takeaway": "yes",
      "official_name": "Starbucks Coffee",
      "outdoor_seating": "no",
      "value": 95.32013944847463
    },
    {
      "id": 113195,
      "geometry": "POINT (-118.350542 34.083739)",
      "poi_name": "Blu Jam Cafe",
      "osm_id": 3825249399,
      "amenity": "cafe",
      "value": 95.32013944847463
    },
    {
      "id": 113065,
      "geometry": "POINT (-118.601364 34.194121)",
      "poi_name": "RING Baked Tofu Donuts, Sea Salt Coffee, Matcha Tea",
      "osm_id": 3815324756,
      "amenity": "cafe",
      "cuisine": "japanese",
      "description": "Japanese Tofu Rice Donuts (Gluten Free); Matcha Tea; Coffee",
      "opening_hours": "Mo closed",
      "website": "https://ringdonuts.com/",
      "capacity": "20",
      "takeaway": "yes",
      "outdoor_seating": "patio",
      "value": 95.32013944847463
    },
    {
      "id": 112955,
      "geometry": "POINT (-118.501534 34.026783)",
      "poi_name": "Primo Passo Coffee",
      "osm_id": 3812008265,
      "amenity": "cafe",
      "internet_access": "yes",
      "outdoor_seating": "yes",
      "value": 95.32013944847463
    },
    {
      "id": 113196,
      "geometry": "POINT (-118.350986 34.083458)",
      "poi_name": "Glass Hookah Lounge",
      "osm_id": 3825249406,
      "amenity": "cafe",
      "website": "https://glasshookahlounge.com/",
      "addr_city": "Los Angeles",
      "addr_postcode": "90046",
      "addr_street": "Melrose Avenue",
      "addr_housenumber": "7384",
      "value": 95.32013944847463
    },
    {
      "id": 113276,
      "geometry": "POINT (-118.356491 34.083844)",
      "poi_name": "Yonada",
      "osm_id": 3827585044,
      "amenity": "cafe",
      "value": 95.32013944847463
    },
    {
      "id": 113197,
      "geometry": "POINT (-118.350727 34.083452)",
      "poi_name": "La Creme Cafe",
      "osm_id": 3825249413,
      "amenity": "cafe",
      "website": "http://www.lacremecafela.com/",
      "addr_city": "Los Angeles",
      "addr_postcode": "90046",
      "addr_street": "Melrose Avenue",
      "addr_housenumber": "7376",
      "value": 95.32013944847463
    },
    {
      "id": 113563,
      "geometry": "POINT (-118.605484 34.169233)",
      "poi_name": "Starbucks",
      "osm_id": 3839971772,
      "amenity": "cafe",
      "cuisine": "coffee_shop",
      "takeaway": "yes",
      "official_name": "Starbucks Coffee",
      "value": 95.32013944847463
    },
    {
      "id": 113375,
      "geometry": "POINT (-118.356181 34.083504)",
      "poi_name": "Starbucks",
      "osm_id": 3833300156,
      "amenity": "cafe",
      "cuisine": "coffee_shop",
      "takeaway": "yes",
      "official_name": "Starbucks Coffee",
      "value": 95.32013944847463
    },
    {
      "id": 113418,
      "geometry": "POINT (-118.615915 34.168604)",
      "poi_name": "Starbucks",
      "osm_id": 3834333239,
      "amenity": "cafe",
      "cuisine": "coffee_shop",
      "takeaway": "yes",
      "official_name": "Starbucks Coffee",
      "value": 95.32013944847463
    },
    {
      "id": 113421,
      "geometry": "POINT (-118.617504 34.167634)",
      "poi_name": "Doan's Desserts and Coffee",
      "osm_id": 3834333243,
      "amenity": "cafe",
      "shop": "bakery",
      "value": 95.32013944847463
    },
    {
      "id": 113597,
      "geometry": "POINT (-118.642455 34.15647)",
      "poi_name": "Coffee Bean",
      "osm_id": 3840405455,
      "amenity": "cafe",
      "value": 95.32013944847463
    },
    {
      "id": 113601,
      "geometry": "POINT (-118.603873 34.20141)",
      "poi_name": "Follow Your Heart Cafe",
      "osm_id": 3840429389,
      "amenity": "cafe",
      "description": "Oldest vegetarian restaurant in the United States.",
      "opening_hours": "08:00-21:00",
      "website": "https://followyourheart.com/follow-your-heart-market-and-cafe/",
      "shop": "grocery",
      "addr_state": "CA",
      "addr_city": "Los Angeles",
      "addr_postcode": "91303",
      "addr_street": "Sherman Way",
      "addr_housenumber": "21825",
      "value": 95.32013944847463
    },
    {
      "id": 113351,
      "geometry": "POINT (-118.603289 34.168647)",
      "poi_name": "The Coffee Bean & Tea Leaf",
      "osm_id": 3832225183,
      "amenity": "cafe",
      "cuisine": "coffee_shop",
      "takeaway": "yes",
      "value": 95.32013944847463
    },
    {
      "id": 115730,
      "geometry": "POINT (-118.434974 34.003268)",
      "poi_name": "Alana's Coffee Roasters",
      "osm_id": 8910824330,
      "amenity": "cafe",
      "cuisine": "coffee_shop",
      "opening_hours": "Mo-Su 06:30-17:00",
      "website": "https://alanascoffeeroasters.com",
      "internet_access": "wlan",
      "phone": "+1 (310) 295-0099",
      "addr_postcode": "90066",
      "addr_street": "Venice Boulevard",
      "addr_housenumber": "12511",
      "value": 95.32013944847463
    },
    {
      "id": 113847,
      "geometry": "POINT (-118.343201 34.083572)",
      "poi_name": "Hot Wings",
      "osm_id": 3849945976,
      "amenity": "cafe",
      "value": 95.32013944847463
    },
    {
      "id": 114588,
      "geometry": "POINT (-118.596896 34.175058)",
      "poi_name": "Coffee Bean",
      "osm_id": 3887073555,
      "amenity": "cafe",
      "value": 95.32013944847463
    },
    {
      "id": 113604,
      "geometry": "POINT (-118.607709 34.2012)",
      "poi_name": "Cobalt Cafe",
      "osm_id": 3840429402,
      "amenity": "cafe",
      "value": 95.32013944847463
    },
    {
      "id": 113809,
      "geometry": "POINT (-118.546989 34.172698)",
      "poi_name": "Peet's Coffee",
      "osm_id": 3847799482,
      "amenity": "cafe",
      "cuisine": "coffee_shop",
      "takeaway": "yes",
      "value": 95.32013944847463
    },
    {
      "id": 114170,
      "geometry": "POINT (-118.605384 34.185088)",
      "poi_name": "Boulon d'Amour",
      "osm_id": 3870409368,
      "amenity": "cafe",
      "value": 95.32013944847463
    },
    {
      "id": 114664,
      "geometry": "POINT (-118.645393 34.153079)",
      "poi_name": "Le Pain Quotidien",
      "osm_id": 3890744390,
      "amenity": "cafe",
      "cuisine": "coffee_shop",
      "takeaway": "yes",
      "value": 95.32013944847463
    },
    {
      "id": 114666,
      "geometry": "POINT (-118.643037 34.154994)",
      "poi_name": "Starbucks",
      "osm_id": 3890744392,
      "amenity": "cafe",
      "cuisine": "coffee_shop",
      "takeaway": "yes",
      "official_name": "Starbucks Coffee",
      "value": 95.32013944847463
    },
    {
      "id": 116518,
      "geometry": "POINT (-118.444039 34.061878)",
      "poi_name": "Ministry of Coffee",
      "osm_id": 8946030721,
      "amenity": "cafe",
      "value": 95.32013944847463
    },
    {
      "id": 116522,
      "geometry": "POINT (-118.444173 34.060324)",
      "poi_name": "Profeta",
      "osm_id": 8946030728,
      "amenity": "cafe",
      "value": 95.32013944847463
    },
    {
      "id": 116557,
      "geometry": "POINT (-118.383561 34.029684)",
      "poi_name": "Breakaway",
      "osm_id": 8947033569,
      "amenity": "cafe",
      "value": 95.32013944847463
    },
    {
      "id": 116524,
      "geometry": "POINT (-118.444534 34.059836)",
      "poi_name": "Alfred",
      "osm_id": 8946030732,
      "amenity": "cafe",
      "cuisine": "coffee_shop",
      "value": 95.32013944847463
    },
    {
      "id": 116559,
      "geometry": "POINT (-118.377762 34.03121)",
      "poi_name": "Cognoscenti",
      "osm_id": 8947033578,
      "amenity": "cafe",
      "cuisine": "coffee_shop",
      "value": 95.32013944847463
    },
    {
      "id": 117478,
      "geometry": "POINT (-118.413223 34.01548)",
      "poi_name": "Venice Bakery",
      "osm_id": 8996713088,
      "amenity": "cafe",
      "value": 95.32013944847463
    },
    {
      "id": 118321,
      "geometry": "POINT (-118.345011 34.151973)",
      "poi_name": "Priscilla's Gourmet Coffee Tea & Gifts",
      "osm_id": 9039401861,
      "amenity": "cafe",
      "value": 95.32013944847463
    },
    {
      "id": 117602,
      "geometry": "POINT (-118.41146 34.028674)",
      "poi_name": "Good Day Thai Kitchen",
      "osm_id": 9002179814,
      "amenity": "cafe",
      "cuisine": "thai",
      "outdoor_seating": "yes",
      "value": 95.32013944847463
    },
    {
      "id": 117889,
      "geometry": "POINT (-118.389621 34.059556)",
      "poi_name": "Starbucks",
      "osm_id": 9015500174,
      "amenity": "cafe",
      "cuisine": "coffee_shop",
      "takeaway": "yes",
      "official_name": "Starbucks Coffee",
      "value": 95.32013944847463
    },
    {
      "id": 117891,
      "geometry": "POINT (-118.39953 34.020642)",
      "poi_name": "The Conservatory for Coffee, Tea, and Cocoa",
      "osm_id": 9015554491,
      "amenity": "cafe",
      "cuisine": "coffee_shop",
      "opening_hours": "Mo-Fr 08:00-14:00",
      "website": "https://conservatorycoffeeandtea.com",
      "phone": "310-558-0436",
      "addr_postcode": "90232",
      "addr_street": "Washington Boulevard",
      "addr_housenumber": "10117",
      "value": 95.32013944847463
    },
    {
      "id": 118115,
      "geometry": "POINT (-118.34637 34.083641)",
      "poi_name": "Sunday Morning",
      "osm_id": 9025875521,
      "amenity": "cafe",
      "value": 95.32013944847463
    },
    {
      "id": 118517,
      "geometry": "POINT (-118.3932 34.002224)",
      "poi_name": "Starbucks",
      "osm_id": 9049248776,
      "amenity": "cafe",
      "cuisine": "coffee_shop",
      "takeaway": "yes",
      "official_name": "Starbucks Coffee",
      "value": 95.32013944847463
    },
    {
      "id": 120169,
      "geometry": "POINT (-118.421498 33.991672)",
      "poi_name": "SACHI.LA",
      "osm_id": 9143503317,
      "amenity": "cafe",
      "cuisine": "coffee_shop",
      "opening_hours": "Tu-Su 08:00-14:00",
      "website": "https://www.sachi.la",
      "phone": "(213) 785-7225",
      "addr_state": "CA",
      "addr_city": "Los Angeles",
      "addr_postcode": "90066",
      "addr_street": "South Centinela Avenue",
      "addr_housenumber": "4574",
      "value": 95.32013944847463
    },
    {
      "id": 120754,
      "geometry": "POINT (-118.396718 34.055421)",
      "poi_name": "The Coffee Bean & Tea Leaf",
      "osm_id": 6721942462,
      "amenity": "cafe",
      "cuisine": "coffee_shop",
      "takeaway": "yes",
      "value": 95.32013944847463
    },
    {
      "id": 123986,
      "geometry": "POINT (-118.592124 34.119867)",
      "poi_name": "Cafe 27",
      "osm_id": 6894119622,
      "amenity": "cafe",
      "cuisine": "sandwich;burger;breakfast;brunch",
      "opening_hours": "Tu-Fr 08:00-15:00; Sa-Su 08:00-16:00",
      "phone": "(310) 752-6241",
      "addr_state": "CA",
      "addr_city": "Topanga",
      "addr_postcode": "90290",
      "addr_street": "North Topanga Canyon Boulevard",
      "addr_housenumber": "1861",
      "value": 95.32013944847463
    },
    {
      "id": 122857,
      "geometry": "POINT (-118.414831 34.144922)",
      "poi_name": "Raw Junkies",
      "osm_id": 6821843303,
      "amenity": "cafe",
      "cuisine": "juice;smoothie;soup;wrap",
      "opening_hours": "Tu-Su 8:00-16:00",
      "phone": "+1 818-747-3641",
      "addr_state": "CA",
      "addr_city": "Studio City",
      "addr_postcode": "91604",
      "addr_street": "Ventura Boulevard",
      "addr_housenumber": "12930",
      "value": 95.32013944847463
    },
    {
      "id": 126936,
      "geometry": "POINT (-118.556574 34.240141)",
      "poi_name": "Sharetea",
      "osm_id": 8014613566,
      "amenity": "cafe",
      "cuisine": "bubble_tea",
      "takeaway": "yes",
      "value": 95.32013944847463
    },
    {
      "id": 124048,
      "geometry": "POINT (-118.35979 34.07255)",
      "poi_name": "The Coffee Bean & Tea Leaf",
      "osm_id": 6898320023,
      "amenity": "cafe",
      "cuisine": "coffee_shop",
      "website": "https://th",
      "takeaway": "yes",
      "value": 95.32013944847463
    },
    {
      "id": 124258,
      "geometry": "POINT (-118.599861 34.084045)",
      "poi_name": "Cafe Mimosa",
      "osm_id": 6907127523,
      "amenity": "cafe",
      "cuisine": "coffee;tea;breakfast;lunch;pastry",
      "opening_hours": "Mo-Sa 06:30-17:00; Su 7:30-17:00",
      "website": "http://www.cafemimosa.info/",
      "phone": "+1 (310) 455-4341",
      "addr_state": "CA",
      "addr_city": "Topanga",
      "addr_postcode": "90290",
      "addr_street": "South Topanga Canyon Boulevard",
      "addr_housenumber": "395",
      "value": 95.32013944847463
    },
    {
      "id": 125843,
      "geometry": "POINT (-118.368802 34.072678)",
      "poi_name": "toast bakery cafe",
      "osm_id": 6978588685,
      "amenity": "cafe",
      "value": 95.32013944847463
    },
    {
      "id": 126947,
      "geometry": "POINT (-118.535802 34.241748)",
      "poi_name": "Starbucks",
      "osm_id": 8014688373,
      "amenity": "cafe",
      "cuisine": "coffee_shop",
      "takeaway": "yes",
      "official_name": "Starbucks Coffee",
      "value": 95.32013944847463
    },
    {
      "id": 130147,
      "geometry": "POINT (-118.491557 34.047801)",
      "poi_name": "Starbucks",
      "osm_id": 9856668948,
      "amenity": "cafe",
      "cuisine": "coffee_shop",
      "opening_hours": "Mo-Sa 05:00-19:00; Su 05:00-17:00",
      "phone": "+1-310-260-7776",
      "takeaway": "yes",
      "official_name": "Starbucks Coffee",
      "addr_state": "CA",
      "addr_city": "Santa Monica",
      "addr_postcode": "90402",
      "addr_street": "26th Street",
      "addr_housenumber": "216",
      "value": 95.32013944847463
    },
    {
      "id": 127854,
      "geometry": "POINT (-118.336052 34.15187)",
      "poi_name": "Studio Plaza Cafe",
      "osm_id": 8098738751,
      "amenity": "cafe",
      "value": 95.32013944847463
    },
    {
      "id": 131593,
      "geometry": "POINT (-118.433416 34.004982)",
      "poi_name": "Hamadaya",
      "osm_id": 9921557779,
      "amenity": "cafe",
      "value": 95.32013944847463
    },
    {
      "id": 131235,
      "geometry": "POINT (-118.326234 34.04792)",
      "poi_name": "Its Coffee and Tea",
      "osm_id": 9906488277,
      "amenity": "cafe",
      "value": 95.32013944847463
    },
    {
      "id": 132116,
      "geometry": "POINT (-118.344852 34.060637)",
      "poi_name": "Met Her at a Bar",
      "osm_id": 9941709436,
      "amenity": "cafe",
      "value": 95.32013944847463
    },
    {
      "id": 132391,
      "geometry": "POINT (-118.380391 34.030849)",
      "poi_name": "Super Domestic",
      "osm_id": 9953188014,
      "amenity": "cafe",
      "cuisine": "coffee_shop",
      "internet_access": "wlan",
      "outdoor_seating": "yes",
      "value": 95.32013944847463
    },
    {
      "id": 132818,
      "geometry": "POINT (-118.442059 34.055404)",
      "poi_name": "Persian Gulf",
      "osm_id": 9968341263,
      "amenity": "cafe",
      "value": 95.32013944847463
    },
    {
      "id": 132822,
      "geometry": "POINT (-118.394017 34.024906)",
      "poi_name": "goodboybob",
      "osm_id": 9968370873,
      "amenity": "cafe",
      "cuisine": "coffee_shop",
      "opening_hours": "Mo 07:00-15:00; Su, Tu-Th 07:00-18:00; Fr-Sa 07:00-21:00",
      "website": "https://goodboybob.com/",
      "phone": "1 (424) 581 7046",
      "outdoor_seating": "yes",
      "addr_postcode": "90232",
      "addr_street": "Culver Boulevard",
      "addr_housenumber": "9355",
      "value": 95.32013944847463
    },
    {
      "id": 133173,
      "geometry": "POINT (-118.351166 34.062607)",
      "poi_name": "Starbucks",
      "osm_id": 9982332935,
      "amenity": "cafe",
      "cuisine": "coffee_shop",
      "takeaway": "yes",
      "official_name": "Starbucks Coffee",
      "value": 95.32013944847463
    },
    {
      "id": 133182,
      "geometry": "POINT (-118.367914 34.060571)",
      "poi_name": "Stella Coffee",
      "osm_id": 9982479964,
      "amenity": "cafe",
      "value": 95.32013944847463
    },
    {
      "id": 135042,
      "geometry": "POINT (-118.75657 34.155885)",
      "poi_name": "Starbucks",
      "osm_id": 11502100269,
      "amenity": "cafe",
      "cuisine": "coffee_shop",
      "opening_hours": "Mo-Su 05:00-20:00",
      "website": "http://starbucks.com",
      "shop": "coffee",
      "takeaway": "yes",
      "official_name": "Starbucks Coffee",
      "addr_postcode": "91301",
      "addr_street": "Kanan Road",
      "addr_housenumber": "5827",
      "value": 95.32013944847463
    },
    {
      "id": 134487,
      "geometry": "POINT (-118.462541 34.05347)",
      "poi_name": "Caffe Luxxe",
      "osm_id": 11472263945,
      "amenity": "cafe",
      "cuisine": "coffee_shop",
      "value": 95.32013944847463
    },
    {
      "id": 135089,
      "geometry": "POINT (-118.343908 34.152138)",
      "poi_name": "Unincorporated Coffee Roasters",
      "osm_id": 11504668323,
      "amenity": "cafe",
      "cuisine": "coffee_shop;pastry",
      "opening_hours": "Mo-Su 07:00-17:00",
      "website": "https://unincorporated.coffee/",
      "internet_access": "yes",
      "outdoor_seating": "yes",
      "addr_state": "ca",
      "addr_city": "Burbank",
      "addr_postcode": "91505",
      "addr_street": "Riverside Drive",
      "addr_housenumber": "4017",
      "value": 95.32013944847463
    },
    {
      "id": 133555,
      "geometry": "POINT (-118.33012 34.097777)",
      "poi_name": "Philz Coffee",
      "osm_id": 9998598105,
      "amenity": "cafe",
      "cuisine": "coffee_shop",
      "takeaway": "yes",
      "value": 95.32013944847463
    },
    {
      "id": 134519,
      "geometry": "POINT (-118.408701 34.013726)",
      "poi_name": "Cofax",
      "osm_id": 11473884924,
      "amenity": "cafe",
      "cuisine": "coffee_shop",
      "value": 95.32013944847463
    },
    {
      "id": 134963,
      "geometry": "POINT (-118.358348 34.072602)",
      "poi_name": "La La Land Kind Cafe",
      "osm_id": 11498450469,
      "amenity": "cafe",
      "website": "https://lalalandkindcafe.com/",
      "phone": "(323) 879-9132",
      "addr_postcode": "90036",
      "addr_street": "The Grove Drive",
      "addr_housenumber": "189",
      "value": 95.32013944847463
    },
    {
      "id": 135783,
      "geometry": "POINT (-118.40338 34.071619)",
      "poi_name": "Alfred Coffee",
      "osm_id": 11535809537,
      "amenity": "cafe",
      "cuisine": "coffee_shop",
      "value": 95.32013944847463
    },
    {
      "id": 135146,
      "geometry": "POINT (-118.49163 34.157679)",
      "poi_name": "Starbucks",
      "osm_id": 11506147499,
      "amenity": "cafe",
      "cuisine": "coffee_shop",
      "takeaway": "yes",
      "official_name": "Starbucks Coffee",
      "value": 95.32013944847463
    },
    {
      "id": 135552,
      "geometry": "POINT (-118.358547 34.032689)",
      "poi_name": "Tartine Bakery",
      "osm_id": 11521192132,
      "amenity": "cafe",
      "cuisine": "bakery",
      "wheelchair": "yes",
      "opening_hours": "Mo-Su 08:00-16:00",
      "website": "https://tartinebakery.com/",
      "phone": "+1 323-364-5886",
      "outdoor_seating": "yes",
      "addr_city": "Los Angeles",
      "addr_postcode": "90016",
      "addr_street": "West Adams Boulevard",
      "addr_housenumber": "5335",
      "value": 95.32013944847463
    },
    {
      "id": 138487,
      "geometry": "POINT (-118.358327 34.137273)",
      "poi_name": "Sierra Ballroom",
      "osm_id": 6152304685,
      "amenity": "cafe",
      "addr_postcode": "91608",
      "addr_street": "Universal Hollywood Drive",
      "addr_housenumber": "555",
      "value": 95.32013944847463
    },
    {
      "id": 136168,
      "geometry": "POINT (-118.317865 34.186981)",
      "poi_name": "Starbucks",
      "osm_id": 11567664412,
      "amenity": "cafe",
      "cuisine": "coffee_shop",
      "opening_hours": "Mo-Th 05:00-23:00; Fr 04:30-23:00; Sa 05:00-23:00; Su 05:30-22:30",
      "internet_access": "wlan",
      "phone": "8189539817",
      "takeaway": "yes",
      "drive_through": "yes",
      "official_name": "Starbucks Coffee",
      "addr_state": "CA",
      "addr_city": "Burbank",
      "addr_postcode": "91504",
      "addr_street": "North San Fernando Boulevard",
      "addr_housenumber": "1001",
      "value": 95.32013944847463
    },
    {
      "id": 137389,
      "geometry": "POINT (-118.476178 34.028137)",
      "poi_name": "goodboybob coffee",
      "osm_id": 6096814327,
      "amenity": "cafe",
      "cuisine": "coffee_shop",
      "opening_hours": "Mo-Su 07:00-17:00",
      "website": "https://goodboybob.com/",
      "internet_access": "wlan",
      "phone": "14245817014",
      "addr_state": "CA",
      "addr_city": "Santa Monica",
      "addr_postcode": "90404",
      "addr_street": "Broadway",
      "addr_housenumber": "2058",
      "value": 95.32013944847463
    },
    {
      "id": 137632,
      "geometry": "POINT (-118.344282 34.067165)",
      "poi_name": "Starbucks",
      "osm_id": 6108091191,
      "amenity": "cafe",
      "cuisine": "coffee_shop",
      "takeaway": "yes",
      "official_name": "Starbucks Coffee",
      "outdoor_seating": "yes",
      "addr_state": "CA",
      "addr_city": "Los Angeles",
      "addr_postcode": "90036",
      "addr_street": "South La Brea Avenue",
      "addr_housenumber": "359",
      "value": 95.32013944847463
    },
    {
      "id": 145741,
      "geometry": "POINT (-118.311305 34.098276)",
      "poi_name": "It's Boba Time",
      "osm_id": 7387297585,
      "amenity": "cafe",
      "cuisine": "bubble_tea",
      "value": 95.32013944847463
    },
    {
      "id": 143282,
      "geometry": "POINT (-118.322517 34.097429)",
      "poi_name": "Starbucks",
      "osm_id": 6334723231,
      "amenity": "cafe",
      "cuisine": "coffee_shop",
      "takeaway": "yes",
      "official_name": "Starbucks Coffee",
      "value": 95.32013944847463
    },
    {
      "id": 145313,
      "geometry": "POINT (-118.427717 34.027236)",
      "poi_name": "Starbucks",
      "osm_id": 7338313056,
      "amenity": "cafe",
      "cuisine": "coffee_shop",
      "opening_hours": "Mo-Sa 05:30-19:00; Su 06:00-18:30",
      "internet_access": "wlan",
      "takeaway": "yes",
      "official_name": "Starbucks Coffee",
      "value": 95.32013944847463
    },
    {
      "id": 145755,
      "geometry": "POINT (-118.31667 34.105526)",
      "poi_name": "Locali Hollywood",
      "osm_id": 7387609585,
      "amenity": "cafe",
      "value": 95.32013944847463
    },
    {
      "id": 145758,
      "geometry": "POINT (-118.380978 34.08673)",
      "poi_name": "Locali WeHo",
      "osm_id": 7387609685,
      "amenity": "cafe",
      "value": 95.32013944847463
    },
    {
      "id": 145766,
      "geometry": "POINT (-118.323712 34.105354)",
      "poi_name": "Clark Street Diner",
      "osm_id": 7387684686,
      "amenity": "cafe",
      "cuisine": "breakfast;bread;pastry;coffee_shop",
      "addr_state": "CA",
      "addr_city": "Los Angeles",
      "addr_postcode": "90068",
      "addr_street": "Franklin Avenue",
      "addr_housenumber": "6145",
      "value": 95.32013944847463
    },
    {
      "id": 146715,
      "geometry": "POINT (-118.343682 34.071307)",
      "poi_name": "Bluestone Lane Coffee",
      "osm_id": 7471965385,
      "amenity": "cafe",
      "value": 95.32013944847463
    },
    {
      "id": 146417,
      "geometry": "POINT (-118.361319 34.078921)",
      "poi_name": "Cofax Coffee Fairfax",
      "osm_id": 7439769485,
      "amenity": "cafe",
      "value": 95.32013944847463
    },
    {
      "id": 146716,
      "geometry": "POINT (-118.366045 34.071976)",
      "poi_name": "Bluestone Lane Coffee",
      "osm_id": 7471965585,
      "amenity": "cafe",
      "value": 95.32013944847463
    },
    {
      "id": 146972,
      "geometry": "POINT (-118.332331 34.090893)",
      "poi_name": "Eat This Cafe",
      "osm_id": 7490434686,
      "amenity": "cafe",
      "value": 95.32013944847463
    },
    {
      "id": 147171,
      "geometry": "POINT (-118.46649 34.174969)",
      "poi_name": "Starbucks",
      "osm_id": 7510039801,
      "amenity": "cafe",
      "cuisine": "coffee_shop",
      "takeaway": "yes",
      "official_name": "Starbucks Coffee",
      "value": 95.32013944847463
    },
    {
      "id": 150956,
      "geometry": "POINT (-118.394214 33.996877)",
      "poi_name": "Starbucks",
      "osm_id": 4075193955,
      "amenity": "cafe",
      "cuisine": "coffee_shop",
      "internet_access": "wlan",
      "takeaway": "yes",
      "official_name": "Starbucks Coffee",
      "value": 95.32013944847463
    },
    {
      "id": 148345,
      "geometry": "POINT (-118.602085 34.178746)",
      "poi_name": "Aroma",
      "osm_id": 3947002639,
      "amenity": "cafe",
      "cuisine": "coffee_shop",
      "takeaway": "yes",
      "value": 95.32013944847463
    },
    {
      "id": 148482,
      "geometry": "POINT (-118.623945 34.186201)",
      "poi_name": "Donuts",
      "osm_id": 3956135633,
      "amenity": "cafe",
      "cuisine": "donut",
      "value": 95.32013944847463
    },
    {
      "id": 148382,
      "geometry": "POINT (-118.39868 34.023886)",
      "poi_name": "The Coffee Bean & Tea Leaf",
      "osm_id": 3949418895,
      "amenity": "cafe",
      "cuisine": "coffee_shop",
      "takeaway": "yes",
      "drive_through": "yes",
      "value": 95.32013944847463
    },
    {
      "id": 151146,
      "geometry": "POINT (-118.405429 34.142897)",
      "poi_name": "The Coffee Bean & Tea Leaf",
      "osm_id": 4084452081,
      "amenity": "cafe",
      "cuisine": "coffee_shop",
      "internet_access": "wlan",
      "phone": "(818) 763-72711",
      "takeaway": "yes",
      "addr_state": "CA",
      "addr_city": "Studio City",
      "addr_postcode": "91604",
      "addr_street": "Ventura Boulevard",
      "addr_housenumber": "12501",
      "value": 95.32013944847463
    },
    {
      "id": 151149,
      "geometry": "POINT (-118.393724 34.142775)",
      "poi_name": "Crave Cafe",
      "osm_id": 4084455197,
      "amenity": "cafe",
      "cuisine": "american",
      "opening_hours": "24/7",
      "internet_access": "wlan",
      "value": 95.32013944847463
    },
    {
      "id": 151150,
      "geometry": "POINT (-118.375889 34.167961)",
      "poi_name": "The Coffee Bean & Tea Leaf",
      "osm_id": 4084467875,
      "amenity": "cafe",
      "cuisine": "coffee_shop",
      "internet_access": "wlan",
      "takeaway": "yes",
      "value": 95.32013944847463
    },
    {
      "id": 151255,
      "geometry": "POINT (-118.555672 34.187961)",
      "poi_name": "Rouladin",
      "osm_id": 4089377353,
      "amenity": "cafe",
      "shop": "bakery",
      "value": 95.32013944847463
    },
    {
      "id": 151257,
      "geometry": "POINT (-118.553751 34.187563)",
      "poi_name": "Starbucks",
      "osm_id": 4089377369,
      "amenity": "cafe",
      "cuisine": "coffee_shop",
      "takeaway": "yes",
      "official_name": "Starbucks Coffee",
      "value": 95.32013944847463
    },
    {
      "id": 151454,
      "geometry": "POINT (-118.510025 34.161092)",
      "poi_name": "The Coffee Bean & Tea Leaf",
      "osm_id": 4100350872,
      "amenity": "cafe",
      "cuisine": "coffee_shop",
      "takeaway": "yes",
      "addr_state": "CA",
      "addr_city": "Encino",
      "addr_postcode": "91316",
      "addr_street": "Ventura Boulevard",
      "addr_housenumber": "17301",
      "value": 95.32013944847463
    },
    {
      "id": 151457,
      "geometry": "POINT (-118.510384 34.160709)",
      "poi_name": "Starbucks",
      "osm_id": 4100376309,
      "amenity": "cafe",
      "cuisine": "coffee_shop",
      "takeaway": "yes",
      "official_name": "Starbucks Coffee",
      "addr_state": "CA",
      "addr_city": "Encino",
      "addr_postcode": "91316",
      "addr_street": "Ventura Boulevard",
      "addr_housenumber": "17308",
      "value": 95.32013944847463
    },
    {
      "id": 153182,
      "geometry": "POINT (-118.433698 34.003267)",
      "poi_name": "Starbucks",
      "osm_id": 4182142889,
      "amenity": "cafe",
      "cuisine": "coffee_shop",
      "opening_hours": "Mo-Su 05:00-20:00",
      "internet_access": "wlan",
      "phone": "+1 (310) 390-2354",
      "takeaway": "yes",
      "official_name": "Starbucks Coffee",
      "addr_postcode": "90065",
      "addr_street": "Venice Boulevard",
      "addr_housenumber": "12404",
      "value": 95.32013944847463
    },
    {
      "id": 151551,
      "geometry": "POINT (-118.593535 34.201372)",
      "poi_name": "France",
      "osm_id": 4104460145,
      "amenity": "cafe",
      "cuisine": "donut",
      "value": 95.32013944847463
    },
    {
      "id": 151834,
      "geometry": "POINT (-118.536251 34.187052)",
      "poi_name": "DC Donuts",
      "osm_id": 4114933896,
      "amenity": "cafe",
      "cuisine": "donut",
      "value": 95.32013944847463
    },
    {
      "id": 152002,
      "geometry": "POINT (-118.472749 34.017958)",
      "poi_name": "Rocco's Cheesecake",
      "osm_id": 4121804017,
      "amenity": "cafe",
      "cuisine": "dessert",
      "value": 95.32013944847463
    },
    {
      "id": 152790,
      "geometry": "POINT (-118.444579 34.058313)",
      "poi_name": "Trimana",
      "osm_id": 4160746189,
      "amenity": "cafe",
      "cuisine": "burger;italian;sandwich;grill;mexican;breakfast;american;deli;pasta;bagel",
      "opening_hours": "Mo-Fr 09:00-15:00",
      "website": "https://www.trimana.com/",
      "phone": "+1 310-208-2946",
      "addr_street": "Wilshire Boulevard",
      "addr_housenumber": "10920",
      "value": 95.32013944847463
    },
    {
      "id": 152791,
      "geometry": "POINT (-118.43923 34.07356)",
      "poi_name": "Lu Valle Eateries",
      "osm_id": 4160888490,
      "amenity": "cafe",
      "value": 95.32013944847463
    },
    {
      "id": 151512,
      "geometry": "POINT (-118.540443 34.170293)",
      "poi_name": "Starbucks",
      "osm_id": 4102956765,
      "amenity": "cafe",
      "cuisine": "coffee_shop",
      "takeaway": "yes",
      "official_name": "Starbucks Coffee",
      "addr_state": "CA",
      "addr_city": "Tarzana",
      "addr_postcode": "91356",
      "addr_street": "Ventura Boulevard",
      "addr_housenumber": "18700",
      "value": 95.32013944847463
    },
    {
      "id": 152132,
      "geometry": "POINT (-118.396818 34.171918)",
      "poi_name": "Starbucks",
      "osm_id": 4129160728,
      "amenity": "cafe",
      "cuisine": "coffee_shop",
      "internet_access": "wlan",
      "takeaway": "yes",
      "drive_through": "yes",
      "official_name": "Starbucks Coffee",
      "value": 95.32013944847463
    },
    {
      "id": 153354,
      "geometry": "POINT (-118.331199 34.101749)",
      "poi_name": "After Coffee",
      "osm_id": 4192890133,
      "amenity": "cafe",
      "value": 95.32013944847463
    },
    {
      "id": 153837,
      "geometry": "POINT (-118.423042 34.040108)",
      "poi_name": "Aroma Cafe",
      "osm_id": 4213575695,
      "amenity": "cafe",
      "cuisine": "balkan",
      "addr_housenumber": "2530",
      "value": 95.32013944847463
    },
    {
      "id": 154887,
      "geometry": "POINT (-118.36208 34.097837)",
      "poi_name": "The Griddle",
      "osm_id": 4259747294,
      "amenity": "cafe",
      "addr_state": "CA",
      "addr_city": "Los Angeles",
      "addr_postcode": "90046",
      "addr_street": "West Sunset Boulevard",
      "addr_housenumber": "7916",
      "value": 95.32013944847463
    },
    {
      "id": 154535,
      "geometry": "POINT (-118.444664 34.067184)",
      "poi_name": "Cafe Synapse",
      "osm_id": 4243330946,
      "amenity": "cafe",
      "cuisine": "coffee_shop",
      "outdoor_seating": "yes",
      "value": 95.32013944847463
    },
    {
      "id": 154288,
      "geometry": "POINT (-118.360801 34.071823)",
      "poi_name": "Starbucks",
      "osm_id": 4231137013,
      "amenity": "cafe",
      "cuisine": "coffee_shop",
      "phone": "+1 323 9659594",
      "takeaway": "yes",
      "official_name": "Starbucks Coffee",
      "value": 95.32013944847463
    },
    {
      "id": 154582,
      "geometry": "POINT (-118.605454 34.15665)",
      "poi_name": "Blinkies Donut",
      "osm_id": 4244752042,
      "amenity": "cafe",
      "cuisine": "donut",
      "value": 95.32013944847463
    },
    {
      "id": 155271,
      "geometry": "POINT (-118.462814 34.031496)",
      "poi_name": "Bluey's",
      "osm_id": 4278772246,
      "amenity": "cafe",
      "opening_hours": "Mo-Fr 07:00-16:00",
      "website": "https://blueyskitchen.com",
      "phone": "+1 310 586 7419",
      "takeaway": "yes",
      "addr_state": "CA",
      "addr_city": "Santa Monica",
      "addr_postcode": "90404",
      "addr_street": "Berkeley Street",
      "addr_housenumber": "1814",
      "value": 95.32013944847463
    },
    {
      "id": 157145,
      "geometry": "POINT (-118.361651 34.080631)",
      "poi_name": "Pearl's Finest Tea",
      "osm_id": 4689386391,
      "amenity": "cafe",
      "website": "http://pearlsfinestteas.com/menu/",
      "addr_state": "CA",
      "addr_postcode": "90048",
      "addr_street": "North Fairfax Avenue",
      "addr_housenumber": "523",
      "value": 95.32013944847463
    },
    {
      "id": 156952,
      "geometry": "POINT (-118.396451 34.074188)",
      "poi_name": "The Real Peach Pitt Cafe",
      "osm_id": 4679278389,
      "amenity": "cafe",
      "addr_postcode": "90210",
      "addr_street": "Foothill Road",
      "addr_housenumber": "331",
      "value": 95.32013944847463
    },
    {
      "id": 157046,
      "geometry": "POINT (-118.372798 34.164728)",
      "poi_name": "Eat",
      "osm_id": 4683215424,
      "amenity": "cafe",
      "description": "Cafe & patio for omelets, breakfast pastas, pancakes, sandwiches, burgers & chilaquiles.",
      "opening_hours": "Mo-Su 08:00-16:00",
      "website": "https://eatnoho.com/",
      "phone": "+1 818-760-4787",
      "addr_street": "W Magnolia Blvd",
      "addr_housenumber": "11108",
      "value": 95.32013944847463
    },
    {
      "id": 157281,
      "geometry": "POINT (-118.30941 34.181)",
      "poi_name": "Granville",
      "osm_id": 4698376376,
      "amenity": "cafe",
      "description": "Upscale cafe serving American comfort food sourced from local & sustainable ingredients.",
      "opening_hours": "Mo-Th 11:00-22:00; Fr 11:00-23:00; Sa 09:00-23:00; Su 09:00-22:00",
      "website": "http://www.granvillecafe.com/home",
      "phone": "+1 818-848-4726",
      "addr_street": "N San Fernando Blvd",
      "addr_housenumber": "121",
      "value": 95.32013944847463
    },
    {
      "id": 157506,
      "geometry": "POINT (-118.351455 34.152403)",
      "poi_name": "The Coffee Bean & Tea Leaf",
      "osm_id": 4711222950,
      "amenity": "cafe",
      "cuisine": "coffee_shop",
      "opening_hours": "Mo-Fr 05:00-21:00; Sa, Su 06:00-20:00",
      "website": "https://www.coffeebean.com/",
      "phone": "+1-818-763-4815",
      "takeaway": "yes",
      "addr_state": "CA",
      "addr_city": "Toluca Lake",
      "addr_postcode": "91602",
      "addr_street": "Riverside Drive",
      "addr_housenumber": "10121",
      "value": 95.32013944847463
    },
    {
      "id": 157425,
      "geometry": "POINT (-118.383619 34.073103)",
      "poi_name": "Le Pain Quotidien",
      "osm_id": 4708595790,
      "amenity": "cafe",
      "cuisine": "coffee_shop",
      "shop": "bakery",
      "takeaway": "yes",
      "value": 95.32013944847463
    },
    {
      "id": 157508,
      "geometry": "POINT (-118.351242 34.152376)",
      "poi_name": "Kreation Organic",
      "osm_id": 4711222953,
      "amenity": "cafe",
      "cuisine": "juice",
      "opening_hours": "Mo-Su 07:00-19:00",
      "website": "https://www.kreationjuice.com/",
      "phone": "+1-818-761-1348",
      "takeaway": "yes",
      "addr_state": "CA",
      "addr_city": "Toluca Lake",
      "addr_postcode": "91602",
      "addr_street": "Riverside Drive",
      "addr_housenumber": "10115",
      "value": 95.32013944847463
    },
    {
      "id": 158113,
      "geometry": "POINT (-118.359415 34.072454)",
      "poi_name": "Marmalade Cafe",
      "osm_id": 4735441171,
      "amenity": "cafe",
      "value": 95.32013944847463
    },
    {
      "id": 157851,
      "geometry": "POINT (-118.465181 34.053484)",
      "poi_name": "The Coffee Bean & Tea Leaf",
      "osm_id": 4727204318,
      "amenity": "cafe",
      "cuisine": "coffee_shop",
      "opening_hours": "Su-Sa 10:00-22:00",
      "internet_access": "wlan",
      "takeaway": "yes",
      "outdoor_seating": "yes",
      "addr_state": "CA",
      "addr_city": "Los Angeles",
      "addr_postcode": "90049",
      "addr_street": "West San Vicente Boulevard",
      "addr_housenumber": "11698",
      "value": 95.32013944847463
    },
    {
      "id": 157969,
      "geometry": "POINT (-118.353905 34.062675)",
      "poi_name": "Starbucks",
      "osm_id": 4730598229,
      "amenity": "cafe",
      "cuisine": "coffee_shop",
      "opening_hours": "Mo-Fr 05:00-20:00; Sa 05:30-19:00; Su 06:00-19:00",
      "takeaway": "yes",
      "official_name": "Starbucks Coffee",
      "value": 95.32013944847463
    },
    {
      "id": 158114,
      "geometry": "POINT (-118.351903 34.062618)",
      "poi_name": "Black Dog Coffee",
      "osm_id": 4735441172,
      "amenity": "cafe",
      "value": 95.32013944847463
    },
    {
      "id": 158665,
      "geometry": "POINT (-118.352927 34.136465)",
      "poi_name": "Starbucks",
      "osm_id": 4757165419,
      "amenity": "cafe",
      "cuisine": "coffee_shop",
      "takeaway": "yes",
      "official_name": "Starbucks Coffee",
      "value": 95.32013944847463
    },
    {
      "id": 158398,
      "geometry": "POINT (-118.339991 34.149158)",
      "poi_name": "Central Perk",
      "osm_id": 4746080790,
      "amenity": "cafe",
      "cuisine": "coffee_shop",
      "value": 95.32013944847463
    },
    {
      "id": 158696,
      "geometry": "POINT (-118.327094 34.101462)",
      "poi_name": "The Pie Hole",
      "osm_id": 4758419766,
      "amenity": "cafe",
      "wheelchair": "no",
      "opening_hours": "Mo-Fr 08:00-23:00; Sa-Su 09:00-23:00; PH closed",
      "operator": "The Pie Hole",
      "internet_access": "wlan",
      "takeaway": "yes",
      "toilets": "yes",
      "value": 95.32013944847463
    },
    {
      "id": 162491,
      "geometry": "POINT (-118.399338 34.072761)",
      "poi_name": "Kelly's Coffee & Fudge Factory",
      "osm_id": 4933342783,
      "amenity": "cafe",
      "cuisine": "coffee_shop;sandwich",
      "outdoor_seating": "yes",
      "value": 95.32013944847463
    },
    {
      "id": 158655,
      "geometry": "POINT (-118.356778 34.14074)",
      "poi_name": "Starbucks",
      "osm_id": 4757127043,
      "amenity": "cafe",
      "cuisine": "coffee_shop",
      "takeaway": "yes",
      "official_name": "Starbucks Coffee",
      "value": 95.32013944847463
    },
    {
      "id": 160349,
      "geometry": "POINT (-118.340371 34.102474)",
      "poi_name": "Chado Tea Room",
      "osm_id": 4831582021,
      "amenity": "cafe",
      "cuisine": "tea",
      "website": "https://www.chadotea.com/",
      "phone": "323 472 8111",
      "addr_postcode": "90002",
      "addr_street": "Hollywood Boulevard",
      "addr_housenumber": "1738",
      "value": 95.32013944847463
    },
    {
      "id": 161851,
      "geometry": "POINT (-118.405579 34.069936)",
      "poi_name": "Panini Cafe",
      "osm_id": 4903112330,
      "amenity": "cafe",
      "value": 95.32013944847463
    },
    {
      "id": 161964,
      "geometry": "POINT (-118.603569 34.089512)",
      "poi_name": "Waterlily",
      "osm_id": 4908436462,
      "amenity": "cafe",
      "value": 95.32013944847463
    },
    {
      "id": 161857,
      "geometry": "POINT (-118.381412 34.087)",
      "poi_name": "The Coffee Bean & Tea Leaf",
      "osm_id": 4903114325,
      "amenity": "cafe",
      "cuisine": "coffee_shop",
      "opening_hours": "Mo-Th 06:00-21:00; Fr-Sa 06:00-22:00; Su 19:00-22:00",
      "website": "https://www.coffeebean.com/store/usa/west-hollywood/west-hollywood",
      "internet_access": "wlan",
      "phone": "+1-310-659-8207",
      "takeaway": "yes",
      "addr_state": "CA",
      "addr_city": "West Hollywood",
      "addr_postcode": "90069",
      "addr_street": "Santa Monica Boulevard",
      "addr_housenumber": "8735",
      "value": 95.32013944847463
    },
    {
      "id": 165635,
      "geometry": "POINT (-118.393748 34.024313)",
      "poi_name": "Pop's Bagels",
      "osm_id": 9547911623,
      "amenity": "cafe",
      "cuisine": "bagel",
      "value": 95.32013944847463
    },
    {
      "id": 163044,
      "geometry": "POINT (-118.386957 34.004442)",
      "poi_name": "The Cafe @ WLAC",
      "osm_id": 9397565922,
      "amenity": "cafe",
      "value": 95.32013944847463
    },
    {
      "id": 164216,
      "geometry": "POINT (-118.442489 34.064707)",
      "poi_name": "Revive Cafe",
      "osm_id": 9456308408,
      "amenity": "cafe",
      "value": 95.32013944847463
    },
    {
      "id": 164777,
      "geometry": "POINT (-118.338406 34.090916)",
      "poi_name": "Trejo's Coffee and Donuts",
      "osm_id": 9500000255,
      "amenity": "cafe",
      "cuisine": "coffee_shop",
      "value": 95.32013944847463
    },
    {
      "id": 165314,
      "geometry": "POINT (-118.417975 34.058338)",
      "poi_name": "Redstraw",
      "osm_id": 9526135786,
      "amenity": "cafe",
      "cuisine": "bubble_tea",
      "value": 95.32013944847463
    },
    {
      "id": 165315,
      "geometry": "POINT (-118.41783 34.058203)",
      "poi_name": "Cafe Landwer",
      "osm_id": 9526135787,
      "amenity": "cafe",
      "value": 95.32013944847463
    },
    {
      "id": 163443,
      "geometry": "POINT (-118.394935 34.022999)",
      "poi_name": "Wise Sons Jewish Delicatessen",
      "osm_id": 9419358844,
      "amenity": "cafe",
      "cuisine": "sandwich",
      "website": "https://www.wisesonsdeli.com",
      "phone": "+1 424 298 8205",
      "addr_street": "Washington Boulevard",
      "addr_housenumber": "9552",
      "value": 95.32013944847463
    },
    {
      "id": 164384,
      "geometry": "POINT (-118.3644 34.050901)",
      "poi_name": "Paper or Plastik Cafe",
      "osm_id": 9469220217,
      "amenity": "cafe",
      "addr_street": "West Pico Boulevard",
      "addr_housenumber": "5772",
      "value": 95.32013944847463
    },
    {
      "id": 165579,
      "geometry": "POINT (-118.552897 34.234304)",
      "poi_name": "Tea N Tea",
      "osm_id": 9544096942,
      "amenity": "cafe",
      "cuisine": "bubble_tea",
      "phone": "+1 818 929 0988",
      "outdoor_seating": "no",
      "addr_state": "CA",
      "addr_city": "Northridge",
      "addr_postcode": "91324",
      "addr_street": "Tampa Avenue",
      "addr_housenumber": "9074",
      "value": 95.32013944847463
    },
    {
      "id": 165580,
      "geometry": "POINT (-118.552529 34.234049)",
      "poi_name": "85\u00b0C",
      "osm_id": 9544096943,
      "amenity": "cafe",
      "cuisine": "coffee_shop;chinese",
      "website": "https://www.85cbakerycafe.com/",
      "shop": "bakery",
      "phone": "+1 818 576 9885",
      "takeaway": "yes",
      "addr_state": "CA",
      "addr_city": "Northridge",
      "addr_postcode": "91324",
      "addr_street": "Tampa Avenue",
      "addr_housenumber": "9046",
      "value": 95.32013944847463
    },
    {
      "id": 166435,
      "geometry": "POINT (-118.376059 34.04606)",
      "poi_name": "Starbucks",
      "osm_id": 9592778056,
      "amenity": "cafe",
      "cuisine": "coffee_shop",
      "takeaway": "yes",
      "official_name": "Starbucks Coffee",
      "value": 95.32013944847463
    },
    {
      "id": 165866,
      "geometry": "POINT (-118.444975 34.048084)",
      "poi_name": "C+M",
      "osm_id": 9559516342,
      "amenity": "cafe",
      "cuisine": "coffee_shop",
      "value": 95.32013944847463
    },
    {
      "id": 165870,
      "geometry": "POINT (-118.451039 34.045955)",
      "poi_name": "Starbucks",
      "osm_id": 9559516379,
      "amenity": "cafe",
      "cuisine": "coffee_shop",
      "takeaway": "yes",
      "official_name": "Starbucks Coffee",
      "value": 95.32013944847463
    },
    {
      "id": 170229,
      "geometry": "POINT (-118.491221 34.048284)",
      "poi_name": "Blue Bottle Coffee",
      "osm_id": 2329493333,
      "amenity": "cafe",
      "cuisine": "coffee_shop",
      "opening_hours": "Mo-Su 06:00-16:00",
      "takeaway": "yes",
      "value": 95.32013944847463
    },
    {
      "id": 167296,
      "geometry": "POINT (-118.31524 34.25998)",
      "poi_name": "Backdoor Bakery",
      "osm_id": 353942124,
      "amenity": "cafe",
      "value": 95.32013944847463
    },
    {
      "id": 170230,
      "geometry": "POINT (-118.491081 34.048312)",
      "poi_name": "Le Pain Quotidien",
      "osm_id": 2329493334,
      "amenity": "cafe",
      "cuisine": "coffee_shop",
      "takeaway": "yes",
      "value": 95.32013944847463
    },
    {
      "id": 171166,
      "geometry": "POINT (-118.446738 34.060281)",
      "poi_name": "Elysee",
      "osm_id": 2363521780,
      "amenity": "cafe",
      "website": "http://www.elyseebakery.com/",
      "addr_postcode": "90024",
      "addr_street": "Gayley Avenue",
      "addr_housenumber": "1099",
      "value": 95.32013944847463
    },
    {
      "id": 171079,
      "geometry": "POINT (-118.446453 34.061464)",
      "poi_name": "Sharetea",
      "osm_id": 2359467065,
      "amenity": "cafe",
      "cuisine": "bubble_tea",
      "takeaway": "yes",
      "addr_postcode": "90024",
      "addr_street": "Broxton Avenue",
      "addr_housenumber": "1055",
      "value": 95.32013944847463
    },
    {
      "id": 171576,
      "geometry": "POINT (-118.444967 34.062717)",
      "poi_name": "Bluestone Lane",
      "osm_id": 2379629473,
      "amenity": "cafe",
      "opening_hours": "Mo-Fr 06:30-15:30; Sa,Su 06:30-15:00",
      "addr_state": "CA",
      "addr_city": "Los Angeles",
      "addr_postcode": "90024",
      "addr_street": "Westwood Boulevard",
      "addr_housenumber": "950",
      "value": 95.32013944847463
    },
    {
      "id": 171464,
      "geometry": "POINT (-118.315068 34.185822)",
      "poi_name": "Corner Bakery",
      "osm_id": 2375736609,
      "amenity": "cafe",
      "cuisine": "coffee_shop",
      "takeaway": "yes",
      "value": 95.32013944847463
    },
    {
      "id": 175674,
      "geometry": "POINT (-118.552488 34.23357)",
      "poi_name": "Barclay's Coffee and Tea",
      "osm_id": 2531687813,
      "amenity": "cafe",
      "value": 95.32013944847463
    },
    {
      "id": 171645,
      "geometry": "POINT (-118.365371 34.051137)",
      "poi_name": "Paper or Plastik Cafe",
      "osm_id": 2382244880,
      "amenity": "cafe",
      "cuisine": "sandwich",
      "website": "https://www.paperorplastikcafe.com/",
      "internet_access": "wlan",
      "value": 95.32013944847463
    },
    {
      "id": 172300,
      "geometry": "POINT (-118.444093 34.070511)",
      "poi_name": "Lollicup",
      "osm_id": 2399881192,
      "amenity": "cafe",
      "cuisine": "bubble_tea",
      "value": 95.32013944847463
    },
    {
      "id": 173983,
      "geometry": "POINT (-118.467636 34.011854)",
      "poi_name": "Thyme Cafe",
      "osm_id": 2461998176,
      "amenity": "cafe",
      "cuisine": "american",
      "internet_access": "no",
      "value": 95.32013944847463
    },
    {
      "id": 171565,
      "geometry": "POINT (-118.344373 34.168925)",
      "poi_name": "Romancing the Bean",
      "osm_id": 2378691825,
      "amenity": "cafe",
      "cuisine": "coffee_shop",
      "description": "Family owned cafe serving breakfast, lunch and coffee.",
      "opening_hours": "Mo-Sa 07:00-19:00; Su 08:00-18:00",
      "website": "https://www.romancingthebeancafe.com/",
      "shop": "coffee",
      "phone": "+1-818-845-2326",
      "addr_state": "CA",
      "addr_city": "Burbank",
      "addr_postcode": "91505",
      "addr_street": "West Magnolia Boulevard",
      "addr_housenumber": "3413",
      "value": 95.32013944847463
    },
    {
      "id": 174525,
      "geometry": "POINT (-118.336853 34.105349)",
      "poi_name": "Starbucks",
      "osm_id": 2487341963,
      "amenity": "cafe",
      "cuisine": "coffee_shop",
      "takeaway": "yes",
      "official_name": "Starbucks Coffee",
      "addr_state": "CA",
      "addr_city": "Los Angeles",
      "addr_street": "Highland Avenue",
      "addr_housenumber": "1900",
      "value": 95.32013944847463
    },
    {
      "id": 178607,
      "geometry": "POINT (-118.474007 34.077108)",
      "poi_name": "Museum Courtyrd Coffee Cart",
      "osm_id": 10731924858,
      "amenity": "cafe",
      "outdoor_seating": "yes",
      "value": 95.32013944847463
    },
    {
      "id": 178633,
      "geometry": "POINT (-118.30758 34.181643)",
      "poi_name": "Broken Egg Cafe",
      "osm_id": 10733388714,
      "amenity": "cafe",
      "addr_street": "East Olive Avenue",
      "value": 95.32013944847463
    },
    {
      "id": 178740,
      "geometry": "POINT (-118.418791 34.057769)",
      "poi_name": "The Coffee Bean & Tea Leaf",
      "osm_id": 10738084068,
      "amenity": "cafe",
      "cuisine": "coffee_shop",
      "takeaway": "yes",
      "value": 95.32013944847463
    },
    {
      "id": 179801,
      "geometry": "POINT (-118.447526 34.063512)",
      "poi_name": "Upside Down",
      "osm_id": 10778795089,
      "amenity": "cafe",
      "cuisine": "coffee_shop",
      "value": 95.32013944847463
    },
    {
      "id": 178905,
      "geometry": "POINT (-118.475301 34.032737)",
      "poi_name": "Starbucks",
      "osm_id": 10742652245,
      "amenity": "cafe",
      "cuisine": "coffee_shop",
      "takeaway": "yes",
      "official_name": "Starbucks Coffee",
      "value": 95.32013944847463
    },
    {
      "id": 180274,
      "geometry": "POINT (-118.420324 34.011906)",
      "poi_name": "Kind Grounds",
      "osm_id": 10797302596,
      "amenity": "cafe",
      "cuisine": "coffee_shop",
      "value": 95.32013944847463
    },
    {
      "id": 180096,
      "geometry": "POINT (-118.467009 34.020629)",
      "poi_name": "Lo/Cal Coffee",
      "osm_id": 10790742922,
      "amenity": "cafe",
      "cuisine": "coffee_shop",
      "value": 95.32013944847463
    },
    {
      "id": 180102,
      "geometry": "POINT (-118.474868 34.027318)",
      "poi_name": "Starbucks",
      "osm_id": 10790742940,
      "amenity": "cafe",
      "cuisine": "coffee_shop",
      "takeaway": "yes",
      "official_name": "Starbucks Coffee",
      "value": 95.32013944847463
    },
    {
      "id": 181490,
      "geometry": "POINT (-118.471139 34.01781)",
      "poi_name": "The Coffee Spot",
      "osm_id": 10853295621,
      "amenity": "cafe",
      "cuisine": "coffee_shop",
      "value": 95.32013944847463
    },
    {
      "id": 180732,
      "geometry": "POINT (-118.3467 34.17607)",
      "poi_name": "Coral Cafe",
      "osm_id": 10815607007,
      "amenity": "cafe",
      "cuisine": "american;bagel;burger;coffee_shop;diner;pancake;pizza",
      "value": 95.32013944847463
    },
    {
      "id": 183239,
      "geometry": "POINT (-118.448395 34.033546)",
      "poi_name": "Motoring Coffee",
      "osm_id": 10919986339,
      "amenity": "cafe",
      "cuisine": "coffee_shop",
      "opening_hours": "Mo-Su 07:00-16:00",
      "value": 95.32013944847463
    },
    {
      "id": 183314,
      "geometry": "POINT (-118.468048 34.011623)",
      "poi_name": "Layla Bagels",
      "osm_id": 10924950147,
      "amenity": "cafe",
      "cuisine": "bagel",
      "value": 95.32013944847463
    },
    {
      "id": 183344,
      "geometry": "POINT (-118.435086 33.996608)",
      "poi_name": "The Boy & The Bear - Coffee Roastery",
      "osm_id": 10925637205,
      "amenity": "cafe",
      "cuisine": "coffee_shop",
      "opening_hours": "Mo-Su 07:00-16:00",
      "website": "https://theboyandthebear.com/pages/store/the-grey-store",
      "internet_access": "wlan",
      "addr_postcode": "90066",
      "addr_street": "Washington Boulevard",
      "addr_housenumber": "12712",
      "value": 95.32013944847463
    },
    {
      "id": 183355,
      "geometry": "POINT (-118.495949 34.021412)",
      "poi_name": "Sidecar Doughnuts & Coffee",
      "osm_id": 10925656205,
      "amenity": "cafe",
      "value": 95.32013944847463
    },
    {
      "id": 182640,
      "geometry": "POINT (-118.414183 33.999076)",
      "poi_name": "Coffee Commissary",
      "osm_id": 10897791807,
      "amenity": "cafe",
      "cuisine": "coffee_shop",
      "value": 95.32013944847463
    },
    {
      "id": 187692,
      "geometry": "POINT (-118.323384 34.073692)",
      "poi_name": "Peet's Coffee",
      "osm_id": 1098290641,
      "amenity": "cafe",
      "cuisine": "coffee_shop",
      "takeaway": "yes",
      "value": 95.32013944847463
    },
    {
      "id": 186317,
      "geometry": "POINT (-118.397517 34.020517)",
      "poi_name": "Go Get Em Tiger",
      "osm_id": 7925897491,
      "amenity": "cafe",
      "opening_hours": "Mo-Su 07:00-16:00",
      "website": "https://gget.com",
      "takeaway": "only",
      "addr_state": "CA",
      "addr_city": "Culver City",
      "addr_postcode": "90232",
      "addr_street": "West Washington Boulevard",
      "addr_housenumber": "10000",
      "value": 95.32013944847463
    },
    {
      "id": 187375,
      "geometry": "POINT (-118.479159 34.026578)",
      "poi_name": "Cafe Lovi",
      "osm_id": 1060439328,
      "amenity": "cafe",
      "value": 95.32013944847463
    },
    {
      "id": 187612,
      "geometry": "POINT (-118.477578 34.027871)",
      "poi_name": "Uppers Cafe",
      "osm_id": 1084058035,
      "amenity": "cafe",
      "value": 95.32013944847463
    },
    {
      "id": 187698,
      "geometry": "POINT (-118.323408 34.074999)",
      "poi_name": "Starbucks",
      "osm_id": 1098375972,
      "amenity": "cafe",
      "cuisine": "coffee_shop",
      "takeaway": "yes",
      "official_name": "Starbucks Coffee",
      "value": 95.32013944847463
    },
    {
      "id": 187705,
      "geometry": "POINT (-118.32338 34.074537)",
      "poi_name": "Sam's Bagels",
      "osm_id": 1098391736,
      "amenity": "cafe",
      "value": 95.32013944847463
    },
    {
      "id": 187707,
      "geometry": "POINT (-118.323907 34.074166)",
      "poi_name": "The Coffee Bean & Tea Leaf",
      "osm_id": 1098396788,
      "amenity": "cafe",
      "cuisine": "coffee_shop",
      "takeaway": "yes",
      "value": 95.32013944847463
    },
    {
      "id": 187708,
      "geometry": "POINT (-118.326964 34.084352)",
      "poi_name": "Starbucks",
      "osm_id": 1098404823,
      "amenity": "cafe",
      "cuisine": "coffee_shop",
      "takeaway": "yes",
      "official_name": "Starbucks Coffee",
      "value": 95.32013944847463
    },
    {
      "id": 193426,
      "geometry": "POINT (-118.599236 34.18778)",
      "poi_name": "Starbucks",
      "osm_id": 1537567635,
      "amenity": "cafe",
      "cuisine": "coffee_shop",
      "internet_access": "yes",
      "takeaway": "yes",
      "official_name": "Starbucks Coffee",
      "outdoor_seating": "yes",
      "addr_street": "Victory Boulevard",
      "addr_housenumber": "21504",
      "value": 95.32013944847463
    },
    {
      "id": 192089,
      "geometry": "POINT (-118.400978 34.031073)",
      "poi_name": "Starbucks",
      "osm_id": 1419803138,
      "amenity": "cafe",
      "cuisine": "coffee_shop",
      "internet_access": "wlan",
      "takeaway": "yes",
      "official_name": "Starbucks Coffee",
      "value": 95.32013944847463
    },
    {
      "id": 193235,
      "geometry": "POINT (-118.624229 34.186752)",
      "poi_name": "Starbucks",
      "osm_id": 1513006667,
      "amenity": "cafe",
      "cuisine": "coffee_shop",
      "takeaway": "yes",
      "official_name": "Starbucks Coffee",
      "value": 95.32013944847463
    },
    {
      "id": 189426,
      "geometry": "POINT (-118.450311 34.072565)",
      "poi_name": "Bruin Cafe",
      "osm_id": 1233313357,
      "amenity": "cafe",
      "wheelchair": "yes",
      "value": 95.32013944847463
    },
    {
      "id": 189429,
      "geometry": "POINT (-118.443022 34.069229)",
      "poi_name": "Seasnet Cafe",
      "osm_id": 1233313372,
      "amenity": "cafe",
      "wheelchair": "yes",
      "value": 95.32013944847463
    },
    {
      "id": 194492,
      "geometry": "POINT (-118.329769 34.101811)",
      "poi_name": "Intelligentsia Cafe",
      "osm_id": 10276477688,
      "amenity": "cafe",
      "value": 95.32013944847463
    },
    {
      "id": 193836,
      "geometry": "POINT (-118.442348 34.07443)",
      "poi_name": "Northern Lights",
      "osm_id": 1564024398,
      "amenity": "cafe",
      "cuisine": "coffee_shop",
      "value": 95.32013944847463
    },
    {
      "id": 193837,
      "geometry": "POINT (-118.440938 34.075962)",
      "poi_name": "Untitled Caf\u00e9",
      "osm_id": 1564031080,
      "amenity": "cafe",
      "cuisine": "coffee",
      "website": "http://legacy.asucla.ucla.edu/restaurants/hours.asp",
      "internet_access": "wlan",
      "phone": "+13102060720",
      "value": 95.32013944847463
    },
    {
      "id": 193838,
      "geometry": "POINT (-118.441283 34.07485)",
      "poi_name": "Cafe 451",
      "osm_id": 1564041926,
      "amenity": "cafe",
      "cuisine": "coffee_shop",
      "internet_access": "wlan",
      "outdoor_seating": "no",
      "value": 95.32013944847463
    },
    {
      "id": 193839,
      "geometry": "POINT (-118.439435 34.073709)",
      "poi_name": "Jimmy's Coffee House",
      "osm_id": 1564058356,
      "amenity": "cafe",
      "cuisine": "coffee_shop",
      "internet_access": "wlan",
      "value": 95.32013944847463
    },
    {
      "id": 193841,
      "geometry": "POINT (-118.443967 34.070187)",
      "poi_name": "Bruin Buzz",
      "osm_id": 1564094000,
      "amenity": "cafe",
      "cuisine": "coffee_shop",
      "value": 95.32013944847463
    },
    {
      "id": 194435,
      "geometry": "POINT (-118.343572 34.06241)",
      "poi_name": "Boba Tea Shuffle",
      "osm_id": 10272313156,
      "amenity": "cafe",
      "value": 95.32013944847463
    },
    {
      "id": 196684,
      "geometry": "POINT (-118.455393 34.019308)",
      "poi_name": "Blossom and Friends",
      "osm_id": 10592457255,
      "amenity": "cafe",
      "value": 95.32013944847463
    },
    {
      "id": 195210,
      "geometry": "POINT (-118.418997 34.060077)",
      "poi_name": "La Terazza",
      "osm_id": 10297575875,
      "amenity": "cafe",
      "cuisine": "coffee_shop",
      "outdoor_seating": "yes",
      "value": 95.32013944847463
    },
    {
      "id": 195211,
      "geometry": "POINT (-118.418831 34.059539)",
      "poi_name": "Cha Cha Matcha",
      "osm_id": 10297575877,
      "amenity": "cafe",
      "value": 95.32013944847463
    },
    {
      "id": 194753,
      "geometry": "POINT (-118.482121 34.030118)",
      "poi_name": "Tartine Santa Monica",
      "osm_id": 10282971628,
      "amenity": "cafe",
      "description": "Bakery and Caf\u00e9",
      "opening_hours": "Mo-Su 08:00-16:00",
      "website": "https://tartinebakery.com/los-angeles/santa-monica",
      "phone": "+1-424-238-8125",
      "addr_street": "Arizona Avenue",
      "addr_housenumber": "1925",
      "value": 95.32013944847463
    },
    {
      "id": 195332,
      "geometry": "POINT (-118.404025 34.068351)",
      "poi_name": "Brighton Coffee Shop",
      "osm_id": 10301547753,
      "amenity": "cafe",
      "cuisine": "coffee_shop",
      "value": 95.32013944847463
    },
    {
      "id": 195702,
      "geometry": "POINT (-118.645263 34.15317)",
      "poi_name": "Barns & Noble Starbucks",
      "osm_id": 10315806134,
      "amenity": "cafe",
      "cuisine": "coffee_shop",
      "value": 95.32013944847463
    },
    {
      "id": 195908,
      "geometry": "POINT (-118.473109 34.030088)",
      "poi_name": "Elabrew Coffee",
      "osm_id": 10553101383,
      "amenity": "cafe",
      "cuisine": "coffee_shop",
      "value": 95.32013944847463
    },
    {
      "id": 195911,
      "geometry": "POINT (-118.444034 34.041184)",
      "poi_name": "10 Speed Coffee",
      "osm_id": 10553190201,
      "amenity": "cafe",
      "cuisine": "coffee_shop",
      "value": 95.32013944847463
    },
    {
      "id": 196423,
      "geometry": "POINT (-118.441275 34.000093)",
      "poi_name": "Bluey's",
      "osm_id": 10577430612,
      "amenity": "cafe",
      "value": 95.32013944847463
    },
    {
      "id": 196685,
      "geometry": "POINT (-118.465834 34.013239)",
      "poi_name": "Cafe Bolivar",
      "osm_id": 10592457263,
      "amenity": "cafe",
      "value": 95.32013944847463
    },
    {
      "id": 196687,
      "geometry": "POINT (-118.465863 34.012886)",
      "poi_name": "Love Coffee",
      "osm_id": 10592457268,
      "amenity": "cafe",
      "cuisine": "coffee_shop",
      "value": 95.32013944847463
    },
    {
      "id": 196933,
      "geometry": "POINT (-118.429397 34.039897)",
      "poi_name": "Jennifer Pennifer Bakes",
      "osm_id": 10604596444,
      "amenity": "cafe",
      "value": 95.32013944847463
    },
    {
      "id": 197244,
      "geometry": "POINT (-118.468473 34.032641)",
      "poi_name": "Cafe Ruisseau",
      "osm_id": 10623318177,
      "amenity": "cafe",
      "value": 95.32013944847463
    },
    {
      "id": 198120,
      "geometry": "POINT (-118.473859 34.033915)",
      "poi_name": "Lokl Haus",
      "osm_id": 10689289776,
      "amenity": "cafe",
      "value": 95.32013944847463
    },
    {
      "id": 197713,
      "geometry": "POINT (-118.471115 34.052309)",
      "poi_name": "Pop's Bagels",
      "osm_id": 10671449453,
      "amenity": "cafe",
      "cuisine": "bagel",
      "value": 95.32013944847463
    },
    {
      "id": 197714,
      "geometry": "POINT (-118.470663 34.05239)",
      "poi_name": "Alfred",
      "osm_id": 10671449454,
      "amenity": "cafe",
      "value": 95.32013944847463
    },
    {
      "id": 198147,
      "geometry": "POINT (-118.343685 34.168571)",
      "poi_name": "Black Elephant Coffee",
      "osm_id": 10689939805,
      "amenity": "cafe",
      "cuisine": "coffee_shop;sandwich",
      "opening_hours": "Mo-Fr 07:30-17:00; Sa-Su 08:00-17:00",
      "website": "https://blackelephantcoffee.com/",
      "phone": "8183946831",
      "addr_postcode": "91505",
      "addr_street": "North Lima Street",
      "addr_housenumber": "940",
      "value": 95.32013944847463
    },
    {
      "id": 198121,
      "geometry": "POINT (-118.470279 34.036333)",
      "poi_name": "Please Enjoy",
      "osm_id": 10689289791,
      "amenity": "cafe",
      "cuisine": "coffee_shop",
      "value": 95.32013944847463
    },
    {
      "id": 204009,
      "geometry": "POINT (-118.388461 34.141388)",
      "poi_name": "firefly",
      "osm_id": 7110711885,
      "amenity": "cafe",
      "value": 95.32013944847463
    },
    {
      "id": 199345,
      "geometry": "POINT (-118.394537 34.142839)",
      "poi_name": "The Coffee Bean",
      "osm_id": 957101362,
      "amenity": "cafe",
      "value": 95.32013944847463
    },
    {
      "id": 200344,
      "geometry": "POINT (-118.3111 34.098277)",
      "poi_name": "Starbucks",
      "osm_id": 1036344074,
      "amenity": "cafe",
      "cuisine": "coffee_shop",
      "takeaway": "yes",
      "official_name": "Starbucks Coffee",
      "value": 95.32013944847463
    },
    {
      "id": 200347,
      "geometry": "POINT (-118.30616 34.098306)",
      "poi_name": "Windsor Donuts",
      "osm_id": 1036344156,
      "amenity": "cafe",
      "value": 95.32013944847463
    },
    {
      "id": 200563,
      "geometry": "POINT (-118.413222 34.157839)",
      "poi_name": "Hugo's",
      "osm_id": 595747755,
      "amenity": "cafe",
      "cuisine": "american",
      "opening_hours": "Mo-Su 08:00-21:00",
      "website": "https://www.hugosrestaurant.com/",
      "phone": "(818) 761-8985",
      "addr_state": "CA",
      "addr_city": "Studio City",
      "addr_postcode": "91607",
      "addr_street": "Riverside Drive",
      "addr_housenumber": "12851",
      "value": 95.32013944847463
    },
    {
      "id": 201904,
      "geometry": "POINT (-118.336273 34.102095)",
      "poi_name": "Cafe Audrey",
      "osm_id": 664153976,
      "amenity": "cafe",
      "value": 95.32013944847463
    },
    {
      "id": 202107,
      "geometry": "POINT (-118.33827 34.101729)",
      "poi_name": "Snow White Cafe",
      "osm_id": 679520105,
      "amenity": "cafe",
      "opening_hours": "Su-Th 12:00-24:00, Fr,Sa 12:00-02:00",
      "value": 95.32013944847463
    },
    {
      "id": 198452,
      "geometry": "POINT (-118.555975 34.238643)",
      "poi_name": "Starbucks",
      "osm_id": 10706370429,
      "amenity": "cafe",
      "cuisine": "coffee_shop",
      "takeaway": "yes",
      "official_name": "Starbucks Coffee",
      "value": 95.32013944847463
    },
    {
      "id": 200253,
      "geometry": "POINT (-118.410153 34.066818)",
      "poi_name": "Starbucks",
      "osm_id": 1028915996,
      "amenity": "cafe",
      "cuisine": "coffee_shop",
      "takeaway": "yes",
      "official_name": "Starbucks Coffee",
      "value": 95.32013944847463
    },
    {
      "id": 200259,
      "geometry": "POINT (-118.378846 34.082072)",
      "poi_name": "Urth Caff\u00e9 - \rMelrose",
      "osm_id": 1028939687,
      "amenity": "cafe",
      "opening_hours": "Mo-Th, Su 06:00-23:00; Fr, Sa 06:00-00:00",
      "website": "https://www.urthcaffe.com/",
      "phone": "+1-310-659-0628",
      "addr_state": "CA",
      "addr_city": "Los Angeles",
      "addr_street": "Melrose Ave.",
      "addr_housenumber": "8565",
      "value": 95.32013944847463
    },
    {
      "id": 200261,
      "geometry": "POINT (-118.406409 34.0678)",
      "poi_name": "Modigliani Cafe",
      "osm_id": 1028939699,
      "amenity": "cafe",
      "value": 95.32013944847463
    },
    {
      "id": 200398,
      "geometry": "POINT (-118.350886 34.070046)",
      "poi_name": "The Coffee Bean & Tea Leaf",
      "osm_id": 1040764267,
      "amenity": "cafe",
      "cuisine": "coffee_shop",
      "takeaway": "yes",
      "outdoor_seating": "yes",
      "addr_state": "CA",
      "addr_city": "Los Angeles",
      "addr_postcode": "90036",
      "addr_street": "West 3rd Street",
      "addr_housenumber": "5979",
      "value": 95.32013944847463
    },
    {
      "id": 202035,
      "geometry": "POINT (-118.447393 34.062487)",
      "poi_name": "Starbucks",
      "osm_id": 672908896,
      "amenity": "cafe",
      "cuisine": "coffee_shop",
      "wheelchair": "limited",
      "takeaway": "yes",
      "official_name": "Starbucks Coffee",
      "value": 95.32013944847463
    },
    {
      "id": 202191,
      "geometry": "POINT (-118.486351 34.029112)",
      "poi_name": "Bagel Nosh",
      "osm_id": 688280156,
      "amenity": "cafe",
      "cuisine": "bagel",
      "opening_hours": "Mo-Fr 06:30-14:30; Sa-Su 07:30-15:00",
      "website": "https://www.bagelnoshdeli.com/",
      "value": 95.32013944847463
    },
    {
      "id": 203524,
      "geometry": "POINT (-118.352884 34.09063)",
      "poi_name": "breakfast by salt\u2019s cure",
      "osm_id": 7090436187,
      "amenity": "cafe",
      "value": 95.32013944847463
    },
    {
      "id": 206941,
      "geometry": "POINT (-118.383818 34.065805)",
      "poi_name": "Lazy Daisy",
      "osm_id": 7234311185,
      "amenity": "cafe",
      "addr_street": "South Robertson Boulevard",
      "addr_housenumber": "155",
      "value": 95.32013944847463
    },
    {
      "id": 205919,
      "geometry": "POINT (-118.532318 34.167504)",
      "poi_name": "Vips",
      "osm_id": 7188811490,
      "amenity": "cafe",
      "value": 95.32013944847463
    },
    {
      "id": 206838,
      "geometry": "POINT (-118.442857 34.033322)",
      "poi_name": "Top Tier Treats",
      "osm_id": 7229098287,
      "amenity": "cafe",
      "opening_hours": "Mo-Fr 07:00-19:00; Sa 08:30-18:00; Su 08:30-13:30",
      "website": "https://toptiertreats.com",
      "shop": "pastry",
      "phone": "+1-310-358-1971",
      "outdoor_seating": "sidewalk",
      "addr_street": "West Pico Boulevard",
      "addr_housenumber": "11511",
      "value": 95.32013944847463
    },
    {
      "id": 207005,
      "geometry": "POINT (-118.409435 34.027294)",
      "poi_name": "Coffee Commissary",
      "osm_id": 7235851498,
      "amenity": "cafe",
      "cuisine": "coffee_shop",
      "opening_hours": "Mo-Su 07:00-18:00",
      "website": "https://coffeecommissary.com",
      "internet_access": "wlan",
      "phone": "1-323-782-1465",
      "outdoor_seating": "yes",
      "addr_postcode": "90034",
      "addr_street": "Motor Avenue",
      "addr_housenumber": "3417",
      "value": 95.32013944847463
    },
    {
      "id": 207009,
      "geometry": "POINT (-118.399767 34.022216)",
      "poi_name": "The Grain Cafe",
      "osm_id": 7235876212,
      "amenity": "cafe",
      "cuisine": "breakfast;mexican;health_food",
      "opening_hours": "Mo-Th 06:00-22:00; Fr-Sa 06:00-23:00; Su 07:00-22:00",
      "phone": "+1-310-876-0180",
      "outdoor_seating": "yes",
      "addr_city": "Culver City",
      "addr_postcode": "90232",
      "addr_street": "Venice Boulevard",
      "addr_housenumber": "10032",
      "value": 95.32013944847463
    },
    {
      "id": 207014,
      "geometry": "POINT (-118.394447 34.02437)",
      "poi_name": "Latea",
      "osm_id": 7235897962,
      "amenity": "cafe",
      "cuisine": "bubble_tea",
      "opening_hours": "Su-Th 12:00-21:00; Fr,Sa 12:00-23:00",
      "addr_street": "Main Street",
      "addr_housenumber": "3851",
      "value": 95.32013944847463
    },
    {
      "id": 204931,
      "geometry": "POINT (-118.376383 34.063576)",
      "poi_name": "Starbucks",
      "osm_id": 7150714185,
      "amenity": "cafe",
      "cuisine": "coffee_shop",
      "takeaway": "yes",
      "official_name": "Starbucks Coffee",
      "value": 95.32013944847463
    },
    {
      "id": 206550,
      "geometry": "POINT (-118.390562 34.059813)",
      "poi_name": "Tarte Tatin",
      "osm_id": 7214788827,
      "amenity": "cafe",
      "opening_hours": "Mo-Th 08:00-17:00; Fr-Su 08:00-16:00",
      "outdoor_seating": "yes",
      "addr_street": "West Olympic Boulevard",
      "addr_housenumber": "9123",
      "value": 95.32013944847463
    },
    {
      "id": 207063,
      "geometry": "POINT (-118.448966 34.034872)",
      "poi_name": "Starbucks",
      "osm_id": 7237259551,
      "amenity": "cafe",
      "cuisine": "coffee_shop",
      "takeaway": "yes",
      "official_name": "Starbucks Coffee",
      "value": 95.32013944847463
    },
    {
      "id": 209511,
      "geometry": "POINT (-118.337176 34.048553)",
      "poi_name": "Starbucks",
      "osm_id": 5041640921,
      "amenity": "cafe",
      "cuisine": "coffee_shop",
      "takeaway": "yes",
      "official_name": "Starbucks Coffee",
      "value": 95.32013944847463
    },
    {
      "id": 207311,
      "geometry": "POINT (-118.387491 34.059069)",
      "poi_name": "La Provence Patisserie & Cafe",
      "osm_id": 7248550479,
      "amenity": "cafe",
      "website": "https://laprovencecafe.com/",
      "shop": "pastry",
      "phone": "+1-310-888-8833",
      "addr_city": "Beverly Hills",
      "addr_postcode": "90211",
      "addr_street": "West Olympic Boulevard",
      "addr_housenumber": "8950",
      "value": 95.32013944847463
    },
    {
      "id": 209573,
      "geometry": "POINT (-118.445595 34.062195)",
      "poi_name": "Corner Bakery",
      "osm_id": 5044912221,
      "amenity": "cafe",
      "cuisine": "coffee_shop",
      "opening_hours": "Mo-Fr 07:00-21:00; Sa-Su 08:00-21:00",
      "takeaway": "yes",
      "addr_postcode": "90024",
      "addr_street": "Westwood Boulevard",
      "addr_housenumber": "1019",
      "value": 95.32013944847463
    },
    {
      "id": 210288,
      "geometry": "POINT (-118.63478 34.157882)",
      "poi_name": "Starbucks",
      "osm_id": 5092543669,
      "amenity": "cafe",
      "cuisine": "coffee_shop",
      "takeaway": "yes",
      "official_name": "Starbucks Coffee",
      "value": 95.32013944847463
    },
    {
      "id": 210197,
      "geometry": "POINT (-118.440549 34.070278)",
      "poi_name": "Evelyn & Mo Ostin Music Cafe",
      "osm_id": 5084473749,
      "amenity": "cafe",
      "opening_hours": "Mo-Fr 07:00-19:00",
      "value": 95.32013944847463
    },
    {
      "id": 210199,
      "geometry": "POINT (-118.442346 34.068389)",
      "poi_name": "Southern Lights",
      "osm_id": 5084652623,
      "amenity": "cafe",
      "value": 95.32013944847463
    },
    {
      "id": 210501,
      "geometry": "POINT (-118.360808 34.076277)",
      "poi_name": "Bagel Broker",
      "osm_id": 5106744324,
      "amenity": "cafe",
      "website": "https://www.bagelbroker.com/",
      "phone": "+13239311258",
      "outdoor_seating": "yes",
      "value": 95.32013944847463
    },
    {
      "id": 210390,
      "geometry": "POINT (-118.435704 34.048798)",
      "poi_name": "Peet's Coffee",
      "osm_id": 5101879201,
      "amenity": "cafe",
      "cuisine": "coffee_shop",
      "opening_hours": "Th-Fr 6:30-15:45, Sa-We 5:30-17:15",
      "website": "https://www.peets.com/",
      "phone": "+1-310-954-8558",
      "takeaway": "yes",
      "addr_state": "CA",
      "addr_city": "Los Angeles",
      "addr_postcode": "90025",
      "addr_street": "Westwood Boulevard",
      "addr_housenumber": "1854",
      "value": 95.32013944847463
    },
    {
      "id": 210392,
      "geometry": "POINT (-118.443909 34.062706)",
      "poi_name": "Starbucks",
      "osm_id": 5101935188,
      "amenity": "cafe",
      "cuisine": "coffee_shop",
      "takeaway": "yes",
      "official_name": "Starbucks Coffee",
      "value": 95.32013944847463
    },
    {
      "id": 210393,
      "geometry": "POINT (-118.443976 34.063477)",
      "poi_name": "Starbucks",
      "osm_id": 5101935605,
      "amenity": "cafe",
      "cuisine": "coffee_shop",
      "takeaway": "yes",
      "official_name": "Starbucks Coffee",
      "value": 95.32013944847463
    },
    {
      "id": 210394,
      "geometry": "POINT (-118.438507 34.070234)",
      "poi_name": "The Coffee Bean & Tea Leaf",
      "osm_id": 5101961542,
      "amenity": "cafe",
      "cuisine": "coffee_shop",
      "takeaway": "yes",
      "value": 95.32013944847463
    },
    {
      "id": 210378,
      "geometry": "POINT (-118.45442 34.044687)",
      "poi_name": "Good People",
      "osm_id": 5101066695,
      "amenity": "cafe",
      "cuisine": "coffee_shop",
      "outdoor_seating": "yes",
      "value": 95.32013944847463
    },
    {
      "id": 211128,
      "geometry": "POINT (-118.336761 34.152311)",
      "poi_name": "Starbucks",
      "osm_id": 5141860623,
      "amenity": "cafe",
      "cuisine": "coffee_shop",
      "takeaway": "yes",
      "official_name": "Starbucks Coffee",
      "value": 95.32013944847463
    },
    {
      "id": 210880,
      "geometry": "POINT (-118.383248 34.09103)",
      "poi_name": "The Coffee Bean & Tea Leaf",
      "osm_id": 5126042960,
      "amenity": "cafe",
      "cuisine": "coffee_shop",
      "opening_hours": "Mo-Th 05:30-23:00; Fr 05:30-00:00, Sa 06:00-00:00, Su 06:00-23:00",
      "website": "https://www.coffeebean.com/store/usa/west-hollywood/sunset-and-horn",
      "internet_access": "yes",
      "phone": "+1-310-659-4592",
      "takeaway": "yes",
      "addr_state": "CA",
      "addr_city": "West Hollywood",
      "addr_postcode": "90069",
      "addr_street": "West Sunset Boulevard",
      "addr_housenumber": "8789",
      "value": 95.32013944847463
    },
    {
      "id": 211212,
      "geometry": "POINT (-118.37846 34.093446)",
      "poi_name": "Iceyo",
      "osm_id": 5145895690,
      "amenity": "cafe",
      "cuisine": "smoothie",
      "opening_hours": "Mo-Su 11:00-21:45",
      "website": "https://www.ice-yo.com/",
      "phone": "+1-310-734-7271",
      "addr_state": "CA",
      "addr_city": "West Hollywood",
      "addr_postcode": "90069",
      "addr_street": "West Sunset Boulevard",
      "addr_housenumber": "8555",
      "value": 95.32013944847463
    },
    {
      "id": 210563,
      "geometry": "POINT (-118.360588 34.07644)",
      "poi_name": "Copy Fair  Cafe",
      "osm_id": 5109476723,
      "amenity": "cafe",
      "value": 95.32013944847463
    },
    {
      "id": 210740,
      "geometry": "POINT (-118.390069 34.090774)",
      "poi_name": "Gravi\u00e9",
      "osm_id": 5117796555,
      "amenity": "cafe",
      "opening_hours": "Mo-Fr 07:00-18:00; Sa 09:00-16:00",
      "website": "http://www.gravitecafe.la",
      "phone": "+1-310-247-1112",
      "addr_state": "CA",
      "addr_city": "West Hollywood",
      "addr_postcode": "90069",
      "addr_street": "West Sunset Boulevard",
      "addr_housenumber": "9107",
      "value": 95.32013944847463
    },
    {
      "id": 211129,
      "geometry": "POINT (-118.343597 34.152096)",
      "poi_name": "Simple Things",
      "osm_id": 5141868825,
      "amenity": "cafe",
      "value": 95.32013944847463
    },
    {
      "id": 212047,
      "geometry": "POINT (-118.447628 34.062354)",
      "poi_name": "Junbi",
      "osm_id": 5185164673,
      "amenity": "cafe",
      "cuisine": "bubble_tea",
      "value": 95.32013944847463
    },
    {
      "id": 211548,
      "geometry": "POINT (-118.361655 34.071942)",
      "poi_name": "Peet's Coffee",
      "osm_id": 5162444631,
      "amenity": "cafe",
      "cuisine": "coffee_shop",
      "takeaway": "yes",
      "value": 95.32013944847463
    },
    {
      "id": 212080,
      "geometry": "POINT (-118.348501 34.075997)",
      "poi_name": "Milk",
      "osm_id": 5189003123,
      "amenity": "cafe",
      "addr_street": "7290 Beverly Blvd",
      "value": 95.32013944847463
    },
    {
      "id": 212052,
      "geometry": "POINT (-118.447211 34.063)",
      "poi_name": "Mon Amour Cafe",
      "osm_id": 5185164678,
      "amenity": "cafe",
      "cuisine": "crepe",
      "value": 95.32013944847463
    },
    {
      "id": 212452,
      "geometry": "POINT (-118.384329 34.084419)",
      "poi_name": "Kreation Organic Juicery",
      "osm_id": 5207270076,
      "amenity": "cafe",
      "cuisine": "juice",
      "opening_hours": "Su-We 07:00-19:00; Th 07:00-23:00; Fr,Sa 07:00-02:00",
      "website": "http://kreationorganic.com",
      "phone": "+1-310-299-8638",
      "addr_state": "CA",
      "addr_city": "West Hollywood",
      "addr_postcode": "90069",
      "addr_street": "Santa Monica Boulevard",
      "addr_housenumber": "8910",
      "value": 95.32013944847463
    },
    {
      "id": 212456,
      "geometry": "POINT (-118.385444 34.084297)",
      "poi_name": "Cafe D'Etoile",
      "osm_id": 5207270098,
      "amenity": "cafe",
      "cuisine": "pizza",
      "opening_hours": "Mo-Th 11:00-22:30; Fr 11:00-23:30; Sa 10:00-23:30; Su 10:00-22:30",
      "website": "https://www.cafedetoile.net",
      "phone": "+1-310-278-1011",
      "addr_state": "CA",
      "addr_city": "West Hollywood",
      "addr_postcode": "90069",
      "addr_street": "Santa Monica Boulevard",
      "addr_housenumber": "8941",
      "value": 95.32013944847463
    },
    {
      "id": 213358,
      "geometry": "POINT (-118.383542 34.076957)",
      "poi_name": "Starbucks",
      "osm_id": 5247087889,
      "amenity": "cafe",
      "cuisine": "coffee_shop",
      "opening_hours": "Mo-Fr 04:30-22:00; Sa,Su 05:00-22:00",
      "website": "https://www.starbucks.com/store-locator/store/15639/beverly-robertson-164-n-robertson-west-hollywood-ca-900483109-us",
      "phone": "+1-310-659-7370",
      "takeaway": "yes",
      "official_name": "Starbucks Coffee",
      "outdoor_seating": "yes",
      "addr_state": "CA",
      "addr_city": "West Hollywood",
      "addr_postcode": "90069",
      "addr_street": "North Robertson Boulevard",
      "addr_housenumber": "164",
      "value": 95.32013944847463
    },
    {
      "id": 212401,
      "geometry": "POINT (-118.385852 34.084145)",
      "poi_name": "Starbucks",
      "osm_id": 5206110756,
      "amenity": "cafe",
      "cuisine": "coffee_shop",
      "opening_hours": "Mo-Su 06:00-21:00",
      "website": "https://www.starbucks.com/store-locator/store/9991/vons-west-hollywood-2739-8969-santa-monica-blvd-west-hollywood-ca-900694934",
      "internet_access": "no",
      "phone": "+1-310-595-1737",
      "takeaway": "yes",
      "official_name": "Starbucks Coffee",
      "outdoor_seating": "yes",
      "addr_state": "CA",
      "addr_city": "West Hollywood",
      "addr_postcode": "90069",
      "addr_street": "North Robertson Boulevard",
      "addr_housenumber": "8969",
      "value": 95.32013944847463
    },
    {
      "id": 212402,
      "geometry": "POINT (-118.386552 34.083534)",
      "poi_name": "Starbucks",
      "osm_id": 5206110781,
      "amenity": "cafe",
      "cuisine": "coffee_shop",
      "opening_hours": "Su-Th 05:00-21:30; Fr,Sa 05:00-23:00",
      "website": "https://www.starbucks.com/store-locator/store/9991/vons-west-hollywood-2739-8969-santa-monica-blvd-west-hollywood-ca-900694934",
      "internet_access": "wlan",
      "phone": "+1-858-472-9420",
      "takeaway": "yes",
      "official_name": "Starbucks Coffee",
      "outdoor_seating": "yes",
      "addr_state": "CA",
      "addr_city": "West Hollywood",
      "addr_postcode": "90069",
      "addr_street": "Santa Monica Boulevard",
      "addr_housenumber": "8951",
      "value": 95.32013944847463
    },
    {
      "id": 213318,
      "geometry": "POINT (-118.38032 34.087026)",
      "poi_name": "Pressed Juicery",
      "osm_id": 5246349710,
      "amenity": "cafe",
      "cuisine": "juice",
      "opening_hours": "Mo-Fr 07:00-21:00; Sa-Su 08:00-20:00",
      "website": "https://www.pressedjuicery.com",
      "phone": "+1-310-854-4407",
      "addr_state": "CA",
      "addr_city": "West Hollywood",
      "addr_postcode": "90069",
      "addr_street": "Santa Monica Boulevard",
      "addr_housenumber": "8714",
      "value": 95.32013944847463
    },
    {
      "id": 213319,
      "geometry": "POINT (-118.379924 34.087296)",
      "poi_name": "Demitasse",
      "osm_id": 5246349714,
      "amenity": "cafe",
      "opening_hours": "Mo-Su 07:00-17:00",
      "website": "https://cafedemitasse.com/west-hollywood/",
      "phone": "+1-818-452-3520",
      "outdoor_seating": "yes",
      "addr_state": "CA",
      "addr_city": "West Hollywood",
      "addr_postcode": "90069",
      "addr_street": "Santa Monica Boulevard",
      "addr_housenumber": "8700",
      "value": 95.32013944847463
    },
    {
      "id": 214858,
      "geometry": "POINT (-118.399299 34.070316)",
      "poi_name": "Tutto Bene",
      "osm_id": 5282412701,
      "amenity": "cafe",
      "value": 95.32013944847463
    },
    {
      "id": 220794,
      "geometry": "POINT (-118.389184 34.036056)",
      "poi_name": "Eyes Peeled",
      "osm_id": 9386609587,
      "amenity": "cafe",
      "opening_hours": "We-Mo 07:00-14:00",
      "internet_access": "wlan",
      "addr_postcode": "90034",
      "addr_street": "South Robertson Boulevard",
      "addr_housenumber": "2839",
      "value": 95.32013944847463
    },
    {
      "id": 215120,
      "geometry": "POINT (-118.418723 34.0596)",
      "poi_name": "La Colombe Coffee Roasters",
      "osm_id": 5287806627,
      "amenity": "cafe",
      "cuisine": "coffee_shop",
      "takeaway": "yes",
      "addr_postcode": "90067",
      "addr_street": "Santa Monica Boulevard",
      "addr_housenumber": "10250",
      "value": 95.32013944847463
    },
    {
      "id": 216199,
      "geometry": "POINT (-118.44406 34.040896)",
      "poi_name": "Teaspoon",
      "osm_id": 9161232116,
      "amenity": "cafe",
      "opening_hours": "Mo-Su 11:00-23:00",
      "value": 95.32013944847463
    },
    {
      "id": 217015,
      "geometry": "POINT (-118.437792 33.995645)",
      "poi_name": "R\u00f6ckenwagner",
      "osm_id": 9198640993,
      "amenity": "cafe",
      "value": 95.32013944847463
    },
    {
      "id": 219489,
      "geometry": "POINT (-118.394513 33.98511)",
      "poi_name": "Starbucks",
      "osm_id": 9333531965,
      "amenity": "cafe",
      "cuisine": "coffee_shop",
      "takeaway": "yes",
      "official_name": "Starbucks Coffee",
      "value": 95.32013944847463
    },
    {
      "id": 220634,
      "geometry": "POINT (-118.378106 34.075688)",
      "poi_name": "OneZo Tapioca",
      "osm_id": 9380681917,
      "amenity": "cafe",
      "cuisine": "bubble_tea",
      "takeaway": "yes",
      "value": 95.32013944847463
    },
    {
      "id": 215290,
      "geometry": "POINT (-118.441895 34.038038)",
      "poi_name": "Odd One Out Tea",
      "osm_id": 5294488109,
      "amenity": "cafe",
      "cuisine": "bubble_tea",
      "opening_hours": "Mo-Th 13:00-22:00; Fr-Su 12:00-22:00",
      "website": "https://www.oootea.world/us",
      "phone": "+1-213-778-8633",
      "addr_state": "CA",
      "addr_city": "Los Angeles",
      "addr_postcode": "90064",
      "addr_street": "West Olympic Boulevard",
      "addr_housenumber": "11301",
      "value": 95.32013944847463
    },
    {
      "id": 218022,
      "geometry": "POINT (-118.32505 34.103849)",
      "poi_name": "Jane Q",
      "osm_id": 9254165515,
      "amenity": "cafe",
      "value": 95.32013944847463
    },
    {
      "id": 219036,
      "geometry": "POINT (-118.421608 34.150548)",
      "poi_name": "M Street Coffee",
      "osm_id": 9313359699,
      "amenity": "cafe",
      "cuisine": "coffee_shop",
      "opening_hours": "Mo-Fr 07:00-17:00; Sa-Su 08:00-17:00",
      "website": "https://mstreetcoffee.com/",
      "internet_access": "wlan",
      "phone": "+1-818-907-1400",
      "outdoor_seating": "yes",
      "addr_state": "CA",
      "addr_city": "Sherman Oaks",
      "addr_postcode": "91423",
      "addr_street": "Moorpark Street",
      "addr_housenumber": "13251",
      "value": 95.32013944847463
    },
    {
      "id": 224817,
      "geometry": "POINT (-118.452534 34.020973)",
      "poi_name": "The OP Cafe",
      "osm_id": 11100041434,
      "amenity": "cafe",
      "value": 95.32013944847463
    },
    {
      "id": 221216,
      "geometry": "POINT (-118.438651 34.010107)",
      "poi_name": "Love Coffee Bar",
      "osm_id": 10969604350,
      "amenity": "cafe",
      "cuisine": "coffee_shop",
      "value": 95.32013944847463
    },
    {
      "id": 221656,
      "geometry": "POINT (-118.485436 34.024097)",
      "poi_name": "Coffee Commissary",
      "osm_id": 10983247100,
      "amenity": "cafe",
      "cuisine": "coffee_shop",
      "value": 95.32013944847463
    },
    {
      "id": 228387,
      "geometry": "POINT (-118.454847 34.044505)",
      "poi_name": "Cafe 50's",
      "osm_id": 4340833492,
      "amenity": "cafe",
      "cuisine": "american",
      "opening_hours": "Mo-Su 08:00-00:00",
      "website": "http://cafe50s.menu",
      "phone": "+1 310-479-1955",
      "outdoor_seating": "yes",
      "value": 95.32013944847463
    },
    {
      "id": 225445,
      "geometry": "POINT (-118.449188 34.195035)",
      "poi_name": "Starbucks",
      "osm_id": 11126800457,
      "amenity": "cafe",
      "cuisine": "coffee_shop",
      "takeaway": "yes",
      "official_name": "Starbucks Coffee",
      "value": 95.32013944847463
    },
    {
      "id": 226452,
      "geometry": "POINT (-118.362351 34.083662)",
      "poi_name": "Crumbs & Whiskers",
      "osm_id": 11160747598,
      "amenity": "cafe",
      "website": "https://crumbsandwhiskers.com/",
      "addr_state": "CA",
      "addr_city": "Los Angeles",
      "addr_postcode": "90046",
      "addr_street": "Melrose Avenue",
      "addr_housenumber": "7924",
      "value": 95.32013944847463
    },
    {
      "id": 231400,
      "geometry": "POINT (-118.361714 34.091007)",
      "poi_name": "Starbucks",
      "osm_id": 4467210089,
      "amenity": "cafe",
      "cuisine": "coffee_shop",
      "opening_hours": "Mo-Th 04:30-20:30; Fr 04:30-21:00; Sa 05:30-21:00; Su 05:30-20:30",
      "website": "https://www.starbucks.com/store-locator/store/15200/santa-monica-fairfax-7901-santa-monica-blvd-santa-monica-fairfax-west-h",
      "internet_access": "wlan",
      "phone": "+1-323-822-9733",
      "takeaway": "yes",
      "official_name": "Starbucks Coffee",
      "outdoor_seating": "yes",
      "addr_state": "CA",
      "addr_city": "West Hollywood",
      "addr_postcode": "90046",
      "addr_street": "Santa Monica Boulevard",
      "addr_housenumber": "7901",
      "value": 95.32013944847463
    },
    {
      "id": 228470,
      "geometry": "POINT (-118.454751 34.019735)",
      "poi_name": "Starbucks",
      "osm_id": 4344950946,
      "amenity": "cafe",
      "cuisine": "coffee_shop",
      "opening_hours": "05:00-20:00",
      "internet_access": "wlan",
      "takeaway": "yes",
      "official_name": "Starbucks Coffee",
      "addr_state": "CA",
      "addr_city": "Santa Monica",
      "addr_postcode": "90405",
      "addr_street": "Ocean Park Boulevard",
      "addr_housenumber": "2901",
      "value": 95.32013944847463
    },
    {
      "id": 231360,
      "geometry": "POINT (-118.345783 34.152536)",
      "poi_name": "Starbucks",
      "osm_id": 4465181483,
      "amenity": "cafe",
      "cuisine": "coffee_shop",
      "takeaway": "yes",
      "official_name": "Starbucks Coffee",
      "value": 95.32013944847463
    },
    {
      "id": 229103,
      "geometry": "POINT (-118.431915 34.004312)",
      "poi_name": "Mavro",
      "osm_id": 4366620389,
      "amenity": "cafe",
      "internet_access": "wlan",
      "addr_street": "Venice Boulevard",
      "addr_housenumber": "12224",
      "value": 95.32013944847463
    },
    {
      "id": 235053,
      "geometry": "POINT (-118.354537 34.195818)",
      "poi_name": "Peet's Coffee",
      "osm_id": 5744335682,
      "amenity": "cafe",
      "cuisine": "coffee_shop",
      "takeaway": "yes",
      "value": 95.32013944847463
    },
    {
      "id": 233630,
      "geometry": "POINT (-118.38758 34.027064)",
      "poi_name": "Blue Bottle Coffee",
      "osm_id": 4582147852,
      "amenity": "cafe",
      "cuisine": "coffee_shop",
      "opening_hours": "Mo-Fr 06:30-17:00; Sa,Su 07:00-17:00",
      "website": "https://bluebottlecoffee.com/cafes/hayden-tract",
      "internet_access": "wlan",
      "takeaway": "yes",
      "outdoor_seating": "yes",
      "addr_state": "CA",
      "addr_city": "Culver City",
      "addr_postcode": "90232",
      "addr_street": "Washington Boulevard #103",
      "addr_housenumber": "8830",
      "value": 95.32013944847463
    },
    {
      "id": 235018,
      "geometry": "POINT (-118.525567 34.046771)",
      "poi_name": "The Coffee Bean & Tea Leaf",
      "osm_id": 5742849222,
      "amenity": "cafe",
      "cuisine": "coffee_shop",
      "takeaway": "yes",
      "value": 95.32013944847463
    },
    {
      "id": 235019,
      "geometry": "POINT (-118.402246 34.0705)",
      "poi_name": "Starbucks",
      "osm_id": 5742849224,
      "amenity": "cafe",
      "cuisine": "coffee_shop",
      "takeaway": "yes",
      "official_name": "Starbucks Coffee",
      "value": 95.32013944847463
    },
    {
      "id": 237889,
      "geometry": "POINT (-118.401671 34.070268)",
      "poi_name": "Croft Alley",
      "osm_id": 5852254960,
      "amenity": "cafe",
      "cuisine": "american",
      "opening_hours": "09:00-16:00",
      "addr_state": "CA",
      "addr_city": "Beverly Hills",
      "addr_postcode": "90210",
      "addr_street": "Brighton Way",
      "addr_housenumber": "9433",
      "value": 95.32013944847463
    },
    {
      "id": 235021,
      "geometry": "POINT (-118.52641 34.047206)",
      "poi_name": "Caf\u00e9 Vida",
      "osm_id": 5742849523,
      "amenity": "cafe",
      "cuisine": "breakfast",
      "value": 95.32013944847463
    },
    {
      "id": 237906,
      "geometry": "POINT (-118.366721 34.091219)",
      "poi_name": "Vinador\u00e9",
      "osm_id": 5853191715,
      "amenity": "cafe",
      "website": "http://www.vinadorecafe.com",
      "addr_state": "CA",
      "addr_city": "West Hollywood",
      "addr_postcode": "90046",
      "addr_street": "Santa Monica Boulevard",
      "addr_housenumber": "8157",
      "value": 95.32013944847463
    },
    {
      "id": 237912,
      "geometry": "POINT (-118.367704 34.091232)",
      "poi_name": "Tasty Donuts and Cafe",
      "osm_id": 5853191755,
      "amenity": "cafe",
      "addr_state": "CA",
      "addr_city": "West Hollywood",
      "addr_postcode": "90046",
      "addr_street": "Santa Monica Boulevard",
      "addr_housenumber": "8205",
      "value": 95.32013944847463
    },
    {
      "id": 237914,
      "geometry": "POINT (-118.369606 34.090914)",
      "poi_name": "The Woods WeHo",
      "osm_id": 5853191777,
      "amenity": "cafe",
      "opening_hours": "Mo-Su 9:00-21:50",
      "website": "https://www.thewoodsweho.com",
      "outdoor_seating": "yes",
      "addr_state": "CA",
      "addr_city": "West Hollywood",
      "addr_postcode": "90046",
      "addr_street": "Santa Monica Boulevard",
      "addr_housenumber": "8271",
      "value": 95.32013944847463
    },
    {
      "id": 237919,
      "geometry": "POINT (-118.371322 34.090901)",
      "poi_name": "Basix Cafe",
      "osm_id": 5853191800,
      "amenity": "cafe",
      "addr_state": "CA",
      "addr_city": "West Hollywood",
      "addr_postcode": "90046",
      "addr_street": "Santa Monica Boulevard",
      "addr_housenumber": "8333",
      "value": 95.32013944847463
    },
    {
      "id": 238011,
      "geometry": "POINT (-118.342329 34.169245)",
      "poi_name": "BLVD Cafecito",
      "osm_id": 5857669194,
      "amenity": "cafe",
      "value": 95.32013944847463
    },
    {
      "id": 237920,
      "geometry": "POINT (-118.370479 34.090903)",
      "poi_name": "Joey's Cafe",
      "osm_id": 5853191805,
      "amenity": "cafe",
      "outdoor_seating": "yes",
      "addr_state": "CA",
      "addr_city": "West Hollywood",
      "addr_postcode": "90046",
      "addr_street": "Santa Monica Boulevard",
      "addr_housenumber": "8301",
      "value": 95.32013944847463
    },
    {
      "id": 238707,
      "geometry": "POINT (-118.328515 34.083171)",
      "poi_name": "Andreas Coffee Shop",
      "osm_id": 5891848886,
      "amenity": "cafe",
      "cuisine": "coffee_shop;sandwich",
      "opening_hours": "Mo-Fr 07:30-17:00",
      "phone": "+1-323-848-4271",
      "outdoor_seating": "no",
      "addr_state": "CA",
      "addr_city": "Los Angeles",
      "addr_postcode": "90038",
      "addr_street": "Melrose Avenue",
      "addr_housenumber": "5870",
      "value": 95.32013944847463
    },
    {
      "id": 238547,
      "geometry": "POINT (-118.343559 34.098126)",
      "poi_name": "Starbucks",
      "osm_id": 5882906737,
      "amenity": "cafe",
      "cuisine": "coffee_shop",
      "takeaway": "yes",
      "official_name": "Starbucks Coffee",
      "value": 95.32013944847463
    },
    {
      "id": 239011,
      "geometry": "POINT (-118.344768 34.10115)",
      "poi_name": "Tiago Coffee Bar & Kitchen",
      "osm_id": 5901148885,
      "amenity": "cafe",
      "value": 95.32013944847463
    },
    {
      "id": 242671,
      "geometry": "POINT (-118.323461 34.07563)",
      "poi_name": "Go Get Em Tiger",
      "osm_id": 7590517386,
      "amenity": "cafe",
      "value": 95.32013944847463
    },
    {
      "id": 242563,
      "geometry": "POINT (-118.363128 34.083571)",
      "poi_name": "Froma",
      "osm_id": 7578826985,
      "amenity": "cafe",
      "value": 95.32013944847463
    },
    {
      "id": 244280,
      "geometry": "POINT (-118.53696 34.246053)",
      "poi_name": "Bon Bon Tea House",
      "osm_id": 7711540676,
      "amenity": "cafe",
      "cuisine": "tea;bubble_tea",
      "internet_access": "yes",
      "value": 95.32013944847463
    },
    {
      "id": 244282,
      "geometry": "POINT (-118.534688 34.235742)",
      "poi_name": "Boba My Tea",
      "osm_id": 7711642755,
      "amenity": "cafe",
      "cuisine": "bubble_tea",
      "outdoor_seating": "yes",
      "addr_state": "CA",
      "addr_city": "Northridge",
      "addr_postcode": "91324",
      "addr_street": "Nordhoff Street",
      "addr_housenumber": "18429",
      "value": 95.32013944847463
    }
  ],
  "answer_type": "name",
  "question_entities": {
    "[2]": {
      "distance": 50000,
      "text": "50 kilometers"
    },
    "[3]": {
      "main_category": "tourism",
      "sub_category": "aquarium",
      "display_name": "Aquatic Zoo Tropical Fish, Thousand Oaks, CA",
      "geo_wkt": "POINT (-118.840161 34.172588)",
      "poi": {
        "id": 5259,
        "geometry": "POINT (-118.840161 34.172588)",
        "poi_name": "Aquatic Zoo Tropical Fish",
        "osm_id": 9819470337,
        "tourism": "aquarium",
        "opening_hours": "Mo-Sa 10:30-19:00",
        "operator": "Ken Kay Khzam",
        "shop": "pet",
        "addr_state": "CA",
        "addr_city": "Thousand Oaks",
        "addr_postcode": "91362",
        "addr_street": "East Thousand Oaks Boulevard",
        "addr_housenumber": "2655"
      }
    },
    "[4]": {
      "main_category": "tourism",
      "sub_category": "viewpoint",
      "display_name": "The Last House on Mulholland, Los Angeles, CA",
      "geo_wkt": "POINT (-118.320457 34.131243)",
      "poi": {
        "id": 3061,
        "geometry": "POINT (-118.320457 34.131243)",
        "poi_name": "The Last House on Mulholland",
        "osm_id": 10152480147,
        "description": "Hollywood Sign Viewpoint",
        "tourism": "viewpoint",
        "parking": "no",
        "addr_state": "CA",
        "addr_city": "Los Angeles",
        "addr_postcode": "90068",
        "addr_street": "Mulholland Highway",
        "addr_housenumber": "6101"
      }
    },
    "[1]": {
      "main_category": "amenity",
      "sub_category": "cafe"
    }
  },
  "id": 1672,
  "type": "range:towards+name"
}