{
  "question": "Where can I find restaurant as you head towards Neil Carey Arena, IL from Gabis Arboretum at Purdue Northwest, Valparaiso, IN, within a radius of 120 kilometers?",
  "sql": "WITH\n    angle AS (SELECT degrees(ST_Azimuth(ST_GeomFromText('POINT (-87.149569 41.444803)',4326)::geography, ST_GeomFromText('POINT (-88.082005 41.605308)',4326)::geography)) AS value)\nSELECT * FROM pois,angle\nWHERE amenity = 'restaurant'\nAND ST_DWithin(pois.geometry, ST_GeomFromText('POINT (-87.149569 41.444803)',4326)::geography, 120000)\nAND (degrees(ST_Azimuth(ST_GeomFromText('POINT (-87.149569 41.444803)',4326)::geography, pois.geometry)) BETWEEN angle.value - 22.5 AND angle.value + 22.5);\n",
  "answers": [
    {
      "id": 28609,
      "geometry": "POINT (-87.668986 41.559416)",
      "poi_name": "Aurelio's Pizza",
      "osm_id": 8244349454,
      "amenity": "restaurant",
      "cuisine": "pizza",
      "website": "https://www.aureliospizza.com/location/homewood/",
      "addr_state": "IL",
      "addr_city": "Homewood",
      "addr_postcode": "60430",
      "addr_street": "Harwood Avenue",
      "addr_housenumber": "18162",
      "value": 283.2102545166678
    },
    {
      "id": 29856,
      "geometry": "POINT (-88.184167 41.780435)",
      "poi_name": "Urban Counter",
      "osm_id": 8329153014,
      "amenity": "restaurant",
      "website": "https://urbancounter.com/naperville.html",
      "phone": "+1 630 470 9236",
      "addr_state": "IL",
      "addr_city": "Naperville",
      "addr_postcode": "60563",
      "addr_street": "North Aurora Road",
      "addr_housenumber": "1503",
      "value": 283.2102545166678
    },
    {
      "id": 29580,
      "geometry": "POINT (-88.146904 41.771018)",
      "poi_name": "Fat Rosie's Taco & Tequila Bar",
      "osm_id": 8313644164,
      "amenity": "restaurant",
      "cuisine": "mexican",
      "opening_hours": "Mo-Th 11:30-21:00; Fr, Sa 11:30-23:00; Su 11:30-21:00",
      "website": "https://www.fatrosies.com/",
      "phone": "+1 630 328 0060",
      "addr_state": "IL",
      "addr_city": "Naperville",
      "addr_postcode": "60540",
      "addr_street": "East Chicago Avenue",
      "addr_housenumber": "22",
      "value": 283.2102545166678
    },
    {
      "id": 29860,
      "geometry": "POINT (-88.202971 41.655477)",
      "poi_name": "Vita Bella Pizza",
      "osm_id": 8329256715,
      "amenity": "restaurant",
      "website": "https://vitabellapizza.com/",
      "phone": "+1 815 609 3939",
      "addr_state": "IL",
      "addr_city": "Plainfield",
      "addr_postcode": "60585",
      "addr_street": "South Route 59",
      "addr_housenumber": "12443",
      "value": 283.2102545166678
    },
    {
      "id": 30378,
      "geometry": "POINT (-88.207256 41.680271)",
      "poi_name": "Absolute BBQ",
      "osm_id": 8356103465,
      "amenity": "restaurant",
      "cuisine": "indian",
      "website": "https://absolutebbqusa.com/",
      "phone": "+1 630 420 7777",
      "addr_state": "IL",
      "addr_city": "Naperville",
      "addr_postcode": "60564",
      "addr_street": "Ace Lane",
      "addr_housenumber": "5019",
      "value": 283.2102545166678
    },
    {
      "id": 30351,
      "geometry": "POINT (-88.205422 41.761763)",
      "poi_name": "El Callejon",
      "osm_id": 8353808764,
      "amenity": "restaurant",
      "cuisine": "mexican",
      "opening_hours": "Mo 10:30-21:00, Tu 10:30-22:00, We-Th 10:30-21:00, Fr-Sa 10:30-22:00, Su 11:00-21:00",
      "website": "https://www.elcallejonmexicangrill.com/",
      "phone": "+1 630 857 9186",
      "addr_state": "IL",
      "addr_city": "Naperville",
      "addr_postcode": "60540",
      "addr_street": "South Illinois Route 59",
      "addr_housenumber": "602",
      "value": 283.2102545166678
    },
    {
      "id": 33531,
      "geometry": "POINT (-87.968067 41.84703)",
      "poi_name": "Devon",
      "osm_id": 2672307121,
      "amenity": "restaurant",
      "cuisine": "seafood;steak",
      "addr_state": "IL",
      "addr_city": "Oakbrook Terrace",
      "addr_postcode": "60181",
      "addr_street": "22nd Street",
      "addr_housenumber": "17W400",
      "value": 283.2102545166678
    },
    {
      "id": 30796,
      "geometry": "POINT (-87.966196 41.548833)",
      "poi_name": "Beggars Pizza",
      "osm_id": 8382553800,
      "amenity": "restaurant",
      "cuisine": "pizza",
      "addr_state": "IL",
      "addr_city": "New Lenox",
      "addr_postcode": "60451",
      "addr_street": "Maple Road",
      "value": 283.2102545166678
    },
    {
      "id": 35240,
      "geometry": "POINT (-88.092509 41.858661)",
      "poi_name": "Jet's Pizza",
      "osm_id": 2714795295,
      "amenity": "restaurant",
      "cuisine": "pizza",
      "website": "https://jetspizza.com/",
      "addr_state": "IL",
      "addr_city": "Wheaton",
      "addr_postcode": "60187",
      "addr_street": "East Roosevelt Road",
      "addr_housenumber": "936",
      "value": 283.2102545166678
    },
    {
      "id": 36140,
      "geometry": "POINT (-88.014152 41.859786)",
      "poi_name": "Buffalo Wild Wings",
      "osm_id": 2751697679,
      "amenity": "restaurant",
      "cuisine": "wings",
      "addr_state": "IL",
      "addr_city": "Lombard",
      "addr_postcode": "60148",
      "addr_street": "East Roosevelt Road",
      "addr_housenumber": "207",
      "value": 283.2102545166678
    },
    {
      "id": 36141,
      "geometry": "POINT (-88.012834 41.859222)",
      "poi_name": "De Allende",
      "osm_id": 2751697681,
      "amenity": "restaurant",
      "cuisine": "italian",
      "addr_state": "IL",
      "addr_city": "Lombard",
      "addr_postcode": "60148",
      "addr_street": "South Highland Avenue",
      "addr_housenumber": "1238",
      "value": 283.2102545166678
    },
    {
      "id": 36142,
      "geometry": "POINT (-88.013554 41.85981)",
      "poi_name": "Jet's Pizza",
      "osm_id": 2751697683,
      "amenity": "restaurant",
      "cuisine": "pizza",
      "addr_state": "IL",
      "addr_city": "Lombard",
      "addr_postcode": "60148",
      "addr_street": "East Roosevelt Road",
      "addr_housenumber": "219",
      "value": 283.2102545166678
    },
    {
      "id": 40030,
      "geometry": "POINT (-87.518986 41.471412)",
      "poi_name": "Beggar's Pizza",
      "osm_id": 2955338462,
      "amenity": "restaurant",
      "cuisine": "pizza",
      "addr_state": "IN",
      "addr_city": "Dyer",
      "addr_postcode": "46311",
      "addr_street": "Sheffied Avenue",
      "addr_housenumber": "3344",
      "value": 283.2102545166678
    },
    {
      "id": 36820,
      "geometry": "POINT (-87.98857 41.517734)",
      "poi_name": "Tom Kelley's Chop House & Pub",
      "osm_id": 2786506050,
      "amenity": "restaurant",
      "addr_city": "New Lenox",
      "addr_postcode": "60451",
      "addr_street": "Degroate Road",
      "addr_housenumber": "495",
      "value": 283.2102545166678
    },
    {
      "id": 37075,
      "geometry": "POINT (-88.138386 41.888157)",
      "poi_name": "Entree Kitchen",
      "osm_id": 2796492148,
      "amenity": "restaurant",
      "cuisine": "italian",
      "opening_hours": "09:00-17:00",
      "website": "https://entreekitchen.com/",
      "addr_city": "Carol Stream",
      "addr_postcode": "60188",
      "addr_street": "Geneva Road",
      "addr_housenumber": "26W276",
      "value": 283.2102545166678
    },
    {
      "id": 37076,
      "geometry": "POINT (-88.136696 41.887358)",
      "poi_name": "Jin's China",
      "osm_id": 2796492499,
      "amenity": "restaurant",
      "cuisine": "chinese",
      "opening_hours": "11:30-21:00",
      "addr_city": "Wheaton",
      "addr_postcode": "60187",
      "addr_street": "Geneva Road",
      "addr_housenumber": "26W219",
      "value": 283.2102545166678
    },
    {
      "id": 37146,
      "geometry": "POINT (-88.121067 41.88844)",
      "poi_name": "Addante's Pizza & Catering",
      "osm_id": 2799013880,
      "amenity": "restaurant",
      "cuisine": "pizza",
      "opening_hours": "16:00-23:00",
      "website": "https://addantes.com/",
      "addr_city": "Wheaton",
      "addr_street": "North Gary Avenue",
      "addr_housenumber": "2221",
      "value": 283.2102545166678
    },
    {
      "id": 45121,
      "geometry": "POINT (-88.080937 41.652774)",
      "poi_name": "Fat Ricky's",
      "osm_id": 3190559761,
      "amenity": "restaurant",
      "website": "https://www.fatrickys.com/",
      "phone": "+1 815 2932900",
      "addr_state": "IL",
      "addr_city": "Romeoville",
      "addr_postcode": "60446",
      "addr_street": "Independence Boulevard",
      "addr_housenumber": "660",
      "value": 283.2102545166678
    },
    {
      "id": 44422,
      "geometry": "POINT (-88.146482 41.771496)",
      "poi_name": "The Bancock Village",
      "osm_id": 3158627487,
      "amenity": "restaurant",
      "cuisine": "thai",
      "opening_hours": "11:00 - 22:00",
      "addr_state": "IL",
      "addr_city": "Naperville",
      "addr_postcode": "60540",
      "addr_street": "Chicago Avenue",
      "addr_housenumber": "22",
      "value": 283.2102545166678
    },
    {
      "id": 44423,
      "geometry": "POINT (-88.150756 41.773157)",
      "poi_name": "Lou Malnati's Pizzeria",
      "osm_id": 3158627489,
      "amenity": "restaurant",
      "cuisine": "pizza",
      "opening_hours": "Mo-Th, Su 11:00-23:00; Fr-Sa 11:00-24:00",
      "website": "https://www.loumalnatis.com/naperville-downtown",
      "phone": "+1-630-717-0700",
      "addr_state": "IL",
      "addr_city": "Naperville",
      "addr_postcode": "60540",
      "addr_street": "West Jefferson Avenue",
      "addr_housenumber": "131",
      "value": 283.2102545166678
    },
    {
      "id": 44424,
      "geometry": "POINT (-88.169691 41.748388)",
      "poi_name": "Buffalo Wings & Rings",
      "osm_id": 3158627490,
      "amenity": "restaurant",
      "cuisine": "wings",
      "opening_hours": "Mo-Su 11:00-23:00",
      "takeaway": "yes",
      "addr_state": "IL",
      "addr_city": "Naperville",
      "addr_postcode": "60540",
      "addr_street": "Rickert Drive",
      "addr_housenumber": "1279",
      "value": 283.2102545166678
    },
    {
      "id": 45272,
      "geometry": "POINT (-88.082445 41.654282)",
      "poi_name": "Ruby's Burritos",
      "osm_id": 3197886578,
      "amenity": "restaurant",
      "cuisine": "mexican",
      "website": "http://www.rubysburritos.com",
      "phone": "+1 815 3729146",
      "outdoor_seating": "no",
      "addr_state": "IL",
      "addr_city": "Romeoville",
      "addr_postcode": "60446",
      "addr_street": "Normantown Road",
      "addr_housenumber": "41",
      "value": 283.2102545166678
    },
    {
      "id": 45279,
      "geometry": "POINT (-88.082269 41.654282)",
      "poi_name": "Ruby's Pancake House",
      "osm_id": 3197915366,
      "amenity": "restaurant",
      "website": "http://www.rubyspancakes.com",
      "phone": "+1 815 3729185",
      "outdoor_seating": "no",
      "addr_state": "IL",
      "addr_city": "Romeoville",
      "addr_postcode": "60446",
      "addr_street": "Normantown Road",
      "addr_housenumber": "39",
      "value": 283.2102545166678
    },
    {
      "id": 45401,
      "geometry": "POINT (-88.001379 41.654734)",
      "poi_name": "Kintaro",
      "osm_id": 3205464661,
      "amenity": "restaurant",
      "cuisine": "japanese",
      "website": "http://www.gokitaro.com",
      "addr_state": "IL",
      "addr_city": "Lemont",
      "addr_postcode": "60439",
      "addr_street": "State Street",
      "addr_housenumber": "1224",
      "value": 283.2102545166678
    },
    {
      "id": 45402,
      "geometry": "POINT (-88.001357 41.654413)",
      "poi_name": "Nancy's Pizza",
      "osm_id": 3205465063,
      "amenity": "restaurant",
      "cuisine": "pizza",
      "website": "https://www.nancyspizza.com/",
      "phone": "+1 630 2430033",
      "takeaway": "only",
      "addr_state": "IL",
      "addr_city": "Lemont",
      "addr_postcode": "60439",
      "addr_street": "State Street",
      "addr_housenumber": "1224",
      "value": 283.2102545166678
    },
    {
      "id": 45770,
      "geometry": "POINT (-88.042478 41.71957)",
      "poi_name": "Francesca's",
      "osm_id": 3228988761,
      "amenity": "restaurant",
      "website": "https://www.miafrancesca.com/",
      "internet_access": "no",
      "phone": "+1 630 7396300",
      "outdoor_seating": "no",
      "addr_state": "IL",
      "addr_city": "Bolingbrook",
      "addr_postcode": "60440",
      "addr_street": "Boughton Road",
      "addr_housenumber": "641",
      "value": 283.2102545166678
    },
    {
      "id": 45898,
      "geometry": "POINT (-88.206198 41.972366)",
      "poi_name": "Dogfather",
      "osm_id": 3235555837,
      "amenity": "restaurant",
      "cuisine": "hot_dog",
      "takeaway": "yes",
      "outdoor_seating": "no",
      "addr_state": "IL",
      "addr_city": "Bartlett",
      "addr_postcode": "60103",
      "addr_street": "South IL State Route 59",
      "addr_housenumber": "957",
      "value": 283.2102545166678
    },
    {
      "id": 47671,
      "geometry": "POINT (-87.869865 41.814501)",
      "poi_name": "Casa Margarita",
      "osm_id": 3340956101,
      "amenity": "restaurant",
      "cuisine": "mexican",
      "website": "http://www.casamargarita.com/",
      "phone": "+1-708-354-2272",
      "addr_state": "IL",
      "addr_city": "La Grange",
      "addr_postcode": "60525",
      "addr_street": "South La Grange Road",
      "addr_housenumber": "32",
      "value": 283.2102545166678
    },
    {
      "id": 47672,
      "geometry": "POINT (-87.869817 41.812958)",
      "poi_name": "Q-BBQ",
      "osm_id": 3340956102,
      "amenity": "restaurant",
      "cuisine": "barbecue",
      "website": "https://q-bbq.com/",
      "phone": "+1-708-482-8700",
      "addr_state": "IL",
      "addr_city": "La Grange",
      "addr_postcode": "60525",
      "addr_street": "South La Grange Road",
      "addr_housenumber": "70",
      "value": 283.2102545166678
    },
    {
      "id": 47806,
      "geometry": "POINT (-88.041483 41.717466)",
      "poi_name": "Ted's Montana Grill",
      "osm_id": 3350767993,
      "amenity": "restaurant",
      "cuisine": "american",
      "website": "https://www.tedsmontanagrill.com/",
      "phone": "+1 630 7832493",
      "outdoor_seating": "yes",
      "addr_state": "IL",
      "addr_city": "Bolingbrook",
      "addr_postcode": "60440",
      "addr_street": "Boughton Road",
      "addr_housenumber": "623",
      "value": 283.2102545166678
    },
    {
      "id": 47807,
      "geometry": "POINT (-88.041869 41.717009)",
      "poi_name": "bd's Mongolian Grill",
      "osm_id": 3350770493,
      "amenity": "restaurant",
      "cuisine": "mongolian_grill",
      "website": "https://locations.gomongo.com/il/bolingbrook/",
      "phone": "+1 630 9720450",
      "addr_state": "IL",
      "addr_city": "Bolingbrook",
      "addr_postcode": "60440",
      "addr_street": "Boughton Road",
      "addr_housenumber": "619",
      "value": 283.2102545166678
    },
    {
      "id": 48115,
      "geometry": "POINT (-88.001347 41.673553)",
      "poi_name": "Lemont House Restaurant",
      "osm_id": 3366805893,
      "amenity": "restaurant",
      "website": "lemonthouserestaurant.com",
      "phone": "+1 630 2573080",
      "outdoor_seating": "no",
      "addr_state": "IL",
      "addr_city": "Lemont",
      "addr_postcode": "60439",
      "addr_street": "Main Street",
      "addr_housenumber": "210",
      "value": 283.2102545166678
    },
    {
      "id": 45602,
      "geometry": "POINT (-87.998106 41.654541)",
      "poi_name": "Betty's",
      "osm_id": 3219211161,
      "amenity": "restaurant",
      "website": "https://anewkindoffun.com/",
      "addr_state": "IL",
      "addr_city": "Lemont",
      "addr_postcode": "60439",
      "addr_street": "State Street",
      "addr_housenumber": "1243",
      "value": 283.2102545166678
    },
    {
      "id": 45603,
      "geometry": "POINT (-87.998375 41.654189)",
      "poi_name": "Tap House Grill",
      "osm_id": 3219212861,
      "amenity": "restaurant",
      "website": "https://www.taphousegrills.com/",
      "phone": "+1 630 2575992",
      "addr_state": "IL",
      "addr_city": "Lemont",
      "addr_postcode": "60439",
      "addr_street": "State Street",
      "addr_housenumber": "1243",
      "value": 283.2102545166678
    },
    {
      "id": 46879,
      "geometry": "POINT (-88.038836 41.717163)",
      "poi_name": "Islamorada Fish Company",
      "osm_id": 3297534761,
      "amenity": "restaurant",
      "website": "www.restaurants.basspro.com",
      "phone": "+1 630 2962600",
      "outdoor_seating": "no",
      "addr_state": "IL",
      "addr_city": "Bolingbrook",
      "addr_postcode": "60490",
      "addr_street": "Janes Avenue",
      "addr_housenumber": "709",
      "value": 283.2102545166678
    },
    {
      "id": 46880,
      "geometry": "POINT (-88.040655 41.718202)",
      "poi_name": "Goroma",
      "osm_id": 3297540461,
      "amenity": "restaurant",
      "cuisine": "italian",
      "website": "www.goroma.net",
      "phone": "+1 630 7392660",
      "addr_state": "IL",
      "addr_city": "Bolingbrook",
      "addr_postcode": "60440",
      "addr_street": "Boughton Road",
      "addr_housenumber": "635",
      "value": 283.2102545166678
    },
    {
      "id": 46881,
      "geometry": "POINT (-88.04232 41.719484)",
      "poi_name": "Mago Grill & Cantina",
      "osm_id": 3297596870,
      "amenity": "restaurant",
      "website": "www.magogrill.com",
      "phone": "+1 630 7832222",
      "addr_state": "IL",
      "addr_city": "Bolingbrook",
      "addr_postcode": "60440",
      "addr_street": "Boughton Road",
      "addr_housenumber": "641",
      "value": 283.2102545166678
    },
    {
      "id": 47641,
      "geometry": "POINT (-87.869342 41.812528)",
      "poi_name": "Prasino",
      "osm_id": 3338963587,
      "amenity": "restaurant",
      "cuisine": "new_american",
      "wheelchair": "yes",
      "opening_hours": "Su-Th 08:00-21:00; Fr-Sa 08:00-22:00",
      "website": "https://www.prasino.com/home.php",
      "phone": "+1-708-469-7058",
      "addr_state": "IL",
      "addr_city": "La Grange",
      "addr_postcode": "60525",
      "addr_street": "South La Grange Road",
      "addr_housenumber": "93",
      "value": 283.2102545166678
    },
    {
      "id": 47656,
      "geometry": "POINT (-87.869891 41.814616)",
      "poi_name": "Nicksons Eatery",
      "osm_id": 3340271059,
      "amenity": "restaurant",
      "cuisine": "regional",
      "opening_hours": "Mo-Th 11:30-21:00, Fr-Sa 11:30-22:00, Su closed",
      "website": "https://www.nicksonseatery.com/",
      "phone": "+1-708-354-4995",
      "addr_state": "IL",
      "addr_city": "La Grange",
      "addr_postcode": "60525",
      "addr_street": "South La Grange Road",
      "addr_housenumber": "30",
      "value": 283.2102545166678
    },
    {
      "id": 50671,
      "geometry": "POINT (-87.949536 41.811222)",
      "poi_name": "Citrus Diner",
      "osm_id": 3497993379,
      "amenity": "restaurant",
      "cuisine": "american",
      "opening_hours": "\"Breakfast, Lunch\"",
      "website": "https://www.citrusdiner.com/",
      "capacity": "50",
      "takeaway": "yes",
      "addr_state": "IL",
      "addr_city": "Westmont",
      "addr_postcode": "60559",
      "addr_street": "East Ogden Avenue",
      "addr_housenumber": "844",
      "value": 283.2102545166678
    },
    {
      "id": 51804,
      "geometry": "POINT (-88.070519 41.770827)",
      "poi_name": "Suparossa",
      "osm_id": 561038373,
      "amenity": "restaurant",
      "cuisine": "italian;pizza;italian_pizza",
      "opening_hours": "Mo-Th 11:00-22:00; Fr-Sa 11:00-23:00; Su 11:00-21:00",
      "website": "https://www.suparossawoodridge.com/",
      "phone": "+1-630-852-1000",
      "addr_state": "IL",
      "addr_city": "Woodridge",
      "addr_postcode": "60517",
      "addr_street": "IL 53",
      "addr_housenumber": "6310",
      "value": 283.2102545166678
    },
    {
      "id": 53294,
      "geometry": "POINT (-87.643252 41.706359)",
      "poi_name": "Beggars Pizza",
      "osm_id": 10073956274,
      "amenity": "restaurant",
      "cuisine": "pizza",
      "takeaway": "only",
      "delivery": "yes",
      "addr_state": "IL",
      "addr_city": "Chicago",
      "addr_postcode": "60628",
      "addr_street": "South Halsted Street",
      "addr_housenumber": "10314",
      "value": 283.2102545166678
    },
    {
      "id": 55822,
      "geometry": "POINT (-87.771685 41.719437)",
      "poi_name": "Hakuna Matata",
      "osm_id": 10209841017,
      "amenity": "restaurant",
      "cuisine": "arab;middle_eastern",
      "opening_hours": "Mo-Su 10:00-02:00",
      "phone": "+1 708 575 0303",
      "addr_state": "IL",
      "addr_city": "Oak Lawn",
      "addr_postcode": "60453",
      "addr_street": "West 95th Street",
      "addr_housenumber": "6035",
      "value": 283.2102545166678
    },
    {
      "id": 58290,
      "geometry": "POINT (-87.89851 41.835411)",
      "poi_name": "Paul's Pizza & HotDogs",
      "osm_id": 5369425085,
      "amenity": "restaurant",
      "cuisine": "pizza",
      "opening_hours": "Tu-Sa 11:00-21:00",
      "website": "http://pauls-pizza.com/",
      "phone": "(708) 531-9080",
      "addr_state": "IL",
      "addr_city": "Westchester",
      "addr_postcode": "60154",
      "addr_street": "Wolf Road",
      "addr_housenumber": "3044",
      "value": 283.2102545166678
    },
    {
      "id": 58840,
      "geometry": "POINT (-88.150599 41.771106)",
      "poi_name": "Blue Sushi Sake Grill",
      "osm_id": 5399925274,
      "amenity": "restaurant",
      "cuisine": "sushi",
      "opening_hours": "Mo-Th 11:00-22:00; Fr 11:00-23:00; Sa 12:00-23:00; Su 12:00-21:00",
      "website": "https://bluesushisakegrill.com/locations/illinois/naperville",
      "phone": "+1 630 305 3099",
      "addr_state": "IL",
      "addr_city": "Naperville",
      "addr_postcode": "60540",
      "addr_street": "Water Street",
      "addr_housenumber": "123",
      "value": 283.2102545166678
    },
    {
      "id": 58841,
      "geometry": "POINT (-88.151177 41.770907)",
      "poi_name": "Quiubo",
      "osm_id": 5399925275,
      "amenity": "restaurant",
      "cuisine": "mexican",
      "website": "https://www.quiubomx.com/",
      "phone": "+1 331 702 2711",
      "addr_state": "IL",
      "addr_city": "Naperville",
      "addr_postcode": "60540",
      "addr_street": "Water Street",
      "addr_housenumber": "120",
      "value": 283.2102545166678
    },
    {
      "id": 58991,
      "geometry": "POINT (-88.273684 41.800665)",
      "poi_name": "Mall Food Court",
      "osm_id": 5405706972,
      "amenity": "restaurant",
      "description": "Indoor food court (with some outdoor tables) featuring several restaurants with varied cuisine",
      "addr_state": "IL",
      "addr_city": "Aurora",
      "addr_postcode": "60502",
      "addr_street": "Premium Outlets Boulevard",
      "addr_housenumber": "1650",
      "value": 283.2102545166678
    },
    {
      "id": 59601,
      "geometry": "POINT (-88.118694 41.796459)",
      "poi_name": "Honey Jam",
      "osm_id": 5434115211,
      "amenity": "restaurant",
      "opening_hours": "Mo-Fr 06:30-15:00; Sa-Su 06:00-15:00",
      "phone": "+1 630-955-0950",
      "addr_state": "IL",
      "addr_city": "Naperville",
      "addr_postcode": "60563",
      "addr_street": "Naper Boulevard",
      "addr_housenumber": "1504",
      "value": 283.2102545166678
    },
    {
      "id": 61032,
      "geometry": "POINT (-88.204164 41.706932)",
      "poi_name": "Gumii",
      "osm_id": 5494943504,
      "amenity": "restaurant",
      "cuisine": "korean",
      "opening_hours": "Tu-Sa 11:00-20:30; Su 11:00-15:30",
      "website": "https://gumiinaperville.com/",
      "phone": "+1 331-229-8785",
      "addr_state": "IL",
      "addr_city": "Naperville",
      "addr_postcode": "60564",
      "addr_street": "IL Route 59",
      "addr_housenumber": "3124",
      "value": 283.2102545166678
    },
    {
      "id": 62536,
      "geometry": "POINT (-88.200125 41.538941)",
      "poi_name": "Matty's Grill Pancake House",
      "osm_id": 5574183688,
      "amenity": "restaurant",
      "addr_state": "IL",
      "addr_city": "Shorewood",
      "addr_postcode": "60404",
      "addr_street": "Brook Forest Avenue",
      "value": 283.2102545166678
    },
    {
      "id": 65972,
      "geometry": "POINT (-87.508699 41.53807)",
      "poi_name": "The Harvest Room",
      "osm_id": 5722021503,
      "amenity": "restaurant",
      "website": "https://harvestroomrestaurant.com/",
      "phone": "+1-219-595-5575",
      "addr_state": "IN",
      "addr_city": "Munster",
      "addr_postcode": "46321",
      "addr_street": "Calumet Avenue",
      "addr_housenumber": "9625",
      "value": 283.2102545166678
    },
    {
      "id": 62785,
      "geometry": "POINT (-88.075025 41.80101)",
      "poi_name": "Fox Restaurant - Permanently Closed",
      "osm_id": 5586698401,
      "amenity": "restaurant",
      "cuisine": "breakfast",
      "phone": "+1-630-964-6984",
      "addr_state": "IL",
      "addr_city": "Lisle",
      "addr_postcode": "60532",
      "addr_street": "Main Street",
      "addr_housenumber": "4700",
      "value": 283.2102545166678
    },
    {
      "id": 65973,
      "geometry": "POINT (-87.508701 41.538255)",
      "poi_name": "Kitaro Surf & Turf & Sushi",
      "osm_id": 5722021504,
      "amenity": "restaurant",
      "cuisine": "sushi",
      "addr_state": "IN",
      "addr_city": "Munster",
      "addr_postcode": "46321",
      "addr_street": "Calumet Avenue",
      "addr_housenumber": "9625",
      "value": 283.2102545166678
    },
    {
      "id": 66025,
      "geometry": "POINT (-87.8694 41.814668)",
      "poi_name": "Steak & Vine",
      "osm_id": 5726074381,
      "amenity": "restaurant",
      "cuisine": "steak_house;steak;american",
      "website": "https://www.steakandvine.com/",
      "phone": "+1-708-579-0520",
      "addr_state": "IL",
      "addr_city": "La Grange",
      "addr_postcode": "60525",
      "addr_street": "South La Grange Road",
      "addr_housenumber": "37",
      "value": 283.2102545166678
    },
    {
      "id": 66040,
      "geometry": "POINT (-87.869821 41.812822)",
      "poi_name": "Sammy's Deli",
      "osm_id": 5726431334,
      "amenity": "restaurant",
      "cuisine": "american;lunch;deli;sandwich",
      "website": "https://sammysoflagrange.weebly.com/",
      "addr_state": "IL",
      "addr_city": "La Grange",
      "addr_postcode": "60525",
      "addr_street": "South La Grange Road",
      "addr_housenumber": "74",
      "value": 283.2102545166678
    },
    {
      "id": 65975,
      "geometry": "POINT (-87.508693 41.538812)",
      "poi_name": "El Salto",
      "osm_id": 5722021506,
      "amenity": "restaurant",
      "cuisine": "mexican",
      "addr_state": "IN",
      "addr_city": "Munster",
      "addr_postcode": "46321",
      "addr_street": "Calumet Avenue",
      "addr_housenumber": "9611",
      "value": 283.2102545166678
    },
    {
      "id": 65997,
      "geometry": "POINT (-88.275385 42.030973)",
      "poi_name": "La Casa de Pollo Asado",
      "osm_id": 5723994221,
      "amenity": "restaurant",
      "cuisine": "mexican",
      "addr_state": "IL",
      "addr_city": "Elgin",
      "addr_postcode": "60120",
      "addr_street": "East National Street",
      "addr_housenumber": "221",
      "value": 283.2102545166678
    },
    {
      "id": 72612,
      "geometry": "POINT (-87.700501 41.661839)",
      "poi_name": "Beggars Pizza",
      "osm_id": 11438147957,
      "amenity": "restaurant",
      "cuisine": "pizza",
      "website": "https://www.beggarspizza.com/",
      "addr_state": "IL",
      "addr_city": "Blue Island",
      "addr_postcode": "60406",
      "addr_street": "South Kedzie Avenue",
      "addr_housenumber": "12700",
      "value": 283.2102545166678
    },
    {
      "id": 74518,
      "geometry": "POINT (-88.310306 41.849374)",
      "poi_name": "Fernando's Street Kitchen",
      "osm_id": 9684080886,
      "amenity": "restaurant",
      "cuisine": "mexican",
      "website": "https://www.fernandosstreetkitchen.com/",
      "phone": "+1-630-326-9105",
      "addr_state": "IL",
      "addr_city": "Batavia",
      "addr_postcode": "60510",
      "addr_street": "South Water Street",
      "addr_housenumber": "12",
      "value": 283.2102545166678
    },
    {
      "id": 68115,
      "geometry": "POINT (-88.316121 42.062159)",
      "poi_name": "Larsa's Kitchen",
      "osm_id": 11261436629,
      "amenity": "restaurant",
      "cuisine": "mediterranean",
      "opening_hours": "Mo-Sa 11:00-19:00",
      "website": "https://www.larsaskitchenelgin.com/",
      "phone": "+1-847-888-8000",
      "addr_state": "IL",
      "addr_city": "Elgin",
      "addr_postcode": "60123",
      "addr_street": "North McLean Boulevard",
      "addr_housenumber": "1188",
      "value": 283.2102545166678
    },
    {
      "id": 68567,
      "geometry": "POINT (-87.33597 41.544203)",
      "poi_name": "Tacos Y Cemitas El Poblano",
      "osm_id": 11274652827,
      "amenity": "restaurant",
      "cuisine": "mexican",
      "addr_state": "IN",
      "addr_city": "Gary",
      "addr_postcode": "46409",
      "addr_street": "Broadway",
      "addr_housenumber": "4089",
      "value": 283.2102545166678
    },
    {
      "id": 70421,
      "geometry": "POINT (-87.947725 41.847499)",
      "poi_name": "Fogo de Ch\u00e3o",
      "osm_id": 11361389018,
      "amenity": "restaurant",
      "cuisine": "brazilian;steak_house",
      "website": "https://fogodechao.com/location/chicago-oak-brook/",
      "addr_state": "IL",
      "addr_city": "Oak Brook",
      "addr_postcode": "60523",
      "addr_street": "22nd Street",
      "addr_housenumber": "1204",
      "value": 283.2102545166678
    },
    {
      "id": 73014,
      "geometry": "POINT (-87.899607 41.809071)",
      "poi_name": "Salerno's Pizzeria & R. Bar",
      "osm_id": 9602013670,
      "amenity": "restaurant",
      "cuisine": "pizza;italian",
      "website": "https://www.salernopizza.com/",
      "phone": "+17082468668",
      "addr_state": "IL",
      "addr_city": "Western Springs",
      "addr_postcode": "60558",
      "addr_street": "Burlington Avenue",
      "addr_housenumber": "821",
      "value": 283.2102545166678
    },
    {
      "id": 73033,
      "geometry": "POINT (-87.900934 41.808781)",
      "poi_name": "Hash Stacks Cafe & Market",
      "osm_id": 9603191643,
      "amenity": "restaurant",
      "website": "http://hashstackscafeandmarket.com/",
      "phone": "+17085053118",
      "addr_state": "IL",
      "addr_city": "Western Springs",
      "addr_postcode": "60558",
      "addr_street": "Burlington Avenue",
      "addr_housenumber": "909",
      "value": 283.2102545166678
    },
    {
      "id": 73036,
      "geometry": "POINT (-87.898282 41.78894)",
      "poi_name": "Great Wall Chinese Restaurant",
      "osm_id": 9603442914,
      "amenity": "restaurant",
      "cuisine": "chinese",
      "website": "https://www.greatwallwesternsprings.com/",
      "phone": "+17082465526",
      "addr_state": "IL",
      "addr_city": "Western Springs",
      "addr_postcode": "60558",
      "addr_street": "Wolf Road",
      "addr_housenumber": "5530",
      "value": 283.2102545166678
    },
    {
      "id": 73037,
      "geometry": "POINT (-87.889648 41.804845)",
      "poi_name": "Honey Bee Cafe",
      "osm_id": 9603520523,
      "amenity": "restaurant",
      "phone": "+17082466222",
      "addr_state": "IL",
      "addr_city": "Western Springs",
      "addr_postcode": "60558",
      "addr_street": "47th Street",
      "addr_housenumber": "24",
      "value": 283.2102545166678
    },
    {
      "id": 76053,
      "geometry": "POINT (-88.339995 41.729488)",
      "poi_name": "Danny Boy's",
      "osm_id": 9758312026,
      "amenity": "restaurant",
      "website": "https://graysmillestate.com/danny-boys/",
      "phone": "+16306923182",
      "addr_state": "IL",
      "addr_city": "Montgomery",
      "addr_postcode": "60538",
      "addr_street": "North River Street",
      "addr_housenumber": "211",
      "value": 283.2102545166678
    },
    {
      "id": 77342,
      "geometry": "POINT (-87.673885 41.502592)",
      "poi_name": "Aurelio's Pizza",
      "osm_id": 9816403959,
      "amenity": "restaurant",
      "cuisine": "pizza",
      "addr_state": "IL",
      "addr_city": "Chicago Heights",
      "addr_postcode": "60411",
      "addr_street": "Western Avenue",
      "addr_housenumber": "1545",
      "value": 283.2102545166678
    },
    {
      "id": 77240,
      "geometry": "POINT (-88.143366 41.755801)",
      "poi_name": "Brown Bag Seafood Co",
      "osm_id": 9812959544,
      "amenity": "restaurant",
      "cuisine": "seafood",
      "opening_hours": "Mo-Sa 11:00-21:00; Su 11:00-20:30",
      "website": "https://www.brownbagseafood.com",
      "phone": "+1-630-364-2619",
      "addr_state": "IL",
      "addr_city": "Naperville",
      "addr_postcode": "60540",
      "addr_street": "South Washington Street",
      "addr_housenumber": "1023",
      "value": 283.2102545166678
    },
    {
      "id": 76434,
      "geometry": "POINT (-88.075379 41.937087)",
      "poi_name": "Moonsun Sushi",
      "osm_id": 9776524570,
      "amenity": "restaurant",
      "opening_hours": "Tu-Th 11:30-21:30; Fr 11:30-22:00; Sa 12:00-22:00; Su 12:00-21:00",
      "website": "http://www.moonsunsushi.com",
      "phone": "+1-630-980-2260",
      "addr_state": "IL",
      "addr_city": "Glendale Heights",
      "addr_postcode": "60139",
      "addr_street": "324 E Army Trail Rd",
      "value": 283.2102545166678
    },
    {
      "id": 76600,
      "geometry": "POINT (-87.470385 41.494359)",
      "poi_name": "Tandoor Cuisine of India",
      "osm_id": 9784143347,
      "amenity": "restaurant",
      "cuisine": "indian",
      "opening_hours": "Mo-Su 11:00-14:45, 17:00-22:00",
      "website": "http://tandoorindiancuisinein.com/",
      "phone": "+1 219 865 9511",
      "takeaway": "yes",
      "addr_state": "IN",
      "addr_city": "Schererville",
      "addr_postcode": "46375",
      "addr_street": "Indianapolis Boulevard",
      "addr_housenumber": "1535",
      "value": 283.2102545166678
    },
    {
      "id": 77426,
      "geometry": "POINT (-87.992575 41.84036)",
      "poi_name": "Labriola Bakery & Cafe",
      "osm_id": 9821550655,
      "amenity": "restaurant",
      "description": "Brought to you by Rich Labriola, Chicago's premier artisan baker Labriola Bakery & Cafe is a Breakfast-to-dinner cafe with baked goods and an Italian-focused menu including sandwiches and pizzas.",
      "opening_hours": "Mo-Sa 07:30-21:00",
      "website": "https://www.labriolabakerycafe.com",
      "phone": "+1-630-574-2008",
      "addr_state": "IL",
      "addr_city": "Oak Brook",
      "addr_postcode": "60523",
      "addr_street": "Butterfield Road",
      "addr_housenumber": "3021",
      "value": 283.2102545166678
    },
    {
      "id": 79301,
      "geometry": "POINT (-87.869841 41.813493)",
      "poi_name": "Palmer Place",
      "osm_id": 793707521,
      "amenity": "restaurant",
      "cuisine": "american",
      "phone": "+1-708-482-7127",
      "addr_state": "IL",
      "addr_city": "La Grange",
      "addr_postcode": "60525",
      "addr_street": "South La Grange Road",
      "addr_housenumber": "56",
      "value": 283.2102545166678
    },
    {
      "id": 80958,
      "geometry": "POINT (-88.316338 41.91631)",
      "poi_name": "Salerno's On The Fox",
      "osm_id": 1593658577,
      "amenity": "restaurant",
      "cuisine": "pizza",
      "addr_state": "IL",
      "addr_city": "St. Charles",
      "addr_postcode": "60174",
      "addr_street": "North 2nd Street",
      "addr_housenumber": "320",
      "value": 283.2102545166678
    },
    {
      "id": 84309,
      "geometry": "POINT (-88.080794 41.936738)",
      "poi_name": "Hickory River Smokehouse",
      "osm_id": 1783237008,
      "amenity": "restaurant",
      "cuisine": "american",
      "addr_state": "IL",
      "addr_city": "Glendale Heights",
      "addr_postcode": "60139",
      "addr_street": "Bloomingdale Road",
      "addr_housenumber": "2130",
      "value": 283.2102545166678
    },
    {
      "id": 88094,
      "geometry": "POINT (-88.340531 41.729911)",
      "poi_name": "Grumpy Gaucho",
      "osm_id": 8762608979,
      "amenity": "restaurant",
      "cuisine": "argentinian",
      "website": "https://www.grumpygaucho.com/",
      "phone": "+1 630 447 9250",
      "addr_state": "IL",
      "addr_city": "Montgomery",
      "addr_postcode": "60538",
      "addr_street": "North River Street",
      "addr_housenumber": "214",
      "value": 283.2102545166678
    },
    {
      "id": 88020,
      "geometry": "POINT (-88.174149 41.802412)",
      "poi_name": "Honey Berry Pancakes and Cafe",
      "osm_id": 8758536770,
      "amenity": "restaurant",
      "opening_hours": "Mo-Fr 07:00-14:30, Sa-Su 07:00-15:00",
      "website": "https://honeyberrycafe.com/warrenville/",
      "phone": "+1 630 836 0333",
      "addr_state": "IL",
      "addr_city": "Warrenville",
      "addr_postcode": "60555",
      "addr_street": "West Diehl Road",
      "addr_housenumber": "28361",
      "value": 283.2102545166678
    },
    {
      "id": 89097,
      "geometry": "POINT (-87.407513 41.568563)",
      "poi_name": "Hard Rock Cafe",
      "osm_id": 8822763843,
      "amenity": "restaurant",
      "cuisine": "american",
      "opening_hours": "Mo-Su 11:00-23:00",
      "website": "https://www.hardrockcasinonorthernindiana.com/dining/hard-rock-cafe",
      "phone": "1-219-228-2383",
      "addr_state": "IN",
      "addr_city": "Gary",
      "addr_postcode": "46406",
      "addr_street": "West 29th Avenue",
      "addr_housenumber": "5400",
      "value": 283.2102545166678
    },
    {
      "id": 89108,
      "geometry": "POINT (-87.786165 41.601962)",
      "poi_name": "Golden Corral",
      "osm_id": 8825662415,
      "amenity": "restaurant",
      "cuisine": "american;buffet",
      "opening_hours": "Mo-Su 11:00-21:00",
      "website": "https://www.goldencorral.com/locations/2642/golden-corral-w-159th-street?utm_source=google&utm_medium=local&utm_campaign=localmaps&utm_content=2642",
      "phone": "+17084448480",
      "addr_state": "IL",
      "addr_city": "Tinley Park",
      "addr_postcode": "60477",
      "addr_street": "West 159th Street",
      "addr_housenumber": "6803",
      "value": 283.2102545166678
    },
    {
      "id": 93463,
      "geometry": "POINT (-88.447124 41.658826)",
      "poi_name": "Pizza Hut",
      "osm_id": 2166380312,
      "amenity": "restaurant",
      "cuisine": "pizza",
      "operator": "Yum! Brands",
      "addr_state": "IL",
      "addr_city": "Yorkville",
      "addr_postcode": "60560",
      "addr_street": "Center Parkway",
      "addr_housenumber": "603",
      "value": 283.2102545166678
    },
    {
      "id": 94985,
      "geometry": "POINT (-87.867838 41.790856)",
      "poi_name": "Cafe Salsa",
      "osm_id": 6382814056,
      "amenity": "restaurant",
      "cuisine": "mexican",
      "website": "http://www.cafesalsa.com",
      "phone": "+1-708-352-5100",
      "addr_state": "IL",
      "addr_city": "Countryside",
      "addr_postcode": "60525",
      "addr_street": "West 55th Street",
      "addr_housenumber": "9932",
      "value": 283.2102545166678
    },
    {
      "id": 95439,
      "geometry": "POINT (-87.900272 41.808491)",
      "poi_name": "Vie",
      "osm_id": 6397243297,
      "amenity": "restaurant",
      "cuisine": "farm-to-table;health_food",
      "opening_hours": "Tu-Th 17:00-21:00; Fr-Sa 17:00-22:00",
      "website": "https://www.vierestaurant.com",
      "phone": "+1-708-246-2082",
      "addr_state": "IL",
      "addr_city": "Western Springs",
      "addr_postcode": "60558",
      "addr_street": "Lawn Avenue",
      "addr_housenumber": "4471",
      "value": 283.2102545166678
    },
    {
      "id": 97178,
      "geometry": "POINT (-88.308641 41.850177)",
      "poi_name": "Briana's Pancake House",
      "osm_id": 6466014377,
      "amenity": "restaurant",
      "cuisine": "breakfast;brunch",
      "description": "pancake house",
      "opening_hours": "06:00-15:00",
      "website": "https://www.brianasbatavia.com/",
      "addr_state": "IL",
      "addr_city": "Batavia",
      "addr_postcode": "60510",
      "addr_street": "North Island Avenue",
      "addr_housenumber": "10",
      "value": 283.2102545166678
    },
    {
      "id": 97063,
      "geometry": "POINT (-87.721248 41.739295)",
      "poi_name": "Vito & Nick's Pizzeria",
      "osm_id": 6459442878,
      "amenity": "restaurant",
      "cuisine": "pizza;italian",
      "website": "https://vitoandnicks.com/",
      "phone": "+1-773-735-2050",
      "addr_state": "IL",
      "addr_city": "Chicago",
      "addr_postcode": "60652",
      "addr_street": "South Pulaski Road",
      "addr_housenumber": "8433",
      "value": 283.2102545166678
    },
    {
      "id": 101168,
      "geometry": "POINT (-87.525711 41.621605)",
      "poi_name": "Chu's China Bistro",
      "osm_id": 6612523520,
      "amenity": "restaurant",
      "cuisine": "chinese",
      "website": "https://www.chuschinabistro.com/",
      "addr_state": "IL",
      "addr_city": "Calumet City",
      "addr_postcode": "60409",
      "addr_street": "Sibley Boulevard",
      "addr_housenumber": "1",
      "value": 283.2102545166678
    },
    {
      "id": 100902,
      "geometry": "POINT (-87.869394 41.814334)",
      "poi_name": "Blueberry Hill Breakfast Cafe",
      "osm_id": 6604087570,
      "amenity": "restaurant",
      "cuisine": "american;breakfast;brunch",
      "opening_hours": "Mo-Su 07:00-14:00",
      "website": "https://www.blueberrybreakfastcafe.com/",
      "phone": "+1-708-352-4900",
      "addr_state": "IL",
      "addr_city": "La Grange",
      "addr_postcode": "60525",
      "addr_street": "South La Grange Road",
      "addr_housenumber": "49",
      "value": 283.2102545166678
    },
    {
      "id": 100903,
      "geometry": "POINT (-87.870358 41.814777)",
      "poi_name": "Fourteensixteen",
      "osm_id": 6604087571,
      "amenity": "restaurant",
      "cuisine": "american;new_american",
      "phone": "+1-708-469-7896",
      "addr_state": "IL",
      "addr_city": "La Grange",
      "addr_postcode": "60525",
      "addr_street": "Calendar Avenue",
      "addr_housenumber": "14",
      "value": 283.2102545166678
    },
    {
      "id": 100904,
      "geometry": "POINT (-87.870563 41.814733)",
      "poi_name": "EMPANADUS",
      "osm_id": 6604087572,
      "amenity": "restaurant",
      "cuisine": "argentinian",
      "phone": "+1-708-469-7252",
      "addr_state": "IL",
      "addr_city": "La Grange",
      "addr_postcode": "60525",
      "addr_street": "West Calendar Avenue",
      "addr_housenumber": "22",
      "value": 283.2102545166678
    },
    {
      "id": 100905,
      "geometry": "POINT (-87.869861 41.814302)",
      "poi_name": "Blackberry Market",
      "osm_id": 6604087573,
      "amenity": "restaurant",
      "cuisine": "cafe",
      "website": "https://blackberry.cafe/",
      "phone": "+1-708-571-2221",
      "addr_state": "IL",
      "addr_city": "La Grange",
      "addr_postcode": "60525",
      "addr_street": "South La Grange Road",
      "addr_housenumber": "36",
      "value": 283.2102545166678
    },
    {
      "id": 102887,
      "geometry": "POINT (-88.177438 41.780758)",
      "poi_name": "Los Burritos Tapatios",
      "osm_id": 8462909465,
      "amenity": "restaurant",
      "cuisine": "mexican",
      "website": "https://www.losburritostapatios.com/",
      "phone": "+1 630 778 0474",
      "addr_state": "IL",
      "addr_city": "Naperville",
      "addr_postcode": "60563",
      "addr_street": "West Ogden Avenue",
      "addr_housenumber": "1232",
      "value": 283.2102545166678
    },
    {
      "id": 102888,
      "geometry": "POINT (-88.187481 41.781182)",
      "poi_name": "2Toots Train Whistle Grill",
      "osm_id": 8462909487,
      "amenity": "restaurant",
      "website": "https://2toots.com/",
      "phone": "+1 630 453 5113",
      "addr_state": "IL",
      "addr_city": "Naperville",
      "addr_postcode": "60563",
      "addr_street": "North Aurora Road",
      "addr_housenumber": "1567",
      "value": 283.2102545166678
    },
    {
      "id": 102890,
      "geometry": "POINT (-88.184246 41.781613)",
      "poi_name": "Yamada Sushi & Poke",
      "osm_id": 8462909495,
      "amenity": "restaurant",
      "cuisine": "japanese",
      "opening_hours": "Tu-Su 11:15-20:30",
      "website": "https://www.yamadasushipokeil.com/",
      "phone": "+1 630 857 9188",
      "addr_state": "IL",
      "addr_city": "Naperville",
      "addr_postcode": "60563",
      "addr_street": "North Aurora Road",
      "addr_housenumber": "1523",
      "value": 283.2102545166678
    },
    {
      "id": 102891,
      "geometry": "POINT (-88.18397 41.781768)",
      "poi_name": "Fire It Up",
      "osm_id": 8462909506,
      "amenity": "restaurant",
      "cuisine": "mexican",
      "opening_hours": "Mo-Th 11:30-19:30, Fr-Sa 11:30-20:00",
      "website": "https://www.fireituptacos.com/",
      "phone": "+1 630 305 8225",
      "addr_state": "IL",
      "addr_city": "Naperville",
      "addr_postcode": "60563",
      "addr_street": "North Aurora Road",
      "addr_housenumber": "1523",
      "value": 283.2102545166678
    },
    {
      "id": 102892,
      "geometry": "POINT (-88.204749 41.765788)",
      "poi_name": "Mission BBQ",
      "osm_id": 8462946725,
      "amenity": "restaurant",
      "cuisine": "barbecue",
      "website": "https://mission-bbq.com/",
      "phone": "+1 630 974 5498",
      "addr_state": "IL",
      "addr_city": "Naperville",
      "addr_postcode": "60540",
      "addr_street": "South Illinois Route 59",
      "addr_housenumber": "376",
      "value": 283.2102545166678
    },
    {
      "id": 102914,
      "geometry": "POINT (-88.119209 41.594844)",
      "poi_name": "Burger Rebellion",
      "osm_id": 8464642005,
      "amenity": "restaurant",
      "cuisine": "burger;american;milkshake",
      "website": "https://www.rebellionburger.com/",
      "addr_state": "IL",
      "addr_street": "Renwick Road",
      "value": 283.2102545166678
    },
    {
      "id": 103117,
      "geometry": "POINT (-88.341421 41.986863)",
      "poi_name": "Honey Berry Cafe",
      "osm_id": 8483402708,
      "amenity": "restaurant",
      "cuisine": "breakfast",
      "website": "https://honeyberrycafe.com",
      "phone": "+1-847-717-4330",
      "addr_state": "IL",
      "addr_city": "South Elgin",
      "addr_postcode": "60177",
      "addr_street": "Randall Road",
      "addr_housenumber": "322",
      "value": 283.2102545166678
    },
    {
      "id": 103612,
      "geometry": "POINT (-88.173784 41.801189)",
      "poi_name": "Masala",
      "osm_id": 8512597519,
      "amenity": "restaurant",
      "cuisine": "indian",
      "opening_hours": "Tu-Su 11:30-14:30, 17:30-22:00",
      "website": "http://www.masalachicago.com/",
      "phone": "+1 312 457 5162",
      "addr_state": "IL",
      "addr_city": "Warrenville",
      "addr_postcode": "60555",
      "addr_street": "Dodge Drive",
      "addr_housenumber": "28331",
      "value": 283.2102545166678
    },
    {
      "id": 103680,
      "geometry": "POINT (-88.177868 41.780632)",
      "poi_name": "China Station",
      "osm_id": 8519309417,
      "amenity": "restaurant",
      "cuisine": "chinese",
      "opening_hours": "Mo-Th 10:30-22:00; Fr 10:30-22:30; Sa 11:30-22:30; Su 12:00-22:00",
      "website": "http://mychinastation.com/",
      "phone": "+1 630 305 8600",
      "addr_state": "IL",
      "addr_city": "Naperville",
      "addr_postcode": "60563",
      "addr_street": "West Ogden Avenue",
      "addr_housenumber": "1244",
      "value": 283.2102545166678
    },
    {
      "id": 103281,
      "geometry": "POINT (-88.168599 41.784677)",
      "poi_name": "Rise and Bite Cafe",
      "osm_id": 8493340788,
      "amenity": "restaurant",
      "addr_state": "IL",
      "addr_city": "Naperville",
      "addr_postcode": "60563",
      "addr_street": "West Ogden Avenue",
      "addr_housenumber": "1021",
      "value": 283.2102545166678
    },
    {
      "id": 103295,
      "geometry": "POINT (-87.951529 41.848587)",
      "poi_name": "The Clubhouse Oakbrook",
      "osm_id": 8494344809,
      "amenity": "restaurant",
      "website": "https://www.theclubhouse.com/",
      "phone": "+1-630-472-0600",
      "addr_state": "IL",
      "addr_city": "Oak Brook",
      "value": 283.2102545166678
    },
    {
      "id": 104933,
      "geometry": "POINT (-88.141463 41.755493)",
      "poi_name": "Colonial Cafe",
      "osm_id": 8591829834,
      "amenity": "restaurant",
      "cuisine": "burger;sandwich;american;chicken;ice_cream",
      "opening_hours": "8:00-20:00",
      "website": "https://www.colonialcafe.com/locations/naperville/",
      "internet_access": "wlan",
      "phone": "+1-630-420-7722",
      "outdoor_seating": "patio",
      "delivery": "yes",
      "addr_state": "IL",
      "addr_city": "Naperville",
      "addr_postcode": "60540",
      "addr_street": "South Washington Street",
      "addr_housenumber": "1101",
      "value": 283.2102545166678
    },
    {
      "id": 104545,
      "geometry": "POINT (-88.448992 41.635256)",
      "poi_name": "Smokey's Woodpit BBQ",
      "osm_id": 8573385336,
      "amenity": "restaurant",
      "cuisine": "barbecue",
      "website": "http://www.smokeyswoodpit.com/",
      "takeaway": "yes",
      "addr_city": "Yorkville",
      "addr_postcode": "60560",
      "addr_street": "South Main Street",
      "addr_housenumber": "1002",
      "value": 283.2102545166678
    },
    {
      "id": 104546,
      "geometry": "POINT (-88.446638 41.641925)",
      "poi_name": "Rowdy's",
      "osm_id": 8573385350,
      "amenity": "restaurant",
      "cuisine": "burger",
      "addr_city": "Yorkville",
      "addr_postcode": "60560",
      "addr_street": "South Bridge Street",
      "addr_housenumber": "210",
      "value": 283.2102545166678
    },
    {
      "id": 104548,
      "geometry": "POINT (-88.445312 41.642408)",
      "poi_name": "Southbank Original Barbecue",
      "osm_id": 8573396532,
      "amenity": "restaurant",
      "cuisine": "barbecue",
      "wheelchair": "yes",
      "opening_hours": "Su-Th 11:00-22:00; Fr,Sa 11:00-23:00",
      "outdoor_seating": "yes",
      "addr_city": "Yorkville",
      "addr_postcode": "60560",
      "addr_street": "East Hydraulic Avenue",
      "addr_housenumber": "129",
      "value": 283.2102545166678
    },
    {
      "id": 104549,
      "geometry": "POINT (-88.44706 41.641964)",
      "poi_name": "Crusade Burger Bar",
      "osm_id": 8573396533,
      "amenity": "restaurant",
      "cuisine": "burger",
      "addr_city": "Yorkville",
      "addr_postcode": "60560",
      "addr_street": "South Bridge Street",
      "addr_housenumber": "209",
      "value": 283.2102545166678
    },
    {
      "id": 104550,
      "geometry": "POINT (-88.442318 41.653303)",
      "poi_name": "Pepe's Mexican Restaurant",
      "osm_id": 8573396545,
      "amenity": "restaurant",
      "cuisine": "mexican",
      "website": "https://pepes.com/",
      "takeaway": "yes",
      "addr_state": "IL",
      "addr_city": "Yorkville",
      "addr_postcode": "60560",
      "addr_street": "North Bridge Street",
      "addr_housenumber": "920",
      "value": 283.2102545166678
    },
    {
      "id": 104551,
      "geometry": "POINT (-88.442269 41.65353)",
      "poi_name": "Asian Kitchen",
      "osm_id": 8573396548,
      "amenity": "restaurant",
      "cuisine": "asian",
      "website": "http://asiankitchenyorkville.com/",
      "phone": "+1 (630) 882-9590",
      "addr_state": "IL",
      "addr_city": "Yorkville",
      "addr_postcode": "60560",
      "addr_street": "North Bridge Street",
      "addr_housenumber": "934",
      "value": 283.2102545166678
    },
    {
      "id": 104935,
      "geometry": "POINT (-88.142594 41.755087)",
      "poi_name": "Deccan Spice",
      "osm_id": 8591829839,
      "amenity": "restaurant",
      "cuisine": "indian",
      "opening_hours": "Mo-Th 11:30-14:30,17:00-22:00; Fr 11:30-14:30,17:00-01:00; Sa 11:30-15:00,17:00-01:00; Su 11:30-15:00,17:00-21:30",
      "website": "http://deccanspicechicago.com/",
      "phone": "+1-331-701-7105",
      "addr_state": "IL",
      "addr_city": "Naperville",
      "addr_postcode": "60540",
      "addr_street": "West Gartner Road",
      "addr_housenumber": "192",
      "value": 283.2102545166678
    },
    {
      "id": 104936,
      "geometry": "POINT (-88.142302 41.755239)",
      "poi_name": "Nautical Bowls",
      "osm_id": 8591829841,
      "amenity": "restaurant",
      "addr_state": "IL",
      "addr_city": "Naperville",
      "addr_postcode": "60563",
      "addr_street": "West Gartner Road",
      "addr_housenumber": "720",
      "value": 283.2102545166678
    },
    {
      "id": 104937,
      "geometry": "POINT (-88.142032 41.75518)",
      "poi_name": "Walker's Charhouse",
      "osm_id": 8591829842,
      "amenity": "restaurant",
      "cuisine": "steak_house;sandwich;fish;pasta;salad;wrap;dessert;soup",
      "opening_hours": "Mo-We 16:00-21:00; Th-Su 14:00-22:00",
      "website": "https://walkerscharhouse.com/",
      "phone": "+1-630-637-9688",
      "delivery": "yes",
      "addr_state": "IL",
      "addr_city": "Naperville",
      "addr_postcode": "60540",
      "addr_street": "West Gartner Road",
      "addr_housenumber": "8",
      "value": 283.2102545166678
    },
    {
      "id": 105345,
      "geometry": "POINT (-88.164255 41.749074)",
      "poi_name": "Pho Tien",
      "osm_id": 8618945587,
      "amenity": "restaurant",
      "cuisine": "vietnamese",
      "website": "http://www.phothienkitchen.com/",
      "addr_state": "IL",
      "addr_city": "Naperville",
      "addr_postcode": "60540",
      "addr_street": "West 75th Street",
      "addr_housenumber": "931",
      "value": 283.2102545166678
    },
    {
      "id": 105323,
      "geometry": "POINT (-88.176269 41.78105)",
      "poi_name": "Gujju's Chaat House",
      "osm_id": 8617929254,
      "amenity": "restaurant",
      "cuisine": "indian",
      "phone": "+1 630 857 9290",
      "addr_state": "IL",
      "addr_city": "Naperville",
      "addr_postcode": "60563",
      "addr_street": "West Ogden Avenue",
      "addr_housenumber": "1224",
      "value": 283.2102545166678
    },
    {
      "id": 105324,
      "geometry": "POINT (-88.176471 41.78102)",
      "poi_name": "The Lucky Penny Diner and Deli",
      "osm_id": 8617929257,
      "amenity": "restaurant",
      "cuisine": "diner",
      "opening_hours": "Mo-Su 06:00-15:00",
      "website": "https://luckypennydiner.com/",
      "phone": "+1 331 229 3696",
      "addr_state": "IL",
      "addr_city": "Naperville",
      "addr_postcode": "60563",
      "addr_street": "West Ogden Avenue",
      "addr_housenumber": "1224",
      "value": 283.2102545166678
    },
    {
      "id": 111670,
      "geometry": "POINT (-88.026196 41.832768)",
      "poi_name": "Chama Ga\u00facha Brazilian Steakhouse",
      "osm_id": 3758455521,
      "amenity": "restaurant",
      "addr_state": "IL",
      "addr_city": "Downers Grove",
      "addr_postcode": "60515",
      "addr_street": "Finley Road",
      "addr_housenumber": "3008",
      "value": 283.2102545166678
    },
    {
      "id": 105618,
      "geometry": "POINT (-88.537872 41.66269)",
      "poi_name": "Ivana's Cafe",
      "osm_id": 8636880492,
      "amenity": "restaurant",
      "cuisine": "american",
      "opening_hours": "Sa-Th 06:00-14:00; Fr 06:00-20:00",
      "phone": "+1-630-429-8127",
      "addr_state": "IL",
      "addr_city": "Plano",
      "addr_postcode": "60545",
      "addr_street": "West Main Street",
      "addr_housenumber": "12",
      "value": 283.2102545166678
    },
    {
      "id": 105620,
      "geometry": "POINT (-88.531449 41.662695)",
      "poi_name": "Jade's Garden",
      "osm_id": 8636894479,
      "amenity": "restaurant",
      "cuisine": "chinese",
      "opening_hours": "11:00-21:00",
      "addr_city": "Plano",
      "addr_postcode": "60545",
      "addr_street": "East South Street",
      "addr_housenumber": "411",
      "value": 283.2102545166678
    },
    {
      "id": 105621,
      "geometry": "POINT (-88.534853 41.661765)",
      "poi_name": "Suzy's Pizza",
      "osm_id": 8636894483,
      "amenity": "restaurant",
      "cuisine": "pizza",
      "opening_hours": "Su-Th 16:00-21:30; Fr-Sa 16:00-22:30",
      "website": "http://suzyspizza.com/",
      "phone": "+1-630-552-1330",
      "addr_state": "IL",
      "addr_city": "Plano",
      "addr_postcode": "60545",
      "addr_street": "East South Street",
      "addr_housenumber": "141",
      "value": 283.2102545166678
    },
    {
      "id": 111758,
      "geometry": "POINT (-87.950614 41.849397)",
      "poi_name": "Maggiano's Little Italy",
      "osm_id": 3762049307,
      "amenity": "restaurant",
      "cuisine": "italian",
      "website": "https://www.maggianos.com/locations/Illinois/Oak%20Brook/240-oakbrook-ctr.",
      "addr_state": "IL",
      "addr_city": "Oak Brook",
      "addr_postcode": "60523",
      "addr_street": "Oakbrook Center Drive",
      "addr_housenumber": "240",
      "value": 283.2102545166678
    },
    {
      "id": 111874,
      "geometry": "POINT (-88.149673 41.773532)",
      "poi_name": "Giordano's",
      "osm_id": 3766584151,
      "amenity": "restaurant",
      "cuisine": "pizza",
      "opening_hours": "Mo-Su 11:00-21:00",
      "website": "https://giordanos.com/locations/downtown-naperville/",
      "phone": "+1-630-428-2111",
      "addr_state": "IL",
      "addr_city": "Naperville",
      "addr_postcode": "60540",
      "addr_street": "South Main Street",
      "addr_housenumber": "119",
      "value": 283.2102545166678
    },
    {
      "id": 112951,
      "geometry": "POINT (-88.027038 41.834824)",
      "poi_name": "Juicy-O",
      "osm_id": 3811804893,
      "amenity": "restaurant",
      "cuisine": "pancake",
      "opening_hours": "Mo-Fr 06:00-15:00; Sa-Su 07:00-15:00",
      "addr_state": "IL",
      "addr_city": "Downers Grove",
      "addr_street": "Finley Road",
      "addr_housenumber": "2938-2942",
      "value": 283.2102545166678
    },
    {
      "id": 115380,
      "geometry": "POINT (-87.525075 41.606293)",
      "poi_name": "State Line Pizza",
      "osm_id": 8891682119,
      "amenity": "restaurant",
      "cuisine": "pizza",
      "website": "https://www.statelinepizza.net/",
      "addr_state": "IN",
      "addr_city": "Hammond",
      "addr_postcode": "46320",
      "addr_street": "State Line Avenue",
      "addr_housenumber": "5915",
      "value": 283.2102545166678
    },
    {
      "id": 113750,
      "geometry": "POINT (-87.898831 41.810193)",
      "poi_name": "Davanti Enoteca",
      "osm_id": 3844708277,
      "amenity": "restaurant",
      "cuisine": "italian;tapas",
      "opening_hours": "Mo-Tu 11:30-21:00; We-Th 11:30-21:30; Fr 11:30-22:00; Sa 11:00-22:00; Su 10:00-21:00",
      "capacity": "75",
      "takeaway": "yes",
      "addr_state": "IL",
      "addr_city": "Western Springs",
      "addr_postcode": "60558",
      "addr_street": "Hillgrove Avenue",
      "addr_housenumber": "800",
      "value": 283.2102545166678
    },
    {
      "id": 114270,
      "geometry": "POINT (-88.082553 41.639501)",
      "poi_name": "At's-A-Nice Pizza & Pasta",
      "osm_id": 3875149662,
      "amenity": "restaurant",
      "cuisine": "pizza",
      "website": "https://www.atsanice.com/",
      "takeaway": "yes",
      "addr_state": "IL",
      "addr_city": "Romeoville",
      "addr_postcode": "60446",
      "addr_street": "Independence Boulevard",
      "addr_housenumber": "334",
      "value": 283.2102545166678
    },
    {
      "id": 115181,
      "geometry": "POINT (-88.443622 41.656268)",
      "poi_name": "China Garden",
      "osm_id": 3915713790,
      "amenity": "restaurant",
      "cuisine": "chinese",
      "website": "http://chinagardenyorkville.com/",
      "phone": "+1 (630) 553-1168",
      "delivery": "yes",
      "addr_state": "IL",
      "addr_city": "Yorkville",
      "addr_postcode": "60560",
      "addr_street": "North Bridge Street",
      "addr_housenumber": "1207",
      "value": 283.2102545166678
    },
    {
      "id": 115727,
      "geometry": "POINT (-88.166585 41.748725)",
      "poi_name": "Pancake Cafe",
      "osm_id": 8910818259,
      "amenity": "restaurant",
      "cuisine": "pancake",
      "opening_hours": "Mo-Su 07:00-15:00",
      "website": "https://www.pancakecafenaperville.com/",
      "phone": "+1 630 637 1010",
      "addr_state": "IL",
      "addr_city": "Naperville",
      "addr_postcode": "60540",
      "addr_street": "Rickert Drive",
      "addr_housenumber": "1292",
      "value": 283.2102545166678
    },
    {
      "id": 115475,
      "geometry": "POINT (-88.455618 41.658728)",
      "poi_name": "Lakeview Grille",
      "osm_id": 8898826548,
      "amenity": "restaurant",
      "addr_state": "IL",
      "addr_city": "Yorkville",
      "addr_postcode": "60560",
      "addr_street": "West Veterans Parkway",
      "addr_housenumber": "604",
      "value": 283.2102545166678
    },
    {
      "id": 115476,
      "geometry": "POINT (-88.457258 41.659446)",
      "poi_name": "Salsa Verde",
      "osm_id": 8898826557,
      "amenity": "restaurant",
      "cuisine": "mexican",
      "website": "https://salsaverderestaurant.com/",
      "phone": "+1-630-553-6931",
      "addr_state": "IL",
      "addr_city": "Yorkville",
      "addr_postcode": "60560",
      "addr_street": "West Veterans Parkway",
      "addr_housenumber": "634",
      "value": 283.2102545166678
    },
    {
      "id": 115477,
      "geometry": "POINT (-88.458836 41.659559)",
      "poi_name": "No. 1 China Buffet",
      "osm_id": 8898826573,
      "amenity": "restaurant",
      "cuisine": "chinese",
      "takeaway": "yes",
      "addr_state": "IL",
      "addr_city": "Yorkville",
      "addr_postcode": "60560",
      "addr_street": "West Veterans Parkway",
      "addr_housenumber": "684",
      "value": 283.2102545166678
    },
    {
      "id": 115624,
      "geometry": "POINT (-88.185134 41.710441)",
      "poi_name": "Yin's Wok",
      "osm_id": 8905992110,
      "amenity": "restaurant",
      "cuisine": "chinese",
      "addr_state": "IL",
      "addr_city": "Naperville",
      "addr_postcode": "60564",
      "addr_street": "95th Street",
      "addr_housenumber": "1935",
      "value": 283.2102545166678
    },
    {
      "id": 115762,
      "geometry": "POINT (-88.105915 41.796402)",
      "poi_name": "Manna Kitchen",
      "osm_id": 8911871413,
      "amenity": "restaurant",
      "opening_hours": "Tu-Sa 11:30-20:30",
      "website": "https://mannakitchen.net/",
      "phone": "+1-630-536-8328",
      "addr_state": "IL",
      "addr_city": "Lisle",
      "addr_postcode": "60532",
      "addr_street": "Ogden Avenue",
      "addr_housenumber": "2801",
      "value": 283.2102545166678
    },
    {
      "id": 116023,
      "geometry": "POINT (-88.212756 41.781012)",
      "poi_name": "JK Kabab",
      "osm_id": 8925052542,
      "amenity": "restaurant",
      "cuisine": "indian",
      "website": "https://www.jkkabab.com/",
      "phone": "+1 630 778 5555",
      "addr_state": "IL",
      "addr_city": "Naperville",
      "addr_postcode": "60563",
      "addr_street": "Weston Ridge Drive",
      "addr_housenumber": "572",
      "value": 283.2102545166678
    },
    {
      "id": 115905,
      "geometry": "POINT (-88.199998 41.791764)",
      "poi_name": "Shimla Peppers",
      "osm_id": 8918313080,
      "amenity": "restaurant",
      "cuisine": "indian",
      "website": "http://www.shimlapeppersnaperville.com/",
      "phone": "+1 331 226 2992",
      "addr_state": "IL",
      "addr_city": "Naperville",
      "addr_postcode": "60563",
      "addr_street": "Brookdale Road",
      "addr_housenumber": "1904",
      "value": 283.2102545166678
    },
    {
      "id": 116854,
      "geometry": "POINT (-88.133105 41.789446)",
      "poi_name": "Yamado",
      "osm_id": 8964624341,
      "amenity": "restaurant",
      "cuisine": "japanese",
      "opening_hours": "Mo off; Tu-Th 11:00-14:00, 16:30-21:30; Fr 11:00-14:00, 16:30-22:00; Sa 12:00-22:00; Su 12:00-21:00",
      "website": "https://www.napervilleyamado.com/",
      "phone": "+1 630 983 3567",
      "addr_state": "IL",
      "addr_city": "Naperville",
      "addr_postcode": "60563",
      "addr_street": "East Ogden Avenue",
      "addr_housenumber": "929",
      "value": 283.2102545166678
    },
    {
      "id": 116719,
      "geometry": "POINT (-88.149223 41.773095)",
      "poi_name": "Ramsay's",
      "osm_id": 8955665150,
      "amenity": "restaurant",
      "addr_state": "IL",
      "addr_city": "Naperville",
      "addr_postcode": "60540",
      "addr_street": "West Jefferson Avenue",
      "addr_housenumber": "39",
      "value": 283.2102545166678
    },
    {
      "id": 116147,
      "geometry": "POINT (-88.146064 41.773251)",
      "poi_name": "Green Basil",
      "osm_id": 8929777853,
      "amenity": "restaurant",
      "cuisine": "vietnamese",
      "phone": "+1 630 922 7700",
      "addr_state": "IL",
      "addr_city": "Naperville",
      "addr_postcode": "60540",
      "addr_street": "East Jefferson Avenue",
      "addr_housenumber": "43",
      "value": 283.2102545166678
    },
    {
      "id": 116923,
      "geometry": "POINT (-88.135004 41.78656)",
      "poi_name": "Jet's Pizza",
      "osm_id": 8971248805,
      "amenity": "restaurant",
      "cuisine": "pizza",
      "opening_hours": "Mo-Th, Su 10:00-22:00; Fr, Sa 10:00-23:00",
      "website": "https://www.jetspizza.com/stores/illinois/naperville-north/720-e-ogden-ave/",
      "phone": "+1 630 922 1111",
      "addr_state": "IL",
      "addr_city": "Naperville",
      "addr_postcode": "60563",
      "addr_street": "East Ogden Avenue",
      "addr_housenumber": "720",
      "value": 283.2102545166678
    },
    {
      "id": 117349,
      "geometry": "POINT (-87.997363 41.749211)",
      "poi_name": "Aodake Sushi & Steak House",
      "osm_id": 8989223778,
      "amenity": "restaurant",
      "cuisine": "sushi;japanese",
      "addr_state": "IL",
      "addr_city": "Darien",
      "addr_postcode": "60561",
      "addr_street": "75th Street",
      "addr_housenumber": "2129",
      "value": 283.2102545166678
    },
    {
      "id": 119917,
      "geometry": "POINT (-88.376285 41.782822)",
      "poi_name": "Chili's",
      "osm_id": 9127722531,
      "amenity": "restaurant",
      "cuisine": "tex-mex",
      "opening_hours": "Mo-Th 11:00-23:00; Fr-Sa 11:00-00:00; Su 11:00-22:00",
      "website": "https://www.chilis.com/locations/us/il/aurora/west-aurora/",
      "phone": "+1-630-907-1365",
      "official_name": "Chili's Grill & Bar",
      "outdoor_seating": "no",
      "addr_state": "IL",
      "addr_city": "Aurora",
      "addr_postcode": "60506",
      "addr_street": "Orchard Road",
      "addr_housenumber": "1290",
      "value": 283.2102545166678
    },
    {
      "id": 118409,
      "geometry": "POINT (-88.163929 41.78433)",
      "poi_name": "The Indian Harvest",
      "osm_id": 9044512061,
      "amenity": "restaurant",
      "cuisine": "indian",
      "opening_hours": "Mo, We, Th 12:00-20:00; Tu off; Fr, Sa 12:00-21:00",
      "website": "https://theindianharvest.com/",
      "phone": "+1 630 579 9500",
      "addr_state": "IL",
      "addr_city": "Naperville",
      "addr_postcode": "60563",
      "addr_street": "Royal Saint George Drive",
      "addr_housenumber": "796",
      "value": 283.2102545166678
    },
    {
      "id": 119918,
      "geometry": "POINT (-88.376321 41.78535)",
      "poi_name": "Buffalo Wild Wings",
      "osm_id": 9127722533,
      "amenity": "restaurant",
      "cuisine": "wings",
      "opening_hours": "Su-Th 11:00-00:00; Fr-Sa 11:00-01:00",
      "addr_state": "IL",
      "addr_city": "Aurora",
      "addr_postcode": "60504",
      "addr_street": "Orchard Road",
      "addr_housenumber": "1460",
      "value": 283.2102545166678
    },
    {
      "id": 119948,
      "geometry": "POINT (-88.317466 41.698211)",
      "poi_name": "Chili's",
      "osm_id": 9129718399,
      "amenity": "restaurant",
      "cuisine": "tex-mex",
      "opening_hours": "Su-Th 11:00-22:00, Fr-Sa 11:00-23:00",
      "phone": "630-554-1536",
      "official_name": "Chili's Grill & Bar",
      "addr_city": "Oswego",
      "addr_postcode": "60543",
      "addr_street": "Route 34",
      "addr_housenumber": "2820",
      "value": 283.2102545166678
    },
    {
      "id": 119984,
      "geometry": "POINT (-88.531663 41.661956)",
      "poi_name": "SAKI Hibachi & Sushi",
      "osm_id": 9130953245,
      "amenity": "restaurant",
      "cuisine": "sushi",
      "addr_city": "Plano",
      "addr_postcode": "60545",
      "addr_street": "East South Street",
      "addr_housenumber": "400",
      "value": 283.2102545166678
    },
    {
      "id": 119985,
      "geometry": "POINT (-88.537259 41.663106)",
      "poi_name": "Ben Chido Mexican Grill",
      "osm_id": 9130953246,
      "amenity": "restaurant",
      "cuisine": "mexican",
      "opening_hours": "Tu-Th 11:00-20:00; Fr-Sa 11:00-21:00; Su 11:00-20:00",
      "website": "http://orderbienchidomexicangrill.com/",
      "phone": "+1-630-273-2685",
      "takeaway": "yes",
      "delivery": "yes",
      "addr_state": "IL",
      "addr_city": "Plano",
      "addr_postcode": "60545",
      "addr_street": "North Center Street",
      "addr_housenumber": "10",
      "value": 283.2102545166678
    },
    {
      "id": 119955,
      "geometry": "POINT (-88.309347 41.702632)",
      "poi_name": "Olive Garden",
      "osm_id": 9129782326,
      "amenity": "restaurant",
      "cuisine": "italian",
      "opening_hours": "Su-Th 11:00-22:00; Fr-Sa 11:00-23:00",
      "addr_state": "IL",
      "addr_city": "Oswego",
      "addr_postcode": "60543",
      "addr_street": "Route 34",
      "addr_housenumber": "2620",
      "value": 283.2102545166678
    },
    {
      "id": 119957,
      "geometry": "POINT (-88.307696 41.703574)",
      "poi_name": "Famous Dave's",
      "osm_id": 9129782329,
      "amenity": "restaurant",
      "cuisine": "barbecue",
      "addr_state": "IL",
      "addr_city": "Oswego",
      "addr_postcode": "60543",
      "addr_street": "Route 34",
      "addr_housenumber": "2440",
      "value": 283.2102545166678
    },
    {
      "id": 120846,
      "geometry": "POINT (-88.035054 41.598227)",
      "poi_name": "Sizzles",
      "osm_id": 6725634490,
      "amenity": "restaurant",
      "cuisine": "sandwich",
      "addr_state": "IL",
      "addr_city": "Lockport",
      "addr_postcode": "60441",
      "addr_street": "Mac Gregor Road",
      "addr_housenumber": "110",
      "value": 283.2102545166678
    },
    {
      "id": 120857,
      "geometry": "POINT (-87.47921 41.491436)",
      "poi_name": "Dozeli Pizzeria",
      "osm_id": 6726535370,
      "amenity": "restaurant",
      "cuisine": "pizza",
      "opening_hours": "Su-Th 15:00-24:00; Fr-Sa 15:00-01:00",
      "website": "http://dozelipizzeria.net",
      "phone": "+1-219-515-2876",
      "addr_state": "IN",
      "addr_city": "Schererville",
      "addr_postcode": "46375",
      "addr_street": "West Lincoln Highway",
      "addr_housenumber": "1120",
      "value": 283.2102545166678
    },
    {
      "id": 121413,
      "geometry": "POINT (-88.311808 41.850081)",
      "poi_name": "Thai Village Restaurant",
      "osm_id": 6760756577,
      "amenity": "restaurant",
      "cuisine": "thai",
      "website": "https://thaivillage-batavia.com/",
      "addr_state": "IL",
      "addr_city": "Batavia",
      "addr_postcode": "60510",
      "addr_street": "North Batavia Avenue",
      "addr_housenumber": "6",
      "value": 283.2102545166678
    },
    {
      "id": 123999,
      "geometry": "POINT (-87.829191 41.602207)",
      "poi_name": "Mayan Palace",
      "osm_id": 6894923583,
      "amenity": "restaurant",
      "cuisine": "mexican",
      "opening_hours": "Mo-We,Su 11:00-22:00; Th-Sa 11:00-23:00",
      "website": "https://mayanpalaceil.com/",
      "phone": "+1-708-349-8339",
      "addr_state": "IL",
      "addr_city": "Orland Park",
      "addr_postcode": "60462",
      "addr_street": "West 159th Street",
      "addr_housenumber": "8600",
      "value": 283.2102545166678
    },
    {
      "id": 126836,
      "geometry": "POINT (-88.010128 41.7939)",
      "poi_name": "Pierce Tavern",
      "osm_id": 8003613988,
      "amenity": "restaurant",
      "cuisine": "american",
      "addr_state": "IL",
      "addr_city": "Downers Grove",
      "addr_postcode": "60515",
      "addr_street": "Main Street",
      "addr_housenumber": "5135",
      "value": 283.2102545166678
    },
    {
      "id": 124178,
      "geometry": "POINT (-87.932129 41.632352)",
      "poi_name": "Orient Cafe",
      "osm_id": 6901533459,
      "amenity": "restaurant",
      "cuisine": "chinese",
      "website": "http://www.orientcafeonline.com/",
      "phone": "+1-708-301-8988",
      "addr_state": "IL",
      "addr_city": "Homer Glen",
      "addr_postcode": "60491",
      "addr_street": "South Bell Road",
      "addr_housenumber": "14108",
      "value": 283.2102545166678
    },
    {
      "id": 124179,
      "geometry": "POINT (-87.932661 41.631582)",
      "poi_name": "Lou Malnati's Pizzeria",
      "osm_id": 6901533465,
      "amenity": "restaurant",
      "cuisine": "pizza",
      "opening_hours": "Mo-Th 16:00-22:00; Fr-Sa 11:00-23:00; Su unknown",
      "website": "https://www.loumalnatis.com/homer-glen",
      "phone": "+1-708-580-0300",
      "delivery": "yes",
      "addr_state": "IL",
      "addr_city": "Homer Glen",
      "addr_postcode": "60491",
      "addr_street": "South Bell Road",
      "addr_housenumber": "14150",
      "value": 283.2102545166678
    },
    {
      "id": 124180,
      "geometry": "POINT (-87.930681 41.630748)",
      "poi_name": "Golden Sun",
      "osm_id": 6901533469,
      "amenity": "restaurant",
      "cuisine": "chinese",
      "opening_hours": "Mo off; Tu-Th 11:00-21:00; Fr, Sa 11:00-21:30; Su 11:00-21:00",
      "website": "https://www.goldensunhomerglen.com/",
      "phone": "+1-708-301-8689",
      "addr_state": "IL",
      "addr_city": "Homer Glen",
      "addr_postcode": "60491",
      "addr_street": "South Bell Road",
      "addr_housenumber": "14211",
      "value": 283.2102545166678
    },
    {
      "id": 124183,
      "geometry": "POINT (-87.930351 41.633069)",
      "poi_name": "Tazza Italian Ristorante",
      "osm_id": 6901533478,
      "amenity": "restaurant",
      "cuisine": "italian",
      "opening_hours": "Tu-Sa 16:30-22:00; Su 15:00-21:00",
      "website": "https://tazzaristorante.com/",
      "phone": "+1-708-645-0485",
      "addr_state": "IL",
      "addr_city": "Homer Glen",
      "addr_postcode": "60491",
      "addr_street": "South Bell Road",
      "addr_housenumber": "14065",
      "value": 283.2102545166678
    },
    {
      "id": 124184,
      "geometry": "POINT (-87.930644 41.635525)",
      "poi_name": "La Crepe Bistro",
      "osm_id": 6901543485,
      "amenity": "restaurant",
      "cuisine": "french",
      "website": "https://www.la-crepe-bistro.com/",
      "phone": "+1-708-966-4866",
      "addr_state": "IL",
      "addr_city": "Homer Glen",
      "addr_postcode": "60491",
      "addr_street": "South Bell Road",
      "addr_housenumber": "13957",
      "value": 283.2102545166678
    },
    {
      "id": 126785,
      "geometry": "POINT (-88.099994 41.735796)",
      "poi_name": "New Wok",
      "osm_id": 7998411422,
      "amenity": "restaurant",
      "cuisine": "chinese",
      "opening_hours": "Tu-Sa 11:30-21:00; Su 14:00-21:00",
      "website": "https://www.newwokrestaurant.com/",
      "phone": "+16307178898",
      "takeaway": "only",
      "addr_state": "IL",
      "addr_city": "Naperville",
      "addr_postcode": "60565",
      "addr_street": "Wehrli Road",
      "addr_housenumber": "1807",
      "value": 283.2102545166678
    },
    {
      "id": 126787,
      "geometry": "POINT (-88.099682 41.735556)",
      "poi_name": "Little Pops NY Pizzeria",
      "osm_id": 7998411427,
      "amenity": "restaurant",
      "cuisine": "pizza",
      "opening_hours": "Tu-Sa 11:00-21:00; Su 12:00-21:00",
      "website": "https://www.littlepopspizzeria.com/",
      "phone": "+16302108084",
      "takeaway": "yes",
      "outdoor_seating": "yes",
      "delivery": "yes",
      "addr_state": "IL",
      "addr_city": "Naperville",
      "addr_postcode": "60565",
      "addr_street": "Wehrli Road",
      "addr_housenumber": "1819",
      "value": 283.2102545166678
    },
    {
      "id": 126837,
      "geometry": "POINT (-88.009974 41.791748)",
      "poi_name": "The Foxtail",
      "osm_id": 8003613990,
      "amenity": "restaurant",
      "website": "https://www.thefoxtaildg.com/",
      "phone": "+1 630 541 9240",
      "addr_state": "IL",
      "addr_city": "Downers Grove",
      "addr_postcode": "60515",
      "addr_street": "Main Street",
      "addr_housenumber": "5237",
      "value": 283.2102545166678
    },
    {
      "id": 128650,
      "geometry": "POINT (-88.021145 41.886783)",
      "poi_name": "Bricks Wood Fired Pizza",
      "osm_id": 8175789218,
      "amenity": "restaurant",
      "cuisine": "pizza;sandwich",
      "addr_state": "IL",
      "addr_city": "Lombard",
      "addr_postcode": "60148",
      "addr_street": "West Saint Charles Road",
      "addr_housenumber": "132",
      "value": 283.2102545166678
    },
    {
      "id": 128232,
      "geometry": "POINT (-87.740405 41.695155)",
      "poi_name": "Baba Saj",
      "osm_id": 8140437192,
      "amenity": "restaurant",
      "cuisine": "middle_eastern",
      "website": "https://babasaj.com/",
      "phone": "+1-708-741-7183",
      "addr_state": "IL",
      "addr_city": "Oak Lawn",
      "addr_postcode": "60453",
      "addr_street": "South Cicero Avenue",
      "addr_housenumber": "10832",
      "value": 283.2102545166678
    },
    {
      "id": 128242,
      "geometry": "POINT (-87.799718 41.736762)",
      "poi_name": "Sallora & Sam Bakery - Grill",
      "osm_id": 8140646699,
      "amenity": "restaurant",
      "cuisine": "middle_eastern;bakery",
      "opening_hours": "Su-Th 11:30-23:00",
      "website": "https://www.salloraandsam.com/",
      "phone": "+1-708-581-4239",
      "addr_state": "IL",
      "addr_city": "Bridgeview",
      "addr_postcode": "60455",
      "addr_street": "Harlem Avenue",
      "addr_housenumber": "8500",
      "value": 283.2102545166678
    },
    {
      "id": 128281,
      "geometry": "POINT (-87.785037 41.777441)",
      "poi_name": "Stunod's Pizzeria",
      "osm_id": 8144826568,
      "amenity": "restaurant",
      "cuisine": "pizza;ice_cream",
      "website": "https://stunodspizza.com/",
      "phone": "+1-773-586-7373",
      "addr_state": "IL",
      "addr_city": "Chicago",
      "addr_postcode": "60638",
      "addr_street": "West 63rd Street",
      "addr_housenumber": "6535",
      "value": 283.2102545166678
    },
    {
      "id": 128656,
      "geometry": "POINT (-87.798461 41.701574)",
      "poi_name": "Baba Saj",
      "osm_id": 8175827529,
      "amenity": "restaurant",
      "cuisine": "mediterranean",
      "website": "https://babasaj.com/",
      "addr_state": "IL",
      "addr_city": "Palos Hills",
      "addr_postcode": "60465",
      "addr_street": "Harlem Avenue",
      "addr_housenumber": "10442",
      "value": 283.2102545166678
    },
    {
      "id": 128673,
      "geometry": "POINT (-87.593037 41.601189)",
      "poi_name": "Shark's Fish & Chicken",
      "osm_id": 8177653662,
      "amenity": "restaurant",
      "cuisine": "seafood",
      "website": "https://www.mapquest.com/us/illinois/sharks-fish-chicken-7644249",
      "phone": "+1-708-596-1400",
      "addr_state": "IL",
      "addr_city": "South Holland",
      "addr_postcode": "60473",
      "addr_street": "Ellis Avenue",
      "addr_housenumber": "956",
      "value": 283.2102545166678
    },
    {
      "id": 128912,
      "geometry": "POINT (-88.320031 41.69604)",
      "poi_name": "PHO SON",
      "osm_id": 8197244917,
      "amenity": "restaurant",
      "cuisine": "vietnamese",
      "opening_hours": "We-Sa 11:00-20:00, Su 11:00-17:30",
      "website": "WWW.PHOSONRT34.COM",
      "phone": "+1-630-636-9746",
      "addr_state": "IL",
      "addr_city": "Oswego",
      "addr_postcode": "60543",
      "addr_street": "Route 34",
      "addr_housenumber": "2980",
      "value": 283.2102545166678
    },
    {
      "id": 129477,
      "geometry": "POINT (-88.037535 41.724895)",
      "poi_name": "Wholey Granoly",
      "osm_id": 9826831611,
      "amenity": "restaurant",
      "cuisine": "breakfast;brunch",
      "website": "https://www.wholeygranoly.com",
      "phone": "+1 630 410 2913",
      "addr_state": "IL",
      "addr_city": "Bolingbrook",
      "addr_postcode": "60440",
      "addr_street": "East Boughton Road",
      "addr_housenumber": "714",
      "value": 283.2102545166678
    },
    {
      "id": 130756,
      "geometry": "POINT (-88.013322 41.749268)",
      "poi_name": "Pho Noodle Station",
      "osm_id": 9889035631,
      "amenity": "restaurant",
      "cuisine": "noodle",
      "addr_state": "IL",
      "addr_city": "Woodridge",
      "addr_postcode": "60517",
      "addr_street": "75th Street",
      "addr_housenumber": "1001",
      "value": 283.2102545166678
    },
    {
      "id": 130462,
      "geometry": "POINT (-87.509132 41.636511)",
      "poi_name": "Aurelio's Pizza",
      "osm_id": 9872866704,
      "amenity": "restaurant",
      "cuisine": "pizza",
      "addr_state": "IN",
      "addr_city": "Hammond",
      "addr_postcode": "46320",
      "addr_street": "Calumet Avenue",
      "addr_housenumber": "4226",
      "value": 283.2102545166678
    },
    {
      "id": 132575,
      "geometry": "POINT (-88.320853 41.696307)",
      "poi_name": "Giordano's",
      "osm_id": 9958348142,
      "amenity": "restaurant",
      "cuisine": "pizza",
      "opening_hours": "Mo-Su 12:00-21:00",
      "phone": "630-551-4411",
      "addr_city": "Oswego",
      "addr_postcode": "60543",
      "addr_street": "Route 34",
      "addr_housenumber": "2870",
      "value": 283.2102545166678
    },
    {
      "id": 130964,
      "geometry": "POINT (-88.041627 41.73711)",
      "poi_name": "Papa's Pizza Place",
      "osm_id": 9896537752,
      "amenity": "restaurant",
      "cuisine": "pizza",
      "website": "https://www.papaspizzaplace.com/",
      "addr_state": "IL",
      "addr_city": "Woodridge",
      "addr_postcode": "60517",
      "addr_street": "Janes Avenue",
      "addr_housenumber": "8258",
      "value": 283.2102545166678
    },
    {
      "id": 131623,
      "geometry": "POINT (-87.963191 41.752494)",
      "poi_name": "Tizzy's Treats & Eats",
      "osm_id": 9921735291,
      "amenity": "restaurant",
      "cuisine": "ice_cream",
      "phone": "+1-630-887-7486",
      "addr_state": "IL",
      "addr_city": "Darien",
      "value": 283.2102545166678
    },
    {
      "id": 132265,
      "geometry": "POINT (-87.869068 41.790944)",
      "poi_name": "Hacienda Cocula",
      "osm_id": 9948866666,
      "amenity": "restaurant",
      "cuisine": "mexican",
      "website": "https://www.cocularestaurant.com/",
      "phone": "+1-708-352-1010",
      "addr_state": "IL",
      "addr_city": "Countryside",
      "addr_postcode": "60525",
      "addr_street": "South La Grange Road",
      "addr_housenumber": "5452",
      "value": 283.2102545166678
    },
    {
      "id": 132268,
      "geometry": "POINT (-87.869089 41.791439)",
      "poi_name": "Via Bella",
      "osm_id": 9948866673,
      "amenity": "restaurant",
      "cuisine": "italian",
      "website": "https://www.viabellarestaurant.com/index.html",
      "phone": "+1-708-482-0055",
      "addr_state": "IL",
      "addr_city": "Countryside",
      "addr_postcode": "60525",
      "addr_street": "South La Grange Road",
      "addr_housenumber": "5412",
      "value": 283.2102545166678
    },
    {
      "id": 132269,
      "geometry": "POINT (-87.869182 41.790919)",
      "poi_name": "Pisa Pizza",
      "osm_id": 9948866674,
      "amenity": "restaurant",
      "cuisine": "pizza",
      "website": "https://pisapizzacountryside.com/",
      "addr_state": "IL",
      "addr_city": "Countryside",
      "addr_postcode": "60525",
      "addr_street": "South La Grange Road",
      "addr_housenumber": "5440",
      "value": 283.2102545166678
    },
    {
      "id": 132551,
      "geometry": "POINT (-88.460093 41.659253)",
      "poi_name": "Que Brava",
      "osm_id": 9958311861,
      "amenity": "restaurant",
      "cuisine": "mexican",
      "opening_hours": "Mo-Su 11:00-21:00",
      "phone": "331-207-8939",
      "addr_city": "Yorkville",
      "addr_postcode": "60560",
      "addr_street": "Cannonball Trail",
      "addr_housenumber": "1423",
      "value": 283.2102545166678
    },
    {
      "id": 132552,
      "geometry": "POINT (-88.31708 41.702853)",
      "poi_name": "Benny's Place",
      "osm_id": 9958319144,
      "amenity": "restaurant",
      "cuisine": "breakfast",
      "opening_hours": "Mo-Su 07:00-15:00",
      "phone": "6305543966",
      "addr_city": "Oswego",
      "addr_postcode": "60543",
      "addr_street": "Douglas Road",
      "addr_housenumber": "1158",
      "value": 283.2102545166678
    },
    {
      "id": 132553,
      "geometry": "POINT (-88.320238 41.696651)",
      "poi_name": "Red Robin",
      "osm_id": 9958322254,
      "amenity": "restaurant",
      "cuisine": "burger",
      "opening_hours": "Su-Th 11:00-22:00, Fr-Sa 11:00-23:00",
      "phone": "630-551-4087",
      "official_name": "Red Robin Gourmet Burgers and Brews",
      "addr_city": "Oswego",
      "addr_postcode": "60543",
      "addr_street": "Route 34",
      "addr_housenumber": "2860",
      "value": 283.2102545166678
    },
    {
      "id": 132554,
      "geometry": "POINT (-88.319926 41.695891)",
      "poi_name": "Sakamoto Japanese Grill & Sushi",
      "osm_id": 9958322483,
      "amenity": "restaurant",
      "cuisine": "sushi",
      "phone": "630-554-2388",
      "addr_city": "Oswego",
      "addr_postcode": "60543",
      "addr_street": "Route 34",
      "addr_housenumber": "2984",
      "value": 283.2102545166678
    },
    {
      "id": 132556,
      "geometry": "POINT (-88.353669 41.68372)",
      "poi_name": "La Marimba Mexican Restuarant",
      "osm_id": 9958324463,
      "amenity": "restaurant",
      "cuisine": "mexican",
      "opening_hours": "Mo-Th 11:00-21:00, Fr-Sa 11:00-22:00",
      "website": "https://lamarimbarestaurant.com/",
      "phone": "(630) 636-6035",
      "outdoor_seating": "patio",
      "addr_city": "Oswego",
      "addr_postcode": "60543",
      "addr_street": "West Washington Street",
      "addr_housenumber": "65",
      "value": 283.2102545166678
    },
    {
      "id": 132576,
      "geometry": "POINT (-88.315974 41.704352)",
      "poi_name": "Riverside Pizza",
      "osm_id": 9958348223,
      "amenity": "restaurant",
      "cuisine": "pizza",
      "opening_hours": "Su-Th  11:00 - 23:00, Fr - Sa 11:00 - 00:00",
      "phone": "6306366888",
      "addr_city": "Oswego",
      "addr_postcode": "60543",
      "addr_street": "Douglas Road",
      "addr_housenumber": "1100",
      "value": 283.2102545166678
    },
    {
      "id": 132557,
      "geometry": "POINT (-88.353163 41.68326)",
      "poi_name": "113 Main",
      "osm_id": 9958324675,
      "amenity": "restaurant",
      "cuisine": "american",
      "website": "https://www.113main.com/",
      "phone": "(331) 216-5133",
      "addr_city": "Oswego",
      "addr_postcode": "60543",
      "addr_street": "Main Street",
      "addr_housenumber": "113",
      "value": 283.2102545166678
    },
    {
      "id": 132560,
      "geometry": "POINT (-88.445086 41.642447)",
      "poi_name": "Ginger and Soul",
      "osm_id": 9958328133,
      "amenity": "restaurant",
      "opening_hours": "Th-Sa 17:00-21:00; Su 10:00-14:00",
      "operator": "Ginger an Soul Inc.",
      "addr_city": "Yorkville",
      "addr_postcode": "60560",
      "addr_street": "East Hydraulic Avenue",
      "addr_housenumber": "131",
      "value": 283.2102545166678
    },
    {
      "id": 132562,
      "geometry": "POINT (-88.314057 41.701881)",
      "poi_name": "Pepe's Mexican Restaurant Oswego",
      "osm_id": 9958334004,
      "amenity": "restaurant",
      "cuisine": "mexican",
      "opening_hours": "Mo-Sa 11:00-22:00, Su 11:00-20:00",
      "phone": "630-551-4476",
      "addr_city": "Oswego",
      "addr_postcode": "60543",
      "addr_street": "Route 34",
      "addr_housenumber": "2743",
      "value": 283.2102545166678
    },
    {
      "id": 132563,
      "geometry": "POINT (-88.3143 41.701775)",
      "poi_name": "Rosatti's Pizza OSW",
      "osm_id": 9958334227,
      "amenity": "restaurant",
      "cuisine": "pizza",
      "opening_hours": "Su-Th 11:00-21:00, Fr-Sa 11:00-22:00",
      "phone": "630-551-1150",
      "addr_city": "Oswego",
      "addr_postcode": "60543",
      "addr_street": "Route 34",
      "addr_housenumber": "2751",
      "value": 283.2102545166678
    },
    {
      "id": 132566,
      "geometry": "POINT (-88.314116 41.701855)",
      "poi_name": "Cantina Bar & Grill",
      "osm_id": 9958336116,
      "amenity": "restaurant",
      "cuisine": "mexican",
      "opening_hours": "Su-Th 11:00-01:00, Fr-Sa 11:00-02:00",
      "phone": "630-554-9631",
      "addr_city": "Oswego",
      "addr_postcode": "60543",
      "addr_street": "Route 34",
      "addr_housenumber": "2745",
      "value": 283.2102545166678
    },
    {
      "id": 132567,
      "geometry": "POINT (-88.444969 41.641505)",
      "poi_name": "Dakota's",
      "osm_id": 9958336595,
      "amenity": "restaurant",
      "opening_hours": "Mo-Th 11:00-22:00; Fr-Sa 07:00-23:00; Su 07:00-22:00",
      "website": "https://dakotas.us/",
      "phone": "+1-630-381-9390",
      "addr_city": "Yorkville",
      "addr_postcode": "60560",
      "addr_street": "Heustis Street",
      "addr_housenumber": "227",
      "value": 283.2102545166678
    },
    {
      "id": 132586,
      "geometry": "POINT (-87.33431 41.46541)",
      "poi_name": "Pepe's",
      "osm_id": 9959057431,
      "amenity": "restaurant",
      "cuisine": "mexican",
      "addr_state": "IN",
      "addr_city": "Merrillville",
      "addr_postcode": "46410",
      "addr_street": "East 84th Avenue",
      "addr_housenumber": "260",
      "value": 283.2102545166678
    },
    {
      "id": 132568,
      "geometry": "POINT (-88.319395 41.697142)",
      "poi_name": "IHOP",
      "osm_id": 9958337030,
      "amenity": "restaurant",
      "cuisine": "breakfast;pancake",
      "opening_hours": "Su-Fr 07:00-22:00, Sa 07:00-00:00",
      "phone": "630-554-9065",
      "addr_city": "Oswego",
      "addr_postcode": "60543",
      "addr_street": "Route 34",
      "addr_housenumber": "2850",
      "value": 283.2102545166678
    },
    {
      "id": 132570,
      "geometry": "POINT (-88.313782 41.701976)",
      "poi_name": "Mason Wok",
      "osm_id": 9958345811,
      "amenity": "restaurant",
      "cuisine": "asian",
      "opening_hours": "Mo-Fr 11:00-21:00, Sa-Su 12:00-21:00",
      "phone": "630-554-6688",
      "addr_city": "Oswego",
      "addr_postcode": "60543",
      "addr_street": "Route 34",
      "addr_housenumber": "2735",
      "value": 283.2102545166678
    },
    {
      "id": 132572,
      "geometry": "POINT (-88.313747 41.698174)",
      "poi_name": "Buffalo Wild Wings",
      "osm_id": 9958345874,
      "amenity": "restaurant",
      "cuisine": "wings",
      "opening_hours": "Su-Th 11:00-00:00, Fr-Sa 11:00-01:00",
      "phone": "630-554-5658",
      "addr_city": "Oswego",
      "addr_postcode": "60543",
      "addr_street": "Douglas Road",
      "addr_housenumber": "1550",
      "value": 283.2102545166678
    },
    {
      "id": 132573,
      "geometry": "POINT (-88.316098 41.704042)",
      "poi_name": "Burritos Arandas",
      "osm_id": 9958345949,
      "amenity": "restaurant",
      "cuisine": "mexican",
      "opening_hours": "Mo-Sa 10:00 - 21:00",
      "phone": "6305540037",
      "addr_city": "Oswego",
      "addr_postcode": "60543",
      "addr_street": "Douglas Road",
      "addr_housenumber": "1112",
      "value": 283.2102545166678
    },
    {
      "id": 132587,
      "geometry": "POINT (-87.335334 41.468614)",
      "poi_name": "McAlister's Deli",
      "osm_id": 9959057432,
      "amenity": "restaurant",
      "cuisine": "sandwich",
      "addr_state": "IN",
      "addr_city": "Merrillville",
      "addr_postcode": "46410",
      "addr_street": "Broadway",
      "value": 283.2102545166678
    },
    {
      "id": 132588,
      "geometry": "POINT (-87.335243 41.469217)",
      "poi_name": "Golden Corral",
      "osm_id": 9959057434,
      "amenity": "restaurant",
      "cuisine": "american;buffet",
      "addr_state": "IN",
      "addr_city": "Merrillville",
      "addr_postcode": "46410",
      "addr_street": "Broadway",
      "value": 283.2102545166678
    },
    {
      "id": 135319,
      "geometry": "POINT (-87.632927 41.623196)",
      "poi_name": "Beggars Pizza",
      "osm_id": 11511688881,
      "amenity": "restaurant",
      "cuisine": "pizza",
      "addr_state": "IL",
      "addr_city": "Harvey",
      "addr_postcode": "60426",
      "addr_street": "East 147th Street",
      "addr_housenumber": "369",
      "value": 283.2102545166678
    },
    {
      "id": 137822,
      "geometry": "POINT (-88.308524 41.883006)",
      "poi_name": "Wildwood Restaurant",
      "osm_id": 6115914586,
      "amenity": "restaurant",
      "cuisine": "regional",
      "opening_hours": "Mo 17:00-21:00; Tu-Sa 11:30-21:00; Su 10:00-21:00",
      "website": "https://wildwoodsteak.com/",
      "phone": "+1 630-377-8325",
      "addr_state": "IL",
      "addr_city": "Geneva",
      "addr_postcode": "60134",
      "addr_street": "South 3rd Street",
      "addr_housenumber": "477",
      "value": 283.2102545166678
    },
    {
      "id": 135653,
      "geometry": "POINT (-87.337718 41.50764)",
      "poi_name": "Pepe's",
      "osm_id": 11528618098,
      "amenity": "restaurant",
      "cuisine": "mexican",
      "addr_state": "IN",
      "addr_city": "Merrillville",
      "addr_postcode": "46410",
      "addr_street": "West 61st Avenue",
      "addr_housenumber": "100",
      "value": 283.2102545166678
    },
    {
      "id": 135890,
      "geometry": "POINT (-87.508305 41.544208)",
      "poi_name": "Red Lobster",
      "osm_id": 11543778954,
      "amenity": "restaurant",
      "cuisine": "seafood",
      "website": "https://www.redlobster.com/seafood-restaurants/locations/in/munster/9311-calumet-avenue",
      "addr_state": "IN",
      "addr_city": "Munster",
      "addr_postcode": "46321",
      "addr_street": "Calumet Avenue",
      "addr_housenumber": "9311",
      "value": 283.2102545166678
    },
    {
      "id": 135638,
      "geometry": "POINT (-87.471659 41.550482)",
      "poi_name": "Miner Dunn",
      "osm_id": 11528274203,
      "amenity": "restaurant",
      "cuisine": "burger",
      "website": "http://www.minerdunnhamburgers.com/",
      "addr_state": "IN",
      "addr_city": "Highland",
      "addr_postcode": "46322",
      "addr_street": "Indianapolis Boulevard",
      "addr_housenumber": "8940",
      "value": 283.2102545166678
    },
    {
      "id": 137035,
      "geometry": "POINT (-88.238513 41.782101)",
      "poi_name": "Amato's Pizza",
      "osm_id": 6082706103,
      "amenity": "restaurant",
      "cuisine": "italian",
      "opening_hours": "Mo-We 11:00-21:00; Th-Sa 11:00-22:00; Su 15:00-21:00",
      "website": "https://www.amatospizza.com/",
      "phone": "+1 630-236-0055",
      "addr_state": "IL",
      "addr_city": "Aurora",
      "addr_postcode": "60502",
      "addr_street": "North Aurora Road",
      "addr_housenumber": "3150",
      "value": 283.2102545166678
    },
    {
      "id": 139535,
      "geometry": "POINT (-87.94749 41.848692)",
      "poi_name": "Gibson's Bar & Steakhouse",
      "osm_id": 6202128139,
      "amenity": "restaurant",
      "cuisine": "steak_house",
      "website": "https://www.gibsonssteakhouse.com/gibsons-oak-brook",
      "addr_state": "IL",
      "addr_city": "Oak Brook",
      "addr_postcode": "60523",
      "addr_street": "Spring Road",
      "addr_housenumber": "2105",
      "value": 283.2102545166678
    },
    {
      "id": 143317,
      "geometry": "POINT (-87.99199 41.841128)",
      "poi_name": "LaBarra - Butterfield",
      "osm_id": 6336532324,
      "amenity": "restaurant",
      "cuisine": "italian;pizza",
      "opening_hours": "Mo-Th 15:00-21:00 \"Dinner menu available till 8PM\"; Fr-Sa 11:00-22:00 \"Dinner menu available till 9PM\"; Su 11:00-21:00 \"Dinner menu available till 8PM\"",
      "website": "https://www.labarraristorante.com/",
      "phone": "+1-630-861-6177",
      "addr_state": "IL",
      "addr_city": "Oak Brook",
      "addr_postcode": "60523",
      "addr_street": "Butterfield Road",
      "addr_housenumber": "3011",
      "value": 283.2102545166678
    },
    {
      "id": 149506,
      "geometry": "POINT (-88.041623 41.719856)",
      "poi_name": "The Beer Market",
      "osm_id": 4013605589,
      "amenity": "restaurant",
      "addr_state": "IL",
      "addr_city": "Bolingbrook",
      "addr_postcode": "60440",
      "addr_street": "Boughton Road",
      "addr_housenumber": "941",
      "value": 283.2102545166678
    },
    {
      "id": 146127,
      "geometry": "POINT (-88.199125 41.522113)",
      "poi_name": "Chicken-N-Spice",
      "osm_id": 7413030737,
      "amenity": "restaurant",
      "addr_state": "IL",
      "addr_city": "Shorewood",
      "addr_postcode": "60404",
      "addr_street": "Brook Forest Avenue",
      "addr_housenumber": "150 W",
      "value": 283.2102545166678
    },
    {
      "id": 146128,
      "geometry": "POINT (-88.199123 41.522374)",
      "poi_name": "Pizza For U",
      "osm_id": 7413030738,
      "amenity": "restaurant",
      "cuisine": "pizza",
      "addr_state": "IL",
      "addr_city": "Shorewood",
      "addr_postcode": "60404",
      "addr_street": "Brook Forest Avenue",
      "addr_housenumber": "150",
      "value": 283.2102545166678
    },
    {
      "id": 148878,
      "geometry": "POINT (-88.01666 41.859186)",
      "poi_name": "Noodles Pho U",
      "osm_id": 3986683127,
      "amenity": "restaurant",
      "addr_city": "Lombard",
      "addr_postcode": "60148",
      "addr_street": "South Main Street",
      "addr_housenumber": "1239",
      "value": 283.2102545166678
    },
    {
      "id": 146202,
      "geometry": "POINT (-87.778265 41.777999)",
      "poi_name": "New Warsaw \ud83c\uddf5\ud83c\uddf1",
      "osm_id": 7418074166,
      "amenity": "restaurant",
      "cuisine": "polish;coffee;diner;american;breakfast;lunch;soup",
      "opening_hours": "Tu-Fr 11:00-15:30, Sa 11:00-19:00; Su 08:30-18:00",
      "phone": "+1 773 586 0410",
      "addr_state": "IL",
      "addr_city": "Chicago",
      "addr_postcode": "60638",
      "addr_street": "West 63rd Street",
      "addr_housenumber": "6250",
      "value": 283.2102545166678
    },
    {
      "id": 152604,
      "geometry": "POINT (-88.423911 41.386275)",
      "poi_name": "Buffalo Wild Wings",
      "osm_id": 4150280539,
      "amenity": "restaurant",
      "cuisine": "wings",
      "website": "https://www.buffalowildwings.com/",
      "phone": "+1-815-416-0048",
      "takeaway": "yes",
      "outdoor_seating": "yes",
      "addr_state": "IL",
      "addr_city": "Morris",
      "addr_postcode": "60450",
      "addr_street": "Sycamore Drive",
      "addr_housenumber": "2685",
      "value": 283.2102545166678
    },
    {
      "id": 151407,
      "geometry": "POINT (-87.869843 41.813935)",
      "poi_name": "Di Nico's Pizza",
      "osm_id": 4097641884,
      "amenity": "restaurant",
      "cuisine": "pizza;gelato",
      "opening_hours": "24/7",
      "phone": "+1-708-352-9800",
      "takeaway": "yes",
      "delivery": "yes",
      "addr_state": "IL",
      "addr_city": "La Grange",
      "addr_postcode": "60525",
      "addr_street": "South La Grange Road",
      "addr_housenumber": "42",
      "value": 283.2102545166678
    },
    {
      "id": 150151,
      "geometry": "POINT (-88.423986 41.356771)",
      "poi_name": "Corleone's Italian Restaurant",
      "osm_id": 4044967125,
      "amenity": "restaurant",
      "cuisine": "italian;pizza",
      "delivery": "yes",
      "addr_city": "Morris",
      "addr_street": "Liberty Street",
      "value": 283.2102545166678
    },
    {
      "id": 156166,
      "geometry": "POINT (-87.52222 41.606655)",
      "poi_name": "Nick & George's",
      "osm_id": 4641488965,
      "amenity": "restaurant",
      "cuisine": "american",
      "addr_state": "IN",
      "addr_city": "Hammond",
      "addr_postcode": "46320",
      "addr_street": "Hohman Avenue",
      "addr_housenumber": "5850",
      "value": 283.2102545166678
    },
    {
      "id": 152957,
      "geometry": "POINT (-87.974726 41.81244)",
      "poi_name": "Katy's Dumpling House",
      "osm_id": 4170395195,
      "amenity": "restaurant",
      "cuisine": "chinese",
      "opening_hours": "Tu-Su 11:00-21:00",
      "website": "http://www.katysdumpling.com/",
      "addr_state": "IL",
      "addr_city": "Westmont",
      "addr_postcode": "60559",
      "addr_street": "North Cass Avenue",
      "addr_housenumber": "665",
      "value": 283.2102545166678
    },
    {
      "id": 156169,
      "geometry": "POINT (-87.509308 41.56957)",
      "poi_name": "Edwardo's Natural Pizza",
      "osm_id": 4641597082,
      "amenity": "restaurant",
      "cuisine": "pizza",
      "addr_state": "IN",
      "addr_city": "Munster",
      "addr_postcode": "46321",
      "addr_street": "Calumet Avenue",
      "addr_housenumber": "7920",
      "value": 283.2102545166678
    },
    {
      "id": 156170,
      "geometry": "POINT (-87.508139 41.561368)",
      "poi_name": "Pizza Hut",
      "osm_id": 4641598053,
      "amenity": "restaurant",
      "cuisine": "pizza",
      "addr_state": "IN",
      "addr_city": "Munster",
      "addr_postcode": "46321",
      "addr_street": "Ridge Road",
      "addr_housenumber": "815",
      "value": 283.2102545166678
    },
    {
      "id": 156990,
      "geometry": "POINT (-88.312537 41.913634)",
      "poi_name": "Smitty's On The Corner",
      "osm_id": 4680541587,
      "amenity": "restaurant",
      "cuisine": "sandwich",
      "opening_hours": "Mo-Fr 08:00-17:00; Sa 10:00-16:00; Su closed",
      "takeaway": "yes",
      "outdoor_seating": "no",
      "delivery": "yes",
      "addr_state": "IL",
      "addr_city": "St. Charles",
      "addr_postcode": "60174",
      "addr_street": "East Main Street",
      "addr_housenumber": "15",
      "value": 283.2102545166678
    },
    {
      "id": 159165,
      "geometry": "POINT (-87.931663 41.601822)",
      "poi_name": "Chesdan's Pizzeria and Grille",
      "osm_id": 4781631201,
      "amenity": "restaurant",
      "cuisine": "pizza;italian;burger",
      "opening_hours": "Mo-Th 11:00-22:00; Fr-Sa 11:00-23:00; Su 12:00-21:00",
      "takeaway": "yes",
      "outdoor_seating": "no",
      "delivery": "no",
      "addr_state": "IL",
      "addr_city": "Homer Glen",
      "addr_postcode": "60491",
      "addr_street": "South Bell Road",
      "addr_housenumber": "15764",
      "value": 283.2102545166678
    },
    {
      "id": 157817,
      "geometry": "POINT (-88.15023 41.774212)",
      "poi_name": "Hugo's Frog Bar & Fish House",
      "osm_id": 4726413505,
      "amenity": "restaurant",
      "opening_hours": "Mo-Th, Su 11:00-21:00; Fr-Sa 11:00-22:00",
      "website": "https://www.hugosfrogbar.com/locations/naperville/",
      "phone": "+1 630 548 3764",
      "addr_state": "IL",
      "addr_city": "Naperville",
      "addr_postcode": "60540",
      "addr_street": "South Main Street",
      "addr_housenumber": "55",
      "value": 283.2102545166678
    },
    {
      "id": 157818,
      "geometry": "POINT (-88.151057 41.772072)",
      "poi_name": "Egg Harbor Cafe",
      "osm_id": 4726413506,
      "amenity": "restaurant",
      "opening_hours": "Mo-Su 07:00-14:00",
      "website": "https://eggharborcafe.com/location/naperville/",
      "phone": "+1 630 548 1196",
      "addr_state": "IL",
      "addr_city": "Naperville",
      "addr_postcode": "60540",
      "addr_street": "Jackson Avenue",
      "addr_housenumber": "175",
      "value": 283.2102545166678
    },
    {
      "id": 159086,
      "geometry": "POINT (-87.892646 41.56162)",
      "poi_name": "Barraco's Pizza",
      "osm_id": 4775744336,
      "amenity": "restaurant",
      "cuisine": "pizza",
      "opening_hours": "09:00-02:30",
      "takeaway": "yes",
      "outdoor_seating": "yes",
      "delivery": "no",
      "addr_state": "IL",
      "addr_city": "Orland Park",
      "addr_postcode": "60467",
      "addr_street": "Wolf Road",
      "addr_housenumber": "18040",
      "value": 283.2102545166678
    },
    {
      "id": 159087,
      "geometry": "POINT (-87.892073 41.561512)",
      "poi_name": "Mo's Chinese Kitchen",
      "osm_id": 4775744337,
      "amenity": "restaurant",
      "cuisine": "chinese",
      "opening_hours": "Su 12:00-21:00; Mo-Th 11:00-21:00; Fr-Sa 11:00-22:00",
      "takeaway": "yes",
      "outdoor_seating": "no",
      "addr_state": "IL",
      "addr_city": "Orland Park",
      "addr_postcode": "60467",
      "addr_street": "Wolf Road",
      "addr_housenumber": "18062",
      "value": 283.2102545166678
    },
    {
      "id": 157769,
      "geometry": "POINT (-88.158603 41.871048)",
      "poi_name": "Caliendo's Restaurant & Sports Bar",
      "osm_id": 4725064630,
      "amenity": "restaurant",
      "cuisine": "pizza;italian",
      "opening_hours": "11:00-02:00",
      "outdoor_seating": "yes",
      "delivery": "yes",
      "addr_state": "IL",
      "addr_city": "Winfield",
      "addr_postcode": "60190",
      "addr_street": "Winfield Road",
      "addr_housenumber": "0s050",
      "value": 283.2102545166678
    },
    {
      "id": 159608,
      "geometry": "POINT (-88.018038 41.753928)",
      "poi_name": "Royal Buffet",
      "osm_id": 4799655373,
      "amenity": "restaurant",
      "cuisine": "chinese;buffet",
      "opening_hours": "Su-Th 11:00-21:30; Fr,Sa 11:00-22:00",
      "takeaway": "no",
      "outdoor_seating": "no",
      "delivery": "no",
      "addr_state": "IL",
      "addr_city": "Downers Grove",
      "addr_postcode": "60516",
      "addr_street": "75th Street",
      "addr_housenumber": "1400",
      "value": 283.2102545166678
    },
    {
      "id": 164199,
      "geometry": "POINT (-87.973332 41.750385)",
      "poi_name": "Chiba Japanese Restaurant",
      "osm_id": 9455369397,
      "amenity": "restaurant",
      "cuisine": "japanese",
      "website": "chibachicago.com",
      "phone": "+16308507848",
      "addr_state": "IL",
      "addr_city": "Darien",
      "addr_postcode": "60561",
      "addr_street": "South Cass Avenue",
      "addr_housenumber": "7533",
      "value": 283.2102545166678
    },
    {
      "id": 164203,
      "geometry": "POINT (-87.974817 41.750364)",
      "poi_name": "Darien Chop Suey",
      "osm_id": 9455439998,
      "amenity": "restaurant",
      "cuisine": "chinese",
      "website": "darienchopsuey.com",
      "phone": "+16308528899",
      "addr_state": "IL",
      "addr_city": "Darien",
      "addr_postcode": "60561",
      "addr_street": "South Cass Avenue",
      "addr_housenumber": "7516",
      "value": 283.2102545166678
    },
    {
      "id": 164204,
      "geometry": "POINT (-87.972048 41.753175)",
      "poi_name": "Chuck E. Cheese",
      "osm_id": 9455440000,
      "amenity": "restaurant",
      "cuisine": "pizza",
      "leisure": "amusement_arcade",
      "website": "https://locations.chuckecheese.com/us/il/darien/7409-cass-ave.",
      "phone": "+16309640740",
      "addr_state": "IL",
      "addr_city": "Darien",
      "addr_postcode": "60561",
      "addr_street": "South Cass Avenue",
      "addr_housenumber": "7409",
      "value": 283.2102545166678
    },
    {
      "id": 164207,
      "geometry": "POINT (-88.004539 41.750652)",
      "poi_name": "Jet's Pizza",
      "osm_id": 9455440623,
      "amenity": "restaurant",
      "cuisine": "pizza",
      "website": "https://www.jetspizza.com/",
      "phone": "+16309103100",
      "addr_state": "IL",
      "addr_city": "Darien",
      "addr_postcode": "60561",
      "addr_street": "75th Street",
      "addr_housenumber": "2425",
      "value": 283.2102545166678
    },
    {
      "id": 164209,
      "geometry": "POINT (-88.066498 41.696615)",
      "poi_name": "JJ Fish & Chicken",
      "osm_id": 9455469751,
      "amenity": "restaurant",
      "cuisine": "seafood",
      "website": "https://www.jjfishbolingbrook.com/",
      "phone": "+16307839160",
      "addr_state": "IL",
      "addr_city": "Bolingbrook",
      "addr_postcode": "60440",
      "addr_street": "South Bolingbrook Drive",
      "addr_housenumber": "184",
      "value": 283.2102545166678
    },
    {
      "id": 164210,
      "geometry": "POINT (-88.066637 41.696633)",
      "poi_name": "Garden China",
      "osm_id": 9455469752,
      "amenity": "restaurant",
      "cuisine": "chinese",
      "website": "http://gardenchinabolingbrook.com/",
      "phone": "+16307838530",
      "addr_state": "IL",
      "addr_city": "Bolingbrook",
      "addr_postcode": "60440",
      "addr_street": "South Bolingbrook Drive",
      "addr_housenumber": "176",
      "value": 283.2102545166678
    },
    {
      "id": 165149,
      "geometry": "POINT (-87.897783 41.834972)",
      "poi_name": "Westchester Inn",
      "osm_id": 9520717903,
      "amenity": "restaurant",
      "cuisine": "czech",
      "opening_hours": "Tu-Su 11:00-19:00",
      "website": "https://westchesterinn.net/",
      "phone": "(708) 409-1313",
      "addr_state": "IL",
      "addr_city": "Westchester",
      "addr_postcode": "60154",
      "addr_street": "Wolf Road",
      "addr_housenumber": "3069",
      "value": 283.2102545166678
    },
    {
      "id": 164763,
      "geometry": "POINT (-87.853359 41.816839)",
      "poi_name": "Skadarliya",
      "osm_id": 9499918961,
      "amenity": "restaurant",
      "cuisine": "serbian",
      "website": "https://skadarliya.com/",
      "addr_state": "IL",
      "addr_city": "Brookfield",
      "addr_postcode": "60513",
      "addr_street": "Ogden Avenue",
      "addr_housenumber": "9237",
      "value": 283.2102545166678
    },
    {
      "id": 166145,
      "geometry": "POINT (-88.147725 41.771992)",
      "poi_name": "Gyu-Kaku",
      "osm_id": 9576860121,
      "amenity": "restaurant",
      "cuisine": "japanese;barbecue",
      "opening_hours": "Mo-Th 12:00-21:30; Fr-Sa 11:00-22:30; Su 11:00-21:30",
      "website": "https://www.gyu-kaku.com/naperville/",
      "addr_state": "IL",
      "addr_city": "Naperville",
      "addr_postcode": "60540",
      "addr_street": "Chicago Avenue",
      "addr_housenumber": "47",
      "value": 283.2102545166678
    },
    {
      "id": 166216,
      "geometry": "POINT (-88.530868 41.661988)",
      "poi_name": "El Chile Mexican Grill",
      "osm_id": 9581342605,
      "amenity": "restaurant",
      "cuisine": "mexican",
      "opening_hours": "10:00-22:00",
      "website": "https://elchilemexicangrill.com/",
      "phone": "+1-331-808-4100",
      "takeaway": "yes",
      "outdoor_seating": "yes",
      "delivery": "yes",
      "addr_city": "Plano",
      "addr_postcode": "60545",
      "addr_street": "East South Street",
      "addr_housenumber": "410",
      "value": 283.2102545166678
    },
    {
      "id": 169009,
      "geometry": "POINT (-88.204237 41.608297)",
      "poi_name": "Moe Joe's",
      "osm_id": 2291301787,
      "amenity": "restaurant",
      "website": "https://eatmoejoes.com/",
      "addr_state": "IL",
      "addr_city": "Plainfield",
      "addr_postcode": "60544",
      "addr_street": "West Lockport Street",
      "addr_housenumber": "24033",
      "value": 283.2102545166678
    },
    {
      "id": 169414,
      "geometry": "POINT (-87.783084 41.748043)",
      "poi_name": "Chuck's Southern Comfort Cafe",
      "osm_id": 2300371188,
      "amenity": "restaurant",
      "cuisine": "soul_food",
      "website": "https://chuckscafe.com/",
      "addr_state": "IL",
      "addr_city": "Burbank",
      "addr_postcode": "60459",
      "addr_street": "79th Street",
      "addr_housenumber": "6501",
      "value": 283.2102545166678
    },
    {
      "id": 169427,
      "geometry": "POINT (-87.821236 41.718739)",
      "poi_name": "Pepe's",
      "osm_id": 2300409211,
      "amenity": "restaurant",
      "cuisine": "mexican",
      "addr_state": "IL",
      "addr_city": "Hickory Hills",
      "addr_street": "West 95th Street",
      "value": 283.2102545166678
    },
    {
      "id": 169434,
      "geometry": "POINT (-87.776893 41.720779)",
      "poi_name": "Jason's Deli",
      "osm_id": 2300441476,
      "amenity": "restaurant",
      "cuisine": "sandwich",
      "addr_state": "IL",
      "addr_city": "Oak Lawn",
      "addr_postcode": "60453",
      "addr_street": "West 95th Street",
      "value": 283.2102545166678
    },
    {
      "id": 169440,
      "geometry": "POINT (-87.740549 41.725062)",
      "poi_name": "Denny's",
      "osm_id": 2300444642,
      "amenity": "restaurant",
      "cuisine": "american",
      "addr_state": "IL",
      "addr_city": "Oak Lawn",
      "addr_postcode": "60453",
      "addr_street": "South Cicero Avenue",
      "addr_housenumber": "9217",
      "value": 283.2102545166678
    },
    {
      "id": 169441,
      "geometry": "POINT (-87.740072 41.725816)",
      "poi_name": "Hooters",
      "osm_id": 2300444657,
      "amenity": "restaurant",
      "cuisine": "burger",
      "addr_state": "IL",
      "addr_city": "Oak Lawn",
      "addr_postcode": "60453",
      "addr_street": "South Cicero Avenue",
      "addr_housenumber": "9159",
      "value": 283.2102545166678
    },
    {
      "id": 170960,
      "geometry": "POINT (-88.309414 41.849171)",
      "poi_name": "East China Inn",
      "osm_id": 2353670636,
      "amenity": "restaurant",
      "cuisine": "chinese",
      "addr_state": "IL",
      "addr_city": "Batavia",
      "addr_postcode": "60510",
      "addr_street": "West Wilson Street",
      "addr_housenumber": "140",
      "value": 283.2102545166678
    },
    {
      "id": 180015,
      "geometry": "POINT (-87.356121 41.550054)",
      "poi_name": "Ray\u2019s Shrimp House",
      "osm_id": 10787255569,
      "amenity": "restaurant",
      "cuisine": "seafood",
      "phone": "+1 219-884-5707",
      "takeaway": "yes",
      "addr_state": "IN",
      "addr_city": "Gary",
      "addr_postcode": "46408",
      "addr_street": "Grant Street",
      "addr_housenumber": "3770",
      "value": 283.2102545166678
    },
    {
      "id": 175834,
      "geometry": "POINT (-88.201981 41.540105)",
      "poi_name": "Pepe's Mexican Restaurant",
      "osm_id": 2544106780,
      "amenity": "restaurant",
      "cuisine": "mexican",
      "addr_state": "IL",
      "addr_city": "Shorewood",
      "addr_postcode": "60404",
      "addr_street": "Vertin Boulevard",
      "value": 283.2102545166678
    },
    {
      "id": 178273,
      "geometry": "POINT (-87.807646 41.704768)",
      "poi_name": "Panchos Tacos and Pizza",
      "osm_id": 10718979690,
      "amenity": "restaurant",
      "opening_hours": "Mo-Fr 10:00-22:00, Sa 11:00-22:00, Su 11:00-17:00",
      "website": "https://panchostacosandpizza.com",
      "phone": "708-233-1500",
      "addr_state": "IL",
      "addr_city": "Bridgeview",
      "addr_postcode": "60455",
      "addr_street": "103rd Street",
      "addr_housenumber": "7540",
      "value": 283.2102545166678
    },
    {
      "id": 178668,
      "geometry": "POINT (-87.870599 41.814972)",
      "poi_name": "Shang Noodle",
      "osm_id": 10734104716,
      "amenity": "restaurant",
      "cuisine": "chinese",
      "website": "https://www.shangnoodleandchinese.com/",
      "phone": "708-582-6901",
      "addr_state": "IL",
      "addr_city": "La Grange",
      "addr_postcode": "60525",
      "addr_street": "West Calendar Avenue",
      "addr_housenumber": "19",
      "value": 283.2102545166678
    },
    {
      "id": 180853,
      "geometry": "POINT (-88.114277 41.751367)",
      "poi_name": "House of Emperor",
      "osm_id": 10822427289,
      "amenity": "restaurant",
      "cuisine": "asian;chinese",
      "opening_hours": "Mo-Su 11:00-20:00",
      "website": "https://houseofemperorchinese.com",
      "phone": "+1-630-983-8284",
      "addr_state": "IL",
      "addr_city": "Naperville",
      "addr_postcode": "60540",
      "addr_street": "Naper Boulevard",
      "addr_housenumber": "1212",
      "value": 283.2102545166678
    },
    {
      "id": 180080,
      "geometry": "POINT (-87.336417 41.522465)",
      "poi_name": "Mississippi Boy Southern Kitchen",
      "osm_id": 10790154631,
      "amenity": "restaurant",
      "cuisine": "soul_food",
      "phone": "+1 219-262-2593",
      "takeaway": "yes",
      "delivery": "yes",
      "addr_state": "IN",
      "addr_postcode": "46410",
      "addr_street": "West 51st Avenue",
      "addr_housenumber": "3",
      "value": 283.2102545166678
    },
    {
      "id": 180090,
      "geometry": "POINT (-87.335905 41.540188)",
      "poi_name": "Broadway BBQ",
      "osm_id": 10790548479,
      "amenity": "restaurant",
      "cuisine": "barbecue",
      "phone": "+1 219-887-5131",
      "takeaway": "yes",
      "delivery": "yes",
      "addr_state": "IN",
      "addr_city": "Gary",
      "addr_postcode": "46409",
      "addr_street": "Broadway",
      "addr_housenumber": "4301",
      "value": 283.2102545166678
    },
    {
      "id": 181492,
      "geometry": "POINT (-88.313019 41.911568)",
      "poi_name": "Eden Restaurant & Events",
      "osm_id": 10853357235,
      "amenity": "restaurant",
      "phone": "+1-630-945-3332",
      "addr_state": "IL",
      "addr_city": "St. Charles",
      "addr_postcode": "60174",
      "addr_street": "Illinois Street",
      "addr_housenumber": "1",
      "value": 283.2102545166678
    },
    {
      "id": 181532,
      "geometry": "POINT (-88.316965 41.913011)",
      "poi_name": "Pho Ly",
      "osm_id": 10854270226,
      "amenity": "restaurant",
      "cuisine": "vietnamese",
      "opening_hours": "Mo-We,Sa 10:00-21:00; Su 11:00-21:00",
      "addr_state": "IL",
      "addr_city": "St. Charles",
      "addr_postcode": "60174",
      "addr_street": "West Main Street",
      "addr_housenumber": "305",
      "value": 283.2102545166678
    },
    {
      "id": 184343,
      "geometry": "POINT (-88.352576 41.683894)",
      "poi_name": "Oswego Family Restaurant",
      "osm_id": 7782669657,
      "amenity": "restaurant",
      "cuisine": "american",
      "website": "https://www.oswegofamilyrestaurant.com/",
      "phone": "+1-630-554-0340",
      "outdoor_seating": "no",
      "addr_state": "IL",
      "addr_city": "Oswego",
      "addr_postcode": "60543",
      "addr_street": "Main Street",
      "addr_housenumber": "69",
      "value": 283.2102545166678
    },
    {
      "id": 184999,
      "geometry": "POINT (-88.438271 41.656794)",
      "poi_name": "Sunfields",
      "osm_id": 7826890063,
      "amenity": "restaurant",
      "addr_city": "Yorkville",
      "addr_postcode": "60560",
      "addr_street": "East Veterans Parkway",
      "addr_housenumber": "382",
      "value": 283.2102545166678
    },
    {
      "id": 185002,
      "geometry": "POINT (-88.442081 41.655814)",
      "poi_name": "Fast Burrito",
      "osm_id": 7826890073,
      "amenity": "restaurant",
      "cuisine": "mexican",
      "addr_state": "IL",
      "addr_city": "Yorkville",
      "addr_postcode": "60560",
      "addr_street": "North Bridge Street",
      "addr_housenumber": "1214",
      "value": 283.2102545166678
    },
    {
      "id": 185368,
      "geometry": "POINT (-87.85068 41.498371)",
      "poi_name": "Fat Rosie's Taco and Tequila Bar",
      "osm_id": 7850527015,
      "amenity": "restaurant",
      "cuisine": "mexican",
      "website": "https://www.fatrosies.com/location/frankfort/",
      "outdoor_seating": "yes",
      "addr_state": "IL",
      "addr_city": "Frankfort",
      "addr_postcode": "60423",
      "addr_street": "Kansas Street",
      "addr_housenumber": "28",
      "value": 283.2102545166678
    },
    {
      "id": 185377,
      "geometry": "POINT (-88.031236 41.771546)",
      "poi_name": "Tortorice's Pizza",
      "osm_id": 7851187080,
      "amenity": "restaurant",
      "cuisine": "pizza",
      "opening_hours": "Mo-Th, Su 15:30-22:00; Fr,Sa 15:30-23:00",
      "website": "https://www.tortoricespizza.com/downers-grove",
      "phone": "+1 630 241 1717",
      "addr_state": "IL",
      "addr_city": "Downers Grove",
      "addr_postcode": "60515",
      "addr_street": "Woodward Avenue",
      "addr_housenumber": "6321",
      "value": 283.2102545166678
    },
    {
      "id": 185378,
      "geometry": "POINT (-88.031818 41.758427)",
      "poi_name": "Nancy's Pizzeria",
      "osm_id": 7851220390,
      "amenity": "restaurant",
      "cuisine": "pizza",
      "opening_hours": "Su-Th 16:00-21:00; Fr-Sa 16:00-22:00",
      "website": "https://nancyspizza.com/",
      "addr_state": "IL",
      "addr_city": "Woodridge",
      "addr_postcode": "60517",
      "addr_street": "Woodward Avenue",
      "addr_housenumber": "7060",
      "value": 283.2102545166678
    },
    {
      "id": 185379,
      "geometry": "POINT (-87.995206 41.752554)",
      "poi_name": "Lou Malnati's Pizzeria",
      "osm_id": 7851220391,
      "amenity": "restaurant",
      "cuisine": "pizza",
      "opening_hours": "Mo-Th 16:00-22:00; Fr-Sa 11:00-23:00; Su 11:00-22:00",
      "website": "https://www.loumalnatis.com/downers-grove",
      "takeaway": "yes",
      "delivery": "yes",
      "addr_state": "IL",
      "addr_city": "Downers Grove",
      "addr_postcode": "60516",
      "addr_street": "75th Street",
      "addr_housenumber": "440",
      "value": 283.2102545166678
    },
    {
      "id": 185994,
      "geometry": "POINT (-87.635603 41.461419)",
      "poi_name": "Scrementi's Restaurant",
      "osm_id": 7900953385,
      "amenity": "restaurant",
      "cuisine": "italian",
      "website": "http://www.scrementis.com/",
      "addr_state": "IL",
      "addr_city": "Steger",
      "addr_postcode": "60475",
      "addr_street": "Chicago Road",
      "addr_housenumber": "3760",
      "value": 283.2102545166678
    },
    {
      "id": 185697,
      "geometry": "POINT (-88.309752 41.881706)",
      "poi_name": "3rd Street Station Bar & Grill",
      "osm_id": 7876999797,
      "amenity": "restaurant",
      "outdoor_seating": "yes",
      "addr_state": "IL",
      "addr_city": "Geneva",
      "addr_postcode": "60134",
      "addr_street": "South 3rd Street",
      "addr_housenumber": "300",
      "value": 283.2102545166678
    },
    {
      "id": 185734,
      "geometry": "POINT (-87.682813 41.72399)",
      "poi_name": "Taquieria Los Comales",
      "osm_id": 7880427011,
      "amenity": "restaurant",
      "cuisine": "mexican",
      "website": "https://www.loscomales.com/",
      "drive_through": "no",
      "addr_state": "IL",
      "addr_city": "Evergreen Park",
      "addr_postcode": "60805",
      "addr_street": "South Western Avenue",
      "addr_housenumber": "9208",
      "value": 283.2102545166678
    },
    {
      "id": 186795,
      "geometry": "POINT (-88.308818 41.882868)",
      "poi_name": "Barrel & Rye",
      "osm_id": 7946411139,
      "amenity": "restaurant",
      "cuisine": "bistro",
      "website": "http://www.barrelandrye.com/",
      "phone": "+1-630-402-0647",
      "addr_state": "IL",
      "addr_city": "Geneva",
      "addr_postcode": "60134",
      "addr_street": "South Street",
      "addr_housenumber": "477",
      "value": 283.2102545166678
    },
    {
      "id": 186796,
      "geometry": "POINT (-88.309045 41.882194)",
      "poi_name": "Preservation",
      "osm_id": 7946411140,
      "amenity": "restaurant",
      "website": "https://preservationgeneva.com/",
      "phone": "+1-630-208-1588",
      "outdoor_seating": "yes",
      "addr_state": "IL",
      "addr_city": "Geneva",
      "addr_postcode": "60134",
      "addr_street": "South 3rd Street",
      "addr_housenumber": "513",
      "value": 283.2102545166678
    },
    {
      "id": 190670,
      "geometry": "POINT (-87.740385 41.694714)",
      "poi_name": "Jalisco Express",
      "osm_id": 1311246189,
      "amenity": "restaurant",
      "cuisine": "mexican",
      "opening_hours": "Su-Th 10:00-02:00; Fr-Sa 10:00-03:00",
      "website": "http://www.jaliscoexpressrestaurantofoaklawn.com/",
      "phone": "+1-708-423-6476",
      "addr_state": "IL",
      "addr_city": "Oak Lawn",
      "addr_postcode": "60453",
      "addr_street": "South Cicero Avenue",
      "addr_housenumber": "10846",
      "value": 283.2102545166678
    },
    {
      "id": 190672,
      "geometry": "POINT (-87.72073 41.692434)",
      "poi_name": "Breakfast Club",
      "osm_id": 1311246197,
      "amenity": "restaurant",
      "addr_state": "IL",
      "addr_city": "Oak Lawn",
      "addr_postcode": "60453",
      "addr_street": "South Pulaski Road",
      "value": 283.2102545166678
    },
    {
      "id": 190935,
      "geometry": "POINT (-88.30911 41.881942)",
      "poi_name": "The Burger Local",
      "osm_id": 1325477794,
      "amenity": "restaurant",
      "cuisine": "burger",
      "addr_state": "IL",
      "addr_city": "Geneva",
      "addr_postcode": "60134",
      "addr_street": "South 3rd Street",
      "addr_housenumber": "577",
      "value": 283.2102545166678
    },
    {
      "id": 195521,
      "geometry": "POINT (-87.84167 41.60252)",
      "poi_name": "Burrito Jalisco",
      "osm_id": 10310202793,
      "amenity": "restaurant",
      "cuisine": "mexican",
      "website": "https://burritojalisco.wixsite.com/burritojalisco",
      "phone": "(708) 873-1308",
      "takeaway": "yes",
      "addr_state": "IL",
      "addr_city": "Orland Park",
      "addr_postcode": "60462",
      "addr_street": "West 159th Street",
      "addr_housenumber": "9182",
      "value": 283.2102545166678
    },
    {
      "id": 194764,
      "geometry": "POINT (-87.664119 41.505766)",
      "poi_name": "Pepe's Mexican Restaurant",
      "osm_id": 10283986650,
      "amenity": "restaurant",
      "cuisine": "mexican",
      "website": "https://www.pepeschicagoheights.com/",
      "addr_state": "IL",
      "addr_city": "Chicago Heights",
      "addr_postcode": "60411",
      "addr_street": "West Lincoln Highway",
      "addr_housenumber": "470",
      "value": 283.2102545166678
    },
    {
      "id": 195127,
      "geometry": "POINT (-88.081793 41.525708)",
      "poi_name": "The Blue Taco",
      "osm_id": 10295586524,
      "amenity": "restaurant",
      "addr_state": "IL",
      "addr_city": "Joliet",
      "addr_postcode": "60432",
      "addr_street": "North Chicago Street",
      "addr_housenumber": "79",
      "value": 283.2102545166678
    },
    {
      "id": 195522,
      "geometry": "POINT (-87.84242 41.602496)",
      "poi_name": "Mo's Chinese Kitchen",
      "osm_id": 10310202794,
      "amenity": "restaurant",
      "cuisine": "chinese;sushi;japanese",
      "opening_hours": "Mo-Th 11:00-21:00; Fr-Sa 11:00-22:00; Su 12:00-21:00",
      "website": "https://www.moskitchen1.com/",
      "phone": "(708) 403-8848",
      "takeaway": "yes",
      "delivery": "yes",
      "addr_state": "IL",
      "addr_city": "Orland Park",
      "addr_postcode": "60462",
      "addr_street": "West 159th Street",
      "addr_housenumber": "9200",
      "value": 283.2102545166678
    },
    {
      "id": 195510,
      "geometry": "POINT (-87.829197 41.602724)",
      "poi_name": "Hashem",
      "osm_id": 10309976607,
      "amenity": "restaurant",
      "cuisine": "middle_eastern",
      "opening_hours": "Mo-Su 08:00-22:00",
      "website": "https://hashemrestaurants.com/usa/en/",
      "phone": "+18334545456",
      "addr_state": "IL",
      "addr_city": "Orland Park",
      "addr_postcode": "60462",
      "addr_street": "West 159th Street",
      "addr_housenumber": "8600",
      "value": 283.2102545166678
    },
    {
      "id": 197731,
      "geometry": "POINT (-87.338057 41.428611)",
      "poi_name": "Beggars Pizza",
      "osm_id": 10671612985,
      "amenity": "restaurant",
      "cuisine": "pizza",
      "opening_hours": "Mo-Fr 11:00-20:00; Sa, Su 12:00-20:00",
      "website": "https://www.beggarspizza.com/locations/crown-point/",
      "phone": "+1 219 226 9999",
      "takeaway": "yes",
      "delivery": "yes",
      "addr_state": "IN",
      "addr_city": "Crown Point",
      "addr_postcode": "46307",
      "addr_street": "East Summit Street",
      "addr_housenumber": "1640",
      "value": 283.2102545166678
    },
    {
      "id": 196663,
      "geometry": "POINT (-87.340943 41.469977)",
      "poi_name": "#1 Chop Suey",
      "osm_id": 10589961147,
      "amenity": "restaurant",
      "cuisine": "chinese",
      "opening_hours": "Mo 11:00-21:00, Fr-Sa 11:00-22:00, Su closed",
      "website": "https://www.number1chopsuey.com",
      "capacity": "16",
      "phone": "219-769-0018, 219-769-0154",
      "outdoor_seating": "no",
      "delivery": "yes",
      "addr_state": "IN",
      "addr_city": "Merrillville",
      "addr_postcode": "46410",
      "addr_street": "West 81st Avenue",
      "addr_housenumber": "409",
      "value": 283.2102545166678
    },
    {
      "id": 198106,
      "geometry": "POINT (-88.205809 41.946664)",
      "poi_name": "Atlas Chicken Shack",
      "osm_id": 10688735652,
      "amenity": "restaurant",
      "cuisine": "chicken;fried_chicken;sandwich",
      "website": "https://atlaschickenshack.com",
      "addr_state": "IL",
      "addr_city": "Bartlett",
      "addr_postcode": "60103",
      "addr_street": "Army Trail Road",
      "addr_housenumber": "1048",
      "value": 283.2102545166678
    },
    {
      "id": 198107,
      "geometry": "POINT (-88.206268 41.946729)",
      "poi_name": "Beef Shack",
      "osm_id": 10688763109,
      "amenity": "restaurant",
      "cuisine": "beef;sandwich",
      "opening_hours": "Su-Th 10:30-21:00; Fr-Sa 10:30-22:00",
      "website": "beefshack.com",
      "phone": "+1-630-425-0900",
      "addr_state": "IL",
      "addr_city": "Bartlett",
      "addr_postcode": "60103",
      "addr_street": "Army Trail Road",
      "addr_housenumber": "1084",
      "value": 283.2102545166678
    },
    {
      "id": 198400,
      "geometry": "POINT (-88.207278 41.520739)",
      "poi_name": "Smile of Siam",
      "osm_id": 10702879532,
      "amenity": "restaurant",
      "cuisine": "thai",
      "website": "https://www.smileofsiam.com/",
      "addr_state": "IL",
      "addr_city": "Shorewood",
      "addr_postcode": "60404",
      "addr_street": "West Jefferson Street",
      "addr_housenumber": "805",
      "value": 283.2102545166678
    },
    {
      "id": 197995,
      "geometry": "POINT (-87.897311 41.764626)",
      "poi_name": "Capri to Go",
      "osm_id": 10684390295,
      "amenity": "restaurant",
      "cuisine": "italian",
      "website": "https://mycapritogo.com//index.html",
      "phone": "+1-708-505-1100",
      "addr_state": "IL",
      "addr_city": "Indian Head Park",
      "addr_postcode": "60525",
      "addr_street": "Wolf Road",
      "addr_housenumber": "6934",
      "value": 283.2102545166678
    },
    {
      "id": 204926,
      "geometry": "POINT (-88.309905 41.851026)",
      "poi_name": "Hot Pan Noodles & Dumplings",
      "osm_id": 7150331453,
      "amenity": "restaurant",
      "cuisine": "chinese",
      "opening_hours": "Mo-Th 11:00-21:00; Fr-Sa 11:00-22:00; Su 11:00-20:00",
      "website": "https://www.hotpanil.com/",
      "phone": "+1-630-818-5985",
      "addr_state": "IL",
      "addr_city": "Batavia",
      "addr_postcode": "60510",
      "addr_street": "Houston Street",
      "addr_housenumber": "150",
      "value": 283.2102545166678
    },
    {
      "id": 203368,
      "geometry": "POINT (-88.315125 41.913213)",
      "poi_name": "Szechwan",
      "osm_id": 7081446549,
      "amenity": "restaurant",
      "cuisine": "chinese",
      "addr_state": "IL",
      "addr_city": "St. Charles",
      "addr_postcode": "60174",
      "addr_street": "West Main Street",
      "addr_housenumber": "117",
      "value": 283.2102545166678
    },
    {
      "id": 205742,
      "geometry": "POINT (-87.954848 41.51281)",
      "poi_name": "Pizza Hut",
      "osm_id": 7178471778,
      "amenity": "restaurant",
      "cuisine": "pizza",
      "website": "https://locations.pizzahut.com/il/new-lenox/525-e-lincoln-highway",
      "phone": "+1-815-485-9400",
      "addr_state": "IL",
      "addr_city": "New Lenox",
      "addr_postcode": "60451",
      "addr_street": "East Lincoln Highway",
      "addr_housenumber": "525",
      "value": 283.2102545166678
    },
    {
      "id": 205744,
      "geometry": "POINT (-87.982388 41.517099)",
      "poi_name": "Beggars Pizza",
      "osm_id": 7178474555,
      "amenity": "restaurant",
      "cuisine": "pizza",
      "opening_hours": "Su-Th 11:00-21:00, Fr-Sa 11:00-23:00",
      "website": "https://www.beggarspizza.com/",
      "phone": "+1-815-485-8000",
      "addr_state": "IL",
      "addr_city": "New Lenox",
      "addr_postcode": "60451",
      "addr_street": "West Maple Street",
      "addr_housenumber": "650",
      "value": 283.2102545166678
    },
    {
      "id": 205745,
      "geometry": "POINT (-87.984684 41.517201)",
      "poi_name": "Buffalo Wild Wings",
      "osm_id": 7178474556,
      "amenity": "restaurant",
      "cuisine": "wings",
      "website": "https://www.buffalowildwings.com/en/locations/detail/3755/",
      "phone": "+1-815-463-9333",
      "addr_state": "IL",
      "addr_city": "New Lenox",
      "addr_postcode": "60451",
      "addr_street": "Nelson Road",
      "addr_housenumber": "414",
      "value": 283.2102545166678
    },
    {
      "id": 206637,
      "geometry": "POINT (-87.536736 41.564843)",
      "poi_name": "Mancino's Pizza and Grinders",
      "osm_id": 7220969884,
      "amenity": "restaurant",
      "cuisine": "italian;pizza;sandwich",
      "opening_hours": "Mo-Th 11:00-21:00; Fr-Sa 11:00-22:00; Su 12:00-20:00",
      "delivery": "yes",
      "addr_state": "IL",
      "addr_city": "Lansing",
      "addr_postcode": "60438",
      "addr_street": "Ridge Road",
      "addr_housenumber": "3300",
      "value": 283.2102545166678
    },
    {
      "id": 206638,
      "geometry": "POINT (-87.559198 41.568942)",
      "poi_name": "Dixie Kitchen & Bait Shop",
      "osm_id": 7220985801,
      "amenity": "restaurant",
      "cuisine": "cajun",
      "website": "https://dixie.kitchen",
      "phone": "+1-708-474-1378",
      "takeaway": "yes",
      "addr_state": "IL",
      "addr_city": "Lansing",
      "addr_postcode": "60438",
      "addr_street": "Torrence Avenue",
      "addr_housenumber": "17940",
      "value": 283.2102545166678
    },
    {
      "id": 206639,
      "geometry": "POINT (-87.537733 41.542102)",
      "poi_name": "Lynnie Ques Airport Bar and Grill",
      "osm_id": 7220985802,
      "amenity": "restaurant",
      "cuisine": "barbecue",
      "website": "http://lynniequesbbq.com",
      "phone": "+1-708-474-7837",
      "addr_state": "IL",
      "addr_city": "Lansing",
      "addr_postcode": "46304",
      "addr_street": "Glenwood Lansing Road",
      "addr_housenumber": "3249",
      "value": 283.2102545166678
    },
    {
      "id": 207104,
      "geometry": "POINT (-87.949722 41.811573)",
      "poi_name": "Sushi House - Westmont",
      "osm_id": 7237726003,
      "amenity": "restaurant",
      "cuisine": "sushi",
      "website": "https://www.mysushihouse.com/sushi-house-westmont",
      "phone": "+1-630-920-8948",
      "addr_state": "IL",
      "addr_city": "Westmont",
      "addr_postcode": "60559",
      "addr_street": "East Ogden Avenue",
      "addr_housenumber": "802",
      "value": 283.2102545166678
    },
    {
      "id": 209347,
      "geometry": "POINT (-88.017799 41.833068)",
      "poi_name": "Downers Sand Club Sports Bar & Grill",
      "osm_id": 5033131907,
      "amenity": "restaurant",
      "cuisine": "pizza;burger;american;wings",
      "opening_hours": "Su-Th 15:00-01:00; Fr,Sa 15:00-02:00",
      "website": "http://downerssandclub.com/about-us/",
      "takeaway": "yes",
      "outdoor_seating": "yes",
      "addr_state": "IL",
      "addr_city": "Downers Grove",
      "addr_postcode": "60515",
      "addr_street": "Butterfield Road",
      "addr_housenumber": "1211",
      "value": 283.2102545166678
    },
    {
      "id": 210268,
      "geometry": "POINT (-88.147706 41.77275)",
      "poi_name": "SEOUL TACO",
      "osm_id": 5090627609,
      "amenity": "restaurant",
      "opening_hours": "Mo-Su 11:00-22:00",
      "website": "https://www.seoultaco.com/naperville",
      "phone": "+1 331 401 5105",
      "addr_state": "IL",
      "addr_city": "Naperville",
      "addr_postcode": "60540",
      "addr_street": "South Washington Street",
      "addr_housenumber": "206",
      "value": 283.2102545166678
    },
    {
      "id": 209701,
      "geometry": "POINT (-87.930357 41.627403)",
      "poi_name": "Blueberry Hill Breakfast Cafe",
      "osm_id": 5052444620,
      "amenity": "restaurant",
      "cuisine": "breakfast",
      "website": "https://www.blueberrybreakfastcafe.com/menu",
      "phone": "+1-708-645-0766",
      "addr_state": "IL",
      "addr_city": "Homer Glen",
      "addr_postcode": "60491",
      "addr_street": "South Bell Road",
      "addr_housenumber": "14355",
      "value": 283.2102545166678
    },
    {
      "id": 210272,
      "geometry": "POINT (-88.12709 41.79442)",
      "poi_name": "Cuisine of India",
      "osm_id": 5090627613,
      "amenity": "restaurant",
      "cuisine": "indian",
      "opening_hours": "Mo off; Tu-Su 11:30-21:30",
      "website": "https://mycuisineofindia.com/",
      "phone": "+1 630 548 9440",
      "addr_state": "IL",
      "addr_city": "Naperville",
      "addr_postcode": "60563",
      "addr_street": "East Ogden Avenue",
      "addr_housenumber": "1163",
      "value": 283.2102545166678
    },
    {
      "id": 212067,
      "geometry": "POINT (-88.293324 42.037176)",
      "poi_name": "Chorizo Grill",
      "osm_id": 5187526870,
      "amenity": "restaurant",
      "cuisine": "mexican",
      "opening_hours": "Mo-Sa 10:00-20:00",
      "capacity": "50",
      "takeaway": "yes",
      "drive_through": "yes",
      "outdoor_seating": "yes",
      "delivery": "no",
      "addr_state": "IL",
      "addr_city": "Elgin",
      "addr_postcode": "60152",
      "addr_street": "Washington Street",
      "addr_housenumber": "440",
      "value": 283.2102545166678
    },
    {
      "id": 211267,
      "geometry": "POINT (-88.151569 41.886682)",
      "poi_name": "Gianario's Pizza",
      "osm_id": 5150107450,
      "amenity": "restaurant",
      "cuisine": "pizza",
      "addr_state": "IL",
      "addr_city": "Winfield",
      "addr_postcode": "60190",
      "addr_street": "Geneva Road",
      "addr_housenumber": "27W193",
      "value": 283.2102545166678
    },
    {
      "id": 211268,
      "geometry": "POINT (-88.152271 41.886635)",
      "poi_name": "Tony's Steamers",
      "osm_id": 5150107452,
      "amenity": "restaurant",
      "cuisine": "burger;hot_dog;american",
      "addr_state": "IL",
      "addr_city": "Winfield",
      "addr_postcode": "60190",
      "addr_street": "Geneva Road",
      "addr_housenumber": "27W213",
      "value": 283.2102545166678
    },
    {
      "id": 211270,
      "geometry": "POINT (-88.152766 41.886943)",
      "poi_name": "Oakfield Family Restaurant",
      "osm_id": 5150107454,
      "amenity": "restaurant",
      "cuisine": "diner;soup;salad",
      "addr_state": "IL",
      "addr_city": "Winfield",
      "addr_postcode": "60190",
      "addr_street": "Geneva Road",
      "addr_housenumber": "27W229",
      "value": 283.2102545166678
    },
    {
      "id": 213512,
      "geometry": "POINT (-88.013804 41.736088)",
      "poi_name": "Tai San Chef",
      "osm_id": 5253063234,
      "amenity": "restaurant",
      "website": "https://www.taisanchef.com/",
      "addr_state": "IL",
      "addr_city": "Darien",
      "addr_postcode": "60561",
      "addr_street": "83rd Street",
      "addr_housenumber": "2813",
      "value": 283.2102545166678
    },
    {
      "id": 215346,
      "geometry": "POINT (-87.850576 41.628111)",
      "poi_name": "Cafe Gaston",
      "osm_id": 5296330309,
      "amenity": "restaurant",
      "opening_hours": "Mo-Th 07:00-20:00; Fr-Sa 07:00-21:00; Su 07:30-15:00",
      "website": "https://www.cafegaston.com/",
      "phone": "+1-708-403-3663",
      "addr_state": "IL",
      "addr_city": "Orland Park",
      "addr_postcode": "60462",
      "addr_street": "John Humphrey Drive",
      "addr_housenumber": "14438",
      "value": 283.2102545166678
    },
    {
      "id": 214358,
      "geometry": "POINT (-88.168022 41.784956)",
      "poi_name": "Chinese Kitchen",
      "osm_id": 5269185459,
      "amenity": "restaurant",
      "cuisine": "chinese",
      "opening_hours": "Mo-Th 11:30-21:00, Fr 11:30-21:30, Sa 12:00-21:30, Su 12:00-21:00",
      "website": "https://chinesekitchentogo.com/",
      "phone": "+1 630 961 5448",
      "addr_state": "IL",
      "addr_city": "Naperville",
      "addr_postcode": "60563",
      "addr_street": "West Ogden Avenue",
      "addr_housenumber": "1003",
      "value": 283.2102545166678
    },
    {
      "id": 215548,
      "geometry": "POINT (-88.115519 41.948156)",
      "poi_name": "Quick Fire Cafe",
      "osm_id": 5303537775,
      "amenity": "restaurant",
      "addr_state": "IL",
      "addr_city": "Bloomingdale",
      "addr_postcode": "60108",
      "addr_street": "Stratford Square",
      "addr_housenumber": "201",
      "value": 283.2102545166678
    },
    {
      "id": 216123,
      "geometry": "POINT (-88.23865 41.7821)",
      "poi_name": "King's Wok",
      "osm_id": 9156179839,
      "amenity": "restaurant",
      "cuisine": "chinese",
      "website": "kingswokeola.net",
      "drive_through": "no",
      "addr_state": "IL",
      "addr_city": "Aurora",
      "addr_postcode": "60502",
      "addr_street": "N Aurora Rd",
      "addr_housenumber": "3150",
      "value": 283.2102545166678
    },
    {
      "id": 216935,
      "geometry": "POINT (-87.930948 41.510955)",
      "poi_name": "Nancy's Pizza",
      "osm_id": 9195011860,
      "amenity": "restaurant",
      "cuisine": "pizza",
      "opening_hours": "Su-Th 15:30-21:00, Fr-Sa 15:00-22:00",
      "website": "https://nancyspizza.com/locations/new-lenox/",
      "phone": "+1 815-485-9700",
      "addr_state": "IL",
      "addr_city": "New Lenox",
      "addr_postcode": "60451",
      "addr_street": "East Lincoln Highway",
      "addr_housenumber": "1840",
      "value": 283.2102545166678
    },
    {
      "id": 216937,
      "geometry": "POINT (-87.93032 41.510837)",
      "poi_name": "Oy's Thai Cuisine",
      "osm_id": 9195011870,
      "amenity": "restaurant",
      "cuisine": "thai",
      "website": "https://oysthaicuisine.com",
      "phone": "+1 815-462-9000",
      "addr_state": "IL",
      "addr_city": "New Lenox",
      "addr_postcode": "60451",
      "addr_street": "East Lincoln Highway",
      "addr_housenumber": "1880",
      "value": 283.2102545166678
    },
    {
      "id": 216938,
      "geometry": "POINT (-87.943293 41.512056)",
      "poi_name": "Chicago Dough Company",
      "osm_id": 9195012088,
      "amenity": "restaurant",
      "cuisine": "pizza",
      "website": "https://www.chicagodough.com/chicago-dough-of-new-lenox-il",
      "phone": "+1 815-462-3900",
      "addr_state": "IL",
      "addr_city": "New Lenox",
      "addr_postcode": "60451",
      "addr_street": "East Lincoln Highway",
      "addr_housenumber": "1080",
      "value": 283.2102545166678
    },
    {
      "id": 216942,
      "geometry": "POINT (-87.916752 41.506415)",
      "poi_name": "Bulldog Ale House",
      "osm_id": 9195135859,
      "amenity": "restaurant",
      "cuisine": "american",
      "website": "https://bulldogalehouse.com/new-lenox/",
      "phone": "+1 815-463-1333",
      "addr_state": "IL",
      "addr_city": "New Lenox",
      "addr_postcode": "60451",
      "addr_street": "Joliet Highway",
      "addr_housenumber": "2387",
      "value": 283.2102545166678
    },
    {
      "id": 216943,
      "geometry": "POINT (-87.917067 41.506603)",
      "poi_name": "Mo's Chinese Kitchen Inc.",
      "osm_id": 9195135860,
      "amenity": "restaurant",
      "cuisine": "chinese",
      "website": "https://moskitchen3.com/",
      "phone": "+1 815-462-3388",
      "addr_state": "IL",
      "addr_city": "New Lenox",
      "addr_postcode": "60451",
      "addr_street": "Joliet Highway",
      "addr_housenumber": "2417",
      "value": 283.2102545166678
    },
    {
      "id": 218384,
      "geometry": "POINT (-87.993204 41.774659)",
      "poi_name": "Fremont Bar & Grill",
      "osm_id": 9276683190,
      "amenity": "restaurant",
      "addr_state": "IL",
      "addr_city": "Westmont",
      "addr_postcode": "60559",
      "addr_street": "Fairview Avenue",
      "addr_housenumber": "1115",
      "value": 283.2102545166678
    },
    {
      "id": 218699,
      "geometry": "POINT (-87.835405 41.602021)",
      "poi_name": "The Ring of Fire",
      "osm_id": 9291639291,
      "amenity": "restaurant",
      "cuisine": "pizza",
      "wheelchair": "yes",
      "opening_hours": "Tu-Fr 16:00-23:00, Sa-Su 12:00-23:00",
      "website": "https://sheepsfooddistrict.com",
      "outdoor_seating": "yes",
      "delivery": "yes",
      "addr_state": "IL",
      "addr_city": "Orland Park",
      "addr_postcode": "60462",
      "addr_street": "West 159th Street",
      "addr_housenumber": "8888",
      "value": 283.2102545166678
    },
    {
      "id": 218700,
      "geometry": "POINT (-87.835392 41.601978)",
      "poi_name": "101 BBQ",
      "osm_id": 9291639292,
      "amenity": "restaurant",
      "cuisine": "barbecue",
      "wheelchair": "yes",
      "opening_hours": "Tu-Fr 16:00-23:00, Sa-Su 12:00-24:00",
      "website": "https://sheepsfooddistrict.com",
      "outdoor_seating": "yes",
      "delivery": "yes",
      "addr_state": "IL",
      "addr_city": "Orland Park",
      "addr_postcode": "60462",
      "addr_street": "West 159th Street",
      "addr_housenumber": "8888",
      "value": 283.2102545166678
    },
    {
      "id": 218701,
      "geometry": "POINT (-87.835602 41.601992)",
      "poi_name": "Joe Trucker",
      "osm_id": 9291639293,
      "amenity": "restaurant",
      "cuisine": "american",
      "description": "Street Food",
      "wheelchair": "yes",
      "website": "https://sheepsfooddistrict.com",
      "outdoor_seating": "yes",
      "delivery": "yes",
      "addr_state": "IL",
      "addr_city": "Orland Park",
      "addr_postcode": "60462",
      "addr_street": "West 159th Street",
      "addr_housenumber": "8888",
      "value": 283.2102545166678
    },
    {
      "id": 218726,
      "geometry": "POINT (-87.714254 41.720328)",
      "poi_name": "Barraco's Pizza",
      "osm_id": 9291882581,
      "amenity": "restaurant",
      "cuisine": "pizza",
      "website": "https://www.barracos.com/",
      "addr_state": "IL",
      "addr_city": "Evergreen Park",
      "addr_postcode": "60805",
      "addr_street": "West 95th Street",
      "addr_housenumber": "3701",
      "value": 283.2102545166678
    },
    {
      "id": 218727,
      "geometry": "POINT (-87.692461 41.720646)",
      "poi_name": "Roseangela's Pizza",
      "osm_id": 9291882582,
      "amenity": "restaurant",
      "cuisine": "pizza",
      "addr_state": "IL",
      "addr_city": "Evergreen Park",
      "addr_postcode": "60805",
      "addr_street": "West 95th Street",
      "addr_housenumber": "2807",
      "value": 283.2102545166678
    },
    {
      "id": 218731,
      "geometry": "POINT (-87.742481 41.719826)",
      "poi_name": "Palermo's 95th Italian Cuisine",
      "osm_id": 9291928669,
      "amenity": "restaurant",
      "cuisine": "pizza",
      "website": "https://palermos95th.com/",
      "addr_state": "IL",
      "addr_city": "Oak Lawn",
      "addr_postcode": "60453",
      "addr_street": "West 95th Street",
      "addr_housenumber": "4849",
      "value": 283.2102545166678
    },
    {
      "id": 218733,
      "geometry": "POINT (-87.752384 41.719655)",
      "poi_name": "Lou Malnati's Pizzeria",
      "osm_id": 9291928676,
      "amenity": "restaurant",
      "cuisine": "pizza",
      "takeaway": "only",
      "delivery": "yes",
      "addr_state": "IL",
      "addr_city": "Oak Lawn",
      "addr_postcode": "60453",
      "addr_street": "West 95th Street",
      "addr_housenumber": "5261",
      "value": 283.2102545166678
    },
    {
      "id": 219087,
      "geometry": "POINT (-87.47053 41.521022)",
      "poi_name": "Noodles & Company",
      "osm_id": 9315958257,
      "amenity": "restaurant",
      "cuisine": "pasta",
      "addr_state": "IN",
      "addr_city": "Schererville",
      "addr_postcode": "46375",
      "addr_street": "Indianapolis Boulevard",
      "addr_housenumber": "69",
      "value": 283.2102545166678
    },
    {
      "id": 219719,
      "geometry": "POINT (-88.305997 41.704497)",
      "poi_name": "TGI Fridays",
      "osm_id": 9343769249,
      "amenity": "restaurant",
      "cuisine": "american",
      "website": "https://locations.tgifridays.com/il/oswego/2410-rt-34.html",
      "internet_access": "yes",
      "phone": "+1-630-554-7337",
      "addr_state": "IL",
      "addr_city": "Oswego",
      "addr_postcode": "60543",
      "addr_street": "Route 34",
      "addr_housenumber": "2410",
      "value": 283.2102545166678
    },
    {
      "id": 222188,
      "geometry": "POINT (-88.116741 41.749234)",
      "poi_name": "Bibibop Asian Grill",
      "osm_id": 11009059205,
      "amenity": "restaurant",
      "cuisine": "asian",
      "website": "https://bibibop.com/locations/bibibop-naperville-il-market-meadows/",
      "phone": "+1-630-362-3204",
      "addr_state": "IL",
      "addr_city": "Naperville",
      "addr_postcode": "60540",
      "addr_street": "Naper Boulevard",
      "addr_housenumber": "1309",
      "value": 283.2102545166678
    },
    {
      "id": 223464,
      "geometry": "POINT (-87.812231 41.601591)",
      "poi_name": "Ashford House",
      "osm_id": 11054234121,
      "amenity": "restaurant",
      "cuisine": "irish",
      "addr_state": "IL",
      "addr_city": "Tinley Park",
      "addr_postcode": "60477",
      "addr_street": "West 159th Street",
      "addr_housenumber": "7959",
      "value": 283.2102545166678
    },
    {
      "id": 226060,
      "geometry": "POINT (-87.811564 41.601422)",
      "poi_name": "Rocco's Little Italy",
      "osm_id": 11147691147,
      "amenity": "restaurant",
      "cuisine": "italian",
      "building": "yes",
      "website": "https://www.roccoslittleitaly.net/index.html",
      "addr_state": "IL",
      "addr_city": "Tinley Park",
      "addr_postcode": "60477",
      "addr_street": "West 159th Street",
      "addr_housenumber": "7907",
      "value": 283.2102545166678
    },
    {
      "id": 226061,
      "geometry": "POINT (-87.810397 41.602574)",
      "poi_name": "Pizza Hut",
      "osm_id": 11147691186,
      "amenity": "restaurant",
      "cuisine": "pizza",
      "addr_state": "IL",
      "addr_city": "Orland Park",
      "addr_postcode": "60462",
      "addr_street": "West 159th Street",
      "addr_housenumber": "7842",
      "value": 283.2102545166678
    },
    {
      "id": 226376,
      "geometry": "POINT (-87.926278 41.600588)",
      "poi_name": "Rubi Agave Latin Kitchen",
      "osm_id": 11158136678,
      "amenity": "restaurant",
      "cuisine": "mexican",
      "opening_hours": "Mo-Su 16:00-22:00",
      "website": "https://rubiagave.com/",
      "phone": "(708) 301-8006",
      "addr_state": "IL",
      "addr_city": "Homer Glen",
      "addr_postcode": "60491",
      "addr_street": "West 159th Street",
      "addr_housenumber": "12622",
      "value": 283.2102545166678
    },
    {
      "id": 224603,
      "geometry": "POINT (-88.25778 41.564)",
      "poi_name": "HONG KONG CUISINE",
      "osm_id": 11089335302,
      "amenity": "restaurant",
      "cuisine": "asian",
      "opening_hours": "Su-Th 11:00-21:00, Fr-Sa 11:00-21:30",
      "phone": "815-609-8090",
      "addr_city": "Plainfield",
      "addr_postcode": "60586",
      "addr_street": "Caton Farm Road",
      "addr_housenumber": "7180",
      "value": 283.2102545166678
    },
    {
      "id": 225568,
      "geometry": "POINT (-87.93941 41.627931)",
      "poi_name": "European Deli",
      "osm_id": 11132972535,
      "amenity": "restaurant",
      "addr_state": "IL",
      "addr_city": "Homer Glen",
      "addr_postcode": "60491",
      "addr_street": "West 143rd Street",
      "addr_housenumber": "13015",
      "value": 283.2102545166678
    },
    {
      "id": 228832,
      "geometry": "POINT (-87.851002 41.536415)",
      "poi_name": "La Cafe",
      "osm_id": 4357867529,
      "amenity": "restaurant",
      "cuisine": "mexican",
      "takeaway": "yes",
      "delivery": "no",
      "addr_state": "IL",
      "addr_city": "Mokena",
      "addr_postcode": "60048",
      "value": 283.2102545166678
    },
    {
      "id": 229183,
      "geometry": "POINT (-88.151111 41.77238)",
      "poi_name": "Sushi House",
      "osm_id": 4370531725,
      "amenity": "restaurant",
      "cuisine": "sushi",
      "opening_hours": "Mo off; Tu-Th 11:30-14:30, 16:30-21:00; Fr 11:30-14:30, 16:30-22:00; Sa 12:00-22:00; Su 12:00-21:00",
      "website": "https://www.sushihousenaperville.com/",
      "phone": "+1 630 717 8888",
      "addr_state": "IL",
      "addr_city": "Naperville",
      "addr_postcode": "60540",
      "addr_street": "Jackson Avenue",
      "addr_housenumber": "175",
      "value": 283.2102545166678
    },
    {
      "id": 229186,
      "geometry": "POINT (-88.147978 41.774163)",
      "poi_name": "Catch 35",
      "osm_id": 4370531753,
      "amenity": "restaurant",
      "cuisine": "seafood",
      "website": "https://www.catch35.com/",
      "phone": "+1 630 717 3500",
      "addr_state": "IL",
      "addr_city": "Naperville",
      "addr_postcode": "60540",
      "addr_street": "South Main Street",
      "addr_housenumber": "50",
      "value": 283.2102545166678
    },
    {
      "id": 231988,
      "geometry": "POINT (-88.123976 41.70174)",
      "poi_name": "Nancy's Pizza",
      "osm_id": 4502985397,
      "amenity": "restaurant",
      "cuisine": "pizza",
      "addr_state": "IL",
      "addr_city": "Bolingbrook",
      "addr_postcode": "60440",
      "addr_street": "North Weber Road",
      "addr_housenumber": "210",
      "value": 283.2102545166678
    },
    {
      "id": 231556,
      "geometry": "POINT (-88.308252 41.883061)",
      "poi_name": "Egg Harbor Cafe",
      "osm_id": 4475560981,
      "amenity": "restaurant",
      "cuisine": "breakfast",
      "opening_hours": "06:30-14:00",
      "addr_state": "IL",
      "addr_city": "Geneva",
      "addr_postcode": "60134",
      "addr_street": "South 3rd Street",
      "addr_housenumber": "477",
      "value": 283.2102545166678
    },
    {
      "id": 231993,
      "geometry": "POINT (-88.144833 41.696459)",
      "poi_name": "Sesame Chinese Cruisine",
      "osm_id": 4503222567,
      "amenity": "restaurant",
      "cuisine": "chinese",
      "addr_state": "IL",
      "addr_city": "Bolingbrook",
      "addr_postcode": "60490",
      "addr_street": "West Boughton Road",
      "addr_housenumber": "1717",
      "value": 283.2102545166678
    },
    {
      "id": 233532,
      "geometry": "POINT (-87.519785 41.471476)",
      "poi_name": "The Scrambled Diner",
      "osm_id": 4578053213,
      "amenity": "restaurant",
      "addr_state": "IN",
      "addr_city": "Dyer",
      "addr_postcode": "46311",
      "addr_street": "West 81st Avenue",
      "addr_housenumber": "250",
      "value": 283.2102545166678
    },
    {
      "id": 235400,
      "geometry": "POINT (-88.099658 41.768116)",
      "poi_name": "Friaco's Mexican Grill & Cantina",
      "osm_id": 5754799149,
      "amenity": "restaurant",
      "cuisine": "mexican",
      "phone": "+1-630-453-5336",
      "addr_state": "IL",
      "addr_city": "Lisle",
      "addr_postcode": "60532",
      "addr_street": "College Road",
      "addr_housenumber": "6460",
      "value": 283.2102545166678
    },
    {
      "id": 235132,
      "geometry": "POINT (-87.968152 41.811446)",
      "poi_name": "Bohemian Crystal Restaurant",
      "osm_id": 5746097109,
      "amenity": "restaurant",
      "website": "https://www.bohemiancrystal.net/",
      "phone": "+1-630-789-1981",
      "delivery": "no",
      "addr_state": "IL",
      "addr_city": "Westmont",
      "addr_postcode": "60559",
      "addr_street": "Blackhawk Drive",
      "addr_housenumber": "639",
      "value": 283.2102545166678
    },
    {
      "id": 237022,
      "geometry": "POINT (-88.150426 41.771111)",
      "poi_name": "Santo Cielo",
      "osm_id": 5815958831,
      "amenity": "restaurant",
      "website": "https://www.stcielo.com/",
      "phone": "+1 630 323 0700",
      "addr_state": "IL",
      "addr_city": "Naperville",
      "addr_postcode": "60540",
      "addr_street": "Water Street",
      "addr_housenumber": "123",
      "value": 283.2102545166678
    },
    {
      "id": 235637,
      "geometry": "POINT (-88.069904 41.769068)",
      "poi_name": "Jam 'N Jelly Cafe",
      "osm_id": 5762071785,
      "amenity": "restaurant",
      "opening_hours": "Mo-Su 07:00-15:00",
      "addr_state": "IL",
      "addr_city": "Woodridge",
      "addr_postcode": "60517",
      "addr_street": "Main Street",
      "addr_housenumber": "6435",
      "value": 283.2102545166678
    },
    {
      "id": 236362,
      "geometry": "POINT (-88.075083 41.788255)",
      "poi_name": "Brasi's Pizzeria",
      "osm_id": 5791183949,
      "amenity": "restaurant",
      "opening_hours": "Tu-Th 11:00-21:00; Fr,Sa 11:00-22:00; Su 11:00-21:00",
      "addr_state": "IL",
      "addr_city": "Lisle",
      "addr_postcode": "60532",
      "addr_street": "IL 53",
      "addr_housenumber": "5328",
      "value": 283.2102545166678
    },
    {
      "id": 236061,
      "geometry": "POINT (-88.110358 41.778344)",
      "poi_name": "Angeli's Restaurant",
      "osm_id": 5777930182,
      "amenity": "restaurant",
      "cuisine": "italian",
      "opening_hours": "Mo-Th 16:00-21:30; Fr-Sa 16:00-22:00; Su 16:00-21:00",
      "phone": "+1-630-420-1370",
      "addr_state": "IL",
      "addr_city": "Naperville",
      "addr_postcode": "60540",
      "addr_street": "Chicago Avenue",
      "addr_housenumber": "1478",
      "value": 283.2102545166678
    },
    {
      "id": 236335,
      "geometry": "POINT (-88.070631 41.768853)",
      "poi_name": "Aurelio's Pizza",
      "osm_id": 5790392812,
      "amenity": "restaurant",
      "cuisine": "pizza",
      "opening_hours": "Mo-Th 11:00-21:00; Fr-Sa 11:00-23:00; Su 12:00-21:00",
      "phone": "+1-630-968-0077",
      "takeaway": "only",
      "delivery": "yes",
      "addr_state": "IL",
      "addr_city": "Woodridge",
      "addr_postcode": "60517",
      "addr_street": "Main Street",
      "addr_housenumber": "6430",
      "value": 283.2102545166678
    },
    {
      "id": 237013,
      "geometry": "POINT (-88.010004 41.791874)",
      "poi_name": "Alfredo's Taqueria",
      "osm_id": 5815792821,
      "amenity": "restaurant",
      "cuisine": "mexican",
      "opening_hours": "Mo-Sa 11:00-20:30; Su 11:00-16:00",
      "website": "https://alfredostaqueria.com/",
      "outdoor_seating": "no",
      "addr_state": "IL",
      "addr_city": "Downers Grove",
      "addr_postcode": "60515",
      "addr_street": "Main Street",
      "addr_housenumber": "5231",
      "value": 283.2102545166678
    },
    {
      "id": 237014,
      "geometry": "POINT (-88.008802 41.794896)",
      "poi_name": "Cadence Kitchen & Co",
      "osm_id": 5815792822,
      "amenity": "restaurant",
      "addr_state": "IL",
      "addr_city": "Downers Grove",
      "addr_postcode": "60515",
      "addr_street": "Mochel Drive",
      "addr_housenumber": "5101",
      "value": 283.2102545166678
    },
    {
      "id": 237347,
      "geometry": "POINT (-88.110703 41.778232)",
      "poi_name": "John & Eddie's Pizza",
      "osm_id": 5827478365,
      "amenity": "restaurant",
      "cuisine": "pizza",
      "opening_hours": "Mo-Th 11:00-21:00; Fr-Sa 11:00-23:00; Su 11:00-21:00",
      "phone": "+1-630-470-9397",
      "addr_state": "IL",
      "addr_city": "Naperville",
      "addr_postcode": "60540",
      "addr_street": "Chicago Avenue",
      "addr_housenumber": "1468",
      "value": 283.2102545166678
    },
    {
      "id": 239456,
      "geometry": "POINT (-87.800446 41.755058)",
      "poi_name": "Mama Luigi's Restaurant",
      "osm_id": 5922299661,
      "amenity": "restaurant",
      "cuisine": "italian",
      "opening_hours": "Mo-Fr 11:00-23:00; Sa 16:00-01:00; Su 12:00-22:00",
      "website": "https://www.mamaluigis.com/",
      "phone": "+1-708-496-0900",
      "addr_state": "IL",
      "addr_city": "Bridgeview",
      "addr_postcode": "60455",
      "addr_street": "Harlem Avenue",
      "addr_housenumber": "7500",
      "value": 283.2102545166678
    },
    {
      "id": 240719,
      "geometry": "POINT (-88.082529 41.903833)",
      "poi_name": "Mabuhay Restaurant & Catering",
      "osm_id": 5984676682,
      "amenity": "restaurant",
      "cuisine": "filipino",
      "opening_hours": "Mo-Fr 15:00-20:00; Sa 09:00-20:00; Su 11:00-16:00",
      "website": "http://mabuhaychicago.net",
      "phone": "+1 630-765-7680",
      "addr_state": "IL",
      "addr_city": "Glendale Heights",
      "addr_postcode": "60139",
      "addr_street": "Bloomingdale Road",
      "addr_housenumber": "1232",
      "value": 283.2102545166678
    },
    {
      "id": 242393,
      "geometry": "POINT (-88.310896 41.701975)",
      "poi_name": "LongHorn Steakhouse",
      "osm_id": 6069138491,
      "amenity": "restaurant",
      "cuisine": "steak_house",
      "addr_state": "IL",
      "addr_city": "Oswego",
      "addr_postcode": "60543",
      "addr_street": "Route 34",
      "addr_housenumber": "2650",
      "value": 283.2102545166678
    },
    {
      "id": 243371,
      "geometry": "POINT (-87.719412 41.630316)",
      "poi_name": "Bartolinis Restaurant Catering and Banquets",
      "osm_id": 7643396209,
      "amenity": "restaurant",
      "cuisine": "pizza;american;italian",
      "website": "https://bartolinis.com",
      "phone": "+1-708-396-2333",
      "addr_state": "IL",
      "addr_city": "Midlothian",
      "addr_postcode": "60445",
      "addr_street": "South Pulaski Road",
      "addr_housenumber": "14420",
      "value": 283.2102545166678
    },
    {
      "id": 243414,
      "geometry": "POINT (-87.69696 41.528571)",
      "poi_name": "Lou Malnati's Pizzeria",
      "osm_id": 7645974231,
      "amenity": "restaurant",
      "cuisine": "pizza",
      "website": "https://www.loumalnatis.com/flossmoor",
      "addr_state": "IL",
      "addr_city": "Flossmoor",
      "addr_postcode": "60422",
      "addr_street": "Vollmer Road",
      "addr_housenumber": "3315",
      "value": 283.2102545166678
    },
    {
      "id": 243547,
      "geometry": "POINT (-87.965917 41.497166)",
      "poi_name": "Rising Sun",
      "osm_id": 7657641721,
      "amenity": "restaurant",
      "cuisine": "chinese",
      "website": "https://risingsunrestaurants.com/",
      "phone": "+1-815-462-6688",
      "addr_state": "IL",
      "addr_city": "New Lenox",
      "addr_postcode": "60451",
      "addr_street": "West Illinois Highway",
      "addr_housenumber": "100",
      "value": 283.2102545166678
    }
  ],
  "answer_type": "loc",
  "question_entities": {
    "[2]": {
      "distance": 120000,
      "text": "120 kilometers"
    },
    "[3]": {
      "main_category": "leisure",
      "sub_category": "nature reserve",
      "display_name": "Gabis Arboretum at Purdue Northwest, Valparaiso, IN",
      "geo_wkt": "POINT (-87.149569 41.444803)",
      "poi": {
        "id": 266246,
        "geometry": "POINT (-87.149569 41.444803)",
        "poi_name": "Gabis Arboretum at Purdue Northwest",
        "osm_id": 7086478117,
        "leisure": "nature_reserve",
        "opening_hours": "Mo-Su 08:00-sunset",
        "website": "https://www.pnw.edu/gabis-arboretum/",
        "phone": "+1 219 462 0025",
        "addr_state": "IN",
        "addr_city": "Valparaiso",
        "addr_postcode": "46385",
        "addr_street": "West 100 North",
        "addr_housenumber": "450"
      }
    },
    "[4]": {
      "main_category": "leisure",
      "sub_category": "stadium",
      "display_name": "Neil Carey Arena, IL",
      "geo_wkt": "POINT (-88.082005 41.605308)",
      "poi": {
        "id": 265389,
        "geometry": "POINT (-88.082005 41.605308)",
        "poi_name": "Neil Carey Arena",
        "osm_id": 368073990,
        "leisure": "stadium",
        "operator": "Lewis University",
        "sport": "basketball;volleyball",
        "addr_state": "IL"
      }
    },
    "[1]": {
      "main_category": "amenity",
      "sub_category": "restaurant"
    }
  },
  "id": 1269,
  "type": "range:towards+loc"
}