{
  "question": "Where can I find a fast food restaurant towards the south of Science Hall East, Wayne, NJ within 50 kilometers?",
  "sql": "\nWITH origin AS  (SELECT ST_GeomFromText('POINT (-74.197392 40.946212)',4326)::geography AS geometry)\nSELECT * FROM pois, origin\nWHERE ST_DWithin(pois.geometry, ST_GeomFromText('POINT (-74.197392 40.946212)',4326)::geography, 50000)\nAND amenity = 'fast_food'\nAND degrees(ST_Azimuth(origin.geometry, pois.geometry)) BETWEEN 157.5 AND 202.5;\n",
  "answers": [
    {
      "id": 30898,
      "geometry": "POINT (-74.197392 40.946212)",
      "poi_name": "Dunkin' Donuts",
      "osm_id": 8392396743,
      "amenity": "fast_food",
      "cuisine": "donut;coffee_shop",
      "opening_hours": "Mo-Fr 05:00-19:00; Sa 06:00-18:00; Su 06:00-14:00",
      "internet_access": "wlan",
      "phone": "+1-973-622-3038",
      "takeaway": "yes",
      "drive_through": "no",
      "addr_state": "NJ",
      "addr_city": "Newark",
      "addr_postcode": "07102",
      "addr_street": "Broad Street",
      "addr_housenumber": "707"
    },
    {
      "id": 30899,
      "geometry": "POINT (-74.197392 40.946212)",
      "poi_name": "Dunkin'",
      "osm_id": 8392407750,
      "amenity": "fast_food",
      "cuisine": "donut;coffee_shop",
      "internet_access": "wlan",
      "phone": "+1-973-648-0090",
      "takeaway": "yes",
      "drive_through": "no",
      "addr_state": "NJ",
      "addr_city": "Newark",
      "addr_postcode": "07102",
      "addr_street": "Raymond Plaza West",
      "addr_housenumber": "1"
    },
    {
      "id": 30901,
      "geometry": "POINT (-74.197392 40.946212)",
      "poi_name": "McDonald's",
      "osm_id": 8392443192,
      "amenity": "fast_food",
      "cuisine": "burger",
      "website": "https://www.mcdonalds.com/us/en-us/location/nj/newark/7944-penn-station/7944.html",
      "internet_access": "wlan",
      "phone": "+1-973-624-5034",
      "takeaway": "yes",
      "delivery": "yes",
      "addr_state": "NJ",
      "addr_city": "Newark",
      "addr_postcode": "07102"
    },
    {
      "id": 30903,
      "geometry": "POINT (-74.197392 40.946212)",
      "poi_name": "Home Slice",
      "osm_id": 8392460632,
      "amenity": "fast_food",
      "cuisine": "pizza",
      "website": "http://homeslicenewark.com/",
      "phone": "+1-973-877-7700",
      "addr_state": "NJ",
      "addr_city": "Newark",
      "addr_postcode": "07102"
    },
    {
      "id": 30907,
      "geometry": "POINT (-74.197392 40.946212)",
      "poi_name": "Jersey Mike's Subs",
      "osm_id": 8392516435,
      "amenity": "fast_food",
      "cuisine": "sandwich",
      "website": "https://www.jerseymikes.com/1085/metuchen-nj",
      "phone": "+1-732-662-4841",
      "takeaway": "yes",
      "drive_through": "no",
      "addr_state": "NJ",
      "addr_city": "Metuchen",
      "addr_postcode": "08840",
      "addr_street": "Lake Avenue",
      "addr_housenumber": "349"
    },
    {
      "id": 55231,
      "geometry": "POINT (-74.197392 40.946212)",
      "poi_name": "Dunkin'",
      "osm_id": 10178423957,
      "amenity": "fast_food",
      "cuisine": "donut;coffee_shop",
      "takeaway": "yes",
      "addr_state": "NJ",
      "addr_city": "Newark",
      "addr_postcode": "07105",
      "addr_street": "Doremus Avenue",
      "addr_housenumber": "400"
    },
    {
      "id": 56123,
      "geometry": "POINT (-74.197392 40.946212)",
      "poi_name": "Mochimoly",
      "osm_id": 10224841985,
      "amenity": "fast_food",
      "cuisine": "donut",
      "website": "https://www.mochimoly.com/",
      "phone": "+1-973-232-5144",
      "drive_through": "no",
      "addr_state": "NJ",
      "addr_city": "Millburn",
      "addr_postcode": "07041",
      "addr_street": "Millburn Avenue",
      "addr_housenumber": "315B"
    },
    {
      "id": 63021,
      "geometry": "POINT (-74.197392 40.946212)",
      "poi_name": "Einstein Bros. Bagels",
      "osm_id": 5597728209,
      "amenity": "fast_food",
      "cuisine": "bagel",
      "takeaway": "yes",
      "addr_state": "NJ",
      "addr_city": "Wayne",
      "addr_postcode": "07470",
      "addr_street": "Pompton Road",
      "addr_housenumber": "300"
    },
    {
      "id": 69501,
      "geometry": "POINT (-74.197392 40.946212)",
      "poi_name": "KFC",
      "osm_id": 11308441688,
      "amenity": "fast_food",
      "cuisine": "chicken",
      "website": "https://locations.kfc.com/nj/irvington/841-springfield-avenue",
      "takeaway": "yes",
      "drive_through": "yes",
      "addr_state": "NJ",
      "addr_city": "Irvington",
      "addr_street": "Springfield Avenue"
    },
    {
      "id": 69499,
      "geometry": "POINT (-74.197392 40.946212)",
      "poi_name": "Dunkin'",
      "osm_id": 11308441682,
      "amenity": "fast_food",
      "cuisine": "donut;coffee_shop",
      "takeaway": "yes",
      "addr_state": "NJ",
      "addr_city": "Irvington",
      "addr_street": "Springfield Avenue"
    },
    {
      "id": 69500,
      "geometry": "POINT (-74.197392 40.946212)",
      "poi_name": "Wingstop",
      "osm_id": 11308441683,
      "amenity": "fast_food",
      "cuisine": "wings",
      "takeaway": "yes",
      "addr_city": "Irvington",
      "addr_street": "Grove Street"
    },
    {
      "id": 69502,
      "geometry": "POINT (-74.197392 40.946212)",
      "poi_name": "Popeyes",
      "osm_id": 11308441714,
      "amenity": "fast_food",
      "cuisine": "chicken",
      "takeaway": "yes",
      "official_name": "Popeyes Louisiana Kitchen",
      "addr_state": "NJ",
      "addr_city": "Irvington",
      "addr_postcode": "07111",
      "addr_street": "Springfield Avenue"
    },
    {
      "id": 69505,
      "geometry": "POINT (-74.197392 40.946212)",
      "poi_name": "McDonald's",
      "osm_id": 11308498678,
      "amenity": "fast_food",
      "cuisine": "burger",
      "website": "https://www.mcdonalds.com/us/en-us/location/nj/irvington/783-springfield-ave/7991.html",
      "takeaway": "yes",
      "drive_through": "yes",
      "addr_state": "NJ",
      "addr_city": "Irvington",
      "addr_postcode": "07111",
      "addr_street": "Springfield Avenue"
    },
    {
      "id": 76450,
      "geometry": "POINT (-74.197392 40.946212)",
      "poi_name": "Kate's Kitchen",
      "osm_id": 9777603036,
      "amenity": "fast_food",
      "opening_hours": "Tu-Sa 12:00-19:00; Su 11:00-15:00",
      "website": "https://www.kimchikooks.com",
      "takeaway": "only",
      "addr_state": "NY",
      "addr_city": "Brooklyn",
      "addr_postcode": "11209",
      "addr_street": "Bay Ridge Avenue",
      "addr_housenumber": "119"
    },
    {
      "id": 76530,
      "geometry": "POINT (-74.197392 40.946212)",
      "poi_name": "mishmish Mediterranean Home",
      "osm_id": 9780558621,
      "amenity": "fast_food",
      "cuisine": "mediterranean",
      "website": "https://mishmishcafe.com/",
      "takeaway": "yes",
      "outdoor_seating": "yes",
      "addr_state": "NJ",
      "addr_city": "Montclair",
      "addr_postcode": "07043",
      "addr_street": "Valley Road",
      "addr_housenumber": "631 1/2"
    },
    {
      "id": 75041,
      "geometry": "POINT (-74.197392 40.946212)",
      "poi_name": "T&G Food Store",
      "osm_id": 9708227688,
      "amenity": "fast_food",
      "cuisine": "sandwich",
      "opening_hours": "Mo-Sa 05:00-20:00; Su 06:00-20:00",
      "website": "https://linktr.ee/tgfoodstorenj",
      "phone": "+1-908-355-1622",
      "addr_state": "NJ",
      "addr_city": "Elizabeth",
      "addr_postcode": "07202",
      "addr_street": "South Broad Street",
      "addr_housenumber": "601"
    },
    {
      "id": 77302,
      "geometry": "POINT (-74.197392 40.946212)",
      "poi_name": "Bloomfield Best Bagels",
      "osm_id": 9815338997,
      "amenity": "fast_food",
      "cuisine": "bagel",
      "opening_hours": "Mo-Su 06:00-15:00",
      "website": "https://www.orderbloomfieldbagels.com/",
      "phone": "+19734291146",
      "drive_through": "no",
      "addr_state": "NJ",
      "addr_city": "Bloomfield",
      "addr_postcode": "07003",
      "addr_street": "Broad Street",
      "addr_housenumber": "404"
    },
    {
      "id": 77304,
      "geometry": "POINT (-74.197392 40.946212)",
      "poi_name": "McDonald's",
      "osm_id": 9815382439,
      "amenity": "fast_food",
      "cuisine": "burger",
      "opening_hours": "Mo-We 06:00-01:00, Th 06:00-23:59, Fr-Sa 00:00-24:00, Su 04:00-24:00",
      "operator": "M",
      "website": "https://www.mcdonalds.com/us/en-us/location/nj/bloomfield/425-broad-street-ctr/2677.html",
      "phone": "+19734297244",
      "takeaway": "yes",
      "drive_through": "yes",
      "addr_state": "NJ",
      "addr_city": "Bloomfield",
      "addr_postcode": "07003",
      "addr_street": "Broad Street Ctr",
      "addr_housenumber": "425"
    },
    {
      "id": 99429,
      "geometry": "POINT (-74.197392 40.946212)",
      "poi_name": "Espresso Pizza",
      "osm_id": 6551578493,
      "amenity": "fast_food",
      "cuisine": "pizza",
      "opening_hours": "Mo-Sa 11:00-22:00; Su 12:00-21:00",
      "phone": "+1-718-833-8750",
      "takeaway": "yes",
      "delivery": "yes",
      "addr_state": "NY",
      "addr_city": "Brooklyn",
      "addr_postcode": "11209",
      "addr_street": "5th Avenue",
      "addr_housenumber": "9403"
    },
    {
      "id": 96586,
      "geometry": "POINT (-74.197392 40.946212)",
      "poi_name": "Dunkin'",
      "osm_id": 6438948787,
      "amenity": "fast_food",
      "cuisine": "donut;coffee_shop",
      "opening_hours": "Mo-Su 05:00-19:00",
      "phone": "908-232-1680",
      "takeaway": "yes",
      "drive_through": "no",
      "addr_state": "NJ",
      "addr_city": "Garwood",
      "addr_postcode": "07027",
      "addr_street": "North Avenue",
      "addr_housenumber": "323"
    },
    {
      "id": 102329,
      "geometry": "POINT (-74.197392 40.946212)",
      "poi_name": "Domino's",
      "osm_id": 6678050879,
      "amenity": "fast_food",
      "cuisine": "pizza",
      "takeaway": "yes",
      "addr_state": "NY",
      "addr_city": "Staten Island",
      "addr_postcode": "10312",
      "addr_street": "Richmond Avenue",
      "addr_housenumber": "3902"
    },
    {
      "id": 107018,
      "geometry": "POINT (-74.197392 40.946212)",
      "poi_name": "Dunkin' Donuts",
      "osm_id": 3529389692,
      "amenity": "fast_food",
      "cuisine": "donut",
      "opening_hours": "Mo-Fr 05:30-18:00; Sa,Su 06:00-13:00",
      "internet_access": "wlan",
      "addr_state": "NJ",
      "addr_city": "Kenilworth",
      "addr_postcode": "07033",
      "addr_street": "Boulevard",
      "addr_housenumber": "534"
    },
    {
      "id": 118154,
      "geometry": "POINT (-74.197392 40.946212)",
      "poi_name": "Dunkin'",
      "osm_id": 9028207481,
      "amenity": "fast_food",
      "cuisine": "donut;coffee_shop",
      "takeaway": "yes",
      "addr_state": "NJ"
    },
    {
      "id": 118613,
      "geometry": "POINT (-74.197392 40.946212)",
      "poi_name": "The Habit Burger Grill",
      "osm_id": 9054865555,
      "amenity": "fast_food",
      "cuisine": "burger",
      "opening_hours": "Mo-Su 10:30-22:00",
      "website": "https://www.habitburger.com/locations/union-nj/",
      "phone": "908-348-6280",
      "takeaway": "yes",
      "addr_state": "NJ",
      "addr_city": "Union",
      "addr_postcode": "07083",
      "addr_street": "Morris Avenue",
      "addr_housenumber": "1101"
    },
    {
      "id": 118615,
      "geometry": "POINT (-74.197392 40.946212)",
      "poi_name": "Chipotle",
      "osm_id": 9054865557,
      "amenity": "fast_food",
      "cuisine": "mexican",
      "opening_hours": "Mo-Su 10:45-22:00",
      "website": "https://locations.chipotle.com/nj/union/1101-morris-ave?utm_source=google&utm_medium=yext&utm_campaign=yext_listings",
      "phone": "908-345-2886",
      "takeaway": "yes",
      "official_name": "Chipotle Mexican Grill",
      "addr_state": "NJ",
      "addr_city": "Union",
      "addr_postcode": "07083",
      "addr_street": "Morris Avenue",
      "addr_housenumber": "1101"
    },
    {
      "id": 120433,
      "geometry": "POINT (-74.197392 40.946212)",
      "poi_name": "Dunkin'",
      "osm_id": 6703513803,
      "amenity": "fast_food",
      "cuisine": "donut;coffee_shop",
      "takeaway": "yes",
      "drive_through": "no",
      "addr_state": "NY",
      "addr_city": "Staten Island",
      "addr_postcode": "10312"
    },
    {
      "id": 125726,
      "geometry": "POINT (-74.197392 40.946212)",
      "poi_name": "Wendy's",
      "osm_id": 6973921594,
      "amenity": "fast_food",
      "cuisine": "burger",
      "takeaway": "yes",
      "drive_through": "yes",
      "addr_state": "NY",
      "addr_city": "Staten Island",
      "addr_postcode": "10301",
      "addr_street": "Bay Street",
      "addr_housenumber": "330"
    },
    {
      "id": 121685,
      "geometry": "POINT (-74.197392 40.946212)",
      "poi_name": "Subway",
      "osm_id": 6775260768,
      "amenity": "fast_food",
      "cuisine": "sandwich",
      "takeaway": "yes",
      "addr_state": "NY",
      "addr_city": "Staten Island",
      "addr_postcode": "10308",
      "addr_street": "Arthur Kill Road",
      "addr_housenumber": "690"
    },
    {
      "id": 121687,
      "geometry": "POINT (-74.197392 40.946212)",
      "poi_name": "Pizzaioli",
      "osm_id": 6775260770,
      "amenity": "fast_food",
      "cuisine": "pizza",
      "drive_through": "no",
      "addr_state": "NY",
      "addr_city": "Staten Island",
      "addr_postcode": "10308",
      "addr_street": "Arthur Kill Road",
      "addr_housenumber": "694"
    },
    {
      "id": 121688,
      "geometry": "POINT (-74.197392 40.946212)",
      "poi_name": "Planet Wings",
      "osm_id": 6775260771,
      "amenity": "fast_food",
      "cuisine": "chicken",
      "drive_through": "no",
      "addr_state": "NY",
      "addr_city": "Staten Island",
      "addr_postcode": "10308",
      "addr_street": "Arthur Kill Road",
      "addr_housenumber": "698"
    },
    {
      "id": 121696,
      "geometry": "POINT (-74.197392 40.946212)",
      "poi_name": "McDonald's",
      "osm_id": 6775487653,
      "amenity": "fast_food",
      "cuisine": "burger",
      "website": "https://www.mcdonalds.com/us/en-us/location/ny/staten-island/3267-richmond-ave/4555.html",
      "takeaway": "yes",
      "drive_through": "no",
      "addr_state": "NY",
      "addr_city": "Staten Island",
      "addr_postcode": "10312",
      "addr_street": "Richmond Avenue",
      "addr_housenumber": "3267"
    },
    {
      "id": 121697,
      "geometry": "POINT (-74.197392 40.946212)",
      "poi_name": "Country Donuts",
      "osm_id": 6775487661,
      "amenity": "fast_food",
      "cuisine": "donut",
      "addr_state": "NY",
      "addr_city": "Staten Island",
      "addr_postcode": "10312",
      "addr_street": "Richmond Avenue",
      "addr_housenumber": "3235"
    },
    {
      "id": 121714,
      "geometry": "POINT (-74.197392 40.946212)",
      "poi_name": "Filoncino Bakery",
      "osm_id": 6776135937,
      "amenity": "fast_food",
      "cuisine": "sandwich",
      "drive_through": "no",
      "addr_state": "NY",
      "addr_city": "Staten Island",
      "addr_postcode": "10312",
      "addr_street": "Amboy Road",
      "addr_housenumber": "4569"
    },
    {
      "id": 131900,
      "geometry": "POINT (-74.197392 40.946212)",
      "poi_name": "BGR Bloomfield",
      "osm_id": 9934347169,
      "amenity": "fast_food",
      "cuisine": "burger",
      "opening_hours": "Mo-Su 11:00-22:00",
      "website": "https://www.bgrtheburgerjoint.com/",
      "phone": "+19733375783",
      "drive_through": "no",
      "addr_state": "NJ",
      "addr_city": "Bloomfield",
      "addr_postcode": "07003",
      "addr_street": "Broad Street",
      "addr_housenumber": "56"
    },
    {
      "id": 152607,
      "geometry": "POINT (-74.197392 40.946212)",
      "poi_name": "Dunkin'",
      "osm_id": 4150364014,
      "amenity": "fast_food",
      "cuisine": "donut;coffee_shop",
      "internet_access": "wlan",
      "phone": "+1-347-861-7738",
      "takeaway": "yes",
      "drive_through": "yes",
      "addr_state": "NY",
      "addr_city": "Staten Island",
      "addr_postcode": "10306",
      "addr_street": "Amboy Road",
      "addr_housenumber": "3291"
    },
    {
      "id": 153994,
      "geometry": "POINT (-74.197392 40.946212)",
      "poi_name": "Dunkin'",
      "osm_id": 4218407390,
      "amenity": "fast_food",
      "cuisine": "donut;coffee_shop",
      "takeaway": "yes",
      "addr_state": "NJ",
      "addr_city": "Bayonne",
      "addr_postcode": "07002",
      "addr_street": "Broadway"
    },
    {
      "id": 163116,
      "geometry": "POINT (-74.197392 40.946212)",
      "poi_name": "Huryk's Deli",
      "osm_id": 9400956683,
      "amenity": "fast_food",
      "cuisine": "sandwich",
      "addr_state": "NJ",
      "addr_city": "Newark",
      "addr_postcode": "07105",
      "addr_street": "Albert Avenue",
      "addr_housenumber": "122"
    },
    {
      "id": 169224,
      "geometry": "POINT (-74.197392 40.946212)",
      "poi_name": "Dunkin'",
      "osm_id": 2295354529,
      "amenity": "fast_food",
      "cuisine": "donut;coffee_shop",
      "takeaway": "yes",
      "addr_city": "Woodbridge",
      "addr_postcode": "07095",
      "addr_street": "Amboy Avenue",
      "addr_housenumber": "458"
    },
    {
      "id": 176161,
      "geometry": "POINT (-74.197392 40.946212)",
      "poi_name": "Rocky's and Nicky's Pizzeria",
      "osm_id": 2552486400,
      "amenity": "fast_food",
      "cuisine": "pizza",
      "opening_hours": "Mo-Su 11:00-23:00",
      "phone": "+1-718-745-1999",
      "takeaway": "yes",
      "outdoor_seating": "sidewalk",
      "addr_state": "NY",
      "addr_city": "Brooklyn",
      "addr_postcode": "11220",
      "addr_street": "Colonial Road",
      "addr_housenumber": "6824"
    },
    {
      "id": 178266,
      "geometry": "POINT (-74.197392 40.946212)",
      "poi_name": "Jersey Mike's Subs",
      "osm_id": 10718288913,
      "amenity": "fast_food",
      "cuisine": "sandwich",
      "opening_hours": "Mo-Su 10:00-21:00",
      "website": "https://www.jerseymikes.com/1087",
      "phone": "201-428-1026",
      "takeaway": "yes",
      "addr_state": "NJ",
      "addr_city": "Kearny",
      "addr_postcode": "07032",
      "addr_street": "190 Passaic Ave, #102"
    },
    {
      "id": 183707,
      "geometry": "POINT (-74.197392 40.946212)",
      "poi_name": "Dunkin'",
      "osm_id": 10942357955,
      "amenity": "fast_food",
      "cuisine": "donut;coffee_shop",
      "opening_hours": "24/7",
      "phone": "+1 (973) 773-2130",
      "takeaway": "yes",
      "drive_through": "no",
      "addr_state": "NJ",
      "addr_city": "Clifton",
      "addr_postcode": "07012",
      "addr_street": "Clifton Avenue",
      "addr_housenumber": "1372"
    },
    {
      "id": 197144,
      "geometry": "POINT (-74.197392 40.946212)",
      "poi_name": "Dunkin'",
      "osm_id": 10613299777,
      "amenity": "fast_food",
      "cuisine": "donut;coffee_shop",
      "opening_hours": "24/7",
      "phone": "+1-908-351-7757",
      "takeaway": "yes",
      "drive_through": "yes",
      "outdoor_seating": "no",
      "addr_state": "NJ",
      "addr_city": "Elizabeth",
      "addr_street": "Bayway",
      "addr_housenumber": "624"
    },
    {
      "id": 186692,
      "geometry": "POINT (-74.197392 40.946212)",
      "poi_name": "McDonald's",
      "osm_id": 7943527686,
      "amenity": "fast_food",
      "cuisine": "burger",
      "wheelchair": "yes",
      "opening_hours": "24/7",
      "website": "https://www.mcdonalds.com/us/en-us/location/nj/elizabeth/819835-north-ave/12641.html",
      "internet_access": "wlan",
      "phone": "+1-908-469-8684",
      "takeaway": "yes",
      "drive_through": "yes",
      "delivery": "yes",
      "addr_state": "NJ",
      "addr_city": "Elizabeth",
      "addr_postcode": "07201",
      "addr_street": "North Avenue",
      "addr_housenumber": "819"
    },
    {
      "id": 202569,
      "geometry": "POINT (-74.197392 40.946212)",
      "poi_name": "Dunkin'",
      "osm_id": 7038487799,
      "amenity": "fast_food",
      "cuisine": "donut;coffee_shop",
      "wheelchair": "yes",
      "takeaway": "yes",
      "addr_state": "NY",
      "addr_city": "Brooklyn",
      "addr_postcode": "11209",
      "addr_street": "4th Avenue",
      "addr_housenumber": "8704"
    },
    {
      "id": 211441,
      "geometry": "POINT (-74.197392 40.946212)",
      "poi_name": "Papa John's",
      "osm_id": 5157571130,
      "amenity": "fast_food",
      "cuisine": "pizza",
      "takeaway": "yes",
      "addr_state": "NJ",
      "addr_city": "Bayonne",
      "addr_postcode": "07002",
      "addr_street": "Avenue C",
      "addr_housenumber": "1084"
    },
    {
      "id": 211444,
      "geometry": "POINT (-74.197392 40.946212)",
      "poi_name": "Domino's",
      "osm_id": 5157608614,
      "amenity": "fast_food",
      "cuisine": "pizza",
      "takeaway": "yes",
      "addr_state": "NJ",
      "addr_city": "Bayonne",
      "addr_postcode": "07002",
      "addr_street": "Broadway",
      "addr_housenumber": "1051"
    },
    {
      "id": 211395,
      "geometry": "POINT (-74.197392 40.946212)",
      "poi_name": "Subway",
      "osm_id": 5155826751,
      "amenity": "fast_food",
      "cuisine": "sandwich",
      "takeaway": "yes",
      "drive_through": "no",
      "addr_state": "NY",
      "addr_city": "Staten Island",
      "addr_postcode": "10304",
      "addr_street": "Bay Street",
      "addr_housenumber": "597"
    },
    {
      "id": 212220,
      "geometry": "POINT (-74.197392 40.946212)",
      "poi_name": "Lin's Gourmet",
      "osm_id": 5195763911,
      "amenity": "fast_food",
      "cuisine": "chinese",
      "takeaway": "yes",
      "delivery": "yes",
      "addr_state": "NJ",
      "addr_city": "Jersey City",
      "addr_postcode": "07305",
      "addr_street": "John F. Kennedy Boulevard",
      "addr_housenumber": "1768"
    },
    {
      "id": 215376,
      "geometry": "POINT (-74.197392 40.946212)",
      "poi_name": "Subway",
      "osm_id": 5298111457,
      "amenity": "fast_food",
      "cuisine": "sandwich",
      "takeaway": "yes",
      "drive_through": "no",
      "outdoor_seating": "no",
      "delivery": "no",
      "addr_state": "NJ",
      "addr_city": "South Plainfield",
      "addr_postcode": "07080",
      "addr_street": "Oak Tree Avenue",
      "addr_housenumber": "901"
    },
    {
      "id": 214029,
      "geometry": "POINT (-74.197392 40.946212)",
      "poi_name": "Manhattan Bagel",
      "osm_id": 5264597785,
      "amenity": "fast_food",
      "cuisine": "bagel",
      "takeaway": "yes",
      "addr_state": "NJ",
      "addr_city": "Westfield",
      "addr_postcode": "07090",
      "addr_street": "South Avenue West",
      "addr_housenumber": "210"
    },
    {
      "id": 216455,
      "geometry": "POINT (-74.197392 40.946212)",
      "poi_name": "Popeyes",
      "osm_id": 9172271590,
      "amenity": "fast_food",
      "cuisine": "chicken",
      "wheelchair": "yes",
      "opening_hours": "Mo-Th,Su 10:30-22:00; Fr-Sa 10:30-23:00",
      "website": "https://www.popeyes.com/store-locator/store/restaurant_83051",
      "phone": "+1-718-630-5575",
      "takeaway": "yes",
      "drive_through": "no",
      "official_name": "Popeyes Louisiana Kitchen",
      "outdoor_seating": "no",
      "delivery": "yes",
      "addr_state": "NY",
      "addr_city": "Brooklyn",
      "addr_postcode": "11209",
      "addr_street": "5th Avenue",
      "addr_housenumber": "8514"
    },
    {
      "id": 216457,
      "geometry": "POINT (-74.197392 40.946212)",
      "poi_name": "Stewart's",
      "osm_id": 9172271594,
      "amenity": "fast_food",
      "cuisine": "burger",
      "wheelchair": "yes",
      "opening_hours": "08:30-18:45",
      "phone": "+1 347-497-4357",
      "takeaway": "yes",
      "drive_through": "no",
      "outdoor_seating": "no",
      "delivery": "yes",
      "addr_state": "NY",
      "addr_city": "Brooklyn",
      "addr_postcode": "11209",
      "addr_street": "5th Avenue",
      "addr_housenumber": "8518"
    },
    {
      "id": 224813,
      "geometry": "POINT (-74.197392 40.946212)",
      "poi_name": "Boston Market",
      "osm_id": 11099960868,
      "amenity": "fast_food",
      "cuisine": "american;chicken",
      "takeaway": "yes",
      "addr_state": "NY",
      "addr_city": "Staten Island",
      "addr_postcode": "10312",
      "addr_street": "Arthur Kill Road",
      "addr_housenumber": "854"
    },
    {
      "id": 230062,
      "geometry": "POINT (-74.197392 40.946212)",
      "poi_name": "Dunkin'",
      "osm_id": 4412952129,
      "amenity": "fast_food",
      "cuisine": "donut;coffee_shop",
      "opening_hours": "Mo-Su unknown",
      "phone": "+1-718-351-4967",
      "takeaway": "yes",
      "addr_state": "NY",
      "addr_city": "Staten Island",
      "addr_postcode": "10306",
      "addr_street": "Hylan Boulevard",
      "addr_housenumber": "2425"
    },
    {
      "id": 231326,
      "geometry": "POINT (-74.197392 40.946212)",
      "poi_name": "Pizza Town",
      "osm_id": 4462847130,
      "amenity": "fast_food",
      "cuisine": "pizza",
      "website": "http://ourhometownsupercoupons.com/pizzatown.html",
      "phone": "+1 908 9259803",
      "addr_state": "NJ",
      "addr_city": "Linden",
      "addr_postcode": "07036",
      "addr_street": "North Wood Avenue",
      "addr_housenumber": "205"
    },
    {
      "id": 232317,
      "geometry": "POINT (-74.197392 40.946212)",
      "poi_name": "BurgerFi",
      "osm_id": 4518420191,
      "amenity": "fast_food",
      "cuisine": "burger",
      "wheelchair": "yes",
      "phone": "+1-718-836-0836",
      "takeaway": "yes",
      "addr_city": "Brooklyn",
      "addr_postcode": "11228",
      "addr_street": "86th Street",
      "addr_housenumber": "719"
    },
    {
      "id": 243664,
      "geometry": "POINT (-74.197392 40.946212)",
      "poi_name": "Brisas Empanadas",
      "osm_id": 7668021004,
      "amenity": "fast_food",
      "cuisine": "empanada;latin_american;colombian;coffee_shop;ice_cream;juice",
      "description": "The Official Empanada of the New York Red Bulls",
      "opening_hours": "Mo-Su 11:00-21:00",
      "operator": "Brisas Empanadas",
      "website": "https://brisasempanadas.com/",
      "phone": "+1-908-469-0218",
      "drive_through": "no",
      "addr_state": "NJ",
      "addr_city": "Elizabeth",
      "addr_postcode": "07208",
      "addr_street": "Morris Avenue",
      "addr_housenumber": "308"
    }
  ],
  "answer_type": "loc",
  "question_entities": {
    "[1]": {
      "main_category": "amenity",
      "sub_category": "fast food restaurant"
    },
    "[2]": {
      "distance": 50000,
      "text": "50 kilometers"
    },
    "[3]": {
      "main_category": "amenity",
      "sub_category": "university",
      "display_name": "Science Hall East, Wayne, NJ",
      "geo_wkt": "POINT (-74.197392 40.946212)",
      "poi": {
        "id": 63022,
        "geometry": "POINT (-74.197392 40.946212)",
        "poi_name": "Science Hall East",
        "osm_id": 5597728216,
        "amenity": "university",
        "addr_state": "NJ",
        "addr_city": "Wayne",
        "addr_postcode": "07470",
        "addr_street": "Pompton Road",
        "addr_housenumber": "300"
      }
    },
    "[4]": {
      "direction_desc": "south",
      "direction_predicate": "degrees(ST_Azimuth(origin.geometry, pois.geometry)) BETWEEN 157.5 AND 202.5"
    }
  },
  "id": 91,
  "type": "range:direction+loc"
}