{
  "question": "What caf\u00e9 is available in the direction of Independence Park, Missouri City, TX within 100 kilometers from Track 21, Houston, TX?",
  "sql": "WITH\n    angle AS (SELECT degrees(ST_Azimuth(ST_GeomFromText('POINT (-95.647681 29.845137)',4326)::geography, ST_GeomFromText('POINT (-95.542566 29.59042)',4326)::geography)) AS value)\nSELECT * FROM pois,angle\nWHERE amenity = 'cafe'\nAND ST_DWithin(pois.geometry, ST_GeomFromText('POINT (-95.647681 29.845137)',4326)::geography, 100000)\nAND (degrees(ST_Azimuth(ST_GeomFromText('POINT (-95.647681 29.845137)',4326)::geography, pois.geometry)) BETWEEN angle.value - 22.5 AND angle.value + 22.5);\n",
  "answers": [
    {
      "id": 35170,
      "geometry": "POINT (-95.621972 29.764736)",
      "poi_name": "Citiline Deli",
      "osm_id": 2711946397,
      "amenity": "cafe",
      "value": 160.16390483529892
    },
    {
      "id": 73483,
      "geometry": "POINT (-95.574405 29.599648)",
      "poi_name": "The Prairie Table",
      "osm_id": 9634990867,
      "amenity": "cafe",
      "cuisine": "coffee_shop",
      "opening_hours": "Mo-Fr 09:00-18:00",
      "website": "https://www.theprairietable.com",
      "phone": "+1-346-297-4014",
      "addr_state": "TX",
      "addr_city": "Missouri City",
      "addr_postcode": "77459",
      "addr_street": "Musselburgh Court",
      "addr_housenumber": "1307",
      "value": 160.16390483529892
    },
    {
      "id": 50971,
      "geometry": "POINT (-95.512503 29.684159)",
      "poi_name": "Caribbean Cuisine",
      "osm_id": 498326886,
      "amenity": "cafe",
      "cuisine": "international",
      "addr_city": "Houston",
      "addr_postcode": "77074",
      "addr_street": "Bissonnet Street",
      "addr_housenumber": "7433",
      "value": 160.16390483529892
    },
    {
      "id": 58377,
      "geometry": "POINT (-95.64345 29.775282)",
      "poi_name": "Starbucks",
      "osm_id": 5372641433,
      "amenity": "cafe",
      "cuisine": "coffee_shop",
      "takeaway": "yes",
      "official_name": "Starbucks Coffee",
      "value": 160.16390483529892
    },
    {
      "id": 71892,
      "geometry": "POINT (-95.544909 29.705442)",
      "poi_name": "The Teahouse",
      "osm_id": 11404866960,
      "amenity": "cafe",
      "cuisine": "bubble_tea",
      "wheelchair": "yes",
      "value": 160.16390483529892
    },
    {
      "id": 73163,
      "geometry": "POINT (-95.537519 29.738493)",
      "poi_name": "Starbucks",
      "osm_id": 9611730329,
      "amenity": "cafe",
      "cuisine": "coffee_shop",
      "opening_hours": "Mo-Su 06:00-21:00",
      "phone": "+1-713-783-0733",
      "takeaway": "yes",
      "official_name": "Starbucks Coffee",
      "addr_state": "TX",
      "addr_city": "Houston",
      "addr_postcode": "77063",
      "addr_street": "Westheimer Road",
      "addr_housenumber": "9660",
      "value": 160.16390483529892
    },
    {
      "id": 73164,
      "geometry": "POINT (-95.537345 29.738491)",
      "poi_name": "Signature Cafe",
      "osm_id": 9611730330,
      "amenity": "cafe",
      "cuisine": "coffee_shop",
      "opening_hours": "Mo-We 08:00-17:00, Th-Fr 08:00-18:00, Sa 08:00-17:00, Su 09:30-16:00",
      "addr_state": "TX",
      "addr_city": "Houston",
      "addr_postcode": "77063",
      "addr_street": "Westheimer Road",
      "addr_housenumber": "9660",
      "value": 160.16390483529892
    },
    {
      "id": 73169,
      "geometry": "POINT (-95.537664 29.738506)",
      "poi_name": "The Teahouse",
      "osm_id": 9611895939,
      "amenity": "cafe",
      "cuisine": "bubble_tea",
      "opening_hours": "Mo-Fr 11:00-19:00, Sa-Su 11:00-20:00",
      "website": "https://www.teahousebeverage.com/",
      "phone": "+1-832-668-5966",
      "outdoor_seating": "no",
      "addr_state": "TX",
      "addr_city": "Houston",
      "addr_postcode": "77063",
      "addr_street": "Westheimer Road",
      "addr_housenumber": "9664",
      "value": 160.16390483529892
    },
    {
      "id": 104940,
      "geometry": "POINT (-95.627838 29.596157)",
      "poi_name": "Starbucks",
      "osm_id": 8591858833,
      "amenity": "cafe",
      "cuisine": "coffee_shop",
      "takeaway": "yes",
      "official_name": "Starbucks Coffee",
      "value": 160.16390483529892
    },
    {
      "id": 94297,
      "geometry": "POINT (-95.622389 29.596126)",
      "poi_name": "Starbucks",
      "osm_id": 2225388454,
      "amenity": "cafe",
      "cuisine": "coffee_shop",
      "opening_hours": "Su-Th 05:30-21:30; Fr,Sa 05:30-23:00",
      "takeaway": "yes",
      "official_name": "Starbucks Coffee",
      "value": 160.16390483529892
    },
    {
      "id": 117974,
      "geometry": "POINT (-95.584485 29.579885)",
      "poi_name": "Ding Tea",
      "osm_id": 9021372880,
      "amenity": "cafe",
      "cuisine": "bubble_tea",
      "takeaway": "yes",
      "value": 160.16390483529892
    },
    {
      "id": 121226,
      "geometry": "POINT (-95.65149 29.574776)",
      "poi_name": "Cougar Corner",
      "osm_id": 6747280661,
      "amenity": "cafe",
      "cuisine": "coffee_shop;sandwich",
      "description": "Located on the first floor of Brazos Hall near the bookstore.",
      "website": "https://dineoncampus.com/uhsl/cougar-corner-coffee-shop",
      "internet_access": "wlan",
      "outdoor_seating": "yes",
      "value": 160.16390483529892
    },
    {
      "id": 124477,
      "geometry": "POINT (-95.388786 29.559387)",
      "poi_name": "Sharetea",
      "osm_id": 6918758026,
      "amenity": "cafe",
      "cuisine": "bubble_tea",
      "internet_access": "yes",
      "takeaway": "yes",
      "value": 160.16390483529892
    },
    {
      "id": 124481,
      "geometry": "POINT (-95.390215 29.546529)",
      "poi_name": "Ding Tea",
      "osm_id": 6918759631,
      "amenity": "cafe",
      "cuisine": "bubble_tea",
      "value": 160.16390483529892
    },
    {
      "id": 155576,
      "geometry": "POINT (-95.646865 29.835613)",
      "poi_name": "El Klosko Frutas y Helados",
      "osm_id": 4291218847,
      "amenity": "cafe",
      "cuisine": "mexican",
      "value": 160.16390483529892
    },
    {
      "id": 128534,
      "geometry": "POINT (-95.624611 29.755784)",
      "poi_name": "Starbucks",
      "osm_id": 8168447754,
      "amenity": "cafe",
      "cuisine": "coffee_shop",
      "takeaway": "yes",
      "official_name": "Starbucks Coffee",
      "value": 160.16390483529892
    },
    {
      "id": 129932,
      "geometry": "POINT (-95.567934 29.735198)",
      "poi_name": "Starbucks",
      "osm_id": 9847083778,
      "amenity": "cafe",
      "cuisine": "coffee_shop",
      "takeaway": "yes",
      "official_name": "Starbucks Coffee",
      "value": 160.16390483529892
    },
    {
      "id": 130255,
      "geometry": "POINT (-95.567695 29.565537)",
      "poi_name": "Starbucks",
      "osm_id": 9861962116,
      "amenity": "cafe",
      "cuisine": "coffee_shop",
      "wheelchair": "yes",
      "internet_access": "wlan",
      "takeaway": "yes",
      "drive_through": "no",
      "official_name": "Starbucks Coffee",
      "outdoor_seating": "no",
      "delivery": "no",
      "toilets": "yes",
      "value": 160.16390483529892
    },
    {
      "id": 154191,
      "geometry": "POINT (-95.526052 29.602003)",
      "poi_name": "Shipley Donuts",
      "osm_id": 4227549131,
      "amenity": "cafe",
      "cuisine": "donut",
      "addr_state": "TX",
      "addr_city": "Missouri City",
      "addr_postcode": "77489",
      "addr_street": "Texas Parkway",
      "addr_housenumber": "1701",
      "value": 160.16390483529892
    },
    {
      "id": 155577,
      "geometry": "POINT (-95.647976 29.835241)",
      "poi_name": "Cafe Giot Dang",
      "osm_id": 4291218858,
      "amenity": "cafe",
      "cuisine": "vietnamese",
      "value": 160.16390483529892
    },
    {
      "id": 163926,
      "geometry": "POINT (-95.399064 29.540626)",
      "poi_name": "Marq'E Donuts & Coffee",
      "osm_id": 9441778731,
      "amenity": "cafe",
      "cuisine": "coffee_shop;donut;tacos",
      "addr_street": "Magnolia Parkway",
      "addr_housenumber": "11540",
      "value": 160.16390483529892
    },
    {
      "id": 163999,
      "geometry": "POINT (-95.383041 29.553797)",
      "poi_name": "Starbucks",
      "osm_id": 9446290400,
      "amenity": "cafe",
      "cuisine": "coffee_shop",
      "takeaway": "yes",
      "official_name": "Starbucks Coffee",
      "value": 160.16390483529892
    },
    {
      "id": 165464,
      "geometry": "POINT (-95.627039 29.732247)",
      "poi_name": "Starbucks",
      "osm_id": 9536809069,
      "amenity": "cafe",
      "cuisine": "coffee_shop",
      "takeaway": "yes",
      "official_name": "Starbucks Coffee",
      "value": 160.16390483529892
    },
    {
      "id": 178727,
      "geometry": "POINT (-95.452607 29.045507)",
      "poi_name": "Brew n Bake",
      "osm_id": 10737431738,
      "amenity": "cafe",
      "opening_hours": "Mo-Fr 06:30-21:00; Sa 07:00-21:00",
      "internet_access": "wlan",
      "outdoor_seating": "yes",
      "addr_street": "Oyster Creek Drive",
      "addr_housenumber": "145",
      "value": 160.16390483529892
    },
    {
      "id": 182823,
      "geometry": "POINT (-95.62569 29.590993)",
      "poi_name": "Kokee Tea",
      "osm_id": 10905693109,
      "amenity": "cafe",
      "cuisine": "bubble_tea",
      "value": 160.16390483529892
    },
    {
      "id": 179616,
      "geometry": "POINT (-95.547683 29.705318)",
      "poi_name": "Don Cafe",
      "osm_id": 10771397296,
      "amenity": "cafe",
      "cuisine": "vietnamese",
      "opening_hours": "Mo-Su 08:00-19:00",
      "phone": "+1 (713) 777-9500",
      "addr_state": "TX",
      "addr_city": "Houston",
      "addr_postcode": "77036",
      "addr_street": "Bellaire Boulevard",
      "addr_housenumber": "9000",
      "value": 160.16390483529892
    },
    {
      "id": 183235,
      "geometry": "POINT (-95.625396 29.59285)",
      "poi_name": "Starbucks",
      "osm_id": 10919869145,
      "amenity": "cafe",
      "cuisine": "coffee_shop",
      "takeaway": "yes",
      "official_name": "Starbucks Coffee",
      "value": 160.16390483529892
    },
    {
      "id": 187141,
      "geometry": "POINT (-95.659578 29.607858)",
      "poi_name": "Starbucks",
      "osm_id": 7975229412,
      "amenity": "cafe",
      "cuisine": "coffee_shop",
      "takeaway": "yes",
      "official_name": "Starbucks Coffee",
      "value": 160.16390483529892
    },
    {
      "id": 196499,
      "geometry": "POINT (-95.568601 29.703538)",
      "poi_name": "Long Coffee",
      "osm_id": 10582824875,
      "amenity": "cafe",
      "opening_hours": "Fr-Sa 08:00-23:00, Mo-Th,Su 08:00-22:00",
      "website": "https://www.longcoffeeus.com/",
      "phone": "+1-281-983-5700",
      "addr_state": "TX",
      "addr_city": "Houston",
      "addr_postcode": "77072",
      "addr_street": "Bellaire Boulevard;\u0110\u1ea1i L\u1ed9 S\u00e0ig\u00f2n",
      "addr_housenumber": "10611",
      "value": 160.16390483529892
    },
    {
      "id": 196501,
      "geometry": "POINT (-95.569705 29.703004)",
      "poi_name": "Kravin Fruit Bar",
      "osm_id": 10582824878,
      "amenity": "cafe",
      "cuisine": "bubble_tea",
      "opening_hours": "Mo-Su 10:00-22:00",
      "website": "https://www.kravinhouston.com/",
      "internet_access": "wlan",
      "phone": "+12815305728",
      "addr_state": "TX",
      "addr_city": "Houston",
      "addr_postcode": "77072",
      "addr_street": "Bellaire Boulevard;\u0110\u1ea1i L\u1ed9 S\u00e0ig\u00f2n",
      "addr_housenumber": "10623",
      "value": 160.16390483529892
    },
    {
      "id": 196504,
      "geometry": "POINT (-95.569158 29.702624)",
      "poi_name": "Hangout Fruit Juices & Bites",
      "osm_id": 10582824882,
      "amenity": "cafe",
      "cuisine": "coffee_shop;bubble_tea;juice;snack",
      "opening_hours": "Mo-Su 11:00-22:30",
      "website": "https://hangoutfruitjuicebites.com/",
      "phone": "+12817412522",
      "addr_state": "TX",
      "addr_city": "Houston",
      "addr_postcode": "77072",
      "addr_street": "Bellaire Boulevard;\u0110\u1ea1i L\u1ed9 S\u00e0ig\u00f2n",
      "addr_housenumber": "10613",
      "value": 160.16390483529892
    },
    {
      "id": 196508,
      "geometry": "POINT (-95.568595 29.702667)",
      "poi_name": "Teaholic",
      "osm_id": 10582824886,
      "amenity": "cafe",
      "cuisine": "coffee_shop;bubble_tea;snack",
      "opening_hours": "Mo-Su 11:00-22:00",
      "internet_access": "yes",
      "phone": "+18322436902",
      "outdoor_seating": "yes",
      "addr_state": "TX",
      "addr_city": "Houston",
      "addr_postcode": "77072",
      "addr_street": "Bellaire Boulevard;\u0110\u1ea1i L\u1ed9 S\u00e0ig\u00f2n",
      "addr_housenumber": "10613",
      "value": 160.16390483529892
    },
    {
      "id": 196509,
      "geometry": "POINT (-95.568471 29.702661)",
      "poi_name": "Bambu",
      "osm_id": 10582824887,
      "amenity": "cafe",
      "cuisine": "vietnamese;bubble_tea",
      "opening_hours": "Mo-Su 09:00-23:00",
      "website": "https://www.drinkbambu.com/",
      "internet_access": "yes",
      "phone": "+18323283900",
      "takeaway": "yes",
      "outdoor_seating": "yes",
      "addr_state": "TX",
      "addr_city": "Houston",
      "addr_postcode": "77072",
      "addr_street": "Bellaire Boulevard;\u0110\u1ea1i L\u1ed9 S\u00e0ig\u00f2n",
      "addr_housenumber": "10613",
      "value": 160.16390483529892
    },
    {
      "id": 236326,
      "geometry": "POINT (-95.590368 29.771611)",
      "poi_name": "Tree House - Craft Coffee & Frozen Yogurt",
      "osm_id": 5790105001,
      "amenity": "cafe",
      "cuisine": "coffee_shop;frozen_yogurt;coffee",
      "addr_state": "TX",
      "addr_city": "Houston",
      "addr_postcode": "77079",
      "addr_street": "Memorial Drive",
      "addr_housenumber": "14008",
      "value": 160.16390483529892
    },
    {
      "id": 219337,
      "geometry": "POINT (-95.624984 29.778297)",
      "poi_name": "District 7 Memorial",
      "osm_id": 9325732036,
      "amenity": "cafe",
      "website": "https://district7memorial.com/",
      "outdoor_seating": "yes",
      "value": 160.16390483529892
    },
    {
      "id": 230099,
      "geometry": "POINT (-95.631878 29.584912)",
      "poi_name": "Tea House and Coffee",
      "osm_id": 4414028008,
      "amenity": "cafe",
      "value": 160.16390483529892
    },
    {
      "id": 203283,
      "geometry": "POINT (-95.587092 29.549664)",
      "poi_name": "Republic Roots Coffee + Juice Co.",
      "osm_id": 7075942811,
      "amenity": "cafe",
      "addr_state": "TX",
      "addr_city": "Sugar Land",
      "addr_street": "University Boulevard",
      "addr_housenumber": "18721",
      "value": 160.16390483529892
    },
    {
      "id": 203286,
      "geometry": "POINT (-95.582849 29.582165)",
      "poi_name": "Mango Hut",
      "osm_id": 7076217079,
      "amenity": "cafe",
      "value": 160.16390483529892
    },
    {
      "id": 229986,
      "geometry": "POINT (-95.230928 29.425147)",
      "poi_name": "Shipley's Donuts",
      "osm_id": 4409977134,
      "amenity": "cafe",
      "cuisine": "donut",
      "value": 160.16390483529892
    }
  ],
  "answer_type": "name",
  "question_entities": {
    "[2]": {
      "distance": 100000,
      "text": "100 kilometers"
    },
    "[3]": {
      "main_category": "tourism",
      "sub_category": "theme park",
      "display_name": "Track 21, Houston, TX",
      "geo_wkt": "POINT (-95.647681 29.845137)",
      "poi": {
        "id": 23532,
        "geometry": "POINT (-95.647681 29.845137)",
        "poi_name": "Track 21",
        "osm_id": 5245875822,
        "tourism": "theme_park",
        "addr_state": "TX",
        "addr_city": "Houston",
        "addr_street": "North Highway 6",
        "addr_housenumber": "4815"
      }
    },
    "[4]": {
      "main_category": "leisure",
      "sub_category": "park",
      "display_name": "Independence Park, Missouri City, TX",
      "geo_wkt": "POINT (-95.542566 29.59042)",
      "poi": {
        "id": 248502,
        "geometry": "POINT (-95.542566 29.59042)",
        "poi_name": "Independence Park",
        "osm_id": 4251731236,
        "leisure": "park",
        "addr_state": "TX",
        "addr_city": "Missouri City",
        "addr_postcode": "77489",
        "addr_street": "Court Road",
        "addr_housenumber": "2621"
      }
    },
    "[1]": {
      "main_category": "amenity",
      "sub_category": "cafe"
    }
  },
  "id": 1653,
  "type": "range:towards+name"
}