{
  "question": "I'm looking for a museum within 170 kilometers from Dewey Farm Conservation Land, Millis, MA, any ideas?",
  "sql": "SELECT * FROM pois\nWHERE ST_DWithin(pois.geometry, ST_GeomFromText('POINT (-71.364939 42.185888)',4326)::geography, 170000)\nAND tourism = 'museum';\n",
  "answers": [
    {
      "id": 245,
      "geometry": "POINT (-73.218371 42.208433)",
      "poi_name": "Bidwell House Museum",
      "osm_id": 8257476461,
      "tourism": "museum",
      "opening_hours": "Tours available by reservation only from Memorial Day to Columbus Day.",
      "operator": "Bidwell House Museum",
      "website": "https://www.bidwellhousemuseum.org/",
      "museum": "history",
      "addr_state": "MA",
      "addr_city": "Monterey",
      "addr_postcode": "01245",
      "addr_street": "Art School Road",
      "addr_housenumber": "100"
    },
    {
      "id": 246,
      "geometry": "POINT (-73.218281 42.208155)",
      "poi_name": "Horse Barn Exhibits",
      "osm_id": 8257476509,
      "tourism": "museum",
      "website": "https://www.bidwellhousemuseum.org/",
      "museum": "history"
    },
    {
      "id": 247,
      "geometry": "POINT (-73.218792 42.208553)",
      "poi_name": "Piggery - Exhibits",
      "osm_id": 8257476510,
      "tourism": "museum",
      "museum": "history"
    },
    {
      "id": 248,
      "geometry": "POINT (-73.218221 42.208476)",
      "poi_name": "Carriage Barn - Exhibits",
      "osm_id": 8257476511,
      "tourism": "museum",
      "website": "https://www.bidwellhousemuseum.org/",
      "museum": "history"
    },
    {
      "id": 307,
      "geometry": "POINT (-72.341878 41.597642)",
      "poi_name": "Zagray Farm Museum",
      "osm_id": 8300712909,
      "tourism": "museum",
      "website": "https://zagray-farm-museum.edan.io/",
      "phone": "+1 860 982 5158",
      "addr_state": "CT",
      "addr_city": "Colchester",
      "addr_postcode": "06415",
      "addr_street": "Amston Road",
      "addr_housenumber": "544"
    },
    {
      "id": 541,
      "geometry": "POINT (-72.648746 41.558419)",
      "poi_name": "Middlesex County Historical Society",
      "osm_id": 8436379064,
      "tourism": "museum",
      "fee": "no",
      "website": "https://mchsctorg.wordpress.com",
      "phone": "+1 860 346 0746",
      "museum": "history"
    },
    {
      "id": 712,
      "geometry": "POINT (-71.221279 43.456134)",
      "poi_name": "Gilman Museum",
      "osm_id": 2644039155,
      "tourism": "museum",
      "website": "https://www.alton.nh.gov/government/harold-s-gilman-museum"
    },
    {
      "id": 1233,
      "geometry": "POINT (-70.198852 41.7395)",
      "poi_name": "Josiah Dennis Manse Museum",
      "osm_id": 2910991502,
      "tourism": "museum",
      "wheelchair": "yes",
      "website": "https://www.dennishistoricalsociety.org/museums/josiah-dennis-manse-museum",
      "addr_city": "Dennis",
      "addr_street": "Nobscusset Road",
      "addr_housenumber": "77"
    },
    {
      "id": 1740,
      "geometry": "POINT (-73.078988 41.393643)",
      "poi_name": "Seymour Historical Society Museum",
      "osm_id": 3134535131,
      "tourism": "museum",
      "operator": "Seymour Historical Society",
      "website": "https://sites.google.com/site/seymourhistoricalsociety/"
    },
    {
      "id": 1913,
      "geometry": "POINT (-72.894628 42.461542)",
      "poi_name": "Kingman Tavern Museum",
      "osm_id": 3215087001,
      "tourism": "museum",
      "wheelchair": "limited",
      "opening_hours": "Jul-Aug Sa 14:00-17:00",
      "website": "https://www.cummington-ma.gov/Kingman.php",
      "addr_state": "MA",
      "addr_city": "Cummington",
      "addr_postcode": "01026",
      "addr_street": "Main Street",
      "addr_housenumber": "41"
    },
    {
      "id": 1976,
      "geometry": "POINT (-70.926726 41.635124)",
      "poi_name": "New Bedford Art Museum",
      "osm_id": 3241647991,
      "tourism": "museum",
      "wheelchair": "yes",
      "fee": "yes",
      "opening_hours": "Tu-Su 09:00-16:00",
      "phone": "+1 (508) 961-3072",
      "addr_state": "MA",
      "addr_city": "New Bedford",
      "addr_postcode": "02740",
      "addr_street": "Pleasant Street",
      "addr_housenumber": "608"
    },
    {
      "id": 2301,
      "geometry": "POINT (-70.849637 42.505306)",
      "poi_name": "Museum of the Grand Army of The Republic",
      "osm_id": 3378157540,
      "tourism": "museum",
      "operator": "Town of Marblehead",
      "addr_state": "MA",
      "addr_city": "Marblehead",
      "addr_postcode": "01945",
      "addr_street": "Washington Street",
      "addr_housenumber": "170"
    },
    {
      "id": 2302,
      "geometry": "POINT (-70.849674 42.505266)",
      "poi_name": "Marblehead Police Museum",
      "osm_id": 3378157541,
      "tourism": "museum",
      "operator": "Marblehead Police Department",
      "addr_state": "MA",
      "addr_city": "Marblehead",
      "addr_postcode": "01945",
      "addr_street": "Washington Street",
      "addr_housenumber": "170"
    },
    {
      "id": 2431,
      "geometry": "POINT (-72.565655 41.500083)",
      "poi_name": "Haddam Shad Museum",
      "osm_id": 3445727501,
      "tourism": "museum",
      "website": "https://www.haddamshadmuseum.com/"
    },
    {
      "id": 2603,
      "geometry": "POINT (-71.262505 42.365638)",
      "poi_name": "Rose Art Museum",
      "osm_id": 530711258,
      "tourism": "museum",
      "website": "http://www.brandeis.edu/rose/",
      "phone": "+1-781-736-2028",
      "wikidata": "Q7367636",
      "addr_state": "MA",
      "addr_city": "Waltham",
      "addr_postcode": "02453-2728",
      "addr_street": "South Street",
      "addr_housenumber": "415"
    },
    {
      "id": 2725,
      "geometry": "POINT (-72.190287 40.957994)",
      "poi_name": "Guild Hall",
      "osm_id": 565990219,
      "amenity": "arts_centre",
      "tourism": "museum",
      "website": "https://www.guildhall.org/"
    },
    {
      "id": 2955,
      "geometry": "POINT (-73.20164 42.711488)",
      "poi_name": "Mehlin Museum of Astronomy",
      "osm_id": 10096025968,
      "tourism": "museum"
    },
    {
      "id": 3119,
      "geometry": "POINT (-71.124974 42.70138)",
      "poi_name": "Old machinery exhibit",
      "osm_id": 10184624236,
      "tourism": "museum",
      "fee": "no",
      "museum": "technology"
    },
    {
      "id": 3250,
      "geometry": "POINT (-71.400195 42.082822)",
      "poi_name": "Franklin Historical Museum",
      "osm_id": 10254375785,
      "tourism": "museum",
      "wheelchair": "yes",
      "fee": "no",
      "opening_hours": "Sa 10:00-13:00; Su 13:00-16:00",
      "website": "https://www.franklinmuseum1778.com/"
    },
    {
      "id": 3586,
      "geometry": "POINT (-72.738946 42.599578)",
      "poi_name": "Shelburne Falls Trolley Museum",
      "osm_id": 5476773100,
      "tourism": "museum",
      "website": "https://sftm.org/",
      "wikidata": "Q7493322",
      "addr_state": "MA",
      "addr_city": "Shelburne Falls",
      "addr_postcode": "01370",
      "addr_street": "Depot Street",
      "addr_housenumber": "14"
    },
    {
      "id": 3599,
      "geometry": "POINT (-70.92354 41.636177)",
      "poi_name": "New Bedford Fishing Heritage Center",
      "osm_id": 5485627199,
      "tourism": "museum",
      "opening_hours": "Th-Su 10:00-16:00, Mo-We closed",
      "website": "https://fishingheritagecenter.org/",
      "addr_state": "MA",
      "addr_city": "New Bedford",
      "addr_street": "Bethel Street",
      "addr_housenumber": "38"
    },
    {
      "id": 3715,
      "geometry": "POINT (-71.237078 42.37128)",
      "poi_name": "The Telephone Museum",
      "osm_id": 5563193750,
      "tourism": "museum",
      "opening_hours": "Th-Sa 10:30-14:30",
      "operator": "The Telephone Museum, Inc.",
      "website": "https://telephone-museum.org/",
      "phone": "+1-781-314-6864",
      "addr_state": "MA",
      "addr_city": "Waltham",
      "addr_postcode": "02453",
      "addr_street": "Moody Street",
      "addr_housenumber": "289"
    },
    {
      "id": 3770,
      "geometry": "POINT (-71.79572 42.236423)",
      "poi_name": "Blackstone River Valley Heritage Center",
      "osm_id": 5591065576,
      "tourism": "museum",
      "website": "https://blackstoneheritagecorridor.org/happening-now/worcester-heritage-center/"
    },
    {
      "id": 4448,
      "geometry": "POINT (-71.264162 42.092735)",
      "poi_name": "Patriot's Hall of Fame",
      "osm_id": 11264710231,
      "tourism": "museum",
      "operator": "New England Patriots"
    },
    {
      "id": 4658,
      "geometry": "POINT (-72.518565 41.277182)",
      "poi_name": "Clinton Historical Society",
      "osm_id": 11380583889,
      "historic": "yes",
      "tourism": "museum",
      "website": "https://www.clintoncthistory.org/",
      "museum": "history",
      "addr_state": "CT",
      "addr_city": "Clinton",
      "addr_postcode": "06413",
      "addr_street": "East Main Street",
      "addr_housenumber": "103"
    },
    {
      "id": 4916,
      "geometry": "POINT (-72.304764 41.952812)",
      "poi_name": "Stafford Historical Society",
      "osm_id": 9681040658,
      "tourism": "museum",
      "website": "https://www.facebook.com/StaffordCTHistoricalSociety",
      "phone": "+1 860 684 7978",
      "museum": "history",
      "wikidata": "Q72081394",
      "addr_state": "CT",
      "addr_city": "Stafford",
      "addr_postcode": "06076",
      "addr_street": "Spring Street",
      "addr_housenumber": "5"
    },
    {
      "id": 4923,
      "geometry": "POINT (-72.278043 42.928864)",
      "poi_name": "Horatio Colony Museum",
      "osm_id": 9683180665,
      "tourism": "museum",
      "website": "https://horatiocolonymuseum.org/",
      "phone": "+1 (603) 352-0460",
      "museum": "history",
      "addr_state": "NH",
      "addr_city": "Keene",
      "addr_postcode": "03431",
      "addr_street": "Main Street",
      "addr_housenumber": "199"
    },
    {
      "id": 5049,
      "geometry": "POINT (-71.006035 42.253831)",
      "poi_name": "Quincy Historical Society Museum & Library",
      "osm_id": 9738686092,
      "tourism": "museum",
      "website": "https://discoverquincy.com/museums___attraction/quincy-historical-society-museum/"
    },
    {
      "id": 5092,
      "geometry": "POINT (-71.313057 41.490332)",
      "poi_name": "Old Colony House",
      "osm_id": 9750258651,
      "description": "Location of the Rhode Island State House, 1776-1900",
      "tourism": "museum",
      "operator": "Newport Historical Society",
      "website": "https://newporthistory.org/properties/the-colony-house/",
      "museum": "history",
      "addr_state": "RI",
      "addr_city": "Newport",
      "addr_postcode": "02840",
      "addr_street": "Touro Street",
      "addr_housenumber": "82"
    },
    {
      "id": 5655,
      "geometry": "POINT (-72.800336 41.876064)",
      "poi_name": "Phelps Tavern Museum",
      "osm_id": 856745878,
      "tourism": "museum",
      "website": "https://simsburyhistory.org/"
    },
    {
      "id": 5891,
      "geometry": "POINT (-72.60272 42.543597)",
      "poi_name": "Memorial Hall Museum",
      "osm_id": 1662607769,
      "tourism": "museum",
      "opening_hours": "May Sa,Su 11:00-16:30; Jun-Oct Tu-Su 11:00-16:30",
      "website": "https://memorialhalldeerfield.org/",
      "addr_state": "MA",
      "addr_city": "Deerfield",
      "addr_postcode": "01342",
      "addr_street": "Memorial Street",
      "addr_housenumber": "8"
    },
    {
      "id": 5988,
      "geometry": "POINT (-72.280262 42.925562)",
      "poi_name": "Thorne-Sagendorph Art Gallery",
      "osm_id": 1700108695,
      "tourism": "museum",
      "fee": "no",
      "opening_hours": "Tu-Sa 12:00-17:00",
      "operator": "Keene State College",
      "website": "https://www.keene.edu/tsag/",
      "phone": "+1 603-358-2720",
      "addr_state": "NH",
      "addr_city": "Keene",
      "addr_postcode": "03435",
      "addr_street": "Main Street",
      "addr_housenumber": "229"
    },
    {
      "id": 6014,
      "geometry": "POINT (-71.304835 42.18634)",
      "poi_name": "Medfield Historical Society Museum",
      "osm_id": 1710029526,
      "tourism": "museum",
      "website": "https://medfieldhistoricalsociety.org/"
    },
    {
      "id": 6015,
      "geometry": "POINT (-71.307844 42.187434)",
      "poi_name": "Dwight-Derby House Museum",
      "osm_id": 1710034306,
      "tourism": "museum",
      "website": "https://www.dwightderbyhouse.org/",
      "wikidata": "Q5318096"
    },
    {
      "id": 6016,
      "geometry": "POINT (-71.303558 42.193121)",
      "poi_name": "Lowell Mason Museum and Music Center",
      "osm_id": 1710034307,
      "tourism": "museum",
      "website": "https://www.lowellmasonhouse.net/"
    },
    {
      "id": 6305,
      "geometry": "POINT (-70.34626 41.647145)",
      "poi_name": "Centerville Historical Museum",
      "osm_id": 1813936695,
      "tourism": "museum",
      "website": "https://www.facebook.com/CentervilleHistoricalMuseum/"
    },
    {
      "id": 6323,
      "geometry": "POINT (-71.114433 42.373927)",
      "poi_name": "Fogg Museum",
      "osm_id": 1816988561,
      "tourism": "museum",
      "website": "https://harvardartmuseums.org/tag/Fogg%20Museum",
      "wikidata": "Q809600",
      "addr_state": "MA"
    },
    {
      "id": 6324,
      "geometry": "POINT (-71.114144 42.375097)",
      "poi_name": "Arthur M. Sackler Gallery",
      "osm_id": 1816988562,
      "tourism": "museum",
      "website": "https://www.si.edu/museums/sackler-gallery",
      "wikidata": "Q2493390",
      "addr_state": "MA"
    },
    {
      "id": 6579,
      "geometry": "POINT (-71.403813 41.826477)",
      "poi_name": "Haffenreffer Museum of Anthropology",
      "osm_id": 1874015375,
      "tourism": "museum",
      "website": "https://hma.brown.edu/"
    },
    {
      "id": 6650,
      "geometry": "POINT (-71.103758 42.335357)",
      "poi_name": "Warren Anatomical Museum",
      "osm_id": 1910738492,
      "tourism": "museum",
      "website": "https://www.countway.harvard.edu/chom/warren-anatomical-museum",
      "wikidata": "Q7970022"
    },
    {
      "id": 6776,
      "geometry": "POINT (-73.364746 41.954434)",
      "poi_name": "FV - Canaan Historical Society",
      "osm_id": 1966773628,
      "tourism": "museum",
      "website": "https://www.fallsvillage-canaanhistoricalsociety.org/",
      "addr_state": "CT",
      "addr_city": "Falls Village",
      "addr_postcode": "06031",
      "addr_street": "Railroad Street",
      "addr_housenumber": "44"
    },
    {
      "id": 6839,
      "geometry": "POINT (-71.881934 41.806441)",
      "poi_name": "Killingly Historical and Genealogical Society",
      "osm_id": 8720496683,
      "tourism": "museum",
      "website": "https://www.killinglyhistorical.org",
      "phone": "+1 860 779 7250",
      "museum": "history",
      "wikidata": "Q72169841",
      "addr_state": "CT",
      "addr_city": "Killingly",
      "addr_postcode": "06239",
      "addr_street": "Main Street",
      "addr_housenumber": "196"
    },
    {
      "id": 6882,
      "geometry": "POINT (-72.347867 42.280204)",
      "poi_name": "Quabbin Reservoir",
      "osm_id": 8744239418,
      "tourism": "museum",
      "website": "https://www.mass.gov/locations/quabbin-reservoir"
    },
    {
      "id": 6922,
      "geometry": "POINT (-71.273184 41.671389)",
      "poi_name": "Bristol Train of Artillery Museum",
      "osm_id": 8766450815,
      "tourism": "museum",
      "operator": "Bristol Train of Artillery",
      "museum": "military",
      "wikidata": "Q21028444",
      "addr_state": "RI",
      "addr_city": "Bristol",
      "addr_postcode": "02809",
      "addr_street": "State Street",
      "addr_housenumber": "135"
    },
    {
      "id": 6923,
      "geometry": "POINT (-71.66689 41.912556)",
      "poi_name": "Gloucester Light Infantry Militia Armory",
      "osm_id": 8766507718,
      "tourism": "museum",
      "operator": "Gloucester Light Infantry Rhode Island Militia",
      "museum": "military",
      "addr_state": "RI",
      "addr_city": "Chepachet",
      "addr_postcode": "02814",
      "addr_street": "Dorr Drive",
      "addr_housenumber": "33"
    },
    {
      "id": 6928,
      "geometry": "POINT (-71.971069 41.353003)",
      "poi_name": "Mystic Museum of Art",
      "osm_id": 8767610467,
      "tourism": "museum",
      "website": "https://www.mysticmuseumofart.org/",
      "wikidata": "Q38251388",
      "addr_city": "Groton",
      "addr_postcode": "06355"
    },
    {
      "id": 6931,
      "geometry": "POINT (-71.408062 41.826985)",
      "poi_name": "The Nature Lab at Rhode Island School of Design",
      "osm_id": 8769619385,
      "tourism": "museum",
      "website": "https://naturelab.risd.edu/",
      "museum": "nature",
      "addr_state": "RI",
      "addr_city": "Providence",
      "addr_postcode": "02903",
      "addr_street": "Waterman Street",
      "addr_housenumber": "13"
    },
    {
      "id": 7035,
      "geometry": "POINT (-71.08706 41.901243)",
      "poi_name": "Old Colony History Museum",
      "osm_id": 8817657900,
      "tourism": "museum",
      "opening_hours": "Tu-Sa 10:00-16:00",
      "website": "https://www.oldcolonyhistorymuseum.org/",
      "phone": "+1 508-822-1622",
      "museum": "history",
      "wikidata": "Q7083730",
      "addr_state": "MA",
      "addr_city": "Taunton",
      "addr_postcode": "02780",
      "addr_street": "Church Green",
      "addr_housenumber": "66"
    },
    {
      "id": 7138,
      "geometry": "POINT (-73.21148 42.713136)",
      "poi_name": "Williamstown House of Local History",
      "osm_id": 1977213515,
      "tourism": "museum",
      "website": "https://www.williamstownhistoricalmuseum.org/"
    },
    {
      "id": 7414,
      "geometry": "POINT (-71.560693 41.484017)",
      "poi_name": "Rhode Island Railroad Museum",
      "osm_id": 2139375483,
      "tourism": "museum"
    },
    {
      "id": 7419,
      "geometry": "POINT (-71.775484 41.519438)",
      "poi_name": "Yawgoog Heritage Center",
      "osm_id": 2140974339,
      "tourism": "museum",
      "website": "https://www.yawgoog.org/about.html"
    },
    {
      "id": 7567,
      "geometry": "POINT (-70.941435 42.158486)",
      "poi_name": "Shea Field Naval Historical Aviation Museum",
      "osm_id": 2205803779,
      "tourism": "museum"
    },
    {
      "id": 7569,
      "geometry": "POINT (-70.663682 41.957571)",
      "poi_name": "1749 Spooner House Museum",
      "osm_id": 2208656075,
      "tourism": "museum",
      "website": "https://plymouthantiquarian.org/historic-sites/spooner-house/",
      "addr_state": "MA",
      "addr_city": "Plymouth",
      "addr_postcode": "02360",
      "addr_street": "North Street",
      "addr_housenumber": "27"
    },
    {
      "id": 7744,
      "geometry": "POINT (-72.501301 41.577874)",
      "poi_name": "Chatham Historical Society",
      "osm_id": 6387432335,
      "tourism": "museum",
      "fee": "no",
      "website": "https://chathamhistoricalct.org/"
    },
    {
      "id": 7798,
      "geometry": "POINT (-71.947518 41.363167)",
      "poi_name": "Denison Homestead",
      "osm_id": 6413309697,
      "tourism": "museum",
      "website": "https://www.denisonhomestead.org/",
      "addr_state": "CT",
      "addr_city": "Stonington",
      "addr_postcode": "06378",
      "addr_street": "Pequotsepos Road",
      "addr_housenumber": "120"
    },
    {
      "id": 7966,
      "geometry": "POINT (-72.243097 41.804767)",
      "poi_name": "Ballard Institute and Museum of Puppetry",
      "osm_id": 6491642615,
      "description": "The Ballard Institute and Museum of Puppetry is one of America\u2019s hidden treasures\u2014a superb collection of over 3,500 puppets from all over the world; an archive of books, manuscripts, posters, drawings, audio-visual materials and photographs.",
      "tourism": "museum",
      "fee": "no",
      "operator": "University of Connecticut",
      "website": "https://bimp.uconn.edu/",
      "phone": "+1 (860) 486-8580",
      "museum": "art",
      "wikidata": "Q24534715",
      "addr_state": "CT",
      "addr_city": "Storrs",
      "addr_postcode": "06268",
      "addr_street": "Royce Circle",
      "addr_housenumber": "1"
    },
    {
      "id": 8189,
      "geometry": "POINT (-72.09463 41.550004)",
      "poi_name": "Norwich Historical Society",
      "osm_id": 6583987800,
      "tourism": "museum",
      "opening_hours": "Fr-Su 11:00-15:00",
      "website": "https://www.norwichhistoricalsociety.org/",
      "museum": "history",
      "wikidata": "Q72081298",
      "addr_state": "CT",
      "addr_city": "Norwich",
      "addr_postcode": "06360",
      "addr_street": "East Town Street",
      "addr_housenumber": "69"
    },
    {
      "id": 8366,
      "geometry": "POINT (-70.9465 42.97874)",
      "poi_name": "Exeter Fire Museum",
      "osm_id": 6655104823,
      "tourism": "museum"
    },
    {
      "id": 8382,
      "geometry": "POINT (-73.117112 41.604894)",
      "poi_name": "Watertown Historical Society",
      "osm_id": 6659572388,
      "tourism": "museum",
      "website": "https://www.watertownhistoricalsociety.org/",
      "addr_state": "CT",
      "addr_city": "Watertown",
      "addr_postcode": "06795",
      "addr_street": "Main Street",
      "addr_housenumber": "401"
    },
    {
      "id": 8493,
      "geometry": "POINT (-71.417217 41.834916)",
      "poi_name": "Rhode Island Jewish Museum",
      "osm_id": 8498549665,
      "tourism": "museum",
      "website": "https://www.rhodeislandjewishmuseum.org/"
    },
    {
      "id": 8766,
      "geometry": "POINT (-70.856264 42.27016)",
      "poi_name": "Paragon Park Museum and Museum Shop",
      "osm_id": 8685742002,
      "tourism": "museum",
      "website": "https://www.paragoncarousel.com/museum-shop/"
    },
    {
      "id": 8768,
      "geometry": "POINT (-72.90071 41.420144)",
      "poi_name": "Jonathan Dickerman House",
      "osm_id": 8686353862,
      "tourism": "museum",
      "operator": "Hamden Historical Society",
      "website": "http://www.hamdenhistoricalsociety.org",
      "addr_state": "CT",
      "addr_city": "Hamden",
      "addr_postcode": "06518",
      "addr_street": "Mountain Carmel Avenue",
      "addr_housenumber": "105"
    },
    {
      "id": 9053,
      "geometry": "POINT (-72.221359 41.431328)",
      "poi_name": "The Gateway Museum at Nature's Art Village",
      "osm_id": 3646722825,
      "tourism": "museum",
      "opening_hours": "10:00-17:00",
      "website": "www.naturesartvillage.com",
      "phone": "8604373615",
      "addr_state": "CT",
      "addr_city": "Montville",
      "addr_postcode": "06370",
      "addr_street": "Hartford-New London Turnpike",
      "addr_housenumber": "1650"
    },
    {
      "id": 9121,
      "geometry": "POINT (-73.114521 42.69695)",
      "poi_name": "North Adams Historical Museum",
      "osm_id": 3677959406,
      "tourism": "museum"
    },
    {
      "id": 9451,
      "geometry": "POINT (-73.334751 42.288832)",
      "poi_name": "Studio",
      "osm_id": 3813908680,
      "tourism": "museum"
    },
    {
      "id": 9709,
      "geometry": "POINT (-72.23585 41.715084)",
      "poi_name": "Connecticut Eastern Railroad Museum",
      "osm_id": 8949316066,
      "tourism": "museum",
      "website": "http://www.cteastrrmuseum.org/",
      "phone": "+1 860 456 9999",
      "wikidata": "Q28448554",
      "addr_state": "CT",
      "addr_city": "Willimantic",
      "addr_postcode": "06226",
      "addr_street": "Bridge Street",
      "addr_housenumber": "55"
    },
    {
      "id": 9790,
      "geometry": "POINT (-70.450892 41.638055)",
      "poi_name": "Cahoon Museum of American Art",
      "osm_id": 8994066046,
      "tourism": "museum",
      "website": "https://cahoonmuseum.org/"
    },
    {
      "id": 10085,
      "geometry": "POINT (-70.687961 41.978899)",
      "poi_name": "Plymouth Cordage Company Museum",
      "osm_id": 6704037909,
      "tourism": "museum",
      "website": "https://www.plymouthcordageco.org/"
    },
    {
      "id": 10163,
      "geometry": "POINT (-71.315411 41.4899)",
      "poi_name": "Museum of Newport History",
      "osm_id": 6732171975,
      "tourism": "museum",
      "website": "https://newporthistory.org/museum-shop/",
      "wikidata": "Q2383834"
    },
    {
      "id": 10469,
      "geometry": "POINT (-70.599769 41.449221)",
      "poi_name": "Martha's Vineyard Museum",
      "osm_id": 6867284890,
      "tourism": "museum",
      "fee": "yes",
      "opening_hours": "Tu-Su 10:00-16:00",
      "website": "https://mvmuseum.org",
      "phone": "+1-508-627-4441",
      "museum": "local",
      "addr_state": "MA",
      "addr_city": "Vineyard Haven",
      "addr_postcode": "02568",
      "addr_street": "Lagoon Pond Road",
      "addr_housenumber": "151"
    },
    {
      "id": 10486,
      "geometry": "POINT (-71.308736 42.647581)",
      "poi_name": "Mill Girls and Immigrants Exhibit",
      "osm_id": 6883963160,
      "tourism": "museum",
      "operator": "Lowell Nationai Historical Park",
      "addr_state": "MA",
      "addr_city": "Lowell",
      "addr_street": "French Street",
      "addr_housenumber": "40"
    },
    {
      "id": 10488,
      "geometry": "POINT (-71.306736 42.647254)",
      "poi_name": "Boot Cotton Mills Museum",
      "osm_id": 6886465759,
      "tourism": "museum",
      "operator": "Lowell Nationai Historical Park",
      "website": "https://www.nps.gov/lowe/planyourvisit/placestogo.htm"
    },
    {
      "id": 10735,
      "geometry": "POINT (-72.682972 41.748386)",
      "poi_name": "Myths, Minds and Medicine Museum",
      "osm_id": 8007704386,
      "tourism": "museum",
      "website": "https://instituteofliving.org/about-us/myths-minds-medicine",
      "phone": "+1 860 545 7665",
      "museum": "history",
      "addr_state": "CT",
      "addr_city": "Hartford",
      "addr_postcode": "06106"
    },
    {
      "id": 10859,
      "geometry": "POINT (-71.663177 41.367481)",
      "poi_name": "Frosty Drew Memorial Nature Center",
      "osm_id": 8092009187,
      "tourism": "museum",
      "museum": "nature"
    },
    {
      "id": 11229,
      "geometry": "POINT (-71.066269 42.772562)",
      "poi_name": "Buttonwoods Museum",
      "osm_id": 9902034888,
      "tourism": "museum"
    },
    {
      "id": 11391,
      "geometry": "POINT (-71.435913 42.302423)",
      "poi_name": "Danforth Art",
      "osm_id": 9957409403,
      "tourism": "museum",
      "fee": "yes",
      "opening_hours": "Tu-Su 12:00-17:00",
      "website": "https://danforth.framingham.edu"
    },
    {
      "id": 11398,
      "geometry": "POINT (-72.795635 42.073879)",
      "poi_name": "Pioneer Valley Live Steamers",
      "osm_id": 9958134683,
      "tourism": "museum",
      "website": "https://www.pioneervalleylivesteamers.org/",
      "museum": "railway",
      "addr_street": "Hillside Road",
      "addr_housenumber": "108"
    },
    {
      "id": 11774,
      "geometry": "POINT (-71.114928 42.378214)",
      "poi_name": "Peabody Museum of Archaeology and Ethnology",
      "osm_id": 11540371766,
      "tourism": "museum",
      "fee": "yes",
      "operator": "Harvard University",
      "website": "https://www.peabody.harvard.edu/",
      "phone": "+1-617-496-1027",
      "wikidata": "Q1249027",
      "addr_state": "MA",
      "addr_city": "Cambridge",
      "addr_postcode": "02138",
      "addr_street": "Divinity Avenue",
      "addr_housenumber": "11"
    },
    {
      "id": 12019,
      "geometry": "POINT (-70.529647 43.382825)",
      "poi_name": "The Hagenarium",
      "osm_id": 6141232885,
      "tourism": "museum",
      "addr_state": "ME",
      "addr_city": "Kennebunk",
      "addr_postcode": "04043",
      "addr_street": "Depot Street",
      "addr_housenumber": "11"
    },
    {
      "id": 12102,
      "geometry": "POINT (-72.936385 42.410508)",
      "poi_name": "Worthington Historical Society",
      "osm_id": 6186108364,
      "tourism": "museum",
      "website": "https://www.worthingtonhistoricalsociety.org/wordpress/",
      "addr_state": "MA",
      "addr_city": "Worthington",
      "addr_postcode": "01098",
      "addr_street": "Williamsburg Road",
      "addr_housenumber": "6"
    },
    {
      "id": 12182,
      "geometry": "POINT (-72.405532 41.350334)",
      "poi_name": "Essex Steam Train & Riverboat",
      "osm_id": 6232723393,
      "tourism": "museum",
      "website": "https://essexsteamtrain.com/"
    },
    {
      "id": 12188,
      "geometry": "POINT (-72.592457 41.977062)",
      "poi_name": "Enfield Historical Society",
      "osm_id": 6237878710,
      "tourism": "museum",
      "website": "https://enfieldhistoricalsociety.org/"
    },
    {
      "id": 12234,
      "geometry": "POINT (-72.820551 41.450858)",
      "poi_name": "Wallingford Historical Society",
      "osm_id": 6249138220,
      "tourism": "museum",
      "website": "https://www.wallingfordct.gov/government/agencies/wallingford-historical-society/"
    },
    {
      "id": 12277,
      "geometry": "POINT (-72.393379 41.353403)",
      "poi_name": "Essex Historical Society",
      "osm_id": 6273409693,
      "tourism": "museum",
      "website": "https://www.essexhistory.org/",
      "wikidata": "Q5761907"
    },
    {
      "id": 12278,
      "geometry": "POINT (-72.752577 41.271299)",
      "poi_name": "Stony Creek Museum",
      "osm_id": 6273551069,
      "tourism": "museum",
      "website": "https://www.stonycreekmuseum.org/",
      "addr_state": "CT",
      "addr_city": "Stony Creek",
      "addr_postcode": "06405",
      "addr_street": "Thimble Islands Road",
      "addr_housenumber": "84"
    },
    {
      "id": 12428,
      "geometry": "POINT (-72.524436 42.390079)",
      "poi_name": "Rausch Mineral Gallery",
      "osm_id": 6353414140,
      "tourism": "museum",
      "wheelchair": "limited",
      "fee": "no",
      "opening_hours": "Mo-Fr 09:00-17:00",
      "operator": "Umass Amherst Department of Geosciences",
      "addr_state": "MA",
      "addr_city": "Amherst",
      "addr_postcode": "01003",
      "addr_street": "North Pleasant Street",
      "addr_housenumber": "611"
    },
    {
      "id": 12575,
      "geometry": "POINT (-70.6004 43.24471)",
      "poi_name": "Ogunquit Heritage Museum",
      "osm_id": 7344012555,
      "tourism": "museum",
      "website": "http://www.ogunquitheritagemuseum.com/",
      "addr_state": "ME",
      "addr_city": "Ogunquit",
      "addr_postcode": "03907",
      "addr_street": "Obeds Lane",
      "addr_housenumber": "86"
    },
    {
      "id": 12578,
      "geometry": "POINT (-71.308279 41.482015)",
      "poi_name": "Audrain Auto Museum",
      "osm_id": 7348654813,
      "tourism": "museum",
      "website": "https://www.audrainautomuseum.org/",
      "museum": "car",
      "addr_city": "Newport",
      "addr_street": "Bellevue Avenue",
      "addr_housenumber": "222"
    },
    {
      "id": 12649,
      "geometry": "POINT (-73.310716 42.28163)",
      "poi_name": "Procter Museum & Archives of Stockbridge History",
      "osm_id": 7435224161,
      "tourism": "museum",
      "opening_hours": "Tu 09:00-20:00; We,Fr 09:00-17:00; Th 09:00-13:00; Sa 09:00-14:00",
      "operator": "Stockbridge Library Association",
      "website": "https://stockbridgelibrary.org/museum-archives/"
    },
    {
      "id": 12983,
      "geometry": "POINT (-70.89463 42.520884)",
      "poi_name": "The Salem Museum",
      "osm_id": 3998817788,
      "tourism": "museum",
      "website": "https://www.thesalemmuseum.org/",
      "addr_state": "MA",
      "addr_city": "Salem",
      "addr_postcode": "01970",
      "addr_street": "Derby Square",
      "addr_housenumber": "32"
    },
    {
      "id": 12997,
      "geometry": "POINT (-70.665395 41.953949)",
      "poi_name": "Jenney Museum",
      "osm_id": 4005658968,
      "tourism": "museum",
      "website": "http://www.jenneymuseum.org/",
      "addr_state": "MA",
      "addr_city": "Plymouth",
      "addr_postcode": "02360",
      "addr_street": "Summer Street",
      "addr_housenumber": "48"
    },
    {
      "id": 12998,
      "geometry": "POINT (-70.665216 41.953567)",
      "poi_name": "The Plimoth Grist Mill",
      "osm_id": 4005658969,
      "tourism": "museum",
      "wikidata": "Q6177865",
      "addr_state": "MA",
      "addr_city": "Plymouth",
      "addr_postcode": "02360",
      "addr_street": "Spring Lane",
      "addr_housenumber": "6"
    },
    {
      "id": 13054,
      "geometry": "POINT (-72.362146 43.150376)",
      "poi_name": "Alstead Historical Society",
      "osm_id": 4032228872,
      "tourism": "museum",
      "website": "https://www.alsteadnh.org/historical-society"
    },
    {
      "id": 13988,
      "geometry": "POINT (-69.980192 41.703748)",
      "poi_name": "Chatham Marconi Maritime Center",
      "osm_id": 4209178113,
      "tourism": "museum",
      "fee": "yes",
      "website": "https://www.chathammarconi.org/",
      "phone": "+1 508 945 8889",
      "wikidata": "Q14715438",
      "addr_state": "MA",
      "addr_city": "North Chatham",
      "addr_postcode": "02650",
      "addr_street": "Orleans Road",
      "addr_housenumber": "847"
    },
    {
      "id": 14031,
      "geometry": "POINT (-71.406482 41.825175)",
      "poi_name": "Governor Stephen Hopkins House",
      "osm_id": 4214526089,
      "tourism": "museum",
      "website": "http://nscda.org/",
      "wikidata": "Q5589613",
      "addr_state": "RI",
      "addr_city": "Providence",
      "addr_postcode": "02903",
      "addr_street": "Hopkins Street",
      "addr_housenumber": "15"
    },
    {
      "id": 14655,
      "geometry": "POINT (-72.43344 40.885142)",
      "poi_name": "Shinnecock Indian Cultural Museum",
      "osm_id": 4678701663,
      "tourism": "museum",
      "website": "http://www.shinnecockmuseum.com/",
      "phone": "+1-631-287-4923",
      "addr_city": "Shinnecock Hills",
      "addr_postcode": "11968",
      "addr_street": "Montauk Highway",
      "addr_housenumber": "130"
    },
    {
      "id": 14782,
      "geometry": "POINT (-71.061738 42.366502)",
      "poi_name": "The Sports Museum",
      "osm_id": 4720480889,
      "tourism": "museum",
      "wheelchair": "yes",
      "fee": "yes",
      "website": "https://www.sportsmuseum.org/",
      "phone": "+1-617-624-1234",
      "museum": "sports",
      "wikidata": "Q7766037",
      "addr_state": "MA",
      "addr_city": "Boston",
      "addr_postcode": "02114",
      "addr_street": "Legends Way",
      "addr_housenumber": "100"
    },
    {
      "id": 15011,
      "geometry": "POINT (-71.063763 42.364276)",
      "poi_name": "The West End Museum",
      "osm_id": 4779856587,
      "description": "closed due to flooding January 15th 2022, will potentially re-open if they have enough funds and donations.",
      "tourism": "museum",
      "website": "https://thewestendmuseum.org/",
      "wikidata": "Q7985097"
    },
    {
      "id": 15327,
      "geometry": "POINT (-71.157547 42.706641)",
      "poi_name": "Lawrence Heritage State Park - Visitors Center",
      "osm_id": 4856420650,
      "tourism": "museum",
      "website": "https://www.mass.gov/locations/lawrence-heritage-state-park",
      "addr_state": "MA",
      "addr_city": "Lawrence",
      "addr_postcode": "01840",
      "addr_street": "Jackson Street",
      "addr_housenumber": "1"
    },
    {
      "id": 15481,
      "geometry": "POINT (-71.949557 42.877337)",
      "poi_name": "Mariposa Museum",
      "osm_id": 4903017775,
      "tourism": "museum",
      "fee": "yes",
      "website": "https://www.mariposamuseum.org/",
      "phone": "+1-603-924-4555",
      "addr_state": "NH",
      "addr_city": "Peterborough",
      "addr_postcode": "03458",
      "addr_street": "Main Street",
      "addr_housenumber": "26"
    },
    {
      "id": 15482,
      "geometry": "POINT (-71.94952 42.878623)",
      "poi_name": "Aquarius No. 1 Fire Museum",
      "osm_id": 4903030082,
      "tourism": "museum",
      "website": "http://www.firerescue.us/museum/about-the-aquarius-museum.html",
      "addr_state": "NH",
      "addr_city": "Peterborough",
      "addr_postcode": "03458",
      "addr_street": "Summer Street",
      "addr_housenumber": "16"
    },
    {
      "id": 15564,
      "geometry": "POINT (-70.760805 43.075388)",
      "poi_name": "Discover Portsmouth",
      "osm_id": 4940409524,
      "tourism": "museum",
      "website": "https://portsmouthhistory.org/about/",
      "addr_state": "NH",
      "addr_city": "Portsmouth",
      "addr_postcode": "03801",
      "addr_street": "Middle Street",
      "addr_housenumber": "10"
    },
    {
      "id": 15578,
      "geometry": "POINT (-72.652505 41.711374)",
      "poi_name": "Keeney Memorial Cultural Center",
      "osm_id": 9387785403,
      "description": "Home of the wethersfield chamber of commerce, a measure of wethersfield history and art, and popular event center.",
      "tourism": "museum",
      "wheelchair": "yes",
      "operator": "Town Of Wethersfield",
      "website": "https://wethhist.org/",
      "phone": "860-529-7161",
      "addr_state": "CT",
      "addr_city": "Wethersfield",
      "addr_postcode": "06109",
      "addr_street": "Main Street",
      "addr_housenumber": "200"
    },
    {
      "id": 15702,
      "geometry": "POINT (-72.22422 41.787891)",
      "poi_name": "Mansfield Historical Society",
      "osm_id": 9459293763,
      "tourism": "museum",
      "website": "https://mansfieldct-history.org",
      "phone": "+1 860 429 6575",
      "museum": "history",
      "wikidata": "Q72081237",
      "addr_state": "CT",
      "addr_city": "Storrs",
      "addr_postcode": "06268",
      "addr_street": "Storrs Road",
      "addr_housenumber": "954"
    },
    {
      "id": 15724,
      "geometry": "POINT (-70.887253 42.521719)",
      "poi_name": "Public Stores",
      "osm_id": 9480875854,
      "historic": "maritime",
      "description": "It was used by the U.S. Customs Service to hold cargo for merchants until they were able to pay the duties on their goods. Cargo came into Salem in barrels, crates, bags, and chests.",
      "tourism": "museum",
      "building": "yes",
      "operator": "Salem National Historic Site",
      "museum": "history",
      "addr_state": "MA",
      "addr_city": "Salem",
      "addr_postcode": "01970",
      "addr_street": "Derby Street"
    },
    {
      "id": 15838,
      "geometry": "POINT (-71.904046 41.92059)",
      "poi_name": "Aspinock Historical Society",
      "osm_id": 9555285811,
      "tourism": "museum",
      "operator": "Aspinock Historical Society of Putnam Inc.",
      "website": "http://aspinockhs-putnam.weebly.com",
      "phone": "+1 860 963 0092",
      "museum": "history",
      "wikidata": "Q72080995",
      "addr_state": "CT",
      "addr_city": "Putnam",
      "addr_postcode": "06260",
      "addr_street": "School Street",
      "addr_housenumber": "206"
    },
    {
      "id": 15858,
      "geometry": "POINT (-71.216368 42.44133)",
      "poi_name": "Munroe Tavern",
      "osm_id": 9569562256,
      "tourism": "museum",
      "operator": "Lexington Historical Society",
      "website": "https://www.lexingtonhistory.org/munroe-tavern",
      "museum": "history",
      "wikidata": "Q6936849",
      "addr_state": "MA",
      "addr_city": "Lexington",
      "addr_street": "Massachusetts Avenue",
      "addr_housenumber": "1332"
    },
    {
      "id": 16043,
      "geometry": "POINT (-71.014699 42.271762)",
      "poi_name": "Josiah Quincy House",
      "osm_id": 316902356,
      "historic": "icon",
      "tourism": "museum",
      "fee": "yes",
      "website": "https://www.historicnewengland.org/property/quincy-house/",
      "wikidata": "Q6290603",
      "addr_state": "MA"
    },
    {
      "id": 16191,
      "geometry": "POINT (-71.31498 41.486194)",
      "poi_name": "The Rhode Island Fisherman and Whale Museum",
      "osm_id": 357260131,
      "tourism": "museum"
    },
    {
      "id": 16290,
      "geometry": "POINT (-71.051304 42.352199)",
      "poi_name": "Boston Tea Party - Ships and Museum",
      "osm_id": 358275870,
      "tourism": "museum",
      "website": "https://www.bostonteapartyship.com/",
      "phone": "+1-866-955-0667",
      "addr_state": "MA",
      "addr_city": "Boston",
      "addr_postcode": "02210",
      "addr_street": "Congress Street",
      "addr_housenumber": "306"
    },
    {
      "id": 16815,
      "geometry": "POINT (-70.75475 43.077921)",
      "poi_name": "Warner House Museum",
      "osm_id": 366495269,
      "tourism": "museum",
      "website": "https://www.warnerhouse.org/",
      "addr_state": "NH",
      "addr_city": "Portsmouth",
      "addr_postcode": "03802",
      "addr_street": "Daniel Street",
      "addr_housenumber": "150"
    },
    {
      "id": 16816,
      "geometry": "POINT (-70.99154 43.463203)",
      "poi_name": "New Hampshire Farm Museum",
      "osm_id": 366495270,
      "tourism": "museum",
      "website": "https://nhfarmmuseum.org/",
      "addr_state": "NH"
    },
    {
      "id": 16817,
      "geometry": "POINT (-71.257567 43.614495)",
      "poi_name": "Libby Museum",
      "osm_id": 366495273,
      "tourism": "museum",
      "website": "https://www.thelibbymuseum.org/",
      "wikidata": "Q17039504",
      "addr_state": "NH"
    },
    {
      "id": 16818,
      "geometry": "POINT (-71.205068 43.589245)",
      "poi_name": "Wright Museum",
      "osm_id": 366495274,
      "tourism": "museum",
      "fee": "yes",
      "website": "https://www.wrightmuseum.org/",
      "museum": "military",
      "addr_state": "NH"
    },
    {
      "id": 16819,
      "geometry": "POINT (-71.688677 43.220915)",
      "poi_name": "Little Nature Museum",
      "osm_id": 366495275,
      "tourism": "museum",
      "website": "https://nemanet.org/museums/little-nature-museum/",
      "addr_state": "NH"
    },
    {
      "id": 16820,
      "geometry": "POINT (-71.202114 43.580865)",
      "poi_name": "Clark House Museum",
      "osm_id": 366495276,
      "tourism": "museum",
      "website": "https://www.wolfeboronh.us/clark-museum-complex",
      "addr_state": "NH"
    },
    {
      "id": 16826,
      "geometry": "POINT (-71.535572 43.20728)",
      "poi_name": "Museum of the New Hampshire Historical Society",
      "osm_id": 366495284,
      "tourism": "museum",
      "addr_state": "NH"
    },
    {
      "id": 16827,
      "geometry": "POINT (-72.282586 42.932581)",
      "poi_name": "Colony House Museum",
      "osm_id": 366495285,
      "tourism": "museum",
      "addr_state": "NH"
    },
    {
      "id": 16828,
      "geometry": "POINT (-72.514534 42.904804)",
      "poi_name": "Antique Carriage and Sleigh Museum",
      "osm_id": 366495286,
      "tourism": "museum",
      "addr_state": "NH"
    },
    {
      "id": 16829,
      "geometry": "POINT (-72.096751 43.176189)",
      "poi_name": "Washington Museum",
      "osm_id": 366495287,
      "tourism": "museum",
      "website": "https://www.wnhhs.org/museums",
      "addr_state": "NH"
    },
    {
      "id": 16831,
      "geometry": "POINT (-72.167686 43.33505)",
      "poi_name": "Little Red Schoolhouse Museum",
      "osm_id": 366495289,
      "tourism": "museum",
      "wikidata": "Q18153710",
      "addr_state": "NH"
    },
    {
      "id": 16832,
      "geometry": "POINT (-70.832549 43.098164)",
      "poi_name": "Old Parsonage Museum",
      "osm_id": 366495346,
      "tourism": "museum",
      "addr_state": "NH"
    },
    {
      "id": 16833,
      "geometry": "POINT (-70.760022 43.078718)",
      "poi_name": "Moffatt-Ladd House Museum",
      "osm_id": 366495349,
      "tourism": "museum",
      "website": "https://moffattladd.org/",
      "wikidata": "Q6890357",
      "addr_state": "NH"
    },
    {
      "id": 16844,
      "geometry": "POINT (-72.443999 43.132805)",
      "poi_name": "Bellows Falls Historical Society Museum",
      "osm_id": 366668011,
      "tourism": "museum",
      "website": "https://www.facebook.com/BellowsFallsHistoricalSociety/",
      "addr_state": "VT"
    },
    {
      "id": 16845,
      "geometry": "POINT (-72.556684 42.850811)",
      "poi_name": "Brattleboro Museum and Art Center",
      "osm_id": 366668014,
      "tourism": "museum",
      "opening_hours": "We-Su 10:00-16:00",
      "website": "https://www.brattleboromuseum.org/",
      "wikidata": "Q4958121",
      "addr_state": "VT",
      "addr_city": "Brattleboro",
      "addr_postcode": "05301",
      "addr_street": "Vernon Street",
      "addr_housenumber": "10"
    },
    {
      "id": 16856,
      "geometry": "POINT (-72.608066 43.17257)",
      "poi_name": "Grafton Historical Society Museum",
      "osm_id": 366668279,
      "tourism": "museum",
      "website": "http://www.graftonhistoricalsociety.com/",
      "addr_state": "VT"
    },
    {
      "id": 16857,
      "geometry": "POINT (-72.522868 43.33174)",
      "poi_name": "Springfield Art and Historical Society Museum",
      "osm_id": 366668299,
      "tourism": "museum",
      "website": "https://www.springfieldartandhistorical.org/",
      "museum": "local",
      "addr_state": "VT",
      "addr_city": "North Springfield",
      "addr_postcode": "05150",
      "addr_street": "Route 106",
      "addr_housenumber": "65"
    },
    {
      "id": 16859,
      "geometry": "POINT (-71.273303 41.670136)",
      "poi_name": "Bristol County Courthouse",
      "osm_id": 366688220,
      "tourism": "museum",
      "website": "https://bristolstatehouse.org/",
      "museum": "history",
      "wikidata": "Q4968881",
      "addr_state": "RI",
      "addr_city": "Bristol",
      "addr_street": "High Street",
      "addr_housenumber": "240"
    },
    {
      "id": 16861,
      "geometry": "POINT (-71.307315 41.740442)",
      "poi_name": "Barrington Preservation Society Museum",
      "osm_id": 366690837,
      "tourism": "museum",
      "website": "https://barringtonpreservation.org/museum/",
      "wikidata": "Q21014378",
      "addr_state": "RI"
    },
    {
      "id": 16862,
      "geometry": "POINT (-71.236992 41.678713)",
      "poi_name": "Haffenreffer Museum of Anthropology",
      "osm_id": 366690858,
      "tourism": "museum",
      "website": "https://hma.brown.edu/",
      "addr_state": "RI"
    },
    {
      "id": 16863,
      "geometry": "POINT (-71.27514 41.669631)",
      "poi_name": "Bristol Historical and Preservation Society Museum",
      "osm_id": 366690862,
      "tourism": "museum",
      "website": "https://bhpsri.org/"
    },
    {
      "id": 16864,
      "geometry": "POINT (-71.281757 41.729015)",
      "poi_name": "Charles W. Greene Museum",
      "osm_id": 366690866,
      "tourism": "museum",
      "website": "https://www.georgehail.org/charles-whipple-greene-museum",
      "addr_state": "RI"
    },
    {
      "id": 16866,
      "geometry": "POINT (-71.516136 41.999298)",
      "poi_name": "Museum of Work and Culture",
      "osm_id": 366690983,
      "tourism": "museum",
      "website": "http://www.rihs.org/museums/museum-of-work-and-culture/",
      "phone": "+1 401 769 9675",
      "wikidata": "Q17011715",
      "addr_city": "Woonsocket",
      "addr_postcode": "02895",
      "addr_street": "South Main Street",
      "addr_housenumber": "42"
    },
    {
      "id": 16867,
      "geometry": "POINT (-71.698122 41.557322)",
      "poi_name": "Tomaquag Indian Museum",
      "osm_id": 366691017,
      "tourism": "museum",
      "website": "https://www.tomaquagmuseum.org/",
      "addr_state": "RI"
    },
    {
      "id": 16868,
      "geometry": "POINT (-71.562256 41.17361)",
      "poi_name": "Block Island Historical Society Museum",
      "osm_id": 366691025,
      "tourism": "museum",
      "website": "https://www.blockislandhistorical.org/",
      "wikidata": "Q4927144",
      "addr_state": "RI"
    },
    {
      "id": 16869,
      "geometry": "POINT (-71.819935 41.371279)",
      "poi_name": "Babcock-Smith House Museum",
      "osm_id": 366691037,
      "tourism": "museum",
      "website": "https://www.babcocksmithhouse.org/",
      "addr_state": "RI"
    },
    {
      "id": 16870,
      "geometry": "POINT (-71.393569 41.786296)",
      "poi_name": "Culinary Archive and Museum;Johnson & Wales University Culinary Arts Museum",
      "osm_id": 366691048,
      "tourism": "museum",
      "website": "https://www.jwu.edu/culinarymuseum/",
      "addr_state": "RI"
    },
    {
      "id": 16871,
      "geometry": "POINT (-71.455783 41.69951)",
      "poi_name": "Warwick Museum of Art",
      "osm_id": 366691050,
      "tourism": "museum",
      "addr_state": "RI"
    },
    {
      "id": 16872,
      "geometry": "POINT (-71.370534 41.496508)",
      "poi_name": "Jamestown Fire Department Memorial Museum",
      "osm_id": 366691063,
      "tourism": "museum",
      "addr_state": "RI",
      "addr_city": "Jamestown",
      "addr_postcode": "02835",
      "addr_street": "Narragansett Avenue",
      "addr_housenumber": "50"
    },
    {
      "id": 16873,
      "geometry": "POINT (-71.373812 41.496383)",
      "poi_name": "Jamestown Museum",
      "osm_id": 366691065,
      "tourism": "museum",
      "website": "https://jamestownhistoricalsociety.org/jamestown-ri-places-to-visit/jamestown-museum/",
      "wikidata": "Q21014382",
      "addr_state": "RI"
    },
    {
      "id": 16874,
      "geometry": "POINT (-71.276464 41.671092)",
      "poi_name": "Linden Place Museum",
      "osm_id": 366691066,
      "tourism": "museum",
      "website": "https://www.lindenplace.org/",
      "phone": "401-253-0390",
      "wikidata": "Q6552343",
      "addr_state": "RI",
      "addr_city": "Bristol",
      "addr_postcode": "02809",
      "addr_street": "Hope Street",
      "addr_housenumber": "500"
    },
    {
      "id": 16875,
      "geometry": "POINT (-71.271716 41.663435)",
      "poi_name": "Herreshoff Marine Museum",
      "osm_id": 366691068,
      "tourism": "museum",
      "website": "http://www.herreshoff.org",
      "wikidata": "Q5743968",
      "addr_state": "RI",
      "addr_city": "Bristol",
      "addr_postcode": "02809",
      "addr_street": "Burnside Street",
      "addr_housenumber": "1"
    },
    {
      "id": 16876,
      "geometry": "POINT (-71.285605 41.730379)",
      "poi_name": "James Maxwell House Museum",
      "osm_id": 366691077,
      "tourism": "museum",
      "addr_state": "RI"
    },
    {
      "id": 16877,
      "geometry": "POINT (-71.314217 41.478714)",
      "poi_name": "The Doll Museum",
      "osm_id": 366691081,
      "tourism": "museum",
      "website": "https://www.facebook.com/newportdollmuseum/",
      "addr_state": "RI"
    },
    {
      "id": 16878,
      "geometry": "POINT (-71.373998 41.497532)",
      "poi_name": "Sydney L Wright Memorial Museum of Indian Artifacts",
      "osm_id": 366691083,
      "description": "The Museum is used as a meeting room at the Jamestown Philomenian Library",
      "tourism": "museum",
      "addr_state": "RI"
    },
    {
      "id": 16879,
      "geometry": "POINT (-71.311857 41.489259)",
      "poi_name": "Newport Historical Society and Museum",
      "osm_id": 366691084,
      "tourism": "museum",
      "website": "https://newporthistory.org/",
      "addr_state": "RI"
    },
    {
      "id": 16880,
      "geometry": "POINT (-71.313106 41.48788)",
      "poi_name": "Newport Museum of Costume",
      "osm_id": 366691085,
      "tourism": "museum",
      "addr_state": "RI"
    },
    {
      "id": 16881,
      "geometry": "POINT (-71.308138 41.485515)",
      "poi_name": "Newport Art Museum",
      "osm_id": 366691089,
      "tourism": "museum",
      "website": "https://newportartmuseum.org/",
      "phone": "+1-401-848-8200",
      "wikidata": "Q7018775",
      "addr_state": "RI",
      "addr_city": "Newport",
      "addr_postcode": "02840",
      "addr_street": "Bellevue Avenue",
      "addr_housenumber": "76"
    },
    {
      "id": 17280,
      "geometry": "POINT (-72.578977 41.900931)",
      "poi_name": "East Windsor Historical Society Museum",
      "osm_id": 367140218,
      "tourism": "museum",
      "wikidata": "Q14714894",
      "addr_state": "CT"
    },
    {
      "id": 17243,
      "geometry": "POINT (-71.946794 41.362439)",
      "poi_name": "Denison Pequotsepos Nature Center",
      "osm_id": 367136361,
      "tourism": "museum",
      "opening_hours": "Mo-Sa 09:00-16:00; Su 10:00-16:00",
      "website": "https://dpnc.org/",
      "addr_state": "CT"
    },
    {
      "id": 17245,
      "geometry": "POINT (-72.869467 41.670038)",
      "poi_name": "Plainville Historic Center",
      "osm_id": 367136590,
      "tourism": "museum",
      "website": "http://www.plainvillehistoricalsociety.com/",
      "addr_city": "Plainville",
      "addr_postcode": "06062",
      "addr_street": "Pierce Street",
      "addr_housenumber": "29"
    },
    {
      "id": 17247,
      "geometry": "POINT (-72.451856 41.402246)",
      "poi_name": "Chester Historical Society Museum at the Mill",
      "osm_id": 367139185,
      "tourism": "museum",
      "fee": "no",
      "website": "http://chesterhistoricalsociety.org/",
      "addr_state": "CT",
      "addr_city": "Chester",
      "addr_postcode": "06412"
    },
    {
      "id": 17248,
      "geometry": "POINT (-72.516988 41.480304)",
      "poi_name": "Thankful Arnold House",
      "osm_id": 367139574,
      "tourism": "museum",
      "opening_hours": "We 09:00-15:00; Th 14:00-20:00; Fr 12:00-15:00",
      "operator": "Haddam Historical Society",
      "website": "https://cthistoricgardens.org/thankful-arnold-house",
      "wikidata": "Q110517297",
      "addr_state": "CT",
      "addr_city": "Haddam",
      "addr_postcode": "06438",
      "addr_street": "Hayden Hill Road",
      "addr_housenumber": "14"
    },
    {
      "id": 17250,
      "geometry": "POINT (-73.32953 42.025929)",
      "poi_name": "Connecticut Railroad Historical Museum",
      "osm_id": 367140013,
      "tourism": "museum",
      "website": "https://rmne.org/",
      "addr_state": "CT",
      "addr_city": "Thomaston",
      "addr_street": "Main Street",
      "addr_housenumber": "242"
    },
    {
      "id": 17251,
      "geometry": "POINT (-73.330402 42.027694)",
      "poi_name": "C H Pease Museum",
      "osm_id": 367140014,
      "tourism": "museum",
      "website": "https://www.ctmq.org/153-c-h-pease-museum-of-natural-history/",
      "addr_state": "CT"
    },
    {
      "id": 17252,
      "geometry": "POINT (-73.199201 41.684074)",
      "poi_name": "James Morris Museum and Aline Brothier Morris Reading Room",
      "osm_id": 367140019,
      "tourism": "museum",
      "phone": "+1 860 567 5036",
      "museum": "history",
      "addr_state": "CT",
      "addr_city": "Morris",
      "addr_postcode": "06763",
      "addr_street": "North Street",
      "addr_housenumber": "4"
    },
    {
      "id": 17254,
      "geometry": "POINT (-72.980156 41.878852)",
      "poi_name": "New Hartford Historical Society Museum",
      "osm_id": 367140021,
      "tourism": "museum",
      "website": "https://newhartfordcthistory.org/",
      "phone": "+1 860 379 6894",
      "addr_state": "CT",
      "addr_city": "New Hartford",
      "addr_postcode": "06057",
      "addr_street": "Main Street",
      "addr_housenumber": "529"
    },
    {
      "id": 17255,
      "geometry": "POINT (-73.011217 41.678709)",
      "poi_name": "Lock Museum of America Library",
      "osm_id": 367140025,
      "tourism": "museum",
      "website": "https://www.lockmuseumofamerica.org/",
      "addr_state": "CT"
    },
    {
      "id": 17256,
      "geometry": "POINT (-73.012376 41.679134)",
      "poi_name": "Lock Museum of America",
      "osm_id": 367140026,
      "tourism": "museum",
      "website": "https://www.lockmuseumofamerica.org/",
      "wikidata": "Q6665224",
      "addr_state": "CT",
      "addr_city": "Terryville",
      "addr_postcode": "06786",
      "addr_street": "Main Street",
      "addr_housenumber": "230"
    },
    {
      "id": 17257,
      "geometry": "POINT (-72.966215 41.928152)",
      "poi_name": "Old School House Museum",
      "osm_id": 367140028,
      "tourism": "museum",
      "addr_state": "CT"
    },
    {
      "id": 17259,
      "geometry": "POINT (-72.939547 41.318708)",
      "poi_name": "One Hundred Second Infantry Regiment Museum",
      "osm_id": 367140035,
      "tourism": "museum",
      "addr_state": "CT"
    },
    {
      "id": 17260,
      "geometry": "POINT (-72.961427 41.290966)",
      "poi_name": "National Art Museum of Sport",
      "osm_id": 367140038,
      "tourism": "museum",
      "addr_state": "CT"
    },
    {
      "id": 17262,
      "geometry": "POINT (-72.8534 41.276423)",
      "poi_name": "Connecticut Trolley Museum",
      "osm_id": 367140046,
      "tourism": "museum",
      "addr_state": "CT"
    },
    {
      "id": 17263,
      "geometry": "POINT (-72.674501 41.283783)",
      "poi_name": "Hyland House Museum",
      "osm_id": 367140052,
      "tourism": "museum",
      "website": "https://hylandhouse.wordpress.com/",
      "wikidata": "Q5955995",
      "addr_state": "CT"
    },
    {
      "id": 17264,
      "geometry": "POINT (-72.910626 41.335751)",
      "poi_name": "Eli Whitney Museum",
      "osm_id": 367140055,
      "tourism": "museum",
      "website": "https://www.eliwhitney.org/",
      "wikidata": "Q3867595",
      "addr_state": "CT"
    },
    {
      "id": 17265,
      "geometry": "POINT (-72.675287 41.278211)",
      "poi_name": "Henry Whitfield State Historical Museum",
      "osm_id": 367140057,
      "tourism": "museum",
      "fee": "yes",
      "website": "https://portal.ct.gov/ECD-HenryWhitfieldStateMuseum",
      "addr_state": "CT",
      "addr_city": "Guilford",
      "addr_postcode": "06347",
      "addr_street": "Old Whitfield Street",
      "addr_housenumber": "248"
    },
    {
      "id": 17266,
      "geometry": "POINT (-72.384728 41.351365)",
      "poi_name": "Connecticut River Museum",
      "osm_id": 367140059,
      "tourism": "museum",
      "website": "https://ctrivermuseum.org/",
      "wikidata": "Q5161592",
      "addr_state": "CT"
    },
    {
      "id": 17267,
      "geometry": "POINT (-72.518763 41.277242)",
      "poi_name": "Captain Elisha White House Museum",
      "osm_id": 367140060,
      "historic": "yes",
      "tourism": "museum",
      "website": "https://www.ctvisit.com/listings/captain-elisha-white-house-1750-buell-tool-museum-george-flynn-library",
      "addr_state": "CT"
    },
    {
      "id": 17268,
      "geometry": "POINT (-72.522074 41.277802)",
      "poi_name": "Stanton House Museum",
      "osm_id": 367140066,
      "historic": "yes",
      "tourism": "museum",
      "fee": "no",
      "website": "http://www.adamstantonhouse.org/",
      "addr_state": "CT"
    },
    {
      "id": 17269,
      "geometry": "POINT (-72.100632 41.658987)",
      "poi_name": "Edward Waldo House Museum",
      "osm_id": 367140068,
      "tourism": "museum",
      "wikidata": "Q5345774",
      "addr_state": "CT"
    },
    {
      "id": 17270,
      "geometry": "POINT (-71.971607 41.698032)",
      "poi_name": "Prudence Crandall Museum",
      "osm_id": 367140074,
      "tourism": "museum",
      "website": "https://portal.ct.gov/DECD/Content/Historic-Preservation/04_State_Museums/Prudence-Crandall-Museum",
      "wikidata": "Q7252955",
      "addr_state": "CT",
      "addr_city": "Canterbury",
      "addr_postcode": "06331",
      "addr_street": "South Canterbury Road",
      "addr_housenumber": "1"
    },
    {
      "id": 17271,
      "geometry": "POINT (-72.205656 41.711009)",
      "poi_name": "Windham Textile and History Museum",
      "osm_id": 367140077,
      "description": "The Windham Textile and History Museum (the Mill Museum of CT), located in the historic former headquarters of the American Thread Company of Willimantic, Connecticut, is a non-profit educational institution housing a museum, a library, and an archive.",
      "tourism": "museum",
      "website": "https://millmuseum.org/",
      "museum": "history",
      "wikidata": "Q8024200",
      "addr_state": "CT",
      "addr_city": "Willimantic",
      "addr_postcode": "06226",
      "addr_street": "Union Street",
      "addr_housenumber": "157"
    },
    {
      "id": 17272,
      "geometry": "POINT (-72.173412 41.587876)",
      "poi_name": "Blue Slope Country Museum",
      "osm_id": 367140080,
      "tourism": "museum",
      "website": "https://blueslope.com/",
      "addr_state": "CT",
      "addr_city": "Franklin",
      "addr_postcode": "06254",
      "addr_street": "Blue Hill Road",
      "addr_housenumber": "138"
    },
    {
      "id": 17273,
      "geometry": "POINT (-72.198659 41.32266)",
      "poi_name": "Niantic Children\u2019s Museum",
      "osm_id": 367140083,
      "tourism": "museum",
      "website": "https://www.nianticchildrensmuseum.org/",
      "museum": "children",
      "wikidata": "Q5098184",
      "addr_state": "CT",
      "addr_city": "East Lyme",
      "addr_postcode": "06357",
      "addr_street": "Main Street",
      "addr_housenumber": "409"
    },
    {
      "id": 17274,
      "geometry": "POINT (-72.079084 41.354878)",
      "poi_name": "Groton Monument House Museum",
      "osm_id": 367140087,
      "tourism": "museum",
      "website": "https://www.fortgriswold.org/the-monument-and-museum/",
      "addr_state": "CT"
    },
    {
      "id": 17275,
      "geometry": "POINT (-71.988962 41.324821)",
      "poi_name": "Noank Historical Society Museum",
      "osm_id": 367140095,
      "tourism": "museum",
      "website": "https://www.noankhistoricalsociety.org/",
      "addr_state": "CT"
    },
    {
      "id": 17276,
      "geometry": "POINT (-72.333972 41.313432)",
      "poi_name": "Nut Museum",
      "osm_id": 367140096,
      "tourism": "museum",
      "addr_state": "CT"
    },
    {
      "id": 17277,
      "geometry": "POINT (-72.745304 41.746681)",
      "poi_name": "Historical Society Building of West Hartford",
      "osm_id": 367140171,
      "tourism": "museum",
      "museum": "history",
      "addr_state": "CT"
    },
    {
      "id": 17278,
      "geometry": "POINT (-72.63832 41.666265)",
      "poi_name": "Rocky Hill Historical Society Museum",
      "osm_id": 367140212,
      "tourism": "museum",
      "website": "http://www.rhhistory.org/",
      "addr_state": "CT"
    },
    {
      "id": 17279,
      "geometry": "POINT (-72.65313 41.71193)",
      "poi_name": "Webb-Deane-Stevens Museum",
      "osm_id": 367140213,
      "tourism": "museum",
      "website": "https://webb-deane-stevens.org/",
      "wikidata": "Q15961620",
      "addr_state": "CT"
    },
    {
      "id": 17281,
      "geometry": "POINT (-72.594725 41.931402)",
      "poi_name": "Connecticut Trolley Museum",
      "osm_id": 367140248,
      "tourism": "museum",
      "website": "https://www.ct-trolley.org/",
      "phone": "+1 860 627 6540",
      "wikidata": "Q5161642",
      "addr_state": "CT",
      "addr_city": "East Windsor",
      "addr_postcode": "06088",
      "addr_street": "North Road",
      "addr_housenumber": "58"
    },
    {
      "id": 17282,
      "geometry": "POINT (-72.637125 41.85761)",
      "poi_name": "Windsor Historical Museum",
      "osm_id": 367140254,
      "tourism": "museum",
      "website": "https://windsorhistoricalsociety.org/",
      "addr_state": "CT"
    },
    {
      "id": 17283,
      "geometry": "POINT (-72.637591 41.85732)",
      "poi_name": "Sill House Museum",
      "osm_id": 367140266,
      "tourism": "museum",
      "addr_state": "CT"
    },
    {
      "id": 17284,
      "geometry": "POINT (-72.824784 41.72157)",
      "poi_name": "Stanley-Whitman House Museum",
      "osm_id": 367140267,
      "tourism": "museum",
      "opening_hours": "We-Sa 10:00-17:00",
      "website": "https://www.s-wh.org/",
      "wikidata": "Q7599407",
      "addr_state": "CT",
      "addr_city": "Farmington",
      "addr_postcode": "06032",
      "addr_street": "High Street",
      "addr_housenumber": "37"
    },
    {
      "id": 17285,
      "geometry": "POINT (-72.635642 41.857004)",
      "poi_name": "Walter Fyler House Museum",
      "osm_id": 367140269,
      "tourism": "museum",
      "website": "https://windsorhistoricalsociety.org/portfolio-items/lieut-walter-fyler-homestead-1640-windsor-ct/",
      "addr_state": "CT"
    },
    {
      "id": 17286,
      "geometry": "POINT (-72.715752 41.798054)",
      "poi_name": "Museum of American Political Life",
      "osm_id": 367140279,
      "tourism": "museum",
      "addr_state": "CT"
    },
    {
      "id": 17287,
      "geometry": "POINT (-72.783128 41.667747)",
      "poi_name": "New Britain Industrial Museum",
      "osm_id": 367140281,
      "description": "History museum in New Britain, Connecticut",
      "tourism": "museum",
      "wheelchair": "yes",
      "fee": "yes",
      "opening_hours": "We 13:30-16:00; Sa 13:30-16:00",
      "website": "https://nbindustrial.org/",
      "phone": "+1 860-832-8654",
      "museum": "history",
      "wikidata": "Q123241783",
      "addr_state": "CT",
      "addr_city": "New Britain",
      "addr_postcode": "06051",
      "addr_street": "West Main St.",
      "addr_housenumber": "59"
    },
    {
      "id": 17288,
      "geometry": "POINT (-72.837044 41.715655)",
      "poi_name": "Day-Lewis Museum",
      "osm_id": 367140287,
      "tourism": "museum",
      "website": "https://www.ctvisit.com/listings/day-lewis-museum",
      "addr_state": "CT"
    },
    {
      "id": 17289,
      "geometry": "POINT (-72.081128 41.536445)",
      "poi_name": "John F. Slater Memorial Museum",
      "osm_id": 367140290,
      "tourism": "museum",
      "operator": "Norwich Free Academy",
      "website": "https://www.slatermuseum.org/",
      "museum": "art",
      "wikidata": "Q7538903",
      "addr_state": "CT",
      "addr_city": "Norwich",
      "addr_postcode": "06360",
      "addr_street": "Crescent Street",
      "addr_housenumber": "108"
    },
    {
      "id": 17325,
      "geometry": "POINT (-71.074116 42.35474)",
      "poi_name": "Gibson House",
      "osm_id": 367780089,
      "tourism": "museum",
      "operator": "Gibson Society, Inc.",
      "website": "https://www.thegibsonhouse.org/",
      "phone": "+1-617-267-6338",
      "museum": "history",
      "wikidata": "Q5559351",
      "addr_state": "MA",
      "addr_city": "Boston",
      "addr_postcode": "02116",
      "addr_street": "Beacon Street",
      "addr_housenumber": "137"
    },
    {
      "id": 17326,
      "geometry": "POINT (-70.662046 41.954133)",
      "poi_name": "Jabez Howland House",
      "osm_id": 367780388,
      "historic": "yes",
      "tourism": "museum",
      "website": "https://pilgrimjohnhowlandsociety.org/howland-house",
      "wikidata": "Q6110140",
      "addr_state": "MA"
    },
    {
      "id": 17327,
      "geometry": "POINT (-70.799663 42.238765)",
      "poi_name": "Cohasset Historical Society Building",
      "osm_id": 367780666,
      "tourism": "museum",
      "opening_hours": "Mo-Fr 10:00-16:00",
      "operator": "Cohasset Historical Society",
      "website": "https://www.cohassethistoricalsociety.org/",
      "phone": "+1-781-383-1434",
      "addr_street": "South Main Street",
      "addr_housenumber": "106"
    },
    {
      "id": 17328,
      "geometry": "POINT (-70.673093 42.071769)",
      "poi_name": "Daniel Webster Law Office Museum",
      "osm_id": 367781061,
      "tourism": "museum",
      "wikidata": "Q5219056",
      "addr_state": "MA"
    },
    {
      "id": 17329,
      "geometry": "POINT (-70.820873 41.953158)",
      "poi_name": "Deborah Sampson House Museum",
      "osm_id": 367781062,
      "tourism": "museum",
      "addr_state": "MA"
    },
    {
      "id": 17330,
      "geometry": "POINT (-70.600306 41.453723)",
      "poi_name": "Tisbury Museum",
      "osm_id": 367781064,
      "tourism": "museum",
      "addr_state": "MA"
    },
    {
      "id": 17331,
      "geometry": "POINT (-70.603362 41.456501)",
      "poi_name": "Old Schoolhouse Museum and Liberty Pole",
      "osm_id": 367781065,
      "tourism": "museum",
      "addr_state": "MA"
    },
    {
      "id": 17332,
      "geometry": "POINT (-70.515316 41.391165)",
      "poi_name": "Vincent House Museum",
      "osm_id": 367781066,
      "tourism": "museum",
      "website": "https://vineyardtrust.org/property/vincent-house-gardens/",
      "addr_state": "MA",
      "addr_city": "Edgartown",
      "addr_postcode": "02539",
      "addr_street": "Main Street",
      "addr_housenumber": "99"
    },
    {
      "id": 17333,
      "geometry": "POINT (-70.570028 41.460946)",
      "poi_name": "Hansel and Gretel Doll Museum",
      "osm_id": 367781068,
      "tourism": "museum",
      "addr_state": "MA"
    },
    {
      "id": 17334,
      "geometry": "POINT (-70.561602 41.455014)",
      "poi_name": "Cottage Museum",
      "osm_id": 367781069,
      "tourism": "museum",
      "website": "https://www.mvcma.org/cottage-museum--shop.html",
      "addr_state": "MA"
    },
    {
      "id": 17335,
      "geometry": "POINT (-70.51583 41.390776)",
      "poi_name": "Doctor Daniel Fisher House Museum",
      "osm_id": 367781070,
      "tourism": "museum",
      "website": "https://vineyardtrust.org/property/dr-daniel-fisher-house-gardens/",
      "addr_state": "MA"
    },
    {
      "id": 17336,
      "geometry": "POINT (-70.099738 41.285678)",
      "poi_name": "Peter Foulger Museum",
      "osm_id": 367781072,
      "tourism": "museum",
      "addr_state": "MA"
    },
    {
      "id": 17337,
      "geometry": "POINT (-70.103938 41.280291)",
      "poi_name": "Maria Mitchell Natural Science Museum",
      "osm_id": 367781076,
      "tourism": "museum",
      "operator": "Maria Mitchell Association",
      "website": "https://www.mariamitchell.org/natural-science-museum",
      "addr_state": "MA"
    },
    {
      "id": 17338,
      "geometry": "POINT (-71.309472 42.365762)",
      "poi_name": "Golden Ball Tavern Museum",
      "osm_id": 367781083,
      "tourism": "museum",
      "website": "https://www.goldenballtavern.org/",
      "wikidata": "Q5579175",
      "addr_state": "MA"
    },
    {
      "id": 17339,
      "geometry": "POINT (-71.307343 42.293741)",
      "poi_name": "Davis Museum and Cultural Center",
      "osm_id": 367781084,
      "tourism": "museum",
      "website": "https://www.wellesley.edu/davismuseum",
      "wikidata": "Q15694044",
      "addr_state": "MA",
      "addr_city": "Wellesley",
      "addr_postcode": "02481",
      "addr_street": "Central Street",
      "addr_housenumber": "106"
    },
    {
      "id": 17340,
      "geometry": "POINT (-71.233599 42.373065)",
      "poi_name": "Charles River Museum of Industry & Innovation",
      "osm_id": 367781085,
      "tourism": "museum",
      "fee": "yes",
      "opening_hours": "We-Fr 10:00-15:00; Sa 10:00-14:30",
      "website": "https://www.crmi.org/",
      "phone": "781-893-5410",
      "wikidata": "Q5082077",
      "addr_state": "MA"
    },
    {
      "id": 17341,
      "geometry": "POINT (-71.306918 42.64781)",
      "poi_name": "Tsongas Industrial History Center",
      "osm_id": 367781090,
      "tourism": "museum",
      "website": "https://www.uml.edu/Tsongas/",
      "addr_state": "MA"
    },
    {
      "id": 17342,
      "geometry": "POINT (-71.10473 42.386972)",
      "poi_name": "Somerville Historical Museum",
      "osm_id": 367781091,
      "tourism": "museum",
      "website": "https://www.somervillemuseum.org/",
      "addr_state": "MA"
    },
    {
      "id": 17343,
      "geometry": "POINT (-71.450864 42.476748)",
      "poi_name": "Hosmer House Museum",
      "osm_id": 367781097,
      "tourism": "museum",
      "website": "https://www.actonhistoricalsociety.org/hosmer-house.html",
      "addr_state": "MA"
    },
    {
      "id": 17344,
      "geometry": "POINT (-71.06508 42.264584)",
      "poi_name": "Captain Robert Bennet Forbes House",
      "osm_id": 367781099,
      "tourism": "museum",
      "website": "https://www.forbeshousemuseum.org/",
      "wikidata": "Q5036782",
      "addr_state": "MA"
    },
    {
      "id": 17345,
      "geometry": "POINT (-71.455162 42.464184)",
      "poi_name": "Discovery Museum",
      "osm_id": 367781102,
      "tourism": "museum",
      "wheelchair": "yes",
      "website": "https://www.discoveryacton.org/",
      "addr_state": "MA",
      "addr_city": "Acton",
      "addr_postcode": "01720",
      "addr_street": "Main Street",
      "addr_housenumber": "177"
    },
    {
      "id": 17346,
      "geometry": "POINT (-71.228512 42.4536)",
      "poi_name": "Hancock-Clarke House Museum",
      "osm_id": 367781104,
      "tourism": "museum",
      "website": "https://www.lexingtonhistory.org/hancock-clarke-house",
      "wikidata": "Q5647018",
      "addr_state": "MA",
      "addr_street": "Hancock Street",
      "addr_housenumber": "36"
    },
    {
      "id": 17347,
      "geometry": "POINT (-71.086415 42.361975)",
      "poi_name": "MIT Museum",
      "osm_id": 367781117,
      "tourism": "museum",
      "wheelchair": "yes",
      "fee": "yes",
      "phone": "+1 617 253 5927",
      "wikidata": "Q6716306",
      "addr_state": "MA",
      "addr_postcode": "02139",
      "addr_street": "Main Street",
      "addr_housenumber": "314"
    },
    {
      "id": 17348,
      "geometry": "POINT (-71.115699 42.378832)",
      "poi_name": "Harvard Museum of Comparative Zoology",
      "osm_id": 367781122,
      "tourism": "museum",
      "website": "https://www.mcz.harvard.edu/hmnh/index.html",
      "addr_state": "MA"
    },
    {
      "id": 17349,
      "geometry": "POINT (-71.053768 42.363531)",
      "poi_name": "Pierce/Hichborn House Museum",
      "osm_id": 367781123,
      "tourism": "museum",
      "wheelchair": "yes",
      "website": "https://www.paulreverehouse.org/pierce-hichborn-house/",
      "wikidata": "Q7191769",
      "addr_state": "MA"
    },
    {
      "id": 17350,
      "geometry": "POINT (-71.115646 42.378466)",
      "poi_name": "Harvard Museum of Natural History",
      "osm_id": 367781130,
      "tourism": "museum",
      "opening_hours": "Mo-Su 09:00-17:00",
      "operator": "Harvard University",
      "website": "https://hmnh.harvard.edu/",
      "museum": "nature",
      "wikidata": "Q2001855",
      "addr_state": "MA"
    },
    {
      "id": 17351,
      "geometry": "POINT (-71.194687 42.355416)",
      "poi_name": "Jackson Homestead and Museum",
      "osm_id": 367781131,
      "tourism": "museum",
      "wheelchair": "yes",
      "operator": "City of Newton",
      "website": "http://www.historicnewton.org/",
      "wikidata": "Q6117163",
      "addr_state": "MA",
      "addr_city": "Newton",
      "addr_postcode": "02458",
      "addr_street": "Washington Street",
      "addr_housenumber": "527"
    },
    {
      "id": 17352,
      "geometry": "POINT (-70.984123 42.377615)",
      "poi_name": "Winthrop Public Library and Museum",
      "osm_id": 367781133,
      "tourism": "museum",
      "website": "https://winthroppubliclibrary.org/",
      "addr_state": "MA"
    },
    {
      "id": 17353,
      "geometry": "POINT (-73.25276 42.451797)",
      "poi_name": "Childrens Museum of the Berkshires",
      "osm_id": 367781134,
      "tourism": "museum",
      "website": "https://berkshiremuseum.org/",
      "addr_state": "MA",
      "addr_city": "Pittsfield",
      "addr_postcode": "01201",
      "addr_street": "North Street",
      "addr_housenumber": "120"
    },
    {
      "id": 17354,
      "geometry": "POINT (-71.673124 42.238983)",
      "poi_name": "Willard House and Clock Museum",
      "osm_id": 367781139,
      "tourism": "museum",
      "wikidata": "Q8003427",
      "addr_state": "MA"
    },
    {
      "id": 17355,
      "geometry": "POINT (-71.003095 41.575382)",
      "poi_name": "Doll Museum",
      "osm_id": 367781144,
      "tourism": "museum",
      "addr_state": "MA"
    },
    {
      "id": 17356,
      "geometry": "POINT (-70.779346 42.632682)",
      "poi_name": "Essex Historical Society and Shipbuilding Museum",
      "osm_id": 367781150,
      "tourism": "museum",
      "website": "https://www.essexshipbuilding.org/",
      "addr_state": "MA"
    },
    {
      "id": 17357,
      "geometry": "POINT (-70.661851 42.613832)",
      "poi_name": "Cape Ann Historical Museum",
      "osm_id": 367781156,
      "tourism": "museum",
      "wheelchair": "yes",
      "fee": "yes",
      "website": "https://home.capeannmuseum.org/",
      "phone": "+1 978 283 0455",
      "museum": "maritime",
      "addr_state": "MA",
      "addr_city": "Gloucester",
      "addr_postcode": "01930",
      "addr_street": "Pleasant Street",
      "addr_housenumber": "27"
    },
    {
      "id": 17358,
      "geometry": "POINT (-70.928666 42.845368)",
      "poi_name": "Bartlett Museum",
      "osm_id": 367781160,
      "tourism": "museum",
      "website": "http://bartlettmuseum.org/",
      "wikidata": "Q4865412",
      "addr_state": "MA",
      "addr_city": "Amesbury",
      "addr_postcode": "01913",
      "addr_street": "Main Street",
      "addr_housenumber": "220"
    },
    {
      "id": 17359,
      "geometry": "POINT (-70.780048 42.632317)",
      "poi_name": "Essex Shipbuilding Museum",
      "osm_id": 367781171,
      "tourism": "museum",
      "addr_state": "MA"
    },
    {
      "id": 17360,
      "geometry": "POINT (-73.224623 42.723518)",
      "poi_name": "Farm Museum",
      "osm_id": 367781176,
      "tourism": "museum",
      "addr_state": "MA"
    },
    {
      "id": 17361,
      "geometry": "POINT (-73.335944 42.287829)",
      "poi_name": "Norman Rockwell Museum",
      "osm_id": 367781196,
      "tourism": "museum",
      "website": "https://www.nrm.org/",
      "phone": "+1-413-298-4100",
      "wikidata": "Q713204",
      "addr_state": "MA",
      "addr_city": "Stockbridge",
      "addr_postcode": "01262",
      "addr_street": "Glendale Road",
      "addr_housenumber": "9"
    },
    {
      "id": 17362,
      "geometry": "POINT (-72.621427 42.09141)",
      "poi_name": "Storrowton Village Museum",
      "osm_id": 367781229,
      "tourism": "museum",
      "website": "https://www.storrowtonvillage.com/",
      "addr_state": "MA"
    },
    {
      "id": 17363,
      "geometry": "POINT (-72.572744 42.25683)",
      "poi_name": "Mount Holyoke College Art Museum",
      "osm_id": 367781236,
      "tourism": "museum",
      "wikidata": "Q14715727",
      "addr_state": "MA"
    },
    {
      "id": 17364,
      "geometry": "POINT (-72.599003 42.21591)",
      "poi_name": "Old Firehouse Museum",
      "osm_id": 367781237,
      "tourism": "museum",
      "addr_state": "MA"
    },
    {
      "id": 17365,
      "geometry": "POINT (-72.435962 42.11013)",
      "poi_name": "Childrens Museum",
      "osm_id": 367781240,
      "tourism": "museum",
      "addr_state": "MA"
    },
    {
      "id": 17366,
      "geometry": "POINT (-72.525388 42.325882)",
      "poi_name": "Bob Stiles House Museum",
      "osm_id": 367781247,
      "tourism": "museum",
      "addr_state": "MA"
    },
    {
      "id": 17367,
      "geometry": "POINT (-72.571755 42.262591)",
      "poi_name": "Joseph Skinner Museum",
      "osm_id": 367781248,
      "tourism": "museum",
      "website": "https://artmuseum.mtholyoke.edu/collection/joseph-allen-skinner-museum",
      "addr_state": "MA"
    },
    {
      "id": 17368,
      "geometry": "POINT (-72.51547 42.370892)",
      "poi_name": "Mead Art Museum",
      "osm_id": 367781250,
      "tourism": "museum",
      "wikidata": "Q6803132",
      "addr_state": "MA"
    },
    {
      "id": 17369,
      "geometry": "POINT (-70.665313 41.958992)",
      "poi_name": "Edward Winslow House Museum",
      "osm_id": 367781253,
      "tourism": "museum",
      "addr_state": "MA"
    },
    {
      "id": 17370,
      "geometry": "POINT (-70.667671 41.960331)",
      "poi_name": "Hedge House Museum",
      "osm_id": 367781255,
      "tourism": "museum",
      "website": "https://plymouthantiquarian.org/historic-sites/hedge-house/",
      "addr_state": "MA"
    },
    {
      "id": 17371,
      "geometry": "POINT (-70.672814 42.03677)",
      "poi_name": "Windsor House Museum",
      "osm_id": 367781258,
      "tourism": "museum",
      "addr_state": "MA"
    },
    {
      "id": 17372,
      "geometry": "POINT (-70.663167 41.957752)",
      "poi_name": "Traylor Trask Museum",
      "osm_id": 367781259,
      "tourism": "museum",
      "website": "http://www.deadofnightghosttours.com/",
      "addr_state": "MA"
    },
    {
      "id": 17373,
      "geometry": "POINT (-71.055111 42.355587)",
      "poi_name": "Alexander Graham Bell Room Museum",
      "osm_id": 367781325,
      "tourism": "museum",
      "addr_state": "MA"
    },
    {
      "id": 17374,
      "geometry": "POINT (-71.048725 42.350814)",
      "poi_name": "Boston Fire Museum",
      "osm_id": 367781329,
      "tourism": "museum",
      "wheelchair": "limited",
      "website": "https://bostonfiremuseum.com/",
      "addr_state": "MA",
      "addr_city": "Boston",
      "addr_street": "Congress Street",
      "addr_housenumber": "344"
    },
    {
      "id": 17375,
      "geometry": "POINT (-71.053732 42.375524)",
      "poi_name": "Boston Marine Society Museum",
      "osm_id": 367781336,
      "tourism": "museum",
      "wikidata": "Q4947978",
      "addr_state": "MA"
    },
    {
      "id": 17376,
      "geometry": "POINT (-71.115448 42.378207)",
      "poi_name": "Harvard Geological and Mineral Museum",
      "osm_id": 367781337,
      "tourism": "museum",
      "website": "https://mgmh.fas.harvard.edu/",
      "wikidata": "Q5676496",
      "addr_state": "MA",
      "addr_city": "Cambridge",
      "addr_postcode": "02138",
      "addr_street": "Oxford Street",
      "addr_housenumber": "26"
    },
    {
      "id": 17377,
      "geometry": "POINT (-71.082185 42.351241)",
      "poi_name": "First Corps of Cadets Museum",
      "osm_id": 367781345,
      "tourism": "museum",
      "addr_state": "MA"
    },
    {
      "id": 17378,
      "geometry": "POINT (-73.313442 42.282865)",
      "poi_name": "Merwin House Museum",
      "osm_id": 367781394,
      "tourism": "museum",
      "website": "https://www.historicnewengland.org/property/merwin-house/",
      "addr_state": "MA"
    },
    {
      "id": 17379,
      "geometry": "POINT (-70.891384 42.522645)",
      "poi_name": "Essex Institute Museum Building",
      "osm_id": 367781397,
      "tourism": "museum",
      "addr_state": "MA"
    },
    {
      "id": 17380,
      "geometry": "POINT (-73.11429 42.697362)",
      "poi_name": "Western Gateway Heritage State Park Visitors Center",
      "osm_id": 367781398,
      "tourism": "museum",
      "fee": "no",
      "addr_state": "MA"
    },
    {
      "id": 17381,
      "geometry": "POINT (-70.771082 42.575332)",
      "poi_name": "Trask House Museum",
      "osm_id": 367781402,
      "tourism": "museum",
      "addr_state": "MA"
    },
    {
      "id": 17382,
      "geometry": "POINT (-70.65993 42.59101)",
      "poi_name": "Beauport Museum",
      "osm_id": 367781408,
      "tourism": "museum",
      "opening_hours": "We-Sa 10:00-15:00",
      "wikidata": "Q2293994",
      "addr_state": "MA",
      "addr_city": "Gloucester",
      "addr_postcode": "01930",
      "addr_street": "Eastern Point Boulevard",
      "addr_housenumber": "75"
    },
    {
      "id": 17383,
      "geometry": "POINT (-69.987513 41.78784)",
      "poi_name": "French Cable Station Museum",
      "osm_id": 367781410,
      "tourism": "museum",
      "website": "https://www.frenchcablestationmuseum.org/",
      "wikidata": "Q5501700",
      "addr_state": "MA"
    },
    {
      "id": 17384,
      "geometry": "POINT (-71.065994 42.35851)",
      "poi_name": "Nichols House Museum",
      "osm_id": 367781411,
      "tourism": "museum",
      "website": "https://www.nicholshousemuseum.org/",
      "wikidata": "Q7026564",
      "addr_state": "MA"
    },
    {
      "id": 17385,
      "geometry": "POINT (-71.056119 42.360113)",
      "poi_name": "Ancient and Honorable Artillery Company Museum",
      "osm_id": 367781413,
      "tourism": "museum",
      "opening_hours": "Mo-Fr 09:00-15:00",
      "website": "http://www.ahac.us.com/",
      "phone": "+1-617-227-1638",
      "wikidata": "Q4752939",
      "addr_state": "MA",
      "addr_city": "Boston",
      "addr_postcode": "02109",
      "addr_street": "Faneuil Hall Square",
      "addr_housenumber": "1"
    },
    {
      "id": 17386,
      "geometry": "POINT (-71.114337 42.374352)",
      "poi_name": "Busch-Reisinger Museum",
      "osm_id": 367781415,
      "tourism": "museum",
      "wheelchair": "yes",
      "website": "https://harvardartmuseums.org/tag/Busch-Reisinger%20Museum",
      "addr_state": "MA"
    },
    {
      "id": 17387,
      "geometry": "POINT (-71.049578 42.351895)",
      "poi_name": "Boston Children's Museum",
      "osm_id": 367781417,
      "tourism": "museum",
      "wheelchair": "yes",
      "fee": "yes",
      "website": "https://www.bostonchildrensmuseum.org/",
      "wikidata": "Q901463",
      "addr_state": "MA"
    },
    {
      "id": 17389,
      "geometry": "POINT (-69.97406 41.838571)",
      "poi_name": "Eastham 1869 Schoolhouse Museum",
      "osm_id": 367781423,
      "tourism": "museum",
      "website": "https://www.easthamhistoricalsociety.org/1869-schoolhouse-museum",
      "phone": "+1 (508) 255-0788",
      "addr_state": "MA",
      "addr_city": "Eastham",
      "addr_postcode": "02642",
      "addr_street": "Schoolhouse Road",
      "addr_housenumber": "25"
    },
    {
      "id": 17390,
      "geometry": "POINT (-70.030103 41.938502)",
      "poi_name": "Wellfleet Historical Society Museum",
      "osm_id": 367781424,
      "tourism": "museum",
      "website": "http://www.wellfleethistoricalsociety.org/",
      "addr_state": "MA"
    },
    {
      "id": 17391,
      "geometry": "POINT (-70.081685 41.763165)",
      "poi_name": "Drummer Boy Museum",
      "osm_id": 367781425,
      "tourism": "museum",
      "website": "https://www.andersonvillegeorgia.info/the-museum.html",
      "addr_state": "MA"
    },
    {
      "id": 17392,
      "geometry": "POINT (-73.353443 42.268977)",
      "poi_name": "Chesterwood Museum",
      "osm_id": 367781430,
      "tourism": "museum",
      "website": "https://www.chesterwood.org/contact",
      "addr_state": "MA"
    },
    {
      "id": 17393,
      "geometry": "POINT (-70.722813 41.762604)",
      "poi_name": "Kendrick House Museum",
      "osm_id": 367781433,
      "tourism": "museum",
      "addr_state": "MA"
    },
    {
      "id": 17394,
      "geometry": "POINT (-69.965115 41.673546)",
      "poi_name": "Atwood House Museum",
      "osm_id": 367781434,
      "tourism": "museum",
      "website": "https://chathamhistoricalsociety.org/",
      "addr_state": "MA"
    },
    {
      "id": 17395,
      "geometry": "POINT (-70.632808 41.607052)",
      "poi_name": "Saconesset Homestead and Museum",
      "osm_id": 367781436,
      "tourism": "museum",
      "addr_state": "MA"
    },
    {
      "id": 17396,
      "geometry": "POINT (-73.253831 42.447338)",
      "poi_name": "Berkshire Museum",
      "osm_id": 367781439,
      "tourism": "museum",
      "website": "https://berkshiremuseum.org/",
      "wikidata": "Q4892280",
      "addr_state": "MA",
      "addr_city": "Pittsfield",
      "addr_postcode": "01201",
      "addr_street": "South Street",
      "addr_housenumber": "39"
    },
    {
      "id": 17397,
      "geometry": "POINT (-73.177486 42.469661)",
      "poi_name": "Crane Museum of Papermaking",
      "osm_id": 367781440,
      "tourism": "museum",
      "opening_hours": "Jul 03-Sep 01 Mo,Th-Fr 13:00-16:30",
      "website": "https://cranemuseum.org/",
      "addr_state": "MA"
    },
    {
      "id": 17398,
      "geometry": "POINT (-73.28094 42.359253)",
      "poi_name": "Blacksmith Museum",
      "osm_id": 367781442,
      "tourism": "museum",
      "addr_state": "MA"
    },
    {
      "id": 17399,
      "geometry": "POINT (-70.667965 41.959066)",
      "poi_name": "Pilgrim Hall Museum",
      "osm_id": 367781444,
      "tourism": "museum",
      "website": "https://pilgrimhall.org/",
      "wikidata": "Q2319468",
      "addr_state": "MA",
      "addr_city": "Plymouth",
      "addr_street": "Court Street",
      "addr_housenumber": "75"
    },
    {
      "id": 17433,
      "geometry": "POINT (-70.441626 43.501225)",
      "poi_name": "York Institute Museum",
      "osm_id": 367795474,
      "tourism": "museum",
      "website": "https://www.sacomuseum.org/",
      "addr_state": "ME"
    },
    {
      "id": 17437,
      "geometry": "POINT (-70.537201 43.38742)",
      "poi_name": "Brick Store Museum",
      "osm_id": 367795494,
      "tourism": "museum",
      "website": "https://www.brickstoremuseum.org/",
      "wikidata": "Q4965948",
      "addr_state": "ME",
      "addr_city": "Kennebunk",
      "addr_postcode": "04043",
      "addr_street": "Main Street",
      "addr_housenumber": "117"
    },
    {
      "id": 17438,
      "geometry": "POINT (-70.472551 43.354808)",
      "poi_name": "Kennebunk Marine Museum",
      "osm_id": 367795498,
      "tourism": "museum",
      "addr_state": "ME"
    },
    {
      "id": 17439,
      "geometry": "POINT (-70.472551 43.360086)",
      "poi_name": "Lord Mansion Museum",
      "osm_id": 367795503,
      "tourism": "museum",
      "addr_state": "ME"
    },
    {
      "id": 17440,
      "geometry": "POINT (-70.37804 43.517815)",
      "poi_name": "Old Orchard Beach Historical Society Museum",
      "osm_id": 367795506,
      "tourism": "museum",
      "website": "https://www.harmonmuseum.org/",
      "phone": "+1 207 934 9319",
      "museum": "history",
      "addr_state": "ME"
    },
    {
      "id": 18786,
      "geometry": "POINT (-72.618258 42.107022)",
      "poi_name": "Josiah Day House Museum",
      "osm_id": 2405699590,
      "tourism": "museum",
      "website": "http://www.west-springfield.ma.us/public_documents/westspringfieldma_attractions/dayhouse_home.htm",
      "wikidata": "Q6290462"
    },
    {
      "id": 19433,
      "geometry": "POINT (-72.040455 43.351236)",
      "poi_name": "John Hay Estate at The Fells",
      "osm_id": 10756320416,
      "historic": "manor",
      "tourism": "museum",
      "website": "https://thefells.org/",
      "museum": "history",
      "addr_state": "NH",
      "addr_city": "Newbury",
      "addr_postcode": "03255",
      "addr_street": "State Route 103A",
      "addr_housenumber": "456"
    },
    {
      "id": 19436,
      "geometry": "POINT (-71.280428 41.94438)",
      "poi_name": "Attleboro Arts Museum",
      "osm_id": 10756802053,
      "tourism": "museum"
    },
    {
      "id": 19920,
      "geometry": "POINT (-72.448732 41.867624)",
      "poi_name": "New England Civil War Museum",
      "osm_id": 10949070214,
      "tourism": "museum",
      "fee": "no",
      "opening_hours": "Sa,Su 11:00-15:00",
      "website": "https://www.newenglandcivilwarmuseum.com/",
      "phone": "+1 860 870 3563",
      "museum": "history",
      "addr_state": "CT",
      "addr_city": "Vernon",
      "addr_postcode": "06066",
      "addr_street": "Park Place",
      "addr_housenumber": "14"
    },
    {
      "id": 20028,
      "geometry": "POINT (-71.86489 41.959901)",
      "poi_name": "Thompson Historical Society",
      "osm_id": 7821584580,
      "tourism": "museum",
      "website": "https://thompsonhistorical.org/"
    },
    {
      "id": 20042,
      "geometry": "POINT (-72.500276 42.159549)",
      "poi_name": "Titanic Museum",
      "osm_id": 7835785053,
      "tourism": "museum",
      "operator": "Titanic Historical Society",
      "website": "https://titanichistoricalsociety.org/titanic-museum/"
    },
    {
      "id": 20044,
      "geometry": "POINT (-72.605776 42.205962)",
      "poi_name": "International Volleyball Hall of Fame",
      "osm_id": 7835970163,
      "tourism": "museum",
      "website": "https://www.volleyhall.org/"
    },
    {
      "id": 20045,
      "geometry": "POINT (-72.606184 42.205543)",
      "poi_name": "Holyoke Children's Museum",
      "osm_id": 7835970177,
      "tourism": "museum",
      "website": "https://www.childrensmuseumholyoke.org/"
    },
    {
      "id": 20061,
      "geometry": "POINT (-71.051156 42.367038)",
      "poi_name": "Maritime Museum at Battery Wharf",
      "osm_id": 7844922309,
      "tourism": "museum",
      "fee": "no",
      "operator": "Battery Wharf Hotel",
      "museum": "history",
      "addr_state": "MA",
      "addr_city": "Boston",
      "addr_postcode": "02109",
      "addr_street": "Battery Wharf",
      "addr_housenumber": "2"
    },
    {
      "id": 20188,
      "geometry": "POINT (-72.257647 41.80723)",
      "poi_name": "J. Robert Donnelly Husky Heritage Sports Museum",
      "osm_id": 7921579368,
      "tourism": "museum",
      "operator": "University of Connecticut",
      "website": "https://uconnhuskies.com/sports/2018/6/12/trads-museum-html.aspx",
      "museum": "local",
      "wikidata": "Q24183704",
      "addr_state": "CT",
      "addr_city": "Storrs",
      "addr_postcode": "06269",
      "addr_street": "Alumni Drive",
      "addr_housenumber": "2384"
    },
    {
      "id": 20346,
      "geometry": "POINT (-72.189971 42.531935)",
      "poi_name": "Fisher Museum",
      "osm_id": 1103960091,
      "tourism": "museum",
      "website": "https://harvardforest.fas.harvard.edu/fisher-museum"
    },
    {
      "id": 20592,
      "geometry": "POINT (-72.978573 42.280379)",
      "poi_name": "Chester Railway Museum",
      "osm_id": 247474896,
      "tourism": "museum",
      "opening_hours": "10:00-15:00",
      "operator": "The Chester Foundation",
      "website": "https://www.chesterrailwaystation.net/",
      "museum": "history",
      "addr_state": "MA",
      "addr_city": "Chester",
      "addr_postcode": "01011",
      "addr_street": "Prospect Street",
      "addr_housenumber": "10"
    },
    {
      "id": 20604,
      "geometry": "POINT (-71.075303 42.351741)",
      "poi_name": "New England Historic Genealogical Society",
      "osm_id": 257536200,
      "tourism": "museum",
      "website": "https://www.americanancestors.org/index.aspx",
      "phone": "+1-617-536-5740",
      "museum": "history",
      "wikidata": "Q2077377",
      "addr_state": "MA",
      "addr_city": "Boston",
      "addr_postcode": "02116",
      "addr_street": "Newbury Street",
      "addr_housenumber": "99-101"
    },
    {
      "id": 20752,
      "geometry": "POINT (-72.327375 41.324487)",
      "poi_name": "Lyme Art Association",
      "osm_id": 1235361681,
      "tourism": "museum",
      "website": "https://lymeartassociation.org/"
    },
    {
      "id": 20849,
      "geometry": "POINT (-73.102336 42.615463)",
      "poi_name": "Susan B. Anthony Birthplace Museum",
      "osm_id": 1277885612,
      "tourism": "museum",
      "website": "https://www.susanbanthonybirthplace.com/",
      "phone": "+1 (413) 743-7121",
      "wikidata": "Q4772743",
      "addr_state": "MA",
      "addr_city": "Adams",
      "addr_postcode": "01220",
      "addr_street": "East Road",
      "addr_housenumber": "67"
    },
    {
      "id": 21101,
      "geometry": "POINT (-71.683558 42.415626)",
      "poi_name": "Museum Of Russian Icons",
      "osm_id": 1401124212,
      "tourism": "museum",
      "website": "http://museumofrussianicons.org/",
      "phone": "+1-978-598-5000",
      "wikidata": "Q6941007",
      "addr_state": "MA",
      "addr_city": "Clinton",
      "addr_postcode": "01510",
      "addr_street": "Union Street",
      "addr_housenumber": "203"
    },
    {
      "id": 21157,
      "geometry": "POINT (-70.041663 41.774096)",
      "poi_name": "Brewster Historical Society",
      "osm_id": 1428329953,
      "tourism": "museum",
      "website": "https://www.brewsterhistoricalsociety.org/"
    },
    {
      "id": 21349,
      "geometry": "POINT (-71.438209 42.580581)",
      "poi_name": "Westford Museum",
      "osm_id": 1526180241,
      "tourism": "museum",
      "website": "https://museum.westford.org/",
      "phone": "+1 978 692 5550",
      "museum": "history",
      "addr_state": "MA",
      "addr_city": "Westford",
      "addr_postcode": "01886",
      "addr_street": "Boston Road"
    },
    {
      "id": 22152,
      "geometry": "POINT (-71.802456 42.272188)",
      "poi_name": "Salisbury Mansion",
      "osm_id": 1032152899,
      "tourism": "museum",
      "website": "https://www.worcesterhistory.org/museum/salisbury-mansion/"
    },
    {
      "id": 22157,
      "geometry": "POINT (-71.80454 42.264898)",
      "poi_name": "Worcester Historical Museum",
      "osm_id": 1037716490,
      "tourism": "museum",
      "website": "https://www.worcesterhistory.org/",
      "wikidata": "Q8034187"
    },
    {
      "id": 22170,
      "geometry": "POINT (-71.158318 42.395025)",
      "poi_name": "Griffin Museum at Digital Silver Imaging",
      "osm_id": 594000419,
      "tourism": "museum"
    },
    {
      "id": 22233,
      "geometry": "POINT (-72.98099 42.278861)",
      "poi_name": "Chester Historical Museum",
      "osm_id": 616287013,
      "tourism": "museum"
    },
    {
      "id": 22512,
      "geometry": "POINT (-71.540173 43.209861)",
      "poi_name": "Mary Baker Eddy House",
      "osm_id": 7124980944,
      "tourism": "museum",
      "operator": "Longyear Museum",
      "addr_state": "NH",
      "addr_city": "Concord",
      "addr_street": "North State Street",
      "addr_housenumber": "62"
    },
    {
      "id": 22584,
      "geometry": "POINT (-71.647792 42.836139)",
      "poi_name": "The Cabinet Press Printing Museum",
      "osm_id": 7167606675,
      "tourism": "museum"
    },
    {
      "id": 22762,
      "geometry": "POINT (-70.661621 42.614016)",
      "poi_name": "Cape Ann Museum",
      "osm_id": 4946457327,
      "tourism": "museum",
      "wheelchair": "yes",
      "fee": "yes",
      "opening_hours": "Tu-Sa 09:45-17:00; Su 13:00-17:00",
      "website": "https://www.capeannmuseum.org/",
      "wikidata": "Q15694003",
      "addr_state": "MA",
      "addr_city": "Gloucester",
      "addr_postcode": "01930",
      "addr_street": "Pleasant Street",
      "addr_housenumber": "27"
    },
    {
      "id": 22852,
      "geometry": "POINT (-72.594853 41.930766)",
      "poi_name": "Connecticut Fire Truck and Motor Coach Museum",
      "osm_id": 4951902432,
      "tourism": "museum",
      "addr_state": "CT",
      "addr_city": "East Windsor",
      "addr_postcode": "06088",
      "addr_street": "North Road",
      "addr_housenumber": "58"
    },
    {
      "id": 23141,
      "geometry": "POINT (-73.352223 42.284891)",
      "poi_name": "Chesterwood",
      "osm_id": 5048977321,
      "tourism": "museum",
      "opening_hours": "Mo-Su 10:00-17:00",
      "website": "https://www.chesterwood.org/",
      "phone": "+1 413 298 3579",
      "addr_postcode": "01262",
      "addr_street": "Williamsville Road",
      "addr_housenumber": "4"
    },
    {
      "id": 23200,
      "geometry": "POINT (-71.729864 43.095131)",
      "poi_name": "Weare Historical Society",
      "osm_id": 5069218859,
      "description": "To collect and preserve records and artifacts relating to the town of Weare, New Hampshire; to provide assistance in protecting historical sites in town; and to encourage the study and appreciation of local history.",
      "tourism": "museum",
      "website": "http://www.wearehistoricalsociety.org/",
      "addr_state": "NH",
      "addr_city": "Weare",
      "addr_postcode": "03281",
      "addr_street": "North Stark Highway"
    },
    {
      "id": 23206,
      "geometry": "POINT (-71.90537 41.328504)",
      "poi_name": "Old Lighthouse Museum",
      "osm_id": 5071615008,
      "tourism": "museum",
      "website": "https://www.stoningtonhistory.org/visit/the-lighthouse-museum/",
      "addr_state": "CT"
    },
    {
      "id": 23293,
      "geometry": "POINT (-70.897192 42.522567)",
      "poi_name": "Witch Dungeon Museum",
      "osm_id": 5100592224,
      "tourism": "museum",
      "fee": "yes",
      "website": "http://www.witchdungeon.com/witchdungeon.html",
      "addr_postcode": "01970"
    },
    {
      "id": 23294,
      "geometry": "POINT (-70.894063 42.521486)",
      "poi_name": "Witch History Museum",
      "osm_id": 5100616621,
      "tourism": "museum",
      "website": "http://www.witchhistorymuseum.com/witchhistory.html",
      "wikidata": "Q18159327",
      "addr_postcode": "01970",
      "addr_street": "Essex Street",
      "addr_housenumber": "197-201"
    },
    {
      "id": 23441,
      "geometry": "POINT (-71.0679 42.363496)",
      "poi_name": "Ether Dome",
      "osm_id": 5203948635,
      "historic": "room",
      "tourism": "museum",
      "wikidata": "Q257073"
    },
    {
      "id": 23771,
      "geometry": "POINT (-72.939272 41.670959)",
      "poi_name": "Museum of Fire History",
      "osm_id": 5305740841,
      "tourism": "museum",
      "website": "https://www.museumoffirehistory.org/",
      "addr_state": "CT",
      "addr_city": "Bristol",
      "addr_postcode": "06010",
      "addr_street": "Riverside Avenue",
      "addr_housenumber": "95"
    },
    {
      "id": 23772,
      "geometry": "POINT (-72.93961 41.67102)",
      "poi_name": "New England Carousel Museum",
      "osm_id": 5305740949,
      "tourism": "museum",
      "website": "https://www.thecarouselmuseum.org/"
    },
    {
      "id": 23834,
      "geometry": "POINT (-72.705083 41.772968)",
      "poi_name": "Connecticut Historical Society Museum and Library",
      "osm_id": 9156697434,
      "tourism": "museum",
      "operator": "Connecticut Historical Society",
      "website": "https://chs.org",
      "phone": "+1 860 236 5621",
      "museum": "history",
      "wikidata": "Q5161542",
      "addr_state": "CT",
      "addr_city": "Hartford",
      "addr_postcode": "06105",
      "addr_street": "Elizabeth Street",
      "addr_housenumber": "1"
    },
    {
      "id": 23905,
      "geometry": "POINT (-70.550978 43.473543)",
      "poi_name": "North Chapel Project",
      "osm_id": 9192745010,
      "tourism": "museum",
      "operator": "Arundel Hostorical Society"
    },
    {
      "id": 23937,
      "geometry": "POINT (-71.230267 42.782101)",
      "poi_name": "Salem Transportation Museum",
      "osm_id": 9207850127,
      "tourism": "museum",
      "addr_state": "NH",
      "addr_city": "Salem",
      "addr_postcode": "03079",
      "addr_street": "Main Street",
      "addr_housenumber": "81"
    },
    {
      "id": 24019,
      "geometry": "POINT (-73.329644 41.845694)",
      "poi_name": "Cornwall Historical Society",
      "osm_id": 9255285906,
      "tourism": "museum",
      "website": "https://cornwallhistoricalsociety.org",
      "phone": "+1 860 672 0505",
      "museum": "history",
      "addr_state": "CT",
      "addr_city": "Cornwall",
      "addr_postcode": "06754",
      "addr_street": "Pine Street",
      "addr_housenumber": "7"
    },
    {
      "id": 24209,
      "geometry": "POINT (-71.097326 42.362017)",
      "poi_name": "Tech Model Railroad Club",
      "osm_id": 10960080689,
      "tourism": "museum",
      "fee": "no",
      "operator": "MIT",
      "website": "tmrc.mit.edu",
      "museum": "railway",
      "addr_state": "MA",
      "addr_city": "Cambridge"
    },
    {
      "id": 24350,
      "geometry": "POINT (-71.092882 42.358617)",
      "poi_name": "Hart Nautical Gallery",
      "osm_id": 11014493207,
      "tourism": "museum",
      "fee": "no",
      "operator": "Massachusetts Institute of Technology",
      "museum": "technology",
      "wikidata": "Q5482356",
      "addr_state": "MA",
      "addr_city": "Cambridge",
      "addr_postcode": "02139",
      "addr_street": "Massachusetts Avenue",
      "addr_housenumber": "55"
    },
    {
      "id": 24467,
      "geometry": "POINT (-70.431478 41.728645)",
      "poi_name": "Benjamin Nye Homestead and Museum",
      "osm_id": 11067079028,
      "tourism": "museum",
      "website": "https://www.nyemuseum.org/"
    },
    {
      "id": 24507,
      "geometry": "POINT (-71.281804 41.94305)",
      "poi_name": "Attleboro Area Industrial Museum",
      "osm_id": 11086708826,
      "tourism": "museum",
      "website": "https://industrialmuseum.com/"
    },
    {
      "id": 24657,
      "geometry": "POINT (-71.199065 42.369124)",
      "poi_name": "The Plumbing Museum",
      "osm_id": 11161230941,
      "tourism": "museum",
      "phone": "+1(617) 926-2111",
      "museum": "technology;history",
      "addr_street": "Rosedale Road",
      "addr_housenumber": "80"
    },
    {
      "id": 25040,
      "geometry": "POINT (-71.328282 42.880102)",
      "poi_name": "Derry Museum of History",
      "osm_id": 4379962138,
      "tourism": "museum",
      "opening_hours": "We,Su 13:00-17:00",
      "website": "http://www.derryhistorymuseum.org/",
      "phone": "+1-603-434-1247",
      "addr_state": "NH",
      "addr_city": "Derry",
      "addr_postcode": "03038",
      "addr_street": "West Broadway",
      "addr_housenumber": "29"
    },
    {
      "id": 25055,
      "geometry": "POINT (-71.315066 41.483218)",
      "poi_name": "The Sailing Museum",
      "osm_id": 4384855950,
      "tourism": "museum",
      "opening_hours": "Mo-Su 10:00-17:00",
      "website": "https://thesailingmuseum.org/",
      "phone": "+1 (401) 324-5761",
      "addr_state": "RI",
      "addr_city": "Newport",
      "addr_postcode": "02840",
      "addr_street": "Thames Street",
      "addr_housenumber": "365"
    },
    {
      "id": 26043,
      "geometry": "POINT (-72.098236 41.351365)",
      "poi_name": "New London County Historical Society",
      "osm_id": 5773747058,
      "historic": "house",
      "tourism": "museum",
      "website": "https://www.nlchs.org",
      "phone": "+1 860 443 1209",
      "museum": "history",
      "wikidata": "Q72081273",
      "addr_state": "CT",
      "addr_city": "New London",
      "addr_postcode": "06320",
      "addr_street": "Blinman Street",
      "addr_housenumber": "11"
    },
    {
      "id": 26044,
      "geometry": "POINT (-72.101795 41.375667)",
      "poi_name": "U.S. Coast Guard Museum",
      "osm_id": 5773747166,
      "tourism": "museum",
      "operator": "U.S. Coast Guard",
      "website": "https://www.uscga.edu/cga-tenants/",
      "museum": "military"
    },
    {
      "id": 26289,
      "geometry": "POINT (-71.035208 42.315665)",
      "poi_name": "Edward M. Kennedy Institute for the U.S. Senate",
      "osm_id": 5838235886,
      "tourism": "museum",
      "opening_hours": "Tu-Su 10:00-17:00",
      "website": "https://www.emkinstitute.org/",
      "wikidata": "Q5344269"
    },
    {
      "id": 26451,
      "geometry": "POINT (-72.943337 41.299622)",
      "poi_name": "The Hill Museum of Arts",
      "osm_id": 5893892914,
      "tourism": "museum",
      "opening_hours": "We-Fr 10:00-16:00; Sa 11:45-17:00",
      "website": "https://www.krikkoproductions.com/the-hill-museum",
      "addr_state": "CT",
      "addr_city": "New Haven",
      "addr_postcode": "06519",
      "addr_street": "West Street",
      "addr_housenumber": "210"
    },
    {
      "id": 26708,
      "geometry": "POINT (-72.514154 42.372096)",
      "poi_name": "Beneski Museum of Natural History",
      "osm_id": 6004147489,
      "tourism": "museum",
      "fee": "no",
      "opening_hours": "Tu-Fr 11:00-16:00; Sa-Su 10:00-17:00",
      "operator": "Amherst College",
      "website": "https://www.amherst.edu/museums/naturalhistory",
      "phone": "+1 413 542 2165",
      "wikidata": "Q4887514"
    },
    {
      "id": 26943,
      "geometry": "POINT (-71.09843 42.336866)",
      "poi_name": "MassArt Art Museum",
      "osm_id": 7644313757,
      "tourism": "museum",
      "operator": "Massachusetts College of Art and Design",
      "website": "https://maam.massart.edu/"
    },
    {
      "id": 27052,
      "geometry": "POINT (-70.971691 42.242281)",
      "poi_name": "United States Naval Shipbuilding Museum",
      "osm_id": 7667737525,
      "tourism": "museum",
      "website": "https://www.uss-salem.org/",
      "phone": "+1 617-479-7900",
      "addr_state": "MA",
      "addr_city": "Quincy",
      "addr_postcode": "02169",
      "addr_street": "South Street",
      "addr_housenumber": "549"
    },
    {
      "id": 27213,
      "geometry": "POINT (-71.034452 42.314018)",
      "poi_name": "Commonwealth Museum",
      "osm_id": 7747033143,
      "tourism": "museum",
      "website": "https://www.sec.state.ma.us/mus/"
    },
    {
      "id": 148,
      "geometry": "POINT (-71.15241 42.415769)",
      "poi_name": "Cyrus Dallin Art Museum",
      "osm_id": 456710478,
      "tourism": "museum",
      "fee": "donation",
      "opening_hours": "Sa,Su 12:00-16:00",
      "website": "https://dallin.org/",
      "wikidata": "Q74035008",
      "addr_state": "MA",
      "addr_city": "Arlington",
      "addr_postcode": "02476",
      "addr_street": "Massachusetts Avenue",
      "addr_housenumber": "611"
    }
  ],
  "answer_type": "name",
  "question_entities": {
    "[1]": {
      "main_category": "tourism",
      "sub_category": "museum"
    },
    "[2]": {
      "distance": 170000,
      "text": "170 kilometers"
    },
    "[3]": {
      "main_category": "leisure",
      "sub_category": "nature reserve",
      "display_name": "Dewey Farm Conservation Land, Millis, MA",
      "geo_wkt": "POINT (-71.364939 42.185888)",
      "poi": {
        "id": 246989,
        "geometry": "POINT (-71.364939 42.185888)",
        "poi_name": "Dewey Farm Conservation Land",
        "osm_id": 8514570141,
        "leisure": "nature_reserve",
        "opening_hours": "sunrise-sunset",
        "operator": "Millis Conservation Commission",
        "addr_state": "MA",
        "addr_city": "Millis",
        "addr_postcode": "02054",
        "addr_street": "Orchard Street"
      }
    }
  },
  "id": 816,
  "type": "range+name"
}