{
  "question": "Within a radius of 110 kilometers, where can I find  a fast food restaurant along the way to Dominion Plastic Surgery, Falls Church, VA from National Children's Museum, Washington, DC?",
  "sql": "WITH\n    angle AS (SELECT degrees(ST_Azimuth(ST_GeomFromText('POINT (-77.029892 38.894273)',4326)::geography, ST_GeomFromText('POINT (-77.222205 38.878159)',4326)::geography)) AS value)\nSELECT * FROM pois,angle\nWHERE amenity = 'fast_food'\nAND ST_DWithin(pois.geometry, ST_GeomFromText('POINT (-77.029892 38.894273)',4326)::geography, 110000)\nAND (degrees(ST_Azimuth(ST_GeomFromText('POINT (-77.029892 38.894273)',4326)::geography, pois.geometry)) BETWEEN angle.value - 22.5 AND angle.value + 22.5);\n",
  "answers": [
    {
      "id": 28236,
      "geometry": "POINT (-77.235831 38.921044)",
      "poi_name": "Panera Bread",
      "osm_id": 471927493,
      "amenity": "fast_food",
      "cuisine": "sandwich;bakery",
      "opening_hours": "Mo-Sa 06:00-21:00; Su 07:00-21:00",
      "phone": "+1 703-556-3700",
      "takeaway": "yes",
      "addr_state": "VA",
      "addr_city": "Vienna",
      "addr_postcode": "22180",
      "addr_street": "Leesburg Pike",
      "addr_housenumber": "8365",
      "value": 263.94120311671185
    },
    {
      "id": 31363,
      "geometry": "POINT (-77.799893 38.624262)",
      "poi_name": "MAPCO 4062",
      "osm_id": 8419897741,
      "amenity": "fast_food",
      "opening_hours": "24/7",
      "internet_access": "wlan",
      "phone": "+1 540-439-2245",
      "addr_state": "VA",
      "addr_city": "Warrenton",
      "addr_postcode": "20187",
      "addr_street": "James Madison Highway",
      "addr_housenumber": "10007",
      "value": 263.94120311671185
    },
    {
      "id": 31383,
      "geometry": "POINT (-77.796082 38.728944)",
      "poi_name": "Jersey Mike's Subs",
      "osm_id": 8421545794,
      "amenity": "fast_food",
      "cuisine": "sandwich",
      "opening_hours": "Mo-Su 10:00-21:00",
      "website": "https://www.jerseymikes.com/6067/warrenton-va",
      "phone": "+1 540-340-3575",
      "takeaway": "yes",
      "addr_state": "VA",
      "addr_city": "Warrenton",
      "addr_postcode": "20186-2107",
      "addr_street": "West Lee Highway",
      "addr_housenumber": "135",
      "value": 263.94120311671185
    },
    {
      "id": 33964,
      "geometry": "POINT (-77.202044 38.832484)",
      "poi_name": "Little Caesars",
      "osm_id": 2688309646,
      "amenity": "fast_food",
      "cuisine": "pizza",
      "opening_hours": "Mo-Su 11:00-23:00",
      "website": "https://littlecaesars.com/en-us/store/10059/",
      "phone": "+1 703-750-0775",
      "takeaway": "yes",
      "addr_state": "VA",
      "addr_city": "Annandale",
      "addr_postcode": "22003",
      "addr_street": "Little River Turnpike",
      "addr_housenumber": "7436",
      "value": 263.94120311671185
    },
    {
      "id": 34297,
      "geometry": "POINT (-77.383608 38.969879)",
      "poi_name": "Domino's",
      "osm_id": 2699023567,
      "amenity": "fast_food",
      "cuisine": "pizza",
      "opening_hours": "Mo-Fr 10:00-00:00; Sa-Su 00:00-01:00,10:00-00:00",
      "website": "https://pizza.dominos.com/virginia/herndon/698-elden-st/",
      "phone": "+1 703-689-3200",
      "takeaway": "yes",
      "addr_state": "VA",
      "addr_city": "Herndon",
      "addr_postcode": "20170",
      "addr_street": "Elden Street",
      "addr_housenumber": "698",
      "value": 263.94120311671185
    },
    {
      "id": 34341,
      "geometry": "POINT (-77.230608 38.923388)",
      "poi_name": "Subway",
      "osm_id": 2699056310,
      "amenity": "fast_food",
      "cuisine": "sandwich",
      "opening_hours": "Mo-Fr 09:00-17:00",
      "website": "https://restaurants.subway.com/united-states/va/mclean/8270-greensboro-drive",
      "phone": "+1 703-748-6990",
      "takeaway": "yes",
      "addr_state": "VA",
      "addr_postcode": "22102",
      "value": 263.94120311671185
    },
    {
      "id": 34286,
      "geometry": "POINT (-77.299283 38.883228)",
      "poi_name": "Tropical Smoothie Cafe",
      "osm_id": 2698841313,
      "amenity": "fast_food",
      "cuisine": "juice",
      "website": "http://dealers.tropicalsmoothie.com/VA/OAKTON/VA-074",
      "phone": "+1 703-496-5535",
      "takeaway": "yes",
      "addr_state": "VA",
      "addr_city": "Oakton",
      "addr_postcode": "22124",
      "addr_street": "Chain Bridge Road",
      "addr_housenumber": "2918",
      "value": 263.94120311671185
    },
    {
      "id": 34287,
      "geometry": "POINT (-77.301744 38.881172)",
      "poi_name": "Chipotle",
      "osm_id": 2698841319,
      "amenity": "fast_food",
      "cuisine": "mexican",
      "opening_hours": "Mo-Su 11:00-22:00",
      "phone": "+1 571-328-5279",
      "takeaway": "yes",
      "official_name": "Chipotle Mexican Grill",
      "addr_state": "VA",
      "addr_city": "Oakton",
      "addr_postcode": "22124",
      "addr_street": "Chain Bridge Road",
      "addr_housenumber": "2946",
      "value": 263.94120311671185
    },
    {
      "id": 36717,
      "geometry": "POINT (-77.260907 38.87199)",
      "poi_name": "Domino's",
      "osm_id": 2781452867,
      "amenity": "fast_food",
      "cuisine": "pizza",
      "opening_hours": "Mo-Fr 10:00-00:00; Sa-Su 00:00-01:00,10:00-00:00",
      "website": "https://pizza.dominos.com/virginia/fairfax/9127-lee-hwy/",
      "phone": "+1 703-280-5950",
      "takeaway": "yes",
      "addr_state": "VA",
      "addr_city": "Fairfax",
      "addr_postcode": "22031",
      "addr_street": "Route 29",
      "addr_housenumber": "9127",
      "value": 263.94120311671185
    },
    {
      "id": 34529,
      "geometry": "POINT (-77.401599 38.957753)",
      "poi_name": "Subway",
      "osm_id": 2700749863,
      "amenity": "fast_food",
      "cuisine": "sandwich",
      "opening_hours": "Mo-Fr 7:00-22:00, Sa 8:00-22:00, Su 9:00-22:00",
      "website": "https://restaurants.subway.com/united-states/va/herndon/13053-worldgate-drive",
      "phone": "+1 703-796-0100",
      "takeaway": "yes",
      "addr_state": "VA",
      "addr_city": "Herndon",
      "addr_postcode": "20170",
      "addr_street": "Worldgate Drive",
      "addr_housenumber": "13053",
      "value": 263.94120311671185
    },
    {
      "id": 36683,
      "geometry": "POINT (-77.112385 38.881535)",
      "poi_name": "Potbelly",
      "osm_id": 2779216840,
      "amenity": "fast_food",
      "cuisine": "sandwich",
      "wheelchair": "yes",
      "opening_hours": "Mo-Fr 11:00-19:00; Sa, Su 11:00-17:00",
      "website": "https://www.potbelly.com/locations/virginia/ballston",
      "phone": "+1 703-807-4100",
      "takeaway": "yes",
      "official_name": "Potbelly Sandwich Works",
      "addr_state": "VA",
      "addr_city": "Arlington",
      "addr_postcode": "22203",
      "addr_street": "Fairfax Drive",
      "addr_housenumber": "4250",
      "value": 263.94120311671185
    },
    {
      "id": 38846,
      "geometry": "POINT (-77.330605 38.938747)",
      "poi_name": "Subway",
      "osm_id": 2885524581,
      "amenity": "fast_food",
      "cuisine": "sandwich",
      "opening_hours": "Mo-Tu 08:00-22:00; We-Fr 09:00-22:00; Sa-Su 09:00-21:00",
      "website": "https://restaurants.subway.com/united-states/va/reston/11160-s-lakes-dr",
      "phone": "+1 703-476-6622",
      "takeaway": "yes",
      "addr_state": "VA",
      "addr_postcode": "20191",
      "addr_street": "S. Lakes Drive",
      "addr_housenumber": "11160",
      "value": 263.94120311671185
    },
    {
      "id": 37227,
      "geometry": "POINT (-77.107959 38.878008)",
      "poi_name": "Jimmy John's",
      "osm_id": 2803955524,
      "amenity": "fast_food",
      "cuisine": "sandwich",
      "wheelchair": "yes",
      "opening_hours": "Mo-Su 11:00-22:00",
      "website": "https://www.jimmyjohns.com/",
      "phone": "+1 703-276-3036",
      "takeaway": "yes",
      "official_name": "Jimmy John's Gourmet Sandwiches",
      "addr_state": "VA",
      "addr_city": "Arlington",
      "addr_postcode": "22203",
      "addr_street": "North Quincy Street",
      "addr_housenumber": "550",
      "value": 263.94120311671185
    },
    {
      "id": 37228,
      "geometry": "POINT (-77.086334 38.891291)",
      "poi_name": "Dunkin'",
      "osm_id": 2804000110,
      "amenity": "fast_food",
      "cuisine": "donut;coffee_shop",
      "opening_hours": "Mo-Sa 05:00-18:00; Su 06:00-18:00",
      "website": "https://locations.dunkindonuts.com/en/va/arlington/2201-wilson-blvd/350977",
      "phone": "+1 571-312-7369",
      "takeaway": "yes",
      "drive_through": "no",
      "addr_state": "VA",
      "addr_city": "Arlington",
      "addr_postcode": "22201",
      "addr_street": "Wilson Boulevard",
      "addr_housenumber": "2201",
      "value": 263.94120311671185
    },
    {
      "id": 39455,
      "geometry": "POINT (-77.090878 38.895127)",
      "poi_name": "Burger 7",
      "osm_id": 2922220004,
      "amenity": "fast_food",
      "cuisine": "burger",
      "wheelchair": "yes",
      "opening_hours": "Mo-Su 11:00-24:00",
      "website": "http://burgerseven.com/",
      "phone": "+1-703-516-7060",
      "takeaway": "yes",
      "drive_through": "no",
      "outdoor_seating": "yes",
      "addr_state": "VA",
      "addr_city": "Arlington",
      "addr_postcode": "22201",
      "addr_street": "Langston Boulevard",
      "addr_housenumber": "2525",
      "value": 263.94120311671185
    },
    {
      "id": 42545,
      "geometry": "POINT (-77.373593 38.958098)",
      "poi_name": "Dunkin'",
      "osm_id": 3066926049,
      "amenity": "fast_food",
      "cuisine": "donut;coffee_shop",
      "opening_hours": "Mo-Sa 05:00-21:00; Su 06:00-20:00",
      "website": "https://locations.dunkindonuts.com/en/va/herndon/141-spring-st/344857",
      "phone": "+1 703-437-5672",
      "takeaway": "yes",
      "drive_through": "no",
      "addr_state": "VA",
      "addr_city": "Herndon",
      "addr_postcode": "20170",
      "addr_street": "Spring Street",
      "addr_housenumber": "141",
      "value": 263.94120311671185
    },
    {
      "id": 43102,
      "geometry": "POINT (-77.422789 38.894654)",
      "poi_name": "Papa John's",
      "osm_id": 3094959245,
      "amenity": "fast_food",
      "cuisine": "pizza",
      "opening_hours": "Mo-Th 10:00-23:00; Fr-Sa 10:00-24:00; Su 10:00-23:00",
      "website": "https://locations.papajohns.com/united-states/va/20151-3244/chantilly/13886-metrotech-dr",
      "phone": "+1 703-803-7272",
      "takeaway": "yes",
      "addr_state": "VA",
      "addr_city": "Chantilly",
      "addr_postcode": "20151-3244",
      "addr_street": "Metrotech Drive",
      "addr_housenumber": "13886",
      "value": 263.94120311671185
    },
    {
      "id": 43946,
      "geometry": "POINT (-77.239727 38.9249)",
      "poi_name": "Chick-fil-A",
      "osm_id": 3137683198,
      "amenity": "fast_food",
      "cuisine": "chicken",
      "opening_hours": "Mo-Sa 06:30-22:00",
      "website": "https://www.chick-fil-a.com/locations/va/tysons-west-in-line",
      "internet_access": "wlan",
      "phone": "+1 703-847-1514",
      "takeaway": "yes",
      "drive_through": "no",
      "delivery": "yes",
      "addr_state": "VA",
      "addr_city": "Vienna",
      "addr_postcode": "22182",
      "addr_street": "Leesburg Pike",
      "addr_housenumber": "8461",
      "value": 263.94120311671185
    },
    {
      "id": 43947,
      "geometry": "POINT (-77.23975 38.924975)",
      "poi_name": "Chipotle",
      "osm_id": 3137687430,
      "amenity": "fast_food",
      "cuisine": "mexican",
      "phone": "+1 571-326-1608",
      "takeaway": "yes",
      "official_name": "Chipotle Mexican Grill",
      "addr_state": "VA",
      "addr_city": "Tysons",
      "addr_postcode": "22182",
      "addr_street": "Leesburg Pike",
      "addr_housenumber": "8461",
      "value": 263.94120311671185
    },
    {
      "id": 45310,
      "geometry": "POINT (-77.266356 38.90043)",
      "poi_name": "Panera Bread",
      "osm_id": 3200219192,
      "amenity": "fast_food",
      "cuisine": "sandwich;bakery",
      "opening_hours": "Mo-Sa 06:00-21:00; Su 07:00-21:00",
      "takeaway": "yes",
      "addr_state": "VA",
      "addr_city": "Vienna",
      "addr_postcode": "22180",
      "addr_street": "Maple Avenue West",
      "addr_housenumber": "163",
      "value": 263.94120311671185
    },
    {
      "id": 49003,
      "geometry": "POINT (-77.111306 38.880856)",
      "poi_name": "Dunkin'",
      "osm_id": 3412062093,
      "amenity": "fast_food",
      "cuisine": "donut;coffee_shop",
      "wheelchair": "yes",
      "opening_hours": "Mo-Fr 05:00-19:00; Sa-Su 05:00-18:00",
      "website": "https://locations.dunkindonuts.com/en/va/arlington/4201-wilson-blvd/353139",
      "phone": "+1 571-312-2383",
      "takeaway": "yes",
      "drive_through": "no",
      "addr_state": "VA",
      "addr_city": "Arlington",
      "addr_postcode": "22203",
      "addr_street": "Wilson Boulevard",
      "addr_housenumber": "4201",
      "value": 263.94120311671185
    },
    {
      "id": 47795,
      "geometry": "POINT (-77.406148 38.908258)",
      "poi_name": "Subway",
      "osm_id": 3350197643,
      "amenity": "fast_food",
      "cuisine": "sandwich",
      "opening_hours": "Mo-Su 08:00-21:00",
      "website": "https://restaurants.subway.com/united-states/va/herndon/13320-c-franklin-farm-road",
      "capacity": "20",
      "phone": "+1 703-318-8383",
      "takeaway": "yes",
      "drive_through": "no",
      "delivery": "no",
      "addr_state": "VA",
      "addr_city": "Herndon",
      "addr_postcode": "20171",
      "addr_street": "Franklin Farm Road",
      "addr_housenumber": "13320",
      "value": 263.94120311671185
    },
    {
      "id": 48328,
      "geometry": "POINT (-77.363054 38.936927)",
      "poi_name": "Dunkin'",
      "osm_id": 3376724828,
      "amenity": "fast_food",
      "cuisine": "donut;coffee_shop",
      "opening_hours": "Mo-Sa 05:30-21:00; Su 06:00-20:00",
      "website": "https://locations.dunkindonuts.com/en/va/reston/2280-hunters-woods-plz/349165",
      "phone": "+1 703-860-9252",
      "takeaway": "yes",
      "drive_through": "no",
      "addr_state": "VA",
      "addr_city": "Reston",
      "addr_postcode": "20191",
      "addr_street": "Hunters Woods Plaza",
      "addr_housenumber": "2280",
      "value": 263.94120311671185
    },
    {
      "id": 48069,
      "geometry": "POINT (-77.416586 38.921303)",
      "poi_name": "Vocelli Pizza",
      "osm_id": 3364248466,
      "amenity": "fast_food",
      "cuisine": "pizza",
      "website": "https://www.vocellipizza.com/franklinfarms_va",
      "phone": "+1 703-435-7333",
      "takeaway": "only",
      "addr_state": "VA",
      "addr_city": "Herndon",
      "addr_postcode": "20171",
      "addr_street": "Centreville Road",
      "addr_housenumber": "3065",
      "value": 263.94120311671185
    },
    {
      "id": 48699,
      "geometry": "POINT (-77.070569 38.895868)",
      "poi_name": "Potbelly",
      "osm_id": 3396064837,
      "amenity": "fast_food",
      "cuisine": "sandwich",
      "opening_hours": "Mo-Fr 10:00-22:00; Sa-Su 10:00-20:00",
      "phone": "+1 703-717-5033",
      "takeaway": "yes",
      "drive_through": "no",
      "official_name": "Potbelly Sandwich Works",
      "delivery": "no",
      "addr_state": "VA",
      "addr_city": "Arlington",
      "addr_postcode": "22209",
      "addr_street": "North Lynn Street",
      "addr_housenumber": "1735",
      "value": 263.94120311671185
    },
    {
      "id": 49034,
      "geometry": "POINT (-77.44492 38.945464)",
      "poi_name": "Au Bon Pain",
      "osm_id": 3413156599,
      "amenity": "fast_food",
      "cuisine": "sandwich",
      "wheelchair": "yes",
      "opening_hours": "Mo-Su 05:00-22:00",
      "phone": "+1 703-996-0160",
      "takeaway": "only",
      "addr_state": "VA",
      "addr_city": "Sterling",
      "addr_postcode": "20166",
      "addr_street": "Saarinen Circle",
      "addr_housenumber": "1",
      "value": 263.94120311671185
    },
    {
      "id": 52070,
      "geometry": "POINT (-77.087436 38.890678)",
      "poi_name": "Five Guys",
      "osm_id": 568942924,
      "amenity": "fast_food",
      "cuisine": "burger",
      "opening_hours": "Mo-Su 11:00-22:00",
      "website": "https://www.fiveguys.com/",
      "phone": "+1 703-812-8440",
      "takeaway": "yes",
      "official_name": "Five Guys Burgers and Fries",
      "addr_state": "VA",
      "addr_city": "Arlington",
      "addr_postcode": "22201",
      "addr_street": "Wilson Boulevard",
      "addr_housenumber": "2300",
      "value": 263.94120311671185
    },
    {
      "id": 52158,
      "geometry": "POINT (-77.400724 38.957393)",
      "poi_name": "Qdoba",
      "osm_id": 572032919,
      "amenity": "fast_food",
      "cuisine": "mexican",
      "opening_hours": "Mo-Fr 11:00-21:00, Sa-Su 11:00-20:00",
      "website": "https://locations.qdoba.com/us/va/herndon/13031-worldgate-dr.html",
      "phone": "+1-703-796-1101",
      "takeaway": "yes",
      "drive_through": "no",
      "official_name": "Qdoba Mexican Grill",
      "outdoor_seating": "yes",
      "addr_state": "VA",
      "addr_city": "Herndon",
      "addr_postcode": "20170",
      "addr_street": "Worldgate Drive",
      "addr_housenumber": "13031",
      "value": 263.94120311671185
    },
    {
      "id": 52283,
      "geometry": "POINT (-77.070556 38.895945)",
      "poi_name": "Chopt",
      "osm_id": 576159860,
      "amenity": "fast_food",
      "cuisine": "salad",
      "opening_hours": "Mo-Fr 10:30-21:00; Sa-Su 11:00-21:00",
      "takeaway": "yes",
      "addr_state": "VA",
      "addr_street": "North Lynn Street",
      "addr_housenumber": "1735",
      "value": 263.94120311671185
    },
    {
      "id": 52284,
      "geometry": "POINT (-77.070523 38.89534)",
      "poi_name": "Chipotle",
      "osm_id": 576212072,
      "amenity": "fast_food",
      "cuisine": "mexican",
      "opening_hours": "10:00-22:00",
      "website": "https://locations.chipotle.com/va/rosslyn/1735-n-lynn-st",
      "phone": "+1 703-294-6669",
      "takeaway": "yes",
      "official_name": "Chipotle Mexican Grill",
      "addr_state": "VA",
      "addr_city": "Rosslyn",
      "addr_postcode": "22209",
      "addr_street": "North Lynn Street",
      "addr_housenumber": "1735",
      "value": 263.94120311671185
    },
    {
      "id": 52421,
      "geometry": "POINT (-77.466642 38.756621)",
      "poi_name": "Five Guys",
      "osm_id": 582778202,
      "amenity": "fast_food",
      "cuisine": "burger",
      "takeaway": "yes",
      "official_name": "Five Guys Burgers and Fries",
      "addr_state": "VA",
      "addr_city": "Manassas",
      "addr_postcode": "20110",
      "addr_street": "Sudley Road",
      "addr_housenumber": "9221",
      "value": 263.94120311671185
    },
    {
      "id": 52204,
      "geometry": "POINT (-77.259109 38.904782)",
      "poi_name": "Domino's",
      "osm_id": 573578417,
      "amenity": "fast_food",
      "cuisine": "pizza",
      "opening_hours": "Mo-Fr 10:00-00:00; Sa-Su 00:00-01:00,10:00-00:00",
      "website": "https://pizza.dominos.com/virginia/vienna/331-maple-ave-e/",
      "phone": "+1 703-319-3300",
      "takeaway": "yes",
      "addr_state": "VA",
      "addr_city": "Vienna",
      "addr_postcode": "22180",
      "addr_street": "Maple Avenue",
      "addr_housenumber": "331",
      "value": 263.94120311671185
    },
    {
      "id": 52320,
      "geometry": "POINT (-77.395831 38.94949)",
      "poi_name": "Manhattan Pizza",
      "osm_id": 577370574,
      "amenity": "fast_food",
      "cuisine": "pizza",
      "website": "https://www.manhattanpizza.com/m/",
      "phone": "+1 703-481-6580",
      "takeaway": "yes",
      "outdoor_seating": "no",
      "addr_state": "VA",
      "addr_city": "Herndon",
      "addr_postcode": "20171",
      "addr_street": "Highland Crossing Drive",
      "addr_housenumber": "12975",
      "value": 263.94120311671185
    },
    {
      "id": 52321,
      "geometry": "POINT (-77.394184 38.9494)",
      "poi_name": "Moe's Southwest Grill",
      "osm_id": 577370576,
      "amenity": "fast_food",
      "cuisine": "mexican",
      "website": "https://moes.com/",
      "phone": "+1 703-796-6637",
      "takeaway": "yes",
      "addr_state": "VA",
      "addr_city": "Herndon",
      "addr_postcode": "20171",
      "addr_street": "Woodland Crossing Drive",
      "addr_housenumber": "2315",
      "value": 263.94120311671185
    },
    {
      "id": 52473,
      "geometry": "POINT (-77.409958 38.950722)",
      "poi_name": "Subway",
      "osm_id": 585183277,
      "amenity": "fast_food",
      "cuisine": "sandwich",
      "opening_hours": "Mo-Fr 07:00-22:00; Sa 08:00-22:00; Su 09:00-22:00",
      "website": "https://restaurants.subway.com/united-states/va/herndon/2465-centerville-rd",
      "phone": "+1 703-713-0290",
      "takeaway": "yes",
      "drive_through": "no",
      "addr_state": "VA",
      "addr_city": "Herndon",
      "addr_postcode": "20171",
      "addr_street": "Centreville Road",
      "addr_housenumber": "2465",
      "value": 263.94120311671185
    },
    {
      "id": 57567,
      "geometry": "POINT (-78.083791 39.081492)",
      "poi_name": "Dunkin' Donuts",
      "osm_id": 5340202752,
      "amenity": "fast_food",
      "cuisine": "donut;coffee",
      "wheelchair": "yes",
      "takeaway": "only",
      "addr_state": "VA",
      "addr_city": "Boyce",
      "addr_postcode": "22620",
      "addr_street": "John Mosby Highway",
      "addr_housenumber": "8153",
      "value": 263.94120311671185
    },
    {
      "id": 57195,
      "geometry": "POINT (-77.367623 38.967021)",
      "poi_name": "Papa John's",
      "osm_id": 5329788221,
      "amenity": "fast_food",
      "cuisine": "pizza",
      "opening_hours": "Mo-Su 10:00-23:00",
      "website": "https://locations.papajohns.com/united-states/va/20170-4831/herndon/150-elden-st",
      "phone": "+1 703-435-7272",
      "takeaway": "yes",
      "addr_state": "VA",
      "addr_city": "Herndon",
      "addr_postcode": "20170-4831",
      "addr_street": "Elden Street",
      "addr_housenumber": "150",
      "value": 263.94120311671185
    },
    {
      "id": 57148,
      "geometry": "POINT (-77.452351 38.743208)",
      "poi_name": "Primo Pizzeria",
      "osm_id": 5326401804,
      "amenity": "fast_food",
      "cuisine": "pizza",
      "addr_state": "VA",
      "addr_city": "Manassas",
      "addr_postcode": "20110",
      "addr_street": "Liberia Avenue",
      "addr_housenumber": "9926",
      "value": 263.94120311671185
    },
    {
      "id": 57880,
      "geometry": "POINT (-77.398404 38.880247)",
      "poi_name": "Subway",
      "osm_id": 5355008222,
      "amenity": "fast_food",
      "cuisine": "sandwich",
      "opening_hours": "Mo-Su 09:00-22:00",
      "website": "https://restaurants.subway.com/united-states/va/fairfax/13059-lee-jackson-hwy",
      "phone": "+1 703-378-3370",
      "takeaway": "yes",
      "drive_through": "no",
      "addr_state": "VA",
      "addr_postcode": "22033",
      "value": 263.94120311671185
    },
    {
      "id": 57886,
      "geometry": "POINT (-77.074124 38.894423)",
      "poi_name": "District Taco",
      "osm_id": 5355022273,
      "amenity": "fast_food",
      "cuisine": "mexican",
      "opening_hours": "08:00-22:00",
      "website": "https://www.districttaco.com/",
      "phone": "+1 571-290-6854",
      "takeaway": "yes",
      "addr_state": "VA",
      "addr_street": "Wilson Boulevard",
      "addr_housenumber": "1500",
      "value": 263.94120311671185
    },
    {
      "id": 57938,
      "geometry": "POINT (-77.399801 38.879598)",
      "poi_name": "Domino's",
      "osm_id": 5357019922,
      "amenity": "fast_food",
      "cuisine": "pizza",
      "opening_hours": "Mo-Fr 10:00-00:00; Sa-Su 00:00-01:00,10:00-00:00",
      "website": "https://pizza.dominos.com/virginia/fairfax/13053-g-lee-jackson-memorial-hwy/",
      "phone": "+1 703-818-7100",
      "takeaway": "yes",
      "addr_state": "VA",
      "addr_city": "Fairfax",
      "addr_postcode": "22033",
      "addr_street": "Route 50",
      "addr_housenumber": "13053",
      "value": 263.94120311671185
    },
    {
      "id": 58093,
      "geometry": "POINT (-77.43542 38.758973)",
      "poi_name": "Chicken.com",
      "osm_id": 5364015953,
      "amenity": "fast_food",
      "cuisine": "chicken",
      "shop": "beauty",
      "addr_state": "VA",
      "addr_city": "Manassas Park",
      "addr_postcode": "20111",
      "addr_street": "Andrew Drive",
      "addr_housenumber": "9107",
      "value": 263.94120311671185
    },
    {
      "id": 59634,
      "geometry": "POINT (-77.639586 38.844855)",
      "poi_name": "Subway",
      "osm_id": 5435848796,
      "amenity": "fast_food",
      "cuisine": "sandwich",
      "opening_hours": "Mo-Su 08:00-21:00",
      "website": "https://restaurants.subway.com/united-states/va/haymarket/5481-merchant-view-square",
      "phone": "+1 703-754-0725",
      "takeaway": "yes",
      "drive_through": "no",
      "addr_state": "VA",
      "addr_city": "Haymarket",
      "addr_postcode": "20169",
      "addr_street": "Merchants View Square",
      "addr_housenumber": "5481",
      "value": 263.94120311671185
    },
    {
      "id": 59635,
      "geometry": "POINT (-77.63949 38.84484)",
      "poi_name": "Domino's",
      "osm_id": 5435848797,
      "amenity": "fast_food",
      "cuisine": "pizza",
      "opening_hours": "Mo-Fr 10:00-00:00; Sa-Su 00:00-01:00,10:00-00:00",
      "website": "https://pizza.dominos.com/virginia/haymarket/5491-merchant-view-square-suite-5/",
      "phone": "+1 571-261-5800",
      "takeaway": "yes",
      "drive_through": "no",
      "addr_state": "VA",
      "addr_city": "Haymarket",
      "addr_postcode": "20169",
      "addr_street": "Merchants View Square",
      "addr_housenumber": "5491",
      "value": 263.94120311671185
    },
    {
      "id": 62578,
      "geometry": "POINT (-77.80093 38.729181)",
      "poi_name": "Firehouse Subs",
      "osm_id": 5577226142,
      "amenity": "fast_food",
      "cuisine": "sandwich",
      "wheelchair": "yes",
      "opening_hours": "Mo-Su 10:30-22:00",
      "website": "https://www.firehousesubs.com",
      "phone": "+1 540-341-7500",
      "takeaway": "yes",
      "addr_state": "VA",
      "addr_city": "Warrenton",
      "addr_street": "West Lee Highway",
      "addr_housenumber": "251",
      "value": 263.94120311671185
    },
    {
      "id": 63849,
      "geometry": "POINT (-77.495444 38.964317)",
      "poi_name": "Arby's",
      "osm_id": 5632676598,
      "amenity": "fast_food",
      "cuisine": "sandwich",
      "takeaway": "yes",
      "addr_state": "VA",
      "addr_city": "Dulles",
      "addr_postcode": "20166",
      "addr_street": "Overland Drive",
      "addr_housenumber": "23511",
      "value": 263.94120311671185
    },
    {
      "id": 65628,
      "geometry": "POINT (-77.771516 38.73325)",
      "poi_name": "Five Guys",
      "osm_id": 5705928220,
      "amenity": "fast_food",
      "cuisine": "burger",
      "opening_hours": "Mo-Su 11:00-22:00",
      "website": "https://restaurants.fiveguys.com/6441-lee-highway",
      "phone": "+1 540-878-2065",
      "takeaway": "yes",
      "official_name": "Five Guys Burgers and Fries",
      "addr_state": "VA",
      "addr_city": "Warrenton",
      "addr_postcode": "20187",
      "addr_street": "Lee Highway",
      "addr_housenumber": "6441",
      "value": 263.94120311671185
    },
    {
      "id": 65494,
      "geometry": "POINT (-77.517677 38.782008)",
      "poi_name": "Domino's",
      "osm_id": 5697770560,
      "amenity": "fast_food",
      "cuisine": "pizza",
      "opening_hours": "Mo-Fr 10:00-00:00; Sa-Su 00:00-01:00,10:00-00:00",
      "website": "https://pizza.dominos.com/virginia/manassas/8130-ashton-ave-103/",
      "phone": "+1 703-368-2000",
      "takeaway": "yes",
      "addr_state": "VA",
      "addr_city": "Manassas",
      "addr_postcode": "20109",
      "value": 263.94120311671185
    },
    {
      "id": 65495,
      "geometry": "POINT (-77.517607 38.781947)",
      "poi_name": "Tropical Bites",
      "osm_id": 5697770561,
      "amenity": "fast_food",
      "cuisine": "caribbean",
      "addr_state": "VA",
      "addr_city": "Manassas",
      "addr_postcode": "20109",
      "addr_street": "Ashton Avenue",
      "addr_housenumber": "8130",
      "value": 263.94120311671185
    },
    {
      "id": 67284,
      "geometry": "POINT (-77.358744 38.95816)",
      "poi_name": "Sweetgreen",
      "osm_id": 11231124972,
      "amenity": "fast_food",
      "cuisine": "salad",
      "phone": "+1-571-203-0082",
      "takeaway": "yes",
      "drive_through": "no",
      "addr_state": "VA",
      "addr_city": "Reston",
      "addr_postcode": "20190",
      "addr_street": "Library Street",
      "addr_housenumber": "1824",
      "value": 263.94120311671185
    },
    {
      "id": 67285,
      "geometry": "POINT (-77.357127 38.957995)",
      "poi_name": "Playa Bowls",
      "osm_id": 11231124983,
      "amenity": "fast_food",
      "cuisine": "a\u00e7a\u00ed",
      "phone": "+1-571-926-9668",
      "takeaway": "yes",
      "addr_state": "VA",
      "addr_city": "Reston",
      "addr_postcode": "20190",
      "addr_street": "Discovery Street",
      "addr_housenumber": "1820",
      "value": 263.94120311671185
    },
    {
      "id": 69467,
      "geometry": "POINT (-77.543257 38.90833)",
      "poi_name": "Dunkin'",
      "osm_id": 11306121513,
      "amenity": "fast_food",
      "cuisine": "donut;coffee_shop",
      "opening_hours": "Mo-Su 09:30-21:00",
      "website": "https://locations.dunkindonuts.com/en/va/chantilly/42204-mcgraw-ridge-drive/362764?utm_source=google&utm_medium=local&utm_campaign=localmaps&utm_content=362764&y_source=1_MTAwNDg5OTE5My03MTUtbG9jYXRpb24ud2Vic2l0ZQ%3D%3D",
      "phone": "+12028233414",
      "takeaway": "yes",
      "addr_state": "VA",
      "addr_city": "Chantilly",
      "addr_postcode": "20152",
      "addr_street": "McGraw Ridge Drive",
      "addr_housenumber": "42204",
      "value": 263.94120311671185
    },
    {
      "id": 70522,
      "geometry": "POINT (-77.276242 38.817233)",
      "poi_name": "Subway",
      "osm_id": 11365369319,
      "amenity": "fast_food",
      "cuisine": "sandwich",
      "website": "https://restaurants.subway.com/united-states/va/fairfax/9559-braddock-road",
      "phone": "+1 703-323-0036",
      "takeaway": "yes",
      "drive_through": "no",
      "addr_state": "VA",
      "addr_city": "Fairfax",
      "addr_postcode": "22032",
      "addr_street": "Braddock Road",
      "addr_housenumber": "9559",
      "value": 263.94120311671185
    },
    {
      "id": 70954,
      "geometry": "POINT (-77.314689 38.825046)",
      "poi_name": "Insomnia Cookies",
      "osm_id": 11378598537,
      "amenity": "fast_food",
      "shop": "pastry",
      "addr_state": "VA",
      "addr_city": "Fairfax",
      "addr_postcode": "22032",
      "addr_street": "Braddock Road",
      "addr_housenumber": "10669",
      "value": 263.94120311671185
    },
    {
      "id": 70969,
      "geometry": "POINT (-77.30482 38.833753)",
      "poi_name": "The Spot",
      "osm_id": 11378598554,
      "amenity": "fast_food",
      "takeaway": "yes",
      "addr_state": "VA",
      "addr_city": "Fairfax",
      "addr_postcode": "22030",
      "value": 263.94120311671185
    },
    {
      "id": 70970,
      "geometry": "POINT (-77.307522 38.834963)",
      "poi_name": "Manhattan Pizza",
      "osm_id": 11378598555,
      "amenity": "fast_food",
      "takeaway": "yes",
      "addr_state": "VA",
      "addr_city": "Fairfax",
      "addr_postcode": "22030",
      "value": 263.94120311671185
    },
    {
      "id": 70971,
      "geometry": "POINT (-77.307759 38.834935)",
      "poi_name": "Einstein Bros. Bagels",
      "osm_id": 11378598556,
      "amenity": "fast_food",
      "cuisine": "bagel",
      "phone": "+1 703-993-6095",
      "takeaway": "yes",
      "addr_state": "VA",
      "addr_city": "Fairfax",
      "addr_postcode": "22030",
      "value": 263.94120311671185
    },
    {
      "id": 70972,
      "geometry": "POINT (-77.307963 38.834921)",
      "poi_name": "NuVegan",
      "osm_id": 11378598557,
      "amenity": "fast_food",
      "website": "https://masondining.sodexomyway.com/dining-near-me/nuvegan",
      "phone": "+1 703-993-7090",
      "takeaway": "yes",
      "addr_state": "VA",
      "addr_city": "Fairfax",
      "addr_postcode": "22030",
      "value": 263.94120311671185
    },
    {
      "id": 70973,
      "geometry": "POINT (-77.307946 38.834834)",
      "poi_name": "Panda Express",
      "osm_id": 11378598558,
      "amenity": "fast_food",
      "cuisine": "chinese",
      "opening_hours": "Mo-Th 11:00-15:00; Fr 00:30-01:00",
      "website": "https://www.pandaexpress.com/location/george-mason-university-university-hall-px/menu",
      "phone": "+1 703-993-6042",
      "takeaway": "yes",
      "addr_state": "VA",
      "addr_city": "Fairfax",
      "addr_postcode": "22030",
      "value": 263.94120311671185
    },
    {
      "id": 68627,
      "geometry": "POINT (-77.639909 38.814431)",
      "poi_name": "Goodfellas Pizza",
      "osm_id": 11278157784,
      "amenity": "fast_food",
      "cuisine": "pizza",
      "addr_state": "VA",
      "addr_city": "Haymarket",
      "addr_postcode": "20169",
      "addr_street": "Turner Hill Road",
      "addr_housenumber": "6683",
      "value": 263.94120311671185
    },
    {
      "id": 72112,
      "geometry": "POINT (-77.539174 38.936039)",
      "poi_name": "Domino's",
      "osm_id": 11413306254,
      "amenity": "fast_food",
      "cuisine": "pizza",
      "takeaway": "yes",
      "addr_state": "VA",
      "addr_city": "Chantilly",
      "addr_postcode": "20152",
      "addr_street": "Southpoint Drive",
      "addr_housenumber": "24650",
      "value": 263.94120311671185
    },
    {
      "id": 74202,
      "geometry": "POINT (-77.274844 38.893695)",
      "poi_name": "Chick-fil-A",
      "osm_id": 9670657038,
      "amenity": "fast_food",
      "cuisine": "chicken",
      "opening_hours": "Mo-Sa 06:30-22:00",
      "website": "https://www.chick-fil-a.com/locations/va/vienna-on-maple",
      "internet_access": "wlan",
      "phone": "+1 571-363-3944",
      "takeaway": "yes",
      "drive_through": "yes",
      "delivery": "no",
      "addr_state": "VA",
      "addr_city": "Vienna",
      "addr_postcode": "22180",
      "addr_street": "Maple Avenue West",
      "addr_housenumber": "538",
      "value": 263.94120311671185
    },
    {
      "id": 77420,
      "geometry": "POINT (-77.22987 38.871619)",
      "poi_name": "Shake Shack",
      "osm_id": 9821370994,
      "amenity": "fast_food",
      "cuisine": "burger",
      "opening_hours": "Mo-Tu 16:00-21:00; We-Su 10:45-21:00",
      "takeaway": "yes",
      "drive_through": "no",
      "addr_state": "VA",
      "addr_city": "Fairfax",
      "addr_postcode": "22031",
      "addr_street": "District Avenue",
      "addr_housenumber": "2911",
      "value": 263.94120311671185
    },
    {
      "id": 79893,
      "geometry": "POINT (-77.454014 38.834616)",
      "poi_name": "Dunkin'",
      "osm_id": 834737595,
      "amenity": "fast_food",
      "cuisine": "donut;coffee_shop",
      "opening_hours": "Mo-Sa 05:00-21:00; Su 06:00-20:00",
      "website": "https://locations.dunkindonuts.com/en/va/centreville/14631-lee-hwy/343749",
      "phone": "+1 703-815-4020",
      "takeaway": "yes",
      "drive_through": "no",
      "addr_state": "VA",
      "addr_city": "Centreville",
      "addr_postcode": "20121",
      "addr_street": "Route 29",
      "addr_housenumber": "14631",
      "value": 263.94120311671185
    },
    {
      "id": 79899,
      "geometry": "POINT (-77.438337 38.838133)",
      "poi_name": "Panda Express",
      "osm_id": 834852362,
      "amenity": "fast_food",
      "cuisine": "chinese",
      "opening_hours": "Mo-Th 10:30-21:30; Fr-Sa 10:30-22:00; Su 10:30-20:30",
      "website": "https://www.pandaexpress.com/userlocation/1408/va/centreville/14220-centreville-square",
      "phone": "+1-703-830-8676",
      "takeaway": "yes",
      "drive_through": "no",
      "addr_state": "VA",
      "addr_city": "Centreville",
      "addr_postcode": "20122",
      "addr_street": "Centreville Square",
      "addr_housenumber": "14220",
      "value": 263.94120311671185
    },
    {
      "id": 80210,
      "geometry": "POINT (-77.132505 38.85099)",
      "poi_name": "Moe's Southwest Grill",
      "osm_id": 862399720,
      "amenity": "fast_food",
      "cuisine": "mexican",
      "wheelchair": "yes",
      "takeaway": "yes",
      "addr_state": "VA",
      "addr_city": "Falls Church",
      "addr_street": "Leesburg Pike",
      "value": 263.94120311671185
    },
    {
      "id": 80211,
      "geometry": "POINT (-77.13212 38.851504)",
      "poi_name": "Panera Bread",
      "osm_id": 862400672,
      "amenity": "fast_food",
      "cuisine": "sandwich;bakery",
      "wheelchair": "yes",
      "opening_hours": "Mo-Sa 06:00-21:00, Su 07:00-21:00",
      "website": "https://locations.panerabread.com/va/bailey-s-crossroads/5857-leesburg-pike.html",
      "phone": "+1 703-998-1300",
      "takeaway": "yes",
      "drive_through": "no",
      "addr_state": "VA",
      "addr_city": "Falls Church",
      "addr_postcode": "22041",
      "addr_street": "Leesburg Pike",
      "addr_housenumber": "5857",
      "value": 263.94120311671185
    },
    {
      "id": 79049,
      "geometry": "POINT (-77.432825 38.834526)",
      "poi_name": "McDonald's",
      "osm_id": 770777391,
      "amenity": "fast_food",
      "cuisine": "burger",
      "opening_hours": "24/7",
      "website": "https://www.mcdonalds.com/us/en-us/location/va/centreville/5931-fort-dr/15287.html",
      "phone": "+1-703-266-2741",
      "takeaway": "yes",
      "drive_through": "yes",
      "delivery": "yes",
      "addr_state": "VA",
      "addr_city": "Centreville",
      "addr_postcode": "20120",
      "addr_street": "Fort Drive",
      "addr_housenumber": "5931",
      "value": 263.94120311671185
    },
    {
      "id": 81473,
      "geometry": "POINT (-77.521514 38.7954)",
      "poi_name": "Pizzarama",
      "osm_id": 1641393397,
      "amenity": "fast_food",
      "cuisine": "pizza",
      "opening_hours": "Mo-We 11:00-21:00; Th-Sa 11:00-22:00; Su 12:00-21:00",
      "website": "https://www.pizzarama.com/",
      "phone": "+1 703-368-2010",
      "addr_state": "VA",
      "addr_city": "Manassas",
      "addr_postcode": "20109",
      "addr_street": "Stream Walk Lane",
      "addr_housenumber": "7642",
      "value": 263.94120311671185
    },
    {
      "id": 81474,
      "geometry": "POINT (-77.52199 38.795252)",
      "poi_name": "Subway",
      "osm_id": 1641393409,
      "amenity": "fast_food",
      "cuisine": "sandwich",
      "opening_hours": "Mo-Sa 07:00-22:00; Su 09:00-21:00",
      "website": "https://restaurants.subway.com/united-states/va/manassas/7600-stream-walk-ln",
      "phone": "+1 703-361-2599",
      "takeaway": "yes",
      "addr_state": "VA",
      "addr_city": "Manassas",
      "addr_postcode": "20109",
      "addr_street": "Stream Walk Lane",
      "addr_housenumber": "7600",
      "value": 263.94120311671185
    },
    {
      "id": 82722,
      "geometry": "POINT (-77.410548 38.977461)",
      "poi_name": "Subway",
      "osm_id": 1709011475,
      "amenity": "fast_food",
      "cuisine": "sandwich",
      "opening_hours": "Mo-Su 09:00-22:00",
      "website": "https://restaurants.subway.com/united-states/va/sterling/23070-oak-grove-road",
      "phone": "+1 703-437-3027",
      "takeaway": "yes",
      "addr_state": "VA",
      "addr_postcode": "20166",
      "value": 263.94120311671185
    },
    {
      "id": 81632,
      "geometry": "POINT (-77.191278 38.832032)",
      "poi_name": "Domino's",
      "osm_id": 1653521434,
      "amenity": "fast_food",
      "cuisine": "pizza",
      "opening_hours": "Mo-Fr 10:00-00:00; Sa-Su 00:00-01:00,10:00-00:00",
      "website": "https://pizza.dominos.com/virginia/annandale/7129-columbia-pike/",
      "phone": "+1 703-941-7900",
      "takeaway": "yes",
      "addr_state": "VA",
      "addr_city": "Annandale",
      "addr_postcode": "22003",
      "addr_street": "Columbia Pike",
      "addr_housenumber": "7129",
      "value": 263.94120311671185
    },
    {
      "id": 81633,
      "geometry": "POINT (-77.191273 38.83278)",
      "poi_name": "Subway",
      "osm_id": 1653521464,
      "amenity": "fast_food",
      "cuisine": "sandwich",
      "opening_hours": "Mo-Su 08:30-21:30",
      "website": "https://restaurants.subway.com/united-states/va/annandale/7120-columbia-pike",
      "phone": "+1 703-914-0391",
      "takeaway": "yes",
      "addr_state": "VA",
      "addr_postcode": "22003",
      "addr_street": "Columbia Pike",
      "addr_housenumber": "7120",
      "value": 263.94120311671185
    },
    {
      "id": 82723,
      "geometry": "POINT (-77.410655 38.977534)",
      "poi_name": "Dunkin'",
      "osm_id": 1709016793,
      "amenity": "fast_food",
      "cuisine": "donut;coffee_shop",
      "opening_hours": "Mo-Su 05:00-19:00",
      "website": "https://locations.dunkindonuts.com/en/va/sterling/23070-oak-grove-rd/344775",
      "internet_access": "wlan",
      "phone": "+1 703-435-9233",
      "takeaway": "yes",
      "drive_through": "no",
      "addr_state": "VA",
      "addr_city": "Sterling",
      "addr_postcode": "20166",
      "addr_street": "Oak Grove Road",
      "addr_housenumber": "23070",
      "value": 263.94120311671185
    },
    {
      "id": 84090,
      "geometry": "POINT (-77.357013 38.959306)",
      "poi_name": "Potbelly",
      "osm_id": 1776703231,
      "amenity": "fast_food",
      "cuisine": "sandwich",
      "takeaway": "yes",
      "official_name": "Potbelly Sandwich Works",
      "addr_state": "VA",
      "addr_city": "Reston",
      "addr_postcode": "20190",
      "addr_street": "Freedom Drive",
      "addr_housenumber": "11919",
      "value": 263.94120311671185
    },
    {
      "id": 84109,
      "geometry": "POINT (-77.356759 38.959378)",
      "poi_name": "Chipotle",
      "osm_id": 1777382316,
      "amenity": "fast_food",
      "cuisine": "mexican",
      "takeaway": "yes",
      "drive_through": "no",
      "official_name": "Chipotle Mexican Grill",
      "outdoor_seating": "yes",
      "addr_state": "VA",
      "addr_city": "Reston",
      "addr_postcode": "20190",
      "addr_street": "Freedom Drive",
      "addr_housenumber": "11913",
      "value": 263.94120311671185
    },
    {
      "id": 84080,
      "geometry": "POINT (-77.358745 38.958068)",
      "poi_name": "&pizza",
      "osm_id": 1776193047,
      "amenity": "fast_food",
      "cuisine": "pizza",
      "website": "https://andpizza.com",
      "takeaway": "yes",
      "drive_through": "no",
      "outdoor_seating": "no",
      "addr_state": "VA",
      "addr_city": "Reston",
      "addr_postcode": "20190",
      "addr_street": "Library Street",
      "addr_housenumber": "1826",
      "value": 263.94120311671185
    },
    {
      "id": 85461,
      "geometry": "POINT (-77.398987 38.963619)",
      "poi_name": "Chipotle",
      "osm_id": 1869397539,
      "amenity": "fast_food",
      "cuisine": "mexican",
      "opening_hours": "10:45-23:00",
      "phone": "+1 703-435-3325",
      "takeaway": "yes",
      "drive_through": "no",
      "official_name": "Chipotle Mexican Grill",
      "outdoor_seating": "no",
      "addr_state": "VA",
      "addr_city": "Herndon",
      "addr_postcode": "20170",
      "addr_street": "Elden Street",
      "addr_housenumber": "1144",
      "value": 263.94120311671185
    },
    {
      "id": 87917,
      "geometry": "POINT (-77.45066 38.852648)",
      "poi_name": "Domino's",
      "osm_id": 8753974776,
      "amenity": "fast_food",
      "cuisine": "pizza",
      "opening_hours": "Mo-Fr 10:00-00:00; Sa-Su 00:00-01:00,10:00-00:00",
      "website": "https://pizza.dominos.com/virginia/centreville/5663-stone-rd/",
      "phone": "+1 571-549-1900",
      "takeaway": "yes",
      "addr_state": "VA",
      "addr_city": "Centreville",
      "addr_postcode": "20120",
      "addr_street": "Stone Road",
      "addr_housenumber": "5663",
      "value": 263.94120311671185
    },
    {
      "id": 89980,
      "geometry": "POINT (-77.62783 38.793172)",
      "poi_name": "Pizza Boli's",
      "osm_id": 8873308295,
      "amenity": "fast_food",
      "cuisine": "pizza",
      "takeaway": "yes",
      "addr_state": "VA",
      "addr_city": "Gainesville",
      "addr_postcode": "20155",
      "addr_street": "Lee Highway",
      "addr_housenumber": "14690",
      "value": 263.94120311671185
    },
    {
      "id": 90621,
      "geometry": "POINT (-77.518745 38.924118)",
      "poi_name": "Panera Bread",
      "osm_id": 2006165461,
      "amenity": "fast_food",
      "cuisine": "sandwich;bakery",
      "website": "https://locations.panerabread.com/va/south-riding/25042-riding-plaza-drive.html",
      "phone": "+1 703-542-2408",
      "takeaway": "yes",
      "addr_state": "VA",
      "addr_city": "South Riding",
      "addr_postcode": "20152",
      "addr_street": "Riding Plaza",
      "addr_housenumber": "25042",
      "value": 263.94120311671185
    },
    {
      "id": 93934,
      "geometry": "POINT (-77.174563 38.884993)",
      "poi_name": "Chipotle",
      "osm_id": 2193531303,
      "amenity": "fast_food",
      "cuisine": "mexican",
      "takeaway": "yes",
      "official_name": "Chipotle Mexican Grill",
      "addr_state": "VA",
      "addr_city": "Falls Church",
      "addr_postcode": "22046",
      "addr_street": "West Broad Street",
      "addr_housenumber": "358",
      "value": 263.94120311671185
    },
    {
      "id": 93935,
      "geometry": "POINT (-77.174647 38.885047)",
      "poi_name": "Honey Baked Ham",
      "osm_id": 2193531308,
      "amenity": "fast_food",
      "cuisine": "american",
      "takeaway": "yes",
      "official_name": "The Honey Baked Ham Company",
      "addr_state": "VA",
      "addr_city": "Falls Church",
      "addr_postcode": "22046",
      "addr_street": "West Broad Street",
      "addr_housenumber": "360",
      "value": 263.94120311671185
    },
    {
      "id": 86015,
      "geometry": "POINT (-77.226649 38.86681)",
      "poi_name": "Papa John's",
      "osm_id": 1910893515,
      "amenity": "fast_food",
      "cuisine": "pizza",
      "opening_hours": "Mo-Su 10:00-24:00",
      "website": "https://locations.papajohns.com/united-states/va/22042/falls-church/8126-arlington-blvd",
      "phone": "+1 703-532-7272",
      "takeaway": "yes",
      "addr_state": "VA",
      "addr_city": "Falls Church",
      "addr_postcode": "22042",
      "addr_street": "Arlington Boulevard",
      "addr_housenumber": "8126",
      "value": 263.94120311671185
    },
    {
      "id": 90720,
      "geometry": "POINT (-77.453861 38.945394)",
      "poi_name": "Dunkin'",
      "osm_id": 2013543524,
      "amenity": "fast_food",
      "cuisine": "donut;coffee_shop",
      "wheelchair": "yes",
      "opening_hours": "06:00-23:00",
      "internet_access": "wlan",
      "takeaway": "yes",
      "outdoor_seating": "no",
      "addr_state": "VA",
      "addr_postcode": "20166",
      "addr_street": "Propeller Court",
      "value": 263.94120311671185
    },
    {
      "id": 90758,
      "geometry": "POINT (-77.04614 38.896174)",
      "poi_name": "Dunkin'",
      "osm_id": 2015788365,
      "amenity": "fast_food",
      "cuisine": "donut;coffee_shop",
      "wheelchair": "limited",
      "opening_hours": "Mo-Fr 06:00-14:00",
      "website": "https://locations.dunkindonuts.com/en/dc/washington/2025-e-st-nw/350574",
      "phone": "+1 202-303-8010",
      "takeaway": "yes",
      "drive_through": "no",
      "outdoor_seating": "no",
      "addr_state": "DC",
      "addr_city": "Washington",
      "addr_postcode": "20006",
      "addr_street": "E Street Northwest",
      "addr_housenumber": "2025",
      "value": 263.94120311671185
    },
    {
      "id": 92615,
      "geometry": "POINT (-77.234654 38.920704)",
      "poi_name": "Robeks",
      "osm_id": 2128168327,
      "amenity": "fast_food",
      "cuisine": "juice",
      "website": "https://robeks.com/",
      "phone": "+1 703-883-3886",
      "takeaway": "yes",
      "addr_state": "VA",
      "addr_city": "Vienna",
      "addr_postcode": "22182",
      "addr_street": "Leesburg Pike",
      "addr_housenumber": "8359",
      "value": 263.94120311671185
    },
    {
      "id": 94069,
      "geometry": "POINT (-77.447536 38.894224)",
      "poi_name": "Five Guys",
      "osm_id": 2203930031,
      "amenity": "fast_food",
      "cuisine": "burger",
      "takeaway": "yes",
      "official_name": "Five Guys Burgers and Fries",
      "addr_state": "VA",
      "addr_city": "Chantilly",
      "addr_postcode": "20151",
      "addr_street": "Chantilly Crossing Lane",
      "addr_housenumber": "14421",
      "value": 263.94120311671185
    },
    {
      "id": 94088,
      "geometry": "POINT (-77.443488 38.89748)",
      "poi_name": "Chipotle",
      "osm_id": 2205832172,
      "amenity": "fast_food",
      "cuisine": "mexican",
      "takeaway": "yes",
      "drive_through": "no",
      "official_name": "Chipotle Mexican Grill",
      "addr_state": "VA",
      "addr_city": "Chantilly",
      "addr_postcode": "20151",
      "addr_street": "Chantilly Crossing Lane",
      "addr_housenumber": "14416",
      "value": 263.94120311671185
    },
    {
      "id": 94091,
      "geometry": "POINT (-77.439189 38.837635)",
      "poi_name": "Firehouse Subs",
      "osm_id": 2205918274,
      "amenity": "fast_food",
      "cuisine": "sandwich",
      "opening_hours": "Mo-Su 10:30-21:00",
      "website": "https://www.firehousesubs.com/locations/va/centreville-square/",
      "phone": "+1-703-942-5200",
      "takeaway": "yes",
      "drive_through": "no",
      "addr_state": "VA",
      "addr_city": "Centreville",
      "addr_postcode": "20121",
      "addr_street": "Centreville Square",
      "addr_housenumber": "14245",
      "value": 263.94120311671185
    },
    {
      "id": 94286,
      "geometry": "POINT (-77.431515 38.835132)",
      "poi_name": "Burger King",
      "osm_id": 2222765085,
      "amenity": "fast_food",
      "cuisine": "burger",
      "website": "https://www.bk.com/store-locator/store/restaurant_7993",
      "internet_access": "no",
      "phone": "+1 703-988-0823",
      "takeaway": "yes",
      "drive_through": "yes",
      "delivery": "yes",
      "addr_state": "VA",
      "addr_city": "Centreville",
      "addr_postcode": "20121",
      "addr_street": "Old Centreville Road",
      "addr_housenumber": "5906",
      "value": 263.94120311671185
    },
    {
      "id": 95757,
      "geometry": "POINT (-77.071262 38.896676)",
      "poi_name": "Bethesda Bagels",
      "osm_id": 6410550102,
      "amenity": "fast_food",
      "opening_hours": "07:00-14:00",
      "website": "https://www.bethesdabagels.com",
      "addr_state": "VA",
      "addr_city": "Arlington",
      "addr_postcode": "22209",
      "addr_street": "North Moore Street",
      "addr_housenumber": "1851",
      "value": 263.94120311671185
    },
    {
      "id": 99797,
      "geometry": "POINT (-77.503905 38.992857)",
      "poi_name": "Domino's",
      "osm_id": 6565293258,
      "amenity": "fast_food",
      "cuisine": "pizza",
      "opening_hours": "Mo-Fr 10:00-00:00; Sa-Su 00:00-01:00,10:00-00:00",
      "website": "https://pizza.dominos.com/virginia/ashburn/22556-amendola-terr-180/",
      "phone": "+1 703-726-0330",
      "takeaway": "yes",
      "addr_state": "VA",
      "addr_city": "Ashburn",
      "addr_postcode": "20148",
      "value": 263.94120311671185
    },
    {
      "id": 102861,
      "geometry": "POINT (-77.534157 38.738467)",
      "poi_name": "Tropical Smoothie Cafe",
      "osm_id": 8462506306,
      "amenity": "fast_food",
      "cuisine": "juice",
      "takeaway": "yes",
      "addr_state": "VA",
      "addr_city": "Manassas",
      "addr_postcode": "20109",
      "addr_street": "Sowder Village Square",
      "addr_housenumber": "9971",
      "value": 263.94120311671185
    },
    {
      "id": 99746,
      "geometry": "POINT (-78.196102 39.119892)",
      "poi_name": "Subway",
      "osm_id": 6563913310,
      "amenity": "fast_food",
      "cuisine": "sandwich",
      "takeaway": "yes",
      "addr_state": "VA",
      "addr_city": "Winchester",
      "addr_postcode": "22602",
      "addr_street": "Kernstown Commons Boulevard",
      "addr_housenumber": "220",
      "value": 263.94120311671185
    },
    {
      "id": 100517,
      "geometry": "POINT (-77.368061 38.967028)",
      "poi_name": "Spice Town",
      "osm_id": 6590037785,
      "amenity": "fast_food",
      "cuisine": "american;kebab",
      "website": "https://www.spicetownrestaurant.com/",
      "phone": "+1 855-934-1313",
      "addr_state": "VA",
      "addr_postcode": "20170",
      "addr_street": "Elden Street",
      "addr_housenumber": "150 Suite 180",
      "value": 263.94120311671185
    },
    {
      "id": 106085,
      "geometry": "POINT (-77.314446 38.82544)",
      "poi_name": "The Halal Guys",
      "osm_id": 8663534571,
      "amenity": "fast_food",
      "cuisine": "chicken;falafel;gyros",
      "opening_hours": "Mo-Su 11:00-23:00",
      "website": "https://thehalalguys.com/locations/10625-braddock-rd-fairfax/",
      "phone": "+1 703-825-7370",
      "takeaway": "yes",
      "addr_state": "VA",
      "addr_city": "Fairfax",
      "addr_postcode": "22032",
      "addr_street": "Braddock Road",
      "addr_housenumber": "10625",
      "value": 263.94120311671185
    },
    {
      "id": 111321,
      "geometry": "POINT (-77.112478 38.879856)",
      "poi_name": "Which Wich?",
      "osm_id": 3741453885,
      "amenity": "fast_food",
      "cuisine": "sandwich",
      "wheelchair": "yes",
      "opening_hours": "Mo-Fr 08:00-21:00; Sa,Su 10:00-21:00",
      "website": "https://order.whichwich.com/menu/which-wich-ballston-point",
      "phone": "+1 703-566-0058",
      "takeaway": "yes",
      "drive_through": "no",
      "outdoor_seating": "yes",
      "addr_state": "VA",
      "addr_city": "Arlington",
      "addr_postcode": "22203",
      "addr_street": "North Wilson Boulevard",
      "addr_housenumber": "4300",
      "value": 263.94120311671185
    },
    {
      "id": 110580,
      "geometry": "POINT (-77.228341 38.879004)",
      "poi_name": "Dunkin'",
      "osm_id": 3709464204,
      "amenity": "fast_food",
      "cuisine": "donut;coffee_shop",
      "opening_hours": "Mo-Fr 05:00-18:00; Sa-Su 06:00-18:00",
      "website": "https://locations.dunkindonuts.com/en/va/vienna/2750-gallows-rd/350973",
      "phone": "+1 703-992-8522",
      "takeaway": "yes",
      "drive_through": "no",
      "addr_state": "VA",
      "addr_city": "Vienna",
      "addr_postcode": "22180",
      "addr_street": "Gallows Road",
      "addr_housenumber": "2750",
      "value": 263.94120311671185
    },
    {
      "id": 109217,
      "geometry": "POINT (-77.108586 38.880131)",
      "poi_name": "Sweetgreen",
      "osm_id": 3654956600,
      "amenity": "fast_food",
      "cuisine": "salad",
      "wheelchair": "yes",
      "opening_hours": "Mo-Su 10:30-22:00",
      "website": "https://order.sweetgreen.com/ballston/menu",
      "phone": "+1-703-522-2016",
      "takeaway": "yes",
      "addr_state": "VA",
      "addr_city": "Arlington",
      "addr_postcode": "22203",
      "addr_street": "Wilson Boulevard",
      "addr_housenumber": "4075",
      "value": 263.94120311671185
    },
    {
      "id": 110972,
      "geometry": "POINT (-77.106417 38.873354)",
      "poi_name": "Popeyes",
      "osm_id": 3725532393,
      "amenity": "fast_food",
      "cuisine": "chicken",
      "wheelchair": "yes",
      "opening_hours": "Mo-Su 10:00-23:00",
      "website": "https://locations.popeyes.com/va/arlington/3552/",
      "phone": "+1 703-516-9336",
      "takeaway": "yes",
      "official_name": "Popeyes Louisiana Kitchen",
      "addr_state": "VA",
      "addr_street": "North Pershing Drive",
      "addr_housenumber": "4241",
      "value": 263.94120311671185
    },
    {
      "id": 111214,
      "geometry": "POINT (-77.117053 38.867919)",
      "poi_name": "Brick's Pizza",
      "osm_id": 3736078525,
      "amenity": "fast_food",
      "cuisine": "pizza",
      "wheelchair": "yes",
      "opening_hours": "Mo-Th 11:00-00:00; Fr, Sa 11:00-01:00; Su 11:00-23:00",
      "website": "https://www.brickspizzaarlington.com/",
      "phone": "+1 703-243-6600",
      "takeaway": "only",
      "drive_through": "no",
      "outdoor_seating": "no",
      "delivery": "yes",
      "addr_state": "VA",
      "addr_city": "Arlington",
      "addr_postcode": "22203",
      "addr_street": "1st Street North",
      "addr_housenumber": "4809",
      "value": 263.94120311671185
    },
    {
      "id": 112942,
      "geometry": "POINT (-77.361591 38.936271)",
      "poi_name": "Jersey Mike's Subs",
      "osm_id": 3811317895,
      "amenity": "fast_food",
      "cuisine": "sandwich",
      "opening_hours": "Mo-Su 10:00-21:00",
      "website": "https://www.jerseymikes.com/",
      "phone": "+1 571-313-8910",
      "takeaway": "yes",
      "drive_through": "no",
      "addr_state": "VA",
      "addr_city": "Reston",
      "addr_postcode": "20191",
      "addr_street": "Hunters Woods Plaza",
      "addr_housenumber": "2254",
      "value": 263.94120311671185
    },
    {
      "id": 112690,
      "geometry": "POINT (-77.458254 38.763172)",
      "poi_name": "Domino's",
      "osm_id": 3801583734,
      "amenity": "fast_food",
      "cuisine": "pizza",
      "opening_hours": "Mo-Fr 10:00-00:00; Sa-Su 00:00-01:00,10:00-00:00",
      "website": "https://pizza.dominos.com/virginia/manassas/8813-centreville-rd/",
      "phone": "+1 703-369-7733",
      "takeaway": "yes",
      "addr_state": "VA",
      "addr_city": "Manassas",
      "addr_postcode": "20110",
      "addr_street": "Centreville Road",
      "addr_housenumber": "8813",
      "value": 263.94120311671185
    },
    {
      "id": 111447,
      "geometry": "POINT (-77.452569 38.740066)",
      "poi_name": "Smoothie King",
      "osm_id": 3748142414,
      "amenity": "fast_food",
      "cuisine": "juice",
      "takeaway": "yes",
      "addr_city": "Manassas",
      "addr_postcode": "20110",
      "addr_street": "Market Circle Drive",
      "addr_housenumber": "10048",
      "value": 263.94120311671185
    },
    {
      "id": 111608,
      "geometry": "POINT (-77.122876 38.896126)",
      "poi_name": "Papa John's",
      "osm_id": 3756725220,
      "amenity": "fast_food",
      "cuisine": "pizza",
      "opening_hours": "Mo-Th 10:00-22:00; Fr-Sa 10:00-23:00; Su 10:00-22:00",
      "operator": "Pappa Johns",
      "website": "https://locations.papajohns.com/united-states/va/22207-2219/arlington/2108-north-glebe-road",
      "phone": "+1 703-522-3737",
      "takeaway": "yes",
      "drive_through": "no",
      "delivery": "yes",
      "addr_state": "VA",
      "addr_city": "Arlington",
      "addr_postcode": "22207-2219",
      "addr_street": "North Glebe Road",
      "addr_housenumber": "2108",
      "value": 263.94120311671185
    },
    {
      "id": 113858,
      "geometry": "POINT (-77.520895 38.925088)",
      "poi_name": "Subway",
      "osm_id": 3852071828,
      "amenity": "fast_food",
      "cuisine": "sandwich",
      "opening_hours": "Mo-Su 08:00-21:00",
      "website": "https://restaurants.subway.com/united-states/va/south-riding/25050-riding-plaza",
      "phone": "+1 703-542-8384",
      "takeaway": "yes",
      "addr_state": "VA",
      "addr_postcode": "20152",
      "value": 263.94120311671185
    },
    {
      "id": 114633,
      "geometry": "POINT (-77.348842 38.951574)",
      "poi_name": "Penn Station",
      "osm_id": 3889737731,
      "amenity": "fast_food",
      "cuisine": "sandwich",
      "takeaway": "yes",
      "addr_state": "VA",
      "addr_city": "Reston",
      "addr_postcode": "20190",
      "addr_street": "Plaza America Drive",
      "addr_housenumber": "11652",
      "value": 263.94120311671185
    },
    {
      "id": 114634,
      "geometry": "POINT (-77.349336 38.952902)",
      "poi_name": "Zo\u00ebs Kitchen",
      "osm_id": 3889743688,
      "amenity": "fast_food",
      "cuisine": "mediterranean",
      "opening_hours": "Mo-Su 10:00-21:00",
      "takeaway": "yes",
      "addr_state": "VA",
      "addr_city": "Reston",
      "addr_postcode": "20190",
      "addr_street": "Plaza America Drive",
      "addr_housenumber": "11690",
      "value": 263.94120311671185
    },
    {
      "id": 114371,
      "geometry": "POINT (-77.372235 38.967507)",
      "poi_name": "Duck Donuts",
      "osm_id": 3880247292,
      "amenity": "fast_food",
      "cuisine": "donut",
      "opening_hours": "07:00-19:00",
      "website": "https://www.duckdonuts.com/herndon/",
      "phone": "(703) 707-8496",
      "takeaway": "yes",
      "addr_state": "VA",
      "addr_city": "Herndon",
      "addr_postcode": "20170",
      "addr_street": "Elden Street",
      "addr_housenumber": "300 A",
      "value": 263.94120311671185
    },
    {
      "id": 123265,
      "geometry": "POINT (-77.27349 38.842842)",
      "poi_name": "Flippin' Pizza",
      "osm_id": 6845270021,
      "amenity": "fast_food",
      "cuisine": "pizza",
      "takeaway": "yes",
      "addr_state": "VA",
      "addr_city": "Fairfax",
      "addr_postcode": "22031",
      "addr_street": "Main Street",
      "addr_housenumber": "9548",
      "value": 263.94120311671185
    },
    {
      "id": 116009,
      "geometry": "POINT (-77.346048 38.930749)",
      "poi_name": "Domino's",
      "osm_id": 8923237671,
      "amenity": "fast_food",
      "cuisine": "pizza",
      "opening_hours": "Mo-Fr 10:00-00:00; Sa-Su 00:00-01:00,10:00-00:00",
      "website": "https://pizza.dominos.com/virginia/reston/2303-soapstone-dr/",
      "phone": "+1 703-860-4900",
      "takeaway": "yes",
      "addr_state": "VA",
      "addr_city": "Reston",
      "addr_postcode": "20191",
      "addr_street": "Soapstone Drive",
      "addr_housenumber": "2303",
      "value": 263.94120311671185
    },
    {
      "id": 117902,
      "geometry": "POINT (-77.273611 38.796138)",
      "poi_name": "Papa John's",
      "osm_id": 9015805544,
      "amenity": "fast_food",
      "cuisine": "pizza",
      "opening_hours": "Mo-Th 10:00-23:00; Fr-Sa 10:00-24:00; Su 10:00-23:00",
      "website": "https://locations.papajohns.com/united-states/va/22015/burke/9570b-burke-rd",
      "phone": "+1 703-978-7272",
      "takeaway": "yes",
      "addr_state": "VA",
      "addr_city": "Burke",
      "addr_postcode": "22015",
      "addr_street": "Burke Road",
      "addr_housenumber": "9570",
      "value": 263.94120311671185
    },
    {
      "id": 122130,
      "geometry": "POINT (-78.194378 38.926086)",
      "poi_name": "Subway",
      "osm_id": 6789370064,
      "amenity": "fast_food",
      "cuisine": "sandwich",
      "opening_hours": "Mo-Su 08:00-21:00",
      "website": "https://restaurants.subway.com/united-states/va/front-royal/530-n-royal-ave",
      "phone": "+1 540-635-4400",
      "takeaway": "yes",
      "addr_state": "VA",
      "addr_city": "Front Royal",
      "addr_postcode": "22630",
      "addr_street": "North Royal Avenue",
      "addr_housenumber": "530",
      "value": 263.94120311671185
    },
    {
      "id": 125823,
      "geometry": "POINT (-77.651219 38.785215)",
      "poi_name": "Jersey Mike's Subs",
      "osm_id": 6978025016,
      "amenity": "fast_food",
      "cuisine": "sandwich",
      "opening_hours": "Mo-Su 10:00-21:00",
      "website": "https://www.jerseymikes.com/6045/gainesville-va",
      "phone": "+1 703-743-2721",
      "takeaway": "yes",
      "addr_state": "VA",
      "addr_city": "Gainesville",
      "addr_postcode": "20155-3891",
      "addr_street": "Stonewall Shops Square",
      "addr_housenumber": "8136",
      "value": 263.94120311671185
    },
    {
      "id": 125824,
      "geometry": "POINT (-77.649353 38.784442)",
      "poi_name": "Tropical Smoothie Cafe",
      "osm_id": 6978025037,
      "amenity": "fast_food",
      "cuisine": "juice",
      "takeaway": "yes",
      "addr_state": "VA",
      "addr_city": "Gainesville",
      "addr_postcode": "20155",
      "addr_street": "Stonewall Shops Square",
      "addr_housenumber": "8069",
      "value": 263.94120311671185
    },
    {
      "id": 127319,
      "geometry": "POINT (-77.360735 38.958857)",
      "poi_name": "PokeHub",
      "osm_id": 8051610260,
      "amenity": "fast_food",
      "cuisine": "hawaiian",
      "opening_hours": "Mo-Su 11:30-20:00",
      "drive_through": "no",
      "addr_state": "VA",
      "addr_city": "Reston",
      "addr_postcode": "20190",
      "addr_street": "Market Street",
      "addr_housenumber": "11990",
      "value": 263.94120311671185
    },
    {
      "id": 128148,
      "geometry": "POINT (-77.490382 38.754197)",
      "poi_name": "Sam and Joe's Pizza and Subs",
      "osm_id": 8124637235,
      "amenity": "fast_food",
      "cuisine": "pizza",
      "addr_state": "VA",
      "addr_city": "Manasas",
      "addr_postcode": "20110",
      "addr_street": "Center Street",
      "addr_housenumber": "9784",
      "value": 263.94120311671185
    },
    {
      "id": 138512,
      "geometry": "POINT (-77.172803 38.880136)",
      "poi_name": "Subway",
      "osm_id": 6152827616,
      "amenity": "fast_food",
      "cuisine": "sandwich",
      "opening_hours": "Mo-Fr 07:00-20:30; Sa 08:00-20:00; Su 08:30-20:00",
      "website": "https://restaurants.subway.com/united-states/va/falls-church/121-e-annandale-road",
      "phone": "+1 703-942-5735",
      "takeaway": "yes",
      "addr_state": "VA",
      "addr_city": "Falls Church",
      "addr_postcode": "22046",
      "addr_street": "East Annandale Road",
      "addr_housenumber": "121",
      "value": 263.94120311671185
    },
    {
      "id": 131406,
      "geometry": "POINT (-77.229965 38.872579)",
      "poi_name": "Playa Bowls",
      "osm_id": 9914745478,
      "amenity": "fast_food",
      "cuisine": "a\u00e7a\u00ed",
      "opening_hours": "Mo-Su 08:00-20:00",
      "operator": "Playa Bowls",
      "website": "https://www.playabowls.com/location/fairfax/",
      "phone": "+1 703-854-1688",
      "takeaway": "yes",
      "drive_through": "no",
      "addr_state": "VA",
      "addr_city": "Fairfax",
      "addr_postcode": "22031",
      "addr_street": "District Avenue",
      "addr_housenumber": "2910",
      "value": 263.94120311671185
    },
    {
      "id": 137795,
      "geometry": "POINT (-77.526653 38.738797)",
      "poi_name": "Lorena's Deli",
      "osm_id": 6114084086,
      "amenity": "fast_food",
      "addr_state": "VA",
      "addr_city": "Manassas",
      "addr_postcode": "20110",
      "addr_street": "Nokesville Road",
      "addr_housenumber": "10997",
      "value": 263.94120311671185
    },
    {
      "id": 138103,
      "geometry": "POINT (-77.172798 38.880273)",
      "poi_name": "Dunkin'",
      "osm_id": 6129553174,
      "amenity": "fast_food",
      "cuisine": "donut;coffee_shop",
      "opening_hours": "Mo-Su 05:00-19:00",
      "website": "https://locations.dunkindonuts.com/en/va/falls-church/101-e-annandale-rd/350773",
      "phone": "+1 703-942-5830",
      "takeaway": "yes",
      "drive_through": "no",
      "addr_state": "VA",
      "addr_city": "Falls Church",
      "addr_postcode": "22046",
      "addr_street": "East Annandale Road",
      "addr_housenumber": "101",
      "value": 263.94120311671185
    },
    {
      "id": 130891,
      "geometry": "POINT (-77.407772 38.908899)",
      "poi_name": "Tropical Smoothie Cafe",
      "osm_id": 9893939537,
      "amenity": "fast_food",
      "cuisine": "juice",
      "takeaway": "yes",
      "addr_state": "VA",
      "addr_city": "Herndon",
      "addr_postcode": "20171",
      "addr_street": "Franklin Farm Road",
      "addr_housenumber": "13340",
      "value": 263.94120311671185
    },
    {
      "id": 132548,
      "geometry": "POINT (-77.80168 38.727088)",
      "poi_name": "Papa John's",
      "osm_id": 9958273897,
      "amenity": "fast_food",
      "cuisine": "pizza",
      "opening_hours": "Mo-Th 10:00-23:00; Fr-Sa 10:00-24:00; Su 10:00-23:00",
      "website": "https://locations.papajohns.com/united-states/va/20186-2428/warrenton/326-w-lee-hiway",
      "phone": "+1 540-349-7172",
      "takeaway": "yes",
      "addr_state": "VA",
      "addr_city": "Warrenton",
      "addr_postcode": "20186-2428",
      "addr_street": "W. Lee Hiway",
      "addr_housenumber": "326",
      "value": 263.94120311671185
    },
    {
      "id": 133157,
      "geometry": "POINT (-77.094392 38.887418)",
      "poi_name": "Chipotle",
      "osm_id": 9982205114,
      "amenity": "fast_food",
      "cuisine": "mexican",
      "opening_hours": "Mo-Su 10:45-22:00",
      "takeaway": "yes",
      "official_name": "Chipotle Mexican Grill",
      "addr_state": "VA",
      "addr_city": "Arlington",
      "addr_postcode": "22201",
      "addr_street": "Clarendon Boulevard",
      "addr_housenumber": "3017",
      "value": 263.94120311671185
    },
    {
      "id": 134975,
      "geometry": "POINT (-77.521847 38.925766)",
      "poi_name": "China Wok",
      "osm_id": 11498737302,
      "amenity": "fast_food",
      "cuisine": "chinese",
      "website": "http://chinawokchantillyva.com/",
      "phone": "+17035427088",
      "takeaway": "yes",
      "addr_state": "VA",
      "addr_city": "Chantilly",
      "addr_postcode": "20152",
      "addr_street": "Riding Plaza",
      "addr_housenumber": "25031",
      "value": 263.94120311671185
    },
    {
      "id": 134976,
      "geometry": "POINT (-77.521919 38.92613)",
      "poi_name": "Foster's Grille",
      "osm_id": 11498737303,
      "amenity": "fast_food",
      "cuisine": "burger",
      "website": "https://www.fostersgrille.com/store/south-riding/",
      "phone": "+17039573284",
      "addr_state": "VA",
      "addr_city": "Chantilly",
      "addr_postcode": "20152",
      "addr_street": "Riding Plaza",
      "addr_housenumber": "24995",
      "value": 263.94120311671185
    },
    {
      "id": 139948,
      "geometry": "POINT (-77.355724 38.960597)",
      "poi_name": "Robeks",
      "osm_id": 6223320799,
      "amenity": "fast_food",
      "cuisine": "juice",
      "takeaway": "yes",
      "delivery": "no",
      "addr_state": "VA",
      "addr_city": "Reston",
      "addr_postcode": "20190",
      "addr_street": "Fountain Drive",
      "addr_housenumber": "1835",
      "value": 263.94120311671185
    },
    {
      "id": 138657,
      "geometry": "POINT (-77.517822 38.781953)",
      "poi_name": "Iron Bowl Grill",
      "osm_id": 6161823576,
      "amenity": "fast_food",
      "cuisine": "american",
      "phone": "+1 571-361-4547",
      "drive_through": "no",
      "addr_state": "VA",
      "addr_city": "Manassas",
      "addr_postcode": "20109",
      "addr_street": "Ashton Avenue",
      "addr_housenumber": "8130",
      "value": 263.94120311671185
    },
    {
      "id": 138672,
      "geometry": "POINT (-77.411734 38.948906)",
      "poi_name": "Firehouse Subs",
      "osm_id": 6162739146,
      "amenity": "fast_food",
      "cuisine": "sandwich",
      "opening_hours": "Mo-Su 10:30-21:00",
      "phone": "+1-703-376-8000",
      "takeaway": "yes",
      "drive_through": "no",
      "addr_state": "VA",
      "addr_city": "Herndon",
      "addr_postcode": "20171",
      "addr_street": "Centreville Road",
      "addr_housenumber": "2545",
      "value": 263.94120311671185
    },
    {
      "id": 138883,
      "geometry": "POINT (-77.359566 38.957792)",
      "poi_name": "Mason's Famous Lobster Rolls",
      "osm_id": 6173255291,
      "amenity": "fast_food",
      "cuisine": "seafood",
      "phone": "+1 571-926-8610",
      "addr_state": "VA",
      "addr_postcode": "20190",
      "addr_street": "Democracy Drive",
      "addr_housenumber": "11939",
      "value": 263.94120311671185
    },
    {
      "id": 139290,
      "geometry": "POINT (-77.192165 38.894964)",
      "poi_name": "Jimmy John's",
      "osm_id": 6190898753,
      "amenity": "fast_food",
      "cuisine": "sandwich",
      "takeaway": "yes",
      "official_name": "Jimmy John's Gourmet Sandwiches",
      "addr_state": "VA",
      "addr_city": "Falls Church",
      "addr_postcode": "22043",
      "addr_street": "Leesburg Pike",
      "addr_housenumber": "7121",
      "value": 263.94120311671185
    },
    {
      "id": 140978,
      "geometry": "POINT (-77.157154 38.899458)",
      "poi_name": "Haute Dog",
      "osm_id": 6268916301,
      "amenity": "fast_food",
      "cuisine": "hot_dog",
      "opening_hours": "Mo-Sa 11:00-21:00; Su 11:00-17:00",
      "website": "https://www.hautedogsandfries.com/arlington-va",
      "addr_city": "Arlington",
      "addr_postcode": "22207",
      "addr_street": "North Sycamore Street",
      "addr_housenumber": "2910",
      "value": 263.94120311671185
    },
    {
      "id": 140979,
      "geometry": "POINT (-77.157396 38.89928)",
      "poi_name": "Deli Italiano",
      "osm_id": 6268917001,
      "amenity": "fast_food",
      "cuisine": "italian;pizza;sandwich",
      "opening_hours": "Fr-Sa 11:00-22:00; Su-Th 11:00-21:00",
      "website": "https://deliitaliano.com/locations/arlington/",
      "phone": "+1 703-300-9578",
      "takeaway": "yes",
      "drive_through": "no",
      "delivery": "yes",
      "addr_state": "VA",
      "addr_city": "Arlington",
      "addr_street": "29th Street North",
      "addr_housenumber": "6505",
      "value": 263.94120311671185
    },
    {
      "id": 142065,
      "geometry": "POINT (-77.107968 38.878105)",
      "poi_name": "Domino's",
      "osm_id": 6302244867,
      "amenity": "fast_food",
      "cuisine": "pizza",
      "wheelchair": "yes",
      "opening_hours": "Mo-Fr 10:00-00:00; Sa-Su 00:00-01:00,10:00-00:00",
      "website": "https://pizza.dominos.com/virginia/arlington/550-north-quincy-st/",
      "phone": "+1 703-276-1400",
      "takeaway": "yes",
      "addr_state": "VA",
      "addr_city": "Arlington",
      "addr_postcode": "22203",
      "addr_street": "North Quincy Street",
      "addr_housenumber": "550",
      "value": 263.94120311671185
    },
    {
      "id": 142076,
      "geometry": "POINT (-77.319086 38.799682)",
      "poi_name": "Subway",
      "osm_id": 6302434582,
      "amenity": "fast_food",
      "cuisine": "sandwich",
      "opening_hours": "Mo-Th 08:30-21:30; Fr 08:30-21:00; Sa-Su 08:30-21:30",
      "website": "https://restaurants.subway.com/united-states/va/burke/5765-burke-ctr-pky",
      "phone": "+1 703-250-3355",
      "takeaway": "yes",
      "addr_state": "VA",
      "addr_postcode": "22015",
      "addr_street": "Burke Center Parkway",
      "addr_housenumber": "5765",
      "value": 263.94120311671185
    },
    {
      "id": 143286,
      "geometry": "POINT (-77.550058 38.940159)",
      "poi_name": "Subway",
      "osm_id": 6334787655,
      "amenity": "fast_food",
      "cuisine": "sandwich",
      "opening_hours": "Mo-Su 08:00-21:00",
      "website": "https://restaurants.subway.com/united-states/va/stone-ridge/42010-village-center-plaza",
      "phone": "+1 703-542-8090",
      "takeaway": "yes",
      "addr_state": "VA",
      "addr_postcode": "20105",
      "value": 263.94120311671185
    },
    {
      "id": 144533,
      "geometry": "POINT (-77.22688 38.917429)",
      "poi_name": "Domino's",
      "osm_id": 7273080506,
      "amenity": "fast_food",
      "cuisine": "pizza",
      "opening_hours": "Mo-Fr 10:00-00:00; Sa-Su 00:00-01:00,10:00-00:00",
      "website": "https://pizza.dominos.com/virginia/mclean/8133-watson-st/",
      "phone": "+1 703-873-7333",
      "takeaway": "yes",
      "addr_state": "VA",
      "addr_city": "Tysons",
      "addr_street": "Watson Street",
      "addr_housenumber": "8133",
      "value": 263.94120311671185
    },
    {
      "id": 143542,
      "geometry": "POINT (-77.186997 38.89343)",
      "poi_name": "Domino's",
      "osm_id": 6343945766,
      "amenity": "fast_food",
      "cuisine": "pizza",
      "opening_hours": "Mo-Fr 10:00-00:00; Sa-Su 00:00-01:00,10:00-00:00",
      "website": "https://pizza.dominos.com/virginia/falls-church/1106-w-broad-st/",
      "phone": "+1 703-532-3030",
      "takeaway": "yes",
      "addr_state": "VA",
      "addr_city": "Falls Church",
      "addr_postcode": "22046",
      "addr_street": "w. Broad Street",
      "addr_housenumber": "1106",
      "value": 263.94120311671185
    },
    {
      "id": 143353,
      "geometry": "POINT (-77.270671 38.842643)",
      "poi_name": "Subway",
      "osm_id": 6338160118,
      "amenity": "fast_food",
      "cuisine": "sandwich",
      "phone": "+1 703 261-6983",
      "takeaway": "yes",
      "drive_through": "no",
      "addr_state": "VA",
      "addr_postcode": "22031",
      "addr_street": "Main Street",
      "addr_housenumber": "9476",
      "value": 263.94120311671185
    },
    {
      "id": 143792,
      "geometry": "POINT (-77.111005 38.878914)",
      "poi_name": "Chick-fil-A",
      "osm_id": 6351130223,
      "amenity": "fast_food",
      "cuisine": "chicken",
      "wheelchair": "yes",
      "opening_hours": "Mo-Sa 07:00-21:00",
      "website": "https://www.chick-fil-a.com/locations/va/ballston-quarter",
      "phone": "+1 571-992-0025",
      "takeaway": "yes",
      "drive_through": "no",
      "delivery": "yes",
      "addr_state": "VA",
      "addr_city": "Arlington",
      "addr_postcode": "22203",
      "value": 263.94120311671185
    },
    {
      "id": 147584,
      "geometry": "POINT (-77.145942 38.869193)",
      "poi_name": "Domino's",
      "osm_id": 7546730012,
      "amenity": "fast_food",
      "cuisine": "pizza",
      "opening_hours": "Mo-Fr 10:00-00:00; Sa-Su 00:00-01:00,10:00-00:00",
      "website": "https://pizza.dominos.com/virginia/falls-church/6138-arlington-blvd-c/",
      "phone": "+1 703-533-9000",
      "takeaway": "yes",
      "drive_through": "no",
      "delivery": "yes",
      "addr_state": "VA",
      "addr_city": "Falls Church",
      "addr_postcode": "22044",
      "addr_street": "Arlington Boulevard",
      "addr_housenumber": "6138",
      "value": 263.94120311671185
    },
    {
      "id": 148623,
      "geometry": "POINT (-77.606511 38.787514)",
      "poi_name": "Smashburger",
      "osm_id": 3968460363,
      "amenity": "fast_food",
      "cuisine": "burger",
      "wheelchair": "yes",
      "opening_hours": "Su-Th 10:30-21:30; Fr-Sa 10:30-22:00",
      "website": "https://smashburger.com/locations/us/va/gainesville/14082-promenade-commons-street/",
      "phone": "+1 703-743-7060",
      "takeaway": "yes",
      "drive_through": "no",
      "addr_state": "VA",
      "addr_city": "Gainesville",
      "addr_postcode": "20155",
      "addr_street": "Promenade Commons Street",
      "addr_housenumber": "14082",
      "value": 263.94120311671185
    },
    {
      "id": 151126,
      "geometry": "POINT (-78.083484 39.081591)",
      "poi_name": "Subway",
      "osm_id": 4082779257,
      "amenity": "fast_food",
      "cuisine": "sandwich",
      "wheelchair": "yes",
      "takeaway": "yes",
      "addr_state": "VA",
      "addr_city": "Boyce",
      "addr_postcode": "22620",
      "addr_street": "John Mosby Highway",
      "addr_housenumber": "8153",
      "value": 263.94120311671185
    },
    {
      "id": 154167,
      "geometry": "POINT (-77.609433 38.796083)",
      "poi_name": "Qdoba",
      "osm_id": 4226819097,
      "amenity": "fast_food",
      "cuisine": "mexican",
      "opening_hours": "Mo-Th 11:00-20:00; Fr-Sa 11:00-22:00; Su 11:00-20:00",
      "website": "https://locations.qdoba.com/us/va/gainesville/7376-atlas-walk-way.html",
      "phone": "+1 571-248-4191",
      "takeaway": "yes",
      "official_name": "Qdoba Mexican Grill",
      "addr_state": "VA",
      "addr_city": "Gainesville",
      "addr_postcode": "20155",
      "addr_street": "Atlas Walk Way",
      "addr_housenumber": "7376",
      "value": 263.94120311671185
    },
    {
      "id": 148624,
      "geometry": "POINT (-77.607067 38.789216)",
      "poi_name": "MOD Pizza",
      "osm_id": 3968475528,
      "amenity": "fast_food",
      "cuisine": "pizza",
      "opening_hours": "Su-Th 10:30-22:00; Fr,Sa 10:30-23:00",
      "website": "https://modpizza.com/locations/gainesville/",
      "phone": "+1 571-222-2088",
      "takeaway": "yes",
      "delivery": "yes",
      "addr_state": "VA",
      "addr_city": "Gainesville",
      "addr_postcode": "20155",
      "addr_street": "Promenade Commons Street",
      "addr_housenumber": "13941",
      "value": 263.94120311671185
    },
    {
      "id": 153520,
      "geometry": "POINT (-77.139565 38.897698)",
      "poi_name": "Duck Donuts",
      "osm_id": 4200509250,
      "amenity": "fast_food",
      "cuisine": "donut",
      "opening_hours": "Tu-Fr 06:00-19:00; Sa-Mo 07:00-19:00",
      "website": "https://www.duckdonuts.com/arlington/",
      "phone": "+1-703-300-9174",
      "takeaway": "yes",
      "drive_through": "no",
      "addr_state": "VA",
      "addr_city": "Arlington",
      "addr_postcode": "22207",
      "addr_street": "North Harrison Street",
      "addr_housenumber": "2511",
      "value": 263.94120311671185
    },
    {
      "id": 154778,
      "geometry": "POINT (-77.231564 38.881134)",
      "poi_name": "District Taco",
      "osm_id": 4254699881,
      "amenity": "fast_food",
      "cuisine": "mexican",
      "wheelchair": "yes",
      "website": "https://www.districttaco.com/",
      "phone": "+1-571-325-0860",
      "takeaway": "yes",
      "outdoor_seating": "yes",
      "addr_state": "VA",
      "addr_city": "Vienna",
      "addr_postcode": "22180",
      "addr_street": "Avenir Place",
      "addr_housenumber": "2676",
      "value": 263.94120311671185
    },
    {
      "id": 157201,
      "geometry": "POINT (-77.398533 38.880849)",
      "poi_name": "MOD Pizza",
      "osm_id": 4692944036,
      "amenity": "fast_food",
      "cuisine": "pizza",
      "website": "https://modpizza.com/",
      "phone": "+1 703-679-1825",
      "takeaway": "yes",
      "drive_through": "no",
      "outdoor_seating": "no",
      "addr_state": "VA",
      "addr_city": "Chantilly",
      "addr_postcode": "20151",
      "addr_street": "Route 50",
      "addr_housenumber": "13061",
      "value": 263.94120311671185
    },
    {
      "id": 156876,
      "geometry": "POINT (-77.049573 38.897189)",
      "poi_name": "&pizza",
      "osm_id": 4675755558,
      "amenity": "fast_food",
      "cuisine": "pizza",
      "takeaway": "yes",
      "addr_state": "DC",
      "addr_city": "Washington",
      "addr_postcode": "20037",
      "addr_street": "F Street Northwest",
      "addr_housenumber": "2224",
      "value": 263.94120311671185
    },
    {
      "id": 157302,
      "geometry": "POINT (-77.291894 38.844081)",
      "poi_name": "Dunkin'",
      "osm_id": 4700409587,
      "amenity": "fast_food",
      "cuisine": "donut;coffee_shop",
      "opening_hours": "Mo-Su 05:00-18:00",
      "website": "https://locations.dunkindonuts.com/en/va/fairfax/10020-main-st/350656",
      "phone": "+1 703-537-0851",
      "takeaway": "yes",
      "drive_through": "no",
      "outdoor_seating": "yes",
      "addr_state": "VA",
      "addr_city": "Fairfax",
      "addr_postcode": "22031",
      "addr_street": "Main Street",
      "addr_housenumber": "10020",
      "value": 263.94120311671185
    },
    {
      "id": 160268,
      "geometry": "POINT (-77.154088 38.874399)",
      "poi_name": "Ch\u1ea3 Ph\u00fa H\u01b0ng",
      "osm_id": 4828125254,
      "amenity": "fast_food",
      "cuisine": "vietnamese",
      "addr_state": "VA",
      "addr_city": "Falls Church",
      "addr_postcode": "22044",
      "addr_street": "Wilson Boulevard",
      "value": 263.94120311671185
    },
    {
      "id": 157676,
      "geometry": "POINT (-77.322424 38.852448)",
      "poi_name": "Zo\u00ebs Kitchen",
      "osm_id": 4719380573,
      "amenity": "fast_food",
      "cuisine": "mediterranean",
      "website": "https://zoeskitchen.com/",
      "takeaway": "yes",
      "drive_through": "no",
      "addr_state": "VA",
      "addr_city": "Fairfax",
      "addr_postcode": "22030",
      "addr_street": "Fairfax Boulevard",
      "addr_housenumber": "10955",
      "value": 263.94120311671185
    },
    {
      "id": 160008,
      "geometry": "POINT (-77.155246 38.874016)",
      "poi_name": "Pandan",
      "osm_id": 4813038173,
      "amenity": "fast_food",
      "cuisine": "smoothie",
      "addr_state": "VA",
      "addr_city": "Falls Church",
      "addr_postcode": "22044",
      "addr_street": "Wilson Boulevard",
      "value": 263.94120311671185
    },
    {
      "id": 160012,
      "geometry": "POINT (-77.155052 38.87341)",
      "poi_name": "Thanh S\u01a1n Tofu",
      "osm_id": 4813038187,
      "amenity": "fast_food",
      "cuisine": "vietnamese",
      "addr_state": "VA",
      "addr_city": "Falls Church",
      "addr_postcode": "22044",
      "addr_street": "Wilson Boulevard",
      "value": 263.94120311671185
    },
    {
      "id": 160046,
      "geometry": "POINT (-77.153918 38.87307)",
      "poi_name": "B\u00e1nh m\u00ec s\u1ed1 1",
      "osm_id": 4814869459,
      "amenity": "fast_food",
      "cuisine": "sandwich",
      "addr_state": "VA",
      "addr_city": "Falls Church",
      "addr_postcode": "22044",
      "addr_street": "Wilson Boulevard",
      "value": 263.94120311671185
    },
    {
      "id": 160047,
      "geometry": "POINT (-77.153849 38.873083)",
      "poi_name": "Ch\u1ea3 L\u1ee5a Ng\u1ecdc H\u01b0ng",
      "osm_id": 4814869460,
      "amenity": "fast_food",
      "cuisine": "vietnamese",
      "addr_state": "VA",
      "addr_city": "Falls Church",
      "addr_postcode": "22044",
      "addr_street": "Wilson Boulevard",
      "value": 263.94120311671185
    },
    {
      "id": 160212,
      "geometry": "POINT (-77.475123 38.732669)",
      "poi_name": "Domino's",
      "osm_id": 4827009372,
      "amenity": "fast_food",
      "cuisine": "pizza",
      "opening_hours": "Mo-Fr 10:00-00:00; Sa-Su 00:00-01:00,10:00-00:00",
      "website": "https://pizza.dominos.com/virginia/manassas/10175-hastings-dr/",
      "phone": "+1 703-330-8000",
      "takeaway": "yes",
      "addr_state": "VA",
      "addr_city": "Manassas",
      "addr_postcode": "20110",
      "addr_street": "Hastings Drive",
      "addr_housenumber": "10175",
      "value": 263.94120311671185
    },
    {
      "id": 160215,
      "geometry": "POINT (-77.516733 38.785305)",
      "poi_name": "Panda Express",
      "osm_id": 4827101430,
      "amenity": "fast_food",
      "cuisine": "chinese",
      "takeaway": "yes",
      "addr_state": "VA",
      "addr_city": "Manassas",
      "addr_postcode": "20109",
      "addr_street": "Sudley Manor Drive",
      "addr_housenumber": "10689",
      "value": 263.94120311671185
    },
    {
      "id": 160273,
      "geometry": "POINT (-77.153983 38.87448)",
      "poi_name": "Le Mirage",
      "osm_id": 4828125265,
      "amenity": "fast_food",
      "cuisine": "vietnamese",
      "addr_state": "VA",
      "addr_city": "Falls Church",
      "addr_postcode": "22044",
      "addr_street": "Wilson Boulevard",
      "value": 263.94120311671185
    },
    {
      "id": 169081,
      "geometry": "POINT (-77.228752 38.872396)",
      "poi_name": "Sweetgreen",
      "osm_id": 2294778222,
      "amenity": "fast_food",
      "cuisine": "salad",
      "opening_hours": "Mo-Su 10:30-22:00",
      "website": "https://order.sweetgreen.com/mosaic/menu",
      "phone": "+1 703-992-7892",
      "takeaway": "yes",
      "drive_through": "no",
      "addr_state": "VA",
      "addr_city": "Fairfax",
      "addr_postcode": "22031",
      "addr_street": "District Avenue",
      "addr_housenumber": "2905",
      "value": 263.94120311671185
    },
    {
      "id": 160263,
      "geometry": "POINT (-77.154606 38.873076)",
      "poi_name": "Cafe Trung Nguy\u00ean",
      "osm_id": 4828079164,
      "amenity": "fast_food",
      "cuisine": "vietnamese",
      "addr_state": "VA",
      "addr_city": "Falls Church",
      "addr_postcode": "22044",
      "addr_street": "Wilson Boulevard",
      "value": 263.94120311671185
    },
    {
      "id": 160363,
      "geometry": "POINT (-77.799454 38.729076)",
      "poi_name": "Chipotle",
      "osm_id": 4831625248,
      "amenity": "fast_food",
      "cuisine": "mexican",
      "website": "https://locations.chipotle.com/va/warrenton/251-w-lee-hwy",
      "phone": "+1 540-341-1032",
      "takeaway": "yes",
      "official_name": "Chipotle Mexican Grill",
      "addr_state": "VA",
      "addr_city": "Warrenton",
      "addr_postcode": "20186",
      "addr_street": "West Lee Highway",
      "addr_housenumber": "251",
      "value": 263.94120311671185
    },
    {
      "id": 163517,
      "geometry": "POINT (-77.104036 38.895756)",
      "poi_name": "Dunkin'",
      "osm_id": 9421705563,
      "amenity": "fast_food",
      "cuisine": "donut;coffee_shop",
      "opening_hours": "Mo-Sa 05:00-21:00; Su 06:00-21:00",
      "website": "https://locations.dunkindonuts.com/en/va/arlington/3520-lee-hwy/342341",
      "phone": "+1 703-294-4024",
      "takeaway": "yes",
      "drive_through": "no",
      "outdoor_seating": "yes",
      "addr_state": "VA",
      "addr_city": "Arlington",
      "addr_postcode": "22207",
      "addr_street": "Langston Boulevard",
      "addr_housenumber": "3520",
      "value": 263.94120311671185
    },
    {
      "id": 163773,
      "geometry": "POINT (-77.446232 38.965295)",
      "poi_name": "Subway",
      "osm_id": 9435257095,
      "amenity": "fast_food",
      "cuisine": "sandwich",
      "opening_hours": "Mo-Su 06:00-22:00",
      "website": "https://restaurants.subway.com/united-states/va/sterling/44950-rudder-rd",
      "phone": "+1 703-572-6092",
      "takeaway": "yes",
      "drive_through": "no",
      "addr_state": "VA",
      "addr_city": "Sterling",
      "addr_postcode": "20166",
      "addr_street": "Rudder Road",
      "addr_housenumber": "44950",
      "value": 263.94120311671185
    },
    {
      "id": 164485,
      "geometry": "POINT (-77.32141 38.851266)",
      "poi_name": "Domino's",
      "osm_id": 9476766817,
      "amenity": "fast_food",
      "cuisine": "pizza",
      "opening_hours": "Mo-Fr 10:00-00:00; Sa-Su 00:00-01:00,10:00-00:00",
      "website": "https://pizza.dominos.com/virginia/fairfax/10895-main-st/",
      "phone": "+1 703-352-9800",
      "takeaway": "yes",
      "addr_state": "VA",
      "addr_city": "Fairfax",
      "addr_postcode": "22030",
      "addr_street": "Main Street",
      "addr_housenumber": "10895",
      "value": 263.94120311671185
    },
    {
      "id": 164487,
      "geometry": "POINT (-77.322571 38.852498)",
      "poi_name": "Dunkin'",
      "osm_id": 9476766822,
      "amenity": "fast_food",
      "cuisine": "donut;coffee_shop",
      "opening_hours": "Mo-Sa 05:00-21:00; Su 06:00-21:00",
      "website": "https://locations.dunkindonuts.com/en/va/fairfax/10955-fairfax-blvd/349668",
      "phone": "+1 703-279-1859",
      "takeaway": "yes",
      "drive_through": "no",
      "addr_state": "VA",
      "addr_city": "Fairfax",
      "addr_postcode": "22030",
      "addr_street": "Fairfax Boulevard",
      "addr_housenumber": "10955",
      "value": 263.94120311671185
    },
    {
      "id": 160358,
      "geometry": "POINT (-77.793157 38.729037)",
      "poi_name": "Domino's",
      "osm_id": 4831606162,
      "amenity": "fast_food",
      "cuisine": "pizza",
      "opening_hours": "Mo-Fr 10:30-00:00; Sa-Su 00:00-01:00,10:30-00:00",
      "website": "https://pizza.dominos.com/virginia/warrenton/81-w-lee-hwy/",
      "phone": "+1 540-347-0001",
      "takeaway": "yes",
      "addr_state": "VA",
      "addr_city": "Warrenton",
      "addr_postcode": "20186",
      "addr_street": "West Lee Highway",
      "addr_housenumber": "81",
      "value": 263.94120311671185
    },
    {
      "id": 163774,
      "geometry": "POINT (-77.445968 38.965237)",
      "poi_name": "Laredo Taco Company",
      "osm_id": 9435257096,
      "amenity": "fast_food",
      "cuisine": "tex-mex",
      "opening_hours": "Mo-Su 05:00-16:00",
      "operator": "7-Eleven",
      "website": "https://www.laredotacocompany.com/restaurant-locator/detail/40066",
      "phone": "+1-703-661-2164",
      "takeaway": "yes",
      "drive_through": "no",
      "addr_state": "VA",
      "addr_city": "Sterling",
      "addr_postcode": "20166",
      "addr_street": "Rudder Road",
      "addr_housenumber": "44950",
      "value": 263.94120311671185
    },
    {
      "id": 163956,
      "geometry": "POINT (-77.143894 38.868946)",
      "poi_name": "&pizza",
      "osm_id": 9443678406,
      "amenity": "fast_food",
      "cuisine": "pizza",
      "description": "Vacant store",
      "takeaway": "yes",
      "addr_state": "VA",
      "addr_city": "Falls Church",
      "addr_postcode": "22044",
      "addr_street": "Arlington Boulevard",
      "addr_housenumber": "6110",
      "value": 263.94120311671185
    },
    {
      "id": 163957,
      "geometry": "POINT (-77.143932 38.868885)",
      "poi_name": "Tropical Smoothie Cafe",
      "osm_id": 9443678407,
      "amenity": "fast_food",
      "cuisine": "juice",
      "opening_hours": "Mo-Fr 07:00-21:00; Sa 08:00-21:00; Su 08:00-20:00",
      "website": "https://locations.tropicalsmoothiecafe.com/va/falls-church/6110-arlington-boulevard",
      "phone": "+1-703-992-8004",
      "takeaway": "yes",
      "drive_through": "no",
      "delivery": "yes",
      "addr_state": "VA",
      "addr_city": "Falls Church",
      "addr_postcode": "22044",
      "addr_street": "Arlington Boulevard",
      "addr_housenumber": "6110",
      "value": 263.94120311671185
    },
    {
      "id": 166257,
      "geometry": "POINT (-77.570884 38.750678)",
      "poi_name": "Subway",
      "osm_id": 9583529684,
      "amenity": "fast_food",
      "cuisine": "sandwich",
      "opening_hours": "Mo-Su 09:00-22:00",
      "website": "https://restaurants.subway.com/united-states/va/bristow/12737-braemar-village-plaza",
      "phone": "+1 703-368-8886",
      "takeaway": "yes",
      "addr_state": "VA",
      "addr_postcode": "20136",
      "addr_street": "Braemar Village Plaza",
      "addr_housenumber": "12737",
      "value": 263.94120311671185
    },
    {
      "id": 169501,
      "geometry": "POINT (-77.519615 38.785567)",
      "poi_name": "Subway",
      "osm_id": 2304260980,
      "amenity": "fast_food",
      "cuisine": "sandwich",
      "website": "https://restaurants.subway.com/united-states/va/manassas/10888-sudly-manor-dr",
      "phone": "+1 703-257-5772",
      "takeaway": "yes",
      "addr_state": "VA",
      "addr_postcode": "20109",
      "addr_street": "Sudly Manor Drive",
      "addr_housenumber": "10888",
      "value": 263.94120311671185
    },
    {
      "id": 169505,
      "geometry": "POINT (-77.649916 38.786059)",
      "poi_name": "Dunkin'",
      "osm_id": 2304388637,
      "amenity": "fast_food",
      "cuisine": "donut;coffee_shop",
      "opening_hours": "Mo-Sa 05:00-20:00; Su 06:00-20:00",
      "website": "https://locations.dunkindonuts.com/en/va/gainesville/7901-stonewall-shops-sq/347884",
      "internet_access": "wlan",
      "phone": "+1 703-239-3913",
      "takeaway": "yes",
      "drive_through": "no",
      "addr_state": "VA",
      "addr_city": "Gainesville",
      "addr_postcode": "20155",
      "addr_street": "Stonewall Shops Square",
      "addr_housenumber": "7901",
      "value": 263.94120311671185
    },
    {
      "id": 169624,
      "geometry": "POINT (-77.608119 38.792297)",
      "poi_name": "Domino's",
      "osm_id": 2311223042,
      "amenity": "fast_food",
      "cuisine": "pizza",
      "opening_hours": "Mo-Fr 10:00-00:00; Sa-Su 00:00-01:00,10:00-00:00",
      "website": "https://pizza.dominos.com/virginia/gainesville/7625-linton-hall-rd/",
      "phone": "+1 703-754-3000",
      "takeaway": "yes",
      "addr_state": "VA",
      "addr_city": "Gainesville",
      "addr_postcode": "20155",
      "addr_street": "Linton Hall Road",
      "addr_housenumber": "7625",
      "value": 263.94120311671185
    },
    {
      "id": 169642,
      "geometry": "POINT (-77.629721 38.792046)",
      "poi_name": "Subway",
      "osm_id": 2312005634,
      "amenity": "fast_food",
      "cuisine": "sandwich",
      "opening_hours": "Mo-Su 09:00-21:00",
      "website": "https://restaurants.subway.com/united-states/va/gainesville/7601-somerset-crossing-dr",
      "phone": "+1 571-248-8580",
      "takeaway": "yes",
      "addr_state": "VA",
      "addr_postcode": "20155",
      "addr_street": "Somerset Crossing Drive",
      "addr_housenumber": "7601",
      "value": 263.94120311671185
    },
    {
      "id": 169671,
      "geometry": "POINT (-77.426929 38.837087)",
      "poi_name": "Papa John's",
      "osm_id": 2313291805,
      "amenity": "fast_food",
      "cuisine": "pizza",
      "opening_hours": "Mo-Th 10:00-23:00; Fr-Sa 10:00-24:00; Su 10:00-23:00",
      "website": "https://locations.papajohns.com/united-states/va/20121-2454/centreville/13826-braddock-rd",
      "phone": "+1 703-266-7272",
      "takeaway": "yes",
      "addr_state": "VA",
      "addr_city": "Centreville",
      "addr_postcode": "20121-2454",
      "addr_street": "Braddock Road",
      "addr_housenumber": "13826",
      "value": 263.94120311671185
    },
    {
      "id": 169682,
      "geometry": "POINT (-77.550516 38.732498)",
      "poi_name": "Subway",
      "osm_id": 2314117912,
      "amenity": "fast_food",
      "cuisine": "sandwich",
      "opening_hours": "Mo-Su 09:00-22:00",
      "website": "https://restaurants.subway.com/united-states/va/bristow/10418-bristow-center-drive",
      "phone": "+1 703-368-4030",
      "takeaway": "yes",
      "addr_state": "VA",
      "addr_city": "Bristow",
      "addr_postcode": "20136",
      "addr_street": "Bristow Center Drive",
      "addr_housenumber": "10418",
      "value": 263.94120311671185
    },
    {
      "id": 169737,
      "geometry": "POINT (-77.643426 38.81671)",
      "poi_name": "Little Caesars",
      "osm_id": 2317646994,
      "amenity": "fast_food",
      "cuisine": "pizza",
      "opening_hours": "Mo-Th 10:00-21:00; Fr-Sa 10:00-22:00; Su 10:30-21:00",
      "website": "https://littlecaesars.com/en-us/store/10328/",
      "takeaway": "only",
      "outdoor_seating": "no",
      "addr_state": "VA",
      "addr_housenumber": "6428",
      "value": 263.94120311671185
    },
    {
      "id": 169738,
      "geometry": "POINT (-77.642636 38.814118)",
      "poi_name": "Papa John's",
      "osm_id": 2317647008,
      "amenity": "fast_food",
      "cuisine": "pizza",
      "opening_hours": "Mo-Th 10:00-23:00; Fr-Sa 10:00-24:00; Su 10:00-23:00",
      "website": "https://locations.papajohns.com/united-states/va/20168/haymarket/6743-east-leaberry-way",
      "phone": "+1 703-753-6767",
      "takeaway": "yes",
      "delivery": "yes",
      "addr_state": "VA",
      "addr_city": "Haymarket",
      "addr_postcode": "20168",
      "addr_street": "Lea Berry Way",
      "addr_housenumber": "6743",
      "value": 263.94120311671185
    },
    {
      "id": 169780,
      "geometry": "POINT (-77.50799 38.779616)",
      "poi_name": "Papa John's",
      "osm_id": 2319011194,
      "amenity": "fast_food",
      "cuisine": "pizza",
      "opening_hours": "Mo-Th 10:30-23:00; Fr-Sa 10:30-23:30; Su 10:30-23:00",
      "website": "https://locations.papajohns.com/united-states/va/20109-8007/manassas/10380-portsmouth-rd",
      "phone": "+1 703-392-7272",
      "takeaway": "yes",
      "addr_state": "VA",
      "addr_city": "Manassas",
      "addr_postcode": "20109-8007",
      "addr_street": "Portsmouth Road",
      "addr_housenumber": "10380",
      "value": 263.94120311671185
    },
    {
      "id": 169739,
      "geometry": "POINT (-77.642712 38.814166)",
      "poi_name": "Subway",
      "osm_id": 2317647013,
      "amenity": "fast_food",
      "cuisine": "sandwich",
      "opening_hours": "Mo-Sa 08:00-22:00; Su 08:00-21:00",
      "website": "https://restaurants.subway.com/united-states/va/haymarket/6747-leaberry-way",
      "phone": "+1 703-753-1115",
      "takeaway": "yes",
      "drive_through": "no",
      "addr_state": "VA",
      "addr_city": "Haymarket",
      "addr_postcode": "20169",
      "addr_street": "Lea Berry Way",
      "addr_housenumber": "6747",
      "value": 263.94120311671185
    },
    {
      "id": 169781,
      "geometry": "POINT (-77.509736 38.781314)",
      "poi_name": "Panera Bread",
      "osm_id": 2319011199,
      "amenity": "fast_food",
      "cuisine": "sandwich;bakery",
      "opening_hours": "Mo-Su 07:00-20:00",
      "website": "https://locations.panerabread.com/va/manassas/8085-sudley-road.html",
      "phone": "+1 703-393-2249",
      "takeaway": "yes",
      "delivery": "yes",
      "addr_state": "VA",
      "addr_city": "Manassas",
      "addr_postcode": "20109",
      "addr_street": "Sudley Road",
      "addr_housenumber": "8085",
      "value": 263.94120311671185
    },
    {
      "id": 169782,
      "geometry": "POINT (-77.509592 38.781128)",
      "poi_name": "Firehouse Subs",
      "osm_id": 2319011211,
      "amenity": "fast_food",
      "cuisine": "sandwich",
      "opening_hours": "Mo-Su 10:30-21:00",
      "website": "https://www.firehousesubs.com/locations/va/westgate/",
      "phone": "+1 703-361-8736",
      "takeaway": "yes",
      "drive_through": "no",
      "addr_state": "VA",
      "addr_city": "Manassas",
      "addr_postcode": "20109",
      "addr_street": "Sudley Road",
      "addr_housenumber": "8097",
      "value": 263.94120311671185
    },
    {
      "id": 169803,
      "geometry": "POINT (-77.474849 38.738383)",
      "poi_name": "Subway",
      "osm_id": 2320258655,
      "amenity": "fast_food",
      "cuisine": "sandwich",
      "opening_hours": "Mo-Sa 08:00-22:00; Su 09:00-21:00",
      "website": "https://restaurants.subway.com/united-states/va/manassas/10094-dumfries-road",
      "phone": "+1 703-365-2275",
      "takeaway": "yes",
      "addr_state": "VA",
      "addr_city": "Manassas",
      "addr_postcode": "20110",
      "addr_street": "Dumfries Road",
      "addr_housenumber": "10094",
      "value": 263.94120311671185
    },
    {
      "id": 170934,
      "geometry": "POINT (-77.320104 38.79958)",
      "poi_name": "Chipotle",
      "osm_id": 2352867869,
      "amenity": "fast_food",
      "cuisine": "mexican",
      "opening_hours": "Su-Sa 11:00-22:00",
      "phone": "+1-703-250-2537",
      "takeaway": "yes",
      "official_name": "Chipotle Mexican Grill",
      "addr_state": "VA",
      "addr_street": "Burke Centre Parkway",
      "addr_housenumber": "5747",
      "value": 263.94120311671185
    },
    {
      "id": 171060,
      "geometry": "POINT (-77.088425 38.890298)",
      "poi_name": "Papa John's",
      "osm_id": 2358615447,
      "amenity": "fast_food",
      "cuisine": "pizza",
      "opening_hours": "Mo-Su 10:00-24:00",
      "website": "https://locations.papajohns.com/united-states/va/22201-3301/arlington/2440-wilson-boulevard",
      "phone": "+1 703-243-7772",
      "takeaway": "yes",
      "drive_through": "no",
      "delivery": "yes",
      "addr_state": "VA",
      "addr_city": "Arlington",
      "addr_postcode": "22201-3301",
      "addr_street": "Wilson Boulevard",
      "addr_housenumber": "2440",
      "value": 263.94120311671185
    },
    {
      "id": 171021,
      "geometry": "POINT (-77.502372 38.775534)",
      "poi_name": "Subway",
      "osm_id": 2356662570,
      "amenity": "fast_food",
      "cuisine": "sandwich",
      "opening_hours": "Mo-Fr 08:00-21:00; Sa-Su 09:00-21:00",
      "phone": "+1-703-472-2036",
      "takeaway": "yes",
      "drive_through": "no",
      "addr_state": "VA",
      "addr_city": "Manassas",
      "addr_postcode": "20109",
      "addr_street": "Sudley Road",
      "addr_housenumber": "8337",
      "value": 263.94120311671185
    },
    {
      "id": 172216,
      "geometry": "POINT (-77.438109 38.838142)",
      "poi_name": "Kabob House",
      "osm_id": 2397748468,
      "amenity": "fast_food",
      "cuisine": "kebab",
      "opening_hours": "Mo-Sa 11:00-20:00; Su 12:00-21:00",
      "website": "https://www.foodcornercentreville.com/",
      "phone": "+1-703-543-7166",
      "addr_state": "VA",
      "addr_city": "Centreville",
      "addr_postcode": "20121",
      "addr_street": "Centreville Square",
      "addr_housenumber": "14220",
      "value": 263.94120311671185
    },
    {
      "id": 171145,
      "geometry": "POINT (-77.489551 38.769794)",
      "poi_name": "Dunkin'",
      "osm_id": 2362360821,
      "amenity": "fast_food",
      "cuisine": "donut;coffee_shop",
      "opening_hours": "Mo-Sa 05:00-21:00; Su 06:00-21:00",
      "website": "https://locations.dunkindonuts.com/en/va/manassas/8525-rolling-rd/344087",
      "phone": "+1 703-330-4411",
      "takeaway": "yes",
      "drive_through": "no",
      "addr_state": "VA",
      "addr_city": "Manassas",
      "addr_postcode": "20110",
      "addr_street": "Rolling Road",
      "addr_housenumber": "8525",
      "value": 263.94120311671185
    },
    {
      "id": 172217,
      "geometry": "POINT (-77.438219 38.838142)",
      "poi_name": "Tropical Smoothie Cafe",
      "osm_id": 2397748469,
      "amenity": "fast_food",
      "cuisine": "juice",
      "opening_hours": "Mo 09:00-15:00; Tu-Fr 09:00-20:00; Sa 10:00-20:00; Su 10:00-19:00",
      "website": "https://locations.tropicalsmoothiecafe.com/va/centreville/14220-centreville-square",
      "phone": "+1-703-815-1455",
      "takeaway": "yes",
      "drive_through": "no",
      "addr_state": "VA",
      "addr_city": "Centreville",
      "addr_postcode": "20121",
      "addr_street": "Centreville Square",
      "addr_housenumber": "14220",
      "value": 263.94120311671185
    },
    {
      "id": 172229,
      "geometry": "POINT (-77.423551 38.838073)",
      "poi_name": "Bella Pizza",
      "osm_id": 2397950887,
      "amenity": "fast_food",
      "cuisine": "pizza",
      "opening_hours": "Mo-Th 11:00-23:00; Fr-Sa 11:00-23:59; Su 11:00-23:00",
      "website": "https://bellapizzava.com/",
      "phone": "+1 703-502-8888",
      "addr_state": "VA",
      "addr_city": "Centreville",
      "addr_postcode": "20121",
      "addr_street": "Pickwick Road",
      "addr_housenumber": "5740",
      "value": 263.94120311671185
    },
    {
      "id": 172418,
      "geometry": "POINT (-77.502644 38.774118)",
      "poi_name": "Five Guys",
      "osm_id": 2402015680,
      "amenity": "fast_food",
      "cuisine": "burger",
      "opening_hours": "Mo-Su 11:00-23:00",
      "website": "https://restaurants.fiveguys.com/8366-sudley-road",
      "phone": "+1 571-292-2395",
      "takeaway": "yes",
      "official_name": "Five Guys Burgers and Fries",
      "addr_state": "VA",
      "addr_city": "Manassas",
      "addr_postcode": "20109",
      "addr_street": "Sudley Road",
      "addr_housenumber": "8366",
      "value": 263.94120311671185
    },
    {
      "id": 173189,
      "geometry": "POINT (-77.244688 38.929624)",
      "poi_name": "District Taco",
      "osm_id": 2429628722,
      "amenity": "fast_food",
      "cuisine": "mexican",
      "takeaway": "yes",
      "addr_state": "VA",
      "addr_city": "Vienna",
      "addr_postcode": "22182",
      "addr_street": "Cornerside Boulevard",
      "value": 263.94120311671185
    },
    {
      "id": 172901,
      "geometry": "POINT (-77.07927 38.873594)",
      "poi_name": "Subway",
      "osm_id": 2419012532,
      "amenity": "fast_food",
      "cuisine": "sandwich",
      "opening_hours": "Mo-Fr 08:00-18:00; Sa 09:00-18:00; Su 11:00-17:00",
      "website": "https://restaurants.subway.com/united-states/va/fort-myers/building-441-pershing-dr",
      "phone": "+1-703-243-1786",
      "takeaway": "yes",
      "drive_through": "no",
      "addr_state": "VA",
      "addr_city": "Fort Myer",
      "addr_postcode": "22211",
      "addr_street": "McNair Road",
      "addr_housenumber": "106",
      "value": 263.94120311671185
    },
    {
      "id": 172902,
      "geometry": "POINT (-77.080205 38.878011)",
      "poi_name": "Strike Zone",
      "osm_id": 2419012534,
      "amenity": "fast_food",
      "opening_hours": "Mo 07:00-17:00; Tu-Fr 07:00-21:00",
      "website": "https://jbmhh.armymwr.com/programs/bowling-center",
      "phone": "+1-703-528-4766",
      "drive_through": "no",
      "addr_state": "VA",
      "addr_city": "Fort Myer",
      "addr_postcode": "22211",
      "addr_street": "McNair Road",
      "addr_housenumber": "224",
      "value": 263.94120311671185
    },
    {
      "id": 173064,
      "geometry": "POINT (-77.189888 38.829045)",
      "poi_name": "Popeyes",
      "osm_id": 2423637758,
      "amenity": "fast_food",
      "cuisine": "chicken",
      "takeaway": "yes",
      "drive_through": "yes",
      "official_name": "Popeyes Louisiana Kitchen",
      "delivery": "no",
      "addr_city": "Annandale",
      "addr_postcode": "22003",
      "addr_street": "John Marr Drive",
      "value": 263.94120311671185
    },
    {
      "id": 182163,
      "geometry": "POINT (-77.537046 38.986042)",
      "poi_name": "Subway",
      "osm_id": 10879354546,
      "amenity": "fast_food",
      "cuisine": "sandwich",
      "opening_hours": "Mo-Fr 09:00-24:00; Sa-Su 09:00-22:00",
      "website": "https://restaurants.subway.com/united-states/va/ashburn/42385-ryan-road",
      "phone": "+1 703-957-4074",
      "takeaway": "yes",
      "addr_state": "VA",
      "addr_city": "Ashburn",
      "addr_postcode": "20148",
      "addr_street": "Ryan Road",
      "addr_housenumber": "42385",
      "value": 263.94120311671185
    },
    {
      "id": 177142,
      "geometry": "POINT (-77.144138 38.868672)",
      "poi_name": "Chick-fil-A",
      "osm_id": 2575198659,
      "amenity": "fast_food",
      "cuisine": "chicken",
      "opening_hours": "Mo-Sa 06:00-22:00",
      "website": "https://www.chick-fil-a.com/locations/va/seven-corners-in-line",
      "phone": "+1-703-533-0288",
      "takeaway": "yes",
      "drive_through": "no",
      "delivery": "yes",
      "addr_state": "VA",
      "addr_city": "Falls Church",
      "addr_postcode": "22044",
      "addr_street": "Arlington Boulevard",
      "addr_housenumber": "6108",
      "value": 263.94120311671185
    },
    {
      "id": 177143,
      "geometry": "POINT (-77.145875 38.869295)",
      "poi_name": "Dunkin'",
      "osm_id": 2575198660,
      "amenity": "fast_food",
      "cuisine": "donut;coffee_shop",
      "wheelchair": "yes",
      "opening_hours": "Mo-Su 05:00-18:00",
      "website": "https://locations.dunkindonuts.com/en/va/falls-church/6138-arlington-blvd/353322",
      "phone": "+1 571-325-1380",
      "takeaway": "yes",
      "drive_through": "no",
      "addr_state": "VA",
      "addr_city": "Falls Church",
      "addr_postcode": "22044",
      "addr_street": "Arlington Boulevard",
      "addr_housenumber": "6138",
      "value": 263.94120311671185
    },
    {
      "id": 177146,
      "geometry": "POINT (-77.145907 38.869243)",
      "poi_name": "Subway",
      "osm_id": 2575198664,
      "amenity": "fast_food",
      "cuisine": "sandwich",
      "opening_hours": "Mo-Su 08:30-21:30",
      "website": "https://restaurants.subway.com/united-states/va/falls-church/6138-arlington-blvd",
      "phone": "+1 703-533-7570",
      "takeaway": "yes",
      "drive_through": "no",
      "delivery": "yes",
      "addr_state": "VA",
      "addr_city": "Falls Church",
      "addr_postcode": "22044",
      "addr_street": "Arlington Boulevard",
      "addr_housenumber": "6138",
      "value": 263.94120311671185
    },
    {
      "id": 177147,
      "geometry": "POINT (-77.145789 38.868756)",
      "poi_name": "Popeyes",
      "osm_id": 2575199732,
      "amenity": "fast_food",
      "cuisine": "chicken",
      "opening_hours": "Su-Th 10:00-23:00; Fr-Sa 10:00-24:00",
      "website": "https://locations.popeyes.com/va/falls-church/6134-arlington-blvd",
      "phone": "+1-703-241-0691",
      "takeaway": "yes",
      "drive_through": "no",
      "official_name": "Popeyes Louisiana Kitchen",
      "addr_state": "VA",
      "addr_city": "Falls Church",
      "addr_postcode": "22044",
      "addr_street": "Arlington Boulevard",
      "addr_housenumber": "6134",
      "value": 263.94120311671185
    },
    {
      "id": 174385,
      "geometry": "POINT (-77.375763 38.926076)",
      "poi_name": "Papa John's",
      "osm_id": 2479151685,
      "amenity": "fast_food",
      "cuisine": "pizza",
      "opening_hours": "Mo-Su 10:00-23:00",
      "website": "https://locations.papajohns.com/united-states/va/20171-2527/herndon/2571-john-milton-drive",
      "phone": "+1 703-476-7272",
      "takeaway": "yes",
      "drive_through": "no",
      "outdoor_seating": "yes",
      "delivery": "yes",
      "addr_state": "VA",
      "addr_city": "Herndon",
      "addr_postcode": "20171-2527",
      "addr_street": "John Milton Drive",
      "addr_housenumber": "2571",
      "value": 263.94120311671185
    },
    {
      "id": 174387,
      "geometry": "POINT (-77.375272 38.927565)",
      "poi_name": "Subway",
      "osm_id": 2479165823,
      "amenity": "fast_food",
      "cuisine": "sandwich",
      "opening_hours": "Mo-Fr 08:00-21:00; Sa 08:00-16:00; Su 08:00-21:00",
      "website": "https://restaurants.subway.com/united-states/va/herndon/2527-john-milton-dr",
      "phone": "+1 703-476-6220",
      "takeaway": "yes",
      "drive_through": "no",
      "addr_state": "VA",
      "addr_city": "Herndon",
      "addr_postcode": "20171",
      "addr_street": "John Milton Drive",
      "addr_housenumber": "2527",
      "value": 263.94120311671185
    },
    {
      "id": 175443,
      "geometry": "POINT (-77.08349 38.890382)",
      "poi_name": "Subway",
      "osm_id": 2522304010,
      "amenity": "fast_food",
      "cuisine": "sandwich",
      "opening_hours": "Mo-Fr 07:00-22:00; Sa 08:00-21:00; Su 09:00-20:00",
      "website": "https://restaurants.subway.com/united-states/va/arlington/1435-n-courthouse-road",
      "phone": "+1 703-841-8355",
      "takeaway": "yes",
      "addr_state": "VA",
      "addr_postcode": "22201",
      "addr_street": "North Courthouse Road",
      "addr_housenumber": "1435",
      "value": 263.94120311671185
    },
    {
      "id": 179692,
      "geometry": "POINT (-77.268013 38.898868)",
      "poi_name": "Subway",
      "osm_id": 10775333377,
      "amenity": "fast_food",
      "cuisine": "sandwich",
      "opening_hours": "Mo-Fr 08:00-21:30; Sa-Su 09:00-21:00",
      "website": "https://restaurants.subway.com/united-states/va/vienna/222-w-maple-ave",
      "phone": "+1 703-281-7810",
      "takeaway": "yes",
      "addr_state": "VA",
      "addr_postcode": "22180",
      "value": 263.94120311671185
    },
    {
      "id": 179695,
      "geometry": "POINT (-77.269682 38.897553)",
      "poi_name": "Dunkin'",
      "osm_id": 10775333403,
      "amenity": "fast_food",
      "cuisine": "donut;coffee_shop",
      "opening_hours": "Mo-Fr 05:00-19:00; Sa-Su 06:00-19:00",
      "website": "https://locations.dunkindonuts.com/en/va/vienna/314-maple-ave-w/302972",
      "phone": "+1 703-865-4760",
      "takeaway": "yes",
      "drive_through": "no",
      "addr_state": "VA",
      "addr_city": "Vienna",
      "addr_postcode": "22180",
      "addr_street": "Maple Avenue West",
      "addr_housenumber": "314",
      "value": 263.94120311671185
    },
    {
      "id": 186537,
      "geometry": "POINT (-77.510143 38.788966)",
      "poi_name": "Little Caesars",
      "osm_id": 7934403243,
      "amenity": "fast_food",
      "cuisine": "pizza",
      "website": "https://littlecaesars.com/en-us/store/11125/",
      "takeaway": "yes",
      "addr_state": "VA",
      "addr_city": "Manassas",
      "addr_postcode": "20109",
      "addr_street": "Sudley Manor Drive",
      "addr_housenumber": "10490",
      "value": 263.94120311671185
    },
    {
      "id": 188958,
      "geometry": "POINT (-77.3015 38.787765)",
      "poi_name": "Dunkin'",
      "osm_id": 258062657,
      "amenity": "fast_food",
      "cuisine": "donut;coffee_shop",
      "opening_hours": "Mo-Su 05:00-19:00",
      "website": "https://locations.dunkindonuts.com/en/va/burke/6050-burke-commons-rd/352163",
      "phone": "+1 703-239-0390",
      "takeaway": "yes",
      "drive_through": "yes",
      "addr_state": "VA",
      "addr_city": "Burke",
      "addr_postcode": "22015",
      "addr_street": "Burke Commons Road",
      "addr_housenumber": "6050",
      "value": 263.94120311671185
    },
    {
      "id": 187182,
      "geometry": "POINT (-77.18445 38.890445)",
      "poi_name": "Taco Bell",
      "osm_id": 7979021395,
      "amenity": "fast_food",
      "cuisine": "tex-mex",
      "opening_hours": "Mo-Su 07:00-24:00 open \"Dine-in\", Mo-Th,Su 07:00-02:30 open \"Drive-through\"; Fr-Sa 07:00-03:30 open \"Drive-through\"",
      "website": "https://locations.tacobell.com/va/falls-church/935-west-broad-street.html",
      "takeaway": "yes",
      "addr_state": "VA",
      "addr_city": "Falls Church",
      "addr_postcode": "22046",
      "addr_street": "West Broad Street",
      "addr_housenumber": "935",
      "value": 263.94120311671185
    },
    {
      "id": 188292,
      "geometry": "POINT (-77.521979 38.926256)",
      "poi_name": "Moe's Southwest Grill",
      "osm_id": 1135858559,
      "amenity": "fast_food",
      "cuisine": "mexican",
      "opening_hours": "Mo-Su 11:00-20:00",
      "website": "https://www.moes.com/find-a-moes/virginia/south_riding/455",
      "phone": "+1 703-542-5670",
      "takeaway": "yes",
      "drive_through": "no",
      "addr_state": "VA",
      "addr_city": "Chantilly",
      "addr_postcode": "20152",
      "addr_street": "Riding Plaza",
      "addr_housenumber": "24995",
      "value": 263.94120311671185
    },
    {
      "id": 191157,
      "geometry": "POINT (-77.096694 38.896606)",
      "poi_name": "BGR The Burger Joint",
      "osm_id": 1344640177,
      "amenity": "fast_food",
      "cuisine": "burger",
      "opening_hours": "Mo-Sa 11:00-21:00; Su 11:00-20:00",
      "website": "https://bgrtheburgerjoint.com/locations-menus/arlington-va/",
      "phone": "+1-703-812-4705",
      "takeaway": "yes",
      "drive_through": "no",
      "addr_state": "VA",
      "addr_city": "Arlington",
      "addr_postcode": "22201",
      "addr_street": "Langston Boulevard",
      "addr_housenumber": "3129",
      "value": 263.94120311671185
    },
    {
      "id": 189240,
      "geometry": "POINT (-77.138242 38.897346)",
      "poi_name": "Elevation Burger",
      "osm_id": 1222775402,
      "amenity": "fast_food",
      "cuisine": "burger",
      "opening_hours": "Mo-Su 11:00-21:00",
      "website": "https://locations.elevationburger.com/ll/US/VA/Arlington/Lee-+~-Harrison-Shopping-Center*-2447-North-Harrison-Street",
      "phone": "+1-703-534-2302",
      "takeaway": "yes",
      "drive_through": "no",
      "outdoor_seating": "yes",
      "addr_state": "VA",
      "addr_city": "Arlington",
      "addr_postcode": "22207",
      "addr_street": "North Harrison Street",
      "addr_housenumber": "2447",
      "value": 263.94120311671185
    },
    {
      "id": 189241,
      "geometry": "POINT (-77.138329 38.897406)",
      "poi_name": "Chesapeake Bagel Bakery",
      "osm_id": 1222775407,
      "amenity": "fast_food",
      "cuisine": "bagel;coffee_shop",
      "opening_hours": "Mo-Fr 06:00-18:00; Sa 06:30-17:00; Su 07:00-16:00",
      "phone": "+1-703-241-1950",
      "drive_through": "no",
      "addr_state": "VA",
      "addr_city": "Arlington",
      "addr_postcode": "22207",
      "addr_street": "North Harrison Street",
      "addr_housenumber": "2453",
      "value": 263.94120311671185
    },
    {
      "id": 190367,
      "geometry": "POINT (-77.111589 38.882393)",
      "poi_name": "Subway",
      "osm_id": 1290898368,
      "amenity": "fast_food",
      "cuisine": "sandwich",
      "wheelchair": "yes",
      "opening_hours": "Mo-Fr 07:00-22:00; Sa 08:00-22:00; Su 09:00-20:00",
      "website": "https://restaurants.subway.com/united-states/va/arlington/4227-n-fairfax-drive",
      "phone": "+1 703-888-2100",
      "takeaway": "yes",
      "drive_through": "no",
      "addr_state": "VA",
      "addr_city": "Arlington",
      "addr_postcode": "22203",
      "addr_street": "Fairfax Drive",
      "addr_housenumber": "4227",
      "value": 263.94120311671185
    },
    {
      "id": 190370,
      "geometry": "POINT (-77.112288 38.879784)",
      "poi_name": "Chipotle",
      "osm_id": 1290931192,
      "amenity": "fast_food",
      "cuisine": "mexican",
      "wheelchair": "yes",
      "opening_hours": "Mo-Su 10:45-22:00",
      "website": "https://locations.chipotle.com/va/arlington/4300-wilson-blvd",
      "phone": "+1 703-243-9488",
      "takeaway": "yes",
      "drive_through": "no",
      "official_name": "Chipotle Mexican Grill",
      "addr_state": "VA",
      "addr_city": "Arlington",
      "addr_postcode": "22203",
      "addr_street": "Wilson Boulevard",
      "addr_housenumber": "4300",
      "value": 263.94120311671185
    },
    {
      "id": 190094,
      "geometry": "POINT (-77.416716 38.92247)",
      "poi_name": "Burger King",
      "osm_id": 1269983091,
      "amenity": "fast_food",
      "cuisine": "burger",
      "website": "https://www.bk.com/store-locator/store/restaurant_6018",
      "internet_access": "wlan",
      "phone": "+1 703-707-8007",
      "takeaway": "yes",
      "drive_through": "yes",
      "delivery": "yes",
      "addr_state": "VA",
      "addr_city": "Herndon",
      "addr_postcode": "20171",
      "addr_street": "Centreville Road",
      "addr_housenumber": "3035",
      "value": 263.94120311671185
    },
    {
      "id": 191557,
      "geometry": "POINT (-77.176338 38.879856)",
      "poi_name": "Elevation Burger",
      "osm_id": 1375172235,
      "amenity": "fast_food",
      "cuisine": "burger",
      "opening_hours": "Su-Sa 11:00-21:00",
      "website": "https://locations.elevationburger.com/ll/US/VA/Falls-Church/Washington-Market*-442-South-Washington-Street",
      "phone": "+1 703-237-4343",
      "takeaway": "yes",
      "drive_through": "no",
      "addr_state": "VA",
      "addr_city": "Falls Church",
      "addr_postcode": "22046",
      "addr_street": "South Washington Street",
      "addr_housenumber": "442",
      "value": 263.94120311671185
    },
    {
      "id": 192615,
      "geometry": "POINT (-77.368083 38.867101)",
      "poi_name": "Baja Fresh",
      "osm_id": 1464215981,
      "amenity": "fast_food",
      "cuisine": "mexican",
      "website": "https://www.bajafresh.com/",
      "phone": "+1-703-352-1792",
      "takeaway": "yes",
      "official_name": "Baja Fresh Mexican Grill",
      "outdoor_seating": "yes",
      "addr_state": "VA",
      "addr_city": "Fairfax",
      "addr_postcode": "22033",
      "addr_street": "Fairfax Town Center",
      "addr_housenumber": "12150",
      "value": 263.94120311671185
    },
    {
      "id": 192616,
      "geometry": "POINT (-77.366412 38.867146)",
      "poi_name": "Firehouse Subs",
      "osm_id": 1464215988,
      "amenity": "fast_food",
      "cuisine": "sandwich",
      "opening_hours": "Mo-Th 10:30-21:30;Fr-Sa 10:30-22:30;Su 10:30-21:00",
      "website": "https://www.firehousesubs.com/",
      "phone": "+1-703-865-7997",
      "takeaway": "yes",
      "addr_state": "VA",
      "addr_street": "Fairfax Town Center",
      "addr_housenumber": "12120",
      "value": 263.94120311671185
    },
    {
      "id": 192617,
      "geometry": "POINT (-77.366358 38.867224)",
      "poi_name": "Panera Bread",
      "osm_id": 1464215998,
      "amenity": "fast_food",
      "cuisine": "sandwich;bakery",
      "website": "https://locations.panerabread.com/va/fairfax/12120-fairfax-towne-center.html",
      "internet_access": "wlan",
      "phone": "+1-703-246-0056",
      "takeaway": "yes",
      "addr_state": "VA",
      "addr_city": "Fairfax",
      "addr_postcode": "22033",
      "addr_street": "Fairfax Town Center",
      "addr_housenumber": "12120",
      "value": 263.94120311671185
    },
    {
      "id": 192842,
      "geometry": "POINT (-77.239769 38.931135)",
      "poi_name": "Papa John's",
      "osm_id": 1482548536,
      "amenity": "fast_food",
      "cuisine": "pizza",
      "opening_hours": "Mo-Th 10:00-22:00; Fr-Sa 10:00-23:00; Su 10:00-22:00",
      "website": "https://locations.papajohns.com/united-states/va/22182/vienna/8501-tyco-rd",
      "phone": "+1 703-760-8484",
      "takeaway": "yes",
      "addr_state": "VA",
      "addr_city": "Vienna",
      "addr_postcode": "22182",
      "addr_street": "Tyco Road",
      "addr_housenumber": "8501",
      "value": 263.94120311671185
    },
    {
      "id": 193584,
      "geometry": "POINT (-77.372624 38.84718)",
      "poi_name": "Subway",
      "osm_id": 1546689147,
      "amenity": "fast_food",
      "cuisine": "sandwich",
      "opening_hours": "Mo-Fr 07:00-21:00; Sa 08:30-20:30; Su 09:00-20:30",
      "website": "https://restaurants.subway.com/united-states/va/fairfax/12300-b-1-costco-plaza-drive",
      "phone": "+1 703-543-8157",
      "takeaway": "yes",
      "addr_state": "VA",
      "addr_postcode": "22030",
      "addr_street": "Costco Plaza Drive",
      "addr_housenumber": "12300",
      "value": 263.94120311671185
    },
    {
      "id": 193640,
      "geometry": "POINT (-77.321677 38.853715)",
      "poi_name": "Robeks",
      "osm_id": 1550981374,
      "amenity": "fast_food",
      "cuisine": "juice",
      "takeaway": "yes",
      "addr_state": "VA",
      "addr_city": "Fairfax",
      "addr_postcode": "22030",
      "addr_street": "Fairfax Boulevard",
      "addr_housenumber": "10940",
      "value": 263.94120311671185
    },
    {
      "id": 194121,
      "geometry": "POINT (-77.140419 38.873923)",
      "poi_name": "Pizza Boli's",
      "osm_id": 1582009276,
      "amenity": "fast_food",
      "cuisine": "pizza",
      "opening_hours": "Su-Th 10:00-24:00; Fr-Sa 10:00-27:00",
      "website": "https://www.pizzabolis.com/locations/arlington-rosslyn/",
      "phone": "+1-703-534-9880",
      "takeaway": "only",
      "drive_through": "no",
      "delivery": "yes",
      "addr_state": "VA",
      "addr_city": "Arlington",
      "addr_postcode": "22205",
      "addr_street": "Wilson Boulevard",
      "addr_housenumber": "6033",
      "value": 263.94120311671185
    },
    {
      "id": 196699,
      "geometry": "POINT (-77.451066 38.901702)",
      "poi_name": "Wendy's",
      "osm_id": 10592549494,
      "amenity": "fast_food",
      "cuisine": "burger",
      "takeaway": "yes",
      "drive_through": "yes",
      "addr_state": "VA",
      "addr_city": "Chantilly",
      "addr_postcode": "20151",
      "addr_street": "Airline Parkway",
      "addr_housenumber": "4070",
      "value": 263.94120311671185
    },
    {
      "id": 196450,
      "geometry": "POINT (-77.24442 38.929971)",
      "poi_name": "Dunkin'",
      "osm_id": 10579245082,
      "amenity": "fast_food",
      "cuisine": "donut;coffee_shop",
      "opening_hours": "Mo-Fr 05:00-19:00; Sa 06:00-19:00; Su 06:00-18:00",
      "website": "https://locations.dunkindonuts.com/en/va/vienna/1495-cornerside-blvd/358600",
      "phone": "+1 703-936-0986",
      "takeaway": "yes",
      "drive_through": "no",
      "addr_state": "VA",
      "addr_city": "Vienna",
      "addr_postcode": "22182",
      "addr_street": "Cornerside Boulevard",
      "addr_housenumber": "1495",
      "value": 263.94120311671185
    },
    {
      "id": 196451,
      "geometry": "POINT (-77.244343 38.929707)",
      "poi_name": "Smoothie King",
      "osm_id": 10579250696,
      "amenity": "fast_food",
      "cuisine": "juice",
      "opening_hours": "6:30-21:00",
      "website": "https://smoothieking.com",
      "phone": "+1 703-734-1280",
      "takeaway": "yes",
      "addr_state": "VA",
      "addr_city": "Vienna",
      "addr_postcode": "22182",
      "addr_street": "Cornerside Boulevard",
      "addr_housenumber": "1501",
      "value": 263.94120311671185
    },
    {
      "id": 196457,
      "geometry": "POINT (-77.244239 38.929737)",
      "poi_name": "Jersey Mike's Subs",
      "osm_id": 10579368978,
      "amenity": "fast_food",
      "cuisine": "sandwich",
      "opening_hours": "10:00-21:00",
      "website": "https://www.jerseymikes.com/",
      "phone": "+1-571-570-1717",
      "takeaway": "yes",
      "addr_state": "VA",
      "addr_city": "Vienna",
      "addr_postcode": "22182",
      "addr_street": "Cornerside Boulevard",
      "addr_housenumber": "1501",
      "value": 263.94120311671185
    },
    {
      "id": 197073,
      "geometry": "POINT (-77.24142 38.873747)",
      "poi_name": "Subway",
      "osm_id": 10610830957,
      "amenity": "fast_food",
      "cuisine": "sandwich",
      "opening_hours": "Mo-We 09:00-21:00; Th 09:00-10:00; Fr 09:00-21:00; Sa-Su 10:00-19:00",
      "website": "https://restaurants.subway.com/united-states/va/fairfax/8558-lee-hwy",
      "phone": "+1 703-560-6977",
      "takeaway": "yes",
      "addr_state": "VA",
      "addr_city": "Fairfax",
      "addr_postcode": "22031",
      "addr_street": "Route 29",
      "addr_housenumber": "8558",
      "value": 263.94120311671185
    },
    {
      "id": 197453,
      "geometry": "POINT (-77.135074 38.854444)",
      "poi_name": "Subway",
      "osm_id": 10648891120,
      "amenity": "fast_food",
      "cuisine": "sandwich",
      "opening_hours": "Mo-Su 08:30-21:30",
      "website": "https://restaurants.subway.com/united-states/va/falls-church/5898-leesburg-pike",
      "phone": "+1 703-820-0600",
      "takeaway": "yes",
      "addr_state": "VA",
      "addr_postcode": "22041",
      "addr_street": "Leesburg Pike",
      "addr_housenumber": "5898",
      "value": 263.94120311671185
    },
    {
      "id": 197665,
      "geometry": "POINT (-77.07109 38.896971)",
      "poi_name": "&pizza",
      "osm_id": 10661106332,
      "amenity": "fast_food",
      "cuisine": "pizza",
      "opening_hours": "Mo-Th,Su 11:00-23:00; Fr-Sa 11:00-24:00",
      "phone": "+1 202-450-5059",
      "takeaway": "yes",
      "addr_state": "VA",
      "addr_city": "Arlington",
      "addr_postcode": "22209",
      "addr_street": "North Lynn Street",
      "addr_housenumber": "1800",
      "value": 263.94120311671185
    },
    {
      "id": 197667,
      "geometry": "POINT (-77.074112 38.895112)",
      "poi_name": "Taco Rock",
      "osm_id": 10661106335,
      "amenity": "fast_food",
      "cuisine": "mexican",
      "opening_hours": "Mo-Sa 11:00-22:00; Su 11:00-21:00",
      "phone": "+1 571-775-1800",
      "addr_state": "VA",
      "addr_street": "Wilson Boulevard",
      "addr_housenumber": "1501",
      "value": 263.94120311671185
    },
    {
      "id": 198631,
      "geometry": "POINT (-77.271428 38.841766)",
      "poi_name": "Einstein Bros. Bagels",
      "osm_id": 906163821,
      "amenity": "fast_food",
      "cuisine": "bagel",
      "opening_hours": "Mo-Fr 05:00-17:00; Sa 06:00-16:00; Su 06:00-15:00",
      "website": "https://locations.einsteinbros.com/us/va/fairfax/9490-main-st",
      "phone": "+1 703 250 4045",
      "takeaway": "yes",
      "addr_state": "VA",
      "addr_city": "Fairfax",
      "addr_postcode": "22031",
      "addr_street": "Main Street",
      "addr_housenumber": "9490",
      "value": 263.94120311671185
    },
    {
      "id": 198851,
      "geometry": "POINT (-77.357507 38.947875)",
      "poi_name": "Popeyes",
      "osm_id": 921195224,
      "amenity": "fast_food",
      "cuisine": "chicken",
      "opening_hours": "Mo-Th 10:30-22:00, Fr-Sa 10:30-23:00, Su 10:30-22:00",
      "website": "https://locations.popeyes.com/va/reston/4542/",
      "internet_access": "wlan",
      "phone": "+1 703-264-3308",
      "takeaway": "yes",
      "official_name": "Popeyes Louisiana Kitchen",
      "addr_state": "VA",
      "addr_city": "Reston",
      "addr_postcode": "20191",
      "addr_street": "Sunrise Valley Drive",
      "addr_housenumber": "11850",
      "value": 263.94120311671185
    },
    {
      "id": 198865,
      "geometry": "POINT (-77.349183 38.952212)",
      "poi_name": "Five Guys",
      "osm_id": 922361144,
      "amenity": "fast_food",
      "cuisine": "burger",
      "takeaway": "yes",
      "official_name": "Five Guys Burgers and Fries",
      "addr_state": "VA",
      "addr_city": "Reston",
      "addr_postcode": "20190",
      "addr_street": "Plaza America Drive",
      "value": 263.94120311671185
    },
    {
      "id": 196774,
      "geometry": "POINT (-77.428546 38.894292)",
      "poi_name": "Subway",
      "osm_id": 10595411075,
      "amenity": "fast_food",
      "cuisine": "sandwich",
      "opening_hours": "Mo-Su 09:00-22:00",
      "website": "https://restaurants.subway.com/united-states/va/chantilly/13926-lee-jackson-hwy",
      "phone": "+1 703-263-0391",
      "takeaway": "yes",
      "addr_state": "VA",
      "addr_postcode": "20151",
      "value": 263.94120311671185
    },
    {
      "id": 197376,
      "geometry": "POINT (-77.440342 38.886895)",
      "poi_name": "Ottoman Kitchen",
      "osm_id": 10646803284,
      "amenity": "fast_food",
      "cuisine": "kebab;turkish",
      "website": "https://ottomankitchen.us/",
      "phone": "+1 571-287-7278",
      "drive_through": "no",
      "addr_state": "VA",
      "addr_city": "Chantilly",
      "addr_postcode": "20151",
      "addr_street": "Chantilly Shopping Center",
      "addr_housenumber": "4300",
      "value": 263.94120311671185
    },
    {
      "id": 197378,
      "geometry": "POINT (-77.440773 38.886667)",
      "poi_name": "Jimmy John's",
      "osm_id": 10646922050,
      "amenity": "fast_food",
      "cuisine": "sandwich",
      "takeaway": "yes",
      "official_name": "Jimmy John's Gourmet Sandwiches",
      "addr_state": "VA",
      "addr_city": "Chantilly",
      "addr_postcode": "20151",
      "addr_street": "Chantilly Shopping Center",
      "addr_housenumber": "4300",
      "value": 263.94120311671185
    },
    {
      "id": 198304,
      "geometry": "POINT (-77.157198 38.899265)",
      "poi_name": "Williamsburg Deli",
      "osm_id": 10697675834,
      "amenity": "fast_food",
      "cuisine": "sandwich",
      "addr_city": "Arlington",
      "addr_street": "North Sycamore Street",
      "addr_housenumber": "2900",
      "value": 263.94120311671185
    },
    {
      "id": 200800,
      "geometry": "POINT (-77.367922 38.866824)",
      "poi_name": "Five Guys",
      "osm_id": 598053200,
      "amenity": "fast_food",
      "cuisine": "burger",
      "takeaway": "yes",
      "official_name": "Five Guys Burgers and Fries",
      "addr_state": "VA",
      "addr_street": "Fairfax Towne Center",
      "addr_housenumber": "12156",
      "value": 263.94120311671185
    },
    {
      "id": 200542,
      "geometry": "POINT (-77.608721 38.796014)",
      "poi_name": "Panera Bread",
      "osm_id": 595308714,
      "amenity": "fast_food",
      "cuisine": "sandwich;bakery",
      "wheelchair": "yes",
      "opening_hours": "Mo-Sa 06:00-21:00, Su 07:00-21:00",
      "website": "https://locations.panerabread.com/va/gainesville/7351-atlas-walk-way.html",
      "internet_access": "wlan",
      "phone": "+1 571-261-1200",
      "takeaway": "yes",
      "outdoor_seating": "yes",
      "delivery": "yes",
      "addr_state": "VA",
      "addr_city": "Gainesville",
      "addr_postcode": "20155",
      "addr_street": "Atlas Walk Way",
      "addr_housenumber": "7351",
      "value": 263.94120311671185
    },
    {
      "id": 200948,
      "geometry": "POINT (-77.301436 38.787919)",
      "poi_name": "Dairy Queen",
      "osm_id": 601513204,
      "amenity": "fast_food",
      "cuisine": "ice_cream;burger",
      "website": "http://www.dqburke.com/?y_source=1_ODk5Njk0OC03MTUtbG9jYXRpb24ud2Vic2l0ZQ%3D%3D",
      "phone": "+1-703-426-2440",
      "takeaway": "yes",
      "addr_state": "VA",
      "addr_city": "Burke",
      "addr_postcode": "22015",
      "addr_street": "Burke Commons Road",
      "addr_housenumber": "6050",
      "value": 263.94120311671185
    },
    {
      "id": 201763,
      "geometry": "POINT (-77.093947 38.884279)",
      "poi_name": "Subway",
      "osm_id": 657019754,
      "amenity": "fast_food",
      "cuisine": "sandwich",
      "opening_hours": "Mo-Fr 07:00-22:00; Sa 08:00-21:00; Su 09:00-21:00",
      "phone": "+1-703-243-7232",
      "takeaway": "yes",
      "addr_state": "VA",
      "addr_city": "Arlington",
      "addr_postcode": "22201",
      "addr_street": "10th Street North",
      "addr_housenumber": "3000",
      "value": 263.94120311671185
    },
    {
      "id": 201898,
      "geometry": "POINT (-77.100693 38.883961)",
      "poi_name": "El Pollo Rico",
      "osm_id": 663917550,
      "amenity": "fast_food",
      "cuisine": "peruvian",
      "opening_hours": "11:00-22:00",
      "website": "https://elpollorico.com",
      "phone": "+1 703-522-3220",
      "drive_through": "no",
      "addr_state": "VA",
      "addr_street": "North Kenmore Street",
      "addr_housenumber": "932",
      "value": 263.94120311671185
    },
    {
      "id": 201902,
      "geometry": "POINT (-77.121679 38.878258)",
      "poi_name": "Super Pollo",
      "osm_id": 663920282,
      "amenity": "fast_food",
      "cuisine": "chicken",
      "opening_hours": "Mo-Su 11:00-23:00",
      "website": "https://ordersuperpollocharcoalchicken.com/",
      "phone": "+1-703-351-7666",
      "drive_through": "no",
      "addr_state": "VA",
      "addr_city": "Arlington",
      "addr_postcode": "22203",
      "addr_street": "Wilson Boulevard",
      "addr_housenumber": "5011",
      "value": 263.94120311671185
    },
    {
      "id": 202046,
      "geometry": "POINT (-77.243701 38.887238)",
      "poi_name": "Pizza Boli's",
      "osm_id": 674490414,
      "amenity": "fast_food",
      "cuisine": "pizza",
      "opening_hours": "Su-Th 11:00-01:00; Fr-Sa 11:00-03:00",
      "website": "https://www.pizzabolis.com/locations/vienna/",
      "phone": "+1 703-573-0007",
      "takeaway": "yes",
      "delivery": "yes",
      "addr_state": "VA",
      "addr_city": "Vienna",
      "addr_postcode": "22180",
      "addr_street": "Cedar Lane",
      "addr_housenumber": "262",
      "value": 263.94120311671185
    },
    {
      "id": 206471,
      "geometry": "POINT (-77.314697 38.825465)",
      "poi_name": "Domino's",
      "osm_id": 7212088021,
      "amenity": "fast_food",
      "cuisine": "pizza",
      "opening_hours": "Mo-Fr 00:00-01:00,10:30-00:00; Sa-Su 00:00-02:00,10:30-00:00",
      "website": "https://pizza.dominos.com/virginia/fairfax/10649-a-braddock-road/",
      "phone": "+1 703-352-0990",
      "takeaway": "yes",
      "addr_state": "VA",
      "addr_city": "Fairfax",
      "addr_postcode": "22032",
      "addr_street": "Braddock Road",
      "addr_housenumber": "10649",
      "value": 263.94120311671185
    },
    {
      "id": 206472,
      "geometry": "POINT (-77.314558 38.825459)",
      "poi_name": "Dunkin'",
      "osm_id": 7212088022,
      "amenity": "fast_food",
      "cuisine": "donut;coffee_shop",
      "opening_hours": "Mo-Sa 05:00-19:00; Su 06:00-19:00",
      "website": "https://locations.dunkindonuts.com/en/va/fairfax/10633-braddock-rd/308047",
      "phone": "+1 703-691-4090",
      "takeaway": "yes",
      "drive_through": "no",
      "addr_state": "VA",
      "addr_city": "Fairfax",
      "addr_postcode": "22032",
      "addr_street": "Braddock Road",
      "addr_housenumber": "10633",
      "value": 263.94120311671185
    },
    {
      "id": 210061,
      "geometry": "POINT (-77.547521 38.732726)",
      "poi_name": "Chipotle",
      "osm_id": 5075850241,
      "amenity": "fast_food",
      "cuisine": "mexican",
      "website": "https://www.chipotle.com/",
      "takeaway": "yes",
      "official_name": "Chipotle Mexican Grill",
      "addr_state": "VA",
      "addr_city": "Bristow",
      "addr_postcode": "20136",
      "addr_street": "Bristow Center Drive",
      "addr_housenumber": "10303",
      "value": 263.94120311671185
    },
    {
      "id": 210062,
      "geometry": "POINT (-77.547551 38.732795)",
      "poi_name": "Smoothie King",
      "osm_id": 5075850264,
      "amenity": "fast_food",
      "cuisine": "juice",
      "website": "https://www.smoothieking.com/",
      "takeaway": "yes",
      "addr_state": "VA",
      "addr_city": "Bristow",
      "addr_postcode": "20136",
      "addr_street": "Bristow Center Drive",
      "addr_housenumber": "10261",
      "value": 263.94120311671185
    },
    {
      "id": 212560,
      "geometry": "POINT (-77.095443 38.88648)",
      "poi_name": "Sweetgreen",
      "osm_id": 5212781428,
      "amenity": "fast_food",
      "cuisine": "salad",
      "opening_hours": "Mo-Su 10:30-22:00",
      "website": "https://www.sweetgreen.com/",
      "phone": "+1 571-290-3956",
      "takeaway": "yes",
      "addr_state": "VA",
      "addr_city": "Arlington",
      "addr_postcode": "22201",
      "addr_street": "Clarendon Boulevard",
      "addr_housenumber": "3100",
      "value": 263.94120311671185
    },
    {
      "id": 211813,
      "geometry": "POINT (-77.272192 38.842934)",
      "poi_name": "Chipotle",
      "osm_id": 5173701425,
      "amenity": "fast_food",
      "cuisine": "mexican",
      "opening_hours": "10:45-22:00",
      "website": "https://www.chipotle.com",
      "phone": "(571) 328-5485",
      "takeaway": "yes",
      "official_name": "Chipotle Mexican Grill",
      "addr_state": "VA",
      "addr_city": "Fairfax",
      "addr_postcode": "22031",
      "addr_street": "Main Street",
      "addr_housenumber": "9506",
      "value": 263.94120311671185
    },
    {
      "id": 211639,
      "geometry": "POINT (-77.410261 38.950409)",
      "poi_name": "Tropical Smoothie Cafe",
      "osm_id": 5166509335,
      "amenity": "fast_food",
      "cuisine": "juice",
      "phone": "+1-703-793-0116",
      "takeaway": "yes",
      "drive_through": "no",
      "addr_state": "VA",
      "addr_street": "Centreville Road",
      "addr_housenumber": "2465",
      "value": 263.94120311671185
    },
    {
      "id": 218188,
      "geometry": "POINT (-78.185269 38.915899)",
      "poi_name": "Dunkin'",
      "osm_id": 9265421043,
      "amenity": "fast_food",
      "cuisine": "donut;coffee_shop",
      "opening_hours": "05:00-19:00",
      "website": "https://locations.dunkindonuts.com/en/va/front-royal/202-s-commerce-ave/330183",
      "phone": "+1 540 636 8830",
      "takeaway": "yes",
      "drive_through": "no",
      "addr_state": "VA",
      "addr_city": "Front Royal",
      "addr_postcode": "22630",
      "addr_street": "South Commerce Avenue",
      "addr_housenumber": "202",
      "value": 263.94120311671185
    },
    {
      "id": 213426,
      "geometry": "POINT (-77.237319 38.922831)",
      "poi_name": "China Wok",
      "osm_id": 5249673050,
      "amenity": "fast_food",
      "cuisine": "chinese",
      "takeaway": "yes",
      "addr_state": "VA",
      "addr_city": "Vienna",
      "addr_postcode": "22182",
      "addr_street": "Leesburg Pike",
      "addr_housenumber": "8395",
      "value": 263.94120311671185
    },
    {
      "id": 215185,
      "geometry": "POINT (-77.608118 38.796417)",
      "poi_name": "Five Guys",
      "osm_id": 5290469166,
      "amenity": "fast_food",
      "cuisine": "burger",
      "opening_hours": "Mo-Su 11:00-22:00",
      "website": "https://restaurants.fiveguys.com/7321-atlas-walk-way",
      "phone": "+1 703-753-1511",
      "takeaway": "yes",
      "drive_through": "no",
      "official_name": "Five Guys Burgers and Fries",
      "addr_state": "VA",
      "addr_city": "Gainesville",
      "addr_postcode": "20155",
      "addr_street": "Atlas Walk Way",
      "addr_housenumber": "7321",
      "value": 263.94120311671185
    },
    {
      "id": 215186,
      "geometry": "POINT (-77.608936 38.796314)",
      "poi_name": "Potbelly",
      "osm_id": 5290469167,
      "amenity": "fast_food",
      "cuisine": "sandwich",
      "opening_hours": "Mo-Su 10:00-21:00",
      "website": "https://www.potbelly.com/stores/23381",
      "phone": "+1 571-248-6425",
      "takeaway": "yes",
      "official_name": "Potbelly Sandwich Works",
      "addr_state": "VA",
      "addr_city": "Gainesville",
      "addr_postcode": "20155",
      "addr_street": "Atlas Walk Way",
      "addr_housenumber": "7352",
      "value": 263.94120311671185
    },
    {
      "id": 215187,
      "geometry": "POINT (-77.651298 38.78538)",
      "poi_name": "Moe's Southwest Grill",
      "osm_id": 5290513882,
      "amenity": "fast_food",
      "cuisine": "mexican",
      "opening_hours": "Mo-Sa 09:45-22:00; Su 10:45-21:00",
      "website": "https://order.moes.com/menu/4731",
      "phone": "+1 703-722-9115",
      "takeaway": "yes",
      "delivery": "yes",
      "addr_state": "VA",
      "addr_city": "Gainesville",
      "addr_postcode": "20155",
      "addr_street": "Stonewall Shops Square",
      "addr_housenumber": "8148",
      "value": 263.94120311671185
    },
    {
      "id": 215193,
      "geometry": "POINT (-77.644912 38.818273)",
      "poi_name": "Auntie Anne's",
      "osm_id": 5290513892,
      "amenity": "fast_food",
      "cuisine": "pretzel",
      "opening_hours": "Mo-Sa 10:00-21:00; Su 10:00-18:00",
      "website": "https://www.auntieannes.com/va/haymarket/146-1",
      "phone": "+1 703-754-6240",
      "takeaway": "yes",
      "drive_through": "no",
      "addr_state": "VA",
      "addr_city": "Haymarket",
      "addr_postcode": "20169",
      "addr_street": "Trading Square",
      "addr_housenumber": "6530",
      "value": 263.94120311671185
    },
    {
      "id": 215194,
      "geometry": "POINT (-77.644803 38.818248)",
      "poi_name": "Checkers",
      "osm_id": 5290513893,
      "amenity": "fast_food",
      "cuisine": "burger",
      "opening_hours": "Mo-Su 10:00-22:00",
      "website": "https://locations.checkers.com/va/haymarket/6530-trading-square",
      "phone": "+1 703-754-6241",
      "takeaway": "yes",
      "drive_through": "no",
      "outdoor_seating": "no",
      "delivery": "yes",
      "addr_state": "VA",
      "addr_city": "Haymarket",
      "addr_postcode": "20169",
      "addr_street": "Trading Square",
      "addr_housenumber": "6530",
      "value": 263.94120311671185
    },
    {
      "id": 215794,
      "geometry": "POINT (-77.521646 38.937958)",
      "poi_name": "Dunkin'",
      "osm_id": 5312902255,
      "amenity": "fast_food",
      "cuisine": "donut;coffee_shop",
      "opening_hours": "Mo-Su 05:00-20:00",
      "website": "https://locations.dunkindonuts.com/en/va/dulles/24560-dulles-landing-dr/353992",
      "phone": "+1 703-665-1036",
      "takeaway": "yes",
      "drive_through": "no",
      "addr_state": "VA",
      "addr_city": "Arcola",
      "addr_postcode": "20166",
      "addr_street": "Dulles Landing Drive",
      "addr_housenumber": "24560",
      "value": 263.94120311671185
    },
    {
      "id": 215796,
      "geometry": "POINT (-77.522057 38.937503)",
      "poi_name": "Sarku Japan",
      "osm_id": 5312902260,
      "amenity": "fast_food",
      "cuisine": "sushi;japanese",
      "website": "https://www.sarkujapan.com/",
      "phone": "+15713493367",
      "takeaway": "yes",
      "addr_state": "VA",
      "addr_city": "Arcola",
      "addr_postcode": "20166",
      "addr_street": "Dulles Landing Drive",
      "addr_housenumber": "24555",
      "value": 263.94120311671185
    },
    {
      "id": 215797,
      "geometry": "POINT (-77.522161 38.937449)",
      "poi_name": "Papa John's",
      "osm_id": 5312902261,
      "amenity": "fast_food",
      "cuisine": "pizza",
      "opening_hours": "Mo-Th 10:00-23:00; Fr-Sa 10:00-24:00; Su 10:00-23:00",
      "website": "https://locations.papajohns.com/united-states/va/20166/dulles/24555-dulles-landing-dr",
      "phone": "+1 703-662-7272",
      "takeaway": "yes",
      "addr_state": "VA",
      "addr_city": "Arcola",
      "addr_postcode": "20166",
      "addr_street": "Dulles Landing Drive",
      "addr_housenumber": "24555",
      "value": 263.94120311671185
    },
    {
      "id": 218841,
      "geometry": "POINT (-77.570822 38.750951)",
      "poi_name": "Dunkin'",
      "osm_id": 9300054678,
      "amenity": "fast_food",
      "cuisine": "donut;coffee_shop",
      "opening_hours": "Mo-Sa 05:00-20:00; Su 06:00-20:00",
      "website": "https://locations.dunkindonuts.com/en/va/bristow/12713-braemar-village-plz/354651",
      "phone": "+1 703-335-2908",
      "takeaway": "yes",
      "drive_through": "no",
      "addr_state": "VA",
      "addr_city": "Bristow",
      "addr_postcode": "20136",
      "addr_street": "Braemar Village Plaza",
      "addr_housenumber": "12713",
      "value": 263.94120311671185
    },
    {
      "id": 218745,
      "geometry": "POINT (-77.225346 38.873768)",
      "poi_name": "Popeyes",
      "osm_id": 9293958832,
      "amenity": "fast_food",
      "cuisine": "chicken",
      "takeaway": "yes",
      "official_name": "Popeyes Louisiana Kitchen",
      "addr_state": "VA",
      "addr_city": "Falls Church",
      "addr_postcode": "22042",
      "addr_street": "Gallows Road",
      "addr_housenumber": "2835",
      "value": 263.94120311671185
    },
    {
      "id": 221211,
      "geometry": "POINT (-77.442893 38.897432)",
      "poi_name": "Potbelly",
      "osm_id": 10969594745,
      "amenity": "fast_food",
      "cuisine": "sandwich",
      "takeaway": "yes",
      "drive_through": "no",
      "official_name": "Potbelly Sandwich Works",
      "addr_state": "VA",
      "addr_city": "Chantilly",
      "addr_postcode": "20151",
      "addr_street": "Chantilly Crossing Lane",
      "addr_housenumber": "14396",
      "value": 263.94120311671185
    },
    {
      "id": 221292,
      "geometry": "POINT (-77.60484 38.76748)",
      "poi_name": "Papa John's",
      "osm_id": 10970198086,
      "amenity": "fast_food",
      "cuisine": "pizza",
      "opening_hours": "Mo-Th 10:00-23:00; Fr-Sa 10:00-24:00; Su 10:00-23:00",
      "website": "https://locations.papajohns.com/united-states/va/20155/gainesville/13958-estate-manor-drive",
      "phone": "+1 703-754-6600",
      "takeaway": "yes",
      "addr_state": "VA",
      "addr_city": "Gainesville",
      "addr_postcode": "20155",
      "addr_street": "Estate Manor Drive",
      "addr_housenumber": "13958",
      "value": 263.94120311671185
    },
    {
      "id": 221784,
      "geometry": "POINT (-77.295942 38.862136)",
      "poi_name": "Subway",
      "osm_id": 10990472385,
      "amenity": "fast_food",
      "cuisine": "sandwich",
      "opening_hours": "Mo-Fr 08:00-22:00; Sa-Su 09:00-22:00",
      "website": "https://restaurants.subway.com/united-states/va/fairfax/10160-fairfax-blvd",
      "phone": "+1 703-865-7620",
      "takeaway": "yes",
      "addr_state": "VA",
      "addr_city": "Fairfax",
      "addr_postcode": "22030",
      "value": 263.94120311671185
    },
    {
      "id": 224921,
      "geometry": "POINT (-77.644334 38.975993)",
      "poi_name": "Greenheart",
      "osm_id": 11103509547,
      "amenity": "fast_food",
      "cuisine": "juice",
      "website": "https://greenheartjuiceshop.com/",
      "addr_state": "VA",
      "addr_street": "Little River Turnpike",
      "addr_housenumber": "39325",
      "value": 263.94120311671185
    },
    {
      "id": 226853,
      "geometry": "POINT (-77.801234 38.729868)",
      "poi_name": "Little Caesars",
      "osm_id": 11170829793,
      "amenity": "fast_food",
      "cuisine": "pizza",
      "opening_hours": "Mo-Th 11:00-19:45; Fr 11:00-20:45; Sa-Su 11:00-19:45",
      "website": "https://littlecaesars.com/en-us/store/10754/",
      "phone": "+1 540-216-7937",
      "takeaway": "yes",
      "drive_through": "no",
      "addr_state": "VA",
      "addr_city": "Warrenton",
      "addr_postcode": "20186",
      "addr_street": "West Lee Highway",
      "addr_housenumber": "251",
      "value": 263.94120311671185
    },
    {
      "id": 226723,
      "geometry": "POINT (-77.398925 38.9637)",
      "poi_name": "Big Buns",
      "osm_id": 11166223745,
      "amenity": "fast_food",
      "cuisine": "burger",
      "opening_hours": "11:00-21:05",
      "website": "https://eatbigbuns.com/",
      "phone": "+1-571-752-6140",
      "drive_through": "no",
      "addr_state": "VA",
      "addr_street": "Elden Street",
      "addr_housenumber": "1142",
      "value": 263.94120311671185
    },
    {
      "id": 226703,
      "geometry": "POINT (-77.44684 38.869043)",
      "poi_name": "Subway",
      "osm_id": 11166022127,
      "amenity": "fast_food",
      "cuisine": "sandwich",
      "opening_hours": "Mo-Su 09:00-22:00",
      "website": "https://restaurants.subway.com/united-states/va/centreville/5047-westfields-blvd",
      "phone": "+1 703-802-1205",
      "takeaway": "yes",
      "drive_through": "no",
      "addr_state": "VA",
      "addr_postcode": "20120",
      "addr_street": "Westfields Boulevard",
      "addr_housenumber": "5047",
      "value": 263.94120311671185
    },
    {
      "id": 226875,
      "geometry": "POINT (-78.191827 38.928425)",
      "poi_name": "Domino's",
      "osm_id": 11171608161,
      "amenity": "fast_food",
      "cuisine": "pizza",
      "opening_hours": "Mo-Fr 10:30-00:00; Sa-Su 00:00-01:00,10:30-00:00",
      "website": "https://pizza.dominos.com/virginia/front-royal/712-n-commerce-ave/",
      "phone": "+1 540-635-4171",
      "takeaway": "yes",
      "addr_state": "VA",
      "addr_city": "Front Royal",
      "addr_postcode": "22630",
      "addr_street": "North Commerce Avenue",
      "addr_housenumber": "712",
      "value": 263.94120311671185
    },
    {
      "id": 226876,
      "geometry": "POINT (-78.195768 38.958669)",
      "poi_name": "Dunkin'",
      "osm_id": 11171608187,
      "amenity": "fast_food",
      "cuisine": "donut;coffee_shop",
      "opening_hours": "Mo-Fr 04:00-22:00; Sa-Su 06:00-22:00",
      "website": "https://locations.dunkindonuts.com/en/va/front-royal/9886-winchester-rd/330186",
      "phone": "+1 540-622-6002",
      "takeaway": "yes",
      "drive_through": "no",
      "addr_state": "VA",
      "addr_city": "Front Royal",
      "addr_postcode": "22630",
      "addr_street": "Winchester Road",
      "addr_housenumber": "9886",
      "value": 263.94120311671185
    },
    {
      "id": 226877,
      "geometry": "POINT (-78.187946 38.96069)",
      "poi_name": "Subway",
      "osm_id": 11171608188,
      "amenity": "fast_food",
      "cuisine": "sandwich",
      "opening_hours": "Mo-Su 08:00-21:00",
      "website": "https://restaurants.subway.com/united-states/va/front-royal/10-riverton-commons-drive",
      "phone": "+1 540-635-3702",
      "takeaway": "yes",
      "addr_state": "VA",
      "addr_city": "Front Royal Warren",
      "addr_postcode": "22630",
      "addr_street": "Riverton Commons Drive",
      "addr_housenumber": "10",
      "value": 263.94120311671185
    },
    {
      "id": 227202,
      "geometry": "POINT (-77.766156 38.579446)",
      "poi_name": "Subway",
      "osm_id": 11183002687,
      "amenity": "fast_food",
      "cuisine": "sandwich",
      "opening_hours": "Mo-Su 08:00-21:00",
      "website": "https://restaurants.subway.com/united-states/va/bealeton/11077-marsh-road",
      "phone": "+1 540-439-9054",
      "takeaway": "yes",
      "addr_state": "VA",
      "addr_city": "Bealeton",
      "addr_postcode": "22712",
      "addr_street": "Marsh Road",
      "addr_housenumber": "11077",
      "value": 263.94120311671185
    },
    {
      "id": 230516,
      "geometry": "POINT (-77.450973 38.747386)",
      "poi_name": "Firehouse Subs",
      "osm_id": 4428297875,
      "amenity": "fast_food",
      "cuisine": "sandwich",
      "takeaway": "yes",
      "addr_state": "VA",
      "addr_city": "Manassas",
      "addr_postcode": "20110",
      "addr_street": "Liberia Avenue",
      "addr_housenumber": "9660",
      "value": 263.94120311671185
    },
    {
      "id": 229212,
      "geometry": "POINT (-77.356517 38.960956)",
      "poi_name": "Einstein Bros. Bagels",
      "osm_id": 4372452397,
      "amenity": "fast_food",
      "cuisine": "bagel",
      "opening_hours": "Mo-Fr 05:00-16:00, Sa 06:00-16:00, Su 06:00-15:00",
      "website": "https://locations.einsteinbros.com/us/va/reston/1825-fountain-drive",
      "takeaway": "yes",
      "outdoor_seating": "no",
      "addr_state": "VA",
      "addr_city": "Reston",
      "addr_postcode": "20190",
      "addr_street": "Fountain Drive",
      "addr_housenumber": "1825",
      "value": 263.94120311671185
    },
    {
      "id": 230124,
      "geometry": "POINT (-77.550733 38.734009)",
      "poi_name": "Duck Donuts",
      "osm_id": 4414928875,
      "amenity": "fast_food",
      "cuisine": "donut",
      "takeaway": "yes",
      "addr_state": "VA",
      "addr_city": "Bristow",
      "addr_postcode": "20136",
      "addr_street": "Bristow Center Drive",
      "addr_housenumber": "10286",
      "value": 263.94120311671185
    },
    {
      "id": 230270,
      "geometry": "POINT (-77.398452 38.880823)",
      "poi_name": "Dunkin'",
      "osm_id": 4419406413,
      "amenity": "fast_food",
      "cuisine": "donut;coffee_shop",
      "opening_hours": "Mo-Fr 04:00-20:00; Sa-Su 05:00-20:00",
      "website": "https://locations.dunkindonuts.com/en/va/fairfax/13061-lee-jackson-memorial-hwy/302694",
      "phone": "+1 703-631-4503",
      "takeaway": "yes",
      "drive_through": "no",
      "outdoor_seating": "no",
      "addr_state": "VA",
      "addr_city": "Chantilly",
      "addr_postcode": "22033",
      "addr_street": "Route 50",
      "addr_housenumber": "13061",
      "value": 263.94120311671185
    },
    {
      "id": 230519,
      "geometry": "POINT (-77.451014 38.74711)",
      "poi_name": "Qdoba",
      "osm_id": 4428328325,
      "amenity": "fast_food",
      "cuisine": "mexican",
      "website": "https://locations.qdoba.com/us/va/manassas/9674-liberia-ave.html",
      "takeaway": "yes",
      "official_name": "Qdoba Mexican Grill",
      "addr_state": "VA",
      "addr_city": "Manassas",
      "addr_postcode": "20110",
      "addr_street": "Liberia Avenue",
      "addr_housenumber": "9674",
      "value": 263.94120311671185
    },
    {
      "id": 230529,
      "geometry": "POINT (-77.448587 38.953003)",
      "poi_name": "Dulles Gourmet Market",
      "osm_id": 4428764769,
      "amenity": "fast_food",
      "website": "https://www.flydulles.com/iad/dulles-gourmet-market",
      "takeaway": "only",
      "outdoor_seating": "no",
      "addr_state": "VA",
      "addr_city": "Dulles",
      "addr_postcode": "20166",
      "addr_street": "Saarinen Circle - Departures",
      "addr_housenumber": "1",
      "value": 263.94120311671185
    },
    {
      "id": 230680,
      "geometry": "POINT (-77.450408 38.751008)",
      "poi_name": "Subway",
      "osm_id": 4435061868,
      "amenity": "fast_food",
      "cuisine": "sandwich",
      "opening_hours": "Mo-Sa 09:30-21:30; Su 10:00-21:00",
      "website": "https://restaurants.subway.com/united-states/va/manassas/9522-liberia-ave",
      "phone": "+1 703-369-9733",
      "takeaway": "yes",
      "addr_state": "VA",
      "addr_city": "Manassas",
      "addr_postcode": "20110",
      "addr_street": "Liberia Avenue",
      "addr_housenumber": "9522",
      "value": 263.94120311671185
    },
    {
      "id": 230681,
      "geometry": "POINT (-77.450388 38.751199)",
      "poi_name": "Panera Bread",
      "osm_id": 4435061873,
      "amenity": "fast_food",
      "cuisine": "sandwich;bakery",
      "takeaway": "yes",
      "addr_state": "VA",
      "addr_city": "Manassas",
      "addr_postcode": "20110",
      "addr_street": "Liberia Avenue",
      "addr_housenumber": "9508",
      "value": 263.94120311671185
    },
    {
      "id": 232806,
      "geometry": "POINT (-77.266756 38.899617)",
      "poi_name": "MOD Pizza",
      "osm_id": 4543969101,
      "amenity": "fast_food",
      "cuisine": "pizza",
      "takeaway": "yes",
      "addr_state": "VA",
      "addr_city": "Vienna",
      "value": 263.94120311671185
    },
    {
      "id": 232376,
      "geometry": "POINT (-77.375363 38.968331)",
      "poi_name": "Jimmy John's",
      "osm_id": 4521846236,
      "amenity": "fast_food",
      "cuisine": "sandwich",
      "takeaway": "yes",
      "official_name": "Jimmy John's Gourmet Sandwiches",
      "addr_state": "VA",
      "addr_city": "Herndon",
      "addr_street": "Elden Street",
      "addr_housenumber": "454",
      "value": 263.94120311671185
    },
    {
      "id": 232549,
      "geometry": "POINT (-77.386524 38.861079)",
      "poi_name": "Dunkin'",
      "osm_id": 4530751518,
      "amenity": "fast_food",
      "cuisine": "donut;coffee_shop",
      "opening_hours": "Mo-Sa 05:00-21:00; Su 06:00-21:00",
      "website": "https://locations.dunkindonuts.com/en/va/fairfax/12701-shoppes-ln/353496",
      "phone": "+1 703-818-7480",
      "takeaway": "yes",
      "drive_through": "no",
      "addr_state": "VA",
      "addr_city": "Fairfax",
      "addr_postcode": "22033",
      "addr_street": "Shoppes Lane",
      "addr_housenumber": "12701",
      "value": 263.94120311671185
    },
    {
      "id": 232550,
      "geometry": "POINT (-77.386465 38.860958)",
      "poi_name": "Jersey Mike's Subs",
      "osm_id": 4530751519,
      "amenity": "fast_food",
      "cuisine": "sandwich",
      "opening_hours": "10:00-21:00",
      "takeaway": "yes",
      "addr_state": "VA",
      "addr_city": "Fairfax",
      "addr_postcode": "22033",
      "addr_street": "Shoppes Lane",
      "addr_housenumber": "12703",
      "value": 263.94120311671185
    },
    {
      "id": 232810,
      "geometry": "POINT (-77.266606 38.899737)",
      "poi_name": "Chopt",
      "osm_id": 4543969108,
      "amenity": "fast_food",
      "cuisine": "salad",
      "takeaway": "yes",
      "addr_state": "VA",
      "addr_city": "Vienna",
      "addr_postcode": "22180",
      "addr_street": "Maple Avenue West",
      "addr_housenumber": "160",
      "value": 263.94120311671185
    },
    {
      "id": 235042,
      "geometry": "POINT (-77.442501 38.876263)",
      "poi_name": "Chipotle",
      "osm_id": 5744083722,
      "amenity": "fast_food",
      "cuisine": "mexican",
      "takeaway": "yes",
      "official_name": "Chipotle Mexican Grill",
      "addr_state": "VA",
      "addr_city": "Chantilly",
      "addr_postcode": "20151",
      "addr_street": "Newbrook Drive",
      "addr_housenumber": "14383",
      "value": 263.94120311671185
    },
    {
      "id": 235810,
      "geometry": "POINT (-77.434105 38.836796)",
      "poi_name": "Five Guys",
      "osm_id": 5769023987,
      "amenity": "fast_food",
      "cuisine": "burger",
      "opening_hours": "Su-Sa 11:00-22:00",
      "takeaway": "yes",
      "drive_through": "no",
      "official_name": "Five Guys Burgers and Fries",
      "addr_state": "VA",
      "addr_city": "Centreville",
      "addr_postcode": "20121",
      "addr_street": "Centreville Crest Lane",
      "addr_housenumber": "6017",
      "value": 263.94120311671185
    },
    {
      "id": 235811,
      "geometry": "POINT (-77.437951 38.837376)",
      "poi_name": "Wingstop",
      "osm_id": 5769032656,
      "amenity": "fast_food",
      "cuisine": "wings",
      "opening_hours": "Su-Th 11:00-23:00; Fr-Sa 11:00-24:00",
      "phone": "+1-703-866-9464",
      "takeaway": "yes",
      "drive_through": "no",
      "addr_state": "VA",
      "addr_city": "Centreville",
      "addr_postcode": "20121",
      "addr_street": "Centreville Square",
      "addr_housenumber": "14215",
      "value": 263.94120311671185
    },
    {
      "id": 235959,
      "geometry": "POINT (-77.14541 38.86877)",
      "poi_name": "Five Guys",
      "osm_id": 5774237956,
      "amenity": "fast_food",
      "cuisine": "burger",
      "opening_hours": "Mo-Su 11:00-22:00",
      "website": "https://restaurants.fiveguys.com/6134-arlington-blvd",
      "phone": "+1-571-388-3920",
      "takeaway": "yes",
      "drive_through": "no",
      "official_name": "Five Guys Burgers and Fries",
      "delivery": "yes",
      "addr_state": "VA",
      "addr_city": "Falls Church",
      "addr_postcode": "22044",
      "addr_street": "Arlington Boulevard",
      "addr_housenumber": "6134",
      "value": 263.94120311671185
    },
    {
      "id": 236701,
      "geometry": "POINT (-77.107218 38.879693)",
      "poi_name": "&pizza",
      "osm_id": 5802820093,
      "amenity": "fast_food",
      "cuisine": "pizza",
      "wheelchair": "yes",
      "building": "yes",
      "opening_hours": "Mo-Su 11:00-23:00",
      "website": "https://andpizza.com/",
      "phone": "+1 202-839-8576",
      "takeaway": "yes",
      "delivery": "no",
      "addr_state": "VA",
      "addr_city": "Arlington",
      "addr_postcode": "22203",
      "addr_street": "North Wilson Boulevard",
      "addr_housenumber": "3924",
      "value": 263.94120311671185
    },
    {
      "id": 240795,
      "geometry": "POINT (-77.800257 38.73078)",
      "poi_name": "Tropical Smoothie Cafe",
      "osm_id": 5991452337,
      "amenity": "fast_food",
      "cuisine": "juice",
      "opening_hours": "Mo-Fr 07:00-21:00; Sa 08:00-21:00; Su 09:00-20:00",
      "website": "https://locations.tropicalsmoothiecafe.com/va/warrenton/251-west-lee-highway",
      "internet_access": "wlan",
      "phone": "+1 540-428-1818",
      "takeaway": "yes",
      "drive_through": "no",
      "delivery": "no",
      "addr_state": "VA",
      "addr_city": "Warrenton",
      "addr_postcode": "20186",
      "value": 263.94120311671185
    },
    {
      "id": 240501,
      "geometry": "POINT (-77.610065 38.809016)",
      "poi_name": "Dunkin'",
      "osm_id": 5978583478,
      "amenity": "fast_food",
      "cuisine": "donut;coffee_shop",
      "opening_hours": "Mo-Sa 05:00-21:00; Su 06:00-20:00",
      "website": "https://locations.dunkindonuts.com/en/va/gainesville/13801-heathcote-boulevard/355673",
      "phone": "+1 703-468-4912",
      "takeaway": "yes",
      "drive_through": "yes",
      "addr_state": "VA",
      "addr_city": "Gainesville",
      "addr_postcode": "20155",
      "addr_street": "Heathcote Boulevard",
      "addr_housenumber": "13801",
      "value": 263.94120311671185
    },
    {
      "id": 240383,
      "geometry": "POINT (-77.330414 38.938596)",
      "poi_name": "Chipotle",
      "osm_id": 5970935002,
      "amenity": "fast_food",
      "cuisine": "mexican",
      "opening_hours": "Mo-Su 10:45-22:00",
      "takeaway": "yes",
      "drive_through": "no",
      "official_name": "Chipotle Mexican Grill",
      "outdoor_seating": "no",
      "addr_state": "VA",
      "addr_city": "Reston",
      "addr_postcode": "20191",
      "addr_street": "South Lakes Drive",
      "addr_housenumber": "11160",
      "value": 263.94120311671185
    },
    {
      "id": 244751,
      "geometry": "POINT (-77.602314 38.803836)",
      "poi_name": "Subway",
      "osm_id": 7738773592,
      "amenity": "fast_food",
      "cuisine": "sandwich",
      "opening_hours": "Mo-Sa 09:00-21:00; Su 10:00-20:00",
      "website": "https://restaurants.subway.com/united-states/va/gainesville/7941-heritage-village-plaza",
      "phone": "+1 571-261-9024",
      "takeaway": "yes",
      "drive_through": "no",
      "addr_state": "VA",
      "addr_city": "Gainesville",
      "addr_postcode": "20155",
      "addr_street": "Heritage Village Plaza",
      "addr_housenumber": "7941",
      "value": 263.94120311671185
    },
    {
      "id": 243889,
      "geometry": "POINT (-77.485954 38.914656)",
      "poi_name": "Dunkin'",
      "osm_id": 7684169546,
      "amenity": "fast_food",
      "cuisine": "donut;coffee_shop",
      "opening_hours": "Mo-Sa 05:00-21:00; Su 06:00-20:00",
      "website": "https://locations.dunkindonuts.com/en/va/south-riding/25421-lizzio-center-dr/355342",
      "phone": "+1 703-349-6670",
      "takeaway": "yes",
      "drive_through": "yes",
      "addr_state": "VA",
      "addr_city": "South Riding",
      "addr_postcode": "20152",
      "addr_street": "Lizzio Center Drive",
      "addr_housenumber": "25421",
      "value": 263.94120311671185
    },
    {
      "id": 244139,
      "geometry": "POINT (-77.310784 38.834323)",
      "poi_name": "Subway",
      "osm_id": 7703206735,
      "amenity": "fast_food",
      "cuisine": "sandwich",
      "opening_hours": "Mo-Th 11:00-15:00; Fr 00:30-01:00",
      "website": "https://restaurants.subway.com/united-states/va/fairfax/4400-university-drive",
      "phone": "+1 703-993-6196",
      "takeaway": "yes",
      "addr_state": "VA",
      "addr_city": "Fairfax",
      "addr_postcode": "22030",
      "value": 263.94120311671185
    },
    {
      "id": 244141,
      "geometry": "POINT (-77.327191 38.853633)",
      "poi_name": "MOD Pizza",
      "osm_id": 7703211964,
      "amenity": "fast_food",
      "cuisine": "pizza",
      "takeaway": "yes",
      "addr_state": "VA",
      "addr_city": "Fairfax",
      "addr_postcode": "22030",
      "addr_street": "Lee Highway",
      "addr_housenumber": "11048",
      "value": 263.94120311671185
    },
    {
      "id": 244142,
      "geometry": "POINT (-77.335921 38.855564)",
      "poi_name": "Subway",
      "osm_id": 7703220133,
      "amenity": "fast_food",
      "cuisine": "sandwich",
      "opening_hours": "Mo-Fr 08:00-21:30; Sa 08:30-20:30; Su 09:00-20:30",
      "website": "https://restaurants.subway.com/united-states/va/fairfax/11240-james-swart-cir",
      "phone": "+1 703-359-3939",
      "takeaway": "yes",
      "addr_state": "VA",
      "addr_city": "Fairfax",
      "addr_postcode": "22030",
      "value": 263.94120311671185
    },
    {
      "id": 244019,
      "geometry": "POINT (-77.448717 38.786721)",
      "poi_name": "Dunkin'",
      "osm_id": 7693446879,
      "amenity": "fast_food",
      "cuisine": "donut;coffee_shop",
      "opening_hours": "Mo-Sa 04:00-21:00; Su 05:00-21:00",
      "website": "https://locations.dunkindonuts.com/en/va/manassas/7797-centreville-rd/354632",
      "phone": "+1 703-331-0160",
      "takeaway": "yes",
      "drive_through": "no",
      "addr_state": "VA",
      "addr_city": "Manassas",
      "addr_postcode": "20111",
      "addr_street": "Centreville Road",
      "addr_housenumber": "7797",
      "value": 263.94120311671185
    },
    {
      "id": 245011,
      "geometry": "POINT (-77.101634 38.883801)",
      "poi_name": "Extreme Pizza",
      "osm_id": 7758190098,
      "amenity": "fast_food",
      "cuisine": "pizza",
      "opening_hours": "Mo-Th 11:00-21:00; Fr-Sa 11:00-22:00; Su 11:00-21:00",
      "phone": "+1-577-777-1088",
      "takeaway": "yes",
      "drive_through": "no",
      "delivery": "yes",
      "addr_state": "VA",
      "addr_city": "Arlington",
      "addr_postcode": "22201",
      "addr_street": "Fairfax Drive",
      "addr_housenumber": "3444",
      "value": 263.94120311671185
    }
  ],
  "answer_type": "loc",
  "question_entities": {
    "[2]": {
      "distance": 110000,
      "text": "110 kilometers"
    },
    "[3]": {
      "main_category": "tourism",
      "sub_category": "museum",
      "display_name": "National Children's Museum, Washington, DC",
      "geo_wkt": "POINT (-77.029892 38.894273)",
      "poi": {
        "id": 9634,
        "geometry": "POINT (-77.029892 38.894273)",
        "poi_name": "National Children's Museum",
        "osm_id": 8898336471,
        "description": "Combining science center content with a children\u2019s museum experience, National Children's Museum is a hands-on space that ignites curiosity and inspires young children to explore science, technology, engineering, arts, and math (or STEAM) through whimsica",
        "tourism": "museum",
        "fee": "yes",
        "website": "https://nationalchildrensmuseum.org/",
        "museum": "children",
        "addr_state": "DC",
        "addr_city": "Washington",
        "addr_postcode": "20004",
        "addr_street": "Pennsylvania Avenue Northwest",
        "addr_housenumber": "1300"
      }
    },
    "[4]": {
      "main_category": "amenity",
      "sub_category": "hospital",
      "display_name": "Dominion Plastic Surgery, Falls Church, VA",
      "geo_wkt": "POINT (-77.222205 38.878159)",
      "poi": {
        "id": 204829,
        "geometry": "POINT (-77.222205 38.878159)",
        "poi_name": "Dominion Plastic Surgery",
        "osm_id": 7143550380,
        "amenity": "hospital",
        "opening_hours": "Mo-Fr 09:00-17:00",
        "website": "https://www.dominionplasticsurgery.com/",
        "phone": "+1 703-544-8971",
        "healthcare": "hospital",
        "emergency": "yes",
        "addr_state": "VA",
        "addr_city": "Falls Church",
        "addr_postcode": "22043",
        "addr_street": "Hartland Road",
        "addr_housenumber": "2755"
      }
    },
    "[1]": {
      "main_category": "amenity",
      "sub_category": "fast_food"
    }
  },
  "id": 1206,
  "type": "range:towards+loc"
}