{
  "question": "Could you track down an emergency hospital that is conveniently situated within 120 kilometers from Kettle Creek Environmental Education Center, Stroudsburg, PA?",
  "sql": "SELECT * FROM pois\nWHERE ST_DWithin(pois.geometry, ST_GeomFromText('POINT (-75.29615 40.988615)',4326)::geography, 120000)\nAND amenity = 'hospital'\nAND emergency ILIKE '%yes%';\n",
  "answers": [
    {
      "id": 64145,
      "geometry": "POINT (-75.242538 40.687207)",
      "poi_name": "Easton Hospital",
      "osm_id": 5641614323,
      "amenity": "hospital",
      "healthcare": "hospital",
      "emergency": "yes",
      "addr_state": "PA",
      "addr_city": "Easton",
      "addr_postcode": "18042",
      "addr_street": "South 21st Street",
      "addr_housenumber": "250"
    },
    {
      "id": 115288,
      "geometry": "POINT (-75.747899 40.810354)",
      "poi_name": "Lehigh Valley Hospital - Carbon",
      "osm_id": 8888300330,
      "amenity": "hospital",
      "operator": "Lehigh Valley Health Network",
      "healthcare": "hospital",
      "emergency": "yes",
      "addr_state": "PA",
      "addr_city": "Lehighton",
      "addr_postcode": "18235",
      "addr_street": "E Blakeslee BLVD DR",
      "addr_housenumber": "2128"
    },
    {
      "id": 115289,
      "geometry": "POINT (-75.725971 40.833095)",
      "poi_name": "St Luke's Hospital - Lehighton Campus",
      "osm_id": 8888314655,
      "amenity": "hospital",
      "operator": "St Luke's University Health Network",
      "healthcare": "hospital",
      "emergency": "yes",
      "addr_state": "PA",
      "addr_city": "Lehighton",
      "addr_postcode": "18235",
      "addr_street": "N 12th ST",
      "addr_housenumber": "211"
    },
    {
      "id": 115295,
      "geometry": "POINT (-75.672326 40.844997)",
      "poi_name": "St Luke's Hospital - Carbon Campus",
      "osm_id": 8888408878,
      "amenity": "hospital",
      "operator": "St Luke's University Health Network",
      "healthcare": "hospital",
      "emergency": "yes",
      "addr_state": "PA",
      "addr_city": "Lehighton",
      "addr_postcode": "18235",
      "addr_street": "St Luke's DR",
      "addr_housenumber": "500"
    },
    {
      "id": 146611,
      "geometry": "POINT (-73.92622 41.095996)",
      "poi_name": "Nyack Hospital",
      "osm_id": 7463163965,
      "amenity": "hospital",
      "healthcare": "hospital",
      "emergency": "yes"
    },
    {
      "id": 167461,
      "geometry": "POINT (-75.155019 39.94802)",
      "poi_name": "Wills Eye Hospital",
      "osm_id": 357374314,
      "amenity": "hospital",
      "opening_hours": "24/7",
      "website": "https://www.willseye.org/",
      "phone": "+1 215 928 3000",
      "healthcare": "hospital",
      "emergency": "yes",
      "wikidata": "Q8022473",
      "addr_city": "Philadelphia",
      "addr_postcode": "19107",
      "addr_street": "Walnut Street",
      "addr_housenumber": "840"
    },
    {
      "id": 167483,
      "geometry": "POINT (-73.879844 40.880085)",
      "poi_name": "Montefiore Medical Center West Campus Moses Division Hospital",
      "osm_id": 357571909,
      "amenity": "hospital",
      "opening_hours": "24/7",
      "operator": "Montefiore Health System",
      "website": "https://www.montefiore.org/west",
      "phone": "+1 718 920 4321",
      "healthcare": "hospital",
      "emergency": "yes",
      "wikidata": "Q6905066",
      "addr_city": "Bronx",
      "addr_postcode": "10467",
      "addr_street": "East 210th Street",
      "addr_housenumber": "111"
    },
    {
      "id": 167507,
      "geometry": "POINT (-73.881396 40.880358)",
      "poi_name": "North Central Bronx Hospital",
      "osm_id": 357611253,
      "amenity": "hospital",
      "opening_hours": "24/7",
      "operator": "NYC Health + Hospitals",
      "website": "https://www.nychealthandhospitals.org/northcentralbronx/",
      "phone": "+1 718 519 5000",
      "healthcare": "hospital",
      "emergency": "yes",
      "wikidata": "Q96396296",
      "addr_city": "Bronx",
      "addr_postcode": "10467",
      "addr_street": "Kossuth Avenue",
      "addr_housenumber": "3424"
    },
    {
      "id": 167513,
      "geometry": "POINT (-74.000833 40.737778)",
      "poi_name": "Lenox Health Greenwich Village",
      "osm_id": 357620244,
      "amenity": "hospital",
      "opening_hours": "24/7",
      "operator": "Northwell Health",
      "website": "https://www.northwell.edu/lenox-health-greenwich-village",
      "phone": "+1 646 665 6000",
      "healthcare": "hospital",
      "emergency": "yes",
      "addr_city": "New York",
      "addr_postcode": "10011",
      "addr_street": "7th Avenue",
      "addr_housenumber": "30"
    },
    {
      "id": 222206,
      "geometry": "POINT (-74.49608 40.862231)",
      "poi_name": "True Life Care Center",
      "osm_id": 11009629478,
      "amenity": "hospital",
      "description": "Our team at True Life Care is dedicated to helping you take control of your mental health through a personalized healing approach and compassionate care.",
      "opening_hours": "Mo-Fr 08:30-17:30",
      "website": "https://truelifecarementalhealth.com",
      "phone": "+1-973-490-4563",
      "healthcare": "hospital",
      "emergency": "yes",
      "addr_state": "NJ",
      "addr_city": "Morris Plains",
      "addr_postcode": "07950",
      "addr_street": "NJ-10",
      "addr_housenumber": "3000"
    }
  ],
  "answer_type": "name",
  "question_entities": {
    "[1]": {
      "main_category": "amenity",
      "sub_category": "hospital",
      "poi_filter_desc": "emergency hospital",
      "poi_filter_sql": "emergency ILIKE '%yes%'"
    },
    "[2]": {
      "distance": 120000,
      "text": "120 kilometers"
    },
    "[3]": {
      "main_category": "leisure",
      "sub_category": "nature reserve",
      "display_name": "Kettle Creek Environmental Education Center, Stroudsburg, PA",
      "geo_wkt": "POINT (-75.29615 40.988615)",
      "poi": {
        "id": 246853,
        "geometry": "POINT (-75.29615 40.988615)",
        "poi_name": "Kettle Creek Environmental Education Center",
        "osm_id": 6536561704,
        "leisure": "nature_reserve",
        "website": "https://www.mcconservation.org/",
        "addr_state": "PA",
        "addr_city": "Stroudsburg",
        "addr_postcode": "18360",
        "addr_street": "Running Valley Road",
        "addr_housenumber": "8050"
      }
    }
  },
  "id": 532,
  "type": "range:non_spat_filter+name"
}