{
  "question": "Can you suggest a caf\u00e9 within 90 kilometers of Silver Point Interpretive Overlook, OR?",
  "sql": "SELECT * FROM pois\nWHERE ST_DWithin(pois.geometry, ST_GeomFromText('POINT (-123.962654 45.855581)',4326)::geography, 90000)\nAND amenity = 'cafe';\n",
  "answers": [
    {
      "id": 38914,
      "geometry": "POINT (-123.920382 45.991138)",
      "poi_name": "Starbucks",
      "osm_id": 2890595901,
      "amenity": "cafe",
      "cuisine": "coffee_shop",
      "takeaway": "yes",
      "official_name": "Starbucks Coffee"
    },
    {
      "id": 39663,
      "geometry": "POINT (-123.961758 45.889215)",
      "poi_name": "Sleepy Monk Coffee",
      "osm_id": 2933695025,
      "amenity": "cafe",
      "cuisine": "coffee_shop"
    },
    {
      "id": 43199,
      "geometry": "POINT (-124.055065 46.333128)",
      "poi_name": "42nd Street Cafe",
      "osm_id": 3101142034,
      "amenity": "cafe",
      "website": "www.42ndstreetcafe.com",
      "phone": "+1-360-642-2323"
    },
    {
      "id": 46703,
      "geometry": "POINT (-122.935143 45.53376)",
      "poi_name": "Starbucks",
      "osm_id": 3284386459,
      "amenity": "cafe",
      "cuisine": "coffee_shop",
      "wheelchair": "yes",
      "opening_hours": "Mo-Fr 04:30-19:30; Sa 04:30-19:00; Su 05:00-19:00",
      "internet_access": "wlan",
      "phone": "+1-503-693-1239",
      "takeaway": "yes",
      "official_name": "Starbucks Coffee",
      "addr_state": "OR",
      "addr_city": "Hillsboro",
      "addr_postcode": "97124",
      "addr_street": "Northeast 48th Avenue",
      "addr_housenumber": "1221"
    },
    {
      "id": 46815,
      "geometry": "POINT (-123.049359 45.520288)",
      "poi_name": "Starbucks",
      "osm_id": 3293888774,
      "amenity": "cafe",
      "cuisine": "coffee_shop",
      "internet_access": "wlan",
      "takeaway": "yes",
      "official_name": "Starbucks Coffee",
      "addr_city": "Cornelius",
      "addr_postcode": "97113",
      "addr_street": "Baseline Road",
      "addr_housenumber": "1882"
    },
    {
      "id": 48879,
      "geometry": "POINT (-123.095373 45.51957)",
      "poi_name": "Starbucks",
      "osm_id": 3404868267,
      "amenity": "cafe",
      "cuisine": "coffee_shop",
      "takeaway": "yes",
      "official_name": "Starbucks Coffee"
    },
    {
      "id": 48880,
      "geometry": "POINT (-123.045248 45.522327)",
      "poi_name": "Starbucks",
      "osm_id": 3404868397,
      "amenity": "cafe",
      "cuisine": "coffee_shop",
      "internet_access": "wlan",
      "takeaway": "yes",
      "official_name": "Starbucks Coffee"
    },
    {
      "id": 51789,
      "geometry": "POINT (-122.927052 45.52059)",
      "poi_name": "Insomnia Coffee co.",
      "osm_id": 560311711,
      "amenity": "cafe",
      "cuisine": "coffee_shop",
      "opening_hours": "Mo-Fr 6:00-22:00; Sa 7:00-22:00; Su 8:00-17:00",
      "website": "https://insomniacoffee.co/",
      "internet_access": "wlan",
      "phone": "+1-503-601-4314",
      "addr_state": "OR",
      "addr_city": "Hillsboro",
      "addr_postcode": "97123",
      "addr_street": "East Main Street",
      "addr_housenumber": "5389"
    },
    {
      "id": 53194,
      "geometry": "POINT (-122.878328 45.741914)",
      "poi_name": "Starbucks",
      "osm_id": 10067917956,
      "amenity": "cafe",
      "cuisine": "coffee_shop",
      "takeaway": "yes",
      "official_name": "Starbucks Coffee"
    },
    {
      "id": 57835,
      "geometry": "POINT (-122.935921 46.133895)",
      "poi_name": "Keebler Coffee Roasters",
      "osm_id": 5353497588,
      "amenity": "cafe",
      "cuisine": "coffee_shop",
      "internet_access": "wlan"
    },
    {
      "id": 57839,
      "geometry": "POINT (-122.934757 46.135644)",
      "poi_name": "Cafe Guse",
      "osm_id": 5353497597,
      "amenity": "cafe",
      "cuisine": "coffee_shop",
      "opening_hours": "Mo-Fr 07:30-16:00; Sa 07:30-16:00; Su 09:00-14:00",
      "website": "https://www.cafeguse.com/",
      "phone": "1-360-425-8940",
      "addr_state": "WA",
      "addr_city": "Longview",
      "addr_postcode": "98632",
      "addr_street": "Commerce Avenue",
      "addr_housenumber": "1208"
    },
    {
      "id": 59346,
      "geometry": "POINT (-123.961798 45.20415)",
      "poi_name": "Grateful Bread",
      "osm_id": 5420677353,
      "amenity": "cafe"
    },
    {
      "id": 63124,
      "geometry": "POINT (-123.801222 46.193379)",
      "poi_name": "Astoria Coffee Co.",
      "osm_id": 5600824224,
      "amenity": "cafe",
      "addr_state": "OR",
      "addr_city": "Astoria",
      "addr_postcode": "97103",
      "addr_street": "37th Street",
      "addr_housenumber": "304"
    },
    {
      "id": 64216,
      "geometry": "POINT (-123.92285 45.993291)",
      "poi_name": "Seaside Coffee House",
      "osm_id": 5644991820,
      "amenity": "cafe",
      "cuisine": "coffee_shop"
    },
    {
      "id": 70491,
      "geometry": "POINT (-123.90832 45.559544)",
      "poi_name": "Pacific Edge Espresso",
      "osm_id": 11364868418,
      "amenity": "cafe",
      "cuisine": "coffee_shop",
      "takeaway": "only",
      "drive_through": "yes"
    },
    {
      "id": 70747,
      "geometry": "POINT (-123.928561 45.996964)",
      "poi_name": "Ocean Bakery Cafe",
      "osm_id": 11372517355,
      "amenity": "cafe"
    },
    {
      "id": 74364,
      "geometry": "POINT (-123.829905 46.18888)",
      "poi_name": "The Rusty Cup",
      "osm_id": 9677912297,
      "amenity": "cafe",
      "cuisine": "sandwich",
      "opening_hours": "Mo-Fr 07:00-17:30, Sa 08:00-5:30, Su 07:30-16:00",
      "internet_access": "no",
      "phone": "+1 503 325-8265",
      "addr_state": "OR",
      "addr_city": "Astoria",
      "addr_postcode": "97103",
      "addr_street": "Commercial Street",
      "addr_housenumber": "1213"
    },
    {
      "id": 70879,
      "geometry": "POINT (-123.844297 45.456928)",
      "poi_name": "Sarasota's",
      "osm_id": 11375905625,
      "amenity": "cafe"
    },
    {
      "id": 70881,
      "geometry": "POINT (-123.844338 45.457226)",
      "poi_name": "2nd Street Coffeehouse & Gallery",
      "osm_id": 11375905632,
      "amenity": "cafe",
      "cuisine": "coffee_shop"
    },
    {
      "id": 74370,
      "geometry": "POINT (-123.831932 46.188585)",
      "poi_name": "Coffee OR Waffle",
      "osm_id": 9677995454,
      "amenity": "cafe",
      "cuisine": "waffle;coffee",
      "internet_access": "no",
      "phone": "+1-503-440-5233",
      "addr_state": "OR",
      "addr_city": "Astoria",
      "addr_postcode": "97103",
      "addr_street": "11th Street",
      "addr_housenumber": "385"
    },
    {
      "id": 86912,
      "geometry": "POINT (-123.939159 45.718383)",
      "poi_name": "Manzanita Coffee Co.",
      "osm_id": 1959214505,
      "amenity": "cafe",
      "opening_hours": "Mo,Fr 07:00-12:00; Sa-Su 07:00-13:00"
    },
    {
      "id": 81498,
      "geometry": "POINT (-122.91875 45.555726)",
      "poi_name": "Longbottom Coffee & Tea",
      "osm_id": 1645203942,
      "amenity": "cafe",
      "cuisine": "coffee_shop",
      "opening_hours": "Mo-Fr 06:00-15:30, Sa-Su 07:30-14:30",
      "operator": "Longbottom Coffee & Tea",
      "website": "https://www.longbottomcoffee.com/",
      "internet_access": "wlan",
      "addr_city": "Hillsboro",
      "addr_postcode": "97124",
      "addr_street": "Northwest 235th Avenue",
      "addr_housenumber": "4893"
    },
    {
      "id": 91056,
      "geometry": "POINT (-122.896005 46.145712)",
      "poi_name": "Starbucks",
      "osm_id": 2037620867,
      "amenity": "cafe",
      "cuisine": "coffee_shop",
      "internet_access": "yes",
      "takeaway": "yes",
      "official_name": "Starbucks Coffee"
    },
    {
      "id": 87180,
      "geometry": "POINT (-122.830688 45.848652)",
      "poi_name": "Starbucks",
      "osm_id": 1975835638,
      "amenity": "cafe",
      "cuisine": "coffee_shop",
      "wheelchair": "yes",
      "opening_hours": "04:30-21:00",
      "internet_access": "wlan",
      "phone": "+1-503-397-1259",
      "takeaway": "yes",
      "drive_through": "yes",
      "official_name": "Starbucks Coffee",
      "addr_state": "OR",
      "addr_city": "Saint Helens",
      "addr_postcode": "97051",
      "addr_street": "Gable Road",
      "addr_housenumber": "2298"
    },
    {
      "id": 98023,
      "geometry": "POINT (-123.960329 45.899301)",
      "poi_name": "Seasons Cafe",
      "osm_id": 6505077990,
      "amenity": "cafe"
    },
    {
      "id": 93194,
      "geometry": "POINT (-123.943931 45.611594)",
      "poi_name": "The Cow Belle Cafe",
      "osm_id": 2155038631,
      "amenity": "cafe",
      "cuisine": "burger"
    },
    {
      "id": 95876,
      "geometry": "POINT (-123.044887 45.519778)",
      "poi_name": "Coffee Time",
      "osm_id": 6414806460,
      "amenity": "cafe",
      "cuisine": "coffee_shop",
      "takeaway": "yes"
    },
    {
      "id": 98031,
      "geometry": "POINT (-123.962159 45.889539)",
      "poi_name": "Seashore Bagels",
      "osm_id": 6505146752,
      "amenity": "cafe",
      "cuisine": "coffee_shop",
      "shop": "bakery",
      "addr_state": "OR",
      "addr_city": "Cannon Beach",
      "addr_postcode": "97110",
      "addr_street": "South Hemlock Street",
      "addr_housenumber": "1188"
    },
    {
      "id": 98079,
      "geometry": "POINT (-123.962066 45.889919)",
      "poi_name": "Cannon Beach Caf\u00e9",
      "osm_id": 6506591144,
      "amenity": "cafe",
      "addr_state": "OR",
      "addr_city": "Cannon Beach",
      "addr_postcode": "97110",
      "addr_street": "South Hemlock Street",
      "addr_housenumber": "1116"
    },
    {
      "id": 97992,
      "geometry": "POINT (-123.924926 45.993267)",
      "poi_name": "Roycatzzzz",
      "osm_id": 6504493046,
      "amenity": "cafe",
      "cuisine": "shaved_ice",
      "addr_street": "Broadway Street",
      "addr_housenumber": "550"
    },
    {
      "id": 98001,
      "geometry": "POINT (-123.920108 45.943224)",
      "poi_name": "Divine Grounds",
      "osm_id": 6504552610,
      "amenity": "cafe",
      "cuisine": "coffee_shop",
      "takeaway": "only",
      "drive_through": "yes",
      "addr_state": "OR",
      "addr_city": "Seaside",
      "addr_street": "South Roosevelt Drive"
    },
    {
      "id": 98080,
      "geometry": "POINT (-123.961971 45.890335)",
      "poi_name": "Bald Eagle Coffee House",
      "osm_id": 6506591158,
      "amenity": "cafe",
      "cuisine": "coffee_shop",
      "addr_state": "OR",
      "addr_city": "Cannon Beach",
      "addr_postcode": "97110",
      "addr_street": "South Hemlock Street"
    },
    {
      "id": 107328,
      "geometry": "POINT (-123.844154 45.45679)",
      "poi_name": "Sunseri's Dutch Mill",
      "osm_id": 3552288204,
      "amenity": "cafe"
    },
    {
      "id": 103089,
      "geometry": "POINT (-122.894252 45.567037)",
      "poi_name": "Meating Place Cafe",
      "osm_id": 8481405303,
      "amenity": "cafe",
      "outdoor_seating": "yes",
      "addr_state": "OR",
      "addr_city": "Hillsboro",
      "addr_postcode": "97124",
      "addr_street": "Northwest Cornelius Pass Road",
      "addr_housenumber": "6495"
    },
    {
      "id": 117003,
      "geometry": "POINT (-123.832621 46.188763)",
      "poi_name": "Green Door Cafe",
      "osm_id": 8975074846,
      "amenity": "cafe",
      "website": "https://www.yelp.com/biz_redir?url=https%3A%2F%2Fgreendoorcafe.myshopify.com&cachebuster=1627925089&website_link_type=website&src_bizid=eAwEhc9h0u5rQ65xvzTDVA&s=99b011b8080b013ad764ae83e202d3a0ced650459944a203e7238cc309b26b98",
      "phone": "+1 971-600-1165",
      "addr_state": "OR",
      "addr_city": "Astoria",
      "addr_postcode": "97103",
      "addr_street": "10th Street",
      "addr_housenumber": "332"
    },
    {
      "id": 110264,
      "geometry": "POINT (-123.808282 46.192542)",
      "poi_name": "Starbucks",
      "osm_id": 3693991509,
      "amenity": "cafe",
      "cuisine": "coffee_shop",
      "takeaway": "yes",
      "official_name": "Starbucks Coffee",
      "addr_state": "OR",
      "addr_city": "Astoria",
      "addr_postcode": "97103",
      "addr_street": "Leif Erickson Drive",
      "addr_housenumber": "3250"
    },
    {
      "id": 110265,
      "geometry": "POINT (-123.797536 46.197161)",
      "poi_name": "Coffee Girl",
      "osm_id": 3693991517,
      "amenity": "cafe",
      "cuisine": "coffee_shop",
      "opening_hours": "Mo-Th 07:00-16:00, Fr 07:00-17:00, Sa 08:00-17:00, Su 08:00-16:00",
      "website": "http://www.thecoffeegirl.com",
      "addr_state": "OR",
      "addr_city": "Astoria",
      "addr_postcode": "97103",
      "addr_street": "39th Street"
    },
    {
      "id": 110295,
      "geometry": "POINT (-123.900273 46.160786)",
      "poi_name": "Starbucks",
      "osm_id": 3695913285,
      "amenity": "cafe",
      "cuisine": "coffee_shop",
      "takeaway": "yes",
      "official_name": "Starbucks Coffee",
      "outdoor_seating": "yes",
      "addr_state": "OR",
      "addr_city": "Warrenton"
    },
    {
      "id": 119219,
      "geometry": "POINT (-123.828035 46.189148)",
      "poi_name": "Milky-Cha",
      "osm_id": 9089590393,
      "amenity": "cafe",
      "cuisine": "bubble_tea",
      "opening_hours": "Mo-Su 10:00-18:00",
      "phone": "5037413700",
      "addr_state": "OR",
      "addr_city": "Astoria",
      "addr_postcode": "97103",
      "addr_street": "Commercial Street",
      "addr_housenumber": "1442"
    },
    {
      "id": 117256,
      "geometry": "POINT (-122.90349 45.550835)",
      "poi_name": "Starbucks",
      "osm_id": 8984435847,
      "amenity": "cafe",
      "cuisine": "coffee_shop",
      "takeaway": "yes",
      "official_name": "Starbucks Coffee"
    },
    {
      "id": 127279,
      "geometry": "POINT (-122.899111 46.142726)",
      "poi_name": "Starbucks",
      "osm_id": 8049340889,
      "amenity": "cafe",
      "cuisine": "coffee_shop",
      "takeaway": "yes",
      "official_name": "Starbucks Coffee"
    },
    {
      "id": 126839,
      "geometry": "POINT (-122.93566 46.138893)",
      "poi_name": "Red Leaf Organic Coffee",
      "osm_id": 8004048504,
      "amenity": "cafe",
      "cuisine": "coffee_shop"
    },
    {
      "id": 129595,
      "geometry": "POINT (-123.929442 45.720558)",
      "poi_name": "Sisters and Pete's Coffees & Treats",
      "osm_id": 9831458517,
      "amenity": "cafe"
    },
    {
      "id": 129543,
      "geometry": "POINT (-123.9028 46.16035)",
      "poi_name": "Starbucks",
      "osm_id": 9829516117,
      "amenity": "cafe",
      "cuisine": "coffee_shop",
      "wheelchair": "yes",
      "takeaway": "yes",
      "official_name": "Starbucks Coffee"
    },
    {
      "id": 131338,
      "geometry": "POINT (-122.986379 45.522113)",
      "poi_name": "Tamu Boba",
      "osm_id": 9910248850,
      "amenity": "cafe",
      "addr_city": "Hillsboro",
      "addr_postcode": "97123",
      "addr_street": "Southeast 3rd Avenue",
      "addr_housenumber": "131"
    },
    {
      "id": 130652,
      "geometry": "POINT (-123.114388 45.519525)",
      "poi_name": "Kafe",
      "osm_id": 9881561716,
      "amenity": "cafe",
      "addr_city": "Forest Grove",
      "addr_postcode": "97116",
      "addr_street": "Pacific Avenue",
      "addr_housenumber": "1832"
    },
    {
      "id": 144551,
      "geometry": "POINT (-122.938773 46.136791)",
      "poi_name": "Starbucks",
      "osm_id": 7273605483,
      "amenity": "cafe",
      "cuisine": "coffee_shop",
      "takeaway": "yes",
      "official_name": "Starbucks Coffee"
    },
    {
      "id": 144552,
      "geometry": "POINT (-122.90233 46.141151)",
      "poi_name": "Starbucks",
      "osm_id": 7273610676,
      "amenity": "cafe",
      "cuisine": "coffee_shop",
      "takeaway": "yes",
      "official_name": "Starbucks Coffee"
    },
    {
      "id": 149330,
      "geometry": "POINT (-124.055574 46.346901)",
      "poi_name": "Long Beach Coffee Roasters",
      "osm_id": 4003557969,
      "amenity": "cafe",
      "website": "https://www.longbeachcoffee.com/",
      "phone": "+1-360-642-2334"
    },
    {
      "id": 146525,
      "geometry": "POINT (-122.926699 46.144352)",
      "poi_name": "Starbucks",
      "osm_id": 7450675244,
      "amenity": "cafe",
      "cuisine": "coffee_shop",
      "takeaway": "yes",
      "official_name": "Starbucks Coffee"
    },
    {
      "id": 150790,
      "geometry": "POINT (-122.925506 46.146098)",
      "poi_name": "The Espresso Express",
      "osm_id": 4067483981,
      "amenity": "cafe"
    },
    {
      "id": 150677,
      "geometry": "POINT (-123.195609 46.101471)",
      "poi_name": "Fins Custom Tackle & Cafe",
      "osm_id": 4062458385,
      "amenity": "cafe"
    },
    {
      "id": 150678,
      "geometry": "POINT (-123.20781 46.105209)",
      "poi_name": "Liney Bird's Pie & Coffee House",
      "osm_id": 4062458388,
      "amenity": "cafe"
    },
    {
      "id": 153011,
      "geometry": "POINT (-122.83226 45.849569)",
      "poi_name": "Starbucks",
      "osm_id": 4172417491,
      "amenity": "cafe",
      "cuisine": "coffee_shop",
      "opening_hours": "06:00-19:00",
      "internet_access": "wlan",
      "phone": "+1-503-397-2630",
      "takeaway": "yes",
      "official_name": "Starbucks Coffee",
      "addr_state": "OR",
      "addr_city": "Saint Helens",
      "addr_postcode": "97051",
      "addr_street": "South Columbia River Highway",
      "addr_housenumber": "795"
    },
    {
      "id": 151587,
      "geometry": "POINT (-123.849116 46.189094)",
      "poi_name": "Columbia River Coffee Roaster",
      "osm_id": 4106625660,
      "amenity": "cafe",
      "cuisine": "coffee_shop",
      "website": "https://www.thundermuck.com/",
      "phone": "+1 503 3252755",
      "addr_state": "OR",
      "addr_city": "Astoria",
      "addr_postcode": "97103",
      "addr_street": "West Marine Drive",
      "addr_housenumber": "279"
    },
    {
      "id": 152037,
      "geometry": "POINT (-122.916337 45.530652)",
      "poi_name": "AVA Roasteria",
      "osm_id": 4123993190,
      "amenity": "cafe",
      "cuisine": "coffee_shop",
      "opening_hours": "Mo-Su 09:00-22:00",
      "website": "https://www.avaroasteria.com/",
      "outdoor_seating": "yes",
      "addr_state": "OR",
      "addr_city": "Hillsboro",
      "addr_postcode": "97124",
      "addr_street": "Northeast Orenco Station Loop",
      "addr_housenumber": "936"
    },
    {
      "id": 154325,
      "geometry": "POINT (-123.928397 46.149167)",
      "poi_name": "Arnie's",
      "osm_id": 4232818789,
      "amenity": "cafe",
      "addr_street": "South Main Avenue"
    },
    {
      "id": 153813,
      "geometry": "POINT (-123.961728 45.898179)",
      "poi_name": "Insomnia Coffee Co.",
      "osm_id": 4213108152,
      "amenity": "cafe",
      "cuisine": "coffee_shop",
      "opening_hours": "08:00-17:00",
      "website": "https://insomniacoffee.co/",
      "internet_access": "yes",
      "phone": "(503) 436-4164",
      "addr_state": "OR",
      "addr_city": "Cannon Beach",
      "addr_postcode": "97110",
      "addr_street": "West 2nd Street",
      "addr_housenumber": "139"
    },
    {
      "id": 158571,
      "geometry": "POINT (-122.878278 45.750525)",
      "poi_name": "Scappoose Bagels",
      "osm_id": 4754816366,
      "amenity": "cafe",
      "cuisine": "bagel"
    },
    {
      "id": 154860,
      "geometry": "POINT (-123.917187 46.076434)",
      "poi_name": "M\u00e9 Latte",
      "osm_id": 4259743622,
      "amenity": "cafe"
    },
    {
      "id": 154933,
      "geometry": "POINT (-123.919263 46.146921)",
      "poi_name": "Uptown Cafe",
      "osm_id": 4261957042,
      "amenity": "cafe"
    },
    {
      "id": 154468,
      "geometry": "POINT (-122.954923 45.53018)",
      "poi_name": "Starbucks",
      "osm_id": 4239850792,
      "amenity": "cafe",
      "cuisine": "coffee_shop",
      "opening_hours": "06:00-19:00",
      "phone": "+1-503-681-8927",
      "takeaway": "yes",
      "official_name": "Starbucks Coffee",
      "addr_state": "OR",
      "addr_city": "Hillsboro",
      "addr_postcode": "97124",
      "addr_street": "Northeast 25th Avenue",
      "addr_housenumber": "888"
    },
    {
      "id": 155628,
      "geometry": "POINT (-122.967068 46.148649)",
      "poi_name": "Red Leaf",
      "osm_id": 4293889851,
      "amenity": "cafe",
      "cuisine": "coffee_shop"
    },
    {
      "id": 162897,
      "geometry": "POINT (-123.960037 45.874542)",
      "poi_name": "Sea Level Bakery + Coffee",
      "osm_id": 9388851584,
      "amenity": "cafe",
      "website": "https://www.sealevelbakery.com",
      "shop": "bakery",
      "addr_street": "South Hemlock Street",
      "addr_housenumber": "3116"
    },
    {
      "id": 162615,
      "geometry": "POINT (-123.960448 45.898826)",
      "poi_name": "Coffee House",
      "osm_id": 4936422942,
      "amenity": "cafe",
      "cuisine": "coffee_shop"
    },
    {
      "id": 162616,
      "geometry": "POINT (-123.960446 45.898221)",
      "poi_name": "Cr\u00eape Neptune",
      "osm_id": 4936422943,
      "amenity": "cafe",
      "cuisine": "crepe",
      "website": "https://crepeneptune.com"
    },
    {
      "id": 183069,
      "geometry": "POINT (-123.771891 46.36438)",
      "poi_name": "Archives Cafe",
      "osm_id": 10915227788,
      "amenity": "cafe"
    },
    {
      "id": 163124,
      "geometry": "POINT (-122.975416 45.5179)",
      "poi_name": "Chen Fu Bubble Tea",
      "osm_id": 9401121923,
      "amenity": "cafe",
      "cuisine": "bubble_tea",
      "phone": "+1-503-568-0255",
      "addr_state": "OR",
      "addr_city": "Hillsboro",
      "addr_postcode": "97123",
      "addr_street": "Southeast 9th Avenue",
      "addr_housenumber": "424"
    },
    {
      "id": 165468,
      "geometry": "POINT (-124.04364 46.309469)",
      "poi_name": "Roots",
      "osm_id": 9537321465,
      "amenity": "cafe",
      "cuisine": "juice;coffee;sandwich;smoothie;salad",
      "takeaway": "only",
      "addr_street": "1st Avenue North",
      "addr_housenumber": "111"
    },
    {
      "id": 165490,
      "geometry": "POINT (-124.042267 46.308227)",
      "poi_name": "The Ebb",
      "osm_id": 9538608900,
      "amenity": "cafe",
      "cuisine": "coffee_shop",
      "wheelchair": "yes",
      "addr_street": "Lake Street Southeast",
      "addr_housenumber": "122"
    },
    {
      "id": 163641,
      "geometry": "POINT (-123.087345 45.519787)",
      "poi_name": "Starbucks",
      "osm_id": 9427413551,
      "amenity": "cafe",
      "cuisine": "coffee_shop",
      "opening_hours": "Mo-Su 08:00-20:00",
      "website": "https://www.starbucks.com/store-locator/store/1030685/forest-grove-3424-pacific-ave-forest-grove-or-97116-us",
      "phone": "+1-503-770-5003",
      "takeaway": "yes",
      "drive_through": "yes",
      "official_name": "Starbucks Coffee",
      "outdoor_seating": "yes",
      "addr_state": "OR",
      "addr_city": "Forest Grove",
      "addr_postcode": "97116",
      "addr_street": "Pacific Avenue",
      "addr_housenumber": "3424"
    },
    {
      "id": 223583,
      "geometry": "POINT (-122.934422 46.138253)",
      "poi_name": "Eclipse Coffee & Tea",
      "osm_id": 11057614894,
      "amenity": "cafe",
      "outdoor_seating": "no"
    },
    {
      "id": 197933,
      "geometry": "POINT (-123.924039 45.985581)",
      "poi_name": "Brew 22",
      "osm_id": 10681865110,
      "amenity": "cafe"
    },
    {
      "id": 202996,
      "geometry": "POINT (-123.969507 45.21545)",
      "poi_name": "Stimulus Coffee & Bakery",
      "osm_id": 7057388398,
      "amenity": "cafe"
    },
    {
      "id": 215351,
      "geometry": "POINT (-123.11241 45.521104)",
      "poi_name": "Diversity Cafe",
      "osm_id": 5296637963,
      "amenity": "cafe"
    },
    {
      "id": 222297,
      "geometry": "POINT (-123.093564 45.519654)",
      "poi_name": "Maridon's Cafe & Malt Shop",
      "osm_id": 11012990422,
      "amenity": "cafe",
      "phone": "+15033593513",
      "addr_state": "OR",
      "addr_city": "Forest Grove",
      "addr_postcode": "97116",
      "addr_street": "Pacific Avenue",
      "addr_housenumber": "3012"
    },
    {
      "id": 186545,
      "geometry": "POINT (-123.384682 46.201652)",
      "poi_name": "Patty Cakes",
      "osm_id": 7935047476,
      "amenity": "cafe",
      "cuisine": "coffee_shop;sandwich",
      "opening_hours": "Mo-Sa 07:00-17:00",
      "internet_access": "yes",
      "addr_state": "WA",
      "addr_city": "Cathlamet",
      "addr_postcode": "98612",
      "addr_street": "Main Street",
      "addr_housenumber": "98"
    },
    {
      "id": 212899,
      "geometry": "POINT (-123.827338 46.188432)",
      "poi_name": "Blue Scorcher Bakery and Cafe",
      "osm_id": 5225196890,
      "amenity": "cafe",
      "wheelchair": "yes",
      "outdoor_seating": "yes",
      "addr_state": "OR",
      "addr_city": "Astoria",
      "addr_postcode": "97103",
      "addr_street": "Duane Street",
      "addr_housenumber": "1493"
    },
    {
      "id": 226796,
      "geometry": "POINT (-123.942755 45.618961)",
      "poi_name": "R&R Espresso",
      "osm_id": 11168375576,
      "amenity": "cafe",
      "takeaway": "only"
    },
    {
      "id": 225294,
      "geometry": "POINT (-123.095369 45.518961)",
      "poi_name": "BJ's Coffee Co",
      "osm_id": 11119813419,
      "amenity": "cafe",
      "website": "https://www.bjscoffeeco.com/",
      "phone": "+15033570969",
      "addr_city": "Forest Grove",
      "addr_postcode": "97116",
      "addr_street": "Pacific Avenue",
      "addr_housenumber": "2834"
    },
    {
      "id": 225674,
      "geometry": "POINT (-123.082676 45.519969)",
      "poi_name": "Black Rock Coffee Bar",
      "osm_id": 11136988410,
      "amenity": "cafe",
      "website": "https://br.coffee/",
      "phone": "+19712728952"
    },
    {
      "id": 226891,
      "geometry": "POINT (-123.943693 45.613087)",
      "poi_name": "Beach Bakeshop",
      "osm_id": 11172366372,
      "amenity": "cafe",
      "opening_hours": "08:00-15:00,Mo,Th-Su closed",
      "outdoor_seating": "no"
    },
    {
      "id": 226892,
      "geometry": "POINT (-123.943693 45.613087)",
      "poi_name": "Beach Bakeshop",
      "osm_id": 11172367059,
      "amenity": "cafe",
      "opening_hours": "08:00-15:00,Mo,Th-Su closed",
      "outdoor_seating": "no"
    },
    {
      "id": 228273,
      "geometry": "POINT (-122.979264 45.5196)",
      "poi_name": "Cappuccino Corner Cafe",
      "osm_id": 4337883564,
      "amenity": "cafe"
    },
    {
      "id": 227843,
      "geometry": "POINT (-122.917496 46.14599)",
      "poi_name": "Red Leaf Organic Coffee",
      "osm_id": 4318961446,
      "amenity": "cafe",
      "cuisine": "coffee_shop",
      "wheelchair": "yes",
      "opening_hours": "Mo-Fr 05:30-20:00, Sa 06:09-20:00, Su 06:30-17:00",
      "internet_access": "wlan",
      "addr_city": "Kelso",
      "addr_street": "West Main Street",
      "addr_housenumber": "209"
    },
    {
      "id": 233689,
      "geometry": "POINT (-123.982079 45.102448)",
      "poi_name": "Beach Club Bistro",
      "osm_id": 4583483822,
      "amenity": "cafe"
    },
    {
      "id": 239262,
      "geometry": "POINT (-123.925262 45.993256)",
      "poi_name": "Dundee's Donuts",
      "osm_id": 5914382915,
      "amenity": "cafe",
      "addr_street": "Broadway Street",
      "addr_housenumber": "500"
    },
    {
      "id": 239266,
      "geometry": "POINT (-123.928402 45.993062)",
      "poi_name": "Pacific Pearl Coffee Company",
      "osm_id": 5914514289,
      "amenity": "cafe",
      "cuisine": "coffee_shop"
    },
    {
      "id": 239267,
      "geometry": "POINT (-123.929775 45.993086)",
      "poi_name": "Beach Day Coffee",
      "osm_id": 5914514294,
      "amenity": "cafe",
      "cuisine": "coffee_shop"
    },
    {
      "id": 239271,
      "geometry": "POINT (-123.923853 45.993585)",
      "poi_name": "Patty\u2019s Wicker Cafe",
      "osm_id": 5914514307,
      "amenity": "cafe",
      "cuisine": "coffee_shop"
    },
    {
      "id": 239279,
      "geometry": "POINT (-123.961086 45.898922)",
      "poi_name": "Island Coffee Roasters",
      "osm_id": 5914698021,
      "amenity": "cafe",
      "cuisine": "coffee_shop"
    },
    {
      "id": 241408,
      "geometry": "POINT (-122.965958 45.50711)",
      "poi_name": "Skywater Tea House",
      "osm_id": 6022739958,
      "amenity": "cafe",
      "cuisine": "teahouse",
      "website": "https://www.skywaterteahouse.com/",
      "shop": "tea",
      "phone": "(971) 427-4576",
      "addr_state": "OR",
      "addr_city": "Hillsboro",
      "addr_postcode": "97123",
      "addr_street": "Southeast River Road",
      "addr_housenumber": "1601"
    },
    {
      "id": 234062,
      "geometry": "POINT (-123.889377 45.524267)",
      "poi_name": "Downies Cafe",
      "osm_id": 4600793989,
      "amenity": "cafe"
    },
    {
      "id": 235185,
      "geometry": "POINT (-122.915821 45.53075)",
      "poi_name": "Sharetea",
      "osm_id": 5747645234,
      "amenity": "cafe",
      "cuisine": "bubble_tea",
      "opening_hours": "Mo-Th 12:00-21:00; Fr 12:00-22:00; Sa 11:00-22:00; Su 11:00-21:00",
      "website": "https://www.1992sharetea.com",
      "takeaway": "yes",
      "addr_state": "OR",
      "addr_city": "Hillsboro",
      "addr_postcode": "97124",
      "addr_street": "Northeast Orenco Station Loop",
      "addr_housenumber": "933"
    },
    {
      "id": 241655,
      "geometry": "POINT (-122.938951 45.520549)",
      "poi_name": "Boba Licious Cafe",
      "osm_id": 6034483551,
      "amenity": "cafe"
    },
    {
      "id": 242961,
      "geometry": "POINT (-123.85957 46.180638)",
      "poi_name": "A-Town Coffee",
      "osm_id": 7613037386,
      "amenity": "cafe",
      "addr_postcode": "97103",
      "addr_street": "West Marine Drive",
      "addr_housenumber": "632"
    },
    {
      "id": 244881,
      "geometry": "POINT (-123.917119 46.146774)",
      "poi_name": "Red Leaf Coffee",
      "osm_id": 7747293440,
      "amenity": "cafe",
      "cuisine": "coffee_shop"
    }
  ],
  "answer_type": "name",
  "question_entities": {
    "[1]": {
      "main_category": "amenity",
      "sub_category": "cafe"
    },
    "[2]": {
      "distance": 90000,
      "text": "90 kilometers"
    },
    "[3]": {
      "main_category": "tourism",
      "sub_category": "viewpoint",
      "display_name": "Silver Point Interpretive Overlook, OR",
      "geo_wkt": "POINT (-123.962654 45.855581)",
      "poi": {
        "id": 21991,
        "geometry": "POINT (-123.962654 45.855581)",
        "poi_name": "Silver Point Interpretive Overlook",
        "osm_id": 954793454,
        "tourism": "viewpoint",
        "addr_state": "OR",
        "addr_street": "Oregon Coast Highway"
      }
    }
  },
  "id": 834,
  "type": "range+name"
}