{
  "question": "Within 130 kilometers, which caf\u00e9 can I find from Hyatt Regency Boston, Boston, MA on the way to Captain Robert Bennet Forbes House, MA?",
  "sql": "WITH\n    angle AS (SELECT degrees(ST_Azimuth(ST_GeomFromText('POINT (-71.060771 42.353404)',4326)::geography, ST_GeomFromText('POINT (-71.06508 42.264584)',4326)::geography)) AS value)\nSELECT * FROM pois,angle\nWHERE amenity = 'cafe'\nAND ST_DWithin(pois.geometry, ST_GeomFromText('POINT (-71.060771 42.353404)',4326)::geography, 130000)\nAND (degrees(ST_Azimuth(ST_GeomFromText('POINT (-71.060771 42.353404)',4326)::geography, pois.geometry)) BETWEEN angle.value - 22.5 AND angle.value + 22.5);\n",
  "answers": [
    {
      "id": 30608,
      "geometry": "POINT (-71.285746 41.729492)",
      "poi_name": "Cafe Water Street",
      "osm_id": 8369853151,
      "amenity": "cafe",
      "cuisine": "crepe;sandwich",
      "phone": "+1-401-245-7071",
      "outdoor_seating": "yes",
      "addr_state": "RI",
      "addr_city": "Warren",
      "addr_postcode": "02885",
      "addr_street": "Water Street",
      "addr_housenumber": "279",
      "value": 182.06374956750864
    },
    {
      "id": 31671,
      "geometry": "POINT (-71.062466 42.343907)",
      "poi_name": "Cuppacoffee",
      "osm_id": 8441344794,
      "amenity": "cafe",
      "cuisine": "coffee_shop;australian",
      "opening_hours": "Mo-Su 06:00-13:30",
      "website": "http://www.trycuppacoffee.com",
      "addr_state": "MA",
      "addr_city": "Boston",
      "addr_postcode": "02118",
      "addr_street": "Traveler Street",
      "addr_housenumber": "57",
      "value": 182.06374956750864
    },
    {
      "id": 31676,
      "geometry": "POINT (-71.06301 42.34597)",
      "poi_name": "Peet's Coffee",
      "osm_id": 8441559626,
      "amenity": "cafe",
      "cuisine": "coffee_shop",
      "opening_hours": "Mo-Sa 07:00-16:00",
      "website": "https://www.peets.com/",
      "phone": "+16178307135",
      "takeaway": "yes",
      "addr_state": "MA",
      "addr_city": "Boston",
      "addr_postcode": "02118",
      "addr_street": "Harrison Avenue",
      "addr_housenumber": "310",
      "value": 182.06374956750864
    },
    {
      "id": 55978,
      "geometry": "POINT (-71.063062 42.325652)",
      "poi_name": "Starbucks",
      "osm_id": 10219943312,
      "amenity": "cafe",
      "cuisine": "coffee_shop",
      "internet_access": "wlan",
      "takeaway": "yes",
      "official_name": "Starbucks Coffee",
      "outdoor_seating": "yes",
      "value": 182.06374956750864
    },
    {
      "id": 54972,
      "geometry": "POINT (-71.39091 41.766208)",
      "poi_name": "Rainbow Water",
      "osm_id": 10164698964,
      "amenity": "cafe",
      "cuisine": "bubble_tea",
      "value": 182.06374956750864
    },
    {
      "id": 54974,
      "geometry": "POINT (-71.390898 41.76617)",
      "poi_name": "beans & buns",
      "osm_id": 10164698967,
      "amenity": "cafe",
      "value": 182.06374956750864
    },
    {
      "id": 60860,
      "geometry": "POINT (-70.925862 41.635245)",
      "poi_name": "Cafe Arpeggio",
      "osm_id": 5485463357,
      "amenity": "cafe",
      "cuisine": "comfort_food;quick_bite;breakfast",
      "opening_hours": "Mo-We 07:00-20:00, Th 07:00-22:00, Fr 07:00-16:00, Sa 08:00-15:00, Su closed",
      "website": "https://www.cafearpeggio.com/",
      "addr_state": "MA",
      "addr_city": "New Bedford",
      "addr_street": "Purchase Street",
      "addr_housenumber": "800",
      "value": 182.06374956750864
    },
    {
      "id": 68304,
      "geometry": "POINT (-71.083654 42.050105)",
      "poi_name": "Honey Dew",
      "osm_id": 11265422547,
      "amenity": "cafe",
      "cuisine": "donut;coffee_shop",
      "takeaway": "yes",
      "value": 182.06374956750864
    },
    {
      "id": 61990,
      "geometry": "POINT (-71.524175 41.484879)",
      "poi_name": "The 401",
      "osm_id": 5546510351,
      "amenity": "cafe",
      "value": 182.06374956750864
    },
    {
      "id": 61992,
      "geometry": "POINT (-71.529509 41.484441)",
      "poi_name": "193 Degree Coffeehouse",
      "osm_id": 5546510387,
      "amenity": "cafe",
      "value": 182.06374956750864
    },
    {
      "id": 67453,
      "geometry": "POINT (-71.276787 41.670739)",
      "poi_name": "Bristol Sunset Cafe",
      "osm_id": 11235769679,
      "amenity": "cafe",
      "cuisine": "american, pancake, coffee",
      "opening_hours": "Mo-Sa 07:30-14:00",
      "website": "https://www.bristolsunsetcafe.com/",
      "internet_access": "wlan",
      "phone": "+1 (401) 253-1910",
      "addr_state": "RI",
      "addr_city": "Bristol",
      "addr_postcode": "02809",
      "addr_street": "Hope Street",
      "addr_housenumber": "499",
      "value": 182.06374956750864
    },
    {
      "id": 75808,
      "geometry": "POINT (-71.28286 41.509807)",
      "poi_name": "Custom House Coffee",
      "osm_id": 9747412912,
      "amenity": "cafe",
      "cuisine": "coffee_shop",
      "value": 182.06374956750864
    },
    {
      "id": 68270,
      "geometry": "POINT (-71.143824 42.025392)",
      "poi_name": "Starbucks",
      "osm_id": 11265208583,
      "amenity": "cafe",
      "cuisine": "coffee_shop",
      "takeaway": "yes",
      "official_name": "Starbucks Coffee",
      "value": 182.06374956750864
    },
    {
      "id": 68282,
      "geometry": "POINT (-71.122738 42.023904)",
      "poi_name": "Aroma Joe's",
      "osm_id": 11265331819,
      "amenity": "cafe",
      "cuisine": "coffee_shop",
      "takeaway": "yes",
      "value": 182.06374956750864
    },
    {
      "id": 75844,
      "geometry": "POINT (-71.441063 41.548698)",
      "poi_name": "Rome Point Cafe",
      "osm_id": 9750004381,
      "amenity": "cafe",
      "value": 182.06374956750864
    },
    {
      "id": 75552,
      "geometry": "POINT (-71.30229 41.504443)",
      "poi_name": "Simple Merchant Coffee",
      "osm_id": 9735927582,
      "amenity": "cafe",
      "cuisine": "coffee_shop",
      "value": 182.06374956750864
    },
    {
      "id": 75868,
      "geometry": "POINT (-71.314936 41.488243)",
      "poi_name": "Drift Cafe",
      "osm_id": 9750258711,
      "amenity": "cafe",
      "cuisine": "coffee_shop",
      "value": 182.06374956750864
    },
    {
      "id": 73064,
      "geometry": "POINT (-70.917926 41.611443)",
      "poi_name": "Dough Company",
      "osm_id": 9604329527,
      "amenity": "cafe",
      "cuisine": "bakery;coffee;quick_bites;artisinal;local",
      "wheelchair": "limited",
      "opening_hours": "We-Mo 07:00-16:00; Tu off",
      "website": "https://dough-company.business.site/",
      "internet_access": "wlan",
      "phone": "+17742027232",
      "takeaway": "yes",
      "drive_through": "no",
      "delivery": "no",
      "toilets": "yes",
      "addr_state": "MA",
      "addr_city": "New Bedford",
      "addr_postcode": "02744",
      "addr_street": "W Rodney French Boulevard",
      "addr_housenumber": "127",
      "value": 182.06374956750864
    },
    {
      "id": 75437,
      "geometry": "POINT (-71.060508 42.351044)",
      "poi_name": "Tea-Do",
      "osm_id": 9730732117,
      "amenity": "cafe",
      "cuisine": "bubble_tea",
      "opening_hours": "Su-Th 10:30-22:00; Fr-Sa 10:30-23:00",
      "website": "https://www.teadocafe.com/",
      "phone": "+1 617 988 8002",
      "addr_postcode": "02111",
      "value": 182.06374956750864
    },
    {
      "id": 75634,
      "geometry": "POINT (-71.018506 42.26564)",
      "poi_name": "Coffee Break Cafe",
      "osm_id": 9738698500,
      "amenity": "cafe",
      "cuisine": "coffee_shop",
      "value": 182.06374956750864
    },
    {
      "id": 76027,
      "geometry": "POINT (-71.25919 41.6491)",
      "poi_name": "Starbucks",
      "osm_id": 9756372387,
      "amenity": "cafe",
      "cuisine": "coffee_shop",
      "internet_access": "yes",
      "takeaway": "yes",
      "official_name": "Starbucks Coffee",
      "outdoor_seating": "yes",
      "value": 182.06374956750864
    },
    {
      "id": 80105,
      "geometry": "POINT (-71.314764 41.487696)",
      "poi_name": "Starbucks",
      "osm_id": 850366221,
      "amenity": "cafe",
      "cuisine": "coffee_shop",
      "takeaway": "yes",
      "official_name": "Starbucks Coffee",
      "value": 182.06374956750864
    },
    {
      "id": 86121,
      "geometry": "POINT (-70.632938 41.438407)",
      "poi_name": "Scottish Bakehouse",
      "osm_id": 1917651568,
      "amenity": "cafe",
      "value": 182.06374956750864
    },
    {
      "id": 112736,
      "geometry": "POINT (-71.146221 41.631069)",
      "poi_name": "The Moose Cafe",
      "osm_id": 3803620767,
      "amenity": "cafe",
      "cuisine": "ice_cream",
      "opening_hours": "Mo-Fr 06:00-21:00, Sa,Su 07:00-21:00",
      "internet_access": "wlan",
      "addr_state": "RI",
      "addr_city": "Tiverton",
      "addr_postcode": "02878",
      "addr_street": "Stafford Road",
      "addr_housenumber": "1160",
      "value": 182.06374956750864
    },
    {
      "id": 91988,
      "geometry": "POINT (-71.435668 41.726013)",
      "poi_name": "Starbucks",
      "osm_id": 2099033281,
      "amenity": "cafe",
      "cuisine": "coffee_shop",
      "wheelchair": "yes",
      "takeaway": "yes",
      "official_name": "Starbucks Coffee",
      "value": 182.06374956750864
    },
    {
      "id": 93706,
      "geometry": "POINT (-70.668856 41.523363)",
      "poi_name": "Pie In The Sky",
      "osm_id": 2182568502,
      "amenity": "cafe",
      "website": "https://pieintheskywoodshole.com",
      "value": 182.06374956750864
    },
    {
      "id": 96518,
      "geometry": "POINT (-71.316257 41.486626)",
      "poi_name": "Coffee Grinders",
      "osm_id": 6434755085,
      "amenity": "cafe",
      "value": 182.06374956750864
    },
    {
      "id": 87008,
      "geometry": "POINT (-71.065192 42.342535)",
      "poi_name": "Mohr & McPherson",
      "osm_id": 1966000180,
      "amenity": "cafe",
      "value": 182.06374956750864
    },
    {
      "id": 87187,
      "geometry": "POINT (-71.056927 42.321482)",
      "poi_name": "The Sugar Bowl",
      "osm_id": 1975943681,
      "amenity": "cafe",
      "cuisine": "ice_cream",
      "opening_hours": "Mo-Th 06:00-14:00; Fr 06:00-14:00; Sa 08:00-15:00; Su 09:00-15:00",
      "addr_postcode": "02125",
      "addr_street": "Dorchester Avenue",
      "addr_housenumber": "857",
      "value": 182.06374956750864
    },
    {
      "id": 93696,
      "geometry": "POINT (-70.66963 41.523892)",
      "poi_name": "Coffee Obsession",
      "osm_id": 2181940604,
      "amenity": "cafe",
      "value": 182.06374956750864
    },
    {
      "id": 115036,
      "geometry": "POINT (-71.064442 42.284484)",
      "poi_name": "Flat Black",
      "osm_id": 3907291857,
      "amenity": "cafe",
      "cuisine": "coffee_shop",
      "internet_access": "wlan",
      "addr_state": "MA",
      "addr_city": "Boston",
      "addr_postcode": "02124",
      "addr_street": "Dorchester Avenue",
      "addr_housenumber": "1906",
      "value": 182.06374956750864
    },
    {
      "id": 115652,
      "geometry": "POINT (-71.06851 42.058905)",
      "poi_name": "StoneBridge Caf\u00e9",
      "osm_id": 8908335326,
      "amenity": "cafe",
      "addr_state": "MA",
      "addr_city": "Brockton",
      "addr_postcode": "02301",
      "addr_street": "Belmont Street",
      "addr_housenumber": "1285",
      "value": 182.06374956750864
    },
    {
      "id": 115569,
      "geometry": "POINT (-71.25984 41.514652)",
      "poi_name": "Sweet Berry Farm",
      "osm_id": 8902741817,
      "amenity": "cafe",
      "cuisine": "ice_cream",
      "website": "https://www.sweetberryfarmri.com/",
      "shop": "general",
      "phone": "(401) 847-3912",
      "addr_postcode": "02842",
      "addr_street": "Mitchells Lane",
      "addr_housenumber": "915",
      "value": 182.06374956750864
    },
    {
      "id": 131635,
      "geometry": "POINT (-71.314632 41.480397)",
      "poi_name": "Mokka Coffeehouse",
      "osm_id": 9922740751,
      "amenity": "cafe",
      "cuisine": "coffee_shop",
      "website": "https://www.mokkacoffeehouse.com/",
      "phone": "+1-401-619-1530",
      "addr_state": "RI",
      "addr_city": "Newport",
      "addr_postcode": "02840",
      "addr_street": "Thames Street",
      "addr_housenumber": "469",
      "value": 182.06374956750864
    },
    {
      "id": 116221,
      "geometry": "POINT (-71.160251 41.671656)",
      "poi_name": "Starbucks",
      "osm_id": 8932877740,
      "amenity": "cafe",
      "cuisine": "coffee_shop",
      "takeaway": "yes",
      "drive_through": "yes",
      "official_name": "Starbucks Coffee",
      "addr_state": "MA",
      "addr_city": "Fall River",
      "addr_postcode": "02721",
      "addr_street": "William S Canning Boulevard",
      "addr_housenumber": "800",
      "value": 182.06374956750864
    },
    {
      "id": 116347,
      "geometry": "POINT (-71.147885 41.697482)",
      "poi_name": "Honey Dew",
      "osm_id": 8939498659,
      "amenity": "cafe",
      "cuisine": "donut;coffee_shop",
      "takeaway": "yes",
      "value": 182.06374956750864
    },
    {
      "id": 119828,
      "geometry": "POINT (-71.053884 42.311561)",
      "poi_name": "McKenna's Cafe",
      "osm_id": 9124686617,
      "amenity": "cafe",
      "cuisine": "american;breakfast;coffee_shop",
      "opening_hours": "Mo-Sa 06:00-16:00; Su 06:00-15:00",
      "website": "https://www.mckennascafe.com/",
      "addr_postcode": "02125",
      "addr_street": "Savin Hill Avenue",
      "addr_housenumber": "107-109",
      "value": 182.06374956750864
    },
    {
      "id": 131514,
      "geometry": "POINT (-70.944136 41.587595)",
      "poi_name": "Scuttlebutt Coffee Company",
      "osm_id": 9919421475,
      "amenity": "cafe",
      "addr_housenumber": "101",
      "value": 182.06374956750864
    },
    {
      "id": 119648,
      "geometry": "POINT (-71.023015 42.270396)",
      "poi_name": "CoCo Fresh Tea & Juice",
      "osm_id": 9112013944,
      "amenity": "cafe",
      "cuisine": "bubble_tea",
      "takeaway": "yes",
      "value": 182.06374956750864
    },
    {
      "id": 119655,
      "geometry": "POINT (-71.028852 42.275707)",
      "poi_name": "Starbucks",
      "osm_id": 9112192045,
      "amenity": "cafe",
      "cuisine": "coffee_shop",
      "takeaway": "yes",
      "official_name": "Starbucks Coffee",
      "outdoor_seating": "no",
      "value": 182.06374956750864
    },
    {
      "id": 122083,
      "geometry": "POINT (-71.147476 42.210341)",
      "poi_name": "Java Junction",
      "osm_id": 6788321733,
      "amenity": "cafe",
      "cuisine": "coffee;sandwich",
      "outdoor_seating": "no",
      "value": 182.06374956750864
    },
    {
      "id": 131187,
      "geometry": "POINT (-71.026039 42.273813)",
      "poi_name": "Vivi's Bubble Tea Cafe Quincy",
      "osm_id": 9905119453,
      "amenity": "cafe",
      "cuisine": "bubble_tea",
      "value": 182.06374956750864
    },
    {
      "id": 131189,
      "geometry": "POINT (-71.025682 42.273458)",
      "poi_name": "B Cafe",
      "osm_id": 9905119459,
      "amenity": "cafe",
      "cuisine": "bubble_tea;sushi",
      "operator": "JP Fuji Group",
      "value": 182.06374956750864
    },
    {
      "id": 131190,
      "geometry": "POINT (-71.025423 42.273608)",
      "poi_name": "Yocha",
      "osm_id": 9905119460,
      "amenity": "cafe",
      "cuisine": "bubble_tea",
      "operator": "JP Fuji Group",
      "value": 182.06374956750864
    },
    {
      "id": 131645,
      "geometry": "POINT (-71.314741 41.48363)",
      "poi_name": "Kaffeology",
      "osm_id": 9922890064,
      "amenity": "cafe",
      "cuisine": "coffee_shop",
      "website": "https://kaffeologycafe.com/",
      "phone": "+1-401-324-5151",
      "addr_state": "RI",
      "addr_city": "Newport",
      "addr_postcode": "02840",
      "addr_street": "Thames Street",
      "addr_housenumber": "359",
      "value": 182.06374956750864
    },
    {
      "id": 133992,
      "geometry": "POINT (-71.060661 42.350525)",
      "poi_name": "Kung Fu Tea",
      "osm_id": 10022964517,
      "amenity": "cafe",
      "cuisine": "bubble_tea",
      "takeaway": "yes",
      "value": 182.06374956750864
    },
    {
      "id": 133954,
      "geometry": "POINT (-71.06103 42.351647)",
      "poi_name": "Gong Cha",
      "osm_id": 10019192017,
      "amenity": "cafe",
      "cuisine": "bubble_tea",
      "takeaway": "yes",
      "value": 182.06374956750864
    },
    {
      "id": 151957,
      "geometry": "POINT (-71.296688 41.517508)",
      "poi_name": "Starbucks",
      "osm_id": 4120774206,
      "amenity": "cafe",
      "cuisine": "coffee_shop",
      "phone": "+14018491217",
      "takeaway": "yes",
      "official_name": "Starbucks Coffee",
      "value": 182.06374956750864
    },
    {
      "id": 135201,
      "geometry": "POINT (-71.057214 42.33505)",
      "poi_name": "Cannonball Cafe",
      "osm_id": 11507006006,
      "amenity": "cafe",
      "website": "https://www.cannonballcafe.com",
      "addr_state": "MA",
      "addr_city": "Boston",
      "addr_postcode": "02127",
      "addr_street": "Dorchester Avenue",
      "addr_housenumber": "383",
      "value": 182.06374956750864
    },
    {
      "id": 149836,
      "geometry": "POINT (-71.003012 41.637048)",
      "poi_name": "Starbucks",
      "osm_id": 4027432232,
      "amenity": "cafe",
      "cuisine": "coffee_shop",
      "takeaway": "yes",
      "official_name": "Starbucks Coffee",
      "value": 182.06374956750864
    },
    {
      "id": 134908,
      "geometry": "POINT (-71.069596 42.058003)",
      "poi_name": "Starbucks",
      "osm_id": 11495637270,
      "amenity": "cafe",
      "cuisine": "coffee_shop",
      "takeaway": "yes",
      "drive_through": "yes",
      "official_name": "Starbucks Coffee",
      "value": 182.06374956750864
    },
    {
      "id": 145409,
      "geometry": "POINT (-71.309898 41.49465)",
      "poi_name": "The Nitro Bar",
      "osm_id": 7348637733,
      "amenity": "cafe",
      "addr_state": "RI",
      "addr_city": "newport",
      "addr_postcode": "02840",
      "addr_street": "pond",
      "addr_housenumber": "2",
      "value": 182.06374956750864
    },
    {
      "id": 145410,
      "geometry": "POINT (-71.308813 41.483488)",
      "poi_name": "Empire Tea & Coffee",
      "osm_id": 7348637738,
      "amenity": "cafe",
      "addr_state": "RI",
      "addr_city": "Newport",
      "addr_street": "William Street",
      "addr_housenumber": "112",
      "value": 182.06374956750864
    },
    {
      "id": 145412,
      "geometry": "POINT (-71.307921 41.481935)",
      "poi_name": "Cru Cafe",
      "osm_id": 7348654814,
      "amenity": "cafe",
      "addr_state": "RI",
      "addr_city": "Newport",
      "addr_street": "Casino Terrace",
      "addr_housenumber": "1",
      "value": 182.06374956750864
    },
    {
      "id": 145892,
      "geometry": "POINT (-71.060117 42.300011)",
      "poi_name": "Coco Leaf",
      "osm_id": 7395929154,
      "amenity": "cafe",
      "cuisine": "vietnamese;dessert",
      "opening_hours": "Mo-Th 08:00-21:00; Fr-Sa 06:00-23:00; Su 06:00-21:00",
      "website": "https://cocoleafboston.com/",
      "phone": "+1 617-506-0010",
      "addr_state": "MA",
      "addr_city": "Dorchester",
      "addr_postcode": "02122",
      "addr_street": "Dorchester Avenue",
      "addr_housenumber": "1480",
      "value": 182.06374956750864
    },
    {
      "id": 157716,
      "geometry": "POINT (-71.056825 42.342507)",
      "poi_name": "Starbucks",
      "osm_id": 4722603141,
      "amenity": "cafe",
      "cuisine": "coffee_shop",
      "opening_hours": "Mo-Fr 04:30-22:00; Sa-Su 06:00-21:00",
      "internet_access": "wlan",
      "phone": "+1 617 946 4653",
      "takeaway": "yes",
      "official_name": "Starbucks Coffee",
      "outdoor_seating": "no",
      "addr_postcode": "02127",
      "addr_street": "West Broadway",
      "addr_housenumber": "11",
      "value": 182.06374956750864
    },
    {
      "id": 152664,
      "geometry": "POINT (-71.4083 41.73375)",
      "poi_name": "Starbucks",
      "osm_id": 4153713174,
      "amenity": "cafe",
      "cuisine": "coffee_shop",
      "takeaway": "yes",
      "official_name": "Starbucks Coffee",
      "value": 182.06374956750864
    },
    {
      "id": 163906,
      "geometry": "POINT (-71.354318 41.84007)",
      "poi_name": "Seven Stars Bakery",
      "osm_id": 9441058441,
      "amenity": "cafe",
      "description": "Artisan bread & pastries, sandwiches, salads, and locally roasted coffee\u2014all handcrafted daily",
      "opening_hours": "Mo-Su 07:00-18:00",
      "website": "https://sevenstarsbakery.com/",
      "shop": "bakery",
      "addr_state": "RI",
      "addr_city": "rumford",
      "addr_postcode": "02916",
      "addr_street": "Newman Avenue",
      "addr_housenumber": "20",
      "value": 182.06374956750864
    },
    {
      "id": 164906,
      "geometry": "POINT (-71.390919 41.787526)",
      "poi_name": "Harborside Caf\u00e9",
      "osm_id": 9506383961,
      "amenity": "cafe",
      "value": 182.06374956750864
    },
    {
      "id": 164757,
      "geometry": "POINT (-70.924362 41.879085)",
      "poi_name": "Marylou's Coffee",
      "osm_id": 9499602187,
      "amenity": "cafe",
      "cuisine": "coffee_shop",
      "value": 182.06374956750864
    },
    {
      "id": 164907,
      "geometry": "POINT (-71.390835 41.787432)",
      "poi_name": "Starbucks",
      "osm_id": 9506383962,
      "amenity": "cafe",
      "cuisine": "coffee_shop",
      "takeaway": "yes",
      "official_name": "Starbucks Coffee",
      "value": 182.06374956750864
    },
    {
      "id": 176403,
      "geometry": "POINT (-70.999976 41.640088)",
      "poi_name": "Mirasol's Cafe",
      "osm_id": 2560810897,
      "amenity": "cafe",
      "cuisine": "coffee_shop",
      "internet_access": "yes",
      "addr_city": "Dartmouth",
      "addr_postcode": "02747",
      "addr_street": "State Road",
      "addr_housenumber": "439",
      "value": 182.06374956750864
    },
    {
      "id": 174365,
      "geometry": "POINT (-71.406673 41.741932)",
      "poi_name": "Coffee Grinder",
      "osm_id": 2477898784,
      "amenity": "cafe",
      "cuisine": "coffee_shop",
      "value": 182.06374956750864
    },
    {
      "id": 188223,
      "geometry": "POINT (-71.183331 41.966741)",
      "poi_name": "Lyon's Den",
      "osm_id": 1130073402,
      "amenity": "cafe",
      "value": 182.06374956750864
    },
    {
      "id": 183423,
      "geometry": "POINT (-71.024866 42.27392)",
      "poi_name": "M\u00f6ge Tee",
      "osm_id": 10930424739,
      "amenity": "cafe",
      "cuisine": "bubble_tea",
      "value": 182.06374956750864
    },
    {
      "id": 183425,
      "geometry": "POINT (-71.0244 42.273903)",
      "poi_name": "P Tea",
      "osm_id": 10930424746,
      "amenity": "cafe",
      "cuisine": "bubble_tea",
      "value": 182.06374956750864
    },
    {
      "id": 183663,
      "geometry": "POINT (-71.255699 41.55868)",
      "poi_name": "Rocco's",
      "osm_id": 10940628649,
      "amenity": "cafe",
      "cuisine": "pizza",
      "value": 182.06374956750864
    },
    {
      "id": 208640,
      "geometry": "POINT (-71.450178 41.659642)",
      "poi_name": "Nook Coffee House",
      "osm_id": 5000272885,
      "amenity": "cafe",
      "opening_hours": "Mo-We 06:30-16:00; Th 06:30-17:00; Sa 07:00-17:00; Su 07:00-16:00",
      "website": "https://www.nookcoffeehouse.com/",
      "phone": "+1-401-402-0029",
      "addr_state": "RI",
      "addr_city": "East Greenwich",
      "addr_postcode": "02818",
      "addr_street": "Main Street",
      "addr_housenumber": "307",
      "value": 182.06374956750864
    },
    {
      "id": 200090,
      "geometry": "POINT (-71.183489 41.96667)",
      "poi_name": "Hood Cafe",
      "osm_id": 1013831118,
      "amenity": "cafe",
      "value": 182.06374956750864
    },
    {
      "id": 203075,
      "geometry": "POINT (-71.183746 41.965733)",
      "poi_name": "Davis Spencer Cafe",
      "osm_id": 7061309434,
      "amenity": "cafe",
      "value": 182.06374956750864
    },
    {
      "id": 191542,
      "geometry": "POINT (-71.529796 41.48545)",
      "poi_name": "Ram's Den",
      "osm_id": 1373811863,
      "amenity": "cafe",
      "cuisine": "sandwich",
      "website": "https://www.uri.edu/dining/ramsden.htm",
      "value": 182.06374956750864
    },
    {
      "id": 202912,
      "geometry": "POINT (-71.114173 42.159792)",
      "poi_name": "Pearlie Mae's",
      "osm_id": 7055112456,
      "amenity": "cafe",
      "opening_hours": "Mo-Fr 07:30-14:30",
      "website": "www.pearliemaescafe.com",
      "phone": "+1 781-298-7947",
      "addr_street": "Dan Road",
      "addr_housenumber": "45",
      "value": 182.06374956750864
    },
    {
      "id": 208595,
      "geometry": "POINT (-71.450159 41.662013)",
      "poi_name": "Main Street Coffee",
      "osm_id": 4998582614,
      "amenity": "cafe",
      "cuisine": "coffee_shop",
      "opening_hours": "Mo-Th 06:00-22:00; Fr-Sa 06:00-24:00; Su 07:00-22:00",
      "website": "https://www.mainstreet-coffee.com/",
      "phone": "+1-401-885-8787",
      "outdoor_seating": "yes",
      "addr_state": "RI",
      "addr_city": "East Greenwich",
      "addr_postcode": "02818",
      "addr_street": "Main Street",
      "addr_housenumber": "137",
      "value": 182.06374956750864
    },
    {
      "id": 218413,
      "geometry": "POINT (-71.060576 42.350879)",
      "poi_name": "Tiger Sugar",
      "osm_id": 9278390256,
      "amenity": "cafe",
      "cuisine": "bubble_tea",
      "opening_hours": "Su-Th 11:00-21:00; Fr-Sa 11:00-21:30",
      "website": "https://tigersugarma.com/",
      "phone": "+1 857 250 1898",
      "takeaway": "yes",
      "addr_state": "MA",
      "addr_city": "Boston",
      "addr_postcode": "02111",
      "addr_street": "Tyler Street",
      "addr_housenumber": "14",
      "value": 182.06374956750864
    },
    {
      "id": 211627,
      "geometry": "POINT (-71.030198 42.220188)",
      "poi_name": "Starbucks",
      "osm_id": 5166136130,
      "amenity": "cafe",
      "cuisine": "coffee_shop",
      "takeaway": "yes",
      "official_name": "Starbucks Coffee",
      "value": 182.06374956750864
    },
    {
      "id": 219458,
      "geometry": "POINT (-71.304331 41.737011)",
      "poi_name": "Starbucks",
      "osm_id": 9332193900,
      "amenity": "cafe",
      "cuisine": "coffee_shop",
      "takeaway": "yes",
      "official_name": "Starbucks Coffee",
      "value": 182.06374956750864
    },
    {
      "id": 219309,
      "geometry": "POINT (-70.934077 41.69641)",
      "poi_name": "Honey Dew",
      "osm_id": 9325310686,
      "amenity": "cafe",
      "cuisine": "donut;coffee_shop",
      "takeaway": "yes",
      "value": 182.06374956750864
    },
    {
      "id": 224688,
      "geometry": "POINT (-71.178564 42.123767)",
      "poi_name": "Angel's Cafe",
      "osm_id": 11094145390,
      "amenity": "cafe",
      "outdoor_seating": "yes",
      "value": 182.06374956750864
    },
    {
      "id": 220598,
      "geometry": "POINT (-70.967572 41.638078)",
      "poi_name": "Village Cafe",
      "osm_id": 9379540476,
      "amenity": "cafe",
      "cuisine": "american",
      "addr_state": "MA",
      "addr_city": "Dartmouth",
      "addr_postcode": "02747",
      "addr_street": "State Road",
      "addr_housenumber": "88",
      "value": 182.06374956750864
    },
    {
      "id": 220599,
      "geometry": "POINT (-71.061807 42.350838)",
      "poi_name": "Tbaar",
      "osm_id": 9379551014,
      "amenity": "cafe",
      "cuisine": "bubble_tea",
      "opening_hours": "Mo-Su 11:00-21:00",
      "website": "https://www.tbaarchinatown.com/",
      "phone": "+1 617 728 3688",
      "addr_state": "MA",
      "addr_city": "Boston",
      "addr_postcode": "02111",
      "addr_street": "Kneeland Street",
      "addr_housenumber": "32",
      "value": 182.06374956750864
    },
    {
      "id": 220609,
      "geometry": "POINT (-71.061562 42.35091)",
      "poi_name": "OneZo Tapioca",
      "osm_id": 9379806475,
      "amenity": "cafe",
      "cuisine": "bubble_tea",
      "website": "https://www.onezo.us/",
      "phone": "+1 617 487 8786",
      "takeaway": "yes",
      "addr_state": "MA",
      "addr_city": "Boston",
      "addr_postcode": "02111",
      "addr_street": "Harrison Avenue",
      "addr_housenumber": "83",
      "value": 182.06374956750864
    },
    {
      "id": 220465,
      "geometry": "POINT (-71.061575 42.351571)",
      "poi_name": "Cafe Darq",
      "osm_id": 9374596752,
      "amenity": "cafe",
      "cuisine": "bubble_tea;ice_cream",
      "wheelchair": "no",
      "website": "https://cafedarq.com/",
      "addr_state": "MA",
      "addr_city": "Boston",
      "addr_postcode": "02111",
      "addr_street": "Beach Street",
      "addr_housenumber": "40",
      "value": 182.06374956750864
    },
    {
      "id": 231215,
      "geometry": "POINT (-70.925699 41.634344)",
      "poi_name": "Green Bean",
      "osm_id": 4459851089,
      "amenity": "cafe",
      "opening_hours": "Mo-Fr 06:30-16:00; Sa 08:00-16:00; Su 09:00-14:00",
      "phone": "+1-508-984-3300",
      "addr_state": "MA",
      "addr_city": "New Bedford",
      "addr_postcode": "02740",
      "addr_street": "Purchase Street",
      "addr_housenumber": "740",
      "value": 182.06374956750864
    },
    {
      "id": 226012,
      "geometry": "POINT (-71.500745 41.437159)",
      "poi_name": "CafBar",
      "osm_id": 11146537552,
      "amenity": "cafe",
      "cuisine": "coffee_shop;sandwich",
      "internet_access": "wlan",
      "value": 182.06374956750864
    },
    {
      "id": 226454,
      "geometry": "POINT (-71.185606 41.670362)",
      "poi_name": "Bajah's Cat Cafe",
      "osm_id": 11160792234,
      "amenity": "cafe",
      "website": "https://www.bajahscatcafe.com/",
      "addr_state": "RI",
      "addr_city": "Tiverton",
      "addr_postcode": "02878",
      "addr_street": "Main Road",
      "addr_housenumber": "137",
      "value": 182.06374956750864
    },
    {
      "id": 230611,
      "geometry": "POINT (-71.278919 41.6776)",
      "poi_name": "Sip n Dip Donuts",
      "osm_id": 4432829625,
      "amenity": "cafe",
      "cuisine": "coffee",
      "internet_access": "wlan",
      "value": 182.06374956750864
    },
    {
      "id": 230618,
      "geometry": "POINT (-71.365459 41.81247)",
      "poi_name": "Sip N Dip Donuts",
      "osm_id": 4432863267,
      "amenity": "cafe",
      "cuisine": "coffee_shop",
      "value": 182.06374956750864
    },
    {
      "id": 242395,
      "geometry": "POINT (-71.52353 41.484324)",
      "poi_name": "Bru RI Coffee Bar",
      "osm_id": 6069168806,
      "amenity": "cafe",
      "cuisine": "coffee_shop;donut;sandwich",
      "opening_hours": "Mo-Fr 07:00-18:00, Sa,Su 08:00-18:00",
      "phone": "(401) 661-9733",
      "addr_state": "RI",
      "addr_city": "Kingston",
      "addr_postcode": "02881",
      "addr_street": "Fortin Road",
      "addr_housenumber": "56",
      "value": 182.06374956750864
    },
    {
      "id": 236338,
      "geometry": "POINT (-71.458762 41.430664)",
      "poi_name": "Cool Beans Cafe",
      "osm_id": 5790396254,
      "amenity": "cafe",
      "cuisine": "coffee_shop",
      "website": "https://www.coolbeanscaferi.com/",
      "phone": "(401) 789-9500",
      "addr_postcode": "02882",
      "addr_street": "Kingstown Road",
      "addr_housenumber": "18",
      "value": 182.06374956750864
    },
    {
      "id": 241054,
      "geometry": "POINT (-71.059742 42.301129)",
      "poi_name": "Homestead bakery & cafe",
      "osm_id": 6005267193,
      "amenity": "cafe",
      "cuisine": "coffee_shop;sandwich;bakery",
      "opening_hours": "\"Closed during the pandemic\"",
      "website": "https://dorchesterhomestead.com/",
      "internet_access": "wlan",
      "phone": "+1-617-533-7585",
      "outdoor_seating": "yes",
      "addr_state": "MA",
      "addr_city": "Dorchester",
      "addr_postcode": "02122",
      "addr_street": "Dorchester Avenue",
      "addr_housenumber": "1448",
      "value": 182.06374956750864
    },
    {
      "id": 243928,
      "geometry": "POINT (-71.064097 42.344832)",
      "poi_name": "Tatte Bakery & Cafe",
      "osm_id": 7686391038,
      "amenity": "cafe",
      "website": "https://tattebakery.com/boston/",
      "phone": "+1-617-830-4600",
      "outdoor_seating": "yes",
      "addr_state": "MA",
      "addr_city": "Boston",
      "addr_postcode": "02118",
      "addr_street": "Harrison Avenue",
      "addr_housenumber": "345",
      "value": 182.06374956750864
    }
  ],
  "answer_type": "name",
  "question_entities": {
    "[2]": {
      "distance": 130000,
      "text": "130 kilometers"
    },
    "[3]": {
      "main_category": "tourism",
      "sub_category": "hotel",
      "display_name": "Hyatt Regency Boston, Boston, MA",
      "geo_wkt": "POINT (-71.060771 42.353404)",
      "poi": {
        "id": 18864,
        "geometry": "POINT (-71.060771 42.353404)",
        "poi_name": "Hyatt Regency Boston",
        "osm_id": 2425716948,
        "tourism": "hotel",
        "operator": "Hyatt",
        "website": "https://www.hyatt.com/en-US/hotel/massachusetts/hyatt-regency-boston/bosto",
        "phone": "+1-617-912-1234",
        "addr_state": "MA",
        "addr_city": "Boston",
        "addr_postcode": "02111",
        "addr_street": "Avenue De Lafayette",
        "addr_housenumber": "1"
      }
    },
    "[4]": {
      "main_category": "tourism",
      "sub_category": "museum",
      "display_name": "Captain Robert Bennet Forbes House, MA",
      "geo_wkt": "POINT (-71.06508 42.264584)",
      "poi": {
        "id": 17344,
        "geometry": "POINT (-71.06508 42.264584)",
        "poi_name": "Captain Robert Bennet Forbes House",
        "osm_id": 367781099,
        "tourism": "museum",
        "website": "https://www.forbeshousemuseum.org/",
        "wikidata": "Q5036782",
        "addr_state": "MA"
      }
    },
    "[1]": {
      "main_category": "amenity",
      "sub_category": "cafe"
    }
  },
  "id": 1632,
  "type": "range:towards+name"
}