{
  "question": "Where can I find a fast food restaurant to the west of Funkmeyer New Reality Garden, Los Angeles, CA within 30 kilometers?",
  "sql": "\nWITH origin AS  (SELECT ST_GeomFromText('POINT (-118.366951 34.039786)',4326)::geography AS geometry)\nSELECT * FROM pois, origin\nWHERE ST_DWithin(pois.geometry, ST_GeomFromText('POINT (-118.366951 34.039786)',4326)::geography, 30000)\nAND amenity = 'fast_food'\nAND degrees(ST_Azimuth(origin.geometry, pois.geometry)) BETWEEN 247.5 AND 292.5;\n",
  "answers": [
    {
      "id": 49513,
      "geometry": "POINT (-118.366951 34.039786)",
      "poi_name": "Pier Burger",
      "osm_id": 3439710012,
      "amenity": "fast_food",
      "cuisine": "burger",
      "phone": "+1-310-587-2747",
      "addr_state": "CA",
      "addr_city": "Santa Monica",
      "addr_postcode": "90401",
      "addr_street": "Santa Monica Pier",
      "addr_housenumber": "330"
    },
    {
      "id": 53376,
      "geometry": "POINT (-118.366951 34.039786)",
      "poi_name": "bb.q Chicken",
      "osm_id": 10078071560,
      "amenity": "fast_food",
      "cuisine": "chicken",
      "opening_hours": "Su-Th 11:00-21:00; Fr,Sa 11:00-22:00",
      "website": "https://bbqchicken.com/",
      "phone": "+1-310-866-7709",
      "drive_through": "no",
      "addr_state": "CA",
      "addr_city": "Los Angeles",
      "addr_postcode": "90025",
      "addr_street": "Sawtelle Boulevard",
      "addr_housenumber": "2131"
    },
    {
      "id": 60239,
      "geometry": "POINT (-118.366951 34.039786)",
      "poi_name": "Sweetgreen",
      "osm_id": 5458181080,
      "amenity": "fast_food",
      "cuisine": "salad",
      "opening_hours": "Mo-Su 10:30-22:00",
      "website": "https://www.sweetgreen.com/",
      "phone": "+1-424-744-8321",
      "takeaway": "yes",
      "addr_state": "CA",
      "addr_city": "Santa Monica",
      "addr_postcode": "90401",
      "addr_street": "4th Street",
      "addr_housenumber": "1343"
    },
    {
      "id": 59829,
      "geometry": "POINT (-118.366951 34.039786)",
      "poi_name": "Al's Hot Chicken",
      "osm_id": 5444426621,
      "amenity": "fast_food",
      "cuisine": "chicken",
      "opening_hours": "Mo-Su 10:30-22:00",
      "website": "https://alshotchicken.com",
      "phone": "+1-323-284-8314",
      "addr_state": "CA",
      "addr_city": "Los Angeles",
      "addr_postcode": "90025",
      "addr_street": "Santa Monica Boulevard",
      "addr_housenumber": "11078"
    },
    {
      "id": 62236,
      "geometry": "POINT (-118.366951 34.039786)",
      "poi_name": "Juice Crafters",
      "osm_id": 5558116027,
      "amenity": "fast_food",
      "cuisine": "juice",
      "addr_state": "CA",
      "addr_city": "Santa Monica",
      "addr_postcode": "90405",
      "addr_street": "Ocean Park Boulevard",
      "addr_housenumber": "2811"
    },
    {
      "id": 61197,
      "geometry": "POINT (-118.366951 34.039786)",
      "poi_name": "The Corner Deli & Grill",
      "osm_id": 5503084979,
      "amenity": "fast_food",
      "cuisine": "american;sandwich;breakfast;tacos",
      "opening_hours": "Mo-Fr 06:30-17:00; Sa 08:00-15:00",
      "website": "https://thecornerdeliandgrill.com/",
      "phone": "+1-310-477-5760",
      "takeaway": "only",
      "drive_through": "no",
      "addr_state": "CA",
      "addr_city": "Los Angeles",
      "addr_postcode": "90025",
      "addr_street": "Sepulveda Boulevard",
      "addr_housenumber": "1660"
    },
    {
      "id": 72665,
      "geometry": "POINT (-118.366951 34.039786)",
      "poi_name": "Ohana's Kitchen",
      "osm_id": 11441626883,
      "amenity": "fast_food",
      "cuisine": "hawaiian",
      "opening_hours": "Tu-Su 10:00-18:30; Mo off",
      "drive_through": "no",
      "addr_state": "CA",
      "addr_city": "Los Angeles",
      "addr_postcode": "90064",
      "addr_street": "West Olympic Boulevard",
      "addr_housenumber": "11301"
    },
    {
      "id": 75756,
      "geometry": "POINT (-118.366951 34.039786)",
      "poi_name": "SweetCane Juice",
      "osm_id": 9742168229,
      "amenity": "fast_food",
      "cuisine": "juice",
      "opening_hours": "Mo-Su 10:00-21:00",
      "website": "https://www.sweetcanejuice.com/",
      "drive_through": "no",
      "addr_state": "CA",
      "addr_city": "Los Angeles",
      "addr_postcode": "90064",
      "addr_street": "West Olympic Boulevard",
      "addr_housenumber": "11301"
    },
    {
      "id": 88939,
      "geometry": "POINT (-118.366951 34.039786)",
      "poi_name": "Organico",
      "osm_id": 8809792896,
      "amenity": "fast_food",
      "opening_hours": "Mo-Su 10:00-22:00",
      "website": "https://www.organico.co/",
      "drive_through": "no",
      "addr_state": "CA",
      "addr_city": "Los Angeles",
      "addr_postcode": "90064",
      "addr_street": "Sawtelle Boulevard",
      "addr_housenumber": "2210"
    },
    {
      "id": 104440,
      "geometry": "POINT (-118.366951 34.039786)",
      "poi_name": "Panda Express",
      "osm_id": 8569870498,
      "amenity": "fast_food",
      "cuisine": "chinese",
      "opening_hours": "Mo-Fr 09:00-21:30; Sa 09:30-21:00; Su 09:30-20:30",
      "website": "https://www.pandaexpress.com/locations/ca/los-angeles/412",
      "phone": "+1-310-477-2802",
      "takeaway": "yes",
      "drive_through": "no",
      "addr_state": "CA",
      "addr_city": "Los Angeles",
      "addr_street": "Sawtelle Boulevard",
      "addr_housenumber": "2204"
    },
    {
      "id": 104442,
      "geometry": "POINT (-118.366951 34.039786)",
      "poi_name": "Kura Sushi",
      "osm_id": 8569870502,
      "amenity": "fast_food",
      "cuisine": "sushi",
      "opening_hours": "Su-Th 11:00-22:00; Fr,Sa 11:00-22:30",
      "website": "https://kurasushi.com/locations/los-angeles-ca-sawtelle",
      "phone": "+1-310-597-4490",
      "takeaway": "yes",
      "drive_through": "no",
      "official_name": "Kura Revolving Sushi Bar",
      "addr_state": "CA",
      "addr_city": "Los Angeles",
      "addr_postcode": "90025",
      "addr_street": "Sawtelle Boulevard",
      "addr_housenumber": "2130"
    },
    {
      "id": 116517,
      "geometry": "POINT (-118.366951 34.039786)",
      "poi_name": "Tacos 1986",
      "osm_id": 8946030719,
      "amenity": "fast_food",
      "cuisine": "mexican",
      "opening_hours": "Mo-Su 11:00-22:00",
      "website": "https://tacos1986.com",
      "addr_state": "CA",
      "addr_city": "Los Angeles",
      "addr_postcode": "90024",
      "addr_street": "Kinross Avenue",
      "addr_housenumber": "10874"
    },
    {
      "id": 132714,
      "geometry": "POINT (-118.366951 34.039786)",
      "poi_name": "Black Sheep Burgers",
      "osm_id": 9965232394,
      "amenity": "fast_food",
      "cuisine": "burger",
      "opening_hours": "Su-Th 11:00-22:00; Fr,Sa 11:00-23:00",
      "website": "https://blacksheepburgers.com/",
      "phone": "+1-424-372-9210",
      "drive_through": "no",
      "addr_state": "CA",
      "addr_city": "Los Angeles",
      "addr_postcode": "90025",
      "addr_street": "Mississippi Avenue",
      "addr_housenumber": "11313"
    },
    {
      "id": 161849,
      "geometry": "POINT (-118.366951 34.039786)",
      "poi_name": "McDonald's",
      "osm_id": 4903112327,
      "amenity": "fast_food",
      "cuisine": "burger",
      "website": "https://www.mcdonalds.com/us/en-us/location/ca/los-angeles/10451-santa-monica-blvd/2409.html",
      "phone": "310-474-3160",
      "takeaway": "yes",
      "addr_state": "CA",
      "addr_city": "Los Angeles",
      "addr_postcode": "90025-5031",
      "addr_street": "Santa Monica Boulevard",
      "addr_housenumber": "10451"
    },
    {
      "id": 178121,
      "geometry": "POINT (-118.366951 34.039786)",
      "poi_name": "Emmy Squared Pizza",
      "osm_id": 10712722464,
      "amenity": "fast_food",
      "cuisine": "pizza",
      "website": "https://www.emmysquaredpizza.com/location/santa-monica-brew-works-ca/",
      "drive_through": "no",
      "addr_state": "CA",
      "addr_city": "Santa Monica",
      "addr_postcode": "90404",
      "addr_street": "Colorado Avenue",
      "addr_housenumber": "1920"
    },
    {
      "id": 179798,
      "geometry": "POINT (-118.366951 34.039786)",
      "poi_name": "Everytable",
      "osm_id": 10778795050,
      "amenity": "fast_food",
      "cuisine": "american;salad",
      "takeaway": "only",
      "addr_state": "CA",
      "addr_city": "Los Angeles",
      "addr_postcode": "90025",
      "addr_street": "Santa Monica Boulevard",
      "addr_housenumber": "11049"
    },
    {
      "id": 201385,
      "geometry": "POINT (-118.366951 34.039786)",
      "poi_name": "McDonald's",
      "osm_id": 627183562,
      "amenity": "fast_food",
      "cuisine": "burger",
      "website": "https://www.mcdonalds.com/us/en-us/location/ca/santa-monica/1540-2nd-ave/4271.html",
      "takeaway": "yes",
      "addr_city": "Santa Monica"
    },
    {
      "id": 209572,
      "geometry": "POINT (-118.366951 34.039786)",
      "poi_name": "Taco Bell",
      "osm_id": 5044880022,
      "amenity": "fast_food",
      "cuisine": "tex-mex",
      "opening_hours": "Mo-Fr 08:00-23:00; Sa-Su 08:00-22:00",
      "website": "https://locations.tacobell.com/ca/los-angeles/10937-weyburn-ave-.html",
      "takeaway": "yes",
      "drive_through": "no",
      "outdoor_seating": "yes",
      "addr_state": "CA",
      "addr_city": "Los Angeles",
      "addr_postcode": "90024",
      "addr_street": "Weyburn Avenue",
      "addr_housenumber": "10937"
    },
    {
      "id": 228473,
      "geometry": "POINT (-118.366951 34.039786)",
      "poi_name": "Subway",
      "osm_id": 4344954518,
      "amenity": "fast_food",
      "cuisine": "sandwich",
      "takeaway": "yes",
      "addr_state": "CA",
      "addr_city": "Santa Monica",
      "addr_postcode": "90405",
      "addr_street": "Ocean Park Boulevard",
      "addr_housenumber": "2901"
    }
  ],
  "answer_type": "loc",
  "question_entities": {
    "[1]": {
      "main_category": "amenity",
      "sub_category": "fast food restaurant"
    },
    "[2]": {
      "distance": 30000,
      "text": "30 kilometers"
    },
    "[3]": {
      "main_category": "leisure",
      "sub_category": "garden",
      "display_name": "Funkmeyer New Reality Garden, Los Angeles, CA",
      "geo_wkt": "POINT (-118.366951 34.039786)",
      "poi": {
        "id": 247152,
        "geometry": "POINT (-118.366951 34.039786)",
        "poi_name": "Funkmeyer New Reality Garden",
        "osm_id": 3659354357,
        "leisure": "garden",
        "wheelchair": "yes",
        "operator": "Otis and Jenny Funkmeyer",
        "addr_state": "CA",
        "addr_city": "Los Angeles",
        "addr_postcode": "90016",
        "addr_street": "South Spaulding Avenue",
        "addr_housenumber": "2033"
      }
    },
    "[4]": {
      "direction_desc": "west",
      "direction_predicate": "degrees(ST_Azimuth(origin.geometry, pois.geometry)) BETWEEN 247.5 AND 292.5"
    }
  },
  "id": 20,
  "type": "range:direction+loc"
}