{
  "question": "I'm searching for a fast food restaurant within 40 kilometers radius from Santa Barbara Historical Museum, Santa Barbara, CA, any suggestions where it is?",
  "sql": "SELECT * FROM pois\nWHERE ST_DWithin(pois.geometry, ST_GeomFromText('POINT (-119.697291 34.421534)',4326)::geography, 40000)\nAND amenity = 'fast_food';\n",
  "answers": [
    {
      "id": 27322,
      "geometry": "POINT (-119.802885 34.435374)",
      "poi_name": "Woody's BBQ",
      "osm_id": 411754943,
      "amenity": "fast_food",
      "cuisine": "regional",
      "addr_city": "Santa Barbara",
      "addr_postcode": "93111",
      "addr_street": "Hollister Avenue",
      "addr_housenumber": "5112"
    },
    {
      "id": 39134,
      "geometry": "POINT (-119.872068 34.429538)",
      "poi_name": "Mesa Burger",
      "osm_id": 2905126291,
      "amenity": "fast_food",
      "cuisine": "burger",
      "opening_hours": "11:00-21:00",
      "website": "https://www.mesaburger.com",
      "phone": "+1-805-869-2247",
      "addr_city": "Goleta",
      "addr_postcode": "93117",
      "addr_street": "Marketplace Drive",
      "addr_housenumber": "7010"
    },
    {
      "id": 59273,
      "geometry": "POINT (-119.867076 34.429455)",
      "poi_name": "Subway",
      "osm_id": 5416803493,
      "amenity": "fast_food",
      "cuisine": "sandwich",
      "opening_hours": "Mo-Fr 07:00-22:00; Sa-Su 08:00-21:00",
      "website": "https://restaurants.subway.com/united-states/ca/goleta/6831-hollister-ave",
      "phone": "+1-805-968-1964",
      "takeaway": "yes",
      "addr_city": "Goleta",
      "addr_postcode": "93117",
      "addr_street": "Hollister Avenue",
      "addr_housenumber": "6831"
    },
    {
      "id": 59274,
      "geometry": "POINT (-119.867077 34.4294)",
      "poi_name": "Jerry's Pollofino",
      "osm_id": 5416803494,
      "amenity": "fast_food",
      "cuisine": "chicken",
      "addr_city": "Goleta",
      "addr_postcode": "93117",
      "addr_street": "Hollister Avenue",
      "addr_housenumber": "6831"
    },
    {
      "id": 89819,
      "geometry": "POINT (-119.693449 34.403794)",
      "poi_name": "On the Alley",
      "osm_id": 8864114981,
      "amenity": "fast_food",
      "cuisine": "burger;seafood",
      "website": "https://www.onthealley.com",
      "drive_through": "no",
      "addr_state": "CA",
      "addr_city": "Santa Barbara",
      "addr_postcode": "93109",
      "addr_street": "Harbor Way",
      "addr_housenumber": "117"
    },
    {
      "id": 174528,
      "geometry": "POINT (-119.869455 34.42913)",
      "poi_name": "Chipotle",
      "osm_id": 2487442621,
      "amenity": "fast_food",
      "cuisine": "mexican",
      "takeaway": "yes",
      "official_name": "Chipotle Mexican Grill",
      "outdoor_seating": "yes",
      "addr_city": "Goleta",
      "addr_street": "Storke Road",
      "addr_housenumber": "270"
    },
    {
      "id": 108394,
      "geometry": "POINT (-119.87657 34.428272)",
      "poi_name": "Phamous Caf\u00e9",
      "osm_id": 3611957893,
      "amenity": "fast_food",
      "cuisine": "vietnamese",
      "building": "yes",
      "opening_hours": "We-Mo 10:00-21:00",
      "addr_city": "Goleta",
      "addr_postcode": "93117",
      "addr_street": "Hollister Avenue",
      "addr_housenumber": "7127"
    },
    {
      "id": 108395,
      "geometry": "POINT (-119.87659 34.428374)",
      "poi_name": "L&L Hawaiian Barbecue",
      "osm_id": 3611957993,
      "amenity": "fast_food",
      "cuisine": "hawaiian",
      "building": "yes",
      "opening_hours": "Su-Th 10:30-21:00; Fr-Sa 10:30-22:00",
      "takeaway": "yes",
      "addr_city": "Goleta",
      "addr_postcode": "93117",
      "addr_street": "Hollister Avenue",
      "addr_housenumber": "7127"
    },
    {
      "id": 136787,
      "geometry": "POINT (-119.698488 34.419306)",
      "poi_name": "Blenders in the Grass",
      "osm_id": 6070264593,
      "amenity": "fast_food",
      "cuisine": "juice;smoothie",
      "wheelchair": "yes",
      "takeaway": "yes",
      "addr_city": "Santa Barbara",
      "addr_postcode": "93101",
      "addr_street": "State Street",
      "addr_housenumber": "720"
    },
    {
      "id": 192664,
      "geometry": "POINT (-119.802901 34.436712)",
      "poi_name": "Subway",
      "osm_id": 1469714001,
      "amenity": "fast_food",
      "cuisine": "sandwich",
      "takeaway": "yes",
      "drive_through": "no",
      "addr_city": "Santa Barbara",
      "addr_postcode": "93111",
      "addr_street": "Hollister Avenue",
      "addr_housenumber": "5146"
    },
    {
      "id": 207490,
      "geometry": "POINT (-119.697435 34.418488)",
      "poi_name": "The Habit Burger Grill",
      "osm_id": 4949428329,
      "amenity": "fast_food",
      "cuisine": "burger",
      "takeaway": "yes",
      "addr_city": "Santa Barbara",
      "addr_postcode": "93101",
      "addr_street": "State Street",
      "addr_housenumber": "628"
    },
    {
      "id": 241597,
      "geometry": "POINT (-119.874217 34.431134)",
      "poi_name": "Pickles & Swiss",
      "osm_id": 6031493364,
      "amenity": "fast_food",
      "cuisine": "sandwich",
      "opening_hours": "Mo-Su 11:00-19:00",
      "website": "https://picklesandswiss.com",
      "phone": "+1-805-845-7226",
      "addr_city": "Goleta",
      "addr_postcode": "93117",
      "addr_street": "Hollister Avenue",
      "addr_housenumber": "7060"
    },
    {
      "id": 239010,
      "geometry": "POINT (-119.868948 34.428359)",
      "poi_name": "Lillys Taqueria",
      "osm_id": 5901148788,
      "amenity": "fast_food",
      "cuisine": "mexican;american;tacos",
      "description": "Authentic Mexican Soft Tacos",
      "opening_hours": "We-Th 10:30-21:00; Fr-Sa 10:30-22:00; Su-Mo 10:30-21:00",
      "website": "http://www.lillystacos.com",
      "phone": "+1-805-845-9180",
      "addr_city": "Goleta",
      "addr_postcode": "93117",
      "addr_street": "Storke Road",
      "addr_housenumber": "290"
    },
    {
      "id": 241771,
      "geometry": "POINT (-119.872516 34.429554)",
      "poi_name": "Jersey Mike's Subs",
      "osm_id": 6038093277,
      "amenity": "fast_food",
      "cuisine": "sandwich",
      "takeaway": "yes",
      "addr_city": "Goleta",
      "addr_postcode": "93117",
      "addr_street": "Marketplace Drive",
      "addr_housenumber": "7034"
    }
  ],
  "answer_type": "loc",
  "question_entities": {
    "[1]": {
      "main_category": "amenity",
      "sub_category": "fast food restaurant"
    },
    "[2]": {
      "distance": 40000,
      "text": "40 kilometers"
    },
    "[3]": {
      "main_category": "tourism",
      "sub_category": "museum",
      "display_name": "Santa Barbara Historical Museum, Santa Barbara, CA",
      "geo_wkt": "POINT (-119.697291 34.421534)",
      "poi": {
        "id": 18270,
        "geometry": "POINT (-119.697291 34.421534)",
        "poi_name": "Santa Barbara Historical Museum",
        "osm_id": 368174531,
        "tourism": "museum",
        "operator": "Santa Barbara Historical Society",
        "website": "http://www.santabarbaramuseum.com/",
        "phone": "+1 805 966-1601",
        "wikidata": "Q7419226",
        "addr_state": "CA",
        "addr_city": "Santa Barbara",
        "addr_postcode": "93101",
        "addr_street": "East De la Guerra Street",
        "addr_housenumber": "136"
      }
    }
  },
  "id": 2011,
  "type": "range+loc"
}