{
  "question": "Within a radius of 70 kilometers, where can I find  a restaurant in the direction of Dyken Pond Environmental Education Center, Cropseyville, NY from Hairpin Turn, Clarksburg, MA?",
  "sql": "WITH\n    angle AS (SELECT degrees(ST_Azimuth(ST_GeomFromText('POINT (-73.062971 42.709369)',4326)::geography, ST_GeomFromText('POINT (-73.434447 42.723028)',4326)::geography)) AS value)\nSELECT * FROM pois,angle\nWHERE amenity = 'restaurant'\nAND ST_DWithin(pois.geometry, ST_GeomFromText('POINT (-73.062971 42.709369)',4326)::geography, 70000)\nAND (degrees(ST_Azimuth(ST_GeomFromText('POINT (-73.062971 42.709369)',4326)::geography, pois.geometry)) BETWEEN angle.value - 22.5 AND angle.value + 22.5);\n",
  "answers": [
    {
      "id": 30353,
      "geometry": "POINT (-73.690602 42.728679)",
      "poi_name": "Mi Casa",
      "osm_id": 8353946495,
      "amenity": "restaurant",
      "cuisine": "mexican",
      "opening_hours": "Mo-Sa 11:00-19:00",
      "website": "https://www.micasatroy.com/",
      "phone": "+1 518 244 3337",
      "addr_state": "NY",
      "addr_city": "Troy",
      "addr_postcode": "12180",
      "addr_street": "Congress Street",
      "addr_housenumber": "72",
      "value": 272.980623524122
    },
    {
      "id": 30354,
      "geometry": "POINT (-73.693999 42.729982)",
      "poi_name": "River St. Poke Bar",
      "osm_id": 8353946996,
      "amenity": "restaurant",
      "cuisine": "poke;sushi",
      "opening_hours": "Tu-Sa 11:00-21:00; Su 11:00-20:00",
      "website": "https://riverstpokebar.com/",
      "phone": "+1-518-874-1058",
      "addr_state": "NY",
      "addr_city": "Troy",
      "addr_postcode": "12180",
      "addr_street": "River Street",
      "addr_housenumber": "184",
      "value": 272.980623524122
    },
    {
      "id": 30355,
      "geometry": "POINT (-73.691236 42.726046)",
      "poi_name": "Lucky Corner",
      "osm_id": 8353948164,
      "amenity": "restaurant",
      "cuisine": "chinese",
      "opening_hours": "Mo,We-Sa 11:00-22:00; Su 11:30-21:30",
      "takeaway": "yes",
      "addr_state": "NY",
      "addr_city": "Troy",
      "addr_postcode": "12180",
      "addr_street": "3rd Street",
      "addr_housenumber": "162",
      "value": 272.980623524122
    },
    {
      "id": 31119,
      "geometry": "POINT (-73.784259 42.862076)",
      "poi_name": "Spice Malabar",
      "osm_id": 8405031724,
      "amenity": "restaurant",
      "cuisine": "indian",
      "addr_state": "NY",
      "addr_city": "Clifton Park",
      "addr_postcode": "12065",
      "addr_street": "Southside Drive",
      "addr_housenumber": "7",
      "value": 272.980623524122
    },
    {
      "id": 30400,
      "geometry": "POINT (-73.691849 42.731357)",
      "poi_name": "Mex Cocina / La Catrina",
      "osm_id": 8356501545,
      "amenity": "restaurant",
      "cuisine": "mexican",
      "addr_state": "NY",
      "addr_city": "Troy",
      "addr_postcode": "12180",
      "addr_street": "Broadway",
      "addr_housenumber": "7",
      "value": 272.980623524122
    },
    {
      "id": 30999,
      "geometry": "POINT (-73.839105 42.722647)",
      "poi_name": "Lemon Albany",
      "osm_id": 8399545366,
      "amenity": "restaurant",
      "cuisine": "pizza",
      "website": "http://lemonalbany.com",
      "addr_state": "NY",
      "addr_city": "Albany",
      "addr_postcode": "12205",
      "addr_street": "Central Avenue",
      "addr_housenumber": "1686",
      "value": 272.980623524122
    },
    {
      "id": 31000,
      "geometry": "POINT (-73.712534 42.772223)",
      "poi_name": "Signal 30",
      "osm_id": 8399548421,
      "amenity": "restaurant",
      "addr_state": "NY",
      "addr_city": "Cohoes",
      "addr_postcode": "12047",
      "addr_street": "Columbia Street",
      "addr_housenumber": "201",
      "value": 272.980623524122
    },
    {
      "id": 31003,
      "geometry": "POINT (-73.772588 42.755534)",
      "poi_name": "Ruby Tuesday",
      "osm_id": 8399549802,
      "amenity": "restaurant",
      "cuisine": "american",
      "building": "yes",
      "opening_hours": "Mo-Th 11:00-23:00; Fr-Sa 11:00-24:00; Su 10:00-22:00",
      "phone": "+1 (518) 785-1037",
      "addr_state": "NY",
      "addr_city": "Latham",
      "addr_postcode": "12110",
      "addr_street": "Troy Schenectady Road",
      "addr_housenumber": "675",
      "value": 272.980623524122
    },
    {
      "id": 31004,
      "geometry": "POINT (-73.772102 42.755113)",
      "poi_name": "Carrabba's Italian Grill",
      "osm_id": 8399549919,
      "amenity": "restaurant",
      "cuisine": "italian",
      "building": "yes",
      "addr_state": "NY",
      "addr_city": "Latham",
      "addr_postcode": "12110",
      "addr_street": "Troy Schenectady Road",
      "addr_housenumber": "675",
      "value": 272.980623524122
    },
    {
      "id": 31005,
      "geometry": "POINT (-73.86049 42.63995)",
      "poi_name": "Bellini\u2019s Italian Eatery",
      "osm_id": 8399551422,
      "amenity": "restaurant",
      "addr_state": "NY",
      "addr_city": "Slingerlands",
      "addr_postcode": "12159",
      "addr_street": "Vista Boulevard",
      "addr_housenumber": "10",
      "value": 272.980623524122
    },
    {
      "id": 31008,
      "geometry": "POINT (-73.697284 42.773548)",
      "poi_name": "China One",
      "osm_id": 8399567663,
      "amenity": "restaurant",
      "cuisine": "chinese",
      "addr_state": "NY",
      "addr_city": "Cohoes",
      "addr_postcode": "12047",
      "addr_street": "Saratoga Street",
      "addr_housenumber": "101",
      "value": 272.980623524122
    },
    {
      "id": 31009,
      "geometry": "POINT (-73.858125 42.638638)",
      "poi_name": "Sake Cafe Asian Cuisine",
      "osm_id": 8399597140,
      "amenity": "restaurant",
      "cuisine": "japanese",
      "addr_state": "NY",
      "addr_city": "Slingerlands",
      "addr_postcode": "12159",
      "addr_street": "New Scotland Road",
      "addr_housenumber": "1365",
      "value": 272.980623524122
    },
    {
      "id": 31010,
      "geometry": "POINT (-73.823905 42.676474)",
      "poi_name": "Dragon City",
      "osm_id": 8399602395,
      "amenity": "restaurant",
      "cuisine": "chinese",
      "addr_state": "NY",
      "addr_city": "Albany",
      "addr_postcode": "12203",
      "addr_street": "Western Avenue",
      "addr_housenumber": "1174",
      "value": 272.980623524122
    },
    {
      "id": 31012,
      "geometry": "POINT (-73.860059 42.640662)",
      "poi_name": "Garden Bistro 24",
      "osm_id": 8399607770,
      "amenity": "restaurant",
      "addr_state": "NY",
      "addr_city": "Slingerlands",
      "addr_postcode": "12159",
      "addr_street": "Vista Boulevard",
      "addr_housenumber": "5",
      "value": 272.980623524122
    },
    {
      "id": 31014,
      "geometry": "POINT (-73.816934 42.710566)",
      "poi_name": "P.F. Chang's",
      "osm_id": 8399619576,
      "amenity": "restaurant",
      "cuisine": "asian",
      "official_name": "P.F. Chang's China Bistro",
      "addr_state": "NY",
      "addr_city": "Albany",
      "addr_postcode": "12205",
      "addr_street": "Central Avenue",
      "addr_housenumber": "1417",
      "value": 272.980623524122
    },
    {
      "id": 31016,
      "geometry": "POINT (-73.789365 42.601527)",
      "poi_name": "Angelo's Pizza & Pasta",
      "osm_id": 8399621963,
      "amenity": "restaurant",
      "cuisine": "italian",
      "addr_state": "NY",
      "addr_city": "Glenmont",
      "addr_postcode": "12077",
      "addr_street": "Glenmont Road",
      "addr_housenumber": "329",
      "value": 272.980623524122
    },
    {
      "id": 31017,
      "geometry": "POINT (-73.789903 42.601943)",
      "poi_name": "South Wok",
      "osm_id": 8399624876,
      "amenity": "restaurant",
      "cuisine": "chinese",
      "addr_state": "NY",
      "addr_city": "Glenmont",
      "addr_postcode": "12077",
      "addr_street": "Glenmont Road",
      "addr_housenumber": "329",
      "value": 272.980623524122
    },
    {
      "id": 31019,
      "geometry": "POINT (-73.817324 42.710371)",
      "poi_name": "The Cheesecake Factory",
      "osm_id": 8399626555,
      "amenity": "restaurant",
      "cuisine": "american",
      "addr_state": "NY",
      "addr_city": "Albany",
      "addr_postcode": "12205",
      "addr_street": "Central Avenue",
      "addr_housenumber": "1417",
      "value": 272.980623524122
    },
    {
      "id": 31020,
      "geometry": "POINT (-73.696428 42.734793)",
      "poi_name": "Taqueria Tren Maya",
      "osm_id": 8399626860,
      "amenity": "restaurant",
      "cuisine": "mexican",
      "opening_hours": "Mo-Su 10:00-22:00",
      "phone": "+15182445119",
      "addr_state": "NY",
      "addr_city": "Troy",
      "addr_postcode": "12183",
      "addr_street": "Lower Hudson Avenue",
      "addr_housenumber": "23 A",
      "value": 272.980623524122
    },
    {
      "id": 31021,
      "geometry": "POINT (-73.759822 42.753496)",
      "poi_name": "Celadon Thai Restaurant",
      "osm_id": 8399627016,
      "amenity": "restaurant",
      "cuisine": "thai",
      "opening_hours": "Mo-Th 11:00-15:00,16:30-21:30; Fr 11:00-15:00,16:30-22:00; Sa 12:00-22:00; Su 12:00-21:30",
      "website": "https://www.celadonthaialbany.com/",
      "phone": "518.250.5551",
      "addr_state": "NY",
      "addr_city": "Latham",
      "addr_postcode": "12110",
      "addr_street": "Loudon Road",
      "addr_housenumber": "860",
      "value": 272.980623524122
    },
    {
      "id": 31022,
      "geometry": "POINT (-73.8241 42.676558)",
      "poi_name": "Pizza Express",
      "osm_id": 8399628058,
      "amenity": "restaurant",
      "cuisine": "pizza",
      "opening_hours": "Mo-Th 10:00-02:00; Fr-Sa 10:00-03:00; Su 11:00-02:00",
      "takeaway": "yes",
      "outdoor_seating": "yes",
      "addr_state": "NY",
      "addr_city": "Albany",
      "addr_postcode": "12203",
      "addr_street": "Western Avenue",
      "addr_housenumber": "1178",
      "value": 272.980623524122
    },
    {
      "id": 31023,
      "geometry": "POINT (-73.810661 42.62928)",
      "poi_name": "Chontong Thai Restaurant",
      "osm_id": 8399629230,
      "amenity": "restaurant",
      "cuisine": "thai",
      "addr_state": "NY",
      "addr_city": "Delmar",
      "addr_postcode": "12054",
      "addr_street": "Delaware Avenue",
      "addr_housenumber": "155",
      "value": 272.980623524122
    },
    {
      "id": 42297,
      "geometry": "POINT (-73.892832 42.769567)",
      "poi_name": "Mizu Sushi",
      "osm_id": 3054623686,
      "amenity": "restaurant",
      "cuisine": "japanese",
      "phone": "+1 518 6305555",
      "addr_city": "Schenectady",
      "addr_postcode": "12304",
      "addr_street": "State Street",
      "addr_housenumber": "3610",
      "value": 272.980623524122
    },
    {
      "id": 47749,
      "geometry": "POINT (-73.69185 42.730607)",
      "poi_name": "Bacchus Woodfired",
      "osm_id": 3346410247,
      "amenity": "restaurant",
      "cuisine": "pizza",
      "opening_hours": "Mo off; Tu-Th 11:30-22:00; Fr 11:30-24:00; Sa 17:00-24:00; Su 16:00-21:00",
      "website": "https://www.yelp.com/biz/bacchus-troy",
      "phone": "518-687-0345",
      "takeaway": "yes",
      "delivery": "no",
      "addr_state": "NY",
      "addr_city": "Troy",
      "addr_postcode": "12180",
      "addr_street": "2nd Street",
      "addr_housenumber": "33",
      "value": 272.980623524122
    },
    {
      "id": 42619,
      "geometry": "POINT (-73.772376 42.863347)",
      "poi_name": "Delmonico's Italian Steakhouse",
      "osm_id": 3072701776,
      "amenity": "restaurant",
      "website": "https://www.delmonicositaliansteakhouse.com/location/delmonicos-italian-steakhouse-clifton-park-ny/",
      "phone": "+1 518 383 5656",
      "addr_city": "Clifton Park",
      "addr_postcode": "12065",
      "addr_street": "Northside Drive",
      "addr_housenumber": "3",
      "value": 272.980623524122
    },
    {
      "id": 47750,
      "geometry": "POINT (-73.691027 42.731504)",
      "poi_name": "Bootlegger's on Broadway",
      "osm_id": 3346418066,
      "amenity": "restaurant",
      "cuisine": "american",
      "opening_hours": "Mo-Fr 11:00-00:00; Sa-Su 11:00-02:00",
      "website": "https://www.bootleggerstroy.com/",
      "phone": "+1-518-874-4475",
      "takeaway": "yes",
      "addr_state": "NY",
      "addr_city": "Troy",
      "addr_postcode": "12180",
      "addr_street": "Broadway",
      "addr_housenumber": "200",
      "value": 272.980623524122
    },
    {
      "id": 50004,
      "geometry": "POINT (-73.764212 42.656054)",
      "poi_name": "Bar Vegan Tapas and Cocktail Bar",
      "osm_id": 3459827236,
      "amenity": "restaurant",
      "addr_state": "NY",
      "addr_city": "Albany",
      "addr_postcode": "12210",
      "addr_housenumber": "205",
      "value": 272.980623524122
    },
    {
      "id": 53095,
      "geometry": "POINT (-73.791765 42.666013)",
      "poi_name": "Cafe Madison",
      "osm_id": 10065270271,
      "amenity": "restaurant",
      "addr_state": "NY",
      "addr_city": "Albany",
      "addr_postcode": "12208",
      "addr_street": "Madison Avenue",
      "addr_housenumber": "1100",
      "value": 272.980623524122
    },
    {
      "id": 53096,
      "geometry": "POINT (-73.766608 42.653702)",
      "poi_name": "El Mariachi Tapas",
      "osm_id": 10065277810,
      "amenity": "restaurant",
      "cuisine": "mexican",
      "addr_state": "NY",
      "addr_city": "Albany",
      "addr_postcode": "12210",
      "addr_street": "Lark Street",
      "addr_housenumber": "271",
      "value": 272.980623524122
    },
    {
      "id": 53099,
      "geometry": "POINT (-73.751451 42.650474)",
      "poi_name": "Emmanuel Thai Restaurant",
      "osm_id": 10065302279,
      "amenity": "restaurant",
      "cuisine": "thai",
      "addr_state": "NY",
      "addr_city": "Albany",
      "addr_postcode": "12207",
      "addr_street": "Maiden Lane",
      "addr_housenumber": "35",
      "value": 272.980623524122
    },
    {
      "id": 53100,
      "geometry": "POINT (-73.782662 42.660828)",
      "poi_name": "Mexican Taqueria Restaurant",
      "osm_id": 10065308060,
      "amenity": "restaurant",
      "addr_state": "NY",
      "addr_city": "Albany",
      "addr_postcode": "12208",
      "addr_street": "Madison Avenue",
      "addr_housenumber": "858",
      "value": 272.980623524122
    },
    {
      "id": 53101,
      "geometry": "POINT (-73.764099 42.656124)",
      "poi_name": "Lark St. Poke Bar",
      "osm_id": 10065310438,
      "amenity": "restaurant",
      "addr_state": "NY",
      "addr_city": "Albany",
      "addr_postcode": "12210",
      "addr_street": "Lark Street",
      "addr_housenumber": "205",
      "value": 272.980623524122
    },
    {
      "id": 53108,
      "geometry": "POINT (-73.744853 42.660878)",
      "poi_name": "Tanpopo Ramen and Sake Bar",
      "osm_id": 10065417906,
      "amenity": "restaurant",
      "cuisine": "ramen",
      "opening_hours": "Mo-Su 11:00-24:00+",
      "addr_state": "NY",
      "addr_city": "Albany",
      "addr_postcode": "12207",
      "addr_street": "Broadway",
      "addr_housenumber": "893",
      "value": 272.980623524122
    },
    {
      "id": 53113,
      "geometry": "POINT (-73.766975 42.653016)",
      "poi_name": "Villa di Como Ristorante",
      "osm_id": 10065435650,
      "amenity": "restaurant",
      "addr_state": "NY",
      "addr_city": "Albany",
      "addr_postcode": "12210",
      "addr_street": "Lark Street",
      "addr_housenumber": "286",
      "value": 272.980623524122
    },
    {
      "id": 59254,
      "geometry": "POINT (-73.762154 42.731046)",
      "poi_name": "Bellini's Counter",
      "osm_id": 5415792042,
      "amenity": "restaurant",
      "cuisine": "italian",
      "addr_state": "NY",
      "addr_city": "Latham",
      "addr_postcode": "12110",
      "addr_street": "New Loudon Road",
      "addr_housenumber": "624",
      "value": 272.980623524122
    },
    {
      "id": 67446,
      "geometry": "POINT (-73.701376 42.774226)",
      "poi_name": "Lucky House",
      "osm_id": 11235310921,
      "amenity": "restaurant",
      "cuisine": "chinese",
      "addr_state": "NY",
      "addr_city": "Cohoes",
      "addr_postcode": "12047",
      "addr_street": "Remsen Street",
      "addr_housenumber": "96",
      "value": 272.980623524122
    },
    {
      "id": 67447,
      "geometry": "POINT (-73.700814 42.771585)",
      "poi_name": "Table 41 Brewery",
      "osm_id": 11235317146,
      "amenity": "restaurant",
      "addr_state": "NY",
      "addr_city": "Cohoes",
      "addr_postcode": "12047",
      "addr_street": "Remsen Street",
      "addr_housenumber": "188",
      "value": 272.980623524122
    },
    {
      "id": 67448,
      "geometry": "POINT (-73.700637 42.770872)",
      "poi_name": "Anthony\u2019s Italian Restaurant",
      "osm_id": 11235317149,
      "amenity": "restaurant",
      "cuisine": "italian",
      "addr_state": "NY",
      "addr_city": "Cohoes",
      "addr_postcode": "12047",
      "addr_street": "Remsen Street",
      "addr_housenumber": "220",
      "value": 272.980623524122
    },
    {
      "id": 67343,
      "geometry": "POINT (-73.76374 42.656163)",
      "poi_name": "VIVA Empanadas",
      "osm_id": 11234142646,
      "amenity": "restaurant",
      "website": "https://www.vivaempanadas.com/",
      "addr_state": "NY",
      "addr_city": "Albany",
      "addr_postcode": "12210",
      "addr_street": "Lark Street",
      "addr_housenumber": "200",
      "value": 272.980623524122
    },
    {
      "id": 67438,
      "geometry": "POINT (-73.700688 42.772161)",
      "poi_name": "Donnie Magoos",
      "osm_id": 11235238024,
      "amenity": "restaurant",
      "addr_state": "NY",
      "addr_city": "Cohoes",
      "addr_postcode": "12047",
      "addr_street": "Remsen Street",
      "addr_housenumber": "165",
      "value": 272.980623524122
    },
    {
      "id": 67439,
      "geometry": "POINT (-73.701249 42.772555)",
      "poi_name": "Gepetto's Pizzeria",
      "osm_id": 11235238025,
      "amenity": "restaurant",
      "cuisine": "pizza",
      "addr_state": "NY",
      "addr_city": "Cohoes",
      "addr_postcode": "12047",
      "addr_street": "White Street",
      "addr_housenumber": "20",
      "value": 272.980623524122
    },
    {
      "id": 67440,
      "geometry": "POINT (-73.70095 42.773358)",
      "poi_name": "Cohoes House of Pizza",
      "osm_id": 11235238032,
      "amenity": "restaurant",
      "cuisine": "pizza",
      "website": "https://cohoeshouseofpizza.com/",
      "addr_state": "NY",
      "addr_city": "Cohoes",
      "addr_postcode": "12047",
      "addr_street": "Remsen Street",
      "addr_housenumber": "127",
      "value": 272.980623524122
    },
    {
      "id": 72056,
      "geometry": "POINT (-73.686784 42.73078)",
      "poi_name": "Hibachi Station",
      "osm_id": 11410807892,
      "amenity": "restaurant",
      "cuisine": "asian",
      "addr_state": "NY",
      "addr_city": "Troy",
      "addr_postcode": "12180",
      "addr_street": "Broadway",
      "addr_housenumber": "501",
      "value": 272.980623524122
    },
    {
      "id": 72104,
      "geometry": "POINT (-73.687878 42.731223)",
      "poi_name": "Naughter's",
      "osm_id": 11413220969,
      "amenity": "restaurant",
      "cuisine": "breakfast;sandwich",
      "takeaway": "yes",
      "outdoor_seating": "yes",
      "toilets": "yes",
      "addr_state": "ny",
      "addr_city": "troy",
      "addr_postcode": "12180",
      "addr_street": "5th Avenue",
      "addr_housenumber": "1809",
      "value": 272.980623524122
    },
    {
      "id": 72119,
      "geometry": "POINT (-73.690392 42.73155)",
      "poi_name": "The Greek House",
      "osm_id": 11413382619,
      "amenity": "restaurant",
      "cuisine": "greek",
      "website": "http://www.thegreekhouse.net/",
      "addr_state": "NY",
      "addr_city": "Troy",
      "addr_postcode": "12180",
      "addr_street": "3rd Street",
      "addr_housenumber": "27",
      "value": 272.980623524122
    },
    {
      "id": 77626,
      "geometry": "POINT (-73.903607 42.804094)",
      "poi_name": "Union St Seagoo",
      "osm_id": 703716912,
      "amenity": "restaurant",
      "cuisine": "chicken;seafood",
      "opening_hours": "Tu-Su 11:00-22:00",
      "website": "https://www.unionwingseafood.com/",
      "phone": "5189010033",
      "addr_state": "NY",
      "addr_city": "Schenectady",
      "addr_postcode": "12309",
      "addr_street": "Union Street",
      "addr_housenumber": "1638",
      "value": 272.980623524122
    },
    {
      "id": 77627,
      "geometry": "POINT (-73.850248 42.701695)",
      "poi_name": "Crossgates Restaurant and Banquet House",
      "osm_id": 703719932,
      "amenity": "restaurant",
      "addr_state": "NY",
      "addr_city": "Albany",
      "addr_postcode": "12205",
      "addr_street": "Washington Avenue Extension",
      "addr_housenumber": "225",
      "value": 272.980623524122
    },
    {
      "id": 77791,
      "geometry": "POINT (-73.552989 42.634321)",
      "poi_name": "La Perla Restaurante",
      "osm_id": 715488141,
      "amenity": "restaurant",
      "cuisine": "italian",
      "phone": "518-674-3774",
      "addr_state": "NY",
      "addr_city": "Averill Park",
      "addr_postcode": "12018",
      "addr_street": "State Highway 43",
      "addr_housenumber": "3016",
      "value": 272.980623524122
    },
    {
      "id": 77553,
      "geometry": "POINT (-73.860659 42.742494)",
      "poi_name": "Farmer Boy Diner",
      "osm_id": 697332039,
      "amenity": "restaurant",
      "cuisine": "diner",
      "website": "http://www.farmer-boy.com",
      "addr_state": "NY",
      "addr_city": "Albany",
      "addr_postcode": "12205",
      "addr_street": "Central Avenue",
      "addr_housenumber": "1975",
      "value": 272.980623524122
    },
    {
      "id": 77848,
      "geometry": "POINT (-73.850157 42.688889)",
      "poi_name": "Standard Restaurant & Bar",
      "osm_id": 721467257,
      "amenity": "restaurant",
      "addr_city": "Albany",
      "addr_postcode": "12203",
      "addr_street": "Crossgates Mall Road",
      "value": 272.980623524122
    },
    {
      "id": 77849,
      "geometry": "POINT (-73.849572 42.68965)",
      "poi_name": "Unos",
      "osm_id": 721467266,
      "amenity": "restaurant",
      "cuisine": "pizza",
      "addr_city": "Albany",
      "addr_postcode": "12203",
      "addr_street": "Crossgates Mall Road",
      "value": 272.980623524122
    },
    {
      "id": 77850,
      "geometry": "POINT (-73.850425 42.689093)",
      "poi_name": "Ruby Tuesday",
      "osm_id": 721467281,
      "amenity": "restaurant",
      "cuisine": "american",
      "addr_city": "Albany",
      "addr_postcode": "12203",
      "addr_street": "Crossgates Mall Road",
      "addr_housenumber": "1 Suite K-101",
      "value": 272.980623524122
    },
    {
      "id": 77851,
      "geometry": "POINT (-73.850876 42.689248)",
      "poi_name": "The Melting Pot",
      "osm_id": 721467358,
      "amenity": "restaurant",
      "cuisine": "fondue",
      "addr_city": "Albany",
      "addr_postcode": "12203",
      "addr_street": "Crossgates Mall Road",
      "value": 272.980623524122
    },
    {
      "id": 77859,
      "geometry": "POINT (-73.852743 42.690329)",
      "poi_name": "Johnny Rockets",
      "osm_id": 721629785,
      "amenity": "restaurant",
      "cuisine": "burger",
      "addr_city": "Albany",
      "addr_postcode": "12203",
      "addr_street": "Crossgates Mall Road",
      "addr_housenumber": "1",
      "value": 272.980623524122
    },
    {
      "id": 78822,
      "geometry": "POINT (-73.904119 42.804788)",
      "poi_name": "Tanpopo Ramen and Sake Bar",
      "osm_id": 763671139,
      "amenity": "restaurant",
      "addr_state": "NY",
      "addr_city": "Schenectady",
      "addr_postcode": "12309",
      "addr_street": "Union Street",
      "addr_housenumber": "1625",
      "value": 272.980623524122
    },
    {
      "id": 78823,
      "geometry": "POINT (-73.90466 42.804976)",
      "poi_name": "Hunan Wok Chinese Restaurant",
      "osm_id": 763671171,
      "amenity": "restaurant",
      "cuisine": "chinese",
      "addr_city": "Schenectady",
      "addr_postcode": "12309",
      "addr_street": "Union Street",
      "addr_housenumber": "1617",
      "value": 272.980623524122
    },
    {
      "id": 78857,
      "geometry": "POINT (-73.822433 42.770725)",
      "poi_name": "Xin Fu Chinese Food",
      "osm_id": 764753854,
      "amenity": "restaurant",
      "cuisine": "chinese",
      "wheelchair": "yes",
      "addr_state": "NY",
      "addr_city": "Latham",
      "addr_postcode": "12110",
      "addr_street": "Troy Schenectady Road",
      "addr_housenumber": "1186",
      "value": 272.980623524122
    },
    {
      "id": 78952,
      "geometry": "POINT (-73.891494 42.816666)",
      "poi_name": "Tequila Mexican Bar and Grill",
      "osm_id": 766880112,
      "amenity": "restaurant",
      "cuisine": "mexican",
      "addr_state": "NY",
      "addr_city": "Niskayuna",
      "addr_postcode": "12309",
      "addr_street": "Nott Street East",
      "addr_housenumber": "2303",
      "value": 272.980623524122
    },
    {
      "id": 80129,
      "geometry": "POINT (-73.660132 42.705088)",
      "poi_name": "The Eatery: Carol's Place",
      "osm_id": 854661691,
      "amenity": "restaurant",
      "addr_state": "NY",
      "addr_city": "Troy",
      "addr_street": "Pawling Avenue",
      "value": 272.980623524122
    },
    {
      "id": 79419,
      "geometry": "POINT (-73.659441 42.705894)",
      "poi_name": "Lee Lin Chinese Restaurant",
      "osm_id": 804483956,
      "amenity": "restaurant",
      "cuisine": "chinese",
      "addr_state": "NY",
      "addr_city": "Troy",
      "addr_street": "Pawling Avenue",
      "value": 272.980623524122
    },
    {
      "id": 80066,
      "geometry": "POINT (-73.68793 42.73089)",
      "poi_name": "Nighthawks",
      "osm_id": 846508179,
      "amenity": "restaurant",
      "cuisine": "american",
      "opening_hours": "Mo-Fr 12:00-23:00; Sa,Su 10:00-23:00",
      "addr_state": "NY",
      "addr_city": "Troy",
      "addr_postcode": "12180",
      "addr_street": "Broadway",
      "addr_housenumber": "461",
      "value": 272.980623524122
    },
    {
      "id": 80565,
      "geometry": "POINT (-73.748435 42.762307)",
      "poi_name": "Karavalli",
      "osm_id": 883069286,
      "amenity": "restaurant",
      "cuisine": "indian",
      "phone": "518-785-7600",
      "addr_state": "NY",
      "addr_city": "Latham",
      "addr_postcode": "12110",
      "addr_street": "Johnson Road",
      "addr_housenumber": "9B",
      "value": 272.980623524122
    },
    {
      "id": 85700,
      "geometry": "POINT (-73.670904 42.744789)",
      "poi_name": "Park Pub Restaurant & Catering",
      "osm_id": 1889185986,
      "amenity": "restaurant",
      "website": "http://park-pub.com/",
      "addr_state": "NY",
      "addr_city": "Troy",
      "addr_postcode": "12180",
      "addr_street": "Lavin Court",
      "addr_housenumber": "2701",
      "value": 272.980623524122
    },
    {
      "id": 89333,
      "geometry": "POINT (-73.690566 42.730597)",
      "poi_name": "Muddaddy Flats Quesdailla",
      "osm_id": 8839718769,
      "amenity": "restaurant",
      "cuisine": "mexican",
      "phone": "(518) 326-0630",
      "addr_state": "NY",
      "addr_city": "Troy",
      "addr_postcode": "12180",
      "addr_street": "3rd Street",
      "addr_housenumber": "49",
      "value": 272.980623524122
    },
    {
      "id": 91697,
      "geometry": "POINT (-73.85995 42.801626)",
      "poi_name": "Mario's Restaurant & Pizzeria",
      "osm_id": 2084036946,
      "amenity": "restaurant",
      "cuisine": "italian",
      "website": "http://mariosrestaurantniskayuna.com/",
      "drive_through": "no",
      "addr_state": "NY",
      "addr_city": "Niskayuna",
      "addr_postcode": "12309",
      "addr_street": "River Road",
      "addr_housenumber": "2850",
      "value": 272.980623524122
    },
    {
      "id": 97206,
      "geometry": "POINT (-73.89115 42.816492)",
      "poi_name": "Thai Thai Bistro",
      "osm_id": 6467128972,
      "amenity": "restaurant",
      "cuisine": "thai",
      "takeaway": "yes",
      "outdoor_seating": "yes",
      "delivery": "no",
      "addr_state": "NY",
      "addr_city": "Niskayuna",
      "addr_postcode": "12309",
      "addr_street": "Nott Street East",
      "addr_housenumber": "2209",
      "value": 272.980623524122
    },
    {
      "id": 111120,
      "geometry": "POINT (-73.819068 42.757786)",
      "poi_name": "Pickles Deli",
      "osm_id": 3732319249,
      "amenity": "restaurant",
      "cuisine": "sandwich;pizza",
      "phone": "518-786-1653",
      "delivery": "yes",
      "addr_state": "NY",
      "addr_city": "Latham",
      "addr_postcode": "12110",
      "addr_street": "Airport Park Boulevard",
      "addr_housenumber": "3",
      "value": 272.980623524122
    },
    {
      "id": 117379,
      "geometry": "POINT (-73.77107 42.754558)",
      "poi_name": "7 Filet West",
      "osm_id": 8990893907,
      "amenity": "restaurant",
      "cuisine": "steak_house",
      "building": "yes",
      "addr_state": "NY",
      "addr_city": "Latham",
      "addr_postcode": "12110",
      "addr_street": "Troy Schenectady Road",
      "addr_housenumber": "611",
      "value": 272.980623524122
    },
    {
      "id": 112984,
      "geometry": "POINT (-73.199272 42.710783)",
      "poi_name": "Gramercy Bistro",
      "osm_id": 3813319032,
      "amenity": "restaurant",
      "cuisine": "international",
      "website": "https://www.gramercybistro.com/",
      "phone": "+1 413 458-6222",
      "addr_state": "MA",
      "addr_city": "Williamstown",
      "addr_postcode": "01267",
      "addr_street": "Water Street",
      "addr_housenumber": "16",
      "value": 272.980623524122
    },
    {
      "id": 120941,
      "geometry": "POINT (-73.751678 42.651675)",
      "poi_name": "Steuben St. Market",
      "osm_id": 6735990130,
      "amenity": "restaurant",
      "addr_city": "Albany",
      "value": 272.980623524122
    },
    {
      "id": 120952,
      "geometry": "POINT (-73.75666 42.646427)",
      "poi_name": "A Golden Dragon",
      "osm_id": 6736042621,
      "amenity": "restaurant",
      "addr_city": "Albany",
      "value": 272.980623524122
    },
    {
      "id": 120953,
      "geometry": "POINT (-73.756051 42.646007)",
      "poi_name": "V&R Fine Italian Cuisine",
      "osm_id": 6736042622,
      "amenity": "restaurant",
      "addr_city": "Albany",
      "value": 272.980623524122
    },
    {
      "id": 126666,
      "geometry": "POINT (-73.815452 42.703156)",
      "poi_name": "Tengu Asian Bistro",
      "osm_id": 7990282453,
      "amenity": "restaurant",
      "cuisine": "asian",
      "website": "https://etengu.com/",
      "phone": "+1 518 4720114",
      "addr_state": "NY",
      "addr_city": "Albany",
      "addr_postcode": "12205",
      "addr_street": "Central Avenue",
      "addr_housenumber": "1343",
      "value": 272.980623524122
    },
    {
      "id": 127259,
      "geometry": "POINT (-73.762336 42.74095)",
      "poi_name": "J's Kitchen",
      "osm_id": 8047277497,
      "amenity": "restaurant",
      "cuisine": "chinese",
      "website": "http://www.jskitchenchinese.com/",
      "addr_state": "NY",
      "addr_city": "Latham",
      "addr_postcode": "12110",
      "addr_street": "New Loudon Road",
      "addr_housenumber": "726",
      "value": 272.980623524122
    },
    {
      "id": 131584,
      "geometry": "POINT (-73.763939 42.656296)",
      "poi_name": "Noho Pizza",
      "osm_id": 9921548325,
      "amenity": "restaurant",
      "cuisine": "pizza",
      "website": "https://nohopizza.com/",
      "phone": "518 433 11 11",
      "addr_state": "NY",
      "addr_city": "Albany",
      "addr_postcode": "12210",
      "addr_street": "Lark Street",
      "addr_housenumber": "195",
      "value": 272.980623524122
    },
    {
      "id": 131344,
      "geometry": "POINT (-73.789538 42.66476)",
      "poi_name": "The Box Office",
      "osm_id": 9910504675,
      "amenity": "restaurant",
      "website": "https://www.yelp.com/biz/the-box-office-albany",
      "addr_state": "NY",
      "addr_city": "Albany",
      "addr_postcode": "12208",
      "addr_street": "Madison Avenue",
      "addr_housenumber": "1034",
      "value": 272.980623524122
    },
    {
      "id": 131586,
      "geometry": "POINT (-73.763666 42.656552)",
      "poi_name": "Jewel of India on Lark",
      "osm_id": 9921548327,
      "amenity": "restaurant",
      "cuisine": "indian",
      "opening_hours": "Mo-Th 11:30-22:00; Fr 11:30-22:30; Sa 12:00-22:30; Su 12:00-22:00",
      "website": "http://www.jewelonlark.com/",
      "phone": "(518) 512-5600",
      "addr_state": "NY",
      "addr_city": "Albany",
      "addr_postcode": "12210",
      "addr_street": "Lark Street",
      "addr_housenumber": "187",
      "value": 272.980623524122
    },
    {
      "id": 131588,
      "geometry": "POINT (-73.763759 42.656844)",
      "poi_name": "Mamoun's Restaurant",
      "osm_id": 9921548331,
      "amenity": "restaurant",
      "opening_hours": "Mo-Fr 11:30-15:00, 17:00-22:00; Sa-Su 12:00-22:00",
      "phone": "518-434-3901",
      "addr_state": "NY",
      "addr_city": "Albany",
      "addr_postcode": "12210",
      "addr_street": "Washington Avenue",
      "addr_housenumber": "206",
      "value": 272.980623524122
    },
    {
      "id": 131596,
      "geometry": "POINT (-73.765843 42.654119)",
      "poi_name": "Sukhothai",
      "osm_id": 9921603779,
      "amenity": "restaurant",
      "cuisine": "thai",
      "website": "www.sukhothaisushi.com",
      "addr_state": "NY",
      "addr_city": "Albany",
      "addr_postcode": "12210",
      "addr_street": "Lark Street",
      "addr_housenumber": "254",
      "value": 272.980623524122
    },
    {
      "id": 131597,
      "geometry": "POINT (-73.765915 42.654053)",
      "poi_name": "Bombers Burrito Bar",
      "osm_id": 9921603780,
      "amenity": "restaurant",
      "cuisine": "mexican",
      "website": "https://www.bombersburritobar.com/albany.html",
      "phone": "518.463.9636",
      "addr_state": "NY",
      "addr_city": "Albany",
      "addr_postcode": "12210",
      "addr_street": "Lark Street",
      "addr_housenumber": "258",
      "value": 272.980623524122
    },
    {
      "id": 131599,
      "geometry": "POINT (-73.7665 42.653811)",
      "poi_name": "Amazing Wok",
      "osm_id": 9921603785,
      "amenity": "restaurant",
      "cuisine": "chinese",
      "addr_state": "NY",
      "addr_city": "Albany",
      "addr_postcode": "12210",
      "addr_street": "Lark Street",
      "addr_housenumber": "267",
      "value": 272.980623524122
    },
    {
      "id": 131600,
      "geometry": "POINT (-73.766567 42.653737)",
      "poi_name": "Soho Pizza",
      "osm_id": 9921603786,
      "amenity": "restaurant",
      "cuisine": "pizza",
      "website": "www.sohopizza.com",
      "phone": "(518) 449-1111",
      "addr_state": "NY",
      "addr_city": "Albany",
      "addr_postcode": "12210",
      "addr_street": "Lark Street",
      "addr_housenumber": "269",
      "value": 272.980623524122
    },
    {
      "id": 131602,
      "geometry": "POINT (-73.768524 42.653081)",
      "poi_name": "El Loco Mexican Cafe",
      "osm_id": 9921603811,
      "amenity": "restaurant",
      "cuisine": "mexican",
      "opening_hours": "Tu 16:00-21:30; We-Th 11:30-21:30; Fr 11:30-22:30; Sa 12:00-22:30; Su 16:00-21:30",
      "phone": "518-436-1855",
      "addr_state": "NY",
      "addr_city": "Albany",
      "addr_postcode": "12210",
      "addr_street": "Madison Avenue",
      "addr_housenumber": "465",
      "value": 272.980623524122
    },
    {
      "id": 137074,
      "geometry": "POINT (-73.785601 42.672814)",
      "poi_name": "Luke's Pizzeria",
      "osm_id": 6084100376,
      "amenity": "restaurant",
      "cuisine": "pizza",
      "website": "http://www.lukespizzaalbany.com/",
      "phone": "+1 518 4388200",
      "addr_state": "NY",
      "addr_city": "Albany",
      "addr_postcode": "12206",
      "addr_street": "North Allen Street",
      "addr_housenumber": "188",
      "value": 272.980623524122
    },
    {
      "id": 137565,
      "geometry": "POINT (-73.79915 42.68843)",
      "poi_name": "Little Anthony's",
      "osm_id": 6104802076,
      "amenity": "restaurant",
      "cuisine": "pizza",
      "website": "https://littleanthonys.org/",
      "phone": "+1 518 4595959",
      "addr_state": "NY",
      "addr_city": "Albany",
      "addr_postcode": "12205",
      "addr_street": "Central Avenue",
      "addr_housenumber": "1095",
      "value": 272.980623524122
    },
    {
      "id": 137566,
      "geometry": "POINT (-73.781892 42.676922)",
      "poi_name": "Dragon Fried Fish",
      "osm_id": 6104876098,
      "amenity": "restaurant",
      "cuisine": "chinese",
      "addr_state": "NY",
      "addr_city": "Albany",
      "addr_postcode": "12206",
      "addr_street": "Watervliet Avenue",
      "addr_housenumber": "55",
      "value": 272.980623524122
    },
    {
      "id": 139190,
      "geometry": "POINT (-73.846435 42.728244)",
      "poi_name": "Namu Korean BBQ Restaurant",
      "osm_id": 6186301909,
      "amenity": "restaurant",
      "cuisine": "korean;barbecue",
      "addr_state": "NY",
      "addr_city": "Colonie",
      "addr_postcode": "12205",
      "addr_street": "Central Avenue",
      "addr_housenumber": "1770",
      "value": 272.980623524122
    },
    {
      "id": 139191,
      "geometry": "POINT (-73.846915 42.728658)",
      "poi_name": "La Famiglia Pizza",
      "osm_id": 6186301913,
      "amenity": "restaurant",
      "cuisine": "pizza;italian",
      "addr_state": "NY",
      "addr_city": "Colonie",
      "addr_postcode": "12205",
      "addr_street": "Central Avenue",
      "addr_housenumber": "1770",
      "value": 272.980623524122
    },
    {
      "id": 139417,
      "geometry": "POINT (-73.821354 42.708498)",
      "poi_name": "BJ's",
      "osm_id": 6196947019,
      "amenity": "restaurant",
      "cuisine": "american",
      "official_name": "BJ's Restaurant & Brewhouse",
      "addr_state": "NY",
      "addr_city": "Colonie",
      "addr_postcode": "12205",
      "addr_street": "Colonie Center",
      "addr_housenumber": "131",
      "value": 272.980623524122
    },
    {
      "id": 142304,
      "geometry": "POINT (-73.75125 42.652687)",
      "poi_name": "Ama Cocina",
      "osm_id": 6311332563,
      "amenity": "restaurant",
      "cuisine": "mexican",
      "website": "http://www.amacocina.com/",
      "phone": "+1-518-776-4550",
      "addr_state": "NY",
      "addr_city": "Albany",
      "addr_postcode": "12207",
      "addr_street": "Sheridan Avenue",
      "addr_housenumber": "4",
      "value": 272.980623524122
    },
    {
      "id": 146624,
      "geometry": "POINT (-73.207366 42.704)",
      "poi_name": "The Log",
      "osm_id": 7465068213,
      "amenity": "restaurant",
      "addr_state": "MA",
      "addr_city": "Williamstown",
      "addr_postcode": "01267",
      "addr_street": "Spring Street",
      "addr_housenumber": "78",
      "value": 272.980623524122
    },
    {
      "id": 150995,
      "geometry": "POINT (-73.691006 42.731281)",
      "poi_name": "Donna's Italian",
      "osm_id": 4076692490,
      "amenity": "restaurant",
      "cuisine": "italian",
      "website": "https://www.donnasitalian.com/",
      "takeaway": "no",
      "addr_state": "NY",
      "addr_city": "Troy",
      "addr_postcode": "12180",
      "addr_street": "Broadway",
      "addr_housenumber": "217",
      "value": 272.980623524122
    },
    {
      "id": 152375,
      "geometry": "POINT (-73.694487 42.723192)",
      "poi_name": "Carmen's",
      "osm_id": 4141331889,
      "amenity": "restaurant",
      "cuisine": "spanish;american;breakfast",
      "opening_hours": "Sa-Su 09:00-16:00",
      "website": "https://carmenscafetroy.com/",
      "phone": "+1-518-326-2064",
      "addr_state": "NY",
      "addr_city": "Troy",
      "addr_postcode": "12180",
      "addr_street": "1st Street",
      "addr_housenumber": "198",
      "value": 272.980623524122
    },
    {
      "id": 152376,
      "geometry": "POINT (-73.69068 42.723253)",
      "poi_name": "De Fazio's Pizzeria",
      "osm_id": 4141344789,
      "amenity": "restaurant",
      "cuisine": "pizza",
      "opening_hours": "Mo-Fr 11:00-22:00; Sa 12:00-22:00",
      "website": "https://defaziospizza.com/",
      "phone": "+1-518-271-1111",
      "addr_state": "NY",
      "addr_city": "Troy",
      "addr_postcode": "12180",
      "addr_street": "4th Street",
      "addr_housenumber": "266",
      "value": 272.980623524122
    },
    {
      "id": 152377,
      "geometry": "POINT (-73.675817 42.736234)",
      "poi_name": "Ali Baba",
      "osm_id": 4141356489,
      "amenity": "restaurant",
      "cuisine": "turkish;mediterranean",
      "opening_hours": "Mo-Sa 10:00-22:00",
      "website": "http://www.alibabacusine.com/",
      "phone": "+1-518-273-2222",
      "addr_state": "NY",
      "addr_city": "Troy",
      "addr_postcode": "12180",
      "addr_street": "15th Street",
      "addr_housenumber": "2243",
      "value": 272.980623524122
    },
    {
      "id": 159615,
      "geometry": "POINT (-73.691712 42.731146)",
      "poi_name": "Plumb Oyster Bar",
      "osm_id": 4799900399,
      "amenity": "restaurant",
      "cuisine": "seafood",
      "opening_hours": "Tu-We 04:00-23:00; Th 04:30-23:00; Fr-Sa 16:00-00:00",
      "takeaway": "no",
      "outdoor_seating": "no",
      "addr_state": "NY",
      "addr_city": "Troy",
      "addr_postcode": "12180",
      "addr_street": "2nd Street",
      "addr_housenumber": "15",
      "value": 272.980623524122
    },
    {
      "id": 163469,
      "geometry": "POINT (-73.824602 42.676682)",
      "poi_name": "DC\u2019s Pizza",
      "osm_id": 9420861935,
      "amenity": "restaurant",
      "cuisine": "pizza",
      "opening_hours": "Mo, Tu 11:00-20:00; We-Fr 09:00-21:00; Sa, Su 11:00-21:00",
      "website": "https://www.dcspizza.com",
      "phone": "+1 518-482-1392",
      "takeaway": "yes",
      "outdoor_seating": "yes",
      "addr_state": "NY",
      "addr_city": "Albany",
      "addr_postcode": "12203",
      "addr_street": "Western Avenue",
      "addr_housenumber": "1182",
      "value": 272.980623524122
    },
    {
      "id": 168257,
      "geometry": "POINT (-73.753259 42.649457)",
      "poi_name": "Maurice's Deli",
      "osm_id": 370696693,
      "amenity": "restaurant",
      "addr_city": "Albany",
      "value": 272.980623524122
    },
    {
      "id": 168352,
      "geometry": "POINT (-73.607189 42.646227)",
      "poi_name": "Hometown Diner",
      "osm_id": 390620955,
      "amenity": "restaurant",
      "cuisine": "diner",
      "addr_state": "NY",
      "addr_city": "West Sand Lake",
      "addr_street": "Mall Way",
      "value": 272.980623524122
    },
    {
      "id": 168354,
      "geometry": "POINT (-73.605733 42.646031)",
      "poi_name": "Lee Sun Chinese Food",
      "osm_id": 390620958,
      "amenity": "restaurant",
      "cuisine": "chinese",
      "addr_state": "NY",
      "addr_city": "West Sand Lake",
      "addr_street": "Mall Way",
      "value": 272.980623524122
    },
    {
      "id": 168355,
      "geometry": "POINT (-73.605417 42.645992)",
      "poi_name": "Michael's Lounge",
      "osm_id": 390620959,
      "amenity": "restaurant",
      "addr_state": "NY",
      "addr_city": "West Sand Lake",
      "addr_street": "Mall Way",
      "value": 272.980623524122
    },
    {
      "id": 168300,
      "geometry": "POINT (-73.691501 42.661357)",
      "poi_name": "Zenbu Chinese Restaurant",
      "osm_id": 373513181,
      "amenity": "restaurant",
      "cuisine": "chinese",
      "addr_state": "NY",
      "addr_city": "Rensselaer",
      "addr_street": "North Greenbush Road",
      "addr_housenumber": "449",
      "value": 272.980623524122
    },
    {
      "id": 168259,
      "geometry": "POINT (-73.637218 42.694667)",
      "poi_name": "La Bella Pizza & Restaurant",
      "osm_id": 370711282,
      "amenity": "restaurant",
      "cuisine": "italian",
      "website": "https://www.labellapizzawynantskill.com/",
      "phone": "518-283-0800",
      "addr_state": "NY",
      "addr_city": "Wynantskill",
      "addr_postcode": "12198",
      "addr_street": "Main Avenue",
      "addr_housenumber": "74",
      "value": 272.980623524122
    },
    {
      "id": 168502,
      "geometry": "POINT (-73.809893 42.745868)",
      "poi_name": "Silk's Saratoga Bistro",
      "osm_id": 2263296238,
      "amenity": "restaurant",
      "cuisine": "american",
      "wheelchair": "yes",
      "internet_access": "wlan",
      "takeaway": "yes",
      "outdoor_seating": "no",
      "delivery": "no",
      "addr_city": "Albany",
      "value": 272.980623524122
    },
    {
      "id": 183842,
      "geometry": "POINT (-73.764594 42.658059)",
      "poi_name": "Aashiana",
      "osm_id": 10948111883,
      "amenity": "restaurant",
      "cuisine": "indian",
      "opening_hours": "Mo-Fr 11:30-15:00, 17:30-20:00; Sa 12:00-15:00",
      "website": "http://www.aashianarestaurant.com/",
      "phone": "518 463 4161",
      "addr_state": "NY",
      "addr_city": "Albany",
      "addr_postcode": "12210",
      "addr_street": "Central Avenue",
      "addr_housenumber": "31",
      "value": 272.980623524122
    },
    {
      "id": 183844,
      "geometry": "POINT (-73.763269 42.656951)",
      "poi_name": "Gandhi",
      "osm_id": 10948111897,
      "amenity": "restaurant",
      "website": "http://www.albanygandhi.com/",
      "phone": "(518) 449-5577",
      "addr_city": "Albany",
      "addr_postcode": "12210",
      "addr_street": "Central Avenue",
      "addr_housenumber": "1",
      "value": 272.980623524122
    },
    {
      "id": 189080,
      "geometry": "POINT (-73.710216 42.780928)",
      "poi_name": "Joe's Tavern",
      "osm_id": 1209920386,
      "amenity": "restaurant",
      "opening_hours": "Tu-Th 16:00-22:00; Fr,Sa 16:00-23:00",
      "website": "http://joestaverncohoes.com/",
      "phone": "+1 518 235 6555",
      "addr_state": "NY",
      "addr_city": "Cohoes",
      "addr_postcode": "12047",
      "addr_street": "Division Street",
      "addr_housenumber": "16",
      "value": 272.980623524122
    },
    {
      "id": 187735,
      "geometry": "POINT (-73.778231 42.670068)",
      "poi_name": "Royal India",
      "osm_id": 1100747758,
      "amenity": "restaurant",
      "cuisine": "indian",
      "phone": "518-482-4555",
      "addr_state": "NY",
      "addr_city": "Albany",
      "addr_postcode": "12206",
      "addr_street": "Central Avenue",
      "addr_housenumber": "519",
      "value": 272.980623524122
    },
    {
      "id": 187739,
      "geometry": "POINT (-73.5494 42.589579)",
      "poi_name": "Jack Kelly's Tavern by the Green",
      "osm_id": 1100873040,
      "amenity": "restaurant",
      "website": "http://www.blccgolf.com/restaurant.php",
      "phone": "518-674-1770",
      "addr_state": "NY",
      "addr_city": "Averill Park",
      "addr_postcode": "12018",
      "addr_street": "Totem Lodge Road",
      "addr_housenumber": "162",
      "value": 272.980623524122
    },
    {
      "id": 188491,
      "geometry": "POINT (-73.79081 42.678806)",
      "poi_name": "Grappa'72 Ristorante",
      "osm_id": 1157897809,
      "amenity": "restaurant",
      "cuisine": "italian",
      "opening_hours": "Mo-Th 11:30-15:00,16:30-21:30; Fr 11:30-15:00,16:30-22:00; Sa 16:30-22:00; Su 12:00-20:00",
      "website": "https://www.grappa72.com/",
      "phone": "518-482-7200",
      "addr_state": "NY",
      "addr_city": "Albany",
      "addr_postcode": "12206",
      "addr_street": "Central Avenue",
      "addr_housenumber": "818",
      "value": 272.980623524122
    },
    {
      "id": 189345,
      "geometry": "POINT (-73.756224 42.646895)",
      "poi_name": "Cafe Capriccio",
      "osm_id": 1228524795,
      "amenity": "restaurant",
      "cuisine": "italian",
      "addr_city": "Albany",
      "value": 272.980623524122
    },
    {
      "id": 189346,
      "geometry": "POINT (-73.755913 42.646187)",
      "poi_name": "Angelo's Submarine",
      "osm_id": 1228524800,
      "amenity": "restaurant",
      "cuisine": "sandwich",
      "addr_city": "Albany",
      "value": 272.980623524122
    },
    {
      "id": 189493,
      "geometry": "POINT (-73.750761 42.652308)",
      "poi_name": "The Hollow + Kitchen",
      "osm_id": 1234833819,
      "amenity": "restaurant",
      "phone": "528-426-8550",
      "addr_state": "NY",
      "addr_city": "Albany",
      "addr_postcode": "12207",
      "addr_street": "North Pearl Street",
      "addr_housenumber": "79",
      "value": 272.980623524122
    },
    {
      "id": 189494,
      "geometry": "POINT (-73.751404 42.651345)",
      "poi_name": "Pizzeria 54",
      "osm_id": 1234833831,
      "amenity": "restaurant",
      "cuisine": "pizza",
      "addr_city": "Albany",
      "value": 272.980623524122
    },
    {
      "id": 191734,
      "geometry": "POINT (-73.78386 42.674454)",
      "poi_name": "Caffe Italia Ristorante",
      "osm_id": 1390200019,
      "amenity": "restaurant",
      "cuisine": "italian",
      "website": "https://www.caffeitaliaalbany.com/",
      "phone": "+1 518 4598029",
      "addr_state": "NY",
      "addr_city": "Albany",
      "addr_postcode": "12206",
      "addr_street": "Central Avenue",
      "addr_housenumber": "662",
      "value": 272.980623524122
    },
    {
      "id": 191756,
      "geometry": "POINT (-73.763576 42.656339)",
      "poi_name": "Herbie's Burgers",
      "osm_id": 1391611963,
      "amenity": "restaurant",
      "cuisine": "burger",
      "addr_city": "Albany",
      "value": 272.980623524122
    },
    {
      "id": 191911,
      "geometry": "POINT (-73.751547 42.651833)",
      "poi_name": "Skinny Pancake",
      "osm_id": 1404775799,
      "amenity": "restaurant",
      "website": "https://skinnypancake.com/locations/albany/",
      "addr_state": "NY",
      "addr_city": "Albany",
      "addr_street": "Steuben Street",
      "addr_housenumber": "1",
      "value": 272.980623524122
    },
    {
      "id": 191912,
      "geometry": "POINT (-73.750903 42.649477)",
      "poi_name": "Shalimar",
      "osm_id": 1404775802,
      "amenity": "restaurant",
      "cuisine": "indian",
      "addr_city": "Albany",
      "value": 272.980623524122
    },
    {
      "id": 191913,
      "geometry": "POINT (-73.750994 42.650211)",
      "poi_name": "Lunch",
      "osm_id": 1404775808,
      "amenity": "restaurant",
      "addr_city": "Albany",
      "value": 272.980623524122
    },
    {
      "id": 191916,
      "geometry": "POINT (-73.751767 42.650744)",
      "poi_name": "Capitol House",
      "osm_id": 1404775862,
      "amenity": "restaurant",
      "cuisine": "asian",
      "addr_city": "Albany",
      "value": 272.980623524122
    },
    {
      "id": 191918,
      "geometry": "POINT (-73.751461 42.65244)",
      "poi_name": "Burrito Joe's",
      "osm_id": 1404775893,
      "amenity": "restaurant",
      "cuisine": "mexican",
      "addr_city": "Albany",
      "value": 272.980623524122
    },
    {
      "id": 193068,
      "geometry": "POINT (-73.676257 42.738884)",
      "poi_name": "Friendly's",
      "osm_id": 1493770680,
      "amenity": "restaurant",
      "cuisine": "american",
      "addr_state": "NY",
      "addr_city": "Troy",
      "addr_postcode": "12180",
      "addr_street": "Hoosick Street",
      "addr_housenumber": "120",
      "value": 272.980623524122
    },
    {
      "id": 191895,
      "geometry": "POINT (-73.802716 42.657027)",
      "poi_name": "Gold Key",
      "osm_id": 1404733940,
      "amenity": "restaurant",
      "cuisine": "chinese",
      "addr_state": "NY",
      "addr_city": "Albany",
      "addr_postcode": "12208",
      "addr_street": "New Scotland Avenue",
      "addr_housenumber": "579",
      "value": 272.980623524122
    },
    {
      "id": 191896,
      "geometry": "POINT (-73.802588 42.656978)",
      "poi_name": "Anton",
      "osm_id": 1404733943,
      "amenity": "restaurant",
      "cuisine": "greek",
      "addr_state": "NY",
      "addr_city": "Albany",
      "addr_postcode": "12208",
      "addr_street": "New Scotland Avenue",
      "addr_housenumber": "577",
      "value": 272.980623524122
    },
    {
      "id": 191903,
      "geometry": "POINT (-73.775858 42.663007)",
      "poi_name": "Mr. Pio Pio",
      "osm_id": 1404742758,
      "amenity": "restaurant",
      "cuisine": "spanish",
      "addr_state": "NY",
      "addr_city": "Albany",
      "addr_postcode": "12203",
      "addr_street": "Quail Street",
      "addr_housenumber": "160",
      "value": 272.980623524122
    },
    {
      "id": 193435,
      "geometry": "POINT (-73.779845 42.86012)",
      "poi_name": "Buffalo Wild Wings",
      "osm_id": 1537739344,
      "amenity": "restaurant",
      "cuisine": "wings",
      "opening_hours": "Su-Th 11:00-24:00, Fr,Sa 11:00-01:00",
      "addr_state": "NY",
      "value": 272.980623524122
    },
    {
      "id": 193438,
      "geometry": "POINT (-73.782506 42.856691)",
      "poi_name": "The Brick Tavern & Grille",
      "osm_id": 1537740985,
      "amenity": "restaurant",
      "cuisine": "pizza;pasta",
      "outdoor_seating": "yes",
      "addr_state": "NY",
      "addr_city": "Clifton Park",
      "addr_postcode": "12065",
      "addr_street": "Clifton Country Road",
      "addr_housenumber": "54",
      "value": 272.980623524122
    },
    {
      "id": 193559,
      "geometry": "POINT (-73.765505 42.861344)",
      "poi_name": "Saigon Spring",
      "osm_id": 1545348708,
      "amenity": "restaurant",
      "cuisine": "vietnamese",
      "opening_hours": "Tu-Su 11:00-15:00,16:00-21:00, Fr,Sa 21:00-22:00",
      "website": "http://www.saigonspring.com/",
      "capacity": "75",
      "phone": "+1 518 982 0425",
      "takeaway": "yes",
      "addr_city": "Clifton Park",
      "addr_street": "Route 9",
      "addr_housenumber": "1683",
      "value": 272.980623524122
    },
    {
      "id": 193816,
      "geometry": "POINT (-73.204098 42.710331)",
      "poi_name": "Pera Mediterranean Bistro",
      "osm_id": 1563287360,
      "amenity": "restaurant",
      "cuisine": "italian",
      "phone": "+1 413 458 8676",
      "addr_state": "MA",
      "addr_city": "Williamstown",
      "addr_postcode": "01267",
      "addr_street": "Spring Street",
      "addr_housenumber": "60",
      "value": 272.980623524122
    },
    {
      "id": 198964,
      "geometry": "POINT (-73.869238 42.764325)",
      "poi_name": "Chipshots Sports Bar & Restaurant",
      "osm_id": 927124206,
      "amenity": "restaurant",
      "phone": "518-688-1732",
      "addr_state": "NY",
      "addr_city": "Colonie",
      "addr_street": "Consaul Road",
      "addr_housenumber": "418",
      "value": 272.980623524122
    },
    {
      "id": 197856,
      "geometry": "POINT (-73.772419 42.664944)",
      "poi_name": "Salsa Latina",
      "osm_id": 10679416040,
      "amenity": "restaurant",
      "cuisine": "latin_american;mexican;peruvian",
      "opening_hours": "Mo-Fr 11:00-22:00; Sa 12:00-23:00; Su 12:00-22:00",
      "website": "https://misalsalatina.com/",
      "phone": "+1 518 426 7050",
      "addr_state": "NY",
      "addr_city": "Albany",
      "addr_postcode": "12206",
      "addr_street": "Central Avenue",
      "addr_housenumber": "315",
      "value": 272.980623524122
    },
    {
      "id": 202104,
      "geometry": "POINT (-73.748668 42.653334)",
      "poi_name": "Angelo's 677 Prime",
      "osm_id": 679495455,
      "amenity": "restaurant",
      "cuisine": "steak_house",
      "phone": "518-427-7463",
      "addr_state": "NY",
      "addr_city": "Albany",
      "addr_street": "Broadway",
      "addr_housenumber": "677",
      "value": 272.980623524122
    },
    {
      "id": 199956,
      "geometry": "POINT (-73.813066 42.717365)",
      "poi_name": "Legends Pizza",
      "osm_id": 998867681,
      "amenity": "restaurant",
      "cuisine": "pizza",
      "wheelchair": "yes",
      "opening_hours": "Mo, Tu, We, Th 10:00 - 24:00; Fr, Sa 10:00 - 25:00; Su 10:00 -24:00",
      "website": "www.LegendsPizza.Plus",
      "phone": "+1-518-992-1111",
      "takeaway": "yes",
      "outdoor_seating": "yes",
      "delivery": "yes",
      "toilets": "yes",
      "addr_state": "NY",
      "addr_city": "Albany",
      "addr_postcode": "12205",
      "addr_street": "Wolf Road",
      "addr_housenumber": "96",
      "value": 272.980623524122
    },
    {
      "id": 202105,
      "geometry": "POINT (-73.747735 42.654069)",
      "poi_name": "Albany Pump Station",
      "osm_id": 679495456,
      "amenity": "restaurant",
      "website": "https://www.evansale.com/",
      "phone": "518-447-9000",
      "wikidata": "Q4709372",
      "addr_state": "NY",
      "addr_city": "Albany",
      "addr_postcode": "12207",
      "addr_street": "Quackenbush Square",
      "addr_housenumber": "19",
      "value": 272.980623524122
    },
    {
      "id": 202113,
      "geometry": "POINT (-73.751661 42.65329)",
      "poi_name": "Yono's",
      "osm_id": 679939508,
      "amenity": "restaurant",
      "phone": "518-436-7747",
      "addr_state": "NY",
      "addr_city": "Albany",
      "addr_street": "Chapel Street",
      "addr_housenumber": "25",
      "value": 272.980623524122
    },
    {
      "id": 221480,
      "geometry": "POINT (-73.865339 42.690175)",
      "poi_name": "Tara Kitchen",
      "osm_id": 10979446854,
      "amenity": "restaurant",
      "cuisine": "moroccan;mediterranean",
      "opening_hours": "Mo off; Tu-Fr 11:30-14:30,17:00-20:00; Sa-Su 17:00-20:00",
      "website": "https://www.tarakitchen.com/",
      "phone": "518-708-3485",
      "takeaway": "yes",
      "delivery": "yes",
      "addr_state": "NY",
      "addr_city": "Guilderland",
      "addr_postcode": "12203",
      "addr_street": "Western Avenue",
      "addr_housenumber": "1785",
      "value": 272.980623524122
    },
    {
      "id": 220133,
      "geometry": "POINT (-73.827799 42.678213)",
      "poi_name": "Corelife Eatery",
      "osm_id": 9360791718,
      "amenity": "restaurant",
      "opening_hours": "Mo-Th, Su 11:00-20:00; Fr 11:00-16:00",
      "phone": "(518) 704-4206",
      "addr_state": "NY",
      "addr_city": "Albany",
      "addr_postcode": "12203",
      "addr_street": "Western Avenue",
      "addr_housenumber": "129",
      "value": 272.980623524122
    },
    {
      "id": 224534,
      "geometry": "POINT (-73.113548 42.699928)",
      "poi_name": "Berkshire Blends",
      "osm_id": 11086042063,
      "amenity": "restaurant",
      "cuisine": "juice",
      "phone": "+1-413-412-9798",
      "addr_state": "MA",
      "addr_city": "North Adams",
      "addr_postcode": "01247",
      "addr_street": "Marshall Street",
      "addr_housenumber": "20",
      "value": 272.980623524122
    },
    {
      "id": 228109,
      "geometry": "POINT (-73.890675 42.816328)",
      "poi_name": "Uncle Rico's Pizza",
      "osm_id": 4331213482,
      "amenity": "restaurant",
      "cuisine": "pizza",
      "addr_state": "NY",
      "addr_city": "Niskayuna",
      "addr_postcode": "12309",
      "addr_street": "Nott St East",
      "addr_housenumber": "2309",
      "value": 272.980623524122
    },
    {
      "id": 227647,
      "geometry": "POINT (-73.760829 42.655105)",
      "poi_name": "Pinto & Hobbs Tavern",
      "osm_id": 4315367122,
      "amenity": "restaurant",
      "website": "https://www.pintoandhobbstavern.com/",
      "phone": "+1 518 5125800",
      "addr_state": "NY",
      "addr_city": "Albany",
      "addr_postcode": "12210",
      "addr_street": "Washington Avenue",
      "addr_housenumber": "142",
      "value": 272.980623524122
    },
    {
      "id": 234680,
      "geometry": "POINT (-73.758889 42.654644)",
      "poi_name": "Better Bite",
      "osm_id": 4631402909,
      "amenity": "restaurant",
      "cuisine": "american",
      "website": "http://abetterbitealbany.com",
      "phone": "518-694-4400",
      "takeaway": "yes",
      "addr_state": "NY",
      "addr_city": "Albany",
      "addr_postcode": "12210",
      "addr_street": "Washington Avenue",
      "addr_housenumber": "99",
      "value": 272.980623524122
    },
    {
      "id": 238630,
      "geometry": "POINT (-73.703374 42.774308)",
      "poi_name": "Mick's Pizza",
      "osm_id": 5887675743,
      "amenity": "restaurant",
      "cuisine": "pizza",
      "opening_hours": "Mo-Fr 15:00-21:00; Sa 11:00-22:00; Su 11:00-21:00",
      "website": "http://mickspizzany.com/",
      "phone": "+1-518-238-2205",
      "addr_state": "NY",
      "addr_city": "Cohoes",
      "addr_postcode": "12047",
      "addr_street": "Sargent Street",
      "addr_housenumber": "18",
      "value": 272.980623524122
    },
    {
      "id": 238820,
      "geometry": "POINT (-73.755516 42.65089)",
      "poi_name": "Wellington's",
      "osm_id": 5895155600,
      "amenity": "restaurant",
      "addr_city": "Albany",
      "value": 272.980623524122
    },
    {
      "id": 238822,
      "geometry": "POINT (-73.754706 42.651133)",
      "poi_name": "Ria's Bistro & Bakery",
      "osm_id": 5895155604,
      "amenity": "restaurant",
      "addr_city": "Albany",
      "value": 272.980623524122
    },
    {
      "id": 244554,
      "geometry": "POINT (-73.11355 42.700028)",
      "poi_name": "Grazie",
      "osm_id": 7729331928,
      "amenity": "restaurant",
      "cuisine": "italian",
      "wheelchair": "limited",
      "addr_state": "MA",
      "addr_city": "North Adams",
      "addr_postcode": "01247",
      "addr_street": "Marshall Street",
      "addr_housenumber": "26",
      "value": 272.980623524122
    },
    {
      "id": 244555,
      "geometry": "POINT (-73.113548 42.699842)",
      "poi_name": "Tres Ni\u00f1os Taqueria",
      "osm_id": 7729331929,
      "amenity": "restaurant",
      "cuisine": "burrito",
      "wheelchair": "yes",
      "phone": "+1-413-346-4000",
      "takeaway": "yes",
      "toilets": "yes",
      "addr_state": "MA",
      "addr_city": "North Adams",
      "addr_postcode": "01247",
      "addr_street": "Marshall Street",
      "addr_housenumber": "20",
      "value": 272.980623524122
    }
  ],
  "answer_type": "loc",
  "question_entities": {
    "[2]": {
      "distance": 70000,
      "text": "70 kilometers"
    },
    "[3]": {
      "main_category": "tourism",
      "sub_category": "viewpoint",
      "display_name": "Hairpin Turn, Clarksburg, MA",
      "geo_wkt": "POINT (-73.062971 42.709369)",
      "poi": {
        "id": 7303,
        "geometry": "POINT (-73.062971 42.709369)",
        "poi_name": "Hairpin Turn",
        "osm_id": 2072400239,
        "tourism": "viewpoint",
        "addr_state": "MA",
        "addr_city": "Clarksburg"
      }
    },
    "[4]": {
      "main_category": "leisure",
      "sub_category": "nature reserve",
      "display_name": "Dyken Pond Environmental Education Center, Cropseyville, NY",
      "geo_wkt": "POINT (-73.434447 42.723028)",
      "poi": {
        "id": 248520,
        "geometry": "POINT (-73.434447 42.723028)",
        "poi_name": "Dyken Pond Environmental Education Center",
        "osm_id": 4298976883,
        "leisure": "nature_reserve",
        "website": "https://www.dykenpond.org/",
        "phone": "+1-518-658-2055",
        "addr_state": "NY",
        "addr_city": "Cropseyville",
        "addr_postcode": "12052",
        "addr_street": "Dyken Pond Road",
        "addr_housenumber": "475"
      }
    },
    "[1]": {
      "main_category": "amenity",
      "sub_category": "restaurant"
    }
  },
  "id": 1274,
  "type": "range:towards+loc"
}