{
  "question": "Where can I find restaurant heading towards Triangle Disc Care, Raleigh, NC from the providence dog park, Raleigh, NC, within a radius of 190 kilometers?",
  "sql": "WITH\n    angle AS (SELECT degrees(ST_Azimuth(ST_GeomFromText('POINT (-78.796552 35.897057)',4326)::geography, ST_GeomFromText('POINT (-78.701767 35.81502)',4326)::geography)) AS value)\nSELECT * FROM pois,angle\nWHERE amenity = 'restaurant'\nAND ST_DWithin(pois.geometry, ST_GeomFromText('POINT (-78.796552 35.897057)',4326)::geography, 190000)\nAND (degrees(ST_Azimuth(ST_GeomFromText('POINT (-78.796552 35.897057)',4326)::geography, pois.geometry)) BETWEEN angle.value - 22.5 AND angle.value + 22.5);\n",
  "answers": [
    {
      "id": 28993,
      "geometry": "POINT (-78.585515 35.698835)",
      "poi_name": "Alpaca Peruvian Charcoal Chicken",
      "osm_id": 8272249998,
      "amenity": "restaurant",
      "cuisine": "chicken",
      "opening_hours": "Mo-Su 11:00-21:00",
      "website": "https://www.alpacachicken.com/",
      "phone": "+19199177600",
      "addr_state": "NC",
      "addr_city": "Garner",
      "addr_postcode": "27529",
      "addr_street": "Cabela Drive",
      "addr_housenumber": "57",
      "value": 136.72600326117413
    },
    {
      "id": 28727,
      "geometry": "POINT (-78.286088 35.53476)",
      "poi_name": "Taqueria & Pupuseria, Fiorentine Cafe",
      "osm_id": 8253764703,
      "amenity": "restaurant",
      "cuisine": "mexican",
      "phone": "(919) 773-3774",
      "addr_state": "NC",
      "addr_city": "Selma",
      "addr_postcode": "27576",
      "addr_street": "South Pollock Street",
      "addr_housenumber": "214",
      "value": 136.72600326117413
    },
    {
      "id": 29617,
      "geometry": "POINT (-78.067767 35.423859)",
      "poi_name": "Fry Daddys",
      "osm_id": 8317319691,
      "amenity": "restaurant",
      "phone": "(919) 288-1331",
      "addr_state": "NC",
      "addr_city": "Goldsboro",
      "addr_postcode": "27530",
      "addr_street": "NC-581 South",
      "addr_housenumber": "246",
      "value": 136.72600326117413
    },
    {
      "id": 29712,
      "geometry": "POINT (-78.064579 35.429597)",
      "poi_name": "Smithfield's Chicken 'N Bar-B-Q",
      "osm_id": 8320817713,
      "amenity": "restaurant",
      "cuisine": "barbecue",
      "phone": "(919) 947-6772",
      "addr_state": "NC",
      "addr_city": "Goldsboro",
      "addr_postcode": "27530",
      "addr_street": "Us Highway 70 West",
      "addr_housenumber": "2902",
      "value": 136.72600326117413
    },
    {
      "id": 31214,
      "geometry": "POINT (-78.646664 35.773354)",
      "poi_name": "Sam Jones BBQ",
      "osm_id": 8411949001,
      "amenity": "restaurant",
      "wheelchair": "yes",
      "internet_access": "wlan",
      "phone": "+19842062555",
      "addr_state": "NC",
      "addr_city": "Raleigh",
      "addr_postcode": "27601",
      "addr_street": "West Lenoir Street",
      "addr_housenumber": "502",
      "value": 136.72600326117413
    },
    {
      "id": 29869,
      "geometry": "POINT (-78.563026 35.517866)",
      "poi_name": "Fiesta Mexicana Benson",
      "osm_id": 8329774731,
      "amenity": "restaurant",
      "phone": "+19199898001",
      "addr_state": "NC",
      "addr_city": "Benson",
      "addr_postcode": "27504",
      "addr_street": "NC-210",
      "addr_housenumber": "12524",
      "value": 136.72600326117413
    },
    {
      "id": 30766,
      "geometry": "POINT (-78.347203 34.99214)",
      "poi_name": "Hong Kong City",
      "osm_id": 8380407531,
      "amenity": "restaurant",
      "phone": "9105920282",
      "addr_state": "NC",
      "addr_city": "Clinton",
      "addr_postcode": "28328",
      "addr_street": "Sunset Avenue",
      "addr_housenumber": "1236",
      "value": 136.72600326117413
    },
    {
      "id": 31178,
      "geometry": "POINT (-78.643849 35.774709)",
      "poi_name": "The Fiction Kitchen",
      "osm_id": 8409190051,
      "amenity": "restaurant",
      "opening_hours": "We-Sa 16:00-21:00",
      "website": "https://www.thefictionkitchen.com/",
      "phone": "+1-919-831-4177",
      "addr_state": "NC",
      "addr_city": "Raleigh",
      "addr_postcode": "27601",
      "addr_street": "South Dawson Street",
      "addr_housenumber": "428",
      "value": 136.72600326117413
    },
    {
      "id": 32918,
      "geometry": "POINT (-78.4573 35.6514)",
      "poi_name": "Nina\u2019s Restaurant & Bar",
      "osm_id": 2641615969,
      "amenity": "restaurant",
      "opening_hours": "Mo-Fr 12:00-21:00; Sa 09:00-21:00; Su 09:00-15:00",
      "phone": "+19195856589",
      "addr_state": "NC",
      "addr_postcode": "27520",
      "addr_street": "East Main Street",
      "addr_housenumber": "312",
      "value": 136.72600326117413
    },
    {
      "id": 35442,
      "geometry": "POINT (-77.930215 35.381516)",
      "poi_name": "Pier 34 Seafood & Pub",
      "osm_id": 2721781612,
      "amenity": "restaurant",
      "phone": "+19199475851",
      "addr_state": "NC",
      "addr_city": "Goldsboro",
      "addr_postcode": "27534",
      "addr_street": "North Berkeley Boulevard",
      "addr_housenumber": "1206",
      "value": 136.72600326117413
    },
    {
      "id": 36732,
      "geometry": "POINT (-78.638143 35.777032)",
      "poi_name": "Beasley's Chicken and Honey",
      "osm_id": 2782526003,
      "amenity": "restaurant",
      "cuisine": "chicken",
      "opening_hours": "Mo-We 11:30-22:00; Th-Fr 11:30-24:00; Sa 11:00-24:00; Su 11:00-22:00",
      "website": "https://ac-restaurants.com/beasleys/",
      "phone": "919-322-0127",
      "takeaway": "no",
      "delivery": "no",
      "addr_state": "NC",
      "addr_postcode": "27601",
      "addr_street": "South Wilmington Street",
      "addr_housenumber": "237",
      "value": 136.72600326117413
    },
    {
      "id": 36733,
      "geometry": "POINT (-78.638069 35.778498)",
      "poi_name": "Gravy Italian-American Kitchen",
      "osm_id": 2782527413,
      "amenity": "restaurant",
      "cuisine": "italian",
      "opening_hours": "Mo-Th 11:00-22:00;Fr 11:00-23:00;Sa 11:00-15:00,;17:00-23:00;Su 11:00-15:00,;17:00-22:00",
      "website": "http://www.gravyraleigh.com/",
      "phone": "+1 919-896-8513",
      "addr_state": "NC",
      "addr_city": "Raleigh",
      "addr_postcode": "27601",
      "addr_street": "South Wilmington Street",
      "addr_housenumber": "135",
      "value": 136.72600326117413
    },
    {
      "id": 40572,
      "geometry": "POINT (-78.541964 35.377251)",
      "poi_name": "Fiesta Mexicana Downtown Benson",
      "osm_id": 2973560079,
      "amenity": "restaurant",
      "phone": "+19192075845",
      "addr_state": "NC",
      "addr_city": "Benson",
      "addr_postcode": "27504",
      "addr_street": "East Parrish Drive",
      "addr_housenumber": "702",
      "value": 136.72600326117413
    },
    {
      "id": 39440,
      "geometry": "POINT (-78.639682 35.773659)",
      "poi_name": "Rye Bar & Southern Kitchen",
      "osm_id": 2921397017,
      "amenity": "restaurant",
      "cuisine": "american",
      "opening_hours": "Mo-Fr 06:30-23:00;Sa-Su 07:00-23:00",
      "website": "https://www.ryeraleigh.com/",
      "phone": "+1-919-227-3370",
      "addr_state": "NC",
      "addr_city": "Raleigh",
      "addr_postcode": "27601",
      "addr_street": "Fayetteville Street",
      "addr_housenumber": "500",
      "value": 136.72600326117413
    },
    {
      "id": 39441,
      "geometry": "POINT (-78.639129 35.775927)",
      "poi_name": "Sono",
      "osm_id": 2921397021,
      "amenity": "restaurant",
      "cuisine": "japanese",
      "opening_hours": "Mo-Th 11:00-14:00,17:00-22:00;Fr 11:00-14:00,17:00-23:00;Sa 17:00-23:00;Su 17:00-22:00",
      "website": "https://www.sonoraleigh.com/",
      "phone": "+1-919-521-5328",
      "addr_state": "NC",
      "addr_city": "Raleigh",
      "addr_postcode": "27601",
      "addr_street": "Fayetteville Street",
      "addr_housenumber": "319",
      "value": 136.72600326117413
    },
    {
      "id": 40580,
      "geometry": "POINT (-78.539586 35.375211)",
      "poi_name": "Char-Grill",
      "osm_id": 2973560109,
      "amenity": "restaurant",
      "phone": "+19198944499",
      "addr_state": "NC",
      "addr_city": "Benson",
      "addr_postcode": "27504",
      "addr_street": "South Walton Drive",
      "addr_housenumber": "105",
      "value": 136.72600326117413
    },
    {
      "id": 40581,
      "geometry": "POINT (-78.540046 35.374915)",
      "poi_name": "Daddy D's BBQ",
      "osm_id": 2973560110,
      "amenity": "restaurant",
      "opening_hours": "Mo-Sa 11:00-21:00; Su 11:00-20:00",
      "addr_state": "NC",
      "addr_city": "Benson",
      "addr_postcode": "27504",
      "addr_street": "South Walton Drive",
      "addr_housenumber": "203",
      "value": 136.72600326117413
    },
    {
      "id": 40582,
      "geometry": "POINT (-78.5397 35.374078)",
      "poi_name": "Jordana's Pizzeria & Italian Ristorante",
      "osm_id": 2973560112,
      "amenity": "restaurant",
      "phone": "+19198945559",
      "addr_state": "NC",
      "addr_city": "Benson",
      "addr_postcode": "27504",
      "addr_street": "South Walton Drive",
      "addr_housenumber": "309",
      "value": 136.72600326117413
    },
    {
      "id": 40583,
      "geometry": "POINT (-78.537201 35.375582)",
      "poi_name": "Tacos Don Vargas",
      "osm_id": 2973560660,
      "amenity": "restaurant",
      "opening_hours": "Mo-Su 08:00-21:00",
      "phone": "(919) 701-1590",
      "addr_state": "NC",
      "addr_city": "Benson",
      "addr_postcode": "27504",
      "addr_street": "East Main Street",
      "addr_housenumber": "917",
      "value": 136.72600326117413
    },
    {
      "id": 43684,
      "geometry": "POINT (-78.343219 34.993039)",
      "poi_name": "Ruby Tuesday",
      "osm_id": 3127893991,
      "amenity": "restaurant",
      "cuisine": "american",
      "phone": "+19105900020",
      "addr_state": "NC",
      "addr_city": "Clinton",
      "addr_postcode": "28328",
      "addr_street": "Sunset Avenue",
      "addr_housenumber": "1118",
      "value": 136.72600326117413
    },
    {
      "id": 43687,
      "geometry": "POINT (-78.338066 34.993922)",
      "poi_name": "Ribeyes Steakhouse of Clinton",
      "osm_id": 3127935370,
      "amenity": "restaurant",
      "phone": "+19105902550",
      "addr_state": "NC",
      "addr_city": "Clinton",
      "addr_postcode": "28328",
      "addr_street": "Westover Road",
      "addr_housenumber": "100",
      "value": 136.72600326117413
    },
    {
      "id": 44373,
      "geometry": "POINT (-78.638974 35.774376)",
      "poi_name": "Element Gastropub",
      "osm_id": 3157442920,
      "amenity": "restaurant",
      "opening_hours": "Su 11:00-15:00; Tu-Th 11:00-14:00, 16:00-21:00; Fr-Sa 11:00-14:00,16:00-22:00",
      "website": "https://elementgastropub.com/",
      "phone": "+1 919-703-6538",
      "addr_state": "NC",
      "addr_city": "Raleigh",
      "addr_postcode": "27601",
      "addr_street": "Fayetteville Street",
      "addr_housenumber": "421",
      "value": 136.72600326117413
    },
    {
      "id": 46153,
      "geometry": "POINT (-78.639598 35.77478)",
      "poi_name": "Jimmy V's Osteria + Bar",
      "osm_id": 3248742656,
      "amenity": "restaurant",
      "cuisine": "italian",
      "website": "https://www.jimmyvsraleigh.com/",
      "phone": "+1-919-256-1451",
      "addr_state": "NC",
      "addr_city": "Raleigh",
      "addr_postcode": "27601",
      "addr_street": "Fayetteville Street",
      "addr_housenumber": "420",
      "value": 136.72600326117413
    },
    {
      "id": 46154,
      "geometry": "POINT (-78.63909 35.776478)",
      "poi_name": "Zinda New Asian",
      "osm_id": 3248742660,
      "amenity": "restaurant",
      "cuisine": "asian",
      "website": "http://zindaraleigh.com",
      "phone": "+1-919-825-0995",
      "addr_state": "NC",
      "addr_city": "Raleigh",
      "addr_postcode": "27601",
      "addr_street": "Fayetteville Street",
      "addr_housenumber": "301",
      "value": 136.72600326117413
    },
    {
      "id": 46155,
      "geometry": "POINT (-78.638503 35.776756)",
      "poi_name": "ORO Restaurant & Lounge",
      "osm_id": 3248743362,
      "amenity": "restaurant",
      "cuisine": "american",
      "opening_hours": "Tu-Th 17:00-21:00; Fr,Sa 17:00-22:00",
      "website": "https://www.ororaleigh.com/",
      "phone": "+1-919-239-4010",
      "addr_state": "NC",
      "addr_city": "Raleigh",
      "addr_postcode": "27601",
      "addr_street": "East Martin Street",
      "addr_housenumber": "18",
      "value": 136.72600326117413
    },
    {
      "id": 46156,
      "geometry": "POINT (-78.638393 35.777901)",
      "poi_name": "The PIzza Times",
      "osm_id": 3248743375,
      "amenity": "restaurant",
      "cuisine": "pizza",
      "website": "https://www.raleightimespizza.com/",
      "phone": "+1-919-832-4411",
      "addr_state": "NC",
      "addr_city": "Raleigh",
      "addr_postcode": "27601",
      "addr_street": "South Wilmington Street",
      "addr_housenumber": "210",
      "value": 136.72600326117413
    },
    {
      "id": 46115,
      "geometry": "POINT (-78.640379 35.837136)",
      "poi_name": "The Cowfish",
      "osm_id": 3247194284,
      "amenity": "restaurant",
      "cuisine": "burger;sushi",
      "opening_hours": "Su-Th 11:00-22:00; Fr-Sa 11:00-24:00",
      "addr_state": "NC",
      "addr_city": "Raleigh",
      "addr_postcode": "27609",
      "addr_street": "Six Forks Road",
      "addr_housenumber": "4208",
      "value": 136.72600326117413
    },
    {
      "id": 46116,
      "geometry": "POINT (-78.640177 35.837223)",
      "poi_name": "Yard House",
      "osm_id": 3247194285,
      "amenity": "restaurant",
      "cuisine": "american",
      "opening_hours": "Su-Th 11:00-24:00; Fr-Sa 11:00-01:30",
      "addr_state": "NC",
      "addr_city": "Raleigh",
      "addr_postcode": "27609",
      "addr_street": "Six Forks Road",
      "addr_housenumber": "4208",
      "value": 136.72600326117413
    },
    {
      "id": 47112,
      "geometry": "POINT (-78.638165 35.776267)",
      "poi_name": "Clyde Cooper's BBQ",
      "osm_id": 3307013373,
      "amenity": "restaurant",
      "cuisine": "barbecue",
      "opening_hours": "Mo-Sa 10:00-18:00",
      "website": "https://clydecoopersbbq.com/",
      "phone": "+1 919-832-7614",
      "addr_state": "NC",
      "addr_city": "Raleigh",
      "addr_postcode": "27601",
      "addr_street": "South Wilmington Street",
      "addr_housenumber": "327",
      "value": 136.72600326117413
    },
    {
      "id": 50982,
      "geometry": "POINT (-77.932678 35.379949)",
      "poi_name": "IHOP",
      "osm_id": 499233607,
      "amenity": "restaurant",
      "cuisine": "breakfast;pancake",
      "opening_hours": "Mo-Su 07:00-22:00",
      "phone": "+19197593055",
      "addr_state": "NC",
      "addr_city": "Goldsboro",
      "addr_postcode": "27534",
      "addr_street": "North Berkeley Boulevard",
      "addr_housenumber": "1100",
      "value": 136.72600326117413
    },
    {
      "id": 50985,
      "geometry": "POINT (-77.931607 35.382478)",
      "poi_name": "Empire Fire Mongolian Grill",
      "osm_id": 499235851,
      "amenity": "restaurant",
      "cuisine": "mongolian_grill",
      "website": "http://www.empirefire.com/",
      "phone": "+19197518889",
      "addr_state": "NC",
      "addr_city": "Goldsboro",
      "addr_postcode": "27534",
      "addr_street": "North Berkeley Boulevard",
      "addr_housenumber": "1209",
      "value": 136.72600326117413
    },
    {
      "id": 50986,
      "geometry": "POINT (-77.948787 35.384756)",
      "poi_name": "Applebee's",
      "osm_id": 499244710,
      "amenity": "restaurant",
      "cuisine": "american",
      "official_name": "Applebee's Neighborhood Grill & Bar",
      "addr_state": "NC",
      "value": 136.72600326117413
    },
    {
      "id": 50992,
      "geometry": "POINT (-77.943323 35.386234)",
      "poi_name": "Chili's",
      "osm_id": 499272629,
      "amenity": "restaurant",
      "cuisine": "tex-mex",
      "opening_hours": "Su-Th 11:00-22:00; Fr-Sa 11:00-23:00",
      "phone": "(919) 759-2214",
      "addr_state": "NC",
      "addr_city": "Goldsboro",
      "addr_postcode": "27534",
      "addr_street": "Sunburst Drive",
      "addr_housenumber": "1013",
      "value": 136.72600326117413
    },
    {
      "id": 50993,
      "geometry": "POINT (-77.94387 35.38637)",
      "poi_name": "Logan's Roadhouse",
      "osm_id": 499273401,
      "amenity": "restaurant",
      "cuisine": "american",
      "opening_hours": "Su-Th 11:00-21:00; Fr-Sa 11:00-22:00",
      "phone": "(919) 751-1700",
      "addr_state": "NC",
      "addr_city": "Goldsboro",
      "addr_postcode": "27534",
      "addr_street": "Sunburst Drive",
      "addr_housenumber": "1011",
      "value": 136.72600326117413
    },
    {
      "id": 50712,
      "geometry": "POINT (-78.644602 35.804219)",
      "poi_name": "Bloomsbury Bistro",
      "osm_id": 3501372516,
      "amenity": "restaurant",
      "addr_state": "NC",
      "addr_city": "Raleigh",
      "addr_street": "West Whitaker Mill Road",
      "addr_housenumber": "509",
      "value": 136.72600326117413
    },
    {
      "id": 50713,
      "geometry": "POINT (-78.646665 35.805081)",
      "poi_name": "Lilly's Pizza",
      "osm_id": 3501375480,
      "amenity": "restaurant",
      "cuisine": "pizza",
      "opening_hours": "Su-Th 11:00-22:00; Fr,Sa 11:00-23:00",
      "phone": "19198330226",
      "addr_state": "NC",
      "addr_city": "Raleigh",
      "addr_street": "Glenwood Avenue",
      "addr_housenumber": "1813",
      "value": 136.72600326117413
    },
    {
      "id": 55647,
      "geometry": "POINT (-78.622191 35.819512)",
      "poi_name": "First Watch",
      "osm_id": 10201035606,
      "amenity": "restaurant",
      "cuisine": "american;breakfast",
      "official_name": "First Watch The Daytime Cafe",
      "addr_state": "NC",
      "addr_city": "Raleigh",
      "addr_postcode": "27609",
      "addr_street": "East Six Forks Road",
      "addr_housenumber": "631",
      "value": 136.72600326117413
    },
    {
      "id": 55103,
      "geometry": "POINT (-78.085758 35.439106)",
      "poi_name": "Adams Roadside BBQ",
      "osm_id": 10171806370,
      "amenity": "restaurant",
      "phone": "+19197393859",
      "addr_state": "NC",
      "addr_city": "Goldsboro",
      "addr_postcode": "27530",
      "addr_street": "US 70 East",
      "addr_housenumber": "3451",
      "value": 136.72600326117413
    },
    {
      "id": 62259,
      "geometry": "POINT (-78.622407 35.708276)",
      "poi_name": "Taste of China",
      "osm_id": 5560261378,
      "amenity": "restaurant",
      "cuisine": "chinese",
      "addr_state": "NC",
      "addr_city": "Garner",
      "addr_postcode": "27529",
      "addr_street": "5th Avenue",
      "addr_housenumber": "1321",
      "value": 136.72600326117413
    },
    {
      "id": 56279,
      "geometry": "POINT (-77.947145 35.37759)",
      "poi_name": "Caf\u00e9 Le Doux",
      "osm_id": 10230126757,
      "amenity": "restaurant",
      "phone": "(919) 288-2064",
      "addr_state": "NC",
      "addr_city": "Goldsboro",
      "addr_postcode": "27534",
      "addr_street": "N Spence Ave",
      "addr_housenumber": "506",
      "value": 136.72600326117413
    },
    {
      "id": 56296,
      "geometry": "POINT (-77.957051 35.368338)",
      "poi_name": "Los Fogones Restaurant Peruvian Fusion",
      "osm_id": 10231286105,
      "amenity": "restaurant",
      "phone": "+19192881172",
      "addr_state": "NC",
      "addr_city": "Goldsboro",
      "addr_postcode": "27534",
      "addr_street": "South Berkeley Boulevard",
      "addr_housenumber": "209",
      "value": 136.72600326117413
    },
    {
      "id": 56297,
      "geometry": "POINT (-77.956682 35.368928)",
      "poi_name": "China House",
      "osm_id": 10231286107,
      "amenity": "restaurant",
      "cuisine": "chinese",
      "phone": "+19197511630",
      "addr_state": "NC",
      "addr_city": "Goldsboro",
      "addr_postcode": "27534",
      "addr_street": "South Berkeley Boulevard",
      "addr_housenumber": "205",
      "value": 136.72600326117413
    },
    {
      "id": 56298,
      "geometry": "POINT (-77.952404 35.375757)",
      "poi_name": "Vailhouse Oyster Bar & Grille",
      "osm_id": 10231296627,
      "amenity": "restaurant",
      "phone": "+19199476138",
      "addr_state": "NC",
      "addr_city": "Goldsboro",
      "addr_postcode": "27534",
      "addr_street": "North Spence Avenue",
      "addr_housenumber": "301",
      "value": 136.72600326117413
    },
    {
      "id": 56299,
      "geometry": "POINT (-77.951058 35.375786)",
      "poi_name": "La Paz Mexican Restaurant",
      "osm_id": 10231296629,
      "amenity": "restaurant",
      "cuisine": "mexican",
      "phone": "+19197599565",
      "addr_state": "NC",
      "addr_city": "Goldsboro",
      "addr_postcode": "27534",
      "addr_street": "North Spence Avenue",
      "addr_housenumber": "335",
      "value": 136.72600326117413
    },
    {
      "id": 56300,
      "geometry": "POINT (-77.946402 35.384727)",
      "poi_name": "Crab Du Jour Xpress Cajun Seafood",
      "osm_id": 10231310042,
      "amenity": "restaurant",
      "phone": "+19199889990",
      "addr_state": "NC",
      "addr_city": "Goldsboro",
      "addr_postcode": "27534",
      "addr_street": "North Spence Avenue",
      "addr_housenumber": "904",
      "value": 136.72600326117413
    },
    {
      "id": 62260,
      "geometry": "POINT (-78.622098 35.707933)",
      "poi_name": "El Dorado Mexican Food",
      "osm_id": 5560261382,
      "amenity": "restaurant",
      "cuisine": "mexican",
      "opening_hours": "Mo-Su 11:00-22:00",
      "addr_state": "NC",
      "addr_city": "Garner",
      "addr_postcode": "27529",
      "addr_street": "5th Avenue",
      "addr_housenumber": "1303",
      "value": 136.72600326117413
    },
    {
      "id": 62261,
      "geometry": "POINT (-78.622308 35.707584)",
      "poi_name": "Oak City Pizza",
      "osm_id": 5560261384,
      "amenity": "restaurant",
      "cuisine": "pizza",
      "addr_state": "NC",
      "addr_city": "Garner",
      "addr_postcode": "27529",
      "addr_street": "Forest Hills Drive",
      "addr_housenumber": "206",
      "value": 136.72600326117413
    },
    {
      "id": 56926,
      "geometry": "POINT (-76.964154 35.11369)",
      "poi_name": "Saras Big Apple",
      "osm_id": 10253417745,
      "amenity": "restaurant",
      "cuisine": "pizza",
      "phone": "+12526362555",
      "addr_state": "NC",
      "addr_city": "New Bern",
      "addr_postcode": "28560",
      "addr_street": "Broad Creek Road",
      "addr_housenumber": "1150",
      "value": 136.72600326117413
    },
    {
      "id": 61891,
      "geometry": "POINT (-78.583273 35.694477)",
      "poi_name": "Buffalo Wild Wings",
      "osm_id": 5541406008,
      "amenity": "restaurant",
      "cuisine": "wings",
      "opening_hours": "Su-Th 11:00-24:00, Fr,Sa 11:00-01:00",
      "addr_state": "NC",
      "addr_city": "Garner",
      "addr_postcode": "27529",
      "addr_street": "Shenstone Boulevard",
      "addr_housenumber": "148",
      "value": 136.72600326117413
    },
    {
      "id": 61892,
      "geometry": "POINT (-78.580028 35.692631)",
      "poi_name": "New Japan Express",
      "osm_id": 5541406020,
      "amenity": "restaurant",
      "addr_state": "NC",
      "addr_city": "Garner",
      "addr_postcode": "27529",
      "addr_street": "Shenstone Boulevard",
      "addr_housenumber": "225",
      "value": 136.72600326117413
    },
    {
      "id": 61896,
      "geometry": "POINT (-78.606321 35.684789)",
      "poi_name": "Hibachi China 88",
      "osm_id": 5541435906,
      "amenity": "restaurant",
      "addr_state": "NC",
      "addr_city": "Garner",
      "addr_postcode": "27529",
      "addr_street": "Timber Drive",
      "addr_housenumber": "239",
      "value": 136.72600326117413
    },
    {
      "id": 68120,
      "geometry": "POINT (-78.347972 35.654619)",
      "poi_name": "Pure Green Juice Bar",
      "osm_id": 11261657058,
      "amenity": "restaurant",
      "addr_state": "NC",
      "addr_city": "Clayton",
      "addr_postcode": "27527",
      "addr_street": "Flowers Crossroads Way Suite",
      "addr_housenumber": "48",
      "value": 136.72600326117413
    },
    {
      "id": 62972,
      "geometry": "POINT (-78.654779 35.722912)",
      "poi_name": "La Roca Mexican Restaurant",
      "osm_id": 5595552952,
      "amenity": "restaurant",
      "cuisine": "mexican",
      "addr_state": "NC",
      "addr_city": "Raleigh",
      "addr_postcode": "27603",
      "addr_street": "Garner Station Boulevard",
      "addr_housenumber": "1431",
      "value": 136.72600326117413
    },
    {
      "id": 63851,
      "geometry": "POINT (-77.094328 35.114644)",
      "poi_name": "Pizza Hut",
      "osm_id": 5632876622,
      "amenity": "restaurant",
      "cuisine": "pizza",
      "opening_hours": "11:00-24:00",
      "takeaway": "yes",
      "outdoor_seating": "no",
      "delivery": "yes",
      "addr_state": "NC",
      "addr_city": "New Bern",
      "addr_postcode": "28560",
      "addr_street": "South Glenburnie Road",
      "addr_housenumber": "1505",
      "value": 136.72600326117413
    },
    {
      "id": 66815,
      "geometry": "POINT (-77.418985 34.758797)",
      "poi_name": "Mongolian House",
      "osm_id": 11212418690,
      "amenity": "restaurant",
      "phone": "+19104556886",
      "addr_state": "NC",
      "addr_city": "Jacksonville",
      "addr_postcode": "28540",
      "addr_street": "Marine Boulevard",
      "addr_housenumber": "305",
      "value": 136.72600326117413
    },
    {
      "id": 66816,
      "geometry": "POINT (-77.418577 34.759074)",
      "poi_name": "Pizza Hut",
      "osm_id": 11212432937,
      "amenity": "restaurant",
      "cuisine": "pizza",
      "phone": "+19104555500",
      "addr_state": "NC",
      "addr_city": "Jacksonville",
      "addr_postcode": "28540",
      "addr_street": "Marine Boulevard",
      "addr_housenumber": "401",
      "value": 136.72600326117413
    },
    {
      "id": 70599,
      "geometry": "POINT (-78.675582 35.779402)",
      "poi_name": "DP Dough",
      "osm_id": 11367533860,
      "amenity": "restaurant",
      "cuisine": "calzone",
      "opening_hours": "Mo-Su 16:00-04:00",
      "website": "https://dpdough.com/",
      "phone": "+1-919-829-1525",
      "addr_state": "NC",
      "addr_city": "Raleigh",
      "addr_postcode": "27606",
      "addr_street": "Avent Ferry Road",
      "addr_housenumber": "2109",
      "value": 136.72600326117413
    },
    {
      "id": 69336,
      "geometry": "POINT (-78.63925 35.773061)",
      "poi_name": "Chido Taco",
      "osm_id": 11301177049,
      "amenity": "restaurant",
      "cuisine": "mexican",
      "description": "Mercado Style Taqueria",
      "website": "https://chidotaco.com/",
      "takeaway": "yes",
      "drive_through": "no",
      "addr_state": "NC",
      "addr_city": "Raleigh",
      "addr_postcode": "27601",
      "addr_street": "Fayetteville Street",
      "addr_housenumber": "555",
      "value": 136.72600326117413
    },
    {
      "id": 69892,
      "geometry": "POINT (-77.147804 35.076159)",
      "poi_name": "Saltwater Grill",
      "osm_id": 11336084273,
      "amenity": "restaurant",
      "cuisine": "regional",
      "addr_city": "River Bend",
      "addr_postcode": "28562",
      "addr_street": "Marina Drive",
      "addr_housenumber": "1",
      "value": 136.72600326117413
    },
    {
      "id": 69893,
      "geometry": "POINT (-77.150096 35.075775)",
      "poi_name": "Panichellis Pizzeria",
      "osm_id": 11336084274,
      "amenity": "restaurant",
      "cuisine": "pizza",
      "phone": "252-514-0548",
      "addr_city": "River Bend",
      "addr_postcode": "28562",
      "addr_street": "Shoreline Drive",
      "addr_housenumber": "40",
      "value": 136.72600326117413
    },
    {
      "id": 69894,
      "geometry": "POINT (-77.150384 35.076057)",
      "poi_name": "Attitudes Pub & Grille",
      "osm_id": 11336084275,
      "amenity": "restaurant",
      "cuisine": "american",
      "phone": "252-633-2006",
      "addr_city": "River Bend",
      "addr_street": "Shoreline Drive",
      "addr_housenumber": "32",
      "value": 136.72600326117413
    },
    {
      "id": 69897,
      "geometry": "POINT (-77.11057 35.094924)",
      "poi_name": "Mad Hatter Tea House",
      "osm_id": 11336137259,
      "amenity": "restaurant",
      "cuisine": "coffee_shop",
      "addr_city": "New Bern",
      "addr_street": "Dr. Martin Luther King Junior Boulevard",
      "addr_housenumber": "3809",
      "value": 136.72600326117413
    },
    {
      "id": 69898,
      "geometry": "POINT (-77.098438 35.093374)",
      "poi_name": "Carolina Bagel Co&Deli",
      "osm_id": 11336137260,
      "amenity": "restaurant",
      "cuisine": "sandwich",
      "addr_city": "New Bern",
      "addr_street": "Trent Road",
      "addr_housenumber": "3601",
      "value": 136.72600326117413
    },
    {
      "id": 69899,
      "geometry": "POINT (-77.097298 35.09288)",
      "poi_name": "Bistro 252",
      "osm_id": 11336137261,
      "amenity": "restaurant",
      "cuisine": "american",
      "addr_city": "New Bern",
      "addr_street": "Trent Road",
      "addr_housenumber": "3515",
      "value": 136.72600326117413
    },
    {
      "id": 68925,
      "geometry": "POINT (-78.667176 35.787708)",
      "poi_name": "Golden Dragon",
      "osm_id": 11288854845,
      "amenity": "restaurant",
      "cuisine": "chinese",
      "opening_hours": "Mo-Th 11:00-22:30; Fr,Sa 11:00-23:00; Su 12:00-22:30",
      "website": "https://ncgoldendragon.com/",
      "phone": "919-834-2626",
      "addr_state": "NC",
      "addr_city": "Raleigh",
      "addr_postcode": "27607",
      "addr_street": "Hillsborough Street",
      "addr_housenumber": "2402",
      "value": 136.72600326117413
    },
    {
      "id": 73016,
      "geometry": "POINT (-78.449862 35.25763)",
      "poi_name": "El Charro Express - Easy Street",
      "osm_id": 9602079217,
      "amenity": "restaurant",
      "opening_hours": "Temporarily Closed",
      "phone": "+19103040337",
      "addr_state": "NC",
      "addr_city": "Dunn",
      "addr_postcode": "28334",
      "addr_street": "Harnett-Dunn Highway",
      "addr_housenumber": "5636",
      "value": 136.72600326117413
    },
    {
      "id": 73323,
      "geometry": "POINT (-78.458051 35.65189)",
      "poi_name": "Revival 1869",
      "osm_id": 9626704360,
      "amenity": "restaurant",
      "phone": "+19192432964",
      "addr_state": "NC",
      "addr_city": "Clayton",
      "addr_postcode": "27520",
      "addr_street": "East Main Street",
      "addr_housenumber": "222",
      "value": 136.72600326117413
    },
    {
      "id": 73354,
      "geometry": "POINT (-78.346389 35.511237)",
      "poi_name": "The Gilded Pear Brew House",
      "osm_id": 9627880370,
      "amenity": "restaurant",
      "opening_hours": "Tu-Fr 08:00-15:00 Sa 08:00-14:00",
      "phone": "(919) 938-9020",
      "addr_state": "NC",
      "addr_city": "Smithfield",
      "addr_postcode": "27577",
      "addr_street": "East Market Street",
      "addr_housenumber": "234",
      "value": 136.72600326117413
    },
    {
      "id": 74372,
      "geometry": "POINT (-78.429465 35.443672)",
      "poi_name": "Baker\u2019s Grill",
      "osm_id": 9678055502,
      "amenity": "restaurant",
      "opening_hours": "Mo-Sa 10:00-20:00",
      "phone": "(919) 628-1063",
      "addr_state": "NC",
      "addr_city": "Four Oaks",
      "addr_postcode": "27524",
      "addr_street": "West Wellons St",
      "addr_housenumber": "101",
      "value": 136.72600326117413
    },
    {
      "id": 74302,
      "geometry": "POINT (-77.663316 35.439669)",
      "poi_name": "Taste of China",
      "osm_id": 9674256820,
      "amenity": "restaurant",
      "phone": "+12527474241",
      "addr_state": "NC",
      "addr_city": "Snow Hill",
      "addr_postcode": "28580",
      "addr_street": "Greenwood Square",
      "addr_housenumber": "104",
      "value": 136.72600326117413
    },
    {
      "id": 74303,
      "geometry": "POINT (-77.681362 35.450994)",
      "poi_name": "Chele's Cafe",
      "osm_id": 9674289892,
      "amenity": "restaurant",
      "phone": "+12527472626",
      "addr_state": "NC",
      "addr_city": "Snow Hill",
      "addr_postcode": "28580",
      "addr_street": "West Harper Street",
      "addr_housenumber": "423",
      "value": 136.72600326117413
    },
    {
      "id": 74304,
      "geometry": "POINT (-77.663256 35.441608)",
      "poi_name": "Two Cousins Pizza & Grill",
      "osm_id": 9674294658,
      "amenity": "restaurant",
      "cuisine": "pizza",
      "phone": "+12527474777",
      "addr_state": "NC",
      "addr_city": "Snow Hill",
      "addr_postcode": "28580",
      "addr_street": "Kingold Boulevard",
      "addr_housenumber": "1012",
      "value": 136.72600326117413
    },
    {
      "id": 74305,
      "geometry": "POINT (-77.922464 35.35061)",
      "poi_name": "Wilber's Barbecue",
      "osm_id": 9674300951,
      "amenity": "restaurant",
      "opening_hours": "We-Sa 11:00-19:00; Su 11:00-15:00",
      "website": "https://www.wilbersbbq.com/",
      "phone": "+19197785218",
      "addr_state": "NC",
      "addr_city": "Goldsboro",
      "addr_postcode": "27534",
      "addr_street": "US-70 Business",
      "addr_housenumber": "4172",
      "value": 136.72600326117413
    },
    {
      "id": 74306,
      "geometry": "POINT (-77.670849 35.444672)",
      "poi_name": "Ribeyes Steakhouse- Snow Hill",
      "osm_id": 9674303694,
      "amenity": "restaurant",
      "phone": "+12527477006",
      "addr_state": "NC",
      "addr_city": "Snow Hill",
      "addr_postcode": "28580",
      "addr_street": "Kingold Boulevard",
      "addr_housenumber": "610",
      "value": 136.72600326117413
    },
    {
      "id": 74307,
      "geometry": "POINT (-77.689486 35.446871)",
      "poi_name": "Jamaica cuisine cafe",
      "osm_id": 9674338576,
      "amenity": "restaurant",
      "phone": "+12527470606",
      "addr_state": "NC",
      "addr_city": "Snow Hill",
      "addr_postcode": "28580",
      "addr_street": "Hull Road",
      "addr_housenumber": "900",
      "value": 136.72600326117413
    },
    {
      "id": 74309,
      "geometry": "POINT (-77.756892 35.285368)",
      "poi_name": "Taqueria Michoacan",
      "osm_id": 9674384084,
      "amenity": "restaurant",
      "phone": "+12525438007",
      "addr_state": "NC",
      "addr_city": "La Grange",
      "addr_postcode": "28551",
      "addr_street": "US-70",
      "addr_housenumber": "7823",
      "value": 136.72600326117413
    },
    {
      "id": 74310,
      "geometry": "POINT (-77.547321 35.230631)",
      "poi_name": "Baron & the Beef",
      "osm_id": 9674385683,
      "amenity": "restaurant",
      "phone": "+12525276787",
      "addr_state": "NC",
      "addr_city": "Kinston",
      "addr_postcode": "28501",
      "addr_street": "US-70",
      "addr_housenumber": "1631",
      "value": 136.72600326117413
    },
    {
      "id": 74311,
      "geometry": "POINT (-77.866274 35.323415)",
      "poi_name": "Village Steakhouse and Pub",
      "osm_id": 9674388912,
      "amenity": "restaurant",
      "phone": "+19197780555",
      "addr_state": "NC",
      "addr_city": "Goldsboro",
      "addr_postcode": "27534",
      "addr_street": "US-70 East",
      "addr_housenumber": "5662",
      "value": 136.72600326117413
    },
    {
      "id": 74128,
      "geometry": "POINT (-77.660444 35.472118)",
      "poi_name": "The Farmer And The Dail",
      "osm_id": 9668317298,
      "amenity": "restaurant",
      "cuisine": "american",
      "opening_hours": "Tu-Fr 06:00-20:00; Sa 06:00-14:00",
      "website": "https://www.farmerandthedail.com/",
      "phone": "252-747-1392",
      "addr_state": "NC",
      "addr_city": "Snow Hill",
      "addr_postcode": "28580",
      "addr_street": "US-258",
      "addr_housenumber": "1329",
      "value": 136.72600326117413
    },
    {
      "id": 74299,
      "geometry": "POINT (-77.666904 35.464737)",
      "poi_name": "El Piruli",
      "osm_id": 9674219710,
      "amenity": "restaurant",
      "phone": "+12525582976",
      "addr_state": "NC",
      "addr_city": "Snow Hill",
      "addr_postcode": "28580",
      "addr_street": "US-258",
      "addr_housenumber": "674",
      "value": 136.72600326117413
    },
    {
      "id": 74301,
      "geometry": "POINT (-77.670184 35.454991)",
      "poi_name": "La Flama Mexican Restaurant",
      "osm_id": 9674231976,
      "amenity": "restaurant",
      "opening_hours": "Mo-Fr 11:00-21:00; Sa 16:00-21:00; Su 11:00-14:00",
      "phone": "+12527474333",
      "addr_state": "NC",
      "addr_city": "Snow Hill",
      "addr_postcode": "28580",
      "addr_street": "Southeast 2nd Street",
      "addr_housenumber": "111",
      "value": 136.72600326117413
    },
    {
      "id": 74545,
      "geometry": "POINT (-77.997082 35.382378)",
      "poi_name": "Thai Garden Cuisine",
      "osm_id": 9685590358,
      "amenity": "restaurant",
      "cuisine": "thai",
      "phone": "+19195838900",
      "addr_state": "NC",
      "addr_city": "Goldsboro",
      "addr_postcode": "27530",
      "addr_street": "South Center Street",
      "addr_housenumber": "128",
      "value": 136.72600326117413
    },
    {
      "id": 74551,
      "geometry": "POINT (-77.969934 35.378905)",
      "poi_name": "Kathy's Kitchen",
      "osm_id": 9685703516,
      "amenity": "restaurant",
      "phone": "+19197354128",
      "addr_state": "NC",
      "addr_city": "Goldsboro",
      "addr_postcode": "27530",
      "addr_street": "East Ash Street",
      "addr_housenumber": "1709",
      "value": 136.72600326117413
    },
    {
      "id": 74552,
      "geometry": "POINT (-77.969345 35.378728)",
      "poi_name": "Great Harvest Bread Co.",
      "osm_id": 9685721817,
      "amenity": "restaurant",
      "phone": "+19192882401",
      "addr_state": "NC",
      "addr_city": "Goldsboro",
      "addr_postcode": "27530",
      "addr_street": "East Ash Street",
      "addr_housenumber": "721",
      "value": 136.72600326117413
    },
    {
      "id": 74553,
      "geometry": "POINT (-77.962051 35.376441)",
      "poi_name": "Lantern Inn",
      "osm_id": 9685721824,
      "amenity": "restaurant",
      "phone": "+19197367878",
      "addr_state": "NC",
      "addr_city": "Goldsboro",
      "addr_postcode": "27530",
      "addr_street": "East Ash Street",
      "addr_housenumber": "2201",
      "value": 136.72600326117413
    },
    {
      "id": 74554,
      "geometry": "POINT (-77.958488 35.374728)",
      "poi_name": "Brewmasters Goldsboro",
      "osm_id": 9685721827,
      "amenity": "restaurant",
      "phone": "+19192882014",
      "addr_state": "NC",
      "addr_city": "Goldsboro",
      "addr_postcode": "27534",
      "addr_street": "East Ash Street",
      "addr_housenumber": "2402",
      "value": 136.72600326117413
    },
    {
      "id": 74555,
      "geometry": "POINT (-77.956858 35.375259)",
      "poi_name": "Umami Seafood/Boiling Crab House",
      "osm_id": 9685721829,
      "amenity": "restaurant",
      "phone": "+19199889096",
      "addr_state": "NC",
      "addr_city": "Goldsboro",
      "addr_postcode": "27534",
      "addr_street": "East Ash Street",
      "addr_housenumber": "2421",
      "value": 136.72600326117413
    },
    {
      "id": 74556,
      "geometry": "POINT (-77.954378 35.374499)",
      "poi_name": "Fuji Steakhouse",
      "osm_id": 9685721833,
      "amenity": "restaurant",
      "cuisine": "japanese",
      "phone": "+19197783822",
      "addr_state": "NC",
      "addr_city": "Goldsboro",
      "addr_postcode": "27534",
      "addr_street": "East Ash Street",
      "addr_housenumber": "2515",
      "value": 136.72600326117413
    },
    {
      "id": 74558,
      "geometry": "POINT (-77.94795 35.376183)",
      "poi_name": "Aggie's Grill Station at Cashwel",
      "osm_id": 9685721836,
      "amenity": "restaurant",
      "phone": "+19197510999",
      "addr_state": "NC",
      "addr_city": "Goldsboro",
      "addr_postcode": "27534",
      "addr_street": "Cashwell Drive",
      "addr_housenumber": "2814",
      "value": 136.72600326117413
    },
    {
      "id": 75007,
      "geometry": "POINT (-78.312151 35.521804)",
      "poi_name": "Angelo's Pizza Restaurant",
      "osm_id": 9707342301,
      "amenity": "restaurant",
      "cuisine": "pizza",
      "phone": "+19199382220",
      "addr_state": "NC",
      "addr_city": "Smithfield",
      "addr_postcode": "27577",
      "addr_street": "North Brightleaf Boulevard",
      "addr_housenumber": "1267",
      "value": 136.72600326117413
    },
    {
      "id": 75280,
      "geometry": "POINT (-77.996748 34.73407)",
      "poi_name": "Soups & more...",
      "osm_id": 9722696554,
      "amenity": "restaurant",
      "phone": "+19106651662",
      "addr_state": "NC",
      "addr_city": "Wallace",
      "addr_postcode": "28466",
      "addr_street": "West Boney Street",
      "addr_housenumber": "116",
      "value": 136.72600326117413
    },
    {
      "id": 75193,
      "geometry": "POINT (-78.579385 35.519127)",
      "poi_name": "Tacos mi bendicion",
      "osm_id": 9718298536,
      "amenity": "restaurant",
      "addr_state": "NC",
      "addr_city": "Benson",
      "addr_postcode": "27504",
      "addr_street": "NC-50",
      "addr_housenumber": "10831",
      "value": 136.72600326117413
    },
    {
      "id": 75281,
      "geometry": "POINT (-77.996836 34.734828)",
      "poi_name": "Mo'Joe Coffee & Cupcakes",
      "osm_id": 9722696555,
      "amenity": "restaurant",
      "phone": "+19106651500",
      "addr_state": "NC",
      "addr_city": "Wallace",
      "addr_postcode": "28466",
      "addr_street": "West Main Street",
      "addr_housenumber": "110",
      "value": 136.72600326117413
    },
    {
      "id": 75282,
      "geometry": "POINT (-77.994007 34.735207)",
      "poi_name": "The Last Taino",
      "osm_id": 9722696556,
      "amenity": "restaurant",
      "phone": "+19106850472",
      "addr_state": "NC",
      "addr_city": "Wallace",
      "addr_postcode": "28466",
      "addr_street": "East Main Street",
      "addr_housenumber": "206",
      "value": 136.72600326117413
    },
    {
      "id": 75283,
      "geometry": "POINT (-77.993334 34.735829)",
      "poi_name": "Panaderia La Imperial",
      "osm_id": 9722696557,
      "amenity": "restaurant",
      "phone": "+19102858841",
      "addr_state": "NC",
      "addr_city": "Wallace",
      "addr_postcode": "28466",
      "addr_street": "North Norwood Street",
      "addr_housenumber": "105",
      "value": 136.72600326117413
    },
    {
      "id": 75284,
      "geometry": "POINT (-77.99251 34.735494)",
      "poi_name": "Mik's",
      "osm_id": 9722696558,
      "amenity": "restaurant",
      "phone": "+19102855600",
      "addr_state": "NC",
      "addr_city": "Wallace",
      "addr_postcode": "28466",
      "addr_street": "South Norwood Street",
      "addr_housenumber": "105",
      "value": 136.72600326117413
    },
    {
      "id": 75285,
      "geometry": "POINT (-77.992293 34.734764)",
      "poi_name": "Pizza Corner",
      "osm_id": 9722696559,
      "amenity": "restaurant",
      "cuisine": "pizza",
      "phone": "+19105520045",
      "addr_state": "NC",
      "addr_city": "Wallace",
      "addr_postcode": "28466",
      "addr_street": "South Norwood Street",
      "addr_housenumber": "223",
      "value": 136.72600326117413
    },
    {
      "id": 75287,
      "geometry": "POINT (-77.995699 34.742108)",
      "poi_name": "Camino Real",
      "osm_id": 9722696561,
      "amenity": "restaurant",
      "phone": "+19106651324",
      "addr_state": "NC",
      "addr_city": "Wallace",
      "addr_postcode": "28466",
      "addr_street": "North Norwood Street",
      "addr_housenumber": "607",
      "value": 136.72600326117413
    },
    {
      "id": 75290,
      "geometry": "POINT (-77.996527 34.746609)",
      "poi_name": "Taqueria La Jarochita",
      "osm_id": 9722696564,
      "amenity": "restaurant",
      "phone": "+19102850808",
      "addr_state": "NC",
      "addr_city": "Wallace",
      "addr_postcode": "28466",
      "addr_street": "North Norwood Street",
      "addr_housenumber": "922",
      "value": 136.72600326117413
    },
    {
      "id": 75291,
      "geometry": "POINT (-77.998664 34.750192)",
      "poi_name": "Mi Finca Mexican Restaurant",
      "osm_id": 9722696565,
      "amenity": "restaurant",
      "phone": "+19102850221",
      "addr_state": "NC",
      "addr_city": "Wallace",
      "addr_postcode": "28466",
      "addr_street": "North Norwood Street",
      "addr_housenumber": "1315",
      "value": 136.72600326117413
    },
    {
      "id": 75292,
      "geometry": "POINT (-77.999362 34.751418)",
      "poi_name": "Golden City",
      "osm_id": 9722696566,
      "amenity": "restaurant",
      "phone": "+19102853789",
      "addr_state": "NC",
      "addr_city": "Wallace",
      "addr_postcode": "28466",
      "addr_street": "North Norwood Street",
      "addr_housenumber": "1341",
      "value": 136.72600326117413
    },
    {
      "id": 75293,
      "geometry": "POINT (-77.999827 34.753421)",
      "poi_name": "Pizza Hut",
      "osm_id": 9722696567,
      "amenity": "restaurant",
      "cuisine": "pizza",
      "phone": "+19102854703",
      "addr_state": "NC",
      "addr_city": "Wallace",
      "addr_postcode": "28466",
      "addr_street": "North Norwood Street",
      "addr_housenumber": "1375",
      "value": 136.72600326117413
    },
    {
      "id": 76282,
      "geometry": "POINT (-77.602595 35.252797)",
      "poi_name": "El Nuevo Tequila Mexican Restaurant",
      "osm_id": 9768164965,
      "amenity": "restaurant",
      "cuisine": "mexican",
      "opening_hours": "Su-Th 11:00-21:00; Fr,Sa 11:00-22:00",
      "phone": "+12525206779",
      "addr_state": "NC",
      "addr_city": "Kinston",
      "addr_postcode": "28504",
      "addr_street": "West New Bern Road",
      "addr_housenumber": "1030",
      "value": 136.72600326117413
    },
    {
      "id": 75473,
      "geometry": "POINT (-78.683342 35.842108)",
      "poi_name": "Perry's Steakhouse & Grille",
      "osm_id": 9732756463,
      "amenity": "restaurant",
      "cuisine": "steak_house",
      "opening_hours": "Mo-Th,Su 16:00-21:00; Fr 10:30-22:00; Sa 16:00-22:00",
      "outdoor_seating": "yes",
      "addr_state": "NC",
      "addr_city": "Raleigh",
      "addr_postcode": "27612",
      "addr_street": "Creedmoor Road",
      "addr_housenumber": "4509",
      "value": 136.72600326117413
    },
    {
      "id": 76292,
      "geometry": "POINT (-77.460935 34.752267)",
      "poi_name": "Smithfield's Chicken 'N Bar-B-Q",
      "osm_id": 9768347282,
      "amenity": "restaurant",
      "phone": "+19103539595",
      "addr_state": "NC",
      "addr_city": "Jacksonville",
      "addr_postcode": "28540",
      "addr_street": "Yopp Road",
      "addr_housenumber": "424",
      "value": 136.72600326117413
    },
    {
      "id": 83346,
      "geometry": "POINT (-77.982262 35.496141)",
      "poi_name": "John's Grill",
      "osm_id": 1740613810,
      "amenity": "restaurant",
      "phone": "(919) 709-4316",
      "addr_state": "NC",
      "addr_city": "Pikeville",
      "addr_postcode": "27863",
      "addr_street": "S. Goldsboro St.",
      "addr_housenumber": "110",
      "value": 136.72600326117413
    },
    {
      "id": 77032,
      "geometry": "POINT (-78.711791 35.857628)",
      "poi_name": "Papas Pizza And Wings",
      "osm_id": 9802899786,
      "amenity": "restaurant",
      "cuisine": "pizza;wings;american;burger;sandwich",
      "website": "https://www.papaspizzawingsmenu.com/",
      "phone": "(919) 783-7373",
      "addr_state": "NC",
      "addr_city": "Raleigh",
      "addr_postcode": "27612",
      "addr_street": "Duraleigh Rd",
      "addr_housenumber": "5800",
      "value": 136.72600326117413
    },
    {
      "id": 77205,
      "geometry": "POINT (-78.582727 35.492885)",
      "poi_name": "Lane's Seafood and Steak House",
      "osm_id": 9811554018,
      "amenity": "restaurant",
      "phone": "+19198947700",
      "addr_state": "NC",
      "addr_city": "Angier",
      "addr_postcode": "27501",
      "addr_street": "Bowling Spring Drive",
      "addr_housenumber": "275",
      "value": 136.72600326117413
    },
    {
      "id": 77942,
      "geometry": "POINT (-78.675047 35.77792)",
      "poi_name": "China Queen",
      "osm_id": 730793277,
      "amenity": "restaurant",
      "cuisine": "chinese",
      "opening_hours": "Mo-Th 11:00-21:30; Fr,Sa 11:00-22:00",
      "outdoor_seating": "no",
      "addr_state": "NC",
      "addr_city": "Raleigh",
      "addr_postcode": "27606",
      "addr_street": "Avent Ferry Road",
      "addr_housenumber": "2233",
      "value": 136.72600326117413
    },
    {
      "id": 85927,
      "geometry": "POINT (-78.675082 35.777587)",
      "poi_name": "Ruckus Pizza and Bar",
      "osm_id": 1909089433,
      "amenity": "restaurant",
      "cuisine": "pizza",
      "opening_hours": "Mo-Sa 11:00-02:00, Su 12:00-02:00",
      "website": "https://www.ruckuspizza.com/",
      "phone": "+1-919-835-2002",
      "addr_state": "NC",
      "addr_city": "Raleigh",
      "addr_postcode": "27606",
      "addr_street": "Avent Ferry Road",
      "addr_housenumber": "2233",
      "value": 136.72600326117413
    },
    {
      "id": 85921,
      "geometry": "POINT (-78.67544 35.779518)",
      "poi_name": "Dalat Oriental Cuisine",
      "osm_id": 1908757864,
      "amenity": "restaurant",
      "cuisine": "vietnamese",
      "addr_state": "NC",
      "addr_city": "Raleigh",
      "addr_postcode": "27606",
      "addr_street": "Avent Ferry Road",
      "addr_housenumber": "2109",
      "value": 136.72600326117413
    },
    {
      "id": 86523,
      "geometry": "POINT (-78.644012 35.836251)",
      "poi_name": "Mia Francesca Trattoria",
      "osm_id": 1936235157,
      "amenity": "restaurant",
      "cuisine": "italian",
      "wheelchair": "yes",
      "website": "http://miafrancescaraleigh.com",
      "capacity": "268",
      "addr_state": "NC",
      "addr_city": "Raleigh",
      "addr_postcode": "27609",
      "addr_street": "Main at North Hills St",
      "addr_housenumber": "4100",
      "value": 136.72600326117413
    },
    {
      "id": 86524,
      "geometry": "POINT (-78.642451 35.837876)",
      "poi_name": "Coquette Brasserie",
      "osm_id": 1936235341,
      "amenity": "restaurant",
      "cuisine": "french",
      "addr_state": "NC",
      "addr_city": "Raleigh",
      "value": 136.72600326117413
    },
    {
      "id": 86525,
      "geometry": "POINT (-78.642744 35.837566)",
      "poi_name": "Firebirds Wood Fired Grill",
      "osm_id": 1936235401,
      "amenity": "restaurant",
      "cuisine": "american",
      "opening_hours": "Su-Th 11:00-22:00; Fr-Sa 11:00-23:00",
      "website": "https://raleigh.firebirdsrestaurants.com/",
      "internet_access": "wlan",
      "phone": "919-788-8778",
      "addr_state": "NC",
      "addr_city": "Raleigh",
      "addr_postcode": "27609",
      "addr_street": "Lassiter At North Hills Avenue",
      "addr_housenumber": "4350",
      "value": 136.72600326117413
    },
    {
      "id": 87595,
      "geometry": "POINT (-77.774988 34.929973)",
      "poi_name": "Ann's Thai Kitchen",
      "osm_id": 8725159484,
      "amenity": "restaurant",
      "cuisine": "thai",
      "phone": "+19102988425",
      "addr_state": "NC",
      "addr_city": "Beulaville",
      "addr_postcode": "27518",
      "addr_street": "NC-111",
      "addr_housenumber": "169",
      "value": 136.72600326117413
    },
    {
      "id": 87252,
      "geometry": "POINT (-78.066553 35.211959)",
      "poi_name": "Pizza Hut",
      "osm_id": 8701869525,
      "amenity": "restaurant",
      "cuisine": "pizza",
      "phone": "+19192994470",
      "addr_state": "NC",
      "addr_city": "Mount Olive",
      "addr_postcode": "28365",
      "addr_street": "Henderson Street",
      "addr_housenumber": "997",
      "value": 136.72600326117413
    },
    {
      "id": 87596,
      "geometry": "POINT (-77.768813 34.929718)",
      "poi_name": "Eastern Chinese Restaurant",
      "osm_id": 8725159489,
      "amenity": "restaurant",
      "cuisine": "chinese",
      "phone": "+19102982387",
      "addr_state": "NC",
      "addr_city": "Beulaville",
      "addr_postcode": "27518",
      "addr_street": "Crossover Road",
      "addr_housenumber": "118",
      "value": 136.72600326117413
    },
    {
      "id": 87608,
      "geometry": "POINT (-78.645903 35.784204)",
      "poi_name": "Five Star Restaurant",
      "osm_id": 8726101270,
      "amenity": "restaurant",
      "cuisine": "chinese",
      "website": "https://www.fivestarraleigh.com/",
      "addr_state": "NC",
      "addr_city": "Raleigh",
      "addr_postcode": "27603",
      "addr_street": "North West Street",
      "addr_housenumber": "301",
      "value": 136.72600326117413
    },
    {
      "id": 87590,
      "geometry": "POINT (-77.773407 34.923456)",
      "poi_name": "Pizza Hut",
      "osm_id": 8725084480,
      "amenity": "restaurant",
      "cuisine": "pizza",
      "phone": "(910) 298-2333",
      "addr_state": "NC",
      "addr_city": "Beulaville",
      "addr_postcode": "28518",
      "addr_street": "East Main Street",
      "addr_housenumber": "104",
      "value": 136.72600326117413
    },
    {
      "id": 87591,
      "geometry": "POINT (-77.77889 34.925234)",
      "poi_name": "Hwy 55 Burgers Shakes & Fries",
      "osm_id": 8725084481,
      "amenity": "restaurant",
      "cuisine": "american",
      "phone": "(910) 298-3010",
      "addr_state": "NC",
      "addr_city": "Beulaville",
      "addr_postcode": "28518",
      "addr_street": "West Main Street",
      "addr_housenumber": "604",
      "value": 136.72600326117413
    },
    {
      "id": 87592,
      "geometry": "POINT (-77.782836 34.92515)",
      "poi_name": "Pizza Village Of Beulaville",
      "osm_id": 8725084490,
      "amenity": "restaurant",
      "cuisine": "pizza",
      "phone": "(910) 298-3346",
      "addr_state": "NC",
      "addr_city": "Beulaville",
      "addr_postcode": "28518",
      "addr_street": "West Main Street",
      "addr_housenumber": "811",
      "value": 136.72600326117413
    },
    {
      "id": 87594,
      "geometry": "POINT (-77.76566 34.922536)",
      "poi_name": "Taqueria Las Chicanitas",
      "osm_id": 8725084496,
      "amenity": "restaurant",
      "cuisine": "mexican",
      "phone": "(910) 298-4569",
      "addr_state": "NC",
      "addr_city": "Beulaville",
      "addr_postcode": "28518",
      "addr_street": "East Main Street",
      "addr_housenumber": "711",
      "value": 136.72600326117413
    },
    {
      "id": 87545,
      "geometry": "POINT (-77.970624 35.449567)",
      "poi_name": "Aaron\u2019s Restaurant",
      "osm_id": 8721885660,
      "amenity": "restaurant",
      "phone": "19194296411",
      "addr_state": "NC",
      "addr_city": "Goldsboro",
      "addr_postcode": "27530",
      "addr_street": "Combs Road",
      "addr_housenumber": "265",
      "value": 136.72600326117413
    },
    {
      "id": 89851,
      "geometry": "POINT (-78.637913 35.835986)",
      "poi_name": "Happy + Hale",
      "osm_id": 8866842507,
      "amenity": "restaurant",
      "addr_state": "NC",
      "addr_city": "Raleigh",
      "addr_postcode": "27609",
      "addr_street": "Park at North Hills Street",
      "addr_housenumber": "200",
      "value": 136.72600326117413
    },
    {
      "id": 91548,
      "geometry": "POINT (-78.644692 35.780896)",
      "poi_name": "Second Empire Restaurant and Tavern",
      "osm_id": 2072383501,
      "amenity": "restaurant",
      "website": "https://www.second-empire.com/",
      "phone": "(919) 829-3663",
      "addr_state": "NC",
      "addr_city": "Raleigh",
      "addr_postcode": "27603",
      "addr_street": "Hillsborough Street",
      "addr_housenumber": "330",
      "value": 136.72600326117413
    },
    {
      "id": 91715,
      "geometry": "POINT (-78.725361 35.798934)",
      "poi_name": "Backyard Bistro",
      "osm_id": 2085088754,
      "amenity": "restaurant",
      "addr_state": "NC",
      "addr_city": "Raleigh",
      "addr_postcode": "27607",
      "addr_street": "Blue Ridge Rd",
      "addr_housenumber": "1025",
      "value": 136.72600326117413
    },
    {
      "id": 91975,
      "geometry": "POINT (-78.643551 35.784558)",
      "poi_name": "Mulino Italian Kitchen & Bar",
      "osm_id": 2098187833,
      "amenity": "restaurant",
      "cuisine": "italian",
      "website": "https://mulinoraleigh.com/",
      "phone": "9198388595",
      "addr_state": "NC",
      "addr_city": "Raleigh",
      "addr_postcode": "27603",
      "addr_street": "N Dawson St",
      "addr_housenumber": "309",
      "value": 136.72600326117413
    },
    {
      "id": 94910,
      "geometry": "POINT (-78.666755 35.78758)",
      "poi_name": "Slice of New York Pizza",
      "osm_id": 6379816915,
      "amenity": "restaurant",
      "cuisine": "pizza",
      "opening_hours": "Mo-Th 10:00-22:00; Su 11:00-21:00; Fr,Sa 10:00-22:00",
      "internet_access": "wlan",
      "addr_state": "NC",
      "addr_city": "Raleigh",
      "addr_street": "Hillsborough Street",
      "value": 136.72600326117413
    },
    {
      "id": 93015,
      "geometry": "POINT (-78.644708 35.775912)",
      "poi_name": "The Pit",
      "osm_id": 2144920174,
      "amenity": "restaurant",
      "cuisine": "barbecue",
      "wheelchair": "yes",
      "opening_hours": "Mo-Th 11:00-22:00; Fr-Sa 11:00-23:00; Su 11:00-21:00",
      "website": "www.thepit-bbq.com",
      "internet_access": "wlan",
      "phone": "+1 919 890 4500",
      "takeaway": "yes",
      "outdoor_seating": "yes",
      "addr_state": "NC",
      "addr_city": "Raleigh",
      "value": 136.72600326117413
    },
    {
      "id": 93997,
      "geometry": "POINT (-78.638661 35.77704)",
      "poi_name": "Mecca Restaurant",
      "osm_id": 2198231992,
      "amenity": "restaurant",
      "cuisine": "american",
      "website": "https://www.mecca-restaurant.com/",
      "phone": "+1-919-832-5714",
      "addr_state": "NC",
      "addr_city": "Raleigh",
      "addr_postcode": "27601",
      "addr_street": "East Martin Street",
      "addr_housenumber": "13",
      "value": 136.72600326117413
    },
    {
      "id": 93998,
      "geometry": "POINT (-78.638442 35.777036)",
      "poi_name": "Carroll's Kitchen",
      "osm_id": 2198232041,
      "amenity": "restaurant",
      "website": "https://www.carrollskitchen.org/",
      "phone": "+1-919-670-3622",
      "addr_state": "NC",
      "addr_city": "Raleigh",
      "addr_postcode": "27601",
      "addr_street": "East Martin Street",
      "addr_housenumber": "19",
      "value": 136.72600326117413
    },
    {
      "id": 95255,
      "geometry": "POINT (-77.773268 34.923412)",
      "poi_name": "Duff's Cafe",
      "osm_id": 6390101488,
      "amenity": "restaurant",
      "website": "https://www.duffscafe.com/",
      "phone": "+1-910-298-9121",
      "addr_state": "NC",
      "addr_city": "Beulaville",
      "addr_postcode": "28518",
      "addr_street": "East Main Street",
      "addr_housenumber": "114",
      "value": 136.72600326117413
    },
    {
      "id": 95627,
      "geometry": "POINT (-78.429014 35.628066)",
      "poi_name": "Nathan's Famous Philly's Cheesesteak",
      "osm_id": 6403401765,
      "amenity": "restaurant",
      "opening_hours": "Mo-Sa 11:00-21:00",
      "phone": "(919) 243-2049",
      "outdoor_seating": "no",
      "addr_state": "NC",
      "addr_city": "Clayton",
      "addr_postcode": "27527",
      "addr_street": "US-70 BUS Highway W",
      "addr_housenumber": "8928",
      "value": 136.72600326117413
    },
    {
      "id": 97361,
      "geometry": "POINT (-78.632161 35.775165)",
      "poi_name": "Transfer Co. Food Hall",
      "osm_id": 6475583334,
      "amenity": "restaurant",
      "cuisine": "sandwich;asian;argentinian;mexican;salad;burger;barbecue;regional;international",
      "wheelchair": "yes",
      "opening_hours": "Tu-Su 11:00-22:00",
      "website": "https://www.transfercofoodhall.com/",
      "outdoor_seating": "yes",
      "addr_state": "NC",
      "addr_city": "Raleigh",
      "addr_postcode": "27601",
      "addr_street": "East Davie Street",
      "addr_housenumber": "500",
      "value": 136.72600326117413
    },
    {
      "id": 99847,
      "geometry": "POINT (-78.428792 35.627882)",
      "poi_name": "Salsa Azteca Mexican Restaurant",
      "osm_id": 6566677242,
      "amenity": "restaurant",
      "cuisine": "mexican",
      "opening_hours": "Mo-Sa 11:00-21:00",
      "phone": "(919) 879-8643",
      "addr_city": "Clayton",
      "addr_postcode": "27520",
      "addr_street": "US 70 Bus",
      "addr_housenumber": "8928",
      "value": 136.72600326117413
    },
    {
      "id": 99538,
      "geometry": "POINT (-78.696004 35.767383)",
      "poi_name": "Dharani Express Indian Restaurent and Take-out",
      "osm_id": 6556096244,
      "amenity": "restaurant",
      "cuisine": "indian",
      "phone": "+1 (919)-821-7991",
      "addr_state": "NC",
      "addr_city": "Raleigh",
      "addr_postcode": "27606",
      "addr_street": "Avent Ferry Road",
      "addr_housenumber": "3281",
      "value": 136.72600326117413
    },
    {
      "id": 100568,
      "geometry": "POINT (-77.758242 35.286415)",
      "poi_name": "Sandpiper Seafood House",
      "osm_id": 6592942934,
      "amenity": "restaurant",
      "cuisine": "seafood",
      "opening_hours": "We-Th 15:00-21:00; Fr-Sa 15:00-21:30; Su 11:00-20:30",
      "phone": "(252) 566-4067",
      "addr_state": "NC",
      "addr_city": "La Grange",
      "addr_postcode": "28551",
      "addr_street": "US Hwy 70",
      "addr_housenumber": "7877",
      "value": 136.72600326117413
    },
    {
      "id": 100796,
      "geometry": "POINT (-78.498185 35.666623)",
      "poi_name": "Waffle House",
      "osm_id": 6597908767,
      "amenity": "restaurant",
      "cuisine": "american",
      "wheelchair": "limited",
      "opening_hours": "24/7",
      "phone": "19193591599",
      "outdoor_seating": "no",
      "addr_state": "NC",
      "addr_city": "Clayton",
      "addr_postcode": "27520",
      "addr_street": "US 70 Bus Hwy W",
      "addr_housenumber": "13048",
      "value": 136.72600326117413
    },
    {
      "id": 100764,
      "geometry": "POINT (-78.452789 35.64318)",
      "poi_name": "Smithfield's Chicken N Bar-B-Q",
      "osm_id": 6597373734,
      "amenity": "restaurant",
      "cuisine": "chicken",
      "opening_hours": "Mo-Fr 10:00-22:00; Sa, Su 20:00-23:00",
      "phone": "(919) 553-4553",
      "addr_city": "Clayton",
      "addr_postcode": "27520",
      "addr_street": "US 70 Hwy Business",
      "addr_housenumber": "10414",
      "value": 136.72600326117413
    },
    {
      "id": 100767,
      "geometry": "POINT (-78.452007 35.643481)",
      "poi_name": "Festejos Restaurant Bar & Grill",
      "osm_id": 6597405874,
      "amenity": "restaurant",
      "addr_city": "Clayton",
      "addr_postcode": "27520",
      "addr_street": "East Main St",
      "addr_housenumber": "905",
      "value": 136.72600326117413
    },
    {
      "id": 100768,
      "geometry": "POINT (-78.451551 35.64418)",
      "poi_name": "Vinson's Pub + Eatery",
      "osm_id": 6597415630,
      "amenity": "restaurant",
      "opening_hours": "Tu-Th 11:00-21:00; Fr, Sa 11:00-22:00; Su 11:00-20:00",
      "phone": "(919) 585-7191",
      "addr_city": "Clayton",
      "addr_postcode": "27520",
      "addr_street": "East Main Street",
      "addr_housenumber": "800",
      "value": 136.72600326117413
    },
    {
      "id": 100869,
      "geometry": "POINT (-77.9481 34.7569)",
      "poi_name": "Mad Boar Restaurant",
      "osm_id": 6603242550,
      "amenity": "restaurant",
      "opening_hours": "Su-Th 11:00-22:00; Fr,Sa 11:00-24:00",
      "website": "Http://www.madboar.com",
      "phone": "(910) 285-8888",
      "addr_state": "NC",
      "addr_city": "Wallace",
      "addr_postcode": "28466",
      "addr_street": "River Village Place",
      "addr_housenumber": "111",
      "value": 136.72600326117413
    },
    {
      "id": 100870,
      "geometry": "POINT (-78.012038 34.971853)",
      "poi_name": "The Country Squire",
      "osm_id": 6603251325,
      "amenity": "restaurant",
      "cuisine": "steak_house",
      "phone": "(910) 296-1727",
      "addr_state": "NC",
      "addr_city": "Kenansville",
      "addr_postcode": "28349",
      "addr_street": "NC 50",
      "addr_housenumber": "748",
      "value": 136.72600326117413
    },
    {
      "id": 101343,
      "geometry": "POINT (-78.321972 35.501057)",
      "poi_name": "Trish's Cafe",
      "osm_id": 6622364121,
      "amenity": "restaurant",
      "phone": "+1 919-209-0922",
      "addr_city": "Smithfield",
      "addr_postcode": "27577",
      "addr_street": "Mallard Road",
      "addr_housenumber": "211",
      "value": 136.72600326117413
    },
    {
      "id": 101101,
      "geometry": "POINT (-78.43061 35.442958)",
      "poi_name": "Four Oaks Restaurant & Grill",
      "osm_id": 6611334075,
      "amenity": "restaurant",
      "cuisine": "american",
      "opening_hours": "Su 07:00-14:00; Mo-Fr 10:30-20:30; Sa 07:00-11:00",
      "phone": "+1-919-963-2289",
      "addr_state": "NC",
      "addr_city": "Four Oaks",
      "addr_postcode": "27524",
      "addr_street": "West Wellons Street",
      "addr_housenumber": "203",
      "value": 136.72600326117413
    },
    {
      "id": 101102,
      "geometry": "POINT (-78.375736 35.404638)",
      "poi_name": "Barefoot's Country Store & Grill",
      "osm_id": 6611336189,
      "amenity": "restaurant",
      "phone": "(919) 989-9190",
      "addr_city": "Four Oaks",
      "addr_postcode": "27524",
      "addr_street": "US 701 Highway South",
      "addr_housenumber": "3295",
      "value": 136.72600326117413
    },
    {
      "id": 101135,
      "geometry": "POINT (-78.606935 35.778813)",
      "poi_name": "Frank's Pizza & Italian Restaurant",
      "osm_id": 6611973876,
      "amenity": "restaurant",
      "addr_city": "Raleigh",
      "addr_postcode": "27610",
      "addr_street": "New Bern Avenue",
      "addr_housenumber": "2030",
      "value": 136.72600326117413
    },
    {
      "id": 101362,
      "geometry": "POINT (-78.418755 35.447662)",
      "poi_name": "Ming Moon Chinese Restaurant",
      "osm_id": 6624389273,
      "amenity": "restaurant",
      "addr_city": "Four Oaks",
      "addr_postcode": "27524",
      "addr_street": "US 301 Hwy South",
      "addr_housenumber": "5841",
      "value": 136.72600326117413
    },
    {
      "id": 101339,
      "geometry": "POINT (-78.24145 35.50778)",
      "poi_name": "Parkside Cafe",
      "osm_id": 6622244383,
      "amenity": "restaurant",
      "opening_hours": "Mo-Fr 11:00-20:00",
      "phone": "(919) 965-4100",
      "addr_state": "NC",
      "addr_city": "Pine Level",
      "addr_postcode": "27568",
      "addr_street": "US Highway 70A East",
      "addr_housenumber": "2176",
      "value": 136.72600326117413
    },
    {
      "id": 101342,
      "geometry": "POINT (-78.244975 35.512235)",
      "poi_name": "Serving Spoon",
      "osm_id": 6622281476,
      "amenity": "restaurant",
      "addr_city": "Pine Level",
      "addr_postcode": "27568",
      "addr_street": "North Peedin Avenue",
      "addr_housenumber": "212",
      "value": 136.72600326117413
    },
    {
      "id": 101661,
      "geometry": "POINT (-78.457546 35.651102)",
      "poi_name": "Clayton Steak House",
      "osm_id": 6637171263,
      "amenity": "restaurant",
      "addr_city": "Clayton",
      "addr_postcode": "27520",
      "addr_street": "East Main Street",
      "addr_housenumber": "307",
      "value": 136.72600326117413
    },
    {
      "id": 101433,
      "geometry": "POINT (-78.41869 35.447679)",
      "poi_name": "Panaderia Y Pasteler\u00eda El Sol De Cuernavaca",
      "osm_id": 6628457474,
      "amenity": "restaurant",
      "cuisine": "mexican",
      "addr_city": "Four Oaks",
      "addr_postcode": "27524",
      "addr_street": "US 301 Highway South",
      "addr_housenumber": "5837",
      "value": 136.72600326117413
    },
    {
      "id": 101662,
      "geometry": "POINT (-78.458252 35.651726)",
      "poi_name": "Mulberry On Main",
      "osm_id": 6637172351,
      "amenity": "restaurant",
      "opening_hours": "Tu-Th 08:00-18:00; Fr 09:30-17:00",
      "addr_city": "Clayton",
      "addr_postcode": "27520",
      "addr_street": "East Main Street",
      "addr_housenumber": "217",
      "value": 136.72600326117413
    },
    {
      "id": 101667,
      "geometry": "POINT (-78.496314 35.666924)",
      "poi_name": "Kobe Japanese Steak House",
      "osm_id": 6637741458,
      "amenity": "restaurant",
      "cuisine": "japanese",
      "phone": "+19193599060",
      "addr_city": "Clayton",
      "addr_postcode": "27520",
      "addr_street": "Gulley Drive",
      "addr_housenumber": "820",
      "value": 136.72600326117413
    },
    {
      "id": 101668,
      "geometry": "POINT (-78.497228 35.666962)",
      "poi_name": "Sak's Deli",
      "osm_id": 6637749864,
      "amenity": "restaurant",
      "cuisine": "sandwich",
      "opening_hours": "Tu-Su 08:00-16:00",
      "phone": "+19195508100",
      "addr_city": "Clayton",
      "addr_postcode": "27520",
      "addr_street": "Gulley Drive",
      "addr_housenumber": "876",
      "value": 136.72600326117413
    },
    {
      "id": 101708,
      "geometry": "POINT (-78.138593 35.455907)",
      "poi_name": "El Paso Mexican Restaurant",
      "osm_id": 6640675609,
      "amenity": "restaurant",
      "phone": "(919) 936-6500",
      "addr_city": "Princeton",
      "addr_postcode": "27569",
      "addr_street": "US 70 East",
      "addr_housenumber": "9610",
      "value": 136.72600326117413
    },
    {
      "id": 101671,
      "geometry": "POINT (-78.499278 35.664408)",
      "poi_name": "Fiesta Mexicana Clayton",
      "osm_id": 6637903980,
      "amenity": "restaurant",
      "cuisine": "mexican",
      "wheelchair": "yes",
      "opening_hours": "Mo-Th 11:00-22:00; Fr-Sa 11:00-22:30; Su 11:00-21:30",
      "phone": "+1 919-550-8888",
      "addr_state": "NC",
      "addr_city": "Clayton",
      "addr_postcode": "27520",
      "addr_street": "Town Centre Boulevard",
      "addr_housenumber": "957",
      "value": 136.72600326117413
    },
    {
      "id": 101709,
      "geometry": "POINT (-78.160354 35.465803)",
      "poi_name": "S & R Foods - Hot Food !",
      "osm_id": 6640698282,
      "amenity": "restaurant",
      "addr_state": "NC",
      "addr_city": "Princeton",
      "addr_postcode": "27569",
      "addr_street": "West Edwards Street",
      "addr_housenumber": "113",
      "value": 136.72600326117413
    },
    {
      "id": 101711,
      "geometry": "POINT (-78.580496 35.535629)",
      "poi_name": "Stephenson's BBQ",
      "osm_id": 6641029106,
      "amenity": "restaurant",
      "cuisine": "american",
      "opening_hours": "Mo-Sa 10:00-21:00",
      "phone": "+1 919 894 4530",
      "addr_city": "Willow Springs",
      "addr_postcode": "27592",
      "addr_street": "NC 50 Highway",
      "addr_housenumber": "11964",
      "value": 136.72600326117413
    },
    {
      "id": 101672,
      "geometry": "POINT (-78.499745 35.663465)",
      "poi_name": "Crab Seafood House",
      "osm_id": 6637904647,
      "amenity": "restaurant",
      "cuisine": "seafood",
      "wheelchair": "yes",
      "opening_hours": "Mo-Th,Su 11:30-22:00; Fr-Sa 11:30-22:30",
      "phone": "919-243-1105",
      "addr_state": "NC",
      "addr_city": "Clayton",
      "addr_postcode": "27520",
      "addr_street": "Town Centre Boulevard",
      "addr_housenumber": "877",
      "value": 136.72600326117413
    },
    {
      "id": 101712,
      "geometry": "POINT (-78.554593 35.469725)",
      "poi_name": "Kelly's Sunshine Cafe",
      "osm_id": 6641029754,
      "amenity": "restaurant",
      "phone": "(919) 207-0800",
      "addr_city": "Benson",
      "addr_postcode": "27504",
      "addr_street": "NC 50 Highway",
      "addr_housenumber": "7065",
      "value": 136.72600326117413
    },
    {
      "id": 101674,
      "geometry": "POINT (-78.4963 35.6639)",
      "poi_name": "Yi Ge Asian Cuisine",
      "osm_id": 6637910373,
      "amenity": "restaurant",
      "cuisine": "asian",
      "phone": "919 550 5115",
      "addr_city": "Clayton",
      "addr_postcode": "27520",
      "addr_street": "US 70 Business East",
      "addr_housenumber": "12849",
      "value": 136.72600326117413
    },
    {
      "id": 101676,
      "geometry": "POINT (-78.477826 35.659368)",
      "poi_name": "La Cocina Mexican Restaurant",
      "osm_id": 6638143091,
      "amenity": "restaurant",
      "cuisine": "mexican",
      "opening_hours": "Mo-Th 11:00-22:00; Fr-Sa 11:00-23:00; Su 11:00-21:00",
      "phone": "9195507323",
      "addr_city": "Clayton",
      "addr_postcode": "27520",
      "addr_street": "Shotwell Road",
      "addr_housenumber": "764",
      "value": 136.72600326117413
    },
    {
      "id": 101878,
      "geometry": "POINT (-78.555282 35.515583)",
      "poi_name": "The Redneck BBQ Lab",
      "osm_id": 6647632826,
      "amenity": "restaurant",
      "phone": "+19199388334",
      "addr_city": "Benson",
      "addr_postcode": "27504",
      "addr_street": "NC 210 Highway",
      "addr_housenumber": "12101",
      "value": 136.72600326117413
    },
    {
      "id": 101730,
      "geometry": "POINT (-78.543216 35.376668)",
      "poi_name": "Pizza Hut",
      "osm_id": 6641769683,
      "amenity": "restaurant",
      "cuisine": "pizza",
      "phone": "+19197011282",
      "addr_city": "Benson",
      "addr_postcode": "27504",
      "addr_street": "East Parrish Drive",
      "addr_housenumber": "670",
      "value": 136.72600326117413
    },
    {
      "id": 101776,
      "geometry": "POINT (-78.448884 35.639003)",
      "poi_name": "Emperor's Choice Chinese",
      "osm_id": 6643282216,
      "amenity": "restaurant",
      "cuisine": "chinese",
      "addr_city": "Clayton",
      "addr_postcode": "27520",
      "addr_street": "US 70 Business East",
      "addr_housenumber": "10125",
      "value": 136.72600326117413
    },
    {
      "id": 101778,
      "geometry": "POINT (-78.456178 35.650429)",
      "poi_name": "Mannings Restaurant",
      "osm_id": 6643335131,
      "amenity": "restaurant",
      "opening_hours": "Mo, We, Th 11:30-21:00; Fr 11:30-22:00; Sa 12:00-22:00; Su 12:00-21:00",
      "phone": "(919) 585-7005",
      "addr_city": "Clayton",
      "addr_postcode": "27520",
      "addr_street": "East Main Street",
      "addr_housenumber": "406",
      "value": 136.72600326117413
    },
    {
      "id": 101785,
      "geometry": "POINT (-78.476139 35.654463)",
      "poi_name": "Marco's Pizza",
      "osm_id": 6643894034,
      "amenity": "restaurant",
      "cuisine": "pizza",
      "opening_hours": "Mo-Su 11:00-22:00",
      "phone": "+1 (919) 243-1573",
      "addr_city": "Clayton",
      "addr_postcode": "27520",
      "addr_street": "US 70 Business East",
      "addr_housenumber": "11689",
      "value": 136.72600326117413
    },
    {
      "id": 101786,
      "geometry": "POINT (-78.472732 35.651481)",
      "poi_name": "Caribbean Delight",
      "osm_id": 6643931944,
      "amenity": "restaurant",
      "addr_city": "Clayton",
      "addr_postcode": "27520",
      "addr_street": "US 70 Business East",
      "addr_housenumber": "11471",
      "value": 136.72600326117413
    },
    {
      "id": 101788,
      "geometry": "POINT (-78.474508 35.653854)",
      "poi_name": "Rockin' Comet Diner",
      "osm_id": 6644003618,
      "amenity": "restaurant",
      "opening_hours": "Mo-Sa 07:00-21:00; Su 07:00-20:00",
      "phone": "+1 919 550 6060",
      "addr_city": "Clayton",
      "addr_postcode": "27520",
      "addr_street": "US 70 Business East",
      "addr_housenumber": "11637",
      "value": 136.72600326117413
    },
    {
      "id": 101790,
      "geometry": "POINT (-78.477936 35.655051)",
      "poi_name": "McKinley's Restaurant & Pub",
      "osm_id": 6644015342,
      "amenity": "restaurant",
      "opening_hours": "Su-Th 11:30-23:00; Fr-Sa 11:30-00:00",
      "phone": "9195535534",
      "addr_city": "Clayton",
      "addr_postcode": "27520",
      "addr_street": "US 70 Business East",
      "addr_housenumber": "11751",
      "value": 136.72600326117413
    },
    {
      "id": 101791,
      "geometry": "POINT (-78.475487 35.653438)",
      "poi_name": "Sushi Iwa Clayton INC",
      "osm_id": 6644026586,
      "amenity": "restaurant",
      "addr_city": "Clayton",
      "addr_postcode": "27520",
      "addr_street": "US 70 Business East",
      "addr_housenumber": "11629",
      "value": 136.72600326117413
    },
    {
      "id": 101792,
      "geometry": "POINT (-78.478298 35.655198)",
      "poi_name": "A Taste of China",
      "osm_id": 6644035128,
      "amenity": "restaurant",
      "cuisine": "chinese",
      "opening_hours": "Mo-Su 10:00-22:00",
      "phone": "+1 (919) 553-7852",
      "addr_city": "Clayton",
      "addr_postcode": "27520",
      "addr_street": "US 70 Business East",
      "addr_housenumber": "11831",
      "value": 136.72600326117413
    },
    {
      "id": 101793,
      "geometry": "POINT (-78.480291 35.656376)",
      "poi_name": "Cleveland Draft House",
      "osm_id": 6644037927,
      "amenity": "restaurant",
      "opening_hours": "Mo-Su 11:00-00:00",
      "phone": "9196595500",
      "addr_city": "Clayton",
      "addr_postcode": "27520",
      "addr_street": "Shotwell Road",
      "addr_housenumber": "461",
      "value": 136.72600326117413
    },
    {
      "id": 102038,
      "geometry": "POINT (-78.340168 35.517522)",
      "poi_name": "FAT'Z SOUL FOOD RESTAURANT & CATERING",
      "osm_id": 6654145916,
      "amenity": "restaurant",
      "phone": "+19199342211",
      "addr_city": "Smithfield",
      "addr_postcode": "27577",
      "addr_street": "Buffalo Road",
      "addr_housenumber": "608",
      "value": 136.72600326117413
    },
    {
      "id": 102077,
      "geometry": "POINT (-78.419838 35.694948)",
      "poi_name": "Las Coste\u00f1as",
      "osm_id": 6655405033,
      "amenity": "restaurant",
      "cuisine": "mexican",
      "drive_through": "no",
      "addr_city": "Clayton",
      "addr_postcode": "27527",
      "addr_street": "Pritchard Road",
      "addr_housenumber": "272",
      "value": 136.72600326117413
    },
    {
      "id": 102006,
      "geometry": "POINT (-78.345584 35.510818)",
      "poi_name": "The Diner",
      "osm_id": 6653552447,
      "amenity": "restaurant",
      "phone": "+19199346644",
      "addr_city": "Smithfield",
      "addr_postcode": "27577",
      "addr_street": "East Market Street",
      "addr_housenumber": "314",
      "value": 136.72600326117413
    },
    {
      "id": 102013,
      "geometry": "POINT (-78.311867 35.517956)",
      "poi_name": "The Peach Cobbler Factory - Smithfield NC",
      "osm_id": 6653755261,
      "amenity": "restaurant",
      "opening_hours": "Su-Sa 12:00-22:00",
      "phone": "(919) 938-8099",
      "addr_state": "NC",
      "addr_city": "Smithfield",
      "addr_postcode": "27577",
      "addr_street": "North Brightleaf Boulevard",
      "addr_housenumber": "1258",
      "value": 136.72600326117413
    },
    {
      "id": 102185,
      "geometry": "POINT (-78.555036 35.610686)",
      "poi_name": "Fiesta Mexicana Garner",
      "osm_id": 6661829862,
      "amenity": "restaurant",
      "cuisine": "mexican",
      "addr_city": "Garner",
      "addr_postcode": "27527",
      "addr_street": "NC 42 Highway West",
      "addr_housenumber": "5131",
      "value": 136.72600326117413
    },
    {
      "id": 102091,
      "geometry": "POINT (-78.346497 35.65536)",
      "poi_name": "La Cucina Italiana",
      "osm_id": 6655572582,
      "amenity": "restaurant",
      "cuisine": "italian",
      "opening_hours": "Mo-Su 11:00-21:00",
      "website": "https://www.lacucinaitalianamenu.com/",
      "phone": "+1-919-550-2452",
      "addr_state": "NC",
      "addr_city": "Clayton",
      "addr_postcode": "27527",
      "addr_street": "Flowers Crossroads Way",
      "addr_housenumber": "110",
      "value": 136.72600326117413
    },
    {
      "id": 102516,
      "geometry": "POINT (-78.287243 35.517514)",
      "poi_name": "Denny's",
      "osm_id": 6682379649,
      "amenity": "restaurant",
      "cuisine": "american",
      "opening_hours": "24/7",
      "phone": "9199653275",
      "addr_state": "NC",
      "addr_city": "Selma",
      "addr_postcode": "27576",
      "addr_street": "JR Road",
      "addr_housenumber": "55",
      "value": 136.72600326117413
    },
    {
      "id": 102536,
      "geometry": "POINT (-78.207865 35.561529)",
      "poi_name": "Waffee Station",
      "osm_id": 6684178366,
      "amenity": "restaurant",
      "opening_hours": "Su-Th 07:00-14:00",
      "phone": "9195885182",
      "addr_state": "NC",
      "addr_city": "Micro",
      "addr_postcode": "27555",
      "addr_street": "US-301 Highway",
      "addr_housenumber": "317",
      "value": 136.72600326117413
    },
    {
      "id": 102521,
      "geometry": "POINT (-78.293738 35.520376)",
      "poi_name": "Waffle House",
      "osm_id": 6682404563,
      "amenity": "restaurant",
      "cuisine": "american",
      "opening_hours": "24/7",
      "phone": "(919) 965-8342",
      "addr_state": "NC",
      "addr_city": "Selma",
      "addr_postcode": "27576",
      "addr_street": "Outlet Center Drive",
      "addr_housenumber": "1815",
      "value": 136.72600326117413
    },
    {
      "id": 102523,
      "geometry": "POINT (-78.286524 35.517353)",
      "poi_name": "Fry Daddys Selma",
      "osm_id": 6682427679,
      "amenity": "restaurant",
      "opening_hours": "Su-Th 11:00-20:30; Fr-Sa 11:00-21:00",
      "website": "https://frydaddysnc.com/",
      "phone": "(919) 334-2525",
      "addr_state": "NC",
      "addr_city": "Selma",
      "addr_postcode": "27576",
      "addr_street": "Jr Road",
      "addr_housenumber": "55",
      "value": 136.72600326117413
    },
    {
      "id": 103206,
      "geometry": "POINT (-77.899783 34.352199)",
      "poi_name": "Buen Dia Mexican Breakfast & Lunch",
      "osm_id": 8490450153,
      "amenity": "restaurant",
      "cuisine": "mexican",
      "phone": "(910) 623-1401",
      "addr_state": "NC",
      "addr_city": "Castle Hayne",
      "addr_postcode": "28429",
      "addr_street": "Castle Hayne Road",
      "addr_housenumber": "5512",
      "value": 136.72600326117413
    },
    {
      "id": 102704,
      "geometry": "POINT (-78.348321 35.655336)",
      "poi_name": "Asia Cafe",
      "osm_id": 6693482965,
      "amenity": "restaurant",
      "cuisine": "asian",
      "opening_hours": "Tu-Th 11:00-22:00; Fr-Sa 11:00-22:30; Su 12:00-21:30",
      "website": "https://asiacafenctogo.com/",
      "phone": "(919) 550-2688",
      "addr_state": "NC",
      "addr_city": "Clayton",
      "addr_postcode": "27527",
      "addr_street": "Flowers Crossroads Way",
      "addr_housenumber": "14",
      "value": 136.72600326117413
    },
    {
      "id": 102705,
      "geometry": "POINT (-78.348206 35.654661)",
      "poi_name": "Don Beto\u2019s Tacos & Tequila",
      "osm_id": 6693549817,
      "amenity": "restaurant",
      "cuisine": "mexican",
      "opening_hours": "Mo-Th 11:00-21:00; Fr-Sa 11:00-21:30; Su 11:00-20:00",
      "website": "https://donbetostacosytequila.com/",
      "phone": "+1-984-263-0983",
      "addr_state": "NC",
      "addr_city": "Clayton",
      "addr_postcode": "27527",
      "addr_street": "Flowers Crossroads Way",
      "addr_housenumber": "36",
      "value": 136.72600326117413
    },
    {
      "id": 102768,
      "geometry": "POINT (-78.584009 35.697916)",
      "poi_name": "City Barbeque",
      "osm_id": 8455924367,
      "amenity": "restaurant",
      "cuisine": "barbecue",
      "opening_hours": "Su-Th 11:00-21:00; Fr,Sa 11:00-22:00",
      "website": "https://www.citybbq.com/",
      "phone": "+1 919-258-2009",
      "addr_state": "NC",
      "addr_city": "Garner",
      "addr_postcode": "27529",
      "addr_street": "Cabela Dr",
      "addr_housenumber": "110",
      "value": 136.72600326117413
    },
    {
      "id": 102769,
      "geometry": "POINT (-78.583747 35.697891)",
      "poi_name": "Blaze Pizza",
      "osm_id": 8455924369,
      "amenity": "restaurant",
      "cuisine": "pizza",
      "opening_hours": "Su-Th 11:00-21:00; Fr,Sa 11:00-22:00",
      "phone": "+19193301742",
      "addr_state": "NC",
      "addr_city": "Garner",
      "addr_postcode": "27529",
      "addr_street": "Cablea Drive",
      "addr_housenumber": "140",
      "value": 136.72600326117413
    },
    {
      "id": 103214,
      "geometry": "POINT (-78.326121 34.990961)",
      "poi_name": "JennaBugs Cafe",
      "osm_id": 8490778904,
      "amenity": "restaurant",
      "phone": "+19104901095",
      "addr_state": "NC",
      "addr_city": "Clinton",
      "addr_postcode": "28328",
      "addr_street": "West Elizabeth Street",
      "addr_housenumber": "421",
      "value": 136.72600326117413
    },
    {
      "id": 103215,
      "geometry": "POINT (-78.324037 34.99722)",
      "poi_name": "Sharon's Country Diner",
      "osm_id": 8490778905,
      "amenity": "restaurant",
      "phone": "+19105925086",
      "addr_state": "NC",
      "addr_city": "Clinton",
      "addr_postcode": "28328",
      "addr_street": "West Main Street",
      "addr_housenumber": "103",
      "value": 136.72600326117413
    },
    {
      "id": 103216,
      "geometry": "POINT (-78.324403 34.997348)",
      "poi_name": "Alfredo's Ristorante Italiano",
      "osm_id": 8490778907,
      "amenity": "restaurant",
      "cuisine": "italian",
      "phone": "+19105921657",
      "addr_state": "NC",
      "addr_city": "Clinton",
      "addr_postcode": "28328",
      "addr_street": "North Wall Street",
      "addr_housenumber": "101",
      "value": 136.72600326117413
    },
    {
      "id": 104154,
      "geometry": "POINT (-78.418564 35.644581)",
      "poi_name": "Mezcalito Grill",
      "osm_id": 8551824286,
      "amenity": "restaurant",
      "cuisine": "mexican",
      "opening_hours": "Mo-Th 11:00-21:30; Fr-Sa 11:00-22:30; Su 11:00-21:00",
      "website": "https://mezcalitogrill.com/clayton/",
      "phone": "919-243-0653",
      "addr_state": "NC",
      "addr_city": "Clayton",
      "addr_postcode": "27527",
      "addr_street": "Briarcliff Drive",
      "addr_housenumber": "229",
      "value": 136.72600326117413
    },
    {
      "id": 105325,
      "geometry": "POINT (-77.437162 34.753457)",
      "poi_name": "Capt. Bob Beck\u2019s Marina Cafe",
      "osm_id": 8617957214,
      "amenity": "restaurant",
      "cuisine": "seafood",
      "phone": "+1 (910) 938-2002",
      "addr_state": "NC",
      "addr_city": "Jacksonville",
      "addr_postcode": "28540",
      "addr_street": "South Marine Boulevard",
      "addr_housenumber": "110",
      "value": 136.72600326117413
    },
    {
      "id": 109294,
      "geometry": "POINT (-78.655676 35.782809)",
      "poi_name": "Jade Garden",
      "osm_id": 3656191609,
      "amenity": "restaurant",
      "cuisine": "chinese",
      "phone": "+1-919-594-1813",
      "takeaway": "yes",
      "delivery": "yes",
      "addr_state": "NC",
      "addr_city": "Raleigh",
      "addr_postcode": "27603",
      "addr_street": "Hillsborough Street",
      "addr_housenumber": "1207",
      "value": 136.72600326117413
    },
    {
      "id": 113577,
      "geometry": "POINT (-78.663836 35.786755)",
      "poi_name": "Gonza Tacos y Tequila",
      "osm_id": 3840045003,
      "amenity": "restaurant",
      "cuisine": "mexican",
      "opening_hours": "Su 11:00-16:00,17:00-21:30; Mo-Th 11:30-14:00,17:00-21:30; Fr 11:30-14:00,17:00-22:30; Sa 11:00-16:00,17:00-22:30",
      "website": "https://www.gonzatacosytequila.com/",
      "phone": "+1 919-268-8965",
      "addr_state": "NC",
      "addr_city": "Raleigh",
      "addr_postcode": "27607",
      "addr_street": "Hillsborough Street",
      "addr_housenumber": "2100",
      "value": 136.72600326117413
    },
    {
      "id": 114188,
      "geometry": "POINT (-78.661674 35.789391)",
      "poi_name": "CAVA",
      "osm_id": 3871422566,
      "amenity": "restaurant",
      "cuisine": "mediterranean",
      "addr_state": "NC",
      "addr_city": "Raleigh",
      "addr_postcode": "27605",
      "addr_street": "Daniels Street",
      "addr_housenumber": "403",
      "value": 136.72600326117413
    },
    {
      "id": 114261,
      "geometry": "POINT (-77.038014 35.104544)",
      "poi_name": "Harvey Mansion",
      "osm_id": 3875019614,
      "amenity": "restaurant",
      "addr_state": "NC",
      "addr_city": "New Bern",
      "addr_street": "South Front Street",
      "addr_housenumber": "221",
      "value": 136.72600326117413
    },
    {
      "id": 115385,
      "geometry": "POINT (-78.668812 35.788084)",
      "poi_name": "Guasaca",
      "osm_id": 8891851191,
      "amenity": "restaurant",
      "cuisine": "venezuelan",
      "wheelchair": "yes",
      "opening_hours": "Mo-Su 11:00-21:00",
      "website": "https://guasaca.com/",
      "phone": "+1 919 210 6838",
      "takeaway": "yes",
      "outdoor_seating": "yes",
      "addr_state": "NC",
      "addr_city": "Raleigh",
      "addr_postcode": "27607",
      "addr_street": "Hillsborough Street",
      "addr_housenumber": "2512",
      "value": 136.72600326117413
    },
    {
      "id": 115109,
      "geometry": "POINT (-77.034504 35.106432)",
      "poi_name": "Persimmons",
      "osm_id": 3911295158,
      "amenity": "restaurant",
      "addr_state": "NC",
      "addr_city": "New Bern",
      "addr_street": "Pollock Street",
      "addr_housenumber": "100",
      "value": 136.72600326117413
    },
    {
      "id": 116545,
      "geometry": "POINT (-77.908352 35.386849)",
      "poi_name": "Murray\u2019s BBQ And Seafood",
      "osm_id": 8946810805,
      "amenity": "restaurant",
      "cuisine": "american",
      "phone": "+1 (919) 778-3933",
      "addr_state": "NC",
      "addr_city": "Goldsboro",
      "addr_postcode": "27534",
      "addr_street": "East New Hope Road",
      "addr_housenumber": "413",
      "value": 136.72600326117413
    },
    {
      "id": 118085,
      "geometry": "POINT (-77.381815 34.785867)",
      "poi_name": "Helen's Kitchen",
      "osm_id": 9024785756,
      "amenity": "restaurant",
      "cuisine": "american",
      "wheelchair": "limited",
      "opening_hours": "Tu-Fr 05:00-14:00; Sa 06:00-11:00; PH closed",
      "phone": "+1 910-455-9882",
      "addr_state": "NC",
      "addr_city": "Jacksonville",
      "addr_postcode": "28546",
      "addr_street": "North Marine Boulevard",
      "addr_housenumber": "2405",
      "value": 136.72600326117413
    },
    {
      "id": 120424,
      "geometry": "POINT (-78.310626 35.52288)",
      "poi_name": "La Cocina Mexican Restaurant Smithfield #2",
      "osm_id": 6703051105,
      "amenity": "restaurant",
      "addr_state": "NC",
      "addr_city": "Smithfield",
      "addr_postcode": "27577",
      "addr_street": "North Brightleaf Boulevard",
      "addr_housenumber": "1285",
      "value": 136.72600326117413
    },
    {
      "id": 120239,
      "geometry": "POINT (-78.5279 35.5666)",
      "poi_name": "J Tops BBQ",
      "osm_id": 6697670999,
      "amenity": "restaurant",
      "cuisine": "american",
      "opening_hours": "24/7",
      "phone": "+19199340093",
      "addr_state": "NC",
      "addr_city": "Clayton",
      "addr_postcode": "27520",
      "addr_street": "Cleveland Road",
      "addr_housenumber": "8948",
      "value": 136.72600326117413
    },
    {
      "id": 120242,
      "geometry": "POINT (-78.569799 35.603367)",
      "poi_name": "Waffle House",
      "osm_id": 6697714099,
      "amenity": "restaurant",
      "cuisine": "american",
      "opening_hours": "24/7",
      "phone": "(919) 772-1626",
      "addr_state": "NC",
      "addr_city": "Garner",
      "addr_postcode": "27529",
      "addr_street": "NC 42 West",
      "addr_housenumber": "5607",
      "value": 136.72600326117413
    },
    {
      "id": 120243,
      "geometry": "POINT (-78.554299 35.587482)",
      "poi_name": "Eden's Vegans",
      "osm_id": 6697721748,
      "amenity": "restaurant",
      "description": "The name is misleading. On the outside of the building, it says \"Eden's Vegetarian\". I think that's their official business name. But on Facebook it's \"Eden's Vegans\". They seem to serve all vegan food. No dairy, eggs, or honey in any of their items.",
      "addr_state": "NC",
      "addr_city": "Garner",
      "addr_postcode": "27529",
      "addr_street": "Cleveland Road",
      "addr_housenumber": "11048",
      "value": 136.72600326117413
    },
    {
      "id": 120244,
      "geometry": "POINT (-78.567525 35.607418)",
      "poi_name": "Yummi Japan",
      "osm_id": 6697781226,
      "amenity": "restaurant",
      "phone": "(919) 772-8871",
      "addr_state": "NC",
      "addr_city": "Garner",
      "addr_postcode": "27529",
      "addr_street": "Glen Road",
      "addr_housenumber": "87",
      "value": 136.72600326117413
    },
    {
      "id": 120245,
      "geometry": "POINT (-78.600937 35.591309)",
      "poi_name": "New China Star",
      "osm_id": 6697781764,
      "amenity": "restaurant",
      "cuisine": "chinese",
      "phone": "(919) 772-6668",
      "addr_state": "NC",
      "addr_city": "Raleigh",
      "addr_postcode": "27603",
      "addr_street": "NC 42 West",
      "addr_housenumber": "7277",
      "value": 136.72600326117413
    },
    {
      "id": 120247,
      "geometry": "POINT (-78.568029 35.6072)",
      "poi_name": "Jumbo China Restaurant",
      "osm_id": 6697802908,
      "amenity": "restaurant",
      "phone": "(919) 771-0333",
      "addr_state": "NC",
      "addr_city": "Garner",
      "addr_postcode": "27529",
      "addr_street": "Glen Road",
      "addr_housenumber": "61",
      "value": 136.72600326117413
    },
    {
      "id": 120248,
      "geometry": "POINT (-78.569821 35.607004)",
      "poi_name": "Clubhouse Restaurant Bar & Grill",
      "osm_id": 6697806481,
      "amenity": "restaurant",
      "phone": "(919) 662-2207",
      "addr_state": "NC",
      "addr_city": "Garner",
      "addr_postcode": "27529",
      "addr_street": "Technology Drive",
      "addr_housenumber": "51",
      "value": 136.72600326117413
    },
    {
      "id": 120249,
      "geometry": "POINT (-78.569815 35.605156)",
      "poi_name": "Simple Twist",
      "osm_id": 6697811211,
      "amenity": "restaurant",
      "phone": "(919) 661-5566",
      "addr_state": "NC",
      "addr_city": "Garner",
      "addr_postcode": "27529",
      "addr_street": "NC 42 West",
      "addr_housenumber": "5638",
      "value": 136.72600326117413
    },
    {
      "id": 120425,
      "geometry": "POINT (-78.31329 35.521578)",
      "poi_name": "Ninja Japan",
      "osm_id": 6703062538,
      "amenity": "restaurant",
      "addr_state": "NC",
      "addr_city": "Smithfield",
      "addr_postcode": "27577",
      "addr_street": "North Brightleaf Boulevard",
      "addr_housenumber": "1249",
      "value": 136.72600326117413
    },
    {
      "id": 120397,
      "geometry": "POINT (-78.286642 35.534184)",
      "poi_name": "My Casa Hispano Restaurant",
      "osm_id": 6701077669,
      "amenity": "restaurant",
      "addr_city": "Selma",
      "addr_postcode": "27576",
      "addr_street": "South Pollock Street",
      "addr_housenumber": "302",
      "value": 136.72600326117413
    },
    {
      "id": 120427,
      "geometry": "POINT (-78.323776 35.515882)",
      "poi_name": "Smithfield's Chicken 'N Bar-B-Q",
      "osm_id": 6703088460,
      "amenity": "restaurant",
      "addr_state": "NC",
      "addr_city": "Smithfield",
      "addr_postcode": "27577",
      "addr_street": "North Brightleaf Boulevard",
      "addr_housenumber": "924",
      "value": 136.72600326117413
    },
    {
      "id": 122367,
      "geometry": "POINT (-78.566239 35.607148)",
      "poi_name": "F & D Huebner LLC",
      "osm_id": 6799156350,
      "amenity": "restaurant",
      "phone": "(919) 772-1677",
      "addr_state": "NC",
      "addr_city": "Garner",
      "addr_postcode": "27529",
      "addr_street": "Glen Road",
      "addr_housenumber": "52",
      "value": 136.72600326117413
    },
    {
      "id": 120399,
      "geometry": "POINT (-78.286739 35.533885)",
      "poi_name": "Alondra's Restaurant",
      "osm_id": 6701110862,
      "amenity": "restaurant",
      "opening_hours": "Fr, Sa 11:00-00:00; Su 11:00-23:00",
      "phone": "+1 (919) 802-1311",
      "addr_city": "Selma",
      "addr_postcode": "27576",
      "addr_street": "South Pollock Street",
      "addr_housenumber": "308",
      "value": 136.72600326117413
    },
    {
      "id": 120400,
      "geometry": "POINT (-78.294793 35.528094)",
      "poi_name": "China One",
      "osm_id": 6701122887,
      "amenity": "restaurant",
      "addr_city": "Selma",
      "addr_postcode": "27576",
      "addr_street": "South Pollock Street",
      "addr_housenumber": "1108 ",
      "value": 136.72600326117413
    },
    {
      "id": 121014,
      "geometry": "POINT (-77.98022 35.399714)",
      "poi_name": "Carl & 'Chelle's Grill Room",
      "osm_id": 6738756125,
      "amenity": "restaurant",
      "phone": "(919) 584-8657",
      "addr_state": "NC",
      "addr_city": "Goldsboro",
      "addr_postcode": "27534",
      "addr_street": "Corporate Drive",
      "addr_housenumber": "702",
      "value": 136.72600326117413
    },
    {
      "id": 122080,
      "geometry": "POINT (-78.394943 35.64928)",
      "poi_name": "New Jumbo China",
      "osm_id": 6788005223,
      "amenity": "restaurant",
      "opening_hours": "Mo, We-Sa 10:30-21:00; Su 12:00-21:00",
      "phone": "(919) 550-0882",
      "addr_state": "NC",
      "addr_city": "Clayton",
      "addr_postcode": "27527",
      "addr_street": "Neuse River Parkway",
      "addr_housenumber": "50",
      "value": 136.72600326117413
    },
    {
      "id": 122368,
      "geometry": "POINT (-78.562633 35.609175)",
      "poi_name": "China King",
      "osm_id": 6799199894,
      "amenity": "restaurant",
      "cuisine": "chinese",
      "phone": "(919) 772-7040",
      "addr_state": "NC",
      "addr_city": "Garner",
      "addr_postcode": "27529",
      "addr_street": "NC 42 Highway West",
      "addr_housenumber": "5176",
      "value": 136.72600326117413
    },
    {
      "id": 123733,
      "geometry": "POINT (-78.326571 35.021442)",
      "poi_name": "Sandpiper Seafood",
      "osm_id": 6875764562,
      "amenity": "restaurant",
      "addr_state": "NC",
      "addr_city": "Clinton",
      "addr_postcode": "28328",
      "addr_street": "Hobbton Highway",
      "addr_housenumber": "1370",
      "value": 136.72600326117413
    },
    {
      "id": 122790,
      "geometry": "POINT (-78.363717 35.485533)",
      "poi_name": "Soul Seafood Cafe\u2019",
      "osm_id": 6818300061,
      "amenity": "restaurant",
      "phone": "+19199340341",
      "addr_city": "Smithfield",
      "addr_postcode": "27577",
      "addr_street": "South Brightleaf Boulevard",
      "addr_housenumber": "2110",
      "value": 136.72600326117413
    },
    {
      "id": 122792,
      "geometry": "POINT (-78.351707 35.498138)",
      "poi_name": "No 1 Chinese Restaurant",
      "osm_id": 6818305628,
      "amenity": "restaurant",
      "cuisine": "chinese",
      "phone": "+19192099788",
      "addr_city": "Smithfield",
      "addr_postcode": "27577",
      "addr_street": "South Brightleaf Boulevard",
      "addr_housenumber": "903",
      "value": 136.72600326117413
    },
    {
      "id": 122793,
      "geometry": "POINT (-78.359726 35.489241)",
      "poi_name": "El Barzon",
      "osm_id": 6818305922,
      "amenity": "restaurant",
      "phone": "+19192051661",
      "addr_city": "Smithfield",
      "addr_postcode": "27577",
      "addr_street": "South Brightleaf Boulevard",
      "addr_housenumber": "1691",
      "value": 136.72600326117413
    },
    {
      "id": 122916,
      "geometry": "POINT (-78.491564 35.643365)",
      "poi_name": "3 Olives Pizza & Deli",
      "osm_id": 6827123491,
      "amenity": "restaurant",
      "opening_hours": "Su-Th 11:00-22:00; Fr-Sa 11:00-23:00",
      "phone": "(919) 553-3330",
      "addr_state": "NC",
      "addr_city": "Clayton",
      "addr_postcode": "27520",
      "addr_street": "Amelia Church Road",
      "addr_housenumber": "1225",
      "value": 136.72600326117413
    },
    {
      "id": 123058,
      "geometry": "POINT (-78.627008 35.813706)",
      "poi_name": "Mami's Lat\u00edn Style Rotisserie Chicken",
      "osm_id": 6833514185,
      "amenity": "restaurant",
      "cuisine": "peruvian",
      "opening_hours": "Fr-Sa 11:00-21:00; Mo-Th 11:00-20:00; Su 12:00-21:00",
      "website": "https://mamislatinrotisserie.com/",
      "internet_access": "wlan",
      "phone": "(919) 834-8572",
      "addr_state": "NC",
      "addr_city": "Raleigh",
      "addr_postcode": "27608",
      "addr_street": "Wake Forest Road",
      "addr_housenumber": "2401",
      "value": 136.72600326117413
    },
    {
      "id": 127068,
      "geometry": "POINT (-78.412617 35.664288)",
      "poi_name": "Mission Beef and Brews",
      "osm_id": 8023717706,
      "amenity": "restaurant",
      "phone": "+1 (919) 635-5741",
      "addr_state": "NC",
      "addr_city": "Clayton",
      "addr_postcode": "27527",
      "addr_street": "Riverwood Drive",
      "addr_housenumber": "400",
      "value": 136.72600326117413
    },
    {
      "id": 124824,
      "geometry": "POINT (-78.349949 35.500232)",
      "poi_name": "Tortilleria Y Taqueria Ramos",
      "osm_id": 6935501259,
      "amenity": "restaurant",
      "phone": "+19103376597",
      "addr_state": "NC",
      "addr_city": "Smithfield",
      "addr_postcode": "27577",
      "addr_street": "South Brightleaf Boulevard",
      "addr_housenumber": "817",
      "value": 136.72600326117413
    },
    {
      "id": 124825,
      "geometry": "POINT (-78.3497 35.497972)",
      "poi_name": "Crazy Tacos Inc",
      "osm_id": 6935501265,
      "amenity": "restaurant",
      "addr_state": "NC",
      "addr_city": "Smithfield",
      "addr_postcode": "27577",
      "addr_street": "South 5th Street",
      "addr_housenumber": "911",
      "value": 136.72600326117413
    },
    {
      "id": 124837,
      "geometry": "POINT (-78.315959 35.008224)",
      "poi_name": "Eastern Chinese",
      "osm_id": 6935621101,
      "amenity": "restaurant",
      "addr_state": "NC",
      "addr_city": "Clinton",
      "addr_postcode": "28328",
      "addr_street": "Northeast Boulevard",
      "addr_housenumber": "205 A",
      "value": 136.72600326117413
    },
    {
      "id": 124838,
      "geometry": "POINT (-78.310997 35.003309)",
      "poi_name": "Wa Chand Buffet",
      "osm_id": 6935621102,
      "amenity": "restaurant",
      "addr_state": "NC",
      "addr_city": "Clinton",
      "addr_postcode": "28328",
      "addr_street": "Southeast Boulevard",
      "addr_housenumber": "206",
      "value": 136.72600326117413
    },
    {
      "id": 126451,
      "geometry": "POINT (-78.60598 35.684869)",
      "poi_name": "Big Eds country cooking",
      "osm_id": 7003597895,
      "amenity": "restaurant",
      "addr_state": "NC",
      "addr_city": "Garner",
      "addr_postcode": "27529",
      "addr_street": "Timber Drive",
      "addr_housenumber": "231",
      "value": 136.72600326117413
    },
    {
      "id": 129536,
      "geometry": "POINT (-77.843273 35.406813)",
      "poi_name": "Stonewall's Restaurant & Grill",
      "osm_id": 9829272291,
      "amenity": "restaurant",
      "phone": "+19197781084",
      "addr_state": "NC",
      "addr_city": "Goldsboro",
      "addr_postcode": "27534",
      "addr_street": "Hood Swamp Road",
      "addr_housenumber": "1417",
      "value": 136.72600326117413
    },
    {
      "id": 129466,
      "geometry": "POINT (-78.583806 35.797753)",
      "poi_name": "K&W Cafeteria",
      "osm_id": 9826360159,
      "amenity": "restaurant",
      "phone": "+19192319242",
      "addr_state": "NC",
      "addr_city": "Raleigh",
      "addr_postcode": "27604",
      "addr_street": "Bastion Lane",
      "addr_housenumber": "3620",
      "value": 136.72600326117413
    },
    {
      "id": 130208,
      "geometry": "POINT (-78.626972 35.812523)",
      "poi_name": "FRESKO Greek Kitchen",
      "osm_id": 9860319182,
      "amenity": "restaurant",
      "phone": "+19193220977",
      "addr_state": "NC",
      "addr_city": "Raleigh",
      "addr_postcode": "27608",
      "addr_street": "Bale Street",
      "addr_housenumber": "2320",
      "value": 136.72600326117413
    },
    {
      "id": 130168,
      "geometry": "POINT (-78.622261 35.821705)",
      "poi_name": "CAVA",
      "osm_id": 9857025358,
      "amenity": "restaurant",
      "phone": "(919) 276-4591",
      "addr_state": "NC",
      "addr_city": "Raleigh",
      "addr_postcode": "27609",
      "addr_street": "Mercantile Drive",
      "addr_housenumber": "1100",
      "value": 136.72600326117413
    },
    {
      "id": 130169,
      "geometry": "POINT (-78.622018 35.82162)",
      "poi_name": "Torchy's Tacos",
      "osm_id": 9857050510,
      "amenity": "restaurant",
      "cuisine": "mexican",
      "phone": "(919) 439-1177",
      "addr_state": "NC",
      "addr_city": "Raleigh",
      "addr_postcode": "27609",
      "addr_street": "Mercantile Drive",
      "addr_housenumber": "1110",
      "value": 136.72600326117413
    },
    {
      "id": 130173,
      "geometry": "POINT (-78.62145 35.821488)",
      "poi_name": "BB\u2019s Crispy Chicken",
      "osm_id": 9858026134,
      "amenity": "restaurant",
      "phone": "+19842723300",
      "addr_state": "NC",
      "addr_city": "Raleigh",
      "addr_postcode": "27609",
      "addr_street": "Sherman Oak Place",
      "addr_housenumber": "2920",
      "value": 136.72600326117413
    },
    {
      "id": 130211,
      "geometry": "POINT (-78.627316 35.813221)",
      "poi_name": "Bendito",
      "osm_id": 9860319186,
      "amenity": "restaurant",
      "phone": "+19842006521",
      "addr_state": "NC",
      "addr_city": "Raleigh",
      "addr_postcode": "27608",
      "addr_street": "Bale Street",
      "addr_housenumber": "2330",
      "value": 136.72600326117413
    },
    {
      "id": 130212,
      "geometry": "POINT (-78.627584 35.813349)",
      "poi_name": "Shuckin' Shack Oyster Bar",
      "osm_id": 9860319187,
      "amenity": "restaurant",
      "phone": "+19193220324",
      "addr_state": "NC",
      "addr_city": "Raleigh",
      "addr_postcode": "27608",
      "addr_street": "Bale Street",
      "addr_housenumber": "2340",
      "value": 136.72600326117413
    },
    {
      "id": 130940,
      "geometry": "POINT (-77.065607 35.219869)",
      "poi_name": "Buddy's Barbeque",
      "osm_id": 9895729859,
      "amenity": "restaurant",
      "phone": "+12527028908",
      "addr_state": "NC",
      "addr_city": "New Bern",
      "addr_postcode": "28560",
      "addr_street": "US-17",
      "addr_housenumber": "4280",
      "value": 136.72600326117413
    },
    {
      "id": 130944,
      "geometry": "POINT (-77.039284 35.097091)",
      "poi_name": "Outback Steakhouse",
      "osm_id": 9895756015,
      "amenity": "restaurant",
      "cuisine": "american;steak",
      "phone": "+12526729394",
      "addr_state": "NC",
      "addr_city": "New Bern",
      "addr_postcode": "28562",
      "addr_street": "Howell Road",
      "addr_housenumber": "111",
      "value": 136.72600326117413
    },
    {
      "id": 130975,
      "geometry": "POINT (-78.553736 35.375782)",
      "poi_name": "El Charro Mexican Restaurant",
      "osm_id": 9897038032,
      "amenity": "restaurant",
      "cuisine": "mexican",
      "phone": "(919) 207-2806",
      "addr_state": "NC",
      "addr_city": "Benson",
      "addr_postcode": "27504",
      "addr_street": "South Wall Street",
      "addr_housenumber": "709",
      "value": 136.72600326117413
    },
    {
      "id": 131169,
      "geometry": "POINT (-78.675193 35.779517)",
      "poi_name": "Akari Express",
      "osm_id": 9904659756,
      "amenity": "restaurant",
      "cuisine": "japanese",
      "addr_state": "NC",
      "addr_city": "Raleigh",
      "addr_postcode": "27606",
      "addr_street": "Avent Ferry Road",
      "addr_housenumber": "2109",
      "value": 136.72600326117413
    },
    {
      "id": 131956,
      "geometry": "POINT (-78.394965 35.649519)",
      "poi_name": "Boba Beans Bistro",
      "osm_id": 9936162705,
      "amenity": "restaurant",
      "opening_hours": "Mo-Su 09:00-20:00",
      "phone": "9195857971",
      "addr_state": "NC",
      "addr_city": "Clayton",
      "addr_postcode": "27527",
      "addr_street": "Neuse River Parkway",
      "addr_housenumber": "50",
      "value": 136.72600326117413
    },
    {
      "id": 132729,
      "geometry": "POINT (-78.289098 35.517292)",
      "poi_name": "Old North State Food Hall",
      "osm_id": 9966013888,
      "amenity": "restaurant",
      "opening_hours": "Mo-Su 07:00-21:00",
      "addr_state": "NC",
      "addr_city": "Selma",
      "addr_postcode": "27576",
      "addr_street": "Jr Road",
      "addr_housenumber": "67",
      "value": 136.72600326117413
    },
    {
      "id": 133079,
      "geometry": "POINT (-78.598924 35.745625)",
      "poi_name": "Oak City Fish and Chips",
      "osm_id": 9979953881,
      "amenity": "restaurant",
      "phone": "+19842229140",
      "addr_state": "NC",
      "addr_city": "Raleigh",
      "addr_postcode": "27610",
      "addr_street": "New Birch Drive",
      "addr_housenumber": "2822",
      "value": 136.72600326117413
    },
    {
      "id": 132968,
      "geometry": "POINT (-78.470383 35.662274)",
      "poi_name": "Romeo's Pizza",
      "osm_id": 9974777923,
      "amenity": "restaurant",
      "cuisine": "pizza",
      "opening_hours": "Mo-Th 10:00-21:00; Fr-Sa 10:00-22:00; Su 11:00-21:00",
      "website": "https://www.romeospizza.com/",
      "phone": "+19842469100",
      "addr_state": "NC",
      "addr_city": "Clayton",
      "addr_postcode": "27520",
      "addr_street": "West Main Street",
      "addr_housenumber": "1130",
      "value": 136.72600326117413
    },
    {
      "id": 133080,
      "geometry": "POINT (-78.598747 35.746263)",
      "poi_name": "Jonathan\u2019s Sports Lounge & Grill",
      "osm_id": 9979953882,
      "amenity": "restaurant",
      "phone": "+19196925095",
      "addr_state": "NC",
      "addr_city": "Raleigh",
      "addr_postcode": "27610",
      "addr_street": "New Birch Drive",
      "addr_housenumber": "3400",
      "value": 136.72600326117413
    },
    {
      "id": 135152,
      "geometry": "POINT (-78.635403 35.793475)",
      "poi_name": "Stanbury",
      "osm_id": 11506328203,
      "amenity": "restaurant",
      "cuisine": "american",
      "website": "https://www.stanburyraleigh.com",
      "phone": "+1-919-977-4321",
      "addr_state": "NC",
      "addr_city": "Raleigh",
      "addr_postcode": "27604",
      "addr_street": "North Blount Street",
      "addr_housenumber": "938",
      "value": 136.72600326117413
    },
    {
      "id": 133145,
      "geometry": "POINT (-78.353895 35.244796)",
      "poi_name": "Taqueria Mexicana Angel",
      "osm_id": 9981993108,
      "amenity": "restaurant",
      "cuisine": "mexican",
      "opening_hours": "Mo-Su 09:30-21:00",
      "website": "https://taqueria-mexicana-angel.business.site/",
      "phone": "+19105941926",
      "addr_state": "NC",
      "addr_city": "Newton Grove",
      "addr_postcode": "28366",
      "addr_street": "Clinton Street",
      "addr_housenumber": "106",
      "value": 136.72600326117413
    },
    {
      "id": 134376,
      "geometry": "POINT (-77.461876 34.751722)",
      "poi_name": "Mi Caba\u00f1a",
      "osm_id": 11466220524,
      "amenity": "restaurant",
      "cuisine": "mexican",
      "wheelchair": "yes",
      "opening_hours": "Mo-Sa 11:00-22:30; Su 11:00-21:00",
      "takeaway": "yes",
      "outdoor_seating": "yes",
      "addr_state": "NC",
      "addr_street": "Yopp Road",
      "value": 136.72600326117413
    },
    {
      "id": 134992,
      "geometry": "POINT (-78.634199 35.788866)",
      "poi_name": "Jolie",
      "osm_id": 11500412490,
      "amenity": "restaurant",
      "cuisine": "french",
      "website": "https://restaurantjolie.com/",
      "addr_state": "NC",
      "addr_city": "Raleigh",
      "addr_postcode": "27604",
      "addr_street": "North Person Street",
      "addr_housenumber": "620",
      "value": 136.72600326117413
    },
    {
      "id": 134993,
      "geometry": "POINT (-78.634526 35.789153)",
      "poi_name": "The Station at Person Street",
      "osm_id": 11500412491,
      "amenity": "restaurant",
      "website": "https://stationraleigh.com/",
      "addr_state": "NC",
      "addr_city": "Raleigh",
      "addr_postcode": "27604",
      "addr_street": "North Person Street",
      "addr_housenumber": "701",
      "value": 136.72600326117413
    },
    {
      "id": 134994,
      "geometry": "POINT (-78.634199 35.789066)",
      "poi_name": "(ish) delicatessen",
      "osm_id": 11500412492,
      "amenity": "restaurant",
      "website": "https://www.ishdelicatessen.com/",
      "addr_state": "NC",
      "addr_city": "Raleigh",
      "addr_postcode": "27604",
      "addr_street": "North Person Street",
      "addr_housenumber": "702",
      "value": 136.72600326117413
    },
    {
      "id": 134995,
      "geometry": "POINT (-78.6351 35.790356)",
      "poi_name": "Standard Beer + Food",
      "osm_id": 11500412493,
      "amenity": "restaurant",
      "website": "https://standardbeerandfood.com/",
      "phone": "+1 (919) 322-1499",
      "addr_state": "NC",
      "addr_city": "Raleigh",
      "addr_postcode": "27604",
      "addr_street": "East Franklin Street",
      "addr_housenumber": "205",
      "value": 136.72600326117413
    },
    {
      "id": 145182,
      "geometry": "POINT (-78.451869 35.642867)",
      "poi_name": "Don Beto's Tacos",
      "osm_id": 7323147838,
      "amenity": "restaurant",
      "opening_hours": "Mo-Th, Su 08:00-21:00; Fr, Sa 08:00-22:00",
      "phone": "9193590095",
      "addr_state": "NC",
      "addr_city": "Clayton",
      "addr_postcode": "27520",
      "addr_street": "US 70 Business",
      "addr_housenumber": "10376",
      "value": 136.72600326117413
    },
    {
      "id": 138886,
      "geometry": "POINT (-78.64216 35.776772)",
      "poi_name": "Whiskey Kitchen",
      "osm_id": 6173340585,
      "amenity": "restaurant",
      "website": "https://www.whiskey.kitchen/",
      "phone": "919-803-3181",
      "addr_state": "NC",
      "addr_city": "Raleigh",
      "addr_postcode": "27601",
      "addr_street": "West Martin Street",
      "addr_housenumber": "201",
      "value": 136.72600326117413
    },
    {
      "id": 144212,
      "geometry": "POINT (-78.1653 35.566973)",
      "poi_name": "Lowell Mill Restaurant",
      "osm_id": 7250308451,
      "amenity": "restaurant",
      "phone": "(919) 284-5141",
      "addr_state": "NC",
      "addr_city": "Kenly",
      "addr_postcode": "27542",
      "addr_street": "Lowell Mill Road",
      "addr_housenumber": "595",
      "value": 136.72600326117413
    },
    {
      "id": 144904,
      "geometry": "POINT (-78.47133 35.652688)",
      "poi_name": "Flipping Wings",
      "osm_id": 7293681914,
      "amenity": "restaurant",
      "cuisine": "chicken",
      "addr_state": "NC",
      "addr_city": "Clayton",
      "addr_postcode": "27520",
      "addr_street": "US 70 Business West",
      "addr_housenumber": "11466",
      "value": 136.72600326117413
    },
    {
      "id": 145139,
      "geometry": "POINT (-78.623926 35.717231)",
      "poi_name": "Angie\u2019s Restaurant",
      "osm_id": 7318217989,
      "amenity": "restaurant",
      "phone": "(919) 661-6707",
      "addr_state": "NC",
      "addr_city": "Garner",
      "addr_postcode": "27529",
      "addr_street": "West Garner Road",
      "addr_housenumber": "1340",
      "value": 136.72600326117413
    },
    {
      "id": 138935,
      "geometry": "POINT (-78.553273 35.515474)",
      "poi_name": "Waffle House",
      "osm_id": 6175093898,
      "amenity": "restaurant",
      "cuisine": "american",
      "opening_hours": "24/7",
      "phone": "+19842858670",
      "addr_state": "NC",
      "addr_city": "Benson",
      "addr_postcode": "27504",
      "addr_street": "NC-210",
      "addr_housenumber": "11925",
      "value": 136.72600326117413
    },
    {
      "id": 141569,
      "geometry": "POINT (-77.547064 34.892559)",
      "poi_name": "Main Moon",
      "osm_id": 6290383246,
      "amenity": "restaurant",
      "cuisine": "chinese",
      "phone": "+19103242125",
      "outdoor_seating": "no",
      "addr_city": "Richlands",
      "addr_postcode": "28574",
      "addr_street": "Richlands Highway",
      "addr_housenumber": "8114",
      "value": 136.72600326117413
    },
    {
      "id": 145625,
      "geometry": "POINT (-78.532844 35.567234)",
      "poi_name": "Great China",
      "osm_id": 7373864200,
      "amenity": "restaurant",
      "cuisine": "chinese",
      "phone": "+19199341997",
      "addr_state": "NC",
      "addr_city": "Clayton",
      "addr_postcode": "27520",
      "addr_street": "Cleveland Road",
      "addr_housenumber": "9149",
      "value": 136.72600326117413
    },
    {
      "id": 145452,
      "geometry": "POINT (-78.017449 35.399822)",
      "poi_name": "Dee's Diner",
      "osm_id": 7359038618,
      "amenity": "restaurant",
      "phone": "(919) 736-3665",
      "addr_state": "NC",
      "addr_city": "Goldsboro",
      "addr_postcode": "27530",
      "addr_street": "West Grantham Street",
      "addr_housenumber": "1314",
      "value": 136.72600326117413
    },
    {
      "id": 145453,
      "geometry": "POINT (-78.017746 35.399856)",
      "poi_name": "Fit 2 Eat Llc",
      "osm_id": 7359038619,
      "amenity": "restaurant",
      "phone": "(919) 735-0285",
      "addr_state": "NC",
      "addr_city": "Goldsboro",
      "addr_postcode": "27530",
      "addr_street": "West Grantham Street",
      "addr_housenumber": "1316",
      "value": 136.72600326117413
    },
    {
      "id": 145826,
      "geometry": "POINT (-78.667104 35.787695)",
      "poi_name": "Coco Bongo",
      "osm_id": 7392184698,
      "amenity": "restaurant",
      "cuisine": "mexican",
      "addr_state": "NC",
      "addr_city": "Raleigh",
      "addr_postcode": "27607",
      "addr_street": "Hillsborough Street",
      "addr_housenumber": "2400",
      "value": 136.72600326117413
    },
    {
      "id": 146005,
      "geometry": "POINT (-78.620687 35.828108)",
      "poi_name": "Bahama Breeze",
      "osm_id": 7406320368,
      "amenity": "restaurant",
      "cuisine": "caribbean",
      "official_name": "Bahama Breeze Island Grille",
      "addr_state": "NC",
      "addr_city": "Raleigh",
      "addr_postcode": "27609",
      "addr_street": "Wake Forest Road",
      "addr_housenumber": "3309",
      "value": 136.72600326117413
    },
    {
      "id": 146105,
      "geometry": "POINT (-77.624879 34.646152)",
      "poi_name": "Seahorse Ranch Grill",
      "osm_id": 7412460219,
      "amenity": "restaurant",
      "phone": "(910) 346-3558",
      "addr_state": "NC",
      "addr_city": "Maple Hill",
      "addr_postcode": "28454",
      "addr_street": "NC-50",
      "addr_housenumber": "24205",
      "value": 136.72600326117413
    },
    {
      "id": 146224,
      "geometry": "POINT (-77.782564 35.302301)",
      "poi_name": "Little J's Pizza & Subs",
      "osm_id": 7421531242,
      "amenity": "restaurant",
      "cuisine": "pizza",
      "phone": "(252) 566-5044",
      "addr_state": "NC",
      "addr_city": "La Grange",
      "addr_postcode": "28551",
      "addr_street": "East Washington Street",
      "addr_housenumber": "402",
      "value": 136.72600326117413
    },
    {
      "id": 146225,
      "geometry": "POINT (-77.783237 35.302537)",
      "poi_name": "Jin Jin Chinese Restaurant",
      "osm_id": 7421531244,
      "amenity": "restaurant",
      "cuisine": "chinese",
      "phone": "(252) 566-8828",
      "addr_state": "NC",
      "addr_city": "La Grange",
      "addr_postcode": "28551",
      "addr_street": "East Washington Street",
      "addr_housenumber": "304",
      "value": 136.72600326117413
    },
    {
      "id": 146226,
      "geometry": "POINT (-77.787249 35.304771)",
      "poi_name": "Murray's Restaurant",
      "osm_id": 7421531249,
      "amenity": "restaurant",
      "phone": "(252) 566-4161",
      "addr_state": "NC",
      "addr_city": "La Grange",
      "addr_postcode": "28551",
      "addr_street": "East Washington Street",
      "addr_housenumber": "123",
      "value": 136.72600326117413
    },
    {
      "id": 146227,
      "geometry": "POINT (-77.788809 35.305381)",
      "poi_name": "Dos Marias Grill & Cantina",
      "osm_id": 7421531253,
      "amenity": "restaurant",
      "cuisine": "mexican",
      "phone": "(252) 566-0111",
      "addr_state": "NC",
      "addr_city": "La Grange",
      "addr_postcode": "28551",
      "addr_street": "South Caswell Street",
      "addr_housenumber": "131",
      "value": 136.72600326117413
    },
    {
      "id": 146469,
      "geometry": "POINT (-77.474679 34.755153)",
      "poi_name": "Golden China Restaurant",
      "osm_id": 7446734734,
      "amenity": "restaurant",
      "phone": "(910) 346-2300",
      "addr_state": "NC",
      "addr_city": "Jacksonville",
      "addr_postcode": "28540",
      "addr_street": "Richlands Highway",
      "addr_housenumber": "3085",
      "value": 136.72600326117413
    },
    {
      "id": 148336,
      "geometry": "POINT (-77.094403 35.098634)",
      "poi_name": "A&J",
      "osm_id": 3946697886,
      "amenity": "restaurant",
      "addr_state": "NC",
      "addr_city": "New Bern",
      "addr_postcode": "28562",
      "addr_street": "Dr. M. L. King Jr. Boulevard",
      "addr_housenumber": "3317",
      "value": 136.72600326117413
    },
    {
      "id": 148339,
      "geometry": "POINT (-77.104433 35.095869)",
      "poi_name": "Moore's Bar-B-Que",
      "osm_id": 3946697905,
      "amenity": "restaurant",
      "website": "http://www.mooresbarbeque.com",
      "phone": "+12526383937",
      "addr_state": "NC",
      "addr_city": "New Bern",
      "addr_postcode": "28562",
      "addr_street": "Dr. M. L. King Jr. Boulevard",
      "addr_housenumber": "3711",
      "value": 136.72600326117413
    },
    {
      "id": 151905,
      "geometry": "POINT (-77.846189 35.226432)",
      "poi_name": "Seven Springs Restaurant",
      "osm_id": 4119120393,
      "amenity": "restaurant",
      "cuisine": "regional",
      "addr_state": "NC",
      "addr_city": "Seven Springs",
      "addr_postcode": "28578",
      "addr_street": "Main Street",
      "addr_housenumber": "400",
      "value": 136.72600326117413
    },
    {
      "id": 148366,
      "geometry": "POINT (-77.096698 35.099987)",
      "poi_name": "Applebee's",
      "osm_id": 3948764791,
      "amenity": "restaurant",
      "cuisine": "american",
      "official_name": "Applebee's Neighborhood Grill & Bar",
      "addr_state": "NC",
      "value": 136.72600326117413
    },
    {
      "id": 153123,
      "geometry": "POINT (-78.663149 35.790294)",
      "poi_name": "Tupelo Honey Cafe",
      "osm_id": 4177433961,
      "amenity": "restaurant",
      "cuisine": "regional",
      "opening_hours": "Mo-Fr 11:00-21:00; Sa,Su 09:00-21:00",
      "outdoor_seating": "yes",
      "addr_state": "NC",
      "addr_city": "Raleigh",
      "addr_postcode": "27605",
      "addr_street": "Oberlin Road",
      "addr_housenumber": "425",
      "value": 136.72600326117413
    },
    {
      "id": 177610,
      "geometry": "POINT (-78.345921 35.572145)",
      "poi_name": "White Swan BBQ",
      "osm_id": 2596933258,
      "amenity": "restaurant",
      "opening_hours": "Mo-Fr 06:00-20:00; Sa 09:00-20:00",
      "phone": "9199896500",
      "addr_state": "NC",
      "addr_city": "Smithfield",
      "addr_postcode": "27577",
      "addr_street": "Wilson's Mills Rd",
      "addr_housenumber": "3655",
      "value": 136.72600326117413
    },
    {
      "id": 155697,
      "geometry": "POINT (-78.670398 35.668944)",
      "poi_name": "Tavern on The Green at Eagle Ridge",
      "osm_id": 4297118917,
      "amenity": "restaurant",
      "website": "http://www.totgeagleridge.com/",
      "phone": "+1 919 977 8094",
      "addr_state": "NC",
      "addr_city": "Raleigh",
      "addr_postcode": "27603",
      "addr_street": "Competition Road",
      "addr_housenumber": "565",
      "value": 136.72600326117413
    },
    {
      "id": 158004,
      "geometry": "POINT (-77.581964 35.261389)",
      "poi_name": "Chef and the Farmer",
      "osm_id": 4732462129,
      "amenity": "restaurant",
      "cuisine": "regional",
      "opening_hours": "Mo-Th 17:00-21:30, Fr-Sa 17:00-22:30",
      "website": "https://www.vivianhoward.com/",
      "phone": "+1 252 2082433",
      "addr_state": "NC",
      "addr_city": "Kinston",
      "addr_postcode": "28501",
      "addr_street": "West Gordon Street",
      "addr_housenumber": "120",
      "value": 136.72600326117413
    },
    {
      "id": 158021,
      "geometry": "POINT (-78.696523 35.815147)",
      "poi_name": "Guasaca",
      "osm_id": 4732773322,
      "amenity": "restaurant",
      "cuisine": "arepa",
      "opening_hours": "Mo-Su 11:00-21:00",
      "website": "https://guasaca.com",
      "phone": "919-322-4928",
      "addr_state": "NC",
      "addr_postcode": "27612",
      "addr_street": "Lake Boone Trail",
      "addr_housenumber": "4025",
      "value": 136.72600326117413
    },
    {
      "id": 164240,
      "geometry": "POINT (-78.667476 35.787787)",
      "poi_name": "Kabab And Curry",
      "osm_id": 9458735315,
      "amenity": "restaurant",
      "cuisine": "indian",
      "opening_hours": "Mo-Su 11:30-22:00",
      "website": "https://kababandcurrync.com",
      "phone": "919-977-6974",
      "addr_state": "NC",
      "addr_city": "Raleigh",
      "addr_postcode": "27607",
      "addr_street": "Hillsborough Street",
      "addr_housenumber": "2412",
      "value": 136.72600326117413
    },
    {
      "id": 176668,
      "geometry": "POINT (-78.63657 35.775643)",
      "poi_name": "El Rodeo Mexican Restaurant",
      "osm_id": 2566377007,
      "amenity": "restaurant",
      "cuisine": "mexican",
      "website": "https://elrodeonc.com/downtown-raleigh/locations/",
      "phone": "(919) 829-0777",
      "addr_state": "NC",
      "addr_city": "Raleigh",
      "addr_postcode": "27601",
      "addr_street": "South Blount Street",
      "addr_housenumber": "329",
      "value": 136.72600326117413
    },
    {
      "id": 163681,
      "geometry": "POINT (-78.260833 35.487844)",
      "poi_name": "Brothers Italian Kitchen",
      "osm_id": 9429738502,
      "amenity": "restaurant",
      "phone": "+19842133012",
      "addr_state": "NC",
      "addr_city": "Smithfield",
      "addr_postcode": "27577",
      "addr_street": "US Highway 70 East",
      "addr_housenumber": "3103",
      "value": 136.72600326117413
    },
    {
      "id": 166084,
      "geometry": "POINT (-77.112239 35.095983)",
      "poi_name": "Gardner's Barbecue",
      "osm_id": 9572940341,
      "amenity": "restaurant",
      "phone": "+12526336149",
      "addr_state": "NC",
      "addr_city": "New Bern",
      "addr_postcode": "28560",
      "addr_street": "M L King Jr Boulevard",
      "addr_housenumber": "3820",
      "value": 136.72600326117413
    },
    {
      "id": 179221,
      "geometry": "POINT (-78.041837 35.270475)",
      "poi_name": "This and That Ice Cream Parlor",
      "osm_id": 10753680470,
      "amenity": "restaurant",
      "opening_hours": "Tu-Sa 12:00-20:00",
      "phone": "+19199470199",
      "addr_state": "NC",
      "addr_city": "Dudley",
      "addr_postcode": "28333",
      "addr_street": "US-117",
      "addr_housenumber": "4396",
      "value": 136.72600326117413
    },
    {
      "id": 178163,
      "geometry": "POINT (-78.309798 34.997419)",
      "poi_name": "El Campo Restaurant & Grill",
      "osm_id": 10716450248,
      "amenity": "restaurant",
      "phone": "+19104901090",
      "addr_state": "NC",
      "addr_city": "Clinton",
      "addr_postcode": "28328",
      "addr_street": "Warsaw Road",
      "addr_housenumber": "416",
      "value": 136.72600326117413
    },
    {
      "id": 178680,
      "geometry": "POINT (-78.498237 35.665008)",
      "poi_name": "Eggs Up Grill",
      "osm_id": 10735545199,
      "amenity": "restaurant",
      "wheelchair": "yes",
      "opening_hours": "Mo-Su 06:00-14:00",
      "phone": "(240) 665-1346",
      "addr_state": "NC",
      "addr_city": "Clayton",
      "addr_postcode": "27520",
      "addr_street": "US 70 Business",
      "addr_housenumber": "12965",
      "value": 136.72600326117413
    },
    {
      "id": 179222,
      "geometry": "POINT (-78.041263 35.272288)",
      "poi_name": "JEREZ Mexican Restaurant",
      "osm_id": 10753680472,
      "amenity": "restaurant",
      "cuisine": "mexican",
      "opening_hours": "Mo 09:00-19:00; We-Th 09:00-19:00; Fr-Su 09:00-20:00",
      "phone": "+19193946414",
      "addr_state": "NC",
      "addr_city": "Dudley",
      "addr_postcode": "28333",
      "addr_street": "US-117 Alt",
      "addr_housenumber": "4348",
      "value": 136.72600326117413
    },
    {
      "id": 179849,
      "geometry": "POINT (-77.764646 34.921642)",
      "poi_name": "Country Smokehouse",
      "osm_id": 10779701919,
      "amenity": "restaurant",
      "phone": "+19102984448",
      "addr_state": "NC",
      "addr_city": "Beulaville",
      "addr_postcode": "28518",
      "addr_street": "East Main Street",
      "addr_housenumber": "812",
      "value": 136.72600326117413
    },
    {
      "id": 179739,
      "geometry": "POINT (-78.078138 35.000907)",
      "poi_name": "Peggy's Kitchen Table",
      "osm_id": 10776727731,
      "amenity": "restaurant",
      "phone": "(910) 293-3000",
      "addr_state": "NC",
      "addr_city": "Warsaw",
      "addr_postcode": "28398",
      "addr_street": "Kenansville Highway",
      "addr_housenumber": "138",
      "value": 136.72600326117413
    },
    {
      "id": 179740,
      "geometry": "POINT (-78.075514 35.000536)",
      "poi_name": "Blands Barbecue",
      "osm_id": 10776727733,
      "amenity": "restaurant",
      "phone": "(910) 293-4233",
      "addr_state": "NC",
      "addr_city": "Warsaw",
      "addr_postcode": "28398",
      "addr_street": "Kenansville Highway",
      "addr_housenumber": "175",
      "value": 136.72600326117413
    },
    {
      "id": 179851,
      "geometry": "POINT (-77.960634 34.963138)",
      "poi_name": "Granny\u2019s Kitchen",
      "osm_id": 10779780972,
      "amenity": "restaurant",
      "phone": "+19102751855",
      "addr_state": "NC",
      "addr_city": "Kenansville",
      "addr_postcode": "28349",
      "addr_street": "North Main Street",
      "addr_housenumber": "306",
      "value": 136.72600326117413
    },
    {
      "id": 179777,
      "geometry": "POINT (-77.550342 34.899236)",
      "poi_name": "Camino Real Mexican restaurant",
      "osm_id": 10778689982,
      "amenity": "restaurant",
      "cuisine": "mexican",
      "phone": "+19104300869",
      "addr_state": "NC",
      "addr_city": "Richlands",
      "addr_postcode": "28574",
      "addr_street": "Richlands Highway",
      "addr_housenumber": "8500",
      "value": 136.72600326117413
    },
    {
      "id": 179780,
      "geometry": "POINT (-77.557053 34.903601)",
      "poi_name": "Pizza Hut",
      "osm_id": 10778689989,
      "amenity": "restaurant",
      "cuisine": "pizza",
      "phone": "+19103242688",
      "addr_state": "NC",
      "addr_city": "Richlands",
      "addr_postcode": "28574",
      "addr_street": "Richlands Highway",
      "addr_housenumber": "9003",
      "value": 136.72600326117413
    },
    {
      "id": 179852,
      "geometry": "POINT (-77.961904 34.962592)",
      "poi_name": "Tokyo Sunrise",
      "osm_id": 10779780973,
      "amenity": "restaurant",
      "phone": "+19102969990",
      "addr_state": "NC",
      "addr_city": "Kenansville",
      "addr_postcode": "28349",
      "addr_street": "Front Street",
      "addr_housenumber": "110",
      "value": 136.72600326117413
    },
    {
      "id": 181140,
      "geometry": "POINT (-78.328434 35.515747)",
      "poi_name": "815 Gourmet Grill",
      "osm_id": 10833919723,
      "amenity": "restaurant",
      "opening_hours": "Tu-We 11:00-19:00 Fr-Sa 11:00-21:00 Su 12:00-17:00",
      "phone": "+19192051841",
      "addr_state": "NC",
      "addr_city": "Smithfield",
      "addr_postcode": "27577",
      "addr_street": "North Brightleaf Boulevard",
      "addr_housenumber": "721",
      "value": 136.72600326117413
    },
    {
      "id": 180748,
      "geometry": "POINT (-77.919425 34.561369)",
      "poi_name": "MeMa's Chick'n' & Ribs",
      "osm_id": 10816493213,
      "amenity": "restaurant",
      "phone": "+19103006139",
      "addr_state": "NC",
      "addr_city": "Burgaw",
      "addr_postcode": "28425",
      "addr_street": "US-117",
      "addr_housenumber": "602",
      "value": 136.72600326117413
    },
    {
      "id": 180751,
      "geometry": "POINT (-77.919066 34.558171)",
      "poi_name": "El Mariachi in Burgaw NC",
      "osm_id": 10816493221,
      "amenity": "restaurant",
      "cuisine": "mexican",
      "phone": "+19103006362",
      "addr_state": "NC",
      "addr_city": "Burgaw",
      "addr_postcode": "28425",
      "addr_street": "US-117 Bypass North",
      "addr_housenumber": "409",
      "value": 136.72600326117413
    },
    {
      "id": 181036,
      "geometry": "POINT (-78.32401 34.998393)",
      "poi_name": "Gracie's Grill",
      "osm_id": 10830379334,
      "amenity": "restaurant",
      "phone": "+19105927782",
      "addr_state": "NC",
      "addr_city": "Clinton",
      "addr_postcode": "28328",
      "addr_street": "Vance Street",
      "addr_housenumber": "123",
      "value": 136.72600326117413
    },
    {
      "id": 181037,
      "geometry": "POINT (-78.323751 34.998596)",
      "poi_name": "Taqueria Romero's",
      "osm_id": 10830379342,
      "amenity": "restaurant",
      "cuisine": "mexican",
      "phone": "+19105928300",
      "addr_state": "NC",
      "addr_city": "Clinton",
      "addr_postcode": "28328",
      "addr_street": "Vance Street",
      "addr_housenumber": "207",
      "value": 136.72600326117413
    },
    {
      "id": 184296,
      "geometry": "POINT (-77.959773 35.265243)",
      "poi_name": "Grady\u2019s Bar-B-Q",
      "osm_id": 7779762885,
      "amenity": "restaurant",
      "opening_hours": "We-Fr 10:00-15:00; Sa 10:00-16:00",
      "phone": "(919) 735-7243",
      "addr_state": "NC",
      "addr_city": "Dudley",
      "addr_postcode": "28333",
      "addr_street": "Arrington Bridge Road",
      "addr_housenumber": "3096",
      "value": 136.72600326117413
    },
    {
      "id": 184439,
      "geometry": "POINT (-77.951874 35.374698)",
      "poi_name": "Jay\u2019s Kitchen",
      "osm_id": 7791170104,
      "amenity": "restaurant",
      "phone": "+19197513322",
      "addr_state": "NC",
      "addr_city": "Goldsboro",
      "addr_street": "North Spence Avenue",
      "addr_housenumber": "330",
      "value": 136.72600326117413
    },
    {
      "id": 187056,
      "geometry": "POINT (-78.634208 35.788815)",
      "poi_name": "Crawford and Son",
      "osm_id": 7967845005,
      "amenity": "restaurant",
      "cuisine": "american",
      "phone": "+19193074647",
      "addr_state": "NC",
      "addr_city": "Raleigh",
      "addr_postcode": "27604",
      "addr_street": "North Person Street",
      "addr_housenumber": "618",
      "value": 136.72600326117413
    },
    {
      "id": 186994,
      "geometry": "POINT (-78.357416 35.582613)",
      "poi_name": "Taqueria lo que sea",
      "osm_id": 7964578911,
      "amenity": "restaurant",
      "cuisine": "mexican",
      "opening_hours": "Mo-Fr 07:00-20:00; Sa 08:00-20:00",
      "phone": "(919) 209-9795",
      "addr_state": "NC",
      "addr_city": "Smithfield",
      "addr_postcode": "27577",
      "addr_street": "Fire Department Road",
      "addr_housenumber": "21 A",
      "value": 136.72600326117413
    },
    {
      "id": 187057,
      "geometry": "POINT (-78.471406 35.652766)",
      "poi_name": "Tacos Y Burritos California",
      "osm_id": 7968079990,
      "amenity": "restaurant",
      "cuisine": "mexican",
      "phone": "+19195852736",
      "addr_state": "NC",
      "addr_city": "Clayton",
      "addr_postcode": "27520",
      "addr_street": "US-70 Business",
      "addr_housenumber": "11526",
      "value": 136.72600326117413
    },
    {
      "id": 187100,
      "geometry": "POINT (-77.821286 35.212738)",
      "poi_name": "Crossroads Bar & Grill",
      "osm_id": 7972244988,
      "amenity": "restaurant",
      "opening_hours": "Mo-Su 08:00-02:15",
      "phone": "+12525691321",
      "addr_state": "NC",
      "addr_city": "Seven Springs",
      "addr_postcode": "28578",
      "addr_street": "NC-55",
      "addr_housenumber": "8136",
      "value": 136.72600326117413
    },
    {
      "id": 187101,
      "geometry": "POINT (-77.674285 35.216272)",
      "poi_name": "Vance Country Kitchen",
      "osm_id": 7972244991,
      "amenity": "restaurant",
      "phone": "+12522081158",
      "addr_state": "NC",
      "addr_city": "Kinston",
      "addr_postcode": "28504",
      "addr_street": "NC-55",
      "addr_housenumber": "3601",
      "value": 136.72600326117413
    },
    {
      "id": 187104,
      "geometry": "POINT (-77.578898 35.260074)",
      "poi_name": "Irie Eats",
      "osm_id": 7972263621,
      "amenity": "restaurant",
      "phone": "+12526866824",
      "addr_state": "NC",
      "addr_city": "Kinston",
      "addr_postcode": "28501",
      "addr_street": "East Caswell Street",
      "addr_housenumber": "203",
      "value": 136.72600326117413
    },
    {
      "id": 189140,
      "geometry": "POINT (-78.645625 35.782598)",
      "poi_name": "Clouds Brewing",
      "osm_id": 1216186186,
      "amenity": "restaurant",
      "cuisine": "german",
      "phone": "+1-919-307-8335",
      "addr_state": "NC",
      "addr_city": "Raleigh",
      "addr_postcode": "27603",
      "addr_street": "North West Street",
      "addr_housenumber": "126",
      "value": 136.72600326117413
    },
    {
      "id": 187329,
      "geometry": "POINT (-78.636436 35.776366)",
      "poi_name": "Woody's at City Market",
      "osm_id": 1055457691,
      "amenity": "restaurant",
      "opening_hours": "Mo-Su 11:00-02:00",
      "website": "http://woodyscitymarket.com/",
      "outdoor_seating": "yes",
      "addr_state": "NC",
      "addr_city": "Raleigh",
      "addr_postcode": "27601",
      "addr_street": "Wolfe Street",
      "addr_housenumber": "205",
      "value": 136.72600326117413
    },
    {
      "id": 188649,
      "geometry": "POINT (-78.707419 35.825157)",
      "poi_name": "Bella Monica",
      "osm_id": 1171616242,
      "amenity": "restaurant",
      "cuisine": "italian",
      "website": "https://www.bellamonica.com",
      "phone": "+19198819778",
      "addr_state": "NC",
      "addr_postcode": "27612",
      "addr_street": "Edwards Mill Road",
      "addr_housenumber": "3121",
      "value": 136.72600326117413
    },
    {
      "id": 189145,
      "geometry": "POINT (-78.650629 35.787254)",
      "poi_name": "My Way Tavern",
      "osm_id": 1216186384,
      "amenity": "restaurant",
      "opening_hours": "Mo-Su 11:00-00:00",
      "website": "http://www.mywaytavern.com/raleigh",
      "addr_state": "NC",
      "addr_city": "Raleigh",
      "addr_postcode": "27603",
      "addr_street": "Saint Marys Street",
      "addr_housenumber": "522",
      "value": 136.72600326117413
    },
    {
      "id": 189148,
      "geometry": "POINT (-78.650404 35.788411)",
      "poi_name": "San Marcos Pizza and Wings",
      "osm_id": 1216186410,
      "amenity": "restaurant",
      "cuisine": "pizza;american",
      "addr_state": "NC",
      "addr_city": "Raleigh",
      "addr_postcode": "27605",
      "addr_street": "West Peace Street",
      "addr_housenumber": "805",
      "value": 136.72600326117413
    },
    {
      "id": 189149,
      "geometry": "POINT (-78.647497 35.7861)",
      "poi_name": "Armadillo Grill",
      "osm_id": 1216186416,
      "amenity": "restaurant",
      "cuisine": "mexican",
      "website": "https://armadillogrill.com/",
      "phone": "+1 919 5460555",
      "addr_state": "NC",
      "addr_postcode": "27603",
      "addr_street": "Glenwood Avenue",
      "addr_housenumber": "439",
      "value": 136.72600326117413
    },
    {
      "id": 194416,
      "geometry": "POINT (-77.752854 35.28154)",
      "poi_name": "Ken's Grill & NC Barbecue",
      "osm_id": 10272081701,
      "amenity": "restaurant",
      "phone": "+12525664765",
      "addr_state": "NC",
      "addr_city": "Kinston",
      "addr_postcode": "28551",
      "addr_street": "US-70",
      "addr_housenumber": "7645",
      "value": 136.72600326117413
    },
    {
      "id": 192697,
      "geometry": "POINT (-77.043205 35.107283)",
      "poi_name": "Savage's Wood Burning Pizzeria",
      "osm_id": 1474252348,
      "amenity": "restaurant",
      "cuisine": "pizza",
      "phone": "+12526720103",
      "addr_state": "NC",
      "addr_city": "New Bern",
      "addr_postcode": "28562",
      "addr_street": "Metcalf Street",
      "addr_housenumber": "303",
      "value": 136.72600326117413
    },
    {
      "id": 194374,
      "geometry": "POINT (-78.064628 35.430718)",
      "poi_name": "Sakuri Express",
      "osm_id": 10270749174,
      "amenity": "restaurant",
      "phone": "(919) 583-8899",
      "addr_state": "NC",
      "addr_city": "Goldsboro",
      "addr_postcode": "27530",
      "addr_street": "US-70 West",
      "addr_housenumber": "2924",
      "value": 136.72600326117413
    },
    {
      "id": 194383,
      "geometry": "POINT (-78.064302 35.430955)",
      "poi_name": "Dos Marias Grill & Cantina",
      "osm_id": 10270792567,
      "amenity": "restaurant",
      "cuisine": "mexican",
      "phone": "(919) 583-5231",
      "addr_state": "NC",
      "addr_city": "Goldsboro",
      "addr_postcode": "27530",
      "addr_street": "Us Highway 70 West",
      "addr_housenumber": "2920",
      "value": 136.72600326117413
    },
    {
      "id": 194386,
      "geometry": "POINT (-77.77601 35.490438)",
      "poi_name": "The Happy Plate Restaurant & Catering",
      "osm_id": 10270809091,
      "amenity": "restaurant",
      "phone": "(252) 286-0902",
      "addr_state": "NC",
      "addr_city": "Snow Hill",
      "addr_postcode": "28580",
      "addr_street": "Fort Run Road",
      "addr_housenumber": "3034",
      "value": 136.72600326117413
    },
    {
      "id": 194457,
      "geometry": "POINT (-78.630588 35.807864)",
      "poi_name": "J Betski's",
      "osm_id": 10274387056,
      "amenity": "restaurant",
      "phone": "+19198030008",
      "addr_state": "NC",
      "addr_city": "Raleigh",
      "addr_postcode": "27608",
      "addr_street": "Bernard Street",
      "addr_housenumber": "1916",
      "value": 136.72600326117413
    },
    {
      "id": 194458,
      "geometry": "POINT (-78.630366 35.807655)",
      "poi_name": "Taste, Small Plates & Wine Bar",
      "osm_id": 10274387057,
      "amenity": "restaurant",
      "phone": "+19193220568",
      "addr_state": "NC",
      "addr_city": "Raleigh",
      "addr_postcode": "27608",
      "addr_street": "Bernard Street",
      "addr_housenumber": "1912",
      "value": 136.72600326117413
    },
    {
      "id": 194459,
      "geometry": "POINT (-78.630618 35.807335)",
      "poi_name": "High Park Bar & Grill",
      "osm_id": 10274387059,
      "amenity": "restaurant",
      "phone": "+19198334527",
      "addr_state": "NC",
      "addr_city": "Raleigh",
      "addr_postcode": "27608",
      "addr_street": "East Whitaker Mill Road",
      "addr_housenumber": "625",
      "value": 136.72600326117413
    },
    {
      "id": 191966,
      "geometry": "POINT (-78.660738 35.791264)",
      "poi_name": "The Village Deli",
      "osm_id": 1411329841,
      "amenity": "restaurant",
      "cuisine": "sandwich",
      "opening_hours": "Mo-Fr 11:00-21:00; Sa 08:00-21:00; Su 11:00-16; 00",
      "website": "https://www.villagedeli.net/locations/cameron-village-raleigh-nc",
      "phone": "+19198281428",
      "addr_state": "NC",
      "addr_city": "Raleigh",
      "addr_postcode": "27605",
      "addr_street": "Daniels Street",
      "addr_housenumber": "500",
      "value": 136.72600326117413
    },
    {
      "id": 191968,
      "geometry": "POINT (-78.675503 35.779548)",
      "poi_name": "Baja Burrito",
      "osm_id": 1411329848,
      "amenity": "restaurant",
      "cuisine": "mexican",
      "opening_hours": "Su 11:30-21:00; Mo-Sa 11:00-21:00",
      "addr_state": "NC",
      "addr_city": "Raleigh",
      "addr_postcode": "27606",
      "addr_street": "Avent Ferry Road",
      "addr_housenumber": "2109",
      "value": 136.72600326117413
    },
    {
      "id": 194628,
      "geometry": "POINT (-77.739315 35.06449)",
      "poi_name": "Jo's Cafe",
      "osm_id": 10279076323,
      "amenity": "restaurant",
      "phone": "(252) 568-1248",
      "addr_state": "NC",
      "addr_city": "Pink Hill",
      "addr_postcode": "27572",
      "addr_street": "North Kinston Boulevard",
      "addr_housenumber": "709",
      "value": 136.72600326117413
    },
    {
      "id": 194467,
      "geometry": "POINT (-77.885588 35.166143)",
      "poi_name": "Pricetown Corner Grill and Hardware, LLC",
      "osm_id": 10274683752,
      "amenity": "restaurant",
      "phone": "(919) 658-5007",
      "addr_state": "NC",
      "addr_city": "Seven Springs",
      "addr_postcode": "28578",
      "addr_street": "NC-111",
      "addr_housenumber": "5406",
      "value": 136.72600326117413
    },
    {
      "id": 194477,
      "geometry": "POINT (-77.884784 35.083554)",
      "poi_name": "Johnny's Seafood",
      "osm_id": 10275400093,
      "amenity": "restaurant",
      "addr_state": "NC",
      "addr_city": "Mt Olive",
      "addr_postcode": "28365",
      "addr_street": "Red Hill Road",
      "addr_housenumber": "1239",
      "value": 136.72600326117413
    },
    {
      "id": 194479,
      "geometry": "POINT (-78.313006 34.998028)",
      "poi_name": "Lydia's Grill",
      "osm_id": 10275400095,
      "amenity": "restaurant",
      "phone": "(910) 592-6343",
      "addr_state": "NC",
      "addr_city": "Warsaw",
      "addr_postcode": "28365",
      "addr_street": "East Morisey Boulevard",
      "addr_housenumber": "426",
      "value": 136.72600326117413
    },
    {
      "id": 194629,
      "geometry": "POINT (-77.665425 35.197713)",
      "poi_name": "Fat Baby's Country Cooking",
      "osm_id": 10279106904,
      "amenity": "restaurant",
      "phone": "(252) 527-9779",
      "addr_state": "NC",
      "addr_city": "Kinston",
      "addr_postcode": "28504",
      "addr_street": "Greene Haynes Road",
      "addr_housenumber": "1215",
      "value": 136.72600326117413
    },
    {
      "id": 194630,
      "geometry": "POINT (-77.705722 35.142014)",
      "poi_name": "The Farmhouse",
      "osm_id": 10279107843,
      "amenity": "restaurant",
      "phone": "(252) 568-2106",
      "addr_state": "NC",
      "addr_city": "Deep Run",
      "addr_postcode": "28525",
      "addr_street": "Old Highway 11",
      "addr_housenumber": "3486",
      "value": 136.72600326117413
    },
    {
      "id": 195583,
      "geometry": "POINT (-78.328453 35.514472)",
      "poi_name": "Island Foods Restaurant",
      "osm_id": 10312574949,
      "amenity": "restaurant",
      "phone": "(919) 938-8072",
      "addr_state": "NC",
      "addr_city": "Smithfield",
      "addr_postcode": "27577",
      "addr_street": "North Brightleaf Boulevard",
      "addr_housenumber": "728",
      "value": 136.72600326117413
    },
    {
      "id": 195119,
      "geometry": "POINT (-77.531709 34.820491)",
      "poi_name": "Thig's BBQ House",
      "osm_id": 10295105102,
      "amenity": "restaurant",
      "phone": "(910) 262-1136",
      "addr_state": "NC",
      "addr_city": "Jacksonville",
      "addr_postcode": "28540",
      "addr_street": "Catherine Lake Road",
      "addr_housenumber": "1722",
      "value": 136.72600326117413
    },
    {
      "id": 195763,
      "geometry": "POINT (-78.64432 35.791514)",
      "poi_name": "The Rainbow Luncheonette",
      "osm_id": 10537162720,
      "amenity": "restaurant",
      "addr_state": "NC",
      "addr_city": "Raleigh",
      "addr_postcode": "27603",
      "addr_street": "North West Street",
      "addr_housenumber": "911",
      "value": 136.72600326117413
    },
    {
      "id": 195675,
      "geometry": "POINT (-78.636071 35.716284)",
      "poi_name": "Eggs Up Grill",
      "osm_id": 10315249023,
      "amenity": "restaurant",
      "cuisine": "american",
      "wheelchair": "yes",
      "opening_hours": "Mo-Su 06:00-14:00",
      "website": "https://eggsupgrill.com/",
      "phone": "+19193648560",
      "outdoor_seating": "no",
      "addr_state": "NC",
      "addr_city": "Garner",
      "addr_postcode": "27529",
      "addr_street": "Timber Drive",
      "addr_housenumber": "2686",
      "value": 136.72600326117413
    },
    {
      "id": 195676,
      "geometry": "POINT (-78.635899 35.714688)",
      "poi_name": "Sakura 8",
      "osm_id": 10315256494,
      "amenity": "restaurant",
      "phone": "(984) 233-5100",
      "addr_state": "NC",
      "addr_city": "Garner",
      "addr_postcode": "27529",
      "addr_street": "Timber Drive",
      "addr_housenumber": "2634",
      "value": 136.72600326117413
    },
    {
      "id": 195693,
      "geometry": "POINT (-78.638582 35.752985)",
      "poi_name": "The Kitchen Archive",
      "osm_id": 10315656149,
      "amenity": "restaurant",
      "phone": "+19842479988",
      "addr_state": "NC",
      "addr_city": "Raleigh",
      "addr_postcode": "27603",
      "addr_street": "South Wilmington Street",
      "addr_housenumber": "2161",
      "value": 136.72600326117413
    },
    {
      "id": 195694,
      "geometry": "POINT (-78.659959 35.798544)",
      "poi_name": "Crave Hot Dogs & BBQ",
      "osm_id": 10315656150,
      "amenity": "restaurant",
      "phone": "+19198966341",
      "addr_state": "NC",
      "addr_city": "Raleigh",
      "addr_postcode": "27605",
      "addr_street": "Oberlin Road",
      "addr_housenumber": "1028",
      "value": 136.72600326117413
    },
    {
      "id": 195764,
      "geometry": "POINT (-78.577634 35.79691)",
      "poi_name": "Olive Oyl's The Spot",
      "osm_id": 10537163877,
      "amenity": "restaurant",
      "addr_state": "NC",
      "addr_city": "Raleigh",
      "addr_postcode": "27610",
      "addr_street": "New Bern Avenue",
      "addr_housenumber": "3704",
      "value": 136.72600326117413
    },
    {
      "id": 196487,
      "geometry": "POINT (-78.02035 34.815973)",
      "poi_name": "China Moon",
      "osm_id": 10581408609,
      "amenity": "restaurant",
      "cuisine": "chinese",
      "phone": "(910) 289-2347",
      "addr_state": "NC",
      "addr_city": "Rose Hill",
      "addr_postcode": "28458",
      "addr_street": "South Sycamore Street",
      "addr_housenumber": "592",
      "value": 136.72600326117413
    },
    {
      "id": 196161,
      "geometry": "POINT (-77.788466 35.305751)",
      "poi_name": "Bill's Grill & Bar",
      "osm_id": 10566644872,
      "amenity": "restaurant",
      "phone": "(252) 566-2453",
      "addr_state": "NC",
      "addr_city": "La Grange",
      "addr_postcode": "28551",
      "addr_street": "South Caswell Street",
      "addr_housenumber": "129",
      "value": 136.72600326117413
    },
    {
      "id": 196162,
      "geometry": "POINT (-77.795672 35.318272)",
      "poi_name": "Ms J's Grill & Barbeque",
      "osm_id": 10566644873,
      "amenity": "restaurant",
      "phone": "(252) 566-9306",
      "addr_state": "NC",
      "addr_city": "La Grange",
      "addr_postcode": "28551",
      "addr_street": "Mitchell Street",
      "addr_housenumber": "112",
      "value": 136.72600326117413
    },
    {
      "id": 198324,
      "geometry": "POINT (-78.712403 35.859355)",
      "poi_name": "Waraji Japanese Restaurant",
      "osm_id": 10698211835,
      "amenity": "restaurant",
      "cuisine": "japanese;sushi",
      "opening_hours": "Mo-Th 11:30-14:00,17:00-21:00; Fr 11:30-14:00,17:00-21:30; Sa 11:30-15:00,17:00-21:30; Su 12:00-14:00,17:00-21:00",
      "website": "https://www.warajijapaneserestaurant.com/",
      "phone": "919-783-1883",
      "addr_state": "NC",
      "addr_city": "Raleigh",
      "addr_postcode": "27612",
      "addr_street": "Duraleigh Road",
      "addr_housenumber": "5910",
      "value": 136.72600326117413
    },
    {
      "id": 196854,
      "geometry": "POINT (-77.920919 35.387671)",
      "poi_name": "Nai Thai 2",
      "osm_id": 10600052522,
      "amenity": "restaurant",
      "cuisine": "thai",
      "phone": "(919) 583-5699",
      "addr_state": "NC",
      "addr_city": "Goldsboro",
      "addr_postcode": "27534",
      "addr_street": "North Berkeley Boulevard",
      "addr_housenumber": "1804",
      "value": 136.72600326117413
    },
    {
      "id": 198097,
      "geometry": "POINT (-77.999604 35.386914)",
      "poi_name": "China Taste",
      "osm_id": 10688356072,
      "amenity": "restaurant",
      "cuisine": "chinese",
      "phone": "+19197368866",
      "addr_state": "NC",
      "addr_city": "Goldsboro",
      "addr_postcode": "27530",
      "addr_street": "North George Street",
      "addr_housenumber": "301",
      "value": 136.72600326117413
    },
    {
      "id": 198100,
      "geometry": "POINT (-77.974433 35.393424)",
      "poi_name": "Mi Cabana Mexican Restaurant #10",
      "osm_id": 10688512647,
      "amenity": "restaurant",
      "phone": "+19193304020",
      "addr_state": "NC",
      "addr_city": "Goldsboro",
      "addr_postcode": "27534",
      "addr_street": "Wayne Memorial Drive",
      "addr_housenumber": "1503",
      "value": 136.72600326117413
    },
    {
      "id": 203925,
      "geometry": "POINT (-78.638474 35.776127)",
      "poi_name": "Manhattan Cafe",
      "osm_id": 7105802413,
      "amenity": "restaurant",
      "cuisine": "sandwich;salad",
      "opening_hours": "Mo-Fr 11:00-15:00",
      "website": "https://manhattancafe.com/",
      "phone": "+1 919 833 6105",
      "drive_through": "no",
      "addr_state": "NC",
      "addr_city": "Raleigh",
      "addr_postcode": "27601",
      "addr_street": "South Wilmington Street",
      "addr_housenumber": "320",
      "value": 136.72600326117413
    },
    {
      "id": 203936,
      "geometry": "POINT (-78.63659 35.775894)",
      "poi_name": "MoFu Shoppe",
      "osm_id": 7106006234,
      "amenity": "restaurant",
      "cuisine": "asian",
      "opening_hours": "Mo 17:00-22:00; Tu-Th 11:30-22:00; Fr-Sa 11:30-23:00",
      "website": "https://www.mofushoppe.com",
      "phone": "919-301-8465",
      "addr_state": "NC",
      "addr_city": "Raleigh",
      "addr_postcode": "27601",
      "addr_street": "South Blount Street",
      "addr_housenumber": "321",
      "value": 136.72600326117413
    },
    {
      "id": 199050,
      "geometry": "POINT (-78.667869 35.787874)",
      "poi_name": "Jasmin Mediterranean Bistro",
      "osm_id": 935419273,
      "amenity": "restaurant",
      "description": "Greek & Lebanese cuisine",
      "opening_hours": "Mo-Th 11:00-21:00; Fr,Sa 11:00-22:00; Su 11:00-21:00",
      "addr_state": "NC",
      "addr_postcode": "27695",
      "addr_street": "Hillsborough Street",
      "addr_housenumber": "2430",
      "value": 136.72600326117413
    },
    {
      "id": 204296,
      "geometry": "POINT (-77.942391 35.375275)",
      "poi_name": "Texas Roadhouse",
      "osm_id": 7122585680,
      "amenity": "restaurant",
      "cuisine": "steak_house",
      "opening_hours": "Mo-Th 16:00-22:00; Fr-Sa 11:30-23:00; Su 11:30-22:00",
      "phone": "+19197788336",
      "addr_state": "NC",
      "addr_city": "Goldsboro",
      "addr_street": "North Berkeley Boulevard",
      "addr_housenumber": "600",
      "value": 136.72600326117413
    },
    {
      "id": 204335,
      "geometry": "POINT (-77.947862 35.375081)",
      "poi_name": "Hibachi Grill & Supreme Buffet",
      "osm_id": 7122833440,
      "amenity": "restaurant",
      "phone": "+19197782288",
      "addr_state": "NC",
      "addr_city": "Goldsboro",
      "addr_postcode": "27534",
      "addr_street": "North Berkeley Boulevard",
      "addr_housenumber": "403",
      "value": 136.72600326117413
    },
    {
      "id": 204297,
      "geometry": "POINT (-77.942542 35.376064)",
      "poi_name": "LongHorn Steakhouse",
      "osm_id": 7122631459,
      "amenity": "restaurant",
      "cuisine": "steak_house",
      "phone": "+19197783331",
      "addr_state": "NC",
      "addr_city": "Goldsboro",
      "addr_street": "North Berkeley Boulevard",
      "addr_housenumber": "609",
      "value": 136.72600326117413
    },
    {
      "id": 204336,
      "geometry": "POINT (-77.946564 35.367881)",
      "poi_name": "Heroes Sports Oyster Bar & Grill",
      "osm_id": 7122835943,
      "amenity": "restaurant",
      "addr_state": "NC",
      "addr_city": "Goldsboro",
      "addr_postcode": "27534",
      "addr_street": "East Ash Street",
      "addr_housenumber": "3009",
      "value": 136.72600326117413
    },
    {
      "id": 204337,
      "geometry": "POINT (-77.91802 35.348513)",
      "poi_name": "McCalls BBQ & Seafood Restaurant",
      "osm_id": 7122837567,
      "amenity": "restaurant",
      "phone": "+19197510072",
      "addr_state": "NC",
      "addr_city": "Goldsboro",
      "addr_postcode": "27534",
      "addr_street": "Millers Chapel Road",
      "addr_housenumber": "139",
      "value": 136.72600326117413
    },
    {
      "id": 204304,
      "geometry": "POINT (-77.947252 35.374178)",
      "poi_name": "McAlister's Deli",
      "osm_id": 7122749052,
      "amenity": "restaurant",
      "cuisine": "sandwich",
      "addr_state": "NC",
      "addr_city": "Goldsboro",
      "addr_postcode": "27534",
      "addr_street": "North Berkeley Boulevard",
      "addr_housenumber": "431",
      "value": 136.72600326117413
    },
    {
      "id": 204340,
      "geometry": "POINT (-77.918132 35.343534)",
      "poi_name": "Southern Legends Restaurant",
      "osm_id": 7122843501,
      "amenity": "restaurant",
      "addr_state": "NC",
      "addr_city": "Goldsboro",
      "addr_postcode": "27534",
      "addr_street": "NC-111",
      "addr_housenumber": "189",
      "value": 136.72600326117413
    },
    {
      "id": 204307,
      "geometry": "POINT (-77.944615 35.374577)",
      "poi_name": "Waffle House",
      "osm_id": 7122762051,
      "amenity": "restaurant",
      "cuisine": "american",
      "opening_hours": "24/7",
      "phone": "+19197786210",
      "addr_state": "NC",
      "addr_city": "Goldsboro",
      "addr_postcode": "27534",
      "addr_street": "North Berkeley Boulevard",
      "addr_housenumber": "502",
      "value": 136.72600326117413
    },
    {
      "id": 204311,
      "geometry": "POINT (-77.939476 35.377497)",
      "poi_name": "Olive Garden",
      "osm_id": 7122775672,
      "amenity": "restaurant",
      "cuisine": "italian",
      "phone": "+19197784140",
      "addr_state": "NC",
      "addr_city": "Goldsboro",
      "addr_postcode": "27534",
      "addr_street": "North Berkeley Boulevard",
      "addr_housenumber": "803",
      "value": 136.72600326117413
    },
    {
      "id": 204318,
      "geometry": "POINT (-77.94986 35.372349)",
      "poi_name": "Five Star Restaurant & Caterers",
      "osm_id": 7122797854,
      "amenity": "restaurant",
      "addr_state": "NC",
      "addr_city": "Goldsboro",
      "addr_postcode": "27534",
      "addr_street": "North Berkeley Boulevard",
      "addr_housenumber": "212",
      "value": 136.72600326117413
    },
    {
      "id": 204319,
      "geometry": "POINT (-77.946314 35.373774)",
      "poi_name": "Mayflower Seafood Restaurant",
      "osm_id": 7122799357,
      "amenity": "restaurant",
      "addr_state": "NC",
      "addr_city": "Goldsboro",
      "addr_postcode": "27534",
      "addr_street": "North Berkeley Boulevard",
      "addr_housenumber": "430",
      "value": 136.72600326117413
    },
    {
      "id": 204320,
      "geometry": "POINT (-77.952172 35.371235)",
      "poi_name": "Western Sizzlin'",
      "osm_id": 7122799367,
      "amenity": "restaurant",
      "cuisine": "american;steak",
      "addr_state": "NC",
      "addr_city": "Goldsboro",
      "addr_postcode": "27534",
      "addr_street": "North Berkeley Boulevard",
      "addr_housenumber": "100",
      "value": 136.72600326117413
    },
    {
      "id": 204322,
      "geometry": "POINT (-77.950873 35.371872)",
      "poi_name": "Bread of Heaven Chicken, Ribs, & BBQ",
      "osm_id": 7122811392,
      "amenity": "restaurant",
      "addr_state": "NC",
      "addr_city": "Goldsboro",
      "addr_postcode": "27534",
      "addr_street": "North Berkeley Boulevard",
      "addr_housenumber": "200c",
      "value": 136.72600326117413
    },
    {
      "id": 204326,
      "geometry": "POINT (-77.955125 35.372553)",
      "poi_name": "Pizza Hut",
      "osm_id": 7122825168,
      "amenity": "restaurant",
      "cuisine": "pizza",
      "addr_state": "NC",
      "addr_city": "Goldsboro",
      "addr_postcode": "27534",
      "addr_street": "East Ash Street",
      "addr_housenumber": "2518",
      "value": 136.72600326117413
    },
    {
      "id": 205118,
      "geometry": "POINT (-78.148206 35.581946)",
      "poi_name": "Waffle House",
      "osm_id": 7157886946,
      "amenity": "restaurant",
      "cuisine": "american",
      "opening_hours": "24/7",
      "addr_state": "NC",
      "addr_city": "Kenly",
      "addr_postcode": "27542",
      "addr_street": "Johnston Parkway",
      "addr_housenumber": "875",
      "value": 136.72600326117413
    },
    {
      "id": 205121,
      "geometry": "POINT (-78.131319 35.592402)",
      "poi_name": "Stormin Norman's Barbeque",
      "osm_id": 7157909415,
      "amenity": "restaurant",
      "addr_state": "NC",
      "addr_city": "Kenly",
      "addr_postcode": "27542",
      "addr_street": "South Church Street",
      "addr_housenumber": "404",
      "value": 136.72600326117413
    },
    {
      "id": 205209,
      "geometry": "POINT (-77.573545 35.418125)",
      "poi_name": "Morris Barbeque",
      "osm_id": 7159886252,
      "amenity": "restaurant",
      "addr_state": "NC",
      "addr_city": "Hookerton",
      "addr_postcode": "28538",
      "addr_street": "Morris Bbq Road",
      "addr_housenumber": "891",
      "value": 136.72600326117413
    },
    {
      "id": 205230,
      "geometry": "POINT (-78.137525 35.11655)",
      "poi_name": "La Cascada Restaurante",
      "osm_id": 7161229747,
      "amenity": "restaurant",
      "addr_state": "NC",
      "addr_city": "Faison",
      "addr_postcode": "28365",
      "value": 136.72600326117413
    },
    {
      "id": 205232,
      "geometry": "POINT (-78.136863 35.116294)",
      "poi_name": "El Sol Mexican Restaurant",
      "osm_id": 7161265215,
      "amenity": "restaurant",
      "addr_state": "NC",
      "addr_city": "Faison",
      "addr_postcode": "28365",
      "addr_street": "West Main Street",
      "addr_housenumber": "111",
      "value": 136.72600326117413
    },
    {
      "id": 205233,
      "geometry": "POINT (-78.136893 35.116559)",
      "poi_name": "Tienda y Taqueria La Victoria",
      "osm_id": 7161273128,
      "amenity": "restaurant",
      "addr_state": "NC",
      "addr_city": "Faison",
      "addr_postcode": "28365",
      "addr_street": "West Main Street",
      "addr_housenumber": "110",
      "value": 136.72600326117413
    },
    {
      "id": 205234,
      "geometry": "POINT (-78.1356 35.115614)",
      "poi_name": "El Quielite Restaurante",
      "osm_id": 7161274389,
      "amenity": "restaurant",
      "addr_state": "NC",
      "addr_city": "Faison",
      "addr_postcode": "28365",
      "addr_street": "South East Center Street",
      "addr_housenumber": "115",
      "value": 136.72600326117413
    },
    {
      "id": 206802,
      "geometry": "POINT (-78.452005 35.643404)",
      "poi_name": "Mango Moy",
      "osm_id": 7228260009,
      "amenity": "restaurant",
      "phone": "(919) 243-8749",
      "addr_state": "NC",
      "addr_city": "Clayton",
      "addr_postcode": "27520",
      "addr_street": "East Main Street",
      "addr_housenumber": "915",
      "value": 136.72600326117413
    },
    {
      "id": 206803,
      "geometry": "POINT (-78.451992 35.643173)",
      "poi_name": "La BONITA",
      "osm_id": 7228260012,
      "amenity": "restaurant",
      "phone": "(919) 359-9553",
      "addr_state": "NC",
      "addr_city": "Clayton",
      "addr_postcode": "27520",
      "addr_street": "East Main Street",
      "addr_housenumber": "913",
      "value": 136.72600326117413
    },
    {
      "id": 206962,
      "geometry": "POINT (-78.418976 35.69462)",
      "poi_name": "Wok & Grill",
      "osm_id": 7234477663,
      "amenity": "restaurant",
      "phone": "919-359-9666",
      "takeaway": "yes",
      "addr_state": "NC",
      "addr_city": "Clayton",
      "addr_postcode": "27527",
      "addr_street": "Pritchard Road",
      "addr_housenumber": "194",
      "value": 136.72600326117413
    },
    {
      "id": 206821,
      "geometry": "POINT (-78.318619 35.512296)",
      "poi_name": "Kobe Japanese Steak House",
      "osm_id": 7228922858,
      "amenity": "restaurant",
      "phone": "(919) 938-3200",
      "addr_state": "NC",
      "addr_city": "Smithfield",
      "addr_postcode": "27577",
      "addr_street": "Venture Drive",
      "addr_housenumber": "101",
      "value": 136.72600326117413
    },
    {
      "id": 206822,
      "geometry": "POINT (-78.32141 35.507567)",
      "poi_name": "Live Crawfish & Seafood",
      "osm_id": 7228925290,
      "amenity": "restaurant",
      "phone": "919-938-8028",
      "addr_state": "NC",
      "addr_city": "Smithfield",
      "addr_postcode": "27577",
      "addr_street": "South Equity Drive",
      "addr_housenumber": "150",
      "value": 136.72600326117413
    },
    {
      "id": 206823,
      "geometry": "POINT (-78.32073 35.507573)",
      "poi_name": "Yummi Japan",
      "osm_id": 7228925293,
      "amenity": "restaurant",
      "phone": "(919) 934-8889",
      "addr_state": "NC",
      "addr_city": "Smithfield",
      "addr_postcode": "27577",
      "addr_street": "North Equity Drive",
      "addr_housenumber": "255",
      "value": 136.72600326117413
    },
    {
      "id": 206825,
      "geometry": "POINT (-78.321514 35.50691)",
      "poi_name": "Buffalo Wild Wings",
      "osm_id": 7228925297,
      "amenity": "restaurant",
      "cuisine": "wings",
      "phone": "(919) 938-1250",
      "addr_state": "NC",
      "addr_city": "Smithfield",
      "addr_postcode": "27577",
      "addr_street": "South Equity Drive",
      "addr_housenumber": "130",
      "value": 136.72600326117413
    },
    {
      "id": 206826,
      "geometry": "POINT (-78.320823 35.507039)",
      "poi_name": "San Marcos Mexican Restaurant",
      "osm_id": 7228925298,
      "amenity": "restaurant",
      "phone": "(919) 934-2424",
      "addr_state": "NC",
      "addr_city": "Smithfield",
      "addr_postcode": "27577",
      "addr_street": "North Equity Drive",
      "addr_housenumber": "275",
      "value": 136.72600326117413
    },
    {
      "id": 206827,
      "geometry": "POINT (-78.320547 35.506434)",
      "poi_name": "Vero's Pizzeria",
      "osm_id": 7228925300,
      "amenity": "restaurant",
      "cuisine": "pizza",
      "phone": "(919) 938-9033",
      "addr_state": "NC",
      "addr_city": "Smithfield",
      "addr_postcode": "27577",
      "addr_street": "Outlet Center Drive",
      "addr_housenumber": "519",
      "value": 136.72600326117413
    },
    {
      "id": 207309,
      "geometry": "POINT (-78.535135 35.4207)",
      "poi_name": "Grill on the Hill",
      "osm_id": 7248487234,
      "amenity": "restaurant",
      "phone": "(919) 894-5224",
      "addr_state": "NC",
      "addr_city": "Benson",
      "addr_postcode": "27504",
      "addr_street": "NC-242",
      "addr_housenumber": "3405",
      "value": 136.72600326117413
    },
    {
      "id": 207151,
      "geometry": "POINT (-78.346498 35.510119)",
      "poi_name": "Under The Oak Restaurant and Catering",
      "osm_id": 7238709343,
      "amenity": "restaurant",
      "cuisine": "american",
      "phone": "919-205-1098",
      "addr_state": "NC",
      "addr_city": "Smithfield",
      "addr_postcode": "27577",
      "addr_street": "South 3rd Street",
      "addr_housenumber": "135",
      "value": 136.72600326117413
    },
    {
      "id": 207310,
      "geometry": "POINT (-78.169903 35.295917)",
      "poi_name": "The Plow House",
      "osm_id": 7248524665,
      "amenity": "restaurant",
      "opening_hours": "Mo-Fr 06:30-14:00",
      "phone": "(919) 289-6124",
      "addr_state": "NC",
      "addr_city": "Goldsboro",
      "addr_postcode": "27530",
      "addr_street": "US-13 South",
      "addr_housenumber": "3524",
      "value": 136.72600326117413
    },
    {
      "id": 217099,
      "geometry": "POINT (-78.574965 35.688629)",
      "poi_name": "La Cocina",
      "osm_id": 9204838188,
      "amenity": "restaurant",
      "cuisine": "mexican",
      "website": "https://www.lacocinanc.com",
      "phone": "+19197726999",
      "addr_state": "NC",
      "addr_city": "Garner",
      "addr_postcode": "27529",
      "addr_street": "Timber Drive",
      "addr_housenumber": "1219",
      "value": 136.72600326117413
    },
    {
      "id": 210803,
      "geometry": "POINT (-78.688401 35.794108)",
      "poi_name": "Jasmin & Olivz Mediterranean",
      "osm_id": 5122124830,
      "amenity": "restaurant",
      "cuisine": "kebab",
      "opening_hours": "Mo-Su 11:00-21:00",
      "website": "https://www.jasminandolivz.com/",
      "phone": "+19198351626",
      "addr_state": "NC",
      "addr_city": "Raleigh",
      "addr_postcode": "27607",
      "addr_street": "Hillsborough Street",
      "addr_housenumber": "3801",
      "value": 136.72600326117413
    },
    {
      "id": 216873,
      "geometry": "POINT (-78.565962 35.801538)",
      "poi_name": "Red Pepper Asian",
      "osm_id": 9192233975,
      "amenity": "restaurant",
      "cuisine": "asian",
      "website": "http://www.redpepper-nc.com/",
      "phone": "+19195941006",
      "addr_state": "NC",
      "addr_city": "Raleigh",
      "addr_postcode": "27610",
      "addr_street": "New Bern Avenue",
      "addr_housenumber": "4121",
      "value": 136.72600326117413
    },
    {
      "id": 217100,
      "geometry": "POINT (-78.575413 35.688405)",
      "poi_name": "Kaze Japanese Steak House",
      "osm_id": 9204838189,
      "amenity": "restaurant",
      "cuisine": "japanese",
      "website": "https://kaze-japanese.com/",
      "phone": "+19193296789",
      "addr_state": "NC",
      "addr_city": "Garner",
      "addr_postcode": "27529",
      "addr_street": "Timber Drive",
      "addr_housenumber": "1227",
      "value": 136.72600326117413
    },
    {
      "id": 217101,
      "geometry": "POINT (-78.574758 35.689778)",
      "poi_name": "Krafty's Burger and Brews",
      "osm_id": 9204881906,
      "amenity": "restaurant",
      "cuisine": "burger",
      "website": "https://www.kraftysburgersandbrews.com/",
      "phone": "+19193298000",
      "addr_state": "NC",
      "addr_city": "Garner",
      "addr_postcode": "27529",
      "addr_street": "Timber Drive",
      "addr_housenumber": "1177",
      "value": 136.72600326117413
    },
    {
      "id": 219761,
      "geometry": "POINT (-77.589925 35.061)",
      "poi_name": "Grandpa's Store & Grill",
      "osm_id": 9345155549,
      "amenity": "restaurant",
      "opening_hours": "Mo-Su 06:00-16:00",
      "phone": "(252) 568-2552",
      "addr_state": "NC",
      "addr_city": "Kinston",
      "addr_street": "Pleasant Hill Road",
      "addr_housenumber": "4052",
      "value": 136.72600326117413
    },
    {
      "id": 217228,
      "geometry": "POINT (-78.643767 35.836451)",
      "poi_name": "Mason's Famous Lobster Rolls",
      "osm_id": 9213027906,
      "amenity": "restaurant",
      "cuisine": "seafood",
      "website": "https://www.masonslobster.com/locations/raleigh-nc",
      "phone": "+1-984-202-8907",
      "addr_state": "NC",
      "addr_city": "Raleigh",
      "addr_postcode": "27609",
      "addr_street": "Main at North Hills Street",
      "addr_housenumber": "4121",
      "value": 136.72600326117413
    },
    {
      "id": 217229,
      "geometry": "POINT (-78.643678 35.836566)",
      "poi_name": "bartaco",
      "osm_id": 9213027907,
      "amenity": "restaurant",
      "cuisine": "tacos",
      "website": "https://bartaco.com/location/raleigh/",
      "phone": "+1.919.626.8226",
      "addr_state": "NC",
      "addr_city": "Raleigh",
      "addr_postcode": "27609",
      "addr_street": "Main at North Hills Street",
      "addr_housenumber": "4121",
      "value": 136.72600326117413
    },
    {
      "id": 219286,
      "geometry": "POINT (-78.351916 35.651649)",
      "poi_name": "Likii Hibachi & Sushi",
      "osm_id": 9323391182,
      "amenity": "restaurant",
      "opening_hours": "Tu-Th 11:00-21:00; Fr-Sa 11:00-21:30; Su 11:30-21:00",
      "phone": "919-9388188",
      "addr_state": "NC",
      "addr_city": "Clayton",
      "addr_postcode": "27527",
      "addr_street": "Publix Drive",
      "addr_housenumber": "20-4",
      "value": 136.72600326117413
    },
    {
      "id": 219305,
      "geometry": "POINT (-78.389457 35.547769)",
      "poi_name": "Low and Slow Smokehouse",
      "osm_id": 9325185685,
      "amenity": "restaurant",
      "cuisine": "american",
      "opening_hours": "Mo-We 07:00-20:00; Th-Sa 07:00-23:00; Su 07:00-20:00",
      "phone": "919-578-6479",
      "addr_state": "NC",
      "addr_city": "Smithfield",
      "addr_postcode": "27577",
      "addr_street": "Swift Creek Road",
      "addr_housenumber": "3149B",
      "value": 136.72600326117413
    },
    {
      "id": 218949,
      "geometry": "POINT (-78.659877 35.789531)",
      "poi_name": "Flying Biscuit",
      "osm_id": 9310713385,
      "amenity": "restaurant",
      "opening_hours": "Mo-Su 07:00-21:00",
      "website": "https://www.flyingbiscuit.com/locations-2/raleigh/",
      "phone": "+1 919 833 6924",
      "addr_state": "NC",
      "addr_city": "Raleigh",
      "addr_postcode": "27605",
      "addr_street": "Clark Ave",
      "addr_housenumber": "2016",
      "value": 136.72600326117413
    },
    {
      "id": 219734,
      "geometry": "POINT (-78.661491 35.785896)",
      "poi_name": "David's Dumpling & Noodle Bar",
      "osm_id": 9344551131,
      "amenity": "restaurant",
      "cuisine": "asian",
      "addr_state": "NC",
      "addr_city": "Raleigh",
      "addr_postcode": "27607",
      "addr_street": "Hillsborough Street",
      "value": 136.72600326117413
    },
    {
      "id": 227208,
      "geometry": "POINT (-77.810632 34.829112)",
      "poi_name": "Wendy\u2019s Grill",
      "osm_id": 11183330564,
      "amenity": "restaurant",
      "phone": "+19102850260",
      "addr_state": "NC",
      "addr_city": "Chinquapin",
      "addr_postcode": "28521",
      "addr_street": "NC-41",
      "addr_housenumber": "2643",
      "value": 136.72600326117413
    },
    {
      "id": 227042,
      "geometry": "POINT (-78.612822 35.805286)",
      "poi_name": "Fine Folk",
      "osm_id": 11177915186,
      "amenity": "restaurant",
      "cuisine": "american",
      "website": "https://finefolkraleigh.com/",
      "phone": "+1 919-338-2066",
      "addr_state": "NC",
      "addr_city": "Raleigh",
      "addr_postcode": "27604",
      "addr_street": "Crabtree Boulevard",
      "addr_housenumber": "2409",
      "value": 136.72600326117413
    },
    {
      "id": 236595,
      "geometry": "POINT (-78.610714 35.777059)",
      "poi_name": "Jamaica Jerk Masters",
      "osm_id": 5799798688,
      "amenity": "restaurant",
      "cuisine": "jamaican",
      "opening_hours": "Mo-Th 11:30-18:00, Fr-Sa 11:30-19:00",
      "addr_state": "NC",
      "addr_city": "Raleigh",
      "addr_postcode": "27610",
      "addr_street": "Poole Road",
      "addr_housenumber": "1909",
      "value": 136.72600326117413
    },
    {
      "id": 227320,
      "geometry": "POINT (-77.481651 34.757671)",
      "poi_name": "Baker's",
      "osm_id": 11188052757,
      "amenity": "restaurant",
      "phone": "+19103466557",
      "addr_state": "NC",
      "addr_city": "Jacksonville",
      "addr_postcode": "28540",
      "addr_street": "Richlands Highway",
      "addr_housenumber": "3257",
      "value": 136.72600326117413
    },
    {
      "id": 234427,
      "geometry": "POINT (-78.625359 35.807653)",
      "poi_name": "Jerry's Grill",
      "osm_id": 4621523296,
      "amenity": "restaurant",
      "cuisine": "diner",
      "opening_hours": "Mo-Fr 07:00-15:00; Sa 08:00-14:00",
      "phone": "+1-919-832-7561",
      "addr_state": "NC",
      "addr_city": "Raleigh",
      "addr_postcode": "27608",
      "addr_street": "East Whitaker Mill Road",
      "addr_housenumber": "813",
      "value": 136.72600326117413
    },
    {
      "id": 236188,
      "geometry": "POINT (-78.653724 35.726142)",
      "poi_name": "Panda House",
      "osm_id": 5784029349,
      "amenity": "restaurant",
      "cuisine": "chinese",
      "addr_state": "NC",
      "addr_city": "Raleigh",
      "addr_postcode": "27603",
      "addr_street": "Garner Station Boulevard",
      "addr_housenumber": "1463",
      "value": 136.72600326117413
    },
    {
      "id": 229675,
      "geometry": "POINT (-77.580985 35.260161)",
      "poi_name": "Hawk's Nest Cafe and General Store",
      "osm_id": 4393794078,
      "amenity": "restaurant",
      "opening_hours": "Mo-Fr 07:00-15:00; Sa 07:00-14:00",
      "website": "https://hawksnest-100906.square.site/",
      "phone": "+1252 686 6149",
      "addr_state": "NC",
      "addr_city": "Kinston",
      "addr_postcode": "28501",
      "addr_street": "South Queen Street",
      "addr_housenumber": "100",
      "value": 136.72600326117413
    },
    {
      "id": 229871,
      "geometry": "POINT (-78.580503 35.687695)",
      "poi_name": "Buffalo Brothers",
      "osm_id": 4404405083,
      "amenity": "restaurant",
      "phone": "+19198031939",
      "addr_state": "NC",
      "addr_city": "Garner",
      "addr_postcode": "27529",
      "addr_street": "White Oak Road",
      "addr_housenumber": "7245",
      "value": 136.72600326117413
    },
    {
      "id": 236213,
      "geometry": "POINT (-78.636091 35.715137)",
      "poi_name": "Rudino's Pizza & Grinders",
      "osm_id": 5785307253,
      "amenity": "restaurant",
      "cuisine": "pizza;sandwich",
      "opening_hours": "Mo-Sa 09:00-21:00, Su 11:30-20:30",
      "takeaway": "yes",
      "outdoor_seating": "no",
      "addr_state": "NC",
      "addr_city": "Garner",
      "addr_postcode": "27529",
      "addr_street": "Timber Drive",
      "addr_housenumber": "2644",
      "value": 136.72600326117413
    },
    {
      "id": 236215,
      "geometry": "POINT (-78.636215 35.715415)",
      "poi_name": "New Panda",
      "osm_id": 5785307256,
      "amenity": "restaurant",
      "cuisine": "chinese",
      "addr_state": "NC",
      "addr_city": "Garner",
      "addr_postcode": "27529",
      "addr_street": "Timber Drive",
      "addr_housenumber": "2660",
      "value": 136.72600326117413
    },
    {
      "id": 242821,
      "geometry": "POINT (-77.971163 34.740303)",
      "poi_name": "Sensation Farmhouse Restaurant",
      "osm_id": 7600771301,
      "amenity": "restaurant",
      "phone": "+19102851471",
      "addr_state": "NC",
      "addr_city": "Wallace",
      "addr_postcode": "28466",
      "addr_street": "NC-41",
      "addr_housenumber": "5631",
      "value": 136.72600326117413
    },
    {
      "id": 237020,
      "geometry": "POINT (-78.618014 35.707616)",
      "poi_name": "Taqueria La Zacatecana",
      "osm_id": 5815833872,
      "amenity": "restaurant",
      "cuisine": "mexican",
      "addr_state": "NC",
      "addr_city": "Garner",
      "addr_postcode": "27529",
      "addr_street": "Village Court",
      "addr_housenumber": "522",
      "value": 136.72600326117413
    },
    {
      "id": 243861,
      "geometry": "POINT (-78.617073 35.685844)",
      "poi_name": "Pizza Hut",
      "osm_id": 7683348682,
      "amenity": "restaurant",
      "cuisine": "pizza",
      "opening_hours": "Su-Th 11:00-23:00; Fr,Sa 11:00-24:00",
      "capacity": "0",
      "outdoor_seating": "no",
      "delivery": "yes",
      "addr_state": "NC",
      "addr_city": "Garner",
      "addr_postcode": "27529",
      "addr_street": "Aversboro Road",
      "addr_housenumber": "1805",
      "value": 136.72600326117413
    },
    {
      "id": 243863,
      "geometry": "POINT (-78.57865 35.688765)",
      "poi_name": "TGI Friday's",
      "osm_id": 7683547941,
      "amenity": "restaurant",
      "cuisine": "american",
      "phone": "+19197791935",
      "addr_state": "NC",
      "addr_city": "Garner",
      "addr_postcode": "27529",
      "addr_street": "Timber Dr E",
      "addr_housenumber": "1100",
      "value": 136.72600326117413
    },
    {
      "id": 243865,
      "geometry": "POINT (-78.580888 35.688966)",
      "poi_name": "Logan's Roadhouse",
      "osm_id": 7683547953,
      "amenity": "restaurant",
      "cuisine": "american",
      "phone": "+19193299340",
      "addr_state": "NC",
      "addr_city": "Garner",
      "addr_postcode": "27529",
      "addr_street": "Timber Drive East",
      "addr_housenumber": "1000",
      "value": 136.72600326117413
    },
    {
      "id": 244566,
      "geometry": "POINT (-78.561581 35.607771)",
      "poi_name": "Cracker Barrel",
      "osm_id": 7731853162,
      "amenity": "restaurant",
      "cuisine": "american",
      "opening_hours": "Mo-Th, Su 07:00-22:00; Fr, Sa 07:00-23:00",
      "phone": "(919) 661-4044",
      "official_name": "Cracker Barrel Old Country Store",
      "addr_state": "NC",
      "addr_city": "Garner",
      "addr_postcode": "27529",
      "addr_street": "NC 42 Highway West",
      "addr_housenumber": "5199",
      "value": 136.72600326117413
    }
  ],
  "answer_type": "loc",
  "question_entities": {
    "[2]": {
      "distance": 190000,
      "text": "190 kilometers"
    },
    "[3]": {
      "main_category": "leisure",
      "sub_category": "park",
      "display_name": "The providence dog park, Raleigh, NC",
      "geo_wkt": "POINT (-78.796552 35.897057)",
      "poi": {
        "id": 248968,
        "geometry": "POINT (-78.796552 35.897057)",
        "poi_name": "The providence dog park",
        "osm_id": 9470234292,
        "leisure": "park",
        "description": "Fenced private dog park with 2 metal benches and a dog waste can( plastic bags available). The ground is covered with bark mulch",
        "operator": "The providence at Brier Creek",
        "addr_state": "NC",
        "addr_city": "Raleigh",
        "addr_postcode": "27617",
        "addr_street": "Ponder Lane",
        "addr_housenumber": "9951"
      }
    },
    "[4]": {
      "main_category": "amenity",
      "sub_category": "hospital",
      "display_name": "Triangle Disc Care, Raleigh, NC",
      "geo_wkt": "POINT (-78.701767 35.81502)",
      "poi": {
        "id": 195430,
        "geometry": "POINT (-78.701767 35.81502)",
        "poi_name": "Triangle Disc Care",
        "osm_id": 10304752327,
        "amenity": "hospital",
        "phone": "(919) 571-2515",
        "healthcare": "hospital",
        "addr_state": "NC",
        "addr_city": "Raleigh",
        "addr_postcode": "27607",
        "addr_street": "Lake Boone Trail",
        "addr_housenumber": "4301"
      }
    },
    "[1]": {
      "main_category": "amenity",
      "sub_category": "restaurant"
    }
  },
  "id": 1221,
  "type": "range:towards+loc"
}