{
  "question": "Looking for a takeout restaurant, preferably within a 60 kilometers radius from Forestiere Underground Gardens, Fresno, CA. Can you assist me with this?",
  "sql": "SELECT * FROM pois\nWHERE ST_DWithin(pois.geometry, ST_GeomFromText('POINT (-119.881841 36.807584)',4326)::geography, 60000)\nAND amenity = 'restaurant'\nAND takeaway ILIKE '%yes%';\n",
  "answers": [
    {
      "id": 151572,
      "geometry": "POINT (-119.673551 36.80895)",
      "poi_name": "More Than Pizza",
      "osm_id": 4106066143,
      "amenity": "restaurant",
      "cuisine": "pizza",
      "opening_hours": "PH,Mo-Su 11:00-09:00",
      "takeaway": "yes",
      "addr_city": "Clovis"
    },
    {
      "id": 95340,
      "geometry": "POINT (-119.785877 36.731882)",
      "poi_name": "Mabel's Kitchen",
      "osm_id": 6392077591,
      "amenity": "restaurant",
      "cuisine": "sandwich;dessert;salad",
      "opening_hours": "Mo-Fr 08:00-15:00",
      "phone": "+1(559) 681-2463",
      "takeaway": "yes",
      "addr_state": "CA",
      "addr_city": "Fresno",
      "addr_postcode": "93721",
      "addr_street": "Van Ness Avenue",
      "addr_housenumber": "700"
    },
    {
      "id": 151573,
      "geometry": "POINT (-119.673452 36.808952)",
      "poi_name": "Mickey's Yogurt",
      "osm_id": 4106066145,
      "amenity": "restaurant",
      "cuisine": "ice_cream",
      "opening_hours": "PH,Mo-Su 11:00-09:00",
      "takeaway": "yes",
      "addr_state": "CA",
      "addr_city": "Clovis",
      "addr_street": "Shaw Avenue #A",
      "addr_housenumber": "2195"
    },
    {
      "id": 161776,
      "geometry": "POINT (-119.708415 37.218229)",
      "poi_name": "Chester's Chicken",
      "osm_id": 4898713417,
      "amenity": "restaurant",
      "cuisine": "fried_chicken",
      "takeaway": "yes",
      "outdoor_seating": "no",
      "delivery": "no",
      "addr_state": "CA",
      "addr_city": "Oakhurst",
      "addr_postcode": "93644",
      "addr_street": "Highway 41",
      "addr_housenumber": "40387"
    },
    {
      "id": 217620,
      "geometry": "POINT (-119.73053 36.737174)",
      "poi_name": "Boba",
      "osm_id": 9234112848,
      "amenity": "restaurant",
      "cuisine": "asian",
      "opening_hours": "Mo-Su 07:00-18:30",
      "phone": "+1-559-252-5829",
      "takeaway": "yes",
      "official_name": "Boba Caf\u00e9",
      "addr_state": "CA",
      "addr_city": "Fresno",
      "addr_postcode": "93727",
      "addr_street": "East Kings Canyon Road",
      "addr_housenumber": "4917"
    }
  ],
  "answer_type": "name",
  "question_entities": {
    "[1]": {
      "main_category": "amenity",
      "sub_category": "restaurant",
      "poi_filter_desc": "takeout restaurant",
      "poi_filter_sql": "takeaway ILIKE '%yes%'"
    },
    "[2]": {
      "distance": 60000,
      "text": "60 kilometers"
    },
    "[3]": {
      "main_category": "tourism",
      "sub_category": "attraction",
      "display_name": "Forestiere Underground Gardens, Fresno, CA",
      "geo_wkt": "POINT (-119.881841 36.807584)",
      "poi": {
        "id": 14025,
        "geometry": "POINT (-119.881841 36.807584)",
        "poi_name": "Forestiere Underground Gardens",
        "osm_id": 4213930993,
        "tourism": "attraction",
        "website": "https://www.undergroundgardens.com/",
        "wikidata": "Q5469244",
        "addr_state": "CA",
        "addr_city": "Fresno",
        "addr_street": "West Shaw Avenue",
        "addr_housenumber": "5021"
      }
    }
  },
  "id": 536,
  "type": "range:non_spat_filter+name"
}