{
  "question": "Where can I find a caf\u00e9 located within 150 kilometers in the direction of southeast from Big Springs Park - Historic Cherokee Trail of Tears, Princeton, KY?",
  "sql": "\nWITH origin AS  (SELECT ST_GeomFromText('POINT (-87.881135 37.107487)',4326)::geography AS geometry)\nSELECT * FROM pois, origin\nWHERE ST_DWithin(pois.geometry, ST_GeomFromText('POINT (-87.881135 37.107487)',4326)::geography, 150000)\nAND amenity = 'cafe'\nAND degrees(ST_Azimuth(origin.geometry, pois.geometry)) BETWEEN 112.5 AND 157.5;\n",
  "answers": [
    {
      "id": 36119,
      "geometry": "POINT (-87.881135 37.107487)",
      "poi_name": "Flourgirls",
      "osm_id": 2750713604,
      "amenity": "cafe",
      "cuisine": "coffee_shop",
      "internet_access": "yes",
      "addr_city": "Goodlettsville",
      "addr_postcode": "37072",
      "addr_street": "South Main Street",
      "addr_housenumber": "201"
    },
    {
      "id": 128410,
      "geometry": "POINT (-87.881135 37.107487)",
      "poi_name": "Retrograde Coffee",
      "osm_id": 8155695668,
      "amenity": "cafe",
      "cuisine": "coffee_shop",
      "outdoor_seating": "yes",
      "addr_state": "TN",
      "addr_city": "Nashville",
      "addr_postcode": "37203",
      "addr_street": "Dickerson Pike",
      "addr_housenumber": "1305"
    },
    {
      "id": 63673,
      "geometry": "POINT (-87.881135 37.107487)",
      "poi_name": "Red Bicycle",
      "osm_id": 5627359121,
      "amenity": "cafe",
      "website": "https://www.redbicyclecoffee.com/woodbine.html",
      "internet_access": "yes",
      "outdoor_seating": "yes",
      "addr_state": "TN",
      "addr_city": "Nashville",
      "addr_postcode": "37211",
      "addr_street": "Nolensville Pike",
      "addr_housenumber": "2190"
    },
    {
      "id": 100629,
      "geometry": "POINT (-87.881135 37.107487)",
      "poi_name": "Joe Muggs",
      "osm_id": 6594242063,
      "amenity": "cafe",
      "cuisine": "coffee_shop",
      "wheelchair": "yes",
      "operator": "Books-A-Million",
      "website": "https://www.booksamillion.com/joemuggs",
      "internet_access": "yes",
      "phone": "+1 931-648-1100",
      "takeaway": "yes",
      "outdoor_seating": "yes",
      "delivery": "no",
      "addr_state": "TN",
      "addr_city": "Clarksville",
      "addr_postcode": "37040",
      "addr_street": "South Hampton Place",
      "addr_housenumber": "125"
    },
    {
      "id": 69449,
      "geometry": "POINT (-87.881135 37.107487)",
      "poi_name": "Madtown Coffee",
      "osm_id": 11305114941,
      "amenity": "cafe",
      "cuisine": "coffee_shop",
      "addr_state": "TN",
      "addr_city": "Nashville",
      "addr_postcode": "37115",
      "addr_street": "Gallatin Pike",
      "addr_housenumber": "516"
    },
    {
      "id": 86932,
      "geometry": "POINT (-87.881135 37.107487)",
      "poi_name": "Fido",
      "osm_id": 1960587442,
      "amenity": "cafe",
      "addr_state": "TN",
      "addr_city": "Nashville",
      "addr_street": "21st Avenue South"
    },
    {
      "id": 90020,
      "geometry": "POINT (-87.881135 37.107487)",
      "poi_name": "Three Brothers Coffee",
      "osm_id": 8875900233,
      "amenity": "cafe",
      "addr_state": "TN",
      "addr_city": "Nashville",
      "addr_postcode": "37203",
      "addr_street": "West End Avenue",
      "addr_housenumber": "2813"
    },
    {
      "id": 123831,
      "geometry": "POINT (-87.881135 37.107487)",
      "poi_name": "Bowtie Barista",
      "osm_id": 6883099691,
      "amenity": "cafe",
      "cuisine": "coffee",
      "wheelchair": "limited",
      "outdoor_seating": "yes",
      "addr_state": "TN",
      "addr_city": "Nashville",
      "addr_postcode": "37238",
      "addr_street": "Dea",
      "addr_housenumber": "315"
    },
    {
      "id": 129069,
      "geometry": "POINT (-87.881135 37.107487)",
      "poi_name": "Yin Yang Tea",
      "osm_id": 8207422849,
      "amenity": "cafe",
      "cuisine": "bubble_tea",
      "website": "https://www.instagram.com/drinkyinyangtea/tagged/?hl=en",
      "outdoor_seating": "yes",
      "addr_state": "TN",
      "addr_city": "Nashville",
      "addr_postcode": "37208",
      "addr_street": "Van Buren Street",
      "addr_housenumber": "83"
    },
    {
      "id": 145321,
      "geometry": "POINT (-87.881135 37.107487)",
      "poi_name": "Starbucks",
      "osm_id": 7338850993,
      "amenity": "cafe",
      "cuisine": "coffee_shop",
      "opening_hours": "Mo-Su 05:00-21:00",
      "internet_access": "yes",
      "phone": "+1-615-673-0235",
      "takeaway": "yes",
      "official_name": "Starbucks Coffee",
      "outdoor_seating": "yes",
      "addr_state": "TN",
      "addr_city": "Nashville",
      "addr_postcode": "37221",
      "addr_street": "Highway 70 S",
      "addr_housenumber": "7083"
    },
    {
      "id": 164387,
      "geometry": "POINT (-87.881135 37.107487)",
      "poi_name": "Barista Parlor  Hillsboro Village",
      "osm_id": 9469541937,
      "amenity": "cafe",
      "internet_access": "wlan",
      "addr_state": "TN",
      "addr_city": "Nashville",
      "addr_street": "21st Avenue South",
      "addr_housenumber": "1817"
    },
    {
      "id": 149869,
      "geometry": "POINT (-87.881135 37.107487)",
      "poi_name": "Freeze Pleeze Ice Cream",
      "osm_id": 4030456191,
      "amenity": "cafe",
      "cuisine": "ice_cream",
      "wheelchair": "yes",
      "website": "https://www.facebook.com/freezepleeze",
      "internet_access": "no",
      "phone": "+1 931-472-5757",
      "takeaway": "yes",
      "outdoor_seating": "yes",
      "addr_state": "TN",
      "addr_city": "Clarksville",
      "addr_postcode": "37040",
      "addr_street": "North Riverside Drive",
      "addr_housenumber": "700B"
    },
    {
      "id": 176589,
      "geometry": "POINT (-87.881135 37.107487)",
      "poi_name": "Trenton Market and Cafe",
      "osm_id": 2563478198,
      "amenity": "cafe",
      "opening_hours": "Mo-We 10:00-14:30; Th-Fr 10:00-20:00; Sa 10:00-14:30",
      "website": "https://www.facebook.com/pages/Trenton-Market-and-Cafe/123151621100442",
      "phone": "+1 270-466-0999",
      "addr_state": "KY",
      "addr_city": "Trenton"
    },
    {
      "id": 179634,
      "geometry": "POINT (-87.881135 37.107487)",
      "poi_name": "Poindexter Coffee",
      "osm_id": 10771753856,
      "amenity": "cafe",
      "cuisine": "coffee_shop;breakfast",
      "opening_hours": "Mo-Su 06:30-18:00",
      "website": "https://www.graduatehotels.com/nashville/restaurant/poindexter/",
      "outdoor_seating": "no",
      "addr_state": "TN",
      "addr_city": "Nashville",
      "addr_postcode": "37203",
      "addr_street": "20th Avenue North",
      "addr_housenumber": "101"
    },
    {
      "id": 177194,
      "geometry": "POINT (-87.881135 37.107487)",
      "poi_name": "Starbucks",
      "osm_id": 2577118812,
      "amenity": "cafe",
      "cuisine": "coffee_shop",
      "internet_access": "yes",
      "phone": "615-248-3339",
      "takeaway": "yes",
      "official_name": "Starbucks Coffee",
      "addr_city": "Nashville",
      "addr_postcode": "37219",
      "addr_street": "Church Street",
      "addr_housenumber": "424"
    },
    {
      "id": 180531,
      "geometry": "POINT (-87.881135 37.107487)",
      "poi_name": "Petals Nutrition",
      "osm_id": 10805601346,
      "amenity": "cafe",
      "addr_state": "TN",
      "addr_city": "White Bluff",
      "addr_postcode": "37187",
      "addr_street": "Highway 70E",
      "addr_housenumber": "4509"
    },
    {
      "id": 204353,
      "geometry": "POINT (-87.881135 37.107487)",
      "poi_name": "Crest Coffee",
      "osm_id": 7123518171,
      "amenity": "cafe",
      "cuisine": "coffee_shop",
      "website": "https://crestcoffeehouse.com/",
      "outdoor_seating": "yes",
      "addr_state": "TN",
      "addr_city": "Nashville",
      "addr_postcode": "37203",
      "addr_street": "Martin Street",
      "addr_housenumber": "1601"
    },
    {
      "id": 204355,
      "geometry": "POINT (-87.881135 37.107487)",
      "poi_name": "Loading Dock",
      "osm_id": 7123633360,
      "amenity": "cafe",
      "cuisine": "coffee_shop;breakfast",
      "outdoor_seating": "yes",
      "addr_state": "TN",
      "addr_city": "Nashville",
      "addr_postcode": "37203",
      "addr_street": "Lindell Avenue",
      "addr_housenumber": "2028"
    },
    {
      "id": 223406,
      "geometry": "POINT (-87.881135 37.107487)",
      "poi_name": "Americano Coffee Lounge",
      "osm_id": 11051992703,
      "amenity": "cafe",
      "cuisine": "coffee_shop",
      "website": "https://americanolounge.com/",
      "internet_access": "wlan",
      "addr_state": "TN",
      "addr_city": "Nashville",
      "addr_postcode": "37203",
      "addr_street": "Houston Street",
      "addr_housenumber": "434"
    },
    {
      "id": 187155,
      "geometry": "POINT (-87.881135 37.107487)",
      "poi_name": "City Limits Bakery & Cafe",
      "osm_id": 7977468798,
      "amenity": "cafe",
      "description": "Popular local coffee shop and bakery serving a variety of coffee drinks, teas, hot breakfasts, sandwiches, and salads.",
      "opening_hours": "Mo-Fr 07:00-14:00; Sa 07:00-15:00; Su 08:00-15:00",
      "website": "https://citylimitsbakerycafe.com/",
      "phone": "+1-615-646-0062",
      "takeaway": "yes",
      "outdoor_seating": "no",
      "addr_state": "TN",
      "addr_city": "Nashville",
      "addr_postcode": "37221",
      "addr_street": "Clofton Drive",
      "addr_housenumber": "361"
    },
    {
      "id": 204867,
      "geometry": "POINT (-87.881135 37.107487)",
      "poi_name": "Sheyegirl Coffee",
      "osm_id": 7146935587,
      "amenity": "cafe",
      "cuisine": "coffee_shop",
      "website": "https://sheyegirlcoffee.co/",
      "addr_state": "TN",
      "addr_city": "Ashland City",
      "addr_postcode": "37015",
      "addr_street": "North Main Street",
      "addr_housenumber": "201"
    },
    {
      "id": 230412,
      "geometry": "POINT (-87.881135 37.107487)",
      "poi_name": "First District Coffee",
      "osm_id": 4425361996,
      "amenity": "cafe",
      "cuisine": "coffee_shop",
      "internet_access": "wlan",
      "addr_state": "TN",
      "addr_city": "Fairview",
      "addr_postcode": "37062",
      "addr_street": "Fairview Blvd",
      "addr_housenumber": "1880"
    }
  ],
  "answer_type": "loc",
  "question_entities": {
    "[1]": {
      "main_category": "amenity",
      "sub_category": "cafe"
    },
    "[2]": {
      "distance": 150000,
      "text": "150 kilometers"
    },
    "[3]": {
      "main_category": "leisure",
      "sub_category": "park",
      "display_name": "Big Springs Park - Historic Cherokee Trail of Tears, Princeton, KY",
      "geo_wkt": "POINT (-87.881135 37.107487)",
      "poi": {
        "id": 245849,
        "geometry": "POINT (-87.881135 37.107487)",
        "poi_name": "Big Springs Park - Historic Cherokee Trail of Tears",
        "osm_id": 10189140322,
        "leisure": "park",
        "addr_state": "KY",
        "addr_city": "Princeton",
        "addr_postcode": "42445",
        "addr_street": "East Washington Street"
      }
    },
    "[4]": {
      "direction_desc": "southeast",
      "direction_predicate": "degrees(ST_Azimuth(origin.geometry, pois.geometry)) BETWEEN 112.5 AND 157.5"
    }
  },
  "id": 97,
  "type": "range:direction+loc"
}