{
  "question": "Within a radius of 150 kilometers, where can I find  a fast food restaurant on the path leading to Greene County Museum, PA from Penn Hills Community Park, Verona, PA?",
  "sql": "WITH\n    angle AS (SELECT degrees(ST_Azimuth(ST_GeomFromText('POINT (-79.819277 40.516214)',4326)::geography, ST_GeomFromText('POINT (-80.124748 39.889203)',4326)::geography)) AS value)\nSELECT * FROM pois,angle\nWHERE amenity = 'fast_food'\nAND ST_DWithin(pois.geometry, ST_GeomFromText('POINT (-79.819277 40.516214)',4326)::geography, 150000)\nAND (degrees(ST_Azimuth(ST_GeomFromText('POINT (-79.819277 40.516214)',4326)::geography, pois.geometry)) BETWEEN angle.value - 22.5 AND angle.value + 22.5);\n",
  "answers": [
    {
      "id": 31300,
      "geometry": "POINT (-80.016469 40.350562)",
      "poi_name": "Vocelli Pizza",
      "osm_id": 8418601326,
      "amenity": "fast_food",
      "cuisine": "pizza",
      "addr_state": "PA",
      "addr_city": "Pittsburgh",
      "addr_postcode": "15234",
      "addr_street": "Cool Springs Drive",
      "addr_housenumber": "1001",
      "value": 200.5823408108789
    },
    {
      "id": 55803,
      "geometry": "POINT (-79.955412 39.62943)",
      "poi_name": "Burger & Bites",
      "osm_id": 10208344356,
      "amenity": "fast_food",
      "cuisine": "burger",
      "addr_state": "WV",
      "addr_city": "Morgantown",
      "addr_postcode": "26505",
      "addr_street": "Walnut Street",
      "addr_housenumber": "234",
      "value": 200.5823408108789
    },
    {
      "id": 55735,
      "geometry": "POINT (-79.955007 39.631029)",
      "poi_name": "Jimmy John's",
      "osm_id": 10205274320,
      "amenity": "fast_food",
      "cuisine": "sandwich",
      "takeaway": "yes",
      "official_name": "Jimmy John's Gourmet Sandwiches",
      "addr_state": "WV",
      "addr_city": "Morgantown",
      "addr_postcode": "26505",
      "addr_street": "High Street",
      "addr_housenumber": "405",
      "value": 200.5823408108789
    },
    {
      "id": 55747,
      "geometry": "POINT (-79.955573 39.629993)",
      "poi_name": "Nutrition Lounge",
      "osm_id": 10205347905,
      "amenity": "fast_food",
      "cuisine": "juice;smoothie",
      "addr_state": "WV",
      "addr_city": "Morgantown",
      "addr_postcode": "26505",
      "addr_street": "High Street",
      "addr_housenumber": "320",
      "value": 200.5823408108789
    },
    {
      "id": 38073,
      "geometry": "POINT (-79.964876 39.650104)",
      "poi_name": "Pizza Al's",
      "osm_id": 2844179718,
      "amenity": "fast_food",
      "cuisine": "pizza",
      "website": "https://www.pizzaals.com//",
      "phone": "+1-304-599-4040",
      "addr_state": "WV",
      "addr_city": "Morgantown",
      "addr_postcode": "26505",
      "addr_street": "University Avenue",
      "addr_housenumber": "2952",
      "value": 200.5823408108789
    },
    {
      "id": 53672,
      "geometry": "POINT (-79.868718 40.383784)",
      "poi_name": "Subway",
      "osm_id": 10090405317,
      "amenity": "fast_food",
      "cuisine": "sandwich",
      "opening_hours": "Mo-Su 08:00-21:30",
      "website": "https://restaurants.subway.com/united-states/pa/west-mifflin/1325-hoffman-blvd",
      "phone": "+1-412-462-5051",
      "takeaway": "yes",
      "addr_state": "PA",
      "addr_city": "West Mifflin",
      "addr_postcode": "15122",
      "addr_street": "Hoffman Boulevard",
      "addr_housenumber": "1325",
      "value": 200.5823408108789
    },
    {
      "id": 151538,
      "geometry": "POINT (-79.855716 39.672834)",
      "poi_name": "Fat Anthony's",
      "osm_id": 4103943584,
      "amenity": "fast_food",
      "cuisine": "pizza",
      "takeaway": "yes",
      "delivery": "yes",
      "addr_state": "WV",
      "addr_city": "Morgantown",
      "addr_postcode": "26508",
      "value": 200.5823408108789
    },
    {
      "id": 120414,
      "geometry": "POINT (-79.850522 40.420537)",
      "poi_name": "Dunkin'",
      "osm_id": 6702169705,
      "amenity": "fast_food",
      "cuisine": "donut;coffee_shop",
      "operator": "Dunkin",
      "internet_access": "wlan",
      "takeaway": "yes",
      "drive_through": "yes",
      "outdoor_seating": "yes",
      "addr_state": "PA",
      "addr_city": "Forest Hills",
      "addr_postcode": "15221",
      "addr_street": "Ardmore Boulevard",
      "addr_housenumber": "2065",
      "value": 200.5823408108789
    },
    {
      "id": 121012,
      "geometry": "POINT (-80.237618 40.166965)",
      "poi_name": "Subs Unlimited",
      "osm_id": 6737799984,
      "amenity": "fast_food",
      "cuisine": "sandwich",
      "opening_hours": "Mo-Fr 06:30-21:00; Sa 08:00-21:00",
      "website": "http://www.subsunlimited.com/",
      "drive_through": "no",
      "addr_state": "PA",
      "addr_city": "Washington",
      "addr_postcode": "15301",
      "addr_street": "East Maiden Street",
      "addr_housenumber": "328",
      "value": 200.5823408108789
    },
    {
      "id": 129773,
      "geometry": "POINT (-79.954421 39.631776)",
      "poi_name": "Chipotle",
      "osm_id": 9840109156,
      "amenity": "fast_food",
      "cuisine": "mexican",
      "takeaway": "yes",
      "official_name": "Chipotle Mexican Grill",
      "addr_state": "WV",
      "addr_city": "Morgantown",
      "addr_postcode": "26505",
      "addr_street": "High Street",
      "addr_housenumber": "461",
      "value": 200.5823408108789
    },
    {
      "id": 132497,
      "geometry": "POINT (-79.826791 40.464864)",
      "poi_name": "Subway",
      "osm_id": 9957522756,
      "amenity": "fast_food",
      "cuisine": "sandwich",
      "opening_hours": "Mo-Fr 09:30-21:00; Sa 09:30-20:00; Su 09:30-18:00",
      "website": "https://restaurants.subway.com/united-states/pa/pittsburgh/11667-penn-hills-dr",
      "phone": "+1-412-241-6110",
      "takeaway": "yes",
      "addr_state": "PA",
      "addr_city": "Pittsburgh",
      "addr_postcode": "15235",
      "addr_street": "Penn Hills Drive",
      "addr_housenumber": "11667",
      "value": 200.5823408108789
    },
    {
      "id": 108261,
      "geometry": "POINT (-80.21368 40.190329)",
      "poi_name": "Jimmy John's",
      "osm_id": 3606103639,
      "amenity": "fast_food",
      "cuisine": "sandwich",
      "opening_hours": "Mo-Sa 10:00-21:00; Su 10:00-18:00",
      "website": "https://locations.jimmyjohns.com/pa/washington/sandwiches-73.html?utm_source=google%20my%20business&utm_medium=organic&utm_campaign=website%20link",
      "phone": "+17242227112",
      "takeaway": "yes",
      "drive_through": "no",
      "official_name": "Jimmy John's Gourmet Sandwiches",
      "addr_state": "PA",
      "addr_city": "Washington",
      "addr_postcode": "15301",
      "addr_street": "Manifold Road",
      "addr_housenumber": "996",
      "value": 200.5823408108789
    },
    {
      "id": 129775,
      "geometry": "POINT (-79.955187 39.63088)",
      "poi_name": "Pita Pit",
      "osm_id": 9840109167,
      "amenity": "fast_food",
      "cuisine": "pita",
      "takeaway": "yes",
      "addr_state": "WV",
      "addr_city": "Morgantown",
      "addr_postcode": "26505",
      "addr_street": "High Street",
      "addr_housenumber": "387",
      "value": 200.5823408108789
    },
    {
      "id": 164332,
      "geometry": "POINT (-79.981893 40.289936)",
      "poi_name": "Italian Village Pizza",
      "osm_id": 9466205351,
      "amenity": "fast_food",
      "cuisine": "pizza",
      "phone": "+1-724-348-5700",
      "addr_state": "PA",
      "addr_city": "South Park",
      "addr_postcode": "15129",
      "addr_street": "Ridge Road",
      "addr_housenumber": "2951",
      "value": 200.5823408108789
    },
    {
      "id": 174982,
      "geometry": "POINT (-80.038695 40.327958)",
      "poi_name": "Subway",
      "osm_id": 2502405750,
      "amenity": "fast_food",
      "cuisine": "sandwich",
      "takeaway": "yes",
      "addr_state": "PA",
      "addr_city": "Bethel Park",
      "addr_postcode": "15102",
      "addr_street": "Industrial Boulevard",
      "addr_housenumber": "2880",
      "value": 200.5823408108789
    },
    {
      "id": 174910,
      "geometry": "POINT (-80.023342 40.333418)",
      "poi_name": "Moe's Southwest Grill",
      "osm_id": 2500998038,
      "amenity": "fast_food",
      "cuisine": "mexican",
      "takeaway": "yes",
      "addr_city": "Bethel Park",
      "addr_street": "W Library Avenue",
      "addr_housenumber": "5211",
      "value": 200.5823408108789
    },
    {
      "id": 175091,
      "geometry": "POINT (-79.82176 40.387342)",
      "poi_name": "Subway",
      "osm_id": 2505421483,
      "amenity": "fast_food",
      "cuisine": "sandwich",
      "opening_hours": "Su 8:30-21:00;Mo-Fr 7:00-22:00;Sa 7:30-22:00",
      "website": "https://www.subway.com/",
      "phone": "+1-412-271-7165",
      "takeaway": "yes",
      "delivery": "no",
      "addr_state": "PA",
      "addr_city": "North Versailles",
      "addr_postcode": "15137",
      "addr_street": "Greensburg Pike",
      "addr_housenumber": "995",
      "value": 200.5823408108789
    },
    {
      "id": 175026,
      "geometry": "POINT (-80.220653 40.184777)",
      "poi_name": "Arby's",
      "osm_id": 2503424739,
      "amenity": "fast_food",
      "cuisine": "sandwich",
      "takeaway": "yes",
      "addr_state": "PA",
      "value": 200.5823408108789
    },
    {
      "id": 175094,
      "geometry": "POINT (-79.822809 40.384694)",
      "poi_name": "Wendy's",
      "osm_id": 2505421500,
      "amenity": "fast_food",
      "cuisine": "burger",
      "opening_hours": "Su-Sa 10:00-24:00",
      "website": "https://www.wendys.com/",
      "phone": "+1-412-823-5165",
      "takeaway": "yes",
      "drive_through": "yes",
      "delivery": "no",
      "addr_state": "PA",
      "addr_city": "North Versailles",
      "addr_postcode": "15137",
      "addr_street": "Lincoln Highway",
      "addr_housenumber": "351",
      "value": 200.5823408108789
    },
    {
      "id": 191073,
      "geometry": "POINT (-79.85515 39.672751)",
      "poi_name": "Walzzy's Hot Dogs",
      "osm_id": 1336322519,
      "amenity": "fast_food",
      "opening_hours": "Mo-Su 11:00-20:00",
      "website": "https://m.facebook.com/WalzzysHotdogs/?__nodl&_rdr",
      "phone": "+1-304-435-3445",
      "addr_state": "WV",
      "addr_city": "Morgantown",
      "addr_postcode": "26508",
      "addr_street": "Ashebrooke Square",
      "addr_housenumber": "512",
      "value": 200.5823408108789
    },
    {
      "id": 191074,
      "geometry": "POINT (-79.855215 39.672842)",
      "poi_name": "Dragon Cafe",
      "osm_id": 1336331308,
      "amenity": "fast_food",
      "cuisine": "chinese",
      "website": "https://www.dragoncafewv.com/",
      "takeaway": "yes",
      "delivery": "no",
      "addr_state": "WV",
      "addr_city": "Morgantown",
      "addr_postcode": "26508",
      "addr_street": "Ashebrooke Square",
      "addr_housenumber": "510",
      "value": 200.5823408108789
    },
    {
      "id": 206459,
      "geometry": "POINT (-80.165733 39.896575)",
      "poi_name": "Subway",
      "osm_id": 7211889452,
      "amenity": "fast_food",
      "cuisine": "sandwich",
      "takeaway": "yes",
      "drive_through": "no",
      "addr_state": "PA",
      "addr_city": "Waynesburg",
      "addr_postcode": "15370",
      "addr_street": "East High Street",
      "addr_housenumber": "1630",
      "value": 200.5823408108789
    },
    {
      "id": 202068,
      "geometry": "POINT (-79.972032 39.650619)",
      "poi_name": "Arby's",
      "osm_id": 676385476,
      "amenity": "fast_food",
      "cuisine": "sandwich",
      "opening_hours": "Mo-Su 09:45-22:30",
      "takeaway": "yes",
      "addr_state": "WV",
      "addr_city": "Morgantown",
      "addr_postcode": "26505",
      "addr_street": "Patteson Drive",
      "addr_housenumber": "331",
      "value": 200.5823408108789
    },
    {
      "id": 227956,
      "geometry": "POINT (-79.954842 39.630886)",
      "poi_name": "Subway",
      "osm_id": 4324655757,
      "amenity": "fast_food",
      "cuisine": "sandwich",
      "takeaway": "yes",
      "addr_state": "WV",
      "addr_city": "Morgantown",
      "addr_postcode": "26505",
      "addr_street": "High Street",
      "value": 200.5823408108789
    },
    {
      "id": 229920,
      "geometry": "POINT (-80.220205 40.184154)",
      "poi_name": "Moe's Southwest Grill",
      "osm_id": 4406303241,
      "amenity": "fast_food",
      "cuisine": "mexican",
      "opening_hours": "Mo-Su 11:00-21:00",
      "website": "https://locations.moes.com/pa/washington/118-trinity-point-drive?utm_source=google&utm_medium=organic&utm_campaign=locations_partner",
      "phone": "+17242231000",
      "takeaway": "yes",
      "drive_through": "no",
      "addr_state": "PA",
      "addr_city": "Washington",
      "addr_postcode": "15301",
      "addr_street": "Trinity Point Drive",
      "addr_housenumber": "118",
      "value": 200.5823408108789
    },
    {
      "id": 229921,
      "geometry": "POINT (-80.219511 40.184538)",
      "poi_name": "Panera Bread",
      "osm_id": 4406303242,
      "amenity": "fast_food",
      "cuisine": "sandwich;bakery",
      "opening_hours": "Mo-Fr 06:30-21:00; Sa-Su 07:00-21:00",
      "website": "https://locations.panerabread.com/pa/washington/108-trinity-pointe-drive.html?utm_medium=display-ad&utm_source=paid-digital&utm_campaign=yext&utm_content=local-search",
      "phone": "+17242259778",
      "takeaway": "yes",
      "drive_through": "no",
      "addr_state": "PA",
      "addr_city": "Washington",
      "addr_postcode": "15301",
      "addr_street": "Trinity Point Drive",
      "addr_housenumber": "108",
      "value": 200.5823408108789
    },
    {
      "id": 240892,
      "geometry": "POINT (-79.963814 39.657543)",
      "poi_name": "Domino's",
      "osm_id": 5998101092,
      "amenity": "fast_food",
      "cuisine": "pizza",
      "takeaway": "yes",
      "drive_through": "yes",
      "delivery": "yes",
      "addr_state": "WV",
      "addr_city": "Morgantown",
      "addr_postcode": "26505",
      "addr_street": "Van Voorhis Road",
      "addr_housenumber": "1159",
      "value": 200.5823408108789
    }
  ],
  "answer_type": "loc",
  "question_entities": {
    "[2]": {
      "distance": 150000,
      "text": "150 kilometers"
    },
    "[3]": {
      "main_category": "leisure",
      "sub_category": "park",
      "display_name": "Penn Hills Community Park, Verona, PA",
      "geo_wkt": "POINT (-79.819277 40.516214)",
      "poi": {
        "id": 254540,
        "geometry": "POINT (-79.819277 40.516214)",
        "poi_name": "Penn Hills Community Park",
        "osm_id": 357364855,
        "leisure": "park",
        "operator": "Municipality of Penn Hills",
        "addr_state": "PA",
        "addr_city": "Verona",
        "addr_postcode": "15147",
        "addr_street": "Colorado Street",
        "addr_housenumber": "121"
      }
    },
    "[4]": {
      "main_category": "tourism",
      "sub_category": "museum",
      "display_name": "Greene County Museum, PA",
      "geo_wkt": "POINT (-80.124748 39.889203)",
      "poi": {
        "id": 17735,
        "geometry": "POINT (-80.124748 39.889203)",
        "poi_name": "Greene County Museum",
        "osm_id": 367974398,
        "tourism": "museum",
        "website": "https://greenecountyhistory.org/exhibits/",
        "addr_state": "PA"
      }
    },
    "[1]": {
      "main_category": "amenity",
      "sub_category": "fast_food"
    }
  },
  "id": 1298,
  "type": "range:towards+loc"
}