{
  "question": "In search of a restaurant with outdoor seating and ideally located within 70 kilometers from Lava Lands Visitor Center, Bend, OR. Can you find one for me?",
  "sql": "SELECT * FROM pois\nWHERE ST_DWithin(pois.geometry, ST_GeomFromText('POINT (-121.356879 43.909835)',4326)::geography, 70000)\nAND amenity = 'restaurant'\nAND outdoor_seating ILIKE '%yes%';\n",
  "answers": [
    {
      "id": 113856,
      "geometry": "POINT (-121.311179 44.058062)",
      "poi_name": "Jackalope Grill",
      "osm_id": 3851865157,
      "amenity": "restaurant",
      "opening_hours": "16:30+",
      "operator": "Tim Garling",
      "website": "https://www.jackalopegrill.com/",
      "phone": "+1-541-318-8435",
      "outdoor_seating": "yes",
      "delivery": "no",
      "addr_state": "OR",
      "addr_city": "Bend",
      "addr_postcode": "97703",
      "addr_street": "Northwest Lava Road",
      "addr_housenumber": "750"
    },
    {
      "id": 156873,
      "geometry": "POINT (-121.312977 44.060792)",
      "poi_name": "Super Burrito",
      "osm_id": 4675725671,
      "amenity": "restaurant",
      "cuisine": "mexican",
      "phone": "+1-541-312-2009",
      "takeaway": "yes",
      "outdoor_seating": "yes",
      "delivery": "no",
      "addr_state": "OR",
      "addr_city": "Bend",
      "addr_postcode": "97703",
      "addr_street": "Northwest Wall Street",
      "addr_housenumber": "1133"
    },
    {
      "id": 118292,
      "geometry": "POINT (-121.437626 43.873374)",
      "poi_name": "South Bend Bistro",
      "osm_id": 9037245246,
      "amenity": "restaurant",
      "website": "https://www.southbendbistro.com/",
      "phone": "+1-541-593-3881",
      "outdoor_seating": "yes",
      "addr_state": "OR",
      "addr_city": "Sunriver",
      "addr_postcode": "97707",
      "addr_street": "Abbot Drive",
      "addr_housenumber": "57080"
    },
    {
      "id": 118571,
      "geometry": "POINT (-121.436109 43.873696)",
      "poi_name": "Village Bar & Grill",
      "osm_id": 9051895995,
      "amenity": "restaurant",
      "cuisine": "american",
      "website": "https://sunrivervbag.com/",
      "phone": "+1-541-593-1100",
      "outdoor_seating": "yes",
      "addr_state": "OR",
      "addr_city": "Sunriver",
      "addr_postcode": "97707",
      "addr_street": "Beaver Drive",
      "addr_housenumber": "57100"
    },
    {
      "id": 153362,
      "geometry": "POINT (-121.55145 44.291471)",
      "poi_name": "Martolli's of Sisters",
      "osm_id": 4193698932,
      "amenity": "restaurant",
      "cuisine": "pizza",
      "wheelchair": "yes",
      "opening_hours": "Mo-Su 11:00-21:00",
      "website": "http://www.sistersmartollis.com/",
      "phone": "+1 541 549 8356",
      "outdoor_seating": "yes",
      "addr_state": "OR",
      "addr_city": "Sisters",
      "addr_postcode": "97759",
      "addr_street": "West Cascade Avenue",
      "addr_housenumber": "220"
    },
    {
      "id": 154685,
      "geometry": "POINT (-121.315193 44.058271)",
      "poi_name": "Drake",
      "osm_id": 4251943916,
      "amenity": "restaurant",
      "cuisine": "american",
      "opening_hours": "Mo-Su 11:00-21:30; Fr,Sa 11:00-22:30",
      "website": "https://www.drakebend.com/",
      "phone": "+1-541-306-3366",
      "outdoor_seating": "yes",
      "addr_state": "OR",
      "addr_city": "Bend",
      "addr_postcode": "97703",
      "addr_street": "Northwest Wall Street",
      "addr_housenumber": "801"
    },
    {
      "id": 162800,
      "geometry": "POINT (-121.305926 44.079759)",
      "poi_name": "Currents",
      "osm_id": 4941524666,
      "amenity": "restaurant",
      "opening_hours": "Mo-Fr 06:00-23:00; Sa,Su 07:00-23:00",
      "website": "https://www.currentsbend.com/",
      "phone": "+1-541-389-8810",
      "outdoor_seating": "yes",
      "addr_state": "OR",
      "addr_city": "Bend",
      "addr_postcode": "97703",
      "addr_street": "North Highway 97",
      "addr_housenumber": "3075"
    },
    {
      "id": 188620,
      "geometry": "POINT (-121.549222 44.291456)",
      "poi_name": "Rancho Viejo Mexican Restaurant",
      "osm_id": 1166676948,
      "amenity": "restaurant",
      "cuisine": "mexican",
      "website": "https://www.ranchoviejosistersoregon.com/",
      "phone": "+1 541 549 3594",
      "outdoor_seating": "yes",
      "addr_state": "OR",
      "addr_city": "Sisters",
      "addr_postcode": "97759",
      "addr_street": "East Cascade Avenue",
      "addr_housenumber": "150"
    },
    {
      "id": 238201,
      "geometry": "POINT (-121.446637 43.87408)",
      "poi_name": "Lodge Kitchen",
      "osm_id": 5866472289,
      "amenity": "restaurant",
      "cuisine": "regional;american",
      "website": "https://www.sunriverresort.com/dining-eat-drink/restaurants/lodge-kitchen",
      "takeaway": "yes",
      "outdoor_seating": "yes",
      "addr_state": "OR",
      "addr_city": "Sunriver",
      "addr_postcode": "97707",
      "addr_street": "Center Drive"
    }
  ],
  "answer_type": "loc",
  "question_entities": {
    "[1]": {
      "main_category": "amenity",
      "sub_category": "restaurant",
      "poi_filter_desc": "restaurant with outdoor seating",
      "poi_filter_sql": "outdoor_seating ILIKE '%yes%'"
    },
    "[2]": {
      "distance": 70000,
      "text": "70 kilometers"
    },
    "[3]": {
      "main_category": "tourism",
      "sub_category": "attraction",
      "display_name": "Lava Lands Visitor Center, Bend, OR",
      "geo_wkt": "POINT (-121.356879 43.909835)",
      "poi": {
        "id": 25564,
        "geometry": "POINT (-121.356879 43.909835)",
        "poi_name": "Lava Lands Visitor Center",
        "osm_id": 4541068773,
        "tourism": "attraction",
        "website": "https://www.fs.usda.gov/recarea/deschutes/recreation/recarea/?recid=38384",
        "addr_state": "OR",
        "addr_city": "Bend",
        "addr_street": "US-97",
        "addr_housenumber": "58201"
      }
    }
  },
  "id": 400,
  "type": "range:non_spat_filter+loc"
}