{
  "question": "Where can I find a restaurant located within 60 kilometers in the direction of southeast from SEA LIFE Minnesota Aquarium, Bloomington, MN?",
  "sql": "\nWITH origin AS  (SELECT ST_GeomFromText('POINT (-93.240076 44.854752)',4326)::geography AS geometry)\nSELECT * FROM pois, origin\nWHERE ST_DWithin(pois.geometry, ST_GeomFromText('POINT (-93.240076 44.854752)',4326)::geography, 60000)\nAND amenity = 'restaurant'\nAND degrees(ST_Azimuth(origin.geometry, pois.geometry)) BETWEEN 112.5 AND 157.5;\n",
  "answers": [
    {
      "id": 88835,
      "geometry": "POINT (-93.240076 44.854752)",
      "poi_name": "Mason Jar Kitchen",
      "osm_id": 8803871768,
      "amenity": "restaurant",
      "cuisine": "american",
      "opening_hours": "Su-Th 08:00-20:00; Fr-Sa 08:00-21:00",
      "website": "https://masonjar.kitchen/",
      "phone": "+1 651 340 7809",
      "addr_state": "MN",
      "addr_city": "Eagan",
      "addr_postcode": "55122",
      "addr_street": "Cliff Road",
      "addr_housenumber": "1565"
    },
    {
      "id": 76713,
      "geometry": "POINT (-93.240076 44.854752)",
      "poi_name": "Hey Yu & Song Tea",
      "osm_id": 9789282196,
      "amenity": "restaurant",
      "cuisine": "chinese;tea;milk_tea",
      "opening_hours": "Mo-Su 10:30-21:30",
      "website": "https://www.heyyusongtea.com/",
      "phone": "+1 (651) 346-1378",
      "addr_state": "MN",
      "addr_city": "Hastings",
      "addr_postcode": "55033",
      "addr_street": "North Frontage Road",
      "addr_housenumber": "1741"
    },
    {
      "id": 71522,
      "geometry": "POINT (-93.240076 44.854752)",
      "poi_name": "Rocco's Pizza",
      "osm_id": 11393197501,
      "amenity": "restaurant",
      "cuisine": "pizza",
      "website": "https://www.roccospizza.com/",
      "addr_state": "MN",
      "addr_city": "Apple Valley",
      "addr_postcode": "55124",
      "addr_street": "Pilot Knob Road",
      "addr_housenumber": "14050"
    },
    {
      "id": 90247,
      "geometry": "POINT (-93.240076 44.854752)",
      "poi_name": "Eddie Cheng",
      "osm_id": 1987269580,
      "amenity": "restaurant",
      "cuisine": "chinese",
      "wheelchair": "yes",
      "takeaway": "yes",
      "outdoor_seating": "no",
      "addr_state": "MN",
      "addr_city": "Rosemount"
    },
    {
      "id": 152836,
      "geometry": "POINT (-93.240076 44.854752)",
      "poi_name": "Giuseppe's",
      "osm_id": 4162358693,
      "amenity": "restaurant",
      "cuisine": "italian",
      "opening_hours": "Mo-Th 11:00-21:00; Fr,Sa 11:00-21:30; Su 15:00-21:00",
      "delivery": "no",
      "addr_state": "MN",
      "addr_city": "Rosemount",
      "addr_postcode": "55068",
      "addr_street": "Chippendale Avenue West",
      "addr_housenumber": "15090"
    },
    {
      "id": 164327,
      "geometry": "POINT (-93.240076 44.854752)",
      "poi_name": "Oryza Poke & Ramen",
      "osm_id": 9464286595,
      "amenity": "restaurant",
      "cuisine": "ramen;hawaiian",
      "website": "https://oryzapokeramen.aiyaorder.us/#/",
      "phone": "651-493-3242",
      "addr_state": "MN",
      "addr_city": "Eagan",
      "addr_postcode": "55123",
      "addr_street": "Diffley Road",
      "addr_housenumber": "1016"
    },
    {
      "id": 188038,
      "geometry": "POINT (-93.240076 44.854752)",
      "poi_name": "Little Oscar's",
      "osm_id": 1125406138,
      "amenity": "restaurant",
      "cuisine": "american",
      "phone": "+1-651-437-6327",
      "addr_state": "MN",
      "addr_city": "Hampton",
      "addr_postcode": "55031",
      "addr_street": "Emery Avenue",
      "addr_housenumber": "23470"
    },
    {
      "id": 198634,
      "geometry": "POINT (-93.240076 44.854752)",
      "poi_name": "Rancho Loco Grill & Bar",
      "osm_id": 906268437,
      "amenity": "restaurant",
      "cuisine": "mexican",
      "website": "https://rancholocomn.com/",
      "phone": "+1-507-263-2307",
      "addr_state": "MN",
      "addr_city": "Cannon Falls",
      "addr_postcode": "55009",
      "addr_street": "64th Avenue Path",
      "addr_housenumber": "31303"
    },
    {
      "id": 203633,
      "geometry": "POINT (-93.240076 44.854752)",
      "poi_name": "Mill Street Tavern",
      "osm_id": 7096042073,
      "amenity": "restaurant",
      "cuisine": "american",
      "website": "http://www.millstreettavern.com/",
      "phone": "+1 507 263 9429",
      "addr_city": "Cannon Falls",
      "addr_postcode": "55009",
      "addr_street": "Mill Street West",
      "addr_housenumber": "410"
    },
    {
      "id": 203635,
      "geometry": "POINT (-93.240076 44.854752)",
      "poi_name": "Great China",
      "osm_id": 7096058842,
      "amenity": "restaurant",
      "cuisine": "chinese",
      "phone": "+1 507 263 8868",
      "addr_state": "MN",
      "addr_city": "Cannon Falls",
      "addr_postcode": "55009"
    },
    {
      "id": 203636,
      "geometry": "POINT (-93.240076 44.854752)",
      "poi_name": "Falls Landing",
      "osm_id": 7096091791,
      "amenity": "restaurant",
      "cuisine": "american",
      "website": "https://www.fallslandingmn.com/",
      "phone": "+1 651 829 1640",
      "addr_city": "Cannon Falls",
      "addr_postcode": "55009",
      "addr_street": "4th Street South",
      "addr_housenumber": "1223"
    },
    {
      "id": 203637,
      "geometry": "POINT (-93.240076 44.854752)",
      "poi_name": "Chuggers Bar & Grill",
      "osm_id": 7096119872,
      "amenity": "restaurant",
      "cuisine": "american",
      "phone": "+1 507 263 0680",
      "addr_city": "Cannon Falls",
      "addr_postcode": "55009",
      "addr_street": "4th Street South",
      "addr_housenumber": "104"
    },
    {
      "id": 203638,
      "geometry": "POINT (-93.240076 44.854752)",
      "poi_name": "Brewster's Bar & Grill",
      "osm_id": 7096119873,
      "amenity": "restaurant",
      "cuisine": "american",
      "phone": "+1 507 263 5020",
      "addr_city": "Cannon Falls",
      "addr_postcode": "55009",
      "addr_street": "4th Street South",
      "addr_housenumber": "115"
    },
    {
      "id": 203639,
      "geometry": "POINT (-93.240076 44.854752)",
      "poi_name": "Nick's Downtown Diner",
      "osm_id": 7096119874,
      "amenity": "restaurant",
      "cuisine": "american",
      "website": "https://www.nicksdowntowndiner.com/",
      "phone": "+1 507 263 0003",
      "addr_city": "Cannon Falls",
      "addr_postcode": "55009",
      "addr_street": "West Mill Street",
      "addr_housenumber": "331"
    }
  ],
  "answer_type": "loc",
  "question_entities": {
    "[1]": {
      "main_category": "amenity",
      "sub_category": "restaurant"
    },
    "[2]": {
      "distance": 60000,
      "text": "60 kilometers"
    },
    "[3]": {
      "main_category": "tourism",
      "sub_category": "aquarium",
      "display_name": "SEA LIFE Minnesota Aquarium, Bloomington, MN",
      "geo_wkt": "POINT (-93.240076 44.854752)",
      "poi": {
        "id": 25908,
        "geometry": "POINT (-93.240076 44.854752)",
        "poi_name": "SEA LIFE Minnesota Aquarium",
        "osm_id": 5739830095,
        "description": "Sea Life at Mall of America is a public aquarium located in the Mall of America in Bloomington, Minnesota, United States. The 1.3 million-US-gallon aquarium contains thousands of aquatic creatures, including sea turtles, sharks, sawfish, stingrays, jellyf",
        "tourism": "aquarium",
        "fee": "yes",
        "opening_hours": "Mo-Th 11:00-18:00; Fr-Sa 10:00-20:00; Su 11:00-18:00",
        "operator": "Merlin Entertainments'",
        "website": "https://www.visitsealife.com/minnesota/",
        "phone": "+1-952-883-0202",
        "addr_state": "MN",
        "addr_city": "Bloomington",
        "addr_postcode": "55425",
        "addr_street": "East Broadway",
        "addr_housenumber": "120"
      }
    },
    "[4]": {
      "direction_desc": "southeast",
      "direction_predicate": "degrees(ST_Azimuth(origin.geometry, pois.geometry)) BETWEEN 112.5 AND 157.5"
    }
  },
  "id": 98,
  "type": "range:direction+loc"
}