{
  "question": "What caf\u00e9 is available as I head towards Salus University, Elkins Park, PA within 30 kilometers from S 22nd and Sears St. Garden, Philadelphia, PA?",
  "sql": "WITH\n    angle AS (SELECT degrees(ST_Azimuth(ST_GeomFromText('POINT (-75.180513 39.935321)',4326)::geography, ST_GeomFromText('POINT (-75.129394 40.086172)',4326)::geography)) AS value)\nSELECT * FROM pois,angle\nWHERE amenity = 'cafe'\nAND ST_DWithin(pois.geometry, ST_GeomFromText('POINT (-75.180513 39.935321)',4326)::geography, 30000)\nAND (degrees(ST_Azimuth(ST_GeomFromText('POINT (-75.180513 39.935321)',4326)::geography, pois.geometry)) BETWEEN angle.value - 22.5 AND angle.value + 22.5);\n",
  "answers": [
    {
      "id": 31745,
      "geometry": "POINT (-75.156011 39.988236)",
      "poi_name": "Tribe Cafe",
      "osm_id": 8444078986,
      "amenity": "cafe",
      "opening_hours": "Mo-Sa 08:00-22:30",
      "outdoor_seating": "no",
      "addr_state": "PA",
      "addr_city": "Philadelphia",
      "addr_postcode": "19132",
      "addr_street": "North Broad Street",
      "addr_housenumber": "2310",
      "value": 14.58866450109694
    },
    {
      "id": 33096,
      "geometry": "POINT (-75.086608 40.180697)",
      "poi_name": "Angel's Donuts",
      "osm_id": 2652353919,
      "amenity": "cafe",
      "cuisine": "donut",
      "addr_state": "PA",
      "addr_city": "Hatboro",
      "addr_postcode": "19040",
      "addr_street": "East County Line Road",
      "addr_housenumber": "267",
      "value": 14.58866450109694
    },
    {
      "id": 33156,
      "geometry": "POINT (-75.167431 39.951495)",
      "poi_name": "Saxbys",
      "osm_id": 2654363315,
      "amenity": "cafe",
      "wheelchair": "yes",
      "opening_hours": "Mo-Sa 08:00-15:00; Su 12:00-18:00",
      "website": "https://www.saxbyscoffee.com/location/saxbys-liberty-place",
      "phone": "+1 267-319-1597",
      "addr_city": "Philadelphia",
      "addr_postcode": "19103",
      "addr_street": "Chestnut Street",
      "addr_housenumber": "1625",
      "value": 14.58866450109694
    },
    {
      "id": 33159,
      "geometry": "POINT (-75.17904 39.942548)",
      "poi_name": "Ultimo Coffee",
      "osm_id": 2654389780,
      "amenity": "cafe",
      "cuisine": "coffee_shop",
      "opening_hours": "Mo-Fr 07:00-19:00; Sa, Su 08:00-19:00",
      "website": "https://www.ultimocoffee.com/",
      "internet_access": "wlan",
      "phone": "+1-215-545-3565",
      "outdoor_seating": "yes",
      "addr_city": "Philadelphia",
      "addr_postcode": "19146",
      "addr_street": "Catharine Street",
      "addr_housenumber": "2149",
      "value": 14.58866450109694
    },
    {
      "id": 37262,
      "geometry": "POINT (-75.1771 39.945)",
      "poi_name": "Social House Eatery and Cafe",
      "osm_id": 2805227385,
      "amenity": "cafe",
      "opening_hours": "Mo-Fr 07:30-15:00; Sa, Su 08:00-15:00",
      "addr_city": "Philadelphia",
      "addr_postcode": "19146",
      "addr_street": "South Street",
      "addr_housenumber": "2100",
      "value": 14.58866450109694
    },
    {
      "id": 34107,
      "geometry": "POINT (-75.165305 39.951667)",
      "poi_name": "La Colombe Coffee Roasters",
      "osm_id": 2694849009,
      "amenity": "cafe",
      "cuisine": "coffee_shop",
      "wheelchair": "yes",
      "opening_hours": "Mo-Fr 07:00-19:00, Sa-Su 08:00-19:00",
      "website": "https://www.lacolombe.com/",
      "internet_access": "no",
      "phone": "+1-215-977-7770",
      "takeaway": "yes",
      "addr_city": "Philadelphia",
      "addr_postcode": "19102",
      "addr_street": "South Penn Square",
      "addr_housenumber": "1414",
      "value": 14.58866450109694
    },
    {
      "id": 37027,
      "geometry": "POINT (-75.177554 39.939375)",
      "poi_name": "Cafe Ynez",
      "osm_id": 2794791042,
      "amenity": "cafe",
      "cuisine": "mexican",
      "website": "https://www.cafeynez.com/",
      "phone": "(215) 278-7579",
      "addr_city": "Philadelphia",
      "addr_postcode": "19146",
      "addr_street": "Washington Avenue",
      "addr_housenumber": "2025",
      "value": 14.58866450109694
    },
    {
      "id": 37044,
      "geometry": "POINT (-75.179253 39.951306)",
      "poi_name": "Good Karma Caf\u00e9",
      "osm_id": 2795220436,
      "amenity": "cafe",
      "cuisine": "coffee_shop",
      "wheelchair": "yes",
      "opening_hours": "Mo-Su 06:00-21:00",
      "website": "http://www.thegoodkarmacafe.com/",
      "internet_access": "wlan",
      "phone": "+1-267-239-2068",
      "addr_city": "Philadelphia",
      "addr_postcode": "19103",
      "addr_street": "Walnut Street",
      "addr_housenumber": "2319",
      "value": 14.58866450109694
    },
    {
      "id": 42761,
      "geometry": "POINT (-75.166718 39.954674)",
      "poi_name": "Starbucks",
      "osm_id": 3077101935,
      "amenity": "cafe",
      "cuisine": "coffee_shop",
      "wheelchair": "yes",
      "opening_hours": "Mo-Fr 05:30-20:00; Sa-Su 06:30-19:30",
      "takeaway": "yes",
      "official_name": "Starbucks Coffee",
      "addr_state": "PA",
      "addr_city": "Philadelphia",
      "addr_postcode": "19103",
      "addr_street": "Arch Street",
      "addr_housenumber": "1600",
      "value": 14.58866450109694
    },
    {
      "id": 52084,
      "geometry": "POINT (-75.127233 40.07181)",
      "poi_name": "Elkins Perk",
      "osm_id": 569878160,
      "amenity": "cafe",
      "value": 14.58866450109694
    },
    {
      "id": 46400,
      "geometry": "POINT (-75.175552 39.943109)",
      "poi_name": "Fitzwater Street Philly Bagels",
      "osm_id": 3262332760,
      "amenity": "cafe",
      "cuisine": "coffee_shop",
      "opening_hours": "Mo-Fr 07:00-15:00; Sa,Su 07:00-14:00",
      "internet_access": "no",
      "addr_state": "PA",
      "addr_city": "Philadelphia",
      "addr_postcode": "19146",
      "addr_street": "Fitzwater Street",
      "addr_housenumber": "2001",
      "value": 14.58866450109694
    },
    {
      "id": 50448,
      "geometry": "POINT (-75.166717 39.952529)",
      "poi_name": "Starbucks",
      "osm_id": 3485250867,
      "amenity": "cafe",
      "cuisine": "coffee_shop",
      "opening_hours": "Mo-Fr 06:00-18:00; Sa 07:00-17:00; Su 06:30-15:30",
      "website": "https://www.starbucks.com/store-locator/store/17702/16th-market-1500-market-street-suite-465-philadelphia-pa-19102",
      "phone": "+1 215-561-3699",
      "takeaway": "yes",
      "official_name": "Starbucks Coffee",
      "addr_city": "Philadelphia",
      "addr_postcode": "19102",
      "addr_street": "Market Street",
      "addr_housenumber": "1500",
      "value": 14.58866450109694
    },
    {
      "id": 50641,
      "geometry": "POINT (-75.169711 39.950747)",
      "poi_name": "La Creperie Cafe",
      "osm_id": 3497025941,
      "amenity": "cafe",
      "addr_city": "Philadelphia",
      "addr_postcode": "19103",
      "addr_street": "Sansom Street",
      "addr_housenumber": "1722",
      "value": 14.58866450109694
    },
    {
      "id": 61730,
      "geometry": "POINT (-75.179608 39.946557)",
      "poi_name": "Caf\u00e9 Lutecia",
      "osm_id": 5534136013,
      "amenity": "cafe",
      "opening_hours": "Tu-Su 08:00-14:00",
      "addr_state": "PA",
      "addr_city": "Philadelphia",
      "addr_postcode": "19146",
      "addr_street": "Lombard Street",
      "addr_housenumber": "2301",
      "value": 14.58866450109694
    },
    {
      "id": 53345,
      "geometry": "POINT (-75.164376 39.953206)",
      "poi_name": "Dilworth Park Caf\u00e9",
      "osm_id": 10076153317,
      "amenity": "cafe",
      "opening_hours": "Mo-Fr 07:00-19:00; Sa-Su 10:00-18:00",
      "phone": "+1 215-972-0111",
      "outdoor_seating": "yes",
      "addr_state": "PA",
      "addr_city": "Philadelphia",
      "addr_postcode": "19107",
      "addr_street": "John F. Kennedy Boulevard",
      "addr_housenumber": "1400",
      "value": 14.58866450109694
    },
    {
      "id": 64887,
      "geometry": "POINT (-75.171837 40.034035)",
      "poi_name": "Uncle Bobbie's Coffee & Books",
      "osm_id": 5676180433,
      "amenity": "cafe",
      "cuisine": "coffee_shop",
      "opening_hours": "Mo-Th 09:00-21:00; Fr 07:00-23:00; Sa 08:00-23:00; Su 08:00-19:00",
      "website": "https://www.unclebobbies.com/",
      "addr_state": "PA",
      "addr_city": "Philadelphia",
      "addr_postcode": "19144",
      "addr_street": "Germantown Avenue",
      "addr_housenumber": "5445",
      "value": 14.58866450109694
    },
    {
      "id": 62963,
      "geometry": "POINT (-75.166852 39.95036)",
      "poi_name": "Bagels & Co.",
      "osm_id": 5595449225,
      "amenity": "cafe",
      "cuisine": "coffee_shop",
      "opening_hours": "07:00-15:00",
      "website": "https://www.thebagelsandco.com/location/bagels-and-co-rittenhouse",
      "phone": "+1 215-964-9974",
      "outdoor_seating": "no",
      "addr_state": "PA",
      "addr_city": "Philadelphia",
      "addr_postcode": "19102",
      "addr_street": "Sansom Street",
      "addr_housenumber": "1526",
      "value": 14.58866450109694
    },
    {
      "id": 63161,
      "geometry": "POINT (-75.178962 40.040674)",
      "poi_name": "All The Way Live",
      "osm_id": 5602572081,
      "amenity": "cafe",
      "description": "Simple, health-conscious cafe serving vegan & raw foods such as nut burgers, quinoa salad & juices.",
      "opening_hours": "Th 12:00-19:00; Fr 12:00-21:00; Sa 12:00-21:00; Su 14:00-19:00",
      "website": "http://www.alllivefood.com/",
      "phone": "+1-215-821-7298",
      "addr_state": "PA",
      "addr_city": "Philadelphia",
      "addr_postcode": "19144",
      "addr_street": "Germantown Avenue",
      "addr_housenumber": "6108",
      "value": 14.58866450109694
    },
    {
      "id": 68398,
      "geometry": "POINT (-75.046435 40.167139)",
      "poi_name": "Mr. Wish",
      "osm_id": 11268204462,
      "amenity": "cafe",
      "cuisine": "bubble_tea",
      "value": 14.58866450109694
    },
    {
      "id": 82694,
      "geometry": "POINT (-75.171791 39.944512)",
      "poi_name": "OCF Coffee House",
      "osm_id": 1707863137,
      "amenity": "cafe",
      "cuisine": "coffee_shop",
      "opening_hours": "07:00-15:00",
      "website": "https://www.ocfrealty.com/ocf-coffee-house",
      "internet_access": "wlan",
      "phone": "+1 215-454-2196",
      "addr_city": "Philadelphia",
      "addr_postcode": "19146",
      "addr_street": "South Street",
      "addr_housenumber": "1745",
      "value": 14.58866450109694
    },
    {
      "id": 71433,
      "geometry": "POINT (-75.168803 39.951858)",
      "poi_name": "Konditori",
      "osm_id": 11390609613,
      "amenity": "cafe",
      "cuisine": "coffee_shop",
      "website": "https://konditori.com/",
      "addr_state": "PA",
      "addr_city": "Philadelphia",
      "addr_postcode": "19103",
      "addr_street": "South 17th Street",
      "addr_housenumber": "40",
      "value": 14.58866450109694
    },
    {
      "id": 74604,
      "geometry": "POINT (-75.164726 39.951922)",
      "poi_name": "Starbucks",
      "osm_id": 9688238962,
      "amenity": "cafe",
      "cuisine": "coffee_shop",
      "opening_hours": "Mo-Fr 07:00-17:00; Sa-Su 09:00-17:00",
      "phone": "+1 218-923-6000",
      "takeaway": "yes",
      "official_name": "Starbucks Coffee",
      "addr_state": "PA",
      "addr_city": "Philadelphia",
      "addr_postcode": "19102",
      "addr_street": "South 15th Street",
      "addr_housenumber": "1",
      "value": 14.58866450109694
    },
    {
      "id": 74983,
      "geometry": "POINT (-75.179537 39.970379)",
      "poi_name": "Brown Street Coffee & Banhery",
      "osm_id": 9705457311,
      "amenity": "cafe",
      "cuisine": "coffee_shop",
      "website": "https://brownstreetcoffee.com/",
      "outdoor_seating": "yes",
      "addr_street": "Brown Street",
      "addr_housenumber": "2545",
      "value": 14.58866450109694
    },
    {
      "id": 76176,
      "geometry": "POINT (-75.178193 39.968956)",
      "poi_name": "Musette",
      "osm_id": 9763445517,
      "amenity": "cafe",
      "addr_street": "Aspen Street",
      "addr_housenumber": "2441",
      "value": 14.58866450109694
    },
    {
      "id": 128196,
      "geometry": "POINT (-75.158362 39.958274)",
      "poi_name": "Elixr Coffee Roasters",
      "osm_id": 8132970517,
      "amenity": "cafe",
      "opening_hours": "Mo-Fr 07:00-16:00; Sa-Su 08:00-16:00",
      "website": "https://elixrcoffee.com",
      "addr_city": "Philadelphia",
      "addr_postcode": "19107",
      "addr_street": "North 12th Street",
      "addr_housenumber": "315",
      "value": 14.58866450109694
    },
    {
      "id": 88113,
      "geometry": "POINT (-75.168928 39.950028)",
      "poi_name": "Capital One Cafe",
      "osm_id": 8765431355,
      "amenity": "cafe",
      "opening_hours": "Mo-Fr 07:00-19:00; Sa 08:00-19:00; Su 09:00-17:00",
      "website": "https://www.capitalone.com/local/philadelphia-rittenhouse",
      "phone": "+1 215-239-2765",
      "addr_street": "South 17th Street",
      "addr_housenumber": "135",
      "value": 14.58866450109694
    },
    {
      "id": 112663,
      "geometry": "POINT (-75.167898 39.954865)",
      "poi_name": "Green Line Cafe",
      "osm_id": 3799448712,
      "amenity": "cafe",
      "cuisine": "coffee_shop",
      "website": "https://greenlinecafe.com/",
      "value": 14.58866450109694
    },
    {
      "id": 121734,
      "geometry": "POINT (-75.167577 39.972371)",
      "poi_name": "Kayuh Bicycles",
      "osm_id": 6777801901,
      "amenity": "cafe",
      "website": "https://www.kayuhbicycles.com/",
      "shop": "bicycle",
      "addr_state": "PA",
      "addr_city": "Philadelphia",
      "addr_street": "West Girard Avenue",
      "addr_housenumber": "1900",
      "value": 14.58866450109694
    },
    {
      "id": 90579,
      "geometry": "POINT (-75.153859 40.101249)",
      "poi_name": "Elcy's Cafe",
      "osm_id": 2002987237,
      "amenity": "cafe",
      "addr_street": "West Glenside Ave",
      "addr_housenumber": "1",
      "value": 14.58866450109694
    },
    {
      "id": 90583,
      "geometry": "POINT (-75.168162 39.96734)",
      "poi_name": "Tela's Market",
      "osm_id": 2003023048,
      "amenity": "cafe",
      "website": "https://www.telasmarket.com/",
      "phone": "215-235-0170",
      "addr_state": "PA",
      "addr_city": "Philadelphia",
      "addr_postcode": "19130",
      "addr_street": "Fairmount Avenue",
      "addr_housenumber": "1833",
      "value": 14.58866450109694
    },
    {
      "id": 94463,
      "geometry": "POINT (-75.176928 39.952134)",
      "poi_name": "Smile Cafe",
      "osm_id": 2247020277,
      "amenity": "cafe",
      "cuisine": "thai",
      "opening_hours": "Mo-Th 11:30-14:30,17:00-21:00; Fr 11:30-14:30,17:00-22:00; Sa 17:00-22:00; Su off",
      "website": "https://www.smilecafepa.com",
      "phone": "+1 215-564-2502",
      "addr_city": "Philadelphia",
      "addr_postcode": "19103-4310",
      "addr_street": "South 22nd Street",
      "addr_housenumber": "105",
      "value": 14.58866450109694
    },
    {
      "id": 98820,
      "geometry": "POINT (-75.126862 40.09596)",
      "poi_name": "White Horse Coffee & Creamery",
      "osm_id": 6532994469,
      "amenity": "cafe",
      "cuisine": "coffee_shop;coffee;ice_cream",
      "opening_hours": "Mo 07:00-17:00, Tu 07:00-21:00, We-Th 07:00-17:00, Fr 07:00-21:00, Sa 08:00-21:00, Su 09:00-16:00",
      "website": "https://www.whitehorsecoffeecreamery.com/",
      "outdoor_seating": "yes",
      "addr_state": "PA",
      "addr_city": "Jenkintown",
      "addr_postcode": "19046",
      "addr_street": "West Avenue",
      "addr_housenumber": "700",
      "value": 14.58866450109694
    },
    {
      "id": 107033,
      "geometry": "POINT (-75.166715 39.949402)",
      "poi_name": "Elixr Coffee Roasters",
      "osm_id": 3531082345,
      "amenity": "cafe",
      "opening_hours": "Mo-Sa 07:00-20:00; Su 08:00-19:00",
      "website": "https://elixrcoffee.com/",
      "internet_access": "wlan",
      "addr_city": "Philadelphia",
      "addr_postcode": "19102",
      "addr_street": "South Sydenham Street",
      "addr_housenumber": "207",
      "value": 14.58866450109694
    },
    {
      "id": 107181,
      "geometry": "POINT (-75.167432 39.94965)",
      "poi_name": "Starbucks",
      "osm_id": 3540604458,
      "amenity": "cafe",
      "cuisine": "coffee_shop",
      "opening_hours": "Mo-Fr 05:00-20:00; Sa-Su 06:00-20:00",
      "website": "https://www.starbucks.com/store-locator/store/15881",
      "phone": "+1 215-732-0708",
      "takeaway": "yes",
      "official_name": "Starbucks Coffee",
      "addr_city": "Philadelphia",
      "addr_postcode": "19102",
      "addr_street": "Walnut Street",
      "addr_housenumber": "1528",
      "value": 14.58866450109694
    },
    {
      "id": 114176,
      "geometry": "POINT (-75.171446 39.960895)",
      "poi_name": "Starbucks",
      "osm_id": 3871054091,
      "amenity": "cafe",
      "cuisine": "coffee_shop",
      "internet_access": "wlan",
      "phone": "+1-215-557-8060",
      "takeaway": "yes",
      "official_name": "Starbucks Coffee",
      "outdoor_seating": "no",
      "toilets": "yes",
      "addr_state": "PA",
      "addr_city": "Philadelphia",
      "addr_street": "Callowhill Street",
      "addr_housenumber": "1945",
      "value": 14.58866450109694
    },
    {
      "id": 159718,
      "geometry": "POINT (-75.153573 39.982811)",
      "poi_name": "Cloud Coffee",
      "osm_id": 4803982992,
      "amenity": "cafe",
      "cuisine": "coffee_shop",
      "internet_access": "no",
      "value": 14.58866450109694
    },
    {
      "id": 140413,
      "geometry": "POINT (-75.173045 39.953356)",
      "poi_name": "Starbucks",
      "osm_id": 6245808185,
      "amenity": "cafe",
      "cuisine": "coffee_shop",
      "opening_hours": "06:00-18:00",
      "phone": "+1 215-564-2840",
      "takeaway": "yes",
      "official_name": "Starbucks Coffee",
      "addr_city": "Philadelphia",
      "addr_postcode": "19103",
      "addr_street": "Market Street",
      "addr_housenumber": "1900",
      "value": 14.58866450109694
    },
    {
      "id": 144917,
      "geometry": "POINT (-75.150208 39.979768)",
      "poi_name": "Richie's Cafe",
      "osm_id": 7295051934,
      "amenity": "cafe",
      "cuisine": "coffee_shop;panini;waffle;soup",
      "outdoor_seating": "yes",
      "addr_state": "PA",
      "addr_city": "Philadelphia",
      "addr_postcode": "19122",
      "addr_street": "North 10th Street",
      "addr_housenumber": "1801",
      "value": 14.58866450109694
    },
    {
      "id": 157276,
      "geometry": "POINT (-75.156058 39.981778)",
      "poi_name": "Saxbys",
      "osm_id": 4698182188,
      "amenity": "cafe",
      "cuisine": "coffee_shop",
      "opening_hours": "Mo-Fr 07:00-18:00; Sa,Su 08:00-16:00",
      "value": 14.58866450109694
    },
    {
      "id": 159681,
      "geometry": "POINT (-75.158519 39.978956)",
      "poi_name": "Starbucks",
      "osm_id": 4802521962,
      "amenity": "cafe",
      "cuisine": "coffee_shop",
      "takeaway": "yes",
      "official_name": "Starbucks Coffee",
      "value": 14.58866450109694
    },
    {
      "id": 159682,
      "geometry": "POINT (-75.156082 39.981657)",
      "poi_name": "Saxbys",
      "osm_id": 4802521964,
      "amenity": "cafe",
      "opening_hours": "Mo-Fr 07:00-18:00; Sa,Su 08:00-16:00",
      "value": 14.58866450109694
    },
    {
      "id": 135980,
      "geometry": "POINT (-75.174767 40.034246)",
      "poi_name": "Germantown Espresso Bar",
      "osm_id": 11551863729,
      "amenity": "cafe",
      "cuisine": "coffee_shop",
      "outdoor_seating": "yes",
      "value": 14.58866450109694
    },
    {
      "id": 137254,
      "geometry": "POINT (-75.068299 40.119401)",
      "poi_name": "The All Ways Caf\u00e9",
      "osm_id": 6090688110,
      "amenity": "cafe",
      "website": "http://www.allwayscafe.com",
      "value": 14.58866450109694
    },
    {
      "id": 137273,
      "geometry": "POINT (-75.060648 40.134167)",
      "poi_name": "College Grounds Caf\u00e9",
      "osm_id": 6091057288,
      "amenity": "cafe",
      "value": 14.58866450109694
    },
    {
      "id": 167154,
      "geometry": "POINT (-75.15977 39.96044)",
      "poi_name": "Cafe Lift",
      "osm_id": 343293716,
      "amenity": "cafe",
      "opening_hours": "Mo-Su 08:00-15:00",
      "internet_access": "wlan",
      "addr_state": "PA",
      "addr_city": "Philadelphia",
      "addr_postcode": "19123",
      "addr_street": "North 13th Street",
      "addr_housenumber": "428",
      "value": 14.58866450109694
    },
    {
      "id": 177140,
      "geometry": "POINT (-75.172339 39.967157)",
      "poi_name": "OCF Coffee House",
      "osm_id": 2575197073,
      "amenity": "cafe",
      "website": "https://www.ocfrealty.com/coffee-house",
      "internet_access": "yes",
      "phone": "+1-267-773-8081",
      "outdoor_seating": "yes",
      "addr_state": "PA",
      "addr_city": "Philadelphia",
      "addr_postcode": "19130",
      "addr_street": "Fairmount Avenue",
      "addr_housenumber": "2100",
      "value": 14.58866450109694
    },
    {
      "id": 178359,
      "geometry": "POINT (-75.168774 39.955332)",
      "poi_name": "Bluestone Lane",
      "osm_id": 10722831986,
      "amenity": "cafe",
      "cuisine": "coffee_shop",
      "opening_hours": "Mo-Fr 07:00-16:00; Sa-Su off",
      "website": "https://bluestonelane.com/coffee-shops/arch-street",
      "internet_access": "wlan",
      "phone": "+1 718-374-6858",
      "addr_state": "PA",
      "addr_city": "Philadelphia",
      "addr_postcode": "19103",
      "addr_street": "Arch Street",
      "addr_housenumber": "1717",
      "value": 14.58866450109694
    },
    {
      "id": 177278,
      "geometry": "POINT (-75.171278 39.947882)",
      "poi_name": "Starbucks",
      "osm_id": 2581154178,
      "amenity": "cafe",
      "cuisine": "coffee_shop",
      "internet_access": "yes",
      "phone": "2157320125",
      "takeaway": "yes",
      "official_name": "Starbucks Coffee",
      "addr_city": "Philadelphia",
      "addr_postcode": "19103",
      "addr_street": "Spruce Street",
      "addr_housenumber": "1801",
      "value": 14.58866450109694
    },
    {
      "id": 178715,
      "geometry": "POINT (-75.17248 39.962218)",
      "poi_name": "Kung Fu Tea",
      "osm_id": 10736232842,
      "amenity": "cafe",
      "cuisine": "bubble_tea",
      "opening_hours": "11:00-21:30; Fr,Sa 11:00-22:00",
      "internet_access": "wlan",
      "phone": "+1-814-407-3250",
      "takeaway": "yes",
      "outdoor_seating": "no",
      "addr_state": "PA",
      "addr_city": "Philadelphia",
      "addr_postcode": "19130",
      "addr_street": "Hamilton Street",
      "addr_housenumber": "2000",
      "value": 14.58866450109694
    },
    {
      "id": 179396,
      "geometry": "POINT (-75.166238 39.962427)",
      "poi_name": "Saxbys",
      "osm_id": 10760531991,
      "amenity": "cafe",
      "cuisine": "coffee_shop",
      "internet_access": "no",
      "takeaway": "yes",
      "wikidata": "Q48977044",
      "addr_state": "PA",
      "addr_city": "Philadelphia",
      "addr_postcode": "19130",
      "addr_street": "Spring Garden Street",
      "addr_housenumber": "1700",
      "value": 14.58866450109694
    },
    {
      "id": 215211,
      "geometry": "POINT (-74.997871 40.148818)",
      "poi_name": "Starbucks",
      "osm_id": 5291671309,
      "amenity": "cafe",
      "cuisine": "coffee_shop",
      "takeaway": "yes",
      "official_name": "Starbucks Coffee",
      "value": 14.58866450109694
    },
    {
      "id": 182587,
      "geometry": "POINT (-75.172134 39.951492)",
      "poi_name": "K\u2019Far",
      "osm_id": 10896228920,
      "amenity": "cafe",
      "wheelchair": "limited",
      "opening_hours": "08:00-17:00",
      "website": "https://kfarcafe.com",
      "phone": "+1 267-800-7200",
      "addr_state": "PA",
      "addr_city": "Philadelphia",
      "addr_postcode": "19103",
      "addr_street": "South 19th Street",
      "addr_housenumber": "110",
      "value": 14.58866450109694
    },
    {
      "id": 200327,
      "geometry": "POINT (-75.173896 39.950684)",
      "poi_name": "Almaz Cafe",
      "osm_id": 1033918289,
      "amenity": "cafe",
      "opening_hours": "Mo-Tu,Su off; We-Sa 11:00-21:00",
      "website": "https://almazcafes.com",
      "phone": "+1 215-557-0108",
      "addr_city": "Philadelphia",
      "addr_postcode": "19103",
      "addr_street": "South 20th Street",
      "addr_housenumber": "140",
      "value": 14.58866450109694
    },
    {
      "id": 211940,
      "geometry": "POINT (-75.123552 40.140356)",
      "poi_name": "Starbucks",
      "osm_id": 5180772111,
      "amenity": "cafe",
      "cuisine": "coffee_shop",
      "takeaway": "yes",
      "official_name": "Starbucks Coffee",
      "outdoor_seating": "no",
      "addr_state": "PA",
      "addr_city": "Willow Grove",
      "addr_postcode": "19090",
      "addr_street": "West Moreland Road",
      "addr_housenumber": "2500",
      "value": 14.58866450109694
    },
    {
      "id": 189859,
      "geometry": "POINT (-75.167839 40.14251)",
      "poi_name": "Starbucks",
      "osm_id": 1253025246,
      "amenity": "cafe",
      "cuisine": "coffee_shop",
      "takeaway": "yes",
      "official_name": "Starbucks Coffee",
      "value": 14.58866450109694
    },
    {
      "id": 201673,
      "geometry": "POINT (-75.179073 39.945254)",
      "poi_name": "Ants Pants Cafe",
      "osm_id": 649984275,
      "amenity": "cafe",
      "opening_hours": "Mo-Fr 7:00-16:00; Sa-Su 8:00-16:00",
      "addr_city": "Philadelphia",
      "addr_postcode": "19146",
      "addr_street": "South Street",
      "addr_housenumber": "2212",
      "value": 14.58866450109694
    },
    {
      "id": 213488,
      "geometry": "POINT (-75.155087 39.984004)",
      "poi_name": "Lucky Cup Cafe",
      "osm_id": 5252192842,
      "amenity": "cafe",
      "value": 14.58866450109694
    },
    {
      "id": 213489,
      "geometry": "POINT (-75.153438 39.983192)",
      "poi_name": "The Artist's Pallet Cafe",
      "osm_id": 5252192843,
      "amenity": "cafe",
      "wheelchair": "yes",
      "value": 14.58866450109694
    },
    {
      "id": 219732,
      "geometry": "POINT (-75.092765 40.088688)",
      "poi_name": "Starbucks",
      "osm_id": 9344342555,
      "amenity": "cafe",
      "cuisine": "coffee_shop",
      "takeaway": "yes",
      "official_name": "Starbucks Coffee",
      "outdoor_seating": "yes",
      "addr_state": "PA",
      "addr_city": "Huntingdon Valley",
      "addr_postcode": "19006",
      "addr_street": "Huntingdon Pike",
      "addr_housenumber": "789",
      "value": 14.58866450109694
    },
    {
      "id": 216269,
      "geometry": "POINT (-75.157137 39.976076)",
      "poi_name": "Yi Fang Tea",
      "osm_id": 9165663881,
      "amenity": "cafe",
      "cuisine": "bubble_tea",
      "opening_hours": "Mo-Su 11:00-21:00",
      "shop": "tea",
      "takeaway": "yes",
      "value": 14.58866450109694
    },
    {
      "id": 220578,
      "geometry": "POINT (-75.179278 39.972572)",
      "poi_name": "Lucky Goat Coffeehouse",
      "osm_id": 9378302877,
      "amenity": "cafe",
      "cuisine": "coffee_shop",
      "website": "https://luckygoatcoffeehouse.com/",
      "addr_state": "PA",
      "addr_city": "Philadelphia",
      "addr_postcode": "19130",
      "addr_street": "North 26th Street",
      "addr_housenumber": "888",
      "value": 14.58866450109694
    },
    {
      "id": 221450,
      "geometry": "POINT (-75.162101 39.962278)",
      "poi_name": "Starbucks",
      "osm_id": 10978033951,
      "amenity": "cafe",
      "cuisine": "coffee_shop",
      "opening_hours": "Mo-Th 05:30-19:30; Fr,Sa 05:30-20:00; Su 06:00-19:30",
      "website": "https://www.starbucks.com/store-locator/store/1027811/broad-spring-garden-490-north-broad-st-philadelphia-pa-191304321-us",
      "internet_access": "wlan",
      "phone": "+1 267-634-1848",
      "takeaway": "yes",
      "official_name": "Starbucks Coffee",
      "outdoor_seating": "no",
      "addr_city": "Philadelphia",
      "addr_postcode": "19130",
      "addr_street": "North Broad Street",
      "addr_housenumber": "490",
      "value": 14.58866450109694
    },
    {
      "id": 220752,
      "geometry": "POINT (-75.160085 39.966824)",
      "poi_name": "the daily.",
      "osm_id": 9384993018,
      "amenity": "cafe",
      "addr_street": "North Broad Street",
      "addr_housenumber": "699",
      "value": 14.58866450109694
    },
    {
      "id": 220755,
      "geometry": "POINT (-75.170148 39.95477)",
      "poi_name": "Vernick Coffee Bar",
      "osm_id": 9385011517,
      "amenity": "cafe",
      "description": "located in the Comcast Technology Center, 2nd floor lobby; building entrance on 18th between JFK & Arch streets",
      "opening_hours": "Mo-Fr 07:30-16:00",
      "website": "https://www.vernickcoffeebar.com",
      "addr_state": "PA",
      "addr_city": "Philadelphia",
      "addr_postcode": "19103",
      "addr_street": "Arch Street",
      "addr_housenumber": "1800",
      "value": 14.58866450109694
    },
    {
      "id": 238600,
      "geometry": "POINT (-75.165159 39.951624)",
      "poi_name": "Waterfront Gourmet Cafe & Deli",
      "osm_id": 5885155785,
      "amenity": "cafe",
      "opening_hours": "Mo-Fr 08:00-18:00; Sa-Su off",
      "website": "https://dilworthplaza.waterfrontgourmet.com",
      "phone": "+1 267-758-2383",
      "addr_state": "PA",
      "addr_city": "Philadelphia",
      "addr_postcode": "19102",
      "addr_street": "South Penn Square",
      "addr_housenumber": "1414",
      "value": 14.58866450109694
    },
    {
      "id": 222430,
      "geometry": "POINT (-75.162876 39.954671)",
      "poi_name": "Starbucks",
      "osm_id": 11018127859,
      "amenity": "cafe",
      "cuisine": "coffee_shop",
      "takeaway": "yes",
      "official_name": "Starbucks Coffee",
      "value": 14.58866450109694
    },
    {
      "id": 236354,
      "geometry": "POINT (-75.124486 40.09051)",
      "poi_name": "The Daily Grind Cafe",
      "osm_id": 5790938547,
      "amenity": "cafe",
      "value": 14.58866450109694
    },
    {
      "id": 236528,
      "geometry": "POINT (-75.172263 39.950757)",
      "poi_name": "La Colombe Coffee Roasters",
      "osm_id": 5796170555,
      "amenity": "cafe",
      "cuisine": "coffee_shop",
      "opening_hours": "07:00-19:00",
      "takeaway": "yes",
      "addr_street": "South 19th Street",
      "addr_housenumber": "130",
      "value": 14.58866450109694
    },
    {
      "id": 241643,
      "geometry": "POINT (-75.139014 40.0921)",
      "poi_name": "Cafe Susana",
      "osm_id": 6034077423,
      "amenity": "cafe",
      "addr_state": "PA",
      "addr_city": "Cheltenham Township",
      "addr_street": "Greedwood Avenue",
      "addr_housenumber": "102",
      "value": 14.58866450109694
    }
  ],
  "answer_type": "name",
  "question_entities": {
    "[2]": {
      "distance": 30000,
      "text": "30 kilometers"
    },
    "[3]": {
      "main_category": "leisure",
      "sub_category": "garden",
      "display_name": "S 22nd and Sears St. Garden, Philadelphia, PA",
      "geo_wkt": "POINT (-75.180513 39.935321)",
      "poi": {
        "id": 247116,
        "geometry": "POINT (-75.180513 39.935321)",
        "poi_name": "S 22nd and Sears St. Garden",
        "osm_id": 3559344530,
        "leisure": "garden",
        "addr_state": "PA",
        "addr_city": "Philadelphia",
        "addr_street": "S 22nd St",
        "addr_housenumber": "1315"
      }
    },
    "[4]": {
      "main_category": "amenity",
      "sub_category": "university",
      "display_name": "Salus University, Elkins Park, PA",
      "geo_wkt": "POINT (-75.129394 40.086172)",
      "poi": {
        "id": 39110,
        "geometry": "POINT (-75.129394 40.086172)",
        "poi_name": "Salus University",
        "osm_id": 2903322114,
        "amenity": "university",
        "website": "https://www.salus.edu/",
        "phone": "+1-215-780-1400",
        "wikidata": "Q7406311",
        "addr_state": "PA",
        "addr_city": "Elkins Park",
        "addr_postcode": "19027",
        "addr_street": "Old York Road",
        "addr_housenumber": "8360"
      }
    },
    "[1]": {
      "main_category": "amenity",
      "sub_category": "cafe"
    }
  },
  "id": 1681,
  "type": "range:towards+name"
}