{
  "question": "How far away is a museum located from Embassy Suites Grand Rapids Downtown, Grand Rapids, MI within 140 kilometers?",
  "sql": "SELECT *, ST_Distance(ST_GeomFromText('POINT (-85.672134 42.976018)',4326)::geography, pois.geometry) AS distance FROM pois\nWHERE ST_DWithin(pois.geometry, ST_GeomFromText('POINT (-85.672134 42.976018)',4326)::geography, 140000)\nAND tourism = 'museum';\n",
  "answers": [
    {
      "id": 1627,
      "geometry": "POINT (-86.201998 42.395411)",
      "poi_name": "Michigan Flywheelers Museum",
      "osm_id": 3090059426,
      "tourism": "museum",
      "website": "https://michiganflywheelers.org/",
      "distance": 77753.64529421
    },
    {
      "id": 4607,
      "geometry": "POINT (-84.770545 43.818492)",
      "poi_name": "Clare Depot",
      "osm_id": 11348741887,
      "tourism": "museum",
      "museum": "history",
      "distance": 118724.03507129
    },
    {
      "id": 5264,
      "geometry": "POINT (-84.769801 43.592879)",
      "poi_name": "Museum of Cultural and Natural History",
      "osm_id": 9820898460,
      "tourism": "museum",
      "website": "https://www.cmich.edu/academics/colleges/liberal-arts-social-sciences/centers-institutes/museum-cultural-natural-history",
      "addr_state": "MI",
      "addr_city": "Mount Pleasant",
      "addr_postcode": "48859",
      "addr_street": "South Franklin Street",
      "addr_housenumber": "12000",
      "distance": 100299.82867622
    },
    {
      "id": 6085,
      "geometry": "POINT (-85.225893 43.097506)",
      "poi_name": "Belding Museum",
      "osm_id": 1742030383,
      "tourism": "museum",
      "wheelchair": "limited",
      "website": "https://belding.mi.us/museum_history.php",
      "phone": "+1-616-794-1900",
      "addr_state": "MI",
      "addr_city": "Belding",
      "addr_postcode": "48809",
      "addr_street": "Hanover Street",
      "addr_housenumber": "108",
      "distance": 38788.91599996
    },
    {
      "id": 8999,
      "geometry": "POINT (-84.419228 42.72612)",
      "poi_name": "Michigan Women's Historical Center & Hall of Fame",
      "osm_id": 3620806020,
      "tourism": "museum",
      "opening_hours": "Mo-Sa 10:00-21:00;Su 12:00-18:00",
      "website": "http://www.michiganwomenshalloffame.org/",
      "addr_street": "West Grand River Avenue",
      "addr_housenumber": "1982",
      "distance": 106104.38965695
    },
    {
      "id": 9056,
      "geometry": "POINT (-85.516722 42.655327)",
      "poi_name": "Historic Bowens Mills",
      "osm_id": 3649179777,
      "tourism": "museum",
      "website": "http://bowensmills.com/",
      "distance": 37824.73801357
    },
    {
      "id": 10648,
      "geometry": "POINT (-85.583085 42.291826)",
      "poi_name": "Kalamazoo Valley Community College Center for New Media Art Museum",
      "osm_id": 6975231077,
      "tourism": "museum",
      "website": "https://www.kvcc.edu/artexhibits/",
      "museum": "art",
      "addr_state": "MI",
      "addr_city": "Kalamazoo",
      "addr_street": "East Michigan Avenue",
      "addr_housenumber": "100",
      "distance": 76353.97778921
    },
    {
      "id": 11036,
      "geometry": "POINT (-85.193179 42.323611)",
      "poi_name": "Battle Creek Regional History Museum",
      "osm_id": 9828523371,
      "tourism": "museum",
      "website": "https://bcrhm.org/",
      "museum": "history",
      "wikidata": "Q83294560",
      "addr_state": "MI",
      "addr_city": "Battle Creek",
      "addr_postcode": "49037",
      "addr_street": "Jackson Street West",
      "addr_housenumber": "307",
      "distance": 82431.05067556
    },
    {
      "id": 11239,
      "geometry": "POINT (-86.173928 41.912075)",
      "poi_name": "Old Rugged Cross",
      "osm_id": 9906153889,
      "tourism": "museum",
      "museum": "history",
      "distance": 125187.1131823
    },
    {
      "id": 14743,
      "geometry": "POINT (-84.644141 42.509934)",
      "poi_name": "Mid Michigan Scout Museum",
      "osm_id": 4705965459,
      "tourism": "museum",
      "opening_hours": "\"appointment\"",
      "website": "https://www.millerfarm.net/mid-michigan-scout-museum.html",
      "addr_street": "State Street",
      "addr_housenumber": "635",
      "distance": 98820.45007209
    },
    {
      "id": 14744,
      "geometry": "POINT (-84.643824 42.50953)",
      "poi_name": "Miller Farm Eaton Rapids Area Historcal Society",
      "osm_id": 4705965461,
      "tourism": "museum",
      "website": "https://millerfarm.net/",
      "phone": "+1 517 441 1792",
      "addr_street": "State Street",
      "addr_housenumber": "635",
      "distance": 98866.28670744
    },
    {
      "id": 17558,
      "geometry": "POINT (-85.146667 44.097222)",
      "poi_name": "Marion Area Historical Museum",
      "osm_id": 367816181,
      "tourism": "museum",
      "website": "https://cadillacmichigan.com/cadillac-listings/marion-area-historical-museum/",
      "addr_state": "MI",
      "distance": 131610.0694839
    },
    {
      "id": 17559,
      "geometry": "POINT (-86.445278 43.9275)",
      "poi_name": "Historic White Pine Village",
      "osm_id": 367816183,
      "tourism": "museum",
      "website": "https://historicwhitepinevillage.org/",
      "distance": 122843.88126797
    },
    {
      "id": 17561,
      "geometry": "POINT (-84.8675 43.835278)",
      "poi_name": "Farwell Historical Museum",
      "osm_id": 367816185,
      "tourism": "museum",
      "website": "http://www.farwellmuseum.com/",
      "addr_state": "MI",
      "distance": 115590.65327132
    },
    {
      "id": 17564,
      "geometry": "POINT (-85.451984 44.03847)",
      "poi_name": "LeRoy Museum",
      "osm_id": 367816189,
      "tourism": "museum",
      "website": "https://www.leroymi.org/leroy-area-historical-society/",
      "addr_state": "MI",
      "distance": 119376.00877381
    },
    {
      "id": 17565,
      "geometry": "POINT (-84.7475 43.8875)",
      "poi_name": "Clare County Historical Society and Museum",
      "osm_id": 367816192,
      "tourism": "museum",
      "website": "http://clarecountyhistory.org/",
      "addr_state": "MI",
      "distance": 125933.68595049
    },
    {
      "id": 17567,
      "geometry": "POINT (-86.482343 42.10621)",
      "poi_name": "Heritage Museum and Cultural Center",
      "osm_id": 367816196,
      "tourism": "museum",
      "opening_hours": "Tu,We,Fr,Sa 10:00-16:00; Th 10:00-20:00",
      "website": "https://theheritagemcc.org/",
      "museum": "history",
      "addr_state": "MI",
      "addr_city": "Saint Joseph",
      "addr_postcode": "49085",
      "distance": 117323.992851
    },
    {
      "id": 17568,
      "geometry": "POINT (-86.340833 41.948056)",
      "poi_name": "History Center at Courthouse Square",
      "osm_id": 367816197,
      "tourism": "museum",
      "opening_hours": "Mar-Apr: Mo-Sa 10:01-17:00, May-Sep: Tu-Sa 10:00-18:00, May-Sep: Su 12:00-16:00, Oct-Dec: Tu-Sa 10:00-17:00",
      "website": "https://berrienhistory.org/",
      "addr_state": "MI",
      "distance": 126742.45786141
    },
    {
      "id": 17569,
      "geometry": "POINT (-86.355784 41.955272)",
      "poi_name": "Horn Archeological Institute and Museum",
      "osm_id": 367816199,
      "tourism": "museum",
      "opening_hours": "Mo-Th 09:00-17:00; Fr 09:00-12:00",
      "website": "https://andrewsarchaeology.org/museum/",
      "addr_state": "MI",
      "distance": 126560.83490115
    },
    {
      "id": 17570,
      "geometry": "POINT (-86.483333 42.108889)",
      "poi_name": "Curious Kids' Museum",
      "osm_id": 367816200,
      "tourism": "museum",
      "opening_hours": "We-Sa 10:00-17:00; Su 10:00-16:00",
      "website": "https://curiouskidsmuseum.org/",
      "addr_state": "MI",
      "distance": 117124.55362059
    },
    {
      "id": 17571,
      "geometry": "POINT (-86.115833 41.986667)",
      "poi_name": "Heddon Museum",
      "osm_id": 367816201,
      "tourism": "museum",
      "website": "https://heddon.dowagiacmuseum.info/",
      "addr_state": "MI",
      "distance": 115796.40994681
    },
    {
      "id": 17572,
      "geometry": "POINT (-86.082778 41.964722)",
      "poi_name": "Southwestern Michigan College Museum",
      "osm_id": 367816202,
      "tourism": "museum",
      "addr_state": "MI",
      "distance": 117302.94800008
    },
    {
      "id": 17573,
      "geometry": "POINT (-85.420052 41.803943)",
      "poi_name": "Sturgis Historical Society Museum",
      "osm_id": 367816204,
      "tourism": "museum",
      "opening_hours": "Th,Fr 10:00-16:00; Sa 10:00-14:00",
      "website": "https://www.sturgismuseum.org/",
      "addr_state": "MI",
      "addr_city": "Sturgis",
      "addr_postcode": "49091",
      "addr_street": "South Jefferson Street",
      "addr_housenumber": "101",
      "distance": 131839.19842295
    },
    {
      "id": 17574,
      "geometry": "POINT (-84.99744 41.938984)",
      "poi_name": "Wing House Museum",
      "osm_id": 367816205,
      "tourism": "museum",
      "website": "https://branchcountyhistoricalsociety.org/wing-house-museum/",
      "wikidata": "Q43148388",
      "addr_state": "MI",
      "addr_city": "Coldwater",
      "addr_postcode": "49036",
      "addr_street": "South Jefferson Street",
      "addr_housenumber": "27",
      "distance": 127865.93185952
    },
    {
      "id": 17575,
      "geometry": "POINT (-84.659612 41.982096)",
      "poi_name": "Grosvenor House Museum",
      "osm_id": 367816206,
      "tourism": "museum",
      "wikidata": "Q16840618",
      "addr_state": "MI",
      "addr_city": "Jonesville",
      "addr_postcode": "49250",
      "addr_street": "Maumee Street",
      "addr_housenumber": "211",
      "distance": 138277.55116029
    },
    {
      "id": 17600,
      "geometry": "POINT (-86.383333 42.183333)",
      "poi_name": "Crate Basket and Veneer Machinery Museum",
      "osm_id": 367816266,
      "tourism": "museum",
      "addr_state": "MI",
      "distance": 105652.04067418
    },
    {
      "id": 17601,
      "geometry": "POINT (-86.313056 42.179722)",
      "poi_name": "North Berrien Historical Museum",
      "osm_id": 367816267,
      "tourism": "museum",
      "website": "http://www.northberrienhistory.org/",
      "addr_state": "MI",
      "distance": 102922.00746181
    },
    {
      "id": 17603,
      "geometry": "POINT (-86.253552 41.829428)",
      "poi_name": "Fort Saint Joseph Museum",
      "osm_id": 367816290,
      "tourism": "museum",
      "opening_hours": "Th-Fr 10:00-16:00, Sa 10:00-15:00",
      "website": "https://www.nilesmi.org/departments_and_divisions/niles_history_center/fort_st_joseph_museum.php",
      "addr_state": "MI",
      "distance": 136060.95937981
    },
    {
      "id": 17605,
      "geometry": "POINT (-86.44663 42.11896)",
      "poi_name": "Morton House Museum",
      "osm_id": 367816292,
      "tourism": "museum",
      "opening_hours": "We 10:00-14:00, Sa 10:00-14:00",
      "website": "http://www.mortonhousemuseum.org/",
      "phone": "+1-269-925-7011",
      "addr_state": "MI",
      "addr_city": "Benton Harbor",
      "addr_postcode": "49022",
      "addr_street": "Territorial Road",
      "addr_housenumber": "501",
      "distance": 114501.46267434
    },
    {
      "id": 18381,
      "geometry": "POINT (-86.514387 44.057645)",
      "poi_name": "Big Sable Point Lighthouse",
      "osm_id": 2276126000,
      "tourism": "museum",
      "website": "https://visitludington.com/big-sable-point-lighthouse-ludington-state-park",
      "wikidata": "Q4906257",
      "distance": 138124.19085003
    },
    {
      "id": 18472,
      "geometry": "POINT (-84.230071 43.416655)",
      "poi_name": "Hemlock Historical Museum",
      "osm_id": 2313633285,
      "tourism": "museum",
      "fee": "no",
      "website": "https://www.facebook.com/HemlockAreaHistoricalSociety/",
      "addr_state": "MI",
      "addr_city": "Hemlock",
      "addr_postcode": "48626",
      "addr_street": "Wilson Street",
      "addr_housenumber": "200",
      "distance": 127021.73698526
    },
    {
      "id": 18586,
      "geometry": "POINT (-84.415367 42.730368)",
      "poi_name": "Meridian Historical Village",
      "osm_id": 2342901075,
      "tourism": "museum",
      "fee": "no",
      "operator": "Meridian Charter Township",
      "website": "https://www.meridianhistoricalvillage.org/",
      "distance": 106283.51706614
    },
    {
      "id": 20186,
      "geometry": "POINT (-86.190037 42.659822)",
      "poi_name": "Roan & Black",
      "osm_id": 7920846289,
      "tourism": "museum",
      "website": "https://roanandblack.com/",
      "addr_street": "Blue Star Highway",
      "addr_housenumber": "3315",
      "distance": 55024.90979782
    },
    {
      "id": 20226,
      "geometry": "POINT (-84.557205 43.004764)",
      "poi_name": "Clinton Northern Railway Museum",
      "osm_id": 7949084003,
      "amenity": "social_facility",
      "tourism": "museum",
      "website": "https://www.facebook.com/pages/category/Landmark---Historical-Place/Clinton-Northern-Railway-114972055202581/",
      "museum": "railway",
      "distance": 90981.92315209
    },
    {
      "id": 21437,
      "geometry": "POINT (-85.59241 43.063916)",
      "poi_name": "Hyser Rivers Museum",
      "osm_id": 10262788388,
      "tourism": "museum",
      "museum": "historical",
      "addr_state": "MI",
      "addr_city": "Belmont",
      "addr_postcode": "49306",
      "addr_street": "West River Drive Northeast",
      "addr_housenumber": "6440",
      "distance": 11729.68557366
    },
    {
      "id": 21875,
      "geometry": "POINT (-86.356698 41.962628)",
      "poi_name": "Center for Adventist Research",
      "osm_id": 10705242905,
      "tourism": "museum",
      "opening_hours": "Mo-Th 09:00-19:00; Fr 09:00-13:00",
      "website": "https://www.centerforadventistresearch.org/",
      "internet_access": "wlan",
      "phone": "+1-269-471-3209",
      "addr_postcode": "49104",
      "addr_street": "Administration Drive",
      "addr_housenumber": "4190",
      "distance": 125861.47424951
    },
    {
      "id": 22464,
      "geometry": "POINT (-86.258786 43.234734)",
      "poi_name": "USS LST 393 Veterans Museum",
      "osm_id": 7091970244,
      "tourism": "museum",
      "wikidata": "Q80131177",
      "addr_state": "MI",
      "addr_city": "Muskegon",
      "addr_street": "Mart Street",
      "addr_housenumber": "560",
      "distance": 55736.49011816
    },
    {
      "id": 22485,
      "geometry": "POINT (-85.481701 43.687645)",
      "poi_name": "Jim Crow Museum of Racist Memorabilia",
      "osm_id": 7102686654,
      "tourism": "museum",
      "website": "https://www.ferris.edu/htmls/news/jimcrow/index.htm",
      "distance": 80555.45246982
    },
    {
      "id": 24705,
      "geometry": "POINT (-85.670005 42.964726)",
      "poi_name": "Grand Rapids African American Museum and Archives",
      "osm_id": 11177192184,
      "tourism": "museum",
      "addr_state": "MI",
      "addr_city": "Grand Rapids",
      "addr_street": "Monroe Center Street Northwest",
      "addr_housenumber": "87",
      "distance": 1266.37072882
    },
    {
      "id": 25377,
      "geometry": "POINT (-84.417049 42.214405)",
      "poi_name": "Ella Sharp Museum",
      "osm_id": 4470883176,
      "tourism": "museum",
      "website": "https://ellasharpmuseum.org/",
      "phone": "+1 517 787 2320",
      "addr_street": "4th Street",
      "addr_housenumber": "3225",
      "distance": 133297.06695825
    },
    {
      "id": 162,
      "geometry": "POINT (-85.197284 42.3276)",
      "poi_name": "Historic Adventist Village",
      "osm_id": 461101585,
      "tourism": "museum",
      "fee": "no",
      "website": "https://adventistheritage.org/ahm-sites/historic-adventist-village/",
      "distance": 81880.47446057
    },
    {
      "id": 164,
      "geometry": "POINT (-85.21227 42.334656)",
      "poi_name": "Leila Park Children's Garden",
      "osm_id": 461154286,
      "tourism": "museum",
      "website": "https://www.michigan.org/property/childrens-garden-leila-arboretum-society",
      "distance": 80608.78265307
    }
  ],
  "answer_type": "distance",
  "question_entities": {
    "[1]": {
      "main_category": "tourism",
      "sub_category": "museum"
    },
    "[2]": {
      "distance": 140000,
      "text": "140 kilometers"
    },
    "[3]": {
      "main_category": "tourism",
      "sub_category": "hotel",
      "display_name": "Embassy Suites Grand Rapids Downtown, Grand Rapids, MI",
      "geo_wkt": "POINT (-85.672134 42.976018)",
      "poi": {
        "id": 24703,
        "geometry": "POINT (-85.672134 42.976018)",
        "poi_name": "Embassy Suites Grand Rapids Downtown",
        "osm_id": 11177110800,
        "tourism": "hotel",
        "official_name": "Embassy Suites by Hilton",
        "addr_state": "MI",
        "addr_city": "Grand Rapids",
        "addr_postcode": "49503",
        "addr_street": "Monroe Avenue Northwest",
        "addr_housenumber": "710"
      }
    }
  },
  "id": 727,
  "type": "range+distance"
}