{
  "question": "Which route leads to a caf\u00e9 from Herod Cave, Herod, IL within 170 kilometers?",
  "sql": "SELECT *, degrees(ST_Azimuth(ST_GeomFromText('POINT (-88.441774 37.583331)',4326)::geography, pois.geometry)) AS angle FROM pois\nWHERE ST_DWithin(pois.geometry, ST_GeomFromText('POINT (-88.441774 37.583331)',4326)::geography, 170000)\nAND amenity = 'cafe';\n",
  "answers": [
    {
      "id": 28538,
      "geometry": "POINT (-90.295066 37.55781)",
      "poi_name": "Dairy Bar",
      "osm_id": 490454573,
      "amenity": "cafe",
      "angle": 269.5739761041497
    },
    {
      "id": 32923,
      "geometry": "POINT (-87.933161 38.129939)",
      "poi_name": "Black Lodge Coffee Roasters",
      "osm_id": 2641700095,
      "amenity": "cafe",
      "cuisine": "coffee_shop",
      "opening_hours": "Mo 08:00-13:00; Tu,Th-Su 08:00-15:00; We off",
      "website": "https://black-lodge-coffee-roasters-llc.square.site/",
      "outdoor_seating": "yes",
      "addr_state": "IN",
      "addr_city": "New Harmony",
      "addr_postcode": "47631",
      "addr_street": "Church Street",
      "addr_housenumber": "610",
      "angle": 36.26238014537164
    },
    {
      "id": 36571,
      "geometry": "POINT (-87.588772 37.839978)",
      "poi_name": "Coffee Shop",
      "osm_id": 2770896859,
      "amenity": "cafe",
      "addr_city": "Henderson",
      "addr_postcode": "42420",
      "addr_street": "2nd Street",
      "addr_housenumber": "327",
      "angle": 68.99640093333521
    },
    {
      "id": 36995,
      "geometry": "POINT (-87.473584 37.97509)",
      "poi_name": "Starbucks",
      "osm_id": 2793855377,
      "amenity": "cafe",
      "cuisine": "coffee_shop",
      "wheelchair": "yes",
      "internet_access": "wlan",
      "phone": "+1-812-401-1771",
      "takeaway": "yes",
      "official_name": "Starbucks Coffee",
      "outdoor_seating": "no",
      "addr_state": "IN",
      "addr_city": "Evansville",
      "addr_postcode": "47715",
      "addr_street": "E. Lloyd Expressway",
      "addr_housenumber": "6401",
      "angle": 62.6915655300684
    },
    {
      "id": 40318,
      "geometry": "POINT (-87.391464 37.977422)",
      "poi_name": "Starbucks",
      "osm_id": 2966697981,
      "amenity": "cafe",
      "cuisine": "coffee_shop",
      "internet_access": "yes",
      "takeaway": "yes",
      "official_name": "Starbucks Coffee",
      "angle": 64.37671977575151
    },
    {
      "id": 40399,
      "geometry": "POINT (-89.589396 36.876075)",
      "poi_name": "Parengo",
      "osm_id": 2969266276,
      "amenity": "cafe",
      "cuisine": "coffee_shop",
      "angle": 232.72621852325537
    },
    {
      "id": 42348,
      "geometry": "POINT (-87.352723 36.532573)",
      "poi_name": "Starbucks",
      "osm_id": 3056782130,
      "amenity": "cafe",
      "cuisine": "coffee_shop",
      "wheelchair": "yes",
      "operator": "Austin Peay State University",
      "internet_access": "yes",
      "takeaway": "yes",
      "official_name": "Starbucks Coffee",
      "angle": 139.95559982408503
    },
    {
      "id": 48136,
      "geometry": "POINT (-87.573979 37.976018)",
      "poi_name": "Wired Coffee House",
      "osm_id": 3367452443,
      "amenity": "cafe",
      "internet_access": "wlan",
      "addr_state": "IN",
      "addr_city": "Evansville",
      "addr_postcode": "47708",
      "addr_street": "Northwest 4th Street",
      "addr_housenumber": "111",
      "angle": 60.045956612632445
    },
    {
      "id": 55552,
      "geometry": "POINT (-87.881499 37.108928)",
      "poi_name": "The Java Table",
      "osm_id": 10197792589,
      "amenity": "cafe",
      "cuisine": "coffee_shop",
      "phone": "270-963-5662",
      "angle": 136.51359960047697
    },
    {
      "id": 59440,
      "geometry": "POINT (-89.251203 37.775449)",
      "poi_name": "Airport Cafe",
      "osm_id": 5425844677,
      "amenity": "cafe",
      "angle": 286.87453269708
    },
    {
      "id": 70575,
      "geometry": "POINT (-87.472432 36.827187)",
      "poi_name": "Starbucks",
      "osm_id": 11367184552,
      "amenity": "cafe",
      "cuisine": "coffee_shop",
      "takeaway": "yes",
      "official_name": "Starbucks Coffee",
      "angle": 133.98728107707225
    },
    {
      "id": 85732,
      "geometry": "POINT (-89.220386 37.715582)",
      "poi_name": "Delyte's",
      "osm_id": 1890615422,
      "amenity": "cafe",
      "angle": 282.2961485111402
    },
    {
      "id": 76986,
      "geometry": "POINT (-87.93483 38.129935)",
      "poi_name": "Sara's Harmonie Way",
      "osm_id": 9800311571,
      "amenity": "cafe",
      "cuisine": "coffee_shop",
      "website": "http://sarasharmonieway.com/",
      "phone": "812-682-3611",
      "addr_state": "IN",
      "addr_city": "New Harmony",
      "addr_postcode": "47631",
      "addr_street": "Church Street",
      "addr_housenumber": "500",
      "angle": 36.17320918047586
    },
    {
      "id": 93131,
      "geometry": "POINT (-89.327512 37.569822)",
      "poi_name": "Peach Barn B&B & Cafe",
      "osm_id": 2152029903,
      "amenity": "cafe",
      "tourism": "guest_house",
      "angle": 269.17224186861614
    },
    {
      "id": 87693,
      "geometry": "POINT (-89.183131 37.730843)",
      "poi_name": "Starbucks",
      "osm_id": 8734373470,
      "amenity": "cafe",
      "cuisine": "coffee_shop",
      "takeaway": "yes",
      "official_name": "Starbucks Coffee",
      "angle": 284.27738393741765
    },
    {
      "id": 103640,
      "geometry": "POINT (-87.073027 37.757535)",
      "poi_name": "Starbucks",
      "osm_id": 8515655748,
      "amenity": "cafe",
      "cuisine": "coffee_shop",
      "takeaway": "yes",
      "official_name": "Starbucks Coffee",
      "angle": 80.48545007578551
    },
    {
      "id": 100629,
      "geometry": "POINT (-87.293392 36.591015)",
      "poi_name": "Joe Muggs",
      "osm_id": 6594242063,
      "amenity": "cafe",
      "cuisine": "coffee_shop",
      "wheelchair": "yes",
      "operator": "Books-A-Million",
      "website": "https://www.booksamillion.com/joemuggs",
      "internet_access": "yes",
      "phone": "+1 931-648-1100",
      "takeaway": "yes",
      "outdoor_seating": "yes",
      "delivery": "no",
      "addr_state": "TN",
      "addr_city": "Clarksville",
      "addr_postcode": "37040",
      "addr_street": "South Hampton Place",
      "addr_housenumber": "125",
      "angle": 136.81762055259452
    },
    {
      "id": 116176,
      "geometry": "POINT (-88.732113 37.153215)",
      "poi_name": "SIssy's A Sweet Shoppe",
      "osm_id": 8931066773,
      "amenity": "cafe",
      "cuisine": "coffee_shop;ice_cream",
      "outdoor_seating": "yes",
      "angle": 208.40224688205643
    },
    {
      "id": 125747,
      "geometry": "POINT (-89.794775 38.4902)",
      "poi_name": "St. Louis Coffee World",
      "osm_id": 6974904274,
      "amenity": "cafe",
      "opening_hours": "Mo-Sa 06:30-16:00; Su 08:00-15:00",
      "outdoor_seating": "yes",
      "addr_state": "IL",
      "addr_city": "Mascoutah",
      "addr_postcode": "62258",
      "addr_street": "East Main Street",
      "addr_housenumber": "200",
      "angle": 310.6952586892142
    },
    {
      "id": 118551,
      "geometry": "POINT (-89.655939 37.180072)",
      "poi_name": "Balance Nutrition",
      "osm_id": 9051031933,
      "amenity": "cafe",
      "cuisine": "shake;tea;coffee;energy_drinks",
      "opening_hours": "Mo-Sa 06:00-18:00",
      "website": "https://ashby.goherbalife.com/",
      "phone": "573-887-2819",
      "outdoor_seating": "no",
      "addr_state": "MO",
      "addr_city": "Chaffee",
      "addr_postcode": "63740",
      "addr_street": "West Yoakum Avenue",
      "addr_housenumber": "112",
      "angle": 247.77196274129562
    },
    {
      "id": 118552,
      "geometry": "POINT (-89.550022 37.302316)",
      "poi_name": "Leap of Faith Nutrition",
      "osm_id": 9051041821,
      "amenity": "cafe",
      "cuisine": "shake;tea;coffee;energy_drinks",
      "opening_hours": "Mo-Sa 06:30-16:00",
      "website": "https://ashby.goherbalife.com/",
      "phone": "806-746-7803",
      "outdoor_seating": "no",
      "addr_state": "MO",
      "addr_city": "Cape Girardeau",
      "addr_postcode": "63703",
      "addr_street": "South Plaza Way",
      "addr_housenumber": "229",
      "angle": 252.69582089102468
    },
    {
      "id": 133724,
      "geometry": "POINT (-88.946047 38.312987)",
      "poi_name": "Starbucks",
      "osm_id": 10005226012,
      "amenity": "cafe",
      "cuisine": "coffee_shop",
      "takeaway": "yes",
      "official_name": "Starbucks Coffee",
      "angle": 331.4641351971164
    },
    {
      "id": 134602,
      "geometry": "POINT (-88.235454 37.002797)",
      "poi_name": "Grill Mist Cafe",
      "osm_id": 11478252820,
      "amenity": "cafe",
      "operator": "Patti's 1880's Settlement",
      "angle": 164.08597054171753
    },
    {
      "id": 136037,
      "geometry": "POINT (-86.955048 38.296189)",
      "poi_name": "Kim\u2019s Koffee",
      "osm_id": 11557181969,
      "amenity": "cafe",
      "opening_hours": "Mo-Tu 07:00-16:00; We-Fr 07:00-17:00; Sa 08:00-16:00",
      "website": "https://kimskoffee.com",
      "addr_postcode": "47542",
      "addr_street": "East 4th Street",
      "addr_housenumber": "410",
      "angle": 58.35238667582433
    },
    {
      "id": 136108,
      "geometry": "POINT (-86.956901 38.296193)",
      "poi_name": "Old School Cafe and Bakery",
      "osm_id": 11561616169,
      "amenity": "cafe",
      "opening_hours": "Su 09:00-14:00; Tu-Sa 07:00-16:00",
      "addr_postcode": "47542",
      "addr_street": "East 4th Street",
      "addr_housenumber": "304",
      "angle": 58.321132950355825
    },
    {
      "id": 136209,
      "geometry": "POINT (-86.931616 38.395166)",
      "poi_name": "Midwest Cafe and Market",
      "osm_id": 11571140069,
      "amenity": "cafe",
      "opening_hours": "Mo-Fr 06:00-14:00",
      "phone": "8124825115",
      "addr_postcode": "47546",
      "addr_street": "Newton Street",
      "addr_housenumber": "1102 N",
      "angle": 55.35030369929529
    },
    {
      "id": 136567,
      "geometry": "POINT (-88.605437 36.641558)",
      "poi_name": "Sedalia Cafe",
      "osm_id": 11591210838,
      "amenity": "cafe",
      "angle": 187.9728145648113
    },
    {
      "id": 136246,
      "geometry": "POINT (-86.931998 38.391231)",
      "poi_name": "Parlor Doughnuts",
      "osm_id": 11573667369,
      "amenity": "cafe",
      "cuisine": "donut",
      "opening_hours": "Mo-Sa 06:30-18:00; Su 06:30-16:00",
      "website": "https://parlordoughnuts.com/jasper-in",
      "phone": "+1-812-848-2244",
      "addr_postcode": "47546",
      "addr_street": "Newton Street",
      "addr_housenumber": "511",
      "angle": 55.47373278365976
    },
    {
      "id": 136255,
      "geometry": "POINT (-86.938424 38.415812)",
      "poi_name": "Dunkin\u2019",
      "osm_id": 11573874869,
      "amenity": "cafe",
      "cuisine": "donut",
      "opening_hours": "Su 06:00-19:00; Mo-Fr 05:00-19:00; Sa 05:30-19:00",
      "website": "https://locations.dunkindonuts.com/en/in/jasper/3085-newton-st/359437",
      "internet_access": "wlan",
      "phone": "+1 (812) 556-0102",
      "addr_postcode": "47546",
      "addr_street": "Newton Street",
      "addr_housenumber": "3085",
      "angle": 54.555167330511516
    },
    {
      "id": 136576,
      "geometry": "POINT (-88.315752 36.618505)",
      "poi_name": "Starbucks",
      "osm_id": 11591332590,
      "amenity": "cafe",
      "cuisine": "coffee_shop",
      "takeaway": "yes",
      "official_name": "Starbucks Coffee",
      "angle": 173.98922511987521
    },
    {
      "id": 155716,
      "geometry": "POINT (-89.217503 37.719961)",
      "poi_name": "Blend Tea & Crepe",
      "osm_id": 4298727326,
      "amenity": "cafe",
      "angle": 282.72752276717347
    },
    {
      "id": 149869,
      "geometry": "POINT (-87.367322 36.539682)",
      "poi_name": "Freeze Pleeze Ice Cream",
      "osm_id": 4030456191,
      "amenity": "cafe",
      "cuisine": "ice_cream",
      "wheelchair": "yes",
      "website": "https://www.facebook.com/freezepleeze",
      "internet_access": "no",
      "phone": "+1 931-472-5757",
      "takeaway": "yes",
      "outdoor_seating": "yes",
      "addr_state": "TN",
      "addr_city": "Clarksville",
      "addr_postcode": "37040",
      "addr_street": "North Riverside Drive",
      "addr_housenumber": "700B",
      "angle": 140.15008537601184
    },
    {
      "id": 150745,
      "geometry": "POINT (-86.88902 36.845598)",
      "poi_name": "Poppable's - Mini Cupcakes & More",
      "osm_id": 4065341689,
      "amenity": "cafe",
      "cuisine": "coffee_shop",
      "opening_hours": "Mo-Fr 08:00-18:00",
      "internet_access": "no",
      "addr_state": "KY",
      "addr_city": "Russellville",
      "addr_postcode": "42276",
      "addr_street": "Winter Street",
      "addr_housenumber": "114",
      "angle": 120.24127078609492
    },
    {
      "id": 164478,
      "geometry": "POINT (-88.345225 37.41995)",
      "poi_name": "Smoke on the Ohio",
      "osm_id": 9476224985,
      "amenity": "cafe",
      "cuisine": "breakfast;burger;sandwich;fish_and_chips;barbecue",
      "phone": "+1 618 285 4700",
      "outdoor_seating": "no",
      "addr_state": "IL",
      "addr_city": "Rosiclare",
      "addr_postcode": "62982",
      "addr_street": "Main Street",
      "addr_housenumber": "316",
      "angle": 154.7591674755167
    },
    {
      "id": 172852,
      "geometry": "POINT (-88.094025 38.741045)",
      "poi_name": "Ginger Ale's West",
      "osm_id": 2417298644,
      "amenity": "cafe",
      "takeaway": "yes",
      "drive_through": "yes",
      "addr_city": "Olney",
      "addr_postcode": "62450",
      "addr_street": "North West Street",
      "addr_housenumber": "612",
      "angle": 13.23451476702196
    },
    {
      "id": 169098,
      "geometry": "POINT (-87.122443 37.717289)",
      "poi_name": "Starbucks",
      "osm_id": 2294921884,
      "amenity": "cafe",
      "cuisine": "coffee_shop",
      "internet_access": "yes",
      "takeaway": "yes",
      "official_name": "Starbucks Coffee",
      "angle": 82.32004421542689
    },
    {
      "id": 173016,
      "geometry": "POINT (-87.363003 36.521191)",
      "poi_name": "Lasaters",
      "osm_id": 2422120800,
      "amenity": "cafe",
      "cuisine": "coffee_shop",
      "angle": 140.5260197508258
    },
    {
      "id": 176589,
      "geometry": "POINT (-87.261614 36.722805)",
      "poi_name": "Trenton Market and Cafe",
      "osm_id": 2563478198,
      "amenity": "cafe",
      "opening_hours": "Mo-We 10:00-14:30; Th-Fr 10:00-20:00; Sa 10:00-14:30",
      "website": "https://www.facebook.com/pages/Trenton-Market-and-Cafe/123151621100442",
      "phone": "+1 270-466-0999",
      "addr_state": "KY",
      "addr_city": "Trenton",
      "angle": 131.97435089513644
    },
    {
      "id": 176617,
      "geometry": "POINT (-87.488938 36.865184)",
      "poi_name": "Coffee Connection",
      "osm_id": 2564078696,
      "amenity": "cafe",
      "opening_hours": "Mo-Fr 10:00-16:00",
      "website": "https://www.facebook.com/pages/Coffee-Connection/349262545084441",
      "phone": "+1 270-886-8887",
      "angle": 133.01538543194096
    },
    {
      "id": 176676,
      "geometry": "POINT (-87.591961 37.839979)",
      "poi_name": "Planters Coffeehouse",
      "osm_id": 2566558268,
      "amenity": "cafe",
      "opening_hours": "Tu-Fr 7:00-15:00; Sa 10:00-14:00",
      "website": "http://planterscoffeehouse.com/",
      "phone": "(270) 830-0927",
      "angle": 68.92609312797656
    },
    {
      "id": 199504,
      "geometry": "POINT (-88.556564 37.738313)",
      "poi_name": "Granny's Kitchen",
      "osm_id": 967197227,
      "amenity": "cafe",
      "angle": 329.5447827107177
    },
    {
      "id": 186442,
      "geometry": "POINT (-88.17422 38.081825)",
      "poi_name": "Coffee Shop",
      "osm_id": 7929729838,
      "amenity": "cafe",
      "cuisine": "american",
      "phone": "+16183828225",
      "addr_state": "IL",
      "addr_city": "Carmi",
      "addr_postcode": "62821",
      "angle": 22.977026768788186
    },
    {
      "id": 210808,
      "geometry": "POINT (-89.983919 38.506126)",
      "poi_name": "LongStory Coffee",
      "osm_id": 5122352622,
      "amenity": "cafe",
      "cuisine": "coffee_shop",
      "website": "https://www.longstorycoffee.com/",
      "internet_access": "wlan",
      "outdoor_seating": "yes",
      "addr_city": "Belleville",
      "addr_postcode": "62220",
      "addr_street": "South Illinois Street",
      "addr_housenumber": "732",
      "angle": 307.58665175747734
    },
    {
      "id": 201196,
      "geometry": "POINT (-88.602145 37.088404)",
      "poi_name": "Etcetera Coffeehouse",
      "osm_id": 616957160,
      "amenity": "cafe",
      "cuisine": "coffee_shop",
      "wheelchair": "limited",
      "angle": 194.55484848113528
    },
    {
      "id": 211542,
      "geometry": "POINT (-87.390523 37.976912)",
      "poi_name": "Donut Bank",
      "osm_id": 5162010269,
      "amenity": "cafe",
      "angle": 64.42496780422503
    },
    {
      "id": 244101,
      "geometry": "POINT (-86.938394 38.413043)",
      "poi_name": "Zax Creamery",
      "osm_id": 7700581189,
      "amenity": "cafe",
      "cuisine": "ice_cream;coffee_shop;donut",
      "opening_hours": "Mo-Sa 11:00-23:00",
      "internet_access": "yes",
      "outdoor_seating": "yes",
      "addr_state": "IN",
      "addr_city": "Jasper",
      "addr_postcode": "47546",
      "addr_street": "Newton Street",
      "addr_housenumber": "2603 N",
      "angle": 54.64581745395607
    },
    {
      "id": 217046,
      "geometry": "POINT (-88.945864 37.742589)",
      "poi_name": "Starbucks",
      "osm_id": 9201118664,
      "amenity": "cafe",
      "cuisine": "coffee_shop",
      "opening_hours": "Mo-Su 7:00-20:00",
      "phone": "+1 618 993 6330",
      "takeaway": "yes",
      "official_name": "Starbucks Coffee",
      "outdoor_seating": "no",
      "angle": 291.82763919612614
    },
    {
      "id": 219409,
      "geometry": "POINT (-88.362423 36.868898)",
      "poi_name": "Ashley's Cafe & Sweets",
      "osm_id": 9330017077,
      "amenity": "cafe",
      "angle": 174.90047066449785
    },
    {
      "id": 234090,
      "geometry": "POINT (-89.687942 37.12943)",
      "poi_name": "Old Caney Store",
      "osm_id": 4603040605,
      "amenity": "cafe",
      "angle": 245.85234718395944
    },
    {
      "id": 227845,
      "geometry": "POINT (-89.409135 38.895252)",
      "poi_name": "Jo's Java",
      "osm_id": 4318964355,
      "amenity": "cafe",
      "cuisine": "coffee_shop",
      "internet_access": "yes",
      "addr_state": "IL",
      "addr_city": "Greenville",
      "addr_postcode": "62246",
      "addr_street": "Ganton Circle",
      "addr_housenumber": "500",
      "angle": 330.1178720617577
    },
    {
      "id": 241634,
      "geometry": "POINT (-87.318459 36.625673)",
      "poi_name": "Starbucks",
      "osm_id": 6033192526,
      "amenity": "cafe",
      "cuisine": "coffee_shop",
      "takeaway": "yes",
      "official_name": "Starbucks Coffee",
      "angle": 136.4464308267721
    },
    {
      "id": 244791,
      "geometry": "POINT (-87.357025 36.530524)",
      "poi_name": "Starbucks",
      "osm_id": 7741646922,
      "amenity": "cafe",
      "cuisine": "coffee_shop",
      "takeaway": "yes",
      "official_name": "Starbucks Coffee",
      "angle": 140.12274898484057
    }
  ],
  "answer_type": "angle",
  "question_entities": {
    "[1]": {
      "main_category": "amenity",
      "sub_category": "cafe"
    },
    "[2]": {
      "distance": 170000,
      "text": "170 kilometers"
    },
    "[3]": {
      "main_category": "tourism",
      "sub_category": "attraction",
      "display_name": "Herod Cave, Herod, IL",
      "geo_wkt": "POINT (-88.441774 37.583331)",
      "poi": {
        "id": 21619,
        "geometry": "POINT (-88.441774 37.583331)",
        "poi_name": "Herod Cave",
        "osm_id": 10577919901,
        "tourism": "attraction",
        "addr_state": "IL",
        "addr_city": "Herod",
        "addr_postcode": "62947",
        "addr_street": "IL 34",
        "addr_housenumber": "999"
      }
    }
  },
  "id": 1056,
  "type": "range+angle"
}