{
  "question": "Could you locate a caf\u00e9 within a 90 kilometers radius of Lake Weir High School Stadium, FL?",
  "sql": "SELECT * FROM pois\nWHERE ST_DWithin(pois.geometry, ST_GeomFromText('POINT (-81.977308 29.079147)',4326)::geography, 90000)\nAND amenity = 'cafe';\n",
  "answers": [
    {
      "id": 34233,
      "geometry": "POINT (-82.345448 29.648255)",
      "poi_name": "Starbucks",
      "osm_id": 2698391346,
      "amenity": "cafe",
      "cuisine": "coffee_shop",
      "wheelchair": "yes",
      "opening_hours": "Mo-Fr 07:00-18:00",
      "website": "https://www.starbucks.com/store-locator/store/17247/university-of-florida-the-hub-1600-sw-archer-road-gainesville-fl-326103003-us",
      "internet_access": "wlan",
      "phone": "+1 352-392-6202",
      "takeaway": "yes",
      "official_name": "Starbucks Coffee",
      "outdoor_seating": "yes",
      "toilets": "no",
      "addr_state": "FL",
      "addr_city": "Gainesville",
      "addr_postcode": "32611",
      "addr_street": "Stadium Road",
      "addr_housenumber": "1765"
    },
    {
      "id": 48346,
      "geometry": "POINT (-81.108499 29.262347)",
      "poi_name": "Biggby Coffee",
      "osm_id": 3377862931,
      "amenity": "cafe",
      "cuisine": "coffee_shop",
      "takeaway": "yes",
      "addr_state": "FL",
      "addr_city": "Ormond Beach",
      "addr_postcode": "32174",
      "addr_street": "West Granada Boulevard",
      "addr_housenumber": "1340"
    },
    {
      "id": 48657,
      "geometry": "POINT (-81.4801 28.450987)",
      "poi_name": "Bento Cafe",
      "osm_id": 3394471621,
      "amenity": "cafe",
      "addr_state": "FL",
      "addr_city": "Orlando",
      "addr_postcode": "32819"
    },
    {
      "id": 48993,
      "geometry": "POINT (-81.350583 28.594637)",
      "poi_name": "Starbucks",
      "osm_id": 3411776456,
      "amenity": "cafe",
      "cuisine": "coffee_shop",
      "opening_hours": "Mo-Th 06:00-20:00; Fr,Sa 06:00-21:00; Su 06:30-20:00",
      "takeaway": "yes",
      "drive_through": "no",
      "official_name": "Starbucks Coffee",
      "addr_state": "FL",
      "addr_city": "Winter Park",
      "addr_postcode": "32789",
      "addr_street": "South Park Avenue",
      "addr_housenumber": "400"
    },
    {
      "id": 55104,
      "geometry": "POINT (-81.676787 28.356256)",
      "poi_name": "Starbucks",
      "osm_id": 10171874974,
      "amenity": "cafe",
      "cuisine": "coffee_shop",
      "opening_hours": "Mo-Fr 05:00-21:00; Sa-Su 05:30-21:00",
      "internet_access": "wlan",
      "phone": "+1-352-241-8744",
      "takeaway": "yes",
      "official_name": "Starbucks Coffee",
      "outdoor_seating": "yes",
      "addr_state": "FL",
      "addr_city": "Clermont",
      "addr_postcode": "34714",
      "addr_street": "Cagan View Road",
      "addr_housenumber": "628"
    },
    {
      "id": 71899,
      "geometry": "POINT (-81.366058 28.553368)",
      "poi_name": "Lineage Coffee Roasting",
      "osm_id": 11405258271,
      "amenity": "cafe",
      "opening_hours": "Mo-Su 07:00-19:00",
      "website": "https://www.lineageroasting.com/",
      "phone": "+14072058096",
      "addr_city": "Orlando",
      "addr_postcode": "32803",
      "addr_street": "1011 E Colonial Dr"
    },
    {
      "id": 72888,
      "geometry": "POINT (-81.363944 28.552993)",
      "poi_name": "Chewy Boba Company",
      "osm_id": 11455406220,
      "amenity": "cafe",
      "cuisine": "bubble_tea",
      "opening_hours": "Mo-Su 11:00-21:00",
      "website": "https://chewyboba.com",
      "phone": "+1-407-897-1377",
      "addr_state": "FL",
      "addr_city": "Orlando",
      "addr_postcode": "32803",
      "addr_street": "East Colonial Drive",
      "addr_housenumber": "1212"
    },
    {
      "id": 72896,
      "geometry": "POINT (-81.35636 28.552947)",
      "poi_name": "Fluffy Fluffy Dessert Cafe",
      "osm_id": 11455481360,
      "amenity": "cafe",
      "opening_hours": "Mo-Su 10:00-20:00",
      "website": "https://fluffyfluffy.co",
      "phone": "+1-407-286-3979",
      "addr_state": "FL",
      "addr_city": "Orlando",
      "addr_postcode": "32803",
      "addr_street": "East Colonial Drive",
      "addr_housenumber": "2008"
    },
    {
      "id": 72901,
      "geometry": "POINT (-81.343189 28.552236)",
      "poi_name": "Quickly",
      "osm_id": 11455548781,
      "amenity": "cafe",
      "cuisine": "bubble_tea",
      "opening_hours": "Mo-Su 10:00-22:00",
      "website": "https://quicklybobasnowtogo.com",
      "phone": "+1-407-270-4570",
      "takeaway": "yes",
      "addr_state": "FL",
      "addr_city": "Orlando",
      "addr_postcode": "32803",
      "addr_street": "East Colonial Drive",
      "addr_housenumber": "3214"
    },
    {
      "id": 72902,
      "geometry": "POINT (-81.351512 28.543618)",
      "poi_name": "Pom Pom's Teahouse & Sandwicheria",
      "osm_id": 11455597457,
      "amenity": "cafe",
      "cuisine": "sandwich;dessert;tea",
      "opening_hours": "MTu-Th 11:00-23:00; Fr-Mo 11:00-17:00",
      "website": "https://pompomsteahouse.com",
      "phone": "+1-407-894-0865",
      "addr_state": "FL",
      "addr_city": "Orlando",
      "addr_postcode": "32803",
      "addr_street": "North Bumby Avenue",
      "addr_housenumber": "67"
    },
    {
      "id": 84825,
      "geometry": "POINT (-81.301788 29.036355)",
      "poi_name": "Starbucks",
      "osm_id": 1818916743,
      "amenity": "cafe",
      "cuisine": "coffee_shop",
      "internet_access": "wlan",
      "takeaway": "yes",
      "official_name": "Starbucks Coffee",
      "addr_state": "FL",
      "addr_city": "DeLand",
      "addr_postcode": "32720",
      "addr_street": "East Michigan Avenue",
      "addr_housenumber": "131"
    },
    {
      "id": 81220,
      "geometry": "POINT (-81.292443 28.915922)",
      "poi_name": "Starbucks",
      "osm_id": 1614969058,
      "amenity": "cafe",
      "cuisine": "coffee_shop",
      "takeaway": "yes",
      "official_name": "Starbucks Coffee",
      "addr_city": "Orange City",
      "addr_postcode": "32763",
      "addr_street": "Enterprise Road",
      "addr_housenumber": "2575"
    },
    {
      "id": 89292,
      "geometry": "POINT (-81.450783 28.551462)",
      "poi_name": "Bambu",
      "osm_id": 8837015158,
      "amenity": "cafe",
      "cuisine": "vietnamese;bubble_tea",
      "takeaway": "yes",
      "outdoor_seating": "no",
      "addr_state": "FL"
    },
    {
      "id": 101165,
      "geometry": "POINT (-81.743111 28.563891)",
      "poi_name": "Citrus Coffee Company",
      "osm_id": 6612467248,
      "amenity": "cafe",
      "cuisine": "coffee_shop",
      "wheelchair": "yes",
      "opening_hours": "Mo-Su 07:00-19:00",
      "internet_access": "wlan",
      "takeaway": "yes",
      "outdoor_seating": "yes",
      "delivery": "yes",
      "addr_state": "FL",
      "addr_city": "Clermont",
      "addr_street": "US Highway 27",
      "addr_housenumber": "141"
    },
    {
      "id": 101478,
      "geometry": "POINT (-81.535677 28.495652)",
      "poi_name": "Dixie Cream Cafe",
      "osm_id": 6631169330,
      "amenity": "cafe",
      "cuisine": "american",
      "wheelchair": "yes",
      "internet_access": "yes",
      "outdoor_seating": "yes",
      "addr_state": "FL",
      "addr_city": "Windermere",
      "addr_postcode": "34786",
      "addr_street": "Main Street",
      "addr_housenumber": "434"
    },
    {
      "id": 105041,
      "geometry": "POINT (-81.098554 29.212181)",
      "poi_name": "Red Dragon Wok & Boba Tea Bar",
      "osm_id": 8597513656,
      "amenity": "cafe",
      "cuisine": "bubble_tea",
      "opening_hours": "Su-Th 10:00-20:00, Fr-Sa 10:00-21:00",
      "phone": "+1 386 238 9358",
      "addr_state": "FL",
      "addr_city": "Daytona Beach",
      "addr_postcode": "32117",
      "addr_street": "Cornerstone Boulevard",
      "addr_housenumber": "110"
    },
    {
      "id": 115996,
      "geometry": "POINT (-81.268443 28.810704)",
      "poi_name": "Palate Coffee Brewery",
      "osm_id": 8923068636,
      "amenity": "cafe",
      "cuisine": "coffee_shop",
      "description": "Palate Coffee Brewery is a quality mission based coffee shop located in Historical Downtown Sanford. All profits are dedicated to the abolishment of modern day slavery; human trafficking. At Palate the community becomes the heroes of our story.",
      "website": "https://www.sanfordcoffee.com/",
      "phone": "3213630661",
      "outdoor_seating": "yes",
      "addr_state": "FL",
      "addr_city": "Sanford",
      "addr_postcode": "32771",
      "addr_street": "W 2nd Street",
      "addr_housenumber": "105"
    },
    {
      "id": 106639,
      "geometry": "POINT (-81.451441 28.474466)",
      "poi_name": "Starbucks",
      "osm_id": 8691941868,
      "amenity": "cafe",
      "cuisine": "coffee_shop",
      "phone": "+1 407 363 5535",
      "takeaway": "yes",
      "official_name": "Starbucks Coffee",
      "addr_state": "FL",
      "addr_city": "Orlando",
      "addr_postcode": "32819",
      "addr_street": "International Drive"
    },
    {
      "id": 113956,
      "geometry": "POINT (-81.640815 28.824646)",
      "poi_name": "Starbucks",
      "osm_id": 3859564593,
      "amenity": "cafe",
      "cuisine": "coffee_shop",
      "takeaway": "yes",
      "official_name": "Starbucks Coffee",
      "addr_state": "FL",
      "addr_city": "Mount Dora",
      "addr_postcode": "32757",
      "addr_street": "US 441",
      "addr_housenumber": "19021"
    },
    {
      "id": 116011,
      "geometry": "POINT (-81.265068 28.80768)",
      "poi_name": "Raw Press Juice Co.",
      "osm_id": 8923536920,
      "amenity": "cafe",
      "opening_hours": "Mo-Fr 08:00-18:00; Sa 10:00-17:00",
      "website": "https://rawpressjuiceco.com/",
      "phone": "4077252620",
      "outdoor_seating": "yes",
      "addr_state": "FL",
      "addr_city": "Sanford",
      "addr_postcode": "32771",
      "addr_street": "Sanford Avenue",
      "addr_housenumber": "516"
    },
    {
      "id": 116068,
      "geometry": "POINT (-81.268186 28.811369)",
      "poi_name": "The Collective Tea & Coffee Co.",
      "osm_id": 8927080810,
      "amenity": "cafe",
      "cuisine": "coffee_shop;tea",
      "description": "The Collective, a partnership between the Rosie Lee Tea Co. and Wavelength Coffee Co.",
      "website": "https://www.thecollectivesanford.com",
      "phone": "4077324617",
      "addr_state": "FL",
      "addr_city": "Sanford",
      "addr_postcode": "32771",
      "addr_street": "Park Avenue",
      "addr_housenumber": "108"
    },
    {
      "id": 116326,
      "geometry": "POINT (-81.269867 28.81236)",
      "poi_name": "Mahogany Coffee",
      "osm_id": 8938710004,
      "amenity": "cafe",
      "cuisine": "coffee_shop",
      "website": "https://www.henrysdepot.com/mahogany-coffee",
      "addr_state": "FL",
      "addr_city": "Sanford",
      "addr_postcode": "32771",
      "addr_street": "W 1st Street",
      "addr_housenumber": "212"
    },
    {
      "id": 120046,
      "geometry": "POINT (-81.352264 28.54924)",
      "poi_name": "Drunken Monkey",
      "osm_id": 9136300218,
      "amenity": "cafe",
      "cuisine": "coffee_shop;sandwich;dessert",
      "opening_hours": "Mo-Fr 07:00-20:00; Sa-Su 08:00-20:00",
      "website": "https://www.drunkenmonkeyorders.com",
      "phone": "+1-407-893-4994",
      "drive_through": "yes",
      "outdoor_seating": "yes",
      "addr_state": "FL",
      "addr_city": "Orlando",
      "addr_postcode": "32803",
      "addr_street": "North Bumby Avenue",
      "addr_housenumber": "444"
    },
    {
      "id": 116476,
      "geometry": "POINT (-81.269874 28.815078)",
      "poi_name": "Caff\u00e8 Di Riverwalk",
      "osm_id": 8944643359,
      "amenity": "cafe",
      "cuisine": "coffee_shop",
      "opening_hours": "Mo-Sa 08:00-14:00",
      "phone": "4073288792",
      "outdoor_seating": "yes",
      "addr_state": "FL",
      "addr_city": "Sanford",
      "addr_postcode": "32771",
      "addr_street": "West Seminole Boulevard",
      "addr_housenumber": "225"
    },
    {
      "id": 122005,
      "geometry": "POINT (-81.628489 28.474925)",
      "poi_name": "Starbucks",
      "osm_id": 6783663031,
      "amenity": "cafe",
      "cuisine": "coffee_shop",
      "internet_access": "yes",
      "takeaway": "yes",
      "official_name": "Starbucks Coffee",
      "addr_state": "FL",
      "addr_city": "Winter Garden",
      "addr_postcode": "34787",
      "addr_street": "New Independence Parkway",
      "addr_housenumber": "16065"
    },
    {
      "id": 124319,
      "geometry": "POINT (-81.58863 28.549203)",
      "poi_name": "Lucky Straws Boba Tea",
      "osm_id": 6910773446,
      "amenity": "cafe",
      "cuisine": "bubble_tea;tea",
      "internet_access": "wlan",
      "phone": "(407) 877-2622",
      "outdoor_seating": "no",
      "addr_state": "FL",
      "addr_city": "Winter Garden",
      "addr_postcode": "34787",
      "addr_street": "W Colonial Dr",
      "addr_housenumber": "13750"
    },
    {
      "id": 135239,
      "geometry": "POINT (-81.20708 28.651893)",
      "poi_name": "Teapioca",
      "osm_id": 11509672158,
      "amenity": "cafe",
      "cuisine": "bubble_tea",
      "addr_state": "FL",
      "addr_city": "Oviedo",
      "addr_postcode": "32765"
    },
    {
      "id": 155957,
      "geometry": "POINT (-82.386981 29.672158)",
      "poi_name": "The Bagel Bakery",
      "osm_id": 4636110991,
      "amenity": "cafe",
      "cuisine": "bagel",
      "addr_state": "FL",
      "addr_city": "Gainesville",
      "addr_postcode": "32605",
      "addr_street": "Northwest 16th Boulevard",
      "addr_housenumber": "4113"
    },
    {
      "id": 158182,
      "geometry": "POINT (-81.614353 28.344092)",
      "poi_name": "Starbucks",
      "osm_id": 4738782605,
      "amenity": "cafe",
      "cuisine": "coffee_shop",
      "opening_hours": "Mo-Su 08:00-21:00",
      "phone": "13216773971",
      "takeaway": "yes",
      "official_name": "Starbucks Coffee",
      "addr_state": "FL",
      "addr_city": "Kissimmee",
      "addr_postcode": "34747",
      "addr_street": "Rolling Oaks Blvd.",
      "addr_housenumber": "3200"
    },
    {
      "id": 180001,
      "geometry": "POINT (-81.722479 28.591809)",
      "poi_name": "Starbucks",
      "osm_id": 10785996770,
      "amenity": "cafe",
      "cuisine": "coffee_shop",
      "internet_access": "wlan",
      "phone": "352-729-3532",
      "takeaway": "yes",
      "official_name": "Starbucks Coffee",
      "outdoor_seating": "yes",
      "addr_state": "FL",
      "addr_city": "Minneola",
      "addr_street": "North Hancock Road",
      "addr_housenumber": "1681"
    },
    {
      "id": 180009,
      "geometry": "POINT (-82.14122 28.668157)",
      "poi_name": "Starbucks",
      "osm_id": 10786371579,
      "amenity": "cafe",
      "cuisine": "coffee_shop",
      "internet_access": "wlan",
      "takeaway": "yes",
      "official_name": "Starbucks Coffee",
      "outdoor_seating": "yes",
      "addr_city": "Bushnell",
      "addr_street": "West C 48",
      "addr_housenumber": "2217"
    },
    {
      "id": 180262,
      "geometry": "POINT (-81.368613 28.542878)",
      "poi_name": "RareTea",
      "osm_id": 10796634645,
      "amenity": "cafe",
      "cuisine": "bubble_tea",
      "wheelchair": "yes",
      "opening_hours": "Su-Th 11:30-21:00, Fr-Sa 11:30-22:00",
      "website": "https://rareteaorlando.square.site",
      "phone": "(407) 237-9892",
      "drive_through": "no",
      "outdoor_seating": "yes",
      "delivery": "yes",
      "toilets": "yes",
      "addr_state": "FL",
      "addr_city": "Orlando",
      "addr_postcode": "32801",
      "addr_street": "N Summerlin Avenue",
      "addr_housenumber": "12"
    },
    {
      "id": 180345,
      "geometry": "POINT (-81.429246 28.494437)",
      "poi_name": "Ding Tea",
      "osm_id": 10798170456,
      "amenity": "cafe",
      "cuisine": "bubble_tea",
      "opening_hours": "Mo-Th, Su 11:00-21:00; Fr, Sa 11:00-21:30",
      "website": "https://dingteaorlando.com",
      "phone": "+1-407-203-8081",
      "takeaway": "yes",
      "drive_through": "no",
      "outdoor_seating": "no",
      "delivery": "yes",
      "toilets": "yes",
      "addr_state": "FL",
      "addr_city": "Orlando",
      "addr_postcode": "32839",
      "addr_street": "Millenia Plaza Way",
      "addr_housenumber": "4680"
    },
    {
      "id": 180348,
      "geometry": "POINT (-81.426206 28.442969)",
      "poi_name": "SpringTea",
      "osm_id": 10798187535,
      "amenity": "cafe",
      "cuisine": "bubble_tea;chinese;taiwanese;asian;juice;quick_bite",
      "wheelchair": "yes",
      "opening_hours": "Mo-Th, Su 11:00-21:00; Fr, Sa 11:00-22:00",
      "website": "https://springtea.business.site",
      "phone": "+1-407-413-5335",
      "takeaway": "yes",
      "drive_through": "no",
      "outdoor_seating": "no",
      "delivery": "yes",
      "toilets": "yes",
      "addr_state": "FL",
      "addr_city": "Orlando",
      "addr_postcode": "32819",
      "addr_street": "South John Young Parkway",
      "addr_housenumber": "8457"
    },
    {
      "id": 180356,
      "geometry": "POINT (-81.425991 28.445295)",
      "poi_name": "Picasso Moments Bakery, Cafe, & Boba Tea",
      "osm_id": 10798201739,
      "amenity": "cafe",
      "cuisine": "asian;sandwich;bubble_tea;dessert;cake;bakery;lunch;dinner;quick_bite;ramen",
      "opening_hours": "Mo-Sa 10:00-19:30; Su 10:00-18:00",
      "website": "https://picasso-moments-bakery.com",
      "internet_access": "wifi",
      "phone": "+1-407-203-8126",
      "takeaway": "yes",
      "drive_through": "no",
      "outdoor_seating": "yes",
      "delivery": "yes",
      "toilets": "yes",
      "addr_state": "FL",
      "addr_city": "Orlando",
      "addr_postcode": "32819",
      "addr_street": "South John Young Parkway",
      "addr_housenumber": "8231"
    },
    {
      "id": 180365,
      "geometry": "POINT (-81.449632 28.550889)",
      "poi_name": "The Tea Spot",
      "osm_id": 10798268224,
      "amenity": "cafe",
      "cuisine": "bubble_tea",
      "opening_hours": "Mo-Su 11:00-21:00",
      "website": "https://the-tea-spot.square.site",
      "internet_access": "wlan",
      "phone": "+1-407-995-6609",
      "takeaway": "yes",
      "outdoor_seating": "no",
      "delivery": "yes",
      "toilets": "yes",
      "addr_state": "FL",
      "addr_city": "Orlando",
      "addr_postcode": "32808",
      "addr_street": "West Colonial Drive",
      "addr_housenumber": "5078"
    },
    {
      "id": 180367,
      "geometry": "POINT (-81.376141 28.528808)",
      "poi_name": "Foxtail Coffee - SoDo North",
      "osm_id": 10798280017,
      "amenity": "cafe",
      "cuisine": "sandwich;american;coffee_shop;donut",
      "wheelchair": "yes",
      "opening_hours": "Mo-Su 06:00-18:00",
      "website": "https://foxtailcoffee.com",
      "internet_access": "wifi",
      "phone": "+1-407-930-1328",
      "takeaway": "yes",
      "outdoor_seating": "yes",
      "delivery": "yes",
      "toilets": "yes",
      "addr_state": "FL",
      "addr_city": "Orlando",
      "addr_postcode": "32806",
      "addr_street": "South Orange Avenue",
      "addr_housenumber": "1101"
    },
    {
      "id": 180263,
      "geometry": "POINT (-81.379374 28.542543)",
      "poi_name": "Mecatos Bakery & Cafe",
      "osm_id": 10796639852,
      "amenity": "cafe",
      "cuisine": "dessert;salad;sandwich;cake",
      "opening_hours": "Mo-Th 07:00-18:00, Fr 07:00-20:00, Sa-Su 08:00-20:00",
      "website": "https://mecatoscafe.com",
      "phone": "(407) 704-3841",
      "delivery": "yes",
      "addr_state": "FL",
      "addr_city": "Orlando",
      "addr_postcode": "32801",
      "addr_street": "North Orange Avenue",
      "addr_housenumber": "20"
    },
    {
      "id": 184276,
      "geometry": "POINT (-81.316772 28.625629)",
      "poi_name": "Starbucks",
      "osm_id": 7779477685,
      "amenity": "cafe",
      "cuisine": "coffee_shop",
      "opening_hours": "Mo-Sa 05:00-21:00; Su 05:30-21:00",
      "takeaway": "yes",
      "official_name": "Starbucks Coffee",
      "addr_city": "Winter Park",
      "addr_postcode": "32792",
      "addr_street": "State Road 436",
      "addr_housenumber": "2535"
    },
    {
      "id": 184931,
      "geometry": "POINT (-81.272792 28.895333)",
      "poi_name": "Energy Joy Nutrition",
      "osm_id": 7821317170,
      "amenity": "cafe",
      "cuisine": "coffee_shop",
      "opening_hours": "Mo-Fr 08:00-19:00",
      "internet_access": "yes",
      "addr_state": "FL",
      "addr_city": "Deltona",
      "addr_postcode": "32725",
      "addr_street": "Deltona Boulevard",
      "addr_housenumber": "1200"
    },
    {
      "id": 199192,
      "geometry": "POINT (-81.48968 28.4494)",
      "poi_name": "Planet Smoothie",
      "osm_id": 943636856,
      "amenity": "cafe",
      "opening_hours": "Mo-Fr 07:00-21:00; Su 09:00-20:00; Sa 08:00-20:00",
      "addr_state": "FL",
      "addr_city": "Orlando",
      "addr_street": "Sand Lake Road",
      "addr_housenumber": "7824"
    },
    {
      "id": 197728,
      "geometry": "POINT (-81.203838 28.656374)",
      "poi_name": "Starbucks",
      "osm_id": 10671529666,
      "amenity": "cafe",
      "cuisine": "coffee_shop",
      "takeaway": "yes",
      "official_name": "Starbucks Coffee",
      "addr_state": "FL",
      "addr_city": "Oviedo",
      "addr_postcode": "32765",
      "addr_street": "E Mitchell Hammock Road",
      "addr_housenumber": "305"
    },
    {
      "id": 195991,
      "geometry": "POINT (-81.450956 28.550476)",
      "poi_name": "Meet Fresh",
      "osm_id": 10557018410,
      "amenity": "cafe",
      "cuisine": "bubble_tea;chinese;dessert",
      "opening_hours": "Su-Th 11:30-21:00; Fr-Sa 11:30-21:30",
      "website": "https://meetfresh.us/",
      "internet_access": "wlan",
      "phone": "+1-407-601-3165",
      "takeaway": "yes",
      "drive_through": "no",
      "outdoor_seating": "no",
      "toilets": "yes",
      "addr_state": "FL",
      "addr_city": "Orlando",
      "addr_postcode": "32808",
      "addr_street": "West Colonial Drive",
      "addr_housenumber": "5144"
    },
    {
      "id": 199166,
      "geometry": "POINT (-81.378973 28.546357)",
      "poi_name": "Leo's Diner",
      "osm_id": 940735121,
      "amenity": "cafe",
      "addr_state": "FL",
      "addr_city": "Orlando",
      "addr_street": "North Orange Avenue",
      "addr_housenumber": "333"
    },
    {
      "id": 199167,
      "geometry": "POINT (-81.378973 28.546317)",
      "poi_name": "Dixie's Cafe",
      "osm_id": 940735123,
      "amenity": "cafe",
      "addr_state": "FL",
      "addr_city": "Orlando",
      "addr_street": "North Orange Avenue",
      "addr_housenumber": "331"
    },
    {
      "id": 199170,
      "geometry": "POINT (-81.377369 28.545293)",
      "poi_name": "Daily News Caf\u00e9",
      "osm_id": 940891046,
      "amenity": "cafe",
      "addr_state": "FL",
      "addr_city": "Orlando",
      "addr_street": "Magnolia Avenue",
      "addr_housenumber": "231"
    },
    {
      "id": 202295,
      "geometry": "POINT (-81.430276 28.493847)",
      "poi_name": "Starbucks",
      "osm_id": 7018490655,
      "amenity": "cafe",
      "cuisine": "coffee_shop",
      "takeaway": "yes",
      "official_name": "Starbucks Coffee",
      "outdoor_seating": "no",
      "addr_state": "FL",
      "addr_city": "Orlando",
      "addr_street": "Millenia Plaza Way",
      "addr_housenumber": "4750"
    },
    {
      "id": 208777,
      "geometry": "POINT (-81.381491 28.547122)",
      "poi_name": "Ace Cafe Orlando",
      "osm_id": 5005260621,
      "amenity": "cafe",
      "opening_hours": "Mo-We 11:00-21:00; Th 11:00-22:00; Fr-Sa 11:00-23:00; Su 10:00-21:00; PH off",
      "website": "https://acecafeusa.com/",
      "phone": "+1 407 996 6686",
      "addr_state": "FL",
      "addr_city": "Orlando",
      "addr_postcode": "32801",
      "addr_street": "Livingston Street",
      "addr_housenumber": "100"
    },
    {
      "id": 211294,
      "geometry": "POINT (-82.331148 29.651916)",
      "poi_name": "Karma Cream",
      "osm_id": 5152465425,
      "amenity": "cafe",
      "cuisine": "coffee_shop;coffee;ice_cream",
      "description": "Karma Cream is a locally owned ice cream caf\u00e9 opened in 2009.",
      "opening_hours": "Tu-Fr 08:00-20:00; Sa 10:00-20:00; Su 10:00-16:00; Mo 08:00-16:00",
      "website": "http://www.karmacream.com",
      "internet_access": "wlan",
      "phone": "+1 352-505-6566",
      "outdoor_seating": "yes",
      "addr_state": "FL",
      "addr_city": "Gainesville",
      "addr_postcode": "32601",
      "addr_street": "West University Avenue",
      "addr_housenumber": "607"
    },
    {
      "id": 213850,
      "geometry": "POINT (-81.064815 29.19669)",
      "poi_name": "Gloria Jean's",
      "osm_id": 5261105322,
      "amenity": "cafe",
      "cuisine": "coffee_shop",
      "opening_hours": "Mo-We 10:00-21:00, Fr 07:00-21:00, Sa 10:00-22:00, Su 12:00-18:00",
      "website": "https://www.volusiamall.net/store/gloria_jeans_coffees",
      "phone": "+1 386 257 9500",
      "takeaway": "yes",
      "official_name": "Gloria Jean's Coffees",
      "addr_state": "FL",
      "addr_city": "Daytona Beach",
      "addr_postcode": "32114",
      "addr_street": "International Speedway Boulevard",
      "addr_housenumber": "1700"
    },
    {
      "id": 220277,
      "geometry": "POINT (-81.457336 28.550965)",
      "poi_name": "Boba Queen",
      "osm_id": 9368232490,
      "amenity": "cafe",
      "cuisine": "bubble_tea",
      "description": "Cafe, Tea, Boba tea and quick bites.",
      "opening_hours": "Th-Tu 12:00-21:00",
      "website": "https://bobaqueen.business.site",
      "phone": "(407) 930-0277",
      "takeaway": "yes",
      "outdoor_seating": "no",
      "addr_city": "Orlando",
      "addr_postcode": "32808",
      "addr_street": "West Colonial Drive",
      "addr_housenumber": "5600"
    },
    {
      "id": 215416,
      "geometry": "POINT (-82.376062 29.624253)",
      "poi_name": "Starbucks",
      "osm_id": 5299598623,
      "amenity": "cafe",
      "cuisine": "coffee_shop",
      "takeaway": "yes",
      "official_name": "Starbucks Coffee",
      "addr_state": "FL",
      "addr_city": "Gainesville",
      "addr_postcode": "32608",
      "addr_street": "Southwest Archer Road"
    },
    {
      "id": 219111,
      "geometry": "POINT (-81.345716 28.567534)",
      "poi_name": "Lobos Coffee Roasters",
      "osm_id": 9316250835,
      "amenity": "cafe",
      "opening_hours": "6:30-22:00",
      "website": "https://loboscoffeeroasters.com/",
      "phone": "407-335-4185",
      "outdoor_seating": "yes",
      "addr_state": "FL",
      "addr_city": "Orlando",
      "addr_postcode": "32803",
      "addr_street": "Corrine Drive",
      "addr_housenumber": "3000"
    },
    {
      "id": 219112,
      "geometry": "POINT (-81.345185 28.567613)",
      "poi_name": "Bikes Beans & Bordeaux",
      "osm_id": 9316250836,
      "amenity": "cafe",
      "opening_hours": "8:00-20:00",
      "website": "https://b3cafe.square.site",
      "phone": "407-427-1440",
      "addr_state": "FL",
      "addr_city": "Orlando",
      "addr_postcode": "32803",
      "addr_street": "Corrine Drive",
      "addr_housenumber": "3022"
    },
    {
      "id": 222154,
      "geometry": "POINT (-81.364328 28.552784)",
      "poi_name": "Matcha Cafe Maiko",
      "osm_id": 11007004668,
      "amenity": "cafe",
      "cuisine": "coffee_shop;dessert;ice_cream;tea",
      "opening_hours": "Su-Th 12:00-21:00; Fr-Sa 12:00-22:00",
      "website": "https://cafemaikoorl.com",
      "phone": "+1-407-730-9090",
      "takeaway": "yes",
      "drive_through": "no",
      "outdoor_seating": "yes",
      "addr_state": "FL",
      "addr_city": "Orlando",
      "addr_postcode": "32803",
      "addr_street": "North Mills Avenue",
      "addr_housenumber": "639"
    },
    {
      "id": 220731,
      "geometry": "POINT (-82.139661 29.186178)",
      "poi_name": "The Bubble Bar",
      "osm_id": 9384533833,
      "amenity": "cafe",
      "opening_hours": "Tu-Sa 12:00-19:00",
      "website": "https://the-bubble-bar-boba-tea.business.site/",
      "phone": "(352) 509-3006",
      "outdoor_seating": "no",
      "addr_state": "FL",
      "addr_city": "Ocala",
      "addr_postcode": "34471",
      "addr_street": "Southwest Broadway Street",
      "addr_housenumber": "304"
    },
    {
      "id": 222162,
      "geometry": "POINT (-81.363087 28.553305)",
      "poi_name": "Haan Coffee",
      "osm_id": 11007474258,
      "amenity": "cafe",
      "cuisine": "coffee_shop;tea;dessert",
      "opening_hours": "Mo-Sa 07:00-19:00",
      "website": "https://www.haancoffee.com",
      "phone": "+1-407-906-5119",
      "outdoor_seating": "yes",
      "addr_state": "FL",
      "addr_city": "Orlando",
      "addr_postcode": "32803",
      "addr_street": "East Colonial Drive",
      "addr_housenumber": "1235"
    },
    {
      "id": 240794,
      "geometry": "POINT (-81.263315 28.618057)",
      "poi_name": "Starbucks",
      "osm_id": 5991389411,
      "amenity": "cafe",
      "cuisine": "coffee_shop",
      "internet_access": "yes",
      "takeaway": "yes",
      "official_name": "Starbucks Coffee",
      "outdoor_seating": "yes",
      "addr_state": "FL",
      "addr_city": "Oviedo",
      "addr_postcode": "32765",
      "addr_street": "Aloma Avenue",
      "addr_housenumber": "3607"
    },
    {
      "id": 231921,
      "geometry": "POINT (-82.438413 29.607187)",
      "poi_name": "Patticakes in the Village",
      "osm_id": 4497579171,
      "amenity": "cafe",
      "outdoor_seating": "yes",
      "addr_state": "FL",
      "addr_city": "Gainesville",
      "addr_postcode": "32608",
      "addr_street": "Southwest 51st Road",
      "addr_housenumber": "9124"
    },
    {
      "id": 243219,
      "geometry": "POINT (-82.102946 29.201372)",
      "poi_name": "Christy's Oriental Store",
      "osm_id": 7633364159,
      "amenity": "cafe",
      "cuisine": "filipino;asian;international",
      "website": "https://www.facebook.com/christysoriental",
      "phone": "+1-352-401-0660",
      "addr_state": "FL",
      "addr_city": "Ocala",
      "addr_postcode": "34470",
      "addr_street": "Northeast 25th Avenue",
      "addr_housenumber": "1429"
    }
  ],
  "answer_type": "loc",
  "question_entities": {
    "[1]": {
      "main_category": "amenity",
      "sub_category": "cafe"
    },
    "[2]": {
      "distance": 90000,
      "text": "90 kilometers"
    },
    "[3]": {
      "main_category": "leisure",
      "sub_category": "stadium",
      "display_name": "Lake Weir High School Stadium, FL",
      "geo_wkt": "POINT (-81.977308 29.079147)",
      "poi": {
        "id": 265380,
        "geometry": "POINT (-81.977308 29.079147)",
        "poi_name": "Lake Weir High School Stadium",
        "osm_id": 367826914,
        "leisure": "stadium",
        "addr_state": "FL"
      }
    }
  },
  "id": 2069,
  "type": "range+loc"
}