{
  "question": "Within 70 kilometers, which fast food restaurant can I find from Go Fish, Rosedale, MD on the way to Charlotte's Quest Nature Center, Manchester, MD?",
  "sql": "WITH\n    angle AS (SELECT degrees(ST_Azimuth(ST_GeomFromText('POINT (-76.48474 39.339761)',4326)::geography, ST_GeomFromText('POINT (-76.882917 39.667863)',4326)::geography)) AS value)\nSELECT * FROM pois,angle\nWHERE amenity = 'fast_food'\nAND ST_DWithin(pois.geometry, ST_GeomFromText('POINT (-76.48474 39.339761)',4326)::geography, 70000)\nAND (degrees(ST_Azimuth(ST_GeomFromText('POINT (-76.48474 39.339761)',4326)::geography, pois.geometry)) BETWEEN angle.value - 22.5 AND angle.value + 22.5);\n",
  "answers": [
    {
      "id": 28280,
      "geometry": "POINT (-76.666292 39.590702)",
      "poi_name": "Subway",
      "osm_id": 472517063,
      "amenity": "fast_food",
      "cuisine": "sandwich",
      "takeaway": "yes",
      "addr_state": "MD",
      "addr_city": "Monkton",
      "addr_postcode": "21111",
      "addr_street": "Mount Carmel Road",
      "addr_housenumber": "107",
      "value": 316.8939669993493
    },
    {
      "id": 30180,
      "geometry": "POINT (-76.602012 39.401762)",
      "poi_name": "Shake Shack",
      "osm_id": 8338932396,
      "amenity": "fast_food",
      "cuisine": "burger",
      "takeaway": "yes",
      "outdoor_seating": "no",
      "addr_state": "MD",
      "addr_city": "Towson",
      "addr_postcode": "21204",
      "addr_street": "East Joppa Road",
      "addr_housenumber": "1",
      "value": 316.8939669993493
    },
    {
      "id": 33337,
      "geometry": "POINT (-76.624211 39.436678)",
      "poi_name": "Maria's Pizza & Carry-Out",
      "osm_id": 2661869603,
      "amenity": "fast_food",
      "cuisine": "pizza",
      "addr_state": "MD",
      "addr_city": "Lutherville",
      "addr_postcode": "21093",
      "addr_street": "York Road",
      "addr_housenumber": "2013",
      "value": 316.8939669993493
    },
    {
      "id": 33688,
      "geometry": "POINT (-76.636447 39.465318)",
      "poi_name": "Subway",
      "osm_id": 2678129078,
      "amenity": "fast_food",
      "cuisine": "sandwich",
      "takeaway": "yes",
      "addr_state": "MD",
      "addr_city": "Cockeysville",
      "addr_postcode": "21030",
      "addr_street": "York Road",
      "addr_housenumber": "10041",
      "value": 316.8939669993493
    },
    {
      "id": 33738,
      "geometry": "POINT (-76.635215 39.463984)",
      "poi_name": "Dunkin'",
      "osm_id": 2679789516,
      "amenity": "fast_food",
      "cuisine": "donut;coffee_shop",
      "takeaway": "yes",
      "addr_street": "Cranbrook Road",
      "addr_housenumber": "10",
      "value": 316.8939669993493
    },
    {
      "id": 33739,
      "geometry": "POINT (-76.636052 39.46481)",
      "poi_name": "Five Guys",
      "osm_id": 2679789524,
      "amenity": "fast_food",
      "cuisine": "burger",
      "takeaway": "yes",
      "official_name": "Five Guys Burgers and Fries",
      "addr_state": "MD",
      "addr_city": "Cockeysville",
      "addr_postcode": "21030",
      "addr_street": "York Road",
      "addr_housenumber": "10015",
      "value": 316.8939669993493
    },
    {
      "id": 41605,
      "geometry": "POINT (-76.818594 39.475058)",
      "poi_name": "Subway",
      "osm_id": 3022240823,
      "amenity": "fast_food",
      "cuisine": "sandwich",
      "website": "https://restaurants.subway.com/united-states/md/glyndon/4821-butler-road",
      "phone": "+1-410-833-2919",
      "takeaway": "yes",
      "addr_state": "MD",
      "addr_city": "Reisterstown",
      "addr_postcode": "21136",
      "addr_street": "Butler Road",
      "addr_housenumber": "4821",
      "value": 316.8939669993493
    },
    {
      "id": 33949,
      "geometry": "POINT (-76.865416 39.636791)",
      "poi_name": "Subway",
      "osm_id": 2687877129,
      "amenity": "fast_food",
      "cuisine": "sandwich",
      "takeaway": "yes",
      "value": 316.8939669993493
    },
    {
      "id": 33951,
      "geometry": "POINT (-76.865443 39.636837)",
      "poi_name": "Domino's",
      "osm_id": 2687882183,
      "amenity": "fast_food",
      "cuisine": "pizza",
      "takeaway": "yes",
      "value": 316.8939669993493
    },
    {
      "id": 41523,
      "geometry": "POINT (-76.635275 39.463134)",
      "poi_name": "Popeyes",
      "osm_id": 3019368846,
      "amenity": "fast_food",
      "cuisine": "chicken",
      "takeaway": "yes",
      "official_name": "Popeyes Louisiana Kitchen",
      "addr_state": "MD",
      "addr_city": "Cockeysville",
      "addr_postcode": "21030",
      "addr_street": "Cranbrook Road",
      "addr_housenumber": "1",
      "value": 316.8939669993493
    },
    {
      "id": 41524,
      "geometry": "POINT (-76.66984 39.420563)",
      "poi_name": "Pure Raw Juice",
      "osm_id": 3019369620,
      "amenity": "fast_food",
      "cuisine": "juice",
      "wheelchair": "limited",
      "opening_hours": "Mo-Fr 07:00-19:00; Sa 08:00-18:00; Su 08:00-17:00",
      "drive_through": "no",
      "addr_state": "MD",
      "addr_city": "Lutherville",
      "addr_postcode": "21093",
      "addr_street": "Falls Road",
      "addr_housenumber": "10749",
      "value": 316.8939669993493
    },
    {
      "id": 41525,
      "geometry": "POINT (-76.647937 39.49248)",
      "poi_name": "First Choice",
      "osm_id": 3019369934,
      "amenity": "fast_food",
      "cuisine": "chinese",
      "drive_through": "no",
      "addr_state": "MD",
      "addr_city": "Cockeysville",
      "addr_postcode": "21030",
      "addr_street": "York Road",
      "addr_housenumber": "11203",
      "value": 316.8939669993493
    },
    {
      "id": 41527,
      "geometry": "POINT (-76.648152 39.49246)",
      "poi_name": "Bagel Works",
      "osm_id": 3019369938,
      "amenity": "fast_food",
      "cuisine": "bagel",
      "website": "https://www.bagelworkshuntvalley.com/",
      "addr_state": "MD",
      "addr_city": "Cockeysville",
      "addr_postcode": "21030",
      "addr_street": "York Road",
      "addr_housenumber": "11209",
      "value": 316.8939669993493
    },
    {
      "id": 41778,
      "geometry": "POINT (-76.541447 39.398059)",
      "poi_name": "Dunkin' Donuts",
      "osm_id": 3025588243,
      "amenity": "fast_food",
      "cuisine": "donut;coffee_shop",
      "takeaway": "yes",
      "addr_state": "MD",
      "addr_city": "Parkville",
      "addr_postcode": "21234",
      "addr_street": "East Joppa Road",
      "addr_housenumber": "2053",
      "value": 316.8939669993493
    },
    {
      "id": 41528,
      "geometry": "POINT (-76.648708 39.492961)",
      "poi_name": "Taneytown Deli",
      "osm_id": 3019369943,
      "amenity": "fast_food",
      "addr_state": "MD",
      "addr_city": "Cockeysville",
      "addr_postcode": "21030",
      "addr_street": "York Road",
      "addr_housenumber": "11223 A",
      "value": 316.8939669993493
    },
    {
      "id": 41531,
      "geometry": "POINT (-76.648572 39.494516)",
      "poi_name": "Jersey Mike's Subs",
      "osm_id": 3019369978,
      "amenity": "fast_food",
      "cuisine": "sandwich",
      "takeaway": "yes",
      "addr_state": "MD",
      "addr_city": "Cockeysville",
      "addr_postcode": "21030",
      "addr_street": "York Road",
      "addr_housenumber": "11337",
      "value": 316.8939669993493
    },
    {
      "id": 41535,
      "geometry": "POINT (-76.621622 39.432048)",
      "poi_name": "Jimmy John's",
      "osm_id": 3019371927,
      "amenity": "fast_food",
      "cuisine": "sandwich",
      "takeaway": "yes",
      "official_name": "Jimmy John's Gourmet Sandwiches",
      "addr_state": "MD",
      "addr_city": "Lutherville",
      "addr_postcode": "21093",
      "addr_street": "York Road",
      "addr_housenumber": "1819",
      "value": 316.8939669993493
    },
    {
      "id": 41536,
      "geometry": "POINT (-76.62501 39.435677)",
      "poi_name": "Jersey Mike's Subs",
      "osm_id": 3019372029,
      "amenity": "fast_food",
      "cuisine": "sandwich",
      "website": "https://www.jerseymikes.com/",
      "takeaway": "yes",
      "addr_state": "MD",
      "addr_city": "Lutherville",
      "addr_postcode": "21093",
      "addr_street": "York Road",
      "addr_housenumber": "1942",
      "value": 316.8939669993493
    },
    {
      "id": 41539,
      "geometry": "POINT (-76.636476 39.454569)",
      "poi_name": "Pure Raw Juice",
      "osm_id": 3019373251,
      "amenity": "fast_food",
      "cuisine": "juice",
      "addr_state": "MD",
      "addr_city": "Lutherville",
      "addr_postcode": "21093",
      "addr_street": "Broad Avenue",
      "addr_housenumber": "2434",
      "value": 316.8939669993493
    },
    {
      "id": 41603,
      "geometry": "POINT (-76.829911 39.468508)",
      "poi_name": "Dunkin'",
      "osm_id": 3022240770,
      "amenity": "fast_food",
      "cuisine": "donut;coffee_shop",
      "takeaway": "yes",
      "addr_state": "MD",
      "addr_city": "Reisterstown",
      "addr_postcode": "21136",
      "addr_street": "Main Street",
      "addr_housenumber": "48",
      "value": 316.8939669993493
    },
    {
      "id": 41801,
      "geometry": "POINT (-76.576538 39.385948)",
      "poi_name": "Domino's",
      "osm_id": 3025603514,
      "amenity": "fast_food",
      "cuisine": "pizza",
      "addr_state": "MD",
      "addr_city": "Loch Raven",
      "addr_postcode": "21286",
      "addr_street": "Loch Raven Boulevard",
      "addr_housenumber": "8010",
      "value": 316.8939669993493
    },
    {
      "id": 41804,
      "geometry": "POINT (-76.602543 39.404569)",
      "poi_name": "Chopt",
      "osm_id": 3025603539,
      "amenity": "fast_food",
      "cuisine": "salad",
      "wheelchair": "yes",
      "takeaway": "yes",
      "addr_state": "MD",
      "addr_city": "Towson",
      "addr_postcode": "21204",
      "addr_street": "Dulaney Valley Road",
      "addr_housenumber": "828",
      "value": 316.8939669993493
    },
    {
      "id": 41808,
      "geometry": "POINT (-76.602529 39.404664)",
      "poi_name": "Smoothie King",
      "osm_id": 3025603882,
      "amenity": "fast_food",
      "cuisine": "juice",
      "wheelchair": "yes",
      "phone": "410-296-1240",
      "takeaway": "yes",
      "drive_through": "no",
      "addr_state": "MD",
      "addr_city": "Towson",
      "addr_postcode": "21204",
      "addr_street": "Dulaney Valley Road",
      "addr_housenumber": "828",
      "value": 316.8939669993493
    },
    {
      "id": 41810,
      "geometry": "POINT (-76.579428 39.385788)",
      "poi_name": "Subway",
      "osm_id": 3025605753,
      "amenity": "fast_food",
      "cuisine": "sandwich",
      "takeaway": "yes",
      "addr_state": "MD",
      "addr_city": "Loch Raven",
      "addr_postcode": "21286",
      "addr_street": "Taylor Avenue",
      "addr_housenumber": "825",
      "value": 316.8939669993493
    },
    {
      "id": 41815,
      "geometry": "POINT (-76.542736 39.399832)",
      "poi_name": "Subway",
      "osm_id": 3025612635,
      "amenity": "fast_food",
      "cuisine": "sandwich",
      "takeaway": "yes",
      "addr_state": "MD",
      "addr_city": "Parkville",
      "addr_postcode": "21234",
      "addr_street": "Waltham Woods Road",
      "addr_housenumber": "8834",
      "value": 316.8939669993493
    },
    {
      "id": 41819,
      "geometry": "POINT (-76.542503 39.401838)",
      "poi_name": "Five Guys",
      "osm_id": 3025612671,
      "amenity": "fast_food",
      "cuisine": "burger",
      "phone": "+1 443 384 3086",
      "takeaway": "yes",
      "official_name": "Five Guys Burgers and Fries",
      "addr_state": "MD",
      "addr_city": "Parkville",
      "addr_postcode": "21234",
      "addr_street": "Waltham Woods Road",
      "addr_housenumber": "8904",
      "value": 316.8939669993493
    },
    {
      "id": 41732,
      "geometry": "POINT (-76.642315 39.511433)",
      "poi_name": "Dunkin' Donuts",
      "osm_id": 3024382233,
      "amenity": "fast_food",
      "internet_access": "wlan",
      "drive_through": "no",
      "addr_state": "MD",
      "addr_city": "Sparks Glencoe",
      "addr_postcode": "21152",
      "addr_street": "Fila Way",
      "addr_housenumber": "10 K",
      "value": 316.8939669993493
    },
    {
      "id": 41892,
      "geometry": "POINT (-76.523808 39.361498)",
      "poi_name": "Papa John's",
      "osm_id": 3029994415,
      "amenity": "fast_food",
      "cuisine": "pizza",
      "website": "https://locations.papajohns.com/united-states/md/21236-4601/baltimore/7400e-belair-rd",
      "phone": "+1-410-882-7272",
      "takeaway": "yes",
      "addr_state": "MD",
      "addr_city": "Nottingham",
      "addr_postcode": "21236",
      "addr_street": "Belair Road",
      "addr_housenumber": "7400 E",
      "value": 316.8939669993493
    },
    {
      "id": 41898,
      "geometry": "POINT (-76.51769 39.367342)",
      "poi_name": "Subway",
      "osm_id": 3029994815,
      "amenity": "fast_food",
      "cuisine": "sandwich",
      "opening_hours": "Mo-Fr 09:00-21:30;Sa 09:00-21:30;Su 10:00-21:00",
      "takeaway": "yes",
      "addr_state": "MD",
      "addr_city": "Nottingham",
      "addr_postcode": "21236",
      "addr_street": "Belair Road",
      "addr_housenumber": "7698 A",
      "value": 316.8939669993493
    },
    {
      "id": 41899,
      "geometry": "POINT (-76.54269 39.373251)",
      "poi_name": "Chipotle",
      "osm_id": 3029994847,
      "amenity": "fast_food",
      "cuisine": "mexican",
      "opening_hours": "Mo-Su 10:45-22:00",
      "addr_state": "MD",
      "addr_city": "Parkville",
      "addr_postcode": "21234",
      "addr_street": "Harford Road",
      "addr_housenumber": "7713",
      "value": 316.8939669993493
    },
    {
      "id": 41781,
      "geometry": "POINT (-76.565917 39.372472)",
      "poi_name": "Subway",
      "osm_id": 3025589997,
      "amenity": "fast_food",
      "cuisine": "sandwich",
      "takeaway": "yes",
      "addr_state": "MD",
      "addr_city": "Parkville",
      "addr_postcode": "21234",
      "addr_street": "Cleanleigh Drive",
      "addr_housenumber": "2309",
      "value": 316.8939669993493
    },
    {
      "id": 41783,
      "geometry": "POINT (-76.565047 39.372488)",
      "poi_name": "Pizza Boli's",
      "osm_id": 3025590052,
      "amenity": "fast_food",
      "cuisine": "pizza",
      "phone": "+1 410 882 8850",
      "takeaway": "only",
      "addr_state": "MD",
      "addr_city": "Parkville",
      "addr_postcode": "21234",
      "addr_street": "Cleanleigh Drive",
      "addr_housenumber": "2327",
      "value": 316.8939669993493
    },
    {
      "id": 44718,
      "geometry": "POINT (-76.99119 39.582878)",
      "poi_name": "Papa John's",
      "osm_id": 3172582829,
      "amenity": "fast_food",
      "cuisine": "pizza",
      "opening_hours": "10:00-24:00",
      "takeaway": "yes",
      "addr_state": "MD",
      "addr_city": "Westminster",
      "addr_postcode": "21157",
      "addr_street": "Englar Road",
      "addr_housenumber": "250",
      "value": 316.8939669993493
    },
    {
      "id": 43668,
      "geometry": "POINT (-76.654554 39.496751)",
      "poi_name": "Tropical Smoothie Cafe",
      "osm_id": 3126585929,
      "amenity": "fast_food",
      "cuisine": "juice",
      "takeaway": "yes",
      "value": 316.8939669993493
    },
    {
      "id": 54694,
      "geometry": "POINT (-76.986032 39.575871)",
      "poi_name": "Jersey Mike's Subs",
      "osm_id": 10147750315,
      "amenity": "fast_food",
      "cuisine": "sandwich",
      "wheelchair": "yes",
      "opening_hours": "Mo-Su 10:00-21:00",
      "takeaway": "yes",
      "outdoor_seating": "no",
      "addr_street": "Baltimore Boulevard",
      "addr_housenumber": "265",
      "value": 316.8939669993493
    },
    {
      "id": 45585,
      "geometry": "POINT (-76.992851 39.815911)",
      "poi_name": "McDonald's",
      "osm_id": 3218293265,
      "amenity": "fast_food",
      "cuisine": "burger",
      "website": "https://www.mcdonalds.com/us/en-us/location/pa/hanover/991-carlisle-st/1967.html",
      "takeaway": "yes",
      "value": 316.8939669993493
    },
    {
      "id": 52602,
      "geometry": "POINT (-76.615066 39.419973)",
      "poi_name": "Galleria Deli",
      "osm_id": 10038295011,
      "amenity": "fast_food",
      "website": "https://galleriadeli.com/",
      "phone": "+1-410-321-5860",
      "addr_street": "York Road",
      "addr_housenumber": "1419",
      "value": 316.8939669993493
    },
    {
      "id": 52612,
      "geometry": "POINT (-76.615632 39.419699)",
      "poi_name": "Subway",
      "osm_id": 10038342170,
      "amenity": "fast_food",
      "cuisine": "sandwich",
      "website": "https://www.subway.com/",
      "phone": "+1-410-825-5900",
      "takeaway": "yes",
      "addr_street": "York Road",
      "addr_housenumber": "1407",
      "value": 316.8939669993493
    },
    {
      "id": 66498,
      "geometry": "POINT (-77.17061 39.65591)",
      "poi_name": "Subway",
      "osm_id": 11196742509,
      "amenity": "fast_food",
      "cuisine": "sandwich",
      "takeaway": "yes",
      "value": 316.8939669993493
    },
    {
      "id": 67855,
      "geometry": "POINT (-76.622754 39.390568)",
      "poi_name": "Subway",
      "osm_id": 11251295820,
      "amenity": "fast_food",
      "cuisine": "sandwich",
      "opening_hours": "Mo 06:30-21:00,06:30-21:00, We-Fr 06:30-21:00, Sa 08:00-20:00, Su closed",
      "takeaway": "yes",
      "value": 316.8939669993493
    },
    {
      "id": 67744,
      "geometry": "POINT (-76.630282 39.456927)",
      "poi_name": "Fuentes Cafe",
      "osm_id": 11246878929,
      "amenity": "fast_food",
      "fast_food": "cafeteria",
      "value": 316.8939669993493
    },
    {
      "id": 67856,
      "geometry": "POINT (-76.624751 39.390177)",
      "poi_name": "Einstein Bros. Bagels",
      "osm_id": 11251298675,
      "amenity": "fast_food",
      "cuisine": "bagel",
      "takeaway": "yes",
      "value": 316.8939669993493
    },
    {
      "id": 83337,
      "geometry": "POINT (-76.627182 39.4399)",
      "poi_name": "Baja Fresh",
      "osm_id": 1740246540,
      "amenity": "fast_food",
      "cuisine": "mexican",
      "website": "https://www.bajafresh.com/stores/mexican-food-timonium/30401",
      "phone": "+1-410-561-1050",
      "takeaway": "yes",
      "official_name": "Baja Fresh Mexican Grill",
      "addr_state": "MD",
      "addr_city": "Lutherville",
      "addr_postcode": "21093",
      "addr_street": "York Road",
      "addr_housenumber": "2080",
      "value": 316.8939669993493
    },
    {
      "id": 71072,
      "geometry": "POINT (-76.866937 39.638692)",
      "poi_name": "Taco Bell",
      "osm_id": 11380537121,
      "amenity": "fast_food",
      "cuisine": "tex-mex",
      "website": "https://locations.tacobell.com/md/hampstead/2309-hanover-pike.html",
      "takeaway": "yes",
      "value": 316.8939669993493
    },
    {
      "id": 71073,
      "geometry": "POINT (-76.867053 39.63865)",
      "poi_name": "KFC",
      "osm_id": 11380537122,
      "amenity": "fast_food",
      "cuisine": "chicken",
      "takeaway": "yes",
      "value": 316.8939669993493
    },
    {
      "id": 71076,
      "geometry": "POINT (-76.993729 39.817031)",
      "poi_name": "Dunkin'",
      "osm_id": 11380629354,
      "amenity": "fast_food",
      "cuisine": "donut;coffee_shop",
      "takeaway": "yes",
      "value": 316.8939669993493
    },
    {
      "id": 71077,
      "geometry": "POINT (-76.995037 39.81771)",
      "poi_name": "Subway",
      "osm_id": 11380682469,
      "amenity": "fast_food",
      "cuisine": "sandwich",
      "takeaway": "yes",
      "value": 316.8939669993493
    },
    {
      "id": 71078,
      "geometry": "POINT (-76.994804 39.818945)",
      "poi_name": "Papa John's",
      "osm_id": 11380687709,
      "amenity": "fast_food",
      "cuisine": "pizza",
      "takeaway": "yes",
      "value": 316.8939669993493
    },
    {
      "id": 71082,
      "geometry": "POINT (-76.9994 39.822327)",
      "poi_name": "WingStreet",
      "osm_id": 11380729193,
      "amenity": "fast_food",
      "cuisine": "wings",
      "takeaway": "yes",
      "value": 316.8939669993493
    },
    {
      "id": 71083,
      "geometry": "POINT (-76.962702 39.779812)",
      "poi_name": "Dunkin'",
      "osm_id": 11380744622,
      "amenity": "fast_food",
      "cuisine": "donut;coffee_shop",
      "takeaway": "yes",
      "value": 316.8939669993493
    },
    {
      "id": 73879,
      "geometry": "POINT (-76.608932 39.409109)",
      "poi_name": "Five Guys",
      "osm_id": 9657426337,
      "amenity": "fast_food",
      "cuisine": "burger",
      "opening_hours": "Mo-Su 11:00-22:00",
      "website": "https://www.fiveguys.com/",
      "phone": "+1 410 321 4963",
      "takeaway": "yes",
      "drive_through": "no",
      "official_name": "Five Guys Burgers and Fries",
      "addr_state": "MD",
      "addr_city": "Towson",
      "addr_postcode": "21204",
      "addr_street": "York Road",
      "addr_housenumber": "936",
      "value": 316.8939669993493
    },
    {
      "id": 75666,
      "geometry": "POINT (-76.598801 39.404544)",
      "poi_name": "Auntie Anne's",
      "osm_id": 9740405794,
      "amenity": "fast_food",
      "cuisine": "pretzel",
      "takeaway": "yes",
      "outdoor_seating": "no",
      "value": 316.8939669993493
    },
    {
      "id": 75667,
      "geometry": "POINT (-76.59944 39.404151)",
      "poi_name": "Sarku Japan",
      "osm_id": 9740405796,
      "amenity": "fast_food",
      "cuisine": "japanese",
      "takeaway": "yes",
      "outdoor_seating": "no",
      "value": 316.8939669993493
    },
    {
      "id": 75668,
      "geometry": "POINT (-76.59949 39.40412)",
      "poi_name": "Chick-fil-A",
      "osm_id": 9740405797,
      "amenity": "fast_food",
      "cuisine": "chicken",
      "takeaway": "yes",
      "outdoor_seating": "no",
      "value": 316.8939669993493
    },
    {
      "id": 68547,
      "geometry": "POINT (-76.61797 39.393791)",
      "poi_name": "Panda Express",
      "osm_id": 11273307132,
      "amenity": "fast_food",
      "cuisine": "chinese",
      "takeaway": "yes",
      "drive_through": "no",
      "value": 316.8939669993493
    },
    {
      "id": 68802,
      "geometry": "POINT (-76.617957 39.393841)",
      "poi_name": "Einstein Bros. Bagels",
      "osm_id": 11285099682,
      "amenity": "fast_food",
      "cuisine": "bagel",
      "takeaway": "yes",
      "value": 316.8939669993493
    },
    {
      "id": 76270,
      "geometry": "POINT (-76.603309 39.400429)",
      "poi_name": "Pure Raw Juice",
      "osm_id": 9767617272,
      "amenity": "fast_food",
      "cuisine": "juice",
      "value": 316.8939669993493
    },
    {
      "id": 82804,
      "geometry": "POINT (-76.603594 39.397646)",
      "poi_name": "Dunkin'",
      "osm_id": 1712938747,
      "amenity": "fast_food",
      "cuisine": "donut;coffee_shop",
      "takeaway": "yes",
      "outdoor_seating": "no",
      "value": 316.8939669993493
    },
    {
      "id": 82805,
      "geometry": "POINT (-76.603644 39.397555)",
      "poi_name": "Papa John's",
      "osm_id": 1712938771,
      "amenity": "fast_food",
      "cuisine": "pizza",
      "takeaway": "yes",
      "value": 316.8939669993493
    },
    {
      "id": 83608,
      "geometry": "POINT (-76.581148 39.393688)",
      "poi_name": "Panera Bread",
      "osm_id": 1754708283,
      "amenity": "fast_food",
      "cuisine": "sandwich;bakery",
      "takeaway": "yes",
      "value": 316.8939669993493
    },
    {
      "id": 90336,
      "geometry": "POINT (-76.577639 39.395858)",
      "poi_name": "Gino's",
      "osm_id": 1990532125,
      "amenity": "fast_food",
      "value": 316.8939669993493
    },
    {
      "id": 84468,
      "geometry": "POINT (-76.579721 39.39643)",
      "poi_name": "Subway",
      "osm_id": 1795196012,
      "amenity": "fast_food",
      "cuisine": "sandwich",
      "takeaway": "yes",
      "value": 316.8939669993493
    },
    {
      "id": 95413,
      "geometry": "POINT (-77.092634 39.748722)",
      "poi_name": "Domino's",
      "osm_id": 6395035076,
      "amenity": "fast_food",
      "cuisine": "pizza",
      "value": 316.8939669993493
    },
    {
      "id": 94292,
      "geometry": "POINT (-76.654596 39.497254)",
      "poi_name": "Panera Bread",
      "osm_id": 2225239593,
      "amenity": "fast_food",
      "cuisine": "sandwich;bakery",
      "takeaway": "yes",
      "value": 316.8939669993493
    },
    {
      "id": 94293,
      "geometry": "POINT (-76.654534 39.496624)",
      "poi_name": "Chipotle",
      "osm_id": 2225239594,
      "amenity": "fast_food",
      "cuisine": "mexican",
      "takeaway": "yes",
      "official_name": "Chipotle Mexican Grill",
      "value": 316.8939669993493
    },
    {
      "id": 93044,
      "geometry": "POINT (-76.634592 39.463412)",
      "poi_name": "Domino's",
      "osm_id": 2146431879,
      "amenity": "fast_food",
      "cuisine": "pizza",
      "takeaway": "yes",
      "value": 316.8939669993493
    },
    {
      "id": 117142,
      "geometry": "POINT (-76.607102 39.405592)",
      "poi_name": "MOD Pizza",
      "osm_id": 8978438542,
      "amenity": "fast_food",
      "cuisine": "pizza",
      "opening_hours": "Su-Th 10:30-22:00; Fr,Sa 10:30-23:00",
      "takeaway": "yes",
      "value": 316.8939669993493
    },
    {
      "id": 108242,
      "geometry": "POINT (-76.627207 39.440013)",
      "poi_name": "Firehouse Subs",
      "osm_id": 3605538493,
      "amenity": "fast_food",
      "cuisine": "sandwich",
      "takeaway": "yes",
      "outdoor_seating": "yes",
      "addr_state": "MD",
      "addr_city": "Lutherville",
      "addr_postcode": "21093",
      "addr_street": "York Road",
      "addr_housenumber": "2080",
      "value": 316.8939669993493
    },
    {
      "id": 117143,
      "geometry": "POINT (-76.606675 39.405671)",
      "poi_name": "The Habit Burger Grill",
      "osm_id": 8978438543,
      "amenity": "fast_food",
      "cuisine": "burger",
      "wheelchair": "yes",
      "opening_hours": "Mo-Sa 10:30-22:00; Su 10:30-21:00",
      "internet_access": "no",
      "takeaway": "yes",
      "addr_street": "York Road",
      "addr_housenumber": "730",
      "value": 316.8939669993493
    },
    {
      "id": 117144,
      "geometry": "POINT (-76.60655 39.405722)",
      "poi_name": "Tropical Smoothie Cafe",
      "osm_id": 8978438546,
      "amenity": "fast_food",
      "cuisine": "juice",
      "opening_hours": "Mo-Fr 07:00-21:00; Sa 08:00-21:00; Su 10:00-21:00",
      "takeaway": "yes",
      "value": 316.8939669993493
    },
    {
      "id": 122212,
      "geometry": "POINT (-76.625641 39.438048)",
      "poi_name": "Poke Bowl",
      "osm_id": 6793148517,
      "amenity": "fast_food",
      "cuisine": "poke",
      "opening_hours": "Mo-Sa 11:00-21:00; Su off",
      "website": "https://www.slpokebowlmd.com/",
      "phone": "+1-410-560-1111",
      "addr_street": "York Road",
      "addr_housenumber": "2046",
      "value": 316.8939669993493
    },
    {
      "id": 118402,
      "geometry": "POINT (-76.85008 39.606294)",
      "poi_name": "Subway",
      "osm_id": 9044344750,
      "amenity": "fast_food",
      "cuisine": "sandwich",
      "takeaway": "yes",
      "drive_through": "no",
      "value": 316.8939669993493
    },
    {
      "id": 126603,
      "geometry": "POINT (-76.604491 39.39861)",
      "poi_name": "BurgerFi",
      "osm_id": 7985946829,
      "amenity": "fast_food",
      "cuisine": "burger",
      "wheelchair": "yes",
      "phone": "+1 443 895 4595",
      "takeaway": "yes",
      "value": 316.8939669993493
    },
    {
      "id": 173088,
      "geometry": "POINT (-76.570323 39.383364)",
      "poi_name": "Subway",
      "osm_id": 2424915260,
      "amenity": "fast_food",
      "cuisine": "sandwich",
      "takeaway": "yes",
      "value": 316.8939669993493
    },
    {
      "id": 144547,
      "geometry": "POINT (-76.52011 39.363823)",
      "poi_name": "Dunkin'",
      "osm_id": 7273466869,
      "amenity": "fast_food",
      "cuisine": "donut;coffee_shop",
      "takeaway": "yes",
      "value": 316.8939669993493
    },
    {
      "id": 161898,
      "geometry": "POINT (-76.603077 39.400406)",
      "poi_name": "Chipotle",
      "osm_id": 4906247704,
      "amenity": "fast_food",
      "cuisine": "mexican",
      "takeaway": "yes",
      "official_name": "Chipotle Mexican Grill",
      "addr_state": "MD",
      "addr_city": "Towson",
      "addr_postcode": "21204",
      "addr_street": "West Pennsylvania Avenue",
      "addr_housenumber": "1",
      "value": 316.8939669993493
    },
    {
      "id": 165226,
      "geometry": "POINT (-76.601924 39.401356)",
      "poi_name": "Sweetgreen",
      "osm_id": 9524802584,
      "amenity": "fast_food",
      "cuisine": "salad",
      "opening_hours": "Mo-Su 10:30-21:00",
      "website": "https://order.sweetgreen.com/",
      "phone": "+14102206900",
      "takeaway": "yes",
      "outdoor_seating": "no",
      "addr_state": "MD",
      "addr_city": "Towson",
      "addr_postcode": "21286",
      "addr_street": "East Joppa Road",
      "addr_housenumber": "1",
      "value": 316.8939669993493
    },
    {
      "id": 167287,
      "geometry": "POINT (-76.566995 39.372777)",
      "poi_name": "McDonald's",
      "osm_id": 352895954,
      "amenity": "fast_food",
      "cuisine": "burger",
      "website": "https://www.mcdonalds.com/us/en-us/location/md/baltimore/7309-mc-clean-blvd/10497.html",
      "takeaway": "yes",
      "value": 316.8939669993493
    },
    {
      "id": 172721,
      "geometry": "POINT (-76.602506 39.399491)",
      "poi_name": "Subway",
      "osm_id": 2411502761,
      "amenity": "fast_food",
      "cuisine": "sandwich",
      "wheelchair": "limited",
      "takeaway": "yes",
      "addr_state": "MD",
      "addr_city": "Towson",
      "addr_postcode": "21204",
      "addr_street": "York Road",
      "addr_housenumber": "400",
      "value": 316.8939669993493
    },
    {
      "id": 173102,
      "geometry": "POINT (-76.577305 39.385766)",
      "poi_name": "Hip Hop Fish & Chicken",
      "osm_id": 2425738741,
      "amenity": "fast_food",
      "addr_state": "MD",
      "addr_city": "Loch Raven",
      "addr_postcode": "21286",
      "addr_street": "Taylor Avenue",
      "addr_housenumber": "912A",
      "value": 316.8939669993493
    },
    {
      "id": 131862,
      "geometry": "POINT (-76.59946 39.404098)",
      "poi_name": "Charleys Philly Steaks",
      "osm_id": 9932742021,
      "amenity": "fast_food",
      "cuisine": "sandwich",
      "takeaway": "yes",
      "value": 316.8939669993493
    },
    {
      "id": 131863,
      "geometry": "POINT (-76.599436 39.404119)",
      "poi_name": "Popeyes",
      "osm_id": 9932742022,
      "amenity": "fast_food",
      "cuisine": "chicken",
      "takeaway": "yes",
      "official_name": "Popeyes Louisiana Kitchen",
      "value": 316.8939669993493
    },
    {
      "id": 138742,
      "geometry": "POINT (-76.989875 39.581281)",
      "poi_name": "Little Caesars",
      "osm_id": 6167171049,
      "amenity": "fast_food",
      "cuisine": "pizza",
      "website": "https://littlecaesars.com/en-us/store/10274/",
      "takeaway": "yes",
      "value": 316.8939669993493
    },
    {
      "id": 138745,
      "geometry": "POINT (-76.972037 39.562405)",
      "poi_name": "Taco Bell",
      "osm_id": 6167189460,
      "amenity": "fast_food",
      "cuisine": "tex-mex",
      "website": "https://locations.tacobell.com/md/westminster/625-baltimore-blvd.html",
      "takeaway": "yes",
      "value": 316.8939669993493
    },
    {
      "id": 138746,
      "geometry": "POINT (-76.971586 39.562059)",
      "poi_name": "Chipotle",
      "osm_id": 6167189461,
      "amenity": "fast_food",
      "cuisine": "mexican",
      "takeaway": "yes",
      "official_name": "Chipotle Mexican Grill",
      "value": 316.8939669993493
    },
    {
      "id": 138747,
      "geometry": "POINT (-76.972441 39.562621)",
      "poi_name": "Burger King",
      "osm_id": 6167189462,
      "amenity": "fast_food",
      "cuisine": "burger",
      "takeaway": "yes",
      "value": 316.8939669993493
    },
    {
      "id": 138748,
      "geometry": "POINT (-76.972774 39.562952)",
      "poi_name": "Firehouse Subs",
      "osm_id": 6167190566,
      "amenity": "fast_food",
      "cuisine": "sandwich",
      "takeaway": "yes",
      "value": 316.8939669993493
    },
    {
      "id": 142573,
      "geometry": "POINT (-76.998089 39.829194)",
      "poi_name": "Chipotle",
      "osm_id": 6317365612,
      "amenity": "fast_food",
      "cuisine": "mexican",
      "phone": "+1 717-630-9385",
      "takeaway": "yes",
      "official_name": "Chipotle Mexican Grill",
      "addr_state": "PA",
      "addr_city": "Hanover",
      "addr_postcode": "17331",
      "addr_street": "Wilson Avenue",
      "addr_housenumber": "32",
      "value": 316.8939669993493
    },
    {
      "id": 142574,
      "geometry": "POINT (-76.99432 39.829213)",
      "poi_name": "Five Guys",
      "osm_id": 6317365630,
      "amenity": "fast_food",
      "cuisine": "burger",
      "takeaway": "yes",
      "official_name": "Five Guys Burgers and Fries",
      "value": 316.8939669993493
    },
    {
      "id": 153665,
      "geometry": "POINT (-76.995736 39.819322)",
      "poi_name": "Taco Bell",
      "osm_id": 4207938862,
      "amenity": "fast_food",
      "cuisine": "tex-mex",
      "website": "https://locations.tacobell.com/pa/hanover/1090-carlisle-st.html",
      "takeaway": "yes",
      "value": 316.8939669993493
    },
    {
      "id": 153680,
      "geometry": "POINT (-76.975905 39.823458)",
      "poi_name": "Subway",
      "osm_id": 4208039982,
      "amenity": "fast_food",
      "cuisine": "sandwich",
      "takeaway": "yes",
      "value": 316.8939669993493
    },
    {
      "id": 162549,
      "geometry": "POINT (-76.983967 39.8009)",
      "poi_name": "Subway",
      "osm_id": 4934693300,
      "amenity": "fast_food",
      "cuisine": "sandwich",
      "takeaway": "yes",
      "value": 316.8939669993493
    },
    {
      "id": 173103,
      "geometry": "POINT (-76.575065 39.385319)",
      "poi_name": "Quiznos Sub",
      "osm_id": 2425746269,
      "amenity": "fast_food",
      "value": 316.8939669993493
    },
    {
      "id": 174521,
      "geometry": "POINT (-76.61735 39.421077)",
      "poi_name": "Dunkin'",
      "osm_id": 2486178988,
      "amenity": "fast_food",
      "cuisine": "donut;coffee_shop",
      "takeaway": "yes",
      "addr_state": "MD",
      "addr_city": "Lutherville",
      "addr_postcode": "21093",
      "addr_street": "York Road",
      "addr_housenumber": "1506",
      "value": 316.8939669993493
    },
    {
      "id": 198335,
      "geometry": "POINT (-76.510025 39.374385)",
      "poi_name": "Wings 2 Go",
      "osm_id": 10698535354,
      "amenity": "fast_food",
      "cuisine": "chicken",
      "website": "http://www.wings2gomd.com/",
      "addr_street": "Belair Road",
      "addr_housenumber": "7964",
      "value": 316.8939669993493
    },
    {
      "id": 175828,
      "geometry": "POINT (-76.577144 39.395732)",
      "poi_name": "Potbelly",
      "osm_id": 2543668722,
      "amenity": "fast_food",
      "cuisine": "sandwich",
      "takeaway": "yes",
      "official_name": "Potbelly Sandwich Works",
      "addr_city": "Towson",
      "addr_postcode": "21286",
      "addr_street": "LaSalle Road",
      "addr_housenumber": "8600",
      "value": 316.8939669993493
    },
    {
      "id": 178454,
      "geometry": "POINT (-76.626664 39.44426)",
      "poi_name": "Tropical Smoothie Cafe",
      "osm_id": 10727013937,
      "amenity": "fast_food",
      "cuisine": "juice",
      "takeaway": "yes",
      "value": 316.8939669993493
    },
    {
      "id": 188449,
      "geometry": "POINT (-76.987365 39.584287)",
      "poi_name": "Panera Bread",
      "osm_id": 1152793930,
      "amenity": "fast_food",
      "cuisine": "sandwich;bakery",
      "opening_hours": "Mo-Sa 06:00-21:00; Su 07:00-21:00",
      "website": "https://locations.panerabread.com/md/westminster/200-clifton-boulevard.html",
      "phone": "+1 410 857 0642",
      "takeaway": "yes",
      "addr_state": "MD",
      "addr_city": "Westminster",
      "addr_postcode": "21157-2941",
      "addr_street": "Clifton Boulevard",
      "addr_housenumber": "200",
      "value": 316.8939669993493
    },
    {
      "id": 188640,
      "geometry": "POINT (-77.096654 39.742298)",
      "poi_name": "Subway",
      "osm_id": 1169327538,
      "amenity": "fast_food",
      "cuisine": "sandwich",
      "takeaway": "yes",
      "value": 316.8939669993493
    },
    {
      "id": 194023,
      "geometry": "POINT (-76.622989 39.432431)",
      "poi_name": "Smoothie King",
      "osm_id": 1577038693,
      "amenity": "fast_food",
      "cuisine": "juice",
      "website": "https://www.smoothieking.com/",
      "phone": "+1-410-616-9571",
      "takeaway": "yes",
      "addr_street": "York Road",
      "addr_housenumber": "1830",
      "value": 316.8939669993493
    },
    {
      "id": 194026,
      "geometry": "POINT (-76.62313 39.432754)",
      "poi_name": "Chipotle",
      "osm_id": 1577047276,
      "amenity": "fast_food",
      "cuisine": "mexican",
      "takeaway": "yes",
      "official_name": "Chipotle Mexican Grill",
      "addr_state": "MD",
      "addr_city": "Lutherville",
      "addr_postcode": "21093",
      "addr_street": "York Road",
      "addr_housenumber": "1830",
      "value": 316.8939669993493
    },
    {
      "id": 197061,
      "geometry": "POINT (-76.603607 39.398432)",
      "poi_name": "Raising Cane's",
      "osm_id": 10610342625,
      "amenity": "fast_food",
      "cuisine": "chicken",
      "wheelchair": "yes",
      "opening_hours": "Su-Th 10:00-24:00, Fr,Sa 10:00-02:00",
      "takeaway": "yes",
      "official_name": "Raising Cane's Chicken Fingers",
      "value": 316.8939669993493
    },
    {
      "id": 200066,
      "geometry": "POINT (-76.866236 39.639394)",
      "poi_name": "Five Guys",
      "osm_id": 1012615810,
      "amenity": "fast_food",
      "cuisine": "burger",
      "drive_through": "no",
      "value": 316.8939669993493
    },
    {
      "id": 221214,
      "geometry": "POINT (-76.583367 39.393362)",
      "poi_name": "Panda Express",
      "osm_id": 10969604143,
      "amenity": "fast_food",
      "cuisine": "chinese",
      "wheelchair": "yes",
      "takeaway": "yes",
      "addr_street": "Putty Hill Avenue",
      "addr_housenumber": "1238",
      "value": 316.8939669993493
    },
    {
      "id": 201378,
      "geometry": "POINT (-76.99411 39.588638)",
      "poi_name": "Roy Rogers",
      "osm_id": 626862713,
      "amenity": "fast_food",
      "cuisine": "burger;sandwich;chicken",
      "takeaway": "yes",
      "value": 316.8939669993493
    },
    {
      "id": 211815,
      "geometry": "POINT (-76.602675 39.400054)",
      "poi_name": "Mr. Fries Man",
      "osm_id": 5173791406,
      "amenity": "fast_food",
      "cuisine": "fish_and_chips",
      "opening_hours": "Su-Th 11:00-22:00, Fr-Sa 11:00-01:00",
      "drive_through": "no",
      "addr_state": "MD",
      "addr_city": "Towson",
      "addr_postcode": "21204",
      "addr_street": "York Road",
      "addr_housenumber": "419",
      "value": 316.8939669993493
    },
    {
      "id": 218017,
      "geometry": "POINT (-76.97802 39.564666)",
      "poi_name": "Subway",
      "osm_id": 9253954560,
      "amenity": "fast_food",
      "cuisine": "sandwich",
      "takeaway": "yes",
      "value": 316.8939669993493
    },
    {
      "id": 227599,
      "geometry": "POINT (-76.646999 39.491665)",
      "poi_name": "Dunkin'",
      "osm_id": 4313250085,
      "amenity": "fast_food",
      "cuisine": "donut;coffee_shop",
      "takeaway": "yes",
      "addr_city": "Cockeysville",
      "addr_postcode": "21030",
      "addr_street": "York Road",
      "addr_housenumber": "11121",
      "value": 316.8939669993493
    },
    {
      "id": 224476,
      "geometry": "POINT (-76.611228 39.394059)",
      "poi_name": "Chick-fil-A",
      "osm_id": 11083960635,
      "amenity": "fast_food",
      "cuisine": "chicken",
      "takeaway": "yes",
      "addr_street": "University Avenue",
      "addr_housenumber": "281",
      "value": 316.8939669993493
    },
    {
      "id": 224477,
      "geometry": "POINT (-76.610967 39.393848)",
      "poi_name": "Dunkin'",
      "osm_id": 11083960636,
      "amenity": "fast_food",
      "cuisine": "donut;coffee_shop",
      "takeaway": "yes",
      "addr_street": "University Avenue",
      "addr_housenumber": "281",
      "value": 316.8939669993493
    },
    {
      "id": 223658,
      "geometry": "POINT (-76.665598 39.500002)",
      "poi_name": "Brogdon\u2019s Grill",
      "osm_id": 11060767620,
      "amenity": "fast_food",
      "value": 316.8939669993493
    },
    {
      "id": 237848,
      "geometry": "POINT (-76.64819 39.491914)",
      "poi_name": "The Pizza Connection",
      "osm_id": 5850704892,
      "amenity": "fast_food",
      "cuisine": "pizza",
      "website": "http://www.gopizzaconnection.com",
      "phone": "+1 410-527-1888",
      "addr_state": "MD",
      "addr_city": "Cockeysville",
      "addr_postcode": "21030",
      "addr_street": "York Rd",
      "addr_housenumber": "11215",
      "value": 316.8939669993493
    }
  ],
  "answer_type": "name",
  "question_entities": {
    "[2]": {
      "distance": 70000,
      "text": "70 kilometers"
    },
    "[3]": {
      "main_category": "tourism",
      "sub_category": "aquarium",
      "display_name": "Go Fish, Rosedale, MD",
      "geo_wkt": "POINT (-76.48474 39.339761)",
      "poi": {
        "id": 1512,
        "geometry": "POINT (-76.48474 39.339761)",
        "poi_name": "Go Fish",
        "osm_id": 3026471881,
        "tourism": "aquarium",
        "addr_state": "MD",
        "addr_city": "Rosedale",
        "addr_postcode": "21237",
        "addr_street": "Philadelphia Road",
        "addr_housenumber": "8767 G"
      }
    },
    "[4]": {
      "main_category": "leisure",
      "sub_category": "nature reserve",
      "display_name": "Charlotte's Quest Nature Center, Manchester, MD",
      "geo_wkt": "POINT (-76.882917 39.667863)",
      "poi": {
        "id": 266753,
        "geometry": "POINT (-76.882917 39.667863)",
        "poi_name": "Charlotte's Quest Nature Center",
        "osm_id": 9347780177,
        "leisure": "nature_reserve",
        "operator": "Manchester Parks Foundation",
        "addr_state": "MD",
        "addr_city": "Manchester",
        "addr_postcode": "21102",
        "addr_street": "Wilhelm Lane",
        "addr_housenumber": "3400"
      }
    },
    "[1]": {
      "main_category": "amenity",
      "sub_category": "fast_food"
    }
  },
  "id": 1630,
  "type": "range:towards+name"
}