{
  "question": "What restaurant can I find towards the east of Procter Farm Preserve, Wendell, NC, within a radius of 120 kilometers?",
  "sql": "\nWITH origin AS  (SELECT ST_GeomFromText('POINT (-78.390009 35.831172)',4326)::geography AS geometry)\nSELECT * FROM pois, origin\nWHERE ST_DWithin(pois.geometry, ST_GeomFromText('POINT (-78.390009 35.831172)',4326)::geography, 120000)\nAND amenity = 'restaurant'\nAND degrees(ST_Azimuth(origin.geometry, pois.geometry)) BETWEEN 67.5 AND 112.5;\n",
  "answers": [
    {
      "id": 35720,
      "geometry": "POINT (-78.390009 35.831172)",
      "poi_name": "McAlister's Deli",
      "osm_id": 2729157465,
      "amenity": "restaurant",
      "cuisine": "sandwich",
      "opening_hours": "Mo- Su 10:30-22:00",
      "website": "https://www.mcalistersdeli.com/"
    },
    {
      "id": 28976,
      "geometry": "POINT (-78.390009 35.831172)",
      "poi_name": "Deadwood and Smoke House Grill",
      "osm_id": 8270608958,
      "amenity": "restaurant",
      "phone": "+12527928938",
      "addr_state": "NC",
      "addr_city": "Williamston",
      "addr_postcode": "27892",
      "addr_street": "Eds Grocery Road",
      "addr_housenumber": "2302"
    },
    {
      "id": 29124,
      "geometry": "POINT (-78.390009 35.831172)",
      "poi_name": "Poormans Restaurant",
      "osm_id": 8282431501,
      "amenity": "restaurant",
      "phone": "+12529747667",
      "addr_state": "NC",
      "addr_city": "Washington",
      "addr_postcode": "27889",
      "addr_street": "US-264",
      "addr_housenumber": "7160"
    },
    {
      "id": 29125,
      "geometry": "POINT (-78.390009 35.831172)",
      "poi_name": "Waffle House",
      "osm_id": 8282442951,
      "amenity": "restaurant",
      "cuisine": "american",
      "opening_hours": "24/7",
      "phone": "+12522460446",
      "addr_state": "NC",
      "addr_city": "Wilson",
      "addr_postcode": "27896",
      "addr_street": "Raleigh Road Parkway",
      "addr_housenumber": "4930"
    },
    {
      "id": 29133,
      "geometry": "POINT (-78.390009 35.831172)",
      "poi_name": "Dixie Queen Seafood Restaurant",
      "osm_id": 8282463751,
      "amenity": "restaurant",
      "cuisine": "seafood",
      "phone": "+12527536363",
      "addr_state": "NC",
      "addr_city": "Farmville",
      "addr_postcode": "27828",
      "addr_street": "West Marlboro Road",
      "addr_housenumber": "9157"
    },
    {
      "id": 29138,
      "geometry": "POINT (-78.390009 35.831172)",
      "poi_name": "Dee's Grill",
      "osm_id": 8282926235,
      "amenity": "restaurant",
      "addr_state": "NC",
      "addr_city": "Grimesland",
      "addr_postcode": "27837",
      "addr_street": "Pitt Street",
      "addr_housenumber": "7593"
    },
    {
      "id": 29139,
      "geometry": "POINT (-78.390009 35.831172)",
      "poi_name": "Tommy's Grocery & Grill",
      "osm_id": 8282926238,
      "amenity": "restaurant",
      "phone": "+12527520055",
      "addr_state": "NC",
      "addr_city": "Grimesland",
      "addr_postcode": "28737",
      "addr_street": "Pitt Street",
      "addr_housenumber": "7330"
    },
    {
      "id": 41025,
      "geometry": "POINT (-78.390009 35.831172)",
      "poi_name": "Rock Springs Center",
      "osm_id": 2991197339,
      "amenity": "restaurant",
      "website": "https://www.rockspringscenter.com/",
      "addr_state": "NC",
      "addr_postcode": "27834",
      "addr_street": "HWY 43 North",
      "addr_housenumber": "4025"
    },
    {
      "id": 36938,
      "geometry": "POINT (-78.390009 35.831172)",
      "poi_name": "Hibachi 101",
      "osm_id": 2791734453,
      "amenity": "restaurant",
      "cuisine": "japanese",
      "addr_state": "NC",
      "addr_city": "Wilson",
      "addr_postcode": "27896",
      "addr_street": "Raleigh Road",
      "addr_housenumber": "3401"
    },
    {
      "id": 36942,
      "geometry": "POINT (-78.390009 35.831172)",
      "poi_name": "Olive Garden",
      "osm_id": 2791748045,
      "amenity": "restaurant",
      "cuisine": "italian"
    },
    {
      "id": 38372,
      "geometry": "POINT (-78.390009 35.831172)",
      "poi_name": "B's Barbecue",
      "osm_id": 2860995659,
      "amenity": "restaurant"
    },
    {
      "id": 46579,
      "geometry": "POINT (-78.390009 35.831172)",
      "poi_name": "EC Pho Vietnamese Noodle House",
      "osm_id": 3275882901,
      "amenity": "restaurant",
      "cuisine": "vietnamese",
      "opening_hours": "Mo-Su 11:00-21:00"
    },
    {
      "id": 46401,
      "geometry": "POINT (-78.390009 35.831172)",
      "poi_name": "East Coast Wings And Grill",
      "osm_id": 3262347989,
      "amenity": "restaurant",
      "cuisine": "american"
    },
    {
      "id": 46402,
      "geometry": "POINT (-78.390009 35.831172)",
      "poi_name": "Sakura Asian Express",
      "osm_id": 3262347995,
      "amenity": "restaurant",
      "cuisine": "asian"
    },
    {
      "id": 46585,
      "geometry": "POINT (-78.390009 35.831172)",
      "poi_name": "Pizza Hut",
      "osm_id": 3276189811,
      "amenity": "restaurant",
      "cuisine": "pizza",
      "opening_hours": "Su-Sa 11:00-22:00"
    },
    {
      "id": 56964,
      "geometry": "POINT (-78.390009 35.831172)",
      "poi_name": "Carols Home Cooking",
      "osm_id": 10255676592,
      "amenity": "restaurant",
      "phone": "+12522273586",
      "addr_state": "NC",
      "addr_city": "Fountain",
      "addr_postcode": "27829",
      "addr_street": "West Blount Street",
      "addr_housenumber": "5846"
    },
    {
      "id": 46630,
      "geometry": "POINT (-78.390009 35.831172)",
      "poi_name": "Atavola",
      "osm_id": 3279418658,
      "amenity": "restaurant",
      "cuisine": "italian",
      "opening_hours": "Mo-Th 11:00-22:00; Fr-Sa 11:00-23:00; Su 11:00-21:00"
    },
    {
      "id": 56233,
      "geometry": "POINT (-78.390009 35.831172)",
      "poi_name": "The Beefmastor Inn",
      "osm_id": 10228992592,
      "amenity": "restaurant",
      "opening_hours": "Mo-Su 16:30-22:00",
      "phone": "+12522377343",
      "addr_state": "NC",
      "addr_city": "Wilson",
      "addr_postcode": "27893",
      "addr_street": "US-301",
      "addr_housenumber": "2656"
    },
    {
      "id": 56234,
      "geometry": "POINT (-78.390009 35.831172)",
      "poi_name": "China Poblana Mexican Restaurant",
      "osm_id": 10229035160,
      "amenity": "restaurant",
      "cuisine": "mexican",
      "opening_hours": "Mo-Tu 10:00-15:00; Th 10:00-15:00; Fr-Su 10:00-19:00",
      "phone": "+12522814329",
      "addr_state": "NC",
      "addr_city": "Wilson",
      "addr_postcode": "27893",
      "addr_street": "US-301",
      "addr_housenumber": "2625"
    },
    {
      "id": 56966,
      "geometry": "POINT (-78.390009 35.831172)",
      "poi_name": "China One",
      "osm_id": 10255676596,
      "amenity": "restaurant",
      "cuisine": "chinese",
      "phone": "+12527536888",
      "addr_state": "NC",
      "addr_city": "Farmville",
      "addr_postcode": "27828",
      "addr_street": "Cooperative Way",
      "addr_housenumber": "3434"
    },
    {
      "id": 56967,
      "geometry": "POINT (-78.390009 35.831172)",
      "poi_name": "R&B's Kountry Kitchen",
      "osm_id": 10255676602,
      "amenity": "restaurant",
      "phone": "+12527532186",
      "addr_state": "NC",
      "addr_city": "Farmville",
      "addr_postcode": "27828",
      "addr_street": "West Pine Street",
      "addr_housenumber": "4383"
    },
    {
      "id": 56969,
      "geometry": "POINT (-78.390009 35.831172)",
      "poi_name": "El Torito Mexican Store & Restaurant",
      "osm_id": 10255701109,
      "amenity": "restaurant",
      "phone": "+12527532755",
      "addr_state": "NC",
      "addr_city": "Farmville",
      "addr_postcode": "27828",
      "addr_street": "West Wilson Street",
      "addr_housenumber": "3759"
    },
    {
      "id": 56970,
      "geometry": "POINT (-78.390009 35.831172)",
      "poi_name": "Plank Road Steak House",
      "osm_id": 10255701124,
      "amenity": "restaurant",
      "phone": "+12527533535",
      "addr_state": "NC",
      "addr_city": "Farmville",
      "addr_postcode": "27828",
      "addr_street": "East Wilson Street",
      "addr_housenumber": "3689"
    },
    {
      "id": 56972,
      "geometry": "POINT (-78.390009 35.831172)",
      "poi_name": "Pizza Hut",
      "osm_id": 10255729639,
      "amenity": "restaurant",
      "cuisine": "pizza",
      "phone": "+12523217555",
      "addr_state": "NC",
      "addr_city": "Winterville",
      "addr_postcode": "28590",
      "addr_street": "West Firetower Road",
      "addr_housenumber": "701"
    },
    {
      "id": 60623,
      "geometry": "POINT (-78.390009 35.831172)",
      "poi_name": "Mayflower Seafood Restaurant",
      "osm_id": 5473797626,
      "amenity": "restaurant",
      "cuisine": "seafood"
    },
    {
      "id": 58435,
      "geometry": "POINT (-78.390009 35.831172)",
      "poi_name": "Pizza Hut",
      "osm_id": 5376290237,
      "amenity": "restaurant",
      "cuisine": "pizza"
    },
    {
      "id": 58436,
      "geometry": "POINT (-78.390009 35.831172)",
      "poi_name": "Lou Reda's",
      "osm_id": 5376290238,
      "amenity": "restaurant"
    },
    {
      "id": 74492,
      "geometry": "POINT (-78.390009 35.831172)",
      "poi_name": "Las Delicias Panaderia Y Tortilleria",
      "osm_id": 9682336617,
      "amenity": "restaurant",
      "phone": "(919) 985-2963",
      "addr_postcode": "27597",
      "addr_street": "West Gannon Avenue",
      "addr_housenumber": "416"
    },
    {
      "id": 74110,
      "geometry": "POINT (-78.390009 35.831172)",
      "poi_name": "Lucky Ducky",
      "osm_id": 9667746371,
      "amenity": "restaurant",
      "addr_state": "NC",
      "addr_city": "Princeville",
      "addr_postcode": "27886",
      "addr_street": "Black Street",
      "addr_housenumber": "131"
    },
    {
      "id": 74111,
      "geometry": "POINT (-78.390009 35.831172)",
      "poi_name": "GG\u2019z",
      "osm_id": 9667746374,
      "amenity": "restaurant",
      "phone": "(252) 563-5017",
      "addr_state": "NC",
      "addr_city": "Princeville",
      "addr_postcode": "27886",
      "addr_street": "South Main Street",
      "addr_housenumber": "306"
    },
    {
      "id": 74112,
      "geometry": "POINT (-78.390009 35.831172)",
      "poi_name": "YumYum Shop",
      "osm_id": 9667746375,
      "amenity": "restaurant",
      "phone": "(252) 567-9750",
      "addr_state": "NC",
      "addr_city": "Princeville",
      "addr_postcode": "27886",
      "addr_street": "Commercial Road",
      "addr_housenumber": "116"
    },
    {
      "id": 74113,
      "geometry": "POINT (-78.390009 35.831172)",
      "poi_name": "Abrams Bar-B-Q & Seafood",
      "osm_id": 9667762966,
      "amenity": "restaurant",
      "phone": "(252) 826-0411",
      "addr_state": "NC",
      "addr_city": "Scotland Neck",
      "addr_postcode": "27874",
      "addr_street": "Main Street",
      "addr_housenumber": "615"
    },
    {
      "id": 74115,
      "geometry": "POINT (-78.390009 35.831172)",
      "poi_name": "Freeze Restaurant",
      "osm_id": 9667775603,
      "amenity": "restaurant",
      "phone": "(252) 826-0778",
      "addr_state": "NC",
      "addr_city": "Scotland Neck",
      "addr_postcode": "27874",
      "addr_street": "Main Street",
      "addr_housenumber": "311"
    },
    {
      "id": 74117,
      "geometry": "POINT (-78.390009 35.831172)",
      "poi_name": "No. 1 Chinese Kitchen",
      "osm_id": 9667849359,
      "amenity": "restaurant",
      "phone": "(252) 826-0888",
      "addr_state": "NC",
      "addr_city": "Scotland Neck",
      "addr_postcode": "27874",
      "addr_street": "Main Street",
      "addr_housenumber": "1119"
    },
    {
      "id": 74118,
      "geometry": "POINT (-78.390009 35.831172)",
      "poi_name": "La Casetta Italian Restaurant Scotland Neck",
      "osm_id": 9667849369,
      "amenity": "restaurant",
      "phone": "(252) 826-5000",
      "addr_state": "NC",
      "addr_city": "Scotland Neck",
      "addr_postcode": "27874",
      "addr_street": "Main Street",
      "addr_housenumber": "900"
    },
    {
      "id": 74120,
      "geometry": "POINT (-78.390009 35.831172)",
      "poi_name": "A&M Bar-Be-Que & Chicken",
      "osm_id": 9667977842,
      "amenity": "restaurant",
      "phone": "(252) 826-4027",
      "addr_state": "NC",
      "addr_city": "Scotland Neck",
      "addr_postcode": "27874",
      "addr_street": "West 11th Street",
      "addr_housenumber": "107"
    },
    {
      "id": 74133,
      "geometry": "POINT (-78.390009 35.831172)",
      "poi_name": "Mi Cabanita Restaurant #4",
      "osm_id": 9668376712,
      "amenity": "restaurant",
      "phone": "+12527539006",
      "addr_state": "NC",
      "addr_city": "Farmville",
      "addr_postcode": "27828",
      "addr_street": "South Main Street",
      "addr_housenumber": "3742"
    },
    {
      "id": 74134,
      "geometry": "POINT (-78.390009 35.831172)",
      "poi_name": "Farmville Pizza",
      "osm_id": 9668376713,
      "amenity": "restaurant",
      "cuisine": "pizza",
      "phone": "+12527530304",
      "addr_state": "NC",
      "addr_city": "Farmville",
      "addr_postcode": "27828",
      "addr_street": "South Main Street",
      "addr_housenumber": "3750"
    },
    {
      "id": 74135,
      "geometry": "POINT (-78.390009 35.831172)",
      "poi_name": "Bonnie's Cafe",
      "osm_id": 9668405917,
      "amenity": "restaurant",
      "phone": "+12522280041",
      "addr_state": "NC",
      "addr_city": "Farmville",
      "addr_postcode": "27828",
      "addr_street": "North Main Street",
      "addr_housenumber": "3720"
    },
    {
      "id": 74136,
      "geometry": "POINT (-78.390009 35.831172)",
      "poi_name": "New Contentnea Creek B.B.Q.",
      "osm_id": 9668406382,
      "amenity": "restaurant",
      "phone": "+12527534484",
      "addr_state": "NC",
      "addr_city": "Farmville",
      "addr_postcode": "27828",
      "addr_street": "North Main Street",
      "addr_housenumber": "3417"
    },
    {
      "id": 60995,
      "geometry": "POINT (-78.390009 35.831172)",
      "poi_name": "Chico's",
      "osm_id": 5491905528,
      "amenity": "restaurant",
      "cuisine": "mexican"
    },
    {
      "id": 60996,
      "geometry": "POINT (-78.390009 35.831172)",
      "poi_name": "Italian Pizzeria",
      "osm_id": 5491912075,
      "amenity": "restaurant",
      "cuisine": "italian"
    },
    {
      "id": 74109,
      "geometry": "POINT (-78.390009 35.831172)",
      "poi_name": "Bestway Grocery & Grill",
      "osm_id": 9667746369,
      "amenity": "restaurant",
      "phone": "(252) 641-4779",
      "addr_state": "NC",
      "addr_city": "Tarboro",
      "addr_postcode": "27886",
      "addr_street": "US 258",
      "addr_housenumber": "10183"
    },
    {
      "id": 74493,
      "geometry": "POINT (-78.390009 35.831172)",
      "poi_name": "Good Taste",
      "osm_id": 9682406617,
      "amenity": "restaurant",
      "phone": "(919) 404-1218",
      "addr_postcode": "27597",
      "addr_street": "West Gannon Avenue",
      "addr_housenumber": "532"
    },
    {
      "id": 115953,
      "geometry": "POINT (-78.390009 35.831172)",
      "poi_name": "La Rancharita",
      "osm_id": 8920421722,
      "amenity": "restaurant",
      "cuisine": "mexican"
    },
    {
      "id": 74477,
      "geometry": "POINT (-78.390009 35.831172)",
      "poi_name": "Plaza del Mariachi",
      "osm_id": 9681506138,
      "amenity": "restaurant",
      "cuisine": "mexican",
      "phone": "(919) 269-4464",
      "addr_state": "NC",
      "addr_city": "Zebulon",
      "addr_postcode": "27597",
      "addr_street": "West Gannon Avenue",
      "addr_housenumber": "411"
    },
    {
      "id": 77248,
      "geometry": "POINT (-78.390009 35.831172)",
      "poi_name": "Ballards Cross Roads Grill",
      "osm_id": 9813155753,
      "amenity": "restaurant",
      "phone": "+12527560069",
      "addr_state": "NC",
      "addr_city": "Farmville",
      "addr_postcode": "27828",
      "addr_street": "US-13",
      "addr_housenumber": "6010"
    },
    {
      "id": 101163,
      "geometry": "POINT (-78.390009 35.831172)",
      "poi_name": "Golden Corral",
      "osm_id": 6612465416,
      "amenity": "restaurant",
      "cuisine": "american;buffet"
    },
    {
      "id": 101164,
      "geometry": "POINT (-78.390009 35.831172)",
      "poi_name": "Outback Steakhouse",
      "osm_id": 6612465417,
      "amenity": "restaurant",
      "cuisine": "american;steak"
    },
    {
      "id": 102537,
      "geometry": "POINT (-78.390009 35.831172)",
      "poi_name": "El Paso Mexican Restaurant",
      "osm_id": 6684234118,
      "amenity": "restaurant",
      "phone": "(252) 235-4211",
      "addr_state": "NC",
      "addr_city": "Bailey",
      "addr_postcode": "27807",
      "addr_street": "Deans Street",
      "addr_housenumber": "6193"
    },
    {
      "id": 102538,
      "geometry": "POINT (-78.390009 35.831172)",
      "poi_name": "Ming Garden",
      "osm_id": 6684243618,
      "amenity": "restaurant",
      "phone": "(252) 235-3888",
      "addr_state": "NC",
      "addr_city": "Bailey",
      "addr_postcode": "27807",
      "addr_street": "Main Street",
      "addr_housenumber": "6234"
    },
    {
      "id": 102539,
      "geometry": "POINT (-78.390009 35.831172)",
      "poi_name": "Tracy's Cafe",
      "osm_id": 6684261692,
      "amenity": "restaurant",
      "opening_hours": "Mo-Sa 04:30-11:00",
      "addr_state": "NC",
      "addr_city": "Bailey",
      "addr_postcode": "27807",
      "addr_street": "Deans Street",
      "addr_housenumber": "6577"
    },
    {
      "id": 106520,
      "geometry": "POINT (-78.390009 35.831172)",
      "poi_name": "Jin Jin Chinese Restaurant",
      "osm_id": 8685652867,
      "amenity": "restaurant",
      "opening_hours": "Mo-We 11:00-22:30; Th-Sa 11:00-23:30; Su 12:00-22:30"
    },
    {
      "id": 106522,
      "geometry": "POINT (-78.390009 35.831172)",
      "poi_name": "Las Delicias",
      "osm_id": 8685659543,
      "amenity": "restaurant",
      "opening_hours": "Mo-Sa 10:00-21:00; Su 10:00-20:00"
    },
    {
      "id": 97861,
      "geometry": "POINT (-78.390009 35.831172)",
      "poi_name": "Waffle House",
      "osm_id": 6498791910,
      "amenity": "restaurant",
      "cuisine": "american",
      "opening_hours": "24/7"
    },
    {
      "id": 102260,
      "geometry": "POINT (-78.390009 35.831172)",
      "poi_name": "Marty's BBQ",
      "osm_id": 6670256900,
      "amenity": "restaurant",
      "addr_city": "Wilson",
      "addr_street": "Ward Boulevard",
      "addr_housenumber": "2643"
    },
    {
      "id": 115967,
      "geometry": "POINT (-78.390009 35.831172)",
      "poi_name": "Michaelangelo's Pizza on Memorial",
      "osm_id": 8920784342,
      "amenity": "restaurant",
      "cuisine": "pizza"
    },
    {
      "id": 122865,
      "geometry": "POINT (-78.390009 35.831172)",
      "poi_name": "New Chopstick Buffet",
      "osm_id": 6823161097,
      "amenity": "restaurant",
      "cuisine": "chinese"
    },
    {
      "id": 119674,
      "geometry": "POINT (-78.390009 35.831172)",
      "poi_name": "Armando's Pizza",
      "osm_id": 9114722032,
      "amenity": "restaurant",
      "phone": "+19196460042",
      "addr_state": "NC",
      "addr_city": "Zebulon",
      "addr_postcode": "27597",
      "addr_street": "North Arendell Avenue",
      "addr_housenumber": "103"
    },
    {
      "id": 120344,
      "geometry": "POINT (-78.390009 35.831172)",
      "poi_name": "Barbecue House",
      "osm_id": 6699644351,
      "amenity": "restaurant",
      "opening_hours": "Fr-Sa 10:00-20:00; Su 10:00-15:00",
      "phone": "(252) 827-5115",
      "addr_state": "NC",
      "addr_city": "Macclesfield",
      "addr_postcode": "27852",
      "addr_street": "East Green Street",
      "addr_housenumber": "114"
    },
    {
      "id": 129577,
      "geometry": "POINT (-78.390009 35.831172)",
      "poi_name": "OH My Lard",
      "osm_id": 9831080847,
      "amenity": "restaurant",
      "phone": "+12522363302",
      "addr_state": "NC",
      "addr_city": "Elm City",
      "addr_postcode": "27822",
      "addr_street": "Parker Street",
      "addr_housenumber": "103"
    },
    {
      "id": 124900,
      "geometry": "POINT (-78.390009 35.831172)",
      "poi_name": "Parker's Barbecue Restaurant",
      "osm_id": 6939700568,
      "amenity": "restaurant",
      "phone": "12522370972",
      "addr_state": "NC",
      "addr_city": "Wilson",
      "addr_postcode": "27893",
      "addr_street": "US-301",
      "addr_housenumber": "2514"
    },
    {
      "id": 129578,
      "geometry": "POINT (-78.390009 35.831172)",
      "poi_name": "Aggie's Hot Subs",
      "osm_id": 9831080856,
      "amenity": "restaurant",
      "phone": "+12522364382",
      "addr_state": "NC",
      "addr_city": "Elm City",
      "addr_postcode": "27822",
      "addr_street": "Branch Street",
      "addr_housenumber": "604"
    },
    {
      "id": 129579,
      "geometry": "POINT (-78.390009 35.831172)",
      "poi_name": "Boogie's Turkey BBQ",
      "osm_id": 9831080857,
      "amenity": "restaurant",
      "phone": "+12522363141",
      "addr_state": "NC",
      "addr_city": "Elm City",
      "addr_postcode": "27822",
      "addr_street": "Elm City Road South",
      "addr_housenumber": "5008"
    },
    {
      "id": 177788,
      "geometry": "POINT (-78.390009 35.831172)",
      "poi_name": "Hibachi Japan",
      "osm_id": 2605465189,
      "amenity": "restaurant",
      "opening_hours": "Mo-Su 11:00-22:00",
      "addr_state": "NC",
      "addr_street": "East Fire Tower Road",
      "addr_housenumber": "106"
    },
    {
      "id": 134720,
      "geometry": "POINT (-78.390009 35.831172)",
      "poi_name": "Denny's",
      "osm_id": 11483632558,
      "amenity": "restaurant",
      "cuisine": "american"
    },
    {
      "id": 134721,
      "geometry": "POINT (-78.390009 35.831172)",
      "poi_name": "Buffalo Wild Wings",
      "osm_id": 11483632561,
      "amenity": "restaurant",
      "cuisine": "wings"
    },
    {
      "id": 134723,
      "geometry": "POINT (-78.390009 35.831172)",
      "poi_name": "Chili's",
      "osm_id": 11483632566,
      "amenity": "restaurant",
      "cuisine": "tex-mex",
      "official_name": "Chili's Grill & Bar"
    },
    {
      "id": 145018,
      "geometry": "POINT (-78.390009 35.831172)",
      "poi_name": "Dinner Bell",
      "osm_id": 7302395826,
      "amenity": "restaurant",
      "cuisine": "mexican",
      "phone": "(252) 795-3300",
      "addr_state": "NC",
      "addr_city": "Robersonville",
      "addr_postcode": "27871",
      "addr_street": "North Main Street",
      "addr_housenumber": "707"
    },
    {
      "id": 145020,
      "geometry": "POINT (-78.390009 35.831172)",
      "poi_name": "La Casetta Italian Restaurant",
      "osm_id": 7302417509,
      "amenity": "restaurant",
      "phone": "(252) 795-6699",
      "addr_state": "NC",
      "addr_city": "Robersonville",
      "addr_postcode": "27871",
      "addr_street": "East Academy Street",
      "addr_housenumber": "109"
    },
    {
      "id": 165519,
      "geometry": "POINT (-78.390009 35.831172)",
      "poi_name": "Mi Caba\u00f1a",
      "osm_id": 9542801363,
      "amenity": "restaurant",
      "cuisine": "mexican"
    },
    {
      "id": 144953,
      "geometry": "POINT (-78.390009 35.831172)",
      "poi_name": "King Chef",
      "osm_id": 7297145356,
      "amenity": "restaurant",
      "cuisine": "chinese",
      "phone": "(252) 827-1388",
      "addr_state": "NC",
      "addr_city": "Pinetops",
      "addr_postcode": "27864",
      "addr_street": "West Hamlet Street",
      "addr_housenumber": "112"
    },
    {
      "id": 144954,
      "geometry": "POINT (-78.390009 35.831172)",
      "poi_name": "Abrams Bar-B-Q & Seafood",
      "osm_id": 7297145369,
      "amenity": "restaurant",
      "phone": "(252) 827-5734",
      "addr_state": "NC",
      "addr_city": "Pinetops",
      "addr_postcode": "27864",
      "addr_street": "East Hamlet Street",
      "addr_housenumber": "201"
    },
    {
      "id": 145299,
      "geometry": "POINT (-78.390009 35.831172)",
      "poi_name": "Peaden's",
      "osm_id": 7334923000,
      "amenity": "restaurant",
      "phone": "(252) 752-5747",
      "addr_state": "NC",
      "addr_city": "Greenville",
      "addr_postcode": "27834",
      "addr_street": "North Memorial Drive",
      "addr_housenumber": "2399"
    },
    {
      "id": 186250,
      "geometry": "POINT (-78.390009 35.831172)",
      "poi_name": "Nino's Cucina Italiana",
      "osm_id": 7923607424,
      "amenity": "restaurant",
      "cuisine": "italian",
      "phone": "+1 (252) 689-6446",
      "addr_state": "NC",
      "addr_city": "Greenville",
      "addr_postcode": "27858",
      "addr_street": "Red Banks Road",
      "addr_housenumber": "511"
    },
    {
      "id": 194258,
      "geometry": "POINT (-78.390009 35.831172)",
      "poi_name": "Tokyo Japanese Restaurant",
      "osm_id": 10268099210,
      "amenity": "restaurant",
      "phone": "(252) 215-9038",
      "addr_postcode": "27834",
      "addr_street": "South Memorial Drive",
      "addr_housenumber": "3525"
    },
    {
      "id": 194151,
      "geometry": "POINT (-78.390009 35.831172)",
      "poi_name": "Da-Nite Lunch",
      "osm_id": 10261436580,
      "amenity": "restaurant",
      "phone": "(252) 825-4476",
      "addr_street": "Main Street",
      "addr_housenumber": "214"
    },
    {
      "id": 194153,
      "geometry": "POINT (-78.390009 35.831172)",
      "poi_name": "La Casetta Italian Restaurant",
      "osm_id": 10261454690,
      "amenity": "restaurant",
      "phone": "(252) 825-6699",
      "addr_street": "Main Street",
      "addr_housenumber": "7434"
    },
    {
      "id": 194158,
      "geometry": "POINT (-78.390009 35.831172)",
      "poi_name": "MB Grill",
      "osm_id": 10261532339,
      "amenity": "restaurant",
      "phone": "(252) 825-0102",
      "addr_street": "Main Street",
      "addr_housenumber": "7270"
    },
    {
      "id": 194170,
      "geometry": "POINT (-78.390009 35.831172)",
      "poi_name": "Smitty's",
      "osm_id": 10262073674,
      "amenity": "restaurant",
      "phone": "(252) 215-2203",
      "addr_street": "NC-11",
      "addr_housenumber": "4763"
    },
    {
      "id": 194174,
      "geometry": "POINT (-78.390009 35.831172)",
      "poi_name": "Ruth's Kitchen",
      "osm_id": 10262448100,
      "amenity": "restaurant",
      "phone": "+12527950082",
      "addr_state": "NC",
      "addr_city": "Robersonville",
      "addr_postcode": "27871",
      "addr_street": "US-64 Alternate",
      "addr_housenumber": "5464"
    },
    {
      "id": 194175,
      "geometry": "POINT (-78.390009 35.831172)",
      "poi_name": "Favor Cafe & Grill",
      "osm_id": 10262448108,
      "amenity": "restaurant",
      "addr_state": "NC",
      "addr_city": "Robersonville",
      "addr_postcode": "27871",
      "addr_street": "West 3rd Street",
      "addr_housenumber": "305"
    },
    {
      "id": 194176,
      "geometry": "POINT (-78.390009 35.831172)",
      "poi_name": "Filling Station Restaurant",
      "osm_id": 10262497310,
      "amenity": "restaurant",
      "phone": "+12527953496",
      "addr_state": "NC",
      "addr_city": "Robersonville",
      "addr_postcode": "27871",
      "addr_street": "US-64 Alternate",
      "addr_housenumber": "7309"
    },
    {
      "id": 194177,
      "geometry": "POINT (-78.390009 35.831172)",
      "poi_name": "La Esperanza Restaurant",
      "osm_id": 10262497311,
      "amenity": "restaurant",
      "cuisine": "mexican",
      "phone": "+12527924287",
      "addr_state": "NC",
      "addr_city": "Williamston",
      "addr_postcode": "27892",
      "addr_street": "West Main Street",
      "addr_housenumber": "4002"
    },
    {
      "id": 194178,
      "geometry": "POINT (-78.390009 35.831172)",
      "poi_name": "Zuuaa Mart",
      "osm_id": 10262497312,
      "amenity": "restaurant",
      "phone": "+12527890796",
      "addr_state": "NC",
      "addr_city": "Williamston",
      "addr_postcode": "27892",
      "addr_street": "West Main Street",
      "addr_housenumber": "3001"
    },
    {
      "id": 194259,
      "geometry": "POINT (-78.390009 35.831172)",
      "poi_name": "Q Sushi",
      "osm_id": 10268131109,
      "amenity": "restaurant",
      "cuisine": "sushi",
      "phone": "(252) 364-2064",
      "addr_postcode": "27834",
      "addr_street": "South Memorial Drive",
      "addr_housenumber": "3750"
    },
    {
      "id": 194411,
      "geometry": "POINT (-78.390009 35.831172)",
      "poi_name": "PCI Auctions Greenville",
      "osm_id": 10272043994,
      "amenity": "restaurant",
      "phone": "+12527542642",
      "addr_state": "NC",
      "addr_city": "Greenville",
      "addr_postcode": "27834",
      "addr_street": "Pactolus Highway",
      "addr_housenumber": "230"
    },
    {
      "id": 194452,
      "geometry": "POINT (-78.390009 35.831172)",
      "poi_name": "Aggie\u2019s Cafe",
      "osm_id": 10273767425,
      "amenity": "restaurant",
      "phone": "12527530043",
      "addr_state": "NC",
      "addr_city": "Farmville",
      "addr_postcode": "27828",
      "addr_street": "East Malboro Road",
      "addr_housenumber": "8482"
    },
    {
      "id": 194456,
      "geometry": "POINT (-78.390009 35.831172)",
      "poi_name": "Sylvia's Family Restaurant",
      "osm_id": 10274345806,
      "amenity": "restaurant",
      "phone": "+12522370012",
      "addr_state": "NC",
      "addr_city": "Wilson",
      "addr_postcode": "27893",
      "addr_street": "M.L.K. Jr Parkway",
      "addr_housenumber": "1700"
    },
    {
      "id": 194412,
      "geometry": "POINT (-78.390009 35.831172)",
      "poi_name": "MICHAEL RAY'S KITCHEN",
      "osm_id": 10272043997,
      "amenity": "restaurant",
      "phone": "+12523641468",
      "addr_state": "NC",
      "addr_city": "Greenville",
      "addr_postcode": "27834",
      "addr_street": "North Greene Street",
      "addr_housenumber": "1200"
    },
    {
      "id": 194684,
      "geometry": "POINT (-78.390009 35.831172)",
      "poi_name": "Mucho Mexico Sizzlin",
      "osm_id": 10280588313,
      "amenity": "restaurant",
      "cuisine": "mexican",
      "phone": "+12524599793",
      "addr_state": "NC",
      "addr_city": "Nashville",
      "addr_postcode": "27856",
      "addr_street": "Eastern Avenue",
      "addr_housenumber": "912"
    },
    {
      "id": 195019,
      "geometry": "POINT (-78.390009 35.831172)",
      "poi_name": "Corner Take Out",
      "osm_id": 10292174830,
      "amenity": "restaurant",
      "addr_state": "NC",
      "addr_city": "Roxobel",
      "addr_postcode": "27872",
      "addr_street": "West Church Street",
      "addr_housenumber": "104"
    },
    {
      "id": 194726,
      "geometry": "POINT (-78.390009 35.831172)",
      "poi_name": "Tacos Matehuala",
      "osm_id": 10282085964,
      "amenity": "restaurant",
      "cuisine": "mexican",
      "phone": "(252) 406-2282",
      "addr_state": "NC",
      "addr_city": "Bailey",
      "addr_postcode": "27807",
      "addr_street": "Hanover Street",
      "addr_housenumber": "12544"
    },
    {
      "id": 195955,
      "geometry": "POINT (-78.390009 35.831172)",
      "poi_name": "Pizza Hut",
      "osm_id": 10554854569,
      "amenity": "restaurant",
      "cuisine": "pizza",
      "phone": "+12527921036",
      "addr_state": "NC",
      "addr_city": "Williamston",
      "addr_postcode": "27892",
      "addr_street": "Brentway Avenue",
      "addr_housenumber": "1037"
    },
    {
      "id": 195159,
      "geometry": "POINT (-78.390009 35.831172)",
      "poi_name": "Mama's Country Drive-in",
      "osm_id": 10296749919,
      "amenity": "restaurant",
      "phone": "(252) 360-1951",
      "addr_state": "NC",
      "addr_city": "Wilson",
      "addr_postcode": "27893",
      "addr_street": "Ward Street",
      "addr_housenumber": "6765"
    },
    {
      "id": 195160,
      "geometry": "POINT (-78.390009 35.831172)",
      "poi_name": "Speedy Wok Chinese Restaurant",
      "osm_id": 10296799028,
      "amenity": "restaurant",
      "phone": "(252) 972-1888",
      "addr_state": "NC",
      "addr_city": "Sharpsburg",
      "addr_postcode": "27878",
      "addr_street": "South Hathaway Boulevard",
      "addr_housenumber": "4312"
    },
    {
      "id": 195164,
      "geometry": "POINT (-78.390009 35.831172)",
      "poi_name": "Shun Xing",
      "osm_id": 10296982412,
      "amenity": "restaurant",
      "phone": "+12527548223",
      "addr_state": "NC",
      "addr_city": "Greenville",
      "addr_postcode": "27834",
      "addr_street": "Easy Street",
      "addr_housenumber": "250"
    },
    {
      "id": 203546,
      "geometry": "POINT (-78.390009 35.831172)",
      "poi_name": "Westridge Grill",
      "osm_id": 7092236538,
      "amenity": "restaurant"
    },
    {
      "id": 203548,
      "geometry": "POINT (-78.390009 35.831172)",
      "poi_name": "Gardner's",
      "osm_id": 7092268232,
      "amenity": "restaurant"
    },
    {
      "id": 212390,
      "geometry": "POINT (-78.390009 35.831172)",
      "poi_name": "Nina's Wing Corner",
      "osm_id": 5205039171,
      "amenity": "restaurant"
    },
    {
      "id": 226556,
      "geometry": "POINT (-78.390009 35.831172)",
      "poi_name": "Anita's Authentic Mexican Street Food",
      "osm_id": 11163376007,
      "amenity": "restaurant"
    },
    {
      "id": 223929,
      "geometry": "POINT (-78.390009 35.831172)",
      "poi_name": "Zebulon Family Restaurant",
      "osm_id": 11068097058,
      "amenity": "restaurant",
      "cuisine": "american"
    },
    {
      "id": 234330,
      "geometry": "POINT (-78.390009 35.831172)",
      "poi_name": "Daniel's Casual Fine Dining",
      "osm_id": 4616218501,
      "amenity": "restaurant",
      "website": "http://danielscasualfinedining.com",
      "phone": "+1-252-281-1349",
      "addr_state": "NC",
      "addr_city": "Wilson",
      "addr_postcode": "27893",
      "addr_street": "Ward Boulevard",
      "addr_housenumber": "2801"
    },
    {
      "id": 233046,
      "geometry": "POINT (-78.390009 35.831172)",
      "poi_name": "Pizza Hut",
      "osm_id": 4554693918,
      "amenity": "restaurant",
      "cuisine": "pizza"
    },
    {
      "id": 237940,
      "geometry": "POINT (-78.390009 35.831172)",
      "poi_name": "Tap @ 1918",
      "osm_id": 5854531667,
      "amenity": "restaurant",
      "cuisine": "gastropub",
      "outdoor_seating": "yes",
      "addr_state": "NC",
      "addr_city": "Rocky Mount",
      "addr_postcode": "27804",
      "addr_street": "Falls Road",
      "addr_housenumber": "1135"
    }
  ],
  "answer_type": "name",
  "question_entities": {
    "[1]": {
      "main_category": "amenity",
      "sub_category": "restaurant"
    },
    "[2]": {
      "distance": 120000,
      "text": "120 kilometers"
    },
    "[3]": {
      "main_category": "leisure",
      "sub_category": "nature reserve",
      "display_name": "Procter Farm Preserve, Wendell, NC",
      "geo_wkt": "POINT (-78.390009 35.831172)",
      "poi": {
        "id": 247665,
        "geometry": "POINT (-78.390009 35.831172)",
        "poi_name": "Procter Farm Preserve",
        "osm_id": 8057386012,
        "leisure": "nature_reserve",
        "addr_state": "NC",
        "addr_city": "Wendell",
        "addr_postcode": "27591",
        "addr_street": "Doc Procter Road",
        "addr_housenumber": "7201"
      }
    },
    "[4]": {
      "direction_desc": "east",
      "direction_predicate": "degrees(ST_Azimuth(origin.geometry, pois.geometry)) BETWEEN 67.5 AND 112.5"
    }
  },
  "id": 2639,
  "type": "range:direction+name"
}