{
  "question": "What restaurant is available on the path leading to Epic Strides, Plano, TX from Azle Historical Museum, TX, within a radius of 40 kilometers?",
  "sql": "WITH\n    angle AS (SELECT degrees(ST_Azimuth(ST_GeomFromText('POINT (-97.542801 32.891237)',4326)::geography, ST_GeomFromText('POINT (-96.773886 33.056774)',4326)::geography)) AS value)\nSELECT * FROM pois,angle\nWHERE amenity = 'restaurant'\nAND ST_DWithin(pois.geometry, ST_GeomFromText('POINT (-97.542801 32.891237)',4326)::geography, 40000)\nAND (degrees(ST_Azimuth(ST_GeomFromText('POINT (-97.542801 32.891237)',4326)::geography, pois.geometry)) BETWEEN angle.value - 22.5 AND angle.value + 22.5);\n",
  "answers": [
    {
      "id": 28422,
      "geometry": "POINT (-97.487248 32.893077)",
      "poi_name": "Fort Worth Boat Club",
      "osm_id": 480455218,
      "amenity": "restaurant",
      "value": 75.46321560602085
    },
    {
      "id": 36872,
      "geometry": "POINT (-97.18479 32.848627)",
      "poi_name": "Red Panda Wok & Grill",
      "osm_id": 2789025449,
      "amenity": "restaurant",
      "cuisine": "chinese",
      "website": "http://redpandawok.com/",
      "addr_street": "Precinct Line Road",
      "addr_housenumber": "1834",
      "value": 75.46321560602085
    },
    {
      "id": 29271,
      "geometry": "POINT (-97.203302 33.014082)",
      "poi_name": "Marco\u2019s Pizza",
      "osm_id": 8292018239,
      "amenity": "restaurant",
      "cuisine": "pizza",
      "wheelchair": "yes",
      "website": "https://www.marcos.com/",
      "phone": "+1 (817) 497-8000",
      "takeaway": "yes",
      "delivery": "yes",
      "addr_state": "TX",
      "addr_city": "Trophy Club",
      "addr_postcode": "76262",
      "addr_street": "Bobcat Boulevard",
      "addr_housenumber": "2550",
      "value": 75.46321560602085
    },
    {
      "id": 29273,
      "geometry": "POINT (-97.203508 33.014014)",
      "poi_name": "Deja Bru Caf\u00e9 & Bistro",
      "osm_id": 8292018254,
      "amenity": "restaurant",
      "cuisine": "breakfast;brunch",
      "opening_hours": "Sa-Su 8:00-15:00; We-Fr 9:30-17:00",
      "website": "https://thedejabru.com",
      "phone": "+1 (682) 502-4922",
      "takeaway": "yes",
      "outdoor_seating": "yes",
      "delivery": "yes",
      "addr_state": "TX",
      "addr_city": "Trophy Club",
      "addr_postcode": "76262",
      "addr_street": "Bobcat Boulevard",
      "addr_housenumber": "2550",
      "value": 75.46321560602085
    },
    {
      "id": 40294,
      "geometry": "POINT (-97.308838 32.957321)",
      "poi_name": "IHOP",
      "osm_id": 2965415126,
      "amenity": "restaurant",
      "cuisine": "breakfast;pancake",
      "addr_state": "TX",
      "addr_city": "Fort Worth",
      "addr_postcode": "76177",
      "addr_street": "North Freeway",
      "addr_housenumber": "12750",
      "value": 75.46321560602085
    },
    {
      "id": 128380,
      "geometry": "POINT (-97.148048 32.891312)",
      "poi_name": "McAlister's Deli",
      "osm_id": 8152964994,
      "amenity": "restaurant",
      "cuisine": "sandwich",
      "wheelchair": "yes",
      "opening_hours": "Mo-Su 10:00-21:00",
      "website": "https://www.mcalistersdeli.com/locations/tx/colleyville/deli-1251",
      "internet_access": "wlan",
      "phone": "+1 817-485-5191",
      "takeaway": "yes",
      "outdoor_seating": "yes",
      "delivery": "yes",
      "toilets": "yes",
      "addr_state": "TX",
      "addr_city": "Colleyville",
      "addr_postcode": "76034",
      "addr_street": "Colleyville Boulevard",
      "addr_housenumber": "5615",
      "value": 75.46321560602085
    },
    {
      "id": 66163,
      "geometry": "POINT (-97.220663 32.934882)",
      "poi_name": "Pie Five",
      "osm_id": 5731551205,
      "amenity": "restaurant",
      "value": 75.46321560602085
    },
    {
      "id": 95146,
      "geometry": "POINT (-97.320591 32.90221)",
      "poi_name": "King Pho Sushi Bar",
      "osm_id": 6387950697,
      "amenity": "restaurant",
      "cuisine": "sushi",
      "value": 75.46321560602085
    },
    {
      "id": 97990,
      "geometry": "POINT (-97.291276 32.87193)",
      "poi_name": "Noodles @ Boba Tea House",
      "osm_id": 6504471385,
      "amenity": "restaurant",
      "cuisine": "asian;vietnamese",
      "opening_hours": "Mo-Th 10:30-21:00; Fr-Sa 10:30-22:00; Su 11:30-21:00",
      "website": "https://noodlesbth.com/",
      "internet_access": "wlan",
      "phone": "+1-817-234-9996",
      "addr_postcode": "76137",
      "value": 75.46321560602085
    },
    {
      "id": 128550,
      "geometry": "POINT (-97.385573 32.884006)",
      "poi_name": "China Flag Buffet",
      "osm_id": 8169215384,
      "amenity": "restaurant",
      "cuisine": "chinese;buffet",
      "value": 75.46321560602085
    },
    {
      "id": 128491,
      "geometry": "POINT (-97.146401 32.890501)",
      "poi_name": "Gloria's Latin Cuisine",
      "osm_id": 8163182302,
      "amenity": "restaurant",
      "cuisine": "mexican",
      "wheelchair": "yes",
      "website": "https://gloriascuisine.com/locations/colleyville.html",
      "phone": "817-656-1784",
      "takeaway": "yes",
      "outdoor_seating": "yes",
      "delivery": "yes",
      "addr_state": "TX",
      "addr_city": "Colleyville",
      "addr_postcode": "76034",
      "addr_street": "Colleyville Boulevard",
      "addr_housenumber": "5611",
      "value": 75.46321560602085
    },
    {
      "id": 129356,
      "geometry": "POINT (-97.269103 33.029331)",
      "poi_name": "Texas Roadhouse",
      "osm_id": 8238441767,
      "amenity": "restaurant",
      "cuisine": "steak_house",
      "value": 75.46321560602085
    },
    {
      "id": 129076,
      "geometry": "POINT (-97.394171 32.881259)",
      "poi_name": "Pizza Hut",
      "osm_id": 8208656105,
      "amenity": "restaurant",
      "cuisine": "pizza",
      "value": 75.46321560602085
    },
    {
      "id": 132803,
      "geometry": "POINT (-97.25719 32.910236)",
      "poi_name": "Zilla Wraps",
      "osm_id": 9966928021,
      "amenity": "restaurant",
      "value": 75.46321560602085
    },
    {
      "id": 132757,
      "geometry": "POINT (-97.187426 32.85525)",
      "poi_name": "Christina\u2019s Mexicain Cuisine",
      "osm_id": 9966630828,
      "amenity": "restaurant",
      "cuisine": "mexican",
      "value": 75.46321560602085
    },
    {
      "id": 132764,
      "geometry": "POINT (-97.191032 32.852792)",
      "poi_name": "Mama\u2019s Pizza",
      "osm_id": 9966630903,
      "amenity": "restaurant",
      "cuisine": "pizza",
      "value": 75.46321560602085
    },
    {
      "id": 131275,
      "geometry": "POINT (-97.129064 32.942688)",
      "poi_name": "Moxies",
      "osm_id": 9907806561,
      "amenity": "restaurant",
      "cuisine": "american",
      "value": 75.46321560602085
    },
    {
      "id": 139925,
      "geometry": "POINT (-97.230955 33.006496)",
      "poi_name": "Benjamin's Pizza Kitchen & Bar",
      "osm_id": 6221928077,
      "amenity": "restaurant",
      "cuisine": "pizza",
      "opening_hours": "Mo-Th, Su 11:00-22:00; Fr, Sa 11:00-23:00",
      "website": "https://www.benjaminspizzakitchen.com/",
      "phone": "+1-682-237-7707",
      "addr_street": "West Byron Nelson Boulevard",
      "addr_housenumber": "295",
      "value": 75.46321560602085
    },
    {
      "id": 133869,
      "geometry": "POINT (-97.230445 32.931391)",
      "poi_name": "Ms. Saigon Pho and Grill",
      "osm_id": 10013657693,
      "amenity": "restaurant",
      "cuisine": "vietnamese",
      "website": "https://ms-saigon-pho-sushi-grill.business.site/",
      "addr_state": "TX",
      "addr_city": "Keller",
      "addr_postcode": "76248",
      "addr_street": "Rufe Snow Drive",
      "addr_housenumber": "242",
      "value": 75.46321560602085
    },
    {
      "id": 136215,
      "geometry": "POINT (-97.34886 32.959021)",
      "poi_name": "Big Joe's11",
      "osm_id": 11571456181,
      "amenity": "restaurant",
      "cuisine": "pizza",
      "value": 75.46321560602085
    },
    {
      "id": 135571,
      "geometry": "POINT (-97.280702 33.019804)",
      "poi_name": "Cracker Barrel",
      "osm_id": 11523366778,
      "amenity": "restaurant",
      "cuisine": "american",
      "official_name": "Cracker Barrel Old Country Store",
      "value": 75.46321560602085
    },
    {
      "id": 146039,
      "geometry": "POINT (-97.204241 32.884532)",
      "poi_name": "Marco's Pizza",
      "osm_id": 7407736941,
      "amenity": "restaurant",
      "cuisine": "pizza",
      "value": 75.46321560602085
    },
    {
      "id": 162318,
      "geometry": "POINT (-97.279171 32.955081)",
      "poi_name": "Elote Mexican Kitchen",
      "osm_id": 4924834569,
      "amenity": "restaurant",
      "cuisine": "mexican",
      "opening_hours": "Sa, Su 09:00-21:00; Mo-Th 11:00-21:00; Fr 11:00-22:00",
      "website": "https://www.elotemex.com/",
      "phone": "+1-817-741-3600",
      "addr_street": "N Beach St",
      "addr_housenumber": "12584",
      "value": 75.46321560602085
    },
    {
      "id": 146109,
      "geometry": "POINT (-97.189656 32.908136)",
      "poi_name": "Cotton Patch Cafe",
      "osm_id": 7412523730,
      "amenity": "restaurant",
      "cuisine": "american",
      "value": 75.46321560602085
    },
    {
      "id": 146111,
      "geometry": "POINT (-97.187821 32.902269)",
      "poi_name": "Tokyo Sushi Asian Food and Bar",
      "osm_id": 7412553776,
      "amenity": "restaurant",
      "cuisine": "sushi",
      "value": 75.46321560602085
    },
    {
      "id": 146115,
      "geometry": "POINT (-97.192509 32.906781)",
      "poi_name": "Jet's Pizza",
      "osm_id": 7412566812,
      "amenity": "restaurant",
      "cuisine": "pizza",
      "value": 75.46321560602085
    },
    {
      "id": 146655,
      "geometry": "POINT (-97.254 32.933281)",
      "poi_name": "Roscoe's Smokehouse",
      "osm_id": 7468446390,
      "amenity": "restaurant",
      "cuisine": "american",
      "value": 75.46321560602085
    },
    {
      "id": 150876,
      "geometry": "POINT (-97.20407 33.019413)",
      "poi_name": "Pizza Hut",
      "osm_id": 4072279981,
      "amenity": "restaurant",
      "cuisine": "pizza",
      "value": 75.46321560602085
    },
    {
      "id": 155719,
      "geometry": "POINT (-97.130355 32.942426)",
      "poi_name": "Milwaukee Joe's Gourmet Ice Cream",
      "osm_id": 4298926417,
      "amenity": "restaurant",
      "value": 75.46321560602085
    },
    {
      "id": 160970,
      "geometry": "POINT (-97.254044 32.932479)",
      "poi_name": "Seven Mile Cafe",
      "osm_id": 4856536984,
      "amenity": "restaurant",
      "value": 75.46321560602085
    },
    {
      "id": 146106,
      "geometry": "POINT (-97.191649 32.905896)",
      "poi_name": "Mi Pueblo",
      "osm_id": 7412523706,
      "amenity": "restaurant",
      "cuisine": "mexican",
      "addr_state": "TX",
      "addr_city": "North Richland Hills",
      "value": 75.46321560602085
    },
    {
      "id": 146382,
      "geometry": "POINT (-97.258981 32.889714)",
      "poi_name": "Hashi Japanese Kitchen",
      "osm_id": 7435608031,
      "amenity": "restaurant",
      "cuisine": "japanese",
      "value": 75.46321560602085
    },
    {
      "id": 154114,
      "geometry": "POINT (-97.288666 32.929086)",
      "poi_name": "Pizza Hut",
      "osm_id": 4224209304,
      "amenity": "restaurant",
      "cuisine": "pizza",
      "value": 75.46321560602085
    },
    {
      "id": 154115,
      "geometry": "POINT (-97.286922 32.930044)",
      "poi_name": "King Wok",
      "osm_id": 4224209305,
      "amenity": "restaurant",
      "cuisine": "chinese",
      "value": 75.46321560602085
    },
    {
      "id": 154119,
      "geometry": "POINT (-97.131927 32.942731)",
      "poi_name": "Mi Cocina",
      "osm_id": 4224299118,
      "amenity": "restaurant",
      "cuisine": "mexican",
      "value": 75.46321560602085
    },
    {
      "id": 162304,
      "geometry": "POINT (-97.322758 32.900013)",
      "poi_name": "Luna Grill Alliance",
      "osm_id": 4924834528,
      "amenity": "restaurant",
      "cuisine": "mediterranean",
      "addr_state": "TX",
      "addr_city": "Fort Worth",
      "addr_postcode": "76177",
      "addr_street": "Tehama Ridge Parkway",
      "addr_housenumber": "8825",
      "value": 75.46321560602085
    },
    {
      "id": 162306,
      "geometry": "POINT (-97.281621 32.954709)",
      "poi_name": "Olivia Italian Eatery",
      "osm_id": 4924834533,
      "amenity": "restaurant",
      "cuisine": "italian",
      "value": 75.46321560602085
    },
    {
      "id": 162320,
      "geometry": "POINT (-97.27917 32.955328)",
      "poi_name": "Pizza Hut",
      "osm_id": 4924834576,
      "amenity": "restaurant",
      "cuisine": "pizza",
      "value": 75.46321560602085
    },
    {
      "id": 162307,
      "geometry": "POINT (-97.314623 32.904884)",
      "poi_name": "Thai & Fusion Ave",
      "osm_id": 4924834534,
      "amenity": "restaurant",
      "cuisine": "thai",
      "value": 75.46321560602085
    },
    {
      "id": 162321,
      "geometry": "POINT (-97.279183 32.955493)",
      "poi_name": "Taste of Asia",
      "osm_id": 4924834585,
      "amenity": "restaurant",
      "cuisine": "asian",
      "value": 75.46321560602085
    },
    {
      "id": 162308,
      "geometry": "POINT (-97.315516 32.904882)",
      "poi_name": "Fuzzy's Taco Shop",
      "osm_id": 4924834535,
      "amenity": "restaurant",
      "cuisine": "mexican",
      "value": 75.46321560602085
    },
    {
      "id": 179030,
      "geometry": "POINT (-97.187599 32.906674)",
      "poi_name": "Baja Cantina",
      "osm_id": 10746339538,
      "amenity": "restaurant",
      "cuisine": "mexican",
      "addr_state": "TX",
      "addr_city": "North Richland Hills",
      "addr_postcode": "76182",
      "addr_street": "Precinct Line Road",
      "addr_housenumber": "8245",
      "value": 75.46321560602085
    },
    {
      "id": 179031,
      "geometry": "POINT (-97.188139 32.906412)",
      "poi_name": "Giovanni\u2019s Pizza N Pasta",
      "osm_id": 10746339542,
      "amenity": "restaurant",
      "cuisine": "italian",
      "value": 75.46321560602085
    },
    {
      "id": 183755,
      "geometry": "POINT (-97.230897 32.995351)",
      "poi_name": "Anderson Distillery & Grill",
      "osm_id": 10944294191,
      "amenity": "restaurant",
      "opening_hours": "tu-th 11--22, fr-sa 10-24, su 10-20",
      "website": "https://www.andersondistillery.com/",
      "addr_state": "TX",
      "addr_city": "Roanoke",
      "addr_postcode": "76262",
      "addr_street": "South Oak Street",
      "addr_housenumber": "400",
      "value": 75.46321560602085
    },
    {
      "id": 182621,
      "geometry": "POINT (-97.190662 32.993583)",
      "poi_name": "Poki Bowl",
      "osm_id": 10897702053,
      "amenity": "restaurant",
      "cuisine": "japanese",
      "opening_hours": "Mo-Su 11:00-20:00",
      "value": 75.46321560602085
    },
    {
      "id": 182623,
      "geometry": "POINT (-97.190354 32.993266)",
      "poi_name": "Blue 22 Sports Grill",
      "osm_id": 10897713583,
      "amenity": "restaurant",
      "value": 75.46321560602085
    },
    {
      "id": 182624,
      "geometry": "POINT (-97.190196 32.993107)",
      "poi_name": "Social Oak - Wine and Whiskey lounge",
      "osm_id": 10897715204,
      "amenity": "restaurant",
      "value": 75.46321560602085
    },
    {
      "id": 179515,
      "geometry": "POINT (-97.1328 32.942364)",
      "poi_name": "TruFire",
      "osm_id": 10766984313,
      "amenity": "restaurant",
      "cuisine": "american",
      "value": 75.46321560602085
    },
    {
      "id": 179516,
      "geometry": "POINT (-97.131979 32.943343)",
      "poi_name": "Stella Ristorante Italiano",
      "osm_id": 10766984318,
      "amenity": "restaurant",
      "cuisine": "italian",
      "value": 75.46321560602085
    },
    {
      "id": 179517,
      "geometry": "POINT (-97.132618 32.940602)",
      "poi_name": "Coal Vines Pizza and Wine Bar",
      "osm_id": 10766984328,
      "amenity": "restaurant",
      "cuisine": "pizza",
      "value": 75.46321560602085
    },
    {
      "id": 179518,
      "geometry": "POINT (-97.129904 32.945353)",
      "poi_name": "Ozeki",
      "osm_id": 10766984330,
      "amenity": "restaurant",
      "cuisine": "japanese",
      "value": 75.46321560602085
    },
    {
      "id": 198990,
      "geometry": "POINT (-97.125904 32.941328)",
      "poi_name": "Pei Wei",
      "osm_id": 928998581,
      "amenity": "restaurant",
      "cuisine": "asian",
      "value": 75.46321560602085
    },
    {
      "id": 196047,
      "geometry": "POINT (-97.426326 32.879272)",
      "poi_name": "The Pizza Bistro",
      "osm_id": 10560437154,
      "amenity": "restaurant",
      "cuisine": "pizza",
      "value": 75.46321560602085
    },
    {
      "id": 197627,
      "geometry": "POINT (-97.374207 32.924805)",
      "poi_name": "The Pizza Bistro",
      "osm_id": 10659191600,
      "amenity": "restaurant",
      "cuisine": "pizza",
      "opening_hours": "Su-Th 11:00-20:00; Fr-Sa 11:00-21:00",
      "website": "https://www.pizzatx.com/",
      "phone": "+1-817-617-7868",
      "addr_state": "TX",
      "addr_city": "Fort Worth",
      "addr_postcode": "76131",
      "addr_street": "West Bonds Ranch Road",
      "addr_housenumber": "750",
      "value": 75.46321560602085
    },
    {
      "id": 197631,
      "geometry": "POINT (-97.374499 32.924804)",
      "poi_name": "Tommy Tamale",
      "osm_id": 10659234205,
      "amenity": "restaurant",
      "cuisine": "mexican",
      "website": "https://tommytamale.com/",
      "addr_state": "TX",
      "addr_city": "Fort Worth",
      "addr_street": "West Bonds Ranch Road",
      "addr_housenumber": "750",
      "value": 75.46321560602085
    },
    {
      "id": 197633,
      "geometry": "POINT (-97.318876 32.915084)",
      "poi_name": "Kyodai Handroll Bar",
      "osm_id": 10659298448,
      "amenity": "restaurant",
      "cuisine": "sushi;japanese",
      "opening_hours": "Mo, We-Sa 11:00-14:30,17:00-22:00; Su 12:00-14:30,17:00-21:00",
      "website": "https://www.kyodaihandroll.com/location/kyodai-handroll-bar-fort-worth",
      "phone": "+1-682-708-3054",
      "addr_state": "TX",
      "addr_city": "Fort Worth",
      "addr_postcode": "76177",
      "addr_street": "Heritage Trace Parkway",
      "addr_housenumber": "2825",
      "value": 75.46321560602085
    },
    {
      "id": 197635,
      "geometry": "POINT (-97.271555 32.893535)",
      "poi_name": "SWAD Indian & Nepal Cuisine",
      "osm_id": 10659598959,
      "amenity": "restaurant",
      "cuisine": "indian;nepalese",
      "opening_hours": "Mo,We-Fr 11:00-14:30,16:30-21:00; Sa,Su 11:00-21:00",
      "website": "https://swadindianfw.site/",
      "phone": "+1-817-587-1575",
      "addr_state": "TX",
      "addr_city": "Fort Worth",
      "addr_postcode": "76137",
      "addr_street": "Sohi Drive",
      "addr_housenumber": "8333",
      "value": 75.46321560602085
    },
    {
      "id": 197636,
      "geometry": "POINT (-97.273941 32.89352)",
      "poi_name": "JJ's Taco Shop",
      "osm_id": 10659598960,
      "amenity": "restaurant",
      "cuisine": "mexican;american",
      "opening_hours": "Su-Mo 11:00-21:00; Tu-Sa 11:00-22:00",
      "website": "https://www.jjstacoshop.com/fort-worth-location",
      "phone": "+1-817-479-6821",
      "outdoor_seating": "yes",
      "addr_state": "TX",
      "addr_city": "Fort Worth",
      "addr_postcode": "76244",
      "addr_street": "North Tarrant Parkway",
      "addr_housenumber": "5040",
      "value": 75.46321560602085
    },
    {
      "id": 197640,
      "geometry": "POINT (-97.306421 32.915269)",
      "poi_name": "Don Taco",
      "osm_id": 10659686241,
      "amenity": "restaurant",
      "cuisine": "mexican",
      "opening_hours": "Mo-Th 11:00-21:30; Fr 11:00-22:00; Sa 8:00-22:00; Su 8:00-21:00",
      "website": "https://dontacogrill.com/",
      "phone": "+1-817-741-6644",
      "addr_state": "TX",
      "addr_city": "Fort Worth",
      "addr_postcode": "76244",
      "addr_street": "Heritage Trace Parkway",
      "addr_housenumber": "3529",
      "value": 75.46321560602085
    },
    {
      "id": 197642,
      "geometry": "POINT (-97.323572 32.902666)",
      "poi_name": "Kyushu",
      "osm_id": 10659686244,
      "amenity": "restaurant",
      "cuisine": "japanese;hibachi;sushi",
      "opening_hours": "Mo-Th 11:00-14:30,16:30-22:00; Fr 11:00-14:30,16:30-22:30; Sa 12:00-22:30; Su 12:00-21:00",
      "website": "http://www.kyushuhibachi.com/",
      "phone": "+1-817-232-8777",
      "addr_state": "TX",
      "addr_city": "Fort Worth",
      "addr_postcode": "76177",
      "addr_street": "Tehama Ridge Parkway",
      "addr_housenumber": "8933",
      "value": 75.46321560602085
    },
    {
      "id": 198991,
      "geometry": "POINT (-97.125703 32.941329)",
      "poi_name": "Blue Mesa",
      "osm_id": 928998582,
      "amenity": "restaurant",
      "value": 75.46321560602085
    },
    {
      "id": 200928,
      "geometry": "POINT (-97.289798 32.862766)",
      "poi_name": "Pho King Way Noodles And Grill",
      "osm_id": 601124044,
      "amenity": "restaurant",
      "addr_street": "North Beach Street",
      "addr_housenumber": "6500",
      "value": 75.46321560602085
    },
    {
      "id": 201384,
      "geometry": "POINT (-97.290215 32.896793)",
      "poi_name": "Tang's Pacific Bistro",
      "osm_id": 627164372,
      "amenity": "restaurant",
      "addr_street": "North Beach Street",
      "addr_housenumber": "8653",
      "value": 75.46321560602085
    },
    {
      "id": 206247,
      "geometry": "POINT (-97.133715 32.9502)",
      "poi_name": "Lo-Lo's Chicken & Waffles",
      "osm_id": 7202281597,
      "amenity": "restaurant",
      "cuisine": "american",
      "addr_state": "TX",
      "addr_city": "Southlake",
      "addr_postcode": "76092",
      "addr_street": "East Northwest Parkway",
      "addr_housenumber": "1201",
      "value": 75.46321560602085
    },
    {
      "id": 201805,
      "geometry": "POINT (-97.382854 32.880166)",
      "poi_name": "Joe's Pizza and Pasta",
      "osm_id": 660509876,
      "amenity": "restaurant",
      "addr_housenumber": "1209 C",
      "value": 75.46321560602085
    },
    {
      "id": 203952,
      "geometry": "POINT (-97.205259 32.999254)",
      "poi_name": "Hong Kong Express",
      "osm_id": 7106536361,
      "amenity": "restaurant",
      "cuisine": "chinese",
      "wheelchair": "yes",
      "opening_hours": "Mo-Su 11:00-22:00",
      "website": "http://www.hong-kong-express-roanoke.com/",
      "phone": "+1-817-491-6000",
      "outdoor_seating": "no",
      "addr_state": "TX",
      "addr_city": "Trophy Club",
      "addr_postcode": "76262",
      "addr_street": "Trophy Lake Drive",
      "addr_housenumber": "301",
      "value": 75.46321560602085
    },
    {
      "id": 204363,
      "geometry": "POINT (-97.22841 32.999671)",
      "poi_name": "Bayou Jack's Cajun Grill",
      "osm_id": 7124630365,
      "amenity": "restaurant",
      "cuisine": "cajun",
      "opening_hours": "Fr, Sa 11:00-23:00; Mo-Th, Su 11:00-22:00",
      "website": "https://www.bayoujackscajungrill.com/",
      "phone": "+1-817-490-7800",
      "addr_street": "North Oak Street",
      "addr_housenumber": "200",
      "value": 75.46321560602085
    },
    {
      "id": 204911,
      "geometry": "POINT (-97.269189 33.028015)",
      "poi_name": "BurgerIM",
      "osm_id": 7150097384,
      "amenity": "restaurant",
      "value": 75.46321560602085
    },
    {
      "id": 204913,
      "geometry": "POINT (-97.268854 33.027961)",
      "poi_name": "Amano Italian Bistro",
      "osm_id": 7150097686,
      "amenity": "restaurant",
      "cuisine": "italian",
      "value": 75.46321560602085
    },
    {
      "id": 204914,
      "geometry": "POINT (-97.281207 33.025765)",
      "poi_name": "Newk's Eatery",
      "osm_id": 7150097720,
      "amenity": "restaurant",
      "value": 75.46321560602085
    },
    {
      "id": 204917,
      "geometry": "POINT (-97.231067 32.99579)",
      "poi_name": "Wise Guys Pizzeria",
      "osm_id": 7150158010,
      "amenity": "restaurant",
      "cuisine": "pizza",
      "value": 75.46321560602085
    },
    {
      "id": 204918,
      "geometry": "POINT (-97.230913 32.996008)",
      "poi_name": "Foster's",
      "osm_id": 7150158011,
      "amenity": "restaurant",
      "cuisine": "japanese",
      "value": 75.46321560602085
    },
    {
      "id": 204919,
      "geometry": "POINT (-97.230354 32.996033)",
      "poi_name": "Craft & Vine",
      "osm_id": 7150158018,
      "amenity": "restaurant",
      "value": 75.46321560602085
    },
    {
      "id": 204920,
      "geometry": "POINT (-97.171413 32.987257)",
      "poi_name": "HG Sply CO",
      "osm_id": 7150158035,
      "amenity": "restaurant",
      "value": 75.46321560602085
    },
    {
      "id": 204921,
      "geometry": "POINT (-97.170271 32.9864)",
      "poi_name": "Bread Winners",
      "osm_id": 7150158036,
      "amenity": "restaurant",
      "value": 75.46321560602085
    },
    {
      "id": 205256,
      "geometry": "POINT (-97.218835 33.011912)",
      "poi_name": "Dickey's Barbecue Pit",
      "osm_id": 7161414724,
      "amenity": "restaurant",
      "cuisine": "barbecue",
      "value": 75.46321560602085
    },
    {
      "id": 205296,
      "geometry": "POINT (-97.19367 32.994045)",
      "poi_name": "Vinny's",
      "osm_id": 7164624977,
      "amenity": "restaurant",
      "cuisine": "italian",
      "value": 75.46321560602085
    },
    {
      "id": 205297,
      "geometry": "POINT (-97.194018 32.994133)",
      "poi_name": "Cristinia's",
      "osm_id": 7164624978,
      "amenity": "restaurant",
      "cuisine": "mexican",
      "value": 75.46321560602085
    },
    {
      "id": 205298,
      "geometry": "POINT (-97.194268 32.994247)",
      "poi_name": "Fish & Knife",
      "osm_id": 7164624980,
      "amenity": "restaurant",
      "cuisine": "sushi",
      "value": 75.46321560602085
    },
    {
      "id": 204981,
      "geometry": "POINT (-97.169461 32.979949)",
      "poi_name": "Mar Cosina",
      "osm_id": 7152458629,
      "amenity": "restaurant",
      "cuisine": "mexican",
      "website": "https://www.marcosina.com",
      "phone": "+1-817-490-6115",
      "addr_state": "TX",
      "addr_city": "Westlake",
      "addr_postcode": "76262",
      "addr_street": "Solana Boulevard",
      "addr_housenumber": "1301",
      "value": 75.46321560602085
    },
    {
      "id": 204982,
      "geometry": "POINT (-97.169634 32.979681)",
      "poi_name": "La Scala Pizzeria",
      "osm_id": 7152458631,
      "amenity": "restaurant",
      "cuisine": "pizza",
      "website": "https://lascalapizza.com",
      "phone": "+1-817-491-3779",
      "addr_state": "TX",
      "addr_city": "Westlake",
      "addr_postcode": "76262",
      "addr_street": "Village Circle",
      "addr_housenumber": "3",
      "value": 75.46321560602085
    },
    {
      "id": 205239,
      "geometry": "POINT (-97.220115 33.001477)",
      "poi_name": "Salad Bowl",
      "osm_id": 7161320289,
      "amenity": "restaurant",
      "value": 75.46321560602085
    },
    {
      "id": 205243,
      "geometry": "POINT (-97.217505 33.000107)",
      "poi_name": "Here Asian Sushi",
      "osm_id": 7161320307,
      "amenity": "restaurant",
      "cuisine": "asian",
      "value": 75.46321560602085
    },
    {
      "id": 206248,
      "geometry": "POINT (-97.133513 32.94947)",
      "poi_name": "Chuy's",
      "osm_id": 7202281609,
      "amenity": "restaurant",
      "cuisine": "tex-mex",
      "value": 75.46321560602085
    },
    {
      "id": 206249,
      "geometry": "POINT (-97.133513 32.948828)",
      "poi_name": "Salata",
      "osm_id": 7202281612,
      "amenity": "restaurant",
      "value": 75.46321560602085
    },
    {
      "id": 206250,
      "geometry": "POINT (-97.131895 32.943194)",
      "poi_name": "Rockfish Seafood Grill",
      "osm_id": 7202281631,
      "amenity": "restaurant",
      "cuisine": "seafood",
      "value": 75.46321560602085
    },
    {
      "id": 206251,
      "geometry": "POINT (-97.132998 32.942778)",
      "poi_name": "Whistle Britches",
      "osm_id": 7202281634,
      "amenity": "restaurant",
      "cuisine": "american",
      "value": 75.46321560602085
    },
    {
      "id": 240939,
      "geometry": "POINT (-97.237654 32.857721)",
      "poi_name": "Pancho's",
      "osm_id": 6000935354,
      "amenity": "restaurant",
      "addr_street": "Rufe Snow Drive",
      "addr_housenumber": "6238",
      "value": 75.46321560602085
    },
    {
      "id": 217432,
      "geometry": "POINT (-97.186903 32.937485)",
      "poi_name": "Mikoto Ramen Bar & Sushi",
      "osm_id": 9221871040,
      "amenity": "restaurant",
      "cuisine": "noodle",
      "wheelchair": "yes",
      "opening_hours": "11:00-20:30",
      "website": "https://www.mikotoramensushi.com",
      "internet_access": "wlan",
      "phone": "+1-682-593-0170",
      "takeaway": "yes",
      "outdoor_seating": "no",
      "delivery": "yes",
      "addr_state": "TX",
      "addr_city": "Southlake",
      "addr_postcode": "76092",
      "addr_street": "West Southlake Boulevard",
      "addr_housenumber": "2310",
      "value": 75.46321560602085
    },
    {
      "id": 217588,
      "geometry": "POINT (-97.394049 32.880541)",
      "poi_name": "Jet's Pizza",
      "osm_id": 9233392714,
      "amenity": "restaurant",
      "cuisine": "pizza",
      "value": 75.46321560602085
    },
    {
      "id": 240800,
      "geometry": "POINT (-97.241626 32.860797)",
      "poi_name": "Pho Big Bowl",
      "osm_id": 5991717819,
      "amenity": "restaurant",
      "description": "Vietnamese",
      "opening_hours": "Mo-Sa 09:30-21:00; Su 10:30-21:00",
      "phone": "+1-817-770-4342",
      "addr_street": "Watauga",
      "addr_housenumber": "110-B",
      "value": 75.46321560602085
    },
    {
      "id": 217340,
      "geometry": "POINT (-97.313722 32.91513)",
      "poi_name": "Pei Wei",
      "osm_id": 9217111364,
      "amenity": "restaurant",
      "cuisine": "asian",
      "addr_state": "TX",
      "addr_city": "Fort Worth",
      "addr_postcode": "76177",
      "addr_street": "Heritage Trace Parkway",
      "addr_housenumber": "2901",
      "value": 75.46321560602085
    },
    {
      "id": 217342,
      "geometry": "POINT (-97.312333 32.915191)",
      "poi_name": "First Watch",
      "osm_id": 9217128837,
      "amenity": "restaurant",
      "cuisine": "american;breakfast",
      "value": 75.46321560602085
    },
    {
      "id": 217343,
      "geometry": "POINT (-97.312098 32.915128)",
      "poi_name": "Shell Shack",
      "osm_id": 9217128838,
      "amenity": "restaurant",
      "cuisine": "seafood",
      "value": 75.46321560602085
    },
    {
      "id": 217344,
      "geometry": "POINT (-97.311709 32.91506)",
      "poi_name": "Hopdoddy",
      "osm_id": 9217128839,
      "amenity": "restaurant",
      "cuisine": "burger;sandwich;salad;shakes;bar",
      "opening_hours": "Su-Th 11:00-22:00; Fr-Sa 11:00-23:00",
      "website": "https://www.hopdoddy.com/locations/alliance",
      "phone": "+1-682-204-0111",
      "addr_state": "TX",
      "addr_city": "Fort Worth",
      "addr_postcode": "76177",
      "addr_street": "Heritage Trace Parkway",
      "addr_housenumber": "3101",
      "value": 75.46321560602085
    },
    {
      "id": 217347,
      "geometry": "POINT (-97.316006 32.911028)",
      "poi_name": "Jason's Deli",
      "osm_id": 9217128885,
      "amenity": "restaurant",
      "cuisine": "sandwich",
      "value": 75.46321560602085
    },
    {
      "id": 217353,
      "geometry": "POINT (-97.309065 32.913424)",
      "poi_name": "Piada Italian Street Food",
      "osm_id": 9217185698,
      "amenity": "restaurant",
      "cuisine": "italian",
      "opening_hours": "Mo-Su 10:45-22:00",
      "website": "https://mypiada.com/menu/alliance",
      "phone": "+1-817-741-6484",
      "takeaway": "yes",
      "outdoor_seating": "yes",
      "addr_state": "TX",
      "addr_city": "Fort Worth",
      "addr_postcode": "76177",
      "addr_street": "Heritage Trace Parkway",
      "addr_housenumber": "3300",
      "value": 75.46321560602085
    },
    {
      "id": 217354,
      "geometry": "POINT (-97.308341 32.911794)",
      "poi_name": "Green Tea House",
      "osm_id": 9217195927,
      "amenity": "restaurant",
      "cuisine": "asian",
      "opening_hours": "Su-Th 11:00-21:30; Fr-Sa 11:00-22:00",
      "website": "https://www.greenteahouseonline.com/",
      "phone": "+1-817-750-8888",
      "addr_state": "TX",
      "addr_city": "Fort Worth",
      "addr_postcode": "76177",
      "addr_street": "Texas Sage Trail",
      "addr_housenumber": "3400",
      "value": 75.46321560602085
    },
    {
      "id": 217366,
      "geometry": "POINT (-97.315664 32.903616)",
      "poi_name": "Hanabi Hibachi and Sushi",
      "osm_id": 9217303235,
      "amenity": "restaurant",
      "cuisine": "sushi",
      "value": 75.46321560602085
    },
    {
      "id": 240432,
      "geometry": "POINT (-97.229644 32.998466)",
      "poi_name": "Inzo Italian Kitchen",
      "osm_id": 5976445163,
      "amenity": "restaurant",
      "value": 75.46321560602085
    },
    {
      "id": 240433,
      "geometry": "POINT (-97.229715 32.998357)",
      "poi_name": "Tacos and Avocados",
      "osm_id": 5976445164,
      "amenity": "restaurant",
      "value": 75.46321560602085
    },
    {
      "id": 240435,
      "geometry": "POINT (-97.230928 32.997492)",
      "poi_name": "Thai Chili",
      "osm_id": 5976468171,
      "amenity": "restaurant",
      "cuisine": "thai",
      "value": 75.46321560602085
    },
    {
      "id": 240436,
      "geometry": "POINT (-97.230545 32.996826)",
      "poi_name": "Jack & Grill",
      "osm_id": 5976468173,
      "amenity": "restaurant",
      "value": 75.46321560602085
    },
    {
      "id": 240941,
      "geometry": "POINT (-97.237319 32.85958)",
      "poi_name": "SANA Indian-Pak Restaurant and Grocery",
      "osm_id": 6001087634,
      "amenity": "restaurant",
      "addr_street": "Rufe Snow Drive",
      "addr_housenumber": "6248",
      "value": 75.46321560602085
    },
    {
      "id": 242482,
      "geometry": "POINT (-97.22807 32.999985)",
      "poi_name": "The Hot Potato",
      "osm_id": 7573414483,
      "amenity": "restaurant",
      "cuisine": "american",
      "value": 75.46321560602085
    },
    {
      "id": 242484,
      "geometry": "POINT (-97.228211 33.000132)",
      "poi_name": "Churchill's Fish & Chips",
      "osm_id": 7573419085,
      "amenity": "restaurant",
      "cuisine": "seafood;british",
      "value": 75.46321560602085
    },
    {
      "id": 242485,
      "geometry": "POINT (-97.228665 33.001206)",
      "poi_name": "Euros Gyros",
      "osm_id": 7573419096,
      "amenity": "restaurant",
      "cuisine": "greek",
      "value": 75.46321560602085
    },
    {
      "id": 242488,
      "geometry": "POINT (-97.23038 32.99624)",
      "poi_name": "Heimbaker's Market & Deli",
      "osm_id": 7573446558,
      "amenity": "restaurant",
      "cuisine": "sandwich;deli;dessert;ice_cream;regional",
      "opening_hours": "Mo-Th 11:00-19:00, Fr-Sa 10:00-22:00, Su 10:00-17:00",
      "website": "https://heimbakers.com/",
      "phone": "18179171628",
      "drive_through": "no",
      "addr_state": "TX",
      "addr_city": "Roanoke",
      "addr_postcode": "76262",
      "addr_street": "South Oak Street",
      "addr_housenumber": "310",
      "value": 75.46321560602085
    },
    {
      "id": 242489,
      "geometry": "POINT (-97.230626 32.995809)",
      "poi_name": "Los Compadres",
      "osm_id": 7573446560,
      "amenity": "restaurant",
      "cuisine": "mexican",
      "value": 75.46321560602085
    },
    {
      "id": 242806,
      "geometry": "POINT (-97.220122 33.001378)",
      "poi_name": "Anton's African Cuisine",
      "osm_id": 7599150972,
      "amenity": "restaurant",
      "cuisine": "african",
      "value": 75.46321560602085
    }
  ],
  "answer_type": "name",
  "question_entities": {
    "[2]": {
      "distance": 40000,
      "text": "40 kilometers"
    },
    "[3]": {
      "main_category": "tourism",
      "sub_category": "museum",
      "display_name": "Azle Historical Museum, TX",
      "geo_wkt": "POINT (-97.542801 32.891237)",
      "poi": {
        "id": 18102,
        "geometry": "POINT (-97.542801 32.891237)",
        "poi_name": "Azle Historical Museum",
        "osm_id": 368165591,
        "tourism": "museum",
        "website": "https://m.facebook.com/Azle-Historical-Museum-336843573410260/",
        "addr_state": "TX"
      }
    },
    "[4]": {
      "main_category": "amenity",
      "sub_category": "hospital",
      "display_name": "Epic Strides, Plano, TX",
      "geo_wkt": "POINT (-96.773886 33.056774)",
      "poi": {
        "id": 75100,
        "geometry": "POINT (-96.773886 33.056774)",
        "poi_name": "Epic Strides",
        "osm_id": 9710971199,
        "amenity": "hospital",
        "website": "https://epicstrides.net/",
        "phone": "(972) 596-0035",
        "healthcare": "hospital",
        "addr_state": "TX",
        "addr_city": "Plano",
        "addr_postcode": "75024",
        "addr_street": "West Spring Creek Parkway",
        "addr_housenumber": "4105"
      }
    },
    "[1]": {
      "main_category": "amenity",
      "sub_category": "restaurant"
    }
  },
  "id": 1631,
  "type": "range:towards+name"
}