{
  "question": "What restaurant situated within 150 kilometers towards the northeast of LEGOLAND Discovery Center Dallas/Fort Worth, Grapevine, TX?",
  "sql": "\nWITH origin AS  (SELECT ST_GeomFromText('POINT (-97.043468 32.966617)',4326)::geography AS geometry)\nSELECT * FROM pois, origin\nWHERE ST_DWithin(pois.geometry, ST_GeomFromText('POINT (-97.043468 32.966617)',4326)::geography, 150000)\nAND amenity = 'restaurant'\nAND degrees(ST_Azimuth(origin.geometry, pois.geometry)) BETWEEN 22.5 AND 67.5;\n",
  "answers": [
    {
      "id": 36807,
      "geometry": "POINT (-97.043468 32.966617)",
      "poi_name": "Secret Recipe",
      "osm_id": 2785555056,
      "amenity": "restaurant",
      "cuisine": "chinese",
      "website": "http://secretrecipetx.com/",
      "addr_street": "Hebron Parkway West",
      "addr_housenumber": "1404"
    },
    {
      "id": 30666,
      "geometry": "POINT (-97.043468 32.966617)",
      "poi_name": "Cracker Barrel",
      "osm_id": 8373438104,
      "amenity": "restaurant",
      "cuisine": "american",
      "official_name": "Cracker Barrel Old Country Store"
    },
    {
      "id": 30922,
      "geometry": "POINT (-97.043468 32.966617)",
      "poi_name": "FF Japanese Grill",
      "osm_id": 8393827172,
      "amenity": "restaurant"
    },
    {
      "id": 31290,
      "geometry": "POINT (-97.043468 32.966617)",
      "poi_name": "Zocados Mexican Restaurant",
      "osm_id": 8418577562,
      "amenity": "restaurant"
    },
    {
      "id": 31295,
      "geometry": "POINT (-97.043468 32.966617)",
      "poi_name": "Mulan Noodle & Grill",
      "osm_id": 8418586635,
      "amenity": "restaurant"
    },
    {
      "id": 31296,
      "geometry": "POINT (-97.043468 32.966617)",
      "poi_name": "WNB Factory Wings & Burger",
      "osm_id": 8418594182,
      "amenity": "restaurant"
    },
    {
      "id": 31297,
      "geometry": "POINT (-97.043468 32.966617)",
      "poi_name": "Open Rice Asian Bistro",
      "osm_id": 8418596144,
      "amenity": "restaurant",
      "wheelchair": "yes",
      "opening_hours": "Mo-Fr 11:00-21:00; Sa 00:00-20:00; Su off"
    },
    {
      "id": 31302,
      "geometry": "POINT (-97.043468 32.966617)",
      "poi_name": "Hebron Donuts",
      "osm_id": 8418601596,
      "amenity": "restaurant",
      "wheelchair": "yes",
      "opening_hours": "Mo-Sa 05:00-12:00",
      "phone": "+1 214-488-3732"
    },
    {
      "id": 31303,
      "geometry": "POINT (-97.043468 32.966617)",
      "poi_name": "Masu Japanese Steak & Seafood",
      "osm_id": 8418602759,
      "amenity": "restaurant",
      "cuisine": "japanese",
      "wheelchair": "limited",
      "opening_hours": "Tu-Fr 11:00-21:00; Sa-Su 12:00-21:00; PH closed",
      "takeaway": "yes",
      "delivery": "Doordash & UberEATS"
    },
    {
      "id": 31307,
      "geometry": "POINT (-97.043468 32.966617)",
      "poi_name": "Mom's Kitchen",
      "osm_id": 8418606917,
      "amenity": "restaurant",
      "cuisine": "korean"
    },
    {
      "id": 36742,
      "geometry": "POINT (-97.043468 32.966617)",
      "poi_name": "Silver Thai Cuisine",
      "osm_id": 2782707493,
      "amenity": "restaurant",
      "cuisine": "thai",
      "website": "http://silverthaiallen.menufy.com/",
      "addr_street": "West McDermott Drive",
      "addr_housenumber": "906"
    },
    {
      "id": 36875,
      "geometry": "POINT (-97.043468 32.966617)",
      "poi_name": "Rice Pot Express Lewisville",
      "osm_id": 2789105175,
      "amenity": "restaurant",
      "cuisine": "chinese",
      "website": "http://ricepotexpresstx.com/",
      "addr_street": "State Highway 121 Bypass",
      "addr_housenumber": "495"
    },
    {
      "id": 30579,
      "geometry": "POINT (-97.043468 32.966617)",
      "poi_name": "Spring Creek Barbecue",
      "osm_id": 8369548208,
      "amenity": "restaurant",
      "wheelchair": "yes",
      "opening_hours": "Mo-Su 11:00-21:00",
      "addr_street": "East Round Grove Road",
      "addr_housenumber": "571"
    },
    {
      "id": 30580,
      "geometry": "POINT (-97.043468 32.966617)",
      "poi_name": "Wok N Roll",
      "osm_id": 8369554462,
      "amenity": "restaurant",
      "wheelchair": "yes",
      "opening_hours": "Mo-Th 11:00-21:30; Fr,Sa 11:00-22:00; Su 12:00-22:00",
      "addr_state": "TX",
      "addr_city": "Lewisville",
      "addr_postcode": "75067",
      "addr_street": "West FM 3040"
    },
    {
      "id": 36866,
      "geometry": "POINT (-97.043468 32.966617)",
      "poi_name": "Palios pizza cafe",
      "osm_id": 2788953317,
      "amenity": "restaurant",
      "cuisine": "pizza",
      "website": "https://www.paliosfairview.com/",
      "addr_street": "East Stacy Road",
      "addr_housenumber": "431"
    },
    {
      "id": 36808,
      "geometry": "POINT (-97.043468 32.966617)",
      "poi_name": "Wing Town",
      "osm_id": 2785570386,
      "amenity": "restaurant",
      "cuisine": "regional",
      "website": "http://wingtowncarrollton.menufy.com/",
      "addr_street": "Hebron Parkway West",
      "addr_housenumber": "1008"
    },
    {
      "id": 36868,
      "geometry": "POINT (-97.043468 32.966617)",
      "poi_name": "Asiana Biztro",
      "osm_id": 2788976636,
      "amenity": "restaurant",
      "cuisine": "asian",
      "website": "http://asianabiztro.menufy.com/",
      "addr_city": "Frisco",
      "addr_street": "Custer Road",
      "addr_housenumber": "11501"
    },
    {
      "id": 36869,
      "geometry": "POINT (-97.043468 32.966617)",
      "poi_name": "Simply Thai Bistro",
      "osm_id": 2788992718,
      "amenity": "restaurant",
      "cuisine": "thai",
      "website": "http://simplythaibistro.menufy.com/",
      "addr_street": "Main Street",
      "addr_housenumber": "6842"
    },
    {
      "id": 37369,
      "geometry": "POINT (-97.043468 32.966617)",
      "poi_name": "Chopsticks Asian Cafe",
      "osm_id": 2809518920,
      "amenity": "restaurant",
      "cuisine": "chinese",
      "website": "http://chopsticksasiancafetx.com/",
      "addr_street": "University Drive",
      "addr_housenumber": "1717"
    },
    {
      "id": 39833,
      "geometry": "POINT (-97.043468 32.966617)",
      "poi_name": "Bob's Steak & Chop House",
      "osm_id": 2941379592,
      "amenity": "restaurant"
    },
    {
      "id": 37484,
      "geometry": "POINT (-97.043468 32.966617)",
      "poi_name": "Bull",
      "osm_id": 2816014151,
      "amenity": "restaurant",
      "cuisine": "asian"
    },
    {
      "id": 37485,
      "geometry": "POINT (-97.043468 32.966617)",
      "poi_name": "Dodies Cajun",
      "osm_id": 2816014152,
      "amenity": "restaurant",
      "cuisine": "cajun"
    },
    {
      "id": 39385,
      "geometry": "POINT (-97.043468 32.966617)",
      "poi_name": "The Red Lantern",
      "osm_id": 2919662298,
      "amenity": "restaurant",
      "cuisine": "chinese"
    },
    {
      "id": 39695,
      "geometry": "POINT (-97.043468 32.966617)",
      "poi_name": "Malgudi Gardens",
      "osm_id": 2934934777,
      "amenity": "restaurant",
      "cuisine": "indian",
      "website": "http://malgudigardentx.com/",
      "phone": "+1-800-886-5253",
      "addr_state": "TX",
      "addr_city": "Plano",
      "addr_postcode": "75024",
      "addr_street": "Tennyson Parkway"
    },
    {
      "id": 39716,
      "geometry": "POINT (-97.043468 32.966617)",
      "poi_name": "Mi Cocina",
      "osm_id": 2936291078,
      "amenity": "restaurant"
    },
    {
      "id": 39836,
      "geometry": "POINT (-97.043468 32.966617)",
      "poi_name": "On The Border",
      "osm_id": 2941379598,
      "amenity": "restaurant",
      "cuisine": "burger",
      "official_name": "On The Border Mexican Grill & Cantina"
    },
    {
      "id": 39838,
      "geometry": "POINT (-97.043468 32.966617)",
      "poi_name": "Samui Thai Cuisine",
      "osm_id": 2941379600,
      "amenity": "restaurant",
      "cuisine": "thai"
    },
    {
      "id": 39839,
      "geometry": "POINT (-97.043468 32.966617)",
      "poi_name": "Zoe's Kitchen",
      "osm_id": 2941379603,
      "amenity": "restaurant"
    },
    {
      "id": 37409,
      "geometry": "POINT (-97.043468 32.966617)",
      "poi_name": "Angelo & Vito's Pizzeria",
      "osm_id": 2810294207,
      "amenity": "restaurant",
      "cuisine": "pizza",
      "website": "http://aandvpizzeriaplano.menufy.com/",
      "addr_street": "Independence Parkway",
      "addr_housenumber": "7000"
    },
    {
      "id": 37436,
      "geometry": "POINT (-97.043468 32.966617)",
      "poi_name": "Cozy Thai",
      "osm_id": 2810335888,
      "amenity": "restaurant",
      "cuisine": "thai",
      "website": "http://cozythairestaurant.menufy.com/",
      "addr_street": "Hwy 121",
      "addr_housenumber": "5333"
    },
    {
      "id": 37437,
      "geometry": "POINT (-97.043468 32.966617)",
      "poi_name": "Palio's Pizza Cafe",
      "osm_id": 2810336216,
      "amenity": "restaurant",
      "cuisine": "pizza",
      "website": "http://paliosthecolony.com/",
      "addr_street": "Main Street",
      "addr_housenumber": "4181"
    },
    {
      "id": 42585,
      "geometry": "POINT (-97.043468 32.966617)",
      "poi_name": "Blue Ocean Sushi & Habachi Grill",
      "osm_id": 3070035072,
      "amenity": "restaurant",
      "cuisine": "asian"
    },
    {
      "id": 49233,
      "geometry": "POINT (-97.043468 32.966617)",
      "poi_name": "Chili's",
      "osm_id": 3420160703,
      "amenity": "restaurant",
      "cuisine": "tex-mex",
      "official_name": "Chili's Grill & Bar"
    },
    {
      "id": 42813,
      "geometry": "POINT (-97.043468 32.966617)",
      "poi_name": "Lucky 99",
      "osm_id": 3080847886,
      "amenity": "restaurant",
      "cuisine": "chinese"
    },
    {
      "id": 42814,
      "geometry": "POINT (-97.043468 32.966617)",
      "poi_name": "Le Peep",
      "osm_id": 3080854264,
      "amenity": "restaurant",
      "cuisine": "american"
    },
    {
      "id": 42815,
      "geometry": "POINT (-97.043468 32.966617)",
      "poi_name": "Jet's Pizza",
      "osm_id": 3080858026,
      "amenity": "restaurant",
      "cuisine": "pizza",
      "opening_hours": "Su-Th 10:00-21:00; Fr-Sa 10:00-22:00",
      "website": "https://www.jetspizza.com/stores/texas/frisco/7151-preston-rd/",
      "phone": "+1 214 705 0860",
      "addr_state": "TX",
      "addr_city": "Frisco",
      "addr_postcode": "75034",
      "addr_street": "Preston Road",
      "addr_housenumber": "7151"
    },
    {
      "id": 42816,
      "geometry": "POINT (-97.043468 32.966617)",
      "poi_name": "Hot Wok Cafe",
      "osm_id": 3080859437,
      "amenity": "restaurant",
      "cuisine": "asian"
    },
    {
      "id": 43159,
      "geometry": "POINT (-97.043468 32.966617)",
      "poi_name": "Babe's Chicken Dinner House",
      "osm_id": 3097510288,
      "amenity": "restaurant",
      "cuisine": "regional",
      "wheelchair": "yes",
      "opening_hours": "Mo-Fr 11:00-14:00,17:00-21:00, Sa-Su 11:00-21:00",
      "website": "https://www.babeschicken.com/our-kitchens/frisco/",
      "phone": "+1-214-387-9500",
      "addr_city": "Frisco",
      "addr_postcode": "75034",
      "addr_street": "Page Street",
      "addr_housenumber": "6475"
    },
    {
      "id": 43085,
      "geometry": "POINT (-97.043468 32.966617)",
      "poi_name": "Mannys Tex-Mex Grill",
      "osm_id": 3093440833,
      "amenity": "restaurant",
      "cuisine": "mexican",
      "addr_city": "Frisco",
      "addr_street": "Main Street",
      "addr_housenumber": "6705"
    },
    {
      "id": 43086,
      "geometry": "POINT (-97.043468 32.966617)",
      "poi_name": "Randy's Steakhouse",
      "osm_id": 3093441057,
      "amenity": "restaurant",
      "cuisine": "steak_house",
      "opening_hours": "Mo-Su 17:00-22:00",
      "website": "https://randyssteakhouse.com/",
      "addr_city": "Frisco",
      "addr_street": "Main Street",
      "addr_housenumber": "7026"
    },
    {
      "id": 54592,
      "geometry": "POINT (-97.043468 32.966617)",
      "poi_name": "ChopShop Sports Garage",
      "osm_id": 10141919853,
      "amenity": "restaurant",
      "cuisine": "american;burger;sandwich",
      "opening_hours": "Su-Sa 11:00-02:00",
      "website": "https://www.chopshopmckinney.com/",
      "phone": "214-618-1004",
      "addr_state": "TX",
      "addr_city": "McKinney",
      "addr_postcode": "75070",
      "addr_street": "State Highway 121",
      "addr_housenumber": "7560"
    },
    {
      "id": 49464,
      "geometry": "POINT (-97.043468 32.966617)",
      "poi_name": "Tierney's",
      "osm_id": 3434697683,
      "amenity": "restaurant",
      "cuisine": "american"
    },
    {
      "id": 50779,
      "geometry": "POINT (-97.043468 32.966617)",
      "poi_name": "Taco Ocho",
      "osm_id": 3506109452,
      "amenity": "restaurant",
      "cuisine": "mexican",
      "addr_state": "TX",
      "addr_city": "Frisco",
      "addr_postcode": "75034",
      "addr_street": "Legacy Drive",
      "addr_housenumber": "3492"
    },
    {
      "id": 55938,
      "geometry": "POINT (-97.043468 32.966617)",
      "poi_name": "The Elwood B.F.D.",
      "osm_id": 10216245208,
      "amenity": "restaurant",
      "cuisine": "american",
      "opening_hours": "Mo-We 16:00-02:00; Th-Su 11:00-02:00",
      "website": "https://www.theelwoodbfd.com/",
      "addr_state": "TX",
      "addr_city": "McKinney",
      "addr_postcode": "75070",
      "addr_street": "State Highway 121",
      "addr_housenumber": "7550"
    },
    {
      "id": 54820,
      "geometry": "POINT (-97.043468 32.966617)",
      "poi_name": "The Grind Burger Bar - McKinney",
      "osm_id": 10158110311,
      "amenity": "restaurant",
      "cuisine": "american;burger",
      "addr_state": "TX",
      "addr_city": "McKinney",
      "addr_postcode": "75070",
      "addr_street": "Stacy Road",
      "addr_housenumber": "7500"
    },
    {
      "id": 54825,
      "geometry": "POINT (-97.043468 32.966617)",
      "poi_name": "Wulf Burger",
      "osm_id": 10158165284,
      "amenity": "restaurant",
      "cuisine": "burger",
      "addr_state": "TX",
      "addr_city": "McKinney",
      "addr_postcode": "75070",
      "addr_street": "Stacy Road",
      "addr_housenumber": "7701"
    },
    {
      "id": 54826,
      "geometry": "POINT (-97.043468 32.966617)",
      "poi_name": "The Alley Noodle Bar",
      "osm_id": 10158165287,
      "amenity": "restaurant",
      "cuisine": "noodle",
      "addr_state": "TX",
      "addr_city": "McKinney",
      "addr_postcode": "75070",
      "addr_street": "Stacy Road",
      "addr_housenumber": "7710"
    },
    {
      "id": 55955,
      "geometry": "POINT (-97.043468 32.966617)",
      "poi_name": "Marco's Pizza",
      "osm_id": 10218076185,
      "amenity": "restaurant",
      "cuisine": "pizza"
    },
    {
      "id": 56005,
      "geometry": "POINT (-97.043468 32.966617)",
      "poi_name": "Twin Peaks",
      "osm_id": 10220518884,
      "amenity": "restaurant",
      "cuisine": "american",
      "wheelchair": "yes",
      "opening_hours": "Su-Th 11:00-24:00, Fr,Sa 11:00-01:00",
      "takeaway": "yes",
      "outdoor_seating": "yes",
      "toilets": "yes"
    },
    {
      "id": 56113,
      "geometry": "POINT (-97.043468 32.966617)",
      "poi_name": "Tupelo Honey",
      "osm_id": 10224822774,
      "amenity": "restaurant",
      "cuisine": "american",
      "website": "https://tupelohoneycafe.com/",
      "addr_state": "TX",
      "addr_city": "Frisco",
      "addr_postcode": "75034",
      "addr_street": "Winning Drive",
      "addr_housenumber": "6725"
    },
    {
      "id": 56114,
      "geometry": "POINT (-97.043468 32.966617)",
      "poi_name": "Cane Rosso",
      "osm_id": 10224822776,
      "amenity": "restaurant",
      "cuisine": "pizza",
      "website": "https://www.canerosso.com/",
      "addr_state": "TX",
      "addr_city": "Frisco",
      "addr_postcode": "75034",
      "addr_street": "The Star Boulevard",
      "addr_housenumber": "3685"
    },
    {
      "id": 56126,
      "geometry": "POINT (-97.043468 32.966617)",
      "poi_name": "Yum Asian Bistro",
      "osm_id": 10224909445,
      "amenity": "restaurant",
      "cuisine": "chinese"
    },
    {
      "id": 56127,
      "geometry": "POINT (-97.043468 32.966617)",
      "poi_name": "Casa del Bro",
      "osm_id": 10224909446,
      "amenity": "restaurant"
    },
    {
      "id": 66647,
      "geometry": "POINT (-97.043468 32.966617)",
      "poi_name": "Masala Wok",
      "osm_id": 11203294937,
      "amenity": "restaurant",
      "addr_postcode": "75024",
      "addr_street": "Preston Road",
      "addr_housenumber": "8404"
    },
    {
      "id": 59423,
      "geometry": "POINT (-97.043468 32.966617)",
      "poi_name": "Pei Wei",
      "osm_id": 5425252402,
      "amenity": "restaurant",
      "cuisine": "asian"
    },
    {
      "id": 59424,
      "geometry": "POINT (-97.043468 32.966617)",
      "poi_name": "Pie Five",
      "osm_id": 5425252403,
      "amenity": "restaurant",
      "cuisine": "pizza"
    },
    {
      "id": 61066,
      "geometry": "POINT (-97.043468 32.966617)",
      "poi_name": "bl\u00fa",
      "osm_id": 5497181838,
      "amenity": "restaurant",
      "website": "https://www.allenisd.org/Blu",
      "takeaway": "no"
    },
    {
      "id": 56726,
      "geometry": "POINT (-97.043468 32.966617)",
      "poi_name": "Palia's Pizza Cafe",
      "osm_id": 10246877043,
      "amenity": "restaurant",
      "cuisine": "pizza"
    },
    {
      "id": 65096,
      "geometry": "POINT (-97.043468 32.966617)",
      "poi_name": "Fuzzy's Taco",
      "osm_id": 5685808567,
      "amenity": "restaurant"
    },
    {
      "id": 70751,
      "geometry": "POINT (-97.043468 32.966617)",
      "poi_name": "Texas Pho House",
      "osm_id": 11372654237,
      "amenity": "restaurant",
      "cuisine": "vietnamese",
      "opening_hours": "Mo-Su 10:00-22:00",
      "website": "https://texasphohouse.site/",
      "phone": "4696777212",
      "addr_state": "TX",
      "addr_city": "Frisco",
      "addr_postcode": "75035",
      "addr_street": "Prestmont Place",
      "addr_housenumber": "9144"
    },
    {
      "id": 69207,
      "geometry": "POINT (-97.043468 32.966617)",
      "poi_name": "CAVA",
      "osm_id": 11296574459,
      "amenity": "restaurant",
      "cuisine": "mediterranean"
    },
    {
      "id": 69624,
      "geometry": "POINT (-97.043468 32.966617)",
      "poi_name": "Silver Spoon Restaurant",
      "osm_id": 11315904489,
      "amenity": "restaurant",
      "cuisine": "pakistani",
      "opening_hours": "Mo-Fr 11:00-21:00; Sa 12:00-22:00",
      "website": "https://silverspoonrestaurant.us/",
      "phone": "+1-972-907-0090"
    },
    {
      "id": 70040,
      "geometry": "POINT (-97.043468 32.966617)",
      "poi_name": "Mi Cocina",
      "osm_id": 11341929331,
      "amenity": "restaurant",
      "cuisine": "mexican",
      "outdoor_seating": "yes"
    },
    {
      "id": 70508,
      "geometry": "POINT (-97.043468 32.966617)",
      "poi_name": "Jason's Deli",
      "osm_id": 11365210068,
      "amenity": "restaurant",
      "cuisine": "sandwich"
    },
    {
      "id": 70877,
      "geometry": "POINT (-97.043468 32.966617)",
      "poi_name": "Esquina Del Sabor",
      "osm_id": 11375875765,
      "amenity": "restaurant",
      "cuisine": "mexican",
      "opening_hours": "Mo-Sa 11:00-22:00; Su 11:00-22:00; PH closed",
      "takeaway": "yes",
      "outdoor_seating": "yes",
      "addr_state": "TX",
      "addr_city": "Lewisville",
      "addr_postcode": "75067",
      "addr_street": "I-35E Frontage Road"
    },
    {
      "id": 71527,
      "geometry": "POINT (-97.043468 32.966617)",
      "poi_name": "Dami",
      "osm_id": 11393262502,
      "amenity": "restaurant",
      "cuisine": "korean"
    },
    {
      "id": 71447,
      "geometry": "POINT (-97.043468 32.966617)",
      "poi_name": "Cafe MYEON",
      "osm_id": 11390924371,
      "amenity": "restaurant"
    },
    {
      "id": 71451,
      "geometry": "POINT (-97.043468 32.966617)",
      "poi_name": "Yorienn",
      "osm_id": 11390924395,
      "amenity": "restaurant",
      "cuisine": "korean"
    },
    {
      "id": 70868,
      "geometry": "POINT (-97.043468 32.966617)",
      "poi_name": "Taqueria Guadalajara Mexican Food",
      "osm_id": 11375850394,
      "amenity": "restaurant",
      "cuisine": "mexican;tex-mex",
      "wheelchair": "yes",
      "opening_hours": "Mo,We-Th,Su 06:00-22:00; Fr-Sa 06:00-24:00; PH closed",
      "takeaway": "yes",
      "outdoor_seating": "yes",
      "toilets": "yes",
      "addr_state": "TX",
      "addr_city": "Lewisville",
      "addr_postcode": "75067",
      "addr_street": "Fox Avenue",
      "addr_housenumber": "170"
    },
    {
      "id": 71550,
      "geometry": "POINT (-97.043468 32.966617)",
      "poi_name": "SUBEN Sushi",
      "osm_id": 11393408401,
      "amenity": "restaurant",
      "cuisine": "sushi",
      "wheelchair": "limited",
      "opening_hours": "Tu-Fr 12:00-21:30; Sa 13:00-21:30; Su 13:00-21:30"
    },
    {
      "id": 71548,
      "geometry": "POINT (-97.043468 32.966617)",
      "poi_name": "Sushi Nekko",
      "osm_id": 11393408399,
      "amenity": "restaurant",
      "cuisine": "japanese"
    },
    {
      "id": 74297,
      "geometry": "POINT (-97.043468 32.966617)",
      "poi_name": "Tight Ends Sports Bar",
      "osm_id": 9674168681,
      "amenity": "restaurant",
      "cuisine": "burger",
      "website": "https://tightendssportsbar.net/",
      "phone": "+1 469 850 6796",
      "addr_state": "TX",
      "addr_city": "Plano",
      "addr_postcode": "75024",
      "addr_street": "State Highway 121",
      "addr_housenumber": "5584"
    },
    {
      "id": 74224,
      "geometry": "POINT (-97.043468 32.966617)",
      "poi_name": "Fowl N Out",
      "osm_id": 9671011864,
      "amenity": "restaurant",
      "cuisine": "chicken",
      "website": "https://www.fowlnout.com/",
      "phone": "4695795185",
      "addr_state": "TX",
      "addr_city": "Little Elm",
      "addr_postcode": "75068",
      "addr_street": "West Eldorado Parkway",
      "addr_housenumber": "407"
    },
    {
      "id": 77074,
      "geometry": "POINT (-97.043468 32.966617)",
      "poi_name": "Sushi Go",
      "osm_id": 9805536571,
      "amenity": "restaurant",
      "cuisine": "sushi",
      "opening_hours": "Mo-Sa 11:00-21:00, Su 16:00-21:00",
      "website": "https://sushigoplanotx.com",
      "phone": "214-227-1818",
      "addr_state": "TX",
      "addr_city": "Plano",
      "addr_postcode": "75024",
      "addr_street": "Coit Rd",
      "addr_housenumber": "6909"
    },
    {
      "id": 75588,
      "geometry": "POINT (-97.043468 32.966617)",
      "poi_name": "Love Sushi",
      "osm_id": 9736221423,
      "amenity": "restaurant",
      "cuisine": "asian;sushi",
      "wheelchair": "limited",
      "opening_hours": "Mo-Fr 11:00-14:30,16:30-22:00; Sa-Su 12:00-15:30,15:30-22:00; PH off",
      "website": "https://www.lovesushifrisco.com/",
      "phone": "+12148721247",
      "takeaway": "yes",
      "addr_state": "TX",
      "addr_city": "Frisco",
      "addr_postcode": "75034",
      "addr_street": "Farm-to-Market Road 423",
      "addr_housenumber": "12398"
    },
    {
      "id": 76197,
      "geometry": "POINT (-97.043468 32.966617)",
      "poi_name": "Numero 28 Allen Ristorante Pizzeria",
      "osm_id": 9764645731,
      "amenity": "restaurant",
      "opening_hours": "Mo off; Tu-Su 12:00-21:00",
      "website": "https://www.numero28allen.com",
      "phone": "972-678-0384",
      "addr_state": "TX",
      "addr_city": "Allen",
      "addr_postcode": "75002",
      "addr_street": "East Stacy Rd, #1404",
      "addr_housenumber": "190"
    },
    {
      "id": 74502,
      "geometry": "POINT (-97.043468 32.966617)",
      "poi_name": "Bavette Grill",
      "osm_id": 9682890422,
      "amenity": "restaurant",
      "addr_street": "Dallas Parkway",
      "addr_housenumber": "8100"
    },
    {
      "id": 74583,
      "geometry": "POINT (-97.043468 32.966617)",
      "poi_name": "Twinkle Donuts",
      "osm_id": 9686452478,
      "amenity": "restaurant",
      "cuisine": "donut",
      "phone": "+19723700626",
      "addr_state": "TX",
      "addr_city": "The Colony",
      "addr_postcode": "75056",
      "addr_street": "South Colony Boulevard",
      "addr_housenumber": "5401"
    },
    {
      "id": 74584,
      "geometry": "POINT (-97.043468 32.966617)",
      "poi_name": "The Rice Bar",
      "osm_id": 9686458104,
      "amenity": "restaurant",
      "cuisine": "korean",
      "website": "https://www.thericebarcolony.com/",
      "phone": "+19723700626",
      "addr_state": "TX",
      "addr_city": "The Colony",
      "addr_postcode": "75056",
      "addr_street": "South Colony Boulevard",
      "addr_housenumber": "5401"
    },
    {
      "id": 84789,
      "geometry": "POINT (-97.043468 32.966617)",
      "poi_name": "Cotton Patch Cafe",
      "osm_id": 1816089102,
      "amenity": "restaurant",
      "cuisine": "american"
    },
    {
      "id": 77141,
      "geometry": "POINT (-97.043468 32.966617)",
      "poi_name": "Roma's Italian Restaurant",
      "osm_id": 9809135454,
      "amenity": "restaurant",
      "cuisine": "italian",
      "website": "https://www.romasrestaurantmenu.com/?utm_source=gbp",
      "phone": "214-893-7861",
      "addr_state": "TX",
      "addr_city": "Prosper",
      "addr_postcode": "75078",
      "addr_street": "East University Drive",
      "addr_housenumber": "1361"
    },
    {
      "id": 82659,
      "geometry": "POINT (-97.043468 32.966617)",
      "poi_name": "Fuzzy's Taco Shop",
      "osm_id": 1707579442,
      "amenity": "restaurant",
      "cuisine": "mexican",
      "website": "https://www.fuzzystacoshop.com/",
      "addr_postcode": "75007",
      "addr_street": "N Josey Lane",
      "addr_housenumber": "4112, Ste 108"
    },
    {
      "id": 91529,
      "geometry": "POINT (-97.043468 32.966617)",
      "poi_name": "Jason's Deli",
      "osm_id": 2071750258,
      "amenity": "restaurant",
      "cuisine": "sandwich"
    },
    {
      "id": 88194,
      "geometry": "POINT (-97.043468 32.966617)",
      "poi_name": "The Yard",
      "osm_id": 8773107392,
      "amenity": "restaurant"
    },
    {
      "id": 87234,
      "geometry": "POINT (-97.043468 32.966617)",
      "poi_name": "Cantina Laredo",
      "osm_id": 8699287632,
      "amenity": "restaurant",
      "cuisine": "mexican",
      "opening_hours": "Mo-Su 11:00-21:00",
      "website": "https://cantinalaredo.com/",
      "phone": "+1 214-618-9860",
      "addr_state": "TX",
      "addr_city": "Frisco",
      "addr_postcode": "75034",
      "addr_street": "Legacy Drive",
      "addr_housenumber": "1125"
    },
    {
      "id": 89442,
      "geometry": "POINT (-97.043468 32.966617)",
      "poi_name": "Leo's Brunch House",
      "osm_id": 8846079552,
      "amenity": "restaurant",
      "phone": "469 289 3738",
      "addr_state": "TX",
      "addr_city": "Carrollton",
      "addr_postcode": "75010",
      "addr_street": "Highway 121",
      "addr_housenumber": "4070"
    },
    {
      "id": 91537,
      "geometry": "POINT (-97.043468 32.966617)",
      "poi_name": "Saltgrass Steak House",
      "osm_id": 2072017263,
      "amenity": "restaurant",
      "cuisine": "steak_house"
    },
    {
      "id": 91541,
      "geometry": "POINT (-97.043468 32.966617)",
      "poi_name": "Rockfish Seafood Grill",
      "osm_id": 2072017292,
      "amenity": "restaurant",
      "cuisine": "fish"
    },
    {
      "id": 91538,
      "geometry": "POINT (-97.043468 32.966617)",
      "poi_name": "Rice Lovers",
      "osm_id": 2072017268,
      "amenity": "restaurant",
      "cuisine": "chinese"
    },
    {
      "id": 103922,
      "geometry": "POINT (-97.043468 32.966617)",
      "poi_name": "Tapan Wok",
      "osm_id": 8533416083,
      "amenity": "restaurant",
      "cuisine": "chinese;japanese",
      "website": "https://tapanwok.com/",
      "addr_city": "Prosper",
      "addr_postcode": "75078",
      "addr_street": "North Preston Road",
      "addr_housenumber": "1350"
    },
    {
      "id": 99376,
      "geometry": "POINT (-97.043468 32.966617)",
      "poi_name": "Cici's Pizza",
      "osm_id": 6549759986,
      "amenity": "restaurant",
      "cuisine": "pizza;buffet"
    },
    {
      "id": 101466,
      "geometry": "POINT (-97.043468 32.966617)",
      "poi_name": "China Sun",
      "osm_id": 6630399795,
      "amenity": "restaurant",
      "cuisine": "chinese"
    },
    {
      "id": 101467,
      "geometry": "POINT (-97.043468 32.966617)",
      "poi_name": "Jalape\u00f1o's Mexican Grill",
      "osm_id": 6630399804,
      "amenity": "restaurant",
      "cuisine": "mexican",
      "addr_state": "TX",
      "addr_city": "McKinney",
      "addr_postcode": "75069",
      "addr_street": "West University Drive",
      "addr_housenumber": "1502"
    },
    {
      "id": 103511,
      "geometry": "POINT (-97.043468 32.966617)",
      "poi_name": "Roti Grill",
      "osm_id": 8505807732,
      "amenity": "restaurant",
      "cuisine": "indian",
      "website": "https://freshindianfood.com/frisco/",
      "addr_state": "TX",
      "addr_city": "Frisco",
      "addr_postcode": "75034",
      "addr_street": "Gaylord Parkway",
      "addr_housenumber": "3675"
    },
    {
      "id": 103512,
      "geometry": "POINT (-97.043468 32.966617)",
      "poi_name": "Trophy Club",
      "osm_id": 8505807733,
      "amenity": "restaurant",
      "cuisine": "american"
    },
    {
      "id": 103513,
      "geometry": "POINT (-97.043468 32.966617)",
      "poi_name": "Howard Wang's",
      "osm_id": 8505807734,
      "amenity": "restaurant",
      "cuisine": "chinese"
    },
    {
      "id": 103068,
      "geometry": "POINT (-97.043468 32.966617)",
      "poi_name": "Corky's Gaming Bistro",
      "osm_id": 8479351570,
      "amenity": "restaurant"
    },
    {
      "id": 103384,
      "geometry": "POINT (-97.043468 32.966617)",
      "poi_name": "Lita's La Mexicana",
      "osm_id": 8498559654,
      "amenity": "restaurant",
      "cuisine": "mexican",
      "website": "https://www.litasdallas.com/",
      "addr_street": "Independence Parkway",
      "addr_housenumber": "7224"
    },
    {
      "id": 103386,
      "geometry": "POINT (-97.043468 32.966617)",
      "poi_name": "Zalat Pizza",
      "osm_id": 8498559662,
      "amenity": "restaurant",
      "cuisine": "pizza",
      "addr_street": "Independence Parkway",
      "addr_housenumber": "7224"
    },
    {
      "id": 103392,
      "geometry": "POINT (-97.043468 32.966617)",
      "poi_name": "Up Inspired Kitchen",
      "osm_id": 8498694697,
      "amenity": "restaurant",
      "cuisine": "breakfast",
      "website": "https://www.upinspiredkitchen.com/"
    },
    {
      "id": 103393,
      "geometry": "POINT (-97.043468 32.966617)",
      "poi_name": "Tupy's",
      "osm_id": 8498694703,
      "amenity": "restaurant",
      "cuisine": "mexican"
    },
    {
      "id": 103925,
      "geometry": "POINT (-97.043468 32.966617)",
      "poi_name": "Eddie's Napolis Ristorante Italiano",
      "osm_id": 8533416086,
      "amenity": "restaurant",
      "cuisine": "italian",
      "website": "https://www.napolisprosper.com/",
      "addr_city": "Prosper",
      "addr_postcode": "75078",
      "addr_street": "North Preston Road",
      "addr_housenumber": "1450"
    },
    {
      "id": 108031,
      "geometry": "POINT (-97.043468 32.966617)",
      "poi_name": "Noodle Wave",
      "osm_id": 3590872182,
      "amenity": "restaurant",
      "cuisine": "noodle",
      "addr_city": "Frisco",
      "addr_street": "State Highway 121",
      "addr_housenumber": "9288"
    },
    {
      "id": 108033,
      "geometry": "POINT (-97.043468 32.966617)",
      "poi_name": "Luigi's Pizza",
      "osm_id": 3590892818,
      "amenity": "restaurant",
      "cuisine": "pizza",
      "phone": "972-712-5850",
      "addr_city": "Frisco",
      "addr_street": "Preston Road",
      "addr_housenumber": "4944"
    },
    {
      "id": 112077,
      "geometry": "POINT (-97.043468 32.966617)",
      "poi_name": "Kelly's At The Village",
      "osm_id": 3780008568,
      "amenity": "restaurant"
    },
    {
      "id": 108121,
      "geometry": "POINT (-97.043468 32.966617)",
      "poi_name": "Adyar Ananda Bhavan",
      "osm_id": 3596938677,
      "amenity": "restaurant",
      "cuisine": "indian",
      "opening_hours": "Mo-Th 11:30-15:00,17:30-22:00; Fr 11:30-15:00,17:00-22:30; Sa 09:00-15:00,18:00-22:30; Su 09:00-15:30,18:00-22:00",
      "website": "http://www.a2bfrisco.com",
      "phone": "+1-214-872-2345",
      "takeaway": "yes",
      "toilets": "yes",
      "addr_city": "Frisco",
      "addr_street": "Preston Road",
      "addr_housenumber": "2429"
    },
    {
      "id": 108122,
      "geometry": "POINT (-97.043468 32.966617)",
      "poi_name": "The Cheesecake Factory",
      "osm_id": 3596940346,
      "amenity": "restaurant",
      "cuisine": "american",
      "addr_state": "TX",
      "addr_city": "Frisco",
      "addr_postcode": "75034",
      "addr_street": "Preston Road",
      "addr_housenumber": "2601"
    },
    {
      "id": 108124,
      "geometry": "POINT (-97.043468 32.966617)",
      "poi_name": "Bubba's Cooks Country",
      "osm_id": 3596943493,
      "amenity": "restaurant",
      "cuisine": "sandwich;salad;chicken",
      "opening_hours": "Mo-Sa 10:30-22:00; Su 10:30-21:00",
      "phone": "+1-214-436-4455",
      "takeaway": "yes",
      "addr_state": "TX",
      "addr_city": "Frisco",
      "addr_postcode": "75034",
      "addr_street": "Preston Road",
      "addr_housenumber": "4585"
    },
    {
      "id": 108129,
      "geometry": "POINT (-97.043468 32.966617)",
      "poi_name": "Marianas Taco Shop",
      "osm_id": 3597276901,
      "amenity": "restaurant",
      "cuisine": "mexican",
      "website": "https://www.marianastacoshoptx.com/",
      "addr_city": "Frisco",
      "addr_street": "5th Street",
      "addr_housenumber": "8981"
    },
    {
      "id": 115193,
      "geometry": "POINT (-97.043468 32.966617)",
      "poi_name": "Thai Noodle Wave",
      "osm_id": 3917162260,
      "amenity": "restaurant"
    },
    {
      "id": 114437,
      "geometry": "POINT (-97.043468 32.966617)",
      "poi_name": "Black Walnut Cafe",
      "osm_id": 3882756674,
      "amenity": "restaurant"
    },
    {
      "id": 116980,
      "geometry": "POINT (-97.043468 32.966617)",
      "poi_name": "Chante Mexican Grill & Cantina",
      "osm_id": 8972977773,
      "amenity": "restaurant",
      "cuisine": "mexican",
      "wheelchair": "yes",
      "opening_hours": "Fr,Sa 11:00-23:00,11:00-21:00",
      "operator": "Chante",
      "takeaway": "yes",
      "toilets": "yes",
      "addr_state": "TX",
      "addr_city": "Lewisville",
      "addr_postcode": "75067",
      "addr_street": "West Round Grove Road"
    },
    {
      "id": 115916,
      "geometry": "POINT (-97.043468 32.966617)",
      "poi_name": "Rockin' Taco & Tex-Mex",
      "osm_id": 8918680589,
      "amenity": "restaurant",
      "cuisine": "tex-mex",
      "website": "https://www.rockintacofrisco.com/",
      "phone": "+1-469-888-4308",
      "addr_state": "TX",
      "addr_city": "Frisco",
      "addr_postcode": "75033",
      "addr_street": "Main Street",
      "addr_housenumber": "6890"
    },
    {
      "id": 120074,
      "geometry": "POINT (-97.043468 32.966617)",
      "poi_name": "Palio's Pizza Cafe",
      "osm_id": 9138846319,
      "amenity": "restaurant",
      "cuisine": "pizza",
      "opening_hours": "Su-Th 11:00-21:00, Fr-Sa 11:00-22:00",
      "website": "http://paliosmelissa.com/",
      "phone": "+19728372003",
      "addr_state": "TX",
      "addr_city": "Melissa",
      "addr_postcode": "75454",
      "addr_street": "McKinney Street",
      "addr_housenumber": "1521"
    },
    {
      "id": 119172,
      "geometry": "POINT (-97.043468 32.966617)",
      "poi_name": "The Rock Yard",
      "osm_id": 9085257275,
      "amenity": "restaurant",
      "cuisine": "pizza;burger;wings",
      "phone": "903-989-2020",
      "addr_state": "TX",
      "addr_city": "Trenton",
      "addr_postcode": "75490",
      "addr_street": "Hwy 121"
    },
    {
      "id": 119483,
      "geometry": "POINT (-97.043468 32.966617)",
      "poi_name": "The Oasis TX",
      "osm_id": 9104321080,
      "amenity": "restaurant",
      "website": "http://theoasistx.com/",
      "addr_state": "TX",
      "addr_city": "The Colony",
      "addr_postcode": "75056",
      "addr_street": "Cascades Court",
      "addr_housenumber": "6500"
    },
    {
      "id": 121486,
      "geometry": "POINT (-97.043468 32.966617)",
      "poi_name": "Red Lobster",
      "osm_id": 6764030288,
      "amenity": "restaurant",
      "cuisine": "seafood",
      "opening_hours": "Mo-Th, Su 11:00-22:00; Fr, Sa 11:00-23:00",
      "website": "https://www.redlobster.com/locations/list/tx/lewisville/2497-s-stemmons-freeway/",
      "phone": "+1-972-315-6271",
      "addr_street": "South Stemmons Fairway",
      "addr_housenumber": "2497"
    },
    {
      "id": 128970,
      "geometry": "POINT (-97.043468 32.966617)",
      "poi_name": "Kennys Burger Joint",
      "osm_id": 8200141038,
      "amenity": "restaurant",
      "cuisine": "burger"
    },
    {
      "id": 121598,
      "geometry": "POINT (-97.043468 32.966617)",
      "poi_name": "On The Border",
      "osm_id": 6768423662,
      "amenity": "restaurant",
      "cuisine": "tex-mex",
      "official_name": "On The Border Mexican Grill & Cantina"
    },
    {
      "id": 121600,
      "geometry": "POINT (-97.043468 32.966617)",
      "poi_name": "Honest",
      "osm_id": 6768423673,
      "amenity": "restaurant",
      "cuisine": "indian"
    },
    {
      "id": 123035,
      "geometry": "POINT (-97.043468 32.966617)",
      "poi_name": "Saravana Bhavan",
      "osm_id": 6833035985,
      "amenity": "restaurant"
    },
    {
      "id": 124365,
      "geometry": "POINT (-97.043468 32.966617)",
      "poi_name": "Zhang's Kitchen",
      "osm_id": 6914061943,
      "amenity": "restaurant",
      "cuisine": "taiwanese"
    },
    {
      "id": 128973,
      "geometry": "POINT (-97.043468 32.966617)",
      "poi_name": "CraftWay Kitchen",
      "osm_id": 8200141051,
      "amenity": "restaurant"
    },
    {
      "id": 134285,
      "geometry": "POINT (-97.043468 32.966617)",
      "poi_name": "Ramen Hakata",
      "osm_id": 11462948997,
      "amenity": "restaurant",
      "cuisine": "ramen"
    },
    {
      "id": 131366,
      "geometry": "POINT (-97.043468 32.966617)",
      "poi_name": "El Arbol",
      "osm_id": 9912081729,
      "amenity": "restaurant",
      "cuisine": "mexican",
      "opening_hours": "Mo-We 11:00-20:00; Th-Sa 11:00-22:30; Su 11:00-14:30",
      "phone": "+1 903 496 2323",
      "addr_state": "TX",
      "addr_city": "Wolfe City",
      "addr_postcode": "75496",
      "addr_street": "East Main Street",
      "addr_housenumber": "107"
    },
    {
      "id": 132410,
      "geometry": "POINT (-97.043468 32.966617)",
      "poi_name": "Stop -N- Go Gyros",
      "osm_id": 9953469699,
      "amenity": "restaurant",
      "cuisine": "greek",
      "wheelchair": "limited",
      "opening_hours": "Mo-Sa 10:30-20:00; Su 10:30-19:00; PH closed",
      "phone": "+1 469-464-3373",
      "takeaway": "yes",
      "outdoor_seating": "yes",
      "delivery": "Uber Eats",
      "toilets": "yes",
      "addr_state": "TX",
      "addr_street": "South Stemmons Freeway",
      "addr_housenumber": "2601"
    },
    {
      "id": 132028,
      "geometry": "POINT (-97.043468 32.966617)",
      "poi_name": "Fortune Star",
      "osm_id": 9938210774,
      "amenity": "restaurant",
      "cuisine": "chinese;thai"
    },
    {
      "id": 132029,
      "geometry": "POINT (-97.043468 32.966617)",
      "poi_name": "The Crazy German",
      "osm_id": 9938210775,
      "amenity": "restaurant",
      "cuisine": "german"
    },
    {
      "id": 132030,
      "geometry": "POINT (-97.043468 32.966617)",
      "poi_name": "Godfather's Pizza",
      "osm_id": 9938210777,
      "amenity": "restaurant",
      "cuisine": "pizza",
      "opening_hours": "Su-Th 11:00-22:00; Fr, Sa 11:00-23:00",
      "addr_city": "Aubrey",
      "addr_street": "University Drive",
      "addr_housenumber": "27379"
    },
    {
      "id": 132031,
      "geometry": "POINT (-97.043468 32.966617)",
      "poi_name": "Cracked & Crepe",
      "osm_id": 9938210780,
      "amenity": "restaurant",
      "cuisine": "breakfast;lunch"
    },
    {
      "id": 133115,
      "geometry": "POINT (-97.043468 32.966617)",
      "poi_name": "Feng Cha",
      "osm_id": 9980790557,
      "amenity": "restaurant",
      "cuisine": "chinese",
      "wheelchair": "yes",
      "opening_hours": "Mo-Su 12:00-19:00"
    },
    {
      "id": 133604,
      "geometry": "POINT (-97.043468 32.966617)",
      "poi_name": "Taco Hut",
      "osm_id": 10000509105,
      "amenity": "restaurant",
      "cuisine": "mexican",
      "wheelchair": "limited",
      "opening_hours": "24/7",
      "takeaway": "yes",
      "delivery": "Doordash",
      "toilets": "yes"
    },
    {
      "id": 134286,
      "geometry": "POINT (-97.043468 32.966617)",
      "poi_name": "Norma's Cafe",
      "osm_id": 11462948998,
      "amenity": "restaurant",
      "cuisine": "american"
    },
    {
      "id": 143612,
      "geometry": "POINT (-97.043468 32.966617)",
      "poi_name": "Fadis Medeterranean",
      "osm_id": 6345700729,
      "amenity": "restaurant"
    },
    {
      "id": 135537,
      "geometry": "POINT (-97.043468 32.966617)",
      "poi_name": "Sugar Babes Donut Shop & Deli",
      "osm_id": 11520066169,
      "amenity": "restaurant",
      "cuisine": "deli;donut",
      "opening_hours": "Mo-Fr 04:30-18:00; Sa-Su 04:30-14:00",
      "website": "https://www.sugarbabesdonutshop.com/",
      "phone": "+1 (972) 837-2757",
      "addr_postcode": "75454",
      "addr_street": "Sam Rayburn Highway",
      "addr_housenumber": "2212"
    },
    {
      "id": 136507,
      "geometry": "POINT (-97.043468 32.966617)",
      "poi_name": "Chuy's",
      "osm_id": 11587530869,
      "amenity": "restaurant",
      "cuisine": "mexican"
    },
    {
      "id": 139810,
      "geometry": "POINT (-97.043468 32.966617)",
      "poi_name": "Sugarbacon",
      "osm_id": 6216804596,
      "amenity": "restaurant",
      "cuisine": "american"
    },
    {
      "id": 135833,
      "geometry": "POINT (-97.043468 32.966617)",
      "poi_name": "Yama Izakaya & Sushi",
      "osm_id": 11538595394,
      "amenity": "restaurant",
      "cuisine": "japanese;sushi",
      "website": "https://www.yamadallas.com",
      "addr_state": "TX",
      "addr_city": "Plano",
      "addr_postcode": "75024",
      "addr_street": "Preston Rd",
      "addr_housenumber": "8600"
    },
    {
      "id": 140691,
      "geometry": "POINT (-97.043468 32.966617)",
      "poi_name": "Pho Xpress",
      "osm_id": 6257036707,
      "amenity": "restaurant",
      "cuisine": "vietnamese",
      "opening_hours": "Mo-Th, Su 11:00-21:00; Fr, Sa 11:00-21:30",
      "website": "http://phoxpress.com/",
      "phone": "+1-469-763-3299",
      "addr_street": "East Round Grove Road",
      "addr_housenumber": "310"
    },
    {
      "id": 143613,
      "geometry": "POINT (-97.043468 32.966617)",
      "poi_name": "Jinbeh",
      "osm_id": 6345700730,
      "amenity": "restaurant",
      "cuisine": "japanese;sushi",
      "website": "https://jinbeh.com/frisco",
      "phone": "+1-214-619-1200",
      "addr_state": "TX",
      "addr_city": "Frisco",
      "addr_postcode": "75034",
      "addr_street": "Preston Rd",
      "addr_housenumber": "2693"
    },
    {
      "id": 143614,
      "geometry": "POINT (-97.043468 32.966617)",
      "poi_name": "Hyperbad House",
      "osm_id": 6345700731,
      "amenity": "restaurant",
      "cuisine": "indian",
      "addr_state": "TX",
      "addr_city": "Plano"
    },
    {
      "id": 143615,
      "geometry": "POINT (-97.043468 32.966617)",
      "poi_name": "Texas Kabob House",
      "osm_id": 6345700732,
      "amenity": "restaurant",
      "cuisine": "persian"
    },
    {
      "id": 161558,
      "geometry": "POINT (-97.043468 32.966617)",
      "poi_name": "Platia Greek Kouzina",
      "osm_id": 4887402721,
      "amenity": "restaurant",
      "cuisine": "greek",
      "website": "https://www.platiagreek.com/",
      "phone": "+1 972 334 0031",
      "addr_state": "TX",
      "addr_city": "Frisco",
      "addr_postcode": "75034",
      "addr_street": "Preston Road",
      "addr_housenumber": "2995"
    },
    {
      "id": 144061,
      "geometry": "POINT (-97.043468 32.966617)",
      "poi_name": "Hutchins BBQ",
      "osm_id": 6361402386,
      "amenity": "restaurant",
      "cuisine": "barbecue",
      "opening_hours": "Su-Sa 11:00-21:00",
      "website": "https://hutchinsbbq.com/",
      "phone": "+19725482629",
      "addr_state": "TX",
      "addr_city": "McKinney",
      "addr_postcode": "75069",
      "addr_street": "North Tennessee Street",
      "addr_housenumber": "1301"
    },
    {
      "id": 144746,
      "geometry": "POINT (-97.043468 32.966617)",
      "poi_name": "Wing Bucket",
      "osm_id": 7284415714,
      "amenity": "restaurant",
      "cuisine": "wings;chicken;american",
      "addr_state": "TX",
      "addr_city": "McKinney",
      "addr_postcode": "75071",
      "addr_street": "West University Drive",
      "addr_housenumber": "3510"
    },
    {
      "id": 156332,
      "geometry": "POINT (-97.043468 32.966617)",
      "poi_name": "Big Creek BBQ",
      "osm_id": 4650040526,
      "amenity": "restaurant",
      "cuisine": "barbecue"
    },
    {
      "id": 144748,
      "geometry": "POINT (-97.043468 32.966617)",
      "poi_name": "Firo Fire Kissed Pizza",
      "osm_id": 7284415716,
      "amenity": "restaurant",
      "cuisine": "pizza",
      "website": "mckinney.firopizza.com",
      "addr_state": "TX",
      "addr_city": "McKinney",
      "addr_postcode": "75071",
      "addr_street": "West University Drive",
      "addr_housenumber": "3520"
    },
    {
      "id": 144751,
      "geometry": "POINT (-97.043468 32.966617)",
      "poi_name": "First Watch",
      "osm_id": 7284415720,
      "amenity": "restaurant",
      "cuisine": "american;breakfast",
      "website": "https://www.firstwatch.com/",
      "official_name": "First Watch The Daytime Cafe",
      "addr_state": "TX",
      "addr_city": "McKinney",
      "addr_postcode": "75071",
      "addr_street": "West University Drive",
      "addr_housenumber": "3530"
    },
    {
      "id": 147647,
      "geometry": "POINT (-97.043468 32.966617)",
      "poi_name": "Cristina's Fine Mexican Restaurant",
      "osm_id": 7552210448,
      "amenity": "restaurant",
      "cuisine": "tex-mex",
      "wheelchair": "yes",
      "opening_hours": "Mo-Th 11:00-21:00; Fr,Sa 11:00-22:00; Su 11:00-20:00",
      "takeaway": "yes",
      "outdoor_seating": "yes",
      "toilets": "yes"
    },
    {
      "id": 170313,
      "geometry": "POINT (-97.043468 32.966617)",
      "poi_name": "Chicago St Pizza",
      "osm_id": 2331894168,
      "amenity": "restaurant",
      "cuisine": "pizza",
      "website": "www.chicagostreetpizzamckinney.com",
      "internet_access": "no",
      "phone": "+1 972 5487050",
      "takeaway": "yes",
      "outdoor_seating": "no",
      "addr_state": "TX",
      "addr_city": "McKinney",
      "addr_postcode": "75071",
      "addr_street": "University Drive",
      "addr_housenumber": "2414"
    },
    {
      "id": 165419,
      "geometry": "POINT (-97.043468 32.966617)",
      "poi_name": "Emerson Restaurant + Bar",
      "osm_id": 9534845897,
      "amenity": "restaurant",
      "website": "https://www.opentable.com/r/emerson-restaurant-and-bar-frisco?ref=1068",
      "phone": "+19726688700",
      "addr_state": "TX",
      "addr_city": "Frisco",
      "addr_postcode": "75034",
      "addr_street": "State Highway 121",
      "addr_housenumber": "5444"
    },
    {
      "id": 165420,
      "geometry": "POINT (-97.043468 32.966617)",
      "poi_name": "Edoko Sushi & Robata",
      "osm_id": 9534955264,
      "amenity": "restaurant",
      "cuisine": "sushi",
      "opening_hours": "Mo-Th 11:15-14:30,17:00-22:00; Fr 11:15-14:30,17:00-23:00; Sa-Su 17:00-22:00",
      "website": "https://www.edokofrisco.com/location",
      "phone": "+1-214-618-9888",
      "addr_state": "TX",
      "addr_city": "Frisco",
      "addr_postcode": "75034",
      "addr_street": "State Highway 121",
      "addr_housenumber": "5490"
    },
    {
      "id": 165431,
      "geometry": "POINT (-97.043468 32.966617)",
      "poi_name": "Sakura Sushi & Sake Bar",
      "osm_id": 9535426392,
      "amenity": "restaurant",
      "cuisine": "sushi",
      "opening_hours": "Mo-Fr 11:00-21:00; Sa 12:00-21:00",
      "website": "https://sakura-frisco.com/",
      "phone": "+1-214-618-1807",
      "addr_state": "TX",
      "addr_city": "Frisco",
      "addr_postcode": "75034",
      "addr_street": "Legacy Drive",
      "addr_housenumber": "1221"
    },
    {
      "id": 165442,
      "geometry": "POINT (-97.043468 32.966617)",
      "poi_name": "Seven Doors Kitchen & Cocktails",
      "osm_id": 9535771903,
      "amenity": "restaurant",
      "opening_hours": "Su 00:00-01:00,10:00-21:00; Mo-We 11:00-21:00; Th 11:00-23:00; Fr 11:00-00:00, Sa 00:00-01:00,11:00-00:00",
      "website": "https://www.sevendoorskitchen.com/",
      "phone": "+1-972-410-0406",
      "addr_state": "TX",
      "addr_city": "The Colony",
      "addr_postcode": "75056",
      "addr_street": "Grandscape Boulevard",
      "addr_housenumber": "5774"
    },
    {
      "id": 163886,
      "geometry": "POINT (-97.043468 32.966617)",
      "poi_name": "Rudy's Kitchen",
      "osm_id": 9440301935,
      "amenity": "restaurant",
      "cuisine": "mexican",
      "website": "https://www.rudyskitchens.com/",
      "addr_state": "TX",
      "addr_city": "Frisco",
      "addr_postcode": "75034",
      "addr_street": "Main Street",
      "addr_housenumber": "7227"
    },
    {
      "id": 164674,
      "geometry": "POINT (-97.043468 32.966617)",
      "poi_name": "Jeff's Vegan",
      "osm_id": 9494149522,
      "amenity": "restaurant",
      "website": "https://jeffsvegan.squarespace.com/",
      "phone": "+1 469-803-5883",
      "addr_state": "TX",
      "addr_city": "Frisco",
      "addr_postcode": "75034",
      "addr_street": "Preston Road",
      "addr_housenumber": "3580"
    },
    {
      "id": 181111,
      "geometry": "POINT (-97.043468 32.966617)",
      "poi_name": "Jinbeh",
      "osm_id": 10832777588,
      "amenity": "restaurant",
      "cuisine": "japanese",
      "wheelchair": "limited",
      "opening_hours": "Mo-Fr 11:00-14:00 open \"Lunch\"; Sa-Su 11:30-14:30 open \"Lunch\"; PH closed; Mo-Th,Su 17:00-21:00 open \"Dinner\"; Fr-Sa 17:00-22:00 open \"Dinner\"",
      "takeaway": "yes",
      "toilets": "yes"
    },
    {
      "id": 173834,
      "geometry": "POINT (-97.043468 32.966617)",
      "poi_name": "Palio's",
      "osm_id": 2458120711,
      "amenity": "restaurant",
      "cuisine": "pizza",
      "addr_state": "TX",
      "addr_city": "McKinney",
      "addr_street": "Eldorado Parkway"
    },
    {
      "id": 173837,
      "geometry": "POINT (-97.043468 32.966617)",
      "poi_name": "Square Burger",
      "osm_id": 2458166477,
      "amenity": "restaurant",
      "cuisine": "burger"
    },
    {
      "id": 173838,
      "geometry": "POINT (-97.043468 32.966617)",
      "poi_name": "Spoons Cafe",
      "osm_id": 2458166478,
      "amenity": "restaurant",
      "cuisine": "american"
    },
    {
      "id": 173839,
      "geometry": "POINT (-97.043468 32.966617)",
      "poi_name": "Rick's Chop House",
      "osm_id": 2458166479,
      "amenity": "restaurant",
      "cuisine": "steak_house"
    },
    {
      "id": 173840,
      "geometry": "POINT (-97.043468 32.966617)",
      "poi_name": "Cadillac Pizza",
      "osm_id": 2458166481,
      "amenity": "restaurant",
      "cuisine": "pizza"
    },
    {
      "id": 173841,
      "geometry": "POINT (-97.043468 32.966617)",
      "poi_name": "Harvest",
      "osm_id": 2458166484,
      "amenity": "restaurant"
    },
    {
      "id": 179870,
      "geometry": "POINT (-97.043468 32.966617)",
      "poi_name": "Burning Rice",
      "osm_id": 10780218571,
      "amenity": "restaurant",
      "cuisine": "korean",
      "addr_state": "TX",
      "addr_city": "The Colony",
      "addr_postcode": "75056",
      "addr_street": "State Highway 121",
      "addr_housenumber": "5020"
    },
    {
      "id": 172947,
      "geometry": "POINT (-97.043468 32.966617)",
      "poi_name": "Pei Wei",
      "osm_id": 2419673811,
      "amenity": "restaurant",
      "cuisine": "asian",
      "wheelchair": "yes",
      "website": "https://www.peiwei.com/",
      "phone": "+1-214-705-0341",
      "addr_city": "Frisco",
      "addr_postcode": "75034",
      "addr_street": "Main Street",
      "addr_housenumber": "5110"
    },
    {
      "id": 172948,
      "geometry": "POINT (-97.043468 32.966617)",
      "poi_name": "Pie Five",
      "osm_id": 2419674725,
      "amenity": "restaurant",
      "cuisine": "pizza",
      "wheelchair": "yes",
      "website": "https://www.piefivepizza.com/",
      "phone": "+1-214-705-6335",
      "addr_city": "Frisco",
      "addr_postcode": "75034",
      "addr_street": "Main Street",
      "addr_housenumber": "5110"
    },
    {
      "id": 172950,
      "geometry": "POINT (-97.043468 32.966617)",
      "poi_name": "Freebirds World Burrito",
      "osm_id": 2419675848,
      "amenity": "restaurant",
      "cuisine": "mexican",
      "wheelchair": "yes",
      "website": "https://freebirds.com/",
      "phone": "+1-214-872-1007",
      "drive_through": "no",
      "addr_city": "Frisco",
      "addr_postcode": "75034",
      "addr_street": "W Main Street",
      "addr_housenumber": "5170"
    },
    {
      "id": 172951,
      "geometry": "POINT (-97.043468 32.966617)",
      "poi_name": "Trails of Frisco Golf Club",
      "osm_id": 2419683647,
      "amenity": "restaurant",
      "cuisine": "american",
      "wheelchair": "yes",
      "addr_city": "Frisco",
      "addr_postcode": "75033",
      "addr_street": "Teel Parkway",
      "addr_housenumber": "10411"
    },
    {
      "id": 179046,
      "geometry": "POINT (-97.043468 32.966617)",
      "poi_name": "Salata",
      "osm_id": 10746519196,
      "amenity": "restaurant",
      "cuisine": "salad;soup"
    },
    {
      "id": 179047,
      "geometry": "POINT (-97.043468 32.966617)",
      "poi_name": "The Gyro Shop",
      "osm_id": 10746557980,
      "amenity": "restaurant",
      "cuisine": "greek",
      "website": "https://thegyroshoptx.com/",
      "addr_state": "TX",
      "addr_city": "Frisco",
      "addr_postcode": "75034",
      "addr_street": "Gaylord Parkway",
      "addr_housenumber": "8549"
    },
    {
      "id": 179049,
      "geometry": "POINT (-97.043468 32.966617)",
      "poi_name": "Pizza Hut",
      "osm_id": 10746558027,
      "amenity": "restaurant",
      "cuisine": "pizza"
    },
    {
      "id": 179050,
      "geometry": "POINT (-97.043468 32.966617)",
      "poi_name": "La Chine Chinese Cuisine",
      "osm_id": 10746558029,
      "amenity": "restaurant",
      "cuisine": "chinese"
    },
    {
      "id": 179832,
      "geometry": "POINT (-97.043468 32.966617)",
      "poi_name": "Dickey's Barbecue Express",
      "osm_id": 10779088219,
      "amenity": "restaurant",
      "cuisine": "barbecue"
    },
    {
      "id": 179835,
      "geometry": "POINT (-97.043468 32.966617)",
      "poi_name": "Ice2Spice",
      "osm_id": 10779088241,
      "amenity": "restaurant",
      "cuisine": "indian"
    },
    {
      "id": 179836,
      "geometry": "POINT (-97.043468 32.966617)",
      "poi_name": "Abuelo's Mexican Restaurant",
      "osm_id": 10779088242,
      "amenity": "restaurant",
      "cuisine": "mexican"
    },
    {
      "id": 180316,
      "geometry": "POINT (-97.043468 32.966617)",
      "poi_name": "Kimu Sushi",
      "osm_id": 10798136543,
      "amenity": "restaurant",
      "cuisine": "sushi"
    },
    {
      "id": 183652,
      "geometry": "POINT (-97.043468 32.966617)",
      "poi_name": "Canyon Bar & Grill",
      "osm_id": 10939051718,
      "amenity": "restaurant",
      "cuisine": "american;bar&grill",
      "opening_hours": "Mo-Su 11:00-23:00",
      "website": "https://www.marriott.com/en-us/hotels/dalen-marriott-dallas-allen-hotel-and-convention-center/dining/",
      "phone": "+1 469 675 0800",
      "addr_state": "TX",
      "addr_city": "Allen",
      "addr_postcode": "75013",
      "addr_street": "Watters Creek Boulevard",
      "addr_housenumber": "777"
    },
    {
      "id": 182060,
      "geometry": "POINT (-97.043468 32.966617)",
      "poi_name": "Camele\u00f3n Seafood  Restaurant",
      "osm_id": 10876504845,
      "amenity": "restaurant",
      "cuisine": "seafood",
      "opening_hours": "Mo-Th,Su 10:00-20:00; Fr-Sa 10:00-21:00; PH closed",
      "shop": "seafood",
      "takeaway": "yes",
      "toilets": "yes"
    },
    {
      "id": 182061,
      "geometry": "POINT (-97.043468 32.966617)",
      "poi_name": "Ph\u1edf One",
      "osm_id": 10876504846,
      "amenity": "restaurant",
      "cuisine": "vietnamese",
      "wheelchair": "yes",
      "opening_hours": "Mo-Th,Su 10:30-21:00; Fr-Sa 10:30-22:00; PH closed",
      "phone": "9723158888",
      "takeaway": "yes",
      "outdoor_seating": "yes",
      "delivery": "Grubhub",
      "toilets": "yes"
    },
    {
      "id": 182303,
      "geometry": "POINT (-97.043468 32.966617)",
      "poi_name": "Aw Shucks Oyster Bar",
      "osm_id": 10888111058,
      "amenity": "restaurant",
      "cuisine": "american",
      "phone": "+1-972-294-5218",
      "addr_state": "TX",
      "addr_city": "Frisco",
      "addr_postcode": "75034",
      "addr_street": "Preston Road",
      "addr_housenumber": "4710"
    },
    {
      "id": 182317,
      "geometry": "POINT (-97.043468 32.966617)",
      "poi_name": "Bonchon Chicken",
      "osm_id": 10888298698,
      "amenity": "restaurant",
      "cuisine": "chicken;korean;sushi",
      "website": "https://locations.bonchon.com/ll/US/TX/Frisco/4760-Preston-Road",
      "phone": "+14698885510",
      "addr_state": "TX",
      "addr_city": "Frisco",
      "addr_postcode": "75034",
      "addr_street": "Preston Road",
      "addr_housenumber": "4760"
    },
    {
      "id": 182321,
      "geometry": "POINT (-97.043468 32.966617)",
      "poi_name": "Meso Asia",
      "osm_id": 10888465906,
      "amenity": "restaurant",
      "cuisine": "asian",
      "website": "http://www.mesoasia.com/",
      "phone": "+14693881115",
      "addr_state": "TX",
      "addr_city": "Frisco",
      "addr_postcode": "75034",
      "addr_street": "Preston Road",
      "addr_housenumber": "4235"
    },
    {
      "id": 186637,
      "geometry": "POINT (-97.043468 32.966617)",
      "poi_name": "Dickey's Barbecue Pit",
      "osm_id": 7939576296,
      "amenity": "restaurant",
      "cuisine": "barbecue",
      "addr_state": "TX",
      "addr_city": "Sherman",
      "addr_postcode": "75090",
      "addr_street": "West Lamar Street",
      "addr_housenumber": "529"
    },
    {
      "id": 184645,
      "geometry": "POINT (-97.043468 32.966617)",
      "poi_name": "P.F. Chang's",
      "osm_id": 7803956747,
      "amenity": "restaurant",
      "cuisine": "asian",
      "official_name": "P.F. Chang's China Bistro"
    },
    {
      "id": 186919,
      "geometry": "POINT (-97.043468 32.966617)",
      "poi_name": "Lili's Pizza Place",
      "osm_id": 7955870698,
      "amenity": "restaurant",
      "cuisine": "pizza",
      "addr_state": "TX",
      "addr_city": "Denison",
      "addr_postcode": "75020",
      "addr_street": "West Morton Street",
      "addr_housenumber": "2731"
    },
    {
      "id": 186879,
      "geometry": "POINT (-97.043468 32.966617)",
      "poi_name": "Bae's Kitchen",
      "osm_id": 7951868848,
      "amenity": "restaurant",
      "cuisine": "burger;american;chicken;ice_cream;bubble_tea;fried_chicken;dessert",
      "description": "Bae's Kitchen was born out of love for food, simple, delicious, comfort food. We created this kitchen that's means everything to us, thus our 'Bae' was born. Our Kitchen serves a wide variety of items such as Burgers, Cheesesteaks, Tacos, Nashville Hot Ch",
      "wheelchair": "yes",
      "opening_hours": "We-Fr 16:30-21:00; Sa 12:00-21:00; Su 12:00-20:00",
      "website": "https://baeskitchen.business.site",
      "phone": "+1 469-630-2024",
      "takeaway": "yes",
      "outdoor_seating": "yes",
      "delivery": "yes",
      "addr_state": "TX",
      "addr_city": "Lewisville",
      "addr_postcode": "75067",
      "addr_street": "West Round Grove Road",
      "addr_housenumber": "771"
    },
    {
      "id": 194627,
      "geometry": "POINT (-97.043468 32.966617)",
      "poi_name": "Pizza Hut",
      "osm_id": 10279071901,
      "amenity": "restaurant",
      "cuisine": "pizza"
    },
    {
      "id": 194243,
      "geometry": "POINT (-97.043468 32.966617)",
      "poi_name": "Lau Ba Thai",
      "osm_id": 10266696609,
      "amenity": "restaurant",
      "opening_hours": "Mo-Th 11:00-21:00; Fr-Sa 11:00-22:00; Su 12:00-21:00",
      "website": "https://www.laubathai.com/",
      "phone": "9723697266",
      "addr_postcode": "75454",
      "addr_street": "Sam Rayburn Hwy",
      "addr_housenumber": "2435"
    },
    {
      "id": 194835,
      "geometry": "POINT (-97.043468 32.966617)",
      "poi_name": "Hizzy Bar & Restaurant",
      "osm_id": 10286514599,
      "amenity": "restaurant",
      "cuisine": "mexican;pizza;american;burger;wings",
      "wheelchair": "limited",
      "opening_hours": "Mo-Su 17:00-02:00; PH closed",
      "takeaway": "yes",
      "outdoor_seating": "yes",
      "toilets": "yes"
    },
    {
      "id": 195137,
      "geometry": "POINT (-97.043468 32.966617)",
      "poi_name": "Seven Tastes",
      "osm_id": 10295986971,
      "amenity": "restaurant",
      "cuisine": "indian",
      "wheelchair": "limited",
      "opening_hours": "Tu-Fr 11:00-15:30; PH closed; Fr-Su 17:30-21:30",
      "takeaway": "yes",
      "toilets": "yes"
    },
    {
      "id": 195727,
      "geometry": "POINT (-97.043468 32.966617)",
      "poi_name": "Pie Five Pizza",
      "osm_id": 10371886625,
      "amenity": "restaurant",
      "cuisine": "pizza",
      "opening_hours": "Su-Th 11:00-21:00; Fr-Sa 11:00-22:00",
      "website": "https://piefivepizza.com/locations/allen",
      "phone": "+1 (972) 912-3135",
      "addr_postcode": "75002"
    },
    {
      "id": 197047,
      "geometry": "POINT (-97.043468 32.966617)",
      "poi_name": "Parma Pasta & Pizza",
      "osm_id": 10609100227,
      "amenity": "restaurant",
      "cuisine": "pizza;italian;pasta",
      "wheelchair": "limited",
      "opening_hours": "Mo-Th 11:00-21:00; Fr 11:00-22:00; PH closed; Sa 15:00-22:00",
      "takeaway": "yes",
      "outdoor_seating": "yes",
      "toilets": "yes"
    },
    {
      "id": 196421,
      "geometry": "POINT (-97.043468 32.966617)",
      "poi_name": "Pie Five Pizza",
      "osm_id": 10577412141,
      "amenity": "restaurant",
      "cuisine": "pizza",
      "opening_hours": "Tu-Th,Mo,Su 11:00-21:00; Fr-Sa 11:00-22:00",
      "phone": "9729123135",
      "addr_postcode": "75002",
      "addr_street": "East Stacy Road",
      "addr_housenumber": "190"
    },
    {
      "id": 196219,
      "geometry": "POINT (-97.043468 32.966617)",
      "poi_name": "Tokyo Joe's",
      "osm_id": 10569230300,
      "amenity": "restaurant",
      "cuisine": "sushi"
    },
    {
      "id": 197048,
      "geometry": "POINT (-97.043468 32.966617)",
      "poi_name": "Pho Que Huong Vietnamese Restaurant",
      "osm_id": 10609100230,
      "amenity": "restaurant",
      "cuisine": "vietnamese",
      "takeaway": "yes",
      "outdoor_seating": "yes"
    },
    {
      "id": 217698,
      "geometry": "POINT (-97.043468 32.966617)",
      "poi_name": "Del Frisco's Steak House",
      "osm_id": 9239045135,
      "amenity": "restaurant",
      "cuisine": "steak_house",
      "website": "https://www.delfriscos.com/store-locator/"
    },
    {
      "id": 197409,
      "geometry": "POINT (-97.043468 32.966617)",
      "poi_name": "Marco\u2019s Pizza",
      "osm_id": 10647783705,
      "amenity": "restaurant",
      "opening_hours": "Fr-Sa 11:00-00:00; Su-Th 11:00-23:00",
      "website": "https://www.marcos.com/",
      "phone": "(469) 885-8900",
      "addr_postcode": "75454",
      "addr_street": "Sam Rayburn Highway",
      "addr_housenumber": "2231"
    },
    {
      "id": 213755,
      "geometry": "POINT (-97.043468 32.966617)",
      "poi_name": "Cavalli's Pizza Napoletana",
      "osm_id": 5258718528,
      "amenity": "restaurant",
      "cuisine": "italian;pizza"
    },
    {
      "id": 217160,
      "geometry": "POINT (-97.043468 32.966617)",
      "poi_name": "Ellen's",
      "osm_id": 9208689911,
      "amenity": "restaurant",
      "cuisine": "american"
    },
    {
      "id": 217161,
      "geometry": "POINT (-97.043468 32.966617)",
      "poi_name": "Yummy Burgers & BBQ",
      "osm_id": 9208689913,
      "amenity": "restaurant"
    },
    {
      "id": 217162,
      "geometry": "POINT (-97.043468 32.966617)",
      "poi_name": "Tian An Men Square Wok & Grill",
      "osm_id": 9208689914,
      "amenity": "restaurant",
      "cuisine": "chinese"
    },
    {
      "id": 217186,
      "geometry": "POINT (-97.043468 32.966617)",
      "poi_name": "Liberty Burger",
      "osm_id": 9210984894,
      "amenity": "restaurant",
      "addr_state": "TX",
      "addr_city": "Allen",
      "addr_postcode": "75013",
      "addr_street": "West Stacy Road",
      "addr_housenumber": "824"
    },
    {
      "id": 217187,
      "geometry": "POINT (-97.043468 32.966617)",
      "poi_name": "New York Pizza & Pints",
      "osm_id": 9210984896,
      "amenity": "restaurant",
      "cuisine": "pizza"
    },
    {
      "id": 217189,
      "geometry": "POINT (-97.043468 32.966617)",
      "poi_name": "Italia Express",
      "osm_id": 9211002851,
      "amenity": "restaurant",
      "cuisine": "italian"
    },
    {
      "id": 203258,
      "geometry": "POINT (-97.043468 32.966617)",
      "poi_name": "The Original Pancake House",
      "osm_id": 7073919661,
      "amenity": "restaurant",
      "cuisine": "breakfast;pancake",
      "wheelchair": "yes",
      "opening_hours": "Mo-Fr 06:30-14:30; Sa 06:30-15:30; Su 07:00-16:00"
    },
    {
      "id": 203259,
      "geometry": "POINT (-97.043468 32.966617)",
      "poi_name": "The Blue Fish",
      "osm_id": 7073919663,
      "amenity": "restaurant",
      "cuisine": "sushi",
      "wheelchair": "yes",
      "opening_hours": "Mo-Fr 11:00-14:00,17:00-22:00; Sa-Su 12:00-22:00"
    },
    {
      "id": 203260,
      "geometry": "POINT (-97.043468 32.966617)",
      "poi_name": "Chip's Old Fashioned Hamburger",
      "osm_id": 7073944151,
      "amenity": "restaurant",
      "cuisine": "burger",
      "wheelchair": "yes",
      "opening_hours": "Mo-Th,Su 11:00-21:30; Fr-Sa 11:00-22:00",
      "website": "https://chips-hamburgers.com/",
      "outdoor_seating": "yes"
    },
    {
      "id": 203262,
      "geometry": "POINT (-97.043468 32.966617)",
      "poi_name": "Good Union Urban BBQ",
      "osm_id": 7073944153,
      "amenity": "restaurant",
      "cuisine": "barbecue",
      "wheelchair": "yes",
      "opening_hours": "Mo-Th,Su 08:00-21:00; Fr-Sa 08:00-22:00",
      "website": "https://www.goodunionbbq.com/granite-park",
      "outdoor_seating": "yes"
    },
    {
      "id": 203263,
      "geometry": "POINT (-97.043468 32.966617)",
      "poi_name": "Fork & Fire",
      "osm_id": 7073944154,
      "amenity": "restaurant",
      "wheelchair": "yes",
      "opening_hours": "Mo-Th,Su 11:00-21:00; Fr-Sa 11:00-22:00",
      "website": "https://forkandfire.com/",
      "outdoor_seating": "yes"
    },
    {
      "id": 203264,
      "geometry": "POINT (-97.043468 32.966617)",
      "poi_name": "The Biscuit Bar",
      "osm_id": 7073944155,
      "amenity": "restaurant",
      "cuisine": "sandwich",
      "wheelchair": "yes",
      "opening_hours": "Mo-Th,Su 08:00-22:00; Fr-Sa 08:00-23:00",
      "website": "https://www.thebiscuit.bar/boardwalk/",
      "outdoor_seating": "yes"
    },
    {
      "id": 204849,
      "geometry": "POINT (-97.043468 32.966617)",
      "poi_name": "Buffalo Wild Wings",
      "osm_id": 7144835798,
      "amenity": "restaurant",
      "cuisine": "wings",
      "addr_state": "TX",
      "addr_city": "Sherman",
      "addr_postcode": "75090",
      "addr_street": "North Sam Rayburn Freeway",
      "addr_housenumber": "4066"
    },
    {
      "id": 204852,
      "geometry": "POINT (-97.043468 32.966617)",
      "poi_name": "Wok Kitchen",
      "osm_id": 7144875671,
      "amenity": "restaurant",
      "cuisine": "asian",
      "addr_state": "TX",
      "addr_city": "Sherman",
      "addr_postcode": "75090",
      "addr_street": "North Sam Rayburn Freeway",
      "addr_housenumber": "2916"
    },
    {
      "id": 204853,
      "geometry": "POINT (-97.043468 32.966617)",
      "poi_name": "Tokyo Hibachi & Sushi",
      "osm_id": 7144875674,
      "amenity": "restaurant",
      "cuisine": "japanese",
      "addr_state": "TX",
      "addr_city": "Sherman",
      "addr_postcode": "75090",
      "addr_street": "North Sam Rayburn Freeway",
      "addr_housenumber": "2916"
    },
    {
      "id": 204854,
      "geometry": "POINT (-97.043468 32.966617)",
      "poi_name": "King Buffet",
      "osm_id": 7144875677,
      "amenity": "restaurant",
      "cuisine": "chinese",
      "addr_state": "TX",
      "addr_city": "Sherman",
      "addr_postcode": "75090",
      "addr_street": "North Sam Rayburn Freeway",
      "addr_housenumber": "2916"
    },
    {
      "id": 217738,
      "geometry": "POINT (-97.043468 32.966617)",
      "poi_name": "Fogo de Ch\u00e3o",
      "osm_id": 9240501982,
      "amenity": "restaurant",
      "cuisine": "brazilian;steak_house"
    },
    {
      "id": 217739,
      "geometry": "POINT (-97.043468 32.966617)",
      "poi_name": "Legacy Hall",
      "osm_id": 9240501983,
      "amenity": "restaurant"
    },
    {
      "id": 217740,
      "geometry": "POINT (-97.043468 32.966617)",
      "poi_name": "HayWire",
      "osm_id": 9240501984,
      "amenity": "restaurant"
    },
    {
      "id": 217794,
      "geometry": "POINT (-97.043468 32.966617)",
      "poi_name": "True Food Kitchen",
      "osm_id": 9242904963,
      "amenity": "restaurant",
      "cuisine": "american",
      "website": "https://www.truefoodkitchen.com/",
      "phone": "+1 214-291-9591",
      "addr_state": "TX",
      "addr_city": "Plano",
      "addr_postcode": "75024",
      "addr_street": "Windrose Avenue",
      "addr_housenumber": "7601"
    },
    {
      "id": 217795,
      "geometry": "POINT (-97.043468 32.966617)",
      "poi_name": "North Italia",
      "osm_id": 9242904964,
      "amenity": "restaurant"
    },
    {
      "id": 217796,
      "geometry": "POINT (-97.043468 32.966617)",
      "poi_name": "Mesero",
      "osm_id": 9242904965,
      "amenity": "restaurant"
    },
    {
      "id": 217797,
      "geometry": "POINT (-97.043468 32.966617)",
      "poi_name": "Cava",
      "osm_id": 9242904966,
      "amenity": "restaurant"
    },
    {
      "id": 217798,
      "geometry": "POINT (-97.043468 32.966617)",
      "poi_name": "Tommy Bahama Restaurant",
      "osm_id": 9242904967,
      "amenity": "restaurant"
    },
    {
      "id": 217800,
      "geometry": "POINT (-97.043468 32.966617)",
      "poi_name": "Earl's Kitchen+Bar",
      "osm_id": 9242904971,
      "amenity": "restaurant"
    },
    {
      "id": 217801,
      "geometry": "POINT (-97.043468 32.966617)",
      "poi_name": "Toulouse",
      "osm_id": 9242904973,
      "amenity": "restaurant"
    },
    {
      "id": 217802,
      "geometry": "POINT (-97.043468 32.966617)",
      "poi_name": "KAI",
      "osm_id": 9242904974,
      "amenity": "restaurant"
    },
    {
      "id": 217704,
      "geometry": "POINT (-97.043468 32.966617)",
      "poi_name": "Arma Indian Cuisine",
      "osm_id": 9239244105,
      "amenity": "restaurant",
      "cuisine": "indian",
      "website": "https://txaroma.com/",
      "addr_state": "TX",
      "addr_city": "Plano",
      "addr_street": "Legacy Drive",
      "addr_housenumber": "3948"
    },
    {
      "id": 217803,
      "geometry": "POINT (-97.043468 32.966617)",
      "poi_name": "Bulla Gastrobar",
      "osm_id": 9242904976,
      "amenity": "restaurant"
    },
    {
      "id": 217804,
      "geometry": "POINT (-97.043468 32.966617)",
      "poi_name": "Prim And Proper",
      "osm_id": 9243189216,
      "amenity": "restaurant"
    },
    {
      "id": 217805,
      "geometry": "POINT (-97.043468 32.966617)",
      "poi_name": "Sprinkles",
      "osm_id": 9243219482,
      "amenity": "restaurant"
    },
    {
      "id": 217806,
      "geometry": "POINT (-97.043468 32.966617)",
      "poi_name": "Taverna",
      "osm_id": 9243219483,
      "amenity": "restaurant"
    },
    {
      "id": 217706,
      "geometry": "POINT (-97.043468 32.966617)",
      "poi_name": "Aki Sushi",
      "osm_id": 9239267314,
      "amenity": "restaurant",
      "cuisine": "sushi;japanese",
      "addr_state": "TX",
      "addr_city": "Plano",
      "addr_street": "Coit Road",
      "addr_housenumber": "6832"
    },
    {
      "id": 217707,
      "geometry": "POINT (-97.043468 32.966617)",
      "poi_name": "Bella Italia Ristorante",
      "osm_id": 9239283183,
      "amenity": "restaurant",
      "cuisine": "italian",
      "website": "https://www.bellaitaliaristorante.com/BellaItaliaRistorante.com",
      "addr_state": "TX",
      "addr_city": "Plano",
      "addr_street": "Legacy Drive",
      "addr_housenumber": "3948"
    },
    {
      "id": 217708,
      "geometry": "POINT (-97.043468 32.966617)",
      "poi_name": "Sugar Pine Creamery",
      "osm_id": 9239310455,
      "amenity": "restaurant",
      "cuisine": "dessert",
      "phone": "(469) 298-8864",
      "addr_state": "TX",
      "addr_city": "Plano",
      "addr_street": "Coit Road",
      "addr_housenumber": "6832"
    },
    {
      "id": 217709,
      "geometry": "POINT (-97.043468 32.966617)",
      "poi_name": "Lahori Kabab",
      "osm_id": 9239311010,
      "amenity": "restaurant",
      "cuisine": "pakistani",
      "website": "https://lahorikababdallas.com/",
      "addr_state": "TX",
      "addr_city": "Plano",
      "addr_street": "Coit Road",
      "addr_housenumber": "6832"
    },
    {
      "id": 218289,
      "geometry": "POINT (-97.043468 32.966617)",
      "poi_name": "Maple Bacon Restaurant",
      "osm_id": 9272387867,
      "amenity": "restaurant",
      "cuisine": "bagel;american;burger;chicken;pancake;sausage",
      "wheelchair": "yes",
      "opening_hours": "Mo-Su 07:30-14:30; PH closed \"Thanksgivong\"",
      "takeaway": "yes",
      "addr_street": "West Parker Road"
    },
    {
      "id": 220996,
      "geometry": "POINT (-97.043468 32.966617)",
      "poi_name": "Freddie's Hamburgers",
      "osm_id": 10964595273,
      "amenity": "restaurant",
      "cuisine": "burger"
    },
    {
      "id": 218511,
      "geometry": "POINT (-97.043468 32.966617)",
      "poi_name": "Eggsquisite Cafe",
      "osm_id": 9281658524,
      "amenity": "restaurant",
      "cuisine": "breakfast"
    },
    {
      "id": 218512,
      "geometry": "POINT (-97.043468 32.966617)",
      "poi_name": "Little Greek Fresh Grill",
      "osm_id": 9281658525,
      "amenity": "restaurant",
      "cuisine": "greek"
    },
    {
      "id": 218513,
      "geometry": "POINT (-97.043468 32.966617)",
      "poi_name": "Pho Bistro",
      "osm_id": 9281658527,
      "amenity": "restaurant",
      "cuisine": "vietnamese"
    },
    {
      "id": 218514,
      "geometry": "POINT (-97.043468 32.966617)",
      "poi_name": "Durkin's Pizza",
      "osm_id": 9281658562,
      "amenity": "restaurant",
      "cuisine": "pizza"
    },
    {
      "id": 218519,
      "geometry": "POINT (-97.043468 32.966617)",
      "poi_name": "Buffalo Wild Wings",
      "osm_id": 9281658626,
      "amenity": "restaurant",
      "cuisine": "wings"
    },
    {
      "id": 221042,
      "geometry": "POINT (-97.043468 32.966617)",
      "poi_name": "Hai Di Lao Hotpot",
      "osm_id": 10965875205,
      "amenity": "restaurant"
    },
    {
      "id": 220536,
      "geometry": "POINT (-97.043468 32.966617)",
      "poi_name": "Sunview Cafe",
      "osm_id": 9377393439,
      "amenity": "restaurant",
      "cuisine": "american;breakfast",
      "opening_hours": "Mo-Su 07:00-14:30",
      "website": "https://www.sunview-cafe.com/",
      "phone": "+19723697581",
      "addr_state": "TX",
      "addr_city": "Melissa",
      "addr_postcode": "75454",
      "addr_street": "Sentinel Way",
      "addr_housenumber": "2615"
    },
    {
      "id": 226497,
      "geometry": "POINT (-97.043468 32.966617)",
      "poi_name": "Denny's",
      "osm_id": 11162107412,
      "amenity": "restaurant",
      "cuisine": "american",
      "wheelchair": "yes",
      "opening_hours": "24/7",
      "takeaway": "yes",
      "addr_state": "TX",
      "addr_city": "Lewisville",
      "addr_postcode": "75067",
      "addr_street": "I-35E Frontage Road",
      "addr_housenumber": "605"
    },
    {
      "id": 235617,
      "geometry": "POINT (-97.043468 32.966617)",
      "poi_name": "Jimmy's Egg",
      "osm_id": 5760902753,
      "amenity": "restaurant",
      "addr_city": "Durant",
      "addr_postcode": "74701",
      "addr_street": "West Main Street",
      "addr_housenumber": "2501"
    },
    {
      "id": 235619,
      "geometry": "POINT (-97.043468 32.966617)",
      "poi_name": "Tokyo",
      "osm_id": 5760902755,
      "amenity": "restaurant"
    },
    {
      "id": 235621,
      "geometry": "POINT (-97.043468 32.966617)",
      "poi_name": "Kobe Express",
      "osm_id": 5760902763,
      "amenity": "restaurant",
      "cuisine": "japanese",
      "addr_city": "Durant",
      "addr_postcode": "74701",
      "addr_street": "West University Boulevard",
      "addr_housenumber": "1428"
    },
    {
      "id": 235770,
      "geometry": "POINT (-97.043468 32.966617)",
      "poi_name": "Boom-a-Rang Diner",
      "osm_id": 5766350554,
      "amenity": "restaurant",
      "opening_hours": "Mo-Sa 07:00-21:00; Su 08:00-14:00",
      "addr_city": "Durant",
      "addr_postcode": "74701",
      "addr_street": "Bryan Drive",
      "addr_housenumber": "372"
    },
    {
      "id": 225142,
      "geometry": "POINT (-97.043468 32.966617)",
      "poi_name": "Ale Tacos",
      "osm_id": 11112893957,
      "amenity": "restaurant",
      "cuisine": "tex-mex"
    },
    {
      "id": 225421,
      "geometry": "POINT (-97.043468 32.966617)",
      "poi_name": "Sushi Go",
      "osm_id": 11126226913,
      "amenity": "restaurant",
      "cuisine": "sushi"
    },
    {
      "id": 226101,
      "geometry": "POINT (-97.043468 32.966617)",
      "poi_name": "America's Best Wings",
      "osm_id": 11148737492,
      "amenity": "restaurant",
      "cuisine": "american;wings",
      "opening_hours": "Mo-Th 11:00-22:00; Fr-Sa 11:00-23:00; PH closed; Su 11:00-21:00",
      "takeaway": "yes",
      "delivery": "GrubHub",
      "toilets": "yes"
    },
    {
      "id": 238329,
      "geometry": "POINT (-97.043468 32.966617)",
      "poi_name": "Rolando's Grill",
      "osm_id": 5873952586,
      "amenity": "restaurant",
      "cuisine": "mexican"
    },
    {
      "id": 241839,
      "geometry": "POINT (-97.043468 32.966617)",
      "poi_name": "Palio's Pizza",
      "osm_id": 6040599052,
      "amenity": "restaurant",
      "cuisine": "pizza",
      "opening_hours": "Mo-Su 11:00-21:00; Fr,Sa 11:00-22:00",
      "website": "https://www.paliospizzacafe.com/locations/frisco-west",
      "phone": "+1 (214) 705-7400"
    }
  ],
  "answer_type": "name",
  "question_entities": {
    "[1]": {
      "main_category": "amenity",
      "sub_category": "restaurant"
    },
    "[2]": {
      "distance": 150000,
      "text": "150 kilometers"
    },
    "[3]": {
      "main_category": "tourism",
      "sub_category": "theme park",
      "display_name": "LEGOLAND Discovery Center Dallas/Fort Worth, Grapevine, TX",
      "geo_wkt": "POINT (-97.043468 32.966617)",
      "poi": {
        "id": 9989,
        "geometry": "POINT (-97.043468 32.966617)",
        "poi_name": "LEGOLAND Discovery Center Dallas/Fort Worth",
        "osm_id": 9095109739,
        "tourism": "theme_park",
        "wheelchair": "limited",
        "operator": "Merlin Entertainments",
        "website": "https://www.legolanddiscoverycenter.com/dallas-fw/",
        "phone": "(469) 444-3050",
        "wikidata": "Q20712562",
        "addr_state": "TX",
        "addr_city": "Grapevine",
        "addr_postcode": "76051",
        "addr_street": "Grapevine Mills Pkwy",
        "addr_housenumber": "3000"
      }
    },
    "[4]": {
      "direction_desc": "northeast",
      "direction_predicate": "degrees(ST_Azimuth(origin.geometry, pois.geometry)) BETWEEN 22.5 AND 67.5"
    }
  },
  "id": 2672,
  "type": "range:direction+name"
}