{
  "question": "Could you assist me in locating a sandwich restaurant within an 80 kilometers radius originating from William & Mary Institute for Integrative Conservation, Williamsburg, VA?",
  "sql": "SELECT * FROM pois\nWHERE ST_DWithin(pois.geometry, ST_GeomFromText('POINT (-76.707368 37.272883)',4326)::geography, 80000)\nAND amenity = 'restaurant'\nAND cuisine ILIKE '%sandwich%';\n",
  "answers": [
    {
      "id": 52711,
      "geometry": "POINT (-77.378813 37.597469)",
      "poi_name": "Cold Harbor Restaurant",
      "osm_id": 10043840374,
      "amenity": "restaurant",
      "cuisine": "breakfast;burger;sandwich;american",
      "wheelchair": "yes",
      "website": "http://www.facebook.com/pages/Cold-Harbor-Restaurant/164753440203663",
      "phone": "+1 804-746-4333",
      "addr_state": "VA",
      "addr_city": "Mechanicsville",
      "addr_postcode": "23111",
      "addr_street": "Mechanicsville Turnpike",
      "addr_housenumber": "8153"
    },
    {
      "id": 55281,
      "geometry": "POINT (-76.235387 36.772179)",
      "poi_name": "Jason's Deli",
      "osm_id": 10179152148,
      "amenity": "restaurant",
      "cuisine": "sandwich",
      "website": "https://www.jasonsdeli.com/",
      "phone": "+1-757-382-0889",
      "addr_state": "VA",
      "addr_city": "Chesapeake",
      "addr_postcode": "23320",
      "addr_street": "Eden Way",
      "addr_housenumber": "725"
    },
    {
      "id": 97121,
      "geometry": "POINT (-77.163342 37.699943)",
      "poi_name": "Another Round or 2 Bar and Grill",
      "osm_id": 6463080396,
      "amenity": "restaurant",
      "cuisine": "american;burger;sandwich",
      "website": "https://www.facebook.com/AnotherRoundor2/",
      "phone": "+1 804-769-1900",
      "takeaway": "yes",
      "addr_state": "VA",
      "addr_city": "Manquin",
      "addr_postcode": "23106",
      "addr_street": "Commerce Park Circle",
      "addr_housenumber": "109"
    },
    {
      "id": 87447,
      "geometry": "POINT (-76.292828 37.042724)",
      "poi_name": "Coasters Beach Grill",
      "osm_id": 8713664402,
      "amenity": "restaurant",
      "cuisine": "seafood;sandwich;chicken;dessert",
      "opening_hours": "Tu-Fr 16:30-21:00; Sa,Su 12:00-21:00",
      "website": "http://coastersgrill.com/",
      "phone": "+1 757 902-1947",
      "addr_state": "VA",
      "addr_city": "Hampton",
      "addr_postcode": "23664",
      "addr_street": "Buckroe Avenue",
      "addr_housenumber": "207"
    },
    {
      "id": 95131,
      "geometry": "POINT (-76.451262 37.597914)",
      "poi_name": "Pig & Pie",
      "osm_id": 6387661119,
      "amenity": "restaurant",
      "cuisine": "american;pizza;burger;sandwich",
      "phone": "(804) 758-0605",
      "takeaway": "yes",
      "outdoor_seating": "no",
      "addr_state": "VA",
      "addr_city": "Topping",
      "addr_postcode": "23169",
      "addr_street": "Greys Point Road",
      "addr_housenumber": "2324"
    },
    {
      "id": 130726,
      "geometry": "POINT (-77.440943 37.693694)",
      "poi_name": "Industrial Taphouse",
      "osm_id": 9887615827,
      "amenity": "restaurant",
      "cuisine": "burger;sandwich",
      "website": "https://industrialtaphouse.com/",
      "phone": "+1 804-299-2649",
      "addr_state": "VA",
      "addr_city": "Ashland",
      "addr_postcode": "23005",
      "addr_street": "Leadbetter Road",
      "addr_housenumber": "10392"
    },
    {
      "id": 193661,
      "geometry": "POINT (-76.51266 37.126877)",
      "poi_name": "Jason's Deli",
      "osm_id": 1553091975,
      "amenity": "restaurant",
      "cuisine": "sandwich",
      "website": "https://www.jasonsdeli.com/restaurants/va/newport-news/newport-news-deli",
      "phone": "757-898-3978",
      "addr_state": "VA",
      "addr_city": "Newport News",
      "addr_postcode": "23602",
      "addr_street": "Jefferson Ave",
      "addr_housenumber": "12515"
    },
    {
      "id": 131397,
      "geometry": "POINT (-76.591569 37.605381)",
      "poi_name": "Chad's Dad's BBQ Plus",
      "osm_id": 9913723194,
      "amenity": "restaurant",
      "cuisine": "barbecue;sandwich;burger;breakfast;chicken;ribs",
      "website": "https://www.facebook.com/Chadsdadsbbq",
      "phone": "+18048322877",
      "outdoor_seating": "yes",
      "addr_state": "VA",
      "addr_city": "Saluda",
      "addr_postcode": "23149",
      "addr_street": "General Puller Highway",
      "addr_housenumber": "1051"
    },
    {
      "id": 131427,
      "geometry": "POINT (-77.132141 37.743889)",
      "poi_name": "Route 30 Bbq & Grill",
      "osm_id": 9915989782,
      "amenity": "restaurant",
      "cuisine": "barbecue;ribs;chicken;burger;sandwich;american",
      "website": "https://www.route30bbqandgrill.com/",
      "phone": "+1 804-769-4777",
      "addr_state": "VA",
      "addr_city": "King William",
      "addr_postcode": "23086",
      "addr_street": "King William Road",
      "addr_housenumber": "12134"
    },
    {
      "id": 161476,
      "geometry": "POINT (-76.256037 36.711476)",
      "poi_name": "Blu Frog",
      "osm_id": 4882397574,
      "amenity": "restaurant",
      "cuisine": "burger;sandwich;chicken;american",
      "opening_hours": "11:00-02:00",
      "website": "https://www.facebook.com/blufrog.bargrill.7/",
      "takeaway": "yes",
      "outdoor_seating": "yes",
      "addr_state": "VA",
      "addr_city": "Chesapeake",
      "addr_postcode": "23322",
      "addr_street": "Cedar Road",
      "addr_housenumber": "565"
    },
    {
      "id": 175773,
      "geometry": "POINT (-76.393669 37.048814)",
      "poi_name": "Jason's Deli",
      "osm_id": 2538416544,
      "amenity": "restaurant",
      "cuisine": "sandwich",
      "addr_city": "Hampton",
      "addr_postcode": "23666",
      "addr_street": "Coliseum Crossing",
      "addr_housenumber": "39"
    },
    {
      "id": 183803,
      "geometry": "POINT (-76.32136 37.43288)",
      "poi_name": "Mathews Grill & Deli",
      "osm_id": 10946089406,
      "amenity": "restaurant",
      "cuisine": "american;pizza;pasta;sandwich;burger;seafood",
      "opening_hours": "Tu-Th 11:00-21:00; Fr 11:00-21:30; Sa 08:00-21:30; Su 08:00-21:00",
      "phone": "804-505-1024",
      "addr_state": "VA",
      "addr_city": "Mathews",
      "addr_postcode": "23109",
      "addr_street": "Main Street",
      "addr_housenumber": "296"
    },
    {
      "id": 226179,
      "geometry": "POINT (-76.699374 37.27149)",
      "poi_name": "Chowning's Cider Stand",
      "osm_id": 11151002880,
      "amenity": "restaurant",
      "cuisine": "sandwich;dessert",
      "opening_hours": "Mo-Su 11:00-17:00",
      "website": "https://www.colonialwilliamsburghotels.com/dining/chownings-tavern/",
      "addr_state": "VA",
      "addr_city": "Williamsburg",
      "addr_postcode": "23185",
      "addr_street": "East Duke of Gloucester Street",
      "addr_housenumber": "109 G"
    },
    {
      "id": 234166,
      "geometry": "POINT (-77.468627 37.566928)",
      "poi_name": "Moore Street Caf\u00e9",
      "osm_id": 4609072643,
      "amenity": "restaurant",
      "cuisine": "american;burger;sandwich",
      "website": "https://www.moorestreetcafe.com/",
      "phone": "+1 804-359-5970",
      "takeaway": "yes",
      "addr_state": "VA",
      "addr_city": "Richmond",
      "addr_postcode": "23230",
      "addr_street": "West Moore Street",
      "addr_housenumber": "2904"
    },
    {
      "id": 217066,
      "geometry": "POINT (-77.396442 37.652943)",
      "poi_name": "Pizza & Beer of Richmond",
      "osm_id": 9202657092,
      "amenity": "restaurant",
      "cuisine": "pizza;sandwich",
      "website": "https://www.pbrva.com/locations-2",
      "phone": "+1 804-789-1223",
      "addr_state": "VA",
      "addr_city": "Mechanicsville",
      "addr_postcode": "23116",
      "addr_street": "Chamberlayne Road",
      "addr_housenumber": "9325"
    },
    {
      "id": 224882,
      "geometry": "POINT (-76.695528 37.27186)",
      "poi_name": "Raleigh Tavern Bakery",
      "osm_id": 11102442156,
      "amenity": "restaurant",
      "cuisine": "sandwich;coffee_shop",
      "opening_hours": "Mo-Su 09:00-17:00",
      "addr_state": "VA",
      "addr_city": "Williamsburg",
      "addr_postcode": "23185",
      "addr_street": "East Duke of Gloucester Street",
      "addr_housenumber": "413 F"
    },
    {
      "id": 225197,
      "geometry": "POINT (-76.699081 37.267639)",
      "poi_name": "Gold Course Clubhouse Grill",
      "osm_id": 11114840893,
      "amenity": "restaurant",
      "cuisine": "american;burger;salad;sandwich;barbecue;meat",
      "wheelchair": "yes",
      "website": "https://www.colonialwilliamsburghotels.com/dining/gold-course-clubhouse-grille/",
      "phone": "+1 855 318 5868",
      "outdoor_seating": "yes",
      "addr_state": "VA",
      "addr_city": "Williamsburg",
      "addr_postcode": "23185",
      "addr_street": "South England Street",
      "addr_housenumber": "401"
    }
  ],
  "answer_type": "loc",
  "question_entities": {
    "[1]": {
      "main_category": "amenity",
      "sub_category": "restaurant",
      "poi_filter_desc": "sandwich restaurant",
      "poi_filter_sql": "cuisine ILIKE '%sandwich%'"
    },
    "[2]": {
      "distance": 80000,
      "text": "80 kilometers"
    },
    "[3]": {
      "main_category": "amenity",
      "sub_category": "university",
      "display_name": "William & Mary Institute for Integrative Conservation, Williamsburg, VA",
      "geo_wkt": "POINT (-76.707368 37.272883)",
      "poi": {
        "id": 76829,
        "geometry": "POINT (-76.707368 37.272883)",
        "poi_name": "William & Mary Institute for Integrative Conservation",
        "osm_id": 9794684955,
        "amenity": "university",
        "addr_state": "VA",
        "addr_city": "Williamsburg",
        "addr_postcode": "23185",
        "addr_street": "North Boundary Street",
        "addr_housenumber": "221"
      }
    }
  },
  "id": 485,
  "type": "range:non_spat_filter+loc"
}