{
  "question": "In search of an italian restaurant and ideally located within 150 kilometers from Forest High School Stadium, FL. Can you find one for me?",
  "sql": "SELECT * FROM pois\nWHERE ST_DWithin(pois.geometry, ST_GeomFromText('POINT (-82.067859 29.140252)',4326)::geography, 150000)\nAND amenity = 'restaurant'\nAND cuisine ILIKE '%italian%';\n",
  "answers": [
    {
      "id": 37522,
      "geometry": "POINT (-82.483344 27.92841)",
      "poi_name": "Bella's Italian Cafe",
      "osm_id": 2818882532,
      "amenity": "restaurant",
      "cuisine": "italian",
      "website": "https://www.bellasitaliancafe.com/",
      "addr_city": "Tampa",
      "addr_postcode": "33606",
      "addr_street": "South Howard Avenue",
      "addr_housenumber": "1413"
    },
    {
      "id": 46494,
      "geometry": "POINT (-81.514672 28.333471)",
      "poi_name": "L'italiano's Italian Ristorante",
      "osm_id": 3268334989,
      "amenity": "restaurant",
      "cuisine": "italian",
      "addr_state": "FL",
      "addr_city": "Kissimmee",
      "addr_postcode": "34746",
      "addr_street": "West Irlo Bronson Memorial Highway"
    },
    {
      "id": 46495,
      "geometry": "POINT (-81.515736 28.333555)",
      "poi_name": "Pacino's Italian Ristorante",
      "osm_id": 3268334990,
      "amenity": "restaurant",
      "cuisine": "italian",
      "addr_state": "FL",
      "addr_city": "Kissimmee",
      "addr_postcode": "34746",
      "addr_street": "West Irlo Bronson Memorial Highway",
      "addr_housenumber": "5795"
    },
    {
      "id": 48891,
      "geometry": "POINT (-82.442808 27.960886)",
      "poi_name": "Laughing Cat Bistro",
      "osm_id": 3406720270,
      "amenity": "restaurant",
      "cuisine": "italian",
      "website": "https://thelaughingcat.com/",
      "addr_city": "Tampa",
      "addr_postcode": "33605",
      "addr_street": "North 15th Street",
      "addr_housenumber": "1811"
    },
    {
      "id": 48980,
      "geometry": "POINT (-81.350996 28.598218)",
      "poi_name": "Prato",
      "osm_id": 3411718541,
      "amenity": "restaurant",
      "cuisine": "italian",
      "website": "https://www.prato-wp.com/",
      "phone": "+1 407-262-0050",
      "delivery": "no",
      "addr_state": "FL",
      "addr_city": "Winter Park",
      "addr_postcode": "32789",
      "addr_street": "North Park Avenue",
      "addr_housenumber": "124"
    },
    {
      "id": 48981,
      "geometry": "POINT (-81.351109 28.601389)",
      "poi_name": "Al Bacio",
      "osm_id": 3411721039,
      "amenity": "restaurant",
      "cuisine": "italian",
      "opening_hours": "\"permanently closed\"",
      "addr_state": "FL",
      "addr_city": "Winter Park",
      "addr_postcode": "32789",
      "addr_street": "North Park Avenue",
      "addr_housenumber": "505"
    },
    {
      "id": 54015,
      "geometry": "POINT (-82.43971 27.960377)",
      "poi_name": "Due Amici",
      "osm_id": 10111743055,
      "amenity": "restaurant",
      "cuisine": "pizza;italian",
      "wheelchair": "yes",
      "opening_hours": "11:00-03:00",
      "website": "https://dueamiciybor.com/",
      "takeaway": "yes",
      "outdoor_seating": "no",
      "toilets": "yes",
      "addr_state": "FL",
      "addr_city": "Tampa",
      "addr_postcode": "33605",
      "addr_street": "East 7th Avenue",
      "addr_housenumber": "1724"
    },
    {
      "id": 58466,
      "geometry": "POINT (-81.207119 28.626776)",
      "poi_name": "Peppino's Ristorante Italiano",
      "osm_id": 5377233878,
      "amenity": "restaurant",
      "cuisine": "italian;pizza",
      "website": "http://www.peppinositaliano.com/",
      "phone": "+1 407-365-4774",
      "takeaway": "yes",
      "delivery": "yes",
      "addr_state": "FL",
      "addr_city": "Oviedo",
      "addr_postcode": "32765",
      "addr_street": "Carrigan Avenue",
      "addr_housenumber": "100"
    },
    {
      "id": 60532,
      "geometry": "POINT (-82.286723 27.893053)",
      "poi_name": "Olde Town Pizzeria",
      "osm_id": 5469972622,
      "amenity": "restaurant",
      "cuisine": "italian",
      "opening_hours": "Su-Th 11:00-21:30; Fr-Sa 11:00-22:00",
      "website": "https://www.oldetownpizzeria.com/",
      "phone": "+1 (813) 684-4200",
      "outdoor_seating": "no",
      "addr_state": "FL",
      "addr_city": "Brandon",
      "addr_postcode": "33511",
      "addr_street": "West Bloomingdale Avenue",
      "addr_housenumber": "115"
    },
    {
      "id": 63312,
      "geometry": "POINT (-82.758876 28.209264)",
      "poi_name": "Luciano's Pizzeria & Ristorante",
      "osm_id": 5610305635,
      "amenity": "restaurant",
      "cuisine": "italian;pizza",
      "phone": "+1 (727)494-7646",
      "addr_state": "FL",
      "addr_city": "Holiday",
      "addr_street": "Moog Road",
      "addr_housenumber": "3320"
    },
    {
      "id": 77145,
      "geometry": "POINT (-80.986961 29.147347)",
      "poi_name": "Fysh Bar & Grill",
      "osm_id": 9809227562,
      "amenity": "restaurant",
      "cuisine": "seafood;italian;japanese;american",
      "addr_state": "FL",
      "addr_city": "Port Orange",
      "addr_postcode": "32129",
      "addr_street": "S Ridgewood Ave",
      "addr_housenumber": "3633"
    },
    {
      "id": 81346,
      "geometry": "POINT (-82.501517 28.029327)",
      "poi_name": "Iavarone's Steak House & Italian Grill",
      "osm_id": 1628870098,
      "amenity": "restaurant",
      "cuisine": "italian",
      "wheelchair": "yes",
      "opening_hours": "Tu-Su 11:00-22:00",
      "website": "https://iavaronessteakhouse.com/",
      "internet_access": "no",
      "phone": "+1-813-932-5241",
      "takeaway": "yes",
      "outdoor_seating": "yes",
      "delivery": "no",
      "addr_state": "FL",
      "addr_city": "Tampa",
      "addr_postcode": "33614",
      "addr_street": "West Humphrey Street",
      "addr_housenumber": "3617"
    },
    {
      "id": 85595,
      "geometry": "POINT (-82.615487 28.535434)",
      "poi_name": "La Bella Napoli",
      "osm_id": 1884006935,
      "amenity": "restaurant",
      "cuisine": "italian",
      "addr_state": "FL",
      "addr_city": "Weeki Wachee",
      "addr_postcode": "34607",
      "addr_street": "Bear Trail",
      "addr_housenumber": "7390"
    },
    {
      "id": 85183,
      "geometry": "POINT (-82.761571 28.019891)",
      "poi_name": "Bascetti's",
      "osm_id": 1844694474,
      "amenity": "restaurant",
      "cuisine": "italian",
      "addr_state": "FL",
      "addr_city": "Dunedin",
      "addr_postcode": "33761",
      "addr_street": "Main St"
    },
    {
      "id": 90026,
      "geometry": "POINT (-82.92777 29.956785)",
      "poi_name": "Our Place Pizzeria and Ristorante",
      "osm_id": 8878233325,
      "amenity": "restaurant",
      "cuisine": "italian;pizza",
      "website": "https://www.ourplacepizzeriaristorante.com/",
      "phone": "+13869350103",
      "addr_state": "FL",
      "addr_city": "Branford",
      "addr_postcode": "32008",
      "addr_street": "Suwannee Avenue",
      "addr_housenumber": "403"
    },
    {
      "id": 99199,
      "geometry": "POINT (-82.63226 28.071182)",
      "poi_name": "Westchase Pizza & Pasta Company",
      "osm_id": 6543772760,
      "amenity": "restaurant",
      "cuisine": "pizza;italian",
      "phone": "813-855-7267",
      "addr_state": "FL",
      "addr_city": "Tampa",
      "addr_postcode": "33626",
      "addr_street": "Race Track Road",
      "addr_housenumber": "13048"
    },
    {
      "id": 96714,
      "geometry": "POINT (-82.439022 27.96048)",
      "poi_name": "Carmine's",
      "osm_id": 6441707886,
      "amenity": "restaurant",
      "cuisine": "italian",
      "opening_hours": "Mo 10:00-17:00; Tu-Th 10:00-22:00; Fr-Sa 10:00-23:00; Su 10:00-10:00",
      "outdoor_seating": "no",
      "addr_state": "FL",
      "addr_city": "Tampa",
      "addr_postcode": "33605",
      "addr_street": "East 7th Avenue",
      "addr_housenumber": "1802"
    },
    {
      "id": 94550,
      "geometry": "POINT (-82.494279 27.9168)",
      "poi_name": "Osteria Natalina",
      "osm_id": 2253006097,
      "amenity": "restaurant",
      "cuisine": "italian",
      "wheelchair": "yes",
      "opening_hours": "Tu-Sa 10:30-22:30",
      "internet_access": "no",
      "phone": "813 831 1210",
      "takeaway": "yes",
      "outdoor_seating": "no",
      "delivery": "no",
      "addr_city": "Tampa",
      "addr_postcode": "33629",
      "addr_street": "South Macdill Avenue",
      "addr_housenumber": "3215"
    },
    {
      "id": 105746,
      "geometry": "POINT (-81.020464 29.211492)",
      "poi_name": "Don Vito's Italian Restaurant",
      "osm_id": 8641567608,
      "amenity": "restaurant",
      "cuisine": "italian",
      "website": "https://donvitosrestaurant.com/Home.html",
      "phone": "+1 386 492 7935",
      "addr_city": "Daytona Beach",
      "addr_postcode": "32114",
      "addr_street": "International Speedway Boulevard",
      "addr_housenumber": "137"
    },
    {
      "id": 105703,
      "geometry": "POINT (-80.900655 29.038724)",
      "poi_name": "Atlantis Bistro",
      "osm_id": 8641413907,
      "amenity": "restaurant",
      "cuisine": "italian",
      "addr_city": "New Smyrna Beach",
      "addr_postcode": "32169",
      "addr_street": "Flagler Avenue",
      "addr_housenumber": "300"
    },
    {
      "id": 106642,
      "geometry": "POINT (-81.450882 28.474995)",
      "poi_name": "Vinito Ristorante",
      "osm_id": 8691985026,
      "amenity": "restaurant",
      "cuisine": "italian",
      "phone": "+1 407 354 0404",
      "addr_state": "FL",
      "addr_city": "Orlando",
      "addr_postcode": "32819",
      "addr_street": "International Drive"
    },
    {
      "id": 110945,
      "geometry": "POINT (-81.826138 30.1947)",
      "poi_name": "Aspendos Italian Cuisine and Pizza",
      "osm_id": 3725077802,
      "amenity": "restaurant",
      "cuisine": "italian",
      "opening_hours": "Mo-Th 11:00-22:00, Fr-Sa 10:00-00:00, Su 11:00-23:00",
      "website": "https://www.aspendositaliancuisine.com/",
      "phone": "+1 904 738 8079",
      "takeaway": "yes",
      "delivery": "yes",
      "addr_state": "FL",
      "addr_city": "Jacksonville",
      "addr_postcode": "32222",
      "addr_street": "Argyle Forest Boulevard STE C19",
      "addr_housenumber": "9542"
    },
    {
      "id": 114174,
      "geometry": "POINT (-82.822439 27.966392)",
      "poi_name": "Cesare's at the beach",
      "osm_id": 3870839235,
      "amenity": "restaurant",
      "cuisine": "italian",
      "addr_state": "FL",
      "addr_city": "Clearwarer Beach",
      "addr_postcode": "33767",
      "addr_street": "South Gulfview Boulevard",
      "addr_housenumber": "794"
    },
    {
      "id": 125578,
      "geometry": "POINT (-81.533333 28.330431)",
      "poi_name": "Buca di Beppo",
      "osm_id": 6965320640,
      "amenity": "restaurant",
      "cuisine": "italian",
      "internet_access": "no",
      "outdoor_seating": "yes",
      "addr_state": "FL",
      "addr_city": "Celebration",
      "addr_postcode": "34747",
      "addr_street": "W Irlo Bronson Memorial Hwy",
      "addr_housenumber": "6282"
    },
    {
      "id": 138479,
      "geometry": "POINT (-81.417444 28.343579)",
      "poi_name": "The All Italian Market & Ristorante",
      "osm_id": 6151324153,
      "amenity": "restaurant",
      "cuisine": "italian",
      "opening_hours": "Mo-Th, Su 12:00-21:00; Fr, Sa 12:00-22:00",
      "website": "https://www.allitalianmarketandristorantefl.com/",
      "phone": "+1-407-704-1856",
      "addr_state": "FL",
      "addr_city": "Kissimmee",
      "addr_postcode": "34741",
      "addr_street": "West Osceola Parkway",
      "addr_housenumber": "1261"
    },
    {
      "id": 144843,
      "geometry": "POINT (-82.459485 27.95172)",
      "poi_name": "Osteria Bar and Kitchen",
      "osm_id": 7290267701,
      "amenity": "restaurant",
      "cuisine": "italian",
      "website": "https://osteriatampa.com/",
      "phone": "(813) 563-5000",
      "addr_state": "FL",
      "addr_city": "Tampa",
      "addr_postcode": "33602",
      "addr_street": "North Franklin Street",
      "addr_housenumber": "903"
    },
    {
      "id": 141338,
      "geometry": "POINT (-81.350466 28.593736)",
      "poi_name": "GRATO Italian Kitchen",
      "osm_id": 6281999239,
      "amenity": "restaurant",
      "cuisine": "italian",
      "opening_hours": "We-Sa 11:30-22:00; Su 11:30-21:00",
      "website": "https://gratorestaurants.com/",
      "phone": "+1-407-636-7222",
      "addr_state": "FL",
      "addr_city": "Winter Park",
      "addr_postcode": "32789",
      "addr_street": "South Park Avenue",
      "addr_housenumber": "528"
    },
    {
      "id": 148224,
      "geometry": "POINT (-81.268177 28.648695)",
      "poi_name": "Carrabba's Italian Grill",
      "osm_id": 3937041695,
      "amenity": "restaurant",
      "cuisine": "italian",
      "opening_hours": "Mo-Th 11:00-22:00; Fr-Sa 11:00-23:00; Su 11:00-21:00",
      "website": "https://www.carrabbas.com/locations/fl/winter-springs-%28oviedo%29",
      "phone": "(407) 696-6600",
      "takeaway": "yes",
      "delivery": "no",
      "addr_state": "FL",
      "addr_city": "Winter Springs",
      "addr_postcode": "32708",
      "addr_street": "Red Bug Lake Road",
      "addr_housenumber": "5820"
    },
    {
      "id": 159940,
      "geometry": "POINT (-81.252518 29.553688)",
      "poi_name": "Sami's Pizza",
      "osm_id": 4811968305,
      "amenity": "restaurant",
      "cuisine": "italian",
      "phone": "+1 386 246 5900",
      "outdoor_seating": "no",
      "delivery": "yes",
      "addr_state": "FL",
      "addr_city": "Palm Coast",
      "addr_postcode": "32137",
      "addr_street": "Palm Coast Parkway Northwest",
      "addr_housenumber": "4982"
    },
    {
      "id": 168228,
      "geometry": "POINT (-82.4761 27.937085)",
      "poi_name": "Timpano Italian Chop House",
      "osm_id": 368960953,
      "amenity": "restaurant",
      "cuisine": "italian",
      "addr_state": "FL",
      "addr_city": "Tampa",
      "addr_postcode": "33606",
      "addr_street": "W Swann Av Prkg"
    },
    {
      "id": 168331,
      "geometry": "POINT (-82.440351 27.960382)",
      "poi_name": "Bernini",
      "osm_id": 386087935,
      "amenity": "restaurant",
      "cuisine": "italian",
      "wheelchair": "limited",
      "opening_hours": "Tu-Th 11:30-22:00; Fr-Sa 11:30-23:00; Su 11:00-21:00",
      "website": "https://berniniofybor.com/",
      "takeaway": "yes",
      "outdoor_seating": "yes",
      "toilets": "yes",
      "addr_state": "FL",
      "addr_city": "Tampa",
      "addr_postcode": "33605",
      "addr_street": "East 7th Avenue",
      "addr_housenumber": "1702"
    },
    {
      "id": 205820,
      "geometry": "POINT (-82.453551 27.926482)",
      "poi_name": "Oggi Itailian",
      "osm_id": 7182815428,
      "amenity": "restaurant",
      "cuisine": "italian",
      "opening_hours": "Mo-Fr 17:00-22:00; Sa-Su 11:00-15:00,17:00-22:00",
      "website": "https://www.oggiitalian.com/",
      "phone": "+1 (813) 252-7778",
      "addr_state": "FL",
      "addr_city": "Tampa",
      "addr_postcode": "33606",
      "addr_street": "East Davis Boulevard",
      "addr_housenumber": "236"
    },
    {
      "id": 185531,
      "geometry": "POINT (-82.10408 29.1865)",
      "poi_name": "Mesa de Notte",
      "osm_id": 7862709818,
      "amenity": "restaurant",
      "cuisine": "italian",
      "website": "https://mesaocala.com/",
      "phone": "352-732-4737",
      "addr_state": "FL",
      "addr_city": "Ocala",
      "addr_postcode": "34470",
      "addr_street": "East Silver Springs Boulevard",
      "addr_housenumber": "2436"
    },
    {
      "id": 195504,
      "geometry": "POINT (-82.503175 27.952588)",
      "poi_name": "Bella Brava",
      "osm_id": 10309908827,
      "amenity": "restaurant",
      "cuisine": "italian",
      "wheelchair": "yes",
      "opening_hours": "Mo-Th 11:30-22:00; Fr 11:30-23:00; Sa 11:00-23:00; Su 11:00-22:00",
      "website": "https://bellabrava.com",
      "internet_access": "wlan",
      "takeaway": "yes",
      "outdoor_seating": "yes",
      "toilets": "yes",
      "addr_state": "FL",
      "addr_city": "Tampa",
      "addr_postcode": "33607",
      "addr_street": "Gramercy Lane",
      "addr_housenumber": "1015"
    },
    {
      "id": 208759,
      "geometry": "POINT (-81.23654 28.96624)",
      "poi_name": "Sinatra's Ristorante",
      "osm_id": 5003891514,
      "amenity": "restaurant",
      "cuisine": "italian",
      "opening_hours": "Mo-Th 11:00-21:00, Fr-Sa 11:00-24:00, Su 11:00-16:00",
      "outdoor_seating": "no",
      "addr_state": "FL",
      "addr_city": "Lake Helen",
      "addr_postcode": "32744",
      "addr_street": "Cassadaga Road",
      "addr_housenumber": "355"
    },
    {
      "id": 215325,
      "geometry": "POINT (-81.563351 29.940898)",
      "poi_name": "Antonio's Pizza & Grill",
      "osm_id": 5295678310,
      "amenity": "restaurant",
      "cuisine": "pizza;italian",
      "website": "https://www.antoniospizzagrill.com",
      "phone": "+1-904-940-6060",
      "addr_state": "FL",
      "addr_city": "Saint Augustine",
      "addr_postcode": "32092",
      "addr_street": "CR 13",
      "addr_housenumber": "9155"
    },
    {
      "id": 214851,
      "geometry": "POINT (-81.190789 29.571417)",
      "poi_name": "Mezzaluna's",
      "osm_id": 5282369829,
      "amenity": "restaurant",
      "cuisine": "italian",
      "outdoor_seating": "yes",
      "addr_state": "FL",
      "addr_city": "Palm Coast",
      "addr_postcode": "32137",
      "addr_street": "Palm Harbor Parkway",
      "addr_housenumber": "101"
    },
    {
      "id": 218247,
      "geometry": "POINT (-81.071969 29.193552)",
      "poi_name": "Tianos",
      "osm_id": 9269932570,
      "amenity": "restaurant",
      "cuisine": "italian",
      "website": "https://www.tianosdaytonamenu.com/",
      "phone": "+1 386 492 9240",
      "addr_state": "FL",
      "addr_city": "Daytona Beach",
      "addr_postcode": "32114",
      "addr_street": "Victory Circle",
      "addr_housenumber": "1860"
    },
    {
      "id": 218657,
      "geometry": "POINT (-82.365131 28.1318)",
      "poi_name": "Oronzo Italian",
      "osm_id": 9289214559,
      "amenity": "restaurant",
      "cuisine": "italian",
      "opening_hours": "Su-Th 12:00-20:00;Fr-Sa 12:00-21:00",
      "outdoor_seating": "yes",
      "addr_state": "FL",
      "addr_city": "Tampa",
      "addr_postcode": "33647",
      "addr_street": "Highwoods Preserve Parkway",
      "addr_housenumber": "18027"
    },
    {
      "id": 232472,
      "geometry": "POINT (-81.26318 28.699483)",
      "poi_name": "Destiny's Big City Pizza",
      "osm_id": 4526653842,
      "amenity": "restaurant",
      "cuisine": "pizza;italian",
      "website": "https://destinysbigcitypizza.com/",
      "phone": "+1-407-542-5400",
      "takeaway": "yes",
      "delivery": "yes",
      "addr_state": "FL",
      "addr_city": "Winter Springs",
      "addr_postcode": "32708",
      "addr_street": "Tree Swallow Dr",
      "addr_housenumber": "1168"
    }
  ],
  "answer_type": "loc",
  "question_entities": {
    "[1]": {
      "main_category": "amenity",
      "sub_category": "restaurant",
      "poi_filter_desc": "italian restaurant",
      "poi_filter_sql": "cuisine ILIKE '%italian%'"
    },
    "[2]": {
      "distance": 150000,
      "text": "150 kilometers"
    },
    "[3]": {
      "main_category": "leisure",
      "sub_category": "stadium",
      "display_name": "Forest High School Stadium, FL",
      "geo_wkt": "POINT (-82.067859 29.140252)",
      "poi": {
        "id": 265378,
        "geometry": "POINT (-82.067859 29.140252)",
        "poi_name": "Forest High School Stadium",
        "osm_id": 367826912,
        "leisure": "stadium",
        "addr_state": "FL"
      }
    }
  },
  "id": 442,
  "type": "range:non_spat_filter+loc"
}