{
  "question": "Within a radius of 130 kilometers, where can I find  a museum on the path leading to Ferry Street Farm, New Haven, CT from Discovery Depot at Nature's Art Village, Montville, CT?",
  "sql": "WITH\n    angle AS (SELECT degrees(ST_Azimuth(ST_GeomFromText('POINT (-72.222213 41.431675)',4326)::geography, ST_GeomFromText('POINT (-72.89683 41.31639)',4326)::geography)) AS value)\nSELECT * FROM pois,angle\nWHERE tourism = 'museum'\nAND ST_DWithin(pois.geometry, ST_GeomFromText('POINT (-72.222213 41.431675)',4326)::geography, 130000)\nAND (degrees(ST_Azimuth(ST_GeomFromText('POINT (-72.222213 41.431675)',4326)::geography, pois.geometry)) BETWEEN angle.value - 22.5 AND angle.value + 22.5);\n",
  "answers": [
    {
      "id": 276,
      "geometry": "POINT (-73.59791 41.033849)",
      "poi_name": "Greenwich Historical Society",
      "osm_id": 8277048658,
      "tourism": "museum",
      "website": "https://greenwichhistory.org/",
      "museum": "history",
      "addr_state": "CT",
      "addr_city": "Greenwich",
      "addr_postcode": "06807",
      "addr_street": "Strickland Road",
      "addr_housenumber": "47",
      "value": 257.4409361199263
    },
    {
      "id": 4658,
      "geometry": "POINT (-72.518565 41.277182)",
      "poi_name": "Clinton Historical Society",
      "osm_id": 11380583889,
      "historic": "yes",
      "tourism": "museum",
      "website": "https://www.clintoncthistory.org/",
      "museum": "history",
      "addr_state": "CT",
      "addr_city": "Clinton",
      "addr_postcode": "06413",
      "addr_street": "East Main Street",
      "addr_housenumber": "103",
      "value": 257.4409361199263
    },
    {
      "id": 4743,
      "geometry": "POINT (-73.417026 41.110742)",
      "poi_name": "Norwalk Art Space",
      "osm_id": 11426121771,
      "tourism": "museum",
      "website": "https://www.thenorwalkartspace.org/",
      "museum": "art",
      "addr_state": "CT",
      "addr_city": "Norwalk",
      "addr_postcode": "06850",
      "addr_street": "West Avenue",
      "addr_housenumber": "455",
      "value": 257.4409361199263
    },
    {
      "id": 8768,
      "geometry": "POINT (-72.90071 41.420144)",
      "poi_name": "Jonathan Dickerman House",
      "osm_id": 8686353862,
      "tourism": "museum",
      "operator": "Hamden Historical Society",
      "website": "http://www.hamdenhistoricalsociety.org",
      "addr_state": "CT",
      "addr_city": "Hamden",
      "addr_postcode": "06518",
      "addr_street": "Mountain Carmel Avenue",
      "addr_housenumber": "105",
      "value": 257.4409361199263
    },
    {
      "id": 17290,
      "geometry": "POINT (-73.427065 41.190096)",
      "poi_name": "Wilton Heritage Museum",
      "osm_id": 367140292,
      "tourism": "museum",
      "wheelchair": "yes",
      "addr_state": "CT",
      "value": 257.4409361199263
    },
    {
      "id": 12278,
      "geometry": "POINT (-72.752577 41.271299)",
      "poi_name": "Stony Creek Museum",
      "osm_id": 6273551069,
      "tourism": "museum",
      "website": "https://www.stonycreekmuseum.org/",
      "addr_state": "CT",
      "addr_city": "Stony Creek",
      "addr_postcode": "06405",
      "addr_street": "Thimble Islands Road",
      "addr_housenumber": "84",
      "value": 257.4409361199263
    },
    {
      "id": 17246,
      "geometry": "POINT (-73.497491 41.150192)",
      "poi_name": "New Canaan Historical Society",
      "osm_id": 367138492,
      "amenity": "library",
      "tourism": "museum",
      "website": "https://nchistory.org/",
      "addr_state": "CT",
      "value": 257.4409361199263
    },
    {
      "id": 17247,
      "geometry": "POINT (-72.451856 41.402246)",
      "poi_name": "Chester Historical Society Museum at the Mill",
      "osm_id": 367139185,
      "tourism": "museum",
      "fee": "no",
      "website": "http://chesterhistoricalsociety.org/",
      "addr_state": "CT",
      "addr_city": "Chester",
      "addr_postcode": "06412",
      "value": 257.4409361199263
    },
    {
      "id": 17291,
      "geometry": "POINT (-73.233195 41.215039)",
      "poi_name": "Discovery Museum and Planetarium",
      "osm_id": 367140295,
      "tourism": "museum",
      "website": "https://www.discoverymuseum.org/",
      "phone": "203-372-3521",
      "wikidata": "Q5281942",
      "addr_state": "CT",
      "addr_city": "Bridgeport",
      "addr_postcode": "06606",
      "addr_street": "Park Avenue",
      "addr_housenumber": "4450",
      "value": 257.4409361199263
    },
    {
      "id": 17258,
      "geometry": "POINT (-73.410954 41.580928)",
      "poi_name": "New Milford Historical Society Museum",
      "osm_id": 367140032,
      "tourism": "museum",
      "website": "https://www.nmhistorical.org/",
      "addr_state": "CT",
      "value": 257.4409361199263
    },
    {
      "id": 17259,
      "geometry": "POINT (-72.939547 41.318708)",
      "poi_name": "One Hundred Second Infantry Regiment Museum",
      "osm_id": 367140035,
      "tourism": "museum",
      "addr_state": "CT",
      "value": 257.4409361199263
    },
    {
      "id": 17260,
      "geometry": "POINT (-72.961427 41.290966)",
      "poi_name": "National Art Museum of Sport",
      "osm_id": 367140038,
      "tourism": "museum",
      "addr_state": "CT",
      "value": 257.4409361199263
    },
    {
      "id": 17261,
      "geometry": "POINT (-73.101776 41.33093)",
      "poi_name": "Osborne Homestead Museum",
      "osm_id": 367140043,
      "tourism": "museum",
      "website": "https://portal.ct.gov/DEEP/Education/Kellogg/Osborne-Homestead-Museum",
      "addr_state": "CT",
      "value": 257.4409361199263
    },
    {
      "id": 17262,
      "geometry": "POINT (-72.8534 41.276423)",
      "poi_name": "Connecticut Trolley Museum",
      "osm_id": 367140046,
      "tourism": "museum",
      "addr_state": "CT",
      "value": 257.4409361199263
    },
    {
      "id": 17263,
      "geometry": "POINT (-72.674501 41.283783)",
      "poi_name": "Hyland House Museum",
      "osm_id": 367140052,
      "tourism": "museum",
      "website": "https://hylandhouse.wordpress.com/",
      "wikidata": "Q5955995",
      "addr_state": "CT",
      "value": 257.4409361199263
    },
    {
      "id": 17264,
      "geometry": "POINT (-72.910626 41.335751)",
      "poi_name": "Eli Whitney Museum",
      "osm_id": 367140055,
      "tourism": "museum",
      "website": "https://www.eliwhitney.org/",
      "wikidata": "Q3867595",
      "addr_state": "CT",
      "value": 257.4409361199263
    },
    {
      "id": 17265,
      "geometry": "POINT (-72.675287 41.278211)",
      "poi_name": "Henry Whitfield State Historical Museum",
      "osm_id": 367140057,
      "tourism": "museum",
      "fee": "yes",
      "website": "https://portal.ct.gov/ECD-HenryWhitfieldStateMuseum",
      "addr_state": "CT",
      "addr_city": "Guilford",
      "addr_postcode": "06347",
      "addr_street": "Old Whitfield Street",
      "addr_housenumber": "248",
      "value": 257.4409361199263
    },
    {
      "id": 17266,
      "geometry": "POINT (-72.384728 41.351365)",
      "poi_name": "Connecticut River Museum",
      "osm_id": 367140059,
      "tourism": "museum",
      "website": "https://ctrivermuseum.org/",
      "wikidata": "Q5161592",
      "addr_state": "CT",
      "value": 257.4409361199263
    },
    {
      "id": 17267,
      "geometry": "POINT (-72.518763 41.277242)",
      "poi_name": "Captain Elisha White House Museum",
      "osm_id": 367140060,
      "historic": "yes",
      "tourism": "museum",
      "website": "https://www.ctvisit.com/listings/captain-elisha-white-house-1750-buell-tool-museum-george-flynn-library",
      "addr_state": "CT",
      "value": 257.4409361199263
    },
    {
      "id": 17268,
      "geometry": "POINT (-72.522074 41.277802)",
      "poi_name": "Stanton House Museum",
      "osm_id": 367140066,
      "historic": "yes",
      "tourism": "museum",
      "fee": "no",
      "website": "http://www.adamstantonhouse.org/",
      "addr_state": "CT",
      "value": 257.4409361199263
    },
    {
      "id": 17292,
      "geometry": "POINT (-73.545785 41.123364)",
      "poi_name": "Stamford Historical Society Museum",
      "osm_id": 367140298,
      "tourism": "museum",
      "website": "http://stamfordhistory.org/",
      "addr_state": "CT",
      "value": 257.4409361199263
    },
    {
      "id": 17293,
      "geometry": "POINT (-73.407003 41.112094)",
      "poi_name": "Norwalk Museum;Norwalk Museum Historical Reference Library",
      "osm_id": 367140304,
      "amenity": "library",
      "tourism": "museum",
      "website": "https://norwalkhistoricalsociety.org/",
      "addr_state": "CT",
      "value": 257.4409361199263
    },
    {
      "id": 17294,
      "geometry": "POINT (-73.378452 41.147041)",
      "poi_name": "Mid Fairfield Youth Museum",
      "osm_id": 367140307,
      "tourism": "museum",
      "addr_state": "CT",
      "value": 257.4409361199263
    },
    {
      "id": 17295,
      "geometry": "POINT (-73.190619 41.174976)",
      "poi_name": "Housatonic Museum of Art",
      "osm_id": 367140313,
      "tourism": "museum",
      "website": "https://museum.housatonic.edu/",
      "wikidata": "Q5913507",
      "addr_state": "CT",
      "value": 257.4409361199263
    },
    {
      "id": 17296,
      "geometry": "POINT (-73.496449 41.14992)",
      "poi_name": "John Rogers Studio and Museum",
      "osm_id": 367140314,
      "tourism": "museum",
      "website": "https://nchistory.org/portfolio/rogers-studio/",
      "wikidata": "Q6255455",
      "addr_state": "CT",
      "value": 257.4409361199263
    },
    {
      "id": 17297,
      "geometry": "POINT (-73.258935 41.145263)",
      "poi_name": "Connecticut Audubon Birdcraft Museum",
      "osm_id": 367140322,
      "tourism": "museum",
      "website": "https://www.ctaudubon.org/birdcraft-home/",
      "wikidata": "Q5161481",
      "addr_state": "CT",
      "value": 257.4409361199263
    },
    {
      "id": 17298,
      "geometry": "POINT (-73.497899 41.070652)",
      "poi_name": "Connecticut Graphis Arts Center and Museum",
      "osm_id": 367140323,
      "tourism": "museum",
      "addr_state": "CT",
      "value": 257.4409361199263
    },
    {
      "id": 17299,
      "geometry": "POINT (-73.622875 41.019976)",
      "poi_name": "Bruce Museum",
      "osm_id": 367140324,
      "tourism": "museum",
      "fee": "yes",
      "opening_hours": "Tu-Su 10:00-17:00",
      "website": "https://brucemuseum.org/",
      "addr_state": "CT",
      "addr_city": "Greenwich",
      "addr_postcode": "06830-7157",
      "addr_street": "Museum Drive",
      "addr_housenumber": "1",
      "value": 257.4409361199263
    },
    {
      "id": 17300,
      "geometry": "POINT (-73.13011 41.187597)",
      "poi_name": "Catharine B Mitchell Museum",
      "osm_id": 367140325,
      "tourism": "museum",
      "addr_state": "CT",
      "value": 257.4409361199263
    },
    {
      "id": 17302,
      "geometry": "POINT (-73.620126 41.018708)",
      "poi_name": "Bruce Museum",
      "osm_id": 367140327,
      "tourism": "museum",
      "wikidata": "Q4978056",
      "addr_state": "CT",
      "value": 257.4409361199263
    },
    {
      "id": 17797,
      "geometry": "POINT (-73.581793 41.331206)",
      "poi_name": "Hammond Museum",
      "osm_id": 368061534,
      "tourism": "museum",
      "website": "https://www.hammondmuseum.org/",
      "addr_state": "NY",
      "value": 257.4409361199263
    },
    {
      "id": 17798,
      "geometry": "POINT (-73.530324 40.870718)",
      "poi_name": "Earle - Wightman House Museum",
      "osm_id": 368061551,
      "tourism": "museum",
      "website": "https://www.oysterbayhistorical.org/house-and-garden.html",
      "wikidata": "Q5326398",
      "addr_state": "NY",
      "value": 257.4409361199263
    },
    {
      "id": 20091,
      "geometry": "POINT (-73.385373 41.311256)",
      "poi_name": "Redding Historical Society",
      "osm_id": 7862964899,
      "tourism": "museum",
      "website": "https://reddingcthistoricalsociety.org/",
      "wikidata": "Q5219161",
      "addr_state": "CT",
      "addr_city": "Redding",
      "addr_postcode": "06896",
      "addr_street": "Lonetown Road",
      "addr_housenumber": "43",
      "value": 257.4409361199263
    },
    {
      "id": 26451,
      "geometry": "POINT (-72.943337 41.299622)",
      "poi_name": "The Hill Museum of Arts",
      "osm_id": 5893892914,
      "tourism": "museum",
      "opening_hours": "We-Fr 10:00-16:00; Sa 11:45-17:00",
      "website": "https://www.krikkoproductions.com/the-hill-museum",
      "addr_state": "CT",
      "addr_city": "New Haven",
      "addr_postcode": "06519",
      "addr_street": "West Street",
      "addr_housenumber": "210",
      "value": 257.4409361199263
    },
    {
      "id": 22395,
      "geometry": "POINT (-73.457195 40.871256)",
      "poi_name": "Preservation Long Islannd",
      "osm_id": 7016083504,
      "tourism": "museum",
      "website": "http://preservationlonglsland.org/",
      "addr_state": "NY",
      "addr_city": "Cold Spring Harbor",
      "addr_postcode": "11724",
      "addr_street": "West Main Street",
      "addr_housenumber": "161",
      "value": 257.4409361199263
    }
  ],
  "answer_type": "loc",
  "question_entities": {
    "[2]": {
      "distance": 130000,
      "text": "130 kilometers"
    },
    "[3]": {
      "main_category": "tourism",
      "sub_category": "theme park",
      "display_name": "Discovery Depot at Nature's Art Village, Montville, CT",
      "geo_wkt": "POINT (-72.222213 41.431675)",
      "poi": {
        "id": 9052,
        "geometry": "POINT (-72.222213 41.431675)",
        "poi_name": "Discovery Depot at Nature's Art Village",
        "osm_id": 3646715046,
        "tourism": "theme_park",
        "opening_hours": "10:00-17:00 \"seasonal\"",
        "phone": "860-443-4367",
        "addr_state": "CT",
        "addr_city": "Montville",
        "addr_postcode": "06370",
        "addr_street": "Hartford-New London Turnpike",
        "addr_housenumber": "1650"
      }
    },
    "[4]": {
      "main_category": "leisure",
      "sub_category": "garden",
      "display_name": "Ferry Street Farm, New Haven, CT",
      "geo_wkt": "POINT (-72.89683 41.31639)",
      "poi": {
        "id": 246385,
        "geometry": "POINT (-72.89683 41.31639)",
        "poi_name": "Ferry Street Farm",
        "osm_id": 11413367607,
        "leisure": "garden",
        "operator": "Gather New Haven",
        "website": "http://www.gathernewhaven.org/",
        "addr_state": "CT",
        "addr_city": "New Haven",
        "addr_postcode": "06513",
        "addr_street": "Ferry Street",
        "addr_housenumber": "613"
      }
    },
    "[1]": {
      "main_category": "tourism",
      "sub_category": "museum"
    }
  },
  "id": 1276,
  "type": "range:towards+loc"
}