{
  "question": "I'm searching for a gallery within 170 kilometers radius from Portland Trails, Falmouth, ME, any suggestions?",
  "sql": "SELECT * FROM pois\nWHERE ST_DWithin(pois.geometry, ST_GeomFromText('POINT (-70.265885 43.717725)',4326)::geography, 170000)\nAND tourism = 'gallery';\n",
  "answers": [
    {
      "id": 2258,
      "geometry": "POINT (-71.180852 44.145119)",
      "poi_name": "White Mountain Photo Gallery",
      "osm_id": 3355688089,
      "tourism": "gallery",
      "website": "http://whitemountainphoto.com/gallery_frhttp://whitemountainphoto.com/gallery_frame_shop.htmlame_shop.html",
      "shop": "photography",
      "addr_state": "NH",
      "addr_city": "Jackson",
      "addr_postcode": "03846",
      "addr_street": "Main Street",
      "addr_housenumber": "95"
    },
    {
      "id": 4070,
      "geometry": "POINT (-69.006627 44.42596)",
      "poi_name": "Parent Gallery",
      "osm_id": 5664763128,
      "tourism": "gallery",
      "website": "https://nealparent.com/",
      "phone": "+1-207-338-1553",
      "addr_state": "ME",
      "addr_city": "Belfast",
      "addr_postcode": "04915",
      "addr_street": "Main Street",
      "addr_housenumber": "92"
    },
    {
      "id": 4240,
      "geometry": "POINT (-70.148532 44.668992)",
      "poi_name": "Emery Art Gallery",
      "osm_id": 5732355767,
      "tourism": "gallery"
    },
    {
      "id": 4316,
      "geometry": "POINT (-70.943405 42.463552)",
      "poi_name": "Galleries at LynnArts",
      "osm_id": 11216555383,
      "tourism": "gallery",
      "opening_hours": "Mo 13:00-16:00, We-Fr 13:00-16:00, Sa 11:00-17:00, Su \"by appointment\"",
      "operator": "LynnArts",
      "website": "https://www.galleriesatlynnarts.org/",
      "phone": "+US 617 909 9211"
    },
    {
      "id": 4486,
      "geometry": "POINT (-71.094537 42.338772)",
      "poi_name": "Arts of Asia",
      "osm_id": 11273327573,
      "tourism": "gallery",
      "fee": "yes"
    },
    {
      "id": 4487,
      "geometry": "POINT (-71.09325 42.339228)",
      "poi_name": "Art of Ancient Greece and Rome",
      "osm_id": 11273327574,
      "tourism": "gallery",
      "fee": "yes"
    },
    {
      "id": 4603,
      "geometry": "POINT (-70.61645 42.659158)",
      "poi_name": "Art Nook Gallery",
      "osm_id": 11345329677,
      "tourism": "gallery"
    },
    {
      "id": 4683,
      "geometry": "POINT (-70.951416 42.9799)",
      "poi_name": "Lamont Gallery",
      "osm_id": 11385853432,
      "tourism": "gallery",
      "opening_hours": "Tu-Fr 09:00-05:00; Sa 10:00-16:00",
      "operator": "Phillips Exeter Academy",
      "website": "https://www.exeter.edu/arts-exeter/lamont-gallery",
      "wikidata": "Q38250794"
    },
    {
      "id": 4849,
      "geometry": "POINT (-71.131883 42.351487)",
      "poi_name": "Out of the Blue Gallery",
      "osm_id": 9647708062,
      "tourism": "gallery",
      "website": "https://outoftheblueartgallery.com/"
    },
    {
      "id": 5052,
      "geometry": "POINT (-70.865862 42.811082)",
      "poi_name": "Newburyport Art Association",
      "osm_id": 9739802486,
      "tourism": "gallery",
      "website": "https://www.newburyportart.org/",
      "addr_city": "Newburyport",
      "addr_street": "Water Street",
      "addr_housenumber": "65"
    },
    {
      "id": 7284,
      "geometry": "POINT (-71.461738 42.991047)",
      "poi_name": "Muse Paintbar",
      "osm_id": 2055248179,
      "tourism": "gallery",
      "website": "https://musepaintbar.com/",
      "addr_state": "NH",
      "addr_city": "Manchester",
      "addr_postcode": "03101",
      "addr_street": "Hanover Street",
      "addr_housenumber": "42"
    },
    {
      "id": 7804,
      "geometry": "POINT (-70.945555 42.981429)",
      "poi_name": "Exeter Fine Crafts",
      "osm_id": 6417865878,
      "tourism": "gallery",
      "opening_hours": "Mo-We 10:00-17:30; Th 10:00-19:00; Fr-Sa 10:00-17:30; Su 12:00-16:00",
      "website": "https://www.exeterfinecrafts.com/",
      "phone": "+1 (603) 778-8282",
      "addr_state": "NH",
      "addr_city": "Exeter",
      "addr_postcode": "03833",
      "addr_street": "Water Street",
      "addr_housenumber": "61"
    },
    {
      "id": 7807,
      "geometry": "POINT (-70.947457 42.981406)",
      "poi_name": "Seacoast Artist Association",
      "osm_id": 6418210708,
      "tourism": "gallery",
      "opening_hours": "Tu-Sa 10:00-17:00; Su 12:00-16:00",
      "website": "http://seacoastartist.org",
      "phone": "+1-603-778-8856",
      "addr_state": "NH",
      "addr_city": "Exeter",
      "addr_postcode": "03833",
      "addr_street": "Water Street",
      "addr_housenumber": "130"
    },
    {
      "id": 8255,
      "geometry": "POINT (-70.265719 43.647279)",
      "poi_name": "PrintCraft",
      "osm_id": 6595002050,
      "tourism": "gallery",
      "addr_state": "ME",
      "addr_city": "Portland",
      "addr_postcode": "04102",
      "addr_street": "Danforth Street",
      "addr_housenumber": "246"
    },
    {
      "id": 9646,
      "geometry": "POINT (-71.575785 42.901717)",
      "poi_name": "The Gallery at LaBelle Winery",
      "osm_id": 8908045324,
      "tourism": "gallery",
      "website": "https://labellewinery.com/labelle-winery-amherst/the-gallery/",
      "addr_state": "NH",
      "addr_city": "Amherst",
      "addr_postcode": "03031",
      "addr_street": "Route 101",
      "addr_housenumber": "345"
    },
    {
      "id": 9689,
      "geometry": "POINT (-72.31896 43.647974)",
      "poi_name": "Scavenger Gallery",
      "osm_id": 8936504553,
      "tourism": "gallery",
      "opening_hours": "Th-Sa 13:00-17:00",
      "website": "https://www.scavengergallery.com/",
      "shop": "jewelry;wine",
      "phone": "+1-603-443-3017",
      "addr_state": "VT",
      "addr_city": "White River Junction",
      "addr_postcode": "05001",
      "addr_street": "South Main Street",
      "addr_housenumber": "41"
    },
    {
      "id": 9711,
      "geometry": "POINT (-69.774029 44.31523)",
      "poi_name": "POP-UP 265",
      "osm_id": 8949788429,
      "tourism": "gallery",
      "addr_state": "ME",
      "addr_city": "Augusta",
      "addr_postcode": "04330",
      "addr_street": "Water Street",
      "addr_housenumber": "265"
    },
    {
      "id": 9973,
      "geometry": "POINT (-70.744393 43.085777)",
      "poi_name": "Buoy Gallery",
      "osm_id": 9084608514,
      "tourism": "gallery"
    },
    {
      "id": 10358,
      "geometry": "POINT (-71.081964 42.338711)",
      "poi_name": "Piano Craft Gallery",
      "osm_id": 6813234617,
      "tourism": "gallery",
      "opening_hours": "Fr 18:00-20:00; Sa-Su 12:00-17:00",
      "website": "https://pianocraftguild.com/",
      "addr_state": "MA",
      "addr_city": "Boston",
      "addr_postcode": "02118",
      "addr_street": "Tremont Street",
      "addr_housenumber": "793"
    },
    {
      "id": 10465,
      "geometry": "POINT (-72.318973 43.647873)",
      "poi_name": "Long River Gallery",
      "osm_id": 6865169283,
      "tourism": "gallery",
      "website": "https://www.longrivergallery.com/",
      "phone": "+1-802-295-4567",
      "addr_state": "VT",
      "addr_city": "White River Junction",
      "addr_postcode": "05001",
      "addr_street": "South Main Street",
      "addr_housenumber": "49"
    },
    {
      "id": 10595,
      "geometry": "POINT (-71.535776 43.205284)",
      "poi_name": "League of N.H. Craftsmen",
      "osm_id": 6935604353,
      "tourism": "gallery",
      "fee": "no",
      "opening_hours": "Tu-Sa 10:00-16:00"
    },
    {
      "id": 10638,
      "geometry": "POINT (-71.319394 42.639934)",
      "poi_name": "Loading Dock Gallery",
      "osm_id": 6961284629,
      "tourism": "gallery"
    },
    {
      "id": 10813,
      "geometry": "POINT (-70.889186 42.531437)",
      "poi_name": "Salem Art Gallery",
      "osm_id": 8045402193,
      "tourism": "gallery",
      "operator": "The Satanic Temple",
      "website": "https://www.salemartgallery.com/",
      "phone": "+1 857 523 2200",
      "addr_state": "MA",
      "addr_city": "Salem",
      "addr_postcode": "01970",
      "addr_street": "Bridge Street",
      "addr_housenumber": "64"
    },
    {
      "id": 11034,
      "geometry": "POINT (-71.139487 42.353981)",
      "poi_name": "Unbound Visual Arts Gallery",
      "osm_id": 9824041096,
      "tourism": "gallery",
      "website": "https://www.unboundvisualarts.org/",
      "addr_street": "North Beacon Street",
      "addr_housenumber": "43"
    },
    {
      "id": 11358,
      "geometry": "POINT (-71.687631 43.75745)",
      "poi_name": "Artistic Roots",
      "osm_id": 9945972926,
      "tourism": "gallery"
    },
    {
      "id": 11389,
      "geometry": "POINT (-72.016024 44.418088)",
      "poi_name": "Jackie Fox Studio",
      "osm_id": 9955838452,
      "tourism": "gallery",
      "addr_state": "VT",
      "addr_city": "Saint Johnsbury",
      "addr_postcode": "05819",
      "addr_street": "Railroad Street",
      "addr_housenumber": "379"
    },
    {
      "id": 11474,
      "geometry": "POINT (-70.774031 43.068745)",
      "poi_name": "The Button Factory",
      "osm_id": 9982238608,
      "tourism": "gallery",
      "website": "http://www.buttonfactorystudios.com/",
      "addr_street": "Islington Street",
      "addr_housenumber": "855"
    },
    {
      "id": 11692,
      "geometry": "POINT (-69.115396 44.106648)",
      "poi_name": "Jonathan Frost Gallery & Frame Shop",
      "osm_id": 11491273515,
      "tourism": "gallery",
      "opening_hours": "Tu-Sa 10:00-17:00",
      "operator": "Jonathan Frost",
      "website": "https://jonathanfrostgallery.com",
      "phone": "207-596-0800",
      "addr_state": "ME",
      "addr_city": "Rockland",
      "addr_postcode": "04841",
      "addr_street": "Lincoln St",
      "addr_housenumber": "24"
    },
    {
      "id": 11981,
      "geometry": "POINT (-71.120778 42.372724)",
      "poi_name": "The Cooper Gallery",
      "osm_id": 6124468282,
      "tourism": "gallery",
      "opening_hours": "Tu-Sa 10:00-17:00",
      "website": "https://www.coopergalleryhc.org/",
      "addr_state": "MA",
      "addr_city": "Cambridge",
      "addr_postcode": "02138",
      "addr_street": "Mount Auburn Street",
      "addr_housenumber": "102"
    },
    {
      "id": 12524,
      "geometry": "POINT (-69.109238 44.102993)",
      "poi_name": "Clarke Gallery",
      "osm_id": 7289183166,
      "tourism": "gallery",
      "website": "https://www.clarkegallery.com/",
      "phone": "+1 207 466 9325",
      "addr_state": "ME",
      "addr_city": "Rockland",
      "addr_postcode": "04841",
      "addr_street": "Main Street",
      "addr_housenumber": "338"
    },
    {
      "id": 12525,
      "geometry": "POINT (-69.109232 44.103051)",
      "poi_name": "Stanhope & Spencer",
      "osm_id": 7289183167,
      "tourism": "gallery",
      "website": "https://www.stanhopeandspencergallery.com/",
      "phone": "+1 207 593 8442",
      "addr_state": "ME",
      "addr_city": "Rockland",
      "addr_postcode": "04841",
      "addr_street": "Main Street",
      "addr_housenumber": "342"
    },
    {
      "id": 12573,
      "geometry": "POINT (-69.627771 43.851506)",
      "poi_name": "Boothbay Region Art Foundation Gallery",
      "osm_id": 7343668960,
      "tourism": "gallery",
      "addr_state": "ME",
      "addr_city": "Boothbay Harbor",
      "addr_postcode": "04538",
      "addr_street": "Townsend Avenue",
      "addr_housenumber": "1"
    },
    {
      "id": 12574,
      "geometry": "POINT (-69.623485 43.849981)",
      "poi_name": "Joy to the Wind Gallery",
      "osm_id": 7343669783,
      "tourism": "gallery",
      "addr_state": "ME",
      "addr_city": "Boothbay Harbor",
      "addr_postcode": "04538",
      "addr_street": "Atlantic Avenue",
      "addr_housenumber": "34"
    },
    {
      "id": 12732,
      "geometry": "POINT (-71.081712 42.349601)",
      "poi_name": "Vose Galleries LLC",
      "osm_id": 7501883777,
      "tourism": "gallery",
      "website": "https://www.vosegalleries.com/",
      "phone": "+1-617-536-6176",
      "addr_state": "MA",
      "addr_city": "Boston",
      "addr_postcode": "02116",
      "addr_street": "Newbury Street",
      "addr_housenumber": "238"
    },
    {
      "id": 12768,
      "geometry": "POINT (-71.075909 42.351117)",
      "poi_name": "Pellas Gallery",
      "osm_id": 7530327284,
      "tourism": "gallery",
      "website": "https://pellasgallery.com/",
      "phone": "+1-424-394-2184",
      "addr_state": "MA",
      "addr_city": "Boston",
      "addr_postcode": "02116",
      "addr_street": "Newbury Street",
      "addr_housenumber": "114"
    },
    {
      "id": 12778,
      "geometry": "POINT (-71.076818 42.351372)",
      "poi_name": "Arden Gallery",
      "osm_id": 7533863117,
      "tourism": "gallery",
      "website": "https://www.ardengallery.com/",
      "phone": "+1-617-247-0610",
      "addr_state": "MA",
      "addr_city": "Boston",
      "addr_postcode": "02116",
      "addr_street": "Newbury Street",
      "addr_housenumber": "129"
    },
    {
      "id": 12779,
      "geometry": "POINT (-71.078508 42.350469)",
      "poi_name": "The Guild of Boston Artists",
      "osm_id": 7535710989,
      "tourism": "gallery",
      "website": "https://www.guildofbostonartists.org/",
      "phone": "+1-617-536-7660",
      "wikidata": "Q7738463",
      "addr_state": "MA",
      "addr_city": "Boston",
      "addr_postcode": "02116",
      "addr_street": "Newbury Street",
      "addr_housenumber": "162"
    },
    {
      "id": 12786,
      "geometry": "POINT (-71.560127 43.459821)",
      "poi_name": "LRAA Art Gallery",
      "osm_id": 7541455763,
      "tourism": "gallery"
    },
    {
      "id": 14013,
      "geometry": "POINT (-69.629892 44.549064)",
      "poi_name": "The Framemakers",
      "osm_id": 4212950908,
      "tourism": "gallery",
      "website": "https://theframemakers.com/",
      "addr_state": "ME",
      "addr_city": "Waterville",
      "addr_postcode": "04901",
      "addr_street": "Main Street",
      "addr_housenumber": "46"
    },
    {
      "id": 15650,
      "geometry": "POINT (-71.460789 42.991388)",
      "poi_name": "ARGH Gallery",
      "osm_id": 9428923473,
      "tourism": "gallery",
      "addr_state": "NH",
      "addr_city": "Manchester",
      "addr_postcode": "03101",
      "addr_street": "Chestnut Street",
      "addr_housenumber": "416"
    },
    {
      "id": 15651,
      "geometry": "POINT (-71.461976 42.991048)",
      "poi_name": "Diane Crespo Fine Art Gallery",
      "osm_id": 9428923509,
      "tourism": "gallery",
      "addr_state": "NH",
      "addr_city": "Manchester",
      "addr_postcode": "03101",
      "addr_street": "Hanover Street",
      "addr_housenumber": "32"
    },
    {
      "id": 15787,
      "geometry": "POINT (-71.69087 44.28023)",
      "poi_name": "Local Works Marketplace at WREN",
      "osm_id": 9525610982,
      "tourism": "gallery",
      "addr_state": "NH",
      "addr_city": "Bethlehem",
      "addr_postcode": "03574",
      "addr_street": "Main Street",
      "addr_housenumber": "2011"
    },
    {
      "id": 17320,
      "geometry": "POINT (-71.118686 42.404466)",
      "poi_name": "Remis Sculpture Gallery",
      "osm_id": 367777312,
      "tourism": "gallery",
      "addr_state": "MA"
    },
    {
      "id": 19361,
      "geometry": "POINT (-69.664156 44.00259)",
      "poi_name": "Sylvan Gallery",
      "osm_id": 10735997402,
      "tourism": "gallery",
      "addr_state": "ME",
      "addr_city": "Wiscasset",
      "addr_postcode": "04578",
      "addr_street": "Water Street",
      "addr_housenumber": "49"
    },
    {
      "id": 19572,
      "geometry": "POINT (-71.118863 42.386704)",
      "poi_name": "Nancy and Edward Roberts Gallery",
      "osm_id": 10811320943,
      "tourism": "gallery",
      "shop": "art"
    },
    {
      "id": 19935,
      "geometry": "POINT (-71.079039 42.350765)",
      "poi_name": "Childs Gallery",
      "osm_id": 7770903362,
      "tourism": "gallery",
      "wheelchair": "no",
      "website": "https://childsgallery.com/",
      "phone": "+1-617-266-1108",
      "addr_state": "MA",
      "addr_city": "Boston",
      "addr_postcode": "02116",
      "addr_street": "Newbury Street",
      "addr_housenumber": "169"
    },
    {
      "id": 19936,
      "geometry": "POINT (-71.078966 42.350802)",
      "poi_name": "DTR Modern Galleries",
      "osm_id": 7770903363,
      "tourism": "gallery",
      "opening_hours": "Mo-Sa 10:00-18:00; Su 11:00-18:00",
      "website": "http://www.dtrmodern.com/aboutus.php#Boston",
      "phone": "+1-617-424-9700",
      "addr_state": "MA",
      "addr_city": "Boston",
      "addr_postcode": "02116",
      "addr_street": "Newbury Street",
      "addr_housenumber": "167"
    },
    {
      "id": 20008,
      "geometry": "POINT (-71.071919 42.352262)",
      "poi_name": "Krakow Witkin Gallery",
      "osm_id": 7811482138,
      "tourism": "gallery",
      "website": "https://www.krakowwitkingallery.com/",
      "phone": "+1-617-262-4490",
      "addr_state": "MA",
      "addr_city": "Boston",
      "addr_postcode": "02116",
      "addr_street": "Newbury Street",
      "addr_housenumber": "10"
    },
    {
      "id": 20032,
      "geometry": "POINT (-71.070641 42.358066)",
      "poi_name": "Eugene Galleries, Inc.",
      "osm_id": 7828185890,
      "tourism": "gallery",
      "website": "http://www.eugenegalleries.com/",
      "shop": "vacant",
      "phone": "+1-617-227-3062",
      "addr_state": "MA",
      "addr_city": "Boston",
      "addr_postcode": "02114",
      "addr_street": "Charles Street",
      "addr_housenumber": "76"
    },
    {
      "id": 20173,
      "geometry": "POINT (-71.069803 42.356552)",
      "poi_name": "Grogan & Company",
      "osm_id": 7914577736,
      "tourism": "gallery",
      "fee": "no",
      "opening_hours": "Mo-Fr 09:00-17:00",
      "operator": "Grogan & Company, Inc.",
      "website": "https://www.groganco.com/",
      "phone": "+1-617-720-2020",
      "addr_state": "MA",
      "addr_city": "Boston",
      "addr_postcode": "02108",
      "addr_street": "Charles Street",
      "addr_housenumber": "20"
    },
    {
      "id": 20211,
      "geometry": "POINT (-71.074133 42.352062)",
      "poi_name": "Gallery NAGA",
      "osm_id": 7936394028,
      "tourism": "gallery",
      "opening_hours": "Tu-Sa 11:00-17:00",
      "website": "https://www.gallerynaga.com/",
      "phone": "+1-617-267-9060",
      "addr_state": "MA",
      "addr_city": "Boston",
      "addr_postcode": "02116",
      "addr_street": "Newbury Street",
      "addr_housenumber": "67"
    },
    {
      "id": 21830,
      "geometry": "POINT (-70.757977 43.078844)",
      "poi_name": "Piscataqua Fine Arts",
      "osm_id": 10687226196,
      "tourism": "gallery"
    },
    {
      "id": 22556,
      "geometry": "POINT (-71.461041 42.991697)",
      "poi_name": "Roger Williams Studios",
      "osm_id": 7154858805,
      "tourism": "gallery"
    },
    {
      "id": 22566,
      "geometry": "POINT (-69.664783 44.002806)",
      "poi_name": "Ingram Fine Art & Antiques",
      "osm_id": 7157884706,
      "tourism": "gallery",
      "addr_state": "ME",
      "addr_city": "Wiscasset",
      "addr_postcode": "04578",
      "addr_street": "Main Street",
      "addr_housenumber": "85"
    },
    {
      "id": 22589,
      "geometry": "POINT (-70.253615 43.656422)",
      "poi_name": "G\u00fcven Gallery",
      "osm_id": 7171975607,
      "tourism": "gallery",
      "addr_state": "ME",
      "addr_city": "Portland",
      "addr_postcode": "04101",
      "addr_street": "Fore Street",
      "addr_housenumber": "399"
    },
    {
      "id": 22591,
      "geometry": "POINT (-70.735872 43.306725)",
      "poi_name": "Dennis Pourier Studio and Gallery",
      "osm_id": 7172586699,
      "tourism": "gallery",
      "operator": "Dennis Pourier",
      "addr_state": "ME",
      "addr_city": "North Berwick",
      "addr_postcode": "03906",
      "addr_street": "Wells Street",
      "addr_housenumber": "33"
    },
    {
      "id": 22686,
      "geometry": "POINT (-72.158835 43.811304)",
      "poi_name": "Matt Brown Fine Art",
      "osm_id": 7217004235,
      "tourism": "gallery",
      "opening_hours": "Fr-Sa 10:00-17:00",
      "website": "https://mbrownfa.com/",
      "phone": "+1-603-795-4855",
      "addr_state": "NH",
      "addr_city": "Lyme",
      "addr_postcode": "03768",
      "addr_street": "Main Street",
      "addr_housenumber": "1"
    },
    {
      "id": 23283,
      "geometry": "POINT (-70.257889 43.657116)",
      "poi_name": "Grant Wahlquist Gallery",
      "osm_id": 5094931625,
      "tourism": "gallery",
      "opening_hours": "We, Th, Sa 11:00-18:00",
      "website": "https://www.grantwahlquist.com/",
      "phone": "+1-207-245-5732",
      "addr_street": "City Center",
      "addr_housenumber": "30, 2Fl"
    },
    {
      "id": 23284,
      "geometry": "POINT (-70.230076 43.724219)",
      "poi_name": "Elizqbeth Moss Gallery",
      "osm_id": 5094945966,
      "tourism": "gallery",
      "opening_hours": "Mo-Sa 10:00-17:00",
      "addr_street": "US 1",
      "addr_housenumber": "251"
    },
    {
      "id": 24015,
      "geometry": "POINT (-71.181915 42.367852)",
      "poi_name": "Drive By Projects",
      "osm_id": 9249399944,
      "tourism": "gallery",
      "website": "https://drive-byprojects.com/",
      "phone": "+1 617 835 8255",
      "addr_state": "MA",
      "addr_city": "Watertown",
      "addr_postcode": "02472",
      "addr_street": "Spring Street",
      "addr_housenumber": "81"
    },
    {
      "id": 24016,
      "geometry": "POINT (-71.19682 42.364928)",
      "poi_name": "turtle studios",
      "osm_id": 9249399945,
      "tourism": "gallery",
      "website": "https://www.turtlestudios.org/",
      "phone": "+1 617 244 2865",
      "addr_state": "MA",
      "addr_city": "Newton",
      "addr_postcode": "02458",
      "addr_street": "California Street",
      "addr_housenumber": "213"
    },
    {
      "id": 24305,
      "geometry": "POINT (-71.042225 42.367672)",
      "poi_name": "ClipArt Gallery",
      "osm_id": 10997676044,
      "tourism": "gallery",
      "opening_hours": "Sa 12:00-16:00",
      "operator": "Slip65",
      "addr_state": "MA",
      "addr_city": "East Boston",
      "addr_postcode": "02128",
      "addr_street": "Lewis Street",
      "addr_housenumber": "65"
    },
    {
      "id": 24396,
      "geometry": "POINT (-70.756693 43.076021)",
      "poi_name": "Nancy Morgan Art",
      "osm_id": 11034776318,
      "tourism": "gallery",
      "addr_street": "State Street",
      "addr_housenumber": "238"
    },
    {
      "id": 24440,
      "geometry": "POINT (-71.042044 42.372159)",
      "poi_name": "Atlantic Works Gallery",
      "osm_id": 11057226497,
      "tourism": "gallery",
      "addr_state": "MA",
      "addr_city": "East Boston",
      "addr_postcode": "02128",
      "addr_street": "Border Street",
      "addr_housenumber": "80"
    },
    {
      "id": 24478,
      "geometry": "POINT (-70.975742 44.018733)",
      "poi_name": "Pace Galleries of Art",
      "osm_id": 11070195311,
      "tourism": "gallery",
      "operator": "Fryeburg Academy"
    },
    {
      "id": 26762,
      "geometry": "POINT (-71.041929 42.337385)",
      "poi_name": "The Distillery Gallery",
      "osm_id": 6033915728,
      "tourism": "gallery",
      "website": "https://distillerygallery.squarespace.com/",
      "addr_state": "MA",
      "addr_city": "Boston",
      "addr_postcode": "02127",
      "addr_street": "East Second Street",
      "addr_housenumber": "516"
    },
    {
      "id": 26857,
      "geometry": "POINT (-71.078326 42.350504)",
      "poi_name": "Co|So: Copley Society of Art",
      "osm_id": 7598963532,
      "description": "The Copley Society of Art is the oldest non-profit art association in the United States, with a history dating back to 1879.",
      "tourism": "gallery",
      "website": "https://copleysociety.org/",
      "phone": "+1-617-536-5049",
      "wikidata": "Q5168633",
      "addr_state": "MA",
      "addr_city": "Boston",
      "addr_postcode": "02116",
      "addr_street": "Newbury Street",
      "addr_housenumber": "158"
    },
    {
      "id": 26906,
      "geometry": "POINT (-71.06548 42.351555)",
      "poi_name": "Huret & Spector Gallery",
      "osm_id": 7618802653,
      "tourism": "gallery",
      "operator": "Emerson College"
    },
    {
      "id": 26907,
      "geometry": "POINT (-71.063466 42.353388)",
      "poi_name": "Emerson Contemporary: Media Art Gallery",
      "osm_id": 7618802658,
      "tourism": "gallery",
      "operator": "Emerson College"
    },
    {
      "id": 27090,
      "geometry": "POINT (-71.071828 42.344329)",
      "poi_name": "Mills Gallery",
      "osm_id": 7688586707,
      "tourism": "gallery",
      "operator": "Boston Center for the Arts"
    },
    {
      "id": 27133,
      "geometry": "POINT (-71.078268 42.351305)",
      "poi_name": "Rolly-Michaux Galleries",
      "osm_id": 7725901227,
      "tourism": "gallery",
      "website": "https://calendar.artsboston.org/organization/rolly-michaux-galleries/",
      "phone": "+1-617-536-9898",
      "addr_state": "MA",
      "addr_city": "Boston",
      "addr_postcode": "02116",
      "addr_street": "Dartmouth Street",
      "addr_housenumber": "290"
    },
    {
      "id": 27220,
      "geometry": "POINT (-71.081779 42.34953)",
      "poi_name": "Pucker Gallery",
      "osm_id": 7757221195,
      "tourism": "gallery",
      "wheelchair": "yes",
      "website": "https://www.puckergallery.com/",
      "phone": "+1-617-267-9473",
      "addr_state": "MA",
      "addr_city": "Boston",
      "addr_postcode": "02116",
      "addr_street": "Newbury Street",
      "addr_housenumber": "240"
    },
    {
      "id": 27224,
      "geometry": "POINT (-71.072995 42.352432)",
      "poi_name": "Newbury Fine Arts",
      "osm_id": 7762364093,
      "tourism": "gallery",
      "website": "https://www.newburyfinearts.com/",
      "phone": "+1-617-536-0210",
      "addr_state": "MA",
      "addr_city": "Boston",
      "addr_postcode": "02116",
      "addr_street": "Newbury Street",
      "addr_housenumber": "35"
    },
    {
      "id": 27225,
      "geometry": "POINT (-71.07294 42.35246)",
      "poi_name": "Galerie d'Orsay",
      "osm_id": 7762364099,
      "tourism": "gallery",
      "website": "https://www.galerie-dorsay.com/",
      "phone": "+1-617-266-8001",
      "addr_state": "MA",
      "addr_city": "Boston",
      "addr_postcode": "02116",
      "addr_street": "Newbury Street",
      "addr_housenumber": "33"
    }
  ],
  "answer_type": "name",
  "question_entities": {
    "[1]": {
      "main_category": "tourism",
      "sub_category": "gallery"
    },
    "[2]": {
      "distance": 170000,
      "text": "170 kilometers"
    },
    "[3]": {
      "main_category": "leisure",
      "sub_category": "park",
      "display_name": "Portland Trails, Falmouth, ME",
      "geo_wkt": "POINT (-70.265885 43.717725)",
      "poi": {
        "id": 266339,
        "geometry": "POINT (-70.265885 43.717725)",
        "poi_name": "Portland Trails",
        "osm_id": 7188370158,
        "leisure": "park",
        "addr_state": "ME",
        "addr_city": "Falmouth",
        "addr_postcode": "04105",
        "addr_street": "Allen Avenue Extension",
        "addr_housenumber": "88"
      }
    }
  },
  "id": 830,
  "type": "range+name"
}