{
  "question": "What's the distance between Denver Health Medical Emergency Center for Children, Denver, CO and a museum within 80 kilometers?",
  "sql": "SELECT *, ST_Distance(ST_GeomFromText('POINT (-104.991082 39.727656)',4326)::geography, pois.geometry) AS distance FROM pois\nWHERE ST_DWithin(pois.geometry, ST_GeomFromText('POINT (-104.991082 39.727656)',4326)::geography, 80000)\nAND tourism = 'museum';\n",
  "answers": [
    {
      "id": 619,
      "geometry": "POINT (-105.224827 39.751848)",
      "poi_name": "The Colorado School of Mines Geology Museum",
      "osm_id": 2622999684,
      "tourism": "museum",
      "website": "https://www.mines.edu/museumofearthscience/",
      "wikidata": "Q15959608",
      "addr_city": "Golden",
      "addr_postcode": "80401",
      "addr_street": "Maple Street",
      "addr_housenumber": "1310",
      "distance": 20215.19645712
    },
    {
      "id": 1393,
      "geometry": "POINT (-104.837334 39.745062)",
      "poi_name": "Eisenhower's Room",
      "osm_id": 2969741585,
      "tourism": "museum",
      "website": "https://www.ucdenver.edu/academics/colleges/medicalschool/administration/history/Pages/Eisenhower-Suite.aspx",
      "distance": 13320.39532764
    },
    {
      "id": 2600,
      "geometry": "POINT (-105.076846 40.305465)",
      "poi_name": "Little Thompson Valley Pioneer Museum",
      "osm_id": 530180384,
      "tourism": "museum",
      "website": "https://www.berthoudhistoricalsociety.org/",
      "distance": 64573.44182432
    },
    {
      "id": 3561,
      "geometry": "POINT (-104.98984 39.737124)",
      "poi_name": "Center for Colorado Women\u2019s History",
      "osm_id": 5465741433,
      "tourism": "museum",
      "wheelchair": "yes",
      "opening_hours": "Mo, Thur, Fri, Sat 10:30 - 15:30",
      "website": "https://www.historycolorado.org/center-colorado-womens-history",
      "addr_state": "CO",
      "addr_city": "Denver",
      "addr_postcode": "80204",
      "addr_street": "Bannock Street",
      "addr_housenumber": "1310",
      "distance": 1056.57228851
    },
    {
      "id": 3815,
      "geometry": "POINT (-105.081101 39.668143)",
      "poi_name": "Molly Brown Summer House",
      "osm_id": 5608503565,
      "tourism": "museum",
      "website": "https://www.mollybrownsummerhouse.com/",
      "wikidata": "Q4829106",
      "addr_state": "CO",
      "addr_city": "Denver",
      "addr_postcode": "80227",
      "addr_street": "West Yale Avenue",
      "addr_housenumber": "7595",
      "distance": 10162.27318058
    },
    {
      "id": 4069,
      "geometry": "POINT (-104.994635 39.753866)",
      "poi_name": "National Ballpark Museum",
      "osm_id": 5664762221,
      "tourism": "museum",
      "opening_hours": "Tu-Sa 11:00-17:00",
      "website": "https://ballparkmuseum.com/",
      "addr_state": "CO",
      "addr_city": "Denver",
      "addr_postcode": "80202",
      "addr_street": "Blake Street",
      "addr_housenumber": "1940",
      "distance": 2926.03499583
    },
    {
      "id": 4549,
      "geometry": "POINT (-105.024586 39.611414)",
      "poi_name": "SpaceX Falcon 9 DISH Network Rocket",
      "osm_id": 11307847056,
      "description": "Given to DISH Networks HQ for display for being a SpaceX Customer",
      "tourism": "museum",
      "opening_hours": "24/7",
      "operator": "SpaceX",
      "museum": "art",
      "distance": 13222.40597729
    },
    {
      "id": 5160,
      "geometry": "POINT (-104.982453 39.70918)",
      "poi_name": "International Church of Cannabis",
      "osm_id": 9784520819,
      "tourism": "museum",
      "website": "https://elevationists.org/",
      "addr_postcode": "80209",
      "addr_street": "South Logan Street",
      "addr_housenumber": "400",
      "distance": 2180.70555277
    },
    {
      "id": 5604,
      "geometry": "POINT (-104.862306 39.374057)",
      "poi_name": "Castle Rock Museum",
      "osm_id": 833649879,
      "tourism": "museum",
      "opening_hours": "We-Fr 12:00-17:00; Sa 11:00-16:00",
      "website": "https://www.castlerockmuseum.org/",
      "addr_city": "Castle Rock",
      "addr_postcode": "80104",
      "addr_street": "Elbert Street",
      "addr_housenumber": "420",
      "distance": 40789.15983052
    },
    {
      "id": 5834,
      "geometry": "POINT (-105.132286 39.979803)",
      "poi_name": "Louisville Historical Museum",
      "osm_id": 1642159826,
      "tourism": "museum",
      "wheelchair": "limited",
      "fee": "no",
      "opening_hours": "Tu-Sa 10:00-15:00; We 13:00-18:00; Jul 04, Nov 11 off; Nov 23 - 24 off",
      "website": "https://www.louisvilleco.gov/exploring-louisville/historical-museum",
      "addr_state": "CO",
      "addr_city": "Louisville",
      "addr_postcode": "80027",
      "addr_street": "Main Street",
      "addr_housenumber": "1001",
      "distance": 30492.73546517
    },
    {
      "id": 7301,
      "geometry": "POINT (-105.202478 40.065806)",
      "poi_name": "Shelby American Car Museum",
      "osm_id": 2071818182,
      "tourism": "museum",
      "opening_hours": "Sa 10:00-16:00",
      "website": "https://shelbyamericancollection.org/",
      "phone": "+1-303-516-9565",
      "distance": 41671.64311764
    },
    {
      "id": 8277,
      "geometry": "POINT (-105.021362 39.743706)",
      "poi_name": "Colorado Sports Hall of Fame",
      "osm_id": 6604135495,
      "tourism": "museum",
      "website": "https://www.coloradosports.org/",
      "wikidata": "Q5148916",
      "distance": 3148.51133703
    },
    {
      "id": 9509,
      "geometry": "POINT (-105.269329 40.225676)",
      "poi_name": "Lyons Redstone Museum",
      "osm_id": 3850677427,
      "tourism": "museum",
      "website": "www.lyonsredstonemuseum.com",
      "distance": 60189.02352836
    },
    {
      "id": 9567,
      "geometry": "POINT (-105.275298 39.978056)",
      "poi_name": "NCAR Exhibits",
      "osm_id": 3889737512,
      "tourism": "museum",
      "wheelchair": "yes",
      "fee": "no",
      "opening_hours": "Mo-Fr 08:00-17:00, Sa-Su 08:00-16:00, PH 08:00-16:00",
      "operator": "National Center for Atmospheric Research",
      "website": "https://scied.ucar.edu/exhibits/exhibits-national-center-atmospheric-research",
      "museum": "aerospace",
      "distance": 36939.75522696
    },
    {
      "id": 9581,
      "geometry": "POINT (-105.411233 40.063634)",
      "poi_name": "Gold Hill Museum",
      "osm_id": 3894535847,
      "tourism": "museum",
      "addr_street": "Pine Street",
      "addr_housenumber": "661",
      "distance": 51795.62799776
    },
    {
      "id": 12358,
      "geometry": "POINT (-105.167906 39.822921)",
      "poi_name": "Cussler Museum",
      "osm_id": 6314730866,
      "tourism": "museum",
      "opening_hours": "May-Sep: Mo-Th 10:00-17:00; Oct-Apr: closed",
      "website": "https://www.cusslermuseum.com/",
      "addr_state": "CO",
      "addr_city": "Arvada",
      "addr_postcode": "80007",
      "addr_street": "West 69th Avenue",
      "addr_housenumber": "14959",
      "distance": 18476.29391101
    },
    {
      "id": 15115,
      "geometry": "POINT (-105.118325 39.719658)",
      "poi_name": "Denver Federal Center Museum",
      "osm_id": 4806942380,
      "tourism": "museum",
      "distance": 10945.56418067
    },
    {
      "id": 16672,
      "geometry": "POINT (-104.998839 39.730046)",
      "poi_name": "Museo De Las Americas",
      "osm_id": 366394539,
      "tourism": "museum",
      "website": "https://museo.org/",
      "wikidata": "Q18154827",
      "addr_state": "CO",
      "addr_city": "Denver",
      "addr_postcode": "80204",
      "addr_street": "Santa Fe Drive",
      "addr_housenumber": "861",
      "distance": 716.01374859
    },
    {
      "id": 16673,
      "geometry": "POINT (-104.960654 39.745713)",
      "poi_name": "Denver Museum of Miniatures, Dolls And Toys",
      "osm_id": 366396447,
      "tourism": "museum",
      "website": "https://dmmdt.org/",
      "phone": "+1-303-322-1053",
      "wikidata": "Q5259750",
      "addr_state": "CO",
      "addr_city": "Denver",
      "addr_postcode": "80205",
      "addr_street": "Gaylord Street",
      "addr_housenumber": "1880",
      "distance": 3289.82743569
    },
    {
      "id": 16674,
      "geometry": "POINT (-105.017044 39.748654)",
      "poi_name": "Children\u2019s Museum of Denver at Marsico Campus",
      "osm_id": 366396449,
      "tourism": "museum",
      "museum": "children",
      "wikidata": "Q5098167",
      "addr_state": "CO",
      "addr_city": "Denver",
      "addr_postcode": "80211",
      "addr_street": "Children's Museum Drive",
      "addr_housenumber": "2121",
      "distance": 3223.0272012
    },
    {
      "id": 16675,
      "geometry": "POINT (-105.323457 39.639114)",
      "poi_name": "Hiwan Homestead Museum",
      "osm_id": 366396452,
      "tourism": "museum",
      "opening_hours": "Tu-Fr 12:00-16:00; Sa,Su 12:00-16:30",
      "website": "https://www.jeffco.us/1251/Hiwan-Heritage-Park",
      "addr_state": "CO",
      "distance": 30160.5500599
    },
    {
      "id": 16676,
      "geometry": "POINT (-104.917249 39.709062)",
      "poi_name": "Mizel Museum",
      "osm_id": 366396453,
      "tourism": "museum",
      "website": "https://mizelmuseum.org/",
      "phone": "+1-720-785-7300",
      "addr_state": "CO",
      "addr_city": "Denver",
      "addr_postcode": "80224",
      "addr_street": "South Kearney Street",
      "addr_housenumber": "400",
      "distance": 6658.83303685
    },
    {
      "id": 16677,
      "geometry": "POINT (-104.992426 39.740657)",
      "poi_name": "Denver Firefighters Museum",
      "osm_id": 366396458,
      "tourism": "museum",
      "website": "https://denverfirefightersmuseum.org/",
      "phone": "+1-303-892-1436",
      "wikidata": "Q5259725",
      "addr_state": "CO",
      "addr_city": "Denver",
      "addr_postcode": "80204",
      "addr_street": "Tremont Place",
      "addr_housenumber": "1326",
      "distance": 1448.0488788
    },
    {
      "id": 16678,
      "geometry": "POINT (-104.974471 39.759228)",
      "poi_name": "Black American West Museum",
      "osm_id": 366396460,
      "tourism": "museum",
      "fee": "yes",
      "opening_hours": "Sa 10:00-14:00",
      "website": "https://www.bawmhc.org/",
      "addr_state": "CO",
      "addr_city": "Denver",
      "addr_postcode": "80205",
      "addr_street": "California Street",
      "addr_housenumber": "3091",
      "distance": 3783.54890071
    },
    {
      "id": 16679,
      "geometry": "POINT (-104.987962 39.744627)",
      "poi_name": "American Museum of Western Art",
      "osm_id": 366396461,
      "tourism": "museum",
      "website": "https://www.anschutzcollection.org/",
      "phone": "+1-303-293-2000",
      "wikidata": "Q4770539",
      "addr_state": "CO",
      "addr_city": "Denver",
      "addr_postcode": "80202",
      "addr_street": "Tremont Place",
      "addr_housenumber": "1727",
      "distance": 1903.19946553
    },
    {
      "id": 16680,
      "geometry": "POINT (-105.099551 40.145721)",
      "poi_name": "Longmont Museum and Culture Center",
      "osm_id": 366396462,
      "tourism": "museum",
      "website": "https://www.longmontcolorado.gov/departments/departments-e-m/museum",
      "addr_state": "CO",
      "distance": 47335.94269388
    },
    {
      "id": 16681,
      "geometry": "POINT (-105.089574 39.998099)",
      "poi_name": "Miners Museum",
      "osm_id": 366396464,
      "tourism": "museum",
      "website": "https://www.lafayettehistoricalsociety.org/",
      "addr_state": "CO",
      "distance": 31187.95539141
    },
    {
      "id": 16683,
      "geometry": "POINT (-105.083868 39.703202)",
      "poi_name": "Lakewood's Heritage Center",
      "osm_id": 366396471,
      "tourism": "museum",
      "addr_state": "CO",
      "addr_city": "Lakewood",
      "addr_postcode": "80226",
      "addr_street": "South Yarrow Street",
      "addr_housenumber": "801",
      "distance": 8406.62433886
    },
    {
      "id": 16686,
      "geometry": "POINT (-105.791156 39.932746)",
      "poi_name": "Cozens Ranch Museum",
      "osm_id": 366396481,
      "tourism": "museum",
      "website": "http://grandcountyhistory.org/museums/cozens-ranch-museum/",
      "addr_state": "CO",
      "distance": 72176.30917586
    },
    {
      "id": 21192,
      "geometry": "POINT (-105.509564 39.959905)",
      "poi_name": "Wild Bear Mountain Ecology Center",
      "osm_id": 1436799594,
      "tourism": "museum",
      "website": "https://wildbear.org/",
      "distance": 51324.25549292
    },
    {
      "id": 21227,
      "geometry": "POINT (-105.093984 39.665504)",
      "poi_name": "Old Stone House",
      "osm_id": 1446655211,
      "tourism": "museum",
      "distance": 11203.46976203
    },
    {
      "id": 21986,
      "geometry": "POINT (-105.518502 39.741957)",
      "poi_name": "Fire Station #1",
      "osm_id": 950735719,
      "tourism": "museum",
      "distance": 45240.02500917
    },
    {
      "id": 22450,
      "geometry": "POINT (-104.92912 39.703335)",
      "poi_name": "Grant Family Education Center",
      "osm_id": 7078460011,
      "tourism": "museum",
      "website": "https://fourmilepark.org/",
      "phone": "+1-720-865-0800",
      "addr_state": "CO",
      "addr_city": "Denver",
      "addr_postcode": "80246",
      "addr_street": "South Forest Street",
      "addr_housenumber": "715",
      "distance": 5959.87167066
    },
    {
      "id": 23003,
      "geometry": "POINT (-105.206687 39.665397)",
      "poi_name": "Colorado Music Hall of Fame",
      "osm_id": 4995644333,
      "tourism": "museum",
      "opening_hours": "Apr-Oct: Mo-Su 07:00-19:00, Nov-Mar: Mo-Su 07:00-19:00",
      "website": "https://cmhof.org/",
      "wikidata": "Q20714869",
      "distance": 19742.31300748
    },
    {
      "id": 25557,
      "geometry": "POINT (-104.99549 39.747335)",
      "poi_name": "The Money Museum",
      "osm_id": 4540518695,
      "tourism": "museum",
      "wheelchair": "yes",
      "opening_hours": "Mo-Fr 09:30-16:00",
      "website": "https://kansascityfed.org/moneymuseum?location=1",
      "phone": "+1-303-571-2300",
      "addr_state": "CO",
      "addr_city": "Denver",
      "addr_postcode": "80202",
      "addr_street": "16th Street Mall",
      "addr_housenumber": "1020",
      "distance": 2217.38992329
    },
    {
      "id": 25643,
      "geometry": "POINT (-104.991757 39.745727)",
      "poi_name": "Dikeou Collection",
      "osm_id": 4568941000,
      "tourism": "museum",
      "opening_hours": "We-Th 11:00-17:00; Fr 15:00-21:00",
      "website": "https://dikeoucollection.org/",
      "addr_state": "CO",
      "addr_city": "Denver",
      "addr_postcode": "80202",
      "addr_street": "California Street",
      "addr_housenumber": "1615",
      "distance": 2007.23852788
    },
    {
      "id": 25758,
      "geometry": "POINT (-105.196425 39.720668)",
      "poi_name": "Rocky Mountain Quilt Museum",
      "osm_id": 4596299754,
      "tourism": "museum",
      "wikidata": "Q28149746",
      "distance": 17622.4919278
    },
    {
      "id": 26832,
      "geometry": "POINT (-105.500477 39.787097)",
      "poi_name": "Hidee Gold Mine",
      "osm_id": 177043858,
      "tourism": "museum",
      "distance": 44148.7510739
    }
  ],
  "answer_type": "distance",
  "question_entities": {
    "[1]": {
      "main_category": "tourism",
      "sub_category": "museum"
    },
    "[2]": {
      "distance": 80000,
      "text": "80 kilometers"
    },
    "[3]": {
      "main_category": "amenity",
      "sub_category": "hospital",
      "display_name": "Denver Health Medical Emergency Center for Children, Denver, CO",
      "geo_wkt": "POINT (-104.991082 39.727656)",
      "poi": {
        "id": 48779,
        "geometry": "POINT (-104.991082 39.727656)",
        "poi_name": "Denver Health Medical Emergency Center for Children",
        "osm_id": 3399825687,
        "amenity": "hospital",
        "opening_hours": "24/7",
        "website": "https://www.denverhealth.org/services/emergency-medicine/pediatric-emergency-urgent-care",
        "phone": "+1-303-436-6000",
        "healthcare": "hospital",
        "emergency": "yes",
        "addr_state": "CO",
        "addr_city": "Denver",
        "addr_postcode": "80204",
        "addr_street": "Bannock Street",
        "addr_housenumber": "777"
      }
    }
  },
  "id": 754,
  "type": "range+distance"
}