{
  "question": "Where can I find fast food restaurant on the way to Museum of Culpeper History, Culpeper, VA within 160 kilometers from 160 kilometers?",
  "sql": "WITH\n    angle AS (SELECT degrees(ST_Azimuth(ST_GeomFromText('POINT (-77.06869 38.874024)',4326)::geography, ST_GeomFromText('POINT (-77.993306 38.472325)',4326)::geography)) AS value)\nSELECT * FROM pois,angle\nWHERE amenity = 'fast_food'\nAND ST_DWithin(pois.geometry, ST_GeomFromText('POINT (-77.06869 38.874024)',4326)::geography, 160000)\nAND (degrees(ST_Azimuth(ST_GeomFromText('POINT (-77.06869 38.874024)',4326)::geography, pois.geometry)) BETWEEN angle.value - 22.5 AND angle.value + 22.5);\n",
  "answers": [
    {
      "id": 31036,
      "geometry": "POINT (-77.113497 38.855788)",
      "poi_name": "Little Caesars",
      "osm_id": 8400856621,
      "amenity": "fast_food",
      "cuisine": "pizza",
      "opening_hours": "Mo-Th 11:00-22:00; Fr-Sa 11:00-23:00; Su 11:00-22:00",
      "website": "https://littlecaesars.com/en-us/store/10952/",
      "phone": "+1 703-567-7144",
      "takeaway": "yes",
      "drive_through": "no",
      "addr_state": "VA",
      "addr_city": "Arlington",
      "addr_postcode": "22204",
      "addr_street": "Columbia Pike",
      "addr_housenumber": "5025",
      "value": 241.29450351056687
    },
    {
      "id": 31361,
      "geometry": "POINT (-77.088786 38.861778)",
      "poi_name": "Shell",
      "osm_id": 8419897738,
      "amenity": "fast_food",
      "opening_hours": "24/7",
      "website": "https://find.shell.com/us/fuel/10048696-3100-columbia-pike/en_US",
      "phone": "+1-703-685-0266",
      "addr_state": "VA",
      "addr_city": "Arlington",
      "addr_postcode": "22204",
      "addr_street": "Columbia Pike",
      "addr_housenumber": "3100",
      "value": 241.29450351056687
    },
    {
      "id": 31363,
      "geometry": "POINT (-77.799893 38.624262)",
      "poi_name": "MAPCO 4062",
      "osm_id": 8419897741,
      "amenity": "fast_food",
      "opening_hours": "24/7",
      "internet_access": "wlan",
      "phone": "+1 540-439-2245",
      "addr_state": "VA",
      "addr_city": "Warrenton",
      "addr_postcode": "20187",
      "addr_street": "James Madison Highway",
      "addr_housenumber": "10007",
      "value": 241.29450351056687
    },
    {
      "id": 31383,
      "geometry": "POINT (-77.796082 38.728944)",
      "poi_name": "Jersey Mike's Subs",
      "osm_id": 8421545794,
      "amenity": "fast_food",
      "cuisine": "sandwich",
      "opening_hours": "Mo-Su 10:00-21:00",
      "website": "https://www.jerseymikes.com/6067/warrenton-va",
      "phone": "+1 540-340-3575",
      "takeaway": "yes",
      "addr_state": "VA",
      "addr_city": "Warrenton",
      "addr_postcode": "20186-2107",
      "addr_street": "West Lee Highway",
      "addr_housenumber": "135",
      "value": 241.29450351056687
    },
    {
      "id": 33964,
      "geometry": "POINT (-77.202044 38.832484)",
      "poi_name": "Little Caesars",
      "osm_id": 2688309646,
      "amenity": "fast_food",
      "cuisine": "pizza",
      "opening_hours": "Mo-Su 11:00-23:00",
      "website": "https://littlecaesars.com/en-us/store/10059/",
      "phone": "+1 703-750-0775",
      "takeaway": "yes",
      "addr_state": "VA",
      "addr_city": "Annandale",
      "addr_postcode": "22003",
      "addr_street": "Little River Turnpike",
      "addr_housenumber": "7436",
      "value": 241.29450351056687
    },
    {
      "id": 33995,
      "geometry": "POINT (-78.503528 38.012752)",
      "poi_name": "Domino's",
      "osm_id": 2689303934,
      "amenity": "fast_food",
      "cuisine": "pizza",
      "opening_hours": "Mo-Su 10:00-24:00",
      "takeaway": "yes",
      "addr_state": "VA",
      "addr_city": "Charlottesville",
      "addr_postcode": "22903",
      "addr_street": "5th Street Southwest",
      "addr_housenumber": "1147",
      "value": 241.29450351056687
    },
    {
      "id": 34067,
      "geometry": "POINT (-78.498225 38.053339)",
      "poi_name": "Arby's",
      "osm_id": 2692149357,
      "amenity": "fast_food",
      "cuisine": "sandwich",
      "opening_hours": "Mo-Tu,Su 10:00-22:00; We-Sa 10:00-23:00",
      "website": "https://locations.arbys.com/va/charlottesville/1230-emmet-st-n.html",
      "phone": "+1 434-296-8995",
      "takeaway": "yes",
      "addr_state": "VA",
      "addr_street": "Emmet Street North",
      "addr_housenumber": "1230",
      "value": 241.29450351056687
    },
    {
      "id": 36619,
      "geometry": "POINT (-77.089035 38.862413)",
      "poi_name": "Subway",
      "osm_id": 2776115098,
      "amenity": "fast_food",
      "cuisine": "sandwich",
      "opening_hours": "24/7",
      "website": "https://restaurants.subway.com/united-states/va/arlington/3045-columbia-pike",
      "phone": "+1 703-892-9191",
      "takeaway": "yes",
      "addr_state": "VA",
      "addr_city": "Arlington",
      "addr_postcode": "22204",
      "addr_street": "Columbia Pike",
      "addr_housenumber": "3045",
      "value": 241.29450351056687
    },
    {
      "id": 43215,
      "geometry": "POINT (-78.210809 37.979259)",
      "poi_name": "Arby's",
      "osm_id": 3101292246,
      "amenity": "fast_food",
      "cuisine": "sandwich",
      "takeaway": "yes",
      "addr_state": "VA",
      "value": 241.29450351056687
    },
    {
      "id": 43307,
      "geometry": "POINT (-77.990621 38.021071)",
      "poi_name": "Domino's",
      "osm_id": 3104845143,
      "amenity": "fast_food",
      "cuisine": "pizza",
      "opening_hours": "Mo-Fr 10:30-00:00; Sa-Su 00:00-01:00,10:30-00:00",
      "website": "https://pizza.dominos.com/virginia/louisa/501-east-main-street/",
      "phone": "+1 540-967-9700",
      "takeaway": "yes",
      "addr_state": "VA",
      "addr_city": "Louisa",
      "addr_postcode": "23093",
      "addr_street": "East Main Street",
      "addr_housenumber": "501",
      "value": 241.29450351056687
    },
    {
      "id": 43348,
      "geometry": "POINT (-77.978531 38.481607)",
      "poi_name": "Arby's",
      "osm_id": 3106342811,
      "amenity": "fast_food",
      "cuisine": "sandwich",
      "takeaway": "yes",
      "addr_state": "VA",
      "value": 241.29450351056687
    },
    {
      "id": 45682,
      "geometry": "POINT (-77.3684 38.660526)",
      "poi_name": "Domino's",
      "osm_id": 3223523606,
      "amenity": "fast_food",
      "cuisine": "pizza",
      "opening_hours": "Mo-Fr 10:00-00:00; Sa-Su 00:00-01:00,10:00-00:00",
      "website": "https://pizza.dominos.com/virginia/woodbridge/5892-mapledale-plz/",
      "phone": "+1 703-680-3030",
      "takeaway": "yes",
      "delivery": "yes",
      "addr_state": "VA",
      "addr_city": "Woodbridge",
      "addr_postcode": "22193",
      "addr_street": "Mapledale Plaza",
      "addr_housenumber": "5892",
      "value": 241.29450351056687
    },
    {
      "id": 45305,
      "geometry": "POINT (-77.189751 38.779097)",
      "poi_name": "Chipotle",
      "osm_id": 3200062073,
      "amenity": "fast_food",
      "cuisine": "mexican",
      "website": "https://chipotle.com/",
      "takeaway": "yes",
      "official_name": "Chipotle Mexican Grill",
      "addr_state": "VA",
      "addr_city": "Springfield",
      "addr_postcode": "22150",
      "addr_street": "Old Keene Mill Road",
      "addr_housenumber": "7108",
      "value": 241.29450351056687
    },
    {
      "id": 45656,
      "geometry": "POINT (-77.318966 38.682545)",
      "poi_name": "Pizza Hut Delivery",
      "osm_id": 3223456772,
      "amenity": "fast_food",
      "cuisine": "pizza",
      "website": "https://locations.pizzahut.com/va/woodbridge/12539-dillingham-square",
      "phone": "+1 703-878-1200",
      "takeaway": "yes",
      "delivery": "yes",
      "addr_state": "VA",
      "addr_city": "Woodbridge",
      "addr_postcode": "22192",
      "addr_street": "Dillingham Square",
      "addr_housenumber": "12539",
      "value": 241.29450351056687
    },
    {
      "id": 45661,
      "geometry": "POINT (-77.335625 38.674651)",
      "poi_name": "Panera Bread",
      "osm_id": 3223475955,
      "amenity": "fast_food",
      "cuisine": "sandwich;bakery",
      "takeaway": "yes",
      "addr_state": "VA",
      "addr_city": "Woodbridge",
      "addr_postcode": "22192",
      "addr_street": "Merchant Plaza",
      "addr_housenumber": "4300",
      "value": 241.29450351056687
    },
    {
      "id": 45662,
      "geometry": "POINT (-77.335524 38.674648)",
      "poi_name": "Smoothie King",
      "osm_id": 3223475956,
      "amenity": "fast_food",
      "cuisine": "juice",
      "takeaway": "yes",
      "addr_state": "VA",
      "addr_city": "Woodbridge",
      "addr_postcode": "22192",
      "addr_street": "Merchant Plaza",
      "addr_housenumber": "4296",
      "value": 241.29450351056687
    },
    {
      "id": 45664,
      "geometry": "POINT (-77.333321 38.674547)",
      "poi_name": "Subway",
      "osm_id": 3223475971,
      "amenity": "fast_food",
      "cuisine": "sandwich",
      "opening_hours": "Mo-Su 09:00-22:00",
      "website": "https://restaurants.subway.com/united-states/va/woodbridge/4140-merchant-plaza",
      "phone": "+1 703-580-6031",
      "takeaway": "yes",
      "addr_state": "VA",
      "addr_postcode": "22192",
      "addr_street": "Merchant Plaza",
      "addr_housenumber": "4140",
      "value": 241.29450351056687
    },
    {
      "id": 45672,
      "geometry": "POINT (-77.364195 38.68039)",
      "poi_name": "Tropical Smoothie Cafe",
      "osm_id": 3223499986,
      "amenity": "fast_food",
      "cuisine": "juice",
      "opening_hours": "Mo-Fr 07:00-21:00; Sa 08:00-21:00; Su 09:00-21:00",
      "website": "https://locations.tropicalsmoothiecafe.com/va/manassas/12697-galveston-court",
      "internet_access": "wlan",
      "phone": "+1 571-399-7656",
      "takeaway": "yes",
      "addr_state": "VA",
      "addr_city": "Manassas",
      "addr_postcode": "20112",
      "addr_street": "Galveston Court",
      "addr_housenumber": "12697",
      "value": 241.29450351056687
    },
    {
      "id": 45673,
      "geometry": "POINT (-77.362338 38.679967)",
      "poi_name": "Moe's Southwest Grill",
      "osm_id": 3223499987,
      "amenity": "fast_food",
      "cuisine": "mexican",
      "opening_hours": "Mo-Sa 10:00-22:00; Su 11:00-21:00",
      "website": "https://www.moes.com/find-a-moes/virginia/manassas/795/",
      "internet_access": "wlan",
      "phone": "+1 703-897-6637",
      "takeaway": "yes",
      "delivery": "yes",
      "addr_state": "VA",
      "addr_city": "Manassas",
      "addr_postcode": "20112",
      "addr_street": "Galveston Court",
      "addr_housenumber": "12841",
      "value": 241.29450351056687
    },
    {
      "id": 45674,
      "geometry": "POINT (-77.362918 38.679961)",
      "poi_name": "China Wok",
      "osm_id": 3223499990,
      "amenity": "fast_food",
      "cuisine": "chinese",
      "takeaway": "yes",
      "addr_state": "VA",
      "addr_city": "Manassas",
      "addr_postcode": "20112",
      "addr_street": "Galveston Court",
      "addr_housenumber": "12805",
      "value": 241.29450351056687
    },
    {
      "id": 45678,
      "geometry": "POINT (-77.364645 38.680169)",
      "poi_name": "Subway",
      "osm_id": 3223499999,
      "amenity": "fast_food",
      "cuisine": "sandwich",
      "opening_hours": "Mo-Fr 10:00-22:00; Sa-Su 10:00-21:00",
      "website": "https://restaurants.subway.com/united-states/va/manassas/12639-galveston-court",
      "phone": "+1 703-580-5551",
      "takeaway": "yes",
      "drive_through": "no",
      "addr_state": "VA",
      "addr_city": "Manassas",
      "addr_postcode": "20112",
      "addr_street": "Galveston Court",
      "addr_housenumber": "12639",
      "value": 241.29450351056687
    },
    {
      "id": 45681,
      "geometry": "POINT (-77.368036 38.660858)",
      "poi_name": "Subway",
      "osm_id": 3223523605,
      "amenity": "fast_food",
      "cuisine": "sandwich",
      "opening_hours": "09:00-22:00",
      "website": "https://restaurants.subway.com/united-states/va/dale-city/5828-mapledale-plaza",
      "phone": "+1 703-583-9491",
      "takeaway": "yes",
      "addr_state": "VA",
      "addr_postcode": "22193",
      "addr_street": "Mapledale Plaza",
      "addr_housenumber": "5828",
      "value": 241.29450351056687
    },
    {
      "id": 48400,
      "geometry": "POINT (-77.189504 38.780873)",
      "poi_name": "Firehouse Subs",
      "osm_id": 3381560176,
      "amenity": "fast_food",
      "cuisine": "sandwich",
      "website": "https://www.firehousesubs.com/",
      "takeaway": "yes",
      "addr_state": "VA",
      "addr_city": "Springfield",
      "addr_postcode": "22150",
      "addr_street": "Springfield Plaza",
      "addr_housenumber": "6404",
      "value": 241.29450351056687
    },
    {
      "id": 48401,
      "geometry": "POINT (-77.189706 38.780383)",
      "poi_name": "Popeyes",
      "osm_id": 3381596528,
      "amenity": "fast_food",
      "cuisine": "chicken",
      "website": "https://locations.popeyes.com/",
      "takeaway": "yes",
      "official_name": "Popeyes Louisiana Kitchen",
      "addr_state": "VA",
      "addr_city": "Springfield",
      "addr_postcode": "22150",
      "addr_street": "Springfield Plaza",
      "addr_housenumber": "6418",
      "value": 241.29450351056687
    },
    {
      "id": 52421,
      "geometry": "POINT (-77.466642 38.756621)",
      "poi_name": "Five Guys",
      "osm_id": 582778202,
      "amenity": "fast_food",
      "cuisine": "burger",
      "takeaway": "yes",
      "official_name": "Five Guys Burgers and Fries",
      "addr_state": "VA",
      "addr_city": "Manassas",
      "addr_postcode": "20110",
      "addr_street": "Sudley Road",
      "addr_housenumber": "9221",
      "value": 241.29450351056687
    },
    {
      "id": 57148,
      "geometry": "POINT (-77.452351 38.743208)",
      "poi_name": "Primo Pizzeria",
      "osm_id": 5326401804,
      "amenity": "fast_food",
      "cuisine": "pizza",
      "addr_state": "VA",
      "addr_city": "Manassas",
      "addr_postcode": "20110",
      "addr_street": "Liberia Avenue",
      "addr_housenumber": "9926",
      "value": 241.29450351056687
    },
    {
      "id": 58292,
      "geometry": "POINT (-77.213536 38.739174)",
      "poi_name": "Subway",
      "osm_id": 5369529715,
      "amenity": "fast_food",
      "cuisine": "sandwich",
      "opening_hours": "Mo-Sa 08:00-22:00; Su 09:00-22:00",
      "website": "https://restaurants.subway.com/united-states/va/springfield/8080-rolling-rd",
      "phone": "+1 703-912-9292",
      "takeaway": "yes",
      "drive_through": "no",
      "outdoor_seating": "no",
      "delivery": "no",
      "addr_state": "VA",
      "addr_city": "Springfield",
      "addr_postcode": "22153",
      "addr_street": "Rolling Road",
      "addr_housenumber": "8080",
      "value": 241.29450351056687
    },
    {
      "id": 58440,
      "geometry": "POINT (-77.210949 38.744139)",
      "poi_name": "Domino's",
      "osm_id": 5376660322,
      "amenity": "fast_food",
      "cuisine": "pizza",
      "takeaway": "yes",
      "addr_state": "VA",
      "addr_city": "Springfield",
      "addr_postcode": "22153",
      "addr_street": "Rolling Road",
      "addr_housenumber": "7893",
      "value": 241.29450351056687
    },
    {
      "id": 58093,
      "geometry": "POINT (-77.43542 38.758973)",
      "poi_name": "Chicken.com",
      "osm_id": 5364015953,
      "amenity": "fast_food",
      "cuisine": "chicken",
      "shop": "beauty",
      "addr_state": "VA",
      "addr_city": "Manassas Park",
      "addr_postcode": "20111",
      "addr_street": "Andrew Drive",
      "addr_housenumber": "9107",
      "value": 241.29450351056687
    },
    {
      "id": 61499,
      "geometry": "POINT (-77.183167 38.773576)",
      "poi_name": "Chick-fil-A",
      "osm_id": 5520566285,
      "amenity": "fast_food",
      "cuisine": "chicken",
      "opening_hours": "Mo-Sa 06:00-22:00",
      "website": "https://www.chick-fil-a.com/locations/va/springfield-in-line-dt",
      "internet_access": "wlan",
      "phone": "+1 703-644-0155",
      "takeaway": "yes",
      "drive_through": "yes",
      "delivery": "yes",
      "addr_state": "VA",
      "addr_city": "Springfield",
      "addr_postcode": "22150",
      "addr_street": "Backlick Road",
      "addr_housenumber": "6681",
      "value": 241.29450351056687
    },
    {
      "id": 61500,
      "geometry": "POINT (-77.183273 38.772931)",
      "poi_name": "Subway",
      "osm_id": 5520566290,
      "amenity": "fast_food",
      "cuisine": "sandwich",
      "opening_hours": "Mo-Fr 08:00-21:00; Sa 10:00-21:00; Su 10:00-19:00",
      "website": "https://restaurants.subway.com/united-states/va/springfield/6691-backlick-road",
      "phone": "+1 703-639-0200",
      "takeaway": "yes",
      "addr_state": "VA",
      "addr_city": "Springfield",
      "addr_postcode": "22150",
      "addr_street": "Backlick Road",
      "addr_housenumber": "6691",
      "value": 241.29450351056687
    },
    {
      "id": 63535,
      "geometry": "POINT (-77.184624 38.773209)",
      "poi_name": "Jersey Mike's Subs",
      "osm_id": 5620401050,
      "amenity": "fast_food",
      "cuisine": "sandwich",
      "takeaway": "yes",
      "addr_state": "VA",
      "addr_city": "Springfield",
      "addr_postcode": "22150",
      "addr_street": "Brookfield Plaza",
      "addr_housenumber": "7000",
      "value": 241.29450351056687
    },
    {
      "id": 62399,
      "geometry": "POINT (-77.092256 38.860998)",
      "poi_name": "Chipotle",
      "osm_id": 5567050785,
      "amenity": "fast_food",
      "cuisine": "mexican",
      "opening_hours": "Mo-Su 10:45-23:00",
      "takeaway": "yes",
      "official_name": "Chipotle Mexican Grill",
      "addr_state": "VA",
      "addr_city": "Arlington",
      "addr_street": "South Glebe Road",
      "addr_housenumber": "1002",
      "value": 241.29450351056687
    },
    {
      "id": 62578,
      "geometry": "POINT (-77.80093 38.729181)",
      "poi_name": "Firehouse Subs",
      "osm_id": 5577226142,
      "amenity": "fast_food",
      "cuisine": "sandwich",
      "wheelchair": "yes",
      "opening_hours": "Mo-Su 10:30-22:00",
      "website": "https://www.firehousesubs.com",
      "phone": "+1 540-341-7500",
      "takeaway": "yes",
      "addr_state": "VA",
      "addr_city": "Warrenton",
      "addr_street": "West Lee Highway",
      "addr_housenumber": "251",
      "value": 241.29450351056687
    },
    {
      "id": 63536,
      "geometry": "POINT (-77.184368 38.773195)",
      "poi_name": "Sarku Japan",
      "osm_id": 5620457322,
      "amenity": "fast_food",
      "cuisine": "japanese",
      "takeaway": "yes",
      "addr_state": "VA",
      "addr_city": "Springfield",
      "addr_postcode": "22150",
      "addr_street": "Brookfield Plaza",
      "addr_housenumber": "7000",
      "value": 241.29450351056687
    },
    {
      "id": 65494,
      "geometry": "POINT (-77.517677 38.782008)",
      "poi_name": "Domino's",
      "osm_id": 5697770560,
      "amenity": "fast_food",
      "cuisine": "pizza",
      "opening_hours": "Mo-Fr 10:00-00:00; Sa-Su 00:00-01:00,10:00-00:00",
      "website": "https://pizza.dominos.com/virginia/manassas/8130-ashton-ave-103/",
      "phone": "+1 703-368-2000",
      "takeaway": "yes",
      "addr_state": "VA",
      "addr_city": "Manassas",
      "addr_postcode": "20109",
      "value": 241.29450351056687
    },
    {
      "id": 64701,
      "geometry": "POINT (-77.085419 38.862811)",
      "poi_name": "Domino's",
      "osm_id": 5665099129,
      "amenity": "fast_food",
      "cuisine": "pizza",
      "opening_hours": "Mo-Fr 10:00-00:00; Sa-Su 00:00-01:00,10:00-00:00",
      "website": "https://pizza.dominos.com/virginia/arlington/2602-columbia-pike/",
      "phone": "+1 703-521-3030",
      "takeaway": "yes",
      "outdoor_seating": "no",
      "addr_state": "VA",
      "addr_city": "Arlington",
      "addr_postcode": "22204",
      "addr_street": "Columbia Pike",
      "addr_housenumber": "2602",
      "value": 241.29450351056687
    },
    {
      "id": 65495,
      "geometry": "POINT (-77.517607 38.781947)",
      "poi_name": "Tropical Bites",
      "osm_id": 5697770561,
      "amenity": "fast_food",
      "cuisine": "caribbean",
      "addr_state": "VA",
      "addr_city": "Manassas",
      "addr_postcode": "20109",
      "addr_street": "Ashton Avenue",
      "addr_housenumber": "8130",
      "value": 241.29450351056687
    },
    {
      "id": 65623,
      "geometry": "POINT (-77.34013 38.647572)",
      "poi_name": "Dairy Queen",
      "osm_id": 5705694021,
      "amenity": "fast_food",
      "cuisine": "ice_cream;burger",
      "takeaway": "yes",
      "addr_state": "VA",
      "addr_city": "Woodbridge",
      "addr_postcode": "22193",
      "addr_street": "Dale Boulevard",
      "addr_housenumber": "4381",
      "value": 241.29450351056687
    },
    {
      "id": 65628,
      "geometry": "POINT (-77.771516 38.73325)",
      "poi_name": "Five Guys",
      "osm_id": 5705928220,
      "amenity": "fast_food",
      "cuisine": "burger",
      "opening_hours": "Mo-Su 11:00-22:00",
      "website": "https://restaurants.fiveguys.com/6441-lee-highway",
      "phone": "+1 540-878-2065",
      "takeaway": "yes",
      "official_name": "Five Guys Burgers and Fries",
      "addr_state": "VA",
      "addr_city": "Warrenton",
      "addr_postcode": "20187",
      "addr_street": "Lee Highway",
      "addr_housenumber": "6441",
      "value": 241.29450351056687
    },
    {
      "id": 68627,
      "geometry": "POINT (-77.639909 38.814431)",
      "poi_name": "Goodfellas Pizza",
      "osm_id": 11278157784,
      "amenity": "fast_food",
      "cuisine": "pizza",
      "addr_state": "VA",
      "addr_city": "Haymarket",
      "addr_postcode": "20169",
      "addr_street": "Turner Hill Road",
      "addr_housenumber": "6683",
      "value": 241.29450351056687
    },
    {
      "id": 70954,
      "geometry": "POINT (-77.314689 38.825046)",
      "poi_name": "Insomnia Cookies",
      "osm_id": 11378598537,
      "amenity": "fast_food",
      "shop": "pastry",
      "addr_state": "VA",
      "addr_city": "Fairfax",
      "addr_postcode": "22032",
      "addr_street": "Braddock Road",
      "addr_housenumber": "10669",
      "value": 241.29450351056687
    },
    {
      "id": 70522,
      "geometry": "POINT (-77.276242 38.817233)",
      "poi_name": "Subway",
      "osm_id": 11365369319,
      "amenity": "fast_food",
      "cuisine": "sandwich",
      "website": "https://restaurants.subway.com/united-states/va/fairfax/9559-braddock-road",
      "phone": "+1 703-323-0036",
      "takeaway": "yes",
      "drive_through": "no",
      "addr_state": "VA",
      "addr_city": "Fairfax",
      "addr_postcode": "22032",
      "addr_street": "Braddock Road",
      "addr_housenumber": "9559",
      "value": 241.29450351056687
    },
    {
      "id": 70969,
      "geometry": "POINT (-77.30482 38.833753)",
      "poi_name": "The Spot",
      "osm_id": 11378598554,
      "amenity": "fast_food",
      "takeaway": "yes",
      "addr_state": "VA",
      "addr_city": "Fairfax",
      "addr_postcode": "22030",
      "value": 241.29450351056687
    },
    {
      "id": 70970,
      "geometry": "POINT (-77.307522 38.834963)",
      "poi_name": "Manhattan Pizza",
      "osm_id": 11378598555,
      "amenity": "fast_food",
      "takeaway": "yes",
      "addr_state": "VA",
      "addr_city": "Fairfax",
      "addr_postcode": "22030",
      "value": 241.29450351056687
    },
    {
      "id": 70971,
      "geometry": "POINT (-77.307759 38.834935)",
      "poi_name": "Einstein Bros. Bagels",
      "osm_id": 11378598556,
      "amenity": "fast_food",
      "cuisine": "bagel",
      "phone": "+1 703-993-6095",
      "takeaway": "yes",
      "addr_state": "VA",
      "addr_city": "Fairfax",
      "addr_postcode": "22030",
      "value": 241.29450351056687
    },
    {
      "id": 70972,
      "geometry": "POINT (-77.307963 38.834921)",
      "poi_name": "NuVegan",
      "osm_id": 11378598557,
      "amenity": "fast_food",
      "website": "https://masondining.sodexomyway.com/dining-near-me/nuvegan",
      "phone": "+1 703-993-7090",
      "takeaway": "yes",
      "addr_state": "VA",
      "addr_city": "Fairfax",
      "addr_postcode": "22030",
      "value": 241.29450351056687
    },
    {
      "id": 70973,
      "geometry": "POINT (-77.307946 38.834834)",
      "poi_name": "Panda Express",
      "osm_id": 11378598558,
      "amenity": "fast_food",
      "cuisine": "chinese",
      "opening_hours": "Mo-Th 11:00-15:00; Fr 00:30-01:00",
      "website": "https://www.pandaexpress.com/location/george-mason-university-university-hall-px/menu",
      "phone": "+1 703-993-6042",
      "takeaway": "yes",
      "addr_state": "VA",
      "addr_city": "Fairfax",
      "addr_postcode": "22030",
      "value": 241.29450351056687
    },
    {
      "id": 79893,
      "geometry": "POINT (-77.454014 38.834616)",
      "poi_name": "Dunkin'",
      "osm_id": 834737595,
      "amenity": "fast_food",
      "cuisine": "donut;coffee_shop",
      "opening_hours": "Mo-Sa 05:00-21:00; Su 06:00-20:00",
      "website": "https://locations.dunkindonuts.com/en/va/centreville/14631-lee-hwy/343749",
      "phone": "+1 703-815-4020",
      "takeaway": "yes",
      "drive_through": "no",
      "addr_state": "VA",
      "addr_city": "Centreville",
      "addr_postcode": "20121",
      "addr_street": "Route 29",
      "addr_housenumber": "14631",
      "value": 241.29450351056687
    },
    {
      "id": 76232,
      "geometry": "POINT (-77.358506 38.609109)",
      "poi_name": "Subway",
      "osm_id": 9765715791,
      "amenity": "fast_food",
      "cuisine": "sandwich",
      "opening_hours": "Mo-Su 09:00-22:00",
      "website": "https://restaurants.subway.com/united-states/va/montclair/5175-waterway-dr",
      "phone": "+1 703-583-7014",
      "takeaway": "yes",
      "addr_state": "VA",
      "addr_postcode": "22025",
      "value": 241.29450351056687
    },
    {
      "id": 76233,
      "geometry": "POINT (-77.358413 38.609246)",
      "poi_name": "Domino's",
      "osm_id": 9765715795,
      "amenity": "fast_food",
      "cuisine": "pizza",
      "opening_hours": "Mo-Fr 10:00-00:00; Sa-Su 00:00-01:00,10:00-00:00",
      "website": "https://pizza.dominos.com/virginia/dumfries/5159-waterway-dr/",
      "phone": "+1 703-670-3040",
      "takeaway": "yes",
      "addr_state": "VA",
      "addr_city": "Dumfries",
      "addr_postcode": "22026",
      "addr_street": "Waterway Drive",
      "addr_housenumber": "5159",
      "value": 241.29450351056687
    },
    {
      "id": 79049,
      "geometry": "POINT (-77.432825 38.834526)",
      "poi_name": "McDonald's",
      "osm_id": 770777391,
      "amenity": "fast_food",
      "cuisine": "burger",
      "opening_hours": "24/7",
      "website": "https://www.mcdonalds.com/us/en-us/location/va/centreville/5931-fort-dr/15287.html",
      "phone": "+1-703-266-2741",
      "takeaway": "yes",
      "drive_through": "yes",
      "delivery": "yes",
      "addr_state": "VA",
      "addr_city": "Centreville",
      "addr_postcode": "20120",
      "addr_street": "Fort Drive",
      "addr_housenumber": "5931",
      "value": 241.29450351056687
    },
    {
      "id": 79772,
      "geometry": "POINT (-77.088282 38.86282)",
      "poi_name": "City Kabob House",
      "osm_id": 827080140,
      "amenity": "fast_food",
      "cuisine": "kebab",
      "opening_hours": "Mo-Su 11:00-23:00",
      "website": "http://www.citykabobhouse.com/",
      "phone": "+1 571-257-8816",
      "addr_state": "VA",
      "addr_street": "Columbia Pike",
      "addr_housenumber": "3007",
      "value": 241.29450351056687
    },
    {
      "id": 79899,
      "geometry": "POINT (-77.438337 38.838133)",
      "poi_name": "Panda Express",
      "osm_id": 834852362,
      "amenity": "fast_food",
      "cuisine": "chinese",
      "opening_hours": "Mo-Th 10:30-21:30; Fr-Sa 10:30-22:00; Su 10:30-20:30",
      "website": "https://www.pandaexpress.com/userlocation/1408/va/centreville/14220-centreville-square",
      "phone": "+1-703-830-8676",
      "takeaway": "yes",
      "drive_through": "no",
      "addr_state": "VA",
      "addr_city": "Centreville",
      "addr_postcode": "20122",
      "addr_street": "Centreville Square",
      "addr_housenumber": "14220",
      "value": 241.29450351056687
    },
    {
      "id": 80210,
      "geometry": "POINT (-77.132505 38.85099)",
      "poi_name": "Moe's Southwest Grill",
      "osm_id": 862399720,
      "amenity": "fast_food",
      "cuisine": "mexican",
      "wheelchair": "yes",
      "takeaway": "yes",
      "addr_state": "VA",
      "addr_city": "Falls Church",
      "addr_street": "Leesburg Pike",
      "value": 241.29450351056687
    },
    {
      "id": 80211,
      "geometry": "POINT (-77.13212 38.851504)",
      "poi_name": "Panera Bread",
      "osm_id": 862400672,
      "amenity": "fast_food",
      "cuisine": "sandwich;bakery",
      "wheelchair": "yes",
      "opening_hours": "Mo-Sa 06:00-21:00, Su 07:00-21:00",
      "website": "https://locations.panerabread.com/va/bailey-s-crossroads/5857-leesburg-pike.html",
      "phone": "+1 703-998-1300",
      "takeaway": "yes",
      "drive_through": "no",
      "addr_state": "VA",
      "addr_city": "Falls Church",
      "addr_postcode": "22041",
      "addr_street": "Leesburg Pike",
      "addr_housenumber": "5857",
      "value": 241.29450351056687
    },
    {
      "id": 81632,
      "geometry": "POINT (-77.191278 38.832032)",
      "poi_name": "Domino's",
      "osm_id": 1653521434,
      "amenity": "fast_food",
      "cuisine": "pizza",
      "opening_hours": "Mo-Fr 10:00-00:00; Sa-Su 00:00-01:00,10:00-00:00",
      "website": "https://pizza.dominos.com/virginia/annandale/7129-columbia-pike/",
      "phone": "+1 703-941-7900",
      "takeaway": "yes",
      "addr_state": "VA",
      "addr_city": "Annandale",
      "addr_postcode": "22003",
      "addr_street": "Columbia Pike",
      "addr_housenumber": "7129",
      "value": 241.29450351056687
    },
    {
      "id": 81473,
      "geometry": "POINT (-77.521514 38.7954)",
      "poi_name": "Pizzarama",
      "osm_id": 1641393397,
      "amenity": "fast_food",
      "cuisine": "pizza",
      "opening_hours": "Mo-We 11:00-21:00; Th-Sa 11:00-22:00; Su 12:00-21:00",
      "website": "https://www.pizzarama.com/",
      "phone": "+1 703-368-2010",
      "addr_state": "VA",
      "addr_city": "Manassas",
      "addr_postcode": "20109",
      "addr_street": "Stream Walk Lane",
      "addr_housenumber": "7642",
      "value": 241.29450351056687
    },
    {
      "id": 81474,
      "geometry": "POINT (-77.52199 38.795252)",
      "poi_name": "Subway",
      "osm_id": 1641393409,
      "amenity": "fast_food",
      "cuisine": "sandwich",
      "opening_hours": "Mo-Sa 07:00-22:00; Su 09:00-21:00",
      "website": "https://restaurants.subway.com/united-states/va/manassas/7600-stream-walk-ln",
      "phone": "+1 703-361-2599",
      "takeaway": "yes",
      "addr_state": "VA",
      "addr_city": "Manassas",
      "addr_postcode": "20109",
      "addr_street": "Stream Walk Lane",
      "addr_housenumber": "7600",
      "value": 241.29450351056687
    },
    {
      "id": 81084,
      "geometry": "POINT (-77.234204 38.781644)",
      "poi_name": "McDonald's",
      "osm_id": 1603803953,
      "amenity": "fast_food",
      "cuisine": "burger",
      "website": "https://www.mcdonalds.com/us/en-us/location/va/springfield/6219-rolling-rd/2074.html",
      "takeaway": "yes",
      "addr_state": "VA",
      "addr_city": "West Springfield",
      "addr_postcode": "22152",
      "addr_street": "Rolling Road",
      "addr_housenumber": "6219",
      "value": 241.29450351056687
    },
    {
      "id": 81633,
      "geometry": "POINT (-77.191273 38.83278)",
      "poi_name": "Subway",
      "osm_id": 1653521464,
      "amenity": "fast_food",
      "cuisine": "sandwich",
      "opening_hours": "Mo-Su 08:30-21:30",
      "website": "https://restaurants.subway.com/united-states/va/annandale/7120-columbia-pike",
      "phone": "+1 703-914-0391",
      "takeaway": "yes",
      "addr_state": "VA",
      "addr_postcode": "22003",
      "addr_street": "Columbia Pike",
      "addr_housenumber": "7120",
      "value": 241.29450351056687
    },
    {
      "id": 85119,
      "geometry": "POINT (-77.125474 38.831096)",
      "poi_name": "Subway",
      "osm_id": 1837899951,
      "amenity": "fast_food",
      "cuisine": "sandwich",
      "opening_hours": "Mo-Fr 08:30-23:00; Sa-Su 09:00-23:00",
      "website": "https://restaurants.subway.com/united-states/va/alexandria/1470-n-beauregard-st",
      "phone": "+1 703-820-1211",
      "takeaway": "yes",
      "addr_state": "VA",
      "addr_city": "Alexandria",
      "addr_postcode": "22311",
      "value": 241.29450351056687
    },
    {
      "id": 89980,
      "geometry": "POINT (-77.62783 38.793172)",
      "poi_name": "Pizza Boli's",
      "osm_id": 8873308295,
      "amenity": "fast_food",
      "cuisine": "pizza",
      "takeaway": "yes",
      "addr_state": "VA",
      "addr_city": "Gainesville",
      "addr_postcode": "20155",
      "addr_street": "Lee Highway",
      "addr_housenumber": "14690",
      "value": 241.29450351056687
    },
    {
      "id": 91109,
      "geometry": "POINT (-77.235426 38.780956)",
      "poi_name": "Subway",
      "osm_id": 2043194156,
      "amenity": "fast_food",
      "cuisine": "sandwich",
      "website": "https://restaurants.subway.com/united-states/va/springfield/6230-s-rolling-rd",
      "phone": "+1 703-451-7600",
      "takeaway": "yes",
      "addr_state": "VA",
      "addr_city": "Springfield",
      "addr_postcode": "22152",
      "addr_street": "Rolling Road",
      "addr_housenumber": "6230",
      "value": 241.29450351056687
    },
    {
      "id": 94091,
      "geometry": "POINT (-77.439189 38.837635)",
      "poi_name": "Firehouse Subs",
      "osm_id": 2205918274,
      "amenity": "fast_food",
      "cuisine": "sandwich",
      "opening_hours": "Mo-Su 10:30-21:00",
      "website": "https://www.firehousesubs.com/locations/va/centreville-square/",
      "phone": "+1-703-942-5200",
      "takeaway": "yes",
      "drive_through": "no",
      "addr_state": "VA",
      "addr_city": "Centreville",
      "addr_postcode": "20121",
      "addr_street": "Centreville Square",
      "addr_housenumber": "14245",
      "value": 241.29450351056687
    },
    {
      "id": 94286,
      "geometry": "POINT (-77.431515 38.835132)",
      "poi_name": "Burger King",
      "osm_id": 2222765085,
      "amenity": "fast_food",
      "cuisine": "burger",
      "website": "https://www.bk.com/store-locator/store/restaurant_7993",
      "internet_access": "no",
      "phone": "+1 703-988-0823",
      "takeaway": "yes",
      "drive_through": "yes",
      "delivery": "yes",
      "addr_state": "VA",
      "addr_city": "Centreville",
      "addr_postcode": "20121",
      "addr_street": "Old Centreville Road",
      "addr_housenumber": "5906",
      "value": 241.29450351056687
    },
    {
      "id": 103895,
      "geometry": "POINT (-77.265842 38.777023)",
      "poi_name": "Subway",
      "osm_id": 8530544879,
      "amenity": "fast_food",
      "cuisine": "sandwich",
      "opening_hours": "Mo-Su 09:00-22:00",
      "website": "https://restaurants.subway.com/united-states/va/burke/6415-shiplett-blvd",
      "phone": "+1 703-440-0877",
      "takeaway": "yes",
      "addr_state": "VA",
      "addr_city": "Burke",
      "addr_postcode": "22015",
      "addr_street": "Shiplett Boulevard",
      "addr_housenumber": "6415",
      "value": 241.29450351056687
    },
    {
      "id": 102861,
      "geometry": "POINT (-77.534157 38.738467)",
      "poi_name": "Tropical Smoothie Cafe",
      "osm_id": 8462506306,
      "amenity": "fast_food",
      "cuisine": "juice",
      "takeaway": "yes",
      "addr_state": "VA",
      "addr_city": "Manassas",
      "addr_postcode": "20109",
      "addr_street": "Sowder Village Square",
      "addr_housenumber": "9971",
      "value": 241.29450351056687
    },
    {
      "id": 106085,
      "geometry": "POINT (-77.314446 38.82544)",
      "poi_name": "The Halal Guys",
      "osm_id": 8663534571,
      "amenity": "fast_food",
      "cuisine": "chicken;falafel;gyros",
      "opening_hours": "Mo-Su 11:00-23:00",
      "website": "https://thehalalguys.com/locations/10625-braddock-rd-fairfax/",
      "phone": "+1 703-825-7370",
      "takeaway": "yes",
      "addr_state": "VA",
      "addr_city": "Fairfax",
      "addr_postcode": "22032",
      "addr_street": "Braddock Road",
      "addr_housenumber": "10625",
      "value": 241.29450351056687
    },
    {
      "id": 113795,
      "geometry": "POINT (-77.333277 38.646443)",
      "poi_name": "Golden House",
      "osm_id": 3847219720,
      "amenity": "fast_food",
      "cuisine": "chinese",
      "addr_state": "VA",
      "addr_city": "Woodbridge",
      "addr_postcode": "22193",
      "addr_street": "Cheshire Station Plaza",
      "addr_housenumber": "4131",
      "value": 241.29450351056687
    },
    {
      "id": 111214,
      "geometry": "POINT (-77.117053 38.867919)",
      "poi_name": "Brick's Pizza",
      "osm_id": 3736078525,
      "amenity": "fast_food",
      "cuisine": "pizza",
      "wheelchair": "yes",
      "opening_hours": "Mo-Th 11:00-00:00; Fr, Sa 11:00-01:00; Su 11:00-23:00",
      "website": "https://www.brickspizzaarlington.com/",
      "phone": "+1 703-243-6600",
      "takeaway": "only",
      "drive_through": "no",
      "outdoor_seating": "no",
      "delivery": "yes",
      "addr_state": "VA",
      "addr_city": "Arlington",
      "addr_postcode": "22203",
      "addr_street": "1st Street North",
      "addr_housenumber": "4809",
      "value": 241.29450351056687
    },
    {
      "id": 112690,
      "geometry": "POINT (-77.458254 38.763172)",
      "poi_name": "Domino's",
      "osm_id": 3801583734,
      "amenity": "fast_food",
      "cuisine": "pizza",
      "opening_hours": "Mo-Fr 10:00-00:00; Sa-Su 00:00-01:00,10:00-00:00",
      "website": "https://pizza.dominos.com/virginia/manassas/8813-centreville-rd/",
      "phone": "+1 703-369-7733",
      "takeaway": "yes",
      "addr_state": "VA",
      "addr_city": "Manassas",
      "addr_postcode": "20110",
      "addr_street": "Centreville Road",
      "addr_housenumber": "8813",
      "value": 241.29450351056687
    },
    {
      "id": 108581,
      "geometry": "POINT (-78.44548 38.030824)",
      "poi_name": "Bojangles'",
      "osm_id": 3626116405,
      "amenity": "fast_food",
      "cuisine": "chicken",
      "operator": "Bojangles",
      "takeaway": "yes",
      "drive_through": "yes",
      "official_name": "Bojangles' Famous Chicken 'n Biscuits",
      "addr_state": "VA",
      "addr_city": "Charlottesville",
      "addr_postcode": "22911",
      "addr_street": "Richmond Road",
      "addr_housenumber": "2009",
      "value": 241.29450351056687
    },
    {
      "id": 111447,
      "geometry": "POINT (-77.452569 38.740066)",
      "poi_name": "Smoothie King",
      "osm_id": 3748142414,
      "amenity": "fast_food",
      "cuisine": "juice",
      "takeaway": "yes",
      "addr_city": "Manassas",
      "addr_postcode": "20110",
      "addr_street": "Market Circle Drive",
      "addr_housenumber": "10048",
      "value": 241.29450351056687
    },
    {
      "id": 112248,
      "geometry": "POINT (-77.120906 38.840646)",
      "poi_name": "Stone Hot Pizza",
      "osm_id": 3784777739,
      "amenity": "fast_food",
      "cuisine": "pizza",
      "opening_hours": "Su-Th 11:00-23:00; Fr-Sa 11:00-24:00",
      "website": "https://stonehotpizza.com/",
      "phone": "+1-703-778-7000",
      "drive_through": "no",
      "addr_state": "VA",
      "addr_city": "Falls Church",
      "addr_postcode": "22041",
      "addr_street": "South George Mason Drive",
      "addr_housenumber": "3829",
      "value": 241.29450351056687
    },
    {
      "id": 114543,
      "geometry": "POINT (-77.302033 38.651843)",
      "poi_name": "Panda Express",
      "osm_id": 3885531777,
      "amenity": "fast_food",
      "cuisine": "chinese",
      "takeaway": "yes",
      "addr_state": "VA",
      "addr_city": "Woodbridge",
      "addr_postcode": "22192",
      "addr_street": "Prince William Parkway",
      "addr_housenumber": "2990",
      "value": 241.29450351056687
    },
    {
      "id": 114544,
      "geometry": "POINT (-77.301258 38.652232)",
      "poi_name": "Honey Baked Ham",
      "osm_id": 3885531778,
      "amenity": "fast_food",
      "cuisine": "american",
      "takeaway": "yes",
      "official_name": "The Honey Baked Ham Company",
      "addr_city": "Woodbridge",
      "addr_postcode": "22192",
      "addr_street": "Prince William Parkway",
      "addr_housenumber": "2950",
      "value": 241.29450351056687
    },
    {
      "id": 114545,
      "geometry": "POINT (-77.30133 38.652199)",
      "poi_name": "Jersey Mike's Subs",
      "osm_id": 3885531786,
      "amenity": "fast_food",
      "cuisine": "sandwich",
      "takeaway": "yes",
      "addr_state": "VA",
      "addr_city": "Woodbridge",
      "addr_postcode": "22192",
      "addr_street": "Prince William Parkway",
      "addr_housenumber": "2954",
      "value": 241.29450351056687
    },
    {
      "id": 114546,
      "geometry": "POINT (-77.301608 38.65205)",
      "poi_name": "Tropical Smoothie Cafe",
      "osm_id": 3885531793,
      "amenity": "fast_food",
      "cuisine": "juice",
      "takeaway": "yes",
      "addr_state": "VA",
      "addr_city": "Woodbridge",
      "addr_postcode": "22192",
      "addr_street": "Prince William Parkway",
      "addr_housenumber": "2966",
      "value": 241.29450351056687
    },
    {
      "id": 114613,
      "geometry": "POINT (-77.335713 38.647003)",
      "poi_name": "Subway",
      "osm_id": 3888580328,
      "amenity": "fast_food",
      "cuisine": "sandwich",
      "opening_hours": "Mo-Su 09:00-22:00",
      "website": "https://restaurants.subway.com/united-states/va/dale-city/14130-minnieville-rd",
      "phone": "+1 703-670-8383",
      "takeaway": "yes",
      "addr_state": "VA",
      "addr_city": "Woodbridge",
      "addr_postcode": "22193",
      "addr_street": "Minnieville Road",
      "addr_housenumber": "14130",
      "value": 241.29450351056687
    },
    {
      "id": 114614,
      "geometry": "POINT (-77.335624 38.646996)",
      "poi_name": "Sampan",
      "osm_id": 3888580330,
      "amenity": "fast_food",
      "cuisine": "chinese",
      "opening_hours": "Mo-Th 11:00-21:30; Fr, Sa 11:00-22:00; Su 11:30-21:30",
      "website": "https://www.sampancarryout.com",
      "phone": "+1 703-670-0500",
      "takeaway": "yes",
      "delivery": "yes",
      "addr_state": "VA",
      "addr_city": "Woodbridge",
      "addr_postcode": "22193",
      "addr_street": "Minnieville Road",
      "addr_housenumber": "14128",
      "value": 241.29450351056687
    },
    {
      "id": 117902,
      "geometry": "POINT (-77.273611 38.796138)",
      "poi_name": "Papa John's",
      "osm_id": 9015805544,
      "amenity": "fast_food",
      "cuisine": "pizza",
      "opening_hours": "Mo-Th 10:00-23:00; Fr-Sa 10:00-24:00; Su 10:00-23:00",
      "website": "https://locations.papajohns.com/united-states/va/22015/burke/9570b-burke-rd",
      "phone": "+1 703-978-7272",
      "takeaway": "yes",
      "addr_state": "VA",
      "addr_city": "Burke",
      "addr_postcode": "22015",
      "addr_street": "Burke Road",
      "addr_housenumber": "9570",
      "value": 241.29450351056687
    },
    {
      "id": 125823,
      "geometry": "POINT (-77.651219 38.785215)",
      "poi_name": "Jersey Mike's Subs",
      "osm_id": 6978025016,
      "amenity": "fast_food",
      "cuisine": "sandwich",
      "opening_hours": "Mo-Su 10:00-21:00",
      "website": "https://www.jerseymikes.com/6045/gainesville-va",
      "phone": "+1 703-743-2721",
      "takeaway": "yes",
      "addr_state": "VA",
      "addr_city": "Gainesville",
      "addr_postcode": "20155-3891",
      "addr_street": "Stonewall Shops Square",
      "addr_housenumber": "8136",
      "value": 241.29450351056687
    },
    {
      "id": 125824,
      "geometry": "POINT (-77.649353 38.784442)",
      "poi_name": "Tropical Smoothie Cafe",
      "osm_id": 6978025037,
      "amenity": "fast_food",
      "cuisine": "juice",
      "takeaway": "yes",
      "addr_state": "VA",
      "addr_city": "Gainesville",
      "addr_postcode": "20155",
      "addr_street": "Stonewall Shops Square",
      "addr_housenumber": "8069",
      "value": 241.29450351056687
    },
    {
      "id": 114863,
      "geometry": "POINT (-77.304334 38.655416)",
      "poi_name": "Five Guys",
      "osm_id": 3899201748,
      "amenity": "fast_food",
      "cuisine": "burger",
      "takeaway": "yes",
      "official_name": "Five Guys Burgers and Fries",
      "addr_state": "VA",
      "addr_city": "Woodbidge",
      "addr_postcode": "22192",
      "addr_street": "Foulger Square",
      "addr_housenumber": "13580",
      "value": 241.29450351056687
    },
    {
      "id": 123265,
      "geometry": "POINT (-77.27349 38.842842)",
      "poi_name": "Flippin' Pizza",
      "osm_id": 6845270021,
      "amenity": "fast_food",
      "cuisine": "pizza",
      "takeaway": "yes",
      "addr_state": "VA",
      "addr_city": "Fairfax",
      "addr_postcode": "22031",
      "addr_street": "Main Street",
      "addr_housenumber": "9548",
      "value": 241.29450351056687
    },
    {
      "id": 126299,
      "geometry": "POINT (-78.729999 38.37468)",
      "poi_name": "Subway",
      "osm_id": 6993070481,
      "amenity": "fast_food",
      "cuisine": "sandwich",
      "takeaway": "yes",
      "addr_state": "VA",
      "addr_city": "McGaheysville",
      "addr_postcode": "22840",
      "addr_street": "Spotswood Trail",
      "addr_housenumber": "9978",
      "value": 241.29450351056687
    },
    {
      "id": 127206,
      "geometry": "POINT (-77.747308 38.348089)",
      "poi_name": "Burger King",
      "osm_id": 8041273953,
      "amenity": "fast_food",
      "cuisine": "burger",
      "takeaway": "yes",
      "addr_state": "VA",
      "addr_city": "Locust Grove",
      "addr_postcode": "22508",
      "addr_street": "Goodwin Drive",
      "addr_housenumber": "36061",
      "value": 241.29450351056687
    },
    {
      "id": 128148,
      "geometry": "POINT (-77.490382 38.754197)",
      "poi_name": "Sam and Joe's Pizza and Subs",
      "osm_id": 8124637235,
      "amenity": "fast_food",
      "cuisine": "pizza",
      "addr_state": "VA",
      "addr_city": "Manasas",
      "addr_postcode": "20110",
      "addr_street": "Center Street",
      "addr_housenumber": "9784",
      "value": 241.29450351056687
    },
    {
      "id": 137135,
      "geometry": "POINT (-78.342299 37.903427)",
      "poi_name": "Dunkin'",
      "osm_id": 6086678786,
      "amenity": "fast_food",
      "cuisine": "donut;coffee_shop",
      "opening_hours": "Mo-Su 04:00-21:00",
      "phone": "4345891762",
      "takeaway": "yes",
      "addr_state": "VA",
      "addr_city": "Palmyra",
      "addr_postcode": "22963",
      "addr_street": "Turkeysag Trail",
      "addr_housenumber": "271",
      "value": 241.29450351056687
    },
    {
      "id": 132548,
      "geometry": "POINT (-77.80168 38.727088)",
      "poi_name": "Papa John's",
      "osm_id": 9958273897,
      "amenity": "fast_food",
      "cuisine": "pizza",
      "opening_hours": "Mo-Th 10:00-23:00; Fr-Sa 10:00-24:00; Su 10:00-23:00",
      "website": "https://locations.papajohns.com/united-states/va/20186-2428/warrenton/326-w-lee-hiway",
      "phone": "+1 540-349-7172",
      "takeaway": "yes",
      "addr_state": "VA",
      "addr_city": "Warrenton",
      "addr_postcode": "20186-2428",
      "addr_street": "W. Lee Hiway",
      "addr_housenumber": "326",
      "value": 241.29450351056687
    },
    {
      "id": 138657,
      "geometry": "POINT (-77.517822 38.781953)",
      "poi_name": "Iron Bowl Grill",
      "osm_id": 6161823576,
      "amenity": "fast_food",
      "cuisine": "american",
      "phone": "+1 571-361-4547",
      "drive_through": "no",
      "addr_state": "VA",
      "addr_city": "Manassas",
      "addr_postcode": "20109",
      "addr_street": "Ashton Avenue",
      "addr_housenumber": "8130",
      "value": 241.29450351056687
    },
    {
      "id": 137795,
      "geometry": "POINT (-77.526653 38.738797)",
      "poi_name": "Lorena's Deli",
      "osm_id": 6114084086,
      "amenity": "fast_food",
      "addr_state": "VA",
      "addr_city": "Manassas",
      "addr_postcode": "20110",
      "addr_street": "Nokesville Road",
      "addr_housenumber": "10997",
      "value": 241.29450351056687
    },
    {
      "id": 138772,
      "geometry": "POINT (-77.117475 38.84785)",
      "poi_name": "Wingstop",
      "osm_id": 6168666712,
      "amenity": "fast_food",
      "cuisine": "wings",
      "wheelchair": "yes",
      "opening_hours": "Mo-Su 11:00-24:00",
      "website": "https://www.wingstop.com/location/wingstop-1080-bailey's-crossroads-va-22041/menu",
      "phone": "+1-703-998-9464",
      "takeaway": "yes",
      "drive_through": "no",
      "delivery": "yes",
      "addr_state": "VA",
      "addr_city": "Falls Church",
      "addr_postcode": "22041",
      "addr_street": "South Jefferson Street",
      "addr_housenumber": "3521",
      "value": 241.29450351056687
    },
    {
      "id": 138773,
      "geometry": "POINT (-77.11751 38.847665)",
      "poi_name": "DQ Grill & Chill",
      "osm_id": 6168666715,
      "amenity": "fast_food",
      "cuisine": "ice_cream;burger",
      "wheelchair": "yes",
      "opening_hours": "Mo-Su 11:30-21:30",
      "website": "https://www.dairyqueen.com/en-us/locations/va/falls-church/3527-s-jefferson-st/10568/",
      "phone": "+1-703-931-7183",
      "takeaway": "yes",
      "drive_through": "no",
      "delivery": "yes",
      "addr_state": "VA",
      "addr_city": "Falls Church",
      "addr_postcode": "22041",
      "addr_street": "South Jefferson Street",
      "addr_housenumber": "3527",
      "value": 241.29450351056687
    },
    {
      "id": 138774,
      "geometry": "POINT (-77.117522 38.847604)",
      "poi_name": "Subway",
      "osm_id": 6168666716,
      "amenity": "fast_food",
      "cuisine": "sandwich",
      "wheelchair": "yes",
      "opening_hours": "Mo-Fr 08:00-19:00; Sa-Su 09:00-19:00",
      "website": "https://restaurants.subway.com/united-states/va/baileys-crossroads/3529-s-jefferson-st",
      "phone": "+1 703-671-2727",
      "takeaway": "yes",
      "drive_through": "no",
      "outdoor_seating": "no",
      "delivery": "yes",
      "addr_state": "VA",
      "addr_city": "Falls Church",
      "addr_postcode": "22041",
      "addr_street": "South Jefferson Street",
      "addr_housenumber": "3529",
      "value": 241.29450351056687
    },
    {
      "id": 140458,
      "geometry": "POINT (-77.311825 38.686708)",
      "poi_name": "Little Caesars",
      "osm_id": 6248117093,
      "amenity": "fast_food",
      "cuisine": "pizza",
      "takeaway": "yes",
      "drive_through": "no",
      "addr_state": "VA",
      "addr_city": "Woodbridge",
      "addr_postcode": "22192",
      "addr_street": "Hedges Run Drive",
      "addr_housenumber": "12419",
      "value": 241.29450351056687
    },
    {
      "id": 142076,
      "geometry": "POINT (-77.319086 38.799682)",
      "poi_name": "Subway",
      "osm_id": 6302434582,
      "amenity": "fast_food",
      "cuisine": "sandwich",
      "opening_hours": "Mo-Th 08:30-21:30; Fr 08:30-21:00; Sa-Su 08:30-21:30",
      "website": "https://restaurants.subway.com/united-states/va/burke/5765-burke-ctr-pky",
      "phone": "+1 703-250-3355",
      "takeaway": "yes",
      "addr_state": "VA",
      "addr_postcode": "22015",
      "addr_street": "Burke Center Parkway",
      "addr_housenumber": "5765",
      "value": 241.29450351056687
    },
    {
      "id": 142033,
      "geometry": "POINT (-78.44045 38.029069)",
      "poi_name": "Chick-fil-A",
      "osm_id": 6301297827,
      "amenity": "fast_food",
      "cuisine": "chicken",
      "takeaway": "yes",
      "drive_through": "yes",
      "addr_state": "VA",
      "addr_city": "Charlottesville",
      "addr_postcode": "22911",
      "addr_street": "Richmond Road",
      "addr_housenumber": "1626",
      "value": 241.29450351056687
    },
    {
      "id": 142036,
      "geometry": "POINT (-78.444097 38.029122)",
      "poi_name": "Chipotle",
      "osm_id": 6301467932,
      "amenity": "fast_food",
      "cuisine": "mexican",
      "takeaway": "yes",
      "official_name": "Chipotle Mexican Grill",
      "addr_state": "VA",
      "addr_city": "Charlottesville",
      "addr_postcode": "22911",
      "addr_street": "Abbey Road",
      "addr_housenumber": "2040",
      "value": 241.29450351056687
    },
    {
      "id": 142091,
      "geometry": "POINT (-78.498134 38.010532)",
      "poi_name": "Fuzzy's Taco Shop",
      "osm_id": 6302700649,
      "amenity": "fast_food",
      "cuisine": "mexican",
      "addr_state": "VA",
      "addr_city": "Charlottesville",
      "addr_postcode": "22903",
      "addr_street": "Merchant Walk Square",
      "addr_housenumber": "435",
      "value": 241.29450351056687
    },
    {
      "id": 142094,
      "geometry": "POINT (-78.500271 38.011443)",
      "poi_name": "Extreme Pizza",
      "osm_id": 6302700662,
      "amenity": "fast_food",
      "cuisine": "pizza",
      "takeaway": "yes",
      "addr_state": "VA",
      "addr_city": "Charlottesville",
      "addr_postcode": "22903",
      "addr_street": "Merchant Walk Square",
      "addr_housenumber": "355",
      "value": 241.29450351056687
    },
    {
      "id": 142096,
      "geometry": "POINT (-78.498834 38.010387)",
      "poi_name": "Jersey Mike's Subs",
      "osm_id": 6302700670,
      "amenity": "fast_food",
      "cuisine": "sandwich",
      "takeaway": "yes",
      "addr_state": "VA",
      "addr_city": "Charlottesville",
      "addr_postcode": "22903",
      "addr_street": "Merchant Walk Avenue",
      "addr_housenumber": "265",
      "value": 241.29450351056687
    },
    {
      "id": 143329,
      "geometry": "POINT (-78.37066 38.229928)",
      "poi_name": "KFC",
      "osm_id": 6336807851,
      "amenity": "fast_food",
      "cuisine": "chicken",
      "website": "https://locations.kfc.com/va/ruckersville/8726-seminole-trail",
      "takeaway": "yes",
      "addr_state": "VA",
      "addr_city": "Ruckersville",
      "addr_postcode": "22968",
      "addr_street": "Seminole Trail",
      "addr_housenumber": "8716",
      "value": 241.29450351056687
    },
    {
      "id": 143353,
      "geometry": "POINT (-77.270671 38.842643)",
      "poi_name": "Subway",
      "osm_id": 6338160118,
      "amenity": "fast_food",
      "cuisine": "sandwich",
      "phone": "+1 703 261-6983",
      "takeaway": "yes",
      "drive_through": "no",
      "addr_state": "VA",
      "addr_postcode": "22031",
      "addr_street": "Main Street",
      "addr_housenumber": "9476",
      "value": 241.29450351056687
    },
    {
      "id": 148623,
      "geometry": "POINT (-77.606511 38.787514)",
      "poi_name": "Smashburger",
      "osm_id": 3968460363,
      "amenity": "fast_food",
      "cuisine": "burger",
      "wheelchair": "yes",
      "opening_hours": "Su-Th 10:30-21:30; Fr-Sa 10:30-22:00",
      "website": "https://smashburger.com/locations/us/va/gainesville/14082-promenade-commons-street/",
      "phone": "+1 703-743-7060",
      "takeaway": "yes",
      "drive_through": "no",
      "addr_state": "VA",
      "addr_city": "Gainesville",
      "addr_postcode": "20155",
      "addr_street": "Promenade Commons Street",
      "addr_housenumber": "14082",
      "value": 241.29450351056687
    },
    {
      "id": 154167,
      "geometry": "POINT (-77.609433 38.796083)",
      "poi_name": "Qdoba",
      "osm_id": 4226819097,
      "amenity": "fast_food",
      "cuisine": "mexican",
      "opening_hours": "Mo-Th 11:00-20:00; Fr-Sa 11:00-22:00; Su 11:00-20:00",
      "website": "https://locations.qdoba.com/us/va/gainesville/7376-atlas-walk-way.html",
      "phone": "+1 571-248-4191",
      "takeaway": "yes",
      "official_name": "Qdoba Mexican Grill",
      "addr_state": "VA",
      "addr_city": "Gainesville",
      "addr_postcode": "20155",
      "addr_street": "Atlas Walk Way",
      "addr_housenumber": "7376",
      "value": 241.29450351056687
    },
    {
      "id": 157302,
      "geometry": "POINT (-77.291894 38.844081)",
      "poi_name": "Dunkin'",
      "osm_id": 4700409587,
      "amenity": "fast_food",
      "cuisine": "donut;coffee_shop",
      "opening_hours": "Mo-Su 05:00-18:00",
      "website": "https://locations.dunkindonuts.com/en/va/fairfax/10020-main-st/350656",
      "phone": "+1 703-537-0851",
      "takeaway": "yes",
      "drive_through": "no",
      "outdoor_seating": "yes",
      "addr_state": "VA",
      "addr_city": "Fairfax",
      "addr_postcode": "22031",
      "addr_street": "Main Street",
      "addr_housenumber": "10020",
      "value": 241.29450351056687
    },
    {
      "id": 148184,
      "geometry": "POINT (-77.37275 38.633262)",
      "poi_name": "New China",
      "osm_id": 3935138351,
      "amenity": "fast_food",
      "cuisine": "chinese",
      "takeaway": "yes",
      "addr_state": "VA",
      "addr_city": "Woodbridge",
      "addr_postcode": "22193",
      "addr_street": "Staples Mill Plaza",
      "addr_housenumber": "5528",
      "value": 241.29450351056687
    },
    {
      "id": 148185,
      "geometry": "POINT (-77.372797 38.633232)",
      "poi_name": "Subway",
      "osm_id": 3935141857,
      "amenity": "fast_food",
      "cuisine": "sandwich",
      "opening_hours": "Mo-Fr 08:00-22:00; Sa-Su 08:00-21:30",
      "website": "https://restaurants.subway.com/united-states/va/woodbridge/5532-staples-mill-plaza",
      "phone": "+1 703-897-1107",
      "takeaway": "yes",
      "addr_state": "VA",
      "addr_city": "Woodbridge",
      "addr_postcode": "22193",
      "addr_street": "Staples Mill Plaza",
      "addr_housenumber": "5532",
      "value": 241.29450351056687
    },
    {
      "id": 148624,
      "geometry": "POINT (-77.607067 38.789216)",
      "poi_name": "MOD Pizza",
      "osm_id": 3968475528,
      "amenity": "fast_food",
      "cuisine": "pizza",
      "opening_hours": "Su-Th 10:30-22:00; Fr,Sa 10:30-23:00",
      "website": "https://modpizza.com/locations/gainesville/",
      "phone": "+1 571-222-2088",
      "takeaway": "yes",
      "delivery": "yes",
      "addr_state": "VA",
      "addr_city": "Gainesville",
      "addr_postcode": "20155",
      "addr_street": "Promenade Commons Street",
      "addr_housenumber": "13941",
      "value": 241.29450351056687
    },
    {
      "id": 150129,
      "geometry": "POINT (-77.339296 38.647016)",
      "poi_name": "Little Caesars",
      "osm_id": 4044604507,
      "amenity": "fast_food",
      "cuisine": "pizza",
      "website": "https://littlecaesars.com/en-us/store/10511/",
      "takeaway": "yes",
      "addr_state": "VA",
      "addr_city": "Woodbridge",
      "addr_postcode": "22193",
      "addr_street": "Dale Boulevard",
      "addr_housenumber": "4315",
      "value": 241.29450351056687
    },
    {
      "id": 152960,
      "geometry": "POINT (-77.310656 38.65492)",
      "poi_name": "Good Taste Express",
      "osm_id": 4170669498,
      "amenity": "fast_food",
      "cuisine": "chinese",
      "addr_state": "VA",
      "addr_city": "Woodbridge",
      "addr_postcode": "22192",
      "addr_street": "Minnieville Road",
      "addr_housenumber": "13564",
      "value": 241.29450351056687
    },
    {
      "id": 152961,
      "geometry": "POINT (-77.310567 38.654952)",
      "poi_name": "Papa John's",
      "osm_id": 4170669500,
      "amenity": "fast_food",
      "cuisine": "pizza",
      "opening_hours": "Mo-Th 10:30-23:00; Fr-Sa 10:30-23:30; Su 10:30-23:00",
      "website": "https://locations.papajohns.com/united-states/va/22192-4203/woodbridge/13560-minnieville-road",
      "phone": "+1 703-680-7272",
      "takeaway": "yes",
      "addr_state": "VA",
      "addr_city": "Woodbridge",
      "addr_postcode": "22192-4203",
      "addr_street": "Minnieville Road",
      "addr_housenumber": "13560",
      "value": 241.29450351056687
    },
    {
      "id": 160212,
      "geometry": "POINT (-77.475123 38.732669)",
      "poi_name": "Domino's",
      "osm_id": 4827009372,
      "amenity": "fast_food",
      "cuisine": "pizza",
      "opening_hours": "Mo-Fr 10:00-00:00; Sa-Su 00:00-01:00,10:00-00:00",
      "website": "https://pizza.dominos.com/virginia/manassas/10175-hastings-dr/",
      "phone": "+1 703-330-8000",
      "takeaway": "yes",
      "addr_state": "VA",
      "addr_city": "Manassas",
      "addr_postcode": "20110",
      "addr_street": "Hastings Drive",
      "addr_housenumber": "10175",
      "value": 241.29450351056687
    },
    {
      "id": 160215,
      "geometry": "POINT (-77.516733 38.785305)",
      "poi_name": "Panda Express",
      "osm_id": 4827101430,
      "amenity": "fast_food",
      "cuisine": "chinese",
      "takeaway": "yes",
      "addr_state": "VA",
      "addr_city": "Manassas",
      "addr_postcode": "20109",
      "addr_street": "Sudley Manor Drive",
      "addr_housenumber": "10689",
      "value": 241.29450351056687
    },
    {
      "id": 166257,
      "geometry": "POINT (-77.570884 38.750678)",
      "poi_name": "Subway",
      "osm_id": 9583529684,
      "amenity": "fast_food",
      "cuisine": "sandwich",
      "opening_hours": "Mo-Su 09:00-22:00",
      "website": "https://restaurants.subway.com/united-states/va/bristow/12737-braemar-village-plaza",
      "phone": "+1 703-368-8886",
      "takeaway": "yes",
      "addr_state": "VA",
      "addr_postcode": "20136",
      "addr_street": "Braemar Village Plaza",
      "addr_housenumber": "12737",
      "value": 241.29450351056687
    },
    {
      "id": 160363,
      "geometry": "POINT (-77.799454 38.729076)",
      "poi_name": "Chipotle",
      "osm_id": 4831625248,
      "amenity": "fast_food",
      "cuisine": "mexican",
      "website": "https://locations.chipotle.com/va/warrenton/251-w-lee-hwy",
      "phone": "+1 540-341-1032",
      "takeaway": "yes",
      "official_name": "Chipotle Mexican Grill",
      "addr_state": "VA",
      "addr_city": "Warrenton",
      "addr_postcode": "20186",
      "addr_street": "West Lee Highway",
      "addr_housenumber": "251",
      "value": 241.29450351056687
    },
    {
      "id": 160358,
      "geometry": "POINT (-77.793157 38.729037)",
      "poi_name": "Domino's",
      "osm_id": 4831606162,
      "amenity": "fast_food",
      "cuisine": "pizza",
      "opening_hours": "Mo-Fr 10:30-00:00; Sa-Su 00:00-01:00,10:30-00:00",
      "website": "https://pizza.dominos.com/virginia/warrenton/81-w-lee-hwy/",
      "phone": "+1 540-347-0001",
      "takeaway": "yes",
      "addr_state": "VA",
      "addr_city": "Warrenton",
      "addr_postcode": "20186",
      "addr_street": "West Lee Highway",
      "addr_housenumber": "81",
      "value": 241.29450351056687
    },
    {
      "id": 164485,
      "geometry": "POINT (-77.32141 38.851266)",
      "poi_name": "Domino's",
      "osm_id": 9476766817,
      "amenity": "fast_food",
      "cuisine": "pizza",
      "opening_hours": "Mo-Fr 10:00-00:00; Sa-Su 00:00-01:00,10:00-00:00",
      "website": "https://pizza.dominos.com/virginia/fairfax/10895-main-st/",
      "phone": "+1 703-352-9800",
      "takeaway": "yes",
      "addr_state": "VA",
      "addr_city": "Fairfax",
      "addr_postcode": "22030",
      "addr_street": "Main Street",
      "addr_housenumber": "10895",
      "value": 241.29450351056687
    },
    {
      "id": 165907,
      "geometry": "POINT (-78.370746 38.233986)",
      "poi_name": "McDonald's",
      "osm_id": 9563749040,
      "amenity": "fast_food",
      "cuisine": "burger",
      "website": "https://www.mcdonalds.com/us/en-us/location/va/ruckersville/26-stone-ridge-drive-north/33410.html",
      "takeaway": "yes",
      "addr_state": "VA",
      "addr_city": "Ruckersville",
      "addr_postcode": "22968",
      "addr_street": "Stoneridge Drive North",
      "addr_housenumber": "26",
      "value": 241.29450351056687
    },
    {
      "id": 165913,
      "geometry": "POINT (-78.3703 38.23486)",
      "poi_name": "Subway",
      "osm_id": 9563773069,
      "amenity": "fast_food",
      "cuisine": "sandwich",
      "takeaway": "yes",
      "addr_state": "VA",
      "addr_city": "Ruckersville",
      "addr_postcode": "22968",
      "addr_street": "Stoneridge Drive North",
      "addr_housenumber": "98",
      "value": 241.29450351056687
    },
    {
      "id": 169501,
      "geometry": "POINT (-77.519615 38.785567)",
      "poi_name": "Subway",
      "osm_id": 2304260980,
      "amenity": "fast_food",
      "cuisine": "sandwich",
      "website": "https://restaurants.subway.com/united-states/va/manassas/10888-sudly-manor-dr",
      "phone": "+1 703-257-5772",
      "takeaway": "yes",
      "addr_state": "VA",
      "addr_postcode": "20109",
      "addr_street": "Sudly Manor Drive",
      "addr_housenumber": "10888",
      "value": 241.29450351056687
    },
    {
      "id": 169505,
      "geometry": "POINT (-77.649916 38.786059)",
      "poi_name": "Dunkin'",
      "osm_id": 2304388637,
      "amenity": "fast_food",
      "cuisine": "donut;coffee_shop",
      "opening_hours": "Mo-Sa 05:00-20:00; Su 06:00-20:00",
      "website": "https://locations.dunkindonuts.com/en/va/gainesville/7901-stonewall-shops-sq/347884",
      "internet_access": "wlan",
      "phone": "+1 703-239-3913",
      "takeaway": "yes",
      "drive_through": "no",
      "addr_state": "VA",
      "addr_city": "Gainesville",
      "addr_postcode": "20155",
      "addr_street": "Stonewall Shops Square",
      "addr_housenumber": "7901",
      "value": 241.29450351056687
    },
    {
      "id": 169624,
      "geometry": "POINT (-77.608119 38.792297)",
      "poi_name": "Domino's",
      "osm_id": 2311223042,
      "amenity": "fast_food",
      "cuisine": "pizza",
      "opening_hours": "Mo-Fr 10:00-00:00; Sa-Su 00:00-01:00,10:00-00:00",
      "website": "https://pizza.dominos.com/virginia/gainesville/7625-linton-hall-rd/",
      "phone": "+1 703-754-3000",
      "takeaway": "yes",
      "addr_state": "VA",
      "addr_city": "Gainesville",
      "addr_postcode": "20155",
      "addr_street": "Linton Hall Road",
      "addr_housenumber": "7625",
      "value": 241.29450351056687
    },
    {
      "id": 169642,
      "geometry": "POINT (-77.629721 38.792046)",
      "poi_name": "Subway",
      "osm_id": 2312005634,
      "amenity": "fast_food",
      "cuisine": "sandwich",
      "opening_hours": "Mo-Su 09:00-21:00",
      "website": "https://restaurants.subway.com/united-states/va/gainesville/7601-somerset-crossing-dr",
      "phone": "+1 571-248-8580",
      "takeaway": "yes",
      "addr_state": "VA",
      "addr_postcode": "20155",
      "addr_street": "Somerset Crossing Drive",
      "addr_housenumber": "7601",
      "value": 241.29450351056687
    },
    {
      "id": 169671,
      "geometry": "POINT (-77.426929 38.837087)",
      "poi_name": "Papa John's",
      "osm_id": 2313291805,
      "amenity": "fast_food",
      "cuisine": "pizza",
      "opening_hours": "Mo-Th 10:00-23:00; Fr-Sa 10:00-24:00; Su 10:00-23:00",
      "website": "https://locations.papajohns.com/united-states/va/20121-2454/centreville/13826-braddock-rd",
      "phone": "+1 703-266-7272",
      "takeaway": "yes",
      "addr_state": "VA",
      "addr_city": "Centreville",
      "addr_postcode": "20121-2454",
      "addr_street": "Braddock Road",
      "addr_housenumber": "13826",
      "value": 241.29450351056687
    },
    {
      "id": 169682,
      "geometry": "POINT (-77.550516 38.732498)",
      "poi_name": "Subway",
      "osm_id": 2314117912,
      "amenity": "fast_food",
      "cuisine": "sandwich",
      "opening_hours": "Mo-Su 09:00-22:00",
      "website": "https://restaurants.subway.com/united-states/va/bristow/10418-bristow-center-drive",
      "phone": "+1 703-368-4030",
      "takeaway": "yes",
      "addr_state": "VA",
      "addr_city": "Bristow",
      "addr_postcode": "20136",
      "addr_street": "Bristow Center Drive",
      "addr_housenumber": "10418",
      "value": 241.29450351056687
    },
    {
      "id": 169780,
      "geometry": "POINT (-77.50799 38.779616)",
      "poi_name": "Papa John's",
      "osm_id": 2319011194,
      "amenity": "fast_food",
      "cuisine": "pizza",
      "opening_hours": "Mo-Th 10:30-23:00; Fr-Sa 10:30-23:30; Su 10:30-23:00",
      "website": "https://locations.papajohns.com/united-states/va/20109-8007/manassas/10380-portsmouth-rd",
      "phone": "+1 703-392-7272",
      "takeaway": "yes",
      "addr_state": "VA",
      "addr_city": "Manassas",
      "addr_postcode": "20109-8007",
      "addr_street": "Portsmouth Road",
      "addr_housenumber": "10380",
      "value": 241.29450351056687
    },
    {
      "id": 169737,
      "geometry": "POINT (-77.643426 38.81671)",
      "poi_name": "Little Caesars",
      "osm_id": 2317646994,
      "amenity": "fast_food",
      "cuisine": "pizza",
      "opening_hours": "Mo-Th 10:00-21:00; Fr-Sa 10:00-22:00; Su 10:30-21:00",
      "website": "https://littlecaesars.com/en-us/store/10328/",
      "takeaway": "only",
      "outdoor_seating": "no",
      "addr_state": "VA",
      "addr_housenumber": "6428",
      "value": 241.29450351056687
    },
    {
      "id": 169738,
      "geometry": "POINT (-77.642636 38.814118)",
      "poi_name": "Papa John's",
      "osm_id": 2317647008,
      "amenity": "fast_food",
      "cuisine": "pizza",
      "opening_hours": "Mo-Th 10:00-23:00; Fr-Sa 10:00-24:00; Su 10:00-23:00",
      "website": "https://locations.papajohns.com/united-states/va/20168/haymarket/6743-east-leaberry-way",
      "phone": "+1 703-753-6767",
      "takeaway": "yes",
      "delivery": "yes",
      "addr_state": "VA",
      "addr_city": "Haymarket",
      "addr_postcode": "20168",
      "addr_street": "Lea Berry Way",
      "addr_housenumber": "6743",
      "value": 241.29450351056687
    },
    {
      "id": 169739,
      "geometry": "POINT (-77.642712 38.814166)",
      "poi_name": "Subway",
      "osm_id": 2317647013,
      "amenity": "fast_food",
      "cuisine": "sandwich",
      "opening_hours": "Mo-Sa 08:00-22:00; Su 08:00-21:00",
      "website": "https://restaurants.subway.com/united-states/va/haymarket/6747-leaberry-way",
      "phone": "+1 703-753-1115",
      "takeaway": "yes",
      "drive_through": "no",
      "addr_state": "VA",
      "addr_city": "Haymarket",
      "addr_postcode": "20169",
      "addr_street": "Lea Berry Way",
      "addr_housenumber": "6747",
      "value": 241.29450351056687
    },
    {
      "id": 169781,
      "geometry": "POINT (-77.509736 38.781314)",
      "poi_name": "Panera Bread",
      "osm_id": 2319011199,
      "amenity": "fast_food",
      "cuisine": "sandwich;bakery",
      "opening_hours": "Mo-Su 07:00-20:00",
      "website": "https://locations.panerabread.com/va/manassas/8085-sudley-road.html",
      "phone": "+1 703-393-2249",
      "takeaway": "yes",
      "delivery": "yes",
      "addr_state": "VA",
      "addr_city": "Manassas",
      "addr_postcode": "20109",
      "addr_street": "Sudley Road",
      "addr_housenumber": "8085",
      "value": 241.29450351056687
    },
    {
      "id": 170934,
      "geometry": "POINT (-77.320104 38.79958)",
      "poi_name": "Chipotle",
      "osm_id": 2352867869,
      "amenity": "fast_food",
      "cuisine": "mexican",
      "opening_hours": "Su-Sa 11:00-22:00",
      "phone": "+1-703-250-2537",
      "takeaway": "yes",
      "official_name": "Chipotle Mexican Grill",
      "addr_state": "VA",
      "addr_street": "Burke Centre Parkway",
      "addr_housenumber": "5747",
      "value": 241.29450351056687
    },
    {
      "id": 169782,
      "geometry": "POINT (-77.509592 38.781128)",
      "poi_name": "Firehouse Subs",
      "osm_id": 2319011211,
      "amenity": "fast_food",
      "cuisine": "sandwich",
      "opening_hours": "Mo-Su 10:30-21:00",
      "website": "https://www.firehousesubs.com/locations/va/westgate/",
      "phone": "+1 703-361-8736",
      "takeaway": "yes",
      "drive_through": "no",
      "addr_state": "VA",
      "addr_city": "Manassas",
      "addr_postcode": "20109",
      "addr_street": "Sudley Road",
      "addr_housenumber": "8097",
      "value": 241.29450351056687
    },
    {
      "id": 169803,
      "geometry": "POINT (-77.474849 38.738383)",
      "poi_name": "Subway",
      "osm_id": 2320258655,
      "amenity": "fast_food",
      "cuisine": "sandwich",
      "opening_hours": "Mo-Sa 08:00-22:00; Su 09:00-21:00",
      "website": "https://restaurants.subway.com/united-states/va/manassas/10094-dumfries-road",
      "phone": "+1 703-365-2275",
      "takeaway": "yes",
      "addr_state": "VA",
      "addr_city": "Manassas",
      "addr_postcode": "20110",
      "addr_street": "Dumfries Road",
      "addr_housenumber": "10094",
      "value": 241.29450351056687
    },
    {
      "id": 172075,
      "geometry": "POINT (-77.212948 38.740224)",
      "poi_name": "Chipotle",
      "osm_id": 2393484370,
      "amenity": "fast_food",
      "cuisine": "mexican",
      "website": "https://www.chipotle.com/",
      "takeaway": "yes",
      "official_name": "Chipotle Mexican Grill",
      "addr_state": "VA",
      "addr_postcode": "22153",
      "addr_street": "Rolling Road",
      "addr_housenumber": "8066",
      "value": 241.29450351056687
    },
    {
      "id": 171021,
      "geometry": "POINT (-77.502372 38.775534)",
      "poi_name": "Subway",
      "osm_id": 2356662570,
      "amenity": "fast_food",
      "cuisine": "sandwich",
      "opening_hours": "Mo-Fr 08:00-21:00; Sa-Su 09:00-21:00",
      "phone": "+1-703-472-2036",
      "takeaway": "yes",
      "drive_through": "no",
      "addr_state": "VA",
      "addr_city": "Manassas",
      "addr_postcode": "20109",
      "addr_street": "Sudley Road",
      "addr_housenumber": "8337",
      "value": 241.29450351056687
    },
    {
      "id": 171145,
      "geometry": "POINT (-77.489551 38.769794)",
      "poi_name": "Dunkin'",
      "osm_id": 2362360821,
      "amenity": "fast_food",
      "cuisine": "donut;coffee_shop",
      "opening_hours": "Mo-Sa 05:00-21:00; Su 06:00-21:00",
      "website": "https://locations.dunkindonuts.com/en/va/manassas/8525-rolling-rd/344087",
      "phone": "+1 703-330-4411",
      "takeaway": "yes",
      "drive_through": "no",
      "addr_state": "VA",
      "addr_city": "Manassas",
      "addr_postcode": "20110",
      "addr_street": "Rolling Road",
      "addr_housenumber": "8525",
      "value": 241.29450351056687
    },
    {
      "id": 175596,
      "geometry": "POINT (-77.358238 38.610461)",
      "poi_name": "Dairy Queen",
      "osm_id": 2527401537,
      "amenity": "fast_food",
      "cuisine": "ice_cream;burger",
      "takeaway": "yes",
      "addr_state": "VA",
      "addr_city": "Dumfries",
      "addr_postcode": "22025",
      "addr_street": "Waterway Drive",
      "addr_housenumber": "5061",
      "value": 241.29450351056687
    },
    {
      "id": 173064,
      "geometry": "POINT (-77.189888 38.829045)",
      "poi_name": "Popeyes",
      "osm_id": 2423637758,
      "amenity": "fast_food",
      "cuisine": "chicken",
      "takeaway": "yes",
      "drive_through": "yes",
      "official_name": "Popeyes Louisiana Kitchen",
      "delivery": "no",
      "addr_city": "Annandale",
      "addr_postcode": "22003",
      "addr_street": "John Marr Drive",
      "value": 241.29450351056687
    },
    {
      "id": 172216,
      "geometry": "POINT (-77.438109 38.838142)",
      "poi_name": "Kabob House",
      "osm_id": 2397748468,
      "amenity": "fast_food",
      "cuisine": "kebab",
      "opening_hours": "Mo-Sa 11:00-20:00; Su 12:00-21:00",
      "website": "https://www.foodcornercentreville.com/",
      "phone": "+1-703-543-7166",
      "addr_state": "VA",
      "addr_city": "Centreville",
      "addr_postcode": "20121",
      "addr_street": "Centreville Square",
      "addr_housenumber": "14220",
      "value": 241.29450351056687
    },
    {
      "id": 172217,
      "geometry": "POINT (-77.438219 38.838142)",
      "poi_name": "Tropical Smoothie Cafe",
      "osm_id": 2397748469,
      "amenity": "fast_food",
      "cuisine": "juice",
      "opening_hours": "Mo 09:00-15:00; Tu-Fr 09:00-20:00; Sa 10:00-20:00; Su 10:00-19:00",
      "website": "https://locations.tropicalsmoothiecafe.com/va/centreville/14220-centreville-square",
      "phone": "+1-703-815-1455",
      "takeaway": "yes",
      "drive_through": "no",
      "addr_state": "VA",
      "addr_city": "Centreville",
      "addr_postcode": "20121",
      "addr_street": "Centreville Square",
      "addr_housenumber": "14220",
      "value": 241.29450351056687
    },
    {
      "id": 172229,
      "geometry": "POINT (-77.423551 38.838073)",
      "poi_name": "Bella Pizza",
      "osm_id": 2397950887,
      "amenity": "fast_food",
      "cuisine": "pizza",
      "opening_hours": "Mo-Th 11:00-23:00; Fr-Sa 11:00-23:59; Su 11:00-23:00",
      "website": "https://bellapizzava.com/",
      "phone": "+1 703-502-8888",
      "addr_state": "VA",
      "addr_city": "Centreville",
      "addr_postcode": "20121",
      "addr_street": "Pickwick Road",
      "addr_housenumber": "5740",
      "value": 241.29450351056687
    },
    {
      "id": 172418,
      "geometry": "POINT (-77.502644 38.774118)",
      "poi_name": "Five Guys",
      "osm_id": 2402015680,
      "amenity": "fast_food",
      "cuisine": "burger",
      "opening_hours": "Mo-Su 11:00-23:00",
      "website": "https://restaurants.fiveguys.com/8366-sudley-road",
      "phone": "+1 571-292-2395",
      "takeaway": "yes",
      "official_name": "Five Guys Burgers and Fries",
      "addr_state": "VA",
      "addr_city": "Manassas",
      "addr_postcode": "20109",
      "addr_street": "Sudley Road",
      "addr_housenumber": "8366",
      "value": 241.29450351056687
    },
    {
      "id": 182911,
      "geometry": "POINT (-77.086888 38.863071)",
      "poi_name": "Sicilian Pizza",
      "osm_id": 10911053603,
      "amenity": "fast_food",
      "cuisine": "pizza",
      "opening_hours": "Mo-Th 11:00-23:00; Fr-Sa 11:00-01:00; Su 11:00-23:00",
      "website": "https://www.pizzasicilian.com/",
      "phone": "+1 703-920-9110",
      "addr_state": "VA",
      "addr_street": "South Walter Reed Drive",
      "addr_housenumber": "923",
      "value": 241.29450351056687
    },
    {
      "id": 188958,
      "geometry": "POINT (-77.3015 38.787765)",
      "poi_name": "Dunkin'",
      "osm_id": 258062657,
      "amenity": "fast_food",
      "cuisine": "donut;coffee_shop",
      "opening_hours": "Mo-Su 05:00-19:00",
      "website": "https://locations.dunkindonuts.com/en/va/burke/6050-burke-commons-rd/352163",
      "phone": "+1 703-239-0390",
      "takeaway": "yes",
      "drive_through": "yes",
      "addr_state": "VA",
      "addr_city": "Burke",
      "addr_postcode": "22015",
      "addr_street": "Burke Commons Road",
      "addr_housenumber": "6050",
      "value": 241.29450351056687
    },
    {
      "id": 186537,
      "geometry": "POINT (-77.510143 38.788966)",
      "poi_name": "Little Caesars",
      "osm_id": 7934403243,
      "amenity": "fast_food",
      "cuisine": "pizza",
      "website": "https://littlecaesars.com/en-us/store/11125/",
      "takeaway": "yes",
      "addr_state": "VA",
      "addr_city": "Manassas",
      "addr_postcode": "20109",
      "addr_street": "Sudley Manor Drive",
      "addr_housenumber": "10490",
      "value": 241.29450351056687
    },
    {
      "id": 187128,
      "geometry": "POINT (-77.142721 38.818995)",
      "poi_name": "Arby's",
      "osm_id": 7974984907,
      "amenity": "fast_food",
      "cuisine": "sandwich",
      "takeaway": "yes",
      "drive_through": "no",
      "addr_state": "VA",
      "addr_city": "Alexandria",
      "addr_postcode": "22312",
      "addr_street": "Beauregard Street",
      "addr_housenumber": "4817",
      "value": 241.29450351056687
    },
    {
      "id": 193584,
      "geometry": "POINT (-77.372624 38.84718)",
      "poi_name": "Subway",
      "osm_id": 1546689147,
      "amenity": "fast_food",
      "cuisine": "sandwich",
      "opening_hours": "Mo-Fr 07:00-21:00; Sa 08:30-20:30; Su 09:00-20:30",
      "website": "https://restaurants.subway.com/united-states/va/fairfax/12300-b-1-costco-plaza-drive",
      "phone": "+1 703-543-8157",
      "takeaway": "yes",
      "addr_state": "VA",
      "addr_postcode": "22030",
      "addr_street": "Costco Plaza Drive",
      "addr_housenumber": "12300",
      "value": 241.29450351056687
    },
    {
      "id": 197453,
      "geometry": "POINT (-77.135074 38.854444)",
      "poi_name": "Subway",
      "osm_id": 10648891120,
      "amenity": "fast_food",
      "cuisine": "sandwich",
      "opening_hours": "Mo-Su 08:30-21:30",
      "website": "https://restaurants.subway.com/united-states/va/falls-church/5898-leesburg-pike",
      "phone": "+1 703-820-0600",
      "takeaway": "yes",
      "addr_state": "VA",
      "addr_postcode": "22041",
      "addr_street": "Leesburg Pike",
      "addr_housenumber": "5898",
      "value": 241.29450351056687
    },
    {
      "id": 198065,
      "geometry": "POINT (-77.109292 38.842245)",
      "poi_name": "Dunkin'",
      "osm_id": 10687259031,
      "amenity": "fast_food",
      "cuisine": "donut;coffee_shop",
      "opening_hours": "Mo-Fr 05:00-19:00; Sa-Su 06:00-19:00",
      "website": "https://locations.dunkindonuts.com/en/va/alexandria/4700-s-king-st/354568",
      "phone": "+1 571-312-8670",
      "takeaway": "yes",
      "drive_through": "no",
      "addr_state": "VA",
      "addr_city": "Alexandria",
      "addr_postcode": "22302",
      "addr_street": "South King Street",
      "addr_housenumber": "4700",
      "value": 241.29450351056687
    },
    {
      "id": 198067,
      "geometry": "POINT (-77.109549 38.842382)",
      "poi_name": "Domino's",
      "osm_id": 10687259033,
      "amenity": "fast_food",
      "cuisine": "pizza",
      "opening_hours": "Mo-Fr 10:00-00:00; Sa-Su 00:00-01:00,10:00-00:00",
      "website": "https://pizza.dominos.com/virginia/alexandria/4698-king-st/",
      "phone": "+1 703-820-0800",
      "takeaway": "yes",
      "addr_state": "VA",
      "addr_city": "Alexandria",
      "addr_postcode": "22302",
      "addr_street": "King Street",
      "addr_housenumber": "4698",
      "value": 241.29450351056687
    },
    {
      "id": 198631,
      "geometry": "POINT (-77.271428 38.841766)",
      "poi_name": "Einstein Bros. Bagels",
      "osm_id": 906163821,
      "amenity": "fast_food",
      "cuisine": "bagel",
      "opening_hours": "Mo-Fr 05:00-17:00; Sa 06:00-16:00; Su 06:00-15:00",
      "website": "https://locations.einsteinbros.com/us/va/fairfax/9490-main-st",
      "phone": "+1 703 250 4045",
      "takeaway": "yes",
      "addr_state": "VA",
      "addr_city": "Fairfax",
      "addr_postcode": "22031",
      "addr_street": "Main Street",
      "addr_housenumber": "9490",
      "value": 241.29450351056687
    },
    {
      "id": 198380,
      "geometry": "POINT (-77.236684 38.780568)",
      "poi_name": "Papa John's",
      "osm_id": 10701729281,
      "amenity": "fast_food",
      "cuisine": "pizza",
      "opening_hours": "Mo-Th 10:00-23:00; Fr-Sa 10:00-24:00; Su 10:00-23:00",
      "website": "https://locations.papajohns.com/united-states/va/22153/springfield/6228-h-rolling-rd",
      "phone": "+1 703-913-7272",
      "takeaway": "yes",
      "addr_state": "VA",
      "addr_city": "Springfield",
      "addr_postcode": "22153",
      "addr_street": "H Rolling Road",
      "addr_housenumber": "6228",
      "value": 241.29450351056687
    },
    {
      "id": 198381,
      "geometry": "POINT (-77.235123 38.779956)",
      "poi_name": "Duck Donuts",
      "osm_id": 10701729282,
      "amenity": "fast_food",
      "cuisine": "donut",
      "takeaway": "yes",
      "addr_state": "VA",
      "addr_city": "Springfield",
      "addr_street": "Old Keene Mill Road",
      "value": 241.29450351056687
    },
    {
      "id": 198382,
      "geometry": "POINT (-77.235204 38.779939)",
      "poi_name": "Mezeh",
      "osm_id": 10701729287,
      "amenity": "fast_food",
      "cuisine": "lebanese",
      "addr_state": "VA",
      "addr_city": "Springfield",
      "addr_street": "Old Keene Mill Road",
      "value": 241.29450351056687
    },
    {
      "id": 210061,
      "geometry": "POINT (-77.547521 38.732726)",
      "poi_name": "Chipotle",
      "osm_id": 5075850241,
      "amenity": "fast_food",
      "cuisine": "mexican",
      "website": "https://www.chipotle.com/",
      "takeaway": "yes",
      "official_name": "Chipotle Mexican Grill",
      "addr_state": "VA",
      "addr_city": "Bristow",
      "addr_postcode": "20136",
      "addr_street": "Bristow Center Drive",
      "addr_housenumber": "10303",
      "value": 241.29450351056687
    },
    {
      "id": 200948,
      "geometry": "POINT (-77.301436 38.787919)",
      "poi_name": "Dairy Queen",
      "osm_id": 601513204,
      "amenity": "fast_food",
      "cuisine": "ice_cream;burger",
      "website": "http://www.dqburke.com/?y_source=1_ODk5Njk0OC03MTUtbG9jYXRpb24ud2Vic2l0ZQ%3D%3D",
      "phone": "+1-703-426-2440",
      "takeaway": "yes",
      "addr_state": "VA",
      "addr_city": "Burke",
      "addr_postcode": "22015",
      "addr_street": "Burke Commons Road",
      "addr_housenumber": "6050",
      "value": 241.29450351056687
    },
    {
      "id": 206471,
      "geometry": "POINT (-77.314697 38.825465)",
      "poi_name": "Domino's",
      "osm_id": 7212088021,
      "amenity": "fast_food",
      "cuisine": "pizza",
      "opening_hours": "Mo-Fr 00:00-01:00,10:30-00:00; Sa-Su 00:00-02:00,10:30-00:00",
      "website": "https://pizza.dominos.com/virginia/fairfax/10649-a-braddock-road/",
      "phone": "+1 703-352-0990",
      "takeaway": "yes",
      "addr_state": "VA",
      "addr_city": "Fairfax",
      "addr_postcode": "22032",
      "addr_street": "Braddock Road",
      "addr_housenumber": "10649",
      "value": 241.29450351056687
    },
    {
      "id": 206472,
      "geometry": "POINT (-77.314558 38.825459)",
      "poi_name": "Dunkin'",
      "osm_id": 7212088022,
      "amenity": "fast_food",
      "cuisine": "donut;coffee_shop",
      "opening_hours": "Mo-Sa 05:00-19:00; Su 06:00-19:00",
      "website": "https://locations.dunkindonuts.com/en/va/fairfax/10633-braddock-rd/308047",
      "phone": "+1 703-691-4090",
      "takeaway": "yes",
      "drive_through": "no",
      "addr_state": "VA",
      "addr_city": "Fairfax",
      "addr_postcode": "22032",
      "addr_street": "Braddock Road",
      "addr_housenumber": "10633",
      "value": 241.29450351056687
    },
    {
      "id": 199000,
      "geometry": "POINT (-77.264645 38.751513)",
      "poi_name": "Subway",
      "osm_id": 929766245,
      "amenity": "fast_food",
      "cuisine": "sandwich",
      "website": "https://restaurants.subway.com/united-states/va/springfield/7525-huntsman-blvd",
      "phone": "+1 703-455-9191",
      "takeaway": "yes",
      "addr_state": "VA",
      "addr_postcode": "22153",
      "value": 241.29450351056687
    },
    {
      "id": 200542,
      "geometry": "POINT (-77.608721 38.796014)",
      "poi_name": "Panera Bread",
      "osm_id": 595308714,
      "amenity": "fast_food",
      "cuisine": "sandwich;bakery",
      "wheelchair": "yes",
      "opening_hours": "Mo-Sa 06:00-21:00, Su 07:00-21:00",
      "website": "https://locations.panerabread.com/va/gainesville/7351-atlas-walk-way.html",
      "internet_access": "wlan",
      "phone": "+1 571-261-1200",
      "takeaway": "yes",
      "outdoor_seating": "yes",
      "delivery": "yes",
      "addr_state": "VA",
      "addr_city": "Gainesville",
      "addr_postcode": "20155",
      "addr_street": "Atlas Walk Way",
      "addr_housenumber": "7351",
      "value": 241.29450351056687
    },
    {
      "id": 210062,
      "geometry": "POINT (-77.547551 38.732795)",
      "poi_name": "Smoothie King",
      "osm_id": 5075850264,
      "amenity": "fast_food",
      "cuisine": "juice",
      "website": "https://www.smoothieking.com/",
      "takeaway": "yes",
      "addr_state": "VA",
      "addr_city": "Bristow",
      "addr_postcode": "20136",
      "addr_street": "Bristow Center Drive",
      "addr_housenumber": "10261",
      "value": 241.29450351056687
    },
    {
      "id": 211813,
      "geometry": "POINT (-77.272192 38.842934)",
      "poi_name": "Chipotle",
      "osm_id": 5173701425,
      "amenity": "fast_food",
      "cuisine": "mexican",
      "opening_hours": "10:45-22:00",
      "website": "https://www.chipotle.com",
      "phone": "(571) 328-5485",
      "takeaway": "yes",
      "official_name": "Chipotle Mexican Grill",
      "addr_state": "VA",
      "addr_city": "Fairfax",
      "addr_postcode": "22031",
      "addr_street": "Main Street",
      "addr_housenumber": "9506",
      "value": 241.29450351056687
    },
    {
      "id": 213570,
      "geometry": "POINT (-77.155188 38.836491)",
      "poi_name": "Subway",
      "osm_id": 5254897926,
      "amenity": "fast_food",
      "cuisine": "sandwich",
      "opening_hours": "Mo-Fr 07:30-21:00; Sa 08:00-21:00; Su 09:00-20:00",
      "website": "https://restaurants.subway.com/united-states/va/falls-church/6341-6365-columbia-pike",
      "phone": "+1 703-750-2212",
      "takeaway": "yes",
      "addr_state": "VA",
      "addr_postcode": "22041",
      "value": 241.29450351056687
    },
    {
      "id": 215185,
      "geometry": "POINT (-77.608118 38.796417)",
      "poi_name": "Five Guys",
      "osm_id": 5290469166,
      "amenity": "fast_food",
      "cuisine": "burger",
      "opening_hours": "Mo-Su 11:00-22:00",
      "website": "https://restaurants.fiveguys.com/7321-atlas-walk-way",
      "phone": "+1 703-753-1511",
      "takeaway": "yes",
      "drive_through": "no",
      "official_name": "Five Guys Burgers and Fries",
      "addr_state": "VA",
      "addr_city": "Gainesville",
      "addr_postcode": "20155",
      "addr_street": "Atlas Walk Way",
      "addr_housenumber": "7321",
      "value": 241.29450351056687
    },
    {
      "id": 215186,
      "geometry": "POINT (-77.608936 38.796314)",
      "poi_name": "Potbelly",
      "osm_id": 5290469167,
      "amenity": "fast_food",
      "cuisine": "sandwich",
      "opening_hours": "Mo-Su 10:00-21:00",
      "website": "https://www.potbelly.com/stores/23381",
      "phone": "+1 571-248-6425",
      "takeaway": "yes",
      "official_name": "Potbelly Sandwich Works",
      "addr_state": "VA",
      "addr_city": "Gainesville",
      "addr_postcode": "20155",
      "addr_street": "Atlas Walk Way",
      "addr_housenumber": "7352",
      "value": 241.29450351056687
    },
    {
      "id": 215187,
      "geometry": "POINT (-77.651298 38.78538)",
      "poi_name": "Moe's Southwest Grill",
      "osm_id": 5290513882,
      "amenity": "fast_food",
      "cuisine": "mexican",
      "opening_hours": "Mo-Sa 09:45-22:00; Su 10:45-21:00",
      "website": "https://order.moes.com/menu/4731",
      "phone": "+1 703-722-9115",
      "takeaway": "yes",
      "delivery": "yes",
      "addr_state": "VA",
      "addr_city": "Gainesville",
      "addr_postcode": "20155",
      "addr_street": "Stonewall Shops Square",
      "addr_housenumber": "8148",
      "value": 241.29450351056687
    },
    {
      "id": 215193,
      "geometry": "POINT (-77.644912 38.818273)",
      "poi_name": "Auntie Anne's",
      "osm_id": 5290513892,
      "amenity": "fast_food",
      "cuisine": "pretzel",
      "opening_hours": "Mo-Sa 10:00-21:00; Su 10:00-18:00",
      "website": "https://www.auntieannes.com/va/haymarket/146-1",
      "phone": "+1 703-754-6240",
      "takeaway": "yes",
      "drive_through": "no",
      "addr_state": "VA",
      "addr_city": "Haymarket",
      "addr_postcode": "20169",
      "addr_street": "Trading Square",
      "addr_housenumber": "6530",
      "value": 241.29450351056687
    },
    {
      "id": 215194,
      "geometry": "POINT (-77.644803 38.818248)",
      "poi_name": "Checkers",
      "osm_id": 5290513893,
      "amenity": "fast_food",
      "cuisine": "burger",
      "opening_hours": "Mo-Su 10:00-22:00",
      "website": "https://locations.checkers.com/va/haymarket/6530-trading-square",
      "phone": "+1 703-754-6241",
      "takeaway": "yes",
      "drive_through": "no",
      "outdoor_seating": "no",
      "delivery": "yes",
      "addr_state": "VA",
      "addr_city": "Haymarket",
      "addr_postcode": "20169",
      "addr_street": "Trading Square",
      "addr_housenumber": "6530",
      "value": 241.29450351056687
    },
    {
      "id": 215195,
      "geometry": "POINT (-77.221278 38.809178)",
      "poi_name": "Jersey Mike's Subs",
      "osm_id": 5290654128,
      "amenity": "fast_food",
      "cuisine": "sandwich",
      "takeaway": "yes",
      "addr_state": "VA",
      "addr_street": "Port Royal Road",
      "addr_housenumber": "5250",
      "value": 241.29450351056687
    },
    {
      "id": 213629,
      "geometry": "POINT (-78.515625 38.026482)",
      "poi_name": "Subway",
      "osm_id": 5256376182,
      "amenity": "fast_food",
      "cuisine": "sandwich",
      "opening_hours": "Mo-Fr 07:00-23:00; Sa 08:00-23:00; Su 09:00-22:00",
      "phone": "+1-434-977-5141",
      "takeaway": "yes",
      "drive_through": "no",
      "outdoor_seating": "no",
      "addr_state": "VA",
      "addr_city": "Charlottesville",
      "addr_postcode": "22903",
      "addr_street": "Maury Avenue",
      "addr_housenumber": "111",
      "value": 241.29450351056687
    },
    {
      "id": 218773,
      "geometry": "POINT (-78.499233 38.011747)",
      "poi_name": "BurgerFi",
      "osm_id": 9294621451,
      "amenity": "fast_food",
      "cuisine": "burger",
      "takeaway": "yes",
      "addr_state": "VA",
      "addr_city": "Charlottesville",
      "addr_postcode": "22903",
      "addr_street": "Merchant Walk Square",
      "addr_housenumber": "385",
      "value": 241.29450351056687
    },
    {
      "id": 218776,
      "geometry": "POINT (-78.503387 38.012871)",
      "poi_name": "Subway",
      "osm_id": 9294621502,
      "amenity": "fast_food",
      "cuisine": "sandwich",
      "takeaway": "yes",
      "addr_state": "VA",
      "addr_city": "Charlottesville",
      "addr_postcode": "22903",
      "addr_street": "5th Street Southwest",
      "addr_housenumber": "1141",
      "value": 241.29450351056687
    },
    {
      "id": 218237,
      "geometry": "POINT (-78.455674 38.03418)",
      "poi_name": "Wendy's",
      "osm_id": 9269011988,
      "amenity": "fast_food",
      "cuisine": "burger",
      "opening_hours": "10:30-22:00",
      "website": "https://locations.wendys.com/united-states/va/charlottesville/1192-richmond-road",
      "phone": "+1 434 979 5908",
      "takeaway": "yes",
      "addr_state": "VA",
      "addr_city": "Charlottesville",
      "addr_postcode": "22911",
      "addr_street": "Richmond Road",
      "addr_housenumber": "1192",
      "value": 241.29450351056687
    },
    {
      "id": 218942,
      "geometry": "POINT (-77.120018 38.846096)",
      "poi_name": "District Taco",
      "osm_id": 9309771460,
      "amenity": "fast_food",
      "cuisine": "mexican",
      "opening_hours": "Mo-Su 10:00-22:00",
      "website": "https://www.districttaco.com/",
      "phone": "+1-571-699-0660",
      "takeaway": "yes",
      "drive_through": "no",
      "addr_state": "VA",
      "addr_city": "Falls Church",
      "addr_postcode": "22041",
      "addr_street": "Leesburg Pike",
      "addr_housenumber": "5275",
      "value": 241.29450351056687
    },
    {
      "id": 218841,
      "geometry": "POINT (-77.570822 38.750951)",
      "poi_name": "Dunkin'",
      "osm_id": 9300054678,
      "amenity": "fast_food",
      "cuisine": "donut;coffee_shop",
      "opening_hours": "Mo-Sa 05:00-20:00; Su 06:00-20:00",
      "website": "https://locations.dunkindonuts.com/en/va/bristow/12713-braemar-village-plz/354651",
      "phone": "+1 703-335-2908",
      "takeaway": "yes",
      "drive_through": "no",
      "addr_state": "VA",
      "addr_city": "Bristow",
      "addr_postcode": "20136",
      "addr_street": "Braemar Village Plaza",
      "addr_housenumber": "12713",
      "value": 241.29450351056687
    },
    {
      "id": 218962,
      "geometry": "POINT (-77.117727 38.846893)",
      "poi_name": "Five Guys",
      "osm_id": 9311198925,
      "amenity": "fast_food",
      "cuisine": "burger",
      "wheelchair": "yes",
      "opening_hours": "Mo-Su 11:00-22:00",
      "website": "https://restaurants.fiveguys.com/3541-south-jefferson-street",
      "phone": "+1-571-481-4294",
      "takeaway": "yes",
      "drive_through": "no",
      "official_name": "Five Guys Burgers and Fries",
      "delivery": "yes",
      "addr_state": "VA",
      "addr_city": "Falls Church",
      "addr_postcode": "22041",
      "addr_street": "South Jefferson Street",
      "addr_housenumber": "3541",
      "value": 241.29450351056687
    },
    {
      "id": 221878,
      "geometry": "POINT (-77.092199 38.860705)",
      "poi_name": "Papa John's",
      "osm_id": 10994392923,
      "amenity": "fast_food",
      "cuisine": "pizza",
      "opening_hours": "Mo-Th 10:00-23:00; Fr-Sa 10:00-24:00; Su 10:00-23:00",
      "website": "https://locations.papajohns.com/united-states/va/22204/arlington/1014-s-glebe-rd",
      "phone": "+1 703-271-8000",
      "takeaway": "yes",
      "addr_state": "VA",
      "addr_city": "Arlington",
      "addr_postcode": "22204",
      "addr_street": "South Glebe Road",
      "addr_housenumber": "1014",
      "value": 241.29450351056687
    },
    {
      "id": 221292,
      "geometry": "POINT (-77.60484 38.76748)",
      "poi_name": "Papa John's",
      "osm_id": 10970198086,
      "amenity": "fast_food",
      "cuisine": "pizza",
      "opening_hours": "Mo-Th 10:00-23:00; Fr-Sa 10:00-24:00; Su 10:00-23:00",
      "website": "https://locations.papajohns.com/united-states/va/20155/gainesville/13958-estate-manor-drive",
      "phone": "+1 703-754-6600",
      "takeaway": "yes",
      "addr_state": "VA",
      "addr_city": "Gainesville",
      "addr_postcode": "20155",
      "addr_street": "Estate Manor Drive",
      "addr_housenumber": "13958",
      "value": 241.29450351056687
    },
    {
      "id": 226853,
      "geometry": "POINT (-77.801234 38.729868)",
      "poi_name": "Little Caesars",
      "osm_id": 11170829793,
      "amenity": "fast_food",
      "cuisine": "pizza",
      "opening_hours": "Mo-Th 11:00-19:45; Fr 11:00-20:45; Sa-Su 11:00-19:45",
      "website": "https://littlecaesars.com/en-us/store/10754/",
      "phone": "+1 540-216-7937",
      "takeaway": "yes",
      "drive_through": "no",
      "addr_state": "VA",
      "addr_city": "Warrenton",
      "addr_postcode": "20186",
      "addr_street": "West Lee Highway",
      "addr_housenumber": "251",
      "value": 241.29450351056687
    },
    {
      "id": 227202,
      "geometry": "POINT (-77.766156 38.579446)",
      "poi_name": "Subway",
      "osm_id": 11183002687,
      "amenity": "fast_food",
      "cuisine": "sandwich",
      "opening_hours": "Mo-Su 08:00-21:00",
      "website": "https://restaurants.subway.com/united-states/va/bealeton/11077-marsh-road",
      "phone": "+1 540-439-9054",
      "takeaway": "yes",
      "addr_state": "VA",
      "addr_city": "Bealeton",
      "addr_postcode": "22712",
      "addr_street": "Marsh Road",
      "addr_housenumber": "11077",
      "value": 241.29450351056687
    },
    {
      "id": 230124,
      "geometry": "POINT (-77.550733 38.734009)",
      "poi_name": "Duck Donuts",
      "osm_id": 4414928875,
      "amenity": "fast_food",
      "cuisine": "donut",
      "takeaway": "yes",
      "addr_state": "VA",
      "addr_city": "Bristow",
      "addr_postcode": "20136",
      "addr_street": "Bristow Center Drive",
      "addr_housenumber": "10286",
      "value": 241.29450351056687
    },
    {
      "id": 228121,
      "geometry": "POINT (-77.441664 38.660369)",
      "poi_name": "Subway",
      "osm_id": 4331375987,
      "amenity": "fast_food",
      "cuisine": "sandwich",
      "opening_hours": "Mo 08:00-21:00; We-Su 08:00-21:00",
      "website": "https://restaurants.subway.com/united-states/va/manassas/13472-dumfries-rd",
      "phone": "+1 703-791-2571",
      "takeaway": "yes",
      "addr_state": "VA",
      "addr_city": "Manassas",
      "addr_postcode": "20112",
      "addr_street": "Dumfries Road",
      "addr_housenumber": "13472",
      "value": 241.29450351056687
    },
    {
      "id": 228123,
      "geometry": "POINT (-77.441508 38.660571)",
      "poi_name": "Burger Boys",
      "osm_id": 4331376290,
      "amenity": "fast_food",
      "cuisine": "burger",
      "addr_state": "VA",
      "addr_city": "Manassas",
      "addr_postcode": "20112",
      "addr_street": "Dumfries Road",
      "addr_housenumber": "13460",
      "value": 241.29450351056687
    },
    {
      "id": 228124,
      "geometry": "POINT (-77.441412 38.660822)",
      "poi_name": "Domino's",
      "osm_id": 4331376292,
      "amenity": "fast_food",
      "cuisine": "pizza",
      "opening_hours": "Mo-Fr 10:00-00:00; Sa-Su 00:00-01:00,10:00-00:00",
      "website": "https://pizza.dominos.com/virginia/manassas/13448-dumfries-rd/",
      "phone": "+1 703-791-0220",
      "takeaway": "yes",
      "addr_state": "VA",
      "addr_city": "Manassas",
      "addr_postcode": "20112",
      "addr_street": "Dumfries Road",
      "addr_housenumber": "13448",
      "value": 241.29450351056687
    },
    {
      "id": 230516,
      "geometry": "POINT (-77.450973 38.747386)",
      "poi_name": "Firehouse Subs",
      "osm_id": 4428297875,
      "amenity": "fast_food",
      "cuisine": "sandwich",
      "takeaway": "yes",
      "addr_state": "VA",
      "addr_city": "Manassas",
      "addr_postcode": "20110",
      "addr_street": "Liberia Avenue",
      "addr_housenumber": "9660",
      "value": 241.29450351056687
    },
    {
      "id": 230519,
      "geometry": "POINT (-77.451014 38.74711)",
      "poi_name": "Qdoba",
      "osm_id": 4428328325,
      "amenity": "fast_food",
      "cuisine": "mexican",
      "website": "https://locations.qdoba.com/us/va/manassas/9674-liberia-ave.html",
      "takeaway": "yes",
      "official_name": "Qdoba Mexican Grill",
      "addr_state": "VA",
      "addr_city": "Manassas",
      "addr_postcode": "20110",
      "addr_street": "Liberia Avenue",
      "addr_housenumber": "9674",
      "value": 241.29450351056687
    },
    {
      "id": 230680,
      "geometry": "POINT (-77.450408 38.751008)",
      "poi_name": "Subway",
      "osm_id": 4435061868,
      "amenity": "fast_food",
      "cuisine": "sandwich",
      "opening_hours": "Mo-Sa 09:30-21:30; Su 10:00-21:00",
      "website": "https://restaurants.subway.com/united-states/va/manassas/9522-liberia-ave",
      "phone": "+1 703-369-9733",
      "takeaway": "yes",
      "addr_state": "VA",
      "addr_city": "Manassas",
      "addr_postcode": "20110",
      "addr_street": "Liberia Avenue",
      "addr_housenumber": "9522",
      "value": 241.29450351056687
    },
    {
      "id": 233082,
      "geometry": "POINT (-78.488142 38.064868)",
      "poi_name": "Burger King",
      "osm_id": 4555908188,
      "amenity": "fast_food",
      "cuisine": "burger",
      "takeaway": "yes",
      "addr_state": "VA",
      "addr_city": "Charlottesville",
      "addr_postcode": "22901",
      "addr_street": "Seminole Trail",
      "addr_housenumber": "1025",
      "value": 241.29450351056687
    },
    {
      "id": 230681,
      "geometry": "POINT (-77.450388 38.751199)",
      "poi_name": "Panera Bread",
      "osm_id": 4435061873,
      "amenity": "fast_food",
      "cuisine": "sandwich;bakery",
      "takeaway": "yes",
      "addr_state": "VA",
      "addr_city": "Manassas",
      "addr_postcode": "20110",
      "addr_street": "Liberia Avenue",
      "addr_housenumber": "9508",
      "value": 241.29450351056687
    },
    {
      "id": 235810,
      "geometry": "POINT (-77.434105 38.836796)",
      "poi_name": "Five Guys",
      "osm_id": 5769023987,
      "amenity": "fast_food",
      "cuisine": "burger",
      "opening_hours": "Su-Sa 11:00-22:00",
      "takeaway": "yes",
      "drive_through": "no",
      "official_name": "Five Guys Burgers and Fries",
      "addr_state": "VA",
      "addr_city": "Centreville",
      "addr_postcode": "20121",
      "addr_street": "Centreville Crest Lane",
      "addr_housenumber": "6017",
      "value": 241.29450351056687
    },
    {
      "id": 235338,
      "geometry": "POINT (-77.184138 38.81276)",
      "poi_name": "Subway",
      "osm_id": 5752178905,
      "amenity": "fast_food",
      "cuisine": "sandwich",
      "opening_hours": "Mo-Fr 10:00-21:00; Sa-Su 11:00-21:00",
      "website": "https://restaurants.subway.com/united-states/va/annandale/6920-l-braddock-road",
      "phone": "+1 703-354-0202",
      "takeaway": "yes",
      "drive_through": "no",
      "addr_state": "VA",
      "addr_city": "Annandale",
      "addr_postcode": "22003",
      "addr_street": "Braddock Road",
      "addr_housenumber": "6920",
      "value": 241.29450351056687
    },
    {
      "id": 235340,
      "geometry": "POINT (-77.184141 38.812995)",
      "poi_name": "Kabobistan",
      "osm_id": 5752189963,
      "amenity": "fast_food",
      "cuisine": "kebab",
      "opening_hours": "Mo-Sa 11:00-23:00; Su 11:00-21:00",
      "website": "https://www.mykabobistan.com/",
      "phone": "+1 703-866-8615",
      "drive_through": "no",
      "addr_state": "VA",
      "addr_city": "Annandale",
      "addr_postcode": "22003",
      "addr_street": "Braddock Road",
      "addr_housenumber": "6920",
      "value": 241.29450351056687
    },
    {
      "id": 235341,
      "geometry": "POINT (-77.184143 38.813106)",
      "poi_name": "Papa John's",
      "osm_id": 5752189965,
      "amenity": "fast_food",
      "cuisine": "pizza",
      "opening_hours": "Mo-Th 10:00-23:00; Fr-Sa 10:00-24:00; Su 10:00-23:00",
      "website": "https://locations.papajohns.com/united-states/va/22003-6036/annandale/6920c-braddock-rd",
      "phone": "+1 703-813-6262",
      "takeaway": "yes",
      "drive_through": "no",
      "delivery": "yes",
      "addr_state": "VA",
      "addr_city": "Annandale",
      "addr_postcode": "22003-6036",
      "addr_street": "Braddock Road",
      "addr_housenumber": "6920",
      "value": 241.29450351056687
    },
    {
      "id": 235811,
      "geometry": "POINT (-77.437951 38.837376)",
      "poi_name": "Wingstop",
      "osm_id": 5769032656,
      "amenity": "fast_food",
      "cuisine": "wings",
      "opening_hours": "Su-Th 11:00-23:00; Fr-Sa 11:00-24:00",
      "phone": "+1-703-866-9464",
      "takeaway": "yes",
      "drive_through": "no",
      "addr_state": "VA",
      "addr_city": "Centreville",
      "addr_postcode": "20121",
      "addr_street": "Centreville Square",
      "addr_housenumber": "14215",
      "value": 241.29450351056687
    },
    {
      "id": 244139,
      "geometry": "POINT (-77.310784 38.834323)",
      "poi_name": "Subway",
      "osm_id": 7703206735,
      "amenity": "fast_food",
      "cuisine": "sandwich",
      "opening_hours": "Mo-Th 11:00-15:00; Fr 00:30-01:00",
      "website": "https://restaurants.subway.com/united-states/va/fairfax/4400-university-drive",
      "phone": "+1 703-993-6196",
      "takeaway": "yes",
      "addr_state": "VA",
      "addr_city": "Fairfax",
      "addr_postcode": "22030",
      "value": 241.29450351056687
    },
    {
      "id": 240501,
      "geometry": "POINT (-77.610065 38.809016)",
      "poi_name": "Dunkin'",
      "osm_id": 5978583478,
      "amenity": "fast_food",
      "cuisine": "donut;coffee_shop",
      "opening_hours": "Mo-Sa 05:00-21:00; Su 06:00-20:00",
      "website": "https://locations.dunkindonuts.com/en/va/gainesville/13801-heathcote-boulevard/355673",
      "phone": "+1 703-468-4912",
      "takeaway": "yes",
      "drive_through": "yes",
      "addr_state": "VA",
      "addr_city": "Gainesville",
      "addr_postcode": "20155",
      "addr_street": "Heathcote Boulevard",
      "addr_housenumber": "13801",
      "value": 241.29450351056687
    },
    {
      "id": 243795,
      "geometry": "POINT (-78.342374 37.905124)",
      "poi_name": "Subway",
      "osm_id": 7678816630,
      "amenity": "fast_food",
      "cuisine": "sandwich",
      "takeaway": "yes",
      "drive_through": "no",
      "addr_state": "VA",
      "addr_city": "Palmyra",
      "addr_postcode": "22963",
      "addr_street": "Turkeysag Trail",
      "addr_housenumber": "264",
      "value": 241.29450351056687
    },
    {
      "id": 243798,
      "geometry": "POINT (-78.207805 37.98268)",
      "poi_name": "Dunkin'",
      "osm_id": 7678816646,
      "amenity": "fast_food",
      "cuisine": "donut;coffee_shop",
      "takeaway": "yes",
      "addr_state": "VA",
      "addr_city": "Gordonsville",
      "addr_postcode": "22942",
      "addr_street": "Freedom Drive",
      "addr_housenumber": "79",
      "value": 241.29450351056687
    },
    {
      "id": 243800,
      "geometry": "POINT (-78.313291 37.898005)",
      "poi_name": "Domino's",
      "osm_id": 7678816650,
      "amenity": "fast_food",
      "cuisine": "pizza",
      "phone": "(434) 589-5525",
      "takeaway": "yes",
      "drive_through": "no",
      "addr_state": "VA",
      "addr_city": "Palmyra",
      "addr_postcode": "22963",
      "addr_street": "Joshua Lane",
      "addr_housenumber": "66",
      "value": 241.29450351056687
    },
    {
      "id": 240795,
      "geometry": "POINT (-77.800257 38.73078)",
      "poi_name": "Tropical Smoothie Cafe",
      "osm_id": 5991452337,
      "amenity": "fast_food",
      "cuisine": "juice",
      "opening_hours": "Mo-Fr 07:00-21:00; Sa 08:00-21:00; Su 09:00-20:00",
      "website": "https://locations.tropicalsmoothiecafe.com/va/warrenton/251-west-lee-highway",
      "internet_access": "wlan",
      "phone": "+1 540-428-1818",
      "takeaway": "yes",
      "drive_through": "no",
      "delivery": "no",
      "addr_state": "VA",
      "addr_city": "Warrenton",
      "addr_postcode": "20186",
      "value": 241.29450351056687
    },
    {
      "id": 244019,
      "geometry": "POINT (-77.448717 38.786721)",
      "poi_name": "Dunkin'",
      "osm_id": 7693446879,
      "amenity": "fast_food",
      "cuisine": "donut;coffee_shop",
      "opening_hours": "Mo-Sa 04:00-21:00; Su 05:00-21:00",
      "website": "https://locations.dunkindonuts.com/en/va/manassas/7797-centreville-rd/354632",
      "phone": "+1 703-331-0160",
      "takeaway": "yes",
      "drive_through": "no",
      "addr_state": "VA",
      "addr_city": "Manassas",
      "addr_postcode": "20111",
      "addr_street": "Centreville Road",
      "addr_housenumber": "7797",
      "value": 241.29450351056687
    },
    {
      "id": 244751,
      "geometry": "POINT (-77.602314 38.803836)",
      "poi_name": "Subway",
      "osm_id": 7738773592,
      "amenity": "fast_food",
      "cuisine": "sandwich",
      "opening_hours": "Mo-Sa 09:00-21:00; Su 10:00-20:00",
      "website": "https://restaurants.subway.com/united-states/va/gainesville/7941-heritage-village-plaza",
      "phone": "+1 571-261-9024",
      "takeaway": "yes",
      "drive_through": "no",
      "addr_state": "VA",
      "addr_city": "Gainesville",
      "addr_postcode": "20155",
      "addr_street": "Heritage Village Plaza",
      "addr_housenumber": "7941",
      "value": 241.29450351056687
    }
  ],
  "answer_type": "loc",
  "question_entities": {
    "[2]": {
      "distance": 160000,
      "text": "160 kilometers"
    },
    "[3]": {
      "main_category": "tourism",
      "sub_category": "attraction",
      "display_name": "USS Serpens Monument, VA",
      "geo_wkt": "POINT (-77.06869 38.874024)",
      "poi": {
        "id": 2568,
        "geometry": "POINT (-77.06869 38.874024)",
        "poi_name": "USS Serpens Monument",
        "osm_id": 515463132,
        "historic": "memorial",
        "tourism": "attraction",
        "addr_state": "VA"
      }
    },
    "[4]": {
      "main_category": "tourism",
      "sub_category": "museum",
      "display_name": "Museum of Culpeper History, Culpeper, VA",
      "geo_wkt": "POINT (-77.993306 38.472325)",
      "poi": {
        "id": 25704,
        "geometry": "POINT (-77.993306 38.472325)",
        "poi_name": "Museum of Culpeper History",
        "osm_id": 4578422415,
        "tourism": "museum",
        "opening_hours": "Mo-Su 10:00-16:00",
        "website": "https://culpepermuseum.com",
        "addr_state": "VA",
        "addr_city": "Culpeper",
        "addr_postcode": "22701",
        "addr_street": "South Commerce Street",
        "addr_housenumber": "113"
      }
    },
    "[1]": {
      "main_category": "amenity",
      "sub_category": "fast_food"
    }
  },
  "id": 1255,
  "type": "range:towards+loc"
}