{
  "question": "Within a radius of 190 kilometers, what fast food restaurant is available towards the southeast of Kettlewell & Edwards, Saratoga Springs, NY?",
  "sql": "\nWITH origin AS  (SELECT ST_GeomFromText('POINT (-73.785108 43.080601)',4326)::geography AS geometry)\nSELECT * FROM pois, origin\nWHERE ST_DWithin(pois.geometry, ST_GeomFromText('POINT (-73.785108 43.080601)',4326)::geography, 190000)\nAND amenity = 'fast_food'\nAND degrees(ST_Azimuth(origin.geometry, pois.geometry)) BETWEEN 112.5 AND 157.5;\n",
  "answers": [
    {
      "id": 41018,
      "geometry": "POINT (-73.785108 43.080601)",
      "poi_name": "Subway",
      "osm_id": 2990881462,
      "amenity": "fast_food",
      "cuisine": "sandwich",
      "opening_hours": "Mo-Fr 07:00-22:00; Sa 08:00-22:00; Su 09:00-21:00",
      "phone": "860-666-3787",
      "takeaway": "yes",
      "addr_state": "CT",
      "addr_city": "Newington",
      "addr_postcode": "06111",
      "addr_street": "Main Street",
      "addr_housenumber": "975"
    },
    {
      "id": 27544,
      "geometry": "POINT (-73.785108 43.080601)",
      "poi_name": "Wendy's",
      "osm_id": 431076702,
      "amenity": "fast_food",
      "cuisine": "burger",
      "internet_access": "wlan",
      "takeaway": "yes",
      "drive_through": "yes",
      "toilets": "yes"
    },
    {
      "id": 28790,
      "geometry": "POINT (-73.785108 43.080601)",
      "poi_name": "Dunkin'",
      "osm_id": 8258964401,
      "amenity": "fast_food",
      "cuisine": "donut;coffee_shop",
      "operator": "Dunkin' Donuts LLC",
      "phone": "+1 860 285 8866",
      "takeaway": "yes",
      "drive_through": "yes",
      "addr_state": "CT",
      "addr_city": "Windsor",
      "addr_postcode": "06095",
      "addr_street": "Kennedy Road",
      "addr_housenumber": "1010"
    },
    {
      "id": 37635,
      "geometry": "POINT (-73.785108 43.080601)",
      "poi_name": "Five Guys",
      "osm_id": 2823707483,
      "amenity": "fast_food",
      "cuisine": "burger",
      "wheelchair": "limited",
      "phone": "+1 (413) 499-5900",
      "takeaway": "yes",
      "official_name": "Five Guys Burgers and Fries",
      "addr_postcode": "01201",
      "addr_street": "Merrill Road",
      "addr_housenumber": "660"
    },
    {
      "id": 40420,
      "geometry": "POINT (-73.785108 43.080601)",
      "poi_name": "Panera Bread",
      "osm_id": 2969550240,
      "amenity": "fast_food",
      "cuisine": "sandwich;bakery",
      "website": "http://www.panerabread.com",
      "phone": "+1-860-6445390",
      "takeaway": "yes",
      "addr_state": "CT",
      "addr_city": "Manchester",
      "addr_postcode": "06042",
      "addr_street": "Deming Street",
      "addr_housenumber": "179"
    },
    {
      "id": 40990,
      "geometry": "POINT (-73.785108 43.080601)",
      "poi_name": "Dunkin'",
      "osm_id": 2989742575,
      "amenity": "fast_food",
      "cuisine": "donut;coffee_shop",
      "opening_hours": "Mo-Su 17:00-22:00",
      "internet_access": "wlan",
      "phone": "+1 860 665 9655",
      "takeaway": "yes",
      "addr_state": "CT",
      "addr_city": "Newington",
      "addr_postcode": "06111",
      "addr_street": "Main Street",
      "addr_housenumber": "1095"
    },
    {
      "id": 40997,
      "geometry": "POINT (-73.785108 43.080601)",
      "poi_name": "Goldburgers",
      "osm_id": 2989859484,
      "amenity": "fast_food",
      "cuisine": "burger",
      "opening_hours": "Mo,Tu 11:00-20:00; We,Th 11:00-21:00; Fr,Sa 11:00-22:00; Su 12:00-20:00",
      "website": "https://www.goldburgers.com/",
      "phone": "+1 860 665 0478",
      "addr_state": "CT",
      "addr_city": "Newington",
      "addr_postcode": "06111",
      "addr_street": "Main Street",
      "addr_housenumber": "1096"
    },
    {
      "id": 40998,
      "geometry": "POINT (-73.785108 43.080601)",
      "poi_name": "Wings Over Newington",
      "osm_id": 2989859491,
      "amenity": "fast_food",
      "opening_hours": "Mo-We,Su 11:00-23:00; Th-Sa 11:00-24:00",
      "website": "https://wingsover.com/",
      "phone": "+1 860 666 9464",
      "takeaway": "yes",
      "drive_through": "no",
      "outdoor_seating": "no",
      "addr_state": "CT",
      "addr_city": "New Britain",
      "addr_postcode": "06053",
      "addr_street": "East Street",
      "addr_housenumber": "1480"
    },
    {
      "id": 36242,
      "geometry": "POINT (-73.785108 43.080601)",
      "poi_name": "BurgerFi",
      "osm_id": 2757128527,
      "amenity": "fast_food",
      "cuisine": "burger",
      "takeaway": "yes"
    },
    {
      "id": 44084,
      "geometry": "POINT (-73.785108 43.080601)",
      "poi_name": "Subway",
      "osm_id": 3143981237,
      "amenity": "fast_food",
      "cuisine": "sandwich",
      "takeaway": "yes"
    },
    {
      "id": 43175,
      "geometry": "POINT (-73.785108 43.080601)",
      "poi_name": "McDonald's",
      "osm_id": 3098036591,
      "amenity": "fast_food",
      "cuisine": "burger",
      "website": "https://www.mcdonalds.com/us/en-us/location/ma/ware/117-w-st/2116.html",
      "takeaway": "yes"
    },
    {
      "id": 47189,
      "geometry": "POINT (-73.785108 43.080601)",
      "poi_name": "Moe's Southwest Grill",
      "osm_id": 3312179208,
      "amenity": "fast_food",
      "cuisine": "mexican",
      "website": "https://www.moes.com/find-a-moes/connecticut/glastonbury",
      "phone": "+1 860 430 9222",
      "takeaway": "yes",
      "drive_through": "no",
      "addr_state": "CT",
      "addr_city": "Glastonbury",
      "addr_postcode": "06033",
      "addr_street": "Main Street",
      "addr_housenumber": "2450"
    },
    {
      "id": 47389,
      "geometry": "POINT (-73.785108 43.080601)",
      "poi_name": "Dunkin' Donuts",
      "osm_id": 3324503435,
      "amenity": "fast_food",
      "cuisine": "donut;coffee_shop",
      "takeaway": "yes",
      "addr_state": "MA",
      "addr_city": "Belchertown",
      "addr_postcode": "01007",
      "addr_street": "State Street",
      "addr_housenumber": "37"
    },
    {
      "id": 55621,
      "geometry": "POINT (-73.785108 43.080601)",
      "poi_name": "Taco Bell",
      "osm_id": 10200258142,
      "amenity": "fast_food",
      "cuisine": "tex-mex",
      "building": "yes",
      "opening_hours": "10:30-22:00",
      "website": "https://locations.tacobell.com/ma/greenfield/242-mohawk-trail.html",
      "phone": "+1-413-774-7869",
      "takeaway": "yes",
      "drive_through": "yes",
      "delivery": "yes",
      "addr_state": "MA",
      "addr_city": "Greenfield",
      "addr_postcode": "01301",
      "addr_street": "Mohawk Trail",
      "addr_housenumber": "242"
    },
    {
      "id": 47422,
      "geometry": "POINT (-73.785108 43.080601)",
      "poi_name": "Bruegger's Bagels",
      "osm_id": 3326092941,
      "amenity": "fast_food",
      "cuisine": "bagel;sandwich",
      "opening_hours": "Mo-Su 06:30-13:00",
      "takeaway": "yes",
      "outdoor_seating": "yes",
      "addr_state": "MA",
      "addr_city": "Amherst",
      "addr_postcode": "01002",
      "addr_street": "North Pleasant Street",
      "addr_housenumber": "170"
    },
    {
      "id": 47595,
      "geometry": "POINT (-73.785108 43.080601)",
      "poi_name": "Dunkin' Donuts",
      "osm_id": 3335287516,
      "amenity": "fast_food",
      "cuisine": "donut;coffee_shop",
      "takeaway": "yes",
      "drive_through": "yes"
    },
    {
      "id": 51003,
      "geometry": "POINT (-73.785108 43.080601)",
      "poi_name": "Five Guys",
      "osm_id": 499723631,
      "amenity": "fast_food",
      "cuisine": "burger",
      "takeaway": "yes",
      "official_name": "Five Guys Burgers and Fries"
    },
    {
      "id": 51079,
      "geometry": "POINT (-73.785108 43.080601)",
      "poi_name": "Five Guys",
      "osm_id": 506852156,
      "amenity": "fast_food",
      "cuisine": "burger",
      "takeaway": "yes",
      "official_name": "Five Guys Burgers and Fries"
    },
    {
      "id": 53221,
      "geometry": "POINT (-73.785108 43.080601)",
      "poi_name": "B Good restaurant",
      "osm_id": 10069349433,
      "amenity": "fast_food",
      "opening_hours": "Mo-Sa 11:00-20:00; Su 11:30-18:00",
      "website": "https://bgood.com/",
      "phone": "+1-860-633-1630",
      "addr_state": "CT",
      "addr_city": "Glastonbury",
      "addr_postcode": "06033",
      "addr_street": "Glastonbury Boulevard",
      "addr_housenumber": "140"
    },
    {
      "id": 55306,
      "geometry": "POINT (-73.785108 43.080601)",
      "poi_name": "KFC",
      "osm_id": 10180966374,
      "amenity": "fast_food",
      "cuisine": "chicken",
      "website": "https://locations.kfc.com/ct/vernon-rockville/328-hartford-turnpike",
      "takeaway": "yes"
    },
    {
      "id": 51504,
      "geometry": "POINT (-73.785108 43.080601)",
      "poi_name": "Subway",
      "osm_id": 538010090,
      "amenity": "fast_food",
      "cuisine": "sandwich",
      "wheelchair": "yes",
      "takeaway": "yes"
    },
    {
      "id": 51807,
      "geometry": "POINT (-73.785108 43.080601)",
      "poi_name": "Wendy's",
      "osm_id": 561089816,
      "amenity": "fast_food",
      "cuisine": "burger",
      "opening_hours": "Mo-Su 07:00-22:00",
      "phone": "+1-508-793-1601",
      "takeaway": "yes",
      "drive_through": "yes",
      "addr_city": "Worcester",
      "addr_postcode": "01607",
      "addr_street": "Southwest Cutoff",
      "addr_housenumber": "560"
    },
    {
      "id": 55622,
      "geometry": "POINT (-73.785108 43.080601)",
      "poi_name": "KFC",
      "osm_id": 10200258143,
      "amenity": "fast_food",
      "cuisine": "chicken",
      "building": "yes",
      "opening_hours": "10:30-22:00",
      "website": "https://locations.kfc.com/ma/greenfield/242-mohawk-trail",
      "phone": "+1-413-774-7869",
      "takeaway": "yes",
      "drive_through": "yes",
      "delivery": "yes",
      "addr_state": "MA",
      "addr_city": "Greenfield",
      "addr_postcode": "01301",
      "addr_street": "Mohawk Trail",
      "addr_housenumber": "242"
    },
    {
      "id": 56860,
      "geometry": "POINT (-73.785108 43.080601)",
      "poi_name": "Taco Bell",
      "osm_id": 10250116399,
      "amenity": "fast_food",
      "cuisine": "tex-mex",
      "website": "https://locations.tacobell.com/ct/east-hartford/268-silver-lane-road.html",
      "takeaway": "yes"
    },
    {
      "id": 56934,
      "geometry": "POINT (-73.785108 43.080601)",
      "poi_name": "Panara Bread",
      "osm_id": 10253634148,
      "amenity": "fast_food",
      "cuisine": "sandwich"
    },
    {
      "id": 55895,
      "geometry": "POINT (-73.785108 43.080601)",
      "poi_name": "Subway",
      "osm_id": 10213229447,
      "amenity": "fast_food",
      "cuisine": "sandwich",
      "takeaway": "yes"
    },
    {
      "id": 56861,
      "geometry": "POINT (-73.785108 43.080601)",
      "poi_name": "Burger King",
      "osm_id": 10250116403,
      "amenity": "fast_food",
      "cuisine": "burger",
      "takeaway": "yes"
    },
    {
      "id": 57324,
      "geometry": "POINT (-73.785108 43.080601)",
      "poi_name": "Five Guys",
      "osm_id": 5333940108,
      "amenity": "fast_food",
      "cuisine": "burger",
      "takeaway": "yes",
      "official_name": "Five Guys Burgers and Fries"
    },
    {
      "id": 57100,
      "geometry": "POINT (-73.785108 43.080601)",
      "poi_name": "Smashburger",
      "osm_id": 5324858551,
      "amenity": "fast_food",
      "cuisine": "burger",
      "takeaway": "yes"
    },
    {
      "id": 57326,
      "geometry": "POINT (-73.785108 43.080601)",
      "poi_name": "Boston Market",
      "osm_id": 5333940130,
      "amenity": "fast_food",
      "cuisine": "american;chicken",
      "takeaway": "yes"
    },
    {
      "id": 57474,
      "geometry": "POINT (-73.785108 43.080601)",
      "poi_name": "Subway",
      "osm_id": 5337895479,
      "amenity": "fast_food",
      "cuisine": "sandwich",
      "takeaway": "yes"
    },
    {
      "id": 59994,
      "geometry": "POINT (-73.785108 43.080601)",
      "poi_name": "Smashburger",
      "osm_id": 5451909694,
      "amenity": "fast_food",
      "cuisine": "burger",
      "opening_hours": "Mo-Th, Su 10:30-21:00; Fr, Sa 10:30-22:00",
      "phone": "(860) 698-6229",
      "takeaway": "yes",
      "addr_state": "CT",
      "addr_city": "Enfield",
      "addr_postcode": "06082",
      "addr_street": "Hazard Avenue",
      "addr_housenumber": "54"
    },
    {
      "id": 59480,
      "geometry": "POINT (-73.785108 43.080601)",
      "poi_name": "Subway",
      "osm_id": 5427561533,
      "amenity": "fast_food",
      "cuisine": "sandwich",
      "takeaway": "yes"
    },
    {
      "id": 57600,
      "geometry": "POINT (-73.785108 43.080601)",
      "poi_name": "Dunkin'",
      "osm_id": 5342129078,
      "amenity": "fast_food",
      "cuisine": "donut;coffee_shop",
      "takeaway": "yes"
    },
    {
      "id": 58235,
      "geometry": "POINT (-73.785108 43.080601)",
      "poi_name": "Dunkin'",
      "osm_id": 5368551039,
      "amenity": "fast_food",
      "cuisine": "donut;coffee_shop",
      "takeaway": "yes",
      "drive_through": "no"
    },
    {
      "id": 58430,
      "geometry": "POINT (-73.785108 43.080601)",
      "poi_name": "Dunkin'",
      "osm_id": 5375327221,
      "amenity": "fast_food",
      "cuisine": "donut;coffee_shop",
      "takeaway": "yes"
    },
    {
      "id": 62501,
      "geometry": "POINT (-73.785108 43.080601)",
      "poi_name": "Burger King",
      "osm_id": 5571574547,
      "amenity": "fast_food",
      "cuisine": "burger",
      "takeaway": "yes",
      "drive_through": "yes",
      "addr_state": "MA",
      "addr_city": "Worcester",
      "addr_postcode": "01610",
      "addr_street": "Madison Street",
      "addr_housenumber": "163"
    },
    {
      "id": 60887,
      "geometry": "POINT (-73.785108 43.080601)",
      "poi_name": "Subway",
      "osm_id": 5486919381,
      "amenity": "fast_food",
      "cuisine": "sandwich",
      "takeaway": "yes"
    },
    {
      "id": 61199,
      "geometry": "POINT (-73.785108 43.080601)",
      "poi_name": "Moe's Southwest Grill",
      "osm_id": 5503202570,
      "amenity": "fast_food",
      "cuisine": "mexican",
      "opening_hours": "11:00-21:00",
      "website": "https://www.moes.com/find-a-moes/massachusetts/hadley/4434/",
      "phone": "+1 413 387 0266",
      "takeaway": "yes",
      "delivery": "yes",
      "addr_street": "Russell Street",
      "addr_housenumber": "379"
    },
    {
      "id": 62502,
      "geometry": "POINT (-73.785108 43.080601)",
      "poi_name": "Kelley Square Pizza",
      "osm_id": 5571574562,
      "amenity": "fast_food"
    },
    {
      "id": 62509,
      "geometry": "POINT (-73.785108 43.080601)",
      "poi_name": "Subway",
      "osm_id": 5572302361,
      "amenity": "fast_food",
      "cuisine": "sandwich",
      "takeaway": "yes"
    },
    {
      "id": 62510,
      "geometry": "POINT (-73.785108 43.080601)",
      "poi_name": "Dunkin'",
      "osm_id": 5572302365,
      "amenity": "fast_food",
      "cuisine": "donut;coffee_shop",
      "opening_hours": "Mo-Sa 05:00-22:00; Su 06:00-22:00",
      "takeaway": "yes",
      "drive_through": "no",
      "addr_state": "MA",
      "addr_city": "Worcester",
      "addr_postcode": "01610",
      "addr_street": "Southbridge Street",
      "addr_housenumber": "399"
    },
    {
      "id": 72014,
      "geometry": "POINT (-73.785108 43.080601)",
      "poi_name": "Jerry's",
      "osm_id": 11408750581,
      "amenity": "fast_food",
      "cuisine": "donut"
    },
    {
      "id": 62878,
      "geometry": "POINT (-73.785108 43.080601)",
      "poi_name": "Dunkin'",
      "osm_id": 5590849499,
      "amenity": "fast_food",
      "cuisine": "donut;coffee_shop",
      "opening_hours": "Mo-Su 05:00-20:00",
      "phone": "+15087530935",
      "takeaway": "yes",
      "addr_state": "MA",
      "addr_city": "Worcester",
      "addr_postcode": "01603",
      "addr_street": "South Ludlow Street",
      "addr_housenumber": "60"
    },
    {
      "id": 66677,
      "geometry": "POINT (-73.785108 43.080601)",
      "poi_name": "Pondside Pizza",
      "osm_id": 11205738192,
      "amenity": "fast_food",
      "cuisine": "pizza"
    },
    {
      "id": 68765,
      "geometry": "POINT (-73.785108 43.080601)",
      "poi_name": "Subway",
      "osm_id": 11283602047,
      "amenity": "fast_food",
      "cuisine": "sandwich",
      "takeaway": "yes"
    },
    {
      "id": 64051,
      "geometry": "POINT (-73.785108 43.080601)",
      "poi_name": "Subway",
      "osm_id": 5640022227,
      "amenity": "fast_food",
      "cuisine": "sandwich",
      "takeaway": "yes"
    },
    {
      "id": 70626,
      "geometry": "POINT (-73.785108 43.080601)",
      "poi_name": "Subway",
      "osm_id": 11368851894,
      "amenity": "fast_food",
      "cuisine": "sandwich",
      "takeaway": "yes",
      "addr_state": "CT",
      "addr_city": "Vernon",
      "addr_postcode": "06066",
      "addr_street": "Talcottville Road",
      "addr_housenumber": "520"
    },
    {
      "id": 75129,
      "geometry": "POINT (-73.785108 43.080601)",
      "poi_name": "Family Pizza",
      "osm_id": 9713498382,
      "amenity": "fast_food",
      "cuisine": "pizza"
    },
    {
      "id": 74521,
      "geometry": "POINT (-73.785108 43.080601)",
      "poi_name": "Taco Bell",
      "osm_id": 9684104093,
      "amenity": "fast_food",
      "cuisine": "tex-mex",
      "website": "https://locations.tacobell.com/ct/plainville/167-new-britain-avenue.html",
      "takeaway": "yes"
    },
    {
      "id": 75130,
      "geometry": "POINT (-73.785108 43.080601)",
      "poi_name": "Domino's",
      "osm_id": 9713498415,
      "amenity": "fast_food",
      "cuisine": "pizza",
      "takeaway": "yes"
    },
    {
      "id": 75320,
      "geometry": "POINT (-73.785108 43.080601)",
      "poi_name": "Subway",
      "osm_id": 9724126539,
      "amenity": "fast_food",
      "cuisine": "sandwich",
      "takeaway": "yes"
    },
    {
      "id": 75120,
      "geometry": "POINT (-73.785108 43.080601)",
      "poi_name": "Meriden Pizza Express",
      "osm_id": 9713106502,
      "amenity": "fast_food",
      "cuisine": "pizza"
    },
    {
      "id": 75121,
      "geometry": "POINT (-73.785108 43.080601)",
      "poi_name": "Honeyspot Pizza",
      "osm_id": 9713119642,
      "amenity": "fast_food",
      "cuisine": "pizza"
    },
    {
      "id": 75321,
      "geometry": "POINT (-73.785108 43.080601)",
      "poi_name": "Dunkin'",
      "osm_id": 9724126646,
      "amenity": "fast_food",
      "cuisine": "donut;coffee_shop",
      "takeaway": "yes"
    },
    {
      "id": 75326,
      "geometry": "POINT (-73.785108 43.080601)",
      "poi_name": "Broad Street Pizza",
      "osm_id": 9724407668,
      "amenity": "fast_food",
      "cuisine": "pizza"
    },
    {
      "id": 75327,
      "geometry": "POINT (-73.785108 43.080601)",
      "poi_name": "Krispy Krunchy Chicken",
      "osm_id": 9724407669,
      "amenity": "fast_food",
      "cuisine": "chicken",
      "takeaway": "yes"
    },
    {
      "id": 75329,
      "geometry": "POINT (-73.785108 43.080601)",
      "poi_name": "Mr. Taco",
      "osm_id": 9724407732,
      "amenity": "fast_food",
      "cuisine": "mexican"
    },
    {
      "id": 76560,
      "geometry": "POINT (-73.785108 43.080601)",
      "poi_name": "McDonald's",
      "osm_id": 9784123033,
      "amenity": "fast_food",
      "cuisine": "burger",
      "opening_hours": "Mo-Su 05:00-24:00",
      "website": "https://www.mcdonalds.com/us/en-us/location/ma/springfield/660-liberty-st/26537.html",
      "internet_access": "wlan",
      "phone": "+1 413-731-1529",
      "takeaway": "yes",
      "drive_through": "yes",
      "addr_state": "MA",
      "addr_city": "Springfield",
      "addr_postcode": "01103",
      "addr_street": "Liberty Stree",
      "addr_housenumber": "660"
    },
    {
      "id": 75387,
      "geometry": "POINT (-73.785108 43.080601)",
      "poi_name": "Rooster's Chicken & Waffles",
      "osm_id": 9727228309,
      "amenity": "fast_food",
      "cuisine": "chicken"
    },
    {
      "id": 75388,
      "geometry": "POINT (-73.785108 43.080601)",
      "poi_name": "Subway",
      "osm_id": 9727228310,
      "amenity": "fast_food",
      "cuisine": "sandwich",
      "takeaway": "yes"
    },
    {
      "id": 75677,
      "geometry": "POINT (-73.785108 43.080601)",
      "poi_name": "Chipotle",
      "osm_id": 9740451726,
      "amenity": "fast_food",
      "cuisine": "mexican",
      "takeaway": "yes",
      "official_name": "Chipotle Mexican Grill"
    },
    {
      "id": 75978,
      "geometry": "POINT (-73.785108 43.080601)",
      "poi_name": "Shake Shack",
      "osm_id": 9754117778,
      "amenity": "fast_food",
      "cuisine": "burger",
      "takeaway": "yes",
      "outdoor_seating": "yes"
    },
    {
      "id": 75979,
      "geometry": "POINT (-73.785108 43.080601)",
      "poi_name": "Hot Table Panini",
      "osm_id": 9754117779,
      "amenity": "fast_food",
      "cuisine": "sandwich",
      "outdoor_seating": "no"
    },
    {
      "id": 75981,
      "geometry": "POINT (-73.785108 43.080601)",
      "poi_name": "Jersey Mike's Subs",
      "osm_id": 9754416913,
      "amenity": "fast_food",
      "cuisine": "sandwich",
      "takeaway": "yes",
      "outdoor_seating": "no"
    },
    {
      "id": 75986,
      "geometry": "POINT (-73.785108 43.080601)",
      "poi_name": "Panera Bread",
      "osm_id": 9754462625,
      "amenity": "fast_food",
      "cuisine": "sandwich;bakery",
      "takeaway": "yes"
    },
    {
      "id": 75987,
      "geometry": "POINT (-73.785108 43.080601)",
      "poi_name": "Long John Silver's",
      "osm_id": 9754462744,
      "amenity": "fast_food",
      "cuisine": "seafood",
      "takeaway": "yes"
    },
    {
      "id": 76433,
      "geometry": "POINT (-73.785108 43.080601)",
      "poi_name": "Dunkin'",
      "osm_id": 9776352878,
      "amenity": "fast_food",
      "cuisine": "donut;coffee_shop",
      "takeaway": "yes",
      "addr_state": "MA",
      "addr_city": "Pittsfield",
      "addr_street": "South Street",
      "addr_housenumber": "1025"
    },
    {
      "id": 76553,
      "geometry": "POINT (-73.785108 43.080601)",
      "poi_name": "McDonald's",
      "osm_id": 9784123017,
      "amenity": "fast_food",
      "cuisine": "burger",
      "opening_hours": "Mo-Su 05:00-23:00",
      "website": "https://www.mcdonalds.com/us/en-us/location/ma/lee/245-housatonic-st/14735.html",
      "internet_access": "wlan",
      "phone": "+1 413-243-2253",
      "takeaway": "yes",
      "drive_through": "yes",
      "addr_state": "MA",
      "addr_city": "Lee",
      "addr_postcode": "01238",
      "addr_street": "Housatonic Street",
      "addr_housenumber": "245"
    },
    {
      "id": 75510,
      "geometry": "POINT (-73.785108 43.080601)",
      "poi_name": "Empire Pizza",
      "osm_id": 9733949225,
      "amenity": "fast_food",
      "cuisine": "pizza"
    },
    {
      "id": 75513,
      "geometry": "POINT (-73.785108 43.080601)",
      "poi_name": "DiBella's Subs",
      "osm_id": 9734045060,
      "amenity": "fast_food",
      "cuisine": "sandwich"
    },
    {
      "id": 75515,
      "geometry": "POINT (-73.785108 43.080601)",
      "poi_name": "Best Pizza",
      "osm_id": 9734045126,
      "amenity": "fast_food",
      "cuisine": "pizza"
    },
    {
      "id": 75516,
      "geometry": "POINT (-73.785108 43.080601)",
      "poi_name": "Checkers Pizza",
      "osm_id": 9734045167,
      "amenity": "fast_food",
      "cuisine": "pizza"
    },
    {
      "id": 75517,
      "geometry": "POINT (-73.785108 43.080601)",
      "poi_name": "Moe's Southwest Grill",
      "osm_id": 9734045265,
      "amenity": "fast_food",
      "cuisine": "mexican",
      "takeaway": "yes"
    },
    {
      "id": 75521,
      "geometry": "POINT (-73.785108 43.080601)",
      "poi_name": "Salsas 4 Taqueria",
      "osm_id": 9734662047,
      "amenity": "fast_food",
      "cuisine": "mexican"
    },
    {
      "id": 75523,
      "geometry": "POINT (-73.785108 43.080601)",
      "poi_name": "Turnpike Pizzeria",
      "osm_id": 9734662067,
      "amenity": "fast_food",
      "cuisine": "pizza"
    },
    {
      "id": 76554,
      "geometry": "POINT (-73.785108 43.080601)",
      "poi_name": "McDonald's",
      "osm_id": 9784123018,
      "amenity": "fast_food",
      "cuisine": "burger",
      "opening_hours": "Mo-Su 05:00-23:00",
      "website": "https://www.mcdonalds.com/us/en-us/location/ma/pittsfield/445-w-housatonic-st/1824.html",
      "internet_access": "wlan",
      "phone": "+1 413-442-4629",
      "takeaway": "yes",
      "drive_through": "yes",
      "addr_state": "MA",
      "addr_city": "Pittsfield",
      "addr_street": "West Housatonic Street",
      "addr_housenumber": "445"
    },
    {
      "id": 76555,
      "geometry": "POINT (-73.785108 43.080601)",
      "poi_name": "McDonald's",
      "osm_id": 9784123023,
      "amenity": "fast_food",
      "cuisine": "burger",
      "opening_hours": "24/7",
      "website": "https://www.mcdonalds.com/us/en-us/location/ma/holyoke/285-maple-st/17735.html",
      "internet_access": "wlan",
      "phone": "+1 413-534-0228",
      "takeaway": "yes",
      "drive_through": "yes",
      "addr_state": "MA",
      "addr_city": "Holyoke",
      "addr_postcode": "01040",
      "addr_street": "Maple Street",
      "addr_housenumber": "285"
    },
    {
      "id": 76561,
      "geometry": "POINT (-73.785108 43.080601)",
      "poi_name": "McDonald's",
      "osm_id": 9784123038,
      "amenity": "fast_food",
      "cuisine": "burger",
      "opening_hours": "Mo-Su 06:00-23:00",
      "website": "https://www.mcdonalds.com/us/en-us/location/ma/springfield/771-page-blvd/4847.html",
      "internet_access": "wlan",
      "phone": "+1 413-788-1444",
      "takeaway": "yes",
      "drive_through": "yes",
      "addr_state": "MA",
      "addr_city": "Springield",
      "addr_street": "Page Boulevard",
      "addr_housenumber": "711"
    },
    {
      "id": 76556,
      "geometry": "POINT (-73.785108 43.080601)",
      "poi_name": "McDonald's",
      "osm_id": 9784123024,
      "amenity": "fast_food",
      "cuisine": "burger",
      "opening_hours": "Mo-Su 08:30-21:30",
      "internet_access": "yes",
      "phone": "+1 413-532-4630",
      "takeaway": "yes",
      "addr_city": "Holyoke",
      "addr_postcode": "01040",
      "addr_street": "Holyoke Street",
      "addr_housenumber": "50"
    },
    {
      "id": 76557,
      "geometry": "POINT (-73.785108 43.080601)",
      "poi_name": "McDonald's",
      "osm_id": 9784123030,
      "amenity": "fast_food",
      "cuisine": "burger",
      "opening_hours": "Mo-Su 05:00-23:00",
      "website": "https://www.mcdonalds.com/us/en-us/location/ma/chicopee/1460-memorial-drive/645.html",
      "internet_access": "wlan",
      "phone": "+1 413-532-5128",
      "takeaway": "yes",
      "drive_through": "yes",
      "addr_state": "MA",
      "addr_city": "Chicopee",
      "addr_postcode": "01020",
      "addr_street": "Memorial Drive",
      "addr_housenumber": "1460"
    },
    {
      "id": 76589,
      "geometry": "POINT (-73.785108 43.080601)",
      "poi_name": "McDonald's",
      "osm_id": 9784123072,
      "amenity": "fast_food",
      "cuisine": "burger",
      "opening_hours": "Mo-Su 05:00-24:00",
      "website": "https://www.mcdonalds.com/us/en-us/location/ma/charlton/38-worcester-road/29570.html",
      "internet_access": "wlan",
      "phone": "+1 508-248-7040",
      "takeaway": "yes",
      "drive_through": "yes",
      "addr_state": "MA",
      "addr_city": "Charlton Road",
      "addr_postcode": "01507",
      "addr_street": "Worcester Road",
      "addr_housenumber": "38"
    },
    {
      "id": 76590,
      "geometry": "POINT (-73.785108 43.080601)",
      "poi_name": "McDonald's",
      "osm_id": 9784123073,
      "amenity": "fast_food",
      "cuisine": "burger",
      "opening_hours": "24/7",
      "website": "https://www.mcdonalds.com/us/en-us/location/ma/charlton/mass-tpke--i-90-west-service-plaza/25934.html",
      "internet_access": "wlan",
      "phone": "+1 508-248-6788",
      "takeaway": "yes",
      "drive_through": "yes",
      "addr_street": "Charlton Service Plaza Westbound"
    },
    {
      "id": 76591,
      "geometry": "POINT (-73.785108 43.080601)",
      "poi_name": "McDonald's",
      "osm_id": 9784123074,
      "amenity": "fast_food",
      "cuisine": "burger",
      "opening_hours": "Mo-Su 05:30-23:00",
      "website": "https://www.mcdonalds.com/us/en-us/location/ma/auburn/72-auburn-street/1672.html",
      "internet_access": "wlan",
      "phone": "+1 508-832-3744",
      "takeaway": "yes",
      "drive_through": "yes",
      "addr_state": "MA",
      "addr_city": "Auburn",
      "addr_postcode": "01501-2458",
      "addr_street": "Auburn Street",
      "addr_housenumber": "72"
    },
    {
      "id": 76558,
      "geometry": "POINT (-73.785108 43.080601)",
      "poi_name": "McDonald's",
      "osm_id": 9784123031,
      "amenity": "fast_food",
      "cuisine": "burger",
      "opening_hours": "Mo-Su 05:00-23:00",
      "website": "https://www.mcdonalds.com/us/en-us/location/ma/chicopee/639-memorial-drive/32563.html",
      "internet_access": "wlan",
      "phone": "+1 413-593-3110",
      "takeaway": "yes",
      "drive_through": "yes",
      "addr_state": "MA",
      "addr_city": "Chicopee",
      "addr_postcode": "01020",
      "addr_street": "Memorial Drive",
      "addr_housenumber": "639"
    },
    {
      "id": 76559,
      "geometry": "POINT (-73.785108 43.080601)",
      "poi_name": "McDonald's",
      "osm_id": 9784123032,
      "amenity": "fast_food",
      "cuisine": "burger",
      "opening_hours": "Mo-Su 05:00-23:00",
      "website": "https://www.mcdonalds.com/us/en-us/location/ma/chicopee/777-meadow-st/6035.html",
      "internet_access": "wlan",
      "phone": "+1 413-592-5345",
      "takeaway": "yes",
      "drive_through": "yes",
      "addr_state": "MA",
      "addr_city": "Chicopee",
      "addr_postcode": "01013",
      "addr_street": "Meadow Street",
      "addr_housenumber": "777"
    },
    {
      "id": 76562,
      "geometry": "POINT (-73.785108 43.080601)",
      "poi_name": "McDonald's",
      "osm_id": 9784123039,
      "amenity": "fast_food",
      "cuisine": "burger",
      "opening_hours": "Mo-Su 06:00-23:00",
      "website": "https://www.mcdonalds.com/us/en-us/location/ma/springfield/1361-liberty-st/35759.html",
      "internet_access": "wlan",
      "phone": "+1 413-736-1905",
      "takeaway": "yes",
      "drive_through": "yes",
      "addr_state": "MA",
      "addr_city": "Springfield",
      "addr_postcode": "01104",
      "addr_street": "Liberty Street",
      "addr_housenumber": "1361"
    },
    {
      "id": 76563,
      "geometry": "POINT (-73.785108 43.080601)",
      "poi_name": "McDonald's",
      "osm_id": 9784123040,
      "amenity": "fast_food",
      "cuisine": "burger",
      "opening_hours": "Mo-Su 06:00-23:00",
      "website": "https://www.mcdonalds.com/us/en-us/location/ma/springfield/360-main-st/11926.html",
      "internet_access": "wlan",
      "phone": "+1 413-739-3534",
      "takeaway": "yes",
      "drive_through": "yes",
      "addr_state": "MA",
      "addr_city": "Springfield",
      "addr_postcode": "01105",
      "addr_street": "Main Street",
      "addr_housenumber": "360"
    },
    {
      "id": 76564,
      "geometry": "POINT (-73.785108 43.080601)",
      "poi_name": "McDonald's",
      "osm_id": 9784123041,
      "amenity": "fast_food",
      "cuisine": "burger",
      "opening_hours": "Mo-Su 05:00-24:00",
      "website": "https://www.mcdonalds.com/us/en-us/location/ma/west-springfield/429-memorial-ave/10335.html",
      "internet_access": "wi-fi",
      "phone": "+1 413-787-9951",
      "takeaway": "yes",
      "drive_through": "yes",
      "addr_state": "MA",
      "addr_city": "West Springfield",
      "addr_postcode": "01089",
      "addr_street": "Memorial Avenue",
      "addr_housenumber": "429"
    },
    {
      "id": 76565,
      "geometry": "POINT (-73.785108 43.080601)",
      "poi_name": "McDonald's",
      "osm_id": 9784123042,
      "amenity": "fast_food",
      "cuisine": "burger",
      "opening_hours": "Mo-Su 06:00-23:00",
      "website": "https://www.mcdonalds.com/us/en-us/location/ma/west-springfield/352-riverdale-rd/356.html",
      "internet_access": "wlan",
      "phone": "+1 413-737-5153",
      "takeaway": "yes",
      "drive_through": "yes",
      "addr_state": "MA",
      "addr_city": "West Springfield",
      "addr_postcode": "01089",
      "addr_street": "Riverdale Road",
      "addr_housenumber": "352"
    },
    {
      "id": 76566,
      "geometry": "POINT (-73.785108 43.080601)",
      "poi_name": "McDonald's",
      "osm_id": 9784123043,
      "amenity": "fast_food",
      "cuisine": "burger",
      "opening_hours": "Mo-Su 06:00-23:00",
      "website": "https://www.mcdonalds.com/us/en-us/location/ma/agawam/868-suffield-street/34251.html",
      "internet_access": "wlan",
      "phone": "+1 413-786-6863",
      "takeaway": "yes",
      "drive_through": "yes",
      "addr_state": "MA",
      "addr_city": "Agawam",
      "addr_postcode": "01001",
      "addr_street": "Suffield Street",
      "addr_housenumber": "868"
    },
    {
      "id": 76567,
      "geometry": "POINT (-73.785108 43.080601)",
      "poi_name": "McDonald's",
      "osm_id": 9784123044,
      "amenity": "fast_food",
      "cuisine": "burger",
      "opening_hours": "Mo-Su 05:00-23:00",
      "website": "https://www.mcdonalds.com/us/en-us/location/ct/enfield/34-enfield-st/22257.html",
      "internet_access": "wlan",
      "phone": "+1 860-745-4314",
      "takeaway": "yes",
      "drive_through": "yes",
      "addr_state": "CT",
      "addr_city": "Enfield",
      "addr_postcode": "06082",
      "addr_street": "Enfield Street",
      "addr_housenumber": "34"
    },
    {
      "id": 76585,
      "geometry": "POINT (-73.785108 43.080601)",
      "poi_name": "McDonald's",
      "osm_id": 9784123068,
      "amenity": "fast_food",
      "cuisine": "burger",
      "opening_hours": "Mo-Su 06:00-23:00",
      "website": "https://www.mcdonalds.com/us/en-us/location/ma/worcester/766-w-boylston-st/1775.html",
      "internet_access": "wlan",
      "phone": "+1 508-852-1350",
      "takeaway": "yes",
      "drive_through": "yes",
      "addr_city": "Worcester",
      "addr_postcode": "01606",
      "addr_street": "West Boylston Street",
      "addr_housenumber": "766"
    },
    {
      "id": 76669,
      "geometry": "POINT (-73.785108 43.080601)",
      "poi_name": "McDonald's",
      "osm_id": 9786867366,
      "amenity": "fast_food",
      "cuisine": "burger",
      "opening_hours": "Mo-Th 05:00-01:00; Fr 05:00-04:00; Sa 24/7; Su 04:00-01:00",
      "website": "https://www.mcdonalds.com/us/en-us/location/ma/springfield/809-boston-rd/592.html",
      "internet_access": "wlan",
      "phone": "+1 413-783-2328",
      "takeaway": "yes",
      "drive_through": "yes",
      "addr_state": "MA",
      "addr_city": "Springfield",
      "addr_postcode": "01119",
      "addr_street": "Boston Road",
      "addr_housenumber": "809"
    },
    {
      "id": 76670,
      "geometry": "POINT (-73.785108 43.080601)",
      "poi_name": "McDonald's",
      "osm_id": 9786867367,
      "amenity": "fast_food",
      "cuisine": "burger",
      "opening_hours": "Mo-Su 06:00-24:00",
      "website": "https://www.mcdonalds.com/us/en-us/location/ma/ludlow/mass-tpke--i-90-east-service-plaza/25931.html",
      "internet_access": "wlan",
      "phone": "+1 413-589-1790",
      "takeaway": "yes",
      "drive_through": "yes",
      "addr_state": "MA",
      "addr_city": "Ludlow",
      "addr_postcode": "01056",
      "addr_street": "Ludlow Service Plaza Eastbound",
      "addr_housenumber": "862"
    },
    {
      "id": 76586,
      "geometry": "POINT (-73.785108 43.080601)",
      "poi_name": "McDonald's",
      "osm_id": 9784123069,
      "amenity": "fast_food",
      "cuisine": "burger",
      "opening_hours": "Mo-Su 05:00-23:00",
      "website": "https://www.mcdonalds.com/us/en-us/location/ma/worcester/529-southwest-cutoff/5798.html",
      "internet_access": "wlan",
      "phone": "+1 508-752-1097",
      "takeaway": "yes",
      "drive_through": "yes",
      "addr_state": "MA",
      "addr_city": "Worcester",
      "addr_postcode": "01607",
      "addr_street": "Southwest Cutoff",
      "addr_housenumber": "529"
    },
    {
      "id": 76587,
      "geometry": "POINT (-73.785108 43.080601)",
      "poi_name": "McDonald's",
      "osm_id": 9784123070,
      "amenity": "fast_food",
      "cuisine": "burger",
      "opening_hours": "Mo-Su 05:00-23:00",
      "website": "https://www.mcdonalds.com/us/en-us/location/ma/athol/100-brookside-rd/7204.html",
      "internet_access": "wlan",
      "phone": "+1 978-249-9866",
      "takeaway": "yes",
      "drive_through": "yes",
      "addr_state": "MA",
      "addr_city": "Athol",
      "addr_postcode": "01331",
      "addr_street": "Brookside Road",
      "addr_housenumber": "100"
    },
    {
      "id": 76588,
      "geometry": "POINT (-73.785108 43.080601)",
      "poi_name": "McDonald's",
      "osm_id": 9784123071,
      "amenity": "fast_food",
      "cuisine": "burger",
      "opening_hours": "24/7",
      "website": "https://www.mcdonalds.com/us/en-us/location/ma/charlton-city/mass-tpke--i-90-east-service-plaza/25933.html",
      "internet_access": "wlan",
      "phone": "+1 508-248-0517",
      "takeaway": "yes",
      "drive_through": "yes",
      "addr_state": "MA",
      "addr_city": "Charlton City",
      "addr_postcode": "01508",
      "addr_street": "Massachusetts Turnpike"
    },
    {
      "id": 80320,
      "geometry": "POINT (-73.785108 43.080601)",
      "poi_name": "McDonald's",
      "osm_id": 876202417,
      "amenity": "fast_food",
      "cuisine": "burger",
      "website": "https://www.mcdonalds.com/us/en-us/location/ct/new-britain/40-martin-luther-king-jr-dr/19434.html",
      "takeaway": "yes",
      "addr_state": "CT",
      "addr_city": "New Britain",
      "addr_postcode": "06051",
      "addr_street": "Martin Luther King Drive",
      "addr_housenumber": "40"
    },
    {
      "id": 79592,
      "geometry": "POINT (-73.785108 43.080601)",
      "poi_name": "McDonald's",
      "osm_id": 816234403,
      "amenity": "fast_food",
      "cuisine": "burger",
      "opening_hours": "24/7",
      "website": "https://www.mcdonalds.com/us/en-us/location/ma/worcester/465-shrewsbury-st/22710.html",
      "takeaway": "yes",
      "drive_through": "yes",
      "addr_state": "MA",
      "addr_city": "Worcester",
      "addr_postcode": "01604",
      "addr_street": "Shrewsbury Street",
      "addr_housenumber": "465"
    },
    {
      "id": 78344,
      "geometry": "POINT (-73.785108 43.080601)",
      "poi_name": "Dunkin'",
      "osm_id": 739866476,
      "amenity": "fast_food",
      "cuisine": "donut;coffee_shop",
      "opening_hours": "Mo 05:00-19:00; Tu-Sa 04:00-19:00; Su 05:00-19:00",
      "phone": "+1-508-869-2313",
      "takeaway": "yes",
      "addr_state": "MA",
      "addr_city": "Boylston",
      "addr_postcode": "01505",
      "addr_street": "Shrewsbury Street",
      "addr_housenumber": "270"
    },
    {
      "id": 78350,
      "geometry": "POINT (-73.785108 43.080601)",
      "poi_name": "Chipotle",
      "osm_id": 740260650,
      "amenity": "fast_food",
      "cuisine": "mexican",
      "takeaway": "yes",
      "official_name": "Chipotle Mexican Grill"
    },
    {
      "id": 80321,
      "geometry": "POINT (-73.785108 43.080601)",
      "poi_name": "McDonald's",
      "osm_id": 876264821,
      "amenity": "fast_food",
      "cuisine": "burger",
      "website": "https://www.mcdonalds.com/us/en-us/location/ma/worcester/548-lincoln-st/6154.html",
      "takeaway": "yes"
    },
    {
      "id": 80322,
      "geometry": "POINT (-73.785108 43.080601)",
      "poi_name": "Taco Bell",
      "osm_id": 876264835,
      "amenity": "fast_food",
      "cuisine": "tex-mex",
      "website": "https://locations.tacobell.com/ma/worcester/463-lincoln-street.html",
      "takeaway": "yes"
    },
    {
      "id": 80324,
      "geometry": "POINT (-73.785108 43.080601)",
      "poi_name": "Five Guys",
      "osm_id": 876264847,
      "amenity": "fast_food",
      "cuisine": "burger",
      "takeaway": "yes",
      "official_name": "Five Guys Burgers and Fries"
    },
    {
      "id": 80789,
      "geometry": "POINT (-73.785108 43.080601)",
      "poi_name": "Taco Bell",
      "osm_id": 896425417,
      "amenity": "fast_food",
      "cuisine": "tex-mex",
      "website": "https://locations.tacobell.com/ma/shrewsbury/21-s-quinsigamond-ave.html",
      "takeaway": "yes",
      "addr_state": "MA",
      "addr_city": "Shrewsbury",
      "addr_postcode": "01545"
    },
    {
      "id": 80543,
      "geometry": "POINT (-73.785108 43.080601)",
      "poi_name": "Dunkin' Donuts",
      "osm_id": 880757396,
      "amenity": "fast_food",
      "cuisine": "donut;coffee_shop",
      "takeaway": "yes"
    },
    {
      "id": 80544,
      "geometry": "POINT (-73.785108 43.080601)",
      "poi_name": "Papa Gino's",
      "osm_id": 880757404,
      "amenity": "fast_food",
      "cuisine": "pizza"
    },
    {
      "id": 80545,
      "geometry": "POINT (-73.785108 43.080601)",
      "poi_name": "Dunkin' Donuts",
      "osm_id": 880757409,
      "amenity": "fast_food",
      "cuisine": "donut;coffee_shop",
      "takeaway": "yes"
    },
    {
      "id": 80790,
      "geometry": "POINT (-73.785108 43.080601)",
      "poi_name": "KFC",
      "osm_id": 896425419,
      "amenity": "fast_food",
      "cuisine": "chicken",
      "website": "https://locations.kfc.com/ma/shrewsbury/21-s-quinsigamond-ave",
      "takeaway": "yes",
      "addr_state": "MA",
      "addr_city": "Shrewsbury",
      "addr_postcode": "01545"
    },
    {
      "id": 81060,
      "geometry": "POINT (-73.785108 43.080601)",
      "poi_name": "Burger King",
      "osm_id": 1601834223,
      "amenity": "fast_food",
      "cuisine": "burger",
      "takeaway": "yes"
    },
    {
      "id": 80834,
      "geometry": "POINT (-73.785108 43.080601)",
      "poi_name": "Dunkin'",
      "osm_id": 1583837177,
      "amenity": "fast_food",
      "cuisine": "donut;coffee_shop",
      "takeaway": "yes"
    },
    {
      "id": 81061,
      "geometry": "POINT (-73.785108 43.080601)",
      "poi_name": "Subway",
      "osm_id": 1601836277,
      "amenity": "fast_food",
      "cuisine": "sandwich",
      "takeaway": "yes"
    },
    {
      "id": 81063,
      "geometry": "POINT (-73.785108 43.080601)",
      "poi_name": "Dunkin' Donuts",
      "osm_id": 1601848051,
      "amenity": "fast_food",
      "cuisine": "donut;coffee_shop",
      "takeaway": "yes"
    },
    {
      "id": 81610,
      "geometry": "POINT (-73.785108 43.080601)",
      "poi_name": "Dairy Cream",
      "osm_id": 1651220147,
      "amenity": "fast_food",
      "cuisine": "ice_cream"
    },
    {
      "id": 81519,
      "geometry": "POINT (-73.785108 43.080601)",
      "poi_name": "Dunkin'",
      "osm_id": 1646782421,
      "amenity": "fast_food",
      "cuisine": "donut;coffee_shop",
      "takeaway": "yes"
    },
    {
      "id": 81522,
      "geometry": "POINT (-73.785108 43.080601)",
      "poi_name": "Subway",
      "osm_id": 1646782594,
      "amenity": "fast_food",
      "cuisine": "sandwich",
      "takeaway": "yes"
    },
    {
      "id": 81524,
      "geometry": "POINT (-73.785108 43.080601)",
      "poi_name": "Subway",
      "osm_id": 1646782623,
      "amenity": "fast_food",
      "cuisine": "sandwich",
      "takeaway": "yes"
    },
    {
      "id": 81525,
      "geometry": "POINT (-73.785108 43.080601)",
      "poi_name": "Dunkin'",
      "osm_id": 1646782653,
      "amenity": "fast_food",
      "cuisine": "donut;coffee_shop",
      "takeaway": "yes",
      "drive_through": "yes"
    },
    {
      "id": 81526,
      "geometry": "POINT (-73.785108 43.080601)",
      "poi_name": "Pizza Rama",
      "osm_id": 1646782704,
      "amenity": "fast_food",
      "cuisine": "pizza"
    },
    {
      "id": 81528,
      "geometry": "POINT (-73.785108 43.080601)",
      "poi_name": "Whole Deli",
      "osm_id": 1646866589,
      "amenity": "fast_food",
      "cuisine": "sandwich",
      "website": "https://www.wholedeliwindsor.com",
      "addr_state": "CT",
      "addr_city": "Windsor",
      "addr_postcode": "06095",
      "addr_street": "Poquonock Avenue",
      "addr_housenumber": "700"
    },
    {
      "id": 81529,
      "geometry": "POINT (-73.785108 43.080601)",
      "poi_name": "Windsor Pickle Deli",
      "osm_id": 1646866592,
      "amenity": "fast_food",
      "cuisine": "sandwich"
    },
    {
      "id": 81530,
      "geometry": "POINT (-73.785108 43.080601)",
      "poi_name": "McDonald's",
      "osm_id": 1646866598,
      "amenity": "fast_food",
      "cuisine": "burger",
      "website": "https://www.mcdonalds.com/us/en-us/location/ct/windsor/350-bloomfield-ave/16907.html",
      "takeaway": "yes"
    },
    {
      "id": 81532,
      "geometry": "POINT (-73.785108 43.080601)",
      "poi_name": "Subway",
      "osm_id": 1646866610,
      "amenity": "fast_food",
      "cuisine": "sandwich",
      "takeaway": "yes"
    },
    {
      "id": 81538,
      "geometry": "POINT (-73.785108 43.080601)",
      "poi_name": "Chinese",
      "osm_id": 1646945989,
      "amenity": "fast_food",
      "cuisine": "chinese"
    },
    {
      "id": 81539,
      "geometry": "POINT (-73.785108 43.080601)",
      "poi_name": "Subway",
      "osm_id": 1646945999,
      "amenity": "fast_food",
      "cuisine": "sandwich",
      "takeaway": "yes"
    },
    {
      "id": 81540,
      "geometry": "POINT (-73.785108 43.080601)",
      "poi_name": "Pizza Restaurant",
      "osm_id": 1646946076,
      "amenity": "fast_food",
      "cuisine": "pizza"
    },
    {
      "id": 81541,
      "geometry": "POINT (-73.785108 43.080601)",
      "poi_name": "Subway",
      "osm_id": 1646946097,
      "amenity": "fast_food",
      "cuisine": "sandwich",
      "takeaway": "yes"
    },
    {
      "id": 81542,
      "geometry": "POINT (-73.785108 43.080601)",
      "poi_name": "Burger King",
      "osm_id": 1646946100,
      "amenity": "fast_food",
      "cuisine": "burger",
      "takeaway": "yes"
    },
    {
      "id": 81543,
      "geometry": "POINT (-73.785108 43.080601)",
      "poi_name": "McDonald's",
      "osm_id": 1646946101,
      "amenity": "fast_food",
      "cuisine": "burger",
      "website": "https://www.mcdonalds.com/us/en-us/location/ct/windsor-locks/195-turnpike-rd/2617.html",
      "takeaway": "yes"
    },
    {
      "id": 81544,
      "geometry": "POINT (-73.785108 43.080601)",
      "poi_name": "2nd Poquonock Pizza & Grinders",
      "osm_id": 1646946132,
      "amenity": "fast_food",
      "cuisine": "pizza"
    },
    {
      "id": 81550,
      "geometry": "POINT (-73.785108 43.080601)",
      "poi_name": "Taco Bell",
      "osm_id": 1647114113,
      "amenity": "fast_food",
      "cuisine": "tex-mex",
      "website": "https://locations.tacobell.com/ct/windsor-locks/86-ella-grasso-turnpike.html",
      "takeaway": "yes"
    },
    {
      "id": 81551,
      "geometry": "POINT (-73.785108 43.080601)",
      "poi_name": "Polish Deli",
      "osm_id": 1647114188,
      "amenity": "fast_food",
      "cuisine": "sandwich"
    },
    {
      "id": 81552,
      "geometry": "POINT (-73.785108 43.080601)",
      "poi_name": "Pizza Hut Express",
      "osm_id": 1647114391,
      "amenity": "fast_food",
      "cuisine": "pizza",
      "operator": "Yum! Brands, Inc.",
      "website": "https://locations.pizzahut.com/ct/windsor/1075-kennedy-rd",
      "takeaway": "yes",
      "drive_through": "no",
      "addr_state": "CT",
      "addr_city": "Windsor",
      "addr_postcode": "06095",
      "addr_street": "Kennedy Road",
      "addr_housenumber": "1075"
    },
    {
      "id": 81555,
      "geometry": "POINT (-73.785108 43.080601)",
      "poi_name": "Burger King",
      "osm_id": 1647114689,
      "amenity": "fast_food",
      "cuisine": "burger",
      "takeaway": "yes",
      "drive_through": "yes"
    },
    {
      "id": 81560,
      "geometry": "POINT (-73.785108 43.080601)",
      "poi_name": "Taco Bell",
      "osm_id": 1647278116,
      "amenity": "fast_food",
      "cuisine": "tex-mex",
      "wheelchair": "yes",
      "website": "https://locations.tacobell.com/ct/enfield/18-hazard-ave.html",
      "takeaway": "yes"
    },
    {
      "id": 81561,
      "geometry": "POINT (-73.785108 43.080601)",
      "poi_name": "Wendy's",
      "osm_id": 1647278125,
      "amenity": "fast_food",
      "cuisine": "burger",
      "takeaway": "yes"
    },
    {
      "id": 81562,
      "geometry": "POINT (-73.785108 43.080601)",
      "poi_name": "Five Guys",
      "osm_id": 1647278189,
      "amenity": "fast_food",
      "cuisine": "burger",
      "takeaway": "yes",
      "official_name": "Five Guys Burgers and Fries"
    },
    {
      "id": 81564,
      "geometry": "POINT (-73.785108 43.080601)",
      "poi_name": "D'Angelo Grilled Sandwiches",
      "osm_id": 1647278254,
      "amenity": "fast_food",
      "cuisine": "sandwich",
      "takeaway": "yes"
    },
    {
      "id": 81565,
      "geometry": "POINT (-73.785108 43.080601)",
      "poi_name": "McDonald's",
      "osm_id": 1647278285,
      "amenity": "fast_food",
      "cuisine": "burger",
      "wheelchair": "yes",
      "website": "https://www.mcdonalds.com/us/en-us/location/ct/enfield/28-hazard-ave/7620.html",
      "takeaway": "yes"
    },
    {
      "id": 81566,
      "geometry": "POINT (-73.785108 43.080601)",
      "poi_name": "Dunkin'",
      "osm_id": 1647278309,
      "amenity": "fast_food",
      "cuisine": "donut;coffee_shop",
      "takeaway": "yes"
    },
    {
      "id": 81567,
      "geometry": "POINT (-73.785108 43.080601)",
      "poi_name": "Moe's Southwest Grill",
      "osm_id": 1647278360,
      "amenity": "fast_food",
      "cuisine": "mexican",
      "takeaway": "yes"
    },
    {
      "id": 81570,
      "geometry": "POINT (-73.785108 43.080601)",
      "poi_name": "McDonald's",
      "osm_id": 1647278606,
      "amenity": "fast_food",
      "cuisine": "burger",
      "website": "https://www.mcdonalds.com/us/en-us/location/ct/enfield/97-elm-st/2070.html",
      "takeaway": "yes"
    },
    {
      "id": 81571,
      "geometry": "POINT (-73.785108 43.080601)",
      "poi_name": "Dunkin'",
      "osm_id": 1647278640,
      "amenity": "fast_food",
      "cuisine": "donut;coffee_shop",
      "takeaway": "yes"
    },
    {
      "id": 81573,
      "geometry": "POINT (-73.785108 43.080601)",
      "poi_name": "Burger King",
      "osm_id": 1647278794,
      "amenity": "fast_food",
      "cuisine": "burger",
      "takeaway": "yes"
    },
    {
      "id": 81575,
      "geometry": "POINT (-73.785108 43.080601)",
      "poi_name": "Boston Market",
      "osm_id": 1647786833,
      "amenity": "fast_food",
      "cuisine": "american;chicken",
      "takeaway": "yes",
      "drive_through": "no"
    },
    {
      "id": 81674,
      "geometry": "POINT (-73.785108 43.080601)",
      "poi_name": "McDonald's",
      "osm_id": 1655457921,
      "amenity": "fast_food",
      "cuisine": "burger",
      "wheelchair": "yes",
      "takeaway": "yes",
      "drive_through": "yes",
      "addr_state": "CT",
      "addr_city": "Plainville",
      "addr_postcode": "06062",
      "addr_street": "Maple Street",
      "addr_housenumber": "7"
    },
    {
      "id": 81675,
      "geometry": "POINT (-73.785108 43.080601)",
      "poi_name": "Burger King",
      "osm_id": 1655457977,
      "amenity": "fast_food",
      "cuisine": "burger",
      "wheelchair": "yes",
      "takeaway": "yes"
    },
    {
      "id": 81678,
      "geometry": "POINT (-73.785108 43.080601)",
      "poi_name": "Tong Sing Restaurant",
      "osm_id": 1655461751,
      "amenity": "fast_food",
      "cuisine": "chinese",
      "phone": "(860) 747-6888",
      "addr_state": "CT",
      "addr_city": "Plainville",
      "addr_postcode": "06062",
      "addr_street": "East Street",
      "addr_housenumber": "79"
    },
    {
      "id": 81618,
      "geometry": "POINT (-73.785108 43.080601)",
      "poi_name": "Mahaney's",
      "osm_id": 1652314500,
      "amenity": "fast_food",
      "cuisine": "breakfast;lunch"
    },
    {
      "id": 81679,
      "geometry": "POINT (-73.785108 43.080601)",
      "poi_name": "Subway",
      "osm_id": 1655461754,
      "amenity": "fast_food",
      "cuisine": "sandwich",
      "wheelchair": "yes",
      "phone": "(860) 747-8069",
      "takeaway": "yes",
      "addr_state": "CT",
      "addr_city": "Plainville",
      "addr_postcode": "06062",
      "addr_street": "East Street",
      "addr_housenumber": "58"
    },
    {
      "id": 81680,
      "geometry": "POINT (-73.785108 43.080601)",
      "poi_name": "Domino's",
      "osm_id": 1655492944,
      "amenity": "fast_food",
      "cuisine": "pizza",
      "takeaway": "yes"
    },
    {
      "id": 81681,
      "geometry": "POINT (-73.785108 43.080601)",
      "poi_name": "BARTS burgers",
      "osm_id": 1655492957,
      "amenity": "fast_food",
      "cuisine": "burger"
    },
    {
      "id": 82727,
      "geometry": "POINT (-73.785108 43.080601)",
      "poi_name": "Papa John's",
      "osm_id": 1709224758,
      "amenity": "fast_food",
      "cuisine": "pizza",
      "website": "https://www.papajohns.com/",
      "takeaway": "yes",
      "addr_state": "CT",
      "addr_city": "Rocky Hill",
      "addr_postcode": "06067",
      "addr_street": "cromwell ave",
      "addr_housenumber": "946"
    },
    {
      "id": 81781,
      "geometry": "POINT (-73.785108 43.080601)",
      "poi_name": "Dunkin'",
      "osm_id": 1666191408,
      "amenity": "fast_food",
      "cuisine": "donut;coffee_shop",
      "opening_hours": "Mo-Fr 07:00-18:00; Sa 08:00-18:00; Su 09:00-17:00",
      "takeaway": "yes",
      "drive_through": "no"
    },
    {
      "id": 81782,
      "geometry": "POINT (-73.785108 43.080601)",
      "poi_name": "Subway",
      "osm_id": 1666191409,
      "amenity": "fast_food",
      "cuisine": "sandwich",
      "takeaway": "yes"
    },
    {
      "id": 90194,
      "geometry": "POINT (-73.785108 43.080601)",
      "poi_name": "Dunkin'",
      "osm_id": 1982117749,
      "amenity": "fast_food",
      "cuisine": "donut;coffee_shop",
      "takeaway": "yes"
    },
    {
      "id": 83327,
      "geometry": "POINT (-73.785108 43.080601)",
      "poi_name": "China Wok Express",
      "osm_id": 1739804397,
      "amenity": "fast_food",
      "cuisine": "chinese",
      "takeaway": "yes"
    },
    {
      "id": 86627,
      "geometry": "POINT (-73.785108 43.080601)",
      "poi_name": "Dunkin'",
      "osm_id": 1941360543,
      "amenity": "fast_food",
      "cuisine": "donut;coffee_shop",
      "takeaway": "yes"
    },
    {
      "id": 87893,
      "geometry": "POINT (-73.785108 43.080601)",
      "poi_name": "D'Angelo",
      "osm_id": 8750569702,
      "amenity": "fast_food"
    },
    {
      "id": 87895,
      "geometry": "POINT (-73.785108 43.080601)",
      "poi_name": "Panera Bread",
      "osm_id": 8750619881,
      "amenity": "fast_food",
      "cuisine": "sandwich;bakery",
      "takeaway": "yes",
      "addr_state": "CT",
      "addr_city": "South Windsor",
      "addr_postcode": "06074",
      "addr_street": "Hemlock Avenue",
      "addr_housenumber": "100"
    },
    {
      "id": 88323,
      "geometry": "POINT (-73.785108 43.080601)",
      "poi_name": "Wendy's",
      "osm_id": 8779384313,
      "amenity": "fast_food",
      "cuisine": "burger",
      "takeaway": "yes"
    },
    {
      "id": 88324,
      "geometry": "POINT (-73.785108 43.080601)",
      "poi_name": "Burger King",
      "osm_id": 8779423418,
      "amenity": "fast_food",
      "cuisine": "burger",
      "takeaway": "yes"
    },
    {
      "id": 88326,
      "geometry": "POINT (-73.785108 43.080601)",
      "poi_name": "Subway",
      "osm_id": 8779423422,
      "amenity": "fast_food",
      "cuisine": "sandwich",
      "takeaway": "yes"
    },
    {
      "id": 88327,
      "geometry": "POINT (-73.785108 43.080601)",
      "poi_name": "McDonald's",
      "osm_id": 8779423425,
      "amenity": "fast_food",
      "cuisine": "burger",
      "website": "https://www.mcdonalds.com/us/en-us/location/ct/bristol/646-farmington-avenue/301.html",
      "takeaway": "yes"
    },
    {
      "id": 88328,
      "geometry": "POINT (-73.785108 43.080601)",
      "poi_name": "Moe's Southwest Grill",
      "osm_id": 8779423426,
      "amenity": "fast_food",
      "cuisine": "mexican",
      "takeaway": "yes",
      "outdoor_seating": "yes"
    },
    {
      "id": 88330,
      "geometry": "POINT (-73.785108 43.080601)",
      "poi_name": "Dunkin'",
      "osm_id": 8779423429,
      "amenity": "fast_food",
      "cuisine": "donut;coffee_shop",
      "takeaway": "yes",
      "outdoor_seating": "no"
    },
    {
      "id": 88713,
      "geometry": "POINT (-73.785108 43.080601)",
      "poi_name": "Dunkin'",
      "osm_id": 8793182486,
      "amenity": "fast_food",
      "cuisine": "donut;coffee_shop",
      "takeaway": "yes",
      "drive_through": "yes"
    },
    {
      "id": 89436,
      "geometry": "POINT (-73.785108 43.080601)",
      "poi_name": "Pizza Heaven",
      "osm_id": 8844095525,
      "amenity": "fast_food",
      "cuisine": "pizza",
      "addr_state": "CT",
      "addr_city": "Meriden",
      "addr_postcode": "06451",
      "addr_street": "West Main Street",
      "addr_housenumber": "286"
    },
    {
      "id": 90045,
      "geometry": "POINT (-73.785108 43.080601)",
      "poi_name": "Wayback Burgers",
      "osm_id": 8880723678,
      "amenity": "fast_food",
      "cuisine": "burger",
      "takeaway": "yes",
      "drive_through": "yes"
    },
    {
      "id": 90056,
      "geometry": "POINT (-73.785108 43.080601)",
      "poi_name": "Subway",
      "osm_id": 8880887822,
      "amenity": "fast_food",
      "cuisine": "sandwich",
      "takeaway": "yes",
      "drive_through": "no"
    },
    {
      "id": 90057,
      "geometry": "POINT (-73.785108 43.080601)",
      "poi_name": "Pizza Time",
      "osm_id": 8880887824,
      "amenity": "fast_food",
      "cuisine": "pizza",
      "opening_hours": "Mo-Su 11:00-01:00",
      "website": "www.pizzatimeuse.com",
      "phone": "8606231600",
      "addr_state": "CT",
      "addr_city": "Windsor Locks",
      "addr_postcode": "06096",
      "addr_street": "Main Street",
      "addr_housenumber": "20"
    },
    {
      "id": 90058,
      "geometry": "POINT (-73.785108 43.080601)",
      "poi_name": "Subway",
      "osm_id": 8880933597,
      "amenity": "fast_food",
      "cuisine": "sandwich",
      "takeaway": "yes",
      "drive_through": "no"
    },
    {
      "id": 85175,
      "geometry": "POINT (-73.785108 43.080601)",
      "poi_name": "Jersey Mike's Subs",
      "osm_id": 1844339811,
      "amenity": "fast_food",
      "cuisine": "sandwich",
      "takeaway": "yes"
    },
    {
      "id": 89369,
      "geometry": "POINT (-73.785108 43.080601)",
      "poi_name": "Subway",
      "osm_id": 8840529992,
      "amenity": "fast_food",
      "cuisine": "sandwich",
      "wheelchair": "yes",
      "opening_hours": "Mo-Su 09:00-21:00",
      "phone": "+1-860-584-1352",
      "takeaway": "yes",
      "outdoor_seating": "no",
      "addr_state": "CT",
      "addr_city": "Bristol",
      "addr_postcode": "06010",
      "addr_street": "Pine Street",
      "addr_housenumber": "815"
    },
    {
      "id": 90489,
      "geometry": "POINT (-73.785108 43.080601)",
      "poi_name": "Dunkin'",
      "osm_id": 1997986837,
      "amenity": "fast_food",
      "cuisine": "donut;coffee_shop",
      "opening_hours": "24/7",
      "internet_access": "wlan",
      "phone": "+1 508 753 9831",
      "takeaway": "yes",
      "addr_state": "MA",
      "addr_city": "Shrewsbury",
      "addr_postcode": "01545",
      "addr_street": "Boston Turnpike",
      "addr_housenumber": "118"
    },
    {
      "id": 90370,
      "geometry": "POINT (-73.785108 43.080601)",
      "poi_name": "Little Caesars",
      "osm_id": 1993210385,
      "amenity": "fast_food",
      "cuisine": "pizza",
      "opening_hours": "Mo-Th 11:00-21:00; Fr-Sa 11:00-22:00; Su 12:00-21:00",
      "website": "https://littlecaesars.com/en-us/store/9198/",
      "takeaway": "yes",
      "drive_through": "no",
      "addr_state": "MA",
      "addr_city": "Worcester",
      "addr_postcode": "01604",
      "addr_street": "Shrewsbury Street",
      "addr_housenumber": "386"
    },
    {
      "id": 90403,
      "geometry": "POINT (-73.785108 43.080601)",
      "poi_name": "Five Guys",
      "osm_id": 1994835693,
      "amenity": "fast_food",
      "cuisine": "burger",
      "takeaway": "yes",
      "official_name": "Five Guys Burgers and Fries"
    },
    {
      "id": 90404,
      "geometry": "POINT (-73.785108 43.080601)",
      "poi_name": "iCraze Frozen Yogurt",
      "osm_id": 1994835698,
      "amenity": "fast_food",
      "cuisine": "ice_cream"
    },
    {
      "id": 94520,
      "geometry": "POINT (-73.785108 43.080601)",
      "poi_name": "Dunkin'",
      "osm_id": 2249761458,
      "amenity": "fast_food",
      "cuisine": "donut;coffee_shop",
      "takeaway": "yes",
      "addr_state": "CT",
      "addr_city": "New Britain",
      "addr_postcode": "06052",
      "addr_street": "East Main Street",
      "addr_housenumber": "118"
    },
    {
      "id": 92876,
      "geometry": "POINT (-73.785108 43.080601)",
      "poi_name": "Dunkin'",
      "osm_id": 2138609083,
      "amenity": "fast_food",
      "cuisine": "donut;coffee_shop",
      "takeaway": "yes"
    },
    {
      "id": 92877,
      "geometry": "POINT (-73.785108 43.080601)",
      "poi_name": "State Street Deli",
      "osm_id": 2138609086,
      "amenity": "fast_food",
      "cuisine": "sandwich",
      "wheelchair": "yes"
    },
    {
      "id": 93452,
      "geometry": "POINT (-73.785108 43.080601)",
      "poi_name": "Panera Bread",
      "osm_id": 2166027700,
      "amenity": "fast_food",
      "cuisine": "sandwich;bakery",
      "takeaway": "yes",
      "drive_through": "yes"
    },
    {
      "id": 93481,
      "geometry": "POINT (-73.785108 43.080601)",
      "poi_name": "Subway",
      "osm_id": 2167311520,
      "amenity": "fast_food",
      "cuisine": "sandwich",
      "takeaway": "yes"
    },
    {
      "id": 90580,
      "geometry": "POINT (-73.785108 43.080601)",
      "poi_name": "Dunkin'",
      "osm_id": 2002991467,
      "amenity": "fast_food",
      "cuisine": "donut;coffee_shop",
      "internet_access": "wlan",
      "phone": "+1 860 633 2500",
      "takeaway": "yes",
      "drive_through": "yes",
      "outdoor_seating": "no",
      "addr_state": "CT",
      "addr_city": "Glastonbury",
      "addr_postcode": "06033",
      "addr_street": "Main Street",
      "addr_housenumber": "2751"
    },
    {
      "id": 93870,
      "geometry": "POINT (-73.785108 43.080601)",
      "poi_name": "Subway",
      "osm_id": 2190270890,
      "amenity": "fast_food",
      "cuisine": "sandwich",
      "takeaway": "yes"
    },
    {
      "id": 94377,
      "geometry": "POINT (-73.785108 43.080601)",
      "poi_name": "Dunkin'",
      "osm_id": 2237853985,
      "amenity": "fast_food",
      "cuisine": "donut;coffee_shop",
      "takeaway": "yes"
    },
    {
      "id": 97835,
      "geometry": "POINT (-73.785108 43.080601)",
      "poi_name": "Dunkin'",
      "osm_id": 6496811829,
      "amenity": "fast_food",
      "cuisine": "donut;coffee_shop",
      "takeaway": "yes"
    },
    {
      "id": 96767,
      "geometry": "POINT (-73.785108 43.080601)",
      "poi_name": "Subway",
      "osm_id": 6443973265,
      "amenity": "fast_food",
      "cuisine": "sandwich",
      "takeaway": "yes"
    },
    {
      "id": 97169,
      "geometry": "POINT (-73.785108 43.080601)",
      "poi_name": "Subway",
      "osm_id": 6465882008,
      "amenity": "fast_food",
      "cuisine": "sandwich",
      "takeaway": "yes"
    },
    {
      "id": 97496,
      "geometry": "POINT (-73.785108 43.080601)",
      "poi_name": "Pizza Hut Express",
      "osm_id": 6481871895,
      "amenity": "fast_food",
      "cuisine": "pizza",
      "takeaway": "yes"
    },
    {
      "id": 95623,
      "geometry": "POINT (-73.785108 43.080601)",
      "poi_name": "Chipotle",
      "osm_id": 6403347796,
      "amenity": "fast_food",
      "cuisine": "mexican",
      "opening_hours": "Mo-Su 10:45-22:00",
      "takeaway": "yes",
      "official_name": "Chipotle Mexican Grill"
    },
    {
      "id": 95625,
      "geometry": "POINT (-73.785108 43.080601)",
      "poi_name": "Chick-fil-A",
      "osm_id": 6403347799,
      "amenity": "fast_food",
      "cuisine": "chicken",
      "takeaway": "yes",
      "drive_through": "yes"
    },
    {
      "id": 97307,
      "geometry": "POINT (-73.785108 43.080601)",
      "poi_name": "The Belchertown Pizza Shop",
      "osm_id": 6471369703,
      "amenity": "fast_food",
      "cuisine": "pizza",
      "opening_hours": "We-Mo 11:00-21:00",
      "website": "http://belchertownpizza.com/",
      "phone": "+1-413-323-0300",
      "addr_street": "Park Street",
      "addr_housenumber": "4"
    },
    {
      "id": 97525,
      "geometry": "POINT (-73.785108 43.080601)",
      "poi_name": "Domino's",
      "osm_id": 6482820618,
      "amenity": "fast_food",
      "cuisine": "pizza",
      "takeaway": "yes"
    },
    {
      "id": 97536,
      "geometry": "POINT (-73.785108 43.080601)",
      "poi_name": "Boston Road Pizza",
      "osm_id": 6483210578,
      "amenity": "fast_food",
      "cuisine": "pizza",
      "website": "https://bostonrdpizza.com/",
      "phone": "+1 413-796-7777",
      "addr_street": "Boston Road",
      "addr_housenumber": "1291"
    },
    {
      "id": 97838,
      "geometry": "POINT (-73.785108 43.080601)",
      "poi_name": "Subway",
      "osm_id": 6496880940,
      "amenity": "fast_food",
      "cuisine": "sandwich",
      "takeaway": "yes"
    },
    {
      "id": 98071,
      "geometry": "POINT (-73.785108 43.080601)",
      "poi_name": "D'Angelo Grilled Sandwiches",
      "osm_id": 6505824570,
      "amenity": "fast_food",
      "cuisine": "sandwich",
      "opening_hours": "Mo-Th,Sa 10:30-08:30, Fr 10:30-09:00, Su 11:00-08:30",
      "takeaway": "yes"
    },
    {
      "id": 97882,
      "geometry": "POINT (-73.785108 43.080601)",
      "poi_name": "Subway",
      "osm_id": 6499044463,
      "amenity": "fast_food",
      "cuisine": "sandwich",
      "wheelchair": "limited",
      "takeaway": "yes"
    },
    {
      "id": 98135,
      "geometry": "POINT (-73.785108 43.080601)",
      "poi_name": "Subway",
      "osm_id": 6507384244,
      "amenity": "fast_food",
      "cuisine": "sandwich",
      "takeaway": "yes"
    },
    {
      "id": 98072,
      "geometry": "POINT (-73.785108 43.080601)",
      "poi_name": "Jefferson Fry Company",
      "osm_id": 6505825156,
      "amenity": "fast_food",
      "cuisine": "burger"
    },
    {
      "id": 107167,
      "geometry": "POINT (-73.785108 43.080601)",
      "poi_name": "McDonald's",
      "osm_id": 3540262620,
      "amenity": "fast_food",
      "cuisine": "burger",
      "website": "https://www.mcdonalds.com/us/en-us/location/ma/lee/mass-tpke--i-90-east-service-plaza/25927.html",
      "takeaway": "yes",
      "drive_through": "yes"
    },
    {
      "id": 98163,
      "geometry": "POINT (-73.785108 43.080601)",
      "poi_name": "Dunkin'",
      "osm_id": 6509475225,
      "amenity": "fast_food",
      "cuisine": "donut;coffee_shop",
      "takeaway": "yes"
    },
    {
      "id": 98187,
      "geometry": "POINT (-73.785108 43.080601)",
      "poi_name": "Dunkin'",
      "osm_id": 6510228126,
      "amenity": "fast_food",
      "cuisine": "donut;coffee_shop",
      "takeaway": "yes"
    },
    {
      "id": 98189,
      "geometry": "POINT (-73.785108 43.080601)",
      "poi_name": "Moe's Southwest Grill",
      "osm_id": 6510228144,
      "amenity": "fast_food",
      "cuisine": "mexican",
      "takeaway": "yes"
    },
    {
      "id": 100603,
      "geometry": "POINT (-73.785108 43.080601)",
      "poi_name": "Dunkin'",
      "osm_id": 6593934248,
      "amenity": "fast_food",
      "cuisine": "donut;coffee_shop",
      "takeaway": "yes"
    },
    {
      "id": 102015,
      "geometry": "POINT (-73.785108 43.080601)",
      "poi_name": "Pizza Kitchen & Grill",
      "osm_id": 6653798776,
      "amenity": "fast_food",
      "cuisine": "pizza"
    },
    {
      "id": 102651,
      "geometry": "POINT (-73.785108 43.080601)",
      "poi_name": "Terryville Pizza",
      "osm_id": 6689742058,
      "amenity": "fast_food",
      "cuisine": "pizza",
      "website": "https://www.terryvillepizzact.com/",
      "phone": "860-582-2445",
      "addr_state": "CT",
      "addr_city": "Terryville",
      "addr_postcode": "06786",
      "addr_street": "Main Street",
      "addr_housenumber": "211"
    },
    {
      "id": 102652,
      "geometry": "POINT (-73.785108 43.080601)",
      "poi_name": "Hometown Pizza",
      "osm_id": 6689750702,
      "amenity": "fast_food",
      "cuisine": "pizza",
      "website": "https://www.hometownpizzaterryville.com/",
      "phone": "860-583-2555",
      "drive_through": "no",
      "addr_state": "CT",
      "addr_city": "Terryville",
      "addr_postcode": "06786",
      "addr_street": "Main Street",
      "addr_housenumber": "124"
    },
    {
      "id": 103195,
      "geometry": "POINT (-73.785108 43.080601)",
      "poi_name": "Five Guys",
      "osm_id": 8489826744,
      "amenity": "fast_food",
      "cuisine": "burger",
      "takeaway": "yes",
      "official_name": "Five Guys Burgers and Fries"
    },
    {
      "id": 103222,
      "geometry": "POINT (-73.785108 43.080601)",
      "poi_name": "Dunkin' Donuts",
      "osm_id": 8491489148,
      "amenity": "fast_food",
      "cuisine": "donut;coffee_shop",
      "takeaway": "yes"
    },
    {
      "id": 98219,
      "geometry": "POINT (-73.785108 43.080601)",
      "poi_name": "Subway",
      "osm_id": 6511958495,
      "amenity": "fast_food",
      "cuisine": "sandwich",
      "takeaway": "yes"
    },
    {
      "id": 103255,
      "geometry": "POINT (-73.785108 43.080601)",
      "poi_name": "Golden Krust",
      "osm_id": 8493046923,
      "amenity": "fast_food",
      "cuisine": "caribbean",
      "website": "https://www.goldenkrust.com/location",
      "phone": "+1 860 724 7983",
      "takeaway": "yes",
      "addr_state": "CT",
      "addr_city": "Hartford",
      "addr_postcode": "06112",
      "addr_street": "Albany Avenue",
      "addr_housenumber": "1170"
    },
    {
      "id": 103624,
      "geometry": "POINT (-73.785108 43.080601)",
      "poi_name": "Domino's",
      "osm_id": 8514929841,
      "amenity": "fast_food",
      "cuisine": "pizza",
      "operator": "Domino's Pizza, Inc.",
      "website": "https://www.dominos.com/en/pages/order/#!/locations/search/?type=Locations&c=06114",
      "phone": "+1 860 548 0050",
      "takeaway": "yes",
      "drive_through": "no",
      "addr_state": "CT",
      "addr_city": "Hartford",
      "addr_postcode": "06114",
      "addr_street": "Maple Avenue",
      "addr_housenumber": "738"
    },
    {
      "id": 104018,
      "geometry": "POINT (-73.785108 43.080601)",
      "poi_name": "Dunkin'",
      "osm_id": 8540126730,
      "amenity": "fast_food",
      "cuisine": "donut;coffee_shop",
      "takeaway": "yes"
    },
    {
      "id": 104321,
      "geometry": "POINT (-73.785108 43.080601)",
      "poi_name": "Dunkin' Donuts",
      "osm_id": 8564200578,
      "amenity": "fast_food",
      "cuisine": "donut;coffee_shop",
      "takeaway": "yes"
    },
    {
      "id": 104923,
      "geometry": "POINT (-73.785108 43.080601)",
      "poi_name": "Dunkin'",
      "osm_id": 8591736850,
      "amenity": "fast_food",
      "cuisine": "donut;coffee_shop",
      "takeaway": "yes",
      "drive_through": "yes"
    },
    {
      "id": 104927,
      "geometry": "POINT (-73.785108 43.080601)",
      "poi_name": "Dunkin' Donuts",
      "osm_id": 8591810086,
      "amenity": "fast_food",
      "cuisine": "donut;coffee_shop",
      "takeaway": "yes"
    },
    {
      "id": 104928,
      "geometry": "POINT (-73.785108 43.080601)",
      "poi_name": "Burger King",
      "osm_id": 8591810088,
      "amenity": "fast_food",
      "cuisine": "burger",
      "takeaway": "yes"
    },
    {
      "id": 104929,
      "geometry": "POINT (-73.785108 43.080601)",
      "poi_name": "McDonald's",
      "osm_id": 8591810089,
      "amenity": "fast_food",
      "cuisine": "burger",
      "website": "https://www.mcdonalds.com/us/en-us/location/ma/easthampton/121-n-hampton-st/6279.html",
      "takeaway": "yes"
    },
    {
      "id": 105632,
      "geometry": "POINT (-73.785108 43.080601)",
      "poi_name": "Dunkin'",
      "osm_id": 8637887272,
      "amenity": "fast_food",
      "cuisine": "donut;coffee_shop",
      "takeaway": "yes"
    },
    {
      "id": 106023,
      "geometry": "POINT (-73.785108 43.080601)",
      "poi_name": "Dunkin'",
      "osm_id": 8660330823,
      "amenity": "fast_food",
      "cuisine": "donut;coffee_shop",
      "phone": "+1 508 829 9818",
      "takeaway": "yes",
      "drive_through": "yes",
      "addr_state": "MA",
      "addr_city": "Holden",
      "addr_postcode": "01520",
      "addr_street": "Shrewsbury Street",
      "addr_housenumber": "5"
    },
    {
      "id": 106024,
      "geometry": "POINT (-73.785108 43.080601)",
      "poi_name": "Dunkin'",
      "osm_id": 8660330824,
      "amenity": "fast_food",
      "cuisine": "donut;coffee_shop",
      "opening_hours": "06:00-14:00",
      "website": "https://locations.dunkindonuts.com/en/ma/holden/1175-main-st/331102",
      "phone": "+1-508-829-5506",
      "takeaway": "yes",
      "drive_through": "no",
      "addr_state": "MA",
      "addr_city": "Holden",
      "addr_postcode": "01520",
      "addr_street": "Main Street",
      "addr_housenumber": "1175"
    },
    {
      "id": 106026,
      "geometry": "POINT (-73.785108 43.080601)",
      "poi_name": "McDonald's",
      "osm_id": 8660330827,
      "amenity": "fast_food",
      "cuisine": "burger",
      "website": "https://www.mcdonalds.com/us/en-us/location/ma/holden/638-s-main-st/4753.html",
      "phone": "+1 508 829 5615",
      "takeaway": "yes",
      "addr_state": "MA",
      "addr_city": "Holden",
      "addr_postcode": "01520",
      "addr_street": "Main Street",
      "addr_housenumber": "638"
    },
    {
      "id": 107169,
      "geometry": "POINT (-73.785108 43.080601)",
      "poi_name": "McDonald's",
      "osm_id": 3540350094,
      "amenity": "fast_food",
      "cuisine": "burger",
      "takeaway": "yes",
      "drive_through": "yes"
    },
    {
      "id": 110853,
      "geometry": "POINT (-73.785108 43.080601)",
      "poi_name": "Subway",
      "osm_id": 3720826056,
      "amenity": "fast_food",
      "cuisine": "sandwich",
      "takeaway": "yes",
      "addr_street": "New Hartford Road"
    },
    {
      "id": 108208,
      "geometry": "POINT (-73.785108 43.080601)",
      "poi_name": "Primo Too",
      "osm_id": 3603011064,
      "amenity": "fast_food",
      "cuisine": "pizza",
      "opening_hours": "Mo-Su 11:00-21:45",
      "website": "https://www.primotoo.com/",
      "drive_through": "no",
      "delivery": "yes"
    },
    {
      "id": 108148,
      "geometry": "POINT (-73.785108 43.080601)",
      "poi_name": "McDonald's",
      "osm_id": 3598631483,
      "amenity": "fast_food",
      "cuisine": "burger",
      "website": "https://www.mcdonalds.com/us/en-us/location/ma/blandford/mass-tpke--i-90-west-service-plaza/25929.html",
      "takeaway": "yes",
      "drive_through": "yes"
    },
    {
      "id": 108185,
      "geometry": "POINT (-73.785108 43.080601)",
      "poi_name": "Antonio's Pizza",
      "osm_id": 3600925642,
      "amenity": "fast_food",
      "cuisine": "pizza",
      "website": "https://antoniospizza.com/",
      "phone": "+1 413 253 0808",
      "drive_through": "no",
      "outdoor_seating": "yes",
      "delivery": "yes",
      "addr_state": "MA",
      "addr_city": "Amherst",
      "addr_postcode": "01002",
      "addr_street": "North Pleasant Street",
      "addr_housenumber": "31"
    },
    {
      "id": 108968,
      "geometry": "POINT (-73.785108 43.080601)",
      "poi_name": "Bruno's",
      "osm_id": 3643135990,
      "amenity": "fast_food",
      "cuisine": "pizza",
      "opening_hours": "Mo-Su 11:00-23:00",
      "website": "http://brunosamherst.com/",
      "phone": "+1 413 256 0222",
      "takeaway": "only",
      "drive_through": "no",
      "delivery": "yes",
      "addr_state": "MA",
      "addr_city": "Amherst",
      "addr_postcode": "01002",
      "addr_street": "Main Street",
      "addr_housenumber": "363"
    },
    {
      "id": 108991,
      "geometry": "POINT (-73.785108 43.080601)",
      "poi_name": "Burger King",
      "osm_id": 3644649004,
      "amenity": "fast_food",
      "cuisine": "burger",
      "takeaway": "yes"
    },
    {
      "id": 108992,
      "geometry": "POINT (-73.785108 43.080601)",
      "poi_name": "Dunkin'",
      "osm_id": 3644649033,
      "amenity": "fast_food",
      "cuisine": "donut;coffee_shop",
      "opening_hours": "Mo-Fr 05:00-18:00; Sa-Su off",
      "takeaway": "yes"
    },
    {
      "id": 108993,
      "geometry": "POINT (-73.785108 43.080601)",
      "poi_name": "Subway",
      "osm_id": 3644649190,
      "amenity": "fast_food",
      "cuisine": "sandwich",
      "takeaway": "yes"
    },
    {
      "id": 112207,
      "geometry": "POINT (-73.785108 43.080601)",
      "poi_name": "McDonald's",
      "osm_id": 3783289962,
      "amenity": "fast_food",
      "cuisine": "burger",
      "takeaway": "yes",
      "drive_through": "yes"
    },
    {
      "id": 111580,
      "geometry": "POINT (-73.785108 43.080601)",
      "poi_name": "Sonic",
      "osm_id": 3755164381,
      "amenity": "fast_food",
      "cuisine": "burger",
      "opening_hours": "Su-Th 09:00-23:00; Fr,Sa 09:00-24:00",
      "website": "https://locations.sonicdrivein.com/ma/springfield/1057-boston-road.html",
      "phone": "+1 413 304 2061",
      "takeaway": "yes",
      "addr_state": "MA",
      "addr_city": "Springfield",
      "addr_postcode": "01119",
      "addr_street": "Boston Road",
      "addr_housenumber": "1057"
    },
    {
      "id": 111600,
      "geometry": "POINT (-73.785108 43.080601)",
      "poi_name": "Dunkin'",
      "osm_id": 3756537981,
      "amenity": "fast_food",
      "cuisine": "donut;coffee_shop",
      "takeaway": "yes",
      "addr_state": "MA",
      "addr_city": "Springfield (MA)",
      "addr_street": "Cottage Street"
    },
    {
      "id": 111651,
      "geometry": "POINT (-73.785108 43.080601)",
      "poi_name": "Dunkin'",
      "osm_id": 3758268790,
      "amenity": "fast_food",
      "cuisine": "donut;coffee_shop",
      "takeaway": "yes"
    },
    {
      "id": 115653,
      "geometry": "POINT (-73.785108 43.080601)",
      "poi_name": "KFC",
      "osm_id": 8908364631,
      "amenity": "fast_food",
      "cuisine": "chicken",
      "website": "https://locations.kfc.com/ct/east-windsor/41-prospect-hill-rd-029318",
      "takeaway": "yes",
      "drive_through": "yes"
    },
    {
      "id": 115377,
      "geometry": "POINT (-73.785108 43.080601)",
      "poi_name": "Arby's",
      "osm_id": 8891416436,
      "amenity": "fast_food",
      "cuisine": "sandwich",
      "takeaway": "yes",
      "addr_state": "CT",
      "addr_city": "Southington",
      "addr_postcode": "06479",
      "addr_street": "Meriden-Waterbury Turnpike",
      "addr_housenumber": "869"
    },
    {
      "id": 116287,
      "geometry": "POINT (-73.785108 43.080601)",
      "poi_name": "Dunkin'",
      "osm_id": 8934690214,
      "amenity": "fast_food",
      "cuisine": "donut;coffee_shop",
      "takeaway": "yes",
      "addr_state": "CT",
      "addr_city": "East Hartford",
      "addr_postcode": "06118",
      "addr_street": "Silver Lane",
      "addr_housenumber": "364"
    },
    {
      "id": 116213,
      "geometry": "POINT (-73.785108 43.080601)",
      "poi_name": "Honey Baked Ham",
      "osm_id": 8931572351,
      "amenity": "fast_food",
      "cuisine": "american",
      "shop": "butcher",
      "takeaway": "yes",
      "official_name": "The Honey Baked Ham Company",
      "addr_state": "CT",
      "addr_city": "Newington",
      "addr_postcode": "06111",
      "addr_street": "Berlin Turnpike",
      "addr_housenumber": "2657"
    },
    {
      "id": 127300,
      "geometry": "POINT (-73.785108 43.080601)",
      "poi_name": "Whole Deli",
      "osm_id": 8051085177,
      "amenity": "fast_food",
      "cuisine": "sandwich",
      "website": "https://www.wholedeliglastonbury.com",
      "phone": "+1 860 368 2660",
      "addr_state": "CT",
      "addr_city": "Glastonbury",
      "addr_postcode": "06033",
      "addr_street": "New London Turnpike",
      "addr_housenumber": "357"
    },
    {
      "id": 117348,
      "geometry": "POINT (-73.785108 43.080601)",
      "poi_name": "McDonald's",
      "osm_id": 8989152454,
      "amenity": "fast_food",
      "cuisine": "burger",
      "takeaway": "yes"
    },
    {
      "id": 121849,
      "geometry": "POINT (-73.785108 43.080601)",
      "poi_name": "Off The Eaten Path",
      "osm_id": 6780189113,
      "amenity": "fast_food",
      "cuisine": "sandwich"
    },
    {
      "id": 121850,
      "geometry": "POINT (-73.785108 43.080601)",
      "poi_name": "Northwest Grab & Go",
      "osm_id": 6780189116,
      "amenity": "fast_food",
      "cuisine": "sandwich"
    },
    {
      "id": 121851,
      "geometry": "POINT (-73.785108 43.080601)",
      "poi_name": "Putnam Grab & Go",
      "osm_id": 6780189117,
      "amenity": "fast_food",
      "cuisine": "sandwich"
    },
    {
      "id": 121852,
      "geometry": "POINT (-73.785108 43.080601)",
      "poi_name": "South Grab & Go",
      "osm_id": 6780189118,
      "amenity": "fast_food",
      "cuisine": "sandwich"
    },
    {
      "id": 122320,
      "geometry": "POINT (-73.785108 43.080601)",
      "poi_name": "Dunkin'",
      "osm_id": 6796418032,
      "amenity": "fast_food",
      "cuisine": "donut;coffee_shop",
      "takeaway": "yes"
    },
    {
      "id": 124864,
      "geometry": "POINT (-73.785108 43.080601)",
      "poi_name": "Newton Square Pizza",
      "osm_id": 6936269745,
      "amenity": "fast_food",
      "cuisine": "pizza",
      "website": "https://newtonsquarepizza.com/",
      "phone": "+1 508-752-9907",
      "delivery": "yes",
      "addr_street": "Pleasant Street",
      "addr_housenumber": "712"
    },
    {
      "id": 125228,
      "geometry": "POINT (-73.785108 43.080601)",
      "poi_name": "Pretzelmaker",
      "osm_id": 6950367226,
      "amenity": "fast_food",
      "cuisine": "pretzel",
      "takeaway": "yes"
    },
    {
      "id": 117477,
      "geometry": "POINT (-73.785108 43.080601)",
      "poi_name": "Dunkin'",
      "osm_id": 8996634308,
      "amenity": "fast_food",
      "cuisine": "donut;coffee_shop",
      "takeaway": "yes",
      "drive_through": "no"
    },
    {
      "id": 119663,
      "geometry": "POINT (-73.785108 43.080601)",
      "poi_name": "Wendy's",
      "osm_id": 9113127891,
      "amenity": "fast_food",
      "cuisine": "burger",
      "website": "https://locations.wendys.com/united-states/ct/vernon-rockville/145-talcottville-road",
      "takeaway": "yes",
      "addr_state": "CT",
      "addr_city": "Vernon",
      "addr_postcode": "06066",
      "addr_street": "Talcottville Road",
      "addr_housenumber": "145"
    },
    {
      "id": 121113,
      "geometry": "POINT (-73.785108 43.080601)",
      "poi_name": "Honey Dew",
      "osm_id": 6743220757,
      "amenity": "fast_food",
      "cuisine": "donut"
    },
    {
      "id": 121114,
      "geometry": "POINT (-73.785108 43.080601)",
      "poi_name": "Panera Bread",
      "osm_id": 6743220761,
      "amenity": "fast_food",
      "cuisine": "sandwich;bakery",
      "opening_hours": "Mo-Th 06:30-21:30; Fr-Sa 06:30-22:00; Su 06:30-21:00",
      "takeaway": "yes",
      "drive_through": "no",
      "addr_state": "MA",
      "addr_city": "Worcester",
      "addr_postcode": "01606",
      "addr_street": "Gold Star Boulevard",
      "addr_housenumber": "120"
    },
    {
      "id": 121115,
      "geometry": "POINT (-73.785108 43.080601)",
      "poi_name": "Dunkin'",
      "osm_id": 6743220762,
      "amenity": "fast_food",
      "cuisine": "donut;coffee_shop",
      "takeaway": "yes",
      "drive_through": "yes",
      "addr_state": "MA",
      "addr_city": "Worcester",
      "addr_postcode": "01606",
      "addr_street": "West Boylston Street",
      "addr_housenumber": "67"
    },
    {
      "id": 121116,
      "geometry": "POINT (-73.785108 43.080601)",
      "poi_name": "Dunkin'",
      "osm_id": 6743220766,
      "amenity": "fast_food",
      "cuisine": "donut;coffee_shop",
      "opening_hours": "24/7",
      "phone": "+1 508-363-4901",
      "takeaway": "yes",
      "drive_through": "yes",
      "addr_state": "MA",
      "addr_city": "Worcester",
      "addr_postcode": "01605",
      "addr_street": "Grove Street",
      "addr_housenumber": "340"
    },
    {
      "id": 125502,
      "geometry": "POINT (-73.785108 43.080601)",
      "poi_name": "BurgerIM",
      "osm_id": 6961591787,
      "amenity": "fast_food",
      "cuisine": "burger",
      "takeaway": "yes"
    },
    {
      "id": 125497,
      "geometry": "POINT (-73.785108 43.080601)",
      "poi_name": "Pretzelmaker",
      "osm_id": 6961580787,
      "amenity": "fast_food",
      "cuisine": "pretzel",
      "takeaway": "yes",
      "delivery": "no"
    },
    {
      "id": 125498,
      "geometry": "POINT (-73.785108 43.080601)",
      "poi_name": "Subway",
      "osm_id": 6961581898,
      "amenity": "fast_food",
      "cuisine": "sandwich",
      "takeaway": "yes"
    },
    {
      "id": 125499,
      "geometry": "POINT (-73.785108 43.080601)",
      "poi_name": "Charleys Philly Steaks",
      "osm_id": 6961581899,
      "amenity": "fast_food",
      "cuisine": "sandwich",
      "takeaway": "yes"
    },
    {
      "id": 125501,
      "geometry": "POINT (-73.785108 43.080601)",
      "poi_name": "Pretzelmaker",
      "osm_id": 6961581901,
      "amenity": "fast_food",
      "cuisine": "pretzel",
      "takeaway": "yes"
    },
    {
      "id": 126386,
      "geometry": "POINT (-73.785108 43.080601)",
      "poi_name": "Panera Bread",
      "osm_id": 6997252829,
      "amenity": "fast_food",
      "cuisine": "sandwich;bakery",
      "website": "https://www.panerabread.com/en-us/cafe/locations/ma/sturbridge",
      "phone": "+1-774-922-1860",
      "takeaway": "yes",
      "drive_through": "no",
      "addr_state": "MA",
      "addr_city": "Sturbridge",
      "addr_postcode": "01566",
      "addr_street": "New Boston Road",
      "addr_housenumber": "21"
    },
    {
      "id": 128157,
      "geometry": "POINT (-73.785108 43.080601)",
      "poi_name": "Radwick's",
      "osm_id": 8127278976,
      "amenity": "fast_food",
      "cuisine": "sandwich"
    },
    {
      "id": 131564,
      "geometry": "POINT (-73.785108 43.080601)",
      "poi_name": "D'Angelo Grilled Sandwiches",
      "osm_id": 9921326341,
      "amenity": "fast_food",
      "cuisine": "sandwich",
      "takeaway": "yes"
    },
    {
      "id": 130643,
      "geometry": "POINT (-73.785108 43.080601)",
      "poi_name": "Popeyes",
      "osm_id": 9881232407,
      "amenity": "fast_food",
      "cuisine": "chicken",
      "takeaway": "yes",
      "official_name": "Popeyes Louisiana Kitchen",
      "addr_state": "CT",
      "addr_city": "Manchester",
      "addr_postcode": "06040",
      "addr_street": "Spencer Street",
      "addr_housenumber": "199"
    },
    {
      "id": 130644,
      "geometry": "POINT (-73.785108 43.080601)",
      "poi_name": "Subway",
      "osm_id": 9881244434,
      "amenity": "fast_food",
      "cuisine": "sandwich",
      "website": "https://restaurants.subway.com/united-states/ct/manchester/172-deming-road",
      "takeaway": "yes",
      "drive_through": "no",
      "addr_state": "CT",
      "addr_city": "Manchester",
      "addr_postcode": "06042",
      "addr_street": "Deming Street",
      "addr_housenumber": "172"
    },
    {
      "id": 130645,
      "geometry": "POINT (-73.785108 43.080601)",
      "poi_name": "Fresh Monkee",
      "osm_id": 9881265618,
      "amenity": "fast_food",
      "cuisine": "juice",
      "addr_state": "CT",
      "addr_city": "Manchester",
      "addr_postcode": "06042",
      "addr_street": "Pleasant Valley Road",
      "addr_housenumber": "1540"
    },
    {
      "id": 130647,
      "geometry": "POINT (-73.785108 43.080601)",
      "poi_name": "Domino's",
      "osm_id": 9881345064,
      "amenity": "fast_food",
      "cuisine": "pizza",
      "website": "https://www.dominos.com",
      "takeaway": "yes",
      "addr_state": "CT",
      "addr_city": "Manchester",
      "addr_postcode": "06042",
      "addr_street": "Main Street",
      "addr_housenumber": "23"
    },
    {
      "id": 131447,
      "geometry": "POINT (-73.785108 43.080601)",
      "poi_name": "Dunkin'",
      "osm_id": 9917592994,
      "amenity": "fast_food",
      "cuisine": "donut;coffee_shop",
      "takeaway": "yes"
    },
    {
      "id": 131452,
      "geometry": "POINT (-73.785108 43.080601)",
      "poi_name": "Ready Set Pizza",
      "osm_id": 9917677315,
      "amenity": "fast_food",
      "cuisine": "pizza"
    },
    {
      "id": 132547,
      "geometry": "POINT (-73.785108 43.080601)",
      "poi_name": "Subway",
      "osm_id": 9958222559,
      "amenity": "fast_food",
      "cuisine": "sandwich",
      "takeaway": "yes"
    },
    {
      "id": 132999,
      "geometry": "POINT (-73.785108 43.080601)",
      "poi_name": "Subway",
      "osm_id": 9975914487,
      "amenity": "fast_food",
      "cuisine": "sandwich",
      "website": "https://restaurants.subway.com/united-states/ct/south-windsor/1006-sullivan-ave",
      "takeaway": "yes",
      "addr_state": "CT",
      "addr_city": "South Windsor",
      "addr_postcode": "06074",
      "addr_street": "Sullivan Avenue",
      "addr_housenumber": "1006"
    },
    {
      "id": 133370,
      "geometry": "POINT (-73.785108 43.080601)",
      "poi_name": "Domino's",
      "osm_id": 9991531597,
      "amenity": "fast_food",
      "cuisine": "pizza",
      "takeaway": "yes",
      "addr_state": "CT",
      "addr_city": "Bloomfield",
      "addr_postcode": "06002",
      "addr_street": "Park Avenue",
      "addr_housenumber": "699"
    },
    {
      "id": 133374,
      "geometry": "POINT (-73.785108 43.080601)",
      "poi_name": "Domino's",
      "osm_id": 9991559355,
      "amenity": "fast_food",
      "cuisine": "pizza",
      "takeaway": "yes",
      "addr_state": "CT",
      "addr_city": "East Hartford",
      "addr_postcode": "06118",
      "addr_street": "Silver Lane",
      "addr_housenumber": "775"
    },
    {
      "id": 133375,
      "geometry": "POINT (-73.785108 43.080601)",
      "poi_name": "Domino's",
      "osm_id": 9991565213,
      "amenity": "fast_food",
      "cuisine": "pizza",
      "website": "https://www.dominos.com",
      "takeaway": "yes",
      "addr_state": "CT",
      "addr_city": "Enfield",
      "addr_postcode": "06082",
      "addr_street": "Enfield Street",
      "addr_housenumber": "920"
    },
    {
      "id": 133376,
      "geometry": "POINT (-73.785108 43.080601)",
      "poi_name": "Domino's",
      "osm_id": 9991580546,
      "amenity": "fast_food",
      "cuisine": "pizza",
      "takeaway": "yes",
      "addr_state": "CT",
      "addr_city": "East Granby",
      "addr_postcode": "06026",
      "addr_street": "Rainbow Road",
      "addr_housenumber": "52"
    },
    {
      "id": 133378,
      "geometry": "POINT (-73.785108 43.080601)",
      "poi_name": "Domino's",
      "osm_id": 9991593531,
      "amenity": "fast_food",
      "cuisine": "pizza",
      "website": "https://www.dominos.com",
      "takeaway": "yes",
      "addr_state": "CT",
      "addr_city": "West Hartford",
      "addr_postcode": "06110",
      "addr_street": "New Britain Avenue",
      "addr_housenumber": "1143C"
    },
    {
      "id": 134692,
      "geometry": "POINT (-73.785108 43.080601)",
      "poi_name": "Dunkin'",
      "osm_id": 11483121055,
      "amenity": "fast_food",
      "cuisine": "donut;coffee_shop",
      "takeaway": "yes"
    },
    {
      "id": 133669,
      "geometry": "POINT (-73.785108 43.080601)",
      "poi_name": "Taco Bell",
      "osm_id": 10003271470,
      "amenity": "fast_food",
      "cuisine": "tex-mex",
      "website": "https://locations.tacobell.com/ct/east-windsor/41-prospect-hill-rd-.html",
      "takeaway": "yes",
      "addr_state": "CT",
      "addr_city": "East Windsor",
      "addr_postcode": "06088",
      "addr_street": "Prospect Hill Road",
      "addr_housenumber": "43"
    },
    {
      "id": 133598,
      "geometry": "POINT (-73.785108 43.080601)",
      "poi_name": "Moe's Southwest Grill",
      "osm_id": 10000269860,
      "amenity": "fast_food",
      "cuisine": "mexican",
      "takeaway": "yes",
      "addr_state": "CT",
      "addr_city": "South Windsor",
      "addr_postcode": "06074",
      "addr_street": "Evergreen Way",
      "addr_housenumber": "535"
    },
    {
      "id": 134625,
      "geometry": "POINT (-73.785108 43.080601)",
      "poi_name": "Angelina's Submarine Shops",
      "osm_id": 11479293150,
      "amenity": "fast_food",
      "addr_state": "MA",
      "addr_city": "Pittsfield",
      "addr_street": "Elm Street",
      "addr_housenumber": "133"
    },
    {
      "id": 134693,
      "geometry": "POINT (-73.785108 43.080601)",
      "poi_name": "Subway",
      "osm_id": 11483121056,
      "amenity": "fast_food",
      "cuisine": "sandwich",
      "takeaway": "yes"
    },
    {
      "id": 134701,
      "geometry": "POINT (-73.785108 43.080601)",
      "poi_name": "Domino's",
      "osm_id": 11483338528,
      "amenity": "fast_food",
      "cuisine": "pizza",
      "takeaway": "yes"
    },
    {
      "id": 139169,
      "geometry": "POINT (-73.785108 43.080601)",
      "poi_name": "Chipotle",
      "osm_id": 6185190885,
      "amenity": "fast_food",
      "cuisine": "mexican",
      "takeaway": "yes",
      "official_name": "Chipotle Mexican Grill"
    },
    {
      "id": 135141,
      "geometry": "POINT (-73.785108 43.080601)",
      "poi_name": "Subway",
      "osm_id": 11505382698,
      "amenity": "fast_food",
      "cuisine": "sandwich",
      "takeaway": "yes",
      "addr_state": "MA",
      "addr_city": "Agawam",
      "addr_postcode": "01001",
      "addr_street": "Suffield Street",
      "addr_housenumber": "840"
    },
    {
      "id": 138237,
      "geometry": "POINT (-73.785108 43.080601)",
      "poi_name": "McDonald's",
      "osm_id": 6138529626,
      "amenity": "fast_food",
      "cuisine": "burger",
      "website": "https://www.mcdonalds.com/us/en-us/location/ct/unionville/1799-farmington-ave/32044.html",
      "takeaway": "yes"
    },
    {
      "id": 138955,
      "geometry": "POINT (-73.785108 43.080601)",
      "poi_name": "Zack's Burgers and Shakes",
      "osm_id": 6175986355,
      "amenity": "fast_food",
      "cuisine": "burger"
    },
    {
      "id": 139716,
      "geometry": "POINT (-73.785108 43.080601)",
      "poi_name": "Dunkin'",
      "osm_id": 6213038180,
      "amenity": "fast_food",
      "cuisine": "donut;coffee_shop",
      "takeaway": "yes"
    },
    {
      "id": 140203,
      "geometry": "POINT (-73.785108 43.080601)",
      "poi_name": "Popeyes",
      "osm_id": 6235864738,
      "amenity": "fast_food",
      "cuisine": "chicken",
      "takeaway": "yes",
      "official_name": "Popeyes Louisiana Kitchen"
    },
    {
      "id": 139715,
      "geometry": "POINT (-73.785108 43.080601)",
      "poi_name": "Nardelli's",
      "osm_id": 6213038176,
      "amenity": "fast_food",
      "cuisine": "sandwich"
    },
    {
      "id": 140007,
      "geometry": "POINT (-73.785108 43.080601)",
      "poi_name": "Panera Bread",
      "osm_id": 6225777781,
      "amenity": "fast_food",
      "cuisine": "sandwich"
    },
    {
      "id": 157461,
      "geometry": "POINT (-73.785108 43.080601)",
      "poi_name": "China Lantern",
      "osm_id": 4709355652,
      "amenity": "fast_food",
      "cuisine": "chinese"
    },
    {
      "id": 140258,
      "geometry": "POINT (-73.785108 43.080601)",
      "poi_name": "Honey Baked Ham",
      "osm_id": 6237878736,
      "amenity": "fast_food",
      "cuisine": "american",
      "takeaway": "yes",
      "official_name": "The Honey Baked Ham Company"
    },
    {
      "id": 143998,
      "geometry": "POINT (-73.785108 43.080601)",
      "poi_name": "Dunkin'",
      "osm_id": 6358539354,
      "amenity": "fast_food",
      "cuisine": "donut;coffee_shop",
      "takeaway": "yes",
      "addr_state": "CT",
      "addr_city": "Hartford",
      "addr_postcode": "06103",
      "addr_street": "Trumbull Street",
      "addr_housenumber": "242"
    },
    {
      "id": 144022,
      "geometry": "POINT (-73.785108 43.080601)",
      "poi_name": "Dunkin' Donuts",
      "osm_id": 6359452352,
      "amenity": "fast_food",
      "cuisine": "donut"
    },
    {
      "id": 144762,
      "geometry": "POINT (-73.785108 43.080601)",
      "poi_name": "Hot Head Burritos",
      "osm_id": 7285149013,
      "amenity": "fast_food",
      "cuisine": "mexican",
      "opening_hours": "Su 11:00-20:00; Mo-Sa 10:30-20:30",
      "website": "https://www.hotheadburritos.com/locations",
      "phone": "+1 (413) 570-4872",
      "takeaway": "yes",
      "drive_through": "no",
      "addr_state": "MA",
      "addr_city": "Northampton",
      "addr_postcode": "01060",
      "addr_street": "Damon Road",
      "addr_housenumber": "55"
    },
    {
      "id": 141470,
      "geometry": "POINT (-73.785108 43.080601)",
      "poi_name": "Dunkin' Donuts",
      "osm_id": 6285300338,
      "amenity": "fast_food",
      "cuisine": "donut;coffee",
      "opening_hours": "Mo-Sa 09:00-09:00, Su 09:00-07:00",
      "takeaway": "yes"
    },
    {
      "id": 143851,
      "geometry": "POINT (-73.785108 43.080601)",
      "poi_name": "Dunkin'",
      "osm_id": 6353342692,
      "amenity": "fast_food",
      "cuisine": "donut;coffee_shop",
      "takeaway": "yes"
    },
    {
      "id": 145458,
      "geometry": "POINT (-73.785108 43.080601)",
      "poi_name": "Dunkin'",
      "osm_id": 7359776276,
      "amenity": "fast_food",
      "cuisine": "donut;coffee_shop",
      "takeaway": "yes"
    },
    {
      "id": 145870,
      "geometry": "POINT (-73.785108 43.080601)",
      "poi_name": "Country Snack Bar",
      "osm_id": 7393820263,
      "amenity": "fast_food"
    },
    {
      "id": 146507,
      "geometry": "POINT (-73.785108 43.080601)",
      "poi_name": "Krispy Krunchy Chicken",
      "osm_id": 7448002874,
      "amenity": "fast_food",
      "cuisine": "chicken",
      "takeaway": "yes",
      "addr_state": "CT",
      "addr_city": "Meriden",
      "addr_postcode": "06450",
      "addr_street": "State Street",
      "addr_housenumber": "161"
    },
    {
      "id": 152121,
      "geometry": "POINT (-73.785108 43.080601)",
      "poi_name": "Subway",
      "osm_id": 4129070626,
      "amenity": "fast_food",
      "cuisine": "sandwich",
      "takeaway": "yes",
      "addr_state": "MA",
      "addr_city": "Williamstown",
      "addr_postcode": "01267",
      "addr_street": "Main Street",
      "addr_housenumber": "384"
    },
    {
      "id": 152548,
      "geometry": "POINT (-73.785108 43.080601)",
      "poi_name": "Dunkin'",
      "osm_id": 4149456010,
      "amenity": "fast_food",
      "cuisine": "donut;coffee_shop",
      "takeaway": "yes"
    },
    {
      "id": 156069,
      "geometry": "POINT (-73.785108 43.080601)",
      "poi_name": "Dunkin' Donuts",
      "osm_id": 4638917166,
      "amenity": "fast_food",
      "cuisine": "donut"
    },
    {
      "id": 157766,
      "geometry": "POINT (-73.785108 43.080601)",
      "poi_name": "Subway",
      "osm_id": 4725049029,
      "amenity": "fast_food",
      "cuisine": "sandwich",
      "takeaway": "yes"
    },
    {
      "id": 160113,
      "geometry": "POINT (-73.785108 43.080601)",
      "poi_name": "Dunkin'",
      "osm_id": 4820407134,
      "amenity": "fast_food",
      "cuisine": "donut;coffee_shop",
      "opening_hours": "Fr-We 05:00-24:00; Th 04:00-14:00",
      "website": "https://locations.dunkindonuts.com/en/ct/wethersfield/416-silas-dean-hwy/342020",
      "internet_access": "wlan",
      "phone": "+1 860 436 4894",
      "takeaway": "yes",
      "outdoor_seating": "no",
      "addr_state": "CT",
      "addr_city": "Wethersfield",
      "addr_postcode": "06109",
      "addr_street": "Silas Deane Highway",
      "addr_housenumber": "416"
    },
    {
      "id": 158515,
      "geometry": "POINT (-73.785108 43.080601)",
      "poi_name": "Domino's",
      "osm_id": 4751486403,
      "amenity": "fast_food",
      "cuisine": "pizza",
      "takeaway": "yes",
      "drive_through": "no",
      "delivery": "yes",
      "addr_state": "MA",
      "addr_city": "Hadley",
      "addr_postcode": "01035",
      "addr_street": "Russell Street",
      "addr_housenumber": "459"
    },
    {
      "id": 158722,
      "geometry": "POINT (-73.785108 43.080601)",
      "poi_name": "Dunkin' Donuts",
      "osm_id": 4759779267,
      "amenity": "fast_food",
      "cuisine": "donut;coffee_shop",
      "takeaway": "yes",
      "addr_state": "MA",
      "addr_city": "Sunderland",
      "addr_street": "Amherst Road",
      "addr_housenumber": "303"
    },
    {
      "id": 159162,
      "geometry": "POINT (-73.785108 43.080601)",
      "poi_name": "Dunkin' Donuts",
      "osm_id": 4781337841,
      "amenity": "fast_food",
      "cuisine": "donut;coffee",
      "opening_hours": "24/7",
      "internet_access": "yes",
      "takeaway": "yes",
      "addr_state": "MA",
      "addr_city": "Chicopee",
      "addr_postcode": "01020",
      "addr_street": "Burnett Road",
      "addr_housenumber": "470"
    },
    {
      "id": 160114,
      "geometry": "POINT (-73.785108 43.080601)",
      "poi_name": "Donut Station",
      "osm_id": 4820407135,
      "amenity": "fast_food",
      "cuisine": "donut",
      "phone": "+1 860 500 7174",
      "addr_state": "CT",
      "addr_city": "Wethersfield",
      "addr_postcode": "06109",
      "addr_street": "Silas Deane Highway",
      "addr_housenumber": "486"
    },
    {
      "id": 160116,
      "geometry": "POINT (-73.785108 43.080601)",
      "poi_name": "Dunkin'",
      "osm_id": 4820449710,
      "amenity": "fast_food",
      "cuisine": "donut;coffee_shop",
      "wheelchair": "limited",
      "opening_hours": "04:00-22:00",
      "website": "https://locations.dunkindonuts.com/en/ct/wethersfield/225-silas-deane-hwy/300512",
      "internet_access": "yes",
      "phone": "+1 860 563 5926",
      "takeaway": "yes",
      "outdoor_seating": "no",
      "addr_state": "CT",
      "addr_city": "Wethersfield",
      "addr_postcode": "06109",
      "addr_street": "Silas Deane Highway",
      "addr_housenumber": "225"
    },
    {
      "id": 162891,
      "geometry": "POINT (-73.785108 43.080601)",
      "poi_name": "Popeyes",
      "osm_id": 9388660171,
      "amenity": "fast_food",
      "cuisine": "chicken",
      "website": "https://locations.popeyes.com/ct/wethersfield/150-silas-deane-highway",
      "phone": "+1 860 785 8327",
      "takeaway": "yes",
      "official_name": "Popeyes Louisiana Kitchen",
      "addr_state": "CT",
      "addr_city": "Wethersfield",
      "addr_postcode": "06109",
      "addr_street": "Silas Deane Highway",
      "addr_housenumber": "150"
    },
    {
      "id": 162900,
      "geometry": "POINT (-73.785108 43.080601)",
      "poi_name": "Dunkin'",
      "osm_id": 9388934229,
      "amenity": "fast_food",
      "cuisine": "donut;coffee_shop",
      "takeaway": "yes",
      "addr_state": "CT",
      "addr_city": "Wethersfield",
      "addr_postcode": "06109",
      "addr_street": "Berlin Turnpike",
      "addr_housenumber": "1750"
    },
    {
      "id": 162907,
      "geometry": "POINT (-73.785108 43.080601)",
      "poi_name": "Subway",
      "osm_id": 9389106688,
      "amenity": "fast_food",
      "cuisine": "sandwich",
      "takeaway": "yes"
    },
    {
      "id": 162909,
      "geometry": "POINT (-73.785108 43.080601)",
      "poi_name": "The Fresh Monkee",
      "osm_id": 9389155346,
      "amenity": "fast_food",
      "cuisine": "juice",
      "addr_state": "CT",
      "addr_city": "Wethersfield",
      "addr_postcode": "06109",
      "addr_street": "Silas Deane Highway",
      "addr_housenumber": "1107"
    },
    {
      "id": 162913,
      "geometry": "POINT (-73.785108 43.080601)",
      "poi_name": "Chipotle",
      "osm_id": 9389156428,
      "amenity": "fast_food",
      "cuisine": "mexican",
      "takeaway": "yes",
      "official_name": "Chipotle Mexican Grill",
      "addr_state": "CT",
      "addr_city": "Wethersfield",
      "addr_postcode": "06109",
      "addr_street": "Silas Deane Highway",
      "addr_housenumber": "1084"
    },
    {
      "id": 162914,
      "geometry": "POINT (-73.785108 43.080601)",
      "poi_name": "Panera Bread",
      "osm_id": 9389156617,
      "amenity": "fast_food",
      "cuisine": "sandwich;bakery",
      "takeaway": "yes",
      "addr_state": "CT",
      "addr_city": "Wethersfield",
      "addr_postcode": "06109",
      "addr_street": "Silas Deane Highway",
      "addr_housenumber": "1129"
    },
    {
      "id": 162920,
      "geometry": "POINT (-73.785108 43.080601)",
      "poi_name": "KFC",
      "osm_id": 9389282351,
      "amenity": "fast_food",
      "cuisine": "chicken",
      "takeaway": "yes",
      "addr_state": "CT",
      "addr_city": "Wethersfield",
      "addr_postcode": "06109",
      "addr_street": "Town Line Road",
      "addr_housenumber": "31"
    },
    {
      "id": 163399,
      "geometry": "POINT (-73.785108 43.080601)",
      "poi_name": "Taco Bell",
      "osm_id": 9414547477,
      "amenity": "fast_food",
      "cuisine": "tex-mex",
      "website": "https://locations.tacobell.com/ct/vernon-rockville/129-talcottville-rd.html",
      "takeaway": "yes",
      "addr_state": "CT",
      "addr_city": "Vernon",
      "addr_postcode": "06066",
      "addr_street": "Talcottville Road",
      "addr_housenumber": "141"
    },
    {
      "id": 163142,
      "geometry": "POINT (-73.785108 43.080601)",
      "poi_name": "Chipotle",
      "osm_id": 9403327974,
      "amenity": "fast_food",
      "cuisine": "mexican",
      "takeaway": "yes",
      "official_name": "Chipotle Mexican Grill"
    },
    {
      "id": 163143,
      "geometry": "POINT (-73.785108 43.080601)",
      "poi_name": "Smashburger",
      "osm_id": 9403327975,
      "amenity": "fast_food",
      "cuisine": "burger",
      "takeaway": "yes"
    },
    {
      "id": 163404,
      "geometry": "POINT (-73.785108 43.080601)",
      "poi_name": "Dunkin'",
      "osm_id": 9416190217,
      "amenity": "fast_food",
      "cuisine": "donut;coffee_shop",
      "takeaway": "yes"
    },
    {
      "id": 163531,
      "geometry": "POINT (-73.785108 43.080601)",
      "poi_name": "Dunkin'",
      "osm_id": 9421833459,
      "amenity": "fast_food",
      "cuisine": "donut;coffee_shop",
      "takeaway": "yes",
      "addr_state": "CT",
      "addr_city": "Ashford",
      "addr_postcode": "06278",
      "addr_street": "Nott Highway",
      "addr_housenumber": "11"
    },
    {
      "id": 164085,
      "geometry": "POINT (-73.785108 43.080601)",
      "poi_name": "Taqueria del Pueblo",
      "osm_id": 9448614206,
      "amenity": "fast_food",
      "cuisine": "mexican"
    },
    {
      "id": 163787,
      "geometry": "POINT (-73.785108 43.080601)",
      "poi_name": "Chick-fil-A",
      "osm_id": 9436172479,
      "amenity": "fast_food",
      "cuisine": "chicken",
      "phone": "+18608120307",
      "takeaway": "yes",
      "addr_state": "CT",
      "addr_city": "Manchester",
      "addr_postcode": "06042",
      "addr_street": "Pleasant Valley Road",
      "addr_housenumber": "1428"
    },
    {
      "id": 164086,
      "geometry": "POINT (-73.785108 43.080601)",
      "poi_name": "Teriyaki Japan",
      "osm_id": 9448614207,
      "amenity": "fast_food"
    },
    {
      "id": 164088,
      "geometry": "POINT (-73.785108 43.080601)",
      "poi_name": "Pasta Mani",
      "osm_id": 9448614209,
      "amenity": "fast_food"
    },
    {
      "id": 164089,
      "geometry": "POINT (-73.785108 43.080601)",
      "poi_name": "Momo Palace",
      "osm_id": 9448614210,
      "amenity": "fast_food"
    },
    {
      "id": 164091,
      "geometry": "POINT (-73.785108 43.080601)",
      "poi_name": "Akra African Fusion",
      "osm_id": 9448614212,
      "amenity": "fast_food"
    },
    {
      "id": 164092,
      "geometry": "POINT (-73.785108 43.080601)",
      "poi_name": "New England Burger Bah",
      "osm_id": 9448614213,
      "amenity": "fast_food"
    },
    {
      "id": 164093,
      "geometry": "POINT (-73.785108 43.080601)",
      "poi_name": "Sabrosa Venezuela",
      "osm_id": 9448614215,
      "amenity": "fast_food"
    },
    {
      "id": 164150,
      "geometry": "POINT (-73.785108 43.080601)",
      "poi_name": "Dunkin'",
      "osm_id": 9451747470,
      "amenity": "fast_food",
      "cuisine": "donut;coffee_shop",
      "phone": "+18606447989",
      "takeaway": "yes",
      "addr_state": "CT",
      "addr_city": "South Windsor",
      "addr_postcode": "06074",
      "addr_street": "Sullivan Avenue",
      "addr_housenumber": "855"
    },
    {
      "id": 164095,
      "geometry": "POINT (-73.785108 43.080601)",
      "poi_name": "Namaste Woo Indian Cuisine",
      "osm_id": 9448662017,
      "amenity": "fast_food"
    },
    {
      "id": 164096,
      "geometry": "POINT (-73.785108 43.080601)",
      "poi_name": "Doughnut Homies",
      "osm_id": 9448662018,
      "amenity": "fast_food",
      "cuisine": "donut"
    },
    {
      "id": 164097,
      "geometry": "POINT (-73.785108 43.080601)",
      "poi_name": "Pacha Mama Peruvian Cuisine",
      "osm_id": 9448662025,
      "amenity": "fast_food"
    },
    {
      "id": 164120,
      "geometry": "POINT (-73.785108 43.080601)",
      "poi_name": "Dunkin'",
      "osm_id": 9450635674,
      "amenity": "fast_food",
      "cuisine": "donut;coffee_shop",
      "takeaway": "yes"
    },
    {
      "id": 164125,
      "geometry": "POINT (-73.785108 43.080601)",
      "poi_name": "Chandler's Juice and Smoothies",
      "osm_id": 9451203779,
      "amenity": "fast_food",
      "cuisine": "juice"
    },
    {
      "id": 165588,
      "geometry": "POINT (-73.785108 43.080601)",
      "poi_name": "Dunkin'",
      "osm_id": 9544549516,
      "amenity": "fast_food",
      "cuisine": "donut;coffee_shop",
      "opening_hours": "24/7",
      "takeaway": "yes",
      "drive_through": "no",
      "outdoor_seating": "no"
    },
    {
      "id": 164326,
      "geometry": "POINT (-73.785108 43.080601)",
      "poi_name": "Smoothie Lab",
      "osm_id": 9464165579,
      "amenity": "fast_food",
      "cuisine": "mexican"
    },
    {
      "id": 170516,
      "geometry": "POINT (-73.785108 43.080601)",
      "poi_name": "Jack's Hot Dog Stand",
      "osm_id": 2339291353,
      "amenity": "fast_food",
      "website": "http://www.jackshotdogstand.com",
      "addr_postcode": "01247",
      "addr_street": "Eagle Street",
      "addr_housenumber": "12"
    },
    {
      "id": 168347,
      "geometry": "POINT (-73.785108 43.080601)",
      "poi_name": "Panera Bread",
      "osm_id": 389156203,
      "amenity": "fast_food",
      "cuisine": "sandwich;bakery",
      "opening_hours": "Mo-Th 06:00-21:30; Fr,Sa 06:00-22:00; Su 06:30-21:00",
      "takeaway": "yes"
    },
    {
      "id": 168169,
      "geometry": "POINT (-73.785108 43.080601)",
      "poi_name": "Panera Bread",
      "osm_id": 366359393,
      "amenity": "fast_food",
      "cuisine": "sandwich;bakery",
      "website": "https://locations.panerabread.com/ct/glastonbury/2450-main-street.html",
      "phone": "+1 860 659 0005",
      "takeaway": "yes",
      "drive_through": "no",
      "addr_state": "CT",
      "addr_city": "Glastonbury",
      "addr_postcode": "06033",
      "addr_street": "Main Street",
      "addr_housenumber": "2450"
    },
    {
      "id": 170947,
      "geometry": "POINT (-73.785108 43.080601)",
      "poi_name": "Subway",
      "osm_id": 2352993990,
      "amenity": "fast_food",
      "cuisine": "sandwich",
      "takeaway": "yes",
      "drive_through": "no"
    },
    {
      "id": 170836,
      "geometry": "POINT (-73.785108 43.080601)",
      "poi_name": "Subway",
      "osm_id": 2351016202,
      "amenity": "fast_food",
      "cuisine": "sandwich",
      "takeaway": "yes"
    },
    {
      "id": 172545,
      "geometry": "POINT (-73.785108 43.080601)",
      "poi_name": "Burger King",
      "osm_id": 2406083882,
      "amenity": "fast_food",
      "cuisine": "burger",
      "website": "https://www.bk.com/",
      "takeaway": "yes",
      "addr_postcode": "01089",
      "addr_street": "Riverdale Street"
    },
    {
      "id": 172546,
      "geometry": "POINT (-73.785108 43.080601)",
      "poi_name": "Panera Bread",
      "osm_id": 2406083885,
      "amenity": "fast_food",
      "cuisine": "sandwich",
      "website": "http://www.panerabread.com/",
      "takeaway": "yes",
      "addr_postcode": "01089",
      "addr_street": "Riverdale Street",
      "addr_housenumber": "935"
    },
    {
      "id": 173645,
      "geometry": "POINT (-73.785108 43.080601)",
      "poi_name": "Blue Wall Cafe",
      "osm_id": 2447736167,
      "amenity": "fast_food",
      "cuisine": "pizza;burger;sandwich;asian;mexican;gelato;bakery;chicken",
      "website": "https://umassdining.com/locations-menus/campus-center",
      "drive_through": "no",
      "wikidata": "Q16843498"
    },
    {
      "id": 175509,
      "geometry": "POINT (-73.785108 43.080601)",
      "poi_name": "Subway",
      "osm_id": 2523806281,
      "amenity": "fast_food",
      "cuisine": "sandwich",
      "takeaway": "yes",
      "addr_city": "Chicopee",
      "addr_street": "Center Street"
    },
    {
      "id": 175511,
      "geometry": "POINT (-73.785108 43.080601)",
      "poi_name": "Subway",
      "osm_id": 2523806857,
      "amenity": "fast_food",
      "cuisine": "sandwich",
      "takeaway": "yes",
      "addr_city": "Chicopee",
      "addr_street": "Memorial Drive"
    },
    {
      "id": 175512,
      "geometry": "POINT (-73.785108 43.080601)",
      "poi_name": "Panera Bread",
      "osm_id": 2523806859,
      "amenity": "fast_food",
      "cuisine": "sandwich",
      "wheelchair": "limited",
      "takeaway": "yes",
      "addr_city": "Chicopee",
      "addr_street": "Memorial Drive"
    },
    {
      "id": 175693,
      "geometry": "POINT (-73.785108 43.080601)",
      "poi_name": "Athena's Pizza",
      "osm_id": 2532976313,
      "amenity": "fast_food",
      "cuisine": "pizza"
    },
    {
      "id": 176347,
      "geometry": "POINT (-73.785108 43.080601)",
      "poi_name": "Dunkin' Donuts",
      "osm_id": 2556583726,
      "amenity": "fast_food"
    },
    {
      "id": 180867,
      "geometry": "POINT (-73.785108 43.080601)",
      "poi_name": "Crown Fried Chicken",
      "osm_id": 10822508691,
      "amenity": "fast_food",
      "cuisine": "chicken"
    },
    {
      "id": 177346,
      "geometry": "POINT (-73.785108 43.080601)",
      "poi_name": "Burger King",
      "osm_id": 2584518387,
      "amenity": "fast_food",
      "cuisine": "burger",
      "takeaway": "yes"
    },
    {
      "id": 183902,
      "geometry": "POINT (-73.785108 43.080601)",
      "poi_name": "Dunkin'",
      "osm_id": 10949673645,
      "amenity": "fast_food",
      "cuisine": "donut;coffee_shop",
      "takeaway": "yes"
    },
    {
      "id": 181022,
      "geometry": "POINT (-73.785108 43.080601)",
      "poi_name": "Dunkin'",
      "osm_id": 10829838775,
      "amenity": "fast_food",
      "cuisine": "donut;coffee_shop",
      "takeaway": "yes",
      "drive_through": "yes"
    },
    {
      "id": 181023,
      "geometry": "POINT (-73.785108 43.080601)",
      "poi_name": "Wingstop",
      "osm_id": 10829838791,
      "amenity": "fast_food",
      "cuisine": "wings",
      "takeaway": "yes"
    },
    {
      "id": 181627,
      "geometry": "POINT (-73.785108 43.080601)",
      "poi_name": "Auntie Anne's",
      "osm_id": 10857789084,
      "amenity": "fast_food",
      "cuisine": "pretzel",
      "takeaway": "yes"
    },
    {
      "id": 181881,
      "geometry": "POINT (-73.785108 43.080601)",
      "poi_name": "D'Angelo Grilled Sandwiches",
      "osm_id": 10867870800,
      "amenity": "fast_food",
      "cuisine": "sandwich",
      "takeaway": "yes"
    },
    {
      "id": 181882,
      "geometry": "POINT (-73.785108 43.080601)",
      "poi_name": "Fresh City",
      "osm_id": 10867870802,
      "amenity": "fast_food"
    },
    {
      "id": 181886,
      "geometry": "POINT (-73.785108 43.080601)",
      "poi_name": "Auntie Anne's",
      "osm_id": 10867924305,
      "amenity": "fast_food",
      "cuisine": "pretzel",
      "takeaway": "yes"
    },
    {
      "id": 182049,
      "geometry": "POINT (-73.785108 43.080601)",
      "poi_name": "Dunkin'",
      "osm_id": 10876187330,
      "amenity": "fast_food",
      "cuisine": "donut;coffee_shop",
      "takeaway": "yes"
    },
    {
      "id": 183904,
      "geometry": "POINT (-73.785108 43.080601)",
      "poi_name": "Subway",
      "osm_id": 10949735820,
      "amenity": "fast_food",
      "cuisine": "sandwich",
      "takeaway": "yes"
    },
    {
      "id": 183906,
      "geometry": "POINT (-73.785108 43.080601)",
      "poi_name": "Dunkin'",
      "osm_id": 10949791190,
      "amenity": "fast_food",
      "cuisine": "donut;coffee_shop",
      "takeaway": "yes"
    },
    {
      "id": 184665,
      "geometry": "POINT (-73.785108 43.080601)",
      "poi_name": "Subway",
      "osm_id": 7805030316,
      "amenity": "fast_food",
      "cuisine": "sandwich",
      "website": "https://restaurants.subway.com/united-states/ct/glastonbury/141-hebron-ave",
      "phone": "+1 860 657 9871",
      "takeaway": "yes",
      "drive_through": "no",
      "outdoor_seating": "no",
      "addr_state": "CT",
      "addr_city": "Glastonbury",
      "addr_postcode": "06033",
      "addr_street": "Hebron Avenue",
      "addr_housenumber": "141"
    },
    {
      "id": 184666,
      "geometry": "POINT (-73.785108 43.080601)",
      "poi_name": "Dunkin'",
      "osm_id": 7805030320,
      "amenity": "fast_food",
      "cuisine": "donut;coffee_shop",
      "internet_access": "wlan",
      "phone": "+1 860 659 1324",
      "takeaway": "yes",
      "drive_through": "no",
      "outdoor_seating": "no",
      "addr_state": "CT",
      "addr_city": "Glastonbury",
      "addr_postcode": "06033",
      "addr_street": "Hebron Avenue",
      "addr_housenumber": "141"
    },
    {
      "id": 184667,
      "geometry": "POINT (-73.785108 43.080601)",
      "poi_name": "Chopt",
      "osm_id": 7805071020,
      "amenity": "fast_food",
      "cuisine": "salad",
      "description": "organic ingredients, high end salad and wrap venue.",
      "website": "https://www.choptsalad.com",
      "phone": "860-968-6332",
      "takeaway": "yes",
      "addr_state": "CT",
      "addr_city": "Glastonbury",
      "addr_postcode": "06033",
      "addr_street": "Main Street",
      "addr_housenumber": "2520"
    },
    {
      "id": 184826,
      "geometry": "POINT (-73.785108 43.080601)",
      "poi_name": "Subway",
      "osm_id": 7816250472,
      "amenity": "fast_food",
      "cuisine": "sandwich",
      "website": "https://restaurants.subway.com/united-states/ct/glastonbury/2860-main-street",
      "phone": "+1 860 657 9810",
      "takeaway": "yes",
      "drive_through": "no",
      "outdoor_seating": "no",
      "addr_state": "CT",
      "addr_city": "Glastonbury",
      "addr_postcode": "06033",
      "addr_street": "Main Street",
      "addr_housenumber": "2860"
    },
    {
      "id": 185365,
      "geometry": "POINT (-73.785108 43.080601)",
      "poi_name": "Chick-fil-A",
      "osm_id": 7850461258,
      "amenity": "fast_food",
      "cuisine": "chicken",
      "website": "https://www.cfarestaurant.com/glastonbury",
      "phone": "+1 860 633 0800",
      "takeaway": "yes",
      "drive_through": "yes",
      "addr_state": "CT",
      "addr_city": "Glastonbury",
      "addr_postcode": "06033",
      "addr_street": "Main Street",
      "addr_housenumber": "2941"
    },
    {
      "id": 184933,
      "geometry": "POINT (-73.785108 43.080601)",
      "poi_name": "Subway",
      "osm_id": 7821382980,
      "amenity": "fast_food",
      "cuisine": "sandwich",
      "takeaway": "yes"
    },
    {
      "id": 184936,
      "geometry": "POINT (-73.785108 43.080601)",
      "poi_name": "Dunkin'",
      "osm_id": 7821436197,
      "amenity": "fast_food",
      "cuisine": "donut;coffee_shop",
      "opening_hours": "Mo-Su 06:00-17:00",
      "takeaway": "yes"
    },
    {
      "id": 185367,
      "geometry": "POINT (-73.785108 43.080601)",
      "poi_name": "Jersey Mike's Subs",
      "osm_id": 7850461260,
      "amenity": "fast_food",
      "cuisine": "sandwich",
      "website": "https://www.jerseymikes.com/19015",
      "phone": "+1 860 837 0043",
      "takeaway": "yes",
      "addr_state": "CT",
      "addr_city": "Glastonbury",
      "addr_postcode": "06033",
      "addr_street": "Main Street",
      "addr_housenumber": "2941"
    },
    {
      "id": 186252,
      "geometry": "POINT (-73.785108 43.080601)",
      "poi_name": "Hot Harry's Fresh Burritos",
      "osm_id": 7923627064,
      "amenity": "fast_food",
      "cuisine": "mexican",
      "website": "https://www.hotharrysburritos.com",
      "phone": "+1 860 206 8832",
      "addr_state": "CT",
      "addr_city": "New Britain",
      "addr_postcode": "06053",
      "addr_street": "East Street",
      "addr_housenumber": "1470"
    },
    {
      "id": 185319,
      "geometry": "POINT (-73.785108 43.080601)",
      "poi_name": "Nardelli's Grinder Shoppe",
      "osm_id": 7845134106,
      "amenity": "fast_food",
      "cuisine": "sandwich",
      "opening_hours": "Mo-We,Sa 10:00-20:00; Th,Fr 10:00-21:00; Su 10:00-18:00"
    },
    {
      "id": 185320,
      "geometry": "POINT (-73.785108 43.080601)",
      "poi_name": "Subway",
      "osm_id": 7845134107,
      "amenity": "fast_food",
      "cuisine": "sandwich",
      "takeaway": "yes"
    },
    {
      "id": 185321,
      "geometry": "POINT (-73.785108 43.080601)",
      "poi_name": "Dunkin'",
      "osm_id": 7845134108,
      "amenity": "fast_food",
      "cuisine": "donut;coffee_shop",
      "takeaway": "yes"
    },
    {
      "id": 187340,
      "geometry": "POINT (-73.785108 43.080601)",
      "poi_name": "KFC",
      "osm_id": 1056907671,
      "amenity": "fast_food",
      "cuisine": "chicken",
      "wheelchair": "yes",
      "opening_hours": "Su-Fr 11:00-10:00, Sa 11:00-11:00",
      "website": "https://locations.kfc.com/ct/bristol/470-farmington-avenue",
      "takeaway": "yes",
      "outdoor_seating": "no"
    },
    {
      "id": 187341,
      "geometry": "POINT (-73.785108 43.080601)",
      "poi_name": "Subway",
      "osm_id": 1056913059,
      "amenity": "fast_food",
      "cuisine": "sandwich",
      "takeaway": "yes"
    },
    {
      "id": 187970,
      "geometry": "POINT (-73.785108 43.080601)",
      "poi_name": "Thu Duc Fast Food",
      "osm_id": 1119133584,
      "amenity": "fast_food"
    },
    {
      "id": 187620,
      "geometry": "POINT (-73.785108 43.080601)",
      "poi_name": "Dunkin'",
      "osm_id": 1086143313,
      "amenity": "fast_food",
      "cuisine": "donut;coffee_shop",
      "takeaway": "yes",
      "drive_through": "yes",
      "addr_state": "MA",
      "addr_city": "Worcester",
      "addr_postcode": "01610",
      "addr_street": "Main Street",
      "addr_housenumber": "845"
    },
    {
      "id": 189496,
      "geometry": "POINT (-73.785108 43.080601)",
      "poi_name": "Subway",
      "osm_id": 1234844687,
      "amenity": "fast_food",
      "cuisine": "sandwich",
      "takeaway": "yes",
      "drive_through": "no"
    },
    {
      "id": 187965,
      "geometry": "POINT (-73.785108 43.080601)",
      "poi_name": "KFC/Taco Bell",
      "osm_id": 1119080862,
      "amenity": "fast_food"
    },
    {
      "id": 188925,
      "geometry": "POINT (-73.785108 43.080601)",
      "poi_name": "Moe's Southwest Grill",
      "osm_id": 255315418,
      "amenity": "fast_food",
      "cuisine": "mexican",
      "opening_hours": "Mo-Su 11:00-21:00",
      "website": "https://www.moes.com/find-a-moes/massachusetts/shrewsbury/214/",
      "phone": "+1 508 797 6637",
      "takeaway": "yes",
      "drive_through": "no",
      "addr_state": "MA",
      "addr_city": "Shrewsbury",
      "addr_postcode": "01545",
      "addr_street": "Boston Turnpike",
      "addr_housenumber": "61"
    },
    {
      "id": 188927,
      "geometry": "POINT (-73.785108 43.080601)",
      "poi_name": "Burger King",
      "osm_id": 255315579,
      "amenity": "fast_food",
      "cuisine": "burger",
      "takeaway": "yes"
    },
    {
      "id": 189361,
      "geometry": "POINT (-73.785108 43.080601)",
      "poi_name": "Dunkin'",
      "osm_id": 1229985001,
      "amenity": "fast_food",
      "cuisine": "donut;coffee_shop",
      "takeaway": "yes"
    },
    {
      "id": 190273,
      "geometry": "POINT (-73.785108 43.080601)",
      "poi_name": "Moe's Southwest Grill",
      "osm_id": 1280622542,
      "amenity": "fast_food",
      "cuisine": "mexican",
      "takeaway": "yes",
      "drive_through": "no",
      "addr_state": "MA",
      "addr_city": "Worcester",
      "addr_postcode": "01603",
      "addr_street": "Stafford Street",
      "addr_housenumber": "3"
    },
    {
      "id": 190006,
      "geometry": "POINT (-73.785108 43.080601)",
      "poi_name": "KFC",
      "osm_id": 1261295408,
      "amenity": "fast_food",
      "cuisine": "chicken",
      "website": "https://locations.kfc.com/ma/worcester/463-lincoln-street",
      "takeaway": "yes"
    },
    {
      "id": 190050,
      "geometry": "POINT (-73.785108 43.080601)",
      "poi_name": "Dunkin' Donuts",
      "osm_id": 1264749723,
      "amenity": "fast_food",
      "cuisine": "donut;coffee_shop",
      "takeaway": "yes"
    },
    {
      "id": 189896,
      "geometry": "POINT (-73.785108 43.080601)",
      "poi_name": "McDonald's",
      "osm_id": 1254658883,
      "amenity": "fast_food",
      "cuisine": "burger",
      "website": "https://www.mcdonalds.com/us/en-us/location/ct/new-britain/635-hartford-road/3422.html",
      "takeaway": "yes",
      "drive_through": "yes",
      "outdoor_seating": "no"
    },
    {
      "id": 189900,
      "geometry": "POINT (-73.785108 43.080601)",
      "poi_name": "Burger King",
      "osm_id": 1254861378,
      "amenity": "fast_food",
      "cuisine": "burger",
      "takeaway": "yes"
    },
    {
      "id": 189901,
      "geometry": "POINT (-73.785108 43.080601)",
      "poi_name": "Dunkin'",
      "osm_id": 1254861475,
      "amenity": "fast_food",
      "cuisine": "donut;coffee_shop",
      "takeaway": "yes"
    },
    {
      "id": 190963,
      "geometry": "POINT (-73.785108 43.080601)",
      "poi_name": "Foley and Son Fish & Chips",
      "osm_id": 1327620162,
      "amenity": "fast_food",
      "cuisine": "seafood"
    },
    {
      "id": 190638,
      "geometry": "POINT (-73.785108 43.080601)",
      "poi_name": "Dunkin'",
      "osm_id": 1309599010,
      "amenity": "fast_food",
      "cuisine": "donut;coffee_shop",
      "takeaway": "yes"
    },
    {
      "id": 190639,
      "geometry": "POINT (-73.785108 43.080601)",
      "poi_name": "Wings over Worcester",
      "osm_id": 1309600310,
      "amenity": "fast_food"
    },
    {
      "id": 191863,
      "geometry": "POINT (-73.785108 43.080601)",
      "poi_name": "Dunkin' Donuts",
      "osm_id": 1401218090,
      "amenity": "fast_food",
      "cuisine": "coffee_shop",
      "website": "http://www.dunkindonuts.com/",
      "addr_postcode": "01510",
      "addr_street": "Main Street",
      "addr_housenumber": "Dunkin' Donuts"
    },
    {
      "id": 192676,
      "geometry": "POINT (-73.785108 43.080601)",
      "poi_name": "Dunkin'",
      "osm_id": 1472115633,
      "amenity": "fast_food",
      "cuisine": "donut;coffee_shop",
      "takeaway": "yes"
    },
    {
      "id": 191952,
      "geometry": "POINT (-73.785108 43.080601)",
      "poi_name": "Shire Donuts",
      "osm_id": 1408374083,
      "amenity": "fast_food",
      "cuisine": "donut"
    },
    {
      "id": 193084,
      "geometry": "POINT (-73.785108 43.080601)",
      "poi_name": "Bruegger's Bagels",
      "osm_id": 1494544295,
      "amenity": "fast_food",
      "cuisine": "bagel",
      "takeaway": "yes"
    },
    {
      "id": 193319,
      "geometry": "POINT (-73.785108 43.080601)",
      "poi_name": "Main Moon",
      "osm_id": 1521345141,
      "amenity": "fast_food",
      "cuisine": "chinese",
      "takeaway": "yes",
      "drive_through": "no",
      "addr_state": "CT",
      "addr_city": "Simsbury",
      "addr_postcode": "06070",
      "addr_street": "Hopmeadow Street"
    },
    {
      "id": 193251,
      "geometry": "POINT (-73.785108 43.080601)",
      "poi_name": "Dunkin'",
      "osm_id": 1514370538,
      "amenity": "fast_food",
      "cuisine": "donut;coffee_shop",
      "takeaway": "yes"
    },
    {
      "id": 193252,
      "geometry": "POINT (-73.785108 43.080601)",
      "poi_name": "Subway",
      "osm_id": 1514370570,
      "amenity": "fast_food",
      "cuisine": "sandwich",
      "takeaway": "yes"
    },
    {
      "id": 193335,
      "geometry": "POINT (-73.785108 43.080601)",
      "poi_name": "Panera Bread",
      "osm_id": 1523271016,
      "amenity": "fast_food",
      "cuisine": "sandwich;bakery",
      "takeaway": "yes"
    },
    {
      "id": 193859,
      "geometry": "POINT (-73.785108 43.080601)",
      "poi_name": "Dunkin'",
      "osm_id": 1566081567,
      "amenity": "fast_food",
      "cuisine": "donut;coffee_shop",
      "takeaway": "yes"
    },
    {
      "id": 199930,
      "geometry": "POINT (-73.785108 43.080601)",
      "poi_name": "Dunkin' Donuts",
      "osm_id": 996412153,
      "amenity": "fast_food",
      "cuisine": "donut;coffee_shop",
      "opening_hours": "24/7",
      "takeaway": "yes",
      "addr_city": "Worcester",
      "addr_postcode": "01604",
      "addr_street": "Shrewsbury Street",
      "addr_housenumber": "295"
    },
    {
      "id": 193908,
      "geometry": "POINT (-73.785108 43.080601)",
      "poi_name": "Peking Wok",
      "osm_id": 1569666703,
      "amenity": "fast_food",
      "cuisine": "chinese"
    },
    {
      "id": 198514,
      "geometry": "POINT (-73.785108 43.080601)",
      "poi_name": "Dunkin'",
      "osm_id": 10709866227,
      "amenity": "fast_food",
      "cuisine": "donut;coffee_shop",
      "takeaway": "yes",
      "drive_through": "yes"
    },
    {
      "id": 200385,
      "geometry": "POINT (-73.785108 43.080601)",
      "poi_name": "Boston Donuts",
      "osm_id": 1038812558,
      "amenity": "fast_food"
    },
    {
      "id": 205347,
      "geometry": "POINT (-73.785108 43.080601)",
      "poi_name": "Sgt. Pepperoni",
      "osm_id": 7165285089,
      "amenity": "fast_food",
      "cuisine": "pizza"
    },
    {
      "id": 200372,
      "geometry": "POINT (-73.785108 43.080601)",
      "poi_name": "McDonald's",
      "osm_id": 1038635053,
      "amenity": "fast_food",
      "cuisine": "burger",
      "website": "https://www.mcdonalds.com/us/en-us/location/ma/worcester/995-main-street/373.html",
      "takeaway": "yes"
    },
    {
      "id": 200378,
      "geometry": "POINT (-73.785108 43.080601)",
      "poi_name": "Dippin Donuts",
      "osm_id": 1038635705,
      "amenity": "fast_food"
    },
    {
      "id": 201026,
      "geometry": "POINT (-73.785108 43.080601)",
      "poi_name": "Burger King",
      "osm_id": 607223401,
      "amenity": "fast_food",
      "cuisine": "burger",
      "takeaway": "yes"
    },
    {
      "id": 205349,
      "geometry": "POINT (-73.785108 43.080601)",
      "poi_name": "Wally's Chicken Coop",
      "osm_id": 7165285091,
      "amenity": "fast_food",
      "cuisine": "chicken"
    },
    {
      "id": 214086,
      "geometry": "POINT (-73.785108 43.080601)",
      "poi_name": "Dunkin' Donuts",
      "osm_id": 5265636487,
      "amenity": "fast_food",
      "cuisine": "donut;coffee_shop",
      "takeaway": "yes",
      "drive_through": "yes"
    },
    {
      "id": 207337,
      "geometry": "POINT (-73.785108 43.080601)",
      "poi_name": "Outlook farm",
      "osm_id": 4945004421,
      "amenity": "fast_food",
      "internet_access": "wlan"
    },
    {
      "id": 209325,
      "geometry": "POINT (-73.785108 43.080601)",
      "poi_name": "McDonald's",
      "osm_id": 5032318011,
      "amenity": "fast_food",
      "cuisine": "burger",
      "opening_hours": "24/7",
      "website": "https://www.mcdonalds.com/us/en-us/location/ma/holyoke/233-whiting-farms-road/37294.html",
      "internet_access": "wlan",
      "phone": "+1 413-322-7092",
      "takeaway": "yes",
      "drive_through": "yes",
      "delivery": "yes",
      "addr_state": "MA",
      "addr_city": "Holyoke",
      "addr_postcode": "01040",
      "addr_street": "Whiting Farms Road",
      "addr_housenumber": "233"
    },
    {
      "id": 209326,
      "geometry": "POINT (-73.785108 43.080601)",
      "poi_name": "Dunkin' Donuts",
      "osm_id": 5032320098,
      "amenity": "fast_food",
      "cuisine": "donut;coffee_shop",
      "takeaway": "yes"
    },
    {
      "id": 210495,
      "geometry": "POINT (-73.785108 43.080601)",
      "poi_name": "Subway",
      "osm_id": 5106553960,
      "amenity": "fast_food",
      "cuisine": "sandwich",
      "takeaway": "yes"
    },
    {
      "id": 209138,
      "geometry": "POINT (-73.785108 43.080601)",
      "poi_name": "Tailgate",
      "osm_id": 5024959432,
      "amenity": "fast_food"
    },
    {
      "id": 209243,
      "geometry": "POINT (-73.785108 43.080601)",
      "poi_name": "Burger King",
      "osm_id": 5029669713,
      "amenity": "fast_food",
      "cuisine": "burger",
      "takeaway": "yes",
      "outdoor_seating": "yes"
    },
    {
      "id": 214087,
      "geometry": "POINT (-73.785108 43.080601)",
      "poi_name": "Subway",
      "osm_id": 5265636488,
      "amenity": "fast_food",
      "cuisine": "sandwich",
      "takeaway": "yes"
    },
    {
      "id": 214108,
      "geometry": "POINT (-73.785108 43.080601)",
      "poi_name": "Dunkin' Donuts",
      "osm_id": 5265747304,
      "amenity": "fast_food",
      "cuisine": "donut"
    },
    {
      "id": 214115,
      "geometry": "POINT (-73.785108 43.080601)",
      "poi_name": "Subway",
      "osm_id": 5265763386,
      "amenity": "fast_food",
      "cuisine": "sandwich",
      "takeaway": "yes",
      "drive_through": "no",
      "addr_state": "MA",
      "addr_city": "Worcester",
      "addr_postcode": "01606",
      "addr_street": "West Boylston Street",
      "addr_housenumber": "576"
    },
    {
      "id": 220749,
      "geometry": "POINT (-73.785108 43.080601)",
      "poi_name": "Domino's",
      "osm_id": 9384925118,
      "amenity": "fast_food",
      "cuisine": "pizza",
      "website": "https://www.dominos.com",
      "phone": "(860) 870-4545",
      "takeaway": "yes",
      "addr_state": "CT",
      "addr_city": "Vernon",
      "addr_postcode": "06066",
      "addr_street": "Windsor Avenue",
      "addr_housenumber": "36"
    },
    {
      "id": 214623,
      "geometry": "POINT (-73.785108 43.080601)",
      "poi_name": "Dunkin' Donuts",
      "osm_id": 5276464352,
      "amenity": "fast_food",
      "cuisine": "donut;coffee",
      "takeaway": "yes"
    },
    {
      "id": 216141,
      "geometry": "POINT (-73.785108 43.080601)",
      "poi_name": "Domino's",
      "osm_id": 9156696534,
      "amenity": "fast_food",
      "cuisine": "pizza",
      "website": "https://www.dominos.com",
      "takeaway": "yes",
      "addr_state": "CT",
      "addr_city": "Hartford",
      "addr_postcode": "06105",
      "addr_street": "Farmington Avenue",
      "addr_housenumber": "312"
    },
    {
      "id": 220323,
      "geometry": "POINT (-73.785108 43.080601)",
      "poi_name": "Burger King",
      "osm_id": 9368945860,
      "amenity": "fast_food",
      "cuisine": "burger",
      "website": "https://www.bk.com",
      "phone": "8608717318",
      "takeaway": "yes",
      "drive_through": "yes",
      "addr_state": "CT",
      "addr_city": "Vernon",
      "addr_postcode": "06066",
      "addr_street": "Hartford Turnpike",
      "addr_housenumber": "304"
    },
    {
      "id": 218210,
      "geometry": "POINT (-73.785108 43.080601)",
      "poi_name": "Subway",
      "osm_id": 9267831267,
      "amenity": "fast_food",
      "cuisine": "sandwich",
      "opening_hours": "Mo-Sa 10:00-21:00; Su 10:00-20:00",
      "website": "https://restaurants.subway.com/united-states/ma/longmeadow/819-williams-street",
      "phone": "+1 (413) 567-4400",
      "takeaway": "yes",
      "drive_through": "no",
      "addr_state": "MA",
      "addr_city": "Longmeadow",
      "addr_postcode": "01106",
      "addr_street": "Williams Street",
      "addr_housenumber": "819"
    },
    {
      "id": 218564,
      "geometry": "POINT (-73.785108 43.080601)",
      "poi_name": "Subway",
      "osm_id": 9284590975,
      "amenity": "fast_food",
      "cuisine": "sandwich",
      "opening_hours": "Mo-Su 09:00-21:00",
      "website": "https://restaurants.subway.com/united-states/ma/worcester/392-park-avenue?utm_source=yxt-goog&utm_medium=local&utm_term=acq&utm_content=48848&utm_campaign=evergreen-2020&y_source=1_MTQ5MTY4NTgtNzE1LWxvY2F0aW9uLmdvb2dsZV93ZWJzaXRlX292ZXJyaWRl",
      "phone": "+15088607696",
      "takeaway": "yes",
      "drive_through": "no",
      "addr_state": "MA",
      "addr_city": "Worcester",
      "addr_postcode": "01610",
      "addr_street": "Park Avenue",
      "addr_housenumber": "392"
    },
    {
      "id": 232948,
      "geometry": "POINT (-73.785108 43.080601)",
      "poi_name": "Subway",
      "osm_id": 4550425390,
      "amenity": "fast_food",
      "cuisine": "sandwich",
      "takeaway": "yes"
    },
    {
      "id": 222406,
      "geometry": "POINT (-73.785108 43.080601)",
      "poi_name": "Subway",
      "osm_id": 11017172976,
      "amenity": "fast_food",
      "cuisine": "sandwich",
      "takeaway": "yes",
      "addr_state": "CT",
      "addr_city": "Vernon",
      "addr_postcode": "06066",
      "addr_street": "Windsor Avenue",
      "addr_housenumber": "69"
    },
    {
      "id": 222408,
      "geometry": "POINT (-73.785108 43.080601)",
      "poi_name": "Dunkin'",
      "osm_id": 11017173178,
      "amenity": "fast_food",
      "cuisine": "donut;coffee_shop",
      "takeaway": "yes",
      "addr_state": "CT",
      "addr_city": "Vernon",
      "addr_postcode": "06066",
      "addr_street": "Talcottville Road",
      "addr_housenumber": "520"
    },
    {
      "id": 222410,
      "geometry": "POINT (-73.785108 43.080601)",
      "poi_name": "Dunkin'",
      "osm_id": 11017176728,
      "amenity": "fast_food",
      "cuisine": "donut;coffee_shop",
      "takeaway": "yes",
      "addr_state": "CT",
      "addr_city": "Vernon",
      "addr_postcode": "06066",
      "addr_street": "Skinner Road",
      "addr_housenumber": "276"
    },
    {
      "id": 222413,
      "geometry": "POINT (-73.785108 43.080601)",
      "poi_name": "Dunkin'",
      "osm_id": 11017180995,
      "amenity": "fast_food",
      "cuisine": "donut;coffee_shop",
      "takeaway": "yes",
      "addr_state": "CT",
      "addr_city": "Vernon",
      "addr_postcode": "06066",
      "addr_street": "Windsor Avenue",
      "addr_housenumber": "38"
    },
    {
      "id": 222414,
      "geometry": "POINT (-73.785108 43.080601)",
      "poi_name": "McDonald's",
      "osm_id": 11017181071,
      "amenity": "fast_food",
      "cuisine": "burger",
      "website": "https://www.mcdonalds.com/us/en-us/location/ct/vernon/89-talcotville-rd/1086.html",
      "takeaway": "yes",
      "addr_state": "CT",
      "addr_city": "Vernon",
      "addr_postcode": "06066",
      "addr_street": "Talcottville Road",
      "addr_housenumber": "89"
    },
    {
      "id": 222415,
      "geometry": "POINT (-73.785108 43.080601)",
      "poi_name": "Dunkin'",
      "osm_id": 11017181092,
      "amenity": "fast_food",
      "cuisine": "donut;coffee_shop",
      "takeaway": "yes",
      "addr_state": "CT",
      "addr_city": "Vernon",
      "addr_postcode": "06066",
      "addr_street": "Talcottville Road",
      "addr_housenumber": "83"
    },
    {
      "id": 222021,
      "geometry": "POINT (-73.785108 43.080601)",
      "poi_name": "Isaac's Bagel Cafe",
      "osm_id": 11002272969,
      "amenity": "fast_food",
      "cuisine": "bagel"
    },
    {
      "id": 222748,
      "geometry": "POINT (-73.785108 43.080601)",
      "poi_name": "McDonald's",
      "osm_id": 11034666713,
      "amenity": "fast_food",
      "cuisine": "burger",
      "website": "https://www.mcdonalds.com/us/en-us/location/ct/ellington/135-west-road/32393.html",
      "phone": "+1-860-871-0200",
      "takeaway": "yes",
      "addr_state": "CT",
      "addr_city": "Ellington",
      "addr_postcode": "06029",
      "addr_street": "West Road",
      "addr_housenumber": "135"
    },
    {
      "id": 225188,
      "geometry": "POINT (-73.785108 43.080601)",
      "poi_name": "Taco Bell",
      "osm_id": 11114167934,
      "amenity": "fast_food",
      "cuisine": "tex-mex",
      "website": "https://locations.tacobell.com/ct/canton/250-albany-turnpike.html",
      "takeaway": "yes"
    },
    {
      "id": 225189,
      "geometry": "POINT (-73.785108 43.080601)",
      "poi_name": "KFC",
      "osm_id": 11114167935,
      "amenity": "fast_food",
      "cuisine": "chicken",
      "website": "https://locations.kfc.com/ct/canton/250-albany-turnpike-029319",
      "takeaway": "yes"
    },
    {
      "id": 237052,
      "geometry": "POINT (-73.785108 43.080601)",
      "poi_name": "Pita Pockets",
      "osm_id": 5816777851,
      "amenity": "fast_food",
      "cuisine": "mediterranean",
      "website": "https://www.pitapocketsamherst.com/",
      "phone": "+1 413 256 3600",
      "drive_through": "no"
    },
    {
      "id": 234295,
      "geometry": "POINT (-73.785108 43.080601)",
      "poi_name": "Subway",
      "osm_id": 4615198196,
      "amenity": "fast_food",
      "cuisine": "sandwich",
      "takeaway": "yes",
      "outdoor_seating": "yes",
      "addr_state": "CT",
      "addr_city": "Hartford",
      "addr_postcode": "06103",
      "addr_street": "Asylum Street",
      "addr_housenumber": "65"
    },
    {
      "id": 236048,
      "geometry": "POINT (-73.785108 43.080601)",
      "poi_name": "Kyle's design",
      "osm_id": 5777596872,
      "amenity": "fast_food",
      "cuisine": "hot_dog"
    },
    {
      "id": 236962,
      "geometry": "POINT (-73.785108 43.080601)",
      "poi_name": "Dunkin'",
      "osm_id": 5813548344,
      "amenity": "fast_food",
      "cuisine": "donut;coffee_shop",
      "description": "Located at street-level inside the station near the ticket counters for Amtrak and the bus companies.",
      "takeaway": "yes",
      "outdoor_seating": "no",
      "addr_state": "CT",
      "addr_city": "Hartford",
      "addr_postcode": "06103",
      "addr_street": "Union Place",
      "addr_housenumber": "1"
    },
    {
      "id": 240571,
      "geometry": "POINT (-73.785108 43.080601)",
      "poi_name": "Subway",
      "osm_id": 5980545697,
      "amenity": "fast_food",
      "cuisine": "sandwich",
      "takeaway": "yes"
    },
    {
      "id": 240276,
      "geometry": "POINT (-73.785108 43.080601)",
      "poi_name": "Dunkin' Donuts",
      "osm_id": 5965122845,
      "amenity": "fast_food",
      "cuisine": "donut;coffee_shop",
      "opening_hours": "Mo-Su 05:00-20:00",
      "takeaway": "yes",
      "addr_street": "Main Street",
      "addr_housenumber": "389"
    },
    {
      "id": 240576,
      "geometry": "POINT (-73.785108 43.080601)",
      "poi_name": "Dunkin'",
      "osm_id": 5980545706,
      "amenity": "fast_food",
      "cuisine": "donut;coffee_shop",
      "takeaway": "yes"
    },
    {
      "id": 241504,
      "geometry": "POINT (-73.785108 43.080601)",
      "poi_name": "Great Star Chinese Restaurant",
      "osm_id": 6027092085,
      "amenity": "fast_food",
      "cuisine": "chinese",
      "opening_hours": "Mo-Th 11:00-22:00; Fr-Sa 11:00-23:00; Su 12:00-22:00",
      "website": "https://www.greatstarnewbritain.com/",
      "phone": "+1-860-826-1783",
      "addr_state": "CT",
      "addr_city": "New Britain",
      "addr_postcode": "06053",
      "addr_street": "Allen Street",
      "addr_housenumber": "228"
    }
  ],
  "answer_type": "name",
  "question_entities": {
    "[1]": {
      "main_category": "amenity",
      "sub_category": "fast food restaurant"
    },
    "[2]": {
      "distance": 190000,
      "text": "190 kilometers"
    },
    "[3]": {
      "main_category": "tourism",
      "sub_category": "gallery",
      "display_name": "Kettlewell & Edwards, Saratoga Springs, NY",
      "geo_wkt": "POINT (-73.785108 43.080601)",
      "poi": {
        "id": 496,
        "geometry": "POINT (-73.785108 43.080601)",
        "poi_name": "Kettlewell & Edwards",
        "osm_id": 8405030677,
        "tourism": "gallery",
        "opening_hours": "Tu-Sa 10:00-17:30",
        "website": "https://www.kettlewellandedwards.com/home",
        "phone": "+1 518 584 3664",
        "addr_state": "NY",
        "addr_city": "Saratoga Springs",
        "addr_postcode": "12866",
        "addr_street": "Phila Street",
        "addr_housenumber": "13"
      }
    },
    "[4]": {
      "direction_desc": "southeast",
      "direction_predicate": "degrees(ST_Azimuth(origin.geometry, pois.geometry)) BETWEEN 112.5 AND 157.5"
    }
  },
  "id": 2666,
  "type": "range:direction+name"
}