{
  "question": "Which restaurant is available within 110 kilometers in the south direction of Sea Life Aquarium Kansas City, Kansas City, MO?",
  "sql": "\nWITH origin AS  (SELECT ST_GeomFromText('POINT (-94.5816 39.082158)',4326)::geography AS geometry)\nSELECT * FROM pois, origin\nWHERE ST_DWithin(pois.geometry, ST_GeomFromText('POINT (-94.5816 39.082158)',4326)::geography, 110000)\nAND amenity = 'restaurant'\nAND degrees(ST_Azimuth(origin.geometry, pois.geometry)) BETWEEN 157.5 AND 202.5;\n",
  "answers": [
    {
      "id": 38910,
      "geometry": "POINT (-94.5816 39.082158)",
      "poi_name": "New Peking",
      "osm_id": 2890465900,
      "amenity": "restaurant",
      "cuisine": "chinese"
    },
    {
      "id": 33487,
      "geometry": "POINT (-94.5816 39.082158)",
      "poi_name": "Kaiyo Restaurant",
      "osm_id": 2670074195,
      "amenity": "restaurant"
    },
    {
      "id": 33488,
      "geometry": "POINT (-94.5816 39.082158)",
      "poi_name": "Pizza Hut",
      "osm_id": 2670074207,
      "amenity": "restaurant",
      "cuisine": "pizza"
    },
    {
      "id": 33489,
      "geometry": "POINT (-94.5816 39.082158)",
      "poi_name": "Red Door Grill",
      "osm_id": 2670074210,
      "amenity": "restaurant"
    },
    {
      "id": 33490,
      "geometry": "POINT (-94.5816 39.082158)",
      "poi_name": "Cactus Grill",
      "osm_id": 2670074212,
      "amenity": "restaurant"
    },
    {
      "id": 33491,
      "geometry": "POINT (-94.5816 39.082158)",
      "poi_name": "Jasmine Thai",
      "osm_id": 2670074222,
      "amenity": "restaurant",
      "cuisine": "thai"
    },
    {
      "id": 33496,
      "geometry": "POINT (-94.5816 39.082158)",
      "poi_name": "t. Loft",
      "osm_id": 2670074373,
      "amenity": "restaurant",
      "website": "https://www.tloft.net/",
      "addr_street": "State Line Road",
      "addr_housenumber": "8025"
    },
    {
      "id": 33497,
      "geometry": "POINT (-94.5816 39.082158)",
      "poi_name": "Rainbow China",
      "osm_id": 2670074383,
      "amenity": "restaurant",
      "cuisine": "chinese",
      "addr_street": "State Line Road",
      "addr_housenumber": "8017"
    },
    {
      "id": 33504,
      "geometry": "POINT (-94.5816 39.082158)",
      "poi_name": "Chick-In Waffle",
      "osm_id": 2670074495,
      "amenity": "restaurant"
    },
    {
      "id": 35851,
      "geometry": "POINT (-94.5816 39.082158)",
      "poi_name": "Smokey's BBQ",
      "osm_id": 2733871365,
      "amenity": "restaurant",
      "website": "http://smokeysbbq-opks.menufy.com/",
      "addr_street": "Metcalf Avenue",
      "addr_housenumber": "14521"
    },
    {
      "id": 36344,
      "geometry": "POINT (-94.5816 39.082158)",
      "poi_name": "North China Restaurant",
      "osm_id": 2760133892,
      "amenity": "restaurant",
      "cuisine": "chinese",
      "website": "http://northchinakc.com/",
      "addr_street": "Broadway Street",
      "addr_housenumber": "3805"
    },
    {
      "id": 32423,
      "geometry": "POINT (-94.5816 39.082158)",
      "poi_name": "SPIN! Neapolitan Pizza",
      "osm_id": 2625537007,
      "amenity": "restaurant",
      "opening_hours": "Mo-Th 11:00-21:00; Fr-Sa 11:00-22:00",
      "website": "https://www.spinpizza.com/",
      "phone": "+1-913-341-7746",
      "addr_street": "Mission Road",
      "addr_housenumber": "8224"
    },
    {
      "id": 32424,
      "geometry": "POINT (-94.5816 39.082158)",
      "poi_name": "Salty Iguana",
      "osm_id": 2625537008,
      "amenity": "restaurant",
      "opening_hours": "Mo-Th 11:00-22:00; Fr 11:00-22:30; Sa 08:30-22:30; Su 08:30-19:00",
      "website": "https://www.saltyiguana.net/",
      "phone": "+1-913-381-3888",
      "addr_street": "Mission Road",
      "addr_housenumber": "8228"
    },
    {
      "id": 32425,
      "geometry": "POINT (-94.5816 39.082158)",
      "poi_name": "Urban Table",
      "osm_id": 2625537010,
      "amenity": "restaurant",
      "opening_hours": "Mo-Th 11:00-23:00; Fr 07:00-24:00; Sa 08:00-24:00; Su 08:00-23:00",
      "website": "https://www.urbantablekc.com/",
      "phone": "+1-913-948-6900",
      "addr_street": "Mission Road",
      "addr_housenumber": "8232"
    },
    {
      "id": 38912,
      "geometry": "POINT (-94.5816 39.082158)",
      "poi_name": "Mario's",
      "osm_id": 2890468133,
      "amenity": "restaurant"
    },
    {
      "id": 39548,
      "geometry": "POINT (-94.5816 39.082158)",
      "poi_name": "Cucina Della Ragazza",
      "osm_id": 2927248190,
      "amenity": "restaurant",
      "cuisine": "italian",
      "website": "https://ragazzakc.com/",
      "addr_housenumber": "301"
    },
    {
      "id": 39357,
      "geometry": "POINT (-94.5816 39.082158)",
      "poi_name": "Sarpino's Pizza",
      "osm_id": 2918571598,
      "amenity": "restaurant",
      "cuisine": "pizza",
      "opening_hours": "Su-Th 10:00-02:00, Fr,Sa 10:00-04:00",
      "website": "https://westport.gosarpinos.com/ordering/intro",
      "phone": "(816) 931-8600",
      "addr_state": "MO",
      "addr_city": "Kansas City",
      "addr_postcode": "64111",
      "addr_street": "Westport Road",
      "addr_housenumber": "905"
    },
    {
      "id": 40103,
      "geometry": "POINT (-94.5816 39.082158)",
      "poi_name": "Burnt End Barbecue",
      "osm_id": 2957312768,
      "amenity": "restaurant",
      "cuisine": "barbecue"
    },
    {
      "id": 40107,
      "geometry": "POINT (-94.5816 39.082158)",
      "poi_name": "IHOP",
      "osm_id": 2957566501,
      "amenity": "restaurant",
      "cuisine": "breakfast;pancake"
    },
    {
      "id": 40124,
      "geometry": "POINT (-94.5816 39.082158)",
      "poi_name": "J. Alexander's",
      "osm_id": 2958071059,
      "amenity": "restaurant"
    },
    {
      "id": 46323,
      "geometry": "POINT (-94.5816 39.082158)",
      "poi_name": "Firebirds Wood Fired Grill",
      "osm_id": 3258912225,
      "amenity": "restaurant"
    },
    {
      "id": 46234,
      "geometry": "POINT (-94.5816 39.082158)",
      "poi_name": "Dos de Oros",
      "osm_id": 3254351515,
      "amenity": "restaurant",
      "cuisine": "mexican"
    },
    {
      "id": 46242,
      "geometry": "POINT (-94.5816 39.082158)",
      "poi_name": "SPIN! Neapolitan Pizza",
      "osm_id": 3254676987,
      "amenity": "restaurant",
      "cuisine": "pizza"
    },
    {
      "id": 46244,
      "geometry": "POINT (-94.5816 39.082158)",
      "poi_name": "California Pizza Kitchen",
      "osm_id": 3254684513,
      "amenity": "restaurant",
      "cuisine": "pizza"
    },
    {
      "id": 46205,
      "geometry": "POINT (-94.5816 39.082158)",
      "poi_name": "The Egg & I",
      "osm_id": 3252841743,
      "amenity": "restaurant",
      "addr_state": "KS",
      "addr_city": "Overland Park",
      "addr_postcode": "66223",
      "addr_street": "West 135th Street",
      "addr_housenumber": "8180"
    },
    {
      "id": 46212,
      "geometry": "POINT (-94.5816 39.082158)",
      "poi_name": "Southside Mafia Pizzeria",
      "osm_id": 3252994394,
      "amenity": "restaurant"
    },
    {
      "id": 46213,
      "geometry": "POINT (-94.5816 39.082158)",
      "poi_name": "DQ / Orange Julius",
      "osm_id": 3252997286,
      "amenity": "restaurant",
      "addr_state": "KS",
      "addr_city": "Overland Park",
      "addr_postcode": "66213",
      "addr_street": "West 121st Street",
      "addr_housenumber": "7406"
    },
    {
      "id": 46214,
      "geometry": "POINT (-94.5816 39.082158)",
      "poi_name": "Dickey's Barbecue Pit",
      "osm_id": 3252999061,
      "amenity": "restaurant",
      "cuisine": "barbecue",
      "addr_state": "KS",
      "addr_city": "Overland Park",
      "addr_postcode": "66213",
      "addr_street": "West 121st Street",
      "addr_housenumber": "7284"
    },
    {
      "id": 46218,
      "geometry": "POINT (-94.5816 39.082158)",
      "poi_name": "Noodles & Company",
      "osm_id": 3253023773,
      "amenity": "restaurant",
      "cuisine": "pasta",
      "addr_state": "KS",
      "addr_city": "Overland Park",
      "addr_street": "Metcalf Avenue",
      "addr_housenumber": "13448"
    },
    {
      "id": 46324,
      "geometry": "POINT (-94.5816 39.082158)",
      "poi_name": "Buffalo Wild Wings",
      "osm_id": 3258916847,
      "amenity": "restaurant",
      "cuisine": "wings",
      "addr_state": "KS"
    },
    {
      "id": 46325,
      "geometry": "POINT (-94.5816 39.082158)",
      "poi_name": "Ya Ya's Euro Bistro",
      "osm_id": 3258916848,
      "amenity": "restaurant",
      "cuisine": "american"
    },
    {
      "id": 46410,
      "geometry": "POINT (-94.5816 39.082158)",
      "poi_name": "801 Fish",
      "osm_id": 3263662870,
      "amenity": "restaurant"
    },
    {
      "id": 46327,
      "geometry": "POINT (-94.5816 39.082158)",
      "poi_name": "Kyoto Sushi & Steak",
      "osm_id": 3258925316,
      "amenity": "restaurant"
    },
    {
      "id": 46411,
      "geometry": "POINT (-94.5816 39.082158)",
      "poi_name": "North Italia",
      "osm_id": 3263666186,
      "amenity": "restaurant"
    },
    {
      "id": 46412,
      "geometry": "POINT (-94.5816 39.082158)",
      "poi_name": "La Bodega",
      "osm_id": 3263669061,
      "amenity": "restaurant"
    },
    {
      "id": 46330,
      "geometry": "POINT (-94.5816 39.082158)",
      "poi_name": "Chosun Korean Barbeque",
      "osm_id": 3258934133,
      "amenity": "restaurant",
      "opening_hours": "Mo-Sa 11:30-21:30; Su 11:00-21:30"
    },
    {
      "id": 46413,
      "geometry": "POINT (-94.5816 39.082158)",
      "poi_name": "Gordon Biersch",
      "osm_id": 3263678380,
      "amenity": "restaurant"
    },
    {
      "id": 46331,
      "geometry": "POINT (-94.5816 39.082158)",
      "poi_name": "Shahrazad Cafe",
      "osm_id": 3258934134,
      "amenity": "restaurant"
    },
    {
      "id": 46415,
      "geometry": "POINT (-94.5816 39.082158)",
      "poi_name": "Mestizo",
      "osm_id": 3263687537,
      "amenity": "restaurant"
    },
    {
      "id": 46418,
      "geometry": "POINT (-94.5816 39.082158)",
      "poi_name": "RA Sushi",
      "osm_id": 3263697745,
      "amenity": "restaurant"
    },
    {
      "id": 58197,
      "geometry": "POINT (-94.5816 39.082158)",
      "poi_name": "Blue Koi",
      "osm_id": 5367280194,
      "amenity": "restaurant"
    },
    {
      "id": 46419,
      "geometry": "POINT (-94.5816 39.082158)",
      "poi_name": "Carma",
      "osm_id": 3263703432,
      "amenity": "restaurant"
    },
    {
      "id": 48507,
      "geometry": "POINT (-94.5816 39.082158)",
      "poi_name": "Cooper's Hawk",
      "osm_id": 3385406167,
      "amenity": "restaurant",
      "cuisine": "american",
      "shop": "wine",
      "official_name": "Cooper's Hawk Winery & Restaurants"
    },
    {
      "id": 48508,
      "geometry": "POINT (-94.5816 39.082158)",
      "poi_name": "Chuy's",
      "osm_id": 3385408142,
      "amenity": "restaurant",
      "cuisine": "tex-mex"
    },
    {
      "id": 48509,
      "geometry": "POINT (-94.5816 39.082158)",
      "poi_name": "Buca di Beppo",
      "osm_id": 3385408143,
      "amenity": "restaurant",
      "cuisine": "italian",
      "opening_hours": "Mo-Th 11:00-22:00; Fr,Sa 11:00-23:00; Su 11:00-21:00"
    },
    {
      "id": 48510,
      "geometry": "POINT (-94.5816 39.082158)",
      "poi_name": "Zocalo",
      "osm_id": 3385410071,
      "amenity": "restaurant"
    },
    {
      "id": 48511,
      "geometry": "POINT (-94.5816 39.082158)",
      "poi_name": "Plaza III",
      "osm_id": 3385420049,
      "amenity": "restaurant"
    },
    {
      "id": 48512,
      "geometry": "POINT (-94.5816 39.082158)",
      "poi_name": "The Melting Pot",
      "osm_id": 3385421994,
      "amenity": "restaurant",
      "cuisine": "fondue"
    },
    {
      "id": 48513,
      "geometry": "POINT (-94.5816 39.082158)",
      "poi_name": "Kona Grill",
      "osm_id": 3385421995,
      "amenity": "restaurant",
      "cuisine": "sushi;cocktails"
    },
    {
      "id": 48514,
      "geometry": "POINT (-94.5816 39.082158)",
      "poi_name": "Seasons 52",
      "osm_id": 3385421997,
      "amenity": "restaurant",
      "cuisine": "american"
    },
    {
      "id": 49349,
      "geometry": "POINT (-94.5816 39.082158)",
      "poi_name": "Rock & Brews",
      "osm_id": 3427474716,
      "amenity": "restaurant"
    },
    {
      "id": 49350,
      "geometry": "POINT (-94.5816 39.082158)",
      "poi_name": "Vinotopia",
      "osm_id": 3427474717,
      "amenity": "restaurant"
    },
    {
      "id": 49351,
      "geometry": "POINT (-94.5816 39.082158)",
      "poi_name": "Pinstripes",
      "osm_id": 3427474895,
      "amenity": "restaurant"
    },
    {
      "id": 49353,
      "geometry": "POINT (-94.5816 39.082158)",
      "poi_name": "Newport Grill",
      "osm_id": 3427478158,
      "amenity": "restaurant"
    },
    {
      "id": 49354,
      "geometry": "POINT (-94.5816 39.082158)",
      "poi_name": "Paradise Diner",
      "osm_id": 3427478159,
      "amenity": "restaurant"
    },
    {
      "id": 49355,
      "geometry": "POINT (-94.5816 39.082158)",
      "poi_name": "Wasabi Sushi Bar",
      "osm_id": 3427527363,
      "amenity": "restaurant"
    },
    {
      "id": 50478,
      "geometry": "POINT (-94.5816 39.082158)",
      "poi_name": "BRGR",
      "osm_id": 3487499913,
      "amenity": "restaurant"
    },
    {
      "id": 54763,
      "geometry": "POINT (-94.5816 39.082158)",
      "poi_name": "Kokoro Maki House",
      "osm_id": 10155067716,
      "amenity": "restaurant",
      "cuisine": "japanese;korean;sushi",
      "opening_hours": "Mo-Fr 11:00-21:00; Sa 12:00-17:00; Su off",
      "website": "https://www.kokoromaki.com/",
      "takeaway": "yes",
      "addr_state": "MO",
      "addr_city": "Kansas City",
      "addr_postcode": "64114",
      "addr_street": "West 75th Street",
      "addr_housenumber": "340"
    },
    {
      "id": 54767,
      "geometry": "POINT (-94.5816 39.082158)",
      "poi_name": "B\u014dru Asian Eatery",
      "osm_id": 10155107265,
      "amenity": "restaurant",
      "cuisine": "asian",
      "opening_hours": "Mo-Th 15:00-22:00; Fr 15:00-23:00; Sa 12:00-23:00; Su 12:00-22:00",
      "website": "https://www.borukc.com/",
      "addr_state": "MO",
      "addr_city": "Kansas City",
      "addr_postcode": "64114",
      "addr_street": "West 75th Street",
      "addr_housenumber": "500"
    },
    {
      "id": 54768,
      "geometry": "POINT (-94.5816 39.082158)",
      "poi_name": "South of Summit Taqueria and Tequila",
      "osm_id": 10155107268,
      "amenity": "restaurant",
      "cuisine": "mexican",
      "website": "https://www.southofsummit.com/",
      "addr_state": "MO",
      "addr_city": "Kansas City",
      "addr_postcode": "64114",
      "addr_street": "West 75th Street",
      "addr_housenumber": "516"
    },
    {
      "id": 54769,
      "geometry": "POINT (-94.5816 39.082158)",
      "poi_name": "Summit Grill",
      "osm_id": 10155107269,
      "amenity": "restaurant",
      "cuisine": "american",
      "website": "https://www.summitgrillkc.com/",
      "addr_state": "MO",
      "addr_city": "Kansas City",
      "addr_postcode": "64114",
      "addr_street": "West 75th Street",
      "addr_housenumber": "520"
    },
    {
      "id": 55130,
      "geometry": "POINT (-94.5816 39.082158)",
      "poi_name": "Five Guys",
      "osm_id": 10172692353,
      "amenity": "restaurant",
      "opening_hours": "Mo-Su 11:00-22:00",
      "website": "https://restaurants.fiveguys.com",
      "phone": "816-323-0020",
      "addr_state": "MO",
      "addr_city": "Belton",
      "addr_postcode": "64012",
      "addr_street": "Cunningham Industrial Parkway",
      "addr_housenumber": "172"
    },
    {
      "id": 55131,
      "geometry": "POINT (-94.5816 39.082158)",
      "poi_name": "Brewbakers Bar and Grill",
      "osm_id": 10172692354,
      "amenity": "restaurant",
      "cuisine": "bar&grill",
      "website": "https://www.brewbakersbar.com/",
      "addr_state": "MO",
      "addr_city": "Belton",
      "addr_postcode": "64012",
      "addr_street": "Cedar Tree Square",
      "addr_housenumber": "140"
    },
    {
      "id": 55133,
      "geometry": "POINT (-94.5816 39.082158)",
      "poi_name": "PepperJax Grill",
      "osm_id": 10172692357,
      "amenity": "restaurant",
      "cuisine": "sandwich",
      "addr_state": "MO",
      "addr_city": "Belton",
      "addr_postcode": "64012",
      "addr_street": "E North Ave",
      "addr_housenumber": "1729"
    },
    {
      "id": 55134,
      "geometry": "POINT (-94.5816 39.082158)",
      "poi_name": "Raising Cane's",
      "osm_id": 10172692359,
      "amenity": "restaurant",
      "cuisine": "fried_chicken;fries"
    },
    {
      "id": 58196,
      "geometry": "POINT (-94.5816 39.082158)",
      "poi_name": "Tavern",
      "osm_id": 5367280150,
      "amenity": "restaurant",
      "addr_state": "KS",
      "addr_city": "Leawood",
      "addr_postcode": "66206",
      "addr_street": "Mission Road",
      "addr_housenumber": "10681"
    },
    {
      "id": 46372,
      "geometry": "POINT (-94.5816 39.082158)",
      "poi_name": "Jose Pepper's",
      "osm_id": 3260935884,
      "amenity": "restaurant",
      "cuisine": "mexican"
    },
    {
      "id": 46373,
      "geometry": "POINT (-94.5816 39.082158)",
      "poi_name": "Fortune Wok",
      "osm_id": 3260940175,
      "amenity": "restaurant"
    },
    {
      "id": 46706,
      "geometry": "POINT (-94.5816 39.082158)",
      "poi_name": "Frida's",
      "osm_id": 3284576561,
      "amenity": "restaurant",
      "cuisine": "mexican"
    },
    {
      "id": 46707,
      "geometry": "POINT (-94.5816 39.082158)",
      "poi_name": "Han Shin",
      "osm_id": 3284576795,
      "amenity": "restaurant"
    },
    {
      "id": 48500,
      "geometry": "POINT (-94.5816 39.082158)",
      "poi_name": "Fogo de Chao",
      "osm_id": 3385397302,
      "amenity": "restaurant"
    },
    {
      "id": 48501,
      "geometry": "POINT (-94.5816 39.082158)",
      "poi_name": "Houston's",
      "osm_id": 3385397914,
      "amenity": "restaurant"
    },
    {
      "id": 48502,
      "geometry": "POINT (-94.5816 39.082158)",
      "poi_name": "McCormick & Schmick's",
      "osm_id": 3385402189,
      "amenity": "restaurant",
      "cuisine": "seafood;steak"
    },
    {
      "id": 48504,
      "geometry": "POINT (-94.5816 39.082158)",
      "poi_name": "Brio",
      "osm_id": 3385402191,
      "amenity": "restaurant",
      "cuisine": "italian"
    },
    {
      "id": 48505,
      "geometry": "POINT (-94.5816 39.082158)",
      "poi_name": "Bo Lings",
      "osm_id": 3385402192,
      "amenity": "restaurant",
      "opening_hours": "Mo-Th 11:00-15:00,17:00-21:00; Fr 11:00-15:00,17:00-21:30; Sa 11:00-21:30; Su 11:00-21:00"
    },
    {
      "id": 58198,
      "geometry": "POINT (-94.5816 39.082158)",
      "poi_name": "Rye",
      "osm_id": 5367280195,
      "amenity": "restaurant"
    },
    {
      "id": 58199,
      "geometry": "POINT (-94.5816 39.082158)",
      "poi_name": "Room 39",
      "osm_id": 5367280792,
      "amenity": "restaurant"
    },
    {
      "id": 63351,
      "geometry": "POINT (-94.5816 39.082158)",
      "poi_name": "Johnny Jo's Pizza",
      "osm_id": 5612032339,
      "amenity": "restaurant",
      "cuisine": "pizza"
    },
    {
      "id": 59752,
      "geometry": "POINT (-94.5816 39.082158)",
      "poi_name": "Buffalo Wild Wings",
      "osm_id": 5440967546,
      "amenity": "restaurant",
      "cuisine": "wings",
      "addr_state": "MO"
    },
    {
      "id": 64069,
      "geometry": "POINT (-94.5816 39.082158)",
      "poi_name": "Pizza 51",
      "osm_id": 5640257823,
      "amenity": "restaurant",
      "cuisine": "pizza",
      "takeaway": "yes",
      "addr_state": "MO",
      "addr_city": "Kansas City",
      "addr_postcode": "64112",
      "addr_street": "Oak Street",
      "addr_housenumber": "5060"
    },
    {
      "id": 66697,
      "geometry": "POINT (-94.5816 39.082158)",
      "poi_name": "Noka",
      "osm_id": 11206726141,
      "amenity": "restaurant",
      "cuisine": "american"
    },
    {
      "id": 65178,
      "geometry": "POINT (-94.5816 39.082158)",
      "poi_name": "Rye",
      "osm_id": 5688714048,
      "amenity": "restaurant",
      "cuisine": "american"
    },
    {
      "id": 66698,
      "geometry": "POINT (-94.5816 39.082158)",
      "poi_name": "Brewer's Kitchen",
      "osm_id": 11206726142,
      "amenity": "restaurant",
      "cuisine": "american",
      "website": "https://www.brewers-kitchen.com",
      "phone": "+1-816-775-1274",
      "addr_state": "MO",
      "addr_city": "Kansas City",
      "addr_postcode": "64109",
      "addr_street": "Gillham Road",
      "addr_housenumber": "3107"
    },
    {
      "id": 71182,
      "geometry": "POINT (-94.5816 39.082158)",
      "poi_name": "Papa John's",
      "osm_id": 11384007589,
      "amenity": "restaurant",
      "cuisine": "pizza",
      "opening_hours": "Mo-Fr 10:00-24:00; Sa,Su 00:00-01:00,10:00-24:00",
      "website": "https://locations.papajohns.com/united-states/ks/66209/overland-park/6900-w-119th-st",
      "phone": "+1 913 754 1200",
      "takeaway": "yes",
      "delivery": "yes",
      "addr_state": "KS",
      "addr_city": "Overland Park",
      "addr_postcode": "66209",
      "addr_street": "West 119th Street",
      "addr_housenumber": "6840"
    },
    {
      "id": 71183,
      "geometry": "POINT (-94.5816 39.082158)",
      "poi_name": "KC Craft Ramen",
      "osm_id": 11384007590,
      "amenity": "restaurant",
      "cuisine": "ramen",
      "opening_hours": "We,Th 17:00-21:30; Fr,Sa 17:00-22:00; Su 16:00-21:00||We,Th,Fr 12:00-14:00 \"Self-Service\"",
      "website": "https://kccraftramen.com/",
      "addr_state": "KS",
      "addr_city": "Overland Park",
      "addr_postcode": "66209",
      "addr_street": "West 119th Street",
      "addr_housenumber": "6830"
    },
    {
      "id": 90703,
      "geometry": "POINT (-94.5816 39.082158)",
      "poi_name": "Jack Stack Barbeque",
      "osm_id": 2012747625,
      "amenity": "restaurant",
      "cuisine": "steak_house",
      "website": "https://www.jackstackbbq.com/",
      "addr_postcode": "64112",
      "addr_street": "Wyandotte Street",
      "addr_housenumber": "4747"
    },
    {
      "id": 71887,
      "geometry": "POINT (-94.5816 39.082158)",
      "poi_name": "Yum Bakery",
      "osm_id": 11404458978,
      "amenity": "restaurant",
      "cuisine": "dessert"
    },
    {
      "id": 71980,
      "geometry": "POINT (-94.5816 39.082158)",
      "poi_name": "Two Twenty West",
      "osm_id": 11408277767,
      "amenity": "restaurant"
    },
    {
      "id": 71988,
      "geometry": "POINT (-94.5816 39.082158)",
      "poi_name": "Burritos Lagos",
      "osm_id": 11408410166,
      "amenity": "restaurant",
      "cuisine": "mexican",
      "opening_hours": "Th-Sa 16:00-02:00",
      "takeaway": "yes"
    },
    {
      "id": 80235,
      "geometry": "POINT (-94.5816 39.082158)",
      "poi_name": "Westport Flea Market Bar & Grill",
      "osm_id": 865307123,
      "amenity": "restaurant",
      "cuisine": "burger"
    },
    {
      "id": 82650,
      "geometry": "POINT (-94.5816 39.082158)",
      "poi_name": "Old Town Pizza",
      "osm_id": 1707557224,
      "amenity": "restaurant",
      "cuisine": "pizza",
      "addr_city": "Overland Park",
      "addr_postcode": "66223",
      "addr_street": "Metcalf Avenue",
      "addr_housenumber": "14850"
    },
    {
      "id": 82651,
      "geometry": "POINT (-94.5816 39.082158)",
      "poi_name": "Jalapenos",
      "osm_id": 1707557240,
      "amenity": "restaurant",
      "cuisine": "mexican"
    },
    {
      "id": 82652,
      "geometry": "POINT (-94.5816 39.082158)",
      "poi_name": "Andy's Wok",
      "osm_id": 1707557243,
      "amenity": "restaurant",
      "cuisine": "chinese",
      "addr_city": "Overland Park",
      "addr_postcode": "66223",
      "addr_street": "Metcalf Avenue",
      "addr_housenumber": "14856"
    },
    {
      "id": 82654,
      "geometry": "POINT (-94.5816 39.082158)",
      "poi_name": "Jersey Boyz",
      "osm_id": 1707557256,
      "amenity": "restaurant",
      "cuisine": "sandwich",
      "addr_city": "Overland Park",
      "addr_postcode": "66223",
      "addr_street": "Travis Street",
      "addr_housenumber": "15102"
    },
    {
      "id": 82658,
      "geometry": "POINT (-94.5816 39.082158)",
      "poi_name": "Three Women and an Oven",
      "osm_id": 1707557272,
      "amenity": "restaurant",
      "addr_city": "Overland Park",
      "addr_postcode": "66223",
      "addr_street": "Metcalf Avenue",
      "addr_housenumber": "14852"
    },
    {
      "id": 85580,
      "geometry": "POINT (-94.5816 39.082158)",
      "poi_name": "Never On Sunday Greek Restaurant",
      "osm_id": 1883278498,
      "amenity": "restaurant",
      "cuisine": "greek"
    },
    {
      "id": 85582,
      "geometry": "POINT (-94.5816 39.082158)",
      "poi_name": "Thai House",
      "osm_id": 1883278501,
      "amenity": "restaurant",
      "cuisine": "thai"
    },
    {
      "id": 85584,
      "geometry": "POINT (-94.5816 39.082158)",
      "poi_name": "AfroBeat Bar & Restaraunt",
      "osm_id": 1883278517,
      "amenity": "restaurant"
    },
    {
      "id": 101141,
      "geometry": "POINT (-94.5816 39.082158)",
      "poi_name": "Michael Forbes Grille",
      "osm_id": 6612199585,
      "amenity": "restaurant"
    },
    {
      "id": 91479,
      "geometry": "POINT (-94.5816 39.082158)",
      "poi_name": "Bravo Cucino",
      "osm_id": 2068679952,
      "amenity": "restaurant"
    },
    {
      "id": 91480,
      "geometry": "POINT (-94.5816 39.082158)",
      "poi_name": "Bristol Seafood Grill",
      "osm_id": 2068680004,
      "amenity": "restaurant"
    },
    {
      "id": 91481,
      "geometry": "POINT (-94.5816 39.082158)",
      "poi_name": "Joe's Kansas City Bar-B-Que",
      "osm_id": 2068680135,
      "amenity": "restaurant",
      "opening_hours": "Mo-Sa 11:00-21:00"
    },
    {
      "id": 91482,
      "geometry": "POINT (-94.5816 39.082158)",
      "poi_name": "Houlihan's",
      "osm_id": 2068680139,
      "amenity": "restaurant"
    },
    {
      "id": 91718,
      "geometry": "POINT (-94.5816 39.082158)",
      "poi_name": "Mr. Goodcents",
      "osm_id": 2085186659,
      "amenity": "restaurant",
      "cuisine": "sandwich"
    },
    {
      "id": 91116,
      "geometry": "POINT (-94.5816 39.082158)",
      "poi_name": "Classic Cup Cafe",
      "osm_id": 2043285973,
      "amenity": "restaurant"
    },
    {
      "id": 97054,
      "geometry": "POINT (-94.5816 39.082158)",
      "poi_name": "Sahara Mediterranean Grill",
      "osm_id": 6459262925,
      "amenity": "restaurant",
      "cuisine": "mediterranean",
      "phone": "+1-913-257-5522",
      "addr_street": "West 135th Street",
      "addr_housenumber": "7060"
    },
    {
      "id": 113247,
      "geometry": "POINT (-94.5816 39.082158)",
      "poi_name": "K Macho's",
      "osm_id": 3827071083,
      "amenity": "restaurant",
      "cuisine": "mexican"
    },
    {
      "id": 150633,
      "geometry": "POINT (-94.5816 39.082158)",
      "poi_name": "Missouri Mud",
      "osm_id": 4060520364,
      "amenity": "restaurant"
    },
    {
      "id": 131154,
      "geometry": "POINT (-94.5816 39.082158)",
      "poi_name": "Eat Fit Go",
      "osm_id": 9903439829,
      "amenity": "restaurant",
      "description": "Eating healthy should be easy, no matter how busy you are \u2014 and with Eat Fit Go, it is. With our chef-prepared meals, you can eat well morning, noon, night, and any time between. Eat Fit Go is about finding a balance between consuming what your body needs"
    },
    {
      "id": 134220,
      "geometry": "POINT (-94.5816 39.082158)",
      "poi_name": "Pizza Hut",
      "osm_id": 11460555564,
      "amenity": "restaurant",
      "cuisine": "pizza"
    },
    {
      "id": 134172,
      "geometry": "POINT (-94.5816 39.082158)",
      "poi_name": "CAVA",
      "osm_id": 11458646174,
      "amenity": "restaurant",
      "cuisine": "mediterranean"
    },
    {
      "id": 150639,
      "geometry": "POINT (-94.5816 39.082158)",
      "poi_name": "Pizza Hut",
      "osm_id": 4060534336,
      "amenity": "restaurant",
      "cuisine": "pizza"
    },
    {
      "id": 150636,
      "geometry": "POINT (-94.5816 39.082158)",
      "poi_name": "Jose Peppers",
      "osm_id": 4060534325,
      "amenity": "restaurant"
    },
    {
      "id": 162530,
      "geometry": "POINT (-94.5816 39.082158)",
      "poi_name": "Ika Grill",
      "osm_id": 4934441143,
      "amenity": "restaurant",
      "cuisine": "sushi",
      "opening_hours": "Mo-Th 11:00-21:00, Fr 11:00-22:00, Sa 12:00-22:00, Su 12:00-21:00",
      "addr_state": "KS",
      "addr_city": "Leawood",
      "addr_postcode": "66211",
      "addr_street": "Roe Avenue",
      "addr_housenumber": "11725"
    },
    {
      "id": 157696,
      "geometry": "POINT (-94.5816 39.082158)",
      "poi_name": "Kolache Factory",
      "osm_id": 4720623254,
      "amenity": "restaurant"
    },
    {
      "id": 159593,
      "geometry": "POINT (-94.5816 39.082158)",
      "poi_name": "Deer Trace Golf Grill & Restaurant",
      "osm_id": 4799418372,
      "amenity": "restaurant",
      "cuisine": "burger"
    },
    {
      "id": 162531,
      "geometry": "POINT (-94.5816 39.082158)",
      "poi_name": "Mr. Gyros",
      "osm_id": 4934441145,
      "amenity": "restaurant"
    },
    {
      "id": 174356,
      "geometry": "POINT (-94.5816 39.082158)",
      "poi_name": "Pizza Hut",
      "osm_id": 2477829940,
      "amenity": "restaurant",
      "cuisine": "pizza"
    },
    {
      "id": 169849,
      "geometry": "POINT (-94.5816 39.082158)",
      "poi_name": "Diamond Rays Grill and Bar",
      "osm_id": 2321918691,
      "amenity": "restaurant",
      "cuisine": "american",
      "addr_street": "Cantrell Rd",
      "addr_housenumber": "2817"
    },
    {
      "id": 170067,
      "geometry": "POINT (-94.5816 39.082158)",
      "poi_name": "Pizza Hut",
      "osm_id": 2327608949,
      "amenity": "restaurant",
      "cuisine": "pizza",
      "addr_street": "Main Street",
      "addr_housenumber": "3907"
    },
    {
      "id": 173178,
      "geometry": "POINT (-94.5816 39.082158)",
      "poi_name": "54th Street Bar & Grill",
      "osm_id": 2429478066,
      "amenity": "restaurant"
    },
    {
      "id": 174357,
      "geometry": "POINT (-94.5816 39.082158)",
      "poi_name": "Best Burrito",
      "osm_id": 2477849966,
      "amenity": "restaurant",
      "cuisine": "mexican",
      "addr_street": "S Commercial St",
      "addr_housenumber": "1805"
    },
    {
      "id": 174358,
      "geometry": "POINT (-94.5816 39.082158)",
      "poi_name": "Thai Pavilion",
      "osm_id": 2477858348,
      "amenity": "restaurant",
      "cuisine": "thai",
      "addr_street": "N 291 Hwy",
      "addr_housenumber": "2010"
    },
    {
      "id": 174359,
      "geometry": "POINT (-94.5816 39.082158)",
      "poi_name": "El Mezcal",
      "osm_id": 2477861072,
      "amenity": "restaurant",
      "cuisine": "mexican",
      "addr_street": "N 291 Hwy",
      "addr_housenumber": "2012"
    },
    {
      "id": 174362,
      "geometry": "POINT (-94.5816 39.082158)",
      "poi_name": "Best Burrito Express",
      "osm_id": 2477878390,
      "amenity": "restaurant",
      "cuisine": "mexican"
    },
    {
      "id": 174363,
      "geometry": "POINT (-94.5816 39.082158)",
      "poi_name": "Branding Iron BBQ",
      "osm_id": 2477880174,
      "amenity": "restaurant"
    },
    {
      "id": 174364,
      "geometry": "POINT (-94.5816 39.082158)",
      "poi_name": "Douhgboys Pizza",
      "osm_id": 2477894985,
      "amenity": "restaurant",
      "cuisine": "pizza",
      "addr_street": "N Commercial",
      "addr_housenumber": "1806"
    },
    {
      "id": 177616,
      "geometry": "POINT (-94.5816 39.082158)",
      "poi_name": "Tailleur",
      "osm_id": 2597289370,
      "amenity": "restaurant",
      "cuisine": "french",
      "addr_state": "MO",
      "addr_city": "Kansas City",
      "addr_postcode": "64111",
      "addr_street": "Main Street",
      "addr_housenumber": "3933"
    },
    {
      "id": 179931,
      "geometry": "POINT (-94.5816 39.082158)",
      "poi_name": "Taco Cacao",
      "osm_id": 10782525733,
      "amenity": "restaurant",
      "cuisine": "mexican",
      "addr_state": "MO",
      "addr_city": "Kansas City",
      "addr_postcode": "64114",
      "addr_street": "Wornall Road",
      "addr_housenumber": "7927"
    },
    {
      "id": 180475,
      "geometry": "POINT (-94.5816 39.082158)",
      "poi_name": "Ranch Cafe",
      "osm_id": 10802648822,
      "amenity": "restaurant",
      "cuisine": "breakfast;american",
      "addr_state": "MO",
      "addr_city": "Grandview",
      "addr_postcode": "64030",
      "addr_street": "West Frontage Road",
      "addr_housenumber": "12704"
    },
    {
      "id": 180535,
      "geometry": "POINT (-94.5816 39.082158)",
      "poi_name": "Gyu-Kaku Japanese BBQ Dining",
      "osm_id": 10805818264,
      "amenity": "restaurant",
      "cuisine": "japanese"
    },
    {
      "id": 180163,
      "geometry": "POINT (-94.5816 39.082158)",
      "poi_name": "Caf\u00e9 Sebastienne",
      "osm_id": 10793795749,
      "amenity": "restaurant",
      "opening_hours": "We-Fr 11:30-14:00; Sa-Su 10:30-14:00"
    },
    {
      "id": 193036,
      "geometry": "POINT (-94.5816 39.082158)",
      "poi_name": "Hereford House",
      "osm_id": 1491133650,
      "amenity": "restaurant",
      "cuisine": "steak_house",
      "opening_hours": "Mo-Th 11:00-21:00; Fr 11:00-22:00; Sa 15:00-22:00; Su 15:00-20:00"
    },
    {
      "id": 181034,
      "geometry": "POINT (-94.5816 39.082158)",
      "poi_name": "Hawaiian Bros.",
      "osm_id": 10830085245,
      "amenity": "restaurant",
      "cuisine": "hawaiian",
      "phone": "+1-913-901-5011",
      "addr_state": "KS",
      "addr_city": "Overland Park",
      "addr_postcode": "66223",
      "addr_street": "Metcalf Avenue",
      "addr_housenumber": "13680"
    },
    {
      "id": 186733,
      "geometry": "POINT (-94.5816 39.082158)",
      "poi_name": "Johnny\u2019s Tavern",
      "osm_id": 7946214929,
      "amenity": "restaurant"
    },
    {
      "id": 193047,
      "geometry": "POINT (-94.5816 39.082158)",
      "poi_name": "The Cheesecake Factory",
      "osm_id": 1492128734,
      "amenity": "restaurant",
      "cuisine": "american",
      "phone": "+1-816-9660-1919",
      "addr_state": "MO",
      "addr_city": "Kansas City",
      "addr_postcode": "64112",
      "addr_street": "Wyandotte Street",
      "addr_housenumber": "4701"
    },
    {
      "id": 196007,
      "geometry": "POINT (-94.5816 39.082158)",
      "poi_name": "Lucky Dynasty",
      "osm_id": 10557814867,
      "amenity": "restaurant",
      "cuisine": "chinese"
    },
    {
      "id": 194295,
      "geometry": "POINT (-94.5816 39.082158)",
      "poi_name": "Eggtc",
      "osm_id": 10269142312,
      "amenity": "restaurant",
      "website": "https://eggtckc.com/"
    },
    {
      "id": 194296,
      "geometry": "POINT (-94.5816 39.082158)",
      "poi_name": "Prime Sushi Bar",
      "osm_id": 10269142476,
      "amenity": "restaurant",
      "cuisine": "sushi",
      "website": "https://www.primesushikc.com/"
    },
    {
      "id": 194297,
      "geometry": "POINT (-94.5816 39.082158)",
      "poi_name": "The Blu Hwy Kansas City",
      "osm_id": 10269142591,
      "amenity": "restaurant",
      "website": "https://www.bluhwy.com/"
    },
    {
      "id": 194334,
      "geometry": "POINT (-94.5816 39.082158)",
      "poi_name": "Earl's Premier",
      "osm_id": 10270285729,
      "amenity": "restaurant",
      "website": "https://earlspremier.com/",
      "addr_state": "MO",
      "addr_city": "Kansas City",
      "addr_postcode": "64110",
      "addr_street": "East 59th Street",
      "addr_housenumber": "651"
    },
    {
      "id": 200231,
      "geometry": "POINT (-94.5816 39.082158)",
      "poi_name": "O'Neils Restaurant",
      "osm_id": 1028298792,
      "amenity": "restaurant"
    },
    {
      "id": 196341,
      "geometry": "POINT (-94.5816 39.082158)",
      "poi_name": "Fannie's African and Tropical Cuisine",
      "osm_id": 10573846765,
      "amenity": "restaurant",
      "cuisine": "african",
      "website": "https://www.fanniescuisine.com/",
      "addr_state": "MO",
      "addr_city": "Kansas City",
      "addr_postcode": "64110",
      "addr_street": "Troost Avenue",
      "addr_housenumber": "4105"
    },
    {
      "id": 196514,
      "geometry": "POINT (-94.5816 39.082158)",
      "poi_name": "The Big Biscuit",
      "osm_id": 10582912342,
      "amenity": "restaurant",
      "website": "https://bigbiscuit.com/location/westport/"
    },
    {
      "id": 200233,
      "geometry": "POINT (-94.5816 39.082158)",
      "poi_name": "Planet Sub",
      "osm_id": 1028305361,
      "amenity": "restaurant"
    },
    {
      "id": 207795,
      "geometry": "POINT (-94.5816 39.082158)",
      "poi_name": "Sushi Haru",
      "osm_id": 4960890353,
      "amenity": "restaurant",
      "cuisine": "sushi"
    },
    {
      "id": 201369,
      "geometry": "POINT (-94.5816 39.082158)",
      "poi_name": "Cafe Trio",
      "osm_id": 626296080,
      "amenity": "restaurant"
    },
    {
      "id": 201370,
      "geometry": "POINT (-94.5816 39.082158)",
      "poi_name": "Grand Street Cafe",
      "osm_id": 626297381,
      "amenity": "restaurant",
      "phone": "816-561-8000",
      "addr_city": "Kansas City",
      "addr_postcode": "64112",
      "addr_street": "Grand Avenue",
      "addr_housenumber": "4740"
    },
    {
      "id": 208435,
      "geometry": "POINT (-94.5816 39.082158)",
      "poi_name": "The Oliver",
      "osm_id": 4991263993,
      "amenity": "restaurant"
    },
    {
      "id": 208436,
      "geometry": "POINT (-94.5816 39.082158)",
      "poi_name": "The Granfalloon",
      "osm_id": 4991263994,
      "amenity": "restaurant"
    },
    {
      "id": 208395,
      "geometry": "POINT (-94.5816 39.082158)",
      "poi_name": "Jerusalem Cafe",
      "osm_id": 4989082719,
      "amenity": "restaurant",
      "cuisine": "mediterranean",
      "website": "https://jerusalemkc.com/",
      "phone": "(816) 442-8655",
      "addr_postcode": "64111",
      "addr_street": "Westport Road",
      "addr_housenumber": "515"
    },
    {
      "id": 208437,
      "geometry": "POINT (-94.5816 39.082158)",
      "poi_name": "Gram & Dun",
      "osm_id": 4991263995,
      "amenity": "restaurant"
    },
    {
      "id": 208396,
      "geometry": "POINT (-94.5816 39.082158)",
      "poi_name": "Pickleman's Gourmet Cafe",
      "osm_id": 4989082720,
      "amenity": "restaurant"
    },
    {
      "id": 208397,
      "geometry": "POINT (-94.5816 39.082158)",
      "poi_name": "Californos",
      "osm_id": 4989083126,
      "amenity": "restaurant"
    },
    {
      "id": 208399,
      "geometry": "POINT (-94.5816 39.082158)",
      "poi_name": "Moti Mahal II",
      "osm_id": 4989083132,
      "amenity": "restaurant"
    },
    {
      "id": 208401,
      "geometry": "POINT (-94.5816 39.082158)",
      "poi_name": "Providence By The Slice",
      "osm_id": 4989083148,
      "amenity": "restaurant"
    },
    {
      "id": 208402,
      "geometry": "POINT (-94.5816 39.082158)",
      "poi_name": "Guy's Deli",
      "osm_id": 4989083152,
      "amenity": "restaurant",
      "cuisine": "pizza",
      "phone": "+1-816-931-2777",
      "addr_state": "MO",
      "addr_city": "Kansas City",
      "addr_postcode": "64111",
      "addr_street": "Pennsylvania Avenue",
      "addr_housenumber": "4058"
    },
    {
      "id": 208403,
      "geometry": "POINT (-94.5816 39.082158)",
      "poi_name": "Char Bar",
      "osm_id": 4989083154,
      "amenity": "restaurant",
      "cuisine": "barbecue",
      "website": "https://charbarkc.com/",
      "phone": "+1-816-389-8600",
      "addr_state": "MO",
      "addr_city": "Kansas City",
      "addr_postcode": "64111",
      "addr_street": "Pennsylvania Avenue",
      "addr_housenumber": "4050"
    },
    {
      "id": 208404,
      "geometry": "POINT (-94.5816 39.082158)",
      "poi_name": "Green Room Burgers & Beer",
      "osm_id": 4989083155,
      "amenity": "restaurant",
      "cuisine": "burger",
      "capacity": "48",
      "outdoor_seating": "yes",
      "addr_state": "MO",
      "addr_city": "Kansas City",
      "addr_postcode": "64111",
      "addr_street": "Pennsylvania Avenue",
      "addr_housenumber": "4010"
    },
    {
      "id": 208446,
      "geometry": "POINT (-94.5816 39.082158)",
      "poi_name": "Mesob",
      "osm_id": 4991376524,
      "amenity": "restaurant",
      "website": "https://mesobkc.com",
      "delivery": "no",
      "addr_state": "MO",
      "addr_city": "Kansas City",
      "addr_postcode": "64111",
      "addr_street": "Broadway Boulevard",
      "addr_housenumber": "3601"
    },
    {
      "id": 208406,
      "geometry": "POINT (-94.5816 39.082158)",
      "poi_name": "Cancun Fiesta Fresh",
      "osm_id": 4989083157,
      "amenity": "restaurant"
    },
    {
      "id": 208409,
      "geometry": "POINT (-94.5816 39.082158)",
      "poi_name": "El Fogon",
      "osm_id": 4989083161,
      "amenity": "restaurant"
    },
    {
      "id": 208410,
      "geometry": "POINT (-94.5816 39.082158)",
      "poi_name": "Komatsu Ramen",
      "osm_id": 4989083162,
      "amenity": "restaurant"
    },
    {
      "id": 208447,
      "geometry": "POINT (-94.5816 39.082158)",
      "poi_name": "Peking Chinese",
      "osm_id": 4991376525,
      "amenity": "restaurant",
      "cuisine": "chinese",
      "website": "https://shioramenshop.com/",
      "phone": "+1-816-541-3215",
      "takeaway": "yes",
      "outdoor_seating": "no",
      "delivery": "no",
      "addr_state": "MO",
      "addr_city": "Kansas City",
      "addr_postcode": "64111",
      "addr_street": "Broadway Boulevard",
      "addr_housenumber": "3605"
    },
    {
      "id": 208448,
      "geometry": "POINT (-94.5816 39.082158)",
      "poi_name": "iPhotower",
      "osm_id": 4991376527,
      "amenity": "restaurant"
    },
    {
      "id": 208449,
      "geometry": "POINT (-94.5816 39.082158)",
      "poi_name": "Hamburger Mary's",
      "osm_id": 4991376528,
      "amenity": "restaurant",
      "cuisine": "american",
      "website": "https://www.hamburgermarys.com/kc/",
      "phone": "+1 (816) 842-1919",
      "addr_postcode": "64111",
      "addr_street": "Broadway Boulevard",
      "addr_housenumber": "3700"
    },
    {
      "id": 208450,
      "geometry": "POINT (-94.5816 39.082158)",
      "poi_name": "Island Spice",
      "osm_id": 4991376531,
      "amenity": "restaurant"
    },
    {
      "id": 208451,
      "geometry": "POINT (-94.5816 39.082158)",
      "poi_name": "Haha's Hub",
      "osm_id": 4991376545,
      "amenity": "restaurant"
    },
    {
      "id": 208453,
      "geometry": "POINT (-94.5816 39.082158)",
      "poi_name": "Cliff's Taphouse",
      "osm_id": 4991397534,
      "amenity": "restaurant"
    },
    {
      "id": 208454,
      "geometry": "POINT (-94.5816 39.082158)",
      "poi_name": "The Fix!",
      "osm_id": 4991397535,
      "amenity": "restaurant",
      "website": "https://www.thefixkc.com",
      "addr_state": "MO",
      "addr_city": "Kansas City",
      "addr_postcode": "64109",
      "addr_street": "East 31st Street",
      "addr_housenumber": "600"
    },
    {
      "id": 208455,
      "geometry": "POINT (-94.5816 39.082158)",
      "poi_name": "Union on the Hill",
      "osm_id": 4991397537,
      "amenity": "restaurant",
      "cuisine": "american",
      "website": "https://www.uniononthehill.com",
      "addr_state": "MO",
      "addr_city": "Kansas City",
      "addr_postcode": "64108",
      "addr_street": "Gillham Road",
      "addr_housenumber": "2976"
    },
    {
      "id": 213123,
      "geometry": "POINT (-94.5816 39.082158)",
      "poi_name": "Lufti's",
      "osm_id": 5235882840,
      "amenity": "restaurant"
    },
    {
      "id": 209319,
      "geometry": "POINT (-94.5816 39.082158)",
      "poi_name": "The Capital Grille",
      "osm_id": 5031838060,
      "amenity": "restaurant",
      "description": "Dry aged steaks, fresh seafood, highly acclaimed wines"
    },
    {
      "id": 213124,
      "geometry": "POINT (-94.5816 39.082158)",
      "poi_name": "King's Chef",
      "osm_id": 5235882841,
      "amenity": "restaurant",
      "cuisine": "chinese"
    },
    {
      "id": 213485,
      "geometry": "POINT (-94.5816 39.082158)",
      "poi_name": "China King",
      "osm_id": 5251508937,
      "amenity": "restaurant",
      "cuisine": "chinese",
      "addr_state": "KS",
      "addr_city": "Leawood",
      "addr_postcode": "66209",
      "addr_street": "West 135th Street",
      "addr_housenumber": "3634"
    },
    {
      "id": 225590,
      "geometry": "POINT (-94.5816 39.082158)",
      "poi_name": "Heirloom Bakery and Hearth",
      "osm_id": 11133321727,
      "amenity": "restaurant",
      "website": "https://www.heirloomkc.com/",
      "addr_state": "MO",
      "addr_city": "Kansas City",
      "addr_postcode": "64110",
      "addr_street": "East 63rd Street",
      "addr_housenumber": "401"
    },
    {
      "id": 221502,
      "geometry": "POINT (-94.5816 39.082158)",
      "poi_name": "Tin Roof",
      "osm_id": 10980362835,
      "amenity": "restaurant"
    },
    {
      "id": 222769,
      "geometry": "POINT (-94.5816 39.082158)",
      "poi_name": "Bibibop Asian Grill",
      "osm_id": 11035052905,
      "amenity": "restaurant"
    },
    {
      "id": 222776,
      "geometry": "POINT (-94.5816 39.082158)",
      "poi_name": "Chicken 'n Pickle",
      "osm_id": 11035093605,
      "amenity": "restaurant"
    },
    {
      "id": 224910,
      "geometry": "POINT (-94.5816 39.082158)",
      "poi_name": "JJ's",
      "osm_id": 11103394833,
      "amenity": "restaurant",
      "website": "https://jjsrestaurantkc.com/",
      "addr_state": "MO",
      "addr_city": "Kansas City",
      "addr_postcode": "64112",
      "addr_street": "Roanoke Parkway",
      "addr_housenumber": "4810"
    },
    {
      "id": 215697,
      "geometry": "POINT (-94.5816 39.082158)",
      "poi_name": "Torchy's Tacos",
      "osm_id": 5309749369,
      "amenity": "restaurant",
      "cuisine": "mexican",
      "addr_state": "KS",
      "addr_city": "Overland Park",
      "addr_postcode": "66223",
      "addr_street": "West 135th Street",
      "addr_housenumber": "6815"
    },
    {
      "id": 224814,
      "geometry": "POINT (-94.5816 39.082158)",
      "poi_name": "McAlister's Deli",
      "osm_id": 11099976532,
      "amenity": "restaurant",
      "cuisine": "sandwich"
    },
    {
      "id": 225527,
      "geometry": "POINT (-94.5816 39.082158)",
      "poi_name": "Plate Restaurant",
      "osm_id": 11129484534,
      "amenity": "restaurant",
      "website": "https://www.platekc.com/",
      "addr_state": "MO",
      "addr_city": "Kansas City",
      "addr_postcode": "64110",
      "addr_street": "East 63rd Street",
      "addr_housenumber": "701"
    },
    {
      "id": 225543,
      "geometry": "POINT (-94.5816 39.082158)",
      "poi_name": "Brady and Fox",
      "osm_id": 11132386064,
      "amenity": "restaurant",
      "cuisine": "irish",
      "website": "https://bradyandfox.com/",
      "addr_state": "MO",
      "addr_city": "Kansas City",
      "addr_postcode": "64110",
      "addr_street": "East 63rd Street",
      "addr_housenumber": "751"
    },
    {
      "id": 237580,
      "geometry": "POINT (-94.5816 39.082158)",
      "poi_name": "G's Jamaican Cuisine",
      "osm_id": 5839866869,
      "amenity": "restaurant",
      "cuisine": "jamaican",
      "phone": "+1 816-333-9566",
      "addr_state": "MO",
      "addr_city": "Kansas City",
      "addr_postcode": "64131",
      "addr_street": "Troost Avenue",
      "addr_housenumber": "7940"
    },
    {
      "id": 237581,
      "geometry": "POINT (-94.5816 39.082158)",
      "poi_name": "China Dragon",
      "osm_id": 5839866872,
      "amenity": "restaurant",
      "cuisine": "chinese"
    },
    {
      "id": 240966,
      "geometry": "POINT (-94.5816 39.082158)",
      "poi_name": "Bluestem",
      "osm_id": 6001608485,
      "amenity": "restaurant",
      "cuisine": "american",
      "opening_hours": "Tu-Th 16:00-23:00; Fr-Sa 16:00-24:00",
      "website": "http://bluestemkc.com"
    },
    {
      "id": 226975,
      "geometry": "POINT (-94.5816 39.082158)",
      "poi_name": "Another Broken Egg Cafe",
      "osm_id": 11175683538,
      "amenity": "restaurant",
      "cuisine": "breakfast;brunch;american",
      "website": "https://www.anotherbrokenegg.com/locations/prairie-village-ks/",
      "phone": "+1-913-354-6915",
      "addr_state": "KS",
      "addr_city": "Prairie Village",
      "addr_postcode": "66207",
      "addr_street": "West 95th Street",
      "addr_housenumber": "5358"
    },
    {
      "id": 238294,
      "geometry": "POINT (-94.5816 39.082158)",
      "poi_name": "Providence Pizza",
      "osm_id": 5872365485,
      "amenity": "restaurant"
    }
  ],
  "answer_type": "name",
  "question_entities": {
    "[1]": {
      "main_category": "amenity",
      "sub_category": "restaurant"
    },
    "[2]": {
      "distance": 110000,
      "text": "110 kilometers"
    },
    "[3]": {
      "main_category": "tourism",
      "sub_category": "zoo",
      "display_name": "Sea Life Aquarium Kansas City, Kansas City, MO",
      "geo_wkt": "POINT (-94.5816 39.082158)",
      "poi": {
        "id": 12063,
        "geometry": "POINT (-94.5816 39.082158)",
        "poi_name": "Sea Life Aquarium Kansas City",
        "osm_id": 6171269243,
        "tourism": "zoo",
        "website": "https://www.visitsealife.com/kansas-city/",
        "phone": "+1 (816)471-4386",
        "addr_state": "MO",
        "addr_city": "Kansas City",
        "addr_postcode": "64108",
        "addr_street": "Grand Boulevard",
        "addr_housenumber": "2475"
      }
    },
    "[4]": {
      "direction_desc": "south",
      "direction_predicate": "degrees(ST_Azimuth(origin.geometry, pois.geometry)) BETWEEN 157.5 AND 202.5"
    }
  },
  "id": 2625,
  "type": "range:direction+name"
}