{
  "question": "Where can I find fast food restaurant in the direction of Rent the Poconos, Stroudsburg, PA within 90 kilometers from Tank Masters, Pennsburg, PA?",
  "sql": "WITH\n    angle AS (SELECT degrees(ST_Azimuth(ST_GeomFromText('POINT (-75.497341 40.398608)',4326)::geography, ST_GeomFromText('POINT (-75.248787 40.99348)',4326)::geography)) AS value)\nSELECT * FROM pois,angle\nWHERE amenity = 'fast_food'\nAND ST_DWithin(pois.geometry, ST_GeomFromText('POINT (-75.497341 40.398608)',4326)::geography, 90000)\nAND (degrees(ST_Azimuth(ST_GeomFromText('POINT (-75.497341 40.398608)',4326)::geography, pois.geometry)) BETWEEN angle.value - 22.5 AND angle.value + 22.5);\n",
  "answers": [
    {
      "id": 35962,
      "geometry": "POINT (-75.345616 40.644222)",
      "poi_name": "Pizza Como",
      "osm_id": 2740429306,
      "amenity": "fast_food",
      "cuisine": "pizza",
      "addr_state": "PA",
      "addr_city": "Bethlehem",
      "addr_postcode": "18017",
      "addr_street": "Easton Avenue",
      "addr_housenumber": "2626",
      "value": 17.560538634831296
    },
    {
      "id": 59683,
      "geometry": "POINT (-75.3622 41.130652)",
      "poi_name": "Domino's",
      "osm_id": 5436525430,
      "amenity": "fast_food",
      "cuisine": "pizza",
      "phone": "+1-570-839-0444",
      "takeaway": "yes",
      "drive_through": "no",
      "outdoor_seating": "no",
      "delivery": "yes",
      "addr_state": "PA",
      "addr_city": "Mount Pocono",
      "addr_postcode": "18344",
      "addr_street": "Pocono Boulevard",
      "addr_housenumber": "1235",
      "value": 17.560538634831296
    },
    {
      "id": 63843,
      "geometry": "POINT (-75.325506 41.087448)",
      "poi_name": "Dunkin' Donuts",
      "osm_id": 5631547217,
      "amenity": "fast_food",
      "cuisine": "donut;coffee_shop",
      "takeaway": "yes",
      "addr_state": "PA",
      "addr_city": "Swiftwater",
      "addr_postcode": "18370",
      "addr_street": "PA 611",
      "addr_housenumber": "2055",
      "value": 17.560538634831296
    },
    {
      "id": 75344,
      "geometry": "POINT (-75.312704 40.731737)",
      "poi_name": "Carl's Corner Nazareth",
      "osm_id": 9724926205,
      "amenity": "fast_food",
      "cuisine": "sandwich",
      "addr_state": "PA",
      "addr_city": "Nazareth",
      "addr_postcode": "18064",
      "addr_street": "Nazareth Pike",
      "addr_housenumber": "848",
      "value": 17.560538634831296
    },
    {
      "id": 57630,
      "geometry": "POINT (-75.189444 40.695414)",
      "poi_name": "Deli Works",
      "osm_id": 5343935584,
      "amenity": "fast_food",
      "addr_state": "NJ",
      "addr_city": "Phillipsburg",
      "addr_postcode": "08865",
      "addr_street": "Memorial Parkway",
      "addr_housenumber": "400",
      "value": 17.560538634831296
    },
    {
      "id": 60698,
      "geometry": "POINT (-75.372772 41.120975)",
      "poi_name": "Subway",
      "osm_id": 5476509511,
      "amenity": "fast_food",
      "cuisine": "sandwich",
      "takeaway": "yes",
      "addr_state": "PA",
      "addr_city": "Mount Pocono",
      "addr_postcode": "18344",
      "addr_street": "PA 940",
      "addr_housenumber": "3236",
      "value": 17.560538634831296
    },
    {
      "id": 79830,
      "geometry": "POINT (-75.378854 40.622443)",
      "poi_name": "Subway",
      "osm_id": 831649301,
      "amenity": "fast_food",
      "cuisine": "sandwich",
      "opening_hours": "Mo-We 07:00-21:00; Th-Fr 07:00-22:00; Sa 09:00-22:00; Su 09:00-19:00",
      "website": "http://local.subway.com/FWPCons/frmSiteMainPage.aspx?CC=USA&LC=ENG&SS=24487-0",
      "phone": "+1-610-868-2647",
      "takeaway": "yes",
      "addr_state": "PA",
      "addr_city": "Bethlehem",
      "addr_postcode": "18018",
      "addr_street": "West Broad Street",
      "addr_housenumber": "8",
      "value": 17.560538634831296
    },
    {
      "id": 96482,
      "geometry": "POINT (-75.382792 41.112927)",
      "poi_name": "Peppino's",
      "osm_id": 6434253236,
      "amenity": "fast_food",
      "cuisine": "pizza",
      "addr_state": "PA",
      "addr_city": "Mount Pocono",
      "addr_postcode": "18344",
      "addr_street": "Route 940",
      "addr_housenumber": "2942",
      "value": 17.560538634831296
    },
    {
      "id": 90593,
      "geometry": "POINT (-75.095439 40.92175)",
      "poi_name": "Dunkin'",
      "osm_id": 2003101363,
      "amenity": "fast_food",
      "cuisine": "donut;coffee_shop",
      "takeaway": "yes",
      "addr_state": "PA",
      "addr_city": "Portland",
      "addr_postcode": "18351",
      "addr_street": "Delaware Avenue",
      "addr_housenumber": "398",
      "value": 17.560538634831296
    },
    {
      "id": 107345,
      "geometry": "POINT (-75.285972 40.655649)",
      "poi_name": "Wayback Burgers",
      "osm_id": 3554948397,
      "amenity": "fast_food",
      "cuisine": "burger",
      "takeaway": "yes",
      "addr_state": "PA",
      "addr_city": "Easton",
      "addr_postcode": "18045",
      "addr_street": "Southmont Way",
      "addr_housenumber": "4403",
      "value": 17.560538634831296
    },
    {
      "id": 97303,
      "geometry": "POINT (-75.112361 41.049691)",
      "poi_name": "Frank's",
      "osm_id": 6471108874,
      "amenity": "fast_food",
      "cuisine": "pizza",
      "addr_state": "PA",
      "addr_city": "East Stroudsburg",
      "addr_postcode": "18302",
      "addr_street": "Milford Road",
      "addr_housenumber": "4543",
      "value": 17.560538634831296
    },
    {
      "id": 107265,
      "geometry": "POINT (-75.248128 40.68267)",
      "poi_name": "Arby's",
      "osm_id": 3548686785,
      "amenity": "fast_food",
      "cuisine": "sandwich",
      "takeaway": "yes",
      "addr_state": "PA",
      "value": 17.560538634831296
    },
    {
      "id": 97555,
      "geometry": "POINT (-75.409912 41.111113)",
      "poi_name": "Vinny's Pizzeria",
      "osm_id": 6483924801,
      "amenity": "fast_food",
      "cuisine": "pizza",
      "addr_state": "PA",
      "addr_city": "Pocono Summit",
      "addr_postcode": "18346",
      "addr_street": "Route 940",
      "addr_housenumber": "2591",
      "value": 17.560538634831296
    },
    {
      "id": 97559,
      "geometry": "POINT (-75.404927 41.10924)",
      "poi_name": "Home Run Heros",
      "osm_id": 6483963772,
      "amenity": "fast_food",
      "cuisine": "sandwich",
      "addr_state": "PA",
      "addr_city": "Pocono Summit",
      "addr_postcode": "18346",
      "addr_street": "Route 940",
      "addr_housenumber": "2657",
      "value": 17.560538634831296
    },
    {
      "id": 124231,
      "geometry": "POINT (-75.428095 40.62528)",
      "poi_name": "Domino's",
      "osm_id": 6904198069,
      "amenity": "fast_food",
      "cuisine": "pizza",
      "takeaway": "yes",
      "addr_state": "PA",
      "addr_city": "Allentown",
      "addr_postcode": "18109",
      "addr_street": "Union Boulevard",
      "addr_housenumber": "1826",
      "value": 17.560538634831296
    },
    {
      "id": 124262,
      "geometry": "POINT (-75.431543 40.624954)",
      "poi_name": "Little Caesars",
      "osm_id": 6907375382,
      "amenity": "fast_food",
      "cuisine": "pizza",
      "website": "https://littlecaesars.com/en-us/store/9592/",
      "takeaway": "yes",
      "addr_state": "PA",
      "addr_city": "Allentown",
      "addr_postcode": "18109",
      "addr_street": "Union Boulevard",
      "addr_housenumber": "1636",
      "value": 17.560538634831296
    },
    {
      "id": 124377,
      "geometry": "POINT (-75.443802 40.616558)",
      "poi_name": "Subway",
      "osm_id": 6914168874,
      "amenity": "fast_food",
      "cuisine": "sandwich",
      "takeaway": "yes",
      "addr_state": "PA",
      "addr_city": "Allentown",
      "addr_postcode": "18109",
      "addr_street": "Hanover Avenue",
      "addr_housenumber": "755",
      "value": 17.560538634831296
    },
    {
      "id": 124263,
      "geometry": "POINT (-75.435451 40.625063)",
      "poi_name": "McDonald's",
      "osm_id": 6907377690,
      "amenity": "fast_food",
      "cuisine": "burger",
      "website": "https://www.mcdonalds.com/us/en-us/location/pa/allentown/1321-union-blvd/124.html",
      "takeaway": "yes",
      "addr_state": "PA",
      "addr_city": "Allentown",
      "addr_postcode": "18109",
      "addr_street": "Union Boulevard",
      "addr_housenumber": "1321",
      "value": 17.560538634831296
    },
    {
      "id": 124685,
      "geometry": "POINT (-75.460658 40.605817)",
      "poi_name": "Dunkin' Donuts",
      "osm_id": 6925915953,
      "amenity": "fast_food",
      "cuisine": "donut;coffee_shop",
      "takeaway": "yes",
      "addr_state": "PA",
      "addr_city": "Allentown",
      "addr_postcode": "18101",
      "addr_street": "West Hamilton Street",
      "addr_housenumber": "215",
      "value": 17.560538634831296
    },
    {
      "id": 124948,
      "geometry": "POINT (-75.475058 40.609688)",
      "poi_name": "Taqueria Los Amigos",
      "osm_id": 6943158030,
      "amenity": "fast_food",
      "cuisine": "mexican",
      "addr_state": "PA",
      "addr_city": "Allentown",
      "addr_postcode": "18102",
      "addr_street": "North 7th Street",
      "addr_housenumber": "515",
      "value": 17.560538634831296
    },
    {
      "id": 124956,
      "geometry": "POINT (-75.474276 40.608052)",
      "poi_name": "El Patron",
      "osm_id": 6943186651,
      "amenity": "fast_food",
      "cuisine": "mexican",
      "addr_state": "PA",
      "addr_city": "Allentown",
      "addr_postcode": "18102",
      "addr_street": "North 7th Street",
      "addr_housenumber": "405",
      "value": 17.560538634831296
    },
    {
      "id": 128189,
      "geometry": "POINT (-75.210064 40.687052)",
      "poi_name": "Domino's",
      "osm_id": 8132598529,
      "amenity": "fast_food",
      "cuisine": "pizza",
      "website": "https://www.dominos.com",
      "phone": "+1 610 258 7100",
      "takeaway": "yes",
      "addr_state": "PA",
      "addr_city": "Easton",
      "addr_postcode": "18042",
      "addr_street": "Larry Holmes Drive",
      "addr_housenumber": "330",
      "value": 17.560538634831296
    },
    {
      "id": 129612,
      "geometry": "POINT (-75.338138 40.647503)",
      "poi_name": "Vic's Bagels",
      "osm_id": 9832052219,
      "amenity": "fast_food",
      "cuisine": "bagel",
      "addr_state": "PA",
      "addr_city": "Bethlehem",
      "addr_postcode": "18017",
      "addr_street": "Easton Avenue",
      "addr_housenumber": "2910",
      "value": 17.560538634831296
    },
    {
      "id": 129082,
      "geometry": "POINT (-75.490159 40.642537)",
      "poi_name": "Philly Pretzel Factory",
      "osm_id": 8210322224,
      "amenity": "fast_food",
      "cuisine": "pretzel",
      "takeaway": "yes",
      "addr_state": "PA",
      "addr_city": "Whitehall",
      "addr_postcode": "18052",
      "addr_street": "MacArthur Road",
      "addr_housenumber": "2411",
      "value": 17.560538634831296
    },
    {
      "id": 131524,
      "geometry": "POINT (-75.428768 40.641318)",
      "poi_name": "Yocco's",
      "osm_id": 9919736804,
      "amenity": "fast_food",
      "cuisine": "hot_dog",
      "addr_state": "PA",
      "addr_city": "Allentown",
      "addr_postcode": "18109",
      "addr_street": "Catasauqua Road",
      "addr_housenumber": "1930",
      "value": 17.560538634831296
    },
    {
      "id": 142353,
      "geometry": "POINT (-75.418076 40.656706)",
      "poi_name": "Moe's Southwest Grill",
      "osm_id": 6311987066,
      "amenity": "fast_food",
      "cuisine": "mexican",
      "takeaway": "yes",
      "addr_state": "PA",
      "addr_city": "Bethlehem",
      "addr_postcode": "18017",
      "addr_street": "Schoenersville Road",
      "addr_housenumber": "3211",
      "value": 17.560538634831296
    },
    {
      "id": 142354,
      "geometry": "POINT (-75.418218 40.656843)",
      "poi_name": "Saladworks",
      "osm_id": 6311987072,
      "amenity": "fast_food",
      "addr_state": "PA",
      "addr_city": "Bethlehem",
      "addr_postcode": "18017",
      "addr_street": "Schoenersville Road",
      "addr_housenumber": "3215",
      "value": 17.560538634831296
    },
    {
      "id": 142234,
      "geometry": "POINT (-75.426973 40.643458)",
      "poi_name": "Primo Hoagies",
      "osm_id": 6307335749,
      "amenity": "fast_food",
      "cuisine": "sandwich",
      "addr_state": "PA",
      "addr_city": "Bethlehem",
      "addr_postcode": "18018",
      "addr_street": "Catasauqua Road",
      "addr_housenumber": "2410",
      "value": 17.560538634831296
    },
    {
      "id": 142379,
      "geometry": "POINT (-75.381848 40.621273)",
      "poi_name": "Clusters Handcrafted Popcorn",
      "osm_id": 6312673771,
      "amenity": "fast_food",
      "cuisine": "popcorn",
      "opening_hours": "Mo-Su 12:00-18:00",
      "website": "https://www.clusterspopcornbethlehem.com/",
      "phone": "+1 610 849 2576",
      "addr_state": "PA",
      "addr_city": "Bethlehem",
      "addr_postcode": "18018",
      "addr_street": "Main Street",
      "addr_housenumber": "530",
      "value": 17.560538634831296
    },
    {
      "id": 143446,
      "geometry": "POINT (-75.367084 40.633703)",
      "poi_name": "Subway",
      "osm_id": 6340862874,
      "amenity": "fast_food",
      "cuisine": "sandwich",
      "takeaway": "yes",
      "addr_state": "PA",
      "addr_city": "Bethlehem",
      "addr_postcode": "18018",
      "addr_street": "Easton Avenue",
      "addr_housenumber": "1525",
      "value": 17.560538634831296
    },
    {
      "id": 143386,
      "geometry": "POINT (-75.370628 40.625573)",
      "poi_name": "Papa John's",
      "osm_id": 6338848540,
      "amenity": "fast_food",
      "cuisine": "pizza",
      "addr_state": "PA",
      "addr_city": "Bethlehem",
      "addr_postcode": "18018",
      "addr_street": "Linden Street",
      "addr_housenumber": "817",
      "value": 17.560538634831296
    },
    {
      "id": 146031,
      "geometry": "POINT (-75.185881 40.695938)",
      "poi_name": "Manhattan Bagel",
      "osm_id": 7406737177,
      "amenity": "fast_food",
      "cuisine": "bagel",
      "takeaway": "yes",
      "addr_state": "NJ",
      "addr_city": "Phillipsburg",
      "addr_postcode": "08865",
      "addr_street": "Memorial Parkway",
      "addr_housenumber": "500",
      "value": 17.560538634831296
    },
    {
      "id": 171048,
      "geometry": "POINT (-75.377745 40.612094)",
      "poi_name": "Domino's",
      "osm_id": 2358062068,
      "amenity": "fast_food",
      "cuisine": "pizza",
      "takeaway": "yes",
      "addr_city": "Bethlehem",
      "addr_street": "East 3rd Street",
      "addr_housenumber": "19",
      "value": 17.560538634831296
    },
    {
      "id": 178927,
      "geometry": "POINT (-75.25383 40.688832)",
      "poi_name": "Wingstop",
      "osm_id": 10743534447,
      "amenity": "fast_food",
      "cuisine": "wings",
      "takeaway": "yes",
      "addr_state": "PA",
      "addr_city": "Easton",
      "addr_postcode": "18045",
      "addr_street": "Nazareth Road",
      "addr_housenumber": "2469",
      "value": 17.560538634831296
    },
    {
      "id": 173252,
      "geometry": "POINT (-75.173746 40.69826)",
      "poi_name": "Dunkin'",
      "osm_id": 2432779264,
      "amenity": "fast_food",
      "cuisine": "donut;coffee_shop",
      "wheelchair": "yes",
      "phone": "(908) 859-2460",
      "takeaway": "yes",
      "addr_city": "Phillipsburg",
      "addr_postcode": "08865",
      "addr_street": "Memorial Parkway",
      "addr_housenumber": "853",
      "value": 17.560538634831296
    },
    {
      "id": 172347,
      "geometry": "POINT (-75.171759 40.698349)",
      "poi_name": "Toby's Cup",
      "osm_id": 2400635881,
      "amenity": "fast_food",
      "cuisine": "burger",
      "website": "https://www.yelp.com/biz/tobys-cup-phillipsburg",
      "phone": "(908) 859-1925",
      "addr_city": "Phillipsburg",
      "addr_postcode": "08865",
      "addr_street": "Memorial Parkway/U.S. 22 West",
      "addr_housenumber": "857",
      "value": 17.560538634831296
    },
    {
      "id": 178929,
      "geometry": "POINT (-75.252629 40.689711)",
      "poi_name": "New York Bagels & Deli",
      "osm_id": 10743605338,
      "amenity": "fast_food",
      "cuisine": "bagel",
      "addr_state": "PA",
      "addr_city": "Easton",
      "addr_postcode": "18045",
      "addr_street": "Nazareth Road",
      "addr_housenumber": "2525",
      "value": 17.560538634831296
    },
    {
      "id": 178931,
      "geometry": "POINT (-75.251997 40.68975)",
      "poi_name": "Jimmy's Hot Dogs",
      "osm_id": 10743605342,
      "amenity": "fast_food",
      "cuisine": "hot_dog",
      "addr_state": "PA",
      "addr_city": "Easton",
      "addr_postcode": "18045",
      "addr_street": "Nazareth Road",
      "addr_housenumber": "2555",
      "value": 17.560538634831296
    },
    {
      "id": 199860,
      "geometry": "POINT (-75.369103 40.631705)",
      "poi_name": "Domino's",
      "osm_id": 993739558,
      "amenity": "fast_food",
      "cuisine": "pizza",
      "takeaway": "yes",
      "addr_state": "PA",
      "addr_city": "Bethlehem",
      "addr_postcode": "18018",
      "addr_street": "Easton Avenue",
      "addr_housenumber": "1353",
      "value": 17.560538634831296
    },
    {
      "id": 199864,
      "geometry": "POINT (-75.367299 40.633478)",
      "poi_name": "Little Caesars",
      "osm_id": 993745810,
      "amenity": "fast_food",
      "cuisine": "pizza",
      "website": "https://littlecaesars.com/en-us/store/8451/",
      "takeaway": "yes",
      "addr_state": "PA",
      "addr_city": "Bethlehem",
      "addr_postcode": "18018",
      "addr_street": "Easton Avenue",
      "addr_housenumber": "1517",
      "value": 17.560538634831296
    },
    {
      "id": 199865,
      "geometry": "POINT (-75.369497 40.630596)",
      "poi_name": "Pizza Hut",
      "osm_id": 993745813,
      "amenity": "fast_food",
      "cuisine": "pizza",
      "addr_state": "PA",
      "addr_city": "Bethlehem",
      "addr_postcode": "18018",
      "addr_street": "Easton Avenue",
      "addr_housenumber": "1314",
      "value": 17.560538634831296
    },
    {
      "id": 199866,
      "geometry": "POINT (-75.370635 40.630729)",
      "poi_name": "Dunkin' Donuts",
      "osm_id": 993745814,
      "amenity": "fast_food",
      "cuisine": "donut;coffee_shop",
      "takeaway": "yes",
      "addr_state": "PA",
      "addr_city": "Bethlehem",
      "addr_postcode": "18018",
      "addr_street": "Linden Street",
      "addr_housenumber": "1301",
      "value": 17.560538634831296
    },
    {
      "id": 211435,
      "geometry": "POINT (-75.490359 40.642634)",
      "poi_name": "Saladworks",
      "osm_id": 5157429400,
      "amenity": "fast_food",
      "cuisine": "salad",
      "takeaway": "yes",
      "outdoor_seating": "no",
      "addr_state": "PA",
      "addr_city": "Whitehall",
      "addr_postcode": "18052",
      "addr_street": "MacArthur Road",
      "addr_housenumber": "2419",
      "value": 17.560538634831296
    },
    {
      "id": 211442,
      "geometry": "POINT (-75.489033 40.639721)",
      "poi_name": "Dunkin'",
      "osm_id": 5157595372,
      "amenity": "fast_food",
      "cuisine": "donut;coffee_shop",
      "takeaway": "yes",
      "addr_state": "PA",
      "addr_city": "Whitehall",
      "addr_postcode": "18052",
      "addr_street": "MacArthur Road",
      "addr_housenumber": "2267",
      "value": 17.560538634831296
    },
    {
      "id": 211666,
      "geometry": "POINT (-75.263217 40.999504)",
      "poi_name": "Moe's Southwest Grill",
      "osm_id": 5166942831,
      "amenity": "fast_food",
      "cuisine": "mexican",
      "website": "https://moes.com/",
      "phone": "+1 570-422-6630",
      "takeaway": "yes",
      "addr_state": "PA",
      "addr_city": "Stroudsburg",
      "addr_postcode": "18360",
      "addr_street": "Frantz Road",
      "addr_housenumber": "290",
      "value": 17.560538634831296
    },
    {
      "id": 217521,
      "geometry": "POINT (-75.37551 41.120992)",
      "poi_name": "Taco Bell",
      "osm_id": 9228822754,
      "amenity": "fast_food",
      "cuisine": "tex-mex",
      "website": "https://locations.tacobell.com/pa/mount-pocono/3196-route-940.html",
      "phone": "(570) 989-2979",
      "takeaway": "yes",
      "addr_state": "PA",
      "addr_city": "Mount Pocono",
      "addr_postcode": "18344",
      "addr_street": "PA 611",
      "addr_housenumber": "3128",
      "value": 17.560538634831296
    },
    {
      "id": 229975,
      "geometry": "POINT (-75.235075 40.989782)",
      "poi_name": "Five Guys",
      "osm_id": 4408584889,
      "amenity": "fast_food",
      "cuisine": "burger",
      "takeaway": "yes",
      "official_name": "Five Guys Burgers and Fries",
      "addr_state": "PA",
      "addr_city": "Stroudsburg",
      "addr_postcode": "18360",
      "addr_street": "Charles Way",
      "addr_housenumber": "361",
      "value": 17.560538634831296
    },
    {
      "id": 230701,
      "geometry": "POINT (-75.312448 41.041799)",
      "poi_name": "Burger King",
      "osm_id": 4435530357,
      "amenity": "fast_food",
      "cuisine": "burger",
      "takeaway": "yes",
      "addr_state": "PA",
      "addr_city": "Tannersville",
      "addr_postcode": "18372",
      "addr_street": "PA 715",
      "addr_housenumber": "2623",
      "value": 17.560538634831296
    },
    {
      "id": 236490,
      "geometry": "POINT (-75.29678 41.018715)",
      "poi_name": "Subway",
      "osm_id": 5794741808,
      "amenity": "fast_food",
      "cuisine": "sandwich",
      "takeaway": "yes",
      "addr_state": "PA",
      "addr_city": "Bartonsville",
      "addr_postcode": "18321",
      "addr_street": "PA 611",
      "addr_housenumber": "3180",
      "value": 17.560538634831296
    },
    {
      "id": 236500,
      "geometry": "POINT (-75.301436 41.033539)",
      "poi_name": "Domino's",
      "osm_id": 5794770846,
      "amenity": "fast_food",
      "cuisine": "pizza",
      "takeaway": "yes",
      "addr_state": "PA",
      "addr_city": "Tannersville",
      "addr_postcode": "18372",
      "addr_street": "PA 611",
      "addr_housenumber": "2951",
      "value": 17.560538634831296
    },
    {
      "id": 236502,
      "geometry": "POINT (-75.445165 40.977866)",
      "poi_name": "Dunkin' Donuts",
      "osm_id": 5794778422,
      "amenity": "fast_food",
      "cuisine": "donut",
      "addr_state": "PA",
      "addr_city": "Effort",
      "addr_postcode": "18330",
      "addr_street": "PA 115",
      "addr_housenumber": "3198",
      "value": 17.560538634831296
    },
    {
      "id": 236503,
      "geometry": "POINT (-75.182012 40.991983)",
      "poi_name": "Domino's",
      "osm_id": 5794783414,
      "amenity": "fast_food",
      "cuisine": "pizza",
      "takeaway": "yes",
      "addr_state": "PA",
      "addr_city": "East Stroudsburg",
      "addr_postcode": "18301",
      "addr_street": "Lincoln Avenue",
      "addr_housenumber": "412",
      "value": 17.560538634831296
    },
    {
      "id": 236505,
      "geometry": "POINT (-75.08717 41.058777)",
      "poi_name": "Domino's",
      "osm_id": 5794797433,
      "amenity": "fast_food",
      "cuisine": "pizza",
      "takeaway": "yes",
      "addr_state": "PA",
      "addr_city": "East Stroudsburg",
      "addr_postcode": "18302",
      "addr_street": "Business Drive",
      "addr_housenumber": "900",
      "value": 17.560538634831296
    },
    {
      "id": 236506,
      "geometry": "POINT (-75.411683 40.623474)",
      "poi_name": "Ginza Sushi",
      "osm_id": 5794800234,
      "amenity": "fast_food",
      "cuisine": "sushi;japanese",
      "addr_state": "PA",
      "addr_city": "Bethlehem",
      "addr_postcode": "18018",
      "addr_street": "West Broad Street",
      "addr_housenumber": "1903",
      "value": 17.560538634831296
    },
    {
      "id": 238398,
      "geometry": "POINT (-75.429739 40.639728)",
      "poi_name": "Subway",
      "osm_id": 5876415696,
      "amenity": "fast_food",
      "cuisine": "sandwich",
      "takeaway": "yes",
      "addr_state": "PA",
      "addr_city": "Allentown",
      "addr_postcode": "18109",
      "addr_street": "Catasauqua Road",
      "addr_housenumber": "1882",
      "value": 17.560538634831296
    },
    {
      "id": 236863,
      "geometry": "POINT (-75.107702 41.05125)",
      "poi_name": "Dunkin' Donuts",
      "osm_id": 5809688221,
      "amenity": "fast_food",
      "cuisine": "donut",
      "addr_state": "PA",
      "addr_city": "East Stroudsburg",
      "addr_postcode": "18302",
      "addr_street": "Milford Road",
      "addr_housenumber": "5019",
      "value": 17.560538634831296
    },
    {
      "id": 236775,
      "geometry": "POINT (-75.414084 40.652396)",
      "poi_name": "Burger King",
      "osm_id": 5807665760,
      "amenity": "fast_food",
      "cuisine": "burger",
      "takeaway": "yes",
      "addr_state": "PA",
      "addr_city": "Bethlehem",
      "addr_postcode": "18017",
      "addr_street": "Schoenersville Road",
      "addr_housenumber": "3105",
      "value": 17.560538634831296
    },
    {
      "id": 239578,
      "geometry": "POINT (-75.294855 40.650694)",
      "poi_name": "Subway",
      "osm_id": 5927886793,
      "amenity": "fast_food",
      "cuisine": "sandwich",
      "opening_hours": "Mo-Th 08:00-21:00; Fr-Sa 08:00-21:30",
      "website": "https://order.subway.com/Stores/Find.aspx#61277",
      "phone": "+1 610 849 2343",
      "takeaway": "yes",
      "delivery": "yes",
      "addr_state": "PA",
      "addr_city": "Easton",
      "addr_postcode": "18045",
      "addr_street": "Freemansburg Avenue",
      "addr_housenumber": "4753",
      "value": 17.560538634831296
    },
    {
      "id": 239579,
      "geometry": "POINT (-75.294778 40.650477)",
      "poi_name": "Chipotle",
      "osm_id": 5927886795,
      "amenity": "fast_food",
      "cuisine": "mexican",
      "opening_hours": "Mo-Su 10:45-22:00",
      "website": "https://www.chipotle.com/",
      "phone": "+1 610 691 1925",
      "takeaway": "yes",
      "delivery": "yes",
      "addr_state": "PA",
      "addr_city": "Easton",
      "addr_postcode": "18045",
      "addr_street": "Freemansburg Avenue",
      "addr_housenumber": "4743",
      "value": 17.560538634831296
    },
    {
      "id": 243896,
      "geometry": "POINT (-75.491767 40.636789)",
      "poi_name": "Subway",
      "osm_id": 7685015199,
      "amenity": "fast_food",
      "cuisine": "sandwich",
      "takeaway": "yes",
      "addr_state": "PA",
      "addr_city": "Whitehall",
      "addr_postcode": "18052",
      "addr_street": "MacArthur Road",
      "addr_housenumber": "2180",
      "value": 17.560538634831296
    },
    {
      "id": 243589,
      "geometry": "POINT (-75.1926 40.985954)",
      "poi_name": "Nino's Italian Hotdogs",
      "osm_id": 7661098830,
      "amenity": "fast_food",
      "cuisine": "hot_dog",
      "addr_state": "PA",
      "addr_city": "Stroudsburg",
      "addr_postcode": "18360",
      "addr_street": "Main Street",
      "addr_housenumber": "572",
      "value": 17.560538634831296
    },
    {
      "id": 243838,
      "geometry": "POINT (-75.3988 40.639554)",
      "poi_name": "Good Times Pizzeria",
      "osm_id": 7681823955,
      "amenity": "fast_food",
      "cuisine": "pizza",
      "addr_state": "PA",
      "addr_city": "Bethlehem",
      "addr_postcode": "18017",
      "addr_street": "Schoenersville Road",
      "addr_housenumber": "2114",
      "value": 17.560538634831296
    },
    {
      "id": 243899,
      "geometry": "POINT (-75.418307 40.656948)",
      "poi_name": "Burgerim",
      "osm_id": 7685089148,
      "amenity": "fast_food",
      "cuisine": "burger",
      "addr_state": "PA",
      "addr_city": "Bethlehem",
      "addr_postcode": "18017",
      "addr_street": "Schoenersville Road",
      "addr_housenumber": "3217",
      "value": 17.560538634831296
    }
  ],
  "answer_type": "loc",
  "question_entities": {
    "[2]": {
      "distance": 90000,
      "text": "90 kilometers"
    },
    "[3]": {
      "main_category": "tourism",
      "sub_category": "aquarium",
      "display_name": "Tank Masters, Pennsburg, PA",
      "geo_wkt": "POINT (-75.497341 40.398608)",
      "poi": {
        "id": 12565,
        "geometry": "POINT (-75.497341 40.398608)",
        "poi_name": "Tank Masters",
        "osm_id": 7329544147,
        "tourism": "aquarium",
        "phone": "+1 267-923-5015",
        "addr_state": "PA",
        "addr_city": "Pennsburg",
        "addr_street": "Main Street",
        "addr_housenumber": "359"
      }
    },
    "[4]": {
      "main_category": "tourism",
      "sub_category": "hotel",
      "display_name": "Rent The Poconos, Stroudsburg, PA",
      "geo_wkt": "POINT (-75.248787 40.99348)",
      "poi": {
        "id": 24172,
        "geometry": "POINT (-75.248787 40.99348)",
        "poi_name": "Rent The Poconos",
        "osm_id": 9366946167,
        "tourism": "hotel",
        "opening_hours": "24/7",
        "website": "https://rentthepoconos.com/",
        "phone": "+1-570-376-8933",
        "addr_state": "PA",
        "addr_city": "Stroudsburg",
        "addr_postcode": "18360",
        "addr_street": "Applegate Road",
        "addr_housenumber": "205"
      }
    },
    "[1]": {
      "main_category": "amenity",
      "sub_category": "fast_food"
    }
  },
  "id": 1277,
  "type": "range:towards+loc"
}