{
  "question": "I'm looking for a restaurant within 140 kilometers from Peaceful Wind Fine Asian Art, Santa Fe, NM, any ideas?",
  "sql": "SELECT * FROM pois\nWHERE ST_DWithin(pois.geometry, ST_GeomFromText('POINT (-105.940326 35.687622)',4326)::geography, 140000)\nAND amenity = 'restaurant';\n",
  "answers": [
    {
      "id": 9886,
      "geometry": "POINT (-105.481251 36.594028)",
      "poi_name": "Amizette Inn & Restaurant",
      "osm_id": 9044155511,
      "amenity": "restaurant",
      "tourism": "hotel",
      "internet_access": "wlan",
      "addr_city": "Taos Ski Valley",
      "addr_postcode": "87525",
      "addr_street": "NM-150",
      "addr_housenumber": "1295"
    },
    {
      "id": 28278,
      "geometry": "POINT (-105.944032 35.688)",
      "poi_name": "Casa Chimayo Restaurant",
      "osm_id": 472503289,
      "amenity": "restaurant",
      "cuisine": "mexican",
      "addr_state": "NM",
      "addr_city": "Santa Fe",
      "addr_street": "West Water Street",
      "addr_housenumber": "409"
    },
    {
      "id": 29166,
      "geometry": "POINT (-106.370448 35.123784)",
      "poi_name": "Greenside Cafe",
      "osm_id": 8285303426,
      "amenity": "restaurant",
      "cuisine": "american",
      "wheelchair": "yes",
      "opening_hours": "Mo-Tu 16:00-19:00, We-Sa 11:00-19:00, Su 11:00-14:00",
      "website": "https://www.greenside.cafe/",
      "phone": "+1 (505) 286-2684",
      "takeaway": "yes",
      "delivery": "no",
      "addr_state": "NM",
      "addr_city": "Cedar Crest",
      "addr_postcode": "87008",
      "addr_street": "North Highway 14",
      "addr_housenumber": "12165"
    },
    {
      "id": 31656,
      "geometry": "POINT (-106.514707 35.090083)",
      "poi_name": "Pizza Hut",
      "osm_id": 8439882371,
      "amenity": "restaurant",
      "cuisine": "pizza"
    },
    {
      "id": 31993,
      "geometry": "POINT (-105.225306 35.593079)",
      "poi_name": "Abraham's Tiendita",
      "osm_id": 2617036909,
      "amenity": "restaurant",
      "cuisine": "mexican",
      "opening_hours": "Mo-Fr 09:00-16:00",
      "website": "https://www.facebook.com/pages/Fans-of-Abrahams-Tiendita-Rialto-Tamales-ATM-Burritos-from-Las-Vegas-NM/121735111200792",
      "addr_state": "NM",
      "addr_city": "Las Vegas",
      "addr_street": "Bridge Street",
      "addr_housenumber": "151"
    },
    {
      "id": 31994,
      "geometry": "POINT (-105.224793 35.593271)",
      "poi_name": "B3 BBQ",
      "osm_id": 2617036973,
      "amenity": "restaurant",
      "cuisine": "barbecue",
      "opening_hours": "Mo-Su 11:00-22:00",
      "website": "https://www.jcnypd.com/",
      "phone": "+1 505-425-3591",
      "addr_state": "NM",
      "addr_city": "Las Vegas",
      "addr_street": "Bridge Street",
      "addr_housenumber": "131"
    },
    {
      "id": 32280,
      "geometry": "POINT (-106.532815 35.076688)",
      "poi_name": "Bob's Burgers",
      "osm_id": 2623137197,
      "amenity": "restaurant",
      "cuisine": "burger",
      "phone": "+1 505 3320818"
    },
    {
      "id": 32562,
      "geometry": "POINT (-105.408429 36.69371)",
      "poi_name": "Ski Tip",
      "osm_id": 2629338326,
      "amenity": "restaurant"
    },
    {
      "id": 36221,
      "geometry": "POINT (-106.648134 35.201208)",
      "poi_name": "Rudy's Country Store & Bar-B-Q",
      "osm_id": 2755106916,
      "amenity": "restaurant",
      "cuisine": "barbecue",
      "phone": "(505) 890-7113",
      "addr_state": "NM",
      "addr_city": "Albuquerque",
      "addr_postcode": "87114",
      "addr_street": "Coors Boulevard Northwest",
      "addr_housenumber": "10136"
    },
    {
      "id": 36225,
      "geometry": "POINT (-106.649958 35.198902)",
      "poi_name": "Hong Kong Buffet",
      "osm_id": 2755122459,
      "amenity": "restaurant",
      "cuisine": "chinese",
      "addr_city": "Albuquerque",
      "addr_postcode": "87114",
      "addr_street": "Coors Boulevard Northwest",
      "addr_housenumber": "10100"
    },
    {
      "id": 38951,
      "geometry": "POINT (-106.611475 35.08089)",
      "poi_name": "Zinc Wine Bar and Bistro",
      "osm_id": 2893528777,
      "amenity": "restaurant",
      "cuisine": "international",
      "description": "Upscale eats made with seasonal ingredients along with a varied wine list in a hip, airy space.",
      "opening_hours": "Mo-Th 17:00-21:30; Fr 17:00-23:00; Sa 11:00-14:30,17:00-23:00; Su 11:00-14:30,17:00-21:00",
      "website": "https://www.zincabq.com/",
      "phone": "505-254-9462",
      "addr_state": "NM",
      "addr_city": "Albuquerque",
      "addr_postcode": "87106",
      "addr_street": "Central Avenue Northeast",
      "addr_housenumber": "3009"
    },
    {
      "id": 40199,
      "geometry": "POINT (-106.623766 35.183494)",
      "poi_name": "Farm and Table",
      "osm_id": 2960354928,
      "amenity": "restaurant"
    },
    {
      "id": 39528,
      "geometry": "POINT (-106.518093 35.131019)",
      "poi_name": "Farina Alto",
      "osm_id": 2925333638,
      "amenity": "restaurant"
    },
    {
      "id": 39276,
      "geometry": "POINT (-106.620617 35.079405)",
      "poi_name": "El Patio",
      "osm_id": 2913631601,
      "amenity": "restaurant",
      "cuisine": "mexican",
      "addr_street": "Harvard Drive Southeast",
      "addr_housenumber": "142"
    },
    {
      "id": 39713,
      "geometry": "POINT (-106.681868 35.065203)",
      "poi_name": "Pupuseria y Restaurant Salvadoreno",
      "osm_id": 2936253915,
      "amenity": "restaurant",
      "opening_hours": "Su, Tu-Sa 09:00-20:00",
      "phone": "+1-505-243-8194",
      "addr_postcode": "87105",
      "addr_street": "Bridge Boulevard SW",
      "addr_housenumber": "1701"
    },
    {
      "id": 40201,
      "geometry": "POINT (-106.626102 35.180114)",
      "poi_name": "El Bruno's Restaurante y Cantina",
      "osm_id": 2960356959,
      "amenity": "restaurant"
    },
    {
      "id": 40319,
      "geometry": "POINT (-106.642742 35.083214)",
      "poi_name": "2G's Bistro",
      "osm_id": 2966746202,
      "amenity": "restaurant",
      "addr_street": "Central Avenue Southeast",
      "addr_housenumber": "414"
    },
    {
      "id": 43798,
      "geometry": "POINT (-105.67617 35.574102)",
      "poi_name": "Frankie's Casanova Southernwestern Grill",
      "osm_id": 3131679255,
      "amenity": "restaurant",
      "cuisine": "regional;mexican",
      "addr_state": "NM",
      "addr_city": "Pecos",
      "addr_postcode": "87552",
      "addr_street": "NM 63",
      "addr_housenumber": "12"
    },
    {
      "id": 41735,
      "geometry": "POINT (-106.667732 35.092212)",
      "poi_name": "Vinaigrette",
      "osm_id": 3024758370,
      "amenity": "restaurant",
      "cuisine": "salad;soup;sandwich;wine",
      "addr_state": "NM",
      "addr_city": "Albuquerque",
      "addr_street": "Central Avenue Southwest"
    },
    {
      "id": 42633,
      "geometry": "POINT (-105.962926 35.672777)",
      "poi_name": "Counter Culture Cafe",
      "osm_id": 3073680993,
      "amenity": "restaurant",
      "cuisine": "american;new_mexican;mexican",
      "wheelchair": "yes",
      "opening_hours": "Mo-Su 08:00-15:00",
      "website": "http://www.counterculturesantafe.com/home",
      "phone": "+15059951105",
      "takeaway": "yes",
      "outdoor_seating": "yes",
      "addr_state": "NM",
      "addr_city": "Santa Fe",
      "addr_postcode": "87501",
      "addr_street": "Baca Street",
      "addr_housenumber": "930"
    },
    {
      "id": 43597,
      "geometry": "POINT (-106.613335 35.098524)",
      "poi_name": "Piatanzi",
      "osm_id": 3121346680,
      "amenity": "restaurant",
      "cuisine": "italian",
      "website": "http://www.piatanzi.com/",
      "phone": "505-792-1700",
      "addr_state": "NM",
      "addr_city": "Albuquerque",
      "addr_postcode": "87106",
      "addr_street": "Girard Boulevard Northeast",
      "addr_housenumber": "1403"
    },
    {
      "id": 42075,
      "geometry": "POINT (-106.699126 35.114085)",
      "poi_name": "Perico's Burritos & Tacos",
      "osm_id": 3040318927,
      "amenity": "restaurant",
      "cuisine": "mexican",
      "website": "https://www.pericosmexicanrestaurant.com/",
      "phone": "+1 505 8394762",
      "addr_city": "Albuquerque",
      "addr_postcode": "87120",
      "addr_street": "Coors Boulevard Northwest",
      "addr_housenumber": "2810"
    },
    {
      "id": 42371,
      "geometry": "POINT (-106.645539 35.061065)",
      "poi_name": "El Dorado Bakery",
      "osm_id": 3058056727,
      "amenity": "restaurant",
      "cuisine": "mexican"
    },
    {
      "id": 42535,
      "geometry": "POINT (-106.594115 35.078396)",
      "poi_name": "Loyola's",
      "osm_id": 3066579780,
      "amenity": "restaurant",
      "cuisine": "mexican",
      "addr_state": "NM",
      "addr_city": "Albuquerque",
      "addr_postcode": "87108",
      "addr_street": "Central Avenue Southeast",
      "addr_housenumber": "4500"
    },
    {
      "id": 45411,
      "geometry": "POINT (-106.502037 35.086864)",
      "poi_name": "Red Rock Deli",
      "osm_id": 3206501461,
      "amenity": "restaurant",
      "takeaway": "yes",
      "outdoor_seating": "no"
    },
    {
      "id": 45223,
      "geometry": "POINT (-105.941036 35.687534)",
      "poi_name": "Tia Sophia's Restaurant",
      "osm_id": 3195181745,
      "amenity": "restaurant",
      "cuisine": "mexican",
      "opening_hours": "Mo-Sa 07:00-14:00; Su 08:00-13:00",
      "website": "https://www.facebook.com/pages/Tia-Sophias-Restaurant/102956971769",
      "phone": "+1 505-983-9880",
      "addr_street": "West San Francisco Street",
      "addr_housenumber": "210"
    },
    {
      "id": 44527,
      "geometry": "POINT (-105.939158 35.687506)",
      "poi_name": "Plaza Cafe",
      "osm_id": 3163223005,
      "amenity": "restaurant",
      "cuisine": "american",
      "opening_hours": "Mo-Su 07:00-21:00",
      "website": "https://www.plazacafedowntown.com/",
      "phone": "+1 505 982 1664",
      "addr_city": "Santa Fe",
      "addr_street": "Lincoln Avenue",
      "addr_housenumber": "54"
    },
    {
      "id": 45295,
      "geometry": "POINT (-106.619357 35.080521)",
      "poi_name": "Gyros Mediterranean",
      "osm_id": 3199898224,
      "amenity": "restaurant"
    },
    {
      "id": 46431,
      "geometry": "POINT (-106.603681 35.080329)",
      "poi_name": "Salathai",
      "osm_id": 3264569636,
      "amenity": "restaurant",
      "cuisine": "thai",
      "addr_state": "NM",
      "addr_city": "Albuquerque",
      "addr_postcode": "87106",
      "addr_street": "Campus Boulevard Northeast",
      "addr_housenumber": "3619"
    },
    {
      "id": 46252,
      "geometry": "POINT (-106.585107 35.145428)",
      "poi_name": "Thai Vegan",
      "osm_id": 3255294393,
      "amenity": "restaurant",
      "cuisine": "thai",
      "website": "https://www.thaivegannm.net/;https://www.thaiveganonosuna.com/",
      "phone": "+1-505-884-4610",
      "addr_state": "NM",
      "addr_city": "Albuquerque",
      "addr_postcode": "87109",
      "addr_street": "Osuna Road Northeast",
      "addr_housenumber": "5505"
    },
    {
      "id": 46018,
      "geometry": "POINT (-106.629421 35.058971)",
      "poi_name": "Denny's",
      "osm_id": 3241461963,
      "amenity": "restaurant",
      "cuisine": "american"
    },
    {
      "id": 48550,
      "geometry": "POINT (-106.583397 35.058714)",
      "poi_name": "Stripes & Burritos Co",
      "osm_id": 3387871543,
      "amenity": "restaurant",
      "cuisine": "tex-mex;mexican;american;burger",
      "phone": "505.265.9200",
      "addr_state": "NM",
      "addr_city": "Albuquerque",
      "addr_postcode": "87109",
      "addr_street": "Gibson Blvd SE Albuquerque",
      "addr_housenumber": "5211"
    },
    {
      "id": 46514,
      "geometry": "POINT (-106.595148 35.075515)",
      "poi_name": "Frank's Famous Chicken & Waffles",
      "osm_id": 3269830033,
      "amenity": "restaurant",
      "cuisine": "chicken",
      "addr_state": "NM",
      "addr_city": "Albuquerque",
      "addr_postcode": "87108",
      "addr_street": "Washington Street Southeast",
      "addr_housenumber": "400"
    },
    {
      "id": 50556,
      "geometry": "POINT (-106.584577 35.149626)",
      "poi_name": "Budai Gourmet Chinese",
      "osm_id": 3490097267,
      "amenity": "restaurant",
      "cuisine": "chinese"
    },
    {
      "id": 48650,
      "geometry": "POINT (-106.54903 35.073421)",
      "poi_name": "Vick's Vittles",
      "osm_id": 3393421959,
      "amenity": "restaurant",
      "cuisine": "regional",
      "phone": "+1 505 2985143",
      "addr_state": "NM",
      "addr_city": "Albuquerque",
      "addr_street": "Central Avenue Southeast",
      "addr_housenumber": "8810"
    },
    {
      "id": 48726,
      "geometry": "POINT (-106.62201 35.114606)",
      "poi_name": "Pho 79",
      "osm_id": 3397771232,
      "amenity": "restaurant",
      "cuisine": "vietnamese"
    },
    {
      "id": 54744,
      "geometry": "POINT (-106.676756 35.094726)",
      "poi_name": "Fit and Fabulous",
      "osm_id": 10153348374,
      "amenity": "restaurant"
    },
    {
      "id": 51980,
      "geometry": "POINT (-106.668574 35.243135)",
      "poi_name": "Black Olive",
      "osm_id": 566693543,
      "amenity": "restaurant"
    },
    {
      "id": 52006,
      "geometry": "POINT (-106.653018 35.249691)",
      "poi_name": "Applebee's",
      "osm_id": 566896092,
      "amenity": "restaurant",
      "cuisine": "american",
      "official_name": "Applebee's Neighborhood Grill & Bar",
      "addr_state": "NM"
    },
    {
      "id": 52008,
      "geometry": "POINT (-106.653447 35.249228)",
      "poi_name": "Dion''s",
      "osm_id": 566896099,
      "amenity": "restaurant"
    },
    {
      "id": 54707,
      "geometry": "POINT (-104.916509 36.511849)",
      "poi_name": "Cimarron House of Pizza",
      "osm_id": 10148276908,
      "amenity": "restaurant",
      "cuisine": "pizza",
      "opening_hours": "Mo-Sa 16:30-19:00",
      "phone": "+1 575 376 2130",
      "addr_state": "NM",
      "addr_city": "Cimarron",
      "addr_postcode": "87714",
      "addr_street": "9th Street",
      "addr_housenumber": "253"
    },
    {
      "id": 54745,
      "geometry": "POINT (-106.673288 35.095047)",
      "poi_name": "Federico's",
      "osm_id": 10153348383,
      "amenity": "restaurant",
      "cuisine": "mexican"
    },
    {
      "id": 54746,
      "geometry": "POINT (-106.67118 35.095526)",
      "poi_name": "Old Town Pizza Parlor",
      "osm_id": 10153348384,
      "amenity": "restaurant",
      "cuisine": "pizza"
    },
    {
      "id": 56925,
      "geometry": "POINT (-106.017516 35.714123)",
      "poi_name": "Arroyo Vino",
      "osm_id": 10253412643,
      "amenity": "restaurant",
      "website": "https://arroyovino.com/",
      "addr_state": "NM",
      "addr_city": "Santa Fe",
      "addr_postcode": "87506",
      "addr_street": "Camino la Tierra",
      "addr_housenumber": "216"
    },
    {
      "id": 54817,
      "geometry": "POINT (-106.67104 35.096866)",
      "poi_name": "Fat T's Barbecue",
      "osm_id": 10158072789,
      "amenity": "restaurant",
      "cuisine": "barbecue"
    },
    {
      "id": 54949,
      "geometry": "POINT (-105.984263 35.639418)",
      "poi_name": "Home Run Pizza",
      "osm_id": 10163924278,
      "amenity": "restaurant",
      "cuisine": "pizza",
      "addr_state": "NM",
      "addr_city": "Santa Fe",
      "addr_postcode": "87507",
      "addr_street": "Rodeo Road",
      "addr_housenumber": "2801"
    },
    {
      "id": 74445,
      "geometry": "POINT (-106.546265 35.073083)",
      "poi_name": "Pho Linh",
      "osm_id": 9680942204,
      "amenity": "restaurant"
    },
    {
      "id": 59223,
      "geometry": "POINT (-106.622479 35.070146)",
      "poi_name": "La Sirenita",
      "osm_id": 5415309851,
      "amenity": "restaurant"
    },
    {
      "id": 62511,
      "geometry": "POINT (-106.579156 35.131846)",
      "poi_name": "Rex's Burgers",
      "osm_id": 5572360141,
      "amenity": "restaurant",
      "cuisine": "breakfast;burger;sandwich",
      "opening_hours": "Mo-Su 09:00-21:00",
      "phone": "(505) 837-2827",
      "takeaway": "yes",
      "outdoor_seating": "yes",
      "addr_state": "NM",
      "addr_city": "Albuquerque",
      "addr_street": "Montgomery Boulevard NE",
      "addr_housenumber": "5555"
    },
    {
      "id": 63684,
      "geometry": "POINT (-106.59376 35.076637)",
      "poi_name": "Vibrance",
      "osm_id": 5627694184,
      "amenity": "restaurant"
    },
    {
      "id": 68485,
      "geometry": "POINT (-105.940343 35.68863)",
      "poi_name": "Fiesta Oaxaca",
      "osm_id": 11270781149,
      "amenity": "restaurant",
      "cuisine": "mexican",
      "addr_state": "NM",
      "addr_city": "Santa Fe",
      "addr_postcode": "87501",
      "addr_street": "West Palace Avenue",
      "addr_housenumber": "135"
    },
    {
      "id": 68486,
      "geometry": "POINT (-105.940179 35.688569)",
      "poi_name": "Flamenco Cabaret",
      "osm_id": 11270781152,
      "amenity": "restaurant",
      "cuisine": "mexican",
      "addr_state": "NM",
      "addr_city": "Santa Fe",
      "addr_postcode": "87501",
      "addr_street": "West Palace Avenue",
      "addr_housenumber": "135"
    },
    {
      "id": 68551,
      "geometry": "POINT (-105.937857 35.688991)",
      "poi_name": "La Boca",
      "osm_id": 11273364632,
      "amenity": "restaurant",
      "cuisine": "spanish",
      "website": "http://www.labocasantafe.com/",
      "phone": "+1-505-982-3433",
      "addr_state": "NM",
      "addr_city": "Santa Fe",
      "addr_postcode": "87501",
      "addr_street": "West Marcy Street",
      "addr_housenumber": "125"
    },
    {
      "id": 68767,
      "geometry": "POINT (-106.006948 35.646604)",
      "poi_name": "El Comal Restaurant",
      "osm_id": 11283611500,
      "amenity": "restaurant",
      "cuisine": "mexican;new_mexican;norteno",
      "opening_hours": "Mo-Sa 07:00-20:00",
      "addr_street": "Cerrillos Road",
      "addr_housenumber": "3571"
    },
    {
      "id": 68771,
      "geometry": "POINT (-106.001687 35.649706)",
      "poi_name": "IHOP",
      "osm_id": 11283630007,
      "amenity": "restaurant",
      "cuisine": "breakfast;pancake",
      "addr_state": "NM",
      "addr_city": "Santa Fe"
    },
    {
      "id": 73392,
      "geometry": "POINT (-105.216488 35.594274)",
      "poi_name": "Dick's Pub & Restaurant",
      "osm_id": 9630466868,
      "amenity": "restaurant",
      "cuisine": "american;new_mexican",
      "opening_hours": "Mo-Sa 11:00-02:00",
      "website": "https://dickspubandrestaurant.com/",
      "phone": "505.425.8261",
      "addr_state": "NM",
      "addr_city": "Las Vegas",
      "addr_postcode": "87701",
      "addr_street": "Douglas Avenue",
      "addr_housenumber": "705"
    },
    {
      "id": 58555,
      "geometry": "POINT (-105.974593 35.658574)",
      "poi_name": "Anthony\u2019s Grill",
      "osm_id": 5383042754,
      "amenity": "restaurant",
      "website": "https://agniayurveda.com/",
      "phone": "+1 505 438 1163",
      "addr_state": "NM",
      "addr_city": "Santa Fe",
      "addr_postcode": "87505",
      "addr_street": "Saint Michaels Drive",
      "addr_housenumber": "1622"
    },
    {
      "id": 62093,
      "geometry": "POINT (-106.690933 35.77057)",
      "poi_name": "Los Ojos Saloon",
      "osm_id": 5551728822,
      "amenity": "restaurant",
      "cuisine": "southwestern",
      "opening_hours": "Sa-Su 08:00-24:00; Mo-Fr 11:00-24:00",
      "website": "http://losojossaloon.com/index.htm",
      "phone": "+1-575-829-3547",
      "addr_state": "NM",
      "addr_city": "Jemez Springs",
      "addr_postcode": "87924",
      "addr_street": "Hwy 4",
      "addr_housenumber": "17596"
    },
    {
      "id": 62765,
      "geometry": "POINT (-105.943376 35.683961)",
      "poi_name": "Pizza Centro",
      "osm_id": 5585491375,
      "amenity": "restaurant",
      "cuisine": "pizza;italian",
      "opening_hours": "Mo-Su 11:30-20:30",
      "website": "https://www.pizzacentronys.com/downtown-menu.html",
      "phone": "+1-505-988-8825",
      "takeaway": "yes",
      "outdoor_seating": "yes",
      "addr_state": "NM",
      "addr_city": "Santa Fe",
      "addr_postcode": "87501",
      "addr_street": "Cerrillos Road",
      "addr_housenumber": "418"
    },
    {
      "id": 62766,
      "geometry": "POINT (-105.943652 35.684)",
      "poi_name": "Cleopatra Cafe",
      "osm_id": 5585491376,
      "amenity": "restaurant",
      "cuisine": "greek;mediterranean;gyros",
      "opening_hours": "11:00-20:00",
      "website": "https://www.cleopatrasantafe.com/",
      "phone": "+1-505-820-7381",
      "takeaway": "yes",
      "outdoor_seating": "no",
      "addr_state": "NM",
      "addr_city": "Santa Fe",
      "addr_postcode": "87501",
      "addr_street": "Cerrillos Road",
      "addr_housenumber": "418"
    },
    {
      "id": 62767,
      "geometry": "POINT (-105.943483 35.683854)",
      "poi_name": "Yin Yang",
      "osm_id": 5585499427,
      "amenity": "restaurant",
      "cuisine": "chinese",
      "opening_hours": "Mo-Th 11:30-20:30; Fr,Sa 11:30-21:00; Su 12:00-20:00",
      "website": "https://www.santafeyinyang.com/",
      "phone": "+1-505-986-9279",
      "addr_state": "NM",
      "addr_city": "Santa Fe",
      "addr_postcode": "87501",
      "addr_street": "Cerrillos Road",
      "addr_housenumber": "418"
    },
    {
      "id": 65258,
      "geometry": "POINT (-106.515439 35.090455)",
      "poi_name": "Jambo Cafe",
      "osm_id": 5691565678,
      "amenity": "restaurant"
    },
    {
      "id": 69887,
      "geometry": "POINT (-105.941712 35.689255)",
      "poi_name": "Santarepa",
      "osm_id": 11335688036,
      "amenity": "restaurant"
    },
    {
      "id": 74469,
      "geometry": "POINT (-106.575968 35.184168)",
      "poi_name": "Amore Pizza",
      "osm_id": 9681371825,
      "amenity": "restaurant"
    },
    {
      "id": 74470,
      "geometry": "POINT (-106.575962 35.184204)",
      "poi_name": "On The Flip",
      "osm_id": 9681381356,
      "amenity": "restaurant"
    },
    {
      "id": 74815,
      "geometry": "POINT (-106.593672 35.14359)",
      "poi_name": "Saigon City Restaurant",
      "osm_id": 9696814903,
      "amenity": "restaurant",
      "cuisine": "vietnamese",
      "opening_hours": "Mo,Tu,Th-Sa 11:00-21:00, Su 11:00-20:00",
      "website": "https://saigoncityrestaurantnm.com",
      "phone": "505-255-7408",
      "addr_state": "NM",
      "addr_city": "Albuquerque",
      "addr_postcode": "87109",
      "addr_street": "4320 The 25 Way, Ste 300"
    },
    {
      "id": 74920,
      "geometry": "POINT (-106.366003 35.130622)",
      "poi_name": "El Mariachi",
      "osm_id": 9703402328,
      "amenity": "restaurant",
      "cuisine": "mexican",
      "addr_housenumber": "1"
    },
    {
      "id": 74825,
      "geometry": "POINT (-105.945294 35.682097)",
      "poi_name": "Radish & Rye",
      "osm_id": 9698290218,
      "amenity": "restaurant",
      "website": "https://radishandrye.com/",
      "phone": "+1-505-930-5325",
      "addr_state": "NM",
      "addr_city": "Santa Fe",
      "addr_postcode": "87501",
      "addr_street": "Cerrillos Road",
      "addr_housenumber": "505"
    },
    {
      "id": 74826,
      "geometry": "POINT (-105.573581 36.4084)",
      "poi_name": "Brent Street Cafe & Deli",
      "osm_id": 9698290219,
      "amenity": "restaurant",
      "addr_street": "Bent Street",
      "addr_housenumber": "120"
    },
    {
      "id": 77116,
      "geometry": "POINT (-106.651414 35.084849)",
      "poi_name": "Baca Boys Cafe",
      "osm_id": 9808044836,
      "amenity": "restaurant",
      "addr_street": "4th Street Northwest",
      "addr_housenumber": "102"
    },
    {
      "id": 75258,
      "geometry": "POINT (-106.753224 34.813537)",
      "poi_name": "Pizza9",
      "osm_id": 9721690049,
      "amenity": "restaurant",
      "cuisine": "pizza",
      "wheelchair": "yes",
      "opening_hours": "Su-Th 09:30-23:00,Fr-Sa 09:30-24:00",
      "website": "https://pizzanine.com/los-lunas",
      "phone": "+1-505-866-6463",
      "takeaway": "yes",
      "outdoor_seating": "no",
      "delivery": "yes",
      "addr_state": "NM",
      "addr_city": "Los Lunas",
      "addr_postcode": "87031",
      "addr_street": "Main Street Southwest",
      "addr_housenumber": "1603"
    },
    {
      "id": 75969,
      "geometry": "POINT (-105.972094 35.658432)",
      "poi_name": "Chabelita",
      "osm_id": 9753445734,
      "amenity": "restaurant",
      "addr_housenumber": "1722"
    },
    {
      "id": 75970,
      "geometry": "POINT (-105.972073 35.658276)",
      "poi_name": "Lulu",
      "osm_id": 9753445737,
      "amenity": "restaurant",
      "addr_housenumber": "1722"
    },
    {
      "id": 75971,
      "geometry": "POINT (-105.972379 35.658405)",
      "poi_name": "Felipe's Tacos",
      "osm_id": 9753445740,
      "amenity": "restaurant",
      "addr_housenumber": "1711"
    },
    {
      "id": 75973,
      "geometry": "POINT (-105.972102 35.65849)",
      "poi_name": "Pizza Espiritu",
      "osm_id": 9753445749,
      "amenity": "restaurant",
      "cuisine": "pizza",
      "addr_housenumber": "1722"
    },
    {
      "id": 75021,
      "geometry": "POINT (-105.682185 35.572956)",
      "poi_name": "Pecos Canyon Cafe",
      "osm_id": 9707543421,
      "amenity": "restaurant"
    },
    {
      "id": 81579,
      "geometry": "POINT (-106.513983 35.114783)",
      "poi_name": "Sushiya",
      "osm_id": 1647985817,
      "amenity": "restaurant",
      "cuisine": "sushi",
      "internet_access": "wlan",
      "takeaway": "yes",
      "outdoor_seating": "no"
    },
    {
      "id": 80896,
      "geometry": "POINT (-106.751434 34.814062)",
      "poi_name": "Benny's",
      "osm_id": 1585855931,
      "amenity": "restaurant",
      "cuisine": "burger"
    },
    {
      "id": 77479,
      "geometry": "POINT (-106.745573 35.079504)",
      "poi_name": "Denny's",
      "osm_id": 693356633,
      "amenity": "restaurant",
      "cuisine": "american",
      "addr_postcode": "87121",
      "addr_street": "Avalon Road Northwest",
      "addr_housenumber": "9911"
    },
    {
      "id": 78790,
      "geometry": "POINT (-106.499363 35.152687)",
      "poi_name": "Golden Chopstix",
      "osm_id": 762940258,
      "amenity": "restaurant",
      "cuisine": "chinese",
      "opening_hours": "Tu-Th 10:30-21:00; Fr-Sa 10:30-21:30; Su 16:00-21:00",
      "website": "https://goldenchopsticksabq.com",
      "phone": "+1-505-275-0888",
      "takeaway": "only",
      "addr_state": "NM",
      "addr_city": "Albuquerque",
      "addr_postcode": "87111",
      "addr_street": "Academy Road Northeast",
      "addr_housenumber": "12251"
    },
    {
      "id": 78791,
      "geometry": "POINT (-106.526781 35.148145)",
      "poi_name": "Mykono's",
      "osm_id": 762947001,
      "amenity": "restaurant",
      "cuisine": "greek",
      "website": "http://www.mykonoscafeandtaverna.com/",
      "addr_postcode": "87111",
      "addr_street": "Eubank Northeast Ste E-18",
      "addr_housenumber": "5900"
    },
    {
      "id": 84632,
      "geometry": "POINT (-106.668878 35.099055)",
      "poi_name": "Seasons",
      "osm_id": 1802985511,
      "amenity": "restaurant",
      "cuisine": "steak_house"
    },
    {
      "id": 84635,
      "geometry": "POINT (-106.658708 35.095468)",
      "poi_name": "Cocina Azul",
      "osm_id": 1803094649,
      "amenity": "restaurant",
      "cuisine": "regional",
      "addr_street": "Mountain Road Northwest",
      "addr_housenumber": "1134"
    },
    {
      "id": 84637,
      "geometry": "POINT (-106.687994 35.084716)",
      "poi_name": "Marisco's Alta Mar",
      "osm_id": 1803121441,
      "amenity": "restaurant",
      "cuisine": "mexican"
    },
    {
      "id": 85270,
      "geometry": "POINT (-106.585585 35.087134)",
      "poi_name": "Caesar's Mexican & Greek",
      "osm_id": 1855120355,
      "amenity": "restaurant"
    },
    {
      "id": 85159,
      "geometry": "POINT (-106.595079 35.07511)",
      "poi_name": "Pizza Hut",
      "osm_id": 1842858831,
      "amenity": "restaurant",
      "cuisine": "pizza"
    },
    {
      "id": 85173,
      "geometry": "POINT (-106.560976 35.108826)",
      "poi_name": "IHOP",
      "osm_id": 1843951696,
      "amenity": "restaurant",
      "cuisine": "breakfast;pancake"
    },
    {
      "id": 85368,
      "geometry": "POINT (-105.573646 36.407563)",
      "poi_name": "Graham's Grille",
      "osm_id": 1860993452,
      "amenity": "restaurant"
    },
    {
      "id": 85196,
      "geometry": "POINT (-106.601932 35.079321)",
      "poi_name": "Thai Heritage and Vegan",
      "osm_id": 1845922096,
      "amenity": "restaurant",
      "cuisine": "thai",
      "website": "https://www.thaiheritageandvegan.com/;https://www.thaiveganalbuquerque.com/",
      "phone": "+1-505-200-2290",
      "addr_state": "NM",
      "addr_city": "Albuquerque",
      "addr_postcode": "87108",
      "addr_street": "Central Avenue Southeast",
      "addr_housenumber": "3804"
    },
    {
      "id": 85418,
      "geometry": "POINT (-105.450297 36.595637)",
      "poi_name": "Stray Dog Cantina",
      "osm_id": 1866339388,
      "amenity": "restaurant",
      "cuisine": "new_mexican;regional",
      "website": "https://straydogtsv.com/",
      "outdoor_seating": "yes",
      "addr_postcode": "87525",
      "addr_street": "Sutton Place",
      "addr_housenumber": "105"
    },
    {
      "id": 85318,
      "geometry": "POINT (-106.603915 35.096256)",
      "poi_name": "Taj Mahal",
      "osm_id": 1857053518,
      "amenity": "restaurant",
      "cuisine": "indian",
      "addr_state": "NM",
      "addr_city": "Albuquerque",
      "addr_postcode": "87110",
      "addr_street": "Carlisle Boulevard Northeast",
      "addr_housenumber": "1430"
    },
    {
      "id": 85330,
      "geometry": "POINT (-106.564135 35.130481)",
      "poi_name": "Yeller Sub",
      "osm_id": 1858009770,
      "amenity": "restaurant",
      "cuisine": "sandwich;ice_cream",
      "wheelchair": "yes",
      "website": "https://yellersub.com/",
      "phone": "+1-505-888-9784",
      "takeaway": "yes",
      "drive_through": "no",
      "outdoor_seating": "yes",
      "addr_state": "NM",
      "addr_city": "Albuquerque",
      "addr_postcode": "87109",
      "addr_street": "Montgomery Boulevard Northeast",
      "addr_housenumber": "7200"
    },
    {
      "id": 85336,
      "geometry": "POINT (-106.605439 35.079644)",
      "poi_name": "Scalo",
      "osm_id": 1859669285,
      "amenity": "restaurant",
      "cuisine": "italian",
      "addr_state": "NM",
      "addr_city": "Albuquerque",
      "addr_postcode": "87106",
      "addr_street": "Central Avenue Southeast",
      "addr_housenumber": "3500"
    },
    {
      "id": 85507,
      "geometry": "POINT (-106.596246 35.07867)",
      "poi_name": "Orchid Thai",
      "osm_id": 1873435569,
      "amenity": "restaurant"
    },
    {
      "id": 85501,
      "geometry": "POINT (-106.602352 35.079355)",
      "poi_name": "The Farmacy",
      "osm_id": 1872788537,
      "amenity": "restaurant"
    },
    {
      "id": 85502,
      "geometry": "POINT (-106.606 35.079751)",
      "poi_name": "Poki Poki Cevicheria",
      "osm_id": 1872788772,
      "amenity": "restaurant",
      "cuisine": "asian;seafood",
      "addr_state": "NM",
      "addr_city": "Albuquerque",
      "addr_postcode": "87106",
      "addr_street": "Central Avenue Southeast",
      "addr_housenumber": "3422"
    },
    {
      "id": 85852,
      "geometry": "POINT (-106.586703 35.072614)",
      "poi_name": "2000 Vietnam Restaurant",
      "osm_id": 1903432744,
      "amenity": "restaurant"
    },
    {
      "id": 85737,
      "geometry": "POINT (-106.611119 35.135124)",
      "poi_name": "IHOP",
      "osm_id": 1890880974,
      "amenity": "restaurant",
      "cuisine": "breakfast;pancake"
    },
    {
      "id": 85576,
      "geometry": "POINT (-106.596262 35.087075)",
      "poi_name": "Hurricane's Restaurant and Drive-In",
      "osm_id": 1882847976,
      "amenity": "restaurant",
      "cuisine": "american",
      "opening_hours": "Su 06:30-16:00; Mo-Th 06:30-15:00; Fr, Sa 06:30-20:00",
      "phone": "+1-505-255-4248",
      "takeaway": "yes",
      "toilets": "yes",
      "addr_street": "Lomas Boulevard NE",
      "addr_housenumber": "4330"
    },
    {
      "id": 85577,
      "geometry": "POINT (-106.604772 35.080017)",
      "poi_name": "Fan-Tang",
      "osm_id": 1882848290,
      "amenity": "restaurant",
      "cuisine": "asian",
      "website": "https://fan-tang.com/",
      "phone": "+1 505 2663566"
    },
    {
      "id": 85590,
      "geometry": "POINT (-106.612449 35.206092)",
      "poi_name": "El Pinto",
      "osm_id": 1883346937,
      "amenity": "restaurant",
      "cuisine": "mexican",
      "opening_hours": "Mo-Th 11:00-21:00; Fr,Sa 11:00-22:00; Su 10:30-21:00"
    },
    {
      "id": 85853,
      "geometry": "POINT (-106.586994 35.117503)",
      "poi_name": "Peter Piper Pizza",
      "osm_id": 1903432899,
      "amenity": "restaurant",
      "cuisine": "pizza"
    },
    {
      "id": 86114,
      "geometry": "POINT (-106.607885 35.080055)",
      "poi_name": "Shogun Sushi",
      "osm_id": 1915967208,
      "amenity": "restaurant"
    },
    {
      "id": 85822,
      "geometry": "POINT (-106.642408 35.083183)",
      "poi_name": "Artichoke Cafe",
      "osm_id": 1899154257,
      "amenity": "restaurant",
      "addr_street": "Central Avenue Southeast",
      "addr_housenumber": "424"
    },
    {
      "id": 85877,
      "geometry": "POINT (-106.56635 35.102148)",
      "poi_name": "The Melting Pot",
      "osm_id": 1905779715,
      "amenity": "restaurant",
      "cuisine": "fondue"
    },
    {
      "id": 86132,
      "geometry": "POINT (-106.654048 35.070983)",
      "poi_name": "Barelas Coffee House",
      "osm_id": 1918912229,
      "amenity": "restaurant"
    },
    {
      "id": 86475,
      "geometry": "POINT (-106.613259 35.108758)",
      "poi_name": "Applebee's",
      "osm_id": 1934209148,
      "amenity": "restaurant",
      "cuisine": "american",
      "official_name": "Applebee's Neighborhood Grill & Bar",
      "addr_state": "NM"
    },
    {
      "id": 86409,
      "geometry": "POINT (-106.588212 35.145389)",
      "poi_name": "Delicias Cafe",
      "osm_id": 1929944271,
      "amenity": "restaurant",
      "opening_hours": "Su-Sa 07:00-20:00",
      "website": "http://deliciascafe.com/",
      "phone": "+1 505 8306561",
      "addr_state": "NM",
      "addr_city": "Albuquerque",
      "addr_postcode": "87109",
      "addr_street": "San Mateo Boulevard Northeast",
      "addr_housenumber": "6001"
    },
    {
      "id": 86410,
      "geometry": "POINT (-106.694316 35.153786)",
      "poi_name": "Pizza Hut",
      "osm_id": 1929985354,
      "amenity": "restaurant",
      "cuisine": "pizza",
      "addr_state": "NM",
      "addr_city": "Albuquerque",
      "addr_postcode": "87120",
      "addr_street": "Monta\u00f1o Road Northwest",
      "addr_housenumber": "4801"
    },
    {
      "id": 86786,
      "geometry": "POINT (-106.574887 35.07638)",
      "poi_name": "El Zarandeado",
      "osm_id": 1951619953,
      "amenity": "restaurant"
    },
    {
      "id": 86653,
      "geometry": "POINT (-106.619808 35.080477)",
      "poi_name": "Saggio's",
      "osm_id": 1942907664,
      "amenity": "restaurant"
    },
    {
      "id": 91076,
      "geometry": "POINT (-106.578037 35.105637)",
      "poi_name": "Mario's Pizzeria & Ristorante",
      "osm_id": 2039087482,
      "amenity": "restaurant",
      "cuisine": "italian",
      "addr_street": "San Pedro Drive Northeast",
      "addr_housenumber": "2401"
    },
    {
      "id": 87891,
      "geometry": "POINT (-104.950094 36.458302)",
      "poi_name": "Dining Hall 2",
      "osm_id": 8750451482,
      "amenity": "restaurant",
      "cuisine": "cafeteria"
    },
    {
      "id": 89138,
      "geometry": "POINT (-105.212849 35.594214)",
      "poi_name": "Kin",
      "osm_id": 8828247752,
      "amenity": "restaurant",
      "operator": "Sean Sinclair",
      "website": "https://kinlvnm.com"
    },
    {
      "id": 90387,
      "geometry": "POINT (-106.65423 35.08298)",
      "poi_name": "Cecilia's Cafe",
      "osm_id": 1993947743,
      "amenity": "restaurant",
      "cuisine": "new_mexican;mexican",
      "addr_state": "NM",
      "addr_city": "Albuquerque",
      "addr_street": "6th Street Southwest",
      "addr_housenumber": "230"
    },
    {
      "id": 90388,
      "geometry": "POINT (-106.655634 35.068403)",
      "poi_name": "La Fonda del Bosque",
      "osm_id": 1993947789,
      "amenity": "restaurant"
    },
    {
      "id": 90389,
      "geometry": "POINT (-106.652987 35.084584)",
      "poi_name": "Lindy's Diner",
      "osm_id": 1993948225,
      "amenity": "restaurant",
      "addr_state": "NM",
      "addr_city": "Albuquerque",
      "addr_street": "Central Avenue Northwest",
      "addr_housenumber": "500"
    },
    {
      "id": 90609,
      "geometry": "POINT (-106.630199 35.059093)",
      "poi_name": "Dion's Pizza",
      "osm_id": 2004768885,
      "amenity": "restaurant",
      "cuisine": "pizza",
      "capacity": "100",
      "addr_street": "Gibson Boulevard Southeast"
    },
    {
      "id": 90655,
      "geometry": "POINT (-106.648225 35.204417)",
      "poi_name": "Il Vicino",
      "osm_id": 2010106579,
      "amenity": "restaurant",
      "cuisine": "pizza",
      "addr_city": "Albuquerque",
      "addr_postcode": "87114",
      "addr_street": "Corrales Road Northwest",
      "addr_housenumber": "10701"
    },
    {
      "id": 90656,
      "geometry": "POINT (-106.545727 35.108785)",
      "poi_name": "Los Cuates",
      "osm_id": 2010116073,
      "amenity": "restaurant"
    },
    {
      "id": 91186,
      "geometry": "POINT (-106.569759 35.100332)",
      "poi_name": "Jason's Deli",
      "osm_id": 2049313241,
      "amenity": "restaurant",
      "cuisine": "sandwich"
    },
    {
      "id": 90506,
      "geometry": "POINT (-106.621355 35.080839)",
      "poi_name": "Olympia Cafe",
      "osm_id": 1998773950,
      "amenity": "restaurant"
    },
    {
      "id": 91018,
      "geometry": "POINT (-106.697541 35.241121)",
      "poi_name": "Chili's",
      "osm_id": 2034438736,
      "amenity": "restaurant",
      "cuisine": "tex-mex",
      "official_name": "Chili's Grill & Bar"
    },
    {
      "id": 91030,
      "geometry": "POINT (-106.516088 35.12334)",
      "poi_name": "Garcia's",
      "osm_id": 2035566457,
      "amenity": "restaurant"
    },
    {
      "id": 91117,
      "geometry": "POINT (-106.514193 35.131604)",
      "poi_name": "Zorba's",
      "osm_id": 2043296092,
      "amenity": "restaurant",
      "cuisine": "greek"
    },
    {
      "id": 91566,
      "geometry": "POINT (-106.667862 35.138186)",
      "poi_name": "Flying Star",
      "osm_id": 2073777394,
      "amenity": "restaurant",
      "phone": "+1 505 344 6714",
      "addr_city": "Albuquerque",
      "addr_postcode": "87107",
      "addr_street": "Rio Grande Boulevard Northwest",
      "addr_housenumber": "4026"
    },
    {
      "id": 91229,
      "geometry": "POINT (-106.670546 35.24207)",
      "poi_name": "Joe's Pasta House",
      "osm_id": 2052292879,
      "amenity": "restaurant"
    },
    {
      "id": 91279,
      "geometry": "POINT (-106.550578 35.128387)",
      "poi_name": "Sakura Sushi and Grill",
      "osm_id": 2055980693,
      "amenity": "restaurant"
    },
    {
      "id": 91280,
      "geometry": "POINT (-106.530916 35.131235)",
      "poi_name": "Flamez Burgers and More",
      "osm_id": 2055980733,
      "amenity": "restaurant"
    },
    {
      "id": 91311,
      "geometry": "POINT (-106.671097 35.102774)",
      "poi_name": "St. Clair Winery & Bistro",
      "osm_id": 2058932917,
      "amenity": "restaurant",
      "opening_hours": "Su-Th 09:00-21:00, Fr-Sa 11:00-22:00",
      "website": "https://stclairwinery.com/",
      "phone": "+1-505-243-9916",
      "addr_state": "NM",
      "addr_city": "Albuquerque",
      "addr_postcode": "87104",
      "addr_street": "Rio Grande Boulevard Northwest",
      "addr_housenumber": "901"
    },
    {
      "id": 91580,
      "geometry": "POINT (-106.648392 35.083252)",
      "poi_name": "Pizza 9",
      "osm_id": 2074560280,
      "amenity": "restaurant",
      "cuisine": "pizza",
      "opening_hours": "Mo-Th 09:00-23:00; Fr 09:00-24:00; Sa 10:00-24:00; Su 10:00-23:00",
      "website": "https://pizzanine.com/",
      "phone": "+1-505-843-6463",
      "takeaway": "yes",
      "outdoor_seating": "no",
      "delivery": "yes",
      "addr_state": "NM",
      "addr_city": "Albuquerque",
      "addr_postcode": "87102",
      "addr_street": "Gold Ave SW",
      "addr_housenumber": "101"
    },
    {
      "id": 92250,
      "geometry": "POINT (-106.608672 35.109886)",
      "poi_name": "Richard's Mexican Restaurant",
      "osm_id": 2108098199,
      "amenity": "restaurant"
    },
    {
      "id": 91995,
      "geometry": "POINT (-106.597508 35.141748)",
      "poi_name": "Nick & Jimmy's",
      "osm_id": 2099117910,
      "amenity": "restaurant",
      "cuisine": "sandwich"
    },
    {
      "id": 93054,
      "geometry": "POINT (-106.586016 35.062272)",
      "poi_name": "Tia Betty Blue's",
      "osm_id": 2147134560,
      "amenity": "restaurant",
      "cuisine": "new_mexican",
      "capacity": "40",
      "addr_city": "Albuquerque",
      "addr_street": "San Mateo Boulevard Southeast"
    },
    {
      "id": 92295,
      "geometry": "POINT (-106.641825 35.083157)",
      "poi_name": "Farina",
      "osm_id": 2110804066,
      "amenity": "restaurant",
      "cuisine": "pizza",
      "addr_street": "Central Avenue Southeast",
      "addr_housenumber": "510"
    },
    {
      "id": 92604,
      "geometry": "POINT (-106.567537 35.102908)",
      "poi_name": "California Pizza Kitchen",
      "osm_id": 2127555896,
      "amenity": "restaurant",
      "cuisine": "pizza"
    },
    {
      "id": 92355,
      "geometry": "POINT (-105.940442 35.688126)",
      "poi_name": "Palace Prime",
      "osm_id": 2115061977,
      "amenity": "restaurant",
      "cuisine": "american",
      "website": "http://www.palacesantafe.com",
      "addr_state": "NM",
      "addr_city": "Santa Fe",
      "addr_postcode": "87501",
      "addr_street": "West Palace Avenue",
      "addr_housenumber": "142"
    },
    {
      "id": 92533,
      "geometry": "POINT (-106.568392 35.102557)",
      "poi_name": "McAlister's Deli",
      "osm_id": 2124159794,
      "amenity": "restaurant",
      "cuisine": "sandwich"
    },
    {
      "id": 92712,
      "geometry": "POINT (-106.655099 35.091337)",
      "poi_name": "Pasi\u00f3n Latin Fusion",
      "osm_id": 2131725699,
      "amenity": "restaurant"
    },
    {
      "id": 92831,
      "geometry": "POINT (-106.599954 35.139955)",
      "poi_name": "M'tucci's Twenty Five",
      "osm_id": 2137646176,
      "amenity": "restaurant",
      "cuisine": "italian",
      "phone": "+1-505-554-2660"
    },
    {
      "id": 93407,
      "geometry": "POINT (-106.550034 35.129868)",
      "poi_name": "India Palace",
      "osm_id": 2163184014,
      "amenity": "restaurant"
    },
    {
      "id": 93104,
      "geometry": "POINT (-106.640403 35.082941)",
      "poi_name": "The Grove Cafe",
      "osm_id": 2149898396,
      "amenity": "restaurant",
      "addr_street": "Central Avenue Southeast",
      "addr_housenumber": "600"
    },
    {
      "id": 93364,
      "geometry": "POINT (-106.570732 35.10087)",
      "poi_name": "Japanese Kitchen Sushi Bar",
      "osm_id": 2161320432,
      "amenity": "restaurant",
      "cuisine": "japanese",
      "takeaway": "yes",
      "outdoor_seating": "no"
    },
    {
      "id": 93408,
      "geometry": "POINT (-106.550517 35.129166)",
      "poi_name": "Bull Chicks",
      "osm_id": 2163184021,
      "amenity": "restaurant",
      "cuisine": "burger;wings"
    },
    {
      "id": 94098,
      "geometry": "POINT (-106.600085 35.14046)",
      "poi_name": "Plum Cafe Asian Grill",
      "osm_id": 2206049478,
      "amenity": "restaurant",
      "cuisine": "asian"
    },
    {
      "id": 93551,
      "geometry": "POINT (-106.596845 35.109461)",
      "poi_name": "Duran House",
      "osm_id": 2170346499,
      "amenity": "restaurant"
    },
    {
      "id": 93982,
      "geometry": "POINT (-106.569295 35.101238)",
      "poi_name": "Le Peep Restaurant",
      "osm_id": 2196670340,
      "amenity": "restaurant",
      "opening_hours": "Su 07:00-14:00; Mo-Fr 06:30-14:00; Sa 07:00-14:00",
      "website": "https://lepeepabq.com/",
      "phone": "+1-505-881-7272",
      "addr_postcode": "87110",
      "addr_street": "Louisiana Boulevard Northeast",
      "addr_housenumber": "2215"
    },
    {
      "id": 94099,
      "geometry": "POINT (-106.600175 35.14039)",
      "poi_name": "Sushi King",
      "osm_id": 2206049479,
      "amenity": "restaurant",
      "cuisine": "sushi"
    },
    {
      "id": 95338,
      "geometry": "POINT (-106.02005 35.632866)",
      "poi_name": "Horseman's Haven Cafe",
      "osm_id": 6392074286,
      "amenity": "restaurant",
      "opening_hours": "Mo-Su 08:00-20:00",
      "internet_access": "wlan"
    },
    {
      "id": 95778,
      "geometry": "POINT (-105.94493 35.690398)",
      "poi_name": "Chopstix",
      "osm_id": 6410917532,
      "amenity": "restaurant",
      "cuisine": "asian;chinese;korean",
      "addr_state": "NM",
      "addr_city": "Santa Fe",
      "addr_postcode": "87501",
      "addr_street": "North Guadalupe Street",
      "addr_housenumber": "238"
    },
    {
      "id": 95779,
      "geometry": "POINT (-105.944155 35.689499)",
      "poi_name": "Pizzeria & Trattoria da Lino",
      "osm_id": 6410917556,
      "amenity": "restaurant",
      "cuisine": "italian;pizza;gelato;beer;burger",
      "opening_hours": "Mo-Sa 11:00-22:00",
      "operator": "Lino Pertusini",
      "website": "https://pizzeriadalino.square.site/",
      "phone": "+1-505-982-8474",
      "addr_state": "NM",
      "addr_city": "Santa Fe",
      "addr_postcode": "87501",
      "addr_street": "North Guadalupe Street",
      "addr_housenumber": "204"
    },
    {
      "id": 97290,
      "geometry": "POINT (-106.255676 36.211399)",
      "poi_name": "Mamacita's Pizzeria",
      "osm_id": 6470871467,
      "amenity": "restaurant",
      "cuisine": "pizza",
      "opening_hours": "We-Su 12:00-20:00",
      "phone": "+1 505 685-4111",
      "outdoor_seating": "yes",
      "addr_state": "NM",
      "addr_city": "Abiquiu",
      "addr_postcode": "87510",
      "addr_street": "US-84",
      "addr_housenumber": "20814"
    },
    {
      "id": 95894,
      "geometry": "POINT (-106.56385 35.096993)",
      "poi_name": "Crackin' Crab Seafood Boil",
      "osm_id": 6415311245,
      "amenity": "restaurant",
      "cuisine": "seafood",
      "description": "casual dine in restaurant specializing in quality Cajun seafood boil cuisine in the southwest",
      "opening_hours": "Su-Th 12:00-21:00; Fr-Sa 12:00-22:00",
      "website": "https://www.crackincrab.com/",
      "phone": "+1-505-433-4611",
      "takeaway": "yes",
      "outdoor_seating": "yes",
      "delivery": "yes",
      "addr_state": "NM",
      "addr_city": "Albuquerque",
      "addr_postcode": "87110",
      "addr_street": "Louisiana Boulevard Northeast",
      "addr_housenumber": "2100"
    },
    {
      "id": 96669,
      "geometry": "POINT (-105.889989 35.536655)",
      "poi_name": "La Plancha",
      "osm_id": 6440042133,
      "amenity": "restaurant"
    },
    {
      "id": 95846,
      "geometry": "POINT (-105.959351 35.689103)",
      "poi_name": "Valentina's",
      "osm_id": 6413025181,
      "amenity": "restaurant",
      "cuisine": "mexican",
      "addr_state": "NM",
      "addr_city": "Santa Fe",
      "addr_street": "West Alameda Street",
      "addr_housenumber": "945"
    },
    {
      "id": 97616,
      "geometry": "POINT (-105.953664 35.698999)",
      "poi_name": "Hilltop Bar & Grill",
      "osm_id": 6485147218,
      "amenity": "restaurant"
    },
    {
      "id": 99342,
      "geometry": "POINT (-106.653255 35.084922)",
      "poi_name": "Red Door Brewing",
      "osm_id": 6548409938,
      "amenity": "restaurant",
      "addr_state": "NM",
      "addr_city": "Albuquerque",
      "addr_street": "Central Avenue Northwest",
      "addr_housenumber": "509"
    },
    {
      "id": 97747,
      "geometry": "POINT (-105.996878 35.655562)",
      "poi_name": "MAMA's World Take-Out",
      "osm_id": 6492284741,
      "amenity": "restaurant",
      "cuisine": "american;asian;mediterranean;mexican",
      "phone": "+1 505 989 8028",
      "takeaway": "yes",
      "outdoor_seating": "yes",
      "addr_state": "NM",
      "addr_city": "Santa Fe",
      "addr_postcode": "87507",
      "addr_street": "Agua Fria Street",
      "addr_housenumber": "3134"
    },
    {
      "id": 98359,
      "geometry": "POINT (-106.60383 35.101229)",
      "poi_name": "Thai House Restaurant",
      "osm_id": 6515529834,
      "amenity": "restaurant",
      "cuisine": "thai",
      "addr_state": "NM",
      "addr_city": "Albuquerque",
      "addr_postcode": "87110",
      "addr_street": "Carlisle Boulevard Northeast",
      "addr_housenumber": "2000"
    },
    {
      "id": 98513,
      "geometry": "POINT (-106.604886 35.07963)",
      "poi_name": "Cinnamon Cafe",
      "osm_id": 6522023812,
      "amenity": "restaurant",
      "addr_state": "NM",
      "addr_city": "Albuquerque",
      "addr_postcode": "87106",
      "addr_street": "Central Avenue Southeast",
      "addr_housenumber": "3500"
    },
    {
      "id": 98947,
      "geometry": "POINT (-105.943781 35.690822)",
      "poi_name": "New York on Catron",
      "osm_id": 6536091406,
      "amenity": "restaurant",
      "cuisine": "bagel;coffee_shop;deli;regional",
      "addr_state": "NM",
      "addr_city": "Santa Fe"
    },
    {
      "id": 97639,
      "geometry": "POINT (-105.945609 35.6847)",
      "poi_name": "Paloma",
      "osm_id": 6486827366,
      "amenity": "restaurant",
      "outdoor_seating": "yes"
    },
    {
      "id": 97640,
      "geometry": "POINT (-105.944975 35.685818)",
      "poi_name": "Cowgirl",
      "osm_id": 6486827367,
      "amenity": "restaurant",
      "cuisine": "barbecue",
      "opening_hours": "Mo-Th, Su 11:30-21:00; Fr, Sa 11:30-22:00",
      "website": "https://cowgirlsantafe.com/",
      "phone": "+1 505 982-2565",
      "outdoor_seating": "yes",
      "addr_state": "NM",
      "addr_city": "Santa Fe",
      "addr_postcode": "87501",
      "addr_street": "South Guadalupe Street",
      "addr_housenumber": "319"
    },
    {
      "id": 98400,
      "geometry": "POINT (-105.945021 35.686062)",
      "poi_name": "Kohnami Japanese Restaurant",
      "osm_id": 6516835696,
      "amenity": "restaurant"
    },
    {
      "id": 98402,
      "geometry": "POINT (-105.938258 35.683342)",
      "poi_name": "Raaga-Go Indian Takeout",
      "osm_id": 6516913937,
      "amenity": "restaurant"
    },
    {
      "id": 98865,
      "geometry": "POINT (-105.943603 35.688053)",
      "poi_name": "Dinner For Two",
      "osm_id": 6534332510,
      "amenity": "restaurant"
    },
    {
      "id": 98866,
      "geometry": "POINT (-105.939238 35.686523)",
      "poi_name": "Rooftop Pizzeria",
      "osm_id": 6534336601,
      "amenity": "restaurant",
      "cuisine": "pizza",
      "opening_hours": "closed",
      "takeaway": "yes",
      "outdoor_seating": "yes",
      "addr_state": "NM",
      "addr_city": "Santa Fe",
      "addr_postcode": "87501",
      "addr_street": "East San Francisco Street",
      "addr_housenumber": "60"
    },
    {
      "id": 98869,
      "geometry": "POINT (-105.945252 35.68792)",
      "poi_name": "Mille French Cafe & Creperie",
      "osm_id": 6534344018,
      "amenity": "restaurant",
      "cuisine": "french",
      "opening_hours": "We-Su 07:00-15:00",
      "addr_street": "West Alameda Street",
      "addr_housenumber": "451"
    },
    {
      "id": 98870,
      "geometry": "POINT (-105.942481 35.688186)",
      "poi_name": "Agave Lounge",
      "osm_id": 6534344020,
      "amenity": "restaurant"
    },
    {
      "id": 99268,
      "geometry": "POINT (-104.950084 36.458499)",
      "poi_name": "Dining Hall 1",
      "osm_id": 6546262087,
      "amenity": "restaurant",
      "cuisine": "cafeteria"
    },
    {
      "id": 99343,
      "geometry": "POINT (-106.651048 35.084614)",
      "poi_name": "Aldo's New York Style Pizzeria",
      "osm_id": 6548409941,
      "amenity": "restaurant",
      "cuisine": "pizza",
      "addr_state": "NM",
      "addr_city": "Albuquerque",
      "addr_street": "Central Avenue Northwest",
      "addr_housenumber": "313A"
    },
    {
      "id": 100906,
      "geometry": "POINT (-105.958954 35.689155)",
      "poi_name": "Ph\u1edf Kim",
      "osm_id": 6604103734,
      "amenity": "restaurant",
      "cuisine": "asian",
      "addr_state": "NM",
      "addr_city": "Santa Fe",
      "addr_street": "West Alameda Street",
      "addr_housenumber": "919"
    },
    {
      "id": 100179,
      "geometry": "POINT (-106.013837 35.635684)",
      "poi_name": "Rice Village",
      "osm_id": 6577793107,
      "amenity": "restaurant",
      "cuisine": "asian"
    },
    {
      "id": 100181,
      "geometry": "POINT (-106.018338 35.63628)",
      "poi_name": "Applebee's",
      "osm_id": 6577793119,
      "amenity": "restaurant",
      "cuisine": "american",
      "official_name": "Applebee's Neighborhood Grill & Bar"
    },
    {
      "id": 100182,
      "geometry": "POINT (-105.940417 35.687568)",
      "poi_name": "Apothecary",
      "osm_id": 6577793262,
      "amenity": "restaurant",
      "addr_street": "West San Francisco Street",
      "addr_housenumber": "133"
    },
    {
      "id": 100183,
      "geometry": "POINT (-105.941162 35.686451)",
      "poi_name": "El Callejon",
      "osm_id": 6577812343,
      "amenity": "restaurant",
      "cuisine": "mexican",
      "website": "https://www.elcallejonsantafe.com",
      "phone": "+1-505-983-8378",
      "addr_state": "NM",
      "addr_city": "Santa Fe",
      "addr_postcode": "87501",
      "addr_street": "Galisteo Street",
      "addr_housenumber": "208"
    },
    {
      "id": 100188,
      "geometry": "POINT (-105.935312 35.687052)",
      "poi_name": "Palacio Cafe",
      "osm_id": 6577834395,
      "amenity": "restaurant",
      "cuisine": "sandwich",
      "opening_hours": "07:30-16:00; Tu off",
      "website": "http://www.palaciosantafe.com/",
      "phone": "+1 505 989 3505",
      "addr_city": "Santa Fe",
      "addr_postcode": "87501",
      "addr_street": "East Palace Avenue",
      "addr_housenumber": "209"
    },
    {
      "id": 100189,
      "geometry": "POINT (-105.937077 35.687477)",
      "poi_name": "The Shed",
      "osm_id": 6577834397,
      "amenity": "restaurant"
    },
    {
      "id": 100190,
      "geometry": "POINT (-105.937175 35.690117)",
      "poi_name": "Osteria D'Assisi",
      "osm_id": 6577834404,
      "amenity": "restaurant",
      "cuisine": "italian"
    },
    {
      "id": 99549,
      "geometry": "POINT (-106.711286 35.080891)",
      "poi_name": "Dion's Pizza",
      "osm_id": 6556306173,
      "amenity": "restaurant",
      "cuisine": "pizza",
      "addr_street": "Coors Boulevard Northwest",
      "addr_housenumber": "121"
    },
    {
      "id": 100907,
      "geometry": "POINT (-105.959049 35.689166)",
      "poi_name": "Masa Sushi",
      "osm_id": 6604103737,
      "amenity": "restaurant",
      "cuisine": "sushi",
      "addr_state": "NM",
      "addr_city": "Santa Fe",
      "addr_street": "West Alameda Street",
      "addr_housenumber": "927"
    },
    {
      "id": 100910,
      "geometry": "POINT (-106.651094 35.086464)",
      "poi_name": "Forque",
      "osm_id": 6604146471,
      "amenity": "restaurant"
    },
    {
      "id": 100912,
      "geometry": "POINT (-106.651131 35.084629)",
      "poi_name": "Anatolia",
      "osm_id": 6604146475,
      "amenity": "restaurant",
      "cuisine": "mediterranean;turkish"
    },
    {
      "id": 100913,
      "geometry": "POINT (-106.649872 35.084502)",
      "poi_name": "JC's New York Pizza Department",
      "osm_id": 6604146476,
      "amenity": "restaurant",
      "cuisine": "pizza",
      "addr_state": "NM",
      "addr_city": "Albuquerque",
      "addr_street": "Central Avenue Northwest",
      "addr_housenumber": "215"
    },
    {
      "id": 100914,
      "geometry": "POINT (-106.651225 35.084366)",
      "poi_name": "Asia Noodle Bar",
      "osm_id": 6604146480,
      "amenity": "restaurant",
      "cuisine": "asian",
      "addr_state": "NM",
      "addr_city": "Albuquerque",
      "addr_street": "Central Avenue Northwest",
      "addr_housenumber": "318"
    },
    {
      "id": 100915,
      "geometry": "POINT (-106.656223 35.08502)",
      "poi_name": "Capo's",
      "osm_id": 6604147694,
      "amenity": "restaurant",
      "cuisine": "pizza;italian"
    },
    {
      "id": 100919,
      "geometry": "POINT (-106.651603 35.080154)",
      "poi_name": "La Mexicana",
      "osm_id": 6604167069,
      "amenity": "restaurant",
      "cuisine": "mexican",
      "addr_street": "Coal Avenue Southwest",
      "addr_housenumber": "304"
    },
    {
      "id": 101046,
      "geometry": "POINT (-106.621137 35.080853)",
      "poi_name": "Brickyard Pizza",
      "osm_id": 6611187039,
      "amenity": "restaurant",
      "cuisine": "pizza"
    },
    {
      "id": 101053,
      "geometry": "POINT (-106.62266 35.080844)",
      "poi_name": "Bandido Hideout",
      "osm_id": 6611205158,
      "amenity": "restaurant",
      "cuisine": "mexican",
      "addr_state": "NM",
      "addr_city": "Albuquerque",
      "addr_postcode": "87106",
      "addr_street": "Central Avenue Southeast",
      "addr_housenumber": "2128"
    },
    {
      "id": 101054,
      "geometry": "POINT (-106.623184 35.080851)",
      "poi_name": "O Ramen",
      "osm_id": 6611205161,
      "amenity": "restaurant",
      "cuisine": "asian",
      "addr_state": "NM",
      "addr_city": "Albuquerque",
      "addr_postcode": "87106",
      "addr_street": "Central Avenue Southeast",
      "addr_housenumber": "2114"
    },
    {
      "id": 101056,
      "geometry": "POINT (-106.62334 35.080852)",
      "poi_name": "Naruto Ramen",
      "osm_id": 6611205164,
      "amenity": "restaurant",
      "cuisine": "asian",
      "addr_state": "NM",
      "addr_city": "Albuquerque",
      "addr_postcode": "87106",
      "addr_street": "Central Avenue Southeast",
      "addr_housenumber": "2110"
    },
    {
      "id": 101057,
      "geometry": "POINT (-106.623558 35.080815)",
      "poi_name": "Asahi Express",
      "osm_id": 6611205165,
      "amenity": "restaurant",
      "cuisine": "japanese",
      "addr_state": "NM",
      "addr_city": "Albuquerque",
      "addr_postcode": "87106",
      "addr_street": "Central Avenue Southeast",
      "addr_housenumber": "2106"
    },
    {
      "id": 101061,
      "geometry": "POINT (-106.628939 35.08147)",
      "poi_name": "Yasmine's Cafe",
      "osm_id": 6611213792,
      "amenity": "restaurant",
      "cuisine": "mediterranean",
      "addr_street": "Central Avenue Southeast",
      "addr_housenumber": "1600"
    },
    {
      "id": 101229,
      "geometry": "POINT (-105.943281 35.681509)",
      "poi_name": "Restaurant Mart\u00edn",
      "osm_id": 6615412166,
      "amenity": "restaurant",
      "website": "https://restaurantmartin.com/",
      "phone": "505-820-0919",
      "addr_state": "NM",
      "addr_city": "Santa Fe",
      "addr_postcode": "87501",
      "addr_street": "Galisteo Street",
      "addr_housenumber": "526"
    },
    {
      "id": 101171,
      "geometry": "POINT (-105.93825 35.683054)",
      "poi_name": "Pink Adobe",
      "osm_id": 6612559223,
      "amenity": "restaurant"
    },
    {
      "id": 101172,
      "geometry": "POINT (-105.93765 35.684029)",
      "poi_name": "315",
      "osm_id": 6612559225,
      "amenity": "restaurant",
      "cuisine": "wine;french",
      "shop": "wine",
      "addr_street": "Old Santa Fe Trail"
    },
    {
      "id": 101173,
      "geometry": "POINT (-105.941271 35.685754)",
      "poi_name": "The Pantry Rio",
      "osm_id": 6612559228,
      "amenity": "restaurant",
      "cuisine": "american",
      "phone": "1-505-989-1919",
      "addr_state": "NM",
      "addr_city": "Santa Fe",
      "addr_postcode": "87501",
      "addr_street": "Galisteo Street",
      "addr_housenumber": "229"
    },
    {
      "id": 101175,
      "geometry": "POINT (-105.933567 35.683408)",
      "poi_name": "Cafe Greco",
      "osm_id": 6612576081,
      "amenity": "restaurant"
    },
    {
      "id": 101238,
      "geometry": "POINT (-106.065844 35.98832)",
      "poi_name": "Dandy Burger",
      "osm_id": 6615635676,
      "amenity": "restaurant",
      "cuisine": "burger",
      "addr_city": "Espanola",
      "addr_street": "Riverside Drive",
      "addr_housenumber": "424"
    },
    {
      "id": 101240,
      "geometry": "POINT (-106.061791 36.03845)",
      "poi_name": "El Parasol",
      "osm_id": 6615683390,
      "amenity": "restaurant",
      "cuisine": "mexican"
    },
    {
      "id": 101421,
      "geometry": "POINT (-106.016817 35.637176)",
      "poi_name": "Outback Steakhouse",
      "osm_id": 6626953347,
      "amenity": "restaurant",
      "cuisine": "american;steak"
    },
    {
      "id": 101444,
      "geometry": "POINT (-105.951779 35.69244)",
      "poi_name": "El Sabo",
      "osm_id": 6629919094,
      "amenity": "restaurant",
      "cuisine": "mexican",
      "addr_state": "NM",
      "addr_city": "Santa Fe",
      "addr_postcode": "87501",
      "addr_street": "Paseo de Peralta",
      "addr_housenumber": "153A"
    },
    {
      "id": 101422,
      "geometry": "POINT (-106.016406 35.637926)",
      "poi_name": "Pizza Hut",
      "osm_id": 6626953348,
      "amenity": "restaurant",
      "cuisine": "pizza"
    },
    {
      "id": 101423,
      "geometry": "POINT (-106.015788 35.637923)",
      "poi_name": "Red Lobster",
      "osm_id": 6626953349,
      "amenity": "restaurant",
      "cuisine": "seafood"
    },
    {
      "id": 101424,
      "geometry": "POINT (-106.018692 35.635595)",
      "poi_name": "Flying Tortilla",
      "osm_id": 6626953351,
      "amenity": "restaurant",
      "cuisine": "mexican;new_mexican;regional",
      "website": "https://flyingtortillasantafe.com",
      "phone": "+1 505 424 1680",
      "addr_state": "NM",
      "addr_city": "Santa Fe",
      "addr_postcode": "87507-4697",
      "addr_street": "Cerrillos Road",
      "addr_housenumber": "4250"
    },
    {
      "id": 101426,
      "geometry": "POINT (-106.016431 35.642828)",
      "poi_name": "Plaza Cafe South",
      "osm_id": 6626953461,
      "amenity": "restaurant",
      "cuisine": "new_mexican;mexican;burger;american",
      "addr_street": "Zafarano Drive",
      "addr_housenumber": "3466"
    },
    {
      "id": 101427,
      "geometry": "POINT (-106.016582 35.642544)",
      "poi_name": "Pizza Centro",
      "osm_id": 6626953463,
      "amenity": "restaurant",
      "cuisine": "pizza",
      "addr_city": "Santa Fe",
      "addr_street": "Zafarano Drive",
      "addr_housenumber": "3470"
    },
    {
      "id": 101428,
      "geometry": "POINT (-106.016098 35.642701)",
      "poi_name": "Santa Fe Capitol Grill",
      "osm_id": 6626953464,
      "amenity": "restaurant",
      "cuisine": "burger",
      "addr_street": "Zafarano Drive",
      "addr_housenumber": "3462"
    },
    {
      "id": 101429,
      "geometry": "POINT (-106.01566 35.642761)",
      "poi_name": "El Milagro",
      "osm_id": 6626953466,
      "amenity": "restaurant",
      "cuisine": "mexican"
    },
    {
      "id": 102136,
      "geometry": "POINT (-105.98169 35.658962)",
      "poi_name": "Pho Ava",
      "osm_id": 6656063065,
      "amenity": "restaurant",
      "cuisine": "asian;vietnamese",
      "addr_state": "NM",
      "addr_city": "Santa Fe",
      "addr_street": "Cerrillos Road",
      "addr_housenumber": "2430"
    },
    {
      "id": 101919,
      "geometry": "POINT (-106.186883 36.345787)",
      "poi_name": "El Farolito",
      "osm_id": 6649018460,
      "amenity": "restaurant",
      "cuisine": "mexican",
      "phone": "(575) 581-9509",
      "addr_state": "NM",
      "addr_city": "El Rito",
      "addr_postcode": "87530",
      "addr_street": "New Mexico State Highway 554",
      "addr_housenumber": "1212"
    },
    {
      "id": 102034,
      "geometry": "POINT (-106.063534 35.999964)",
      "poi_name": "Pizza Hut",
      "osm_id": 6654113441,
      "amenity": "restaurant",
      "cuisine": "pizza"
    },
    {
      "id": 102037,
      "geometry": "POINT (-106.121966 36.065344)",
      "poi_name": "Socorro's",
      "osm_id": 6654113464,
      "amenity": "restaurant",
      "cuisine": "mexican"
    },
    {
      "id": 102050,
      "geometry": "POINT (-105.974656 35.658829)",
      "poi_name": "New Santa Fe Bite",
      "osm_id": 6654286630,
      "amenity": "restaurant",
      "cuisine": "burger",
      "addr_state": "NM",
      "addr_city": "Santa Fe",
      "addr_postcode": "87505",
      "addr_street": "Saint Michaels Drive",
      "addr_housenumber": "1616"
    },
    {
      "id": 103775,
      "geometry": "POINT (-105.938475 35.685305)",
      "poi_name": "Saz\u00f3n",
      "osm_id": 8523104815,
      "amenity": "restaurant",
      "cuisine": "mexican",
      "description": "Chef Olea creates sophisticated flavors using Old Mexico\u2019s indigenous and culinary traditions alongside ingredients from around the world. His menu is deliberately small, featuring fresh and locally sourced produce and meats when possible. Nothing evokes",
      "opening_hours": "Mo-Sa 17:00-20:00",
      "website": "https://sazonsantafe.com/",
      "phone": "505-983-8604",
      "addr_state": "NM",
      "addr_city": "Santa Fe",
      "addr_postcode": "87501",
      "addr_street": "Shelby Street",
      "addr_housenumber": "221"
    },
    {
      "id": 102345,
      "geometry": "POINT (-106.013369 35.641373)",
      "poi_name": "Posa's",
      "osm_id": 6679458394,
      "amenity": "restaurant",
      "cuisine": "mexican"
    },
    {
      "id": 102497,
      "geometry": "POINT (-106.648461 35.083964)",
      "poi_name": "Tucanos",
      "osm_id": 6682068982,
      "amenity": "restaurant",
      "opening_hours": "Mo-We 11:00-22:00; Fr,Sa 11:00-23:00; Su 11:00-21:00",
      "addr_street": "Central Avenue Northwest",
      "addr_housenumber": "110"
    },
    {
      "id": 102498,
      "geometry": "POINT (-106.648774 35.08406)",
      "poi_name": "Sushi King",
      "osm_id": 6682068983,
      "amenity": "restaurant",
      "cuisine": "sushi",
      "addr_street": "Central Avenue Northwest",
      "addr_housenumber": "118"
    },
    {
      "id": 102501,
      "geometry": "POINT (-106.667138 35.092521)",
      "poi_name": "Duran's Central Pharmacy",
      "osm_id": 6682123133,
      "amenity": "restaurant",
      "cuisine": "new_mexican;mexican",
      "opening_hours": "Mo-Tu 09:00-18:30; We-Su 09:00-20:00",
      "website": "https://duransrx.com/",
      "addr_state": "NM",
      "addr_city": "Albuquerque",
      "addr_postcode": "87104",
      "addr_street": "Central Avenue Northwest",
      "addr_housenumber": "1815"
    },
    {
      "id": 103192,
      "geometry": "POINT (-106.655985 35.196292)",
      "poi_name": "BJ's",
      "osm_id": 8489792824,
      "amenity": "restaurant",
      "cuisine": "american",
      "official_name": "BJ's Restaurant & Brewhouse",
      "addr_city": "Albuquerque",
      "addr_postcode": "87114"
    },
    {
      "id": 112625,
      "geometry": "POINT (-106.592061 35.078864)",
      "poi_name": "Taco Tote! Albuquerque",
      "osm_id": 3798356456,
      "amenity": "restaurant",
      "cuisine": "mexican",
      "opening_hours": "Mo-Su 10:00 -20:00",
      "website": "https://tacotote.com",
      "phone": "505-265-5188",
      "takeaway": "yes",
      "delivery": "yes",
      "addr_state": "NM",
      "addr_city": "Albuquerque",
      "addr_postcode": "87108",
      "addr_street": "Central Avenue Northeast",
      "addr_housenumber": "4701"
    },
    {
      "id": 107258,
      "geometry": "POINT (-106.66606 35.091161)",
      "poi_name": "5 Star Burgers",
      "osm_id": 3548085310,
      "amenity": "restaurant",
      "cuisine": "burger",
      "addr_state": "NM",
      "addr_city": "Albuquerque",
      "addr_street": "Central Avenue Southwest"
    },
    {
      "id": 107999,
      "geometry": "POINT (-106.577345 35.091113)",
      "poi_name": "Christy Mae's Restaurant",
      "osm_id": 3588014469,
      "amenity": "restaurant"
    },
    {
      "id": 108657,
      "geometry": "POINT (-106.62191 35.079252)",
      "poi_name": "Annapurna's World Vegetarian Cafe",
      "osm_id": 3632111072,
      "amenity": "restaurant",
      "cuisine": "indian;oriental;international",
      "website": "https://www.chaishoppe.com/",
      "addr_state": "NM",
      "addr_city": "Albuquerque",
      "addr_postcode": "87106",
      "addr_street": "Silver Avenue Southeast",
      "addr_housenumber": "2201"
    },
    {
      "id": 110606,
      "geometry": "POINT (-106.643787 35.083255)",
      "poi_name": "Standard Diner",
      "osm_id": 3710080882,
      "amenity": "restaurant",
      "cuisine": "american",
      "opening_hours": "Mo-Su 08:00-21:00",
      "website": "http://www.standarddiner.com/",
      "phone": "+1-505-243-1440",
      "toilets": "yes",
      "addr_street": "Central Avenue SE",
      "addr_housenumber": "320"
    },
    {
      "id": 111382,
      "geometry": "POINT (-106.516049 35.098363)",
      "poi_name": "Szechwan Chinese Restaurant",
      "osm_id": 3744889126,
      "amenity": "restaurant",
      "cuisine": "chinese",
      "wheelchair": "yes",
      "opening_hours": "Mo-Th 11:00-20:30; Fr 11:00-21:30; Sa 12:00-21:30; Su 16:00-20:30",
      "website": "www.szechwanabq.com",
      "phone": "5052999133",
      "takeaway": "yes",
      "outdoor_seating": "no",
      "delivery": "no",
      "addr_state": "NM",
      "addr_city": "Albuquerque",
      "addr_postcode": "87112",
      "addr_street": "Juan Tabo Boulevard Northeast",
      "addr_housenumber": "1605"
    },
    {
      "id": 111385,
      "geometry": "POINT (-106.515898 35.098528)",
      "poi_name": "Beto's Cocina",
      "osm_id": 3744927425,
      "amenity": "restaurant",
      "cuisine": "mexican",
      "opening_hours": "Tu-Fr 8:00-20:00; Sa 8:00-14:00",
      "addr_state": "NM",
      "addr_city": "Albuquerque",
      "addr_postcode": "87112",
      "addr_street": "Juan Tabo Boulevard Northeast",
      "addr_housenumber": "1605"
    },
    {
      "id": 107203,
      "geometry": "POINT (-106.639689 35.082683)",
      "poi_name": "Holy Cow",
      "osm_id": 3542879646,
      "amenity": "restaurant"
    },
    {
      "id": 107443,
      "geometry": "POINT (-106.578433 35.131937)",
      "poi_name": "Red Lobster",
      "osm_id": 3561724593,
      "amenity": "restaurant",
      "cuisine": "seafood",
      "outdoor_seating": "no"
    },
    {
      "id": 107813,
      "geometry": "POINT (-106.349056 35.161573)",
      "poi_name": "Lazy Lizard Grill",
      "osm_id": 3579363491,
      "amenity": "restaurant",
      "cuisine": "american",
      "phone": "+1-505-281-9122",
      "takeaway": "yes",
      "addr_state": "NM",
      "addr_city": "Sandia Park",
      "addr_postcode": "87008",
      "addr_street": "NM-14",
      "addr_housenumber": "12480"
    },
    {
      "id": 107977,
      "geometry": "POINT (-106.616541 35.084821)",
      "poi_name": "Outtakes",
      "osm_id": 3586877958,
      "amenity": "restaurant"
    },
    {
      "id": 112662,
      "geometry": "POINT (-106.591149 35.078768)",
      "poi_name": "Kasbah",
      "osm_id": 3799435704,
      "amenity": "restaurant",
      "cuisine": "mediterranean"
    },
    {
      "id": 115532,
      "geometry": "POINT (-106.568404 35.102256)",
      "poi_name": "Sushi Freak",
      "osm_id": 8902239377,
      "amenity": "restaurant",
      "cuisine": "sushi"
    },
    {
      "id": 115414,
      "geometry": "POINT (-106.564129 35.130279)",
      "poi_name": "Filipino Hawaiian Food",
      "osm_id": 8893347907,
      "amenity": "restaurant",
      "cuisine": "filipino;hawaiian",
      "opening_hours": "Tu-Sa 11:00-18:00; Su 12:00-17:00",
      "website": "https://filipinohawaiianfood.com/",
      "phone": "+1-505-263-8442",
      "addr_state": "NM",
      "addr_city": "Albuquerque",
      "addr_postcode": "87109",
      "addr_street": "Montgomery Boulevard Northeast",
      "addr_housenumber": "7200"
    },
    {
      "id": 114074,
      "geometry": "POINT (-106.658611 35.110579)",
      "poi_name": "Pueblo Harvest Cafe",
      "osm_id": 3864250629,
      "amenity": "restaurant"
    },
    {
      "id": 115533,
      "geometry": "POINT (-106.567619 35.103175)",
      "poi_name": "Sahara Express",
      "osm_id": 8902239387,
      "amenity": "restaurant"
    },
    {
      "id": 117487,
      "geometry": "POINT (-106.624872 35.10831)",
      "poi_name": "Stockman's Grill",
      "osm_id": 8997147620,
      "amenity": "restaurant"
    },
    {
      "id": 119539,
      "geometry": "POINT (-105.938165 35.68328)",
      "poi_name": "Rio Chama",
      "osm_id": 9106298248,
      "amenity": "restaurant",
      "cuisine": "steak_house"
    },
    {
      "id": 117486,
      "geometry": "POINT (-106.624872 35.107985)",
      "poi_name": "Cantina",
      "osm_id": 8997147619,
      "amenity": "restaurant",
      "description": "yes, that's the real name"
    },
    {
      "id": 118381,
      "geometry": "POINT (-105.94209 35.687829)",
      "poi_name": "Ortiz Restaurant & Bar",
      "osm_id": 9043661196,
      "amenity": "restaurant",
      "addr_street": "Sandoval Street",
      "addr_housenumber": "100"
    },
    {
      "id": 118382,
      "geometry": "POINT (-105.939838 35.68544)",
      "poi_name": "Open Kitchen",
      "osm_id": 9043661198,
      "amenity": "restaurant"
    },
    {
      "id": 118396,
      "geometry": "POINT (-105.481251 36.594028)",
      "poi_name": "Amizette Inn & Restaurant",
      "osm_id": 9044155511,
      "amenity": "restaurant",
      "tourism": "hotel",
      "internet_access": "wlan",
      "addr_city": "Taos Ski Valley",
      "addr_postcode": "87525",
      "addr_street": "NM-150",
      "addr_housenumber": "1295"
    },
    {
      "id": 120266,
      "geometry": "POINT (-105.942609 35.683991)",
      "poi_name": "Saveur Bistro",
      "osm_id": 6698142604,
      "amenity": "restaurant",
      "addr_street": "Montezuma Avenue",
      "addr_housenumber": "204"
    },
    {
      "id": 119793,
      "geometry": "POINT (-106.650129 35.102295)",
      "poi_name": "Kosmos",
      "osm_id": 9122815732,
      "amenity": "restaurant",
      "addr_state": "NM",
      "addr_city": "Albuquerque",
      "addr_street": "5th Street Northwest",
      "addr_housenumber": "1715"
    },
    {
      "id": 120215,
      "geometry": "POINT (-106.028868 35.63818)",
      "poi_name": "Puerte Penasco",
      "osm_id": 6696335503,
      "amenity": "restaurant",
      "cuisine": "mexican;seafood",
      "addr_state": "NM",
      "addr_city": "Santa Fe",
      "addr_postcode": "87507",
      "addr_street": "Airport Road",
      "addr_housenumber": "4681"
    },
    {
      "id": 120679,
      "geometry": "POINT (-105.57385 36.406459)",
      "poi_name": "Quechua",
      "osm_id": 6718764785,
      "amenity": "restaurant",
      "cuisine": "peruvian"
    },
    {
      "id": 120429,
      "geometry": "POINT (-106.578534 35.058556)",
      "poi_name": "Stripes",
      "osm_id": 6703293391,
      "amenity": "restaurant"
    },
    {
      "id": 120581,
      "geometry": "POINT (-106.124851 35.436767)",
      "poi_name": "Black Bird Saloon",
      "osm_id": 6711537595,
      "amenity": "restaurant",
      "cuisine": "burger",
      "website": "http://www.blackbirdsaloon.com/",
      "phone": "+1-505-438-1821",
      "addr_state": "NM",
      "addr_city": "Los Cerrillos",
      "addr_postcode": "87010",
      "addr_street": "Main Street",
      "addr_housenumber": "28"
    },
    {
      "id": 120583,
      "geometry": "POINT (-105.942115 35.688484)",
      "poi_name": "CAVA",
      "osm_id": 6711655118,
      "amenity": "restaurant",
      "cuisine": "mediterranean"
    },
    {
      "id": 120604,
      "geometry": "POINT (-105.937836 35.686796)",
      "poi_name": "La Plazuela",
      "osm_id": 6713337016,
      "amenity": "restaurant"
    },
    {
      "id": 120605,
      "geometry": "POINT (-105.937841 35.686463)",
      "poi_name": "La Fiesta Lounge",
      "osm_id": 6713337027,
      "amenity": "restaurant"
    },
    {
      "id": 120617,
      "geometry": "POINT (-105.226261 35.592426)",
      "poi_name": "JC's New York Pizza Department",
      "osm_id": 6715022506,
      "amenity": "restaurant",
      "cuisine": "pizza",
      "addr_state": "NM",
      "addr_city": "Las Vegas"
    },
    {
      "id": 120620,
      "geometry": "POINT (-105.223758 35.60768)",
      "poi_name": "Pizza Hut",
      "osm_id": 6715060880,
      "amenity": "restaurant",
      "cuisine": "pizza"
    },
    {
      "id": 120688,
      "geometry": "POINT (-105.584538 36.388324)",
      "poi_name": "Mondo Italiano",
      "osm_id": 6719007542,
      "amenity": "restaurant",
      "cuisine": "italian"
    },
    {
      "id": 120690,
      "geometry": "POINT (-105.587304 36.38422)",
      "poi_name": "5 Star Burgers",
      "osm_id": 6719012558,
      "amenity": "restaurant",
      "cuisine": "burger",
      "addr_state": "NM",
      "addr_city": "Taos",
      "addr_postcode": "87571",
      "addr_street": "Paseo del Pueblo Sur",
      "addr_housenumber": "1032"
    },
    {
      "id": 122530,
      "geometry": "POINT (-106.708997 35.080554)",
      "poi_name": "Western View Diner & Steak House",
      "osm_id": 6810141885,
      "amenity": "restaurant",
      "opening_hours": "Mo-Sa 06:00-22:00; Su 06:00-15:00"
    },
    {
      "id": 120932,
      "geometry": "POINT (-106.064814 36.004655)",
      "poi_name": "JoAnn's Restaurant",
      "osm_id": 6734160372,
      "amenity": "restaurant",
      "addr_city": "Espanola",
      "addr_street": "Riverside Drive"
    },
    {
      "id": 122304,
      "geometry": "POINT (-105.950991 35.692156)",
      "poi_name": "Dr. Field Goods Kitchen",
      "osm_id": 6796090937,
      "amenity": "restaurant",
      "addr_street": "Paseo de Peralta",
      "addr_housenumber": "187B"
    },
    {
      "id": 120662,
      "geometry": "POINT (-105.572345 36.408944)",
      "poi_name": "Martyr's Steakhouse",
      "osm_id": 6717820017,
      "amenity": "restaurant",
      "cuisine": "steak_house",
      "opening_hours": "Tu-Sa 11:00-21:00"
    },
    {
      "id": 120671,
      "geometry": "POINT (-105.572272 36.408292)",
      "poi_name": "Donbe",
      "osm_id": 6718671753,
      "amenity": "restaurant",
      "cuisine": "asian"
    },
    {
      "id": 120672,
      "geometry": "POINT (-105.57381 36.407094)",
      "poi_name": "Gorge Bar and Grill",
      "osm_id": 6718671754,
      "amenity": "restaurant"
    },
    {
      "id": 120677,
      "geometry": "POINT (-105.576574 36.400694)",
      "poi_name": "Kyote Club Restaraunt and Bar",
      "osm_id": 6718761376,
      "amenity": "restaurant"
    },
    {
      "id": 120787,
      "geometry": "POINT (-105.584009 36.389111)",
      "poi_name": "IHOP",
      "osm_id": 6722990025,
      "amenity": "restaurant",
      "cuisine": "breakfast;pancake"
    },
    {
      "id": 120788,
      "geometry": "POINT (-105.609158 36.358742)",
      "poi_name": "Ranchos Plaza Grill",
      "osm_id": 6723040772,
      "amenity": "restaurant"
    },
    {
      "id": 120789,
      "geometry": "POINT (-105.609229 36.359321)",
      "poi_name": "Old Martina's Hall",
      "osm_id": 6723040773,
      "amenity": "restaurant"
    },
    {
      "id": 121004,
      "geometry": "POINT (-105.995619 35.653424)",
      "poi_name": "Tortilla Flats",
      "osm_id": 6737687668,
      "amenity": "restaurant",
      "cuisine": "mexican",
      "phone": "+1-505-471-8685",
      "addr_state": "NM",
      "addr_city": "Santa Fe",
      "addr_postcode": "87505",
      "addr_street": "Cerrillos Road",
      "addr_housenumber": "3139"
    },
    {
      "id": 121417,
      "geometry": "POINT (-105.94894 35.683415)",
      "poi_name": "Restoration Pizza",
      "osm_id": 6760840483,
      "amenity": "restaurant",
      "cuisine": "pizza",
      "addr_state": "NM",
      "addr_city": "Santa Fe",
      "addr_postcode": "87501",
      "addr_street": "Market Street",
      "addr_housenumber": "500"
    },
    {
      "id": 123905,
      "geometry": "POINT (-106.603881 35.079078)",
      "poi_name": "Soo Bak",
      "osm_id": 6887290518,
      "amenity": "restaurant",
      "cuisine": "asian"
    },
    {
      "id": 122687,
      "geometry": "POINT (-106.662318 34.936781)",
      "poi_name": "Tiwa",
      "osm_id": 6814773330,
      "amenity": "restaurant",
      "addr_state": "NM",
      "addr_city": "Isleta",
      "addr_postcode": "87105"
    },
    {
      "id": 123650,
      "geometry": "POINT (-105.954081 35.646091)",
      "poi_name": "Tibet Kitchen",
      "osm_id": 6868587244,
      "amenity": "restaurant",
      "cuisine": "tibetan",
      "opening_hours": "Mo-Sa 11:30-14:30, 16:00-21:00",
      "phone": "+1-505-982-6796",
      "addr_state": "NM",
      "addr_city": "Santa Fe",
      "addr_postcode": "87505",
      "addr_street": "South Saint Francis Drive",
      "addr_housenumber": "3003"
    },
    {
      "id": 123911,
      "geometry": "POINT (-106.619238 35.080787)",
      "poi_name": "Frontier Restaurant",
      "osm_id": 6887319156,
      "amenity": "restaurant",
      "cuisine": "new_mexican;mexican;american",
      "opening_hours": "Su-Sa 05:00-01:00",
      "addr_state": "NM",
      "addr_city": "Albuquerque",
      "addr_postcode": "87106",
      "addr_street": "Central Avenue Southeast",
      "addr_housenumber": "2400"
    },
    {
      "id": 124140,
      "geometry": "POINT (-105.573837 36.408566)",
      "poi_name": "Lambert's",
      "osm_id": 6901062186,
      "amenity": "restaurant",
      "addr_street": "Bent Street",
      "addr_housenumber": "123"
    },
    {
      "id": 123902,
      "geometry": "POINT (-106.605214 35.080066)",
      "poi_name": "Frenchish",
      "osm_id": 6887290505,
      "amenity": "restaurant",
      "cuisine": "french",
      "opening_hours": "Tu-Sa 17:00-22:00; Su-Mo closed",
      "website": "https://frenchish.co/",
      "phone": "505-433-5911",
      "outdoor_seating": "no",
      "addr_state": "NM",
      "addr_city": "Albuquerque",
      "addr_postcode": "87106",
      "addr_street": "Central Avenue Northeast",
      "addr_housenumber": "3509"
    },
    {
      "id": 124068,
      "geometry": "POINT (-105.572466 36.420782)",
      "poi_name": "Love Apple",
      "osm_id": 6898843086,
      "amenity": "restaurant",
      "addr_street": "Paseo del Pueblo Norte",
      "addr_housenumber": "803"
    },
    {
      "id": 127243,
      "geometry": "POINT (-105.939005 35.686631)",
      "poi_name": "Dumpling Tea",
      "osm_id": 8045739032,
      "amenity": "restaurant",
      "cuisine": "chinese",
      "opening_hours": "Mo-Su 11:00-20:30",
      "addr_state": "NM",
      "addr_city": "Santa Fe",
      "addr_postcode": "87501",
      "addr_street": "East San Francisco Street",
      "addr_housenumber": "66"
    },
    {
      "id": 124241,
      "geometry": "POINT (-105.573912 36.405752)",
      "poi_name": "La Cueva",
      "osm_id": 6904402485,
      "amenity": "restaurant",
      "cuisine": "mexican",
      "opening_hours": "Mo-Sa 10:00-21:00",
      "addr_state": "NM",
      "addr_city": "Taos",
      "addr_postcode": "87571",
      "addr_street": "Paseo del Pueblo Sur",
      "addr_housenumber": "135"
    },
    {
      "id": 125098,
      "geometry": "POINT (-106.024455 35.893075)",
      "poi_name": "Home Run Pizza",
      "osm_id": 6944423692,
      "amenity": "restaurant",
      "addr_state": "NM",
      "addr_city": "Santa Fe",
      "addr_postcode": "87506",
      "addr_street": "Grazing Elk Drive",
      "addr_housenumber": "4"
    },
    {
      "id": 125260,
      "geometry": "POINT (-106.578948 35.08886)",
      "poi_name": "Chopstix",
      "osm_id": 6952590091,
      "amenity": "restaurant",
      "cuisine": "asian"
    },
    {
      "id": 126464,
      "geometry": "POINT (-106.590473 35.087718)",
      "poi_name": "Los Cuates Del Norte",
      "osm_id": 7004557381,
      "amenity": "restaurant",
      "website": "https://loscuatesrestaurants.com/loscuates/Los_Cuates.html",
      "phone": "+1 505 255 5079",
      "addr_state": "NM",
      "addr_city": "Albuquerque",
      "addr_postcode": "87110-6339",
      "addr_street": "Lomas Boulevard Northeast",
      "addr_housenumber": "4901"
    },
    {
      "id": 125366,
      "geometry": "POINT (-105.880839 35.481167)",
      "poi_name": "Legal Tender",
      "osm_id": 6957960517,
      "amenity": "restaurant",
      "cuisine": "regional",
      "opening_hours": "We-Su 15:00-20:00",
      "addr_state": "NM",
      "addr_city": "Lamy",
      "addr_postcode": "87540",
      "addr_street": "Old Lamy Trail",
      "addr_housenumber": "155"
    },
    {
      "id": 127744,
      "geometry": "POINT (-105.945009 35.685488)",
      "poi_name": "Zacatl\u00e1n",
      "osm_id": 8090048352,
      "amenity": "restaurant",
      "cuisine": "mexican",
      "website": "https://zacatlanrestaurant.com/about",
      "phone": "+1 505 780 5174"
    },
    {
      "id": 127745,
      "geometry": "POINT (-105.96534 35.680197)",
      "poi_name": "Ras Rody's Jamaican Vegan",
      "osm_id": 8090048370,
      "amenity": "restaurant",
      "cuisine": "jamaican",
      "takeaway": "only",
      "outdoor_seating": "no",
      "delivery": "no",
      "addr_state": "NM",
      "addr_city": "Santa Fe",
      "addr_postcode": "87501",
      "addr_street": "Agua Fria Street",
      "addr_housenumber": "1320"
    },
    {
      "id": 128470,
      "geometry": "POINT (-106.588904 35.086772)",
      "poi_name": "Duke City Kitchen",
      "osm_id": 8158692466,
      "amenity": "restaurant"
    },
    {
      "id": 128590,
      "geometry": "POINT (-106.497026 35.07345)",
      "poi_name": "Sushi Xuan Asian Grill",
      "osm_id": 8172334553,
      "amenity": "restaurant",
      "cuisine": "japanese",
      "website": "https://www.sushixuannm.com/",
      "internet_access": "wlan",
      "takeaway": "yes",
      "outdoor_seating": "no",
      "addr_state": "NM",
      "addr_city": "Albuquerque",
      "addr_postcode": "87123",
      "addr_street": "417 Tramway Blvd NE"
    },
    {
      "id": 129258,
      "geometry": "POINT (-106.583762 35.109998)",
      "poi_name": "Havana Restaurant",
      "osm_id": 8226116367,
      "amenity": "restaurant",
      "cuisine": "cuban"
    },
    {
      "id": 134027,
      "geometry": "POINT (-104.914617 36.50994)",
      "poi_name": "Burrito Banquet",
      "osm_id": 10025620566,
      "amenity": "restaurant",
      "cuisine": "mexican",
      "phone": "18175264002",
      "addr_state": "NM",
      "addr_city": "Cimarron",
      "addr_postcode": "87714",
      "addr_street": "E 10th Street",
      "addr_housenumber": "400"
    },
    {
      "id": 131674,
      "geometry": "POINT (-106.581303 35.108757)",
      "poi_name": "Magokoro Japanese",
      "osm_id": 9923251348,
      "amenity": "restaurant",
      "cuisine": "japanese",
      "opening_hours": "We-Sa 11:00-15:00, We-Sa 17:30-20:00",
      "website": "www.magokoroabq.com",
      "phone": "1-505-830-2061",
      "addr_state": "NM",
      "addr_city": "Albuquerque",
      "addr_postcode": "87110",
      "addr_street": "Menaul Boulevard Northeast",
      "addr_housenumber": "5614"
    },
    {
      "id": 133518,
      "geometry": "POINT (-105.224882 35.593223)",
      "poi_name": "El Rialto Restaurant",
      "osm_id": 9996733618,
      "amenity": "restaurant",
      "cuisine": "mexican;american",
      "opening_hours": "Tu-Su 11:30- 20:30",
      "website": "https://elrialtorestaurant.com",
      "phone": "505-454-0037",
      "addr_state": "NM",
      "addr_city": "Las Vegas",
      "addr_postcode": "87701",
      "addr_street": "Bridge Street",
      "addr_housenumber": "141"
    },
    {
      "id": 134952,
      "geometry": "POINT (-106.535078 35.117138)",
      "poi_name": "Michelle's Italian and Pizzeria",
      "osm_id": 11497638305,
      "amenity": "restaurant",
      "cuisine": "pizza;italian",
      "opening_hours": "Tu-Th 15:00-20:00; Fr 15:00-21:00; Sa 12:00-19:00; Su 12:00-19:00",
      "website": "https://www.michellesitalianpizzeriamenu.com",
      "phone": "+1-505-357-2161",
      "takeaway": "yes",
      "delivery": "yes",
      "addr_state": "NM",
      "addr_city": "Albuquerque",
      "addr_postcode": "87111",
      "addr_street": "Eubank Boulevard Northeast",
      "addr_housenumber": "3107"
    },
    {
      "id": 134955,
      "geometry": "POINT (-106.551239 35.123363)",
      "poi_name": "Poki Poki Cevicheria",
      "osm_id": 11497652078,
      "amenity": "restaurant",
      "opening_hours": "Su-Mo 11:00-20:30; Tu-Sa 11:00-21:00",
      "website": "https://www.pokipokinm.net",
      "phone": "+1-505-503-6806",
      "takeaway": "yes",
      "outdoor_seating": "yes",
      "delivery": "yes",
      "toilets": "yes",
      "addr_state": "NM",
      "addr_city": "Albuquerque",
      "addr_postcode": "87111",
      "addr_street": "Wyoming Boulevard Northeast",
      "addr_housenumber": "3517"
    },
    {
      "id": 143337,
      "geometry": "POINT (-106.60469 35.126952)",
      "poi_name": "Mandarin",
      "osm_id": 6336830288,
      "amenity": "restaurant",
      "cuisine": "chinese"
    },
    {
      "id": 137496,
      "geometry": "POINT (-106.55162 35.10752)",
      "poi_name": "Slice & Dice Pizza",
      "osm_id": 6102814667,
      "amenity": "restaurant",
      "opening_hours": "Mo-Th,Su 11:00-21:00; Fr,Sa 11:00-22:00",
      "addr_state": "NM",
      "addr_city": "Albuquerque",
      "addr_postcode": "87112",
      "addr_street": "Wyoming Blvd",
      "addr_housenumber": "2225"
    },
    {
      "id": 139264,
      "geometry": "POINT (-106.002619 35.661854)",
      "poi_name": "The Kitchen",
      "osm_id": 6188996769,
      "amenity": "restaurant",
      "cuisine": "regional",
      "website": "https://thepswkitchen.tumblr.com/",
      "phone": "+1-505-465-9535",
      "addr_state": "NM",
      "addr_city": "Santa Fe",
      "addr_postcode": "87507",
      "addr_street": "Agua Fria Street",
      "addr_housenumber": "3095"
    },
    {
      "id": 142570,
      "geometry": "POINT (-106.67734 35.094031)",
      "poi_name": "Buen Provecho",
      "osm_id": 6317281076,
      "amenity": "restaurant",
      "cuisine": "international"
    },
    {
      "id": 142571,
      "geometry": "POINT (-106.677133 35.094025)",
      "poi_name": "Sandia Crest Pizza",
      "osm_id": 6317281077,
      "amenity": "restaurant",
      "cuisine": "pizza"
    },
    {
      "id": 142572,
      "geometry": "POINT (-106.677192 35.09403)",
      "poi_name": "Bosque Burger",
      "osm_id": 6317281078,
      "amenity": "restaurant",
      "cuisine": "burger",
      "addr_state": "NM",
      "addr_city": "Albuquerque",
      "addr_street": "Central Avenue Southwest"
    },
    {
      "id": 136477,
      "geometry": "POINT (-106.531388 35.138044)",
      "poi_name": "Dave's High Desert Grill",
      "osm_id": 11585808628,
      "amenity": "restaurant",
      "addr_state": "NM",
      "addr_city": "Albuquerque",
      "addr_street": "Eubank Boulevard Northeast",
      "addr_housenumber": "5200"
    },
    {
      "id": 143338,
      "geometry": "POINT (-106.604628 35.126415)",
      "poi_name": "Vegos",
      "osm_id": 6336830290,
      "amenity": "restaurant",
      "cuisine": "new_mexican",
      "website": "https://www.vegosabq.com/",
      "addr_state": "NM",
      "addr_city": "Albuquerque",
      "addr_postcode": "87107",
      "addr_street": "Carlisle Boulevard Northeast",
      "addr_housenumber": "4003"
    },
    {
      "id": 144719,
      "geometry": "POINT (-106.591775 35.154263)",
      "poi_name": "Einstein Bagels",
      "osm_id": 7282903851,
      "amenity": "restaurant"
    },
    {
      "id": 147682,
      "geometry": "POINT (-105.604373 36.362443)",
      "poi_name": "Trading Post Cafe",
      "osm_id": 7554882395,
      "amenity": "restaurant"
    },
    {
      "id": 145166,
      "geometry": "POINT (-106.714011 35.030875)",
      "poi_name": "Pizza Hut",
      "osm_id": 7321412877,
      "amenity": "restaurant",
      "cuisine": "pizza"
    },
    {
      "id": 145167,
      "geometry": "POINT (-106.71414 35.029887)",
      "poi_name": "Amadeo's Pizza",
      "osm_id": 7321412878,
      "amenity": "restaurant",
      "cuisine": "pizza",
      "website": "https://www.amadeospizzamenu.com/",
      "phone": "+1 505 873-2035",
      "addr_state": "NM",
      "addr_city": "Albuquerque",
      "addr_street": "Coors Boulevard Southwest",
      "addr_housenumber": "3109"
    },
    {
      "id": 147177,
      "geometry": "POINT (-106.691137 35.770781)",
      "poi_name": "Jemez Stage Stop Cafe",
      "osm_id": 7511419021,
      "amenity": "restaurant",
      "cuisine": "american;new_mexican;mexican",
      "website": "https://www.facebook.com/JemezStageStop",
      "phone": "+1-575-829-3829",
      "addr_state": "NM",
      "addr_city": "Jemez Springs",
      "addr_postcode": "87025",
      "addr_street": "NM-4",
      "addr_housenumber": "17607"
    },
    {
      "id": 147178,
      "geometry": "POINT (-106.690154 35.771749)",
      "poi_name": "Monica's Firehouse Grill",
      "osm_id": 7511419027,
      "amenity": "restaurant",
      "cuisine": "grill;american",
      "phone": "+1-575-829-4222",
      "addr_state": "NM",
      "addr_city": "Jemez Springs",
      "addr_postcode": "87025",
      "addr_street": "NM-4",
      "addr_housenumber": "17691"
    },
    {
      "id": 146959,
      "geometry": "POINT (-105.951309 35.672685)",
      "poi_name": "Fun Noodle Bar",
      "osm_id": 7489500965,
      "amenity": "restaurant",
      "cuisine": "noodle",
      "opening_hours": "11:00-21:00",
      "website": "https://www.facebook.com/FunNoodleBarSantaFe/",
      "phone": "(505) 974-8801",
      "outdoor_seating": "no",
      "addr_state": "NM",
      "addr_city": "Santa Fe",
      "addr_postcode": "87505",
      "addr_street": "West Cordova Road",
      "addr_housenumber": "514"
    },
    {
      "id": 151213,
      "geometry": "POINT (-106.650506 35.083277)",
      "poi_name": "Le Troquet",
      "osm_id": 4086488891,
      "amenity": "restaurant"
    },
    {
      "id": 147950,
      "geometry": "POINT (-106.080802 36.007809)",
      "poi_name": "Angelina's",
      "osm_id": 3919448885,
      "amenity": "restaurant",
      "addr_state": "NM",
      "addr_city": "Espanola",
      "addr_postcode": "87532",
      "addr_street": "North Railroad Avenue",
      "addr_housenumber": "1226"
    },
    {
      "id": 149919,
      "geometry": "POINT (-105.939652 35.686594)",
      "poi_name": "Cafe Pasqual's",
      "osm_id": 4032210935,
      "amenity": "restaurant",
      "cuisine": "mexican",
      "addr_street": "Don Gaspar Avenue",
      "addr_housenumber": "121"
    },
    {
      "id": 153886,
      "geometry": "POINT (-105.949422 35.673247)",
      "poi_name": "Pyramid Cafe",
      "osm_id": 4215678089,
      "amenity": "restaurant",
      "cuisine": "mediterranean",
      "description": "Mediterranean, Greek, Tunisian",
      "website": "https://www.pyramidcafesf.com/",
      "phone": "+1 505-989-1378",
      "takeaway": "yes",
      "addr_state": "NM",
      "addr_city": "Santa Fe",
      "addr_postcode": "87501",
      "addr_street": "West Cordova Road",
      "addr_housenumber": "505"
    },
    {
      "id": 152731,
      "geometry": "POINT (-106.600965 35.139457)",
      "poi_name": "Cheddar's",
      "osm_id": 4156466867,
      "amenity": "restaurant",
      "cuisine": "american",
      "official_name": "Cheddar's Scratch Kitchen"
    },
    {
      "id": 152733,
      "geometry": "POINT (-106.60157 35.139131)",
      "poi_name": "Bubba's 33",
      "osm_id": 4156499138,
      "amenity": "restaurant"
    },
    {
      "id": 153888,
      "geometry": "POINT (-105.98409 35.639438)",
      "poi_name": "Joe's Dining",
      "osm_id": 4215809645,
      "amenity": "restaurant",
      "cuisine": "diner;american",
      "description": "local",
      "phone": "+1 505-471-3800",
      "addr_state": "NM",
      "addr_city": "Santa Fe",
      "addr_postcode": "87507",
      "addr_street": "Rodeo Road",
      "addr_housenumber": "2801"
    },
    {
      "id": 154684,
      "geometry": "POINT (-105.974628 35.658659)",
      "poi_name": "Annapurna\u2019s World Vegetarian Cafe",
      "osm_id": 4251906189,
      "amenity": "restaurant"
    },
    {
      "id": 154455,
      "geometry": "POINT (-106.654895 35.087283)",
      "poi_name": "Cafe Lush",
      "osm_id": 4238473636,
      "amenity": "restaurant",
      "addr_street": "Tijeras Avenue Northwest",
      "addr_housenumber": "700"
    },
    {
      "id": 155963,
      "geometry": "POINT (-106.939469 35.034832)",
      "poi_name": "Laguna Burger",
      "osm_id": 4636291961,
      "amenity": "restaurant",
      "cuisine": "burger",
      "opening_hours": "06:00-22:00",
      "takeaway": "yes",
      "outdoor_seating": "yes",
      "addr_state": "NM",
      "addr_city": "Albuquerque",
      "addr_postcode": "87121",
      "addr_street": "Central Avenue Northwest",
      "addr_housenumber": "14311"
    },
    {
      "id": 155982,
      "geometry": "POINT (-106.581214 35.059446)",
      "poi_name": "Antonio's Cafe & Cantina",
      "osm_id": 4636484640,
      "amenity": "restaurant"
    },
    {
      "id": 155983,
      "geometry": "POINT (-106.582738 35.058949)",
      "poi_name": "Asian Grill",
      "osm_id": 4636484641,
      "amenity": "restaurant"
    },
    {
      "id": 156543,
      "geometry": "POINT (-106.531352 35.085739)",
      "poi_name": "The Burrito Lady",
      "osm_id": 4664390590,
      "amenity": "restaurant",
      "cuisine": "mexican",
      "opening_hours": "Tu-Fr 06:30-14:00",
      "phone": "+1-505-271-2268",
      "addr_postcode": "87112",
      "addr_street": "Eubank Boulevard Northeast",
      "addr_housenumber": "938"
    },
    {
      "id": 156833,
      "geometry": "POINT (-105.952063 35.672783)",
      "poi_name": "Furr's Family Dining",
      "osm_id": 4673538625,
      "amenity": "restaurant",
      "cuisine": "cafeteria;buffet",
      "opening_hours": "11:00-20:00",
      "website": "http://www.furrs.net/furrs-buffet-menu/",
      "fast_food": "cafeteria",
      "addr_state": "NM",
      "addr_city": "Santa Fe",
      "addr_postcode": "87501",
      "addr_street": "West Cordova Road",
      "addr_housenumber": "522"
    },
    {
      "id": 156590,
      "geometry": "POINT (-106.514624 35.081028)",
      "poi_name": "Weck's",
      "osm_id": 4666284124,
      "amenity": "restaurant",
      "opening_hours": "Mo-Su 07:00-14:00",
      "website": "https://wecksinc.com",
      "takeaway": "no",
      "outdoor_seating": "no",
      "delivery": "no",
      "addr_state": "NM",
      "addr_city": "Albuquerque",
      "addr_postcode": "87123",
      "addr_street": "Juan Tabo Boulevard Northeast",
      "addr_housenumber": "730"
    },
    {
      "id": 156998,
      "geometry": "POINT (-106.653227 35.08461)",
      "poi_name": "Asian Pear",
      "osm_id": 4680898307,
      "amenity": "restaurant",
      "cuisine": "asian",
      "opening_hours": "Mo-Fr 10:00-16:00",
      "website": "https://www.facebook.com/AsianPearAbq/",
      "addr_state": "NM",
      "addr_city": "Albuquerque",
      "addr_postcode": "87102",
      "addr_street": "Central Avenue Southwest",
      "addr_housenumber": "508"
    },
    {
      "id": 156999,
      "geometry": "POINT (-106.653785 35.085002)",
      "poi_name": "Sushi Hana",
      "osm_id": 4680904462,
      "amenity": "restaurant",
      "cuisine": "japanese",
      "website": "https://www.sushihananm.com/menus.html",
      "outdoor_seating": "no",
      "addr_state": "NM",
      "addr_city": "Albuquerque",
      "addr_postcode": "87102",
      "addr_street": "Central Avenue Northwest",
      "addr_housenumber": "521"
    },
    {
      "id": 157000,
      "geometry": "POINT (-106.652153 35.084757)",
      "poi_name": "Mak's Quick Fire Kitchen",
      "osm_id": 4680927165,
      "amenity": "restaurant",
      "cuisine": "chinese",
      "opening_hours": "Mo-Fr 10:30-19:00",
      "website": "https://maksquickfirekitchenabq.wordpress.com",
      "addr_state": "NM",
      "addr_city": "Albuquerque",
      "addr_postcode": "87102",
      "addr_street": "Central Avenue Northwest",
      "addr_housenumber": "411"
    },
    {
      "id": 157267,
      "geometry": "POINT (-106.102564 35.584752)",
      "poi_name": "Blue Heron",
      "osm_id": 4696589146,
      "amenity": "restaurant",
      "cuisine": "fine_dining"
    },
    {
      "id": 157179,
      "geometry": "POINT (-105.965066 35.662764)",
      "poi_name": "Back Roads Pizza",
      "osm_id": 4691618623,
      "amenity": "restaurant",
      "cuisine": "pizza",
      "opening_hours": "11:30-21:00; Fr,Sa 11:30-22:00",
      "website": "https://backroadpizza.com/menus/",
      "phone": "+1-505-955-9055",
      "takeaway": "yes",
      "outdoor_seating": "yes",
      "addr_state": "NM",
      "addr_city": "Santa Fe",
      "addr_postcode": "87505",
      "addr_street": "2nd Street",
      "addr_housenumber": "1807"
    },
    {
      "id": 157329,
      "geometry": "POINT (-105.936644 35.689176)",
      "poi_name": "Izmi Sushi",
      "osm_id": 4702458223,
      "amenity": "restaurant",
      "cuisine": "japanese",
      "website": "http://www.izmisantafe.com/",
      "phone": "+1-505-424-1311",
      "takeaway": "yes",
      "addr_state": "NM",
      "addr_city": "Santa Fe",
      "addr_postcode": "87501",
      "addr_street": "East Marcy Street",
      "addr_housenumber": "105"
    },
    {
      "id": 157173,
      "geometry": "POINT (-105.961301 35.65828)",
      "poi_name": "Chow's Asian Bistro",
      "osm_id": 4691581634,
      "amenity": "restaurant",
      "cuisine": "chinese",
      "website": "https://mychows.com/",
      "addr_state": "NM",
      "addr_city": "Santa Fe",
      "addr_postcode": "87505",
      "addr_street": "Saint Michaels Drive",
      "addr_housenumber": "720"
    },
    {
      "id": 157291,
      "geometry": "POINT (-105.954101 35.645297)",
      "poi_name": "The Double Dragon",
      "osm_id": 4698862291,
      "amenity": "restaurant",
      "cuisine": "chinese",
      "addr_street": "South Saint Francis Drive",
      "addr_housenumber": "3005"
    },
    {
      "id": 157299,
      "geometry": "POINT (-105.936439 35.690202)",
      "poi_name": "Santacaf\u00e9",
      "osm_id": 4700353320,
      "amenity": "restaurant",
      "cuisine": "american",
      "website": "https://santacafe.com/",
      "phone": "+1-505-984-1788",
      "outdoor_seating": "yes",
      "wikidata": "Q17030608",
      "addr_state": "NM",
      "addr_city": "Santa Fe",
      "addr_postcode": "87501",
      "addr_street": "Washington Avenue",
      "addr_housenumber": "231"
    },
    {
      "id": 157544,
      "geometry": "POINT (-106.650633 35.082528)",
      "poi_name": "Holmes Pizza and Arcade",
      "osm_id": 4712221797,
      "amenity": "restaurant",
      "cuisine": "pizza",
      "website": "https://www.holmespizzaarcade.com/",
      "phone": "+1-505-308-4765",
      "addr_state": "NM",
      "addr_city": "Albuquerque",
      "addr_postcode": "87102",
      "addr_street": "Silver Avenue Southwest",
      "addr_housenumber": "205"
    },
    {
      "id": 157470,
      "geometry": "POINT (-106.064991 35.500673)",
      "poi_name": "San Marcos Cafe and Feed Store",
      "osm_id": 4709704899,
      "amenity": "restaurant",
      "phone": "+1 505 471 9298",
      "addr_state": "NM",
      "addr_city": "Santa Fe",
      "addr_street": "NM-14",
      "addr_housenumber": "3877"
    },
    {
      "id": 157559,
      "geometry": "POINT (-106.651314 35.083616)",
      "poi_name": "Lulu's Kitchen",
      "osm_id": 4712626462,
      "amenity": "restaurant",
      "cuisine": "chinese"
    },
    {
      "id": 158190,
      "geometry": "POINT (-106.59474 35.073984)",
      "poi_name": "Barbacoa El Primo",
      "osm_id": 4738849657,
      "amenity": "restaurant"
    },
    {
      "id": 158317,
      "geometry": "POINT (-105.941566 35.689227)",
      "poi_name": "Sassella",
      "osm_id": 4743015982,
      "amenity": "restaurant",
      "cuisine": "italian",
      "opening_hours": "Mo-Sa 16:30-20:30; Th-Mo 11:30-14:00",
      "website": "https://sassellasantafe.com",
      "phone": "505-982-6734",
      "outdoor_seating": "yes",
      "addr_state": "NM",
      "addr_city": "Santa Fe",
      "addr_postcode": "87501",
      "addr_street": "Johnson Street",
      "addr_housenumber": "225"
    },
    {
      "id": 158318,
      "geometry": "POINT (-105.942618 35.689096)",
      "poi_name": "TerraCotta Wine Bistro",
      "osm_id": 4743015984,
      "amenity": "restaurant",
      "cuisine": "wine",
      "description": "TerraCotta Wine Bistro is a smart casual food and wine restaurant.",
      "opening_hours": "Mo-Sa 11:30-21:00; Su 16:00-21:00",
      "website": "https://terracottawinebistro.com/",
      "phone": "+1-505-989-1166",
      "addr_state": "NM",
      "addr_city": "Santa Fe",
      "addr_postcode": "87501",
      "addr_street": "Johnson Street",
      "addr_housenumber": "304"
    },
    {
      "id": 158319,
      "geometry": "POINT (-105.94196 35.688883)",
      "poi_name": "Old House Restaurant",
      "osm_id": 4743015987,
      "amenity": "restaurant",
      "opening_hours": "Mo 06:30-14:00; Tu-Fr 06:30-14:00,17:30-22:00; Sa 06:30-12:00,17:30-22:00; Su 06:30-12:00",
      "website": "https://www.eldoradohotel.com/old-house",
      "phone": "+1-505-995-4530",
      "addr_state": "NM",
      "addr_city": "Santa Fe",
      "addr_postcode": "87501",
      "addr_street": "West San Francisco Street",
      "addr_housenumber": "309"
    },
    {
      "id": 158321,
      "geometry": "POINT (-105.939751 35.685431)",
      "poi_name": "Palacio Cafe II",
      "osm_id": 4743112840,
      "amenity": "restaurant",
      "cuisine": "mexican",
      "opening_hours": "08:00-17:00",
      "phone": "+1-505-820-7888",
      "addr_state": "NM",
      "addr_city": "Santa Fe",
      "addr_postcode": "87501",
      "addr_street": "Don Gaspar Avenue",
      "addr_housenumber": "227"
    },
    {
      "id": 158322,
      "geometry": "POINT (-105.940029 35.686381)",
      "poi_name": "Tabla de los Santos",
      "osm_id": 4743112847,
      "amenity": "restaurant",
      "cuisine": "american",
      "website": "http://tablasantafe.com/",
      "phone": "+1-505-992-6354",
      "delivery": "yes",
      "addr_state": "NM",
      "addr_city": "Santa Fe",
      "addr_postcode": "87501",
      "addr_street": "Don Gaspar Avenue",
      "addr_housenumber": "210"
    },
    {
      "id": 158324,
      "geometry": "POINT (-105.938919 35.685774)",
      "poi_name": "India Palace",
      "osm_id": 4743141240,
      "amenity": "restaurant",
      "cuisine": "indian",
      "opening_hours": "Mo-Su 11:00-14:30, 17:00-22:00",
      "website": "http://places.singleplatform.com/india-palace-15/menu",
      "phone": "+1-505-986-5859",
      "addr_state": "NM",
      "addr_city": "Santa Fe",
      "addr_postcode": "87501",
      "addr_street": "Don Gaspar Avenue",
      "addr_housenumber": "227"
    },
    {
      "id": 158325,
      "geometry": "POINT (-105.93716 35.688304)",
      "poi_name": "Estevan",
      "osm_id": 4743141242,
      "amenity": "restaurant",
      "cuisine": "regional",
      "website": "https://www.estevanrestaurante.com/",
      "phone": "+1-505-930-5363",
      "addr_state": "NM",
      "addr_city": "Santa Fe",
      "addr_postcode": "87501",
      "addr_street": "Washington Avenue",
      "addr_housenumber": "125"
    },
    {
      "id": 158326,
      "geometry": "POINT (-105.93797 35.689532)",
      "poi_name": "Tres Colores",
      "osm_id": 4743191470,
      "amenity": "restaurant",
      "cuisine": "regional;mexican",
      "opening_hours": "Mo-Sa 08:30-19:00; Su 11:00-19:00",
      "website": "http://facebook.com/Tres-Colores-992159257485682/",
      "phone": "1-505-490-0296",
      "takeaway": "yes",
      "outdoor_seating": "yes",
      "addr_state": "NM",
      "addr_city": "Santa Fe",
      "addr_postcode": "87501",
      "addr_street": "West Marcy Street",
      "addr_housenumber": "101"
    },
    {
      "id": 158327,
      "geometry": "POINT (-105.937461 35.689358)",
      "poi_name": "Horno",
      "osm_id": 4743191471,
      "amenity": "restaurant",
      "cuisine": "mexican",
      "addr_state": "NM",
      "addr_city": "Santa Fe",
      "addr_postcode": "87501",
      "addr_street": "West Marcy Street",
      "addr_housenumber": "95"
    },
    {
      "id": 158328,
      "geometry": "POINT (-105.937886 35.689241)",
      "poi_name": "La Boca",
      "osm_id": 4743198077,
      "amenity": "restaurant",
      "cuisine": "spanish",
      "website": "http://www.labocasantafe.com/",
      "phone": "+1-505-982-3433",
      "addr_state": "NM",
      "addr_city": "Santa Fe",
      "addr_postcode": "87501",
      "addr_street": "West Marcy Street",
      "addr_housenumber": "72"
    },
    {
      "id": 158333,
      "geometry": "POINT (-105.940539 35.686605)",
      "poi_name": "Coyote Cafe & Rooftop Cantina",
      "osm_id": 4743367996,
      "amenity": "restaurant",
      "cuisine": "regional",
      "website": "https://www.coyotecafe.com/",
      "addr_state": "NM",
      "addr_city": "Santa Fe",
      "addr_postcode": "87501",
      "addr_street": "West Water Street",
      "addr_housenumber": "132"
    },
    {
      "id": 158334,
      "geometry": "POINT (-105.937387 35.687954)",
      "poi_name": "Burrito Company",
      "osm_id": 4743376394,
      "amenity": "restaurant",
      "cuisine": "burrito;mexican",
      "opening_hours": "Mo-Fr 07:30-16:00; Sa,Su 08:00-16:30",
      "website": "https://www.burritocompanysf.com/",
      "phone": "+1-505-982-4453",
      "takeaway": "yes",
      "addr_state": "NM",
      "addr_city": "Santa Fe",
      "addr_postcode": "87501",
      "addr_street": "Washington Avenue",
      "addr_housenumber": "111"
    },
    {
      "id": 158300,
      "geometry": "POINT (-105.943582 35.689568)",
      "poi_name": "Pranzo",
      "osm_id": 4742340921,
      "amenity": "restaurant",
      "cuisine": "italian",
      "addr_state": "NM",
      "addr_city": "Santa Fe",
      "addr_postcode": "87501",
      "addr_street": "Johnson Street",
      "addr_housenumber": "321"
    },
    {
      "id": 159019,
      "geometry": "POINT (-105.949268 35.673222)",
      "poi_name": "Saigon Cafe",
      "osm_id": 4773385435,
      "amenity": "restaurant",
      "cuisine": "vietnamese",
      "opening_hours": "Mo-Fr 11:00-21:00; Sa 12:00-21:00",
      "website": "http://saigoncafe-sf.com",
      "takeaway": "yes",
      "outdoor_seating": "no",
      "addr_state": "NM",
      "addr_city": "Santa Fe",
      "addr_postcode": "87501",
      "addr_street": "Cordova Road",
      "addr_housenumber": "501"
    },
    {
      "id": 158740,
      "geometry": "POINT (-105.955634 35.054932)",
      "poi_name": "El Reys",
      "osm_id": 4760668921,
      "amenity": "restaurant"
    },
    {
      "id": 159868,
      "geometry": "POINT (-106.568163 35.07391)",
      "poi_name": "Banh Mi Coda",
      "osm_id": 4810583222,
      "amenity": "restaurant",
      "cuisine": "vietnamese",
      "opening_hours": "Mo-Sa 08:30-19:00; Su 10:30-17:00",
      "internet_access": "wlan",
      "phone": "+15052320085",
      "addr_postcode": "87108"
    },
    {
      "id": 159028,
      "geometry": "POINT (-105.950644 35.673108)",
      "poi_name": "Mariscos La Playa",
      "osm_id": 4773516145,
      "amenity": "restaurant",
      "cuisine": "mexican;seafood",
      "opening_hours": "Mo-Su 11:00-21:00",
      "website": "http://mariscoslaplayarestaurant.com",
      "addr_postcode": "87505",
      "addr_street": "West Cordova Road",
      "addr_housenumber": "537"
    },
    {
      "id": 159034,
      "geometry": "POINT (-105.952391 35.6742)",
      "poi_name": "Paper Dosa",
      "osm_id": 4773847541,
      "amenity": "restaurant",
      "cuisine": "indian",
      "website": "https://www.paper-dosa.com/",
      "phone": "+1-505-930-5521",
      "addr_state": "NM",
      "addr_city": "Santa Fe",
      "addr_postcode": "87505",
      "addr_street": "West Cordova Road",
      "addr_housenumber": "551"
    },
    {
      "id": 158966,
      "geometry": "POINT (-106.012068 35.640251)",
      "poi_name": "Cafe Grazie",
      "osm_id": 4771034421,
      "amenity": "restaurant"
    },
    {
      "id": 159175,
      "geometry": "POINT (-106.551773 35.073117)",
      "poi_name": "Bea's Mexican Restaurant 2",
      "osm_id": 4781953523,
      "amenity": "restaurant",
      "cuisine": "mexican",
      "opening_hours": "Mo-Su 07:00-15:30",
      "internet_access": "wlan",
      "phone": "5052320507",
      "addr_postcode": "87108",
      "addr_street": "Zuni Road Southeast",
      "addr_housenumber": "8603"
    },
    {
      "id": 160223,
      "geometry": "POINT (-105.992869 35.654189)",
      "poi_name": "Denny's",
      "osm_id": 4827794876,
      "amenity": "restaurant",
      "cuisine": "american",
      "opening_hours": "24/7"
    },
    {
      "id": 160056,
      "geometry": "POINT (-106.661374 35.087786)",
      "poi_name": "Dog House",
      "osm_id": 4815993842,
      "amenity": "restaurant"
    },
    {
      "id": 160057,
      "geometry": "POINT (-106.653966 35.091708)",
      "poi_name": "Pizza Hut",
      "osm_id": 4816006528,
      "amenity": "restaurant",
      "cuisine": "pizza",
      "addr_street": "Lomas Boulevard Northwest",
      "addr_housenumber": "700"
    },
    {
      "id": 161508,
      "geometry": "POINT (-106.063065 36.002916)",
      "poi_name": "Pizza 9",
      "osm_id": 4884585618,
      "amenity": "restaurant",
      "cuisine": "pizza",
      "addr_city": "Espanola",
      "addr_street": "Riverside Drive"
    },
    {
      "id": 165198,
      "geometry": "POINT (-106.566584 35.129868)",
      "poi_name": "Richie B's Pizza",
      "osm_id": 9522752151,
      "amenity": "restaurant",
      "cuisine": "pizza",
      "phone": "+1-505-312-8579",
      "addr_state": "NM",
      "addr_city": "Albuquerque",
      "addr_postcode": "87109",
      "addr_street": "Montgomery Boulevard Northeast",
      "addr_housenumber": "7200"
    },
    {
      "id": 163829,
      "geometry": "POINT (-106.729327 35.103152)",
      "poi_name": "Xuan Asian",
      "osm_id": 9438239108,
      "amenity": "restaurant",
      "cuisine": "asian"
    },
    {
      "id": 165170,
      "geometry": "POINT (-106.564445 35.13008)",
      "poi_name": "Neo Szechuan",
      "osm_id": 9522259107,
      "amenity": "restaurant",
      "cuisine": "chinese",
      "opening_hours": "Tu-Su 11:00-21:00",
      "website": "https://www.neoszechuan.com",
      "phone": "+1-505-881-0165",
      "addr_state": "NM",
      "addr_city": "Albuquerque",
      "addr_postcode": "87109",
      "addr_street": "Montgomery Boulevard Northeast",
      "addr_housenumber": "7200"
    },
    {
      "id": 169008,
      "geometry": "POINT (-106.669492 35.098293)",
      "poi_name": "High Noon Restaurant & Saloon",
      "osm_id": 2291213181,
      "amenity": "restaurant",
      "cuisine": "mexican"
    },
    {
      "id": 169699,
      "geometry": "POINT (-106.583628 35.146846)",
      "poi_name": "Buffet King",
      "osm_id": 2315367988,
      "amenity": "restaurant"
    },
    {
      "id": 169236,
      "geometry": "POINT (-106.6139 35.226195)",
      "poi_name": "Perea's Restaurant and Bar",
      "osm_id": 2295923916,
      "amenity": "restaurant",
      "cuisine": "new_mexican",
      "phone": "505-898-2442",
      "addr_city": "Corrales",
      "addr_postcode": "87048",
      "addr_street": "corrales Road",
      "addr_housenumber": "4590"
    },
    {
      "id": 169238,
      "geometry": "POINT (-106.611887 35.23081)",
      "poi_name": "Oasis Desert Bistro",
      "osm_id": 2295930121,
      "amenity": "restaurant",
      "cuisine": "coffee_shop",
      "phone": "505-792-4720",
      "addr_city": "Corrales",
      "addr_postcode": "87048",
      "addr_street": "Corrales Road",
      "addr_housenumber": "4940"
    },
    {
      "id": 169240,
      "geometry": "POINT (-106.61457 35.225168)",
      "poi_name": "Indigo Crow",
      "osm_id": 2295943192,
      "amenity": "restaurant",
      "cuisine": "american",
      "website": "https://www.indigocrowcafe.net/",
      "phone": "+1-505-898-7000",
      "addr_state": "NM",
      "addr_city": "Corrales",
      "addr_postcode": "87048",
      "addr_street": "Corrales Road",
      "addr_housenumber": "4515"
    },
    {
      "id": 169242,
      "geometry": "POINT (-106.65639 35.235323)",
      "poi_name": "Namaste",
      "osm_id": 2295971137,
      "amenity": "restaurant",
      "cuisine": "indian",
      "phone": "505-896-3126",
      "addr_city": "Rio Rancho",
      "addr_postcode": "87124",
      "addr_street": "Deborah Road Southeast",
      "addr_housenumber": "1520"
    },
    {
      "id": 171326,
      "geometry": "POINT (-106.193015 35.063399)",
      "poi_name": "Pizza Barn",
      "osm_id": 2372795839,
      "amenity": "restaurant",
      "cuisine": "pizza"
    },
    {
      "id": 169759,
      "geometry": "POINT (-105.403374 36.706634)",
      "poi_name": "Texas Red's",
      "osm_id": 2318321200,
      "amenity": "restaurant",
      "cuisine": "steak_house"
    },
    {
      "id": 169760,
      "geometry": "POINT (-105.409639 36.709326)",
      "poi_name": "Lifts West Bar & Grill",
      "osm_id": 2318328467,
      "amenity": "restaurant",
      "cuisine": "burger"
    },
    {
      "id": 169770,
      "geometry": "POINT (-105.402462 36.706664)",
      "poi_name": "Sundance Restaurant",
      "osm_id": 2318808627,
      "amenity": "restaurant",
      "cuisine": "mexican"
    },
    {
      "id": 173580,
      "geometry": "POINT (-106.577254 35.058589)",
      "poi_name": "Cervantes",
      "osm_id": 2445158262,
      "amenity": "restaurant",
      "cuisine": "new_mexican"
    },
    {
      "id": 172323,
      "geometry": "POINT (-106.51989 35.131009)",
      "poi_name": "The Savoy",
      "osm_id": 2399974287,
      "amenity": "restaurant"
    },
    {
      "id": 171305,
      "geometry": "POINT (-106.479416 35.191041)",
      "poi_name": "Sandiago's",
      "osm_id": 2371025552,
      "amenity": "restaurant",
      "cuisine": "mexican",
      "outdoor_seating": "yes"
    },
    {
      "id": 175694,
      "geometry": "POINT (-106.596924 35.1048)",
      "poi_name": "The Daily Grind",
      "osm_id": 2533108372,
      "amenity": "restaurant",
      "wheelchair": "yes"
    },
    {
      "id": 175251,
      "geometry": "POINT (-106.597397 35.079179)",
      "poi_name": "Thai Cuisine II",
      "osm_id": 2510097438,
      "amenity": "restaurant",
      "opening_hours": "Su 17:00-21:00; Mo-Fr 11:00-21:00; Sa 16:00-21:00",
      "website": "Http://thaicuisinenm.com/",
      "phone": "+1-505-232-3200",
      "addr_postcode": "87108",
      "addr_street": "Central Avenue NE",
      "addr_housenumber": "4201"
    },
    {
      "id": 175252,
      "geometry": "POINT (-106.401904 35.416253)",
      "poi_name": "San Felipe Travel Center / Philips 66 / Pueblo Restaurant",
      "osm_id": 2510097465,
      "amenity": "restaurant"
    },
    {
      "id": 175254,
      "geometry": "POINT (-106.586115 35.14249)",
      "poi_name": "Thai Street",
      "osm_id": 2510097745,
      "amenity": "restaurant",
      "cuisine": "thai"
    },
    {
      "id": 175255,
      "geometry": "POINT (-106.644872 35.056734)",
      "poi_name": "Grandma Warner's K&I Diner",
      "osm_id": 2510097990,
      "amenity": "restaurant",
      "opening_hours": "Su-Sa 6:00-15:00"
    },
    {
      "id": 175261,
      "geometry": "POINT (-105.570039 36.411322)",
      "poi_name": "Michael's Kitchen",
      "osm_id": 2510101491,
      "amenity": "restaurant",
      "cuisine": "new_mexican;mexican;bakery",
      "addr_state": "NM",
      "addr_city": "Taos",
      "addr_postcode": "87571",
      "addr_street": "Paseo del Pueblo Norte",
      "addr_housenumber": "304"
    },
    {
      "id": 175388,
      "geometry": "POINT (-106.514551 35.086443)",
      "poi_name": "AA Buffet Grill and Sushi",
      "osm_id": 2518940733,
      "amenity": "restaurant",
      "cuisine": "asian"
    },
    {
      "id": 176157,
      "geometry": "POINT (-106.551362 35.124258)",
      "poi_name": "Ortega's New Mexican Food Restaurant",
      "osm_id": 2551905141,
      "amenity": "restaurant",
      "cuisine": "mexican",
      "phone": "+1 505 298 0223",
      "addr_state": "NM",
      "addr_city": "Albuquerque",
      "addr_postcode": "87110",
      "addr_street": "Wyoming Boulevard Northeast",
      "addr_housenumber": "3617"
    },
    {
      "id": 178738,
      "geometry": "POINT (-105.938994 35.686517)",
      "poi_name": "Mac Santa Fe",
      "osm_id": 10738069467,
      "amenity": "restaurant",
      "cuisine": "macaroni;mac_and_cheese",
      "addr_state": "NM",
      "addr_city": "Santa Fe",
      "addr_postcode": "87501",
      "addr_street": "East Water Street",
      "addr_housenumber": "115"
    },
    {
      "id": 176642,
      "geometry": "POINT (-106.628502 35.058948)",
      "poi_name": "Buffalo Wild Wings",
      "osm_id": 2565660099,
      "amenity": "restaurant",
      "cuisine": "wings",
      "website": "https://www.buffalowildwings.com/",
      "capacity": "200",
      "phone": "+1 505 2479464",
      "addr_state": "NM",
      "addr_city": "Albuquerque",
      "addr_postcode": "87106",
      "addr_street": "Towne Center Lane Southeast",
      "addr_housenumber": "1700"
    },
    {
      "id": 176644,
      "geometry": "POINT (-106.609397 35.080696)",
      "poi_name": "Monte Vista Fire Station",
      "osm_id": 2565675218,
      "amenity": "restaurant",
      "cuisine": "american",
      "opening_hours": "Mo-Fr 15:00-02:00, Sa 11:00-02:00, Su 12:00-24:00",
      "website": "https://montevistafirestation.com/",
      "phone": "505-255-2424",
      "outdoor_seating": "yes",
      "addr_state": "NM",
      "addr_city": "Albuquerque",
      "addr_postcode": "87106",
      "addr_street": "Central Avenue Northeast",
      "addr_housenumber": "3201"
    },
    {
      "id": 176645,
      "geometry": "POINT (-106.610242 35.080777)",
      "poi_name": "Yanni's",
      "osm_id": 2565675763,
      "amenity": "restaurant",
      "cuisine": "greek",
      "opening_hours": "Tu-Th 11:00-21:30; Fr-Sa 11:00-22:30; Su 11:30-20:30; Mo 11:00-20:30",
      "outdoor_seating": "yes",
      "addr_state": "NM",
      "addr_city": "Albuquerque",
      "addr_postcode": "87106",
      "addr_street": "Central Avenue Northeast",
      "addr_housenumber": "3109"
    },
    {
      "id": 178042,
      "geometry": "POINT (-106.606486 35.079871)",
      "poi_name": "Slice Parlor",
      "osm_id": 2612690015,
      "amenity": "restaurant",
      "cuisine": "pizza",
      "website": "https://www.sliceparlor.com/",
      "phone": "+1-505-232-2808",
      "addr_state": "NM",
      "addr_city": "Albuquerque",
      "addr_postcode": "87106",
      "addr_street": "Central Avenue Southeast",
      "addr_housenumber": "3410"
    },
    {
      "id": 178062,
      "geometry": "POINT (-106.608844 35.078962)",
      "poi_name": "Ajiaco Colombian Bistro",
      "osm_id": 2613035346,
      "amenity": "restaurant",
      "cuisine": "colombian",
      "description": "Colombian restaurant with unique food. Pet Friendly",
      "opening_hours": "Tu-Th 11:00-15:00,17:00-20:00, Fr-Sa 11:00-20:00",
      "website": "https://www.ajiacobistro.com/",
      "phone": "+1 505 266-2305",
      "takeaway": "yes",
      "outdoor_seating": "yes",
      "delivery": "yes",
      "addr_state": "NM",
      "addr_city": "Albuquerque",
      "addr_postcode": "87108",
      "addr_street": "Silver Avenue Southeast",
      "addr_housenumber": "3216"
    },
    {
      "id": 178065,
      "geometry": "POINT (-106.608707 35.078958)",
      "poi_name": "P'tit Louis Bistro",
      "osm_id": 2613040634,
      "amenity": "restaurant",
      "cuisine": "french",
      "opening_hours": "Tu-We 17:30-22:00; Th-Sa 11:00-14:00,17:30-22:00; Su 11:00-14:30; Mo closed",
      "phone": "+1 505 314-1110",
      "outdoor_seating": "yes",
      "addr_state": "NM",
      "addr_city": "Albuquerque",
      "addr_postcode": "87106",
      "addr_street": "Silver Avenue Southeast",
      "addr_housenumber": "3218"
    },
    {
      "id": 178694,
      "geometry": "POINT (-106.573914 35.058625)",
      "poi_name": "Pollitos con papas",
      "osm_id": 10736051006,
      "amenity": "restaurant",
      "cuisine": "chicken;peruvian"
    },
    {
      "id": 176786,
      "geometry": "POINT (-106.677248 35.095083)",
      "poi_name": "Los Compadres",
      "osm_id": 2567989949,
      "amenity": "restaurant",
      "cuisine": "mexican"
    },
    {
      "id": 178191,
      "geometry": "POINT (-106.775977 34.661095)",
      "poi_name": "RSH Steakhouse",
      "osm_id": 10717566238,
      "amenity": "restaurant",
      "cuisine": "steak_house",
      "addr_city": "Belen",
      "addr_street": "Dalies Avenue",
      "addr_housenumber": "710"
    },
    {
      "id": 178440,
      "geometry": "POINT (-105.995282 35.655205)",
      "poi_name": "Alicia's Tortilleria",
      "osm_id": 10726867452,
      "amenity": "restaurant",
      "cuisine": "mexican;new_mexican",
      "website": "https://sfreporter.com/guides/restaurant-guide-2017/2018/10/24/alicias-tortilleria",
      "phone": "+1-505-438-9545",
      "addr_state": "NM",
      "addr_city": "Santa Fe",
      "addr_street": "Rufina Circle",
      "addr_housenumber": "1314"
    },
    {
      "id": 184029,
      "geometry": "POINT (-106.533228 35.092559)",
      "poi_name": "La Salita",
      "osm_id": 7768358130,
      "amenity": "restaurant",
      "cuisine": "mexican"
    },
    {
      "id": 178818,
      "geometry": "POINT (-105.933258 35.683185)",
      "poi_name": "Caffe Greco",
      "osm_id": 10740282280,
      "amenity": "restaurant"
    },
    {
      "id": 183747,
      "geometry": "POINT (-106.712856 35.081802)",
      "poi_name": "China Casa",
      "osm_id": 10943547331,
      "amenity": "restaurant",
      "cuisine": "chinese",
      "addr_state": "NM",
      "addr_city": "Albuquerque",
      "addr_postcode": "87121",
      "addr_street": "Coors Boulevard Northwest",
      "addr_housenumber": "111"
    },
    {
      "id": 183770,
      "geometry": "POINT (-106.685551 35.086117)",
      "poi_name": "Peter Piper Pizza",
      "osm_id": 10945066149,
      "amenity": "restaurant",
      "cuisine": "pizza",
      "addr_street": "Central Avenue Northwest",
      "addr_housenumber": "4101"
    },
    {
      "id": 183945,
      "geometry": "POINT (-106.550118 35.096291)",
      "poi_name": "Eloy's New Mexican Restaurant",
      "osm_id": 10951850223,
      "amenity": "restaurant",
      "phone": "+1-505-293-6018",
      "addr_state": "NM",
      "addr_city": "Albuquerque",
      "addr_postcode": "87112",
      "addr_street": "Wyoming Boulevard Northeast",
      "addr_housenumber": "1508"
    },
    {
      "id": 178833,
      "geometry": "POINT (-106.667434 35.101359)",
      "poi_name": "Little Madrid",
      "osm_id": 10742025605,
      "amenity": "restaurant",
      "addr_street": "Bellamah Avenue Northwest",
      "addr_housenumber": "1909"
    },
    {
      "id": 180377,
      "geometry": "POINT (-106.716299 35.013382)",
      "poi_name": "Arriba Chihuas Taqueria Restaurant",
      "osm_id": 10798850182,
      "amenity": "restaurant",
      "cuisine": "mexican",
      "addr_state": "NM",
      "addr_city": "Albuquerque",
      "addr_postcode": "87121",
      "addr_street": "Coors Boulevard Southwest",
      "addr_housenumber": "4351"
    },
    {
      "id": 180381,
      "geometry": "POINT (-106.029055 35.618855)",
      "poi_name": "Dion's Pizza",
      "osm_id": 10799004697,
      "amenity": "restaurant",
      "cuisine": "pizza",
      "drive_through": "yes",
      "addr_state": "NM",
      "addr_city": "Santa Fe",
      "addr_street": "Promenade Boulevard",
      "addr_housenumber": "4980"
    },
    {
      "id": 180980,
      "geometry": "POINT (-105.938984 35.68653)",
      "poi_name": "Sushi 8",
      "osm_id": 10826145442,
      "amenity": "restaurant",
      "cuisine": "sushi",
      "addr_state": "NM",
      "addr_city": "Santa Fe",
      "addr_postcode": "87501",
      "addr_street": "East San Francisco Street",
      "addr_housenumber": "66"
    },
    {
      "id": 183800,
      "geometry": "POINT (-106.68886 35.177505)",
      "poi_name": "Koyama Sushi",
      "osm_id": 10945580299,
      "amenity": "restaurant",
      "cuisine": "sushi",
      "addr_state": "NM",
      "addr_city": "Albuquerque",
      "addr_postcode": "87120",
      "addr_street": "Golf Course Road Northwest",
      "addr_housenumber": "8201"
    },
    {
      "id": 184030,
      "geometry": "POINT (-106.533228 35.092717)",
      "poi_name": "Basil Leaf",
      "osm_id": 7768358131,
      "amenity": "restaurant",
      "cuisine": "vietnamese"
    },
    {
      "id": 184031,
      "geometry": "POINT (-106.533319 35.093338)",
      "poi_name": "Pizza Castle",
      "osm_id": 7768358132,
      "amenity": "restaurant",
      "cuisine": "pizza"
    },
    {
      "id": 184341,
      "geometry": "POINT (-106.614115 35.224989)",
      "poi_name": "Hannah & Nate's",
      "osm_id": 7782609944,
      "amenity": "restaurant",
      "cuisine": "breakfast",
      "opening_hours": "Mo-Su 07:00-14:00",
      "phone": "+1-505-898-2370",
      "addr_state": "NM",
      "addr_city": "Corrales",
      "addr_postcode": "87048",
      "addr_street": "Corrales Road",
      "addr_housenumber": "4512"
    },
    {
      "id": 184348,
      "geometry": "POINT (-106.681372 35.158417)",
      "poi_name": "Thai Boran",
      "osm_id": 7783156219,
      "amenity": "restaurant",
      "cuisine": "thai",
      "opening_hours": "Mo-Th 11:00-21:30; Fr 11:00-22:30; Sa 12:00-22:30; Su 12:00-21:30",
      "website": "https://www.thaiborannm.com/",
      "phone": "+1 505 492 2244",
      "addr_state": "NM",
      "addr_city": "Albuquerque",
      "addr_postcode": "87120",
      "addr_street": "La Orilla Road Northwest",
      "addr_housenumber": "3236"
    },
    {
      "id": 184342,
      "geometry": "POINT (-106.616436 35.22205)",
      "poi_name": "Village Pizza",
      "osm_id": 7782613358,
      "amenity": "restaurant",
      "cuisine": "pizza",
      "opening_hours": "Su-Th 11:00-19:30, Fr-Sa 11:00-20:00",
      "website": "https://www.villagepizzanm.com/",
      "phone": "+1-505-898-0045",
      "addr_state": "NM",
      "addr_city": "Corrales",
      "addr_postcode": "87048",
      "addr_street": "Corrales Road",
      "addr_housenumber": "4266"
    },
    {
      "id": 184346,
      "geometry": "POINT (-106.680719 35.159659)",
      "poi_name": "Village Pizza",
      "osm_id": 7783102853,
      "amenity": "restaurant",
      "cuisine": "pizza",
      "opening_hours": "Su-Th 11:00-19:30, Fr-Sa 11:00-20:00",
      "website": "https://www.villagepizzanm.com/",
      "phone": "+1 505 219 3766",
      "addr_state": "NM",
      "addr_city": "Albuquerque",
      "addr_postcode": "87120",
      "addr_street": "La Orilla Road Northwest",
      "addr_housenumber": "3200"
    },
    {
      "id": 185324,
      "geometry": "POINT (-106.639422 35.154005)",
      "poi_name": "Dave's",
      "osm_id": 7845202342,
      "amenity": "restaurant",
      "addr_street": "4th Street Northwest",
      "addr_housenumber": "6601"
    },
    {
      "id": 184578,
      "geometry": "POINT (-106.524548 35.070804)",
      "poi_name": "Dion's",
      "osm_id": 7799363896,
      "amenity": "restaurant",
      "cuisine": "pizza",
      "website": "https://www.dions.com/locations/albuquerque/central-elizabeth/",
      "phone": "+1 505 2960771",
      "takeaway": "yes",
      "outdoor_seating": "no",
      "addr_city": "Albuquerque",
      "addr_postcode": "87123",
      "addr_street": "Central Avenue",
      "addr_housenumber": "11000"
    },
    {
      "id": 185115,
      "geometry": "POINT (-106.569211 35.104308)",
      "poi_name": "Pei Wei",
      "osm_id": 7833812601,
      "amenity": "restaurant",
      "cuisine": "asian",
      "opening_hours": "Su 11:00-21:00; Mo-Th 11:00-21:00; Fr-Sa 11:00-21:30",
      "phone": "+1-505-883-1570",
      "addr_state": "NM",
      "addr_city": "Albuquerque",
      "addr_postcode": "87114",
      "addr_street": "Louisiana Boulevard Northeast",
      "addr_housenumber": "2201"
    },
    {
      "id": 185230,
      "geometry": "POINT (-105.891647 35.539035)",
      "poi_name": "Arable Santa Fe",
      "osm_id": 7839064177,
      "amenity": "restaurant"
    },
    {
      "id": 185231,
      "geometry": "POINT (-105.891649 35.538712)",
      "poi_name": "Pizza Centro",
      "osm_id": 7839064180,
      "amenity": "restaurant",
      "cuisine": "pizza"
    },
    {
      "id": 185325,
      "geometry": "POINT (-106.639812 35.154062)",
      "poi_name": "El Papatura",
      "osm_id": 7845202347,
      "amenity": "restaurant",
      "addr_street": "4th Street Northwest",
      "addr_housenumber": "6601"
    },
    {
      "id": 185380,
      "geometry": "POINT (-106.640598 35.140009)",
      "poi_name": "Mario's",
      "osm_id": 7851329360,
      "amenity": "restaurant",
      "cuisine": "italian"
    },
    {
      "id": 185382,
      "geometry": "POINT (-106.638522 35.155268)",
      "poi_name": "Weck's",
      "osm_id": 7851355618,
      "amenity": "restaurant"
    },
    {
      "id": 186232,
      "geometry": "POINT (-106.605634 35.079199)",
      "poi_name": "Mata G Vegetarian Kitchen",
      "osm_id": 7921017092,
      "amenity": "restaurant",
      "cuisine": "international",
      "opening_hours": "Mo-Sa 10:00-18:00",
      "website": "https://www.mata-g.com/",
      "phone": "+1 505-266-6374",
      "addr_state": "NM",
      "addr_city": "Albuquerque",
      "addr_postcode": "87106",
      "addr_street": "Amherst Drive Southeast",
      "addr_housenumber": "116"
    },
    {
      "id": 185638,
      "geometry": "POINT (-106.532482 35.093389)",
      "poi_name": "Pizza Castle",
      "osm_id": 7873531152,
      "amenity": "restaurant",
      "cuisine": "pizza",
      "website": "https://pizza-castle.com/",
      "phone": "+1-505-292-8358",
      "takeaway": "yes",
      "outdoor_seating": "no",
      "delivery": "no",
      "addr_state": "NM",
      "addr_city": "Albuquerque",
      "addr_street": "Eubank Boulevard Northeast",
      "addr_housenumber": "1220"
    },
    {
      "id": 188904,
      "geometry": "POINT (-106.516496 35.13225)",
      "poi_name": "Flying Star",
      "osm_id": 207072862,
      "amenity": "restaurant",
      "toilets": "yes"
    },
    {
      "id": 186429,
      "geometry": "POINT (-106.596822 35.078723)",
      "poi_name": "Korean BBQ",
      "osm_id": 7929589041,
      "amenity": "restaurant",
      "cuisine": "asian"
    },
    {
      "id": 188908,
      "geometry": "POINT (-106.606772 35.080266)",
      "poi_name": "Il Vicino",
      "osm_id": 209399249,
      "amenity": "restaurant",
      "cuisine": "pizza",
      "description": "Lively, laid-back eatery doling out traditional pizzas, pastas, and salads, plus beer and wine.",
      "wheelchair": "yes",
      "opening_hours": "Su-Th 11:00-22:00; Fr-Sa 11:00-23:00",
      "website": "https://ilvicino.com/",
      "phone": "+1-505-266-7855",
      "takeaway": "yes",
      "outdoor_seating": "yes",
      "addr_state": "NM",
      "addr_city": "Albuquerque",
      "addr_postcode": "87106",
      "addr_street": "Central Avenue Southeast",
      "addr_housenumber": "3403"
    },
    {
      "id": 188909,
      "geometry": "POINT (-106.606152 35.079774)",
      "poi_name": "Flying Star",
      "osm_id": 209511652,
      "amenity": "restaurant",
      "cuisine": "coffee_shop;regional;american",
      "internet_access": "wlan",
      "phone": "(505) 255-6633",
      "takeaway": "yes",
      "outdoor_seating": "no",
      "addr_state": "NM",
      "addr_city": "Albuquerque",
      "addr_postcode": "87106",
      "addr_street": "Central Avenue Southeast",
      "addr_housenumber": "3416"
    },
    {
      "id": 190809,
      "geometry": "POINT (-105.91822 35.624553)",
      "poi_name": "Bourbon",
      "osm_id": 1316838378,
      "amenity": "restaurant"
    },
    {
      "id": 190596,
      "geometry": "POINT (-106.210095 35.82717)",
      "poi_name": "Time Out Pizzaria - Permanently Closed in White Rock",
      "osm_id": 1306261060,
      "amenity": "restaurant",
      "cuisine": "pizza",
      "website": "http://www.timeout4pizza.com/",
      "phone": "5056729882",
      "takeaway": "no",
      "delivery": "no",
      "addr_state": "NM",
      "addr_city": "White Rock",
      "addr_postcode": "87544",
      "addr_street": "State Road 4",
      "addr_housenumber": "118"
    },
    {
      "id": 189741,
      "geometry": "POINT (-106.631805 35.174831)",
      "poi_name": "Casa de Benevites",
      "osm_id": 1248859717,
      "amenity": "restaurant",
      "cuisine": "mexican"
    },
    {
      "id": 191241,
      "geometry": "POINT (-106.623882 35.080535)",
      "poi_name": "V Wang Cafe",
      "osm_id": 1350457279,
      "amenity": "restaurant",
      "cuisine": "chinese",
      "addr_state": "NM",
      "addr_city": "Albuquerque",
      "addr_postcode": "87106",
      "addr_street": "Buena Vista",
      "addr_housenumber": "106"
    },
    {
      "id": 194418,
      "geometry": "POINT (-106.586805 35.142424)",
      "poi_name": "Pizza Hut",
      "osm_id": 10272135736,
      "amenity": "restaurant",
      "cuisine": "pizza"
    },
    {
      "id": 193892,
      "geometry": "POINT (-106.559317 35.173764)",
      "poi_name": "Flying Star",
      "osm_id": 1568583107,
      "amenity": "restaurant",
      "cuisine": "american"
    },
    {
      "id": 194349,
      "geometry": "POINT (-106.697584 35.221012)",
      "poi_name": "M'tucci's Moderno",
      "osm_id": 10270490009,
      "amenity": "restaurant",
      "cuisine": "italian"
    },
    {
      "id": 194366,
      "geometry": "POINT (-106.656967 35.208281)",
      "poi_name": "Chuck E. Cheese",
      "osm_id": 10270744741,
      "amenity": "restaurant",
      "cuisine": "pizza",
      "leisure": "amusement_arcade",
      "website": "https://locations.chuckecheese.com/us/nm/albuquerque/10510-coors-boulevard"
    },
    {
      "id": 194367,
      "geometry": "POINT (-106.657554 35.208521)",
      "poi_name": "Red Lobster",
      "osm_id": 10270744742,
      "amenity": "restaurant",
      "cuisine": "seafood"
    },
    {
      "id": 194368,
      "geometry": "POINT (-106.657569 35.208089)",
      "poi_name": "Olive Garden",
      "osm_id": 10270744743,
      "amenity": "restaurant",
      "cuisine": "italian"
    },
    {
      "id": 194371,
      "geometry": "POINT (-106.648387 35.204818)",
      "poi_name": "Thai Kitchen",
      "osm_id": 10270744867,
      "amenity": "restaurant",
      "cuisine": "thai",
      "addr_street": "Corrales Road Northwest",
      "addr_housenumber": "10701"
    },
    {
      "id": 194375,
      "geometry": "POINT (-106.726066 35.193486)",
      "poi_name": "Rose Garden Chinese Cuisine",
      "osm_id": 10270760665,
      "amenity": "restaurant",
      "cuisine": "chinese"
    },
    {
      "id": 194392,
      "geometry": "POINT (-106.69628 35.242979)",
      "poi_name": "Saigon 2 Restaurant",
      "osm_id": 10270860579,
      "amenity": "restaurant",
      "cuisine": "vietnamese"
    },
    {
      "id": 194394,
      "geometry": "POINT (-106.694443 35.242865)",
      "poi_name": "Nori Ramen & Sushi Bar",
      "osm_id": 10270860584,
      "amenity": "restaurant",
      "cuisine": "japanese;sushi;ramen"
    },
    {
      "id": 194395,
      "geometry": "POINT (-106.692654 35.242659)",
      "poi_name": "Slate Street",
      "osm_id": 10270860590,
      "amenity": "restaurant",
      "cuisine": "american"
    },
    {
      "id": 194419,
      "geometry": "POINT (-106.586073 35.140562)",
      "poi_name": "Mariscos La Playa",
      "osm_id": 10272135737,
      "amenity": "restaurant",
      "cuisine": "seafood;mexican"
    },
    {
      "id": 194420,
      "geometry": "POINT (-106.58896 35.131342)",
      "poi_name": "Tako Ten",
      "osm_id": 10272162753,
      "amenity": "restaurant"
    },
    {
      "id": 194793,
      "geometry": "POINT (-106.657021 35.110532)",
      "poi_name": "12th Street Tavern",
      "osm_id": 10285234653,
      "amenity": "restaurant",
      "addr_city": "Albuquerque",
      "addr_postcode": "87104",
      "addr_street": "12th Street Northwest",
      "addr_housenumber": "2500"
    },
    {
      "id": 194550,
      "geometry": "POINT (-106.65387 35.193996)",
      "poi_name": "Outback Steakhouse",
      "osm_id": 10277071270,
      "amenity": "restaurant",
      "cuisine": "american;steak"
    },
    {
      "id": 194596,
      "geometry": "POINT (-106.575281 35.326757)",
      "poi_name": "Pizza Hut",
      "osm_id": 10278575024,
      "amenity": "restaurant",
      "cuisine": "pizza"
    },
    {
      "id": 194542,
      "geometry": "POINT (-106.688618 35.147176)",
      "poi_name": "Sushi Freak",
      "osm_id": 10276992838,
      "amenity": "restaurant",
      "cuisine": "japanese",
      "addr_state": "NM",
      "addr_city": "Albuquerque",
      "addr_postcode": "87120",
      "addr_street": "Coors Boulevard Northwest",
      "addr_housenumber": "5600"
    },
    {
      "id": 194821,
      "geometry": "POINT (-106.570005 35.107069)",
      "poi_name": "Fogo de Ch\u00e3o",
      "osm_id": 10285733831,
      "amenity": "restaurant",
      "cuisine": "brazilian;steak_house"
    },
    {
      "id": 194822,
      "geometry": "POINT (-106.570056 35.106666)",
      "poi_name": "Saggio's",
      "osm_id": 10285733856,
      "amenity": "restaurant",
      "cuisine": "italian"
    },
    {
      "id": 194823,
      "geometry": "POINT (-106.570064 35.106784)",
      "poi_name": "Fuddruckers",
      "osm_id": 10285733857,
      "amenity": "restaurant",
      "cuisine": "burger"
    },
    {
      "id": 194825,
      "geometry": "POINT (-106.57085 35.108205)",
      "poi_name": "Blaze Pizza",
      "osm_id": 10285733875,
      "amenity": "restaurant",
      "cuisine": "pizza"
    },
    {
      "id": 194794,
      "geometry": "POINT (-106.657116 35.110676)",
      "poi_name": "Itality",
      "osm_id": 10285234654,
      "amenity": "restaurant",
      "website": "https://www.italitynm.com/",
      "addr_city": "Albuquerque",
      "addr_postcode": "87104",
      "addr_street": "12th Street Northwest",
      "addr_housenumber": "2500"
    },
    {
      "id": 194795,
      "geometry": "POINT (-106.531986 35.13855)",
      "poi_name": "Annapurna's World Vegetarian Caf\u00e9",
      "osm_id": 10285251058,
      "amenity": "restaurant",
      "cuisine": "indian;oriental;international",
      "website": "https://www.chaishoppe.com/",
      "phone": "+1-505-275-2424",
      "addr_state": "NM",
      "addr_city": "Albuquerque",
      "addr_postcode": "87111",
      "addr_street": "Eubank Boulevard Northeast",
      "addr_housenumber": "5200"
    },
    {
      "id": 197428,
      "geometry": "POINT (-106.288259 34.752352)",
      "poi_name": "Mi Cabana",
      "osm_id": 10647889999,
      "amenity": "restaurant",
      "addr_state": "NM",
      "addr_city": "Tajique",
      "addr_street": "NM 55"
    },
    {
      "id": 194856,
      "geometry": "POINT (-106.574683 35.106419)",
      "poi_name": "Nori Japan",
      "osm_id": 10286764072,
      "amenity": "restaurant",
      "cuisine": "japanese"
    },
    {
      "id": 196442,
      "geometry": "POINT (-106.615032 35.080728)",
      "poi_name": "A Taste of the Caribbean",
      "osm_id": 10578090946,
      "amenity": "restaurant",
      "cuisine": "caribbean",
      "description": "Best Food, Great Value",
      "opening_hours": "Tu-Th 11:30-19:00, Fr-Sa 11:30-20:00",
      "website": "https://atasteofthecaribbeannm.com/",
      "phone": "+15055038428",
      "takeaway": "yes",
      "delivery": "yes",
      "addr_state": "NM",
      "addr_city": "Albuquerque",
      "addr_postcode": "87106",
      "addr_street": "Central Avenue Southeast",
      "addr_housenumber": "2720"
    },
    {
      "id": 196941,
      "geometry": "POINT (-106.605459 35.080084)",
      "poi_name": "Lucky Goose",
      "osm_id": 10605103798,
      "amenity": "restaurant",
      "phone": "+1-505-226-4796",
      "addr_state": "NM",
      "addr_city": "Albuquerque",
      "addr_postcode": "87106",
      "addr_street": "Central Avenue Northeast",
      "addr_housenumber": "3503"
    },
    {
      "id": 197386,
      "geometry": "POINT (-106.591078 35.165668)",
      "poi_name": "Sticky Rice Grilled Chicken",
      "osm_id": 10647415128,
      "amenity": "restaurant",
      "cuisine": "noodle;laotian;rice",
      "addr_street": "Jefferson Street Northeast",
      "addr_housenumber": "7600"
    },
    {
      "id": 197603,
      "geometry": "POINT (-106.65417 35.084697)",
      "poi_name": "Oni",
      "osm_id": 10656227299,
      "amenity": "restaurant",
      "cuisine": "noodle;ramen;regional",
      "opening_hours": "Tu-Th 11:30-20:00; Fr-Sa 11:30-21:00",
      "website": "https://oniabq.com/",
      "phone": "+1 505 503 6722",
      "addr_state": "NM",
      "addr_city": "Albuquerque",
      "addr_postcode": "87102",
      "addr_street": "Central Ave SW",
      "addr_housenumber": "600"
    },
    {
      "id": 197393,
      "geometry": "POINT (-106.647704 35.205268)",
      "poi_name": "Ichi Ban Japanese Restaurant",
      "osm_id": 10647739597,
      "amenity": "restaurant",
      "cuisine": "japanese",
      "addr_street": "Corrales Road Northwest",
      "addr_housenumber": "10701"
    },
    {
      "id": 197400,
      "geometry": "POINT (-106.646164 35.203746)",
      "poi_name": "Dragon House Chinese Cuisine",
      "osm_id": 10647769452,
      "amenity": "restaurant",
      "cuisine": "chinese",
      "addr_street": "Corrales Road Northwest",
      "addr_housenumber": "10200"
    },
    {
      "id": 197401,
      "geometry": "POINT (-106.64583 35.20329)",
      "poi_name": "Pho Kobe",
      "osm_id": 10647769456,
      "amenity": "restaurant",
      "cuisine": "vietnamese",
      "addr_state": "NM",
      "addr_city": "Albuquerque",
      "addr_postcode": "87114",
      "addr_street": "Corrales Road Northwest",
      "addr_housenumber": "10200"
    },
    {
      "id": 197402,
      "geometry": "POINT (-106.64527 35.202659)",
      "poi_name": "Cafe Nom Nom",
      "osm_id": 10647769483,
      "amenity": "restaurant",
      "cuisine": "vietnamese",
      "addr_state": "NM",
      "addr_city": "Albuquerque",
      "addr_postcode": "87114",
      "addr_street": "Corrales Road Northwest",
      "addr_housenumber": "10200"
    },
    {
      "id": 200911,
      "geometry": "POINT (-106.55005 35.09533)",
      "poi_name": "Cafe Istanbul",
      "osm_id": 600451405,
      "amenity": "restaurant",
      "cuisine": "mediterranean",
      "phone": "1-505-294-9900",
      "takeaway": "yes",
      "outdoor_seating": "no",
      "addr_state": "NM",
      "addr_city": "Albuquerque",
      "addr_postcode": "87112",
      "addr_street": "Wyoming Boulevard Northeast",
      "addr_housenumber": "1410"
    },
    {
      "id": 198024,
      "geometry": "POINT (-106.567097 35.160301)",
      "poi_name": "Rising Star Chinese Eatery",
      "osm_id": 10686389305,
      "amenity": "restaurant",
      "cuisine": "chinese",
      "opening_hours": "Mo-Sa 11:00-21:00",
      "phone": "+1 505-821-6595",
      "addr_postcode": "87109",
      "addr_street": "San Antonio Drive Northeast",
      "addr_housenumber": "7001"
    },
    {
      "id": 200912,
      "geometry": "POINT (-106.550241 35.09675)",
      "poi_name": "Thai Tip",
      "osm_id": 600451406,
      "amenity": "restaurant",
      "cuisine": "thai"
    },
    {
      "id": 200919,
      "geometry": "POINT (-106.514296 35.131556)",
      "poi_name": "Il Vicino",
      "osm_id": 600524730,
      "amenity": "restaurant",
      "cuisine": "pizza",
      "toilets": "yes"
    },
    {
      "id": 200949,
      "geometry": "POINT (-106.608569 35.080067)",
      "poi_name": "M'Tucci's Bar Roma",
      "osm_id": 601599339,
      "amenity": "restaurant",
      "cuisine": "italian",
      "opening_hours": "Mo-Th 11:00-22:00; Fr 11:00-23:00; Sa 08:00-23:00; Su 08:00-22:00",
      "phone": "505-262-2739",
      "outdoor_seating": "yes",
      "addr_state": "NM",
      "addr_city": "Albuquerque",
      "addr_postcode": "87106",
      "addr_street": "Central Avenue Southeast",
      "addr_housenumber": "3222"
    },
    {
      "id": 200932,
      "geometry": "POINT (-106.515079 35.109458)",
      "poi_name": "Mr. Sushi",
      "osm_id": 601150706,
      "amenity": "restaurant",
      "cuisine": "sushi",
      "toilets": "yes"
    },
    {
      "id": 200935,
      "geometry": "POINT (-106.551337 35.129952)",
      "poi_name": "The Range Caf\u00e9",
      "osm_id": 601171914,
      "amenity": "restaurant",
      "cuisine": "new_mexican;dessert",
      "opening_hours": "Su-Th 07:00-21:00, Fr-Sa 07:00-21:00",
      "website": "https://www.rangecafe.com/",
      "phone": "+1-505-293-2633",
      "addr_state": "NM",
      "addr_city": "Albuquerque",
      "addr_postcode": "87111",
      "addr_street": "Wyoming Boulevard Northeast",
      "addr_housenumber": "4401"
    },
    {
      "id": 204047,
      "geometry": "POINT (-106.651082 35.084622)",
      "poi_name": "Foodtopia",
      "osm_id": 7111702431,
      "amenity": "restaurant",
      "addr_state": "NM",
      "addr_city": "Albuquerque",
      "addr_street": "Central Avenue Northwest",
      "addr_housenumber": "313B"
    },
    {
      "id": 200979,
      "geometry": "POINT (-106.593884 35.143462)",
      "poi_name": "Pars Cuisine",
      "osm_id": 602873866,
      "amenity": "restaurant",
      "cuisine": "persian"
    },
    {
      "id": 203776,
      "geometry": "POINT (-106.654345 35.09119)",
      "poi_name": "Pizza Hut",
      "osm_id": 7099981091,
      "amenity": "restaurant",
      "cuisine": "pizza"
    },
    {
      "id": 203996,
      "geometry": "POINT (-105.930593 35.99432)",
      "poi_name": "Rancho de Chimayo",
      "osm_id": 7108559095,
      "amenity": "restaurant",
      "cuisine": "mexican",
      "addr_state": "NM",
      "addr_city": "Chimayo",
      "addr_street": "Juan Medina Road",
      "addr_housenumber": "300"
    },
    {
      "id": 205103,
      "geometry": "POINT (-106.616289 35.080613)",
      "poi_name": "Sahara Middle Eastern Eatery",
      "osm_id": 7157312275,
      "amenity": "restaurant",
      "opening_hours": "Mo-Sa 10:30-21:30; Su 12:00-19:00",
      "addr_street": "Central Avenue Southeast",
      "addr_housenumber": "2622"
    },
    {
      "id": 207105,
      "geometry": "POINT (-106.54432 35.175263)",
      "poi_name": "Jinja Bar and Bistro",
      "osm_id": 7237748946,
      "amenity": "restaurant"
    },
    {
      "id": 205911,
      "geometry": "POINT (-106.57021 35.130017)",
      "poi_name": "Curry Leaf",
      "osm_id": 7188495513,
      "amenity": "restaurant",
      "cuisine": "indian",
      "website": "https://www.curryleafrestaurant.us",
      "addr_state": "NM",
      "addr_city": "Albuquerque",
      "addr_postcode": "87109-1424",
      "addr_street": "Montgomery Boulevard Northeast",
      "addr_housenumber": "6910"
    },
    {
      "id": 207155,
      "geometry": "POINT (-106.555632 35.109628)",
      "poi_name": "Krung Thai",
      "osm_id": 7239247350,
      "amenity": "restaurant",
      "cuisine": "thai",
      "phone": "+1-505-292-9319",
      "addr_state": "NM",
      "addr_city": "Albuquerque",
      "addr_postcode": "87110",
      "addr_street": "Menaul Boulevard Northeast",
      "addr_housenumber": "7923"
    },
    {
      "id": 207321,
      "geometry": "POINT (-105.945952 35.768672)",
      "poi_name": "Cottonwood Kitchen",
      "osm_id": 7249316316,
      "amenity": "restaurant",
      "opening_hours": "24/7",
      "operator": "Tesuque Development Corporation",
      "website": "https://tesuquecasino.com",
      "phone": "(800) 462-2635",
      "addr_state": "NM",
      "addr_city": "Santa Fe",
      "addr_postcode": "87506",
      "addr_street": "Tesuque Road",
      "addr_housenumber": "7"
    },
    {
      "id": 208275,
      "geometry": "POINT (-105.67627 35.569268)",
      "poi_name": "Casa de Herrera Resturant",
      "osm_id": 4985609516,
      "amenity": "restaurant",
      "cuisine": "regional;mexican",
      "addr_state": "NM",
      "addr_city": "Pecos",
      "addr_postcode": "87552"
    },
    {
      "id": 210033,
      "geometry": "POINT (-106.712929 35.023275)",
      "poi_name": "Poki Poki Cevicheria",
      "osm_id": 5072769163,
      "amenity": "restaurant",
      "opening_hours": "Su-Th 11:00-21:00, Fr-Sa 11:00-21:30",
      "website": "https://www.pokipokinm.com/",
      "phone": "+1-505-873-3731",
      "addr_state": "NM",
      "addr_city": "Albuquerque",
      "addr_postcode": "87121",
      "addr_street": "Las Estancias Court Southwest",
      "addr_housenumber": "3715"
    },
    {
      "id": 208370,
      "geometry": "POINT (-105.950881 35.6726)",
      "poi_name": "The New Baking Company",
      "osm_id": 4988257544,
      "amenity": "restaurant",
      "cuisine": "american;mexican;cafe;bakery;burrito",
      "opening_hours": "Mo-Sa 07:00-19:00; Su 07:00-17:00",
      "website": "http://thenewbakingco.com",
      "phone": "+1-505-557-6435",
      "takeaway": "yes",
      "outdoor_seating": "yes",
      "addr_state": "NM",
      "addr_city": "Santa Fe",
      "addr_postcode": "87505",
      "addr_street": "West Cordova Road",
      "addr_housenumber": "504"
    },
    {
      "id": 209493,
      "geometry": "POINT (-106.57718 35.116935)",
      "poi_name": "Pacific Paradise",
      "osm_id": 5040236228,
      "amenity": "restaurant",
      "cuisine": "asian",
      "opening_hours": "Mo-Th 10:30-21:00, Fr 10:30-21:30, Sa 11:30-21:30, Su 16:00-21:00; Mo-Sa 15:00-16:00 off",
      "website": "http://www.pacific-paradise-restaurant-abq.com/",
      "phone": "+1-505-881-0999",
      "outdoor_seating": "yes",
      "delivery": "no",
      "addr_state": "NM",
      "addr_city": "Albuquerque",
      "addr_postcode": "87110",
      "addr_street": "San Pedro Drive Northeast",
      "addr_housenumber": "3000"
    },
    {
      "id": 209973,
      "geometry": "POINT (-106.572057 35.106571)",
      "poi_name": "The Cheesecake Factory",
      "osm_id": 5070416490,
      "amenity": "restaurant",
      "cuisine": "american",
      "opening_hours": "Mo-Th 11:00-23:00, Fr-Sa 11:00-24:00, Su 10:00-23:00",
      "website": "https://locations.thecheesecakefactory.com/nm/albuquerque-193.html",
      "phone": "+1-505-883-2539",
      "takeaway": "yes",
      "outdoor_seating": "yes",
      "delivery": "no",
      "addr_state": "NM",
      "addr_city": "Albuquerque",
      "addr_postcode": "87110",
      "addr_street": "Menaul Boulevard Northeast",
      "addr_housenumber": "6600"
    },
    {
      "id": 210709,
      "geometry": "POINT (-105.946419 35.68393)",
      "poi_name": "Tomasita\u2019s",
      "osm_id": 5115613993,
      "amenity": "restaurant",
      "cuisine": "regional;new_mexican;mexican",
      "website": "https://tomasitas.com/",
      "official_name": "Tomasita\u2019s Restaurant & Bar",
      "outdoor_seating": "yes",
      "addr_state": "NM",
      "addr_city": "Santa Fe",
      "addr_postcode": "87501",
      "addr_street": "South Guadalupe Street",
      "addr_housenumber": "500"
    },
    {
      "id": 210350,
      "geometry": "POINT (-105.990046 35.656547)",
      "poi_name": "Mariscos Costa Azul",
      "osm_id": 5099021234,
      "amenity": "restaurant",
      "cuisine": "new_mexican;seafood;mexican",
      "opening_hours": "Mo-Su 11:00-21:00",
      "website": "http://www.mariscoscostaazul.com/",
      "phone": "+1-505-473-4594",
      "addr_state": "NM",
      "addr_city": "Santa Fe",
      "addr_postcode": "87507",
      "addr_street": "Cerrillos Road",
      "addr_housenumber": "2875"
    },
    {
      "id": 210370,
      "geometry": "POINT (-106.693424 35.242671)",
      "poi_name": "Best Lee's",
      "osm_id": 5099845482,
      "amenity": "restaurant",
      "cuisine": "chinese",
      "opening_hours": "Mo-Sa 08:00-21:00",
      "outdoor_seating": "no",
      "addr_state": "NM",
      "addr_city": "Rio Rancho",
      "addr_postcode": "87124",
      "addr_street": "Southern Boulevard Southeast",
      "addr_housenumber": "2003"
    },
    {
      "id": 210311,
      "geometry": "POINT (-105.940805 35.688088)",
      "poi_name": "Los Magueyes Mexican Restaurant",
      "osm_id": 5094977882,
      "amenity": "restaurant",
      "cuisine": "mexican",
      "opening_hours": "Mo-Fr 11:00-21:00; Sa-Su 11:00-22:00",
      "website": "http://los-magueyes.letseat.at/",
      "phone": "+1-505-992-0304",
      "addr_state": "NM",
      "addr_city": "Santa Fe",
      "addr_postcode": "87501",
      "addr_street": "Burro Alley",
      "addr_housenumber": "28"
    },
    {
      "id": 210473,
      "geometry": "POINT (-105.950146 35.692236)",
      "poi_name": "Atrisco Cafe & Bar",
      "osm_id": 5106056910,
      "amenity": "restaurant",
      "cuisine": "mexican;new_mexican",
      "opening_hours": "Mo-Fr 11:00-21:00; Sa-Su 08:00-21:00",
      "website": "https://www.atriscocafe.com/",
      "phone": "+1-505-983-7401",
      "outdoor_seating": "no",
      "addr_state": "NM",
      "addr_city": "Santa Fe",
      "addr_postcode": "87501",
      "addr_street": "Paseo de Peralta",
      "addr_housenumber": "193"
    },
    {
      "id": 210474,
      "geometry": "POINT (-105.950809 35.69211)",
      "poi_name": "Santa Fe Bar & Grill",
      "osm_id": 5106056912,
      "amenity": "restaurant",
      "opening_hours": "07:00-22:00",
      "website": "https://santafebargrill.com/",
      "phone": "+1-505-982-3033",
      "addr_state": "NM",
      "addr_city": "Santa Fe",
      "addr_postcode": "87501",
      "addr_street": "Paseo de Peralta",
      "addr_housenumber": "187"
    },
    {
      "id": 210476,
      "geometry": "POINT (-105.951881 35.695063)",
      "poi_name": "Jinja Bar & Bistro",
      "osm_id": 5106059787,
      "amenity": "restaurant",
      "cuisine": "asian;fusion",
      "opening_hours": "Mo-Fr 11:00-22:00; Sa-Su 12:00-22:00",
      "website": "https://www.jinjabistro.com/",
      "phone": "+1-505-982-4321",
      "addr_state": "NM",
      "addr_city": "Santa Fe",
      "addr_postcode": "87501",
      "addr_street": "North Guadalupe Street",
      "addr_housenumber": "510"
    },
    {
      "id": 210477,
      "geometry": "POINT (-105.950869 35.694802)",
      "poi_name": "Crackin' Crab",
      "osm_id": 5106059788,
      "amenity": "restaurant",
      "cuisine": "seafood",
      "addr_street": "North Guadalupe Street",
      "addr_housenumber": "604"
    },
    {
      "id": 210479,
      "geometry": "POINT (-105.950921 35.692365)",
      "poi_name": "Sabor Peruano",
      "osm_id": 5106085543,
      "amenity": "restaurant",
      "cuisine": "peruvian",
      "website": "https://www.saborperuanosf.com/",
      "phone": "+1-505-358-3829",
      "outdoor_seating": "no",
      "addr_state": "NM",
      "addr_city": "Santa Fe",
      "addr_postcode": "87501",
      "addr_street": "Paseo de Peralta",
      "addr_housenumber": "163"
    },
    {
      "id": 210480,
      "geometry": "POINT (-105.949833 35.692921)",
      "poi_name": "Pizza Etc.",
      "osm_id": 5106100393,
      "amenity": "restaurant",
      "cuisine": "pizza",
      "addr_state": "NM",
      "addr_city": "Santa Fe",
      "addr_postcode": "87501",
      "addr_street": "Paseo de Peralta",
      "addr_housenumber": "151"
    },
    {
      "id": 210978,
      "geometry": "POINT (-106.593289 35.143763)",
      "poi_name": "Dickey's Barbecue Pit",
      "osm_id": 5133576387,
      "amenity": "restaurant",
      "cuisine": "barbecue"
    },
    {
      "id": 211249,
      "geometry": "POINT (-106.610635 35.080985)",
      "poi_name": "Sala Thai",
      "osm_id": 5148601509,
      "amenity": "restaurant",
      "cuisine": "asian",
      "addr_state": "NM",
      "addr_city": "Albuquerque",
      "addr_postcode": "87106",
      "addr_street": "Richmond Drive Northeast",
      "addr_housenumber": "102"
    },
    {
      "id": 211219,
      "geometry": "POINT (-106.606532 35.080243)",
      "poi_name": "99 Degrees Seafood Kitchen",
      "osm_id": 5146039252,
      "amenity": "restaurant",
      "cuisine": "cajun;seafood",
      "description": "Cajun and Creole cuisines",
      "opening_hours": "closed",
      "website": "99degreesseafoodkitchennm.com/",
      "addr_state": "NM",
      "addr_city": "Albuquerque",
      "addr_postcode": "87106",
      "addr_street": "Central Avenue Northeast",
      "addr_housenumber": "3409"
    },
    {
      "id": 211250,
      "geometry": "POINT (-106.611279 35.080866)",
      "poi_name": "Crazy Fish",
      "osm_id": 5148609429,
      "amenity": "restaurant",
      "cuisine": "japanese",
      "description": "Intimate Japanese eatery with a sushi bar, offering bento boxes at lunch and a sake menu.",
      "opening_hours": "Mo-Th 11:00-21:30; Fr 11:00-22:00; Sa 12:00-22:30; Su 12:00-21:30",
      "website": "https://crazyfishabq.com",
      "phone": "505-232-3474",
      "takeaway": "yes",
      "outdoor_seating": "no",
      "addr_state": "NM",
      "addr_city": "Albuquerque",
      "addr_postcode": "87106",
      "addr_street": "Central Avenue Northeast",
      "addr_housenumber": "3015"
    },
    {
      "id": 211251,
      "geometry": "POINT (-106.610581 35.081297)",
      "poi_name": "Guava Tree Cafe",
      "osm_id": 5148612044,
      "amenity": "restaurant",
      "cuisine": "caribbean",
      "description": "Relaxed eatery serving Caribbean soups and stews, homemade arepas, flan, Cuban sandwiches, Cuban coffee and more!",
      "opening_hours": "Mo-Sa 11:00-16:00; Su 11:00-15:00",
      "phone": "505-990-2599",
      "takeaway": "yes",
      "outdoor_seating": "yes",
      "addr_state": "NM",
      "addr_city": "Albuquerque",
      "addr_postcode": "87106",
      "addr_street": "Richmond Drive Northeast",
      "addr_housenumber": "118"
    },
    {
      "id": 211265,
      "geometry": "POINT (-106.610125 35.080342)",
      "poi_name": "Mesa Provisions",
      "osm_id": 5150031349,
      "amenity": "restaurant",
      "addr_state": "NM",
      "addr_city": "Albuquerque",
      "addr_postcode": "87106",
      "addr_street": "Central Avenue Southeast",
      "addr_housenumber": "3120"
    },
    {
      "id": 211273,
      "geometry": "POINT (-106.612477 35.081672)",
      "poi_name": "The Shop",
      "osm_id": 5150153028,
      "amenity": "restaurant",
      "description": "Hip, unpretentious joint offering locally sourced American bites with a twist, plus outdoor seating.",
      "opening_hours": "Tu-Th 08:00-15:00; Fr 08:00-15:00,17:30-22:00; Sa 08:00-13:00,17:30-22:00; Su 08:00-13:00",
      "website": "https://www.facebook.com/TheShopBreakfastandLunch/",
      "phone": "(505) 433-2795",
      "outdoor_seating": "yes",
      "addr_state": "NM",
      "addr_city": "Albuquerque",
      "addr_postcode": "87106",
      "addr_street": "Monte Vista Boulevard Northeast",
      "addr_housenumber": "2933"
    },
    {
      "id": 212289,
      "geometry": "POINT (-106.550376 35.302296)",
      "poi_name": "Range Caf\u00e9",
      "osm_id": 5197384585,
      "amenity": "restaurant",
      "cuisine": "dessert;new_mexican",
      "wheelchair": "yes",
      "opening_hours": "Su-Th 07:00-21:00, Fr-Sa 07:00-21:00",
      "website": "https://www.rangecafe.com/",
      "phone": "+1-505-867-1700",
      "addr_state": "NM",
      "addr_city": "Bernalillo",
      "addr_postcode": "87004",
      "addr_street": "Camino del Pueblo",
      "addr_housenumber": "925"
    },
    {
      "id": 215273,
      "geometry": "POINT (-105.57543 36.406157)",
      "poi_name": "Stella's",
      "osm_id": 5293426835,
      "amenity": "restaurant"
    },
    {
      "id": 213521,
      "geometry": "POINT (-106.628474 35.057897)",
      "poi_name": "Chili's",
      "osm_id": 5253337882,
      "amenity": "restaurant",
      "cuisine": "tex-mex",
      "official_name": "Chili's Grill & Bar"
    },
    {
      "id": 214768,
      "geometry": "POINT (-106.565494 35.101127)",
      "poi_name": "Takumi Restaurant",
      "osm_id": 5280632631,
      "amenity": "restaurant",
      "cuisine": "japanese",
      "opening_hours": "Su-Th 11:00-21:30, Fr-Sa 11:00-22:30",
      "website": "https://www.takumibbq.com/",
      "phone": "+1-505-508-3091",
      "addr_state": "NM",
      "addr_city": "Albuquerque",
      "addr_postcode": "87110",
      "addr_street": "Louisiana Boulevard Northeast",
      "addr_housenumber": "2100"
    },
    {
      "id": 215277,
      "geometry": "POINT (-105.576123 36.407233)",
      "poi_name": "Azteca Mexican Grill",
      "osm_id": 5293464528,
      "amenity": "restaurant",
      "cuisine": "mexican"
    },
    {
      "id": 217984,
      "geometry": "POINT (-105.98083 35.661701)",
      "poi_name": "Jesushi Santa Fe",
      "osm_id": 9251690248,
      "amenity": "restaurant",
      "cuisine": "sushi",
      "description": "Food truck serving sushi.",
      "website": "https://www.facebook.com/Jesushi-santa-fe-106534374523362/",
      "phone": "+1 505 204 5330",
      "takeaway": "only",
      "addr_state": "NM",
      "addr_city": "Santa Fe",
      "addr_postcode": "87505",
      "addr_street": "Cerrillos Road",
      "addr_housenumber": "2217"
    },
    {
      "id": 217336,
      "geometry": "POINT (-106.649503 35.08864)",
      "poi_name": "Icon Bistro",
      "osm_id": 9217019145,
      "amenity": "restaurant",
      "addr_state": "NM",
      "addr_city": "Albuquerque",
      "addr_street": "Marquette Avenue Northwest",
      "addr_housenumber": "201"
    },
    {
      "id": 217857,
      "geometry": "POINT (-105.947157 35.681583)",
      "poi_name": "Bruno\u2019s Pizzeria",
      "osm_id": 9246321043,
      "amenity": "restaurant",
      "cuisine": "pizza",
      "opening_hours": "Mo-Tu 11:00-16:00; We-Fr 11:00-15:00",
      "website": "https://brunos.biz/",
      "phone": "+1 505-690-0966",
      "addr_state": "NM",
      "addr_city": "Santa Fe",
      "addr_postcode": "87501",
      "addr_street": "Paseo de Peralta",
      "addr_housenumber": "1512"
    },
    {
      "id": 218996,
      "geometry": "POINT (-106.190971 35.083681)",
      "poi_name": "Katrinah's",
      "osm_id": 9312493514,
      "amenity": "restaurant"
    },
    {
      "id": 220135,
      "geometry": "POINT (-106.603595 35.130588)",
      "poi_name": "Fiesta\u2019s New Mexican Food",
      "osm_id": 9360807414,
      "amenity": "restaurant",
      "cuisine": "mexican",
      "addr_state": "NM",
      "addr_city": "Albuquerque",
      "addr_postcode": "87107",
      "addr_street": "Carlisle Boulevard Northeast",
      "addr_housenumber": "4400"
    },
    {
      "id": 220432,
      "geometry": "POINT (-106.666478 35.091114)",
      "poi_name": "Feed and Seed Modern General",
      "osm_id": 9373472863,
      "amenity": "restaurant",
      "description": "local Cafe Restaurant, good for breakfast",
      "phone": "+15052426928",
      "addr_street": "Central Ave SW",
      "addr_housenumber": "1720 suite B"
    },
    {
      "id": 221331,
      "geometry": "POINT (-106.062856 35.998366)",
      "poi_name": "K-Pollo",
      "osm_id": 10972067305,
      "amenity": "restaurant"
    },
    {
      "id": 222263,
      "geometry": "POINT (-105.964101 35.682027)",
      "poi_name": "The Kitchen Table Commercial Kitchen",
      "osm_id": 11011505263,
      "amenity": "restaurant",
      "addr_street": "Camino Alire",
      "addr_housenumber": "313"
    },
    {
      "id": 221894,
      "geometry": "POINT (-106.643982 35.085881)",
      "poi_name": "La Finca Bowls",
      "osm_id": 10995901511,
      "amenity": "restaurant"
    },
    {
      "id": 221692,
      "geometry": "POINT (-105.409695 36.70924)",
      "poi_name": "Capo's",
      "osm_id": 10983489570,
      "amenity": "restaurant",
      "cuisine": "pizza"
    },
    {
      "id": 222657,
      "geometry": "POINT (-105.948663 35.683452)",
      "poi_name": "Crepas-Oh! The Crepe House",
      "osm_id": 11029367296,
      "amenity": "restaurant",
      "addr_state": "NM",
      "addr_city": "Santa Fe",
      "addr_postcode": "87501",
      "addr_street": "Market Street",
      "addr_housenumber": "500"
    },
    {
      "id": 223475,
      "geometry": "POINT (-106.532872 35.115986)",
      "poi_name": "Ruben's Grill Mexican Restaurant",
      "osm_id": 11054999899,
      "amenity": "restaurant",
      "opening_hours": "Mo-Sa 09:00-20:00; Su 09:00-15:00",
      "website": "https://rubensgrillmexicanrestaurant.com",
      "phone": "+1-505-294-1900",
      "addr_state": "NM",
      "addr_city": "Albuquerque",
      "addr_postcode": "87112",
      "addr_street": "Candelaria Road Norteast",
      "addr_housenumber": "9708"
    },
    {
      "id": 224513,
      "geometry": "POINT (-106.585536 35.152523)",
      "poi_name": "Garduno's",
      "osm_id": 11084903059,
      "amenity": "restaurant",
      "cuisine": "mexican",
      "addr_state": "NM",
      "addr_city": "Albuquerque",
      "addr_postcode": "87109",
      "addr_street": "Pan American Northeast",
      "addr_housenumber": "6000"
    },
    {
      "id": 228336,
      "geometry": "POINT (-105.935835 35.688594)",
      "poi_name": "Ecco Espresso & Gelato",
      "osm_id": 4339339090,
      "amenity": "restaurant",
      "cuisine": "gelato;coffee;espresso;ice_cream;sandwich",
      "opening_hours": "Mo-Th 07:00-21:30, Fr 07:00-22:00, Sa 08:00-22:00, Su 08:00-20:00",
      "shop": "coffee",
      "addr_state": "NM",
      "addr_city": "Santa Fe",
      "addr_street": "East Marcy Street",
      "addr_housenumber": "128"
    },
    {
      "id": 224462,
      "geometry": "POINT (-105.93999 35.686264)",
      "poi_name": "Market Steer",
      "osm_id": 11083296193,
      "amenity": "restaurant",
      "cuisine": "steak_house",
      "description": "moving into old El Meson",
      "addr_state": "NM",
      "addr_city": "Santa Fe",
      "addr_postcode": "87501",
      "addr_street": "Don Gaspar Avenue",
      "addr_housenumber": "210"
    },
    {
      "id": 225051,
      "geometry": "POINT (-106.650016 35.254521)",
      "poi_name": "K'Lynn's Southern & Cajun Fusion",
      "osm_id": 11108956273,
      "amenity": "restaurant",
      "cuisine": "cajun;soul_food;southern;seafood",
      "description": "From fried catfish, collard greens and plantain  to etouffee,  gumbo and  po boys.",
      "website": "https://www.klynnsfusion.com/",
      "phone": "505-453-3068",
      "outdoor_seating": "no",
      "delivery": "yes",
      "addr_state": "NM",
      "addr_city": "Rio Rancho",
      "addr_postcode": "87124",
      "addr_street": "Ridgecrest Dr SE",
      "addr_housenumber": "4300"
    },
    {
      "id": 225052,
      "geometry": "POINT (-106.599952 35.140518)",
      "poi_name": "Crackin' Crab Seafood Boil",
      "osm_id": 11109003897,
      "amenity": "restaurant",
      "cuisine": "seafood",
      "description": "casual dine in restaurant specializing in quality Cajun seafood boil cuisine in the southwest",
      "opening_hours": "Su-Th 12:00-21:00, Fr-Sa 12:00-21:30",
      "website": "https://www.crackincrab.com/",
      "phone": "+15053444469",
      "takeaway": "yes",
      "outdoor_seating": "no",
      "delivery": "yes",
      "addr_state": "NM",
      "addr_city": "Albuquerque",
      "addr_postcode": "87109",
      "addr_street": "Pan American Freeway NE",
      "addr_housenumber": "4959"
    },
    {
      "id": 225053,
      "geometry": "POINT (-106.698601 35.211726)",
      "poi_name": "Crackin' Crab Seafood Boil",
      "osm_id": 11109003898,
      "amenity": "restaurant",
      "cuisine": "seafood",
      "description": "casual dine in restaurant specializing in quality Cajun seafood boil cuisine in the southwest",
      "opening_hours": "Su-Th 12:00-21:00, Fr-Sa 12:00-22:00",
      "website": "https://www.crackincrab.com/",
      "phone": "(505) 897-5790",
      "takeaway": "yes",
      "delivery": "yes",
      "addr_state": "NM",
      "addr_city": "Albuquerque",
      "addr_postcode": "87114",
      "addr_street": "Unser Blvd NW",
      "addr_housenumber": "10600"
    },
    {
      "id": 225369,
      "geometry": "POINT (-106.498236 35.116058)",
      "poi_name": "The Burrow Cafe",
      "osm_id": 11124101036,
      "amenity": "restaurant",
      "cuisine": "brunch;breakfast;coffee_shop;crepe",
      "opening_hours": "Mo-Sa 08:00-15:00; Tu off; Su 08:00-14:00",
      "website": "https://www.abqbrunch.com/",
      "phone": "+1-505-508-0075",
      "addr_state": "NM",
      "addr_city": "Albuquerque",
      "addr_postcode": "87111",
      "addr_street": "Candelaria Road Northeast",
      "addr_housenumber": "12501"
    },
    {
      "id": 225370,
      "geometry": "POINT (-106.498242 35.116255)",
      "poi_name": "Tako Ten",
      "osm_id": 11124101038,
      "amenity": "restaurant",
      "cuisine": "mexican",
      "phone": "+1-505-508-0262",
      "addr_state": "NM",
      "addr_city": "Albuquerque",
      "addr_street": "Candelaria Road Northeast",
      "addr_housenumber": "12501"
    },
    {
      "id": 226051,
      "geometry": "POINT (-106.602195 35.138481)",
      "poi_name": "Fuddruckers",
      "osm_id": 11147419929,
      "amenity": "restaurant",
      "cuisine": "burger",
      "opening_hours": "Su-Th 11:00-20:00, Fr-Sa 11:00-21:00",
      "website": "https://www.fuddruckers.com/albuquerque-yale-blvd",
      "phone": "15052242841",
      "takeaway": "yes",
      "outdoor_seating": "yes",
      "delivery": "yes",
      "addr_state": "NM",
      "addr_city": "Albuquerque",
      "addr_postcode": "87109",
      "addr_street": "Pan American Fwy NE",
      "addr_housenumber": "4855"
    },
    {
      "id": 226301,
      "geometry": "POINT (-106.657398 35.232056)",
      "poi_name": "Aldo's New York Style Pizzeria",
      "osm_id": 11155367792,
      "amenity": "restaurant",
      "cuisine": "pizza_restaurant;catering;new_york_style_pizza",
      "opening_hours": "Mo-Su 11:00-21:00",
      "website": "https://aldosnypizza.com",
      "phone": "+1-505-892-2026",
      "addr_state": "NM",
      "addr_city": "Rio Rancho",
      "addr_postcode": "87124",
      "addr_street": "Rio Rancho Boulevard Southeast,",
      "addr_housenumber": "1690"
    },
    {
      "id": 229292,
      "geometry": "POINT (-106.563672 35.130043)",
      "poi_name": "Savory Fare Cafe, Bakery & Catering",
      "osm_id": 4375792715,
      "amenity": "restaurant",
      "cuisine": "cafe"
    },
    {
      "id": 230218,
      "geometry": "POINT (-105.276751 36.389229)",
      "poi_name": "Pub 'n Grub",
      "osm_id": 4417733232,
      "amenity": "restaurant",
      "cuisine": "american",
      "opening_hours": "17:00-21:00",
      "addr_state": "NM",
      "addr_city": "angel fire",
      "addr_postcode": "87710",
      "addr_street": "North Angel Fire Road",
      "addr_housenumber": "52"
    },
    {
      "id": 229996,
      "geometry": "POINT (-105.226355 35.59344)",
      "poi_name": "La Casa de Loera",
      "osm_id": 4410674089,
      "amenity": "restaurant",
      "cuisine": "mexican",
      "addr_street": "Plaza Street"
    },
    {
      "id": 230012,
      "geometry": "POINT (-105.936209 35.687562)",
      "poi_name": "La Casa Sena",
      "osm_id": 4411996389,
      "amenity": "restaurant",
      "cuisine": "sandwich;fine_dining"
    },
    {
      "id": 231769,
      "geometry": "POINT (-106.652032 35.068311)",
      "poi_name": "El Modelo Carry Out Mexian Food",
      "osm_id": 4486195550,
      "amenity": "restaurant",
      "cuisine": "mexican",
      "takeaway": "yes"
    },
    {
      "id": 230407,
      "geometry": "POINT (-106.604732 35.080255)",
      "poi_name": "El Cotorro",
      "osm_id": 4425276871,
      "amenity": "restaurant",
      "cuisine": "mexican;ice_cream",
      "addr_state": "NM",
      "addr_city": "Albuquerque",
      "addr_street": "Carlisle Boulevard Northeast"
    },
    {
      "id": 230408,
      "geometry": "POINT (-106.549438 35.128649)",
      "poi_name": "Down N Dirty Seafood Boil",
      "osm_id": 4425276876,
      "amenity": "restaurant"
    },
    {
      "id": 230678,
      "geometry": "POINT (-106.580428 35.109495)",
      "poi_name": "Viet Taste",
      "osm_id": 4434977685,
      "amenity": "restaurant",
      "cuisine": "vietnamese",
      "addr_state": "NM",
      "addr_city": "Albuquerque",
      "addr_postcode": "87110",
      "addr_street": "Menaul Boulevard Northeast",
      "addr_housenumber": "5721"
    },
    {
      "id": 231770,
      "geometry": "POINT (-106.652558 35.068546)",
      "poi_name": "El Modelo",
      "osm_id": 4486197607,
      "amenity": "restaurant",
      "cuisine": "new_mexican;mexican",
      "takeaway": "yes",
      "outdoor_seating": "yes",
      "wikidata": "Q17442194",
      "addr_state": "NM",
      "addr_city": "Albuquerque",
      "addr_postcode": "87102",
      "addr_street": "2nd Street Southwest",
      "addr_housenumber": "1715"
    },
    {
      "id": 233442,
      "geometry": "POINT (-106.51763 35.131168)",
      "poi_name": "Applebee's",
      "osm_id": 4574111670,
      "amenity": "restaurant",
      "cuisine": "american",
      "official_name": "Applebee's Neighborhood Grill & Bar",
      "addr_state": "NM"
    },
    {
      "id": 233379,
      "geometry": "POINT (-105.9393 35.68648)",
      "poi_name": "The Wrap",
      "osm_id": 4571036859,
      "amenity": "restaurant",
      "cuisine": "sandwich",
      "takeaway": "yes",
      "outdoor_seating": "yes",
      "addr_state": "NM",
      "addr_city": "Santa Fe",
      "addr_postcode": "87501",
      "addr_street": "East Water Street",
      "addr_housenumber": "113"
    },
    {
      "id": 233380,
      "geometry": "POINT (-105.939483 35.687192)",
      "poi_name": "San Francisco Street Bar & Grill",
      "osm_id": 4571036863,
      "amenity": "restaurant",
      "cuisine": "american",
      "outdoor_seating": "no",
      "addr_state": "NM",
      "addr_city": "Santa Fe",
      "addr_postcode": "87501",
      "addr_street": "East San Francisco Street",
      "addr_housenumber": "50"
    },
    {
      "id": 233483,
      "geometry": "POINT (-105.924682 35.680201)",
      "poi_name": "El Farol Restaurant & Cantina",
      "osm_id": 4576174032,
      "amenity": "restaurant",
      "cuisine": "spanish",
      "website": "https://www.elfarolsantafe.com/",
      "phone": "+1-505-983-9912",
      "addr_state": "NM",
      "addr_city": "Santa Fe",
      "addr_postcode": "87501",
      "addr_street": "Canyon Road",
      "addr_housenumber": "808"
    },
    {
      "id": 233487,
      "geometry": "POINT (-105.925368 35.680564)",
      "poi_name": "Geronimo",
      "osm_id": 4576222457,
      "amenity": "restaurant",
      "cuisine": "french",
      "opening_hours": "17:30-21:30",
      "website": "https://www.geronimorestaurant.com/",
      "phone": "+1-505-982-1500",
      "addr_state": "NM",
      "addr_city": "Santa Fe",
      "addr_postcode": "87501",
      "addr_street": "Canyon Road",
      "addr_housenumber": "724"
    },
    {
      "id": 233628,
      "geometry": "POINT (-105.939214 35.687332)",
      "poi_name": "Thunderbird Bar & Grill",
      "osm_id": 4582137023,
      "amenity": "restaurant",
      "cuisine": "mexican;american",
      "opening_hours": "Su-Th 11:30-21:00; Fr-Sa 11:30-22:00",
      "website": "https://www.thunderbirdsantafe.com/",
      "capacity": "175",
      "phone": "+1-505-490-6550",
      "outdoor_seating": "patio",
      "addr_state": "NM",
      "addr_city": "Santa Fe",
      "addr_postcode": "87501",
      "addr_street": "Lincoln Avenue",
      "addr_housenumber": "50"
    },
    {
      "id": 233559,
      "geometry": "POINT (-105.967177 36.65009)",
      "poi_name": "Chili Line Depot",
      "osm_id": 4579359610,
      "amenity": "restaurant",
      "addr_state": "NM",
      "addr_city": "Tres Piedras",
      "addr_postcode": "87577",
      "addr_street": "US 285",
      "addr_housenumber": "38429"
    },
    {
      "id": 233539,
      "geometry": "POINT (-105.93323 35.685121)",
      "poi_name": "Mucho Gusto",
      "osm_id": 4578410213,
      "amenity": "restaurant",
      "cuisine": "mexican",
      "website": "https://www.muchogustosantafe.com/",
      "outdoor_seating": "no",
      "addr_state": "NM",
      "addr_city": "Santa Fe",
      "addr_postcode": "87501",
      "addr_street": "Paseo de Peralta",
      "addr_housenumber": "839"
    },
    {
      "id": 233629,
      "geometry": "POINT (-105.940208 35.687139)",
      "poi_name": "La Fogata Grill",
      "osm_id": 4582144484,
      "amenity": "restaurant",
      "cuisine": "mexican",
      "website": "http://places.singleplatform.com/la-fogata-grill-3/menu?ref=google",
      "phone": "+1-505-983-7302",
      "addr_state": "NM",
      "addr_city": "Santa Fe",
      "addr_postcode": "87501",
      "addr_street": "West San Francisco Street",
      "addr_housenumber": "112"
    },
    {
      "id": 233637,
      "geometry": "POINT (-105.942731 35.688227)",
      "poi_name": "Il Vicino Wood Oven Pizza",
      "osm_id": 4582201492,
      "amenity": "restaurant",
      "cuisine": "pizza",
      "opening_hours": "Su-Th 11:00-22:00; Fr-Sa 11:00-23:00",
      "website": "http://ilvicino.com/santa-fe-nm/",
      "phone": "+1-505-986-8700",
      "addr_state": "NM",
      "addr_city": "Santa Fe",
      "addr_postcode": "87501",
      "addr_street": "West San Francisco Street",
      "addr_housenumber": "321"
    },
    {
      "id": 237210,
      "geometry": "POINT (-106.152766 35.405822)",
      "poi_name": "The Hollar",
      "osm_id": 5821938874,
      "amenity": "restaurant",
      "cuisine": "regional",
      "website": "https://www.thehollar.com/",
      "addr_state": "NM",
      "addr_city": "Madrid",
      "addr_street": "Turquoise Trail NM-14"
    },
    {
      "id": 236864,
      "geometry": "POINT (-106.065548 35.49143)",
      "poi_name": "Beer Creek Brewing Company",
      "osm_id": 5809703545,
      "amenity": "restaurant",
      "cuisine": "regional;pizza",
      "opening_hours": "Mo-Sa 13:30-23:00; Su 11:00-23:00",
      "phone": "+1-505-471 9271",
      "outdoor_seating": "yes",
      "addr_state": "NM",
      "addr_city": "Santa Fe",
      "addr_postcode": "87508",
      "addr_street": "NM 14",
      "addr_housenumber": "3810"
    },
    {
      "id": 233604,
      "geometry": "POINT (-106.66592 35.090997)",
      "poi_name": "Amore Neapolitan Pizzeria",
      "osm_id": 4581469155,
      "amenity": "restaurant",
      "cuisine": "pizza",
      "addr_state": "NM",
      "addr_city": "Albuquerque",
      "addr_street": "Central Avenue Southwest"
    },
    {
      "id": 238231,
      "geometry": "POINT (-106.011907 35.881595)",
      "poi_name": "La Mesita Eatery",
      "osm_id": 5868660016,
      "amenity": "restaurant"
    },
    {
      "id": 238002,
      "geometry": "POINT (-105.937662 35.688766)",
      "poi_name": "The Bull Ring",
      "osm_id": 5857551272,
      "amenity": "restaurant",
      "cuisine": "steak_house",
      "addr_state": "NM",
      "addr_city": "Santa Fe",
      "addr_postcode": "87501",
      "addr_street": "Washington Avenue",
      "addr_housenumber": "150"
    },
    {
      "id": 237546,
      "geometry": "POINT (-106.515467 35.085388)",
      "poi_name": "Stripes & Burritos Co",
      "osm_id": 5838020150,
      "amenity": "restaurant",
      "cuisine": "mexican;tex-mex;american;burger;burrito;enchilada",
      "phone": "505.308.5194",
      "addr_state": "NM",
      "addr_city": "Albuquerque",
      "addr_postcode": "87123",
      "addr_street": "Juan Tabo Boulevard Northeast",
      "addr_housenumber": "801"
    },
    {
      "id": 238716,
      "geometry": "POINT (-106.240328 34.52216)",
      "poi_name": "Alpine Alley",
      "osm_id": 5892353175,
      "amenity": "restaurant",
      "takeaway": "yes",
      "delivery": "no",
      "addr_state": "NM",
      "addr_city": "Mountainair",
      "addr_postcode": "87036",
      "addr_street": "North Summit Avenue",
      "addr_housenumber": "210"
    },
    {
      "id": 238717,
      "geometry": "POINT (-106.247683 34.516683)",
      "poi_name": "Mustang Diner",
      "osm_id": 5892353192,
      "amenity": "restaurant",
      "takeaway": "yes",
      "outdoor_seating": "no",
      "delivery": "no",
      "addr_state": "NM",
      "addr_city": "Mountainair",
      "addr_postcode": "87036",
      "addr_street": "US 60 (NM)",
      "addr_housenumber": "511"
    },
    {
      "id": 238740,
      "geometry": "POINT (-106.549266 35.129895)",
      "poi_name": "Chuck E. Cheese",
      "osm_id": 5893359933,
      "amenity": "restaurant",
      "cuisine": "pizza",
      "leisure": "amusement_arcade",
      "opening_hours": "Su-Th 11:00-21:00, Fr 11:00-22:00, Sa 10:00-22:00",
      "website": "https://locations.chuckecheese.com/us/nm/albuquerque/4418-wyoming-blvd.-ne",
      "phone": "+1-505-296-3110",
      "outdoor_seating": "no",
      "delivery": "yes",
      "addr_state": "NM",
      "addr_city": "Albuquerque",
      "addr_postcode": "87111",
      "addr_street": "Wyoming Boulevard Northeast",
      "addr_housenumber": "4418"
    },
    {
      "id": 242830,
      "geometry": "POINT (-105.568621 36.412183)",
      "poi_name": "The Burger Stand",
      "osm_id": 7601836481,
      "amenity": "restaurant",
      "wheelchair": "limited",
      "opening_hours": "Mo-Su 11:00-22:00",
      "outdoor_seating": "yes",
      "addr_street": "Paseo del Pueblo Norte",
      "addr_housenumber": "401"
    },
    {
      "id": 240083,
      "geometry": "POINT (-106.566142 35.100899)",
      "poi_name": "Burger 21",
      "osm_id": 5954931414,
      "amenity": "restaurant",
      "cuisine": "burger",
      "opening_hours": "Su-Th 11:00-21:00, Fr-Sa 11:00-22:00",
      "website": "https://www.burger21.com/locations/albuquerque/",
      "phone": "+1-505-208-0759",
      "drive_through": "no",
      "outdoor_seating": "yes",
      "addr_state": "NM",
      "addr_city": "Albuquerque",
      "addr_postcode": "87110",
      "addr_street": "Louisiana Boulevard Northeast",
      "addr_housenumber": "2100"
    },
    {
      "id": 240390,
      "geometry": "POINT (-106.011448 35.87968)",
      "poi_name": "Roadrunner Cafe",
      "osm_id": 5972433279,
      "amenity": "restaurant",
      "addr_state": "NM",
      "addr_city": "Santa Fe",
      "addr_postcode": "87506",
      "addr_street": "Ogo Wii Road",
      "addr_housenumber": "43"
    },
    {
      "id": 241110,
      "geometry": "POINT (-106.582875 35.148083)",
      "poi_name": "Trombino's Bistro Italiano",
      "osm_id": 6007151515,
      "amenity": "restaurant",
      "opening_hours": "Mo-Th 16:00-22:00; Fr 16:00-22:30; Sa 15:00-22:30; Su 15:00-21:00",
      "website": "http://bistroitaliano.com",
      "phone": "+1 505-821-5974",
      "addr_state": "NM",
      "addr_city": "Albuquerque",
      "addr_postcode": "87109",
      "addr_street": "Academy Rd NE",
      "addr_housenumber": "5415"
    },
    {
      "id": 239002,
      "geometry": "POINT (-106.517152 35.130342)",
      "poi_name": "Weck's Select",
      "osm_id": 5900887265,
      "amenity": "restaurant",
      "opening_hours": "Mo-Su 07:00-14:00",
      "website": "https://wecksinc.com/wecks-select/",
      "phone": "+1-505-888-7002",
      "addr_state": "NM",
      "addr_city": "Albuquerque",
      "addr_postcode": "87111",
      "addr_street": "Montgomery Boulevard Northeast",
      "addr_housenumber": "11004"
    },
    {
      "id": 244480,
      "geometry": "POINT (-106.557604 35.173701)",
      "poi_name": "Vintage 423",
      "osm_id": 7726842824,
      "amenity": "restaurant",
      "opening_hours": "Mo-Th 11:00-24:00, Fr-Sa 11:00-02:00, Su 11:00-22:00",
      "website": "http://www.vintage-423.com/",
      "phone": "+1-505-821-1918",
      "outdoor_seating": "yes",
      "addr_state": "NM",
      "addr_city": "Albuquerque",
      "addr_postcode": "87122",
      "addr_street": "Paseo del Norte Boulevard Northeast",
      "addr_housenumber": "8000"
    },
    {
      "id": 244484,
      "geometry": "POINT (-106.562613 35.174857)",
      "poi_name": "Thai Spice",
      "osm_id": 7726890501,
      "amenity": "restaurant",
      "cuisine": "thai",
      "opening_hours": "Mo-Sa 11:00-21:00; Su 12:00-20:00",
      "website": "https://www.thaispiceabq.com/",
      "phone": "+1-505-503-1521",
      "addr_state": "NM",
      "addr_city": "Albuquerque",
      "addr_postcode": "87113",
      "addr_street": "Paseo del Norte Boulevard Northeast",
      "addr_housenumber": "7441"
    },
    {
      "id": 244940,
      "geometry": "POINT (-106.555706 35.175477)",
      "poi_name": "Kabob House",
      "osm_id": 7752495861,
      "amenity": "restaurant",
      "cuisine": "kebab",
      "opening_hours": "Mo-Sa 11:00-21:00",
      "website": "https://kabobhouseabq.com",
      "phone": "+1-505-312-8949",
      "addr_state": "NM",
      "addr_city": "Albuquerque",
      "addr_postcode": "87113",
      "addr_street": "Wyoming Blvd NE",
      "addr_housenumber": "8401"
    },
    {
      "id": 244941,
      "geometry": "POINT (-106.5557 35.175271)",
      "poi_name": "Azuma",
      "osm_id": 7752495862,
      "amenity": "restaurant",
      "cuisine": "sushi",
      "website": "https://www.azuma-sushi-teppan-abq.com/wyoming",
      "phone": "+1-505-821-3583",
      "takeaway": "yes",
      "addr_state": "NM",
      "addr_city": "Albuquerque",
      "addr_postcode": "87113",
      "addr_street": "Wymong Blvd NE",
      "addr_housenumber": "8401"
    },
    {
      "id": 244090,
      "geometry": "POINT (-106.576655 35.172641)",
      "poi_name": "China Luck",
      "osm_id": 7700222022,
      "amenity": "restaurant",
      "cuisine": "chinese"
    },
    {
      "id": 244093,
      "geometry": "POINT (-106.576705 35.172046)",
      "poi_name": "Squeezed! Juice Bar",
      "osm_id": 7700311591,
      "amenity": "restaurant",
      "cuisine": "juice",
      "opening_hours": "Mo-Fr 07:30-18:00; Sa 08:00-18:00; Su 09:00-17:00",
      "website": "https://squeezedjuicebars.com",
      "phone": "505-821-1437",
      "addr_state": "NM",
      "addr_city": "Albuquerque",
      "addr_postcode": "87109",
      "addr_street": "San Pedro Drive Northeast",
      "addr_housenumber": "7900"
    },
    {
      "id": 244219,
      "geometry": "POINT (-106.560321 35.174779)",
      "poi_name": "Guaca Guaca Tacos",
      "osm_id": 7708042071,
      "amenity": "restaurant",
      "cuisine": "tacos",
      "opening_hours": "Mo-Su 11:00-19:00",
      "website": "https://www.guacaguacatacos.com",
      "phone": "+1-505-407-2308",
      "addr_state": "NM",
      "addr_city": "Albuquerque",
      "addr_postcode": "87113",
      "addr_street": "Wyoming Boulevard Northeast",
      "addr_housenumber": "8001"
    },
    {
      "id": 244221,
      "geometry": "POINT (-106.560817 35.175069)",
      "poi_name": "Jade Chinese Restaurant",
      "osm_id": 7708042077,
      "amenity": "restaurant",
      "cuisine": "chinese",
      "opening_hours": "Mo-Th 11:00-20:30; Fr-Sa 11:00-21:00; Su 16:30-20:30",
      "website": "http://www.jadechineserestaurantnm.com/Menu.asp",
      "phone": "+1-505-822-8802",
      "addr_state": "NM",
      "addr_city": "Albuquerque",
      "addr_postcode": "87113",
      "addr_street": "Wyoming Boulevard Northeast",
      "addr_housenumber": "8001"
    },
    {
      "id": 244224,
      "geometry": "POINT (-106.561139 35.174821)",
      "poi_name": "Starry Moon",
      "osm_id": 7708164802,
      "amenity": "restaurant",
      "cuisine": "tea",
      "opening_hours": "Mo-Su 11:00-22:00",
      "website": "https://www.pwbportal.us/starry-moon",
      "phone": "+1-505-507-7029",
      "addr_state": "NM",
      "addr_city": "Albuquerque",
      "addr_postcode": "87113",
      "addr_street": "Wyoming Boulevard Northeast",
      "addr_housenumber": "8001"
    }
  ],
  "answer_type": "name",
  "question_entities": {
    "[1]": {
      "main_category": "amenity",
      "sub_category": "restaurant"
    },
    "[2]": {
      "distance": 140000,
      "text": "140 kilometers"
    },
    "[3]": {
      "main_category": "tourism",
      "sub_category": "gallery",
      "display_name": "Peaceful Wind Fine Asian Art, Santa Fe, NM",
      "geo_wkt": "POINT (-105.940326 35.687622)",
      "poi": {
        "id": 4473,
        "geometry": "POINT (-105.940326 35.687622)",
        "poi_name": "Peaceful Wind Fine Asian Art",
        "osm_id": 11270781098,
        "tourism": "gallery",
        "addr_state": "NM",
        "addr_city": "Santa Fe",
        "addr_postcode": "87501",
        "addr_street": "West San Francisco Street",
        "addr_housenumber": "129"
      }
    }
  },
  "id": 866,
  "type": "range+name"
}