{
  "question": "Within a radius of 190 kilometers, where can I find  a fast food restaurant along the way to Florida Botanical Garden, Largo, FL from Parker Manatee Aquarium, Bradenton, FL?",
  "sql": "WITH\n    angle AS (SELECT degrees(ST_Azimuth(ST_GeomFromText('POINT (-82.571569 27.497999)',4326)::geography, ST_GeomFromText('POINT (-82.808431 27.883426)',4326)::geography)) AS value)\nSELECT * FROM pois,angle\nWHERE amenity = 'fast_food'\nAND ST_DWithin(pois.geometry, ST_GeomFromText('POINT (-82.571569 27.497999)',4326)::geography, 190000)\nAND (degrees(ST_Azimuth(ST_GeomFromText('POINT (-82.571569 27.497999)',4326)::geography, pois.geometry)) BETWEEN angle.value - 22.5 AND angle.value + 22.5);\n",
  "answers": [
    {
      "id": 34161,
      "geometry": "POINT (-82.729901 27.893227)",
      "poi_name": "Arby's",
      "osm_id": 2696890296,
      "amenity": "fast_food",
      "cuisine": "sandwich",
      "takeaway": "yes",
      "drive_through": "yes",
      "addr_state": "FL",
      "addr_city": "Pinellas Park",
      "addr_street": "66th Street North",
      "value": 331.3747360051897
    },
    {
      "id": 34162,
      "geometry": "POINT (-82.729638 27.892042)",
      "poi_name": "Burger King",
      "osm_id": 2696890783,
      "amenity": "fast_food",
      "cuisine": "burger",
      "takeaway": "yes",
      "drive_through": "yes",
      "addr_city": "Seminole",
      "addr_street": "66th Street North",
      "value": 331.3747360051897
    },
    {
      "id": 41427,
      "geometry": "POINT (-82.739448 28.140719)",
      "poi_name": "Firehouse Subs",
      "osm_id": 3013651091,
      "amenity": "fast_food",
      "cuisine": "sandwich",
      "opening_hours": "Su-Th 10:00-21:00; Fr-Sa 10:00-22:00",
      "operator": "MGR Restaurant Holdings of Florida, LLC",
      "phone": "727-935-2022",
      "takeaway": "yes",
      "drive_through": "no",
      "outdoor_seating": "yes",
      "delivery": "yes",
      "addr_state": "FL",
      "addr_city": "Tarpon Springs",
      "addr_postcode": "34689",
      "addr_street": "US Hwy 19 N",
      "addr_housenumber": "40545",
      "value": 331.3747360051897
    },
    {
      "id": 51735,
      "geometry": "POINT (-82.647673 27.828034)",
      "poi_name": "Subway",
      "osm_id": 557417092,
      "amenity": "fast_food",
      "cuisine": "sandwich",
      "takeaway": "yes",
      "outdoor_seating": "no",
      "addr_city": "Saint Petersburg",
      "addr_postcode": "33702",
      "addr_street": "62nd Avenue North",
      "value": 331.3747360051897
    },
    {
      "id": 44374,
      "geometry": "POINT (-82.674808 28.279168)",
      "poi_name": "Firehouse Subs",
      "osm_id": 3157868483,
      "amenity": "fast_food",
      "cuisine": "sandwich",
      "opening_hours": "Su-Th 10:30-21:00; Fr-Sa 10:30-22:00",
      "website": "https://www.firehousesubs.com/",
      "internet_access": "no",
      "takeaway": "yes",
      "addr_state": "FL",
      "addr_city": "New Port Richey",
      "addr_postcode": "34654",
      "addr_street": "Little Road",
      "addr_housenumber": "8354",
      "value": 331.3747360051897
    },
    {
      "id": 61010,
      "geometry": "POINT (-82.819246 27.843278)",
      "poi_name": "Jotto's Pizza",
      "osm_id": 5492635732,
      "amenity": "fast_food",
      "cuisine": "pizza",
      "takeaway": "yes",
      "drive_through": "no",
      "delivery": "yes",
      "addr_state": "FL",
      "addr_city": "Seminole",
      "addr_postcode": "33776",
      "addr_street": "Park Boulevard North",
      "addr_housenumber": "13050",
      "value": 331.3747360051897
    },
    {
      "id": 56117,
      "geometry": "POINT (-82.728171 27.81339)",
      "poi_name": "Dunkin'",
      "osm_id": 10224832764,
      "amenity": "fast_food",
      "cuisine": "donut;coffee_shop",
      "opening_hours": "Mo-Su 05:00-20:00",
      "phone": "+1-727-329-8998",
      "takeaway": "yes",
      "addr_state": "FL",
      "addr_city": "Kenneth City",
      "addr_postcode": "33709",
      "addr_street": "66th Street North",
      "addr_housenumber": "4599",
      "value": 331.3747360051897
    },
    {
      "id": 56118,
      "geometry": "POINT (-82.728132 27.814856)",
      "poi_name": "Taco Bell",
      "osm_id": 10224832766,
      "amenity": "fast_food",
      "cuisine": "tex-mex",
      "website": "https://locations.tacobell.com/fl/kenneth-city/4703-66th-street-north.html",
      "phone": "+1-727-545-0562",
      "takeaway": "yes",
      "addr_state": "FL",
      "addr_city": "Kenneth City",
      "addr_postcode": "33709",
      "addr_street": "66th Street North",
      "addr_housenumber": "4703",
      "value": 331.3747360051897
    },
    {
      "id": 56119,
      "geometry": "POINT (-82.728202 27.805869)",
      "poi_name": "Checkers",
      "osm_id": 10224832767,
      "amenity": "fast_food",
      "cuisine": "burger",
      "phone": "+1-727-302-0393",
      "takeaway": "yes",
      "addr_state": "FL",
      "addr_city": "Saint Petersburg",
      "addr_postcode": "33710",
      "addr_street": "66th Street North",
      "addr_housenumber": "3775",
      "value": 331.3747360051897
    },
    {
      "id": 56129,
      "geometry": "POINT (-82.792953 27.843587)",
      "poi_name": "Chicken Salad Chick",
      "osm_id": 10224946342,
      "amenity": "fast_food",
      "cuisine": "chicken",
      "phone": "+1-727-888-5510",
      "takeaway": "yes",
      "addr_state": "FL",
      "addr_city": "Seminole",
      "addr_postcode": "33772",
      "addr_street": "113th St North",
      "addr_housenumber": "7839",
      "value": 331.3747360051897
    },
    {
      "id": 56130,
      "geometry": "POINT (-82.793981 27.841212)",
      "poi_name": "Jersey Mike's Subs",
      "osm_id": 10224946343,
      "amenity": "fast_food",
      "cuisine": "sandwich",
      "opening_hours": "Mo-Su 10:00-21:00",
      "phone": "+1-727-350-5466",
      "takeaway": "yes",
      "addr_state": "FL",
      "addr_city": "Seminole",
      "addr_postcode": "33772",
      "addr_street": "Park Boulevard",
      "addr_housenumber": "11167",
      "value": 331.3747360051897
    },
    {
      "id": 56132,
      "geometry": "POINT (-82.794185 27.841345)",
      "poi_name": "Panda Express",
      "osm_id": 10224946346,
      "amenity": "fast_food",
      "cuisine": "chinese",
      "phone": "+1-727-319-2290",
      "takeaway": "yes",
      "addr_state": "FL",
      "addr_city": "Seminole",
      "addr_postcode": "33772",
      "addr_street": "Park Boulevard",
      "addr_housenumber": "11167",
      "value": 331.3747360051897
    },
    {
      "id": 67987,
      "geometry": "POINT (-82.787806 27.891623)",
      "poi_name": "Rockstar Donuts",
      "osm_id": 11255805644,
      "amenity": "fast_food",
      "cuisine": "donut",
      "website": "https://www.rockstardonutsusa.com/",
      "drive_through": "no",
      "addr_state": "FL",
      "addr_city": "Largo",
      "addr_postcode": "33778",
      "addr_street": "Seminole Boulevard",
      "addr_housenumber": "13002",
      "value": 331.3747360051897
    },
    {
      "id": 83773,
      "geometry": "POINT (-82.684643 27.894502)",
      "poi_name": "Subway",
      "osm_id": 1766480759,
      "amenity": "fast_food",
      "cuisine": "sandwich",
      "wheelchair": "yes",
      "internet_access": "no",
      "takeaway": "yes",
      "drive_through": "no",
      "outdoor_seating": "no",
      "addr_state": "FL",
      "addr_city": "Clearwater",
      "addr_street": "Ulmerton Road",
      "addr_housenumber": "3753",
      "value": 331.3747360051897
    },
    {
      "id": 68017,
      "geometry": "POINT (-82.671404 28.298535)",
      "poi_name": "Charleys Philly Steaks",
      "osm_id": 11256768548,
      "amenity": "fast_food",
      "cuisine": "sandwich",
      "website": "https://www.charleys.com/locations/shoppes-at-golden-acres/",
      "phone": "+17278576011",
      "takeaway": "yes",
      "drive_through": "no",
      "addr_state": "FL",
      "addr_city": "Port Richey",
      "addr_postcode": "34654",
      "addr_street": "Little Road",
      "addr_housenumber": "9754",
      "value": 331.3747360051897
    },
    {
      "id": 83278,
      "geometry": "POINT (-82.684283 27.893242)",
      "poi_name": "Papa John's",
      "osm_id": 1736831389,
      "amenity": "fast_food",
      "cuisine": "pizza",
      "takeaway": "yes",
      "addr_state": "FL",
      "addr_city": "Clearwater",
      "addr_street": "Ulmerton Rd, Suite 103",
      "addr_housenumber": "3700",
      "value": 331.3747360051897
    },
    {
      "id": 83321,
      "geometry": "POINT (-82.68239 27.838062)",
      "poi_name": "Honey Baked Ham",
      "osm_id": 1739211225,
      "amenity": "fast_food",
      "cuisine": "american",
      "internet_access": "no",
      "takeaway": "yes",
      "official_name": "The Honey Baked Ham Company",
      "addr_state": "FL",
      "addr_city": "Pinellas Park",
      "addr_postcode": "33781",
      "addr_street": "34th Street N",
      "addr_housenumber": "7221",
      "value": 331.3747360051897
    },
    {
      "id": 83322,
      "geometry": "POINT (-82.681226 27.834063)",
      "poi_name": "Larry's Giant Subs",
      "osm_id": 1739211226,
      "amenity": "fast_food",
      "cuisine": "sandwich",
      "takeaway": "yes",
      "outdoor_seating": "yes",
      "addr_state": "FL",
      "addr_city": "Pinellas Park",
      "addr_postcode": "33781",
      "addr_street": "US Hwy 19 N",
      "addr_housenumber": "6896",
      "value": 331.3747360051897
    },
    {
      "id": 83691,
      "geometry": "POINT (-82.63579 27.768757)",
      "poi_name": "China Kitchen",
      "osm_id": 1760242378,
      "amenity": "fast_food",
      "cuisine": "chinese",
      "drive_through": "no",
      "addr_state": "FL",
      "addr_city": "Saint Petersburg",
      "addr_postcode": "33701",
      "addr_street": "2nd Avenue South",
      "value": 331.3747360051897
    },
    {
      "id": 83696,
      "geometry": "POINT (-82.635787 27.768389)",
      "poi_name": "Subway",
      "osm_id": 1760242801,
      "amenity": "fast_food",
      "cuisine": "sandwich",
      "takeaway": "yes",
      "drive_through": "no",
      "outdoor_seating": "no",
      "delivery": "no",
      "addr_state": "FL",
      "addr_city": "Saint Petersburg",
      "addr_postcode": "33701",
      "addr_street": "2nd Avenue South",
      "addr_housenumber": "308",
      "value": 331.3747360051897
    },
    {
      "id": 83818,
      "geometry": "POINT (-82.660628 27.892673)",
      "poi_name": "Tropical Smoothie Cafe",
      "osm_id": 1768259900,
      "amenity": "fast_food",
      "cuisine": "juice",
      "takeaway": "yes",
      "drive_through": "no",
      "outdoor_seating": "no",
      "addr_state": "FL",
      "addr_city": "Saint Petersburg",
      "addr_postcode": "33716",
      "addr_street": "Ulmerton Rd",
      "addr_housenumber": "150",
      "value": 331.3747360051897
    },
    {
      "id": 83819,
      "geometry": "POINT (-82.685332 27.845666)",
      "poi_name": "McDonald's",
      "osm_id": 1768291161,
      "amenity": "fast_food",
      "cuisine": "burger",
      "description": "Inside Walmart",
      "website": "https://www.mcdonalds.com/us/en-us/location/fl/pinellas-park/8001-us-highway-19-n-walmart/26466.html",
      "internet_access": "wlan",
      "takeaway": "yes",
      "drive_through": "no",
      "outdoor_seating": "no",
      "addr_state": "FL",
      "addr_city": "Pinellas Park",
      "addr_postcode": "33781",
      "addr_street": "US-19",
      "value": 331.3747360051897
    },
    {
      "id": 83774,
      "geometry": "POINT (-82.683429 27.836713)",
      "poi_name": "Five Guys",
      "osm_id": 1766521133,
      "amenity": "fast_food",
      "cuisine": "burger",
      "takeaway": "yes",
      "drive_through": "no",
      "official_name": "Five Guys Burgers and Fries",
      "outdoor_seating": "yes",
      "addr_state": "FL",
      "value": 331.3747360051897
    },
    {
      "id": 83778,
      "geometry": "POINT (-82.742499 27.960925)",
      "poi_name": "Wendy's",
      "osm_id": 1766550629,
      "amenity": "fast_food",
      "cuisine": "burger",
      "takeaway": "yes",
      "drive_through": "yes",
      "outdoor_seating": "no",
      "addr_state": "FL",
      "addr_city": "Clearwater",
      "addr_postcode": "33759",
      "addr_street": "Gulf to Bay Blvd",
      "value": 331.3747360051897
    },
    {
      "id": 83891,
      "geometry": "POINT (-82.649174 27.828106)",
      "poi_name": "Jack's",
      "osm_id": 1770048272,
      "amenity": "fast_food",
      "cuisine": "burger",
      "takeaway": "yes",
      "addr_state": "FL",
      "addr_city": "Saint Petersburg",
      "addr_postcode": "33702",
      "addr_street": "62nd Avenue North",
      "addr_housenumber": "1050",
      "value": 331.3747360051897
    },
    {
      "id": 83779,
      "geometry": "POINT (-82.72676 27.958781)",
      "poi_name": "Moe's Southwest Grill",
      "osm_id": 1766603778,
      "amenity": "fast_food",
      "cuisine": "mexican",
      "wheelchair": "yes",
      "operator": "Jesse S. King",
      "website": "www.moestampabay.com",
      "internet_access": "no",
      "phone": "+1-727-723-8225",
      "takeaway": "yes",
      "outdoor_seating": "yes",
      "delivery": "no",
      "addr_state": "FL",
      "addr_city": "Clearwater",
      "addr_postcode": "33759",
      "addr_street": "Gulf to Bay Boulevard",
      "addr_housenumber": "2679",
      "value": 331.3747360051897
    },
    {
      "id": 83898,
      "geometry": "POINT (-82.638303 27.832168)",
      "poi_name": "Ricky P's Po Boys",
      "osm_id": 1770144594,
      "amenity": "fast_food",
      "cuisine": "sandwich",
      "internet_access": "no",
      "takeaway": "yes",
      "drive_through": "no",
      "outdoor_seating": "no",
      "addr_state": "FL",
      "addr_city": "Saint Petersburg",
      "addr_postcode": "33703",
      "addr_street": "4th Street North",
      "value": 331.3747360051897
    },
    {
      "id": 83780,
      "geometry": "POINT (-82.726529 27.958779)",
      "poi_name": "Panera Bread",
      "osm_id": 1766603779,
      "amenity": "fast_food",
      "cuisine": "sandwich;bakery",
      "takeaway": "yes",
      "addr_state": "FL",
      "addr_city": "Clearwater",
      "addr_postcode": "33759",
      "addr_street": "US Highway 19",
      "addr_housenumber": "2679",
      "value": 331.3747360051897
    },
    {
      "id": 83899,
      "geometry": "POINT (-82.638256 27.836455)",
      "poi_name": "Saint Pete Bagel Company",
      "osm_id": 1770154949,
      "amenity": "fast_food",
      "cuisine": "bagel",
      "wheelchair": "yes",
      "website": "https://www.stpetebagelco.com/",
      "internet_access": "no",
      "phone": "+1-727-522-3377",
      "takeaway": "yes",
      "drive_through": "no",
      "outdoor_seating": "yes",
      "delivery": "no",
      "addr_state": "FL",
      "addr_city": "Saint Petersburg",
      "addr_postcode": "33702",
      "addr_street": "4th Street North",
      "addr_housenumber": "7043",
      "value": 331.3747360051897
    },
    {
      "id": 83900,
      "geometry": "POINT (-82.647009 28.03365)",
      "poi_name": "Taco Bell",
      "osm_id": 1770167179,
      "amenity": "fast_food",
      "cuisine": "tex-mex",
      "website": "https://locations.tacobell.com/fl/tampa/13917-w--hillsborough-ave.html",
      "takeaway": "yes",
      "drive_through": "yes",
      "outdoor_seating": "no",
      "addr_state": "FL",
      "addr_city": "Tampa",
      "addr_postcode": "33635",
      "addr_street": "West Hillsborough Avenue",
      "value": 331.3747360051897
    },
    {
      "id": 83901,
      "geometry": "POINT (-82.657944 28.037537)",
      "poi_name": "Moe's Southwest Grill",
      "osm_id": 1770172864,
      "amenity": "fast_food",
      "cuisine": "mexican",
      "takeaway": "yes",
      "outdoor_seating": "no",
      "addr_state": "FL",
      "addr_city": "Oldsmar",
      "addr_postcode": "34677",
      "addr_street": "Tampa Rd",
      "addr_housenumber": "4011",
      "value": 331.3747360051897
    },
    {
      "id": 83788,
      "geometry": "POINT (-82.727655 27.960068)",
      "poi_name": "Five Guys",
      "osm_id": 1767129686,
      "amenity": "fast_food",
      "cuisine": "burger",
      "internet_access": "no",
      "takeaway": "yes",
      "drive_through": "no",
      "official_name": "Five Guys Burgers and Fries",
      "outdoor_seating": "yes",
      "addr_state": "FL",
      "addr_city": "Clearwater",
      "addr_postcode": "33759",
      "addr_street": "Gulf to Bay Boulevard",
      "addr_housenumber": "2689",
      "value": 331.3747360051897
    },
    {
      "id": 83909,
      "geometry": "POINT (-82.639026 27.852804)",
      "poi_name": "Coney Island",
      "osm_id": 1770443114,
      "amenity": "fast_food",
      "cuisine": "fried_food",
      "takeaway": "yes",
      "drive_through": "no",
      "outdoor_seating": "no",
      "addr_state": "FL",
      "addr_city": "Saint Petersburg",
      "addr_postcode": "33702",
      "addr_street": "4th Street North",
      "value": 331.3747360051897
    },
    {
      "id": 83793,
      "geometry": "POINT (-82.730865 27.939501)",
      "poi_name": "Papa John's",
      "osm_id": 1767226543,
      "amenity": "fast_food",
      "cuisine": "pizza",
      "internet_access": "no",
      "takeaway": "yes",
      "drive_through": "no",
      "outdoor_seating": "no",
      "delivery": "yes",
      "addr_state": "FL",
      "addr_city": "Largo",
      "addr_postcode": "33764",
      "addr_street": "US Hwy 19 N",
      "addr_housenumber": "18378",
      "value": 331.3747360051897
    },
    {
      "id": 83954,
      "geometry": "POINT (-82.764847 28.018982)",
      "poi_name": "Dunkin'",
      "osm_id": 1771061800,
      "amenity": "fast_food",
      "cuisine": "donut;coffee_shop",
      "takeaway": "yes",
      "drive_through": "yes",
      "outdoor_seating": "no",
      "addr_state": "FL",
      "addr_city": "Clearwater",
      "addr_postcode": "33761",
      "addr_street": "Main St",
      "value": 331.3747360051897
    },
    {
      "id": 83795,
      "geometry": "POINT (-82.730503 27.915696)",
      "poi_name": "Einstein Bros. Bagels",
      "osm_id": 1767244121,
      "amenity": "fast_food",
      "cuisine": "bagel",
      "description": "Store 3452",
      "wheelchair": "yes",
      "phone": "+1 727 533 0800",
      "takeaway": "yes",
      "drive_through": "no",
      "outdoor_seating": "no",
      "delivery": "no",
      "addr_state": "FL",
      "addr_city": "Largo",
      "addr_postcode": "33764",
      "addr_street": "East Bay Drive",
      "addr_housenumber": "5395",
      "value": 331.3747360051897
    },
    {
      "id": 83981,
      "geometry": "POINT (-82.72752 27.96116)",
      "poi_name": "Chipotle",
      "osm_id": 1772755766,
      "amenity": "fast_food",
      "cuisine": "mexican",
      "internet_access": "no",
      "takeaway": "yes",
      "drive_through": "no",
      "official_name": "Chipotle Mexican Grill",
      "outdoor_seating": "yes",
      "addr_state": "FL",
      "addr_city": "Clearwater",
      "addr_postcode": "33759",
      "addr_street": "Gulf to Bay Boulevard",
      "value": 331.3747360051897
    },
    {
      "id": 83982,
      "geometry": "POINT (-82.722285 27.960878)",
      "poi_name": "Subway",
      "osm_id": 1772757608,
      "amenity": "fast_food",
      "cuisine": "sandwich",
      "takeaway": "yes",
      "drive_through": "no",
      "outdoor_seating": "no",
      "addr_state": "FL",
      "addr_city": "Clearwater",
      "addr_postcode": "33759",
      "addr_street": "Gulf to Bay Boulevard",
      "addr_housenumber": "2790A",
      "value": 331.3747360051897
    },
    {
      "id": 83983,
      "geometry": "POINT (-82.72881 27.959881)",
      "poi_name": "Jimmy John's",
      "osm_id": 1772836804,
      "amenity": "fast_food",
      "cuisine": "sandwich",
      "takeaway": "yes",
      "drive_through": "no",
      "official_name": "Jimmy John's Gourmet Sandwiches",
      "outdoor_seating": "no",
      "addr_state": "FL",
      "addr_city": "Clearwater",
      "addr_postcode": "33759",
      "addr_street": "Gulf to Bay Boulevard",
      "value": 331.3747360051897
    },
    {
      "id": 83805,
      "geometry": "POINT (-82.70735 28.012508)",
      "poi_name": "Einstein Bros. Bagels",
      "osm_id": 1768130948,
      "amenity": "fast_food",
      "cuisine": "bagel",
      "takeaway": "yes",
      "drive_through": "no",
      "outdoor_seating": "yes",
      "addr_state": "FL",
      "addr_city": "Safety Harbor",
      "addr_postcode": "34695",
      "addr_street": "McMullen Booth Rd",
      "value": 331.3747360051897
    },
    {
      "id": 83809,
      "geometry": "POINT (-82.709928 28.01035)",
      "poi_name": "Subway",
      "osm_id": 1768135923,
      "amenity": "fast_food",
      "cuisine": "sandwich",
      "takeaway": "yes",
      "addr_state": "FL",
      "addr_city": "Safety Harbor",
      "addr_postcode": "33759",
      "addr_street": "N McMullen Booth Rd",
      "value": 331.3747360051897
    },
    {
      "id": 85006,
      "geometry": "POINT (-82.647031 28.033603)",
      "poi_name": "Long John Silver's",
      "osm_id": 1832725297,
      "amenity": "fast_food",
      "cuisine": "seafood",
      "takeaway": "yes",
      "drive_through": "yes",
      "outdoor_seating": "no",
      "addr_state": "FL",
      "addr_postcode": "33635",
      "addr_street": "West Hillsborough Avenue",
      "value": 331.3747360051897
    },
    {
      "id": 84398,
      "geometry": "POINT (-82.679733 27.730031)",
      "poi_name": "Subway",
      "osm_id": 1787984590,
      "amenity": "fast_food",
      "cuisine": "sandwich",
      "internet_access": "no",
      "takeaway": "yes",
      "drive_through": "no",
      "outdoor_seating": "no",
      "addr_state": "FL",
      "addr_city": "Saint Petersburg",
      "addr_postcode": "33711",
      "addr_street": "34th Street South",
      "addr_housenumber": "4193",
      "value": 331.3747360051897
    },
    {
      "id": 85490,
      "geometry": "POINT (-82.644692 27.866806)",
      "poi_name": "Firehouse Subs",
      "osm_id": 1871956724,
      "amenity": "fast_food",
      "cuisine": "sandwich",
      "takeaway": "yes",
      "outdoor_seating": "no",
      "addr_state": "FL",
      "addr_city": "Saint Petersburg",
      "addr_postcode": "33716",
      "addr_street": "Roosevelt Boulevard North",
      "value": 331.3747360051897
    },
    {
      "id": 85492,
      "geometry": "POINT (-82.669602 27.894431)",
      "poi_name": "Domino's",
      "osm_id": 1871981379,
      "amenity": "fast_food",
      "cuisine": "pizza",
      "takeaway": "yes",
      "outdoor_seating": "no",
      "addr_state": "FL",
      "addr_city": "Saint Petersburg",
      "addr_postcode": "33729",
      "addr_street": "Ulmerton Road",
      "value": 331.3747360051897
    },
    {
      "id": 86609,
      "geometry": "POINT (-82.752743 27.809633)",
      "poi_name": "Subway",
      "osm_id": 1940904076,
      "amenity": "fast_food",
      "cuisine": "sandwich",
      "takeaway": "yes",
      "addr_state": "FL",
      "addr_postcode": "33709",
      "value": 331.3747360051897
    },
    {
      "id": 86569,
      "geometry": "POINT (-82.781691 28.050408)",
      "poi_name": "Subway",
      "osm_id": 1938189641,
      "amenity": "fast_food",
      "cuisine": "sandwich",
      "takeaway": "yes",
      "drive_through": "no",
      "outdoor_seating": "no",
      "addr_state": "FL",
      "addr_city": "Dunedin",
      "addr_postcode": "34698",
      "addr_street": "Causeway Blvd",
      "value": 331.3747360051897
    },
    {
      "id": 90234,
      "geometry": "POINT (-82.695813 28.04946)",
      "poi_name": "Panera Bread",
      "osm_id": 1985959242,
      "amenity": "fast_food",
      "cuisine": "sandwich;bakery",
      "internet_access": "wlan",
      "takeaway": "yes",
      "addr_state": "FL",
      "addr_city": "Oldsmar",
      "addr_postcode": "34677",
      "addr_street": "Tampa Rd",
      "addr_housenumber": "3181",
      "value": 331.3747360051897
    },
    {
      "id": 86695,
      "geometry": "POINT (-82.644774 27.866895)",
      "poi_name": "Pita's Republic",
      "osm_id": 1946643120,
      "amenity": "fast_food",
      "cuisine": "sandwich",
      "internet_access": "no",
      "phone": "+1 727 2897038",
      "takeaway": "yes",
      "drive_through": "no",
      "outdoor_seating": "yes",
      "addr_state": "FL",
      "addr_city": "Saint Petersburg",
      "addr_postcode": "33716",
      "addr_street": "Roosevelt Boulevard North",
      "addr_housenumber": "10454",
      "value": 331.3747360051897
    },
    {
      "id": 86696,
      "geometry": "POINT (-82.645684 27.866982)",
      "poi_name": "Westshore Pizza",
      "osm_id": 1946645887,
      "amenity": "fast_food",
      "cuisine": "pizza",
      "takeaway": "yes",
      "drive_through": "no",
      "addr_state": "FL",
      "addr_city": "Saint Petersburg",
      "addr_postcode": "33716",
      "addr_street": "Roosevelt Boulevard North",
      "value": 331.3747360051897
    },
    {
      "id": 88345,
      "geometry": "POINT (-82.794492 27.841586)",
      "poi_name": "Chipotle",
      "osm_id": 8779950485,
      "amenity": "fast_food",
      "cuisine": "mexican",
      "opening_hours": "Mo-Su 10:45-22:00",
      "takeaway": "yes",
      "drive_through": "no",
      "official_name": "Chipotle Mexican Grill",
      "addr_state": "FL",
      "addr_city": "Seminole",
      "addr_postcode": "33772",
      "addr_street": "Park Boulevard North",
      "addr_housenumber": "11241",
      "value": 331.3747360051897
    },
    {
      "id": 90599,
      "geometry": "POINT (-82.739499 28.070445)",
      "poi_name": "Chick-fil-A",
      "osm_id": 2003232599,
      "amenity": "fast_food",
      "cuisine": "chicken",
      "phone": "+1-727-786-8545",
      "takeaway": "yes",
      "drive_through": "yes",
      "outdoor_seating": "yes",
      "addr_state": "FL",
      "addr_city": "Palm Harbor",
      "addr_postcode": "34684",
      "addr_street": "US Hwy 19 N",
      "addr_housenumber": "32800",
      "value": 331.3747360051897
    },
    {
      "id": 90340,
      "geometry": "POINT (-82.762722 27.918127)",
      "poi_name": "Little Caesars",
      "osm_id": 1990604370,
      "amenity": "fast_food",
      "cuisine": "pizza",
      "website": "https://littlecaesars.com/en-us/store/7594/",
      "takeaway": "yes",
      "drive_through": "yes",
      "outdoor_seating": "no",
      "addr_state": "FL",
      "addr_city": "Largo",
      "addr_postcode": "33771",
      "addr_street": "Imperial Palm Ct",
      "value": 331.3747360051897
    },
    {
      "id": 90512,
      "geometry": "POINT (-82.727979 27.836543)",
      "poi_name": "Subway",
      "osm_id": 1999083203,
      "amenity": "fast_food",
      "cuisine": "sandwich",
      "takeaway": "yes",
      "drive_through": "no",
      "outdoor_seating": "no",
      "addr_state": "FL",
      "addr_city": "Pinellas Park",
      "addr_postcode": "33781",
      "addr_street": "66th Street North",
      "value": 331.3747360051897
    },
    {
      "id": 90542,
      "geometry": "POINT (-82.729576 27.87403)",
      "poi_name": "Subway",
      "osm_id": 2001440422,
      "amenity": "fast_food",
      "cuisine": "sandwich",
      "takeaway": "yes",
      "outdoor_seating": "no",
      "addr_state": "FL",
      "addr_city": "Pinellas Park",
      "addr_postcode": "33764",
      "addr_street": "66th Street North",
      "value": 331.3747360051897
    },
    {
      "id": 90343,
      "geometry": "POINT (-82.731368 27.894034)",
      "poi_name": "Bono's Hot Dogs",
      "osm_id": 1990940925,
      "amenity": "fast_food",
      "cuisine": "american",
      "internet_access": "no",
      "takeaway": "yes",
      "drive_through": "no",
      "outdoor_seating": "yes",
      "addr_state": "FL",
      "addr_city": "Largo",
      "addr_postcode": "33771",
      "addr_street": "Ulmerton Road",
      "value": 331.3747360051897
    },
    {
      "id": 90345,
      "geometry": "POINT (-82.744853 27.894867)",
      "poi_name": "China Wok",
      "osm_id": 1990968188,
      "amenity": "fast_food",
      "cuisine": "chinese",
      "takeaway": "yes",
      "outdoor_seating": "no",
      "addr_state": "FL",
      "addr_city": "Largo",
      "addr_postcode": "33771",
      "addr_street": "Ulmerton Road",
      "value": 331.3747360051897
    },
    {
      "id": 90347,
      "geometry": "POINT (-82.744577 27.894966)",
      "poi_name": "Subway",
      "osm_id": 1990970916,
      "amenity": "fast_food",
      "cuisine": "sandwich",
      "wheelchair": "yes",
      "internet_access": "no",
      "takeaway": "yes",
      "drive_through": "no",
      "outdoor_seating": "no",
      "delivery": "no",
      "addr_state": "FL",
      "addr_city": "Largo",
      "addr_postcode": "33771",
      "addr_street": "Ulmerton Road",
      "value": 331.3747360051897
    },
    {
      "id": 90348,
      "geometry": "POINT (-82.745086 27.895642)",
      "poi_name": "House of Bagels",
      "osm_id": 1990975872,
      "amenity": "fast_food",
      "cuisine": "bagel",
      "takeaway": "yes",
      "drive_through": "no",
      "outdoor_seating": "no",
      "addr_state": "FL",
      "addr_city": "Largo",
      "addr_postcode": "33771",
      "addr_street": "Ulmerton Road",
      "value": 331.3747360051897
    },
    {
      "id": 90922,
      "geometry": "POINT (-82.784441 27.893653)",
      "poi_name": "Jersey Mike's Subs",
      "osm_id": 2027081070,
      "amenity": "fast_food",
      "cuisine": "sandwich",
      "takeaway": "yes",
      "outdoor_seating": "no",
      "addr_state": "FL",
      "addr_city": "Largo",
      "addr_postcode": "33771",
      "addr_street": "Ulmerton Road",
      "addr_housenumber": "10500",
      "value": 331.3747360051897
    },
    {
      "id": 90873,
      "geometry": "POINT (-82.67658 28.043718)",
      "poi_name": "Subway",
      "osm_id": 2023933559,
      "amenity": "fast_food",
      "cuisine": "sandwich",
      "internet_access": "no",
      "takeaway": "yes",
      "outdoor_seating": "no",
      "delivery": "no",
      "addr_state": "FL",
      "addr_city": "Oldsmar",
      "addr_postcode": "34677",
      "addr_street": "Tampa Road",
      "value": 331.3747360051897
    },
    {
      "id": 90834,
      "geometry": "POINT (-82.781532 27.892991)",
      "poi_name": "Firehouse Subs",
      "osm_id": 2020572677,
      "amenity": "fast_food",
      "cuisine": "sandwich",
      "takeaway": "yes",
      "drive_through": "no",
      "outdoor_seating": "no",
      "addr_state": "FL",
      "addr_city": "Largo",
      "addr_postcode": "33771",
      "addr_street": "Ulmerton Road",
      "value": 331.3747360051897
    },
    {
      "id": 91376,
      "geometry": "POINT (-82.63779 27.80146)",
      "poi_name": "Westshore Pizza",
      "osm_id": 2062493992,
      "amenity": "fast_food",
      "cuisine": "pizza",
      "takeaway": "yes",
      "drive_through": "no",
      "outdoor_seating": "no",
      "delivery": "yes",
      "addr_state": "FL",
      "addr_city": "Saint Petersburg",
      "addr_postcode": "33704",
      "addr_street": "4th Street North",
      "addr_housenumber": "3187",
      "value": 331.3747360051897
    },
    {
      "id": 92644,
      "geometry": "POINT (-82.63831 27.784148)",
      "poi_name": "Tropical Smoothie Cafe",
      "osm_id": 2129788552,
      "amenity": "fast_food",
      "cuisine": "juice",
      "website": "https://www.tropicalsmoothie.com/",
      "takeaway": "yes",
      "drive_through": "no",
      "outdoor_seating": "no",
      "delivery": "no",
      "addr_city": "Saint Petersburg",
      "addr_street": "4th Street North",
      "value": 331.3747360051897
    },
    {
      "id": 92752,
      "geometry": "POINT (-82.638133 27.825808)",
      "poi_name": "Domino's",
      "osm_id": 2133066450,
      "amenity": "fast_food",
      "cuisine": "pizza",
      "website": "https://pizza.dominos.com/",
      "internet_access": "no",
      "phone": "727.522.3030",
      "takeaway": "yes",
      "outdoor_seating": "no",
      "delivery": "yes",
      "addr_state": "FL",
      "addr_city": "Saint Petersburg",
      "addr_postcode": "33703",
      "addr_street": "4th Street North",
      "addr_housenumber": "5931",
      "value": 331.3747360051897
    },
    {
      "id": 92767,
      "geometry": "POINT (-82.639148 27.85719)",
      "poi_name": "Einstein Bros. Bagels",
      "osm_id": 2133383113,
      "amenity": "fast_food",
      "cuisine": "bagel",
      "wheelchair": "yes",
      "website": "https://www.einsteinbros.com/",
      "internet_access": "wlan",
      "phone": "727.578.9800",
      "takeaway": "yes",
      "outdoor_seating": "no",
      "delivery": "no",
      "addr_state": "FL",
      "addr_city": "Saint Petersburg",
      "addr_postcode": "33702",
      "addr_street": "4th Street North",
      "addr_housenumber": "9346",
      "value": 331.3747360051897
    },
    {
      "id": 99654,
      "geometry": "POINT (-82.79009 28.01208)",
      "poi_name": "Taco Baby",
      "osm_id": 6559176525,
      "amenity": "fast_food",
      "cuisine": "mexican",
      "drive_through": "no",
      "addr_state": "FL",
      "addr_city": "Dunedin",
      "addr_postcode": "34698",
      "addr_street": "Main Street",
      "addr_housenumber": "235",
      "value": 331.3747360051897
    },
    {
      "id": 125568,
      "geometry": "POINT (-82.678966 27.785706)",
      "poi_name": "Wingstop",
      "osm_id": 6965082265,
      "amenity": "fast_food",
      "cuisine": "wings",
      "takeaway": "yes",
      "addr_city": "Saint Petersburg",
      "addr_street": "34th Street North",
      "addr_housenumber": "1411",
      "value": 331.3747360051897
    },
    {
      "id": 111152,
      "geometry": "POINT (-82.764472 27.917047)",
      "poi_name": "Panda Express",
      "osm_id": 3733422629,
      "amenity": "fast_food",
      "cuisine": "chinese",
      "takeaway": "yes",
      "addr_state": "FL",
      "addr_city": "Largo",
      "addr_postcode": "33771",
      "addr_street": "East Bay Drive",
      "addr_housenumber": "2200",
      "value": 331.3747360051897
    },
    {
      "id": 168796,
      "geometry": "POINT (-82.732095 28.019871)",
      "poi_name": "Panera Bread",
      "osm_id": 2278595622,
      "amenity": "fast_food",
      "cuisine": "sandwich;bakery",
      "takeaway": "yes",
      "drive_through": "no",
      "outdoor_seating": "yes",
      "addr_city": "Clearwater",
      "addr_postcode": "33761",
      "addr_street": "Main Street",
      "value": 331.3747360051897
    },
    {
      "id": 168797,
      "geometry": "POINT (-82.73209 28.02018)",
      "poi_name": "Smoothie King",
      "osm_id": 2278596447,
      "amenity": "fast_food",
      "cuisine": "juice",
      "takeaway": "yes",
      "outdoor_seating": "no",
      "delivery": "no",
      "addr_city": "Clearwater",
      "addr_postcode": "33761",
      "addr_street": "Main Street",
      "value": 331.3747360051897
    },
    {
      "id": 170161,
      "geometry": "POINT (-82.712668 27.821931)",
      "poi_name": "New China",
      "osm_id": 2328245047,
      "amenity": "fast_food",
      "cuisine": "chinese",
      "phone": "+1-727-547-8881",
      "takeaway": "yes",
      "drive_through": "no",
      "outdoor_seating": "no",
      "delivery": "yes",
      "addr_city": "Saint Petersburg",
      "addr_street": "58th Street North",
      "addr_housenumber": "5448",
      "value": 331.3747360051897
    },
    {
      "id": 171001,
      "geometry": "POINT (-82.732263 28.013058)",
      "poi_name": "Subway",
      "osm_id": 2356426084,
      "amenity": "fast_food",
      "cuisine": "sandwich",
      "takeaway": "yes",
      "drive_through": "no",
      "delivery": "no",
      "addr_city": "Clearwater",
      "addr_street": "Countryside Boulevard",
      "addr_housenumber": "2561",
      "value": 331.3747360051897
    },
    {
      "id": 172011,
      "geometry": "POINT (-82.637687 27.80085)",
      "poi_name": "Great Wall",
      "osm_id": 2391967530,
      "amenity": "fast_food",
      "cuisine": "chinese",
      "takeaway": "yes",
      "drive_through": "no",
      "outdoor_seating": "no",
      "addr_city": "Saint Petersburg",
      "addr_street": "4th Street North",
      "addr_housenumber": "3153",
      "value": 331.3747360051897
    },
    {
      "id": 174735,
      "geometry": "POINT (-82.758945 27.961014)",
      "poi_name": "Burger King",
      "osm_id": 2495049961,
      "amenity": "fast_food",
      "cuisine": "burger",
      "takeaway": "yes",
      "drive_through": "yes",
      "outdoor_seating": "no",
      "delivery": "no",
      "addr_city": "Clearwater",
      "addr_street": "Gulf to Bay Boulevard",
      "addr_housenumber": "1888",
      "value": 331.3747360051897
    },
    {
      "id": 175316,
      "geometry": "POINT (-82.642449 27.865773)",
      "poi_name": "Jersey Mike's Subs",
      "osm_id": 2513420774,
      "amenity": "fast_food",
      "cuisine": "sandwich",
      "takeaway": "yes",
      "outdoor_seating": "yes",
      "addr_state": "FL",
      "addr_city": "Saint Petersburg",
      "addr_postcode": "33716",
      "addr_street": "Roosevelt Boulevard North",
      "addr_housenumber": "10304",
      "value": 331.3747360051897
    },
    {
      "id": 193024,
      "geometry": "POINT (-82.729699 27.939578)",
      "poi_name": "Subway",
      "osm_id": 1490546762,
      "amenity": "fast_food",
      "cuisine": "sandwich",
      "internet_access": "no",
      "takeaway": "yes",
      "drive_through": "no",
      "outdoor_seating": "no",
      "delivery": "no",
      "addr_state": "FL",
      "addr_city": "Clearwater",
      "addr_postcode": "33759",
      "addr_street": "US 19",
      "addr_housenumber": "18415",
      "value": 331.3747360051897
    },
    {
      "id": 193028,
      "geometry": "POINT (-82.684678 27.83878)",
      "poi_name": "Chipotle",
      "osm_id": 1491016261,
      "amenity": "fast_food",
      "cuisine": "mexican",
      "takeaway": "yes",
      "drive_through": "no",
      "official_name": "Chipotle Mexican Grill",
      "outdoor_seating": "yes",
      "addr_state": "FL",
      "addr_city": "Pinellas Park",
      "addr_postcode": "33781",
      "addr_street": "Park Blvd",
      "addr_housenumber": "3700",
      "value": 331.3747360051897
    },
    {
      "id": 192134,
      "geometry": "POINT (-82.638087 27.803625)",
      "poi_name": "Little Caesars",
      "osm_id": 1423609747,
      "amenity": "fast_food",
      "cuisine": "pizza",
      "takeaway": "yes",
      "outdoor_seating": "no",
      "addr_state": "FL",
      "addr_city": "Saint Petersburg",
      "addr_postcode": "33704",
      "addr_street": "4th Street North",
      "addr_housenumber": "3463",
      "value": 331.3747360051897
    },
    {
      "id": 200784,
      "geometry": "POINT (-82.639036 27.78995)",
      "poi_name": "Panera Bread",
      "osm_id": 597425391,
      "amenity": "fast_food",
      "cuisine": "sandwich;bakery",
      "internet_access": "wlan",
      "takeaway": "yes",
      "outdoor_seating": "yes",
      "delivery": "no",
      "addr_state": "FL",
      "addr_city": "Saint Petersburg",
      "addr_street": "4th Street North",
      "value": 331.3747360051897
    },
    {
      "id": 201785,
      "geometry": "POINT (-82.638111 27.816886)",
      "poi_name": "Firehouse Subs",
      "osm_id": 658954412,
      "amenity": "fast_food",
      "cuisine": "sandwich",
      "internet_access": "no",
      "takeaway": "yes",
      "outdoor_seating": "no",
      "delivery": "no",
      "addr_state": "FL",
      "addr_city": "Saint Petersburg",
      "addr_postcode": "33714",
      "addr_street": "4th Street North",
      "value": 331.3747360051897
    },
    {
      "id": 205060,
      "geometry": "POINT (-82.681118 27.770692)",
      "poi_name": "Church's Chicken",
      "osm_id": 7155217785,
      "amenity": "fast_food",
      "cuisine": "chicken",
      "takeaway": "yes",
      "addr_state": "FL",
      "addr_city": "Saint Petersburg",
      "addr_street": "Central Avenue",
      "value": 331.3747360051897
    },
    {
      "id": 220264,
      "geometry": "POINT (-82.760609 27.871838)",
      "poi_name": "Smashburger",
      "osm_id": 9367101961,
      "amenity": "fast_food",
      "cuisine": "burger",
      "website": "https://smashburger.com/",
      "phone": "727-914-6725",
      "takeaway": "yes",
      "addr_state": "FL",
      "addr_city": "Seminole",
      "addr_postcode": "33777",
      "addr_street": "Starkey Road",
      "addr_housenumber": "10801",
      "value": 331.3747360051897
    },
    {
      "id": 220265,
      "geometry": "POINT (-82.760613 27.871687)",
      "poi_name": "Panera Bread",
      "osm_id": 9367101962,
      "amenity": "fast_food",
      "cuisine": "sandwich;bakery",
      "website": "https://locations.panerabread.com/fl/largo/10801-starkey-road.html",
      "phone": "(727) 320-8830",
      "takeaway": "yes",
      "addr_state": "FL",
      "addr_city": "Largo",
      "addr_postcode": "33777",
      "addr_street": "Starkey Road",
      "addr_housenumber": "10801",
      "value": 331.3747360051897
    },
    {
      "id": 220266,
      "geometry": "POINT (-82.760534 27.870839)",
      "poi_name": "Smoothie King",
      "osm_id": 9367101963,
      "amenity": "fast_food",
      "cuisine": "juice",
      "website": "https://locations.smoothieking.com/ll/US/FL/Largo/10801-Starkey-Rd_-#23",
      "phone": "(727) 954-6857",
      "takeaway": "yes",
      "addr_state": "FL",
      "addr_city": "Largo",
      "addr_postcode": "33777",
      "addr_street": "Starkey Road",
      "addr_housenumber": "10801",
      "value": 331.3747360051897
    },
    {
      "id": 226871,
      "geometry": "POINT (-82.763078 27.892807)",
      "poi_name": "Domino's",
      "osm_id": 11171118586,
      "amenity": "fast_food",
      "cuisine": "pizza",
      "takeaway": "yes",
      "addr_state": "FL",
      "addr_city": "Largo",
      "addr_postcode": "33773",
      "addr_street": "Starkey Road",
      "addr_housenumber": "13220",
      "value": 331.3747360051897
    },
    {
      "id": 224752,
      "geometry": "POINT (-82.754566 27.812505)",
      "poi_name": "Steak 'n Shake",
      "osm_id": 11098441788,
      "amenity": "fast_food",
      "cuisine": "burger",
      "opening_hours": "Mo-Su 10:00-22:00",
      "website": "https://www.steaknshake.com/locations/fl-st-petersburg-park-street/",
      "phone": "+1-727-545-0948",
      "takeaway": "yes",
      "drive_through": "yes",
      "addr_state": "FL",
      "addr_city": "Saint Petersburg",
      "addr_postcode": "33709",
      "addr_street": "Park Street North",
      "addr_housenumber": "4480",
      "value": 331.3747360051897
    },
    {
      "id": 220311,
      "geometry": "POINT (-82.788103 27.956745)",
      "poi_name": "Marco's Pizza",
      "osm_id": 9368846623,
      "amenity": "fast_food",
      "cuisine": "pizza",
      "takeaway": "yes",
      "addr_state": "FL",
      "addr_city": "Clearwater",
      "addr_postcode": "33756",
      "addr_street": "South Missouri Avenue",
      "addr_housenumber": "810",
      "value": 331.3747360051897
    },
    {
      "id": 231238,
      "geometry": "POINT (-82.647447 27.771311)",
      "poi_name": "Pizza Box",
      "osm_id": 4460713290,
      "amenity": "fast_food",
      "addr_state": "FL",
      "addr_city": "Saint Petersburg",
      "addr_postcode": "33701",
      "addr_street": "Central Avenue",
      "addr_housenumber": "923",
      "value": 331.3747360051897
    },
    {
      "id": 241616,
      "geometry": "POINT (-82.638266 27.785548)",
      "poi_name": "Smoothie King",
      "osm_id": 6032410742,
      "amenity": "fast_food",
      "cuisine": "juice",
      "website": "https://locations.smoothieking.com/ll/US/FL/St_-Petersburg/1335-4th-Street-North",
      "takeaway": "yes",
      "addr_state": "FL",
      "addr_city": "Saint Petersburg",
      "addr_postcode": "33701",
      "addr_street": "4th Street North",
      "addr_housenumber": "1335",
      "value": 331.3747360051897
    },
    {
      "id": 239941,
      "geometry": "POINT (-82.698318 27.838825)",
      "poi_name": "Culver's",
      "osm_id": 5943292019,
      "amenity": "fast_food",
      "cuisine": "burger",
      "opening_hours": "10:00-22:00",
      "website": "https://www.culvers.com/restaurants/pinellas-park-fl-park-blvd",
      "phone": "+1-727-440-0111",
      "takeaway": "yes",
      "addr_state": "FL",
      "addr_city": "Pinellas Park",
      "addr_street": "Park Boulevard",
      "addr_housenumber": "4702",
      "value": 331.3747360051897
    },
    {
      "id": 239942,
      "geometry": "POINT (-82.67892 27.786136)",
      "poi_name": "Culver's",
      "osm_id": 5943292020,
      "amenity": "fast_food",
      "cuisine": "burger",
      "opening_hours": "10:00-24:00",
      "website": "https://www.culvers.com/restaurants/st-petersburg-fl-34th-st",
      "phone": "+1 727-800-5321",
      "takeaway": "yes",
      "addr_state": "FL",
      "addr_city": "Saint Petersburg",
      "addr_postcode": "33713",
      "addr_street": "34th Street North",
      "addr_housenumber": "1451",
      "value": 331.3747360051897
    },
    {
      "id": 244388,
      "geometry": "POINT (-82.709726 28.06109)",
      "poi_name": "Five Guys",
      "osm_id": 7721828084,
      "amenity": "fast_food",
      "cuisine": "burger",
      "takeaway": "yes",
      "drive_through": "no",
      "official_name": "Five Guys Burgers and Fries",
      "addr_state": "FL",
      "addr_city": "Palm Harbor",
      "addr_postcode": "34685",
      "addr_street": "East Lake Road",
      "addr_housenumber": "300",
      "value": 331.3747360051897
    }
  ],
  "answer_type": "loc",
  "question_entities": {
    "[2]": {
      "distance": 190000,
      "text": "190 kilometers"
    },
    "[3]": {
      "main_category": "tourism",
      "sub_category": "aquarium",
      "display_name": "Parker Manatee Aquarium, Bradenton, FL",
      "geo_wkt": "POINT (-82.571569 27.497999)",
      "poi": {
        "id": 2533,
        "geometry": "POINT (-82.571569 27.497999)",
        "poi_name": "Parker Manatee Aquarium",
        "osm_id": 493892785,
        "tourism": "aquarium",
        "fee": "yes",
        "addr_state": "FL",
        "addr_city": "Bradenton",
        "addr_postcode": "34205",
        "addr_street": "10th Street West",
        "addr_housenumber": "201"
      }
    },
    "[4]": {
      "main_category": "leisure",
      "sub_category": "park",
      "display_name": "Florida Botanical Garden, Largo, FL",
      "geo_wkt": "POINT (-82.808431 27.883426)",
      "poi": {
        "id": 248580,
        "geometry": "POINT (-82.808431 27.883426)",
        "poi_name": "Florida Botanical Garden",
        "osm_id": 4641286338,
        "leisure": "park",
        "wikidata": "Q7734512",
        "addr_state": "FL",
        "addr_city": "Largo",
        "addr_postcode": "33774",
        "addr_street": "Ulmerton Road",
        "addr_housenumber": "12520"
      }
    },
    "[1]": {
      "main_category": "amenity",
      "sub_category": "fast_food"
    }
  },
  "id": 1236,
  "type": "range:towards+loc"
}