{
  "question": "Where can I find a gallery that's 40 kilometers from Golden Gate Bridge Lookout, Sausalito, CA?",
  "sql": "SELECT * FROM pois\nWHERE ST_DWithin(pois.geometry, ST_GeomFromText('POINT (-122.486003 37.82872)',4326)::geography, 40000)\nAND tourism = 'gallery';\n",
  "answers": [
    {
      "id": 591,
      "geometry": "POINT (-122.419452 37.752285)",
      "poi_name": "Campfire Gallery",
      "osm_id": 2618099677,
      "tourism": "gallery",
      "addr_city": "San Francisco",
      "addr_street": "24th Street",
      "addr_housenumber": "3344"
    },
    {
      "id": 644,
      "geometry": "POINT (-122.403921 37.78807)",
      "poi_name": "Gallery Paule Anglim",
      "osm_id": 2627794649,
      "tourism": "gallery",
      "website": "https://www.gallerypauleanglim.com/",
      "phone": "(415) 433-2710",
      "wikidata": "Q5518998",
      "addr_city": "San Francisco",
      "addr_postcode": "94108",
      "addr_street": "Geary Street",
      "addr_housenumber": "14"
    },
    {
      "id": 645,
      "geometry": "POINT (-122.421631 37.76552)",
      "poi_name": "ArtZone 461 Gallery",
      "osm_id": 2627803906,
      "tourism": "gallery",
      "website": "http://www.artzone461.com/",
      "phone": "415.441.8680",
      "addr_city": "San Francisco",
      "addr_postcode": "94103",
      "addr_street": "Valencia Street",
      "addr_housenumber": "461"
    },
    {
      "id": 2942,
      "geometry": "POINT (-122.423189 37.806195)",
      "poi_name": "Col Gallery",
      "osm_id": 10087741500,
      "tourism": "gallery",
      "addr_state": "CA",
      "addr_city": "San Francisco",
      "addr_postcode": "94109",
      "addr_street": "Beach Street",
      "addr_housenumber": "887"
    },
    {
      "id": 3238,
      "geometry": "POINT (-122.502264 37.756723)",
      "poi_name": "The Great Highway",
      "osm_id": 10251330871,
      "tourism": "gallery",
      "website": "https://thegreathighway.com/",
      "addr_state": "CA",
      "addr_city": "San Francisco",
      "addr_postcode": "94122",
      "addr_street": "Lawton Street",
      "addr_housenumber": "3649"
    },
    {
      "id": 3665,
      "geometry": "POINT (-122.270127 37.80409)",
      "poi_name": "Joyce Gordon Gallery",
      "osm_id": 5534711410,
      "tourism": "gallery",
      "addr_state": "CA",
      "addr_city": "Oakland",
      "addr_street": "14th Street",
      "addr_housenumber": "406"
    },
    {
      "id": 4546,
      "geometry": "POINT (-122.492264 37.634102)",
      "poi_name": "7.3.1 Designs",
      "osm_id": 11306432005,
      "tourism": "gallery",
      "phone": "+1-650-735-5437",
      "addr_state": "CA",
      "addr_city": "Pacifica",
      "addr_postcode": "94044",
      "addr_street": "Palmetto Avenue",
      "addr_housenumber": "1932"
    },
    {
      "id": 4870,
      "geometry": "POINT (-122.415253 37.786585)",
      "poi_name": "Mini Mart",
      "osm_id": 9659806925,
      "tourism": "gallery",
      "wheelchair": "yes",
      "website": "https://www.minimartsf.com/",
      "addr_state": "CA",
      "addr_city": "San Francisco",
      "addr_street": "Geary Street",
      "addr_housenumber": "720"
    },
    {
      "id": 5317,
      "geometry": "POINT (-122.498393 37.742185)",
      "poi_name": "Far Out Gallery",
      "osm_id": 718375841,
      "tourism": "gallery",
      "addr_state": "CA",
      "addr_city": "San Francisco",
      "addr_postcode": "94116",
      "addr_street": "Taraval Street",
      "addr_housenumber": "3004"
    },
    {
      "id": 6844,
      "geometry": "POINT (-122.40614 37.792844)",
      "poi_name": "Jessica Silverman",
      "osm_id": 8727307961,
      "tourism": "gallery",
      "website": "https://jessicasilvermangallery.com/",
      "phone": "+1 (415) 255-9508",
      "addr_state": "CA",
      "addr_city": "San Francisco",
      "addr_postcode": "94108",
      "addr_street": "Grant Avenue",
      "addr_housenumber": "621"
    },
    {
      "id": 6962,
      "geometry": "POINT (-122.286507 37.89111)",
      "poi_name": "Art Thou",
      "osm_id": 8787321667,
      "tourism": "gallery",
      "fee": "no",
      "opening_hours": "We-Sa 10:00-14:00",
      "website": "https://www.theartthougallery.com/",
      "phone": "5105257779",
      "addr_state": "CA",
      "addr_city": "Berkeley",
      "addr_postcode": "94707",
      "addr_street": "Solano Avenue",
      "addr_housenumber": "1533"
    },
    {
      "id": 9655,
      "geometry": "POINT (-122.285297 37.818925)",
      "poi_name": "Aggregate Space Gallery",
      "osm_id": 8910728453,
      "description": "ASG is a charitable, artist-run exhibition and performance space in West Oakland that prioritizes the exhibition of artwork that generally can\u2019t be seen elsewhere \u2013 our mantra is \u201cInstall the Unimaginable.\u201d",
      "tourism": "gallery",
      "website": "https://aggregatespacegallery.org/",
      "addr_state": "CA",
      "addr_city": "Oakland",
      "addr_postcode": "94607",
      "addr_street": "26th Street",
      "addr_housenumber": "1255"
    },
    {
      "id": 10282,
      "geometry": "POINT (-122.263555 37.853251)",
      "poi_name": "Whosabird",
      "osm_id": 6773474857,
      "tourism": "gallery",
      "fee": "no",
      "opening_hours": "24/7",
      "website": "https://whosabird.com",
      "addr_state": "CA",
      "addr_city": "Berkeley",
      "addr_postcode": "94705",
      "addr_street": "Prince Street",
      "addr_housenumber": "2210"
    },
    {
      "id": 11081,
      "geometry": "POINT (-122.413378 37.788732)",
      "poi_name": "Rebecca Camacho Presents",
      "osm_id": 9849528027,
      "tourism": "gallery",
      "wheelchair": "yes",
      "addr_state": "CA",
      "addr_city": "San Francisco",
      "addr_street": "Sutter Street",
      "addr_housenumber": "794"
    },
    {
      "id": 11082,
      "geometry": "POINT (-122.413852 37.788672)",
      "poi_name": "Glass Rice",
      "osm_id": 9849528031,
      "tourism": "gallery",
      "addr_state": "CA",
      "addr_city": "San Francisco",
      "addr_street": "Sutter Street",
      "addr_housenumber": "808"
    },
    {
      "id": 11083,
      "geometry": "POINT (-122.413939 37.788662)",
      "poi_name": "The Bird Cage",
      "osm_id": 9849528033,
      "tourism": "gallery",
      "wheelchair": "yes",
      "website": "https://spoke-art.com/",
      "addr_state": "CA",
      "addr_city": "San Francisco",
      "addr_street": "Sutter Street",
      "addr_housenumber": "816"
    },
    {
      "id": 11511,
      "geometry": "POINT (-122.41866 37.78806)",
      "poi_name": "Modern Eden Gallery",
      "osm_id": 9996421217,
      "tourism": "gallery",
      "website": "https://www.moderneden.com/",
      "phone": "+1 415 9563303",
      "addr_state": "CA",
      "addr_city": "San Francisco",
      "addr_postcode": "94109",
      "addr_street": "Sutter Street",
      "addr_housenumber": "1100"
    },
    {
      "id": 12206,
      "geometry": "POINT (-122.413807 37.788679)",
      "poi_name": "Hashimoto Contemporary",
      "osm_id": 6242792043,
      "tourism": "gallery",
      "website": "https://www.hashimotocontemporary.com/",
      "addr_state": "CA",
      "addr_city": "San Francisco",
      "addr_postcode": "94109",
      "addr_street": "Sutter Street",
      "addr_housenumber": "804"
    },
    {
      "id": 12882,
      "geometry": "POINT (-122.270009 37.805836)",
      "poi_name": "Black Arts Movement Business District",
      "osm_id": 3927989512,
      "tourism": "gallery",
      "website": "http://www.bambdcdc.com/",
      "addr_state": "CA",
      "addr_city": "Oakland",
      "addr_postcode": "94612",
      "addr_street": "Broadway",
      "addr_housenumber": "1540"
    },
    {
      "id": 13075,
      "geometry": "POINT (-122.414159 37.787747)",
      "poi_name": "John Pence Gallery",
      "osm_id": 4046025013,
      "tourism": "gallery",
      "website": "https://www.johnpence.com/",
      "phone": "+1 415 4411138",
      "addr_state": "CA",
      "addr_city": "San Francisco",
      "addr_postcode": "94109",
      "addr_street": "Post Street",
      "addr_housenumber": "750"
    },
    {
      "id": 13254,
      "geometry": "POINT (-122.247428 37.81191)",
      "poi_name": "Studio Grand",
      "osm_id": 4080771382,
      "tourism": "gallery",
      "website": "https://www.studiograndoakland.org/",
      "addr_state": "CA",
      "addr_city": "Oakland",
      "addr_postcode": "94610",
      "addr_street": "Grand Avenue",
      "addr_housenumber": "3234"
    },
    {
      "id": 14526,
      "geometry": "POINT (-122.285476 37.84904)",
      "poi_name": "Grease Diner",
      "osm_id": 4650647038,
      "description": "Laurie Shapiro Gallery: gifts cards zines clothing classes workshops",
      "tourism": "gallery",
      "website": "https://www.thegreasediner.com/",
      "addr_state": "CA",
      "addr_street": "San Pablo Avenue",
      "addr_housenumber": "6604"
    },
    {
      "id": 15052,
      "geometry": "POINT (-122.271124 37.805318)",
      "poi_name": "Pro Arts Gallery",
      "osm_id": 4793646998,
      "tourism": "gallery",
      "opening_hours": "Tu-Fr 12:00-18:00",
      "website": "https://proartsgallery.org/",
      "addr_state": "CA",
      "addr_city": "Oakland",
      "addr_postcode": "94612",
      "addr_street": "Kahn's Alley",
      "addr_housenumber": "150"
    },
    {
      "id": 15603,
      "geometry": "POINT (-122.407421 37.795574)",
      "poi_name": "41ross",
      "osm_id": 9398686060,
      "tourism": "gallery",
      "opening_hours": "We-Sa 11:00-16:00",
      "website": "https://www.41ross.org/",
      "addr_state": "CA",
      "addr_city": "San Francisco",
      "addr_postcode": "94108",
      "addr_street": "Ross Alley",
      "addr_housenumber": "41"
    },
    {
      "id": 15610,
      "geometry": "POINT (-122.415429 37.788274)",
      "poi_name": "Vanitas Contemporary",
      "osm_id": 9408415650,
      "tourism": "gallery",
      "opening_hours": "Fr-Sa 12:00-17:00; Tu-Th \"by appointment\"",
      "website": "https://www.vanitascontemporary.com/",
      "phone": "+1 415 9908784",
      "addr_state": "CA",
      "addr_city": "San Francisco",
      "addr_street": "Sutter Street",
      "addr_housenumber": "909"
    },
    {
      "id": 15611,
      "geometry": "POINT (-122.415368 37.78828)",
      "poi_name": "Soft Times",
      "osm_id": 9408415651,
      "tourism": "gallery",
      "opening_hours": "We-Fr 12:00-17:00; Sa 11:00-16:00",
      "website": "https://www.softtimesgallery.com/",
      "addr_state": "CA",
      "addr_city": "San Francisco",
      "addr_postcode": "94109",
      "addr_street": "Sutter Street",
      "addr_housenumber": "905"
    },
    {
      "id": 15815,
      "geometry": "POINT (-122.405733 37.790349)",
      "poi_name": "Serge Sorokko Gallery",
      "osm_id": 9544205106,
      "tourism": "gallery",
      "wheelchair": "yes",
      "fee": "no",
      "website": "https://www.sorokko.com/",
      "phone": "+1 415 4217770",
      "addr_state": "CA",
      "addr_city": "San Francisco",
      "addr_street": "Grant Avenue",
      "addr_housenumber": "365"
    },
    {
      "id": 18997,
      "geometry": "POINT (-122.300944 37.871465)",
      "poi_name": "Stream in the meadow photography",
      "osm_id": 2475992668,
      "tourism": "gallery",
      "wheelchair": "yes",
      "addr_state": "CA",
      "addr_city": "Berkeley",
      "addr_housenumber": "1717 C"
    },
    {
      "id": 19819,
      "geometry": "POINT (-122.251437 37.837684)",
      "poi_name": "SoMa",
      "osm_id": 10895285076,
      "tourism": "gallery",
      "opening_hours": "We,Th 12:--19:00; Fr 12:00-20:00; Sa 11:00-19:00; Su 10:00-17:00",
      "website": "https://somaartgallery.com",
      "addr_state": "CA",
      "addr_city": "Oakland",
      "addr_postcode": "94618",
      "addr_street": "College Avenue",
      "addr_housenumber": "5289"
    },
    {
      "id": 21859,
      "geometry": "POINT (-122.410366 37.781934)",
      "poi_name": "Luggage Store Gallery",
      "osm_id": 10695669958,
      "tourism": "gallery",
      "opening_hours": "We-Sa 12:00-17:00",
      "website": "https://luggagestoregallerysf.org/",
      "addr_state": "CA",
      "addr_city": "San Francisco",
      "addr_postcode": "94103",
      "addr_street": "Market Street",
      "addr_housenumber": "1007"
    },
    {
      "id": 24129,
      "geometry": "POINT (-122.407407 37.789485)",
      "poi_name": "Sin Titulo",
      "osm_id": 9339899670,
      "tourism": "gallery",
      "wheelchair": "limited",
      "fee": "no",
      "addr_state": "CA",
      "addr_city": "San Francisco",
      "addr_street": "Sutter Street",
      "addr_housenumber": "418"
    },
    {
      "id": 24130,
      "geometry": "POINT (-122.4079 37.7892)",
      "poi_name": "Montague Gallery",
      "osm_id": 9339899671,
      "tourism": "gallery",
      "opening_hours": "Tu-Sa 11:00-17:00 || \"by appointment\"",
      "website": "https://montaguegallery.com/",
      "phone": "+1 415 9644978",
      "addr_state": "CA",
      "addr_city": "San Francisco",
      "addr_postcode": "94108",
      "addr_street": "Sutter Street",
      "addr_housenumber": "445"
    },
    {
      "id": 24327,
      "geometry": "POINT (-122.399109 37.785527)",
      "poi_name": "Crown Point Press",
      "osm_id": 11008350407,
      "tourism": "gallery",
      "opening_hours": "Mo-Fr 09:00-17:00",
      "website": "https://crownpoint.com/",
      "wikidata": "Q60740068",
      "addr_state": "CA",
      "addr_city": "San Francisco",
      "addr_postcode": "94105",
      "addr_street": "Hawthorne Street",
      "addr_housenumber": "20"
    },
    {
      "id": 25001,
      "geometry": "POINT (-122.409438 37.777063)",
      "poi_name": "Langton Labs",
      "osm_id": 4370295596,
      "tourism": "gallery",
      "addr_state": "CA",
      "addr_city": "San Francisco",
      "addr_postcode": "94103",
      "addr_street": "Langton Street",
      "addr_housenumber": "32"
    },
    {
      "id": 25002,
      "geometry": "POINT (-122.410832 37.777056)",
      "poi_name": "Alter Space",
      "osm_id": 4370393289,
      "tourism": "gallery",
      "addr_state": "CA",
      "addr_city": "San Francisco",
      "addr_postcode": "94127",
      "addr_street": "Howard Street",
      "addr_housenumber": "1158"
    },
    {
      "id": 25850,
      "geometry": "POINT (-122.406072 37.788509)",
      "poi_name": "Speciality Shops Art Gallery",
      "osm_id": 4625205008,
      "tourism": "gallery",
      "addr_state": "CA",
      "addr_city": "San Francisco",
      "addr_street": "Post Street",
      "addr_housenumber": "251"
    },
    {
      "id": 26758,
      "geometry": "POINT (-122.414808 37.752579)",
      "poi_name": "Adobe Books and Arts Cooperative",
      "osm_id": 6032494975,
      "description": "Cooperatively run, community oriented used book store with an art gallery in the back and regular literary, music and art events.",
      "tourism": "gallery",
      "opening_hours": "Mo-Su 12:00-19:00",
      "website": "http://www.adobebooks.com/",
      "shop": "books",
      "phone": "+1 415 8643936",
      "addr_state": "CA",
      "addr_city": "San Francisco",
      "addr_postcode": "94110",
      "addr_street": "24th Street",
      "addr_housenumber": "3130"
    }
  ],
  "answer_type": "loc",
  "question_entities": {
    "[1]": {
      "main_category": "tourism",
      "sub_category": "gallery"
    },
    "[2]": {
      "distance": 40000,
      "text": "40 kilometers"
    },
    "[3]": {
      "main_category": "tourism",
      "sub_category": "viewpoint",
      "display_name": "Golden Gate Bridge Lookout, Sausalito, CA",
      "geo_wkt": "POINT (-122.486003 37.82872)",
      "poi": {
        "id": 20450,
        "geometry": "POINT (-122.486003 37.82872)",
        "poi_name": "Golden Gate Bridge Lookout",
        "osm_id": 1183476394,
        "tourism": "viewpoint",
        "addr_state": "CA",
        "addr_city": "Sausalito",
        "addr_street": "Conzelman Road"
      }
    }
  },
  "id": 2059,
  "type": "range+loc"
}