{
  "question": "What restaurant can I find within 190 kilometers from Taylor's Aquarium, Dunn, NC towards Fayetteville State University, Fayetteville, NC?",
  "sql": "WITH\n    angle AS (SELECT degrees(ST_Azimuth(ST_GeomFromText('POINT (-78.589533 35.200429)',4326)::geography, ST_GeomFromText('POINT (-78.892474 35.0726)',4326)::geography)) AS value)\nSELECT * FROM pois,angle\nWHERE amenity = 'restaurant'\nAND ST_DWithin(pois.geometry, ST_GeomFromText('POINT (-78.589533 35.200429)',4326)::geography, 190000)\nAND (degrees(ST_Azimuth(ST_GeomFromText('POINT (-78.589533 35.200429)',4326)::geography, pois.geometry)) BETWEEN angle.value - 22.5 AND angle.value + 22.5);\n",
  "answers": [
    {
      "id": 40130,
      "geometry": "POINT (-79.839366 34.18357)",
      "poi_name": "Labamba Mexican",
      "osm_id": 2958528342,
      "amenity": "restaurant",
      "value": 242.89924536662954
    },
    {
      "id": 40131,
      "geometry": "POINT (-79.832447 34.191019)",
      "poi_name": "Food Court",
      "osm_id": 2958528343,
      "amenity": "restaurant",
      "value": 242.89924536662954
    },
    {
      "id": 40132,
      "geometry": "POINT (-79.839765 34.183633)",
      "poi_name": "1720 Burger Bar",
      "osm_id": 2958540833,
      "amenity": "restaurant",
      "value": 242.89924536662954
    },
    {
      "id": 40136,
      "geometry": "POINT (-79.825944 34.189037)",
      "poi_name": "Red Bowl Asian Bistro",
      "osm_id": 2958544468,
      "amenity": "restaurant",
      "value": 242.89924536662954
    },
    {
      "id": 40139,
      "geometry": "POINT (-79.806113 34.189936)",
      "poi_name": "Shane's Rib Shack",
      "osm_id": 2958545651,
      "amenity": "restaurant",
      "addr_state": "SC",
      "addr_city": "Florence",
      "value": 242.89924536662954
    },
    {
      "id": 40140,
      "geometry": "POINT (-79.829545 34.187735)",
      "poi_name": "Golden Corral",
      "osm_id": 2958548933,
      "amenity": "restaurant",
      "cuisine": "american;buffet",
      "value": 242.89924536662954
    },
    {
      "id": 40142,
      "geometry": "POINT (-79.831986 34.187282)",
      "poi_name": "Hibachi Grill",
      "osm_id": 2958550533,
      "amenity": "restaurant",
      "value": 242.89924536662954
    },
    {
      "id": 69511,
      "geometry": "POINT (-79.479727 34.764008)",
      "poi_name": "little fuji grill",
      "osm_id": 11308502773,
      "amenity": "restaurant",
      "cuisine": "sushi",
      "addr_state": "NC",
      "addr_city": "Laurinburg",
      "addr_street": "us 401 N",
      "addr_housenumber": "894",
      "value": 242.89924536662954
    },
    {
      "id": 47282,
      "geometry": "POINT (-80.548889 34.983218)",
      "poi_name": "Blessings Deli",
      "osm_id": 3318252980,
      "amenity": "restaurant",
      "website": "https://www.facebook.com/pages/Blessings-Deli/276437614608",
      "value": 242.89924536662954
    },
    {
      "id": 47283,
      "geometry": "POINT (-80.550103 34.981445)",
      "poi_name": "100 Main Beef and Barbeque",
      "osm_id": 3318253057,
      "amenity": "restaurant",
      "website": "https://www.facebook.com/100MainBeefAndBarbecue",
      "phone": "+1 704-776-4113",
      "value": 242.89924536662954
    },
    {
      "id": 53845,
      "geometry": "POINT (-79.756722 34.925797)",
      "poi_name": "Godfather's Pizza",
      "osm_id": 10099559743,
      "amenity": "restaurant",
      "cuisine": "pizza",
      "value": 242.89924536662954
    },
    {
      "id": 57680,
      "geometry": "POINT (-78.959354 35.071013)",
      "poi_name": "Newk's Eatery",
      "osm_id": 5346236605,
      "amenity": "restaurant",
      "value": 242.89924536662954
    },
    {
      "id": 57682,
      "geometry": "POINT (-78.961899 35.071655)",
      "poi_name": "Jason's Deli",
      "osm_id": 5346236634,
      "amenity": "restaurant",
      "cuisine": "sandwich",
      "value": 242.89924536662954
    },
    {
      "id": 57696,
      "geometry": "POINT (-78.961662 35.06912)",
      "poi_name": "Nona Sushi",
      "osm_id": 5346486205,
      "amenity": "restaurant",
      "value": 242.89924536662954
    },
    {
      "id": 62689,
      "geometry": "POINT (-78.902517 35.06807)",
      "poi_name": "Thai Pepper",
      "osm_id": 5581689996,
      "amenity": "restaurant",
      "cuisine": "thai",
      "value": 242.89924536662954
    },
    {
      "id": 54334,
      "geometry": "POINT (-79.224696 34.977008)",
      "poi_name": "Wangz Bar and Grill",
      "osm_id": 10128195825,
      "amenity": "restaurant",
      "cuisine": "chicken;american",
      "opening_hours": "Mo-Th 11:00-18:00; Fr-Su 11:00-00:00",
      "website": "https://wangz.business.site/?utm_source=gmb&utm_medium=referral",
      "phone": "+19104793051",
      "addr_state": "NC",
      "addr_city": "Raeford",
      "addr_postcode": "28376",
      "addr_street": "South Main Street",
      "addr_housenumber": "216",
      "value": 242.89924536662954
    },
    {
      "id": 54335,
      "geometry": "POINT (-79.224694 34.976538)",
      "poi_name": "Edinborough Family Restaurant",
      "osm_id": 10128195827,
      "amenity": "restaurant",
      "cuisine": "burger;american",
      "phone": "+19108752826",
      "addr_state": "NC",
      "addr_city": "Raeford",
      "addr_postcode": "28376",
      "addr_street": "South Main Street",
      "addr_housenumber": "234",
      "value": 242.89924536662954
    },
    {
      "id": 69513,
      "geometry": "POINT (-79.48109 34.760158)",
      "poi_name": "smithfield's chicken 'n Bar-B-Q",
      "osm_id": 11308502777,
      "amenity": "restaurant",
      "cuisine": "barbecue;chicken",
      "value": 242.89924536662954
    },
    {
      "id": 69516,
      "geometry": "POINT (-79.484407 34.757547)",
      "poi_name": "golden run",
      "osm_id": 11308502785,
      "amenity": "restaurant",
      "cuisine": "chinese",
      "value": 242.89924536662954
    },
    {
      "id": 69839,
      "geometry": "POINT (-79.223895 34.979292)",
      "poi_name": "Stewart's Tavern",
      "osm_id": 11333333851,
      "amenity": "restaurant",
      "cuisine": "barbecue",
      "website": "https://stewartstavern.com/",
      "phone": "910-479-1313",
      "addr_state": "NC",
      "addr_city": "Raeford",
      "addr_postcode": "28376",
      "addr_street": "North Main Street",
      "addr_housenumber": "116",
      "value": 242.89924536662954
    },
    {
      "id": 70477,
      "geometry": "POINT (-79.906179 34.691873)",
      "poi_name": "Pizza Hut",
      "osm_id": 11364643225,
      "amenity": "restaurant",
      "cuisine": "pizza",
      "value": 242.89924536662954
    },
    {
      "id": 70905,
      "geometry": "POINT (-79.732 34.266592)",
      "poi_name": "Iron Skillet",
      "osm_id": 11376201929,
      "amenity": "restaurant",
      "cuisine": "american;buffet",
      "outdoor_seating": "no",
      "value": 242.89924536662954
    },
    {
      "id": 83119,
      "geometry": "POINT (-79.807572 34.19026)",
      "poi_name": "Cicis",
      "osm_id": 1728627439,
      "amenity": "restaurant",
      "cuisine": "pizza;buffet",
      "website": "https://www.cicispizza.com/",
      "addr_state": "SC",
      "addr_city": "Florence",
      "addr_postcode": "29501",
      "addr_street": "West Palmetto Street",
      "addr_housenumber": "1945",
      "value": 242.89924536662954
    },
    {
      "id": 73044,
      "geometry": "POINT (-79.223586 34.978656)",
      "poi_name": "Asian Kitchen",
      "osm_id": 9603600717,
      "amenity": "restaurant",
      "cuisine": "chinese;taiwanese",
      "opening_hours": "Mo-Sa 11:00-18:00; Su Closed",
      "website": "http://places.singleplatform.com/asian-kitchen-32/menu?ref=google",
      "phone": "+19108757500",
      "addr_state": "NC",
      "addr_city": "Raeford",
      "addr_postcode": "28376",
      "addr_street": "East Central Avenue",
      "addr_housenumber": "106",
      "value": 242.89924536662954
    },
    {
      "id": 75340,
      "geometry": "POINT (-78.773388 35.036641)",
      "poi_name": "Baywood Deli & Grill",
      "osm_id": 9724815061,
      "amenity": "restaurant",
      "phone": "+19102638305",
      "addr_state": "NC",
      "addr_city": "Fayetteville",
      "addr_postcode": "28312",
      "addr_street": "Baywood Road",
      "addr_housenumber": "124",
      "value": 242.89924536662954
    },
    {
      "id": 75983,
      "geometry": "POINT (-80.092778 34.977941)",
      "poi_name": "Waffle House",
      "osm_id": 9754446856,
      "amenity": "restaurant",
      "cuisine": "american",
      "opening_hours": "24/7",
      "phone": "+17046943614",
      "addr_state": "NC",
      "addr_city": "Wadesboro",
      "addr_postcode": "28170",
      "addr_street": "US-74 West",
      "addr_housenumber": "1325",
      "value": 242.89924536662954
    },
    {
      "id": 75984,
      "geometry": "POINT (-79.960339 34.964171)",
      "poi_name": "Country Kitchen",
      "osm_id": 9754452083,
      "amenity": "restaurant",
      "phone": "+17042700070",
      "addr_state": "NC",
      "addr_city": "Lilesville",
      "addr_postcode": "28091",
      "addr_street": "Vintage Road",
      "addr_housenumber": "3944",
      "value": 242.89924536662954
    },
    {
      "id": 75985,
      "geometry": "POINT (-79.955618 34.960504)",
      "poi_name": "Welika Fish House",
      "osm_id": 9754452084,
      "amenity": "restaurant",
      "opening_hours": "Th-Sa 17:00-20:30; Su 11:30-14:00",
      "phone": "+17048484810",
      "addr_state": "NC",
      "addr_city": "Lilesville",
      "addr_postcode": "28091",
      "addr_street": "Haileys Ferry Road",
      "addr_housenumber": "265",
      "value": 242.89924536662954
    },
    {
      "id": 77435,
      "geometry": "POINT (-78.89542 35.030332)",
      "poi_name": "Parkton Grill",
      "osm_id": 9822176121,
      "amenity": "restaurant",
      "addr_state": "NC",
      "addr_city": "Fayetteville",
      "addr_postcode": "28306",
      "addr_street": "Southern Avenue",
      "addr_housenumber": "1070",
      "value": 242.89924536662954
    },
    {
      "id": 82988,
      "geometry": "POINT (-79.809104 34.18854)",
      "poi_name": "Red Bone Alley",
      "osm_id": 1724584854,
      "amenity": "restaurant",
      "cuisine": "american",
      "wheelchair": "yes",
      "website": "https://www.redbonealley.com/",
      "takeaway": "yes",
      "outdoor_seating": "yes",
      "addr_state": "SC",
      "addr_city": "Florence",
      "addr_postcode": "29501",
      "addr_street": "West Palmetto Street",
      "addr_housenumber": "1903",
      "value": 242.89924536662954
    },
    {
      "id": 73034,
      "geometry": "POINT (-79.224279 34.979405)",
      "poi_name": "Main Street Grill",
      "osm_id": 9603288315,
      "amenity": "restaurant",
      "cuisine": "burger;american",
      "website": "https://www.facebook.com/mainstreet.grill22/",
      "phone": "910-565-2083",
      "value": 242.89924536662954
    },
    {
      "id": 83223,
      "geometry": "POINT (-79.834003 34.191485)",
      "poi_name": "Ruby Tuesday",
      "osm_id": 1735535582,
      "amenity": "restaurant",
      "cuisine": "american",
      "value": 242.89924536662954
    },
    {
      "id": 83428,
      "geometry": "POINT (-78.924157 34.94215)",
      "poi_name": "Fred Chason's Grandsons",
      "osm_id": 1744522454,
      "amenity": "restaurant",
      "cuisine": "american",
      "phone": "+19108604899",
      "addr_state": "NC",
      "addr_city": "Hope Mills",
      "addr_postcode": "28348",
      "addr_street": "Marracco Drive",
      "addr_housenumber": "5339",
      "value": 242.89924536662954
    },
    {
      "id": 83339,
      "geometry": "POINT (-78.953103 35.075935)",
      "poi_name": "Kickin Chicken",
      "osm_id": 1740511534,
      "amenity": "restaurant",
      "cuisine": "chicken",
      "value": 242.89924536662954
    },
    {
      "id": 83340,
      "geometry": "POINT (-78.936877 35.044576)",
      "poi_name": "Weiner Works",
      "osm_id": 1740526208,
      "amenity": "restaurant",
      "value": 242.89924536662954
    },
    {
      "id": 83342,
      "geometry": "POINT (-78.938375 35.078839)",
      "poi_name": "Subway",
      "osm_id": 1740528692,
      "amenity": "restaurant",
      "cuisine": "sandwich",
      "takeaway": "yes",
      "value": 242.89924536662954
    },
    {
      "id": 83436,
      "geometry": "POINT (-78.96462 34.983207)",
      "poi_name": "Pizza Hut",
      "osm_id": 1744532962,
      "amenity": "restaurant",
      "cuisine": "pizza",
      "value": 242.89924536662954
    },
    {
      "id": 83438,
      "geometry": "POINT (-78.965854 34.985053)",
      "poi_name": "Smithfield's",
      "osm_id": 1744533679,
      "amenity": "restaurant",
      "value": 242.89924536662954
    },
    {
      "id": 83439,
      "geometry": "POINT (-78.966927 34.985404)",
      "poi_name": "Mi Casita",
      "osm_id": 1744533887,
      "amenity": "restaurant",
      "cuisine": "mexican",
      "value": 242.89924536662954
    },
    {
      "id": 98933,
      "geometry": "POINT (-80.253925 34.46839)",
      "poi_name": "Huddle House",
      "osm_id": 6535669374,
      "amenity": "restaurant",
      "cuisine": "american",
      "value": 242.89924536662954
    },
    {
      "id": 84676,
      "geometry": "POINT (-78.962855 34.982292)",
      "poi_name": "Sammios",
      "osm_id": 1806149729,
      "amenity": "restaurant",
      "cuisine": "italian",
      "value": 242.89924536662954
    },
    {
      "id": 84681,
      "geometry": "POINT (-78.927019 35.028582)",
      "poi_name": "Pizza Hut",
      "osm_id": 1806309463,
      "amenity": "restaurant",
      "cuisine": "pizza",
      "value": 242.89924536662954
    },
    {
      "id": 86626,
      "geometry": "POINT (-79.79789 34.226741)",
      "poi_name": "Huddle House",
      "osm_id": 1941073502,
      "amenity": "restaurant",
      "cuisine": "american",
      "value": 242.89924536662954
    },
    {
      "id": 88146,
      "geometry": "POINT (-78.880979 35.05366)",
      "poi_name": "Antonella's Ristorante",
      "osm_id": 8767057880,
      "amenity": "restaurant",
      "cuisine": "italian",
      "addr_state": "NC",
      "addr_city": "Fayetteville",
      "addr_postcode": "28301",
      "addr_street": "Hay Street",
      "addr_housenumber": "300",
      "value": 242.89924536662954
    },
    {
      "id": 84677,
      "geometry": "POINT (-78.937507 35.044618)",
      "poi_name": "El Tio",
      "osm_id": 1806306532,
      "amenity": "restaurant",
      "cuisine": "mexican",
      "value": 242.89924536662954
    },
    {
      "id": 101460,
      "geometry": "POINT (-79.817576 34.182609)",
      "poi_name": "Back Barn Barbecue",
      "osm_id": 6630280335,
      "amenity": "restaurant",
      "cuisine": "barbecue",
      "opening_hours": "Fr-Sa 11:00-15:00",
      "phone": "972-310-1003",
      "addr_state": "SC",
      "addr_city": "Florence",
      "addr_postcode": "29501",
      "addr_street": "West Palmetto Street",
      "addr_housenumber": "2402",
      "value": 242.89924536662954
    },
    {
      "id": 102808,
      "geometry": "POINT (-79.764695 34.194134)",
      "poi_name": "Taste Of India",
      "osm_id": 8459470393,
      "amenity": "restaurant",
      "cuisine": "indian",
      "value": 242.89924536662954
    },
    {
      "id": 102137,
      "geometry": "POINT (-79.054574 35.026238)",
      "poi_name": "Mi Casita",
      "osm_id": 6656079704,
      "amenity": "restaurant",
      "cuisine": "mexican",
      "value": 242.89924536662954
    },
    {
      "id": 102138,
      "geometry": "POINT (-79.054499 35.026392)",
      "poi_name": "China Wok Buffet",
      "osm_id": 6656079705,
      "amenity": "restaurant",
      "cuisine": "chinese",
      "addr_state": "NC",
      "addr_city": "Fayetteville",
      "addr_postcode": "28304",
      "addr_street": "South Raeford Road",
      "addr_housenumber": "7711",
      "value": 242.89924536662954
    },
    {
      "id": 102139,
      "geometry": "POINT (-79.05503 35.027137)",
      "poi_name": "Pad Thai Cuisine",
      "osm_id": 6656079710,
      "amenity": "restaurant",
      "cuisine": "thai",
      "value": 242.89924536662954
    },
    {
      "id": 102140,
      "geometry": "POINT (-79.05587 35.028668)",
      "poi_name": "Cicis",
      "osm_id": 6656079712,
      "amenity": "restaurant",
      "cuisine": "pizza;buffet",
      "value": 242.89924536662954
    },
    {
      "id": 102143,
      "geometry": "POINT (-79.061388 35.029892)",
      "poi_name": "Pizza Hut",
      "osm_id": 6656079724,
      "amenity": "restaurant",
      "cuisine": "pizza",
      "value": 242.89924536662954
    },
    {
      "id": 102145,
      "geometry": "POINT (-79.064075 35.032501)",
      "poi_name": "Mikoto",
      "osm_id": 6656079729,
      "amenity": "restaurant",
      "cuisine": "sushi",
      "value": 242.89924536662954
    },
    {
      "id": 118704,
      "geometry": "POINT (-79.01347 34.982369)",
      "poi_name": "Hokkaido Express",
      "osm_id": 9061389671,
      "amenity": "restaurant",
      "cuisine": "asian",
      "website": "https://myhokkaidoexpress.com/",
      "value": 242.89924536662954
    },
    {
      "id": 105172,
      "geometry": "POINT (-79.836827 34.19095)",
      "poi_name": "Outback Steakhouse",
      "osm_id": 8608615365,
      "amenity": "restaurant",
      "cuisine": "american;steak",
      "addr_state": "SC",
      "addr_city": "Florence",
      "addr_postcode": "29501",
      "addr_street": "Dunbarton Drive",
      "addr_housenumber": "110",
      "value": 242.89924536662954
    },
    {
      "id": 126198,
      "geometry": "POINT (-79.081843 34.814641)",
      "poi_name": "E&H Barbeque Hut",
      "osm_id": 6988309655,
      "amenity": "restaurant",
      "addr_city": "Shannon",
      "addr_postcode": "28386",
      "addr_street": "Morgan J Road",
      "addr_housenumber": "171",
      "value": 242.89924536662954
    },
    {
      "id": 132527,
      "geometry": "POINT (-79.372224 34.440159)",
      "poi_name": "B C Steak & BBQ",
      "osm_id": 9958056518,
      "amenity": "restaurant",
      "cuisine": "steak;barbecue",
      "value": 242.89924536662954
    },
    {
      "id": 127637,
      "geometry": "POINT (-79.856119 34.281364)",
      "poi_name": "Holt Bros BBQ",
      "osm_id": 8077308904,
      "amenity": "restaurant",
      "cuisine": "chicken;barbecue",
      "opening_hours": "Tu-Th 11:00-20:00; Fr,Sa 11:00-21:00",
      "website": "https://holtbrosbbq.com/",
      "phone": "+1-843-944-0158",
      "addr_state": "SC",
      "addr_city": "Darlington",
      "addr_postcode": "29532",
      "addr_street": "South Main Street",
      "addr_housenumber": "1503",
      "value": 242.89924536662954
    },
    {
      "id": 128878,
      "geometry": "POINT (-78.953582 35.065655)",
      "poi_name": "Sushi Court",
      "osm_id": 8193323643,
      "amenity": "restaurant",
      "cuisine": "sushi",
      "value": 242.89924536662954
    },
    {
      "id": 128879,
      "geometry": "POINT (-78.952714 35.065484)",
      "poi_name": "Clean Eatz",
      "osm_id": 8193323646,
      "amenity": "restaurant",
      "website": "https://locations.cleaneatz.com/nc/fayetteville/meal-prep-16.html",
      "value": 242.89924536662954
    },
    {
      "id": 128880,
      "geometry": "POINT (-78.951534 35.065289)",
      "poi_name": "Mi Casita",
      "osm_id": 8193323652,
      "amenity": "restaurant",
      "cuisine": "mexican",
      "value": 242.89924536662954
    },
    {
      "id": 128881,
      "geometry": "POINT (-78.951489 35.065417)",
      "poi_name": "Hong Kong",
      "osm_id": 8193323654,
      "amenity": "restaurant",
      "cuisine": "chinese",
      "value": 242.89924536662954
    },
    {
      "id": 129174,
      "geometry": "POINT (-78.932113 35.045452)",
      "poi_name": "Mi Casita",
      "osm_id": 8221623937,
      "amenity": "restaurant",
      "cuisine": "mexican",
      "value": 242.89924536662954
    },
    {
      "id": 129906,
      "geometry": "POINT (-79.174342 34.827583)",
      "poi_name": "TAQUERIA \"EL REY\" Red Springs",
      "osm_id": 9846324510,
      "amenity": "restaurant",
      "phone": "+19108431124",
      "addr_state": "NC",
      "addr_city": "Red Springs",
      "addr_postcode": "28377",
      "addr_street": "Shannon Road",
      "addr_housenumber": "521",
      "value": 242.89924536662954
    },
    {
      "id": 129907,
      "geometry": "POINT (-79.010753 34.902627)",
      "poi_name": "Parkton Grill",
      "osm_id": 9846324515,
      "amenity": "restaurant",
      "phone": "+19108580842",
      "addr_state": "NC",
      "addr_city": "Parkton",
      "addr_postcode": "28371",
      "addr_street": "David Parnell Street",
      "addr_housenumber": "67",
      "value": 242.89924536662954
    },
    {
      "id": 128836,
      "geometry": "POINT (-78.985078 35.08937)",
      "poi_name": "Italiano's Pizza & Subs",
      "osm_id": 8189568669,
      "amenity": "restaurant",
      "cuisine": "italian",
      "value": 242.89924536662954
    },
    {
      "id": 128837,
      "geometry": "POINT (-78.984394 35.090527)",
      "poi_name": "China Wok Buffet",
      "osm_id": 8189568675,
      "amenity": "restaurant",
      "cuisine": "chinese",
      "value": 242.89924536662954
    },
    {
      "id": 128838,
      "geometry": "POINT (-78.981374 35.090066)",
      "poi_name": "Shila Korean Restaurant",
      "osm_id": 8189707599,
      "amenity": "restaurant",
      "cuisine": "asian",
      "value": 242.89924536662954
    },
    {
      "id": 128861,
      "geometry": "POINT (-78.971565 35.055034)",
      "poi_name": "Kyoto Express",
      "osm_id": 8191779319,
      "amenity": "restaurant",
      "cuisine": "japanese",
      "value": 242.89924536662954
    },
    {
      "id": 132528,
      "geometry": "POINT (-79.371473 34.438792)",
      "poi_name": "Waffle House",
      "osm_id": 9958056528,
      "amenity": "restaurant",
      "cuisine": "american",
      "opening_hours": "24/7",
      "value": 242.89924536662954
    },
    {
      "id": 132529,
      "geometry": "POINT (-79.370691 34.438714)",
      "poi_name": "Huddle House",
      "osm_id": 9958056529,
      "amenity": "restaurant",
      "cuisine": "american",
      "value": 242.89924536662954
    },
    {
      "id": 133464,
      "geometry": "POINT (-78.97248 35.163237)",
      "poi_name": "El Tucan Mexican Restaurant",
      "osm_id": 9995374140,
      "amenity": "restaurant",
      "cuisine": "mexican",
      "addr_state": "NC",
      "addr_city": "Spring Lake",
      "addr_postcode": "28390",
      "addr_street": "South Bragg Boulevard",
      "addr_housenumber": "250",
      "value": 242.89924536662954
    },
    {
      "id": 132727,
      "geometry": "POINT (-79.210384 34.9999)",
      "poi_name": "Virgil's Drive-In Restaurant",
      "osm_id": 9965937658,
      "amenity": "restaurant",
      "phone": "+19108752959",
      "addr_state": "NC",
      "addr_city": "Raeford",
      "addr_postcode": "28376",
      "addr_street": "Fayetteville Road",
      "addr_housenumber": "2402",
      "value": 242.89924536662954
    },
    {
      "id": 133465,
      "geometry": "POINT (-78.976683 35.16807)",
      "poi_name": "Nak Won Korean Restaurant",
      "osm_id": 9995423386,
      "amenity": "restaurant",
      "cuisine": "korean",
      "addr_state": "NC",
      "addr_city": "Spring Lake",
      "addr_postcode": "28390",
      "addr_street": "North Main Street",
      "addr_housenumber": "138",
      "value": 242.89924536662954
    },
    {
      "id": 146231,
      "geometry": "POINT (-79.753337 34.157365)",
      "poi_name": "Zapatas",
      "osm_id": 7423779394,
      "amenity": "restaurant",
      "value": 242.89924536662954
    },
    {
      "id": 134675,
      "geometry": "POINT (-78.879706 35.052676)",
      "poi_name": "Vibe Gastropub",
      "osm_id": 11481316269,
      "amenity": "restaurant",
      "opening_hours": "Mo-Fr 10:00-21:00; Sa 09:00-15:00",
      "website": "https://www.instagram.com/vibe.gastropub/",
      "phone": "+1 910-430-5372",
      "addr_postcode": "28301",
      "addr_housenumber": "131, suite #101",
      "value": 242.89924536662954
    },
    {
      "id": 135575,
      "geometry": "POINT (-78.952945 35.07566)",
      "poi_name": "Ramen Tsubaki",
      "osm_id": 11523688569,
      "amenity": "restaurant",
      "cuisine": "asian;japanese",
      "website": "https://www.ramentsubaki.com/",
      "addr_postcode": "28303",
      "addr_street": "North McPherson Church Road",
      "addr_housenumber": "508, suite 102",
      "value": 242.89924536662954
    },
    {
      "id": 146181,
      "geometry": "POINT (-79.293289 34.534894)",
      "poi_name": "Pink Restaurant",
      "osm_id": 7416699229,
      "amenity": "restaurant",
      "phone": "(910) 720-1177",
      "addr_state": "NC",
      "addr_city": "Rowland",
      "addr_postcode": "28383",
      "addr_street": "South E Church Street",
      "addr_housenumber": "104",
      "value": 242.89924536662954
    },
    {
      "id": 146612,
      "geometry": "POINT (-79.190054 35.018243)",
      "poi_name": "PK's Grill & Pub",
      "osm_id": 7463216919,
      "amenity": "restaurant",
      "phone": "(910) 904-6761",
      "addr_state": "NC",
      "addr_city": "Raeford",
      "addr_postcode": "28376",
      "addr_street": "Airport Drive",
      "addr_housenumber": "155",
      "value": 242.89924536662954
    },
    {
      "id": 146613,
      "geometry": "POINT (-79.423214 35.126269)",
      "poi_name": "The House of Fish Seafood Restaurant",
      "osm_id": 7463216921,
      "amenity": "restaurant",
      "phone": "(910) 944-0826",
      "addr_state": "NC",
      "addr_city": "Aberdeen",
      "addr_postcode": "28315",
      "addr_street": "NC-221 East",
      "addr_housenumber": "9671",
      "value": 242.89924536662954
    },
    {
      "id": 159596,
      "geometry": "POINT (-78.879965 35.125505)",
      "poi_name": "Pizza Hut",
      "osm_id": 4799491044,
      "amenity": "restaurant",
      "cuisine": "pizza",
      "value": 242.89924536662954
    },
    {
      "id": 159178,
      "geometry": "POINT (-80.087488 34.340396)",
      "poi_name": "Westwood BBQ",
      "osm_id": 4782009080,
      "amenity": "restaurant",
      "cuisine": "barbecue",
      "value": 242.89924536662954
    },
    {
      "id": 159399,
      "geometry": "POINT (-80.069048 34.351329)",
      "poi_name": "La Victoria",
      "osm_id": 4790905227,
      "amenity": "restaurant",
      "cuisine": "mexican",
      "opening_hours": "Th-Su 10:00-21:00",
      "addr_housenumber": "1511",
      "value": 242.89924536662954
    },
    {
      "id": 159597,
      "geometry": "POINT (-78.880472 35.116229)",
      "poi_name": "Waffle House",
      "osm_id": 4799491045,
      "amenity": "restaurant",
      "cuisine": "american",
      "opening_hours": "24/7",
      "value": 242.89924536662954
    },
    {
      "id": 159598,
      "geometry": "POINT (-78.880741 35.115068)",
      "poi_name": "Fred Chason's Grandsons",
      "osm_id": 4799491046,
      "amenity": "restaurant",
      "cuisine": "barbecue",
      "value": 242.89924536662954
    },
    {
      "id": 159599,
      "geometry": "POINT (-78.878459 35.131837)",
      "poi_name": "Applebee's",
      "osm_id": 4799491048,
      "amenity": "restaurant",
      "cuisine": "american",
      "official_name": "Applebee's Neighborhood Grill & Bar",
      "addr_state": "NC",
      "value": 242.89924536662954
    },
    {
      "id": 159643,
      "geometry": "POINT (-78.874328 35.138335)",
      "poi_name": "ScrubOaks",
      "osm_id": 4801602669,
      "amenity": "restaurant",
      "value": 242.89924536662954
    },
    {
      "id": 159644,
      "geometry": "POINT (-78.874413 35.138159)",
      "poi_name": "Pierro's Italian Bistro",
      "osm_id": 4801602670,
      "amenity": "restaurant",
      "cuisine": "italian",
      "value": 242.89924536662954
    },
    {
      "id": 184935,
      "geometry": "POINT (-78.966478 35.058497)",
      "poi_name": "Jason's Deli",
      "osm_id": 7821422823,
      "amenity": "restaurant",
      "cuisine": "sandwich",
      "value": 242.89924536662954
    },
    {
      "id": 159729,
      "geometry": "POINT (-78.880274 35.121298)",
      "poi_name": "Brooklyn Pizzeria",
      "osm_id": 4804470307,
      "amenity": "restaurant",
      "cuisine": "italian",
      "value": 242.89924536662954
    },
    {
      "id": 159730,
      "geometry": "POINT (-78.880043 35.121298)",
      "poi_name": "Nona Sushi Asia",
      "osm_id": 4804470309,
      "amenity": "restaurant",
      "cuisine": "sushi",
      "value": 242.89924536662954
    },
    {
      "id": 159731,
      "geometry": "POINT (-78.881474 35.121202)",
      "poi_name": "Super Wing Station",
      "osm_id": 4804470310,
      "amenity": "restaurant",
      "value": 242.89924536662954
    },
    {
      "id": 164333,
      "geometry": "POINT (-80.050108 34.571168)",
      "poi_name": "Bill's Grill",
      "osm_id": 9466247552,
      "amenity": "restaurant",
      "cuisine": "burger;american",
      "value": 242.89924536662954
    },
    {
      "id": 179097,
      "geometry": "POINT (-79.834138 34.190008)",
      "poi_name": "Texas Roadhouse",
      "osm_id": 10747130708,
      "amenity": "restaurant",
      "cuisine": "steak_house",
      "wheelchair": "yes",
      "addr_street": "David McLeod Boulevard",
      "addr_housenumber": "2691",
      "value": 242.89924536662954
    },
    {
      "id": 179105,
      "geometry": "POINT (-79.834138 34.190008)",
      "poi_name": "Texas Roadhouse",
      "osm_id": 10747286217,
      "amenity": "restaurant",
      "cuisine": "steak_house",
      "wheelchair": "yes",
      "addr_street": "David McLeod Boulevard",
      "addr_housenumber": "2691",
      "value": 242.89924536662954
    },
    {
      "id": 188346,
      "geometry": "POINT (-79.857331 34.281657)",
      "poi_name": "Pizza Hut",
      "osm_id": 1143856913,
      "amenity": "restaurant",
      "cuisine": "pizza",
      "operator": "Yum! Brands",
      "value": 242.89924536662954
    },
    {
      "id": 186276,
      "geometry": "POINT (-78.966158 35.072286)",
      "poi_name": "Bad Daddy's Burger Bar",
      "osm_id": 7924387015,
      "amenity": "restaurant",
      "cuisine": "american",
      "value": 242.89924536662954
    },
    {
      "id": 186277,
      "geometry": "POINT (-78.965976 35.072793)",
      "poi_name": "Crazy Fire Mongolian Grill",
      "osm_id": 7924387018,
      "amenity": "restaurant",
      "cuisine": "mongolian_grill",
      "website": "http://www.crazyfiremongolian.com/",
      "value": 242.89924536662954
    },
    {
      "id": 186278,
      "geometry": "POINT (-78.965728 35.07497)",
      "poi_name": "Elisabaths Pizza",
      "osm_id": 7924387023,
      "amenity": "restaurant",
      "cuisine": "pizza;italian",
      "addr_state": "NC",
      "addr_city": "Fayetteville",
      "addr_postcode": "28303",
      "addr_street": "Skibo Road",
      "addr_housenumber": "1800",
      "value": 242.89924536662954
    },
    {
      "id": 186432,
      "geometry": "POINT (-78.970001 35.069848)",
      "poi_name": "Mikoto Express",
      "osm_id": 7929626660,
      "amenity": "restaurant",
      "cuisine": "japanese",
      "value": 242.89924536662954
    },
    {
      "id": 186433,
      "geometry": "POINT (-78.969982 35.069967)",
      "poi_name": "Jandoori Bites",
      "osm_id": 7929626661,
      "amenity": "restaurant",
      "cuisine": "indian",
      "value": 242.89924536662954
    },
    {
      "id": 186438,
      "geometry": "POINT (-78.968758 35.064808)",
      "poi_name": "Mission BBQ",
      "osm_id": 7929626676,
      "amenity": "restaurant",
      "value": 242.89924536662954
    },
    {
      "id": 188347,
      "geometry": "POINT (-79.85982 34.283828)",
      "poi_name": "Little China",
      "osm_id": 1143858698,
      "amenity": "restaurant",
      "value": 242.89924536662954
    },
    {
      "id": 190666,
      "geometry": "POINT (-79.756352 34.19774)",
      "poi_name": "Groucho's Deli",
      "osm_id": 1311014272,
      "amenity": "restaurant",
      "value": 242.89924536662954
    },
    {
      "id": 202030,
      "geometry": "POINT (-80.071411 34.375184)",
      "poi_name": "BowThai",
      "osm_id": 672847784,
      "amenity": "restaurant",
      "value": 242.89924536662954
    },
    {
      "id": 195388,
      "geometry": "POINT (-79.174522 35.005404)",
      "poi_name": "China Wok",
      "osm_id": 10302618960,
      "amenity": "restaurant",
      "cuisine": "chinese",
      "addr_state": "NC",
      "addr_city": "Raeford",
      "addr_postcode": "28376",
      "addr_street": "Fayetteville Road",
      "addr_housenumber": "4526",
      "value": 242.89924536662954
    },
    {
      "id": 195043,
      "geometry": "POINT (-80.213284 34.189678)",
      "poi_name": "Hwy 341 Diner",
      "osm_id": 10293655141,
      "amenity": "restaurant",
      "website": "https://hwy-341-diner-of-bishopville-llc.business.site/",
      "phone": "+1 803 428 2900",
      "addr_state": "SC",
      "addr_city": "Bishopville",
      "addr_postcode": "29010",
      "addr_street": "Wisacky Highway",
      "addr_housenumber": "1438",
      "value": 242.89924536662954
    },
    {
      "id": 197961,
      "geometry": "POINT (-78.782327 35.09782)",
      "poi_name": "Corner Grill",
      "osm_id": 10683670656,
      "amenity": "restaurant",
      "phone": "+19104836097",
      "addr_state": "NC",
      "addr_city": "Eastover",
      "addr_postcode": "28312",
      "addr_street": "Dunn Road",
      "addr_housenumber": "3858",
      "value": 242.89924536662954
    },
    {
      "id": 202031,
      "geometry": "POINT (-80.07187 34.375048)",
      "poi_name": "The Midnight Rooster",
      "osm_id": 672848282,
      "amenity": "restaurant",
      "value": 242.89924536662954
    },
    {
      "id": 202032,
      "geometry": "POINT (-80.071272 34.374874)",
      "poi_name": "Bizzels",
      "osm_id": 672848294,
      "amenity": "restaurant",
      "value": 242.89924536662954
    },
    {
      "id": 202033,
      "geometry": "POINT (-80.071948 34.37243)",
      "poi_name": "Applebee's",
      "osm_id": 672851653,
      "amenity": "restaurant",
      "cuisine": "american",
      "official_name": "Applebee's Neighborhood Grill & Bar",
      "addr_state": "SC",
      "value": 242.89924536662954
    },
    {
      "id": 206058,
      "geometry": "POINT (-79.760813 35.072643)",
      "poi_name": "Mama Nois Pizza & Hot Sub",
      "osm_id": 7194476818,
      "amenity": "restaurant",
      "cuisine": "pizza",
      "phone": "(910) 652-2496",
      "addr_state": "NC",
      "addr_city": "Ellerbe",
      "addr_postcode": "28338",
      "addr_street": "Main Street",
      "addr_housenumber": "2076",
      "value": 242.89924536662954
    },
    {
      "id": 206202,
      "geometry": "POINT (-79.171469 34.808923)",
      "poi_name": "Marty's BBQ",
      "osm_id": 7201046984,
      "amenity": "restaurant",
      "addr_state": "NC",
      "addr_city": "Red Springs",
      "addr_postcode": "28377",
      "addr_street": "East 4th Avenue",
      "addr_housenumber": "804",
      "value": 242.89924536662954
    },
    {
      "id": 206205,
      "geometry": "POINT (-79.168981 34.81002)",
      "poi_name": "Pizza Hut",
      "osm_id": 7201069987,
      "amenity": "restaurant",
      "cuisine": "pizza",
      "phone": "(910) 843-2053",
      "addr_state": "NC",
      "addr_city": "Red Springs",
      "addr_postcode": "28377",
      "addr_street": "East 4th Avenue",
      "addr_housenumber": "805",
      "value": 242.89924536662954
    },
    {
      "id": 207905,
      "geometry": "POINT (-78.937363 35.043681)",
      "poi_name": "Burney's Sweets & More",
      "osm_id": 4966691453,
      "amenity": "restaurant",
      "cuisine": "coffee_shop;bakery",
      "opening_hours": "Mo-Fr 06:00-18:00; Sa 07:00-14:00; Su closed",
      "addr_state": "NC",
      "addr_city": "Fayetteville",
      "addr_street": "Raeford Road",
      "addr_housenumber": "3319-B",
      "value": 242.89924536662954
    },
    {
      "id": 213687,
      "geometry": "POINT (-78.894587 35.07039)",
      "poi_name": "Binkie's Pizza & WIngs",
      "osm_id": 5257413364,
      "amenity": "restaurant",
      "value": 242.89924536662954
    },
    {
      "id": 211419,
      "geometry": "POINT (-79.30773 34.505073)",
      "poi_name": "Waffle House",
      "osm_id": 5156180407,
      "amenity": "restaurant",
      "cuisine": "american",
      "opening_hours": "24/7",
      "phone": "+19104205838",
      "addr_state": "NC",
      "addr_city": "Rowland",
      "addr_postcode": "28383",
      "addr_street": "US 301 South",
      "addr_housenumber": "14860",
      "value": 242.89924536662954
    },
    {
      "id": 213837,
      "geometry": "POINT (-78.894292 35.070062)",
      "poi_name": "NY Supreme Steamers",
      "osm_id": 5260886767,
      "amenity": "restaurant",
      "value": 242.89924536662954
    },
    {
      "id": 213776,
      "geometry": "POINT (-78.89217 35.073591)",
      "poi_name": "Rudolph Jones Dining Hall",
      "osm_id": 5259357307,
      "amenity": "restaurant",
      "value": 242.89924536662954
    },
    {
      "id": 213777,
      "geometry": "POINT (-78.891603 35.073576)",
      "poi_name": "Bronco Grill",
      "osm_id": 5259357308,
      "amenity": "restaurant",
      "value": 242.89924536662954
    },
    {
      "id": 213838,
      "geometry": "POINT (-78.894011 35.069734)",
      "poi_name": "China Garden",
      "osm_id": 5260886770,
      "amenity": "restaurant",
      "value": 242.89924536662954
    },
    {
      "id": 218671,
      "geometry": "POINT (-78.913293 34.939845)",
      "poi_name": "Napkins Restaurant",
      "osm_id": 9291107651,
      "amenity": "restaurant",
      "phone": "+19104894857",
      "outdoor_seating": "yes",
      "addr_state": "NC",
      "addr_city": "Hope Mills",
      "addr_postcode": "28348",
      "addr_street": "Corporation Drive",
      "addr_housenumber": "5435",
      "value": 242.89924536662954
    },
    {
      "id": 215772,
      "geometry": "POINT (-78.870871 35.158899)",
      "poi_name": "China #1",
      "osm_id": 5312604344,
      "amenity": "restaurant",
      "value": 242.89924536662954
    },
    {
      "id": 215773,
      "geometry": "POINT (-78.870667 35.158746)",
      "poi_name": "Dino's Pizza",
      "osm_id": 5312604345,
      "amenity": "restaurant",
      "delivery": "yes",
      "value": 242.89924536662954
    },
    {
      "id": 215774,
      "geometry": "POINT (-78.870847 35.158822)",
      "poi_name": "El Burrito",
      "osm_id": 5312604346,
      "amenity": "restaurant",
      "delivery": "no",
      "value": 242.89924536662954
    },
    {
      "id": 216608,
      "geometry": "POINT (-78.987187 34.976536)",
      "poi_name": "The Asian Express",
      "osm_id": 9177394740,
      "amenity": "restaurant",
      "cuisine": "asian;chinese",
      "website": "http://places.singleplatform.com/asian-express-135/menu?ref=google",
      "phone": "+19104912980",
      "addr_state": "NC",
      "addr_city": "Fayetteville",
      "addr_postcode": "28306",
      "addr_street": "Camden Road",
      "addr_housenumber": "6415",
      "value": 242.89924536662954
    },
    {
      "id": 216609,
      "geometry": "POINT (-78.986766 34.976673)",
      "poi_name": "The Wing Company",
      "osm_id": 9177394790,
      "amenity": "restaurant",
      "cuisine": "chicken;wings",
      "value": 242.89924536662954
    },
    {
      "id": 216754,
      "geometry": "POINT (-80.097758 34.343943)",
      "poi_name": "Pam's Restaurant",
      "osm_id": 9181590071,
      "amenity": "restaurant",
      "value": 242.89924536662954
    },
    {
      "id": 216755,
      "geometry": "POINT (-79.832203 34.172183)",
      "poi_name": "Mi Tierra San Jose",
      "osm_id": 9181603576,
      "amenity": "restaurant",
      "cuisine": "mexican",
      "value": 242.89924536662954
    },
    {
      "id": 216757,
      "geometry": "POINT (-79.832682 34.172582)",
      "poi_name": "Cibo",
      "osm_id": 9181607458,
      "amenity": "restaurant",
      "cuisine": "italian",
      "value": 242.89924536662954
    },
    {
      "id": 229314,
      "geometry": "POINT (-78.934363 35.039719)",
      "poi_name": "316 Oyster Bar",
      "osm_id": 4376709074,
      "amenity": "restaurant",
      "cuisine": "fish",
      "value": 242.89924536662954
    },
    {
      "id": 220744,
      "geometry": "POINT (-78.966001 35.058622)",
      "poi_name": "First Watch",
      "osm_id": 9384710654,
      "amenity": "restaurant",
      "cuisine": "american;breakfast",
      "official_name": "First Watch The Daytime Cafe",
      "value": 242.89924536662954
    },
    {
      "id": 229745,
      "geometry": "POINT (-78.972692 35.170715)",
      "poi_name": "Salsa and Beers",
      "osm_id": 4398065478,
      "amenity": "restaurant",
      "value": 242.89924536662954
    },
    {
      "id": 229747,
      "geometry": "POINT (-78.974403 35.171608)",
      "poi_name": "Better than Granny's",
      "osm_id": 4398112313,
      "amenity": "restaurant",
      "value": 242.89924536662954
    },
    {
      "id": 229748,
      "geometry": "POINT (-78.974406 35.171729)",
      "poi_name": "Simply Sweet bakery",
      "osm_id": 4398112314,
      "amenity": "restaurant",
      "value": 242.89924536662954
    },
    {
      "id": 242724,
      "geometry": "POINT (-78.968163 35.065202)",
      "poi_name": "Noodles & Company",
      "osm_id": 7593589892,
      "amenity": "restaurant",
      "cuisine": "pasta",
      "phone": "(910) 867-7552",
      "addr_street": "Skibo Road",
      "addr_housenumber": "1926",
      "value": 242.89924536662954
    },
    {
      "id": 236987,
      "geometry": "POINT (-78.968673 35.056879)",
      "poi_name": "Core Eatery",
      "osm_id": 5813898646,
      "amenity": "restaurant",
      "cuisine": "health_food",
      "value": 242.89924536662954
    },
    {
      "id": 236988,
      "geometry": "POINT (-78.968169 35.05709)",
      "poi_name": "Baby Garlic",
      "osm_id": 5813898647,
      "amenity": "restaurant",
      "cuisine": "french",
      "value": 242.89924536662954
    },
    {
      "id": 233425,
      "geometry": "POINT (-78.971605 35.165026)",
      "poi_name": "Ruby Tuesday",
      "osm_id": 4573038678,
      "amenity": "restaurant",
      "value": 242.89924536662954
    }
  ],
  "answer_type": "name",
  "question_entities": {
    "[2]": {
      "distance": 190000,
      "text": "190 kilometers"
    },
    "[3]": {
      "main_category": "tourism",
      "sub_category": "aquarium",
      "display_name": "Taylor's Aquarium, Dunn, NC",
      "geo_wkt": "POINT (-78.589533 35.200429)",
      "poi": {
        "id": 24624,
        "geometry": "POINT (-78.589533 35.200429)",
        "poi_name": "Taylor's Aquarium",
        "osm_id": 11141985607,
        "tourism": "aquarium",
        "phone": "+19105675377",
        "addr_state": "NC",
        "addr_city": "Dunn",
        "addr_postcode": "28334",
        "addr_street": "North Spring Branch Road",
        "addr_housenumber": "590"
      }
    },
    "[4]": {
      "main_category": "amenity",
      "sub_category": "university",
      "display_name": "Fayetteville State University, Fayetteville, NC",
      "geo_wkt": "POINT (-78.892474 35.0726)",
      "poi": {
        "id": 167543,
        "geometry": "POINT (-78.892474 35.0726)",
        "poi_name": "Fayetteville State University",
        "osm_id": 357772684,
        "amenity": "university",
        "operator": "A Constituent Institution of the University of North Carolina",
        "addr_state": "NC",
        "addr_city": "Fayetteville",
        "addr_postcode": "28301",
        "addr_street": "Murchison Road",
        "addr_housenumber": "1200"
      }
    },
    "[1]": {
      "main_category": "amenity",
      "sub_category": "restaurant"
    }
  },
  "id": 1602,
  "type": "range:towards+name"
}