{
  "question": "What restaurant can I find as I progress towards the Potted Plant Inc., Scottsdale, AZ from American Institute of Dental Assisting, Gilbert, AZ, within a radius of 100 kilometers?",
  "sql": "WITH\n    angle AS (SELECT degrees(ST_Azimuth(ST_GeomFromText('POINT (-111.688039 33.367907)',4326)::geography, ST_GeomFromText('POINT (-111.920729 33.631545)',4326)::geography)) AS value)\nSELECT * FROM pois,angle\nWHERE amenity = 'restaurant'\nAND ST_DWithin(pois.geometry, ST_GeomFromText('POINT (-111.688039 33.367907)',4326)::geography, 100000)\nAND (degrees(ST_Azimuth(ST_GeomFromText('POINT (-111.688039 33.367907)',4326)::geography, pois.geometry)) BETWEEN angle.value - 22.5 AND angle.value + 22.5);\n",
  "answers": [
    {
      "id": 34403,
      "geometry": "POINT (-112.235552 33.652316)",
      "poi_name": "Caramba",
      "osm_id": 2699324430,
      "amenity": "restaurant",
      "cuisine": "mexican",
      "opening_hours": "Mo-We 10:00-21:00; Th-Fr 10:00-22:00; Sa 8:00-22:00; Su 8:00-21:00",
      "addr_state": "AZ",
      "addr_city": "Glendale",
      "addr_postcode": "85308",
      "addr_street": "West Union Hills Drive",
      "addr_housenumber": "8285",
      "value": 323.5831177519724
    },
    {
      "id": 34414,
      "geometry": "POINT (-112.066607 33.638436)",
      "poi_name": "Victorian Cake Company",
      "osm_id": 2699343233,
      "amenity": "restaurant",
      "cuisine": "cupcake",
      "value": 323.5831177519724
    },
    {
      "id": 36057,
      "geometry": "POINT (-111.924772 33.530828)",
      "poi_name": "Flemming's",
      "osm_id": 2746620385,
      "amenity": "restaurant",
      "value": 323.5831177519724
    },
    {
      "id": 37566,
      "geometry": "POINT (-111.90578 33.538029)",
      "poi_name": "Crust",
      "osm_id": 2819399052,
      "amenity": "restaurant",
      "cuisine": "italian;pizza",
      "value": 323.5831177519724
    },
    {
      "id": 47291,
      "geometry": "POINT (-111.923052 33.49276)",
      "poi_name": "AZ 88",
      "osm_id": 3319443362,
      "amenity": "restaurant",
      "cuisine": "american",
      "value": 323.5831177519724
    },
    {
      "id": 39753,
      "geometry": "POINT (-112.012873 33.610749)",
      "poi_name": "Original Breakfast House",
      "osm_id": 2939405346,
      "amenity": "restaurant",
      "cuisine": "american",
      "wheelchair": "yes",
      "value": 323.5831177519724
    },
    {
      "id": 50755,
      "geometry": "POINT (-112.047866 33.641759)",
      "poi_name": "Cowboy Lookout Grill",
      "osm_id": 3504208130,
      "amenity": "restaurant",
      "value": 323.5831177519724
    },
    {
      "id": 48351,
      "geometry": "POINT (-111.716745 33.436208)",
      "poi_name": "Thai Food Corner",
      "osm_id": 3378999401,
      "amenity": "restaurant",
      "cuisine": "thai",
      "opening_hours": "Mo-Fr 11:00-14:30; Mo-Sa 16:30-21:00",
      "website": "https://www.thaifoodcorners.com/",
      "phone": "+1 (480) 969-0087",
      "takeaway": "yes",
      "addr_state": "AZ",
      "addr_city": "Mesa",
      "addr_postcode": "85205",
      "addr_street": "East Brown Road",
      "addr_housenumber": "5253",
      "value": 323.5831177519724
    },
    {
      "id": 49462,
      "geometry": "POINT (-112.108205 33.640566)",
      "poi_name": "Shenanigans Bar And Grill",
      "osm_id": 3434452054,
      "amenity": "restaurant",
      "value": 323.5831177519724
    },
    {
      "id": 50704,
      "geometry": "POINT (-112.047186 33.640682)",
      "poi_name": "The Codfather",
      "osm_id": 3500212401,
      "amenity": "restaurant",
      "addr_state": "AZ",
      "addr_city": "Phoenix",
      "addr_postcode": "85022",
      "addr_street": "East Bell Road",
      "addr_housenumber": "1618",
      "value": 323.5831177519724
    },
    {
      "id": 56137,
      "geometry": "POINT (-111.922013 33.501314)",
      "poi_name": "El Hefe Scottsdale",
      "osm_id": 10225392589,
      "amenity": "restaurant",
      "description": "Since its inception in 2010, El Hefe has been a must-visit restaurant/nightclub and the go-to hot spot for chilled champagne, innovative dining, fantastic Djs, exciting entertainment, incredible events, and we just leveled up. We look forward to hosting y",
      "website": "https://elhefe.com/",
      "phone": "+1 480-945-6200",
      "addr_state": "AZ",
      "addr_city": "Scottsdale",
      "addr_postcode": "85251",
      "addr_street": "North Saddlebag Trail",
      "addr_housenumber": "4425",
      "value": 323.5831177519724
    },
    {
      "id": 55907,
      "geometry": "POINT (-111.921961 33.500795)",
      "poi_name": "CAKE Nightclub",
      "osm_id": 10213572484,
      "amenity": "restaurant",
      "description": "The go-to destination for celebrities, socialites, and A-listers, Cake is Scottsdale\u2019s only premier nightclub destination where guests can \u201chave their cake and eat it too.",
      "opening_hours": "Thursday, Friday, Saturday and Sunday 9.00am \u2013 2.00am",
      "website": "https://cakenightclub.com/",
      "phone": "480-708-3507",
      "addr_state": "AZ",
      "addr_city": "Scottsdale",
      "addr_postcode": "85251",
      "addr_street": "North Saddlebag Trail",
      "addr_housenumber": "4405",
      "value": 323.5831177519724
    },
    {
      "id": 56508,
      "geometry": "POINT (-111.919475 33.501937)",
      "poi_name": "Riot Hospitality Group",
      "osm_id": 10239573049,
      "amenity": "restaurant",
      "description": "Riot hospitality group (rhg) is a national, premier hospitality management company headquartered in scottsdale, arizona. The company is known for managing and co-creating unique concept brands. It currently oversees 13 locations in arizona, colorado, tenn",
      "opening_hours": "Mo-Fr 09:00-17:00",
      "website": "https://riothg.com/",
      "phone": "+1 480-947-3763",
      "addr_state": "AZ",
      "addr_city": "Scottsdale",
      "addr_postcode": "85251",
      "addr_street": "East Camelback Road",
      "addr_housenumber": "7525 E",
      "value": 323.5831177519724
    },
    {
      "id": 56345,
      "geometry": "POINT (-111.928436 33.501283)",
      "poi_name": "Hand Cut Chophouse",
      "osm_id": 10232911424,
      "amenity": "restaurant",
      "opening_hours": "Mo-Th 11:00-21:00; Fr-Su 11:00-22:00",
      "website": "https://handcutchophouse.com/",
      "phone": "+1 480-494-2008",
      "addr_state": "AZ",
      "addr_city": "Scottsdale",
      "addr_postcode": "85251",
      "addr_street": "Camelback Rd",
      "addr_housenumber": "7135 E",
      "value": 323.5831177519724
    },
    {
      "id": 63523,
      "geometry": "POINT (-111.876881 33.620214)",
      "poi_name": "Barro's Pizza",
      "osm_id": 5619998042,
      "amenity": "restaurant",
      "cuisine": "pizza",
      "opening_hours": "Su-Th 10:30-22:00; Fr-Sa 10:30-23:00",
      "website": "https://www.barrospizza.com/menu/?l=659",
      "phone": "(602) 544-3760",
      "takeaway": "yes",
      "addr_state": "AZ",
      "addr_city": "Scottsdale",
      "addr_postcode": "85260",
      "addr_street": "North Frank Lloyd Wright Boulevard",
      "addr_housenumber": "14850",
      "value": 323.5831177519724
    },
    {
      "id": 58212,
      "geometry": "POINT (-112.1135 33.714975)",
      "poi_name": "Buffalo Wild Wings",
      "osm_id": 5367491960,
      "amenity": "restaurant",
      "cuisine": "wings",
      "addr_state": "AZ",
      "addr_city": "Phoenix",
      "addr_postcode": "85085",
      "addr_street": "West Happy Valley Road",
      "addr_housenumber": "2510",
      "value": 323.5831177519724
    },
    {
      "id": 61543,
      "geometry": "POINT (-112.18502 33.626428)",
      "poi_name": "Ray's Pizza",
      "osm_id": 5521910614,
      "amenity": "restaurant",
      "cuisine": "pizza",
      "opening_hours": "Mo-Th, Su 10:30-21:00; Fr, Sa 10:30-22:00",
      "website": "https://www.orderrayspizzamenu.com/",
      "phone": "+1-602-938-4065",
      "addr_state": "AZ",
      "addr_city": "Glendale",
      "addr_postcode": "85306",
      "addr_street": "North 59th Avenue",
      "addr_housenumber": "15603",
      "value": 323.5831177519724
    },
    {
      "id": 61875,
      "geometry": "POINT (-111.886805 33.578861)",
      "poi_name": "Canton Dragon Asian Grill and Bar",
      "osm_id": 5540802913,
      "amenity": "restaurant",
      "cuisine": "chinese",
      "opening_hours": "Mo-Fr 11:00-21:00; Sa-Su 16:00-21:00",
      "website": "https://www.cantondragongrill.com/",
      "phone": "+14804518866",
      "takeaway": "yes",
      "outdoor_seating": "no",
      "addr_state": "AZ",
      "addr_city": "Scottsdale",
      "addr_postcode": "85258",
      "addr_street": "North 90th Street",
      "addr_housenumber": "10190",
      "value": 323.5831177519724
    },
    {
      "id": 59357,
      "geometry": "POINT (-111.772523 33.450835)",
      "poi_name": "Pizza Hut",
      "osm_id": 5421176827,
      "amenity": "restaurant",
      "cuisine": "pizza",
      "value": 323.5831177519724
    },
    {
      "id": 59364,
      "geometry": "POINT (-111.789411 33.436581)",
      "poi_name": "Barro's Pizza",
      "osm_id": 5421292806,
      "amenity": "restaurant",
      "cuisine": "pizza",
      "opening_hours": "24/7",
      "addr_state": "AZ",
      "addr_city": "Mesa",
      "addr_postcode": "85213",
      "addr_street": "East Brown Road",
      "addr_housenumber": "1925",
      "value": 323.5831177519724
    },
    {
      "id": 61940,
      "geometry": "POINT (-111.880424 33.58188)",
      "poi_name": "Streets of New York",
      "osm_id": 5543216237,
      "amenity": "restaurant",
      "cuisine": "pizza",
      "opening_hours": "Mo-Th 10:30-21:30; Fr-Sa 10:30-22:30; Su 11:00-21:30",
      "website": "https://www.streetsofnewyork.com/detail.cfm?id=19",
      "phone": "+14803911900",
      "takeaway": "yes",
      "delivery": "yes",
      "addr_state": "AZ",
      "addr_city": "Scottsdale",
      "addr_postcode": "85260",
      "addr_street": "East Shea Boulevard",
      "addr_housenumber": "9301",
      "value": 323.5831177519724
    },
    {
      "id": 62919,
      "geometry": "POINT (-111.854679 33.627279)",
      "poi_name": "Twisted Lizard Tavern & Grille",
      "osm_id": 5593442915,
      "amenity": "restaurant",
      "cuisine": "regional",
      "opening_hours": "Mo-Th 15:00-23:00; Fr 15:00-24:00; Sa 11:00-24:00; Su 11:00-22:00",
      "website": "https://www.twistedlizardtavern.com/",
      "phone": "(480) 538-0211",
      "outdoor_seating": "yes",
      "addr_state": "AZ",
      "addr_city": "Scottsdale",
      "addr_postcode": "85255",
      "addr_street": "East McDowell Mountain Ranch Road",
      "addr_housenumber": "10401",
      "value": 323.5831177519724
    },
    {
      "id": 63083,
      "geometry": "POINT (-111.886609 33.570717)",
      "poi_name": "Hiro Sushi",
      "osm_id": 5599470141,
      "amenity": "restaurant",
      "cuisine": "sushi",
      "opening_hours": "Mo-Th 11:30-14:00,17:00-21:30; Fr 11:30-14:00,17:00-22:00; Sa 17:00-22:00; Su 17:00-21:00",
      "website": "http://www.hirosushiaz.com/",
      "phone": "+14803144215",
      "value": 323.5831177519724
    },
    {
      "id": 67748,
      "geometry": "POINT (-112.190581 33.638376)",
      "poi_name": "Black Bear Diner",
      "osm_id": 11247014606,
      "amenity": "restaurant",
      "cuisine": "american",
      "website": "https://blackbeardiner.com/location/glendale/",
      "value": 323.5831177519724
    },
    {
      "id": 69349,
      "geometry": "POINT (-111.92636 33.62349)",
      "poi_name": "P.F. Chang's",
      "osm_id": 11301460622,
      "amenity": "restaurant",
      "cuisine": "asian",
      "website": "https://www.pfchangs.com/locations/us/az/scottsdale/7132-e-greenway-pkwy/5300-kierland.html",
      "official_name": "P.F. Chang's China Bistro",
      "value": 323.5831177519724
    },
    {
      "id": 68624,
      "geometry": "POINT (-112.066416 33.638621)",
      "poi_name": "Streets of New York",
      "osm_id": 11278126282,
      "amenity": "restaurant",
      "phone": "602-362-6789",
      "outdoor_seating": "yes",
      "addr_state": "AZ",
      "addr_city": "Phoenix",
      "addr_postcode": "85022",
      "addr_street": "North 7th Street",
      "addr_housenumber": "16838",
      "value": 323.5831177519724
    },
    {
      "id": 68625,
      "geometry": "POINT (-112.063229 33.639188)",
      "poi_name": "Yutaka Japanese Restaurant",
      "osm_id": 11278126292,
      "amenity": "restaurant",
      "cuisine": "japanese",
      "website": "https://yutakajapanese.business.site/",
      "phone": "+1-602-843-8882",
      "addr_state": "AZ",
      "addr_city": "Phoenix",
      "addr_postcode": "85022",
      "addr_street": "East Bell Road",
      "addr_housenumber": "751",
      "value": 323.5831177519724
    },
    {
      "id": 69350,
      "geometry": "POINT (-111.93053 33.624079)",
      "poi_name": "Mastro's Ocean Club",
      "osm_id": 11301460623,
      "amenity": "restaurant",
      "cuisine": "seafood",
      "website": "https://www.mastrosrestaurants.com/location/mastros-ocean-club-scottsdale-ocean-club/",
      "phone": "+1-480-443-8555",
      "value": 323.5831177519724
    },
    {
      "id": 69344,
      "geometry": "POINT (-111.929272 33.623675)",
      "poi_name": "Postino Kierland",
      "osm_id": 11301460615,
      "amenity": "restaurant",
      "website": "https://www.postinowinecafe.com/locations/arizona/kierland/",
      "phone": "+1-602-899-1111",
      "value": 323.5831177519724
    },
    {
      "id": 69345,
      "geometry": "POINT (-111.927556 33.623361)",
      "poi_name": "The Mission",
      "osm_id": 11301460617,
      "amenity": "restaurant",
      "cuisine": "spanish",
      "website": "https://www.themissionaz.com/",
      "value": 323.5831177519724
    },
    {
      "id": 69346,
      "geometry": "POINT (-111.929169 33.623973)",
      "poi_name": "North Italia",
      "osm_id": 11301460618,
      "amenity": "restaurant",
      "cuisine": "italian",
      "opening_hours": "Mo-Fr 16:00-21:30",
      "website": "https://www.northitalia.com/locations/scottsdale-az-kierland-commons/",
      "phone": "+1-480-948-2055",
      "addr_state": "AZ",
      "addr_city": "Scottsdale",
      "addr_street": "N. Scottsdale Rd.",
      "addr_housenumber": "15024",
      "value": 323.5831177519724
    },
    {
      "id": 69347,
      "geometry": "POINT (-111.92916 33.624131)",
      "poi_name": "The Green House",
      "osm_id": 11301460619,
      "amenity": "restaurant",
      "cuisine": "american",
      "website": "https://www.thegreenehouseaz.com/",
      "value": 323.5831177519724
    },
    {
      "id": 69348,
      "geometry": "POINT (-111.929759 33.623674)",
      "poi_name": "Tocaya Modern Mexican",
      "osm_id": 11301460620,
      "amenity": "restaurant",
      "cuisine": "mexican",
      "website": "https://tocaya.com/",
      "phone": "+1-480-676-3469",
      "value": 323.5831177519724
    },
    {
      "id": 70168,
      "geometry": "POINT (-111.726848 33.414995)",
      "poi_name": "Zur Kate",
      "osm_id": 11347111192,
      "amenity": "restaurant",
      "cuisine": "german",
      "opening_hours": "Tu-Sa 16:00-20:00",
      "website": "https://zurkate.com/",
      "phone": "4808304244",
      "addr_state": "AZ",
      "addr_city": "Mesa",
      "addr_postcode": "85205",
      "addr_street": "East Main Street",
      "addr_housenumber": "4815",
      "value": 323.5831177519724
    },
    {
      "id": 70914,
      "geometry": "POINT (-112.013033 33.656196)",
      "poi_name": "Cornish Pasty Co.",
      "osm_id": 11376968503,
      "amenity": "restaurant",
      "value": 323.5831177519724
    },
    {
      "id": 71859,
      "geometry": "POINT (-111.896428 33.621326)",
      "poi_name": "Culinary Gangster",
      "osm_id": 11403904643,
      "amenity": "restaurant",
      "cuisine": "burger",
      "value": 323.5831177519724
    },
    {
      "id": 75225,
      "geometry": "POINT (-112.066541 33.639164)",
      "poi_name": "Chili's",
      "osm_id": 9719538218,
      "amenity": "restaurant",
      "cuisine": "tex-mex",
      "description": "Tex-Mex",
      "website": "https://www.chilis.com/locations/us/arizona/phoenix/phoenix-bell",
      "phone": "+16028631093",
      "official_name": "Chili's Grill & Bar",
      "addr_state": "AZ",
      "addr_city": "Phoenix",
      "addr_postcode": "85022",
      "addr_street": "East Bell Road",
      "addr_housenumber": "513",
      "value": 323.5831177519724
    },
    {
      "id": 72710,
      "geometry": "POINT (-112.225534 33.642324)",
      "poi_name": "Pokiluv",
      "osm_id": 11444827408,
      "amenity": "restaurant",
      "value": 323.5831177519724
    },
    {
      "id": 72713,
      "geometry": "POINT (-112.225487 33.642365)",
      "poi_name": "Johnny Rockets",
      "osm_id": 11444827412,
      "amenity": "restaurant",
      "cuisine": "burger",
      "value": 323.5831177519724
    },
    {
      "id": 73990,
      "geometry": "POINT (-111.924753 33.526729)",
      "poi_name": "Taphouse Kitchen",
      "osm_id": 9661407237,
      "amenity": "restaurant",
      "addr_street": "N Scottsdale Rd",
      "addr_housenumber": "6137",
      "value": 323.5831177519724
    },
    {
      "id": 73991,
      "geometry": "POINT (-112.120239 33.59864)",
      "poi_name": "Anzio's Italian Restaurant",
      "osm_id": 9661424735,
      "amenity": "restaurant",
      "addr_street": "N 28th Drive",
      "addr_housenumber": "12418",
      "value": 323.5831177519724
    },
    {
      "id": 75558,
      "geometry": "POINT (-112.149872 33.640148)",
      "poi_name": "Ph\u1edf Viet Vietnamese Restaurant",
      "osm_id": 9735996723,
      "amenity": "restaurant",
      "cuisine": "vietnamese",
      "opening_hours": "Mo-Su 10:00-21:00",
      "website": "https://orderphovietvietnamese.com/",
      "phone": "+1-602-235-0282",
      "addr_state": "AZ",
      "addr_city": "Phoenix",
      "addr_postcode": "85308",
      "addr_street": "West Bell Road",
      "addr_housenumber": "4232",
      "value": 323.5831177519724
    },
    {
      "id": 75519,
      "geometry": "POINT (-111.97692 33.642117)",
      "poi_name": "Salad and Go",
      "osm_id": 9734523517,
      "amenity": "restaurant",
      "cuisine": "salad",
      "opening_hours": "Mo-Fr 06:30-21:00; Sa-Su 07:00-21:00",
      "wikidata": "Q110127908",
      "addr_state": "AZ",
      "addr_city": "Phoenix",
      "addr_postcode": "85032",
      "addr_street": "North Tatum Boulevard",
      "addr_housenumber": "17155",
      "value": 323.5831177519724
    },
    {
      "id": 75559,
      "geometry": "POINT (-112.151321 33.641028)",
      "poi_name": "Yen Sushi & Sake Bar",
      "osm_id": 9735996724,
      "amenity": "restaurant",
      "cuisine": "sushi",
      "opening_hours": "Mo-Th 11:00-21:30; Fr 11:00-22:00; Sa 12:00-22:00; Su 12:00-21:30",
      "website": "https://sak.yensushi.net/",
      "phone": "+1-602-978-9022",
      "addr_state": "AZ",
      "addr_city": "Glendale",
      "addr_postcode": "85308",
      "addr_street": "North 43rd Avenue",
      "addr_housenumber": "17037",
      "value": 323.5831177519724
    },
    {
      "id": 75562,
      "geometry": "POINT (-112.150074 33.638738)",
      "poi_name": "Wraps N Curry",
      "osm_id": 9735996727,
      "amenity": "restaurant",
      "cuisine": "indian",
      "opening_hours": "Mo-Su 11:00-21:00; We off",
      "website": "https://wraps-n-curry.business.site/",
      "phone": "+1-602-866-1907",
      "addr_state": "AZ",
      "addr_city": "Phoenix",
      "addr_postcode": "85053",
      "addr_street": "West Bell Road",
      "addr_housenumber": "4221",
      "value": 323.5831177519724
    },
    {
      "id": 75563,
      "geometry": "POINT (-112.149806 33.638701)",
      "poi_name": "Desert Island Eatery",
      "osm_id": 9735996728,
      "amenity": "restaurant",
      "cuisine": "caribbean",
      "opening_hours": "Th-Sa 17:00-21:00; Su 12:00-17:00",
      "website": "https://desertislandeateryphx.com/",
      "phone": "+1-602-675-0434",
      "addr_state": "AZ",
      "addr_city": "Phoenix",
      "addr_postcode": "85053",
      "addr_street": "West Bell Road",
      "addr_housenumber": "4213",
      "value": 323.5831177519724
    },
    {
      "id": 75564,
      "geometry": "POINT (-112.150177 33.638674)",
      "poi_name": "Nora Asian Fresh",
      "osm_id": 9735996729,
      "amenity": "restaurant",
      "cuisine": "asian",
      "opening_hours": "Su-Th 10:00-22:00; Fr-Sa 10:00-23:00",
      "website": "https://noraasianfresh.com/",
      "phone": "+1-602-675-0301",
      "addr_state": "AZ",
      "addr_city": "Phoenix",
      "addr_postcode": "85053",
      "addr_street": "West Bell Road",
      "addr_housenumber": "4225",
      "value": 323.5831177519724
    },
    {
      "id": 75565,
      "geometry": "POINT (-112.15027 33.638749)",
      "poi_name": "Daily Donuts & Wings",
      "osm_id": 9735996730,
      "amenity": "restaurant",
      "cuisine": "donut;wings",
      "opening_hours": "Mo-Su 07:00-19:00",
      "website": "https://dailydonutsandwings.com/",
      "phone": "+1-602-422-0015",
      "addr_state": "AZ",
      "addr_city": "Phoenix",
      "addr_postcode": "85053",
      "addr_street": "West Bell Road",
      "addr_housenumber": "4227",
      "value": 323.5831177519724
    },
    {
      "id": 75566,
      "geometry": "POINT (-112.150485 33.638747)",
      "poi_name": "New Asian Kitchen",
      "osm_id": 9735996731,
      "amenity": "restaurant",
      "cuisine": "asian",
      "opening_hours": "Tu-Th 11:00-20:30; Fr-Sa 11:00-21:00; Su 12:00-20:30",
      "website": "https://newasiankitchen.com/",
      "phone": "+1-602-938-0848",
      "addr_state": "AZ",
      "addr_city": "Phoenix",
      "addr_postcode": "85053",
      "addr_street": "West Bell Road",
      "addr_housenumber": "4231",
      "value": 323.5831177519724
    },
    {
      "id": 75567,
      "geometry": "POINT (-112.150367 33.638723)",
      "poi_name": "Lemonade and Churros",
      "osm_id": 9735996732,
      "amenity": "restaurant",
      "cuisine": "fast_food;churro",
      "opening_hours": "Tu 15:00-21:00; We 15:00-20:00; Th-Fr 15:00-21:00; Sa 13:00-21:00",
      "addr_state": "AZ",
      "addr_city": "Phoenix",
      "addr_postcode": "85053",
      "addr_street": "West Bell Road",
      "addr_housenumber": "4232",
      "value": 323.5831177519724
    },
    {
      "id": 75569,
      "geometry": "POINT (-112.180042 33.639323)",
      "poi_name": "Hiccups & Churroholic",
      "osm_id": 9735996744,
      "amenity": "restaurant",
      "cuisine": "asian;mexican",
      "opening_hours": "We-Su 11:00-22:00",
      "website": "https://www.orderhiccupsteahouse.com/",
      "phone": "+16026753838",
      "addr_state": "AZ",
      "addr_city": "Glendale",
      "addr_postcode": "85308",
      "addr_street": "West Bell Road",
      "addr_housenumber": "5626",
      "value": 323.5831177519724
    },
    {
      "id": 75570,
      "geometry": "POINT (-112.18005 33.639543)",
      "poi_name": "Tandoori Times 2 Indian Bistro",
      "osm_id": 9735996745,
      "amenity": "restaurant",
      "cuisine": "indian",
      "opening_hours": "Mo-Su 11:30-14:30,17:00-22:00; We off",
      "website": "https://tandooritimes.com/",
      "phone": "+16029931422",
      "addr_state": "AZ",
      "addr_city": "Glendale",
      "addr_postcode": "85308",
      "addr_street": "West Bell Road",
      "addr_housenumber": "5626",
      "value": 323.5831177519724
    },
    {
      "id": 76121,
      "geometry": "POINT (-112.054933 33.552762)",
      "poi_name": "Veggie Village",
      "osm_id": 9760729547,
      "amenity": "restaurant",
      "cuisine": "asian",
      "opening_hours": "Mo-Sa 11:30-20:00",
      "website": "https://vegvillage888.com/",
      "delivery": "no",
      "value": 323.5831177519724
    },
    {
      "id": 81624,
      "geometry": "POINT (-111.97717 33.612995)",
      "poi_name": "Nee House",
      "osm_id": 1652407299,
      "amenity": "restaurant",
      "cuisine": "chinese",
      "value": 323.5831177519724
    },
    {
      "id": 80951,
      "geometry": "POINT (-111.889434 33.540229)",
      "poi_name": "Barro's Pizza",
      "osm_id": 1592989278,
      "amenity": "restaurant",
      "cuisine": "pizza",
      "opening_hours": "Su-Th 10:30-22:00, Fr-Sa 10:30-23:00",
      "website": "https://barrospizza.com/",
      "phone": "(480) 302-6555",
      "delivery": "yes",
      "addr_state": "AZ",
      "addr_city": "Scottsdale",
      "addr_postcode": "85250;85258",
      "addr_street": "East Talking Stick Way;East Indian Bend Road",
      "addr_housenumber": "8940",
      "value": 323.5831177519724
    },
    {
      "id": 80954,
      "geometry": "POINT (-111.897265 33.522878)",
      "poi_name": "Scottsdale BBQ Company",
      "osm_id": 1592989344,
      "amenity": "restaurant",
      "value": 323.5831177519724
    },
    {
      "id": 81494,
      "geometry": "POINT (-111.92679 33.657128)",
      "poi_name": "Blue Agave",
      "osm_id": 1642742305,
      "amenity": "restaurant",
      "cuisine": "mexican",
      "website": "https://www.blueagavemexicancantina.com/",
      "phone": "+1-480-419-6375",
      "addr_state": "AZ",
      "addr_city": "Phoenix",
      "addr_postcode": "85054",
      "addr_street": "East Mayo Boulevard",
      "addr_housenumber": "7000",
      "value": 323.5831177519724
    },
    {
      "id": 81770,
      "geometry": "POINT (-111.864371 33.486367)",
      "poi_name": "Roundhouse Cafe",
      "osm_id": 1664695103,
      "amenity": "restaurant",
      "value": 323.5831177519724
    },
    {
      "id": 81664,
      "geometry": "POINT (-111.925499 33.501088)",
      "poi_name": "La Petite Maison",
      "osm_id": 1654901351,
      "amenity": "restaurant",
      "cuisine": "french",
      "value": 323.5831177519724
    },
    {
      "id": 88252,
      "geometry": "POINT (-111.924427 33.566431)",
      "poi_name": "bandolero cocina de Mexico",
      "osm_id": 8775341717,
      "amenity": "restaurant",
      "cuisine": "mexican",
      "value": 323.5831177519724
    },
    {
      "id": 85578,
      "geometry": "POINT (-111.877247 33.800374)",
      "poi_name": "The Cantina at Legend Trail Golf Club",
      "osm_id": 1883102053,
      "amenity": "restaurant",
      "addr_state": "AZ",
      "addr_city": "Scottsdale",
      "addr_postcode": "85262",
      "addr_street": "East Legendary Lane",
      "addr_housenumber": "9462",
      "value": 323.5831177519724
    },
    {
      "id": 86269,
      "geometry": "POINT (-111.953203 33.507075)",
      "poi_name": "Canyon Bar & Grill",
      "osm_id": 1924428319,
      "amenity": "restaurant",
      "value": 323.5831177519724
    },
    {
      "id": 86273,
      "geometry": "POINT (-111.949462 33.506794)",
      "poi_name": "Oasis",
      "osm_id": 1924508286,
      "amenity": "restaurant",
      "value": 323.5831177519724
    },
    {
      "id": 98888,
      "geometry": "POINT (-111.86424 33.61322)",
      "poi_name": "Zipps Sports Grill",
      "osm_id": 6534542405,
      "amenity": "restaurant",
      "cuisine": "american",
      "opening_hours": "Su-Th 11:00-00:30, Fr-Sa 11:00-02:00",
      "phone": "(480) 314-4600",
      "outdoor_seating": "yes",
      "addr_state": "AZ",
      "addr_city": "Scottsdale",
      "addr_postcode": "85259",
      "addr_street": "North 100th Street",
      "addr_housenumber": "14148",
      "value": 323.5831177519724
    },
    {
      "id": 92417,
      "geometry": "POINT (-112.008568 33.58194)",
      "poi_name": "Pizza Hut",
      "osm_id": 2120305895,
      "amenity": "restaurant",
      "cuisine": "pizza",
      "phone": "+1-602-996-0363",
      "value": 323.5831177519724
    },
    {
      "id": 97568,
      "geometry": "POINT (-112.270786 33.712577)",
      "poi_name": "RazzleBerriez Yogurt",
      "osm_id": 6484024039,
      "amenity": "restaurant",
      "addr_state": "AZ",
      "addr_city": "Peoria",
      "addr_postcode": "85383",
      "addr_street": "North Lake Pleasant Parkway",
      "addr_housenumber": "25225",
      "value": 323.5831177519724
    },
    {
      "id": 98889,
      "geometry": "POINT (-111.86499 33.613039)",
      "poi_name": "The Root and Soul",
      "osm_id": 6534542406,
      "amenity": "restaurant",
      "cuisine": "regional",
      "opening_hours": "Tu-Th 11:00-20:00; Fr-Sa 11:00-22:00; Su 11:00-15:00",
      "website": "https://therootandsoul.com",
      "phone": "(480) 476-1370",
      "takeaway": "yes",
      "addr_state": "AZ",
      "addr_city": "Scottsdale",
      "addr_postcode": "85260",
      "addr_street": "North 100th Street",
      "addr_housenumber": "14414",
      "value": 323.5831177519724
    },
    {
      "id": 104148,
      "geometry": "POINT (-112.169581 33.638675)",
      "poi_name": "Barro's Pizza",
      "osm_id": 8551483825,
      "amenity": "restaurant",
      "cuisine": "pizza",
      "website": "https://barrospizza.com",
      "value": 323.5831177519724
    },
    {
      "id": 99897,
      "geometry": "POINT (-111.966056 33.685304)",
      "poi_name": "Meritage at Urban Tavern",
      "osm_id": 6568064333,
      "amenity": "restaurant",
      "value": 323.5831177519724
    },
    {
      "id": 102457,
      "geometry": "POINT (-111.934308 33.554362)",
      "poi_name": "Acacia",
      "osm_id": 6681807696,
      "amenity": "restaurant",
      "value": 323.5831177519724
    },
    {
      "id": 103217,
      "geometry": "POINT (-112.063297 33.591796)",
      "poi_name": "DPOV",
      "osm_id": 8490866117,
      "amenity": "restaurant",
      "value": 323.5831177519724
    },
    {
      "id": 103712,
      "geometry": "POINT (-112.120817 33.79784)",
      "poi_name": "Plaza Bonita Family Mexican Restaurant",
      "osm_id": 8520976874,
      "amenity": "restaurant",
      "cuisine": "mexican",
      "capacity": "75",
      "takeaway": "yes",
      "addr_state": "AZ",
      "addr_city": "Phoenix",
      "addr_postcode": "85085",
      "addr_street": "West Carefree Highway",
      "addr_housenumber": "2815",
      "value": 323.5831177519724
    },
    {
      "id": 99819,
      "geometry": "POINT (-112.135623 33.596842)",
      "poi_name": "Pizza Divino",
      "osm_id": 6566351386,
      "amenity": "restaurant",
      "cuisine": "pizza",
      "opening_hours": "Tu 11:00-21:00; We-Su 11:00-22:00",
      "delivery": "yes",
      "addr_city": "Phoenix",
      "addr_street": "West Cactus Road",
      "addr_housenumber": "3550",
      "value": 323.5831177519724
    },
    {
      "id": 100310,
      "geometry": "POINT (-112.131302 33.799058)",
      "poi_name": "Pizza Hut",
      "osm_id": 6581925622,
      "amenity": "restaurant",
      "cuisine": "pizza",
      "phone": "+1-623-582-7909",
      "takeaway": "only",
      "addr_state": "AZ",
      "addr_city": "Phoenix",
      "addr_postcode": "85086",
      "addr_street": "North Valley Parkway",
      "addr_housenumber": "34640",
      "value": 323.5831177519724
    },
    {
      "id": 103429,
      "geometry": "POINT (-111.746554 33.4146)",
      "poi_name": "Twisted Pies",
      "osm_id": 8501451657,
      "amenity": "restaurant",
      "website": "https://www.twistedpiesaz.com",
      "addr_state": "AZ",
      "addr_city": "Mesa",
      "addr_postcode": "85205",
      "addr_street": "East Main Street",
      "addr_housenumber": "3929",
      "value": 323.5831177519724
    },
    {
      "id": 105610,
      "geometry": "POINT (-111.718815 33.39467)",
      "poi_name": "Los Patos Mexican Food",
      "osm_id": 8636697379,
      "amenity": "restaurant",
      "cuisine": "mexican",
      "value": 323.5831177519724
    },
    {
      "id": 107045,
      "geometry": "POINT (-111.927448 33.501926)",
      "poi_name": "Culinary Dropout",
      "osm_id": 3531780603,
      "amenity": "restaurant",
      "addr_state": "AZ",
      "addr_city": "Scottsdale",
      "addr_postcode": "85251",
      "addr_street": "East Camelback Road",
      "value": 323.5831177519724
    },
    {
      "id": 106705,
      "geometry": "POINT (-111.928033 33.492418)",
      "poi_name": "Cobre Kitchen + Cocktails",
      "osm_id": 8698089531,
      "amenity": "restaurant",
      "cuisine": "regional",
      "opening_hours": "Mo-Fr 06:30-10:30, Sa-Su 06:30-11:00",
      "website": "https://www.cobrekitchen.com",
      "phone": "+14805975203",
      "outdoor_seating": "yes",
      "addr_street": "East 1st Street",
      "addr_housenumber": "7142",
      "value": 323.5831177519724
    },
    {
      "id": 105938,
      "geometry": "POINT (-112.185709 33.652496)",
      "poi_name": "Pho Kc",
      "osm_id": 8655193836,
      "amenity": "restaurant",
      "cuisine": "vietnamese",
      "addr_state": "AZ",
      "addr_city": "Glendale",
      "addr_postcode": "85308",
      "addr_street": "North 59th Avenue",
      "addr_housenumber": "18555",
      "value": 323.5831177519724
    },
    {
      "id": 106506,
      "geometry": "POINT (-111.924405 33.625516)",
      "poi_name": "SOL",
      "osm_id": 8684994529,
      "amenity": "restaurant",
      "cuisine": "mexican",
      "value": 323.5831177519724
    },
    {
      "id": 107046,
      "geometry": "POINT (-111.928331 33.498875)",
      "poi_name": "Barrio Queen",
      "osm_id": 3531780604,
      "amenity": "restaurant",
      "addr_state": "AZ",
      "addr_city": "Scottsdale",
      "addr_postcode": "85251",
      "addr_street": "East Stetson Drive",
      "addr_housenumber": "7114",
      "value": 323.5831177519724
    },
    {
      "id": 112699,
      "geometry": "POINT (-112.066237 33.608028)",
      "poi_name": "Vegan and Vine",
      "osm_id": 3802495962,
      "amenity": "restaurant",
      "website": "https://veganandvineco.com/",
      "phone": "+1-602-296-7638",
      "addr_state": "AZ",
      "addr_city": "Phoenix",
      "addr_postcode": "85022",
      "addr_street": "East Thunderbird Road",
      "addr_housenumber": "502",
      "value": 323.5831177519724
    },
    {
      "id": 111881,
      "geometry": "POINT (-111.886827 33.581168)",
      "poi_name": "Flower Child Healthy Food",
      "osm_id": 3766694948,
      "amenity": "restaurant",
      "cuisine": "regional",
      "opening_hours": "Mo-Su 11:00-21:00",
      "website": "https://iamaflowerchild.com/",
      "phone": "+14802404400",
      "takeaway": "yes",
      "addr_state": "AZ",
      "addr_city": "Scottsdale",
      "addr_postcode": "85258",
      "addr_street": "North 90th Street",
      "addr_housenumber": "10460",
      "value": 323.5831177519724
    },
    {
      "id": 115700,
      "geometry": "POINT (-112.21447 33.639327)",
      "poi_name": "Doda's Pizza",
      "osm_id": 8910610584,
      "amenity": "restaurant",
      "cuisine": "pizza",
      "addr_state": "AZ",
      "addr_city": "Glendale",
      "addr_postcode": "85308",
      "addr_street": "West Bell Road",
      "addr_housenumber": "7260",
      "value": 323.5831177519724
    },
    {
      "id": 114930,
      "geometry": "POINT (-112.148574 33.874113)",
      "poi_name": "Outlets at Anthem Food Court",
      "osm_id": 3902219256,
      "amenity": "restaurant",
      "value": 323.5831177519724
    },
    {
      "id": 115409,
      "geometry": "POINT (-111.92644 33.798059)",
      "poi_name": "The Spotted Donkey Cantina",
      "osm_id": 8893289447,
      "amenity": "restaurant",
      "cuisine": "mexican",
      "value": 323.5831177519724
    },
    {
      "id": 115410,
      "geometry": "POINT (-111.929249 33.797646)",
      "poi_name": "First Watch",
      "osm_id": 8893289667,
      "amenity": "restaurant",
      "cuisine": "american;breakfast",
      "official_name": "First Watch The Daytime Cafe",
      "value": 323.5831177519724
    },
    {
      "id": 115411,
      "geometry": "POINT (-111.930622 33.798336)",
      "poi_name": "Sesame Inn",
      "osm_id": 8893289674,
      "amenity": "restaurant",
      "cuisine": "chinese",
      "value": 323.5831177519724
    },
    {
      "id": 115412,
      "geometry": "POINT (-111.931056 33.798822)",
      "poi_name": "Liberty Station",
      "osm_id": 8893289700,
      "amenity": "restaurant",
      "cuisine": "american",
      "addr_state": "AZ",
      "addr_city": "Scottsdale",
      "addr_postcode": "85266",
      "addr_street": "North Scottsdale Road",
      "addr_housenumber": "34522",
      "value": 323.5831177519724
    },
    {
      "id": 114141,
      "geometry": "POINT (-112.140258 33.918908)",
      "poi_name": "Roadrunner",
      "osm_id": 3867931597,
      "amenity": "restaurant",
      "cuisine": "burger",
      "value": 323.5831177519724
    },
    {
      "id": 115707,
      "geometry": "POINT (-111.923517 33.826215)",
      "poi_name": "Keeler\u2019s Neighborhood Steakhouse",
      "osm_id": 8910662781,
      "amenity": "restaurant",
      "cuisine": "steak_house",
      "value": 323.5831177519724
    },
    {
      "id": 115708,
      "geometry": "POINT (-111.92356 33.826006)",
      "poi_name": "Pizzicata USA",
      "osm_id": 8910662782,
      "amenity": "restaurant",
      "cuisine": "pizza",
      "value": 323.5831177519724
    },
    {
      "id": 115709,
      "geometry": "POINT (-111.92273 33.824367)",
      "poi_name": "Corrado's Cucina Italiana",
      "osm_id": 8910662789,
      "amenity": "restaurant",
      "cuisine": "italian",
      "addr_state": "AZ",
      "addr_city": "Carefree",
      "addr_postcode": "85377",
      "addr_street": "Easy Street",
      "addr_housenumber": "100",
      "value": 323.5831177519724
    },
    {
      "id": 115712,
      "geometry": "POINT (-111.923875 33.82358)",
      "poi_name": "Giordano Trattoria Romana",
      "osm_id": 8910685728,
      "amenity": "restaurant",
      "cuisine": "italian",
      "addr_state": "AZ",
      "addr_city": "Carefree",
      "addr_postcode": "85377",
      "addr_street": "Easy Street",
      "addr_housenumber": "75",
      "value": 323.5831177519724
    },
    {
      "id": 115736,
      "geometry": "POINT (-111.923637 33.820708)",
      "poi_name": "Pizzafarro's",
      "osm_id": 8910849021,
      "amenity": "restaurant",
      "cuisine": "pizza",
      "addr_state": "AZ",
      "addr_city": "Carefree",
      "addr_postcode": "85377",
      "addr_street": "North Tom Darlington Drive",
      "addr_housenumber": "36889",
      "value": 323.5831177519724
    },
    {
      "id": 115689,
      "geometry": "POINT (-112.221472 33.637724)",
      "poi_name": "Noodles & Company",
      "osm_id": 8910127057,
      "amenity": "restaurant",
      "cuisine": "pasta",
      "addr_state": "AZ",
      "addr_city": "Peoria",
      "addr_postcode": "85382",
      "addr_street": "West Bell Road",
      "addr_housenumber": "7541",
      "value": 323.5831177519724
    },
    {
      "id": 115793,
      "geometry": "POINT (-111.923561 33.769617)",
      "poi_name": "Uncle Louie",
      "osm_id": 8912536011,
      "amenity": "restaurant",
      "cuisine": "italian",
      "value": 323.5831177519724
    },
    {
      "id": 115737,
      "geometry": "POINT (-111.923923 33.820603)",
      "poi_name": "Confluence",
      "osm_id": 8910849022,
      "amenity": "restaurant",
      "addr_state": "AZ",
      "addr_city": "Carefree",
      "addr_postcode": "85377",
      "addr_street": "North Tom Darlington Drive",
      "addr_housenumber": "36889",
      "value": 323.5831177519724
    },
    {
      "id": 116126,
      "geometry": "POINT (-111.926677 33.50191)",
      "poi_name": "P.F. Chang's",
      "osm_id": 8929600201,
      "amenity": "restaurant",
      "cuisine": "asian",
      "official_name": "P.F. Chang's China Bistro",
      "value": 323.5831177519724
    },
    {
      "id": 115782,
      "geometry": "POINT (-111.923828 33.78043)",
      "poi_name": "Summit Diner",
      "osm_id": 8912461537,
      "amenity": "restaurant",
      "addr_state": "AZ",
      "addr_city": "Scottsdale",
      "addr_postcode": "85266",
      "addr_street": "North Scottsdale Road",
      "addr_housenumber": "32531",
      "value": 323.5831177519724
    },
    {
      "id": 115783,
      "geometry": "POINT (-111.92409 33.781034)",
      "poi_name": "Pei Wei",
      "osm_id": 8912461589,
      "amenity": "restaurant",
      "cuisine": "asian",
      "addr_state": "AZ",
      "addr_city": "Scottsdale",
      "addr_postcode": "85266",
      "addr_street": "North Scottsdale Road",
      "addr_housenumber": "32527",
      "value": 323.5831177519724
    },
    {
      "id": 116127,
      "geometry": "POINT (-111.931372 33.501763)",
      "poi_name": "Mastro's City Hall",
      "osm_id": 8929651051,
      "amenity": "restaurant",
      "addr_state": "AZ",
      "addr_city": "Scottsdale",
      "addr_postcode": "85251",
      "addr_street": "East Camelback Road",
      "addr_housenumber": "6991",
      "value": 323.5831177519724
    },
    {
      "id": 118174,
      "geometry": "POINT (-111.910002 33.480667)",
      "poi_name": "Hello Vietnam Pho & Roll",
      "osm_id": 9030067277,
      "amenity": "restaurant",
      "cuisine": "vietnamese",
      "value": 323.5831177519724
    },
    {
      "id": 117778,
      "geometry": "POINT (-112.190393 33.639099)",
      "poi_name": "Poke Maki",
      "osm_id": 9008926204,
      "amenity": "restaurant",
      "cuisine": "poke;sushi;japanese",
      "website": "http://www.pokemaki.com/",
      "addr_state": "AZ",
      "addr_city": "Glendale",
      "addr_postcode": "85308",
      "addr_street": "West Bell Road",
      "addr_housenumber": "6070",
      "value": 323.5831177519724
    },
    {
      "id": 121526,
      "geometry": "POINT (-111.89638 33.620588)",
      "poi_name": "Tandoori Times Indian Bistro",
      "osm_id": 6765225499,
      "amenity": "restaurant",
      "cuisine": "indian",
      "value": 323.5831177519724
    },
    {
      "id": 119148,
      "geometry": "POINT (-112.16905 33.612138)",
      "poi_name": "Pullano's Pizza",
      "osm_id": 9084734685,
      "amenity": "restaurant",
      "cuisine": "pizza;wings",
      "website": "http://pullanos.com",
      "phone": "+1-602-978-1234",
      "addr_state": "AZ",
      "addr_city": "Glendale",
      "addr_postcode": "85306",
      "addr_street": "North 51st Avenue",
      "addr_housenumber": "13848",
      "value": 323.5831177519724
    },
    {
      "id": 118448,
      "geometry": "POINT (-111.923378 33.584146)",
      "poi_name": "Crust Brothers",
      "osm_id": 9046094120,
      "amenity": "restaurant",
      "cuisine": "italian",
      "takeaway": "yes",
      "addr_state": "AZ",
      "addr_city": "Scottsdale",
      "addr_postcode": "85260",
      "addr_street": "East Shea Boulevard",
      "addr_housenumber": "7342",
      "value": 323.5831177519724
    },
    {
      "id": 121135,
      "geometry": "POINT (-111.858746 33.746283)",
      "poi_name": "Dynamite Grille at Troon North",
      "osm_id": 6744107071,
      "amenity": "restaurant",
      "value": 323.5831177519724
    },
    {
      "id": 126700,
      "geometry": "POINT (-111.922932 33.698163)",
      "poi_name": "Egg N' Joe",
      "osm_id": 7993516659,
      "amenity": "restaurant",
      "cuisine": "breakfast",
      "addr_state": "AZ",
      "addr_city": "Scottsdale",
      "addr_postcode": "85255",
      "addr_street": "North Scottsdale Road",
      "addr_housenumber": "23271",
      "value": 323.5831177519724
    },
    {
      "id": 122375,
      "geometry": "POINT (-111.759487 33.576142)",
      "poi_name": "The Grille at Eagle Mountain Golf Club",
      "osm_id": 6799724791,
      "amenity": "restaurant",
      "value": 323.5831177519724
    },
    {
      "id": 123205,
      "geometry": "POINT (-111.924401 33.491841)",
      "poi_name": "The Mission",
      "osm_id": 6841409585,
      "amenity": "restaurant",
      "addr_street": "North Brown Avenue",
      "addr_housenumber": "3815",
      "value": 323.5831177519724
    },
    {
      "id": 123505,
      "geometry": "POINT (-111.924823 33.700036)",
      "poi_name": "Pita Cafe",
      "osm_id": 6859172136,
      "amenity": "restaurant",
      "cuisine": "greek",
      "opening_hours": "Mo-Su 10:00-20:00",
      "phone": "+1-480-473-4741",
      "addr_state": "AZ",
      "addr_city": "Scottsdale",
      "addr_postcode": "85255",
      "addr_street": "North Scottsdale Road",
      "addr_housenumber": "23535",
      "value": 323.5831177519724
    },
    {
      "id": 123506,
      "geometry": "POINT (-111.924711 33.699952)",
      "poi_name": "Scottsdale Burger Bar",
      "osm_id": 6859172137,
      "amenity": "restaurant",
      "cuisine": "burger",
      "opening_hours": "Mo-Su 10:00-20:00",
      "addr_state": "AZ",
      "addr_city": "Scottsdale",
      "addr_postcode": "85255",
      "addr_street": "North Scottsdale Road",
      "addr_housenumber": "23535",
      "value": 323.5831177519724
    },
    {
      "id": 126738,
      "geometry": "POINT (-111.915379 33.698133)",
      "poi_name": "Soul Cafe",
      "osm_id": 7996080013,
      "amenity": "restaurant",
      "addr_state": "AZ",
      "addr_city": "Scottsdale",
      "addr_postcode": "85255",
      "addr_street": "East Pinnacle Peak Road",
      "addr_housenumber": "7615",
      "value": 323.5831177519724
    },
    {
      "id": 126739,
      "geometry": "POINT (-111.916197 33.696699)",
      "poi_name": "Thai Basil Signature",
      "osm_id": 7996080020,
      "amenity": "restaurant",
      "cuisine": "thai",
      "value": 323.5831177519724
    },
    {
      "id": 126667,
      "geometry": "POINT (-111.924868 33.701449)",
      "poi_name": "Tomaso's Italian Kitchen",
      "osm_id": 7990332618,
      "amenity": "restaurant",
      "cuisine": "italian",
      "addr_state": "AZ",
      "addr_city": "Scottsdale",
      "addr_postcode": "85255",
      "addr_street": "North Scottsdale Road",
      "addr_housenumber": "23655",
      "value": 323.5831177519724
    },
    {
      "id": 126668,
      "geometry": "POINT (-111.924237 33.700664)",
      "poi_name": "Lorenzo's Pizza",
      "osm_id": 7990332637,
      "amenity": "restaurant",
      "cuisine": "pizza",
      "addr_state": "AZ",
      "addr_city": "Scottsdale",
      "addr_postcode": "85255",
      "addr_street": "North Scottsdale Road",
      "addr_housenumber": "23623",
      "value": 323.5831177519724
    },
    {
      "id": 126669,
      "geometry": "POINT (-111.923647 33.700842)",
      "poi_name": "The Bourbon Cellar",
      "osm_id": 7990332650,
      "amenity": "restaurant",
      "cuisine": "steak_house",
      "addr_state": "AZ",
      "addr_city": "Scottsdale",
      "addr_postcode": "85255",
      "addr_street": "North Scottsdale Road",
      "addr_housenumber": "23623",
      "value": 323.5831177519724
    },
    {
      "id": 126701,
      "geometry": "POINT (-111.923876 33.697147)",
      "poi_name": "Eddie Merlot's Prime Aged Beef & Seafood",
      "osm_id": 7993516682,
      "amenity": "restaurant",
      "cuisine": "steak_house",
      "addr_state": "AZ",
      "addr_city": "Scottsdale",
      "addr_postcode": "85255",
      "addr_street": "North Scottsdale Road",
      "addr_housenumber": "23207",
      "value": 323.5831177519724
    },
    {
      "id": 126703,
      "geometry": "POINT (-111.918433 33.699052)",
      "poi_name": "Spiga Cucina Italiana",
      "osm_id": 7993516826,
      "amenity": "restaurant",
      "cuisine": "italian",
      "addr_state": "AZ",
      "addr_city": "Scottsdale",
      "addr_postcode": "85255",
      "addr_street": "East Pinnacle Peak Road",
      "addr_housenumber": "7500",
      "value": 323.5831177519724
    },
    {
      "id": 126859,
      "geometry": "POINT (-111.924546 33.640676)",
      "poi_name": "Pitadale",
      "osm_id": 8004736416,
      "amenity": "restaurant",
      "cuisine": "mediterranean",
      "addr_state": "AZ",
      "addr_city": "Scottsdale",
      "addr_postcode": "85255",
      "addr_street": "North Scottsdale Road",
      "addr_housenumber": "17025",
      "value": 323.5831177519724
    },
    {
      "id": 126779,
      "geometry": "POINT (-111.923124 33.676421)",
      "poi_name": "Parma Italian Roots",
      "osm_id": 7998235496,
      "amenity": "restaurant",
      "cuisine": "italian",
      "addr_state": "AZ",
      "addr_city": "Scottsdale",
      "addr_postcode": "85255",
      "addr_street": "North Scottsdale Road",
      "addr_housenumber": "20831",
      "value": 323.5831177519724
    },
    {
      "id": 126780,
      "geometry": "POINT (-111.923316 33.676413)",
      "poi_name": "Poke Spot",
      "osm_id": 7998235497,
      "amenity": "restaurant",
      "addr_state": "AZ",
      "addr_city": "Scottsdale",
      "addr_postcode": "85255",
      "addr_street": "North Scottsdale Road",
      "addr_housenumber": "20831",
      "value": 323.5831177519724
    },
    {
      "id": 126794,
      "geometry": "POINT (-111.924473 33.651055)",
      "poi_name": "The Americano Restaurant",
      "osm_id": 8000958326,
      "amenity": "restaurant",
      "addr_state": "AZ",
      "addr_city": "Scottsdale",
      "addr_postcode": "85255",
      "addr_street": "North Scottsdale Road",
      "addr_housenumber": "17797",
      "value": 323.5831177519724
    },
    {
      "id": 126795,
      "geometry": "POINT (-111.924504 33.650783)",
      "poi_name": "Lou Malnati's Pizzeria",
      "osm_id": 8000958327,
      "amenity": "restaurant",
      "cuisine": "pizza",
      "addr_state": "AZ",
      "addr_city": "Scottsdale",
      "addr_postcode": "85255",
      "addr_street": "North Scottsdale Road",
      "addr_housenumber": "17787",
      "value": 323.5831177519724
    },
    {
      "id": 126865,
      "geometry": "POINT (-111.922917 33.636298)",
      "poi_name": "Yume Sushi Grill",
      "osm_id": 8005379487,
      "amenity": "restaurant",
      "cuisine": "sushi",
      "addr_state": "AZ",
      "addr_city": "Scottsdale",
      "addr_postcode": "85254",
      "addr_street": "North Scottsdale Road",
      "addr_housenumber": "16459",
      "value": 323.5831177519724
    },
    {
      "id": 126796,
      "geometry": "POINT (-111.924486 33.650113)",
      "poi_name": "OEB Breakfast Co.",
      "osm_id": 8000958329,
      "amenity": "restaurant",
      "value": 323.5831177519724
    },
    {
      "id": 126800,
      "geometry": "POINT (-111.932243 33.656143)",
      "poi_name": "Hot N Juicy Crawfish",
      "osm_id": 8001145256,
      "amenity": "restaurant",
      "cuisine": "cajun;seafood",
      "value": 323.5831177519724
    },
    {
      "id": 126801,
      "geometry": "POINT (-111.932203 33.656855)",
      "poi_name": "Umami BBQ Sushi",
      "osm_id": 8001145258,
      "amenity": "restaurant",
      "cuisine": "sushi",
      "value": 323.5831177519724
    },
    {
      "id": 126802,
      "geometry": "POINT (-111.93311 33.658145)",
      "poi_name": "Bop & Roll",
      "osm_id": 8001157294,
      "amenity": "restaurant",
      "cuisine": "asian",
      "opening_hours": "Mo-Sa 11:00-21:00",
      "website": "https://www.bopandroll.com/",
      "phone": "+1-480-590-0039",
      "addr_state": "AZ",
      "addr_city": "Phoenix",
      "addr_postcode": "85054",
      "addr_street": "East Mayo Boulevard",
      "addr_housenumber": "7000",
      "value": 323.5831177519724
    },
    {
      "id": 126803,
      "geometry": "POINT (-111.932957 33.658146)",
      "poi_name": "Tea Light Cafe",
      "osm_id": 8001157296,
      "amenity": "restaurant",
      "cuisine": "vietnamese",
      "opening_hours": "Mo-Sa 11:00-20:00",
      "website": "http://www.tealightcafe.co/",
      "phone": "+1-480-538-1600",
      "addr_state": "AZ",
      "addr_city": "Phoenix",
      "addr_postcode": "85054",
      "addr_street": "East Mayo Boulevard",
      "addr_housenumber": "7000",
      "value": 323.5831177519724
    },
    {
      "id": 126804,
      "geometry": "POINT (-111.932768 33.658159)",
      "poi_name": "Twisted Curry",
      "osm_id": 8001157298,
      "amenity": "restaurant",
      "cuisine": "indian",
      "value": 323.5831177519724
    },
    {
      "id": 126805,
      "geometry": "POINT (-111.932562 33.658057)",
      "poi_name": "Cien Agaves",
      "osm_id": 8001157299,
      "amenity": "restaurant",
      "cuisine": "mexican",
      "opening_hours": "Su-Th 11:00-21:00; Fr-Sa 11:00-22:00",
      "website": "https://www.cienagaves.com/",
      "phone": "+1-480-467-4455",
      "addr_state": "AZ",
      "addr_city": "Phoenix",
      "addr_postcode": "85054",
      "addr_street": "East Mayo Boulevard",
      "addr_housenumber": "7000",
      "value": 323.5831177519724
    },
    {
      "id": 126806,
      "geometry": "POINT (-111.932116 33.658141)",
      "poi_name": "PINO",
      "osm_id": 8001157316,
      "amenity": "restaurant",
      "cuisine": "italian",
      "opening_hours": "Mo-Su 10:00-21:00",
      "website": "https://pizzapino.us/",
      "phone": "+1-480-513-7466",
      "addr_state": "AZ",
      "addr_city": "Phoenix",
      "addr_postcode": "85054",
      "addr_street": "East Mayo Boulevard",
      "addr_housenumber": "7000",
      "value": 323.5831177519724
    },
    {
      "id": 126807,
      "geometry": "POINT (-111.931916 33.658242)",
      "poi_name": "Mr Mesquite Taqueria",
      "osm_id": 8001157318,
      "amenity": "restaurant",
      "cuisine": "mexican",
      "value": 323.5831177519724
    },
    {
      "id": 126848,
      "geometry": "POINT (-111.929105 33.653945)",
      "poi_name": "ProteinHouse",
      "osm_id": 8004518251,
      "amenity": "restaurant",
      "value": 323.5831177519724
    },
    {
      "id": 126855,
      "geometry": "POINT (-111.91911 33.645562)",
      "poi_name": "Ironwood American Kitchen",
      "osm_id": 8004688910,
      "amenity": "restaurant",
      "value": 323.5831177519724
    },
    {
      "id": 126856,
      "geometry": "POINT (-111.918916 33.645108)",
      "poi_name": "La Hacienda",
      "osm_id": 8004688911,
      "amenity": "restaurant",
      "cuisine": "mexican",
      "value": 323.5831177519724
    },
    {
      "id": 126857,
      "geometry": "POINT (-111.925848 33.641283)",
      "poi_name": "Persian Room - Fine Dining",
      "osm_id": 8004736411,
      "amenity": "restaurant",
      "addr_state": "AZ",
      "addr_city": "Phoenix",
      "addr_postcode": "85255",
      "addr_street": "North Scottsdale Road",
      "addr_housenumber": "17040",
      "value": 323.5831177519724
    },
    {
      "id": 126858,
      "geometry": "POINT (-111.924735 33.64101)",
      "poi_name": "Sushi Brokers",
      "osm_id": 8004736414,
      "amenity": "restaurant",
      "cuisine": "sushi",
      "opening_hours": "Mo-Th 11:00-23:00; Fr, Sa 11:00-01:00; Su 11:00-22:00",
      "website": "https://sushibrokers.com/",
      "phone": "480.515.5000",
      "addr_state": "AZ",
      "addr_city": "Scottsdale",
      "addr_postcode": "85255",
      "addr_street": "North Scottsdale Road",
      "addr_housenumber": "17025",
      "value": 323.5831177519724
    },
    {
      "id": 126808,
      "geometry": "POINT (-111.931701 33.658254)",
      "poi_name": "AZ Kabob House",
      "osm_id": 8001157320,
      "amenity": "restaurant",
      "cuisine": "persian",
      "value": 323.5831177519724
    },
    {
      "id": 126866,
      "geometry": "POINT (-111.922363 33.635455)",
      "poi_name": "First Watch",
      "osm_id": 8005379491,
      "amenity": "restaurant",
      "cuisine": "american;breakfast",
      "official_name": "First Watch The Daytime Cafe",
      "addr_state": "AZ",
      "addr_city": "Scottsdale",
      "addr_postcode": "85254",
      "addr_street": "North Scottsdale Road",
      "addr_housenumber": "16455",
      "value": 323.5831177519724
    },
    {
      "id": 126809,
      "geometry": "POINT (-111.925936 33.656748)",
      "poi_name": "Butters Pancakes & Cafe",
      "osm_id": 8001157481,
      "amenity": "restaurant",
      "cuisine": "breakfast",
      "opening_hours": "Mo-Su 06:30-14:30",
      "website": "https://www.butterscafe.com/",
      "phone": "+1-480-219-6844",
      "addr_state": "AZ",
      "addr_city": "Phoenix",
      "addr_postcode": "85054",
      "addr_street": "East Mayo Boulevard",
      "addr_housenumber": "7000",
      "value": 323.5831177519724
    },
    {
      "id": 126810,
      "geometry": "POINT (-111.929412 33.655506)",
      "poi_name": "Poke Bar",
      "osm_id": 8001157483,
      "amenity": "restaurant",
      "value": 323.5831177519724
    },
    {
      "id": 126867,
      "geometry": "POINT (-111.923925 33.635691)",
      "poi_name": "Bowl of Greens",
      "osm_id": 8005379569,
      "amenity": "restaurant",
      "addr_state": "AZ",
      "addr_city": "Scottsdale",
      "addr_postcode": "85254",
      "addr_street": "North Scottsdale Road",
      "addr_housenumber": "16447",
      "value": 323.5831177519724
    },
    {
      "id": 126813,
      "geometry": "POINT (-111.929193 33.656214)",
      "poi_name": "S. Marantos",
      "osm_id": 8001157492,
      "amenity": "restaurant",
      "cuisine": "italian",
      "opening_hours": "Mo-Sa 11:00-21:00",
      "website": "https://www.smarantos.com/",
      "phone": "+1-602-283-4730",
      "addr_state": "AZ",
      "addr_city": "Phoenix",
      "addr_postcode": "85054",
      "addr_street": "East Mayo Boulevard",
      "addr_housenumber": "7000",
      "value": 323.5831177519724
    },
    {
      "id": 126868,
      "geometry": "POINT (-111.924284 33.634587)",
      "poi_name": "Rinaldi's Italian Deli",
      "osm_id": 8005379605,
      "amenity": "restaurant",
      "cuisine": "italian",
      "addr_state": "AZ",
      "addr_city": "Scottsdale",
      "addr_postcode": "85254",
      "addr_street": "North Scottsdale Road",
      "addr_housenumber": "16211",
      "value": 323.5831177519724
    },
    {
      "id": 126869,
      "geometry": "POINT (-111.924961 33.633751)",
      "poi_name": "Thai Chili 2 Go",
      "osm_id": 8005379687,
      "amenity": "restaurant",
      "cuisine": "thai",
      "addr_state": "AZ",
      "addr_city": "Scottsdale",
      "addr_postcode": "85254",
      "addr_street": "North Scottsdale Road",
      "addr_housenumber": "16203",
      "value": 323.5831177519724
    },
    {
      "id": 126870,
      "geometry": "POINT (-111.924961 33.633555)",
      "poi_name": "Blaze Pizza",
      "osm_id": 8005379688,
      "amenity": "restaurant",
      "cuisine": "pizza",
      "addr_state": "AZ",
      "addr_city": "Scottsdale",
      "addr_postcode": "85254",
      "addr_street": "North Scottsdale Road",
      "addr_housenumber": "16203",
      "value": 323.5831177519724
    },
    {
      "id": 126872,
      "geometry": "POINT (-111.922538 33.6372)",
      "poi_name": "Picazzo's Healthy Italian Kitchen",
      "osm_id": 8005379929,
      "amenity": "restaurant",
      "cuisine": "italian",
      "addr_state": "AZ",
      "addr_city": "Scottsdale",
      "addr_postcode": "85260",
      "addr_street": "East Frank Lloyd Wright Boulevard",
      "addr_housenumber": "7325",
      "value": 323.5831177519724
    },
    {
      "id": 126882,
      "geometry": "POINT (-111.926593 33.637796)",
      "poi_name": "Coconut's Fish Cafe",
      "osm_id": 8007582911,
      "amenity": "restaurant",
      "cuisine": "seafood",
      "addr_state": "AZ",
      "addr_city": "Phoenix",
      "addr_postcode": "85254",
      "addr_street": "North Scottsdale Road",
      "addr_housenumber": "16640",
      "value": 323.5831177519724
    },
    {
      "id": 126883,
      "geometry": "POINT (-111.926114 33.63757)",
      "poi_name": "La Torretta Ristorante",
      "osm_id": 8007582912,
      "amenity": "restaurant",
      "cuisine": "italian",
      "addr_state": "AZ",
      "addr_city": "Phoenix",
      "addr_postcode": "85254",
      "addr_street": "North Scottsdale Road",
      "addr_housenumber": "16640",
      "value": 323.5831177519724
    },
    {
      "id": 126884,
      "geometry": "POINT (-111.925855 33.635978)",
      "poi_name": "Tokyo Joe's",
      "osm_id": 8007591990,
      "amenity": "restaurant",
      "cuisine": "japanese",
      "addr_state": "AZ",
      "addr_city": "Phoenix",
      "addr_postcode": "85254",
      "addr_street": "North Scottsdale Road",
      "addr_housenumber": "16500",
      "value": 323.5831177519724
    },
    {
      "id": 127925,
      "geometry": "POINT (-111.925353 33.494244)",
      "poi_name": "Cien Agaves Tacos & Tequila",
      "osm_id": 8110318536,
      "amenity": "restaurant",
      "cuisine": "mexican",
      "opening_hours": "Mo,We-Th,Su 11:00-23:00; Tu,Fr-Sa 11:00-24:00",
      "website": "https://www.cienagaves.com/",
      "phone": "+14809709002",
      "addr_state": "AZ",
      "addr_city": "Scottsdale",
      "addr_postcode": "85251",
      "addr_street": "East 1st Avenue",
      "addr_housenumber": "7228",
      "value": 323.5831177519724
    },
    {
      "id": 134576,
      "geometry": "POINT (-112.120302 33.797578)",
      "poi_name": "Streets of New York",
      "osm_id": 11476758184,
      "amenity": "restaurant",
      "cuisine": "pizza",
      "opening_hours": "Mo-Su 11:00-21:00",
      "website": "https://www.streetsofnewyork.com/locations",
      "internet_access": "wlan",
      "phone": "+1 (623) 587-0177",
      "addr_state": "AZ",
      "addr_city": "Phoenix",
      "addr_postcode": "85085",
      "addr_street": "West Carefree Highway",
      "addr_housenumber": "2805",
      "value": 323.5831177519724
    },
    {
      "id": 130677,
      "geometry": "POINT (-111.857123 33.494266)",
      "poi_name": "The Stand",
      "osm_id": 9883934621,
      "amenity": "restaurant",
      "cuisine": "indian;native_american",
      "addr_postcode": "85256",
      "addr_street": "North Alma School Road",
      "addr_housenumber": "4020",
      "value": 323.5831177519724
    },
    {
      "id": 131793,
      "geometry": "POINT (-112.10405 33.684239)",
      "poi_name": "Da Valley Grill",
      "osm_id": 9928683441,
      "amenity": "restaurant",
      "opening_hours": "Mo-Fr 10:00-20:00, Sa, Su 10:00-15:00",
      "website": "https://davalleygrillaz.com",
      "phone": "+1-623-587-4706",
      "addr_state": "AZ",
      "addr_city": "Phoenix",
      "addr_postcode": "85027",
      "addr_street": "West Deer Valley Road",
      "value": 323.5831177519724
    },
    {
      "id": 133963,
      "geometry": "POINT (-112.187601 33.64045)",
      "poi_name": "Al's Chicago Gyros",
      "osm_id": 10020225289,
      "amenity": "restaurant",
      "opening_hours": "Mon to sat: 11:00AM to 8:00PM",
      "operator": "Mike George Als",
      "website": "https://alschicagogyros.com",
      "phone": "+1-602-283-4045",
      "value": 323.5831177519724
    },
    {
      "id": 133989,
      "geometry": "POINT (-111.923624 33.62511)",
      "poi_name": "Liz Modern Asian",
      "osm_id": 10022849590,
      "amenity": "restaurant",
      "cuisine": "asian;hong_kong",
      "website": "https://lizmodernasianrestaurant.com/",
      "phone": "+1 480-292-7689",
      "addr_state": "AZ",
      "addr_city": "Scottsdale",
      "addr_street": "North 73rd Street",
      "addr_housenumber": "15323",
      "value": 323.5831177519724
    },
    {
      "id": 136011,
      "geometry": "POINT (-111.928343 33.500912)",
      "poi_name": "Call Her Martina",
      "osm_id": 11554812820,
      "amenity": "restaurant",
      "cuisine": "mexican",
      "website": "https://callhermartina.com/",
      "phone": "4806878592",
      "addr_state": "AZ",
      "addr_city": "Scottsdale",
      "addr_postcode": "85251",
      "addr_street": "East Camelback Road",
      "addr_housenumber": "7135",
      "value": 323.5831177519724
    },
    {
      "id": 135577,
      "geometry": "POINT (-111.931151 33.50457)",
      "poi_name": "Tocaya Modern Mexican",
      "osm_id": 11523827134,
      "amenity": "restaurant",
      "cuisine": "mexican",
      "value": 323.5831177519724
    },
    {
      "id": 138903,
      "geometry": "POINT (-112.114033 33.681708)",
      "poi_name": "Cracker Barrel",
      "osm_id": 6173762585,
      "amenity": "restaurant",
      "cuisine": "american",
      "official_name": "Cracker Barrel Old Country Store",
      "addr_postcode": "85027",
      "addr_street": "North 26th Avenue",
      "addr_housenumber": "21611",
      "value": 323.5831177519724
    },
    {
      "id": 140986,
      "geometry": "POINT (-112.031362 33.630863)",
      "poi_name": "The Tamale Store",
      "osm_id": 6268933198,
      "amenity": "restaurant",
      "cuisine": "mexican",
      "opening_hours": "Mo-Sa 11:00-20:00",
      "website": "https://www.thetamalestore.com",
      "phone": "+1-602-435-2604",
      "takeaway": "yes",
      "addr_state": "AZ",
      "addr_city": "Phoenix",
      "addr_postcode": "85032",
      "addr_street": "North Cave Creek Road",
      "addr_housenumber": "15842",
      "value": 323.5831177519724
    },
    {
      "id": 139576,
      "geometry": "POINT (-112.065683 33.570398)",
      "poi_name": "Mexican Bakery",
      "osm_id": 6204334231,
      "amenity": "restaurant",
      "value": 323.5831177519724
    },
    {
      "id": 140519,
      "geometry": "POINT (-111.97751 33.61089)",
      "poi_name": "Eastwind Sushi and Grill",
      "osm_id": 6249811686,
      "amenity": "restaurant",
      "cuisine": "sushi",
      "value": 323.5831177519724
    },
    {
      "id": 143035,
      "geometry": "POINT (-112.110172 33.611505)",
      "poi_name": "Barro's Pizza",
      "osm_id": 6328143912,
      "amenity": "restaurant",
      "cuisine": "pizza",
      "delivery": "yes",
      "addr_state": "AZ",
      "addr_city": "Phoenix",
      "addr_postcode": "85023",
      "addr_street": "West Thunderbird Road",
      "addr_housenumber": "2510",
      "value": 323.5831177519724
    },
    {
      "id": 143665,
      "geometry": "POINT (-112.165698 33.611457)",
      "poi_name": "Pho Avina",
      "osm_id": 6346405985,
      "amenity": "restaurant",
      "cuisine": "vietnamese",
      "website": "http://www.phoavina.com",
      "phone": "+1-602-439-2547",
      "addr_state": "AZ",
      "addr_city": "Phoenix",
      "addr_postcode": "85306",
      "addr_street": "West Thunderbird Road",
      "addr_housenumber": "4920",
      "value": 323.5831177519724
    },
    {
      "id": 143095,
      "geometry": "POINT (-112.133248 33.609077)",
      "poi_name": "Pizza by Napoli",
      "osm_id": 6328420065,
      "amenity": "restaurant",
      "cuisine": "pizza;italian;sandwich",
      "opening_hours": "Mo-Th 10:30-21:00; Fr,Sa 10:30-22:00; Su 11:30-21:00",
      "takeaway": "yes",
      "toilets": "yes",
      "addr_state": "AZ",
      "addr_city": "Phoenix",
      "addr_postcode": "85023",
      "addr_street": "West Thunderbird Road",
      "addr_housenumber": "3425",
      "value": 323.5831177519724
    },
    {
      "id": 143097,
      "geometry": "POINT (-112.134265 33.609296)",
      "poi_name": "Lenny's Burger Shop",
      "osm_id": 6328423617,
      "amenity": "restaurant",
      "cuisine": "burger",
      "takeaway": "yes",
      "value": 323.5831177519724
    },
    {
      "id": 147614,
      "geometry": "POINT (-111.716943 33.436012)",
      "poi_name": "Alessia's Ristorante Italiano",
      "osm_id": 7550207394,
      "amenity": "restaurant",
      "cuisine": "italian",
      "opening_hours": "Tu-Sa 15:00-21:30; Su 17:00-21:30",
      "website": "https://www.alessiasristoranteitaliano.com/",
      "phone": "+1 (480) 396-2888",
      "addr_state": "AZ",
      "addr_city": "Mesa",
      "addr_postcode": "85205",
      "addr_street": "East Brown Road",
      "addr_housenumber": "5251",
      "value": 323.5831177519724
    },
    {
      "id": 144321,
      "geometry": "POINT (-111.97685 33.585985)",
      "poi_name": "Jet's Pizza",
      "osm_id": 7257118386,
      "amenity": "restaurant",
      "cuisine": "pizza",
      "phone": "+1-480-998-9889",
      "addr_state": "AZ",
      "addr_city": "Phoenix",
      "addr_postcode": "85028",
      "addr_street": "North Tatum Boulevard",
      "addr_housenumber": "10855",
      "value": 323.5831177519724
    },
    {
      "id": 147616,
      "geometry": "POINT (-111.719527 33.450137)",
      "poi_name": "Flancer's",
      "osm_id": 7550241607,
      "amenity": "restaurant",
      "cuisine": "american",
      "opening_hours": "Su-Sa 10:30-21:00",
      "website": "https://flancers.com/",
      "phone": "+1-480-396-0077",
      "addr_state": "AZ",
      "addr_city": "Mesa",
      "addr_postcode": "85205",
      "addr_street": "North Higley Road",
      "addr_housenumber": "1902",
      "value": 323.5831177519724
    },
    {
      "id": 147617,
      "geometry": "POINT (-111.720395 33.451327)",
      "poi_name": "Venezia's Pizzeria",
      "osm_id": 7550241608,
      "amenity": "restaurant",
      "cuisine": "pizza",
      "opening_hours": "Su-Sa 10:30-21:00",
      "website": "https://www.venezias.com/location/north-east-mesa/",
      "phone": "+1-480-396-2000",
      "delivery": "yes",
      "addr_state": "AZ",
      "addr_city": "Mesa",
      "addr_postcode": "85205",
      "addr_street": "East McKellips Road",
      "addr_housenumber": "5057",
      "value": 323.5831177519724
    },
    {
      "id": 147879,
      "geometry": "POINT (-111.804496 33.449838)",
      "poi_name": "King's Chef Chinese Food",
      "osm_id": 7567878603,
      "amenity": "restaurant",
      "cuisine": "chinese",
      "addr_state": "AZ",
      "addr_city": "Mesa",
      "addr_postcode": "85203",
      "addr_street": "North Stapley Drive",
      "addr_housenumber": "1863",
      "value": 323.5831177519724
    },
    {
      "id": 148438,
      "geometry": "POINT (-111.926568 33.499354)",
      "poi_name": "Diego Pops",
      "osm_id": 3952858657,
      "amenity": "restaurant",
      "cuisine": "mexican",
      "outdoor_seating": "yes",
      "value": 323.5831177519724
    },
    {
      "id": 150005,
      "geometry": "POINT (-112.11246 33.857961)",
      "poi_name": "Barro's Pizza",
      "osm_id": 4038866208,
      "amenity": "restaurant",
      "cuisine": "pizza",
      "takeaway": "yes",
      "value": 323.5831177519724
    },
    {
      "id": 169494,
      "geometry": "POINT (-112.065603 33.576191)",
      "poi_name": "Il Posto",
      "osm_id": 2303442909,
      "amenity": "restaurant",
      "cuisine": "italian",
      "value": 323.5831177519724
    },
    {
      "id": 154812,
      "geometry": "POINT (-111.86192 33.574045)",
      "poi_name": "Goldie's Neighborhood Sports Cafe",
      "osm_id": 4256881041,
      "amenity": "restaurant",
      "value": 323.5831177519724
    },
    {
      "id": 157718,
      "geometry": "POINT (-112.063641 33.798384)",
      "poi_name": "Peaks & Valleys",
      "osm_id": 4722711202,
      "amenity": "restaurant",
      "cuisine": "american",
      "value": 323.5831177519724
    },
    {
      "id": 158093,
      "geometry": "POINT (-111.927562 33.490979)",
      "poi_name": "Boss Pizza Kitchen",
      "osm_id": 4734925774,
      "amenity": "restaurant",
      "cuisine": "burger;pizza;sandwich",
      "wheelchair": "yes",
      "opening_hours": "Mo-Th 11:00-22:00; Fr-Sa 11:00-23:00; Su 11:00-21:00",
      "capacity": "200+",
      "phone": "+1-480-777-2677",
      "takeaway": "yes",
      "outdoor_seating": "yes",
      "delivery": "no",
      "addr_state": "AZ",
      "addr_city": "Scottsdale",
      "addr_postcode": "85251",
      "addr_street": "East 2nd Street",
      "addr_housenumber": "7125",
      "value": 323.5831177519724
    },
    {
      "id": 160626,
      "geometry": "POINT (-111.925876 33.497742)",
      "poi_name": "Morning Squeeze",
      "osm_id": 4840570371,
      "amenity": "restaurant",
      "value": 323.5831177519724
    },
    {
      "id": 160627,
      "geometry": "POINT (-111.926447 33.499736)",
      "poi_name": "The Montauk",
      "osm_id": 4840570377,
      "amenity": "restaurant",
      "website": "https://www.themontaukaz.com/",
      "value": 323.5831177519724
    },
    {
      "id": 160628,
      "geometry": "POINT (-111.926395 33.496658)",
      "poi_name": "Wood Fired Pizzaria",
      "osm_id": 4840570380,
      "amenity": "restaurant",
      "addr_state": "AZ",
      "addr_city": "Scottsdale",
      "addr_postcode": "85251",
      "addr_street": "North Scottsdale Road",
      "addr_housenumber": "4164",
      "value": 323.5831177519724
    },
    {
      "id": 160630,
      "geometry": "POINT (-111.927901 33.498055)",
      "poi_name": "Citizen Public House",
      "osm_id": 4840570382,
      "amenity": "restaurant",
      "value": 323.5831177519724
    },
    {
      "id": 160634,
      "geometry": "POINT (-111.92738 33.4988)",
      "poi_name": "Kelly's At Southbridge",
      "osm_id": 4840570390,
      "amenity": "restaurant",
      "value": 323.5831177519724
    },
    {
      "id": 160635,
      "geometry": "POINT (-111.927522 33.499145)",
      "poi_name": "Cowboy Ciao",
      "osm_id": 4840570394,
      "amenity": "restaurant",
      "value": 323.5831177519724
    },
    {
      "id": 160636,
      "geometry": "POINT (-111.925034 33.498108)",
      "poi_name": "Giligins",
      "osm_id": 4840570397,
      "amenity": "restaurant",
      "cuisine": "american",
      "website": "http://giliginsbar.com",
      "addr_postcode": "85251",
      "addr_street": "North Winfield Scott Plaza",
      "addr_housenumber": "4245",
      "value": 323.5831177519724
    },
    {
      "id": 160637,
      "geometry": "POINT (-111.926872 33.500258)",
      "poi_name": "Kyoto",
      "osm_id": 4840570399,
      "amenity": "restaurant",
      "value": 323.5831177519724
    },
    {
      "id": 160638,
      "geometry": "POINT (-111.928312 33.499116)",
      "poi_name": "Marcellino Ristorante",
      "osm_id": 4840570402,
      "amenity": "restaurant",
      "value": 323.5831177519724
    },
    {
      "id": 160640,
      "geometry": "POINT (-111.926399 33.497421)",
      "poi_name": "Crab & Mermaid",
      "osm_id": 4840570406,
      "amenity": "restaurant",
      "value": 323.5831177519724
    },
    {
      "id": 160641,
      "geometry": "POINT (-111.927582 33.497053)",
      "poi_name": "Taj Mahal",
      "osm_id": 4840570408,
      "amenity": "restaurant",
      "cuisine": "indian",
      "website": "https://www.aztajmahal.com/#fine-dining-india",
      "phone": "+1-480-257-1791",
      "addr_postcode": "85251",
      "addr_street": "North Craftsmans Court",
      "addr_housenumber": "4225",
      "value": 323.5831177519724
    },
    {
      "id": 160642,
      "geometry": "POINT (-111.925885 33.499323)",
      "poi_name": "Franco's Italian Caffe",
      "osm_id": 4840570410,
      "amenity": "restaurant",
      "value": 323.5831177519724
    },
    {
      "id": 160643,
      "geometry": "POINT (-111.926421 33.500516)",
      "poi_name": "Stax Bistro",
      "osm_id": 4840570412,
      "amenity": "restaurant",
      "value": 323.5831177519724
    },
    {
      "id": 156555,
      "geometry": "POINT (-112.065441 33.576193)",
      "poi_name": "Scrambles",
      "osm_id": 4664635998,
      "amenity": "restaurant",
      "cuisine": "breakfast",
      "value": 323.5831177519724
    },
    {
      "id": 159546,
      "geometry": "POINT (-111.925732 33.50685)",
      "poi_name": "Postino",
      "osm_id": 4797331469,
      "amenity": "restaurant",
      "value": 323.5831177519724
    },
    {
      "id": 159548,
      "geometry": "POINT (-111.925718 33.506302)",
      "poi_name": "Modern Market",
      "osm_id": 4797331487,
      "amenity": "restaurant",
      "value": 323.5831177519724
    },
    {
      "id": 160227,
      "geometry": "POINT (-111.978064 33.602849)",
      "poi_name": "McAlister's Deli",
      "osm_id": 4827813359,
      "amenity": "restaurant",
      "cuisine": "sandwich",
      "value": 323.5831177519724
    },
    {
      "id": 160646,
      "geometry": "POINT (-111.926391 33.49867)",
      "poi_name": "Farm & Craft",
      "osm_id": 4840570416,
      "amenity": "restaurant",
      "value": 323.5831177519724
    },
    {
      "id": 160648,
      "geometry": "POINT (-111.926403 33.497555)",
      "poi_name": "Cold Beer & Cheeseburgers",
      "osm_id": 4840570419,
      "amenity": "restaurant",
      "value": 323.5831177519724
    },
    {
      "id": 160651,
      "geometry": "POINT (-111.928741 33.495241)",
      "poi_name": "Frank And Lupe's Restaurant and Bar",
      "osm_id": 4840570434,
      "amenity": "restaurant",
      "cuisine": "mexican",
      "wheelchair": "yes",
      "opening_hours": "Mo-Su 11:00-21:00",
      "website": "https://frankandlupes.com/",
      "phone": "+1 480-990-9844",
      "takeaway": "yes",
      "outdoor_seating": "yes",
      "toilets": "yes",
      "addr_state": "AZ",
      "addr_street": "North Marshall Way",
      "addr_housenumber": "4121",
      "value": 323.5831177519724
    },
    {
      "id": 160652,
      "geometry": "POINT (-111.926349 33.500065)",
      "poi_name": "Breakfast Club",
      "osm_id": 4840570436,
      "amenity": "restaurant",
      "value": 323.5831177519724
    },
    {
      "id": 160653,
      "geometry": "POINT (-111.926707 33.498967)",
      "poi_name": "Geisha A Go Go",
      "osm_id": 4840570442,
      "amenity": "restaurant",
      "value": 323.5831177519724
    },
    {
      "id": 160927,
      "geometry": "POINT (-112.132663 33.655054)",
      "poi_name": "Roliberto's Mexican Food",
      "osm_id": 4852979069,
      "amenity": "restaurant",
      "cuisine": "mexican",
      "value": 323.5831177519724
    },
    {
      "id": 161028,
      "geometry": "POINT (-111.928459 33.50017)",
      "poi_name": "Olive And Ivy",
      "osm_id": 4860843141,
      "amenity": "restaurant",
      "value": 323.5831177519724
    },
    {
      "id": 161029,
      "geometry": "POINT (-111.92631 33.498515)",
      "poi_name": "Original Chop Shop Company",
      "osm_id": 4860843148,
      "amenity": "restaurant",
      "value": 323.5831177519724
    },
    {
      "id": 161030,
      "geometry": "POINT (-111.927256 33.497901)",
      "poi_name": "FnB",
      "osm_id": 4860843165,
      "amenity": "restaurant",
      "website": "http://www.fnbrestaurant.com",
      "phone": "+1-480-284-4777",
      "addr_state": "AZ",
      "addr_city": "Scottsdale",
      "addr_postcode": "85251",
      "addr_street": "East 5th Avenue",
      "addr_housenumber": "7125",
      "value": 323.5831177519724
    },
    {
      "id": 161031,
      "geometry": "POINT (-111.929281 33.495176)",
      "poi_name": "Eddie's House",
      "osm_id": 4860843175,
      "amenity": "restaurant",
      "value": 323.5831177519724
    },
    {
      "id": 164099,
      "geometry": "POINT (-111.950111 33.832664)",
      "poi_name": "Local Jonnys",
      "osm_id": 9448680880,
      "amenity": "restaurant",
      "addr_street": "E. Cave Creek Rd",
      "addr_housenumber": "6033",
      "value": 323.5831177519724
    },
    {
      "id": 164102,
      "geometry": "POINT (-111.978312 33.639984)",
      "poi_name": "Saba's  Mediteranean Kitchen",
      "osm_id": 9448796065,
      "amenity": "restaurant",
      "cuisine": "mediterranean",
      "addr_street": "E.Bell Rd",
      "addr_housenumber": "4747",
      "value": 323.5831177519724
    },
    {
      "id": 164104,
      "geometry": "POINT (-111.978352 33.639298)",
      "poi_name": "Big Five Hamburgers",
      "osm_id": 9448807744,
      "amenity": "restaurant",
      "addr_street": "N. Tatum",
      "value": 323.5831177519724
    },
    {
      "id": 169742,
      "geometry": "POINT (-112.036051 33.596161)",
      "poi_name": "Noodle and Rice",
      "osm_id": 2317826019,
      "amenity": "restaurant",
      "cuisine": "chinese;thai",
      "value": 323.5831177519724
    },
    {
      "id": 169683,
      "geometry": "POINT (-111.940513 33.624118)",
      "poi_name": "Perk Eatery",
      "osm_id": 2314524300,
      "amenity": "restaurant",
      "cuisine": "american",
      "value": 323.5831177519724
    },
    {
      "id": 173845,
      "geometry": "POINT (-111.923615 33.539325)",
      "poi_name": "WIldflower Bread Company",
      "osm_id": 2458203777,
      "amenity": "restaurant",
      "opening_hours": "Mo-Su 08:00-20:00",
      "website": "https://wildflowerbread.com/location/scottsdale-seville/",
      "internet_access": "wlan",
      "phone": "480-612-0606",
      "addr_state": "AZ",
      "addr_city": "Paradise Valley",
      "addr_postcode": "85253",
      "addr_street": "North Scottsdale Road",
      "addr_housenumber": "7001",
      "value": 323.5831177519724
    },
    {
      "id": 172888,
      "geometry": "POINT (-111.881651 33.552766)",
      "poi_name": "America's Taco Shop",
      "osm_id": 2418210295,
      "amenity": "restaurant",
      "cuisine": "mexican",
      "addr_state": "AZ",
      "addr_city": "Scottsdale",
      "addr_postcode": "85258",
      "addr_street": "East Via de Ventura",
      "addr_housenumber": "9261",
      "value": 323.5831177519724
    },
    {
      "id": 169785,
      "geometry": "POINT (-111.976814 33.58336)",
      "poi_name": "Z'Tejas Mexican Restaurant and Grill",
      "osm_id": 2319068300,
      "amenity": "restaurant",
      "cuisine": "southwestern",
      "wheelchair": "yes",
      "phone": "+1-480-948-9010",
      "takeaway": "yes",
      "outdoor_seating": "yes",
      "value": 323.5831177519724
    },
    {
      "id": 169788,
      "geometry": "POINT (-111.977017 33.583798)",
      "poi_name": "Uncle Bear's Grill and Tap",
      "osm_id": 2319068303,
      "amenity": "restaurant",
      "cuisine": "american;barbecue;burger;greek",
      "value": 323.5831177519724
    },
    {
      "id": 169789,
      "geometry": "POINT (-112.134398 33.595841)",
      "poi_name": "Rocket Burger",
      "osm_id": 2319078345,
      "amenity": "restaurant",
      "cuisine": "burger",
      "value": 323.5831177519724
    },
    {
      "id": 175667,
      "geometry": "POINT (-112.013821 33.624699)",
      "poi_name": "Sardella's Pizza and Wings",
      "osm_id": 2531569167,
      "amenity": "restaurant",
      "cuisine": "pizza",
      "website": "https://sardellaspizza.com/",
      "addr_state": "AZ",
      "addr_city": "Phoenix",
      "addr_postcode": "85032",
      "addr_street": "East Greenway Road",
      "addr_housenumber": "3143",
      "value": 323.5831177519724
    },
    {
      "id": 178531,
      "geometry": "POINT (-111.880642 33.554017)",
      "poi_name": "Rusty Taco",
      "osm_id": 10728802423,
      "amenity": "restaurant",
      "cuisine": "mexican",
      "value": 323.5831177519724
    },
    {
      "id": 178319,
      "geometry": "POINT (-111.869022 33.539976)",
      "poi_name": "Blue Coyote Cantina",
      "osm_id": 10720329007,
      "amenity": "restaurant",
      "value": 323.5831177519724
    },
    {
      "id": 178320,
      "geometry": "POINT (-111.870219 33.540566)",
      "poi_name": "Ocean Trail",
      "osm_id": 10720329009,
      "amenity": "restaurant",
      "cuisine": "seafood",
      "value": 323.5831177519724
    },
    {
      "id": 178575,
      "geometry": "POINT (-111.887785 33.566384)",
      "poi_name": "Thai Chili2go",
      "osm_id": 10731413200,
      "amenity": "restaurant",
      "cuisine": "thai",
      "value": 323.5831177519724
    },
    {
      "id": 178580,
      "geometry": "POINT (-111.889134 33.568359)",
      "poi_name": "Simply Thai Kitchen",
      "osm_id": 10731489854,
      "amenity": "restaurant",
      "cuisine": "thai",
      "value": 323.5831177519724
    },
    {
      "id": 178591,
      "geometry": "POINT (-111.886072 33.569766)",
      "poi_name": "Chef J Chinese Bistro",
      "osm_id": 10731797448,
      "amenity": "restaurant",
      "cuisine": "chinese",
      "value": 323.5831177519724
    },
    {
      "id": 178593,
      "geometry": "POINT (-111.890174 33.569166)",
      "poi_name": "Thai On Demand",
      "osm_id": 10731811568,
      "amenity": "restaurant",
      "cuisine": "thai",
      "value": 323.5831177519724
    },
    {
      "id": 178594,
      "geometry": "POINT (-111.889804 33.56914)",
      "poi_name": "Yopaulys New York Pizza Co",
      "osm_id": 10731811570,
      "amenity": "restaurant",
      "cuisine": "pizza",
      "value": 323.5831177519724
    },
    {
      "id": 175830,
      "geometry": "POINT (-112.238299 33.670402)",
      "poi_name": "Sardella's Pizza and Wings",
      "osm_id": 2543850615,
      "amenity": "restaurant",
      "cuisine": "italian",
      "website": "https://sardellaspizza.com/",
      "value": 323.5831177519724
    },
    {
      "id": 175831,
      "geometry": "POINT (-112.098099 33.655527)",
      "poi_name": "Sardella's Pizza and Wings",
      "osm_id": 2543854541,
      "amenity": "restaurant",
      "cuisine": "pizza",
      "website": "https://sardellaspizza.com/",
      "addr_state": "AZ",
      "addr_postcode": "85027",
      "addr_street": "North 19th Avenue",
      "addr_housenumber": "18631",
      "value": 323.5831177519724
    },
    {
      "id": 178507,
      "geometry": "POINT (-111.885362 33.540702)",
      "poi_name": "Pick N' Roll",
      "osm_id": 10728621930,
      "amenity": "restaurant",
      "value": 323.5831177519724
    },
    {
      "id": 178595,
      "geometry": "POINT (-111.889185 33.569578)",
      "poi_name": "Red House",
      "osm_id": 10731811571,
      "amenity": "restaurant",
      "cuisine": "chinese",
      "value": 323.5831177519724
    },
    {
      "id": 178533,
      "geometry": "POINT (-111.881101 33.554162)",
      "poi_name": "Dickey's Barbecue Pit",
      "osm_id": 10728802426,
      "amenity": "restaurant",
      "cuisine": "barbecue",
      "value": 323.5831177519724
    },
    {
      "id": 178536,
      "geometry": "POINT (-111.876715 33.555708)",
      "poi_name": "Pangaea Dinosaur Grill",
      "osm_id": 10728802628,
      "amenity": "restaurant",
      "value": 323.5831177519724
    },
    {
      "id": 178537,
      "geometry": "POINT (-111.877214 33.555628)",
      "poi_name": "Johnny Rockets",
      "osm_id": 10728802629,
      "amenity": "restaurant",
      "cuisine": "burger",
      "value": 323.5831177519724
    },
    {
      "id": 178538,
      "geometry": "POINT (-111.87632 33.554666)",
      "poi_name": "Butterfly Cafe",
      "osm_id": 10728802651,
      "amenity": "restaurant",
      "value": 323.5831177519724
    },
    {
      "id": 178981,
      "geometry": "POINT (-111.879691 33.581819)",
      "poi_name": "S&V Urban Italian",
      "osm_id": 10744352569,
      "amenity": "restaurant",
      "cuisine": "italian",
      "value": 323.5831177519724
    },
    {
      "id": 178676,
      "geometry": "POINT (-111.926827 33.612786)",
      "poi_name": "Fresh Mint",
      "osm_id": 10735179614,
      "amenity": "restaurant",
      "cuisine": "asian",
      "value": 323.5831177519724
    },
    {
      "id": 178677,
      "geometry": "POINT (-111.927098 33.613035)",
      "poi_name": "BK Lobster",
      "osm_id": 10735179617,
      "amenity": "restaurant",
      "value": 323.5831177519724
    },
    {
      "id": 178982,
      "geometry": "POINT (-111.878588 33.581598)",
      "poi_name": "Salt & Lime Modern Mexican Grill",
      "osm_id": 10744394909,
      "amenity": "restaurant",
      "cuisine": "mexican",
      "value": 323.5831177519724
    },
    {
      "id": 179052,
      "geometry": "POINT (-111.883924 33.58327)",
      "poi_name": "Jade Palace Restaurant",
      "osm_id": 10746591345,
      "amenity": "restaurant",
      "cuisine": "chinese",
      "value": 323.5831177519724
    },
    {
      "id": 178985,
      "geometry": "POINT (-111.880308 33.580461)",
      "poi_name": "SushiKo",
      "osm_id": 10744406558,
      "amenity": "restaurant",
      "cuisine": "sushi",
      "value": 323.5831177519724
    },
    {
      "id": 179952,
      "geometry": "POINT (-111.899032 33.621297)",
      "poi_name": "Red Dragon Chinese Bistro",
      "osm_id": 10783507386,
      "amenity": "restaurant",
      "cuisine": "chinese",
      "value": 323.5831177519724
    },
    {
      "id": 179100,
      "geometry": "POINT (-111.928754 33.528409)",
      "poi_name": "Werf and Wet",
      "osm_id": 10747234605,
      "amenity": "restaurant",
      "cuisine": "american",
      "wheelchair": "yes",
      "addr_street": "North Scottsdale Road",
      "addr_housenumber": "6114",
      "value": 323.5831177519724
    },
    {
      "id": 179111,
      "geometry": "POINT (-111.894558 33.582762)",
      "poi_name": "Snooze",
      "osm_id": 10747476420,
      "amenity": "restaurant",
      "cuisine": "breakfast",
      "official_name": "Snooze, an A.M. Eatery",
      "value": 323.5831177519724
    },
    {
      "id": 179112,
      "geometry": "POINT (-111.892962 33.583288)",
      "poi_name": "Hello Vietnam - Pho & Roll",
      "osm_id": 10747476552,
      "amenity": "restaurant",
      "cuisine": "vietnamese",
      "value": 323.5831177519724
    },
    {
      "id": 179118,
      "geometry": "POINT (-112.1184 33.78582)",
      "poi_name": "Barro's Pizza",
      "osm_id": 10748442156,
      "amenity": "restaurant",
      "cuisine": "pizza",
      "value": 323.5831177519724
    },
    {
      "id": 179551,
      "geometry": "POINT (-111.892344 33.61968)",
      "poi_name": "Dickey's Barbecue Pit",
      "osm_id": 10767521808,
      "amenity": "restaurant",
      "cuisine": "barbecue",
      "value": 323.5831177519724
    },
    {
      "id": 179553,
      "geometry": "POINT (-111.893435 33.620478)",
      "poi_name": "YC\u2019s Mongolian Grill",
      "osm_id": 10767521863,
      "amenity": "restaurant",
      "value": 323.5831177519724
    },
    {
      "id": 180005,
      "geometry": "POINT (-111.902926 33.622852)",
      "poi_name": "Caf\u00e9 Paris",
      "osm_id": 10786026649,
      "amenity": "restaurant",
      "cuisine": "french",
      "value": 323.5831177519724
    },
    {
      "id": 180006,
      "geometry": "POINT (-111.904394 33.621994)",
      "poi_name": "SugarJam The Southern Kitchen",
      "osm_id": 10786026669,
      "amenity": "restaurant",
      "value": 323.5831177519724
    },
    {
      "id": 179526,
      "geometry": "POINT (-111.966696 33.797661)",
      "poi_name": "Jersey Mikes",
      "osm_id": 10767186950,
      "amenity": "restaurant",
      "value": 323.5831177519724
    },
    {
      "id": 179892,
      "geometry": "POINT (-111.893103 33.62689)",
      "poi_name": "Veggie Village",
      "osm_id": 10780768256,
      "amenity": "restaurant",
      "value": 323.5831177519724
    },
    {
      "id": 179893,
      "geometry": "POINT (-111.89317 33.627299)",
      "poi_name": "Ray's Pizza",
      "osm_id": 10780768260,
      "amenity": "restaurant",
      "cuisine": "pizza",
      "value": 323.5831177519724
    },
    {
      "id": 179895,
      "geometry": "POINT (-111.896656 33.623903)",
      "poi_name": "Gyros Plus",
      "osm_id": 10780808500,
      "amenity": "restaurant",
      "cuisine": "greek",
      "value": 323.5831177519724
    },
    {
      "id": 179896,
      "geometry": "POINT (-111.896647 33.624068)",
      "poi_name": "Maskadores Taco Shop",
      "osm_id": 10780808501,
      "amenity": "restaurant",
      "cuisine": "mexican",
      "value": 323.5831177519724
    },
    {
      "id": 179897,
      "geometry": "POINT (-111.89694 33.622712)",
      "poi_name": "La's Thai Cuisine",
      "osm_id": 10780808504,
      "amenity": "restaurant",
      "cuisine": "thai",
      "value": 323.5831177519724
    },
    {
      "id": 179900,
      "geometry": "POINT (-111.891841 33.628139)",
      "poi_name": "Freshly Laid",
      "osm_id": 10780810880,
      "amenity": "restaurant",
      "cuisine": "breakfast",
      "value": 323.5831177519724
    },
    {
      "id": 179902,
      "geometry": "POINT (-111.891493 33.628145)",
      "poi_name": "Saigon Nites",
      "osm_id": 10780810886,
      "amenity": "restaurant",
      "cuisine": "vietnamese",
      "value": 323.5831177519724
    },
    {
      "id": 179903,
      "geometry": "POINT (-111.897678 33.622302)",
      "poi_name": "Kodo Sushi Sake",
      "osm_id": 10780831808,
      "amenity": "restaurant",
      "cuisine": "japanese",
      "value": 323.5831177519724
    },
    {
      "id": 179953,
      "geometry": "POINT (-111.899042 33.621556)",
      "poi_name": "Habaneros Mexican Grill",
      "osm_id": 10783507388,
      "amenity": "restaurant",
      "cuisine": "mexican",
      "value": 323.5831177519724
    },
    {
      "id": 180298,
      "geometry": "POINT (-111.90903 33.615521)",
      "poi_name": "Treffpunkt",
      "osm_id": 10797728796,
      "amenity": "restaurant",
      "value": 323.5831177519724
    },
    {
      "id": 180254,
      "geometry": "POINT (-111.89695 33.627615)",
      "poi_name": "Caliente Mexican Grill",
      "osm_id": 10796212886,
      "amenity": "restaurant",
      "cuisine": "mexican",
      "value": 323.5831177519724
    },
    {
      "id": 184858,
      "geometry": "POINT (-111.721654 33.42315)",
      "poi_name": "Linda's Hoosier Cafe",
      "osm_id": 7818186355,
      "amenity": "restaurant",
      "cuisine": "american",
      "addr_state": "AZ",
      "addr_city": "Mesa",
      "addr_postcode": "85205",
      "addr_street": "East University Drive",
      "addr_housenumber": "5050",
      "value": 323.5831177519724
    },
    {
      "id": 181929,
      "geometry": "POINT (-111.925517 33.564809)",
      "poi_name": "Panera Bread",
      "osm_id": 10869984905,
      "amenity": "restaurant",
      "value": 323.5831177519724
    },
    {
      "id": 183617,
      "geometry": "POINT (-111.886407 33.639576)",
      "poi_name": "HB Wellness",
      "osm_id": 10938618086,
      "amenity": "restaurant",
      "value": 323.5831177519724
    },
    {
      "id": 181308,
      "geometry": "POINT (-111.925355 33.566875)",
      "poi_name": "Pomo Pizzeria",
      "osm_id": 10840174606,
      "amenity": "restaurant",
      "value": 323.5831177519724
    },
    {
      "id": 181588,
      "geometry": "POINT (-111.887049 33.627502)",
      "poi_name": "Streets of New York",
      "osm_id": 10857350906,
      "amenity": "restaurant",
      "cuisine": "pizza",
      "value": 323.5831177519724
    },
    {
      "id": 181590,
      "geometry": "POINT (-111.887172 33.62774)",
      "poi_name": "Ono Hawaiian BBQ",
      "osm_id": 10857350909,
      "amenity": "restaurant",
      "cuisine": "barbecue;hawaiian",
      "value": 323.5831177519724
    },
    {
      "id": 181592,
      "geometry": "POINT (-111.8892 33.628842)",
      "poi_name": "Cafe Rio",
      "osm_id": 10857350921,
      "amenity": "restaurant",
      "cuisine": "mexican",
      "value": 323.5831177519724
    },
    {
      "id": 181594,
      "geometry": "POINT (-111.875812 33.621205)",
      "poi_name": "Pita Jungle",
      "osm_id": 10857350980,
      "amenity": "restaurant",
      "value": 323.5831177519724
    },
    {
      "id": 181597,
      "geometry": "POINT (-111.875705 33.619171)",
      "poi_name": "La Cucina Bistro & Wine Bar",
      "osm_id": 10857385435,
      "amenity": "restaurant",
      "cuisine": "italian",
      "value": 323.5831177519724
    },
    {
      "id": 181599,
      "geometry": "POINT (-111.876768 33.61995)",
      "poi_name": "Mochilero Kitchen Scottsdale",
      "osm_id": 10857385516,
      "amenity": "restaurant",
      "value": 323.5831177519724
    },
    {
      "id": 181603,
      "geometry": "POINT (-111.888036 33.630298)",
      "poi_name": "Ramen Hood",
      "osm_id": 10857400197,
      "amenity": "restaurant",
      "cuisine": "asian",
      "value": 323.5831177519724
    },
    {
      "id": 184786,
      "geometry": "POINT (-111.721004 33.436486)",
      "poi_name": "New China",
      "osm_id": 7814204025,
      "amenity": "restaurant",
      "cuisine": "chinese",
      "addr_state": "AZ",
      "addr_city": "Mesa",
      "addr_postcode": "85205",
      "addr_street": "North Higley Road",
      "addr_housenumber": "1130",
      "value": 323.5831177519724
    },
    {
      "id": 184867,
      "geometry": "POINT (-111.925586 33.581575)",
      "poi_name": "NYPD Pizza",
      "osm_id": 7818416634,
      "amenity": "restaurant",
      "cuisine": "pizza",
      "wheelchair": "limited",
      "website": "https://www.aznypdpizza.com/",
      "value": 323.5831177519724
    },
    {
      "id": 184868,
      "geometry": "POINT (-111.92675 33.579605)",
      "poi_name": "Pizza Hut",
      "osm_id": 7818446331,
      "amenity": "restaurant",
      "cuisine": "pizza",
      "wheelchair": "limited",
      "website": "https://locations.pizzahut.com/az/scottsdale/10320-n-scottsdale-rd",
      "value": 323.5831177519724
    },
    {
      "id": 184877,
      "geometry": "POINT (-111.72132 33.394368)",
      "poi_name": "Xaviers Casa Reynoso",
      "osm_id": 7818729683,
      "amenity": "restaurant",
      "cuisine": "mexican",
      "addr_state": "AZ",
      "addr_city": "Mesa",
      "addr_postcode": "85206",
      "addr_street": "East Southern Avenue",
      "addr_housenumber": "5110",
      "value": 323.5831177519724
    },
    {
      "id": 184878,
      "geometry": "POINT (-111.717452 33.392231)",
      "poi_name": "Cafe 8",
      "osm_id": 7818740591,
      "amenity": "restaurant",
      "addr_state": "AZ",
      "addr_city": "Mesa",
      "addr_postcode": "85206",
      "addr_street": "East Southern Avenue",
      "addr_housenumber": "5235",
      "value": 323.5831177519724
    },
    {
      "id": 184879,
      "geometry": "POINT (-111.718535 33.392188)",
      "poi_name": "Taco 4U Mexican Food",
      "osm_id": 7818740592,
      "amenity": "restaurant",
      "cuisine": "mexican",
      "value": 323.5831177519724
    },
    {
      "id": 184880,
      "geometry": "POINT (-111.718534 33.3921)",
      "poi_name": "Green Tea Restaurant",
      "osm_id": 7818740593,
      "amenity": "restaurant",
      "cuisine": "chinese",
      "value": 323.5831177519724
    },
    {
      "id": 184881,
      "geometry": "POINT (-111.92484 33.5818)",
      "poi_name": "La Fonda Del Sol",
      "osm_id": 7819098450,
      "amenity": "restaurant",
      "cuisine": "mexican",
      "website": "https://www.lafondadelsoltogo.com/",
      "addr_postcode": "85258",
      "addr_street": "E Via Linda H134, Scottsdale  AZ",
      "addr_housenumber": "10155",
      "value": 323.5831177519724
    },
    {
      "id": 185251,
      "geometry": "POINT (-111.897141 33.678243)",
      "poi_name": "Quill Creek Cafe",
      "osm_id": 7840566461,
      "amenity": "restaurant",
      "value": 323.5831177519724
    },
    {
      "id": 185153,
      "geometry": "POINT (-111.994792 33.626762)",
      "poi_name": "Barros",
      "osm_id": 7836125439,
      "amenity": "restaurant",
      "cuisine": "pizza",
      "value": 323.5831177519724
    },
    {
      "id": 185253,
      "geometry": "POINT (-111.897323 33.678289)",
      "poi_name": "Phil\u2019s Grill",
      "osm_id": 7840566463,
      "amenity": "restaurant",
      "cuisine": "american",
      "value": 323.5831177519724
    },
    {
      "id": 185451,
      "geometry": "POINT (-112.320914 33.741354)",
      "poi_name": "Stevie's New York Style Pizza",
      "osm_id": 7857293386,
      "amenity": "restaurant",
      "cuisine": "pizza",
      "wheelchair": "yes",
      "opening_hours": "Su-Tu 10:30-21:00; We-Sa 10:30-22:00",
      "takeaway": "yes",
      "delivery": "yes",
      "value": 323.5831177519724
    },
    {
      "id": 185452,
      "geometry": "POINT (-112.331504 33.743106)",
      "poi_name": "V's Taproom",
      "osm_id": 7857293388,
      "amenity": "restaurant",
      "cuisine": "american",
      "opening_hours": "Su-Th 11:00-20:00; Fr-Sa 11:00-21:00",
      "outdoor_seating": "yes",
      "value": 323.5831177519724
    },
    {
      "id": 185455,
      "geometry": "POINT (-112.275039 33.712816)",
      "poi_name": "Greek Palace",
      "osm_id": 7857407985,
      "amenity": "restaurant",
      "cuisine": "greek",
      "opening_hours": "11:00-20:00",
      "takeaway": "yes",
      "outdoor_seating": "yes",
      "addr_state": "AZ",
      "addr_city": "Peoria",
      "addr_postcode": "85383",
      "addr_street": "West Happy Valley Parkway",
      "addr_housenumber": "10006",
      "value": 323.5831177519724
    },
    {
      "id": 185456,
      "geometry": "POINT (-112.273307 33.711523)",
      "poi_name": "Twisted Italian",
      "osm_id": 7857407986,
      "amenity": "restaurant",
      "cuisine": "italian",
      "opening_hours": "Mo off; Tu-Th 15:00-20:30; Fr 15:00-21:00; Sa 11:30-21:00; Su 11:30-20:00",
      "takeaway": "yes",
      "addr_state": "AZ",
      "addr_city": "Peoria",
      "addr_postcode": "85383",
      "addr_street": "West Happy Valley Parkway",
      "addr_housenumber": "9940",
      "value": 323.5831177519724
    },
    {
      "id": 185457,
      "geometry": "POINT (-112.273183 33.711494)",
      "poi_name": "Sushi Doraku",
      "osm_id": 7857407987,
      "amenity": "restaurant",
      "cuisine": "sushi",
      "opening_hours": "Mo-Th 11:00-21:00; Fr-Sa 11:00-22:00; Su 12:00-20:00",
      "takeaway": "yes",
      "addr_state": "AZ",
      "addr_city": "Peoria",
      "addr_postcode": "85383",
      "addr_street": "West Happy Valley Parkway",
      "addr_housenumber": "9940",
      "value": 323.5831177519724
    },
    {
      "id": 185458,
      "geometry": "POINT (-112.2732 33.71059)",
      "poi_name": "Squid Ink Sushi Bar",
      "osm_id": 7857407988,
      "amenity": "restaurant",
      "cuisine": "sushi",
      "opening_hours": "Su-Th 11:00-20:00; Fr-Sa 11:00-21:00",
      "takeaway": "yes",
      "outdoor_seating": "yes",
      "addr_state": "AZ",
      "addr_city": "Peoria",
      "addr_postcode": "85383",
      "addr_street": "West Happy Valley Parkway",
      "addr_housenumber": "9947",
      "value": 323.5831177519724
    },
    {
      "id": 185459,
      "geometry": "POINT (-112.27157 33.711578)",
      "poi_name": "Char Pizzeria Napoletana",
      "osm_id": 7857407990,
      "amenity": "restaurant",
      "cuisine": "italian_pizza",
      "outdoor_seating": "yes",
      "addr_state": "AZ",
      "addr_city": "Peoria",
      "addr_postcode": "85383",
      "addr_street": "North Lake Pleasant Parkway",
      "addr_housenumber": "25101",
      "value": 323.5831177519724
    },
    {
      "id": 185460,
      "geometry": "POINT (-112.271262 33.712691)",
      "poi_name": "Hello Vietnam",
      "osm_id": 7857407991,
      "amenity": "restaurant",
      "cuisine": "vietnamese",
      "outdoor_seating": "no",
      "addr_state": "AZ",
      "addr_city": "Peoria",
      "addr_postcode": "85383",
      "addr_street": "North Lake Pleasant Parkway",
      "addr_housenumber": "25225",
      "value": 323.5831177519724
    },
    {
      "id": 185491,
      "geometry": "POINT (-112.132453 33.844281)",
      "poi_name": "Tortas Chano",
      "osm_id": 7859223073,
      "amenity": "restaurant",
      "cuisine": "mexican",
      "value": 323.5831177519724
    },
    {
      "id": 186039,
      "geometry": "POINT (-111.732392 33.451319)",
      "poi_name": "Milano's Pizzeria",
      "osm_id": 7903806027,
      "amenity": "restaurant",
      "cuisine": "pizza",
      "addr_state": "AZ",
      "addr_city": "Mesa",
      "addr_postcode": "85205",
      "addr_street": "East McKellips Road",
      "addr_housenumber": "4545",
      "value": 323.5831177519724
    },
    {
      "id": 185692,
      "geometry": "POINT (-111.772918 33.423597)",
      "poi_name": "Pa Pa Ya Thai",
      "osm_id": 7876906134,
      "amenity": "restaurant",
      "cuisine": "thai",
      "website": "https://www.papayathaimesaaz.com",
      "addr_state": "AZ",
      "addr_city": "Mesa",
      "addr_postcode": "85213",
      "addr_street": "East University Drive",
      "addr_housenumber": "2706",
      "value": 323.5831177519724
    },
    {
      "id": 185693,
      "geometry": "POINT (-111.7729 33.42389)",
      "poi_name": "Christina's Authentic Mexican",
      "osm_id": 7876906135,
      "amenity": "restaurant",
      "cuisine": "mexican",
      "addr_state": "AZ",
      "addr_city": "Mesa",
      "addr_postcode": "85213",
      "addr_street": "East University Drive",
      "addr_housenumber": "2706",
      "value": 323.5831177519724
    },
    {
      "id": 186130,
      "geometry": "POINT (-111.736106 33.414158)",
      "poi_name": "Tao Yuan Chinese Food",
      "osm_id": 7911217625,
      "amenity": "restaurant",
      "cuisine": "chinese",
      "value": 323.5831177519724
    },
    {
      "id": 186086,
      "geometry": "POINT (-111.735357 33.439393)",
      "poi_name": "Salsa Cabana Mexican Grill",
      "osm_id": 7907068589,
      "amenity": "restaurant",
      "cuisine": "mexican",
      "addr_state": "AZ",
      "addr_city": "Mesa",
      "addr_postcode": "85205",
      "addr_street": "North Greenfield Road",
      "addr_housenumber": "1309",
      "value": 323.5831177519724
    },
    {
      "id": 186088,
      "geometry": "POINT (-111.735541 33.43849)",
      "poi_name": "Boca Taqueria",
      "osm_id": 7907068690,
      "amenity": "restaurant",
      "cuisine": "mexican",
      "addr_state": "AZ",
      "addr_city": "Mesa",
      "addr_postcode": "85205",
      "addr_street": "North Greenfield Road",
      "addr_housenumber": "1249",
      "value": 323.5831177519724
    },
    {
      "id": 186040,
      "geometry": "POINT (-111.732059 33.451336)",
      "poi_name": "Morning Glory Brunchery",
      "osm_id": 7903806029,
      "amenity": "restaurant",
      "addr_state": "AZ",
      "addr_city": "Mesa",
      "addr_postcode": "85205",
      "addr_street": "East McKellips Road",
      "addr_housenumber": "4545",
      "value": 323.5831177519724
    },
    {
      "id": 195117,
      "geometry": "POINT (-111.924543 33.650135)",
      "poi_name": "The Clean Counter",
      "osm_id": 10295009355,
      "amenity": "restaurant",
      "description": "Is a Scottsdale AZ organic restaurant dedicated to providing a variety of healthy eating options including organics, vegan, and gluten-free!",
      "opening_hours": "Mo-Fr 09:00-18:00",
      "website": "https://thecleancounter.com/",
      "phone": "480-690-1864",
      "addr_state": "AZ",
      "addr_city": "Scottsdale",
      "addr_postcode": "85255",
      "addr_street": "North Scottsdale Road",
      "value": 323.5831177519724
    },
    {
      "id": 186648,
      "geometry": "POINT (-112.120213 33.598629)",
      "poi_name": "Anzio's Italian Restaurant",
      "osm_id": 7940038976,
      "amenity": "restaurant",
      "cuisine": "italian",
      "website": "https://www.anzios.com/",
      "phone": "+1-602-375-1221",
      "value": 323.5831177519724
    },
    {
      "id": 194565,
      "geometry": "POINT (-111.908631 33.657408)",
      "poi_name": "Pitch Pizzeria",
      "osm_id": 10277656241,
      "amenity": "restaurant",
      "cuisine": "pizza;italian",
      "website": "https://pitchpizzeria.com/",
      "outdoor_seating": "yes",
      "addr_state": "AZ",
      "addr_city": "Scottsdale",
      "addr_postcode": "85255",
      "addr_street": "North Hayden Road",
      "value": 323.5831177519724
    },
    {
      "id": 195737,
      "geometry": "POINT (-111.92884 33.500231)",
      "poi_name": "Prep & Pastry",
      "osm_id": 10422326909,
      "amenity": "restaurant",
      "value": 323.5831177519724
    },
    {
      "id": 196029,
      "geometry": "POINT (-111.922019 33.501411)",
      "poi_name": "Riot House",
      "osm_id": 10559291811,
      "amenity": "restaurant",
      "description": "Sophistication meets excitement at Arizona Foothills Best of our Valley 2019 Best Nightclub, Riot House Scottsdale. The 12,000 square foot multi-use space features a large center bar, well-balanced sidebar, large dance floor, multiple private booths, and",
      "opening_hours": "Thursday 8.00pm \u2013 2.00am,Friday, Saturday and Sunday 5.00pm \u2013 2.00am",
      "website": "https://riothouse.com/",
      "phone": "480-935-5910",
      "addr_state": "AZ",
      "addr_city": "Scottsdale",
      "addr_postcode": "85251",
      "addr_street": "North Saddlebag Trail",
      "addr_housenumber": "4425",
      "value": 323.5831177519724
    },
    {
      "id": 198726,
      "geometry": "POINT (-111.887874 33.674165)",
      "poi_name": "Grimaldi's Pizza",
      "osm_id": 915172332,
      "amenity": "restaurant",
      "value": 323.5831177519724
    },
    {
      "id": 211791,
      "geometry": "POINT (-111.925625 33.493906)",
      "poi_name": "Hula\u2019s",
      "osm_id": 5173661300,
      "amenity": "restaurant",
      "value": 323.5831177519724
    },
    {
      "id": 200791,
      "geometry": "POINT (-111.928776 33.500122)",
      "poi_name": "Olive & Ivy",
      "osm_id": 597548883,
      "amenity": "restaurant",
      "value": 323.5831177519724
    },
    {
      "id": 204067,
      "geometry": "POINT (-111.980523 33.798131)",
      "poi_name": "Ray's Pizza",
      "osm_id": 7112659163,
      "amenity": "restaurant",
      "cuisine": "pizza",
      "opening_hours": "Sa-Th 11:00-20:30; Fr 11:00-21:00",
      "website": "https://www.rayspizzaofcavecreek.com/",
      "phone": "+1-480-488-7823",
      "takeaway": "yes",
      "delivery": "yes",
      "addr_state": "AZ",
      "addr_city": "Cave Creek",
      "addr_postcode": "85331",
      "addr_street": "East Carefree Highway",
      "addr_housenumber": "4705",
      "value": 323.5831177519724
    },
    {
      "id": 204068,
      "geometry": "POINT (-111.980663 33.798207)",
      "poi_name": "Q TO U BBQ",
      "osm_id": 7112659164,
      "amenity": "restaurant",
      "cuisine": "barbecue",
      "opening_hours": "Tu-Sa 11:00-20:30",
      "website": "https://q-to-u-bbq.com/",
      "phone": "+1-480-664-4198",
      "addr_state": "AZ",
      "addr_city": "Cave Creek",
      "addr_postcode": "85331",
      "addr_street": "East Carefree Highway",
      "addr_housenumber": "4705",
      "value": 323.5831177519724
    },
    {
      "id": 204069,
      "geometry": "POINT (-111.979713 33.797645)",
      "poi_name": "Heart & Soul Cafe",
      "osm_id": 7112659165,
      "amenity": "restaurant",
      "cuisine": "american",
      "opening_hours": "Su-Mo 07:00-14:00; Tu-Sa 07:00-02:00",
      "website": "http://heartandsoulcafeaz.com/",
      "phone": "+1-480-595-7300",
      "outdoor_seating": "yes",
      "addr_state": "AZ",
      "addr_city": "Cave Creek",
      "addr_postcode": "85331",
      "addr_street": "East Carefree Highway",
      "addr_housenumber": "4705",
      "value": 323.5831177519724
    },
    {
      "id": 204545,
      "geometry": "POINT (-111.983786 33.765425)",
      "poi_name": "Barro's Pizza",
      "osm_id": 7131956987,
      "amenity": "restaurant",
      "cuisine": "pizza",
      "opening_hours": "Su-Th 10:30-22:00; Fr-Sa 10:30-23:00",
      "website": "https://barrospizza.com/locations/cave-creek-cave-creek-rd-desert-willow-pkwy",
      "phone": "+1-480-419-9161",
      "takeaway": "yes",
      "addr_state": "AZ",
      "addr_city": "Cave Creek",
      "addr_street": "North Cave Creek Road",
      "addr_housenumber": "30815",
      "value": 323.5831177519724
    },
    {
      "id": 205212,
      "geometry": "POINT (-111.885282 33.540394)",
      "poi_name": "Blazin' Mongolian BBQ",
      "osm_id": 7159947053,
      "amenity": "restaurant",
      "cuisine": "mongolian_grill",
      "opening_hours": "Mo-Th 11:00-20:00; Fr,Sa 11:00-21:00; Su 11:00-20:00",
      "website": "https://www.blazinmongolianbbq.com",
      "phone": "+1-480-948-8011",
      "addr_postcode": "85250",
      "addr_street": "East Talking Stick Way",
      "addr_housenumber": "9120",
      "value": 323.5831177519724
    },
    {
      "id": 206351,
      "geometry": "POINT (-111.88846 33.674993)",
      "poi_name": "Liberty Station",
      "osm_id": 7206701449,
      "amenity": "restaurant",
      "cuisine": "american",
      "opening_hours": "Su 10:00-21:00; Mo-Sa 11:00-21:00",
      "website": "https://libertystationtavern.com/",
      "phone": "(480) 278-7044",
      "outdoor_seating": "yes",
      "addr_state": "AZ",
      "addr_city": "Scottsdale",
      "addr_postcode": "85255",
      "addr_street": "North Pima Road",
      "addr_housenumber": "20825",
      "value": 323.5831177519724
    },
    {
      "id": 210308,
      "geometry": "POINT (-112.277772 33.678328)",
      "poi_name": "Pizza Hut",
      "osm_id": 5094104329,
      "amenity": "restaurant",
      "cuisine": "pizza",
      "addr_state": "AZ",
      "addr_city": "Peoria",
      "addr_postcode": "85382",
      "addr_street": "North Lake Pleasant Parkway",
      "addr_housenumber": "21391",
      "value": 323.5831177519724
    },
    {
      "id": 211096,
      "geometry": "POINT (-111.978644 33.600087)",
      "poi_name": "My Pie",
      "osm_id": 5141584699,
      "amenity": "restaurant",
      "phone": "+1-602-992-2575",
      "value": 323.5831177519724
    },
    {
      "id": 200141,
      "geometry": "POINT (-111.978458 33.58519)",
      "poi_name": "Nick's",
      "osm_id": 1015312249,
      "amenity": "restaurant",
      "value": 323.5831177519724
    },
    {
      "id": 203533,
      "geometry": "POINT (-111.926701 33.614531)",
      "poi_name": "Matty Gs Steakburgers and Spirits",
      "osm_id": 7090999585,
      "amenity": "restaurant",
      "cuisine": "american;burger",
      "official_name": "First Watch The Daytime Cafe",
      "value": 323.5831177519724
    },
    {
      "id": 211793,
      "geometry": "POINT (-111.92946 33.493237)",
      "poi_name": "Cafe Fort\u00e9",
      "osm_id": 5173661303,
      "amenity": "restaurant",
      "value": 323.5831177519724
    },
    {
      "id": 211794,
      "geometry": "POINT (-111.929022 33.493256)",
      "poi_name": "Sel",
      "osm_id": 5173661304,
      "amenity": "restaurant",
      "value": 323.5831177519724
    },
    {
      "id": 211795,
      "geometry": "POINT (-111.925902 33.492427)",
      "poi_name": "Bandera",
      "osm_id": 5173661311,
      "amenity": "restaurant",
      "value": 323.5831177519724
    },
    {
      "id": 211796,
      "geometry": "POINT (-111.925883 33.492951)",
      "poi_name": "La Locanda Italian Bistro",
      "osm_id": 5173661316,
      "amenity": "restaurant",
      "cuisine": "italian",
      "wheelchair": "yes",
      "opening_hours": "Su-Th 10:00-21:00; Fr-Sa 10:00-22:00",
      "website": "https;//lalocandaaz.com",
      "phone": "+1 480-284-6511",
      "outdoor_seating": "yes",
      "addr_state": "AZ",
      "addr_city": "Scottsdale",
      "addr_postcode": "85251",
      "addr_street": "East 5th Avenue",
      "addr_housenumber": "6830",
      "value": 323.5831177519724
    },
    {
      "id": 211797,
      "geometry": "POINT (-111.925666 33.494274)",
      "poi_name": "Pita House",
      "osm_id": 5173662830,
      "amenity": "restaurant",
      "value": 323.5831177519724
    },
    {
      "id": 211798,
      "geometry": "POINT (-111.925564 33.492041)",
      "poi_name": "Bootleggers American Smokehouse",
      "osm_id": 5173662831,
      "amenity": "restaurant",
      "cuisine": "barbecue",
      "value": 323.5831177519724
    },
    {
      "id": 211799,
      "geometry": "POINT (-111.926413 33.491612)",
      "poi_name": "Salty Senorita",
      "osm_id": 5173662836,
      "amenity": "restaurant",
      "value": 323.5831177519724
    },
    {
      "id": 211800,
      "geometry": "POINT (-111.925646 33.493263)",
      "poi_name": "Belle's Nashville Kitchen",
      "osm_id": 5173662839,
      "amenity": "restaurant",
      "website": "https://www.bellesnashvillekitchen.com/",
      "phone": "+1 480 590 3190",
      "addr_state": "AZ",
      "addr_city": "Scottsdale",
      "addr_postcode": "85251",
      "addr_street": "East Main Street",
      "addr_housenumber": "7212",
      "value": 323.5831177519724
    },
    {
      "id": 211801,
      "geometry": "POINT (-111.925643 33.491512)",
      "poi_name": "Rehab Burger Therapy",
      "osm_id": 5173662860,
      "amenity": "restaurant",
      "value": 323.5831177519724
    },
    {
      "id": 211802,
      "geometry": "POINT (-111.931003 33.492542)",
      "poi_name": "Alo Cafe",
      "osm_id": 5173662867,
      "amenity": "restaurant",
      "value": 323.5831177519724
    },
    {
      "id": 211803,
      "geometry": "POINT (-111.924966 33.493506)",
      "poi_name": "Nonna",
      "osm_id": 5173662872,
      "amenity": "restaurant",
      "value": 323.5831177519724
    },
    {
      "id": 211804,
      "geometry": "POINT (-111.926368 33.493802)",
      "poi_name": "Grimaldi\u2019s",
      "osm_id": 5173662888,
      "amenity": "restaurant",
      "cuisine": "pizza",
      "value": 323.5831177519724
    },
    {
      "id": 211805,
      "geometry": "POINT (-111.925898 33.49201)",
      "poi_name": "RA Sushi",
      "osm_id": 5173662890,
      "amenity": "restaurant",
      "cuisine": "sushi",
      "value": 323.5831177519724
    },
    {
      "id": 211806,
      "geometry": "POINT (-111.927772 33.492946)",
      "poi_name": "Malee\u2019s Thai",
      "osm_id": 5173662891,
      "amenity": "restaurant",
      "cuisine": "thai",
      "opening_hours": "Tu-Th,Su 16:00-20:00; Fr-Sa 16:00-21:00;",
      "outdoor_seating": "yes",
      "addr_state": "AZ",
      "addr_city": "Scottsdale",
      "addr_postcode": "85251",
      "addr_street": "East Main Street",
      "addr_housenumber": "7131",
      "value": 323.5831177519724
    },
    {
      "id": 211807,
      "geometry": "POINT (-111.926352 33.494364)",
      "poi_name": "Daily Dose",
      "osm_id": 5173662909,
      "amenity": "restaurant",
      "value": 323.5831177519724
    },
    {
      "id": 211808,
      "geometry": "POINT (-111.92492 33.49236)",
      "poi_name": "Karsen\u2019s Grill",
      "osm_id": 5173662910,
      "amenity": "restaurant",
      "value": 323.5831177519724
    },
    {
      "id": 211809,
      "geometry": "POINT (-111.925931 33.491523)",
      "poi_name": "RnR",
      "osm_id": 5173662915,
      "amenity": "restaurant",
      "value": 323.5831177519724
    },
    {
      "id": 211810,
      "geometry": "POINT (-111.924338 33.494343)",
      "poi_name": "The Grapevine",
      "osm_id": 5173662919,
      "amenity": "restaurant",
      "website": "https://grapevineaz.com/",
      "value": 323.5831177519724
    },
    {
      "id": 211811,
      "geometry": "POINT (-111.925931 33.492586)",
      "poi_name": "Pink Pony",
      "osm_id": 5173662920,
      "amenity": "restaurant",
      "value": 323.5831177519724
    },
    {
      "id": 220567,
      "geometry": "POINT (-111.88221 33.639397)",
      "poi_name": "18 Degrees",
      "osm_id": 9377958402,
      "amenity": "restaurant",
      "cuisine": "american",
      "opening_hours": "Mo-Su 11:00-12:00",
      "website": "https://18-degrees.com/",
      "phone": "+1-480-344-2653",
      "addr_state": "AZ",
      "addr_city": "Scottsdale",
      "addr_postcode": "85260",
      "addr_street": "East Bell Road",
      "addr_housenumber": "9375",
      "value": 323.5831177519724
    },
    {
      "id": 217205,
      "geometry": "POINT (-111.909305 33.481024)",
      "poi_name": "Bei Express",
      "osm_id": 9211386024,
      "amenity": "restaurant",
      "cuisine": "sushi",
      "website": "https://www.beiexpress.com/",
      "addr_state": "AZ",
      "addr_city": "Scottsdale",
      "addr_street": "North Hayden Road",
      "value": 323.5831177519724
    },
    {
      "id": 219077,
      "geometry": "POINT (-112.24004 33.681144)",
      "poi_name": "Ray's Pizza",
      "osm_id": 9315118240,
      "amenity": "restaurant",
      "cuisine": "pizza",
      "takeaway": "yes",
      "addr_state": "AZ",
      "addr_city": "Peoria",
      "addr_postcode": "85382",
      "addr_street": "West Deer Valley Road",
      "addr_housenumber": "8385",
      "value": 323.5831177519724
    },
    {
      "id": 219078,
      "geometry": "POINT (-112.240149 33.681143)",
      "poi_name": "Kawaii Sushi and Asian Cuisine",
      "osm_id": 9315118241,
      "amenity": "restaurant",
      "cuisine": "chinese;japanese",
      "opening_hours": "Mo-Th 11:00-21:00; Fr 11:00-22:00; Sa 12:00-22:00; Su 12:00-21:00",
      "takeaway": "yes",
      "addr_state": "AZ",
      "addr_city": "Peoria",
      "addr_postcode": "85382",
      "addr_street": "West Deer Valley Road",
      "addr_housenumber": "8385",
      "value": 323.5831177519724
    },
    {
      "id": 223116,
      "geometry": "POINT (-111.981345 33.597452)",
      "poi_name": "Picazzo's Healthy Italian Kitchen",
      "osm_id": 11047216333,
      "amenity": "restaurant",
      "cuisine": "italian",
      "addr_state": "AZ",
      "addr_city": "Phoenix",
      "addr_postcode": "85032",
      "addr_street": "East Cactus Road",
      "addr_housenumber": "4669",
      "value": 323.5831177519724
    },
    {
      "id": 220795,
      "geometry": "POINT (-111.92489 33.62833)",
      "poi_name": "Sant\u00e9 Restaurant",
      "osm_id": 9386653125,
      "amenity": "restaurant",
      "website": "https://www.lovesante.com/",
      "addr_state": "AZ",
      "addr_city": "Scottsdale",
      "addr_postcode": "85254",
      "addr_street": "North Scottsdale Road",
      "addr_housenumber": "15507",
      "value": 323.5831177519724
    },
    {
      "id": 221657,
      "geometry": "POINT (-111.922356 33.583968)",
      "poi_name": "Pita Jungle",
      "osm_id": 10983256760,
      "amenity": "restaurant",
      "value": 323.5831177519724
    },
    {
      "id": 221670,
      "geometry": "POINT (-111.92354 33.583029)",
      "poi_name": "Caramba",
      "osm_id": 10983327845,
      "amenity": "restaurant",
      "cuisine": "mexican",
      "value": 323.5831177519724
    },
    {
      "id": 221671,
      "geometry": "POINT (-111.922489 33.584249)",
      "poi_name": "Rice Paper",
      "osm_id": 10983327846,
      "amenity": "restaurant",
      "cuisine": "vietnamese",
      "value": 323.5831177519724
    },
    {
      "id": 223252,
      "geometry": "POINT (-111.976305 33.674145)",
      "poi_name": "Breakfast Kitchen Bar",
      "osm_id": 11048925154,
      "amenity": "restaurant",
      "value": 323.5831177519724
    },
    {
      "id": 225163,
      "geometry": "POINT (-112.120424 33.667508)",
      "poi_name": "Wildflower",
      "osm_id": 11112978421,
      "amenity": "restaurant",
      "value": 323.5831177519724
    },
    {
      "id": 223326,
      "geometry": "POINT (-111.979901 33.675099)",
      "poi_name": "Sushi on Tatum",
      "osm_id": 11050189087,
      "amenity": "restaurant",
      "cuisine": "sushi",
      "value": 323.5831177519724
    },
    {
      "id": 223327,
      "geometry": "POINT (-111.980135 33.675038)",
      "poi_name": "Pita Jungle",
      "osm_id": 11050189088,
      "amenity": "restaurant",
      "cuisine": "greek",
      "value": 323.5831177519724
    },
    {
      "id": 223332,
      "geometry": "POINT (-112.029972 33.679079)",
      "poi_name": "Cafe Balkan",
      "osm_id": 11050269520,
      "amenity": "restaurant",
      "value": 323.5831177519724
    },
    {
      "id": 223333,
      "geometry": "POINT (-112.029711 33.678688)",
      "poi_name": "O2 Sushi Phoenix",
      "osm_id": 11050269523,
      "amenity": "restaurant",
      "cuisine": "sushi",
      "value": 323.5831177519724
    },
    {
      "id": 225174,
      "geometry": "POINT (-112.12354 33.666612)",
      "poi_name": "Samurai Sam's",
      "osm_id": 11112978456,
      "amenity": "restaurant",
      "cuisine": "japanese",
      "value": 323.5831177519724
    },
    {
      "id": 225175,
      "geometry": "POINT (-112.123208 33.666573)",
      "poi_name": "Poke Bar",
      "osm_id": 11112978457,
      "amenity": "restaurant",
      "cuisine": "hawaiian",
      "value": 323.5831177519724
    },
    {
      "id": 223231,
      "geometry": "POINT (-111.975005 33.678046)",
      "poi_name": "Fly Bye",
      "osm_id": 11048887406,
      "amenity": "restaurant",
      "cuisine": "pizza",
      "value": 323.5831177519724
    },
    {
      "id": 223237,
      "geometry": "POINT (-111.97159 33.676226)",
      "poi_name": "Tikka Shack",
      "osm_id": 11048915053,
      "amenity": "restaurant",
      "cuisine": "indian",
      "value": 323.5831177519724
    },
    {
      "id": 223238,
      "geometry": "POINT (-111.971395 33.676064)",
      "poi_name": "Sid's Garage",
      "osm_id": 11048915055,
      "amenity": "restaurant",
      "value": 323.5831177519724
    },
    {
      "id": 223239,
      "geometry": "POINT (-111.971113 33.676202)",
      "poi_name": "Yard House",
      "osm_id": 11048915056,
      "amenity": "restaurant",
      "cuisine": "american",
      "value": 323.5831177519724
    },
    {
      "id": 223240,
      "geometry": "POINT (-111.971576 33.675834)",
      "poi_name": "Spitz",
      "osm_id": 11048915059,
      "amenity": "restaurant",
      "value": 323.5831177519724
    },
    {
      "id": 223241,
      "geometry": "POINT (-111.971353 33.675671)",
      "poi_name": "Cupbop Korean BBQ",
      "osm_id": 11048915060,
      "amenity": "restaurant",
      "cuisine": "korean",
      "value": 323.5831177519724
    },
    {
      "id": 223246,
      "geometry": "POINT (-111.972139 33.675892)",
      "poi_name": "Slices",
      "osm_id": 11048915070,
      "amenity": "restaurant",
      "cuisine": "pizza",
      "value": 323.5831177519724
    },
    {
      "id": 223249,
      "geometry": "POINT (-111.974254 33.676222)",
      "poi_name": "Artichoke Pizza",
      "osm_id": 11048915081,
      "amenity": "restaurant",
      "cuisine": "pizza",
      "value": 323.5831177519724
    },
    {
      "id": 223250,
      "geometry": "POINT (-111.974559 33.676429)",
      "poi_name": "Jin Jia",
      "osm_id": 11048915082,
      "amenity": "restaurant",
      "cuisine": "asian",
      "value": 323.5831177519724
    },
    {
      "id": 223251,
      "geometry": "POINT (-111.9768 33.674865)",
      "poi_name": "Flower Child",
      "osm_id": 11048925152,
      "amenity": "restaurant",
      "value": 323.5831177519724
    },
    {
      "id": 223804,
      "geometry": "POINT (-112.031724 33.671201)",
      "poi_name": "Federico's Mexican Food",
      "osm_id": 11064072259,
      "amenity": "restaurant",
      "cuisine": "mexican",
      "value": 323.5831177519724
    },
    {
      "id": 223806,
      "geometry": "POINT (-112.030148 33.67099)",
      "poi_name": "Upper Crust Pizza",
      "osm_id": 11064072278,
      "amenity": "restaurant",
      "cuisine": "pizza",
      "value": 323.5831177519724
    },
    {
      "id": 223807,
      "geometry": "POINT (-112.029921 33.670921)",
      "poi_name": "Maskadores Taco Shop",
      "osm_id": 11064072279,
      "amenity": "restaurant",
      "cuisine": "mexican",
      "value": 323.5831177519724
    },
    {
      "id": 224235,
      "geometry": "POINT (-112.118212 33.670175)",
      "poi_name": "Pizza Hut",
      "osm_id": 11076259266,
      "amenity": "restaurant",
      "cuisine": "pizza",
      "value": 323.5831177519724
    },
    {
      "id": 225164,
      "geometry": "POINT (-112.120518 33.667715)",
      "poi_name": "Johnny Rockets",
      "osm_id": 11112978422,
      "amenity": "restaurant",
      "cuisine": "burger",
      "value": 323.5831177519724
    },
    {
      "id": 225165,
      "geometry": "POINT (-112.120729 33.667712)",
      "poi_name": "Noodles & Company",
      "osm_id": 11112978423,
      "amenity": "restaurant",
      "cuisine": "pasta",
      "value": 323.5831177519724
    },
    {
      "id": 225166,
      "geometry": "POINT (-112.124895 33.666717)",
      "poi_name": "Barro's Pizza",
      "osm_id": 11112978448,
      "amenity": "restaurant",
      "cuisine": "pizza",
      "value": 323.5831177519724
    },
    {
      "id": 225168,
      "geometry": "POINT (-112.124281 33.66667)",
      "poi_name": "Fired Pie",
      "osm_id": 11112978450,
      "amenity": "restaurant",
      "cuisine": "pizza",
      "value": 323.5831177519724
    },
    {
      "id": 225241,
      "geometry": "POINT (-112.150832 33.610406)",
      "poi_name": "First Watch",
      "osm_id": 11115551990,
      "amenity": "restaurant",
      "cuisine": "american;breakfast",
      "official_name": "First Watch The Daytime Cafe",
      "value": 323.5831177519724
    },
    {
      "id": 225169,
      "geometry": "POINT (-112.124553 33.666717)",
      "poi_name": "George & Son's Asian Cuisine",
      "osm_id": 11112978451,
      "amenity": "restaurant",
      "cuisine": "asian",
      "value": 323.5831177519724
    },
    {
      "id": 226183,
      "geometry": "POINT (-111.892192 33.619862)",
      "poi_name": "De Babel",
      "osm_id": 11151153606,
      "amenity": "restaurant",
      "cuisine": "lebanese;mediterranean",
      "website": "https://de-babel.com/",
      "phone": "4809912022",
      "addr_postcode": "85260",
      "value": 323.5831177519724
    },
    {
      "id": 226202,
      "geometry": "POINT (-112.067887 33.638484)",
      "poi_name": "Sushi Style",
      "osm_id": 11151904545,
      "amenity": "restaurant",
      "website": "https://sushistyleaz.com/",
      "phone": "(602) 866-1505",
      "addr_state": "AZ",
      "addr_city": "Phoenix",
      "addr_postcode": "85022",
      "addr_street": "East Bell Road",
      "addr_housenumber": "401",
      "value": 323.5831177519724
    },
    {
      "id": 226117,
      "geometry": "POINT (-112.184918 33.670825)",
      "poi_name": "Abacus Inn",
      "osm_id": 11149088925,
      "amenity": "restaurant",
      "cuisine": "chinese",
      "value": 323.5831177519724
    },
    {
      "id": 226119,
      "geometry": "POINT (-112.187403 33.66938)",
      "poi_name": "Stevie's Pizza",
      "osm_id": 11149088954,
      "amenity": "restaurant",
      "cuisine": "pizza",
      "value": 323.5831177519724
    },
    {
      "id": 226120,
      "geometry": "POINT (-112.187386 33.669918)",
      "poi_name": "Sakana Sushi & Grill",
      "osm_id": 11149088956,
      "amenity": "restaurant",
      "cuisine": "sushi",
      "value": 323.5831177519724
    },
    {
      "id": 226135,
      "geometry": "POINT (-112.187134 33.667199)",
      "poi_name": "Ricardo's Mexican Food",
      "osm_id": 11149118630,
      "amenity": "restaurant",
      "cuisine": "mexican",
      "value": 323.5831177519724
    },
    {
      "id": 227180,
      "geometry": "POINT (-112.22411 33.639217)",
      "poi_name": "New York Pizza Department",
      "osm_id": 11182367379,
      "amenity": "restaurant",
      "cuisine": "pizza",
      "value": 323.5831177519724
    },
    {
      "id": 226139,
      "geometry": "POINT (-112.187947 33.662776)",
      "poi_name": "The Melting Pot",
      "osm_id": 11149154394,
      "amenity": "restaurant",
      "cuisine": "fondue",
      "value": 323.5831177519724
    },
    {
      "id": 226140,
      "geometry": "POINT (-112.187442 33.662616)",
      "poi_name": "Bottega Pizzeria Ristorante",
      "osm_id": 11149154449,
      "amenity": "restaurant",
      "cuisine": "pizza",
      "value": 323.5831177519724
    },
    {
      "id": 226513,
      "geometry": "POINT (-112.201673 33.670463)",
      "poi_name": "Samurai Sam's",
      "osm_id": 11162300028,
      "amenity": "restaurant",
      "cuisine": "japanese",
      "value": 323.5831177519724
    },
    {
      "id": 226514,
      "geometry": "POINT (-112.201532 33.670557)",
      "poi_name": "Jet's Pizza",
      "osm_id": 11162300031,
      "amenity": "restaurant",
      "cuisine": "pizza",
      "value": 323.5831177519724
    },
    {
      "id": 226515,
      "geometry": "POINT (-112.200372 33.669842)",
      "poi_name": "Babbo Italian Eatery",
      "osm_id": 11162300041,
      "amenity": "restaurant",
      "cuisine": "italian",
      "value": 323.5831177519724
    },
    {
      "id": 226516,
      "geometry": "POINT (-112.200275 33.670329)",
      "poi_name": "Pita Kitchen",
      "osm_id": 11162300046,
      "amenity": "restaurant",
      "cuisine": "greek",
      "value": 323.5831177519724
    },
    {
      "id": 226519,
      "geometry": "POINT (-112.204072 33.665794)",
      "poi_name": "Pei Wei",
      "osm_id": 11162300111,
      "amenity": "restaurant",
      "cuisine": "asian",
      "value": 323.5831177519724
    },
    {
      "id": 226521,
      "geometry": "POINT (-112.201695 33.666624)",
      "poi_name": "Urban Agave",
      "osm_id": 11162300138,
      "amenity": "restaurant",
      "cuisine": "mexican",
      "value": 323.5831177519724
    },
    {
      "id": 226522,
      "geometry": "POINT (-112.201683 33.665453)",
      "poi_name": "HARU Sushi",
      "osm_id": 11162302298,
      "amenity": "restaurant",
      "cuisine": "sushi",
      "value": 323.5831177519724
    },
    {
      "id": 226525,
      "geometry": "POINT (-112.220955 33.67392)",
      "poi_name": "Lou Malnati's",
      "osm_id": 11162323093,
      "amenity": "restaurant",
      "cuisine": "pizza",
      "value": 323.5831177519724
    },
    {
      "id": 226526,
      "geometry": "POINT (-112.220746 33.673786)",
      "poi_name": "Matt's Big Breakfast",
      "osm_id": 11162323094,
      "amenity": "restaurant",
      "value": 323.5831177519724
    },
    {
      "id": 226527,
      "geometry": "POINT (-112.220952 33.67101)",
      "poi_name": "Fired Pie",
      "osm_id": 11162323145,
      "amenity": "restaurant",
      "cuisine": "pizza",
      "value": 323.5831177519724
    },
    {
      "id": 227170,
      "geometry": "POINT (-112.230011 33.640625)",
      "poi_name": "Crab N Spice",
      "osm_id": 11182225386,
      "amenity": "restaurant",
      "cuisine": "seafood",
      "value": 323.5831177519724
    },
    {
      "id": 227104,
      "geometry": "POINT (-112.2337 33.653495)",
      "poi_name": "Charley's Sports Grill",
      "osm_id": 11180321806,
      "amenity": "restaurant",
      "value": 323.5831177519724
    },
    {
      "id": 227106,
      "geometry": "POINT (-112.234644 33.654224)",
      "poi_name": "KiKu Revolving Sushi",
      "osm_id": 11180329037,
      "amenity": "restaurant",
      "cuisine": "sushi",
      "value": 323.5831177519724
    },
    {
      "id": 227107,
      "geometry": "POINT (-112.235493 33.653088)",
      "poi_name": "Arrowhead Grill",
      "osm_id": 11180329081,
      "amenity": "restaurant",
      "cuisine": "steak_house",
      "value": 323.5831177519724
    },
    {
      "id": 227182,
      "geometry": "POINT (-112.221116 33.63994)",
      "poi_name": "Pita Jungle",
      "osm_id": 11182367412,
      "amenity": "restaurant",
      "cuisine": "greek",
      "value": 323.5831177519724
    },
    {
      "id": 227108,
      "geometry": "POINT (-112.236026 33.653204)",
      "poi_name": "Picazzo's Healthy Italian Kitchen",
      "osm_id": 11180329082,
      "amenity": "restaurant",
      "cuisine": "italian",
      "value": 323.5831177519724
    },
    {
      "id": 227188,
      "geometry": "POINT (-112.219525 33.637448)",
      "poi_name": "Thai Chili 2 Go",
      "osm_id": 11182404996,
      "amenity": "restaurant",
      "cuisine": "thai",
      "value": 323.5831177519724
    },
    {
      "id": 227116,
      "geometry": "POINT (-112.236558 33.647332)",
      "poi_name": "First Watch",
      "osm_id": 11180401784,
      "amenity": "restaurant",
      "cuisine": "american;breakfast",
      "official_name": "First Watch The Daytime Cafe",
      "value": 323.5831177519724
    },
    {
      "id": 227117,
      "geometry": "POINT (-112.23621 33.646414)",
      "poi_name": "Inchin's Bamboo Garden",
      "osm_id": 11180401790,
      "amenity": "restaurant",
      "cuisine": "indian",
      "value": 323.5831177519724
    },
    {
      "id": 227189,
      "geometry": "POINT (-112.21972 33.637518)",
      "poi_name": "Dickey's Barbecue Pit",
      "osm_id": 11182404997,
      "amenity": "restaurant",
      "cuisine": "barbecue",
      "value": 323.5831177519724
    },
    {
      "id": 227191,
      "geometry": "POINT (-112.219727 33.63771)",
      "poi_name": "Cafe Rio",
      "osm_id": 11182404999,
      "amenity": "restaurant",
      "cuisine": "mexican",
      "value": 323.5831177519724
    },
    {
      "id": 227195,
      "geometry": "POINT (-112.223513 33.63689)",
      "poi_name": "Leo's Island BBQ",
      "osm_id": 11182405031,
      "amenity": "restaurant",
      "cuisine": "barbecue",
      "value": 323.5831177519724
    },
    {
      "id": 227198,
      "geometry": "POINT (-112.217562 33.637738)",
      "poi_name": "Greek Wraps",
      "osm_id": 11182417400,
      "amenity": "restaurant",
      "cuisine": "greek",
      "value": 323.5831177519724
    },
    {
      "id": 228069,
      "geometry": "POINT (-112.119793 33.640986)",
      "poi_name": "Chennai Chettinaad Palace",
      "osm_id": 4329458380,
      "amenity": "restaurant",
      "cuisine": "indian",
      "website": "http://www.chennaichettinaadpalace.com",
      "phone": "+1-602-993-0085",
      "delivery": "yes",
      "addr_state": "AZ",
      "addr_city": "Phoenix",
      "addr_postcode": "85053",
      "addr_street": "West Bell Road",
      "addr_housenumber": "2814",
      "value": 323.5831177519724
    },
    {
      "id": 227293,
      "geometry": "POINT (-111.905101 33.671966)",
      "poi_name": "Ling's Wok Shop",
      "osm_id": 11186928624,
      "amenity": "restaurant",
      "opening_hours": "Mo-Th, Su 11:00-21:00; Fr, Sa 11:00-22:00",
      "website": "https://www.lingswok.shop",
      "phone": "4808016524",
      "addr_street": "North Hayden Road",
      "addr_housenumber": "20511",
      "value": 323.5831177519724
    },
    {
      "id": 229531,
      "geometry": "POINT (-111.878468 33.581742)",
      "poi_name": "Ling & Louis's Asian Bar & Grill",
      "osm_id": 4384840063,
      "amenity": "restaurant",
      "cuisine": "american",
      "website": "https://lingandlouies.com/scottsdale/",
      "phone": "+1-480-767-5464",
      "value": 323.5831177519724
    },
    {
      "id": 237125,
      "geometry": "POINT (-111.923982 33.67652)",
      "poi_name": "Pei Wei",
      "osm_id": 5819923558,
      "amenity": "restaurant",
      "cuisine": "asian",
      "opening_hours": "Su-Th 10:30-21:00; Fr-Sa 10:30-21:30",
      "website": "https://www.peiwei.com",
      "phone": "(480) 365-6002",
      "addr_postcode": "85255",
      "addr_street": "North Scottsdale Road",
      "addr_housenumber": "20851",
      "value": 323.5831177519724
    },
    {
      "id": 236926,
      "geometry": "POINT (-111.926132 33.530852)",
      "poi_name": "Fogo de Ch\u00e3o Brazilian Steakhouse",
      "osm_id": 5812394453,
      "amenity": "restaurant",
      "cuisine": "brazilian",
      "website": "http://www.fogodechao.com",
      "phone": "4806098866",
      "addr_postcode": "85253",
      "addr_street": "North Scottsdale Road",
      "addr_housenumber": "6300",
      "value": 323.5831177519724
    },
    {
      "id": 237126,
      "geometry": "POINT (-111.934964 33.833079)",
      "poi_name": "The Horny Toad",
      "osm_id": 5819923961,
      "amenity": "restaurant",
      "cuisine": "american",
      "opening_hours": "Su-Th 11:00-21:00; Fr-Sa 11:00-22:00",
      "website": "https://thehornytoad.com",
      "phone": "(480) 488-9542",
      "addr_state": "AZ",
      "addr_city": "Cave Creek",
      "addr_postcode": "85331",
      "addr_street": "East Cave Creek Road",
      "addr_housenumber": "6738",
      "value": 323.5831177519724
    },
    {
      "id": 237127,
      "geometry": "POINT (-111.889089 33.700844)",
      "poi_name": "Jade Palace",
      "osm_id": 5819923962,
      "amenity": "restaurant",
      "cuisine": "chinese",
      "opening_hours": "Mo-Th 11:00-21:00; Fr 11:00-22:00; Sa 12:00-22:00; Su 11:30-21:00",
      "website": "http://jadepalacescottsdale.com",
      "phone": "(480) 585-6630",
      "addr_postcode": "85255",
      "addr_street": "East Pinnacle Peak Road",
      "addr_housenumber": "8876",
      "value": 323.5831177519724
    },
    {
      "id": 237128,
      "geometry": "POINT (-111.888482 33.69979)",
      "poi_name": "Lamp Pizzeria",
      "osm_id": 5819923964,
      "amenity": "restaurant",
      "cuisine": "pizza",
      "opening_hours": "Su, Tu-Th 16:00-21:00; Fr-Sa 11:30-22:00",
      "website": "https://lamppizza.com/",
      "phone": "(480) 292-8773",
      "addr_postcode": "85255",
      "addr_street": "East Pinnacle Peak Road",
      "addr_housenumber": "8900",
      "value": 323.5831177519724
    },
    {
      "id": 237132,
      "geometry": "POINT (-111.889736 33.701043)",
      "poi_name": "Mastro's Steakhouse",
      "osm_id": 5819929055,
      "amenity": "restaurant",
      "cuisine": "fine_dining;steak_house;sushi",
      "opening_hours": "Su-Th 17:00-22:00; Fr-Sa 17:00-23:00",
      "website": "https://www.mastrosrestaurants.com",
      "phone": "(480) 585-9500",
      "addr_postcode": "85255",
      "addr_street": "East Pinnacle Peak Road",
      "addr_housenumber": "8852",
      "value": 323.5831177519724
    },
    {
      "id": 237184,
      "geometry": "POINT (-111.923625 33.674525)",
      "poi_name": "Barro's Pizza",
      "osm_id": 5821564453,
      "amenity": "restaurant",
      "cuisine": "pizza",
      "opening_hours": "Su-Th 10:30-22:00; Fr-Sa 10:30-23:00",
      "website": "https://www.barrospizza.com",
      "phone": "(480) 513-8393",
      "addr_state": "AZ",
      "addr_city": "Scottsdale",
      "addr_postcode": "85255",
      "addr_street": "North Scottsdale Road",
      "addr_housenumber": "20701",
      "value": 323.5831177519724
    },
    {
      "id": 238625,
      "geometry": "POINT (-111.92357 33.624467)",
      "poi_name": "Zinburger Wine & Burger Bar",
      "osm_id": 5887067560,
      "amenity": "restaurant",
      "website": "https://zinburgeraz.com/",
      "outdoor_seating": "yes",
      "value": 323.5831177519724
    },
    {
      "id": 238626,
      "geometry": "POINT (-111.923556 33.625163)",
      "poi_name": "Sorso Wine Room",
      "osm_id": 5887067561,
      "amenity": "restaurant",
      "website": "https://sorsowineroom.com/",
      "outdoor_seating": "yes",
      "value": 323.5831177519724
    },
    {
      "id": 243322,
      "geometry": "POINT (-111.821494 33.450985)",
      "poi_name": "Los Patos",
      "osm_id": 7640724420,
      "amenity": "restaurant",
      "cuisine": "mexican",
      "value": 323.5831177519724
    },
    {
      "id": 243958,
      "geometry": "POINT (-112.149347 34.048655)",
      "poi_name": "Rock Springs Cafe",
      "osm_id": 7688123379,
      "amenity": "restaurant",
      "cuisine": "breakfast;burger;chicken;steak_house",
      "opening_hours": "Su-Th 07:00-21:00; Fr-Sa 07:00-22:00",
      "website": "https://rockspringscafe.com/",
      "phone": "(623) 374-5794",
      "takeaway": "yes",
      "delivery": "no",
      "addr_state": "AZ",
      "addr_city": "Black Canyon City",
      "addr_postcode": "85234",
      "addr_street": "South Old Black Canyon Highway",
      "addr_housenumber": "35900",
      "value": 323.5831177519724
    },
    {
      "id": 243257,
      "geometry": "POINT (-111.789591 33.436604)",
      "poi_name": "Julia's Mesquite Mexian Grill",
      "osm_id": 7636208928,
      "amenity": "restaurant",
      "cuisine": "mexican",
      "addr_state": "AZ",
      "addr_city": "Mesa",
      "addr_postcode": "85203",
      "addr_street": "East Brown Road",
      "addr_housenumber": "1925",
      "value": 323.5831177519724
    },
    {
      "id": 243258,
      "geometry": "POINT (-111.788592 33.437534)",
      "poi_name": "ZOYO Neighborhood Yogurt",
      "osm_id": 7636208962,
      "amenity": "restaurant",
      "value": 323.5831177519724
    },
    {
      "id": 244185,
      "geometry": "POINT (-111.838169 33.450935)",
      "poi_name": "Royal Thai Grill",
      "osm_id": 7706297191,
      "amenity": "restaurant",
      "cuisine": "thai",
      "addr_state": "AZ",
      "addr_city": "Mesa",
      "addr_postcode": "85201",
      "addr_street": "West McKellips Road",
      "addr_housenumber": "321",
      "value": 323.5831177519724
    }
  ],
  "answer_type": "name",
  "question_entities": {
    "[2]": {
      "distance": 100000,
      "text": "100 kilometers"
    },
    "[3]": {
      "main_category": "amenity",
      "sub_category": "university",
      "display_name": "American Institute of Dental Assisting, Gilbert, AZ",
      "geo_wkt": "POINT (-111.688039 33.367907)",
      "poi": {
        "id": 103945,
        "geometry": "POINT (-111.688039 33.367907)",
        "poi_name": "American Institute of Dental Assisting",
        "osm_id": 8534336133,
        "amenity": "university",
        "addr_state": "AZ",
        "addr_city": "Gilbert",
        "addr_postcode": "85209",
        "addr_street": "South Power Road",
        "addr_housenumber": "2500"
      }
    },
    "[4]": {
      "main_category": "leisure",
      "sub_category": "garden",
      "display_name": "The Potted Plant Inc., Scottsdale, AZ",
      "geo_wkt": "POINT (-111.920729 33.631545)",
      "poi": {
        "id": 247645,
        "geometry": "POINT (-111.920729 33.631545)",
        "poi_name": "The Potted Plant Inc.",
        "osm_id": 8008054008,
        "leisure": "garden",
        "addr_state": "AZ",
        "addr_city": "Scottsdale",
        "addr_postcode": "85260",
        "addr_street": "North Dial Boulevard",
        "addr_housenumber": "16055"
      }
    },
    "[1]": {
      "main_category": "amenity",
      "sub_category": "restaurant"
    }
  },
  "id": 1605,
  "type": "range:towards+name"
}