{
  "question": "Can you find me a takeaway restaurant within a 160 kilometers distance from Eastbank Art Gallery, Sioux Falls, SD?",
  "sql": "SELECT * FROM pois\nWHERE ST_DWithin(pois.geometry, ST_GeomFromText('POINT (-96.721943 43.548017)',4326)::geography, 160000)\nAND amenity = 'restaurant'\nAND takeaway ILIKE '%yes%';\n",
  "answers": [
    {
      "id": 50169,
      "geometry": "POINT (-96.408062 42.496213)",
      "poi_name": "Tacos El Gueros",
      "osm_id": 3471419024,
      "amenity": "restaurant",
      "cuisine": "mexican",
      "takeaway": "yes",
      "delivery": "yes"
    },
    {
      "id": 50200,
      "geometry": "POINT (-96.404801 42.504787)",
      "poi_name": "La Quanitas",
      "osm_id": 3471771178,
      "amenity": "restaurant",
      "cuisine": "mexican",
      "takeaway": "yes"
    },
    {
      "id": 61786,
      "geometry": "POINT (-96.940854 42.78805)",
      "poi_name": "Hy-Vee Kitchen and Catering",
      "osm_id": 5536589989,
      "amenity": "restaurant",
      "cuisine": "regional;chinese;chicken;american",
      "phone": "+1-605-624-5574",
      "takeaway": "yes",
      "outdoor_seating": "no",
      "delivery": "no",
      "addr_state": "SD",
      "addr_city": "Vermillion",
      "addr_postcode": "57069",
      "addr_street": "West Cherry Street",
      "addr_housenumber": "525"
    },
    {
      "id": 62067,
      "geometry": "POINT (-96.94686 43.631791)",
      "poi_name": "Pizza Ranch",
      "osm_id": 5550221539,
      "amenity": "restaurant",
      "cuisine": "pizza;buffet;chicken",
      "takeaway": "yes",
      "outdoor_seating": "no",
      "delivery": "yes",
      "addr_state": "SD",
      "addr_city": "Hartford",
      "addr_postcode": "57033",
      "addr_street": "West SD Highway 38",
      "addr_housenumber": "120"
    },
    {
      "id": 64196,
      "geometry": "POINT (-96.70766 42.108892)",
      "poi_name": "Popo's",
      "osm_id": 5644274526,
      "amenity": "restaurant",
      "cuisine": "american",
      "takeaway": "yes",
      "addr_state": "NE",
      "addr_city": "Pender",
      "addr_postcode": "68047",
      "addr_street": "Valley Street"
    },
    {
      "id": 138403,
      "geometry": "POINT (-96.36187 42.39992)",
      "poi_name": "Mateo Fil-Am Kitchen and Catering",
      "osm_id": 6147793730,
      "amenity": "restaurant",
      "cuisine": "american;filipino",
      "wheelchair": "yes",
      "opening_hours": "Mo-Fr 09:00-20:00; Sa 09:00-19:00",
      "phone": "+1-712-943-1551",
      "takeaway": "yes",
      "delivery": "yes",
      "addr_state": "IA",
      "addr_city": "Sergeant Bluff",
      "addr_postcode": "51054",
      "addr_street": "1st Street",
      "addr_housenumber": "300"
    },
    {
      "id": 80274,
      "geometry": "POINT (-96.77445 43.526524)",
      "poi_name": "Johnny Carino's",
      "osm_id": 871450180,
      "amenity": "restaurant",
      "cuisine": "italian",
      "opening_hours": "Su-Th 11:00-22:00; Fr-Sa 11:00-23:00",
      "phone": "+1-605-361-7222",
      "takeaway": "yes",
      "outdoor_seating": "no",
      "addr_state": "SD",
      "addr_city": "Sioux Falls",
      "addr_postcode": "57105",
      "addr_street": "South Louise Avenue",
      "addr_housenumber": "2310"
    },
    {
      "id": 82841,
      "geometry": "POINT (-96.933664 42.779167)",
      "poi_name": "Caf\u00e9 Brul\u00e9 and Cakes by Monica",
      "osm_id": 1715102795,
      "amenity": "restaurant",
      "cuisine": "french;american;bakery;sandwich;burger;coffee_shop",
      "opening_hours": "Mo-Su 08:00-20:00",
      "website": "https://www.cafebrule.com/",
      "phone": "+1-605-624-2945",
      "takeaway": "yes",
      "outdoor_seating": "yes",
      "delivery": "no",
      "addr_state": "SD",
      "addr_city": "Vermillion",
      "addr_postcode": "57069",
      "addr_street": "West Main Street",
      "addr_housenumber": "24"
    },
    {
      "id": 89135,
      "geometry": "POINT (-98.441914 43.588818)",
      "poi_name": "281 Diner",
      "osm_id": 8828108136,
      "amenity": "restaurant",
      "cuisine": "american",
      "takeaway": "yes",
      "outdoor_seating": "yes"
    },
    {
      "id": 118978,
      "geometry": "POINT (-97.12802 44.902652)",
      "poi_name": "Wise Pizza",
      "osm_id": 9075213201,
      "amenity": "restaurant",
      "cuisine": "pizza",
      "opening_hours": "Tu-Th 11:00-21:00; Fr-Sa 11:00-22:00; Su 11:00-20:00",
      "website": "https://www.wisepizzawatertown.com/",
      "phone": "+1-605-753-2521",
      "takeaway": "yes",
      "delivery": "yes",
      "addr_state": "SD",
      "addr_city": "Watertown",
      "addr_postcode": "57201",
      "addr_street": "West Kemp Avenue",
      "addr_housenumber": "722"
    },
    {
      "id": 114724,
      "geometry": "POINT (-94.928889 43.939165)",
      "poi_name": "King Eggroll",
      "osm_id": 3892681292,
      "amenity": "restaurant",
      "cuisine": "asian",
      "takeaway": "yes"
    },
    {
      "id": 209678,
      "geometry": "POINT (-96.739202 43.515484)",
      "poi_name": "Hibachi Grill and Supreme Buffet",
      "osm_id": 5050035648,
      "amenity": "restaurant",
      "cuisine": "japanese;chinese;american;sushi",
      "opening_hours": "Mo-Th 11:00-21:30; Fr-Sa 11:00-22:00; Su 11:00-21:30",
      "website": "https://hibachigrillsiouxfalls.com/",
      "phone": "+1-605-335-3388",
      "takeaway": "yes",
      "outdoor_seating": "no",
      "delivery": "no",
      "addr_state": "SD",
      "addr_city": "Sioux Falls",
      "addr_postcode": "57105",
      "addr_street": "West 41st Street",
      "addr_housenumber": "1100"
    },
    {
      "id": 210641,
      "geometry": "POINT (-96.751797 43.513547)",
      "poi_name": "HuHot",
      "osm_id": 5112054387,
      "amenity": "restaurant",
      "cuisine": "mongolian_grill",
      "website": "https://www.huhot.com/location/sioux-falls-west/",
      "takeaway": "yes",
      "official_name": "HuHot Mongolian Grill"
    },
    {
      "id": 220012,
      "geometry": "POINT (-96.772874 43.499974)",
      "poi_name": "Noodles & Company",
      "osm_id": 9354494913,
      "amenity": "restaurant",
      "cuisine": "pasta",
      "opening_hours": "Mo-Th 11:00-20:00; Fr 11:00-16:00",
      "website": "https://locations.noodles.com/sd/sioux-falls/5005-s--louise-ave.html",
      "phone": "+1 605-610-1439",
      "takeaway": "yes",
      "delivery": "Mo-Th 11:15-20:00; Fr 11:15-16:00",
      "addr_state": "SD",
      "addr_city": "Sioux Falls",
      "addr_postcode": "57108",
      "addr_street": "South Louise Avenue",
      "addr_housenumber": "5005"
    },
    {
      "id": 238288,
      "geometry": "POINT (-96.774025 44.313185)",
      "poi_name": "Backyard BBQ",
      "osm_id": 5872061230,
      "amenity": "restaurant",
      "cuisine": "barbecue;american",
      "opening_hours": "Mo-Su 10:00-22:00",
      "capacity": "100",
      "takeaway": "yes",
      "outdoor_seating": "no",
      "delivery": "no",
      "addr_state": "SD",
      "addr_city": "Brookings",
      "addr_postcode": "57006",
      "addr_street": "8th Street"
    }
  ],
  "answer_type": "name",
  "question_entities": {
    "[1]": {
      "main_category": "amenity",
      "sub_category": "restaurant",
      "poi_filter_desc": "takeaway restaurant",
      "poi_filter_sql": "takeaway ILIKE '%yes%'"
    },
    "[2]": {
      "distance": 160000,
      "text": "160 kilometers"
    },
    "[3]": {
      "main_category": "tourism",
      "sub_category": "gallery",
      "display_name": "Eastbank Art Gallery, Sioux Falls, SD",
      "geo_wkt": "POINT (-96.721943 43.548017)",
      "poi": {
        "id": 13151,
        "geometry": "POINT (-96.721943 43.548017)",
        "poi_name": "Eastbank Art Gallery",
        "osm_id": 4070986420,
        "tourism": "gallery",
        "opening_hours": "Tu-Fr 11:00-17:00; Sa 10:00-17:00",
        "website": "https://eastbankartgallery.net/",
        "artwork_type": "painting",
        "addr_state": "SD",
        "addr_city": "Sioux Falls",
        "addr_postcode": "57103",
        "addr_street": "East 8th Street",
        "addr_housenumber": "401"
      }
    }
  },
  "id": 506,
  "type": "range:non_spat_filter+name"
}