{
  "question": "Which restaurant is available when approaching Amazing Air, San Antonio, TX within 100 kilometers from James C. Curry Nature Center, Canyon Lake, TX?",
  "sql": "WITH\n    angle AS (SELECT degrees(ST_Azimuth(ST_GeomFromText('POINT (-98.194766 29.848573)',4326)::geography, ST_GeomFromText('POINT (-98.39639 29.503891)',4326)::geography)) AS value)\nSELECT * FROM pois,angle\nWHERE amenity = 'restaurant'\nAND ST_DWithin(pois.geometry, ST_GeomFromText('POINT (-98.194766 29.848573)',4326)::geography, 100000)\nAND (degrees(ST_Azimuth(ST_GeomFromText('POINT (-98.194766 29.848573)',4326)::geography, pois.geometry)) BETWEEN angle.value - 22.5 AND angle.value + 22.5);\n",
  "answers": [
    {
      "id": 27498,
      "geometry": "POINT (-98.449933 29.518846)",
      "poi_name": "Bangkok 54",
      "osm_id": 428606946,
      "amenity": "restaurant",
      "cuisine": "thai",
      "value": 207.10871143336217
    },
    {
      "id": 27463,
      "geometry": "POINT (-98.450972 29.517902)",
      "poi_name": "La Marginal",
      "osm_id": 421954072,
      "amenity": "restaurant",
      "cuisine": "puerto_rican",
      "website": "http://lamarginalrestaurant.com/",
      "phone": "+1-210-804-2242",
      "addr_city": "San Antonio",
      "addr_postcode": "78217",
      "addr_street": "Nacogdoches Road",
      "addr_housenumber": "2447",
      "value": 207.10871143336217
    },
    {
      "id": 33744,
      "geometry": "POINT (-98.655311 29.416821)",
      "poi_name": "Pancho's Mexican Buffet",
      "osm_id": 2680090849,
      "amenity": "restaurant",
      "cuisine": "mexican",
      "value": 207.10871143336217
    },
    {
      "id": 32126,
      "geometry": "POINT (-98.577423 29.473186)",
      "poi_name": "Mi Sierra Jalisco",
      "osm_id": 2622582377,
      "amenity": "restaurant",
      "cuisine": "mexican",
      "capacity": "88",
      "addr_city": "San Antonio",
      "addr_postcode": "78228",
      "addr_street": "Bandera Road",
      "addr_housenumber": "1962",
      "value": 207.10871143336217
    },
    {
      "id": 37477,
      "geometry": "POINT (-98.576087 29.546248)",
      "poi_name": "Papouli's Greek Grill",
      "osm_id": 2814595769,
      "amenity": "restaurant",
      "cuisine": "greek",
      "opening_hours": "Mo-Sa 9:00-21:00; Su 9:00-20:00",
      "website": "https://www.papoulis.com/",
      "phone": "+1-210-641-1313",
      "addr_city": "San Antonio",
      "addr_postcode": "78230",
      "addr_street": "Huebner Road",
      "addr_housenumber": "11224",
      "value": 207.10871143336217
    },
    {
      "id": 35205,
      "geometry": "POINT (-98.384724 29.510659)",
      "poi_name": "Pizza Hut",
      "osm_id": 2713444207,
      "amenity": "restaurant",
      "cuisine": "pizza",
      "value": 207.10871143336217
    },
    {
      "id": 35223,
      "geometry": "POINT (-98.624996 29.501403)",
      "poi_name": "Pizza Hut",
      "osm_id": 2714088467,
      "amenity": "restaurant",
      "cuisine": "pizza",
      "value": 207.10871143336217
    },
    {
      "id": 34230,
      "geometry": "POINT (-98.55299 29.539467)",
      "poi_name": "Marias Pizza",
      "osm_id": 2698370858,
      "amenity": "restaurant",
      "cuisine": "pizza;italian;calzone;salad;sandwich;beverages",
      "description": "Best Pizza in San Antonio Texas. New York Style, Hand Tossed, 100% Real Cheese! Multiple Blue-Plate Awards.",
      "website": "https://mariapizzas.com/",
      "capacity": "12",
      "internet_access": "wlan",
      "phone": "1-210-558-6600",
      "delivery": "yes",
      "addr_city": "San Antonio",
      "addr_postcode": "78230",
      "addr_street": "Oakgate Drive",
      "addr_housenumber": "3529",
      "value": 207.10871143336217
    },
    {
      "id": 36210,
      "geometry": "POINT (-98.31003 29.580556)",
      "poi_name": "Rudy's Country Store & Bar-B-Q",
      "osm_id": 2753904545,
      "amenity": "restaurant",
      "cuisine": "barbecue",
      "phone": "+1-210-653-7839",
      "addr_state": "TX",
      "addr_city": "Selma",
      "addr_postcode": "78154",
      "addr_street": "North Interstate Highway 35",
      "addr_housenumber": "15560",
      "value": 207.10871143336217
    },
    {
      "id": 36809,
      "geometry": "POINT (-98.252451 29.594319)",
      "poi_name": "Cibolo Market",
      "osm_id": 2785578730,
      "amenity": "restaurant",
      "cuisine": "burger",
      "website": "http://cibolomarkettx.com/",
      "addr_street": "Cibolo Valley Drive",
      "addr_housenumber": "3859",
      "value": 207.10871143336217
    },
    {
      "id": 37508,
      "geometry": "POINT (-98.603979 29.484616)",
      "poi_name": "Bill Miller Bar-B-Q",
      "osm_id": 2818569771,
      "amenity": "restaurant",
      "cuisine": "barbecue",
      "value": 207.10871143336217
    },
    {
      "id": 45393,
      "geometry": "POINT (-98.473847 29.593674)",
      "poi_name": "Chester's Hamburger",
      "osm_id": 3204538036,
      "amenity": "restaurant",
      "cuisine": "burger",
      "opening_hours": "11:00-22:00",
      "capacity": "50",
      "addr_state": "TX",
      "addr_city": "Hollywood Park",
      "addr_postcode": "78232",
      "addr_street": "San Pedro Avenue",
      "addr_housenumber": "16609",
      "value": 207.10871143336217
    },
    {
      "id": 40277,
      "geometry": "POINT (-98.478415 29.496487)",
      "poi_name": "Max's Wine Dive",
      "osm_id": 2964995457,
      "amenity": "restaurant",
      "opening_hours": "Mo-Th 15:00-24:00; Fr 11:00-24:00; Sa 10:00-24:00; Su 10:00-22:00",
      "addr_postcode": "78209",
      "addr_street": "East Basse Road",
      "addr_housenumber": "340",
      "value": 207.10871143336217
    },
    {
      "id": 40226,
      "geometry": "POINT (-98.448168 29.650738)",
      "poi_name": "IHOP",
      "osm_id": 2961976079,
      "amenity": "restaurant",
      "cuisine": "breakfast;pancake",
      "value": 207.10871143336217
    },
    {
      "id": 48270,
      "geometry": "POINT (-98.27893 29.5998)",
      "poi_name": "Denny's",
      "osm_id": 3373779239,
      "amenity": "restaurant",
      "cuisine": "american",
      "addr_city": "Schertz",
      "addr_postcode": "78154-1265",
      "addr_street": "Interstate Highway 35 North",
      "addr_housenumber": "17455",
      "value": 207.10871143336217
    },
    {
      "id": 46095,
      "geometry": "POINT (-98.476015 29.587406)",
      "poi_name": "The Bagel Factory",
      "osm_id": 3245688120,
      "amenity": "restaurant",
      "cuisine": "breakfast",
      "opening_hours": "06:00-14:00",
      "addr_state": "TX",
      "addr_city": "Hollywood Park",
      "addr_postcode": "78232",
      "addr_street": "San Pedro Avenue",
      "addr_housenumber": "15909",
      "value": 207.10871143336217
    },
    {
      "id": 47615,
      "geometry": "POINT (-98.488212 29.423635)",
      "poi_name": "Schilo's Delicatessen",
      "osm_id": 3337024797,
      "amenity": "restaurant",
      "opening_hours": "Mo-Su 08:00-14:30",
      "website": "https://www.schilos.com",
      "shop": "deli",
      "phone": "+1-210-223-6692",
      "addr_state": "TX",
      "addr_city": "San Antonio",
      "addr_postcode": "78205",
      "addr_street": "East Commerce Street",
      "addr_housenumber": "424",
      "value": 207.10871143336217
    },
    {
      "id": 51225,
      "geometry": "POINT (-98.464017 29.605957)",
      "poi_name": "Stout's Pizza",
      "osm_id": 522234343,
      "amenity": "restaurant",
      "cuisine": "pizza;calzone;salad",
      "website": "https://stoutspizza.com/",
      "addr_state": "TX",
      "addr_city": "San Antonio",
      "addr_postcode": "78232",
      "addr_street": "North Loop 1604 East",
      "addr_housenumber": "1742",
      "value": 207.10871143336217
    },
    {
      "id": 50294,
      "geometry": "POINT (-98.497782 29.610122)",
      "poi_name": "Chama Gaucha",
      "osm_id": 3476348083,
      "amenity": "restaurant",
      "cuisine": "brazilian",
      "website": "https://www.chamagaucha.com/",
      "phone": "+1-210-564-9400",
      "addr_city": "San Antonio",
      "addr_postcode": "78258",
      "addr_street": "Sonterra Place",
      "addr_housenumber": "18318",
      "value": 207.10871143336217
    },
    {
      "id": 51221,
      "geometry": "POINT (-98.467554 29.605352)",
      "poi_name": "Fish City Grill",
      "osm_id": 522226464,
      "amenity": "restaurant",
      "value": 207.10871143336217
    },
    {
      "id": 51223,
      "geometry": "POINT (-98.462979 29.606979)",
      "poi_name": "Pei Wei",
      "osm_id": 522234341,
      "amenity": "restaurant",
      "cuisine": "asian",
      "value": 207.10871143336217
    },
    {
      "id": 53453,
      "geometry": "POINT (-98.314793 29.554788)",
      "poi_name": "Golden Corral",
      "osm_id": 10080962060,
      "amenity": "restaurant",
      "cuisine": "american",
      "value": 207.10871143336217
    },
    {
      "id": 53744,
      "geometry": "POINT (-98.536584 29.561579)",
      "poi_name": "El  Mirasol",
      "osm_id": 10092922118,
      "amenity": "restaurant",
      "addr_street": "Northwest Military Highway",
      "addr_housenumber": "100003",
      "value": 207.10871143336217
    },
    {
      "id": 56476,
      "geometry": "POINT (-98.462338 29.474197)",
      "poi_name": "Sorrento Pizza & Restaurant",
      "osm_id": 10239103310,
      "amenity": "restaurant",
      "cuisine": "pizza",
      "addr_state": "TX",
      "addr_city": "San Antonio",
      "addr_postcode": "78209",
      "addr_street": "Broadway",
      "addr_housenumber": "5146",
      "value": 207.10871143336217
    },
    {
      "id": 55391,
      "geometry": "POINT (-98.48842 29.425606)",
      "poi_name": "On The Bend Oyster Bar & Lounge",
      "osm_id": 10184942336,
      "amenity": "restaurant",
      "cuisine": "seafood",
      "addr_state": "TX",
      "addr_city": "San Antonio",
      "addr_postcode": "78205",
      "addr_street": "Losoya Street",
      "addr_housenumber": "123",
      "value": 207.10871143336217
    },
    {
      "id": 53929,
      "geometry": "POINT (-98.419708 29.50092)",
      "poi_name": "Street Fair SA",
      "osm_id": 10107124498,
      "amenity": "restaurant",
      "opening_hours": "Fr 17:00-23:00;Sa 12:00-23:00;Su 12:00-21:00",
      "website": "https://www.streetfaresa.com/",
      "phone": "+1-210-737-6767",
      "addr_state": "TX",
      "addr_city": "San Antonio",
      "addr_postcode": "78218",
      "addr_street": "Austin Highway",
      "addr_housenumber": "1916",
      "value": 207.10871143336217
    },
    {
      "id": 53930,
      "geometry": "POINT (-98.413345 29.484308)",
      "poi_name": "Thai House Restaurant",
      "osm_id": 10107131504,
      "amenity": "restaurant",
      "phone": "+1-210-657-9126",
      "addr_state": "TX",
      "addr_city": "San Antonio",
      "addr_postcode": "78218",
      "addr_street": "Rittiman Road",
      "addr_housenumber": "4114",
      "value": 207.10871143336217
    },
    {
      "id": 63287,
      "geometry": "POINT (-98.484081 28.983198)",
      "poi_name": "Lew's at Pleasanton Country Club",
      "osm_id": 5608261698,
      "amenity": "restaurant",
      "value": 207.10871143336217
    },
    {
      "id": 56797,
      "geometry": "POINT (-98.421915 29.595276)",
      "poi_name": "Rusty Taco",
      "osm_id": 10248941084,
      "amenity": "restaurant",
      "cuisine": "mexican;tex-mex",
      "value": 207.10871143336217
    },
    {
      "id": 56800,
      "geometry": "POINT (-98.419272 29.596182)",
      "poi_name": "Maple Street Biscuit Company",
      "osm_id": 10248941096,
      "amenity": "restaurant",
      "cuisine": "breakfast",
      "addr_state": "TX",
      "addr_city": "San Antonio",
      "addr_postcode": "78247",
      "addr_street": "Bulverde Road",
      "addr_housenumber": "17202",
      "value": 207.10871143336217
    },
    {
      "id": 56801,
      "geometry": "POINT (-98.420097 29.598832)",
      "poi_name": "IHOP",
      "osm_id": 10248941097,
      "amenity": "restaurant",
      "cuisine": "breakfast;pancake",
      "addr_state": "TX",
      "addr_city": "San Antonio",
      "addr_postcode": "78247",
      "addr_street": "Autry Pond Road",
      "addr_housenumber": "17242",
      "value": 207.10871143336217
    },
    {
      "id": 58381,
      "geometry": "POINT (-98.715286 29.436041)",
      "poi_name": "RealPho",
      "osm_id": 5372930671,
      "amenity": "restaurant",
      "cuisine": "vietnamese",
      "value": 207.10871143336217
    },
    {
      "id": 61563,
      "geometry": "POINT (-98.594577 29.515833)",
      "poi_name": "Thai Lao Orchid",
      "osm_id": 5523606422,
      "amenity": "restaurant",
      "cuisine": "lao;thai",
      "value": 207.10871143336217
    },
    {
      "id": 77872,
      "geometry": "POINT (-98.478926 29.571432)",
      "poi_name": "Alamo Cafe",
      "osm_id": 721755709,
      "amenity": "restaurant",
      "cuisine": "mexican",
      "addr_state": "TX",
      "addr_city": "San Antonio",
      "addr_postcode": "78232",
      "addr_street": "San Pedro Avenue",
      "addr_housenumber": "14250",
      "value": 207.10871143336217
    },
    {
      "id": 65477,
      "geometry": "POINT (-98.48071 29.442522)",
      "poi_name": "Southerleigh",
      "osm_id": 5697017439,
      "amenity": "restaurant",
      "value": 207.10871143336217
    },
    {
      "id": 65478,
      "geometry": "POINT (-98.479962 29.442536)",
      "poi_name": "Botika",
      "osm_id": 5697017460,
      "amenity": "restaurant",
      "value": 207.10871143336217
    },
    {
      "id": 68815,
      "geometry": "POINT (-98.48173 29.360184)",
      "poi_name": "Pizza Hut",
      "osm_id": 11285556088,
      "amenity": "restaurant",
      "value": 207.10871143336217
    },
    {
      "id": 70707,
      "geometry": "POINT (-98.478843 29.444185)",
      "poi_name": "Carriqui",
      "osm_id": 11371753362,
      "amenity": "restaurant",
      "cuisine": "texan",
      "addr_state": "TX",
      "addr_city": "San Antonio",
      "addr_postcode": "78215",
      "addr_street": "E Grayson St",
      "addr_housenumber": "239",
      "value": 207.10871143336217
    },
    {
      "id": 66834,
      "geometry": "POINT (-98.541748 29.438062)",
      "poi_name": "24th Street Pizzeria - 903",
      "osm_id": 11214146226,
      "amenity": "restaurant",
      "addr_state": "TX",
      "addr_city": "Prospect Hill",
      "addr_postcode": "78207",
      "addr_street": "Northwest 24th Street",
      "addr_housenumber": "903",
      "value": 207.10871143336217
    },
    {
      "id": 66836,
      "geometry": "POINT (-98.541729 29.438175)",
      "poi_name": "24th Street Pizzeria - 905",
      "osm_id": 11214160713,
      "amenity": "restaurant",
      "addr_state": "TX",
      "addr_city": "Prospect Hill",
      "addr_postcode": "78207",
      "addr_street": "Northwest 24th Street",
      "addr_housenumber": "905",
      "value": 207.10871143336217
    },
    {
      "id": 67182,
      "geometry": "POINT (-98.431995 29.49262)",
      "poi_name": "Yippon Ramen",
      "osm_id": 11227563681,
      "amenity": "restaurant",
      "cuisine": "ramen",
      "value": 207.10871143336217
    },
    {
      "id": 69073,
      "geometry": "POINT (-98.532495 29.470421)",
      "poi_name": "Mi Celayence",
      "osm_id": 11293936336,
      "amenity": "restaurant",
      "cuisine": "Mexican Dishes",
      "wheelchair": "yes",
      "opening_hours": "Mo-Sa 07:00-20:30; Su 07:00-16:00",
      "internet_access": "no",
      "phone": "+1-210-732-1122",
      "takeaway": "yes",
      "delivery": "no",
      "value": 207.10871143336217
    },
    {
      "id": 74061,
      "geometry": "POINT (-98.510718 29.610775)",
      "poi_name": "Sushishima",
      "osm_id": 9664431928,
      "amenity": "restaurant",
      "value": 207.10871143336217
    },
    {
      "id": 82228,
      "geometry": "POINT (-98.392355 29.511366)",
      "poi_name": "Pho Hai An",
      "osm_id": 1688843815,
      "amenity": "restaurant",
      "cuisine": "vietnamese",
      "addr_postcode": "78239",
      "addr_street": "Windsor Hill",
      "addr_housenumber": "4934",
      "value": 207.10871143336217
    },
    {
      "id": 78703,
      "geometry": "POINT (-98.708242 29.436231)",
      "poi_name": "Pei Wei",
      "osm_id": 761783279,
      "amenity": "restaurant",
      "cuisine": "asian",
      "phone": "+1-210-507-5520",
      "addr_state": "TX",
      "addr_city": "San Antonio",
      "addr_postcode": "78251",
      "addr_street": "West Loop 1604 North",
      "addr_housenumber": "430",
      "value": 207.10871143336217
    },
    {
      "id": 79793,
      "geometry": "POINT (-98.466756 29.611646)",
      "poi_name": "Buffalo Wild Wings",
      "osm_id": 829382080,
      "amenity": "restaurant",
      "cuisine": "wings",
      "addr_state": "TX",
      "value": 207.10871143336217
    },
    {
      "id": 79795,
      "geometry": "POINT (-98.484034 29.564928)",
      "poi_name": "El Jarro de Arturo",
      "osm_id": 829401020,
      "amenity": "restaurant",
      "value": 207.10871143336217
    },
    {
      "id": 82253,
      "geometry": "POINT (-98.390626 29.510627)",
      "poi_name": "Fishland Fish Market",
      "osm_id": 1689856245,
      "amenity": "restaurant",
      "cuisine": "seafood",
      "opening_hours": "Mo-Th 10:30-22:00; Fr 10:30-21:00; Sa 11:30-21:00",
      "website": "https://www.fishlandfishmarket.com/",
      "phone": "+1-210-655-3232",
      "addr_city": "San Antonio",
      "addr_postcode": "78218",
      "addr_street": "Walzem Road",
      "addr_housenumber": "4941",
      "value": 207.10871143336217
    },
    {
      "id": 82254,
      "geometry": "POINT (-98.392281 29.510812)",
      "poi_name": "Thai Chalurn",
      "osm_id": 1689859450,
      "amenity": "restaurant",
      "cuisine": "thai",
      "opening_hours": "Mo-Fr 11:00-21:00; Sa 11:30-21:00",
      "website": "http://www.thaichalurn.com/",
      "phone": "+1-210-599-6835",
      "addr_city": "San Antonio",
      "addr_postcode": "78218",
      "addr_street": "Walzem Road",
      "addr_housenumber": "4941",
      "value": 207.10871143336217
    },
    {
      "id": 87481,
      "geometry": "POINT (-98.704882 29.403796)",
      "poi_name": "El Tequila Mexican Restaurant & Bar",
      "osm_id": 8715755941,
      "amenity": "restaurant",
      "cuisine": "mexican",
      "opening_hours": "Mo-Th 06:00-23:00; Fr-Sa 06:00-24:00; Su 07:00-23:00",
      "website": "https://www.eltequilamexicanbar.com/",
      "phone": "+1-210-451-9373",
      "takeaway": "yes",
      "addr_state": "TX",
      "addr_city": "San Antonio",
      "addr_postcode": "78245",
      "addr_street": "Marbach Road",
      "addr_housenumber": "10910",
      "value": 207.10871143336217
    },
    {
      "id": 84281,
      "geometry": "POINT (-98.48807 29.421814)",
      "poi_name": "Little Rhein Steak House",
      "osm_id": 1782772248,
      "amenity": "restaurant",
      "cuisine": "steak_house",
      "value": 207.10871143336217
    },
    {
      "id": 84282,
      "geometry": "POINT (-98.489068 29.426654)",
      "poi_name": "Texas de Brazil",
      "osm_id": 1782773436,
      "amenity": "restaurant",
      "cuisine": "steak_house",
      "addr_city": "San Antonio",
      "addr_postcode": "78205",
      "addr_street": "East Houston Street",
      "addr_housenumber": "313",
      "value": 207.10871143336217
    },
    {
      "id": 82853,
      "geometry": "POINT (-98.552002 29.490298)",
      "poi_name": "Babe's",
      "osm_id": 1715515961,
      "amenity": "restaurant",
      "cuisine": "burger",
      "value": 207.10871143336217
    },
    {
      "id": 82854,
      "geometry": "POINT (-98.552216 29.4902)",
      "poi_name": "Simi's",
      "osm_id": 1715515970,
      "amenity": "restaurant",
      "cuisine": "indian",
      "value": 207.10871143336217
    },
    {
      "id": 82855,
      "geometry": "POINT (-98.544889 29.4825)",
      "poi_name": "South Garden",
      "osm_id": 1715555218,
      "amenity": "restaurant",
      "cuisine": "chinese",
      "value": 207.10871143336217
    },
    {
      "id": 83315,
      "geometry": "POINT (-98.500478 29.412528)",
      "poi_name": "Freddy's Mexican Restaurant",
      "osm_id": 1738462581,
      "amenity": "restaurant",
      "value": 207.10871143336217
    },
    {
      "id": 83474,
      "geometry": "POINT (-98.56204 29.453564)",
      "poi_name": "Subway/Java City on the Quad",
      "osm_id": 1746408914,
      "amenity": "restaurant",
      "cuisine": "sandwich",
      "value": 207.10871143336217
    },
    {
      "id": 89880,
      "geometry": "POINT (-98.504158 29.523933)",
      "poi_name": "Goomba's",
      "osm_id": 8868889845,
      "amenity": "restaurant",
      "cuisine": "pizza",
      "value": 207.10871143336217
    },
    {
      "id": 87573,
      "geometry": "POINT (-98.699971 29.41137)",
      "poi_name": "Saborcito Latino",
      "osm_id": 8722616641,
      "amenity": "restaurant",
      "cuisine": "mexican",
      "opening_hours": "Mo-Sa 05:30-21:30; Su 07:00-15:00",
      "phone": "+1-210-647-9801",
      "addr_state": "TX",
      "addr_city": "San Antonio",
      "addr_postcode": "78245",
      "addr_street": "Marbach Road",
      "addr_housenumber": "10509",
      "value": 207.10871143336217
    },
    {
      "id": 87647,
      "geometry": "POINT (-98.682317 29.418282)",
      "poi_name": "Hacienda Vallarta Mexican Restaurant",
      "osm_id": 8729934557,
      "amenity": "restaurant",
      "cuisine": "mexican",
      "opening_hours": "Mo-Th 06:00-23:00; Fr-Sa 06:00-24:00; Su 07:00-23:00",
      "phone": "+1-210-999-5273",
      "addr_state": "TX",
      "addr_city": "San Antonio",
      "addr_postcode": "78245",
      "addr_street": "Marbach Road",
      "addr_housenumber": "9819",
      "value": 207.10871143336217
    },
    {
      "id": 89881,
      "geometry": "POINT (-98.504148 29.523859)",
      "poi_name": "Tia's Taco Hut",
      "osm_id": 8868889846,
      "amenity": "restaurant",
      "cuisine": "tex-mex",
      "value": 207.10871143336217
    },
    {
      "id": 89882,
      "geometry": "POINT (-98.500288 29.529359)",
      "poi_name": "Hacienda Patron",
      "osm_id": 8868889847,
      "amenity": "restaurant",
      "cuisine": "mexican",
      "value": 207.10871143336217
    },
    {
      "id": 89883,
      "geometry": "POINT (-98.499897 29.529388)",
      "poi_name": "Binge Kitchen",
      "osm_id": 8868889849,
      "amenity": "restaurant",
      "value": 207.10871143336217
    },
    {
      "id": 89884,
      "geometry": "POINT (-98.499753 29.529412)",
      "poi_name": "Singapore Chinese and Vietnamese Restaurant",
      "osm_id": 8868889851,
      "amenity": "restaurant",
      "cuisine": "chinese;vietnamese",
      "value": 207.10871143336217
    },
    {
      "id": 95142,
      "geometry": "POINT (-98.476614 29.579147)",
      "poi_name": "Pacific Moon",
      "osm_id": 6387901063,
      "amenity": "restaurant",
      "cuisine": "asian",
      "addr_state": "TX",
      "addr_city": "San Antonio",
      "addr_postcode": "78232",
      "addr_street": "San Pedro Avenue",
      "addr_housenumber": "15140",
      "value": 207.10871143336217
    },
    {
      "id": 94111,
      "geometry": "POINT (-98.458555 29.49079)",
      "poi_name": "Adelante Mexican Food",
      "osm_id": 2207160073,
      "amenity": "restaurant",
      "cuisine": "mexican",
      "website": "https://www.adelanterestaurant.com/",
      "phone": "+1-210-822-7681",
      "addr_city": "San Antonio",
      "addr_postcode": "78209",
      "addr_street": "Brees Boulevard",
      "addr_housenumber": "21",
      "value": 207.10871143336217
    },
    {
      "id": 95143,
      "geometry": "POINT (-98.475679 29.579162)",
      "poi_name": "Taco-Tex",
      "osm_id": 6387901065,
      "amenity": "restaurant",
      "cuisine": "mexican",
      "addr_state": "TX",
      "addr_city": "San Antonio",
      "addr_postcode": "78232",
      "addr_street": "San Pedro Avenue",
      "addr_housenumber": "15104",
      "value": 207.10871143336217
    },
    {
      "id": 95148,
      "geometry": "POINT (-98.468971 29.604561)",
      "poi_name": "La Madeleine French Bakery & Cafe",
      "osm_id": 6387965277,
      "amenity": "restaurant",
      "cuisine": "french",
      "addr_state": "TX",
      "addr_city": "San Antonio",
      "addr_postcode": "78232",
      "addr_street": "San Pedro Avenue",
      "addr_housenumber": "18030",
      "value": 207.10871143336217
    },
    {
      "id": 98938,
      "geometry": "POINT (-98.508339 29.602477)",
      "poi_name": "Longhorn Cafe",
      "osm_id": 6535889128,
      "amenity": "restaurant",
      "description": "American Food Restaurant",
      "opening_hours": "Mo-Th, Su 11:00-21:00; Fr, Sa 11:00-22:00",
      "website": "https://www.thelonghorncafe.com/",
      "phone": "+1-210-492-0301",
      "addr_street": "17625 Blanco Road",
      "value": 207.10871143336217
    },
    {
      "id": 96610,
      "geometry": "POINT (-98.540704 29.329838)",
      "poi_name": "Eladio's Diner",
      "osm_id": 6439635291,
      "amenity": "restaurant",
      "cuisine": "mexican",
      "value": 207.10871143336217
    },
    {
      "id": 97253,
      "geometry": "POINT (-98.536107 29.357099)",
      "poi_name": "Pizza Hut",
      "osm_id": 6468967071,
      "amenity": "restaurant",
      "cuisine": "pizza",
      "value": 207.10871143336217
    },
    {
      "id": 97255,
      "geometry": "POINT (-98.452162 29.352656)",
      "poi_name": "Pho Garden",
      "osm_id": 6468967613,
      "amenity": "restaurant",
      "cuisine": "vietnamese",
      "phone": "+1-210-333-8899",
      "addr_state": "TX",
      "addr_city": "San Antonio",
      "addr_postcode": "78223",
      "addr_street": "Southeast Military Drive",
      "addr_housenumber": "2535",
      "value": 207.10871143336217
    },
    {
      "id": 95524,
      "geometry": "POINT (-98.555913 29.307963)",
      "poi_name": "Taqueria San Juan",
      "osm_id": 6400840330,
      "amenity": "restaurant",
      "cuisine": "mexican",
      "value": 207.10871143336217
    },
    {
      "id": 96926,
      "geometry": "POINT (-98.493616 29.406386)",
      "poi_name": "Burgerteca",
      "osm_id": 6451324106,
      "amenity": "restaurant",
      "cuisine": "burger",
      "value": 207.10871143336217
    },
    {
      "id": 98940,
      "geometry": "POINT (-98.508414 29.602531)",
      "poi_name": "Longhorn Cafe",
      "osm_id": 6535914870,
      "amenity": "restaurant",
      "description": "American food",
      "opening_hours": "Mo-Th, Su 11:00-21:00, 09:00-18:00; Fr, Sa 11:00-22:00",
      "website": "https://www.longhorncafe.com",
      "phone": "+1-210-492-0301",
      "addr_street": "Blanco Road",
      "addr_housenumber": "17625",
      "value": 207.10871143336217
    },
    {
      "id": 102148,
      "geometry": "POINT (-98.654144 29.23125)",
      "poi_name": "El Paraiso",
      "osm_id": 6656101648,
      "amenity": "restaurant",
      "cuisine": "mexican",
      "addr_state": "TX",
      "addr_city": "Somerset",
      "addr_postcode": "78069",
      "addr_street": "South Loop 1604 West",
      "addr_housenumber": "7850",
      "value": 207.10871143336217
    },
    {
      "id": 99801,
      "geometry": "POINT (-98.393337 29.540514)",
      "poi_name": "Rusty Anchor - Galley Grub",
      "osm_id": 6565377548,
      "amenity": "restaurant",
      "value": 207.10871143336217
    },
    {
      "id": 100784,
      "geometry": "POINT (-98.495462 29.355765)",
      "poi_name": "Chuck E. Cheese",
      "osm_id": 6597722797,
      "amenity": "restaurant",
      "cuisine": "pizza",
      "website": "https://locations.chuckecheese.com/us/tx/sanantonio/238-sw-military-dr.",
      "addr_state": "TX",
      "addr_city": "San Antonio",
      "addr_street": "Southwest Military Drive",
      "value": 207.10871143336217
    },
    {
      "id": 100971,
      "geometry": "POINT (-98.705105 29.433795)",
      "poi_name": "Pho 4 U",
      "osm_id": 6606787468,
      "amenity": "restaurant",
      "cuisine": "thai;vietnamese",
      "phone": "+1-210-858-3168",
      "takeaway": "yes",
      "addr_state": "TX",
      "addr_city": "San Antonio",
      "addr_postcode": "78251",
      "addr_street": "Potranco Road",
      "value": 207.10871143336217
    },
    {
      "id": 105887,
      "geometry": "POINT (-98.55526 29.492586)",
      "poi_name": "Spice",
      "osm_id": 8649755704,
      "amenity": "restaurant",
      "cuisine": "indian",
      "website": "http://spicefineindiancuisine.com/",
      "phone": "+1-210-253-9658",
      "takeaway": "yes",
      "value": 207.10871143336217
    },
    {
      "id": 105576,
      "geometry": "POINT (-98.684005 29.436092)",
      "poi_name": "Sazon Mexican Cafe",
      "osm_id": 8633856856,
      "amenity": "restaurant",
      "cuisine": "mexican",
      "value": 207.10871143336217
    },
    {
      "id": 105577,
      "geometry": "POINT (-98.683448 29.436244)",
      "poi_name": "Wok Inn",
      "osm_id": 8633856858,
      "amenity": "restaurant",
      "cuisine": "asian",
      "value": 207.10871143336217
    },
    {
      "id": 105578,
      "geometry": "POINT (-98.684522 29.437206)",
      "poi_name": "Alamo Molino Barbacoa",
      "osm_id": 8633856860,
      "amenity": "restaurant",
      "cuisine": "barbecue",
      "addr_state": "TX",
      "addr_city": "San Antonio",
      "addr_postcode": "78251",
      "addr_street": "Potranco Road",
      "addr_housenumber": "9827",
      "value": 207.10871143336217
    },
    {
      "id": 105579,
      "geometry": "POINT (-98.681273 29.437066)",
      "poi_name": "Plaza Tapatia",
      "osm_id": 8633856865,
      "amenity": "restaurant",
      "cuisine": "mexican",
      "drive_through": "yes",
      "value": 207.10871143336217
    },
    {
      "id": 105826,
      "geometry": "POINT (-98.488163 29.421607)",
      "poi_name": "Guadalajara Grill",
      "osm_id": 8645287533,
      "amenity": "restaurant",
      "cuisine": "mexican",
      "website": "http://www.guadalajaragrill.us",
      "phone": "+1-210-710-8241",
      "outdoor_seating": "yes",
      "value": 207.10871143336217
    },
    {
      "id": 108836,
      "geometry": "POINT (-98.470996 29.592018)",
      "poi_name": "John the Greek Restaurant",
      "osm_id": 3636085810,
      "amenity": "restaurant",
      "cuisine": "greek",
      "opening_hours": "Mo-Fr 11:00-20:00; Sa 11:00-21:00",
      "website": "http://www.johnthegreek.com/",
      "phone": "+1-210-403-0565",
      "addr_city": "San Antonio",
      "addr_postcode": "78232",
      "addr_street": "North US Highway 281",
      "addr_housenumber": "16602",
      "value": 207.10871143336217
    },
    {
      "id": 108764,
      "geometry": "POINT (-98.489797 29.430948)",
      "poi_name": "Ocho",
      "osm_id": 3634537198,
      "amenity": "restaurant",
      "value": 207.10871143336217
    },
    {
      "id": 111839,
      "geometry": "POINT (-98.486258 29.424459)",
      "poi_name": "Colonial Room",
      "osm_id": 3764366958,
      "amenity": "restaurant",
      "addr_state": "TX",
      "addr_city": "San Antonio",
      "addr_postcode": "78205",
      "addr_street": "Alamo Plaza",
      "addr_housenumber": "204",
      "value": 207.10871143336217
    },
    {
      "id": 117176,
      "geometry": "POINT (-98.535161 29.357961)",
      "poi_name": "China Rose",
      "osm_id": 8979894974,
      "amenity": "restaurant",
      "cuisine": "chinese",
      "addr_state": "TX",
      "addr_city": "San Antonio",
      "addr_postcode": "78224",
      "addr_street": "Southwest Military Drive",
      "addr_housenumber": "2535",
      "value": 207.10871143336217
    },
    {
      "id": 122930,
      "geometry": "POINT (-98.49973 29.439304)",
      "poi_name": "Sancho",
      "osm_id": 6828627064,
      "amenity": "restaurant",
      "addr_street": "Jackson Street",
      "addr_housenumber": "628",
      "value": 207.10871143336217
    },
    {
      "id": 117784,
      "geometry": "POINT (-98.479931 29.493841)",
      "poi_name": "Snooze, an A.M. Eatery",
      "osm_id": 9008993748,
      "amenity": "restaurant",
      "cuisine": "breakfast",
      "value": 207.10871143336217
    },
    {
      "id": 117785,
      "geometry": "POINT (-98.479691 29.495985)",
      "poi_name": "Piatti",
      "osm_id": 9008993774,
      "amenity": "restaurant",
      "cuisine": "italian",
      "value": 207.10871143336217
    },
    {
      "id": 117787,
      "geometry": "POINT (-98.481627 29.497662)",
      "poi_name": "California Pizza Kitchen",
      "osm_id": 9008993791,
      "amenity": "restaurant",
      "cuisine": "pizza",
      "value": 207.10871143336217
    },
    {
      "id": 119052,
      "geometry": "POINT (-98.499714 29.515911)",
      "poi_name": "Hula Poke",
      "osm_id": 9081153281,
      "amenity": "restaurant",
      "cuisine": "asian;hawaiian",
      "value": 207.10871143336217
    },
    {
      "id": 121067,
      "geometry": "POINT (-98.504214 29.347216)",
      "poi_name": "Rossy's Tacos",
      "osm_id": 6741499869,
      "amenity": "restaurant",
      "cuisine": "mexican",
      "phone": "+1-210-924-0252",
      "value": 207.10871143336217
    },
    {
      "id": 120283,
      "geometry": "POINT (-98.652651 29.437602)",
      "poi_name": "Laguna Cafe",
      "osm_id": 6698436103,
      "amenity": "restaurant",
      "value": 207.10871143336217
    },
    {
      "id": 120286,
      "geometry": "POINT (-98.560593 29.528403)",
      "poi_name": "El Taco Tote",
      "osm_id": 6698464003,
      "amenity": "restaurant",
      "cuisine": "mexican",
      "phone": "+1-210-593-1533",
      "addr_state": "TX",
      "addr_city": "San Antonio",
      "addr_postcode": "78230",
      "addr_street": "Interstate Highway 10 Frontage Road",
      "addr_housenumber": "9502",
      "value": 207.10871143336217
    },
    {
      "id": 120287,
      "geometry": "POINT (-98.560342 29.528211)",
      "poi_name": "210 Ceviche Seafood Cocina",
      "osm_id": 6698464010,
      "amenity": "restaurant",
      "cuisine": "seafood",
      "phone": "+1-210-593-9300",
      "addr_state": "TX",
      "addr_city": "San Antonio",
      "addr_postcode": "78230",
      "addr_street": "Frontage Rd",
      "addr_housenumber": "9502",
      "value": 207.10871143336217
    },
    {
      "id": 120289,
      "geometry": "POINT (-98.665364 29.441849)",
      "poi_name": "Urban Bricks Pizza Company",
      "osm_id": 6698464123,
      "amenity": "restaurant",
      "cuisine": "pizza",
      "value": 207.10871143336217
    },
    {
      "id": 120290,
      "geometry": "POINT (-98.662983 29.443946)",
      "poi_name": "Kumori Sushi & Teppanyaki",
      "osm_id": 6698464125,
      "amenity": "restaurant",
      "cuisine": "sushi",
      "value": 207.10871143336217
    },
    {
      "id": 120291,
      "geometry": "POINT (-98.661714 29.44292)",
      "poi_name": "Ginza Ramen and Poke",
      "osm_id": 6698464135,
      "amenity": "restaurant",
      "cuisine": "japanese;ramen;poke",
      "opening_hours": "Mo-Th 11:00-21:30; Fr 11:00-22:00; Sa 11:30-22:00; Su 11:30-21:00",
      "phone": "+1-210-541-4088",
      "addr_state": "TX",
      "addr_city": "San Antonio",
      "addr_postcode": "78245",
      "addr_street": "State Highway 151",
      "addr_housenumber": "8771",
      "value": 207.10871143336217
    },
    {
      "id": 120292,
      "geometry": "POINT (-98.635506 29.444928)",
      "poi_name": "Smokey Mo's",
      "osm_id": 6698466480,
      "amenity": "restaurant",
      "cuisine": "barbecue",
      "addr_state": "TX",
      "addr_city": "San Antonio",
      "addr_street": "Northwest Loop 410",
      "addr_housenumber": "7418",
      "value": 207.10871143336217
    },
    {
      "id": 120293,
      "geometry": "POINT (-98.635742 29.444655)",
      "poi_name": "Wok Inn",
      "osm_id": 6698466483,
      "amenity": "restaurant",
      "cuisine": "asian",
      "value": 207.10871143336217
    },
    {
      "id": 122839,
      "geometry": "POINT (-98.464459 29.479787)",
      "poi_name": "Paloma Blanca",
      "osm_id": 6821171586,
      "amenity": "restaurant",
      "addr_street": "Broadway",
      "addr_housenumber": "5800",
      "value": 207.10871143336217
    },
    {
      "id": 124777,
      "geometry": "POINT (-98.404565 29.597789)",
      "poi_name": "Mattenga's Pizzeria",
      "osm_id": 6928992135,
      "amenity": "restaurant",
      "cuisine": "pizza",
      "addr_state": "TX",
      "addr_city": "San Antonio",
      "addr_postcode": "78247",
      "addr_street": "O'Connor Road",
      "addr_housenumber": "17219",
      "value": 207.10871143336217
    },
    {
      "id": 124715,
      "geometry": "POINT (-98.469263 29.385594)",
      "poi_name": "Taqueria El Ranchero de Jalisco",
      "osm_id": 6926075961,
      "amenity": "restaurant",
      "cuisine": "mexican",
      "addr_state": "TX",
      "addr_city": "San Antonio",
      "addr_postcode": "78223",
      "addr_street": "Fair Avenue",
      "addr_housenumber": "505",
      "value": 207.10871143336217
    },
    {
      "id": 128237,
      "geometry": "POINT (-98.490607 29.424882)",
      "poi_name": "Ostra",
      "osm_id": 8140557818,
      "amenity": "restaurant",
      "value": 207.10871143336217
    },
    {
      "id": 124712,
      "geometry": "POINT (-98.443998 29.603722)",
      "poi_name": "Bourbon Street Seafood Kitchen",
      "osm_id": 6926008518,
      "amenity": "restaurant",
      "cuisine": "seafood",
      "addr_state": "TX",
      "addr_city": "San Antonio",
      "addr_postcode": "78232",
      "addr_street": "North Loop 1604 East",
      "addr_housenumber": "2815",
      "value": 207.10871143336217
    },
    {
      "id": 126303,
      "geometry": "POINT (-98.512495 29.399197)",
      "poi_name": "Viva Vegeria",
      "osm_id": 6993213071,
      "amenity": "restaurant",
      "cuisine": "mexican",
      "opening_hours": "Th 11:00-17:00, Fr 11:00-20:30, Sa 11:00-20:30, Su 11:00-17:00, Mo 11:00-17:00",
      "website": "https://myvegeria.com/",
      "phone": "+1-210-465-9233",
      "addr_state": "TX",
      "addr_city": "San Antonio",
      "addr_postcode": "78204",
      "addr_street": "Nogalitos Street",
      "addr_housenumber": "1422",
      "value": 207.10871143336217
    },
    {
      "id": 126304,
      "geometry": "POINT (-98.488445 29.415226)",
      "poi_name": "Se\u00f1or Veggie",
      "osm_id": 6993302726,
      "amenity": "restaurant",
      "cuisine": "mexican",
      "opening_hours": "Tu-Sa 11:00-21:00",
      "phone": "+1-210-228-0073",
      "addr_state": "TX",
      "addr_city": "San Antonio",
      "addr_postcode": "78210",
      "addr_street": "South Presa Street",
      "addr_housenumber": "620",
      "value": 207.10871143336217
    },
    {
      "id": 128238,
      "geometry": "POINT (-98.484422 29.423231)",
      "poi_name": "Fogo de Ch\u00e3o",
      "osm_id": 8140565217,
      "amenity": "restaurant",
      "value": 207.10871143336217
    },
    {
      "id": 135735,
      "geometry": "POINT (-98.637715 29.446166)",
      "poi_name": "The Shack",
      "osm_id": 11532680303,
      "amenity": "restaurant",
      "cuisine": "burger;american;dessert",
      "opening_hours": "Tu-Sa 11:00-21:00",
      "website": "https://theshacksatx.com/",
      "phone": "+1-210-375-4097",
      "outdoor_seating": "yes",
      "addr_state": "TX",
      "addr_city": "San Antonio",
      "addr_postcode": "78245",
      "addr_street": "Northwest Loop 410",
      "addr_housenumber": "7431",
      "value": 207.10871143336217
    },
    {
      "id": 134557,
      "geometry": "POINT (-98.576296 29.501136)",
      "poi_name": "Suck It: The Restaurant",
      "osm_id": 11474798869,
      "amenity": "restaurant",
      "cuisine": "asian;beef_bowl;bubble_tea;japanese;noodles;ramen;vietnamese",
      "opening_hours": "Mo-Th 11:00-22:00; Fr-Sa 11:00-23:00",
      "website": "https://chefsuckit.com/",
      "phone": "(210) 560-2113",
      "addr_postcode": "78229",
      "value": 207.10871143336217
    },
    {
      "id": 128679,
      "geometry": "POINT (-98.469742 29.497548)",
      "poi_name": "Zushi Sushi",
      "osm_id": 8177979617,
      "amenity": "restaurant",
      "cuisine": "sushi",
      "value": 207.10871143336217
    },
    {
      "id": 128680,
      "geometry": "POINT (-98.469341 29.497186)",
      "poi_name": "Pei Wei",
      "osm_id": 8177979618,
      "amenity": "restaurant",
      "cuisine": "asian",
      "value": 207.10871143336217
    },
    {
      "id": 129969,
      "geometry": "POINT (-98.523739 29.453458)",
      "poi_name": "Crystal's Cafe",
      "osm_id": 9848502056,
      "amenity": "restaurant",
      "cuisine": "mexican",
      "addr_state": "TX",
      "addr_city": "San Antonio",
      "addr_postcode": "78201",
      "addr_street": "North Zarzamora Street",
      "addr_housenumber": "2420",
      "value": 207.10871143336217
    },
    {
      "id": 129970,
      "geometry": "POINT (-98.5247 29.449178)",
      "poi_name": "Charrito's Cafe",
      "osm_id": 9848502059,
      "amenity": "restaurant",
      "cuisine": "mexican",
      "value": 207.10871143336217
    },
    {
      "id": 136304,
      "geometry": "POINT (-98.492006 29.615722)",
      "poi_name": "Clean Eatz",
      "osm_id": 11576163756,
      "amenity": "restaurant",
      "opening_hours": "Mo-Fr 11:00-19:00; Sa-Su 11:00-17:00",
      "website": "https://locations.cleaneatz.com/tx/sanantonio/meal-prep-127.html",
      "phone": "210-277-8467",
      "addr_state": "TX",
      "addr_city": "San Antonio",
      "addr_postcode": "78258",
      "addr_street": "East Sonterra Boulevard",
      "addr_housenumber": "158",
      "value": 207.10871143336217
    },
    {
      "id": 136724,
      "geometry": "POINT (-98.485561 29.440815)",
      "poi_name": "Santa Diabla",
      "osm_id": 11599172524,
      "amenity": "restaurant",
      "cuisine": "mexican",
      "value": 207.10871143336217
    },
    {
      "id": 137247,
      "geometry": "POINT (-98.47164 29.526182)",
      "poi_name": "La Gloria",
      "osm_id": 6090647891,
      "amenity": "restaurant",
      "value": 207.10871143336217
    },
    {
      "id": 136902,
      "geometry": "POINT (-98.488156 29.424527)",
      "poi_name": "Michelino's",
      "osm_id": 6075211500,
      "amenity": "restaurant",
      "cuisine": "italian",
      "value": 207.10871143336217
    },
    {
      "id": 136903,
      "geometry": "POINT (-98.488196 29.424611)",
      "poi_name": "Dick's Last Resort San Antonio",
      "osm_id": 6075211502,
      "amenity": "restaurant",
      "value": 207.10871143336217
    },
    {
      "id": 136904,
      "geometry": "POINT (-98.488097 29.424444)",
      "poi_name": "Lone Star Cafe",
      "osm_id": 6075211503,
      "amenity": "restaurant",
      "opening_hours": "Mo-Sa 11:00-22:00, Su 11:00-21:00",
      "website": "https://lonestarcafe.us",
      "phone": "+1-210-223-9374",
      "addr_state": "TX",
      "addr_city": "San Antonio",
      "addr_postcode": "78205",
      "addr_street": "Losoya Street",
      "addr_housenumber": "237",
      "value": 207.10871143336217
    },
    {
      "id": 136905,
      "geometry": "POINT (-98.487971 29.424263)",
      "poi_name": "Cafe Ole",
      "osm_id": 6075211504,
      "amenity": "restaurant",
      "value": 207.10871143336217
    },
    {
      "id": 136906,
      "geometry": "POINT (-98.488238 29.424729)",
      "poi_name": "Boudro\u2019s",
      "osm_id": 6075211505,
      "amenity": "restaurant",
      "cuisine": "american",
      "value": 207.10871143336217
    },
    {
      "id": 136908,
      "geometry": "POINT (-98.488846 29.425855)",
      "poi_name": "Landry's Seafood House",
      "osm_id": 6075211510,
      "amenity": "restaurant",
      "website": "landrysseafood.com",
      "phone": "+1-210-229-1010",
      "addr_state": "TX",
      "addr_city": "San Antonio",
      "addr_postcode": "78205",
      "addr_street": "North Presa Street",
      "addr_housenumber": "517",
      "value": 207.10871143336217
    },
    {
      "id": 136909,
      "geometry": "POINT (-98.489209 29.42562)",
      "poi_name": "Joe's Crab Shack",
      "osm_id": 6075211511,
      "amenity": "restaurant",
      "cuisine": "seafood",
      "website": "https://www.joescrabshack.com/locations/10635",
      "phone": "+1-210-271-9981",
      "addr_state": "TX",
      "addr_city": "San Antonio",
      "addr_postcode": "78205",
      "addr_street": "College Street",
      "addr_housenumber": "212",
      "value": 207.10871143336217
    },
    {
      "id": 159916,
      "geometry": "POINT (-98.639057 29.380997)",
      "poi_name": "Pizza Hut",
      "osm_id": 4811158841,
      "amenity": "restaurant",
      "cuisine": "pizza",
      "value": 207.10871143336217
    },
    {
      "id": 145442,
      "geometry": "POINT (-98.615402 29.468534)",
      "poi_name": "Wingstop",
      "osm_id": 7357364502,
      "amenity": "restaurant",
      "cuisine": "wings",
      "value": 207.10871143336217
    },
    {
      "id": 145443,
      "geometry": "POINT (-98.615483 29.468465)",
      "poi_name": "Pho Ha Long",
      "osm_id": 7357364504,
      "amenity": "restaurant",
      "cuisine": "vietnamese",
      "phone": "+1-210-521-4507",
      "value": 207.10871143336217
    },
    {
      "id": 145444,
      "geometry": "POINT (-98.615443 29.467691)",
      "poi_name": "Perfect Score Sports Cantina",
      "osm_id": 7357364509,
      "amenity": "restaurant",
      "value": 207.10871143336217
    },
    {
      "id": 174390,
      "geometry": "POINT (-98.361527 29.443143)",
      "poi_name": "Pizza Hut",
      "osm_id": 2479251358,
      "amenity": "restaurant",
      "cuisine": "pizza",
      "value": 207.10871143336217
    },
    {
      "id": 165167,
      "geometry": "POINT (-98.481389 29.395471)",
      "poi_name": "House of Pizza",
      "osm_id": 9521933789,
      "amenity": "restaurant",
      "cuisine": "pizza",
      "addr_state": "TX",
      "addr_city": "San Antonio",
      "addr_postcode": "78210",
      "addr_street": "South Presa Street",
      "addr_housenumber": "2620",
      "value": 207.10871143336217
    },
    {
      "id": 166287,
      "geometry": "POINT (-98.487026 29.411143)",
      "poi_name": "Bliss Restaurant",
      "osm_id": 9586303775,
      "amenity": "restaurant",
      "addr_street": "926 S Presa Street",
      "value": 207.10871143336217
    },
    {
      "id": 162020,
      "geometry": "POINT (-98.299711 29.375944)",
      "poi_name": "Baldy's",
      "osm_id": 4910328342,
      "amenity": "restaurant",
      "cuisine": "american",
      "value": 207.10871143336217
    },
    {
      "id": 190060,
      "geometry": "POINT (-98.478106 29.424882)",
      "poi_name": "Spagetti Warehouse",
      "osm_id": 1266039071,
      "amenity": "restaurant",
      "value": 207.10871143336217
    },
    {
      "id": 174389,
      "geometry": "POINT (-98.361724 29.446312)",
      "poi_name": "Denny's",
      "osm_id": 2479251357,
      "amenity": "restaurant",
      "cuisine": "american",
      "value": 207.10871143336217
    },
    {
      "id": 179678,
      "geometry": "POINT (-98.541058 29.55016)",
      "poi_name": "Tacos n Salsa",
      "osm_id": 10774102538,
      "amenity": "restaurant",
      "cuisine": "mexican",
      "wheelchair": "limited",
      "takeaway": "yes",
      "toilets": "yes",
      "value": 207.10871143336217
    },
    {
      "id": 180464,
      "geometry": "POINT (-98.630098 29.508451)",
      "poi_name": "Grady's Bar-B-Q",
      "osm_id": 10802282864,
      "amenity": "restaurant",
      "cuisine": "barbecue",
      "website": "https://www.gradysbbq.com/bandera",
      "addr_state": "TX",
      "addr_city": "San Antonio",
      "addr_postcode": "78238",
      "addr_street": "Bandera Road",
      "addr_housenumber": "7400",
      "value": 207.10871143336217
    },
    {
      "id": 185386,
      "geometry": "POINT (-98.699168 29.459851)",
      "poi_name": "Mango Market",
      "osm_id": 7851466716,
      "amenity": "restaurant",
      "cuisine": "hot_dog;sandwich;salad",
      "value": 207.10871143336217
    },
    {
      "id": 186358,
      "geometry": "POINT (-98.559716 29.460303)",
      "poi_name": "La perla del pacifico",
      "osm_id": 7926419736,
      "amenity": "restaurant",
      "cuisine": "seafood;mexican",
      "opening_hours": "Mo-Su 10:00-22:00",
      "website": "https://www.facebook.com/La-Perla-del-Pacifico-Bandera-115202380272036/?ref=settings",
      "phone": "+1-210-538-5035",
      "addr_state": "TX",
      "addr_city": "San Antonio",
      "addr_postcode": "78228",
      "addr_street": "Bandera Road",
      "addr_housenumber": "1105",
      "value": 207.10871143336217
    },
    {
      "id": 180172,
      "geometry": "POINT (-98.488669 29.424851)",
      "poi_name": "Saltgrass Steak House",
      "osm_id": 10794101059,
      "amenity": "restaurant",
      "cuisine": "steak_house",
      "value": 207.10871143336217
    },
    {
      "id": 180704,
      "geometry": "POINT (-98.489425 29.565215)",
      "poi_name": "Hero's Ramen x Sushi",
      "osm_id": 10815263043,
      "amenity": "restaurant",
      "value": 207.10871143336217
    },
    {
      "id": 180705,
      "geometry": "POINT (-98.489486 29.565138)",
      "poi_name": "Losoya's Taqueria",
      "osm_id": 10815263044,
      "amenity": "restaurant",
      "value": 207.10871143336217
    },
    {
      "id": 180706,
      "geometry": "POINT (-98.489215 29.565096)",
      "poi_name": "Julian's Italian Pizzaria & Kitchen",
      "osm_id": 10815263045,
      "amenity": "restaurant",
      "value": 207.10871143336217
    },
    {
      "id": 180707,
      "geometry": "POINT (-98.48096 29.563208)",
      "poi_name": "Hungry Howies",
      "osm_id": 10815263048,
      "amenity": "restaurant",
      "value": 207.10871143336217
    },
    {
      "id": 185814,
      "geometry": "POINT (-98.286387 29.545658)",
      "poi_name": "Thai O'Cha",
      "osm_id": 7885568428,
      "amenity": "restaurant",
      "cuisine": "thai",
      "phone": "+1-210-659-3310",
      "addr_state": "TX",
      "addr_city": "Universal City",
      "addr_street": "East Aviation Boulevard",
      "addr_housenumber": "222",
      "value": 207.10871143336217
    },
    {
      "id": 190330,
      "geometry": "POINT (-98.502906 29.425444)",
      "poi_name": "Pico de Gallo",
      "osm_id": 1286367746,
      "amenity": "restaurant",
      "value": 207.10871143336217
    },
    {
      "id": 198829,
      "geometry": "POINT (-98.491638 29.446803)",
      "poi_name": "The Sandwich Garden",
      "osm_id": 921072810,
      "amenity": "restaurant",
      "value": 207.10871143336217
    },
    {
      "id": 193355,
      "geometry": "POINT (-98.647727 29.416646)",
      "poi_name": "Chang's Korean Restaurant",
      "osm_id": 1526836836,
      "amenity": "restaurant",
      "value": 207.10871143336217
    },
    {
      "id": 198830,
      "geometry": "POINT (-98.492121 29.446668)",
      "poi_name": "Taquaria Chapala Jalisco",
      "osm_id": 921072812,
      "amenity": "restaurant",
      "value": 207.10871143336217
    },
    {
      "id": 198831,
      "geometry": "POINT (-98.498991 29.453548)",
      "poi_name": "Las Salsa's",
      "osm_id": 921083814,
      "amenity": "restaurant",
      "value": 207.10871143336217
    },
    {
      "id": 198832,
      "geometry": "POINT (-98.499538 29.453055)",
      "poi_name": "Bananas",
      "osm_id": 921083815,
      "amenity": "restaurant",
      "value": 207.10871143336217
    },
    {
      "id": 198833,
      "geometry": "POINT (-98.499106 29.456589)",
      "poi_name": "Stefania's Country Italian",
      "osm_id": 921083817,
      "amenity": "restaurant",
      "value": 207.10871143336217
    },
    {
      "id": 198842,
      "geometry": "POINT (-98.498761 29.466785)",
      "poi_name": "Jim's",
      "osm_id": 921116457,
      "amenity": "restaurant",
      "value": 207.10871143336217
    },
    {
      "id": 198845,
      "geometry": "POINT (-98.491582 29.445333)",
      "poi_name": "Regio Cafe",
      "osm_id": 921126825,
      "amenity": "restaurant",
      "value": 207.10871143336217
    },
    {
      "id": 198846,
      "geometry": "POINT (-98.491544 29.445058)",
      "poi_name": "Saigon Express",
      "osm_id": 921126826,
      "amenity": "restaurant",
      "value": 207.10871143336217
    },
    {
      "id": 191317,
      "geometry": "POINT (-98.575894 29.54645)",
      "poi_name": "Gourmet Burger Grill",
      "osm_id": 1355422303,
      "amenity": "restaurant",
      "cuisine": "burger",
      "website": "http://www.gourmetburgergrill.com",
      "addr_postcode": "78230",
      "addr_street": "Huebner Road",
      "addr_housenumber": "11224",
      "value": 207.10871143336217
    },
    {
      "id": 195034,
      "geometry": "POINT (-98.488506 29.426393)",
      "poi_name": "Voodoo Donut",
      "osm_id": 10292461858,
      "amenity": "restaurant",
      "value": 207.10871143336217
    },
    {
      "id": 198848,
      "geometry": "POINT (-98.494513 29.448914)",
      "poi_name": "Alamo Fiesta on Main",
      "osm_id": 921130301,
      "amenity": "restaurant",
      "value": 207.10871143336217
    },
    {
      "id": 198985,
      "geometry": "POINT (-98.488291 29.42186)",
      "poi_name": "Fig Tree",
      "osm_id": 928668435,
      "amenity": "restaurant",
      "value": 207.10871143336217
    },
    {
      "id": 198849,
      "geometry": "POINT (-98.494159 29.452502)",
      "poi_name": "La Fonda on Main",
      "osm_id": 921130500,
      "amenity": "restaurant",
      "value": 207.10871143336217
    },
    {
      "id": 198850,
      "geometry": "POINT (-98.493748 29.453689)",
      "poi_name": "Capparelli's on Main",
      "osm_id": 921130504,
      "amenity": "restaurant",
      "value": 207.10871143336217
    },
    {
      "id": 198856,
      "geometry": "POINT (-98.500731 29.440269)",
      "poi_name": "The Cove",
      "osm_id": 922056772,
      "amenity": "restaurant",
      "cuisine": "burger;american;organic",
      "website": "https://thecove.us/",
      "phone": "+1-210-227-2683",
      "addr_state": "TX",
      "addr_city": "San Antonio",
      "addr_postcode": "78212",
      "addr_street": "West Cypress Street",
      "addr_housenumber": "606",
      "value": 207.10871143336217
    },
    {
      "id": 198857,
      "geometry": "POINT (-98.502557 29.438032)",
      "poi_name": "MK Davis",
      "osm_id": 922076285,
      "amenity": "restaurant",
      "value": 207.10871143336217
    },
    {
      "id": 198859,
      "geometry": "POINT (-98.481522 29.437364)",
      "poi_name": "Caf\u00e9 des Artistes",
      "osm_id": 922097448,
      "amenity": "restaurant",
      "value": 207.10871143336217
    },
    {
      "id": 198861,
      "geometry": "POINT (-98.492036 29.43105)",
      "poi_name": "Copper Kitchen",
      "osm_id": 922146344,
      "amenity": "restaurant",
      "value": 207.10871143336217
    },
    {
      "id": 198986,
      "geometry": "POINT (-98.488374 29.424138)",
      "poi_name": "Boudro's",
      "osm_id": 928671461,
      "amenity": "restaurant",
      "value": 207.10871143336217
    },
    {
      "id": 198987,
      "geometry": "POINT (-98.488931 29.564167)",
      "poi_name": "Magnolia Pancake Haus",
      "osm_id": 928683074,
      "amenity": "restaurant",
      "value": 207.10871143336217
    },
    {
      "id": 198988,
      "geometry": "POINT (-98.47852 29.421488)",
      "poi_name": "Ruth's Chris Steak House",
      "osm_id": 928694084,
      "amenity": "restaurant",
      "cuisine": "american",
      "value": 207.10871143336217
    },
    {
      "id": 199026,
      "geometry": "POINT (-98.497301 29.446294)",
      "poi_name": "food court",
      "osm_id": 932396617,
      "amenity": "restaurant",
      "value": 207.10871143336217
    },
    {
      "id": 199813,
      "geometry": "POINT (-98.489584 29.415284)",
      "poi_name": "Rosario's Cantina",
      "osm_id": 990479866,
      "amenity": "restaurant",
      "addr_postcode": "78201",
      "addr_street": "South Alamo Street",
      "addr_housenumber": "901",
      "value": 207.10871143336217
    },
    {
      "id": 199109,
      "geometry": "POINT (-98.535294 29.495855)",
      "poi_name": "La Fogata",
      "osm_id": 937416921,
      "amenity": "restaurant",
      "cuisine": "mexican",
      "value": 207.10871143336217
    },
    {
      "id": 199112,
      "geometry": "POINT (-98.480212 29.443592)",
      "poi_name": "Sandbar Fish House & Market",
      "osm_id": 937455107,
      "amenity": "restaurant",
      "cuisine": "seafood",
      "value": 207.10871143336217
    },
    {
      "id": 199113,
      "geometry": "POINT (-98.480276 29.444094)",
      "poi_name": "il Sogno Osteria",
      "osm_id": 937464822,
      "amenity": "restaurant",
      "cuisine": "italian;seafood",
      "phone": "+1-210-223-3900",
      "addr_postcode": "78215",
      "addr_street": "East Grayson Street",
      "addr_housenumber": "200",
      "value": 207.10871143336217
    },
    {
      "id": 199740,
      "geometry": "POINT (-98.435439 29.35031)",
      "poi_name": "Buffalo Wild Wings",
      "osm_id": 988024026,
      "amenity": "restaurant",
      "cuisine": "wings",
      "website": "https://www.buffalowildwings.com/",
      "addr_state": "TX",
      "addr_city": "San Antonio",
      "addr_postcode": "78223",
      "addr_street": "Southeast Military Drive",
      "addr_housenumber": "3158",
      "value": 207.10871143336217
    },
    {
      "id": 199179,
      "geometry": "POINT (-98.477534 29.4401)",
      "poi_name": "Mary Ann's Pig Stand",
      "osm_id": 941220644,
      "amenity": "restaurant",
      "cuisine": "barbecue",
      "value": 207.10871143336217
    },
    {
      "id": 199814,
      "geometry": "POINT (-98.488878 29.414487)",
      "poi_name": "Cascabel's",
      "osm_id": 990484223,
      "amenity": "restaurant",
      "value": 207.10871143336217
    },
    {
      "id": 199815,
      "geometry": "POINT (-98.492336 29.412393)",
      "poi_name": "Liberty Bar",
      "osm_id": 990527614,
      "amenity": "restaurant",
      "value": 207.10871143336217
    },
    {
      "id": 203132,
      "geometry": "POINT (-98.466305 29.463563)",
      "poi_name": "Koi Kawa Japanese Restaurant",
      "osm_id": 7064934486,
      "amenity": "restaurant",
      "cuisine": "japanese",
      "phone": "+1-210-805-8111",
      "addr_state": "TX",
      "addr_city": "San Antonio",
      "addr_postcode": "78209",
      "addr_street": "Broadway",
      "addr_housenumber": "4051",
      "value": 207.10871143336217
    },
    {
      "id": 203159,
      "geometry": "POINT (-98.46827 29.460124)",
      "poi_name": "09 Midtown Bistro",
      "osm_id": 7067175579,
      "amenity": "restaurant",
      "phone": "+1-210-857-4518",
      "addr_state": "TX",
      "addr_city": "San Antonio",
      "addr_postcode": "78209",
      "addr_street": "Broadway",
      "addr_housenumber": "3615",
      "value": 207.10871143336217
    },
    {
      "id": 203161,
      "geometry": "POINT (-98.46745 29.459614)",
      "poi_name": "Taco Broadway",
      "osm_id": 7067947015,
      "amenity": "restaurant",
      "cuisine": "mexican",
      "phone": "+1-210-758-5231",
      "addr_state": "TX",
      "addr_city": "San Antonio",
      "addr_postcode": "78209",
      "addr_street": "Broadway",
      "addr_housenumber": "3610",
      "value": 207.10871143336217
    },
    {
      "id": 203172,
      "geometry": "POINT (-98.463443 29.472653)",
      "poi_name": "Cappy's Restaurant",
      "osm_id": 7068124953,
      "amenity": "restaurant",
      "cuisine": "eclectic",
      "phone": "+1-210-828-9669",
      "addr_state": "TX",
      "addr_city": "San Antonio",
      "addr_postcode": "78209",
      "addr_street": "Broadway",
      "addr_housenumber": "5011",
      "value": 207.10871143336217
    },
    {
      "id": 201612,
      "geometry": "POINT (-98.489154 29.425188)",
      "poi_name": "Hard Rock Cafe",
      "osm_id": 643437139,
      "amenity": "restaurant",
      "cuisine": "american",
      "value": 207.10871143336217
    },
    {
      "id": 203133,
      "geometry": "POINT (-98.462816 29.471436)",
      "poi_name": "Osaka Steak & Sushi Bar",
      "osm_id": 7064941341,
      "amenity": "restaurant",
      "cuisine": "japanese",
      "phone": "+1-210-822-0300",
      "addr_state": "TX",
      "addr_city": "San Antonio",
      "addr_postcode": "78209",
      "addr_street": "Broadway",
      "addr_housenumber": "4902",
      "value": 207.10871143336217
    },
    {
      "id": 203214,
      "geometry": "POINT (-98.46321 29.475854)",
      "poi_name": "Chela's Tacos Mexican Restaurant",
      "osm_id": 7070436464,
      "amenity": "restaurant",
      "cuisine": "mexican",
      "addr_state": "TX",
      "addr_city": "Alamo Heights",
      "addr_postcode": "78209",
      "addr_street": "Broadway",
      "addr_housenumber": "5231",
      "value": 207.10871143336217
    },
    {
      "id": 203173,
      "geometry": "POINT (-98.462456 29.472903)",
      "poi_name": "The Broadway 50 50",
      "osm_id": 7068124958,
      "amenity": "restaurant",
      "cuisine": "american",
      "phone": "+1-210-832-0050",
      "addr_state": "TX",
      "addr_city": "San Antonio",
      "addr_postcode": "78209",
      "addr_street": "Broadway",
      "addr_housenumber": "5050",
      "value": 207.10871143336217
    },
    {
      "id": 203174,
      "geometry": "POINT (-98.462391 29.473049)",
      "poi_name": "Volare Pizza",
      "osm_id": 7068124959,
      "amenity": "restaurant",
      "cuisine": "italian",
      "phone": "+1-210-828-3354",
      "addr_state": "TX",
      "addr_city": "San Antonio",
      "addr_postcode": "78209",
      "addr_street": "Broadway",
      "addr_housenumber": "5054",
      "value": 207.10871143336217
    },
    {
      "id": 203198,
      "geometry": "POINT (-98.463822 29.471995)",
      "poi_name": "Mon Thai Bistro and Sushi Bar",
      "osm_id": 7070032883,
      "amenity": "restaurant",
      "cuisine": "thai;sushi",
      "phone": "+1-210-822-3253",
      "addr_state": "TX",
      "addr_city": "San Antonio",
      "addr_postcode": "78209",
      "addr_street": "Broadway",
      "addr_housenumber": "4901",
      "value": 207.10871143336217
    },
    {
      "id": 203221,
      "geometry": "POINT (-98.462239 29.476158)",
      "poi_name": "Habibi Cafe",
      "osm_id": 7070612490,
      "amenity": "restaurant",
      "phone": "+1-210-437-0242",
      "addr_state": "TX",
      "addr_city": "San Antonio",
      "addr_postcode": "78209",
      "addr_street": "Broadway",
      "addr_housenumber": "5306",
      "value": 207.10871143336217
    },
    {
      "id": 203465,
      "geometry": "POINT (-98.492846 29.516158)",
      "poi_name": "Turkish restaurant",
      "osm_id": 7088962185,
      "amenity": "restaurant",
      "value": 207.10871143336217
    },
    {
      "id": 203232,
      "geometry": "POINT (-98.46957 29.456602)",
      "poi_name": "Viet-Nam Restaurant",
      "osm_id": 7072351830,
      "amenity": "restaurant",
      "cuisine": "vietnamese",
      "phone": "+1-210-822-7461",
      "addr_state": "TX",
      "addr_city": "San Antonio",
      "addr_postcode": "78209",
      "addr_street": "Broadway",
      "addr_housenumber": "3244",
      "value": 207.10871143336217
    },
    {
      "id": 203233,
      "geometry": "POINT (-98.469615 29.456391)",
      "poi_name": "Van's",
      "osm_id": 7072351832,
      "amenity": "restaurant",
      "cuisine": "seafood",
      "phone": "+1-210-828-8449",
      "addr_state": "TX",
      "addr_city": "San Antonio",
      "addr_postcode": "78209",
      "addr_street": "Broadway",
      "addr_housenumber": "3214",
      "value": 207.10871143336217
    },
    {
      "id": 203466,
      "geometry": "POINT (-98.577591 29.53128)",
      "poi_name": "Maafor San Antonio",
      "osm_id": 7088962485,
      "amenity": "restaurant",
      "value": 207.10871143336217
    },
    {
      "id": 204945,
      "geometry": "POINT (-98.568748 29.524058)",
      "poi_name": "Berni Vietnamese Restaurant",
      "osm_id": 7152166802,
      "amenity": "restaurant",
      "cuisine": "vietnamese",
      "website": "http://places.singleplatform.com/berni-vietnamese-restaurant/menu?ref=google",
      "phone": "+1-210-485-5982",
      "addr_state": "TX",
      "addr_city": "San Antonio",
      "addr_postcode": "78240",
      "addr_street": "Wurzbach Road",
      "addr_housenumber": "8742",
      "value": 207.10871143336217
    },
    {
      "id": 203555,
      "geometry": "POINT (-98.501205 29.409855)",
      "poi_name": "The Fruiteria at Southtown",
      "osm_id": 7092899485,
      "amenity": "restaurant",
      "cuisine": "mexican",
      "opening_hours": "Mo-Sa 11:00-21:00",
      "operator": "Johnny P. Hernandez",
      "website": "http://chefjohnnyhernandez.com/restaurants/fruteria-southtown",
      "internet_access": "wlan",
      "phone": "+1-210-251-3104",
      "addr_postcode": "78204",
      "addr_street": "South Flores Street",
      "addr_housenumber": "1401 #102",
      "value": 207.10871143336217
    },
    {
      "id": 204140,
      "geometry": "POINT (-98.459678 29.351135)",
      "poi_name": "Wok Inn Asian Cafe",
      "osm_id": 7114758705,
      "amenity": "restaurant",
      "cuisine": "asian",
      "addr_state": "TX",
      "addr_city": "San Antonio",
      "addr_postcode": "78223",
      "addr_street": "Southeast Military Drive",
      "addr_housenumber": "2231",
      "value": 207.10871143336217
    },
    {
      "id": 204141,
      "geometry": "POINT (-98.45996 29.351097)",
      "poi_name": "Gulf Coast Fish House",
      "osm_id": 7114758707,
      "amenity": "restaurant",
      "cuisine": "seafood",
      "phone": "+1-210-277-0377",
      "addr_state": "TX",
      "addr_city": "San Antonio",
      "addr_postcode": "78223",
      "addr_street": "Southeast Military Drive",
      "addr_housenumber": "2230",
      "value": 207.10871143336217
    },
    {
      "id": 204142,
      "geometry": "POINT (-98.460681 29.350865)",
      "poi_name": "Laredo Taco",
      "osm_id": 7114822685,
      "amenity": "restaurant",
      "cuisine": "mexican",
      "phone": "+1-210-531-8850",
      "addr_state": "TX",
      "addr_city": "San Antonio",
      "addr_postcode": "78223",
      "addr_street": "Southeast Military Drive",
      "addr_housenumber": "2215",
      "value": 207.10871143336217
    },
    {
      "id": 204070,
      "geometry": "POINT (-98.45134 29.352525)",
      "poi_name": "Luna Rosa Puerto Rican Grill y Tapas",
      "osm_id": 7112669869,
      "amenity": "restaurant",
      "phone": "+1-210-314-3111",
      "addr_state": "TX",
      "addr_city": "San Antonio",
      "addr_postcode": "78223",
      "addr_street": "Southeast Military Drive",
      "addr_housenumber": "2603",
      "value": 207.10871143336217
    },
    {
      "id": 204501,
      "geometry": "POINT (-98.564911 29.527978)",
      "poi_name": "El Gallito De Jalisco",
      "osm_id": 7129416017,
      "amenity": "restaurant",
      "cuisine": "mexican",
      "phone": "+1-210-614-7114",
      "addr_state": "TX",
      "addr_city": "San Antonio",
      "addr_postcode": "78240",
      "addr_street": "Wurzbach Road",
      "addr_housenumber": "9226",
      "value": 207.10871143336217
    },
    {
      "id": 207651,
      "geometry": "POINT (-98.656294 29.438945)",
      "poi_name": "ChilAngus",
      "osm_id": 4955640079,
      "amenity": "restaurant",
      "cuisine": "mexican",
      "addr_state": "TX",
      "addr_city": "San Antonio",
      "addr_postcode": "78245",
      "addr_street": "State Highway 151",
      "addr_housenumber": "8603",
      "value": 207.10871143336217
    },
    {
      "id": 206847,
      "geometry": "POINT (-98.447976 29.487693)",
      "poi_name": "Silo",
      "osm_id": 7229531872,
      "amenity": "restaurant",
      "cuisine": "american",
      "website": "https://www.siloelevatedcuisine.com/",
      "phone": "+1-210-824-8686",
      "addr_state": "TX",
      "addr_city": "San Antonio",
      "addr_postcode": "78209",
      "addr_street": "Austin Highway",
      "addr_housenumber": "1133",
      "value": 207.10871143336217
    },
    {
      "id": 207652,
      "geometry": "POINT (-98.656158 29.438914)",
      "poi_name": "First Watch",
      "osm_id": 4955640080,
      "amenity": "restaurant",
      "cuisine": "american;breakfast",
      "addr_state": "TX",
      "addr_city": "San Antonio",
      "addr_postcode": "78245",
      "addr_street": "State Highway 151",
      "addr_housenumber": "8603",
      "value": 207.10871143336217
    },
    {
      "id": 217833,
      "geometry": "POINT (-98.490949 29.414148)",
      "poi_name": "Titos",
      "osm_id": 9244679817,
      "amenity": "restaurant",
      "value": 207.10871143336217
    },
    {
      "id": 215962,
      "geometry": "POINT (-98.517905 29.581024)",
      "poi_name": "el Bucanero",
      "osm_id": 5319154523,
      "amenity": "restaurant",
      "internet_access": "wlan",
      "addr_street": "Blanco Road",
      "value": 207.10871143336217
    },
    {
      "id": 216419,
      "geometry": "POINT (-98.679516 29.437227)",
      "poi_name": "El Rodeo de Jalisco",
      "osm_id": 9170735821,
      "amenity": "restaurant",
      "cuisine": "mexican",
      "value": 207.10871143336217
    },
    {
      "id": 217852,
      "geometry": "POINT (-98.478887 29.421164)",
      "poi_name": "Cuishe",
      "osm_id": 9244877218,
      "amenity": "restaurant",
      "addr_street": "Heiman Street",
      "value": 207.10871143336217
    },
    {
      "id": 213888,
      "geometry": "POINT (-98.55704 29.496946)",
      "poi_name": "Dimassi's Mediterranean Buffet",
      "osm_id": 5261375076,
      "amenity": "restaurant",
      "cuisine": "mediterranean;buffet",
      "value": 207.10871143336217
    },
    {
      "id": 215685,
      "geometry": "POINT (-98.685677 29.435757)",
      "poi_name": "Thai Hut",
      "osm_id": 5309530015,
      "amenity": "restaurant",
      "cuisine": "thai",
      "value": 207.10871143336217
    },
    {
      "id": 218747,
      "geometry": "POINT (-98.585488 29.503541)",
      "poi_name": "El Viejo 300",
      "osm_id": 9293974855,
      "amenity": "restaurant",
      "cuisine": "mexican",
      "opening_hours": "12:00-21:00",
      "phone": "+1-210-888-1525",
      "addr_state": "TX",
      "addr_city": "San Antonio",
      "addr_postcode": "78229",
      "addr_street": "Wurzbach Road",
      "addr_housenumber": "7271",
      "value": 207.10871143336217
    },
    {
      "id": 217992,
      "geometry": "POINT (-98.536687 29.553582)",
      "poi_name": "Myron's Prime Steakhouse",
      "osm_id": 9251873533,
      "amenity": "restaurant",
      "cuisine": "steak_house",
      "value": 207.10871143336217
    },
    {
      "id": 217993,
      "geometry": "POINT (-98.536702 29.553764)",
      "poi_name": "El Mirasol",
      "osm_id": 9251873534,
      "amenity": "restaurant",
      "cuisine": "mexican",
      "value": 207.10871143336217
    },
    {
      "id": 217994,
      "geometry": "POINT (-98.536416 29.554127)",
      "poi_name": "Green Vegetarian Cuisine",
      "osm_id": 9251873537,
      "amenity": "restaurant",
      "value": 207.10871143336217
    },
    {
      "id": 217995,
      "geometry": "POINT (-98.536383 29.554328)",
      "poi_name": "Pho VN Bistro",
      "osm_id": 9251873538,
      "amenity": "restaurant",
      "cuisine": "vietnamese",
      "value": 207.10871143336217
    },
    {
      "id": 218782,
      "geometry": "POINT (-98.586331 29.505206)",
      "poi_name": "Sabores Cali Baja Mexican Grill",
      "osm_id": 9294815989,
      "amenity": "restaurant",
      "opening_hours": "11:00-20:00",
      "website": "https://saborescalibaja.com/",
      "phone": "+1-210-255-1832",
      "addr_state": "TX",
      "addr_city": "San Antonio",
      "addr_postcode": "78229",
      "addr_street": "Babcock Road",
      "addr_housenumber": "2414",
      "value": 207.10871143336217
    },
    {
      "id": 218750,
      "geometry": "POINT (-98.585187 29.504713)",
      "poi_name": "Taqueria La Tapatia",
      "osm_id": 9294020495,
      "amenity": "restaurant",
      "opening_hours": "06:00-23:00",
      "phone": "+1-210-442-8009",
      "addr_state": "TX",
      "addr_city": "San Antonio",
      "addr_postcode": "78229",
      "addr_street": "Babcock Road",
      "addr_housenumber": "2320",
      "value": 207.10871143336217
    },
    {
      "id": 224139,
      "geometry": "POINT (-98.535338 29.492581)",
      "poi_name": "Fruteria Chavez",
      "osm_id": 11074458972,
      "amenity": "restaurant",
      "opening_hours": "Mo-Su 12:00-21:00",
      "value": 207.10871143336217
    },
    {
      "id": 220721,
      "geometry": "POINT (-98.325321 29.575894)",
      "poi_name": "Pasha Mediterranean Grill",
      "osm_id": 9384151548,
      "amenity": "restaurant",
      "website": "https://gopasha.com",
      "phone": "+1-210-396-7645",
      "addr_state": "TX",
      "addr_city": "Selma",
      "addr_postcode": "78154",
      "addr_street": "Interstate 35 North",
      "addr_housenumber": "15069",
      "value": 207.10871143336217
    },
    {
      "id": 220500,
      "geometry": "POINT (-98.491953 29.426348)",
      "poi_name": "\u00c1cenar Hot Mex Cool Bar",
      "osm_id": 9374833602,
      "amenity": "restaurant",
      "cuisine": "mexican",
      "website": "https://acenar.com",
      "phone": "+1-210-222-2362",
      "outdoor_seating": "yes",
      "addr_state": "TX",
      "addr_city": "San Antonio",
      "addr_postcode": "78205",
      "addr_street": "East Houston Street",
      "addr_housenumber": "146",
      "value": 207.10871143336217
    },
    {
      "id": 221205,
      "geometry": "POINT (-98.494266 29.427241)",
      "poi_name": "Pinkerton\u2019s Barbecue",
      "osm_id": 10969552305,
      "amenity": "restaurant",
      "value": 207.10871143336217
    },
    {
      "id": 221977,
      "geometry": "POINT (-98.508202 29.485887)",
      "poi_name": "Los Barrios",
      "osm_id": 11000983757,
      "amenity": "restaurant",
      "phone": "+1-210-732-6017",
      "addr_street": "Blanco Road",
      "addr_housenumber": "4223",
      "value": 207.10871143336217
    },
    {
      "id": 224496,
      "geometry": "POINT (-98.628267 29.504633)",
      "poi_name": "Hacienda Vallarta Mexican Buffet & Bakery",
      "osm_id": 11084387561,
      "amenity": "restaurant",
      "cuisine": "mexican",
      "opening_hours": "Mo-Th 10:30-21:00, Fr-Sa 10:30-22:00, Su 09:00-21:00",
      "website": "https://haciendavallartabuffet.com/",
      "phone": "+12105097500",
      "addr_state": "TX",
      "addr_city": "Leon Valley",
      "addr_postcode": "78238",
      "addr_street": "Bandera Road",
      "addr_housenumber": "7200",
      "value": 207.10871143336217
    },
    {
      "id": 224497,
      "geometry": "POINT (-98.627731 29.506394)",
      "poi_name": "The Rodeo Bar And Grill",
      "osm_id": 11084387566,
      "amenity": "restaurant",
      "cuisine": "mexican",
      "opening_hours": "Mo-Su 06:00-23:00",
      "website": "https://www.elrodeomexicangrilltx.com/",
      "phone": "+12109696002",
      "addr_state": "TX",
      "addr_city": "San Antonio",
      "addr_postcode": "78238",
      "addr_street": "Bandera Road",
      "addr_housenumber": "7247",
      "value": 207.10871143336217
    },
    {
      "id": 225059,
      "geometry": "POINT (-98.62626 29.508533)",
      "poi_name": "Rosita's Mexican Restaurant",
      "osm_id": 11110082454,
      "amenity": "restaurant",
      "cuisine": "mexican",
      "addr_state": "TX",
      "addr_city": "San Antonio",
      "addr_postcode": "78240",
      "addr_street": "Eckhert Road",
      "addr_housenumber": "7500",
      "value": 207.10871143336217
    },
    {
      "id": 226371,
      "geometry": "POINT (-98.561184 29.533196)",
      "poi_name": "Sushi Zushi",
      "osm_id": 11158056838,
      "amenity": "restaurant",
      "cuisine": "sushi",
      "addr_state": "TX",
      "addr_city": "San Antonio",
      "addr_postcode": "78230",
      "addr_street": "Interstate 10",
      "addr_housenumber": "9867",
      "value": 207.10871143336217
    },
    {
      "id": 225336,
      "geometry": "POINT (-98.629804 29.507404)",
      "poi_name": "Fat Tuesday",
      "osm_id": 11122597892,
      "amenity": "restaurant",
      "addr_state": "TX",
      "addr_city": "San Antonio",
      "addr_postcode": "78238",
      "addr_street": "Bandera Road",
      "addr_housenumber": "7531",
      "value": 207.10871143336217
    },
    {
      "id": 225337,
      "geometry": "POINT (-98.62985 29.50748)",
      "poi_name": "Halftime Pizza",
      "osm_id": 11122597893,
      "amenity": "restaurant",
      "cuisine": "pizza;wings",
      "addr_state": "TX",
      "addr_city": "San Antonio",
      "addr_postcode": "78238",
      "addr_street": "Bandera Road",
      "addr_housenumber": "7531",
      "value": 207.10871143336217
    },
    {
      "id": 225338,
      "geometry": "POINT (-98.629936 29.507618)",
      "poi_name": "Shink Hibachi and Boba Tea",
      "osm_id": 11122597894,
      "amenity": "restaurant",
      "cuisine": "asian",
      "addr_state": "TX",
      "addr_city": "San Antonio",
      "addr_postcode": "78238",
      "addr_street": "Eckhert Road",
      "addr_housenumber": "7532",
      "value": 207.10871143336217
    },
    {
      "id": 225347,
      "geometry": "POINT (-98.358967 29.467399)",
      "poi_name": "Buffalo Wild Wings Go",
      "osm_id": 11123426593,
      "amenity": "restaurant",
      "cuisine": "wings",
      "value": 207.10871143336217
    },
    {
      "id": 226759,
      "geometry": "POINT (-98.484976 29.423536)",
      "poi_name": "Margaritaville",
      "osm_id": 11167336903,
      "amenity": "restaurant",
      "website": "https://www.margaritavillesanantonio.com",
      "addr_state": "TX",
      "addr_city": "San Antonio",
      "addr_postcode": "78205",
      "addr_street": "East Commerce Street",
      "addr_housenumber": "849",
      "value": 207.10871143336217
    },
    {
      "id": 227040,
      "geometry": "POINT (-98.459054 29.380379)",
      "poi_name": "Shifu Noodle",
      "osm_id": 11177905145,
      "amenity": "restaurant",
      "cuisine": "chinese",
      "wheelchair": "yes",
      "opening_hours": "Mo, We-Sa 11:00-14:30, 15:30-20:00; Su 12:00-14:30, 15:30-20:00",
      "website": "https://order.toasttab.com/online/shifu-noodle-3850-south-new-braunfels-ave-suite-109",
      "phone": "+1-210-888-1228",
      "takeaway": "yes",
      "addr_state": "TX",
      "addr_city": "San Antonio",
      "addr_postcode": "78223",
      "addr_street": "South New Braunfels Avenue",
      "addr_housenumber": "3850",
      "value": 207.10871143336217
    },
    {
      "id": 238118,
      "geometry": "POINT (-98.466532 29.461114)",
      "poi_name": "Smoke Shack",
      "osm_id": 5862450792,
      "amenity": "restaurant",
      "cuisine": "barbecue",
      "opening_hours": "Mo-Sa 11:00-21:00",
      "website": "https://www.smokeshacksa.com/",
      "addr_postcode": "78209",
      "addr_street": "Broadway",
      "addr_housenumber": "3714",
      "value": 207.10871143336217
    },
    {
      "id": 227681,
      "geometry": "POINT (-98.49003 29.519416)",
      "poi_name": "Texas Land & Cattle",
      "osm_id": 4316253312,
      "amenity": "restaurant",
      "internet_access": "wlan",
      "addr_postcode": "78216",
      "addr_street": "Northeast Loop 410",
      "addr_housenumber": "60",
      "value": 207.10871143336217
    },
    {
      "id": 228893,
      "geometry": "POINT (-98.491487 29.468451)",
      "poi_name": "Panchitos",
      "osm_id": 4359109894,
      "amenity": "restaurant",
      "cuisine": "mexican",
      "opening_hours": "Tu-Th 06:30-21:00; Fr,Sa 06:30-22:00; Su 07:30-20:00",
      "website": "https://www.panchitos.net/",
      "internet_access": "wlan",
      "phone": "+1-210-821-5338",
      "addr_postcode": "78212",
      "addr_street": "McCullough Avenue",
      "addr_housenumber": "4100",
      "value": 207.10871143336217
    },
    {
      "id": 233590,
      "geometry": "POINT (-98.602989 29.485874)",
      "poi_name": "Sari-Sari Filipino Restaurant, Market, & Bakery",
      "osm_id": 4580432305,
      "amenity": "restaurant",
      "cuisine": "filipino",
      "value": 207.10871143336217
    },
    {
      "id": 233592,
      "geometry": "POINT (-98.618736 29.496405)",
      "poi_name": "Kung Fu Noodles",
      "osm_id": 4580483548,
      "amenity": "restaurant",
      "cuisine": "chinese",
      "value": 207.10871143336217
    },
    {
      "id": 234053,
      "geometry": "POINT (-98.655631 29.438684)",
      "poi_name": "Luciano Pizzeria",
      "osm_id": 4600608884,
      "amenity": "restaurant",
      "cuisine": "italian",
      "addr_state": "TX",
      "addr_city": "San Antonio",
      "addr_postcode": "78245",
      "addr_street": "State Highway 151",
      "addr_housenumber": "8603",
      "value": 207.10871143336217
    },
    {
      "id": 237577,
      "geometry": "POINT (-98.52785 29.543715)",
      "poi_name": "Sichuan Garden",
      "osm_id": 5839717281,
      "amenity": "restaurant",
      "cuisine": "asian;chinese",
      "takeaway": "yes",
      "outdoor_seating": "no",
      "value": 207.10871143336217
    },
    {
      "id": 237578,
      "geometry": "POINT (-98.529258 29.542576)",
      "poi_name": "Golden Dragon Express",
      "osm_id": 5839718590,
      "amenity": "restaurant",
      "delivery": "yes",
      "value": 207.10871143336217
    },
    {
      "id": 234666,
      "geometry": "POINT (-98.46092 29.515901)",
      "poi_name": "Magic Time Machine",
      "osm_id": 4631311376,
      "amenity": "restaurant",
      "cuisine": "american",
      "website": "https://www.magictimemachine.com/",
      "addr_state": "TX",
      "addr_city": "San Antonio",
      "addr_postcode": "78209",
      "addr_street": "Northeast Loop 410",
      "addr_housenumber": "902",
      "value": 207.10871143336217
    },
    {
      "id": 234667,
      "geometry": "POINT (-98.461192 29.515017)",
      "poi_name": "La Fonda Alamo Heights",
      "osm_id": 4631311377,
      "amenity": "restaurant",
      "cuisine": "mexican",
      "website": "https://lafondaah.com/",
      "addr_state": "TX",
      "addr_city": "San Antonio",
      "addr_postcode": "78209",
      "addr_street": "Crownhill Boulevard",
      "addr_housenumber": "8633",
      "value": 207.10871143336217
    },
    {
      "id": 234668,
      "geometry": "POINT (-98.457697 29.518575)",
      "poi_name": "San Antonio Petroleum Club",
      "osm_id": 4631311380,
      "amenity": "restaurant",
      "description": "member owned private club",
      "website": "https://www.petroleumclubsa.com/",
      "addr_state": "TX",
      "addr_city": "San Antonio",
      "addr_postcode": "78217",
      "addr_street": "North New Braunfels Avenue",
      "addr_housenumber": "8620",
      "value": 207.10871143336217
    },
    {
      "id": 234669,
      "geometry": "POINT (-98.46023 29.518176)",
      "poi_name": "Fuddruckers",
      "osm_id": 4631311381,
      "amenity": "restaurant",
      "cuisine": "burger",
      "website": "https://www.fuddruckers.com/",
      "addr_state": "TX",
      "addr_city": "San Antonio",
      "addr_postcode": "78217",
      "addr_street": "Botts Lane",
      "addr_housenumber": "8602",
      "value": 207.10871143336217
    },
    {
      "id": 234670,
      "geometry": "POINT (-98.458037 29.516985)",
      "poi_name": "Formosa Garden",
      "osm_id": 4631311382,
      "amenity": "restaurant",
      "cuisine": "asian",
      "value": 207.10871143336217
    },
    {
      "id": 234671,
      "geometry": "POINT (-98.456693 29.516791)",
      "poi_name": "Raffles Restaurant and Bar",
      "osm_id": 4631311383,
      "amenity": "restaurant",
      "cuisine": "bar&grill",
      "value": 207.10871143336217
    },
    {
      "id": 234672,
      "geometry": "POINT (-98.448448 29.486382)",
      "poi_name": "Bun 'n' Barrel",
      "osm_id": 4631311385,
      "amenity": "restaurant",
      "cuisine": "barbecue",
      "value": 207.10871143336217
    },
    {
      "id": 234673,
      "geometry": "POINT (-98.448171 29.486592)",
      "poi_name": "Tong's Thai Restaurant 4.1146 revie",
      "osm_id": 4631311386,
      "amenity": "restaurant",
      "cuisine": "thai",
      "value": 207.10871143336217
    },
    {
      "id": 236504,
      "geometry": "POINT (-98.584894 29.540005)",
      "poi_name": "Magnolia Pancake Haus",
      "osm_id": 5794797432,
      "amenity": "restaurant",
      "cuisine": "brunch",
      "wheelchair": "yes",
      "opening_hours": "07:00-14:00",
      "website": "http://www.magnoliapancakehaus.com/",
      "outdoor_seating": "yes",
      "addr_state": "TX",
      "addr_city": "San Antonio",
      "addr_postcode": "78240",
      "addr_street": "Huebner Road",
      "addr_housenumber": "10333",
      "value": 207.10871143336217
    },
    {
      "id": 242370,
      "geometry": "POINT (-98.48954 29.425437)",
      "poi_name": "Bubba Gump Shrimp Co",
      "osm_id": 6068985025,
      "amenity": "restaurant",
      "cuisine": "seafood",
      "value": 207.10871143336217
    },
    {
      "id": 241374,
      "geometry": "POINT (-98.50358 29.42404)",
      "poi_name": "Pizza Hut",
      "osm_id": 6020810559,
      "amenity": "restaurant",
      "cuisine": "pizza",
      "value": 207.10871143336217
    },
    {
      "id": 239728,
      "geometry": "POINT (-98.488546 29.426367)",
      "poi_name": "Playland Pizza",
      "osm_id": 5937353429,
      "amenity": "restaurant",
      "value": 207.10871143336217
    },
    {
      "id": 239731,
      "geometry": "POINT (-98.489614 29.426636)",
      "poi_name": "La Panaderia",
      "osm_id": 5937395419,
      "amenity": "restaurant",
      "addr_city": "San Antonio",
      "addr_postcode": "78205",
      "addr_street": "East Houston Street",
      "addr_housenumber": "301",
      "value": 207.10871143336217
    },
    {
      "id": 239732,
      "geometry": "POINT (-98.491992 29.423502)",
      "poi_name": "Biga on the Banks",
      "osm_id": 5937395423,
      "amenity": "restaurant",
      "value": 207.10871143336217
    },
    {
      "id": 239733,
      "geometry": "POINT (-98.4929 29.425318)",
      "poi_name": "Mexican Manhattan",
      "osm_id": 5937412326,
      "amenity": "restaurant",
      "value": 207.10871143336217
    },
    {
      "id": 241047,
      "geometry": "POINT (-98.566691 29.536726)",
      "poi_name": "First Watch",
      "osm_id": 6004006657,
      "amenity": "restaurant",
      "cuisine": "american;breakfast",
      "value": 207.10871143336217
    },
    {
      "id": 241293,
      "geometry": "POINT (-98.491654 29.428497)",
      "poi_name": "Restaurant Gwendolyn",
      "osm_id": 6018150949,
      "amenity": "restaurant",
      "cuisine": "american",
      "website": "http://www.restaurantgwendolyn.com/",
      "phone": "+1-210-222-1849",
      "value": 207.10871143336217
    },
    {
      "id": 241294,
      "geometry": "POINT (-98.491473 29.428498)",
      "poi_name": "Kimura",
      "osm_id": 6018150950,
      "amenity": "restaurant",
      "cuisine": "japanese",
      "value": 207.10871143336217
    },
    {
      "id": 242371,
      "geometry": "POINT (-98.489534 29.425091)",
      "poi_name": "The County Line",
      "osm_id": 6068985028,
      "amenity": "restaurant",
      "cuisine": "barbecue",
      "website": "https://countyline.com/river_walk_san_antonio_tx/",
      "phone": "+1-210-229-1941",
      "addr_state": "TX",
      "addr_city": "San Antonio",
      "addr_postcode": "78205",
      "addr_street": "West Crockett Street",
      "addr_housenumber": "111",
      "value": 207.10871143336217
    },
    {
      "id": 242372,
      "geometry": "POINT (-98.489401 29.425099)",
      "poi_name": "Barriba Cantina",
      "osm_id": 6068985029,
      "amenity": "restaurant",
      "cuisine": "mexican",
      "website": "https://www.barribacantina.com/",
      "phone": "+1-210-228-9876",
      "addr_state": "TX",
      "addr_city": "San Antonio",
      "addr_postcode": "78205",
      "addr_street": "West Crockett Street",
      "addr_housenumber": "111",
      "value": 207.10871143336217
    },
    {
      "id": 242374,
      "geometry": "POINT (-98.488885 29.425319)",
      "poi_name": "Paesanos Riverwalk",
      "osm_id": 6068985033,
      "amenity": "restaurant",
      "cuisine": "italian",
      "website": "https://www.paesanosriverwalk.com/",
      "addr_state": "TX",
      "addr_city": "San Antonio",
      "addr_postcode": "78205",
      "addr_street": "Crockett Way",
      "addr_housenumber": "111",
      "value": 207.10871143336217
    },
    {
      "id": 242375,
      "geometry": "POINT (-98.489849 29.423573)",
      "poi_name": "Drink",
      "osm_id": 6068985036,
      "amenity": "restaurant",
      "opening_hours": "Mo-Su 14:00-02:00",
      "website": "https://drinktexas.com",
      "phone": "+1-210-224-1031",
      "addr_state": "TX",
      "addr_city": "San Antonio",
      "addr_postcode": "78205",
      "addr_street": "Navarro Street",
      "addr_housenumber": "200",
      "value": 207.10871143336217
    },
    {
      "id": 243296,
      "geometry": "POINT (-98.582649 29.548151)",
      "poi_name": "La Madeleine",
      "osm_id": 7638803254,
      "amenity": "restaurant",
      "cuisine": "french",
      "opening_hours": "Mo-Th 07:00-21:30; Fr,Sa 07:00-22:00",
      "addr_state": "TX",
      "addr_city": "San Antonio",
      "addr_postcode": "78230",
      "addr_street": "Interstate 10 West",
      "addr_housenumber": "11745",
      "value": 207.10871143336217
    },
    {
      "id": 244179,
      "geometry": "POINT (-98.504116 29.523702)",
      "poi_name": "Manola's",
      "osm_id": 7706178613,
      "amenity": "restaurant",
      "cuisine": "thai;vietnamese",
      "value": 207.10871143336217
    },
    {
      "id": 244180,
      "geometry": "POINT (-98.500049 29.52936)",
      "poi_name": "Ray's Pizzaria",
      "osm_id": 7706178614,
      "amenity": "restaurant",
      "cuisine": "pizza",
      "value": 207.10871143336217
    },
    {
      "id": 244181,
      "geometry": "POINT (-98.506102 29.522452)",
      "poi_name": "Poppy's Pizza",
      "osm_id": 7706178660,
      "amenity": "restaurant",
      "cuisine": "pizza",
      "value": 207.10871143336217
    },
    {
      "id": 244182,
      "geometry": "POINT (-98.506257 29.52255)",
      "poi_name": "Wild Goji",
      "osm_id": 7706178661,
      "amenity": "restaurant",
      "cuisine": "asian;sushi",
      "value": 207.10871143336217
    },
    {
      "id": 244183,
      "geometry": "POINT (-98.506831 29.522412)",
      "poi_name": "Demo's",
      "osm_id": 7706178663,
      "amenity": "restaurant",
      "cuisine": "greek",
      "value": 207.10871143336217
    }
  ],
  "answer_type": "name",
  "question_entities": {
    "[2]": {
      "distance": 100000,
      "text": "100 kilometers"
    },
    "[3]": {
      "main_category": "leisure",
      "sub_category": "nature reserve",
      "display_name": "James C. Curry Nature Center, Canyon Lake, TX",
      "geo_wkt": "POINT (-98.194766 29.848573)",
      "poi": {
        "id": 246012,
        "geometry": "POINT (-98.194766 29.848573)",
        "poi_name": "James C. Curry Nature Center",
        "osm_id": 5449527323,
        "leisure": "nature_reserve",
        "operator": "Comal County",
        "addr_state": "TX",
        "addr_city": "Canyon Lake",
        "addr_postcode": "78133",
        "addr_street": "Skyline Drive",
        "addr_housenumber": "1889"
      }
    },
    "[4]": {
      "main_category": "tourism",
      "sub_category": "theme park",
      "display_name": "Amazing Air, San Antonio, TX",
      "geo_wkt": "POINT (-98.39639 29.503891)",
      "poi": {
        "id": 7732,
        "geometry": "POINT (-98.39639 29.503891)",
        "poi_name": "Amazing Air",
        "osm_id": 6382562047,
        "tourism": "theme_park",
        "opening_hours": "Mo-Th 16:00-21:00;Fr 14:00-23:00; Sa 10:00-23:00; Su 12:00-20:00",
        "website": "https://amazingairsa.com/",
        "phone": "+1-210-946-9800",
        "addr_state": "TX",
        "addr_city": "San Antonio",
        "addr_postcode": "78218",
        "addr_street": "North Interstate Highway 35",
        "addr_housenumber": "7702"
      }
    },
    "[1]": {
      "main_category": "amenity",
      "sub_category": "restaurant"
    }
  },
  "id": 1604,
  "type": "range:towards+name"
}