{
  "question": "Can you find me a caf\u00e9 that's 90 kilometers from Forbidden Caverns, Sevierville, Tn?",
  "sql": "SELECT * FROM pois\nWHERE ST_DWithin(pois.geometry, ST_GeomFromText('POINT (-83.346851 35.904203)',4326)::geography, 90000)\nAND amenity = 'cafe';\n",
  "answers": [
    {
      "id": 35874,
      "geometry": "POINT (-83.918862 35.964955)",
      "poi_name": "Coffee & Chocolate",
      "osm_id": 2735148850,
      "amenity": "cafe",
      "cuisine": "coffee;chocolate",
      "website": "www.coffeeandchocolateknoxville.com/",
      "addr_city": "Knoxville",
      "addr_postcode": "37902",
      "addr_street": "Union Avenue",
      "addr_housenumber": "327"
    },
    {
      "id": 35888,
      "geometry": "POINT (-83.919844 35.962576)",
      "poi_name": "Starbucks",
      "osm_id": 2735717709,
      "amenity": "cafe",
      "cuisine": "coffee_shop",
      "opening_hours": "Mo-Sa 06:30-19:00, Su 06:30-15:00",
      "internet_access": "yes",
      "takeaway": "yes",
      "official_name": "Starbucks Coffee",
      "addr_street": "West Church Avenue",
      "addr_housenumber": "501"
    },
    {
      "id": 37134,
      "geometry": "POINT (-82.552051 35.59629)",
      "poi_name": "Over Easy Cafe",
      "osm_id": 2798806657,
      "amenity": "cafe",
      "phone": "8282363533",
      "addr_street": "Broadway Street",
      "addr_housenumber": "32"
    },
    {
      "id": 46286,
      "geometry": "POINT (-83.91974 35.965905)",
      "poi_name": "Market House Cafe",
      "osm_id": 3257180389,
      "amenity": "cafe",
      "cuisine": "sandwich"
    },
    {
      "id": 47304,
      "geometry": "POINT (-82.554094 35.486324)",
      "poi_name": "Mosaic Cafe",
      "osm_id": 3320160984,
      "amenity": "cafe",
      "cuisine": "sandwich",
      "wheelchair": "yes",
      "internet_access": "yes"
    },
    {
      "id": 47305,
      "geometry": "POINT (-82.556288 35.484608)",
      "poi_name": "Starbucks",
      "osm_id": 3320161751,
      "amenity": "cafe",
      "cuisine": "coffee_shop",
      "internet_access": "yes",
      "takeaway": "yes",
      "official_name": "Starbucks Coffee"
    },
    {
      "id": 49245,
      "geometry": "POINT (-82.444193 35.612037)",
      "poi_name": "Sage Cafe",
      "osm_id": 3421619181,
      "amenity": "cafe",
      "internet_access": "wlan",
      "addr_state": "NC",
      "addr_city": "Swannanoa",
      "addr_postcode": "28778",
      "addr_street": "Sage Circle"
    },
    {
      "id": 49246,
      "geometry": "POINT (-82.441214 35.611575)",
      "poi_name": "The Owl's Nest",
      "osm_id": 3421654251,
      "amenity": "cafe",
      "cuisine": "coffee_shop",
      "opening_hours": "Mo-Fr 7:30-17:00",
      "internet_access": "yes"
    },
    {
      "id": 50388,
      "geometry": "POINT (-83.591273 36.444318)",
      "poi_name": "Corner Cafe",
      "osm_id": 3481436405,
      "amenity": "cafe",
      "addr_state": "TN",
      "addr_city": "New Tazewell",
      "addr_postcode": "37825",
      "addr_street": "Main Street",
      "addr_housenumber": "613"
    },
    {
      "id": 55779,
      "geometry": "POINT (-83.288737 35.278719)",
      "poi_name": "Mornin\u2019 Fuel Coffee Shop",
      "osm_id": 10207785739,
      "amenity": "cafe",
      "addr_state": "NC",
      "addr_city": "Sylva",
      "addr_postcode": "28779",
      "addr_street": "US-441 South",
      "addr_housenumber": "8350"
    },
    {
      "id": 57987,
      "geometry": "POINT (-84.267603 36.012688)",
      "poi_name": "Starbucks",
      "osm_id": 5358163348,
      "amenity": "cafe",
      "cuisine": "coffee_shop",
      "takeaway": "yes",
      "official_name": "Starbucks Coffee"
    },
    {
      "id": 57988,
      "geometry": "POINT (-84.255261 36.014349)",
      "poi_name": "Starbucks",
      "osm_id": 5358163349,
      "amenity": "cafe",
      "cuisine": "coffee_shop",
      "opening_hours": "05:00+",
      "internet_access": "yes",
      "takeaway": "yes",
      "official_name": "Starbucks Coffee",
      "outdoor_seating": "yes",
      "addr_state": "TN",
      "addr_city": "Oak RIdge",
      "addr_postcode": "37830",
      "addr_street": "Oak Ridge Turnpike",
      "addr_housenumber": "1350"
    },
    {
      "id": 58889,
      "geometry": "POINT (-82.830964 36.163374)",
      "poi_name": "Catalyst Coffee Company",
      "osm_id": 5401727956,
      "amenity": "cafe",
      "addr_city": "Greeneville",
      "addr_postcode": "37743",
      "addr_street": "North Main Street",
      "addr_housenumber": "101"
    },
    {
      "id": 63608,
      "geometry": "POINT (-83.373152 35.183936)",
      "poi_name": "Cafe Rel",
      "osm_id": 5625145621,
      "amenity": "cafe",
      "phone": "(828) 369-9446",
      "addr_postcode": "28734",
      "addr_street": "East Main Street",
      "addr_housenumber": "459"
    },
    {
      "id": 64779,
      "geometry": "POINT (-82.546958 35.602625)",
      "poi_name": "City Bakery",
      "osm_id": 5670526824,
      "amenity": "cafe",
      "addr_postcode": "28801",
      "addr_street": "Charlotte Street",
      "addr_housenumber": "90"
    },
    {
      "id": 69221,
      "geometry": "POINT (-84.066844 35.862757)",
      "poi_name": "Starbucks",
      "osm_id": 11297323908,
      "amenity": "cafe",
      "cuisine": "coffee_shop",
      "takeaway": "yes",
      "official_name": "Starbucks Coffee"
    },
    {
      "id": 67578,
      "geometry": "POINT (-83.923422 35.981907)",
      "poi_name": "Scruffy's Cafe",
      "osm_id": 11241338665,
      "amenity": "cafe",
      "website": "https://www.scruffyscafeknox.com/",
      "addr_state": "TN",
      "addr_city": "Knoxville",
      "addr_postcode": "37917",
      "addr_street": "North Broadway",
      "addr_housenumber": "1015"
    },
    {
      "id": 69146,
      "geometry": "POINT (-84.267531 35.819651)",
      "poi_name": "Starbucks",
      "osm_id": 11296021923,
      "amenity": "cafe",
      "cuisine": "coffee_shop",
      "takeaway": "yes",
      "official_name": "Starbucks Coffee"
    },
    {
      "id": 69325,
      "geometry": "POINT (-82.56401 35.581132)",
      "poi_name": "Penny Coffee",
      "osm_id": 11300578603,
      "amenity": "cafe",
      "cuisine": "coffee_shop"
    },
    {
      "id": 69424,
      "geometry": "POINT (-82.55453 35.588655)",
      "poi_name": "Well Played Board Game Caf\u00e9",
      "osm_id": 11304343951,
      "amenity": "cafe"
    },
    {
      "id": 69826,
      "geometry": "POINT (-84.264101 36.007846)",
      "poi_name": "Dutch Bros. Coffee",
      "osm_id": 11332299889,
      "amenity": "cafe",
      "cuisine": "coffee_shop",
      "opening_hours": "Su-Th 05:00-22:00;Fr-Sa 05:00-23:00",
      "website": "https://locations.dutchbros.com/dutch-bros-coffee-47e5ad54b0a5",
      "takeaway": "yes",
      "drive_through": "yes",
      "addr_state": "TN",
      "addr_city": "Oak Ridge",
      "addr_postcode": "37830",
      "addr_street": "Tulsa Road",
      "addr_housenumber": "100"
    },
    {
      "id": 72575,
      "geometry": "POINT (-84.160386 35.946745)",
      "poi_name": "Sunago Coffee Co.",
      "osm_id": 11435530869,
      "amenity": "cafe",
      "cuisine": "coffee_shop",
      "website": "https://www.sunagocoffeeco.com"
    },
    {
      "id": 102955,
      "geometry": "POINT (-83.183352 35.309309)",
      "poi_name": "Starbucks",
      "osm_id": 8473673028,
      "amenity": "cafe",
      "cuisine": "coffee_shop",
      "takeaway": "yes",
      "official_name": "Starbucks Coffee"
    },
    {
      "id": 73791,
      "geometry": "POINT (-83.999985 36.04986)",
      "poi_name": "Starbucks",
      "osm_id": 9654381217,
      "amenity": "cafe",
      "cuisine": "coffee_shop",
      "opening_hours": "Mo-Su 07:00-21:00",
      "website": "https://www.starbucks.com/store-locator/store/91139/ingles-powell-399-430-e-emory-rd-powell-tn-37849-us",
      "internet_access": "wlan",
      "phone": "(865) 947-4523",
      "takeaway": "yes",
      "official_name": "Starbucks Coffee",
      "addr_postcode": "37849",
      "addr_street": "East Emory Road",
      "addr_housenumber": "430"
    },
    {
      "id": 77118,
      "geometry": "POINT (-83.549537 35.364619)",
      "poi_name": "Cardinal Coffee",
      "osm_id": 9808614174,
      "amenity": "cafe",
      "phone": "+18284885394",
      "addr_state": "NC",
      "addr_city": "Bryson City",
      "addr_postcode": "28713",
      "addr_street": "Needmore Road",
      "addr_housenumber": "22"
    },
    {
      "id": 77121,
      "geometry": "POINT (-83.364457 35.19264)",
      "poi_name": "Franklin Cafe",
      "osm_id": 9808614186,
      "amenity": "cafe",
      "phone": "+18286344995",
      "addr_state": "NC",
      "addr_city": "Franklin",
      "addr_postcode": "28734",
      "addr_street": "East Main Street",
      "addr_housenumber": "1251"
    },
    {
      "id": 77133,
      "geometry": "POINT (-83.374123 35.185051)",
      "poi_name": "828 cafe",
      "osm_id": 9808615810,
      "amenity": "cafe",
      "phone": "+18286347702",
      "addr_state": "NC",
      "addr_city": "Franklin",
      "addr_postcode": "28734",
      "addr_street": "Northeast Main Street",
      "addr_housenumber": "228"
    },
    {
      "id": 89336,
      "geometry": "POINT (-83.007188 36.40693)",
      "poi_name": "Coffee At The Kyle",
      "osm_id": 8839923094,
      "amenity": "cafe",
      "cuisine": "coffee_shop"
    },
    {
      "id": 96340,
      "geometry": "POINT (-82.560026 35.71047)",
      "poi_name": "CA's Diner",
      "osm_id": 6429352606,
      "amenity": "cafe",
      "phone": "+18284847068",
      "addr_state": "NC",
      "addr_city": "Weaverville",
      "addr_postcode": "28787",
      "addr_street": "Tri City Plaza",
      "addr_housenumber": "10"
    },
    {
      "id": 96659,
      "geometry": "POINT (-82.682067 35.796766)",
      "poi_name": "The Sweet Monkey Cafe & Bakery",
      "osm_id": 6439976052,
      "amenity": "cafe",
      "addr_state": "NC",
      "addr_city": "Marshall",
      "addr_postcode": "28753",
      "addr_street": "South Main Street",
      "addr_housenumber": "133"
    },
    {
      "id": 96777,
      "geometry": "POINT (-82.781346 36.003609)",
      "poi_name": "Paint Creek Cafe",
      "osm_id": 6444231895,
      "amenity": "cafe"
    },
    {
      "id": 97679,
      "geometry": "POINT (-82.659294 35.544018)",
      "poi_name": "Starbucks",
      "osm_id": 6489314202,
      "amenity": "cafe",
      "cuisine": "coffee_shop",
      "takeaway": "yes",
      "official_name": "Starbucks Coffee"
    },
    {
      "id": 102962,
      "geometry": "POINT (-83.179605 35.312787)",
      "poi_name": "Java City Coffee",
      "osm_id": 8473673038,
      "amenity": "cafe",
      "cuisine": "coffee_shop"
    },
    {
      "id": 105155,
      "geometry": "POINT (-84.10509 35.980318)",
      "poi_name": "Beaver\u2019s Dough Joe",
      "osm_id": 8607096287,
      "amenity": "cafe",
      "cuisine": "coffee_shop",
      "wheelchair": "yes",
      "takeaway": "yes",
      "drive_through": "yes",
      "outdoor_seating": "yes"
    },
    {
      "id": 105194,
      "geometry": "POINT (-84.043227 35.926053)",
      "poi_name": "K Brew",
      "osm_id": 8612238745,
      "amenity": "cafe",
      "cuisine": "coffee_shop",
      "opening_hours": "Mo-Sa 07:00-18:00; Su 08:00-18:00",
      "website": "https://knoxvillebrew.com",
      "phone": "+1-865-448-7993",
      "outdoor_seating": "yes",
      "addr_state": "TN",
      "addr_city": "Knoxville",
      "addr_street": "Kingston Pike",
      "addr_housenumber": "7822"
    },
    {
      "id": 111457,
      "geometry": "POINT (-83.932029 35.955732)",
      "poi_name": "Golden Roast",
      "osm_id": 3748390646,
      "amenity": "cafe",
      "cuisine": "coffee_shop",
      "internet_access": "wlan",
      "addr_state": "TN",
      "addr_city": "Knoxville",
      "addr_postcode": "37916",
      "addr_street": "Melrose Place",
      "addr_housenumber": "825"
    },
    {
      "id": 108153,
      "geometry": "POINT (-83.223451 35.372906)",
      "poi_name": "City Lights Cafe",
      "osm_id": 3598784908,
      "amenity": "cafe"
    },
    {
      "id": 109782,
      "geometry": "POINT (-82.515216 35.474741)",
      "poi_name": "Beehive Coffee Bar",
      "osm_id": 3674114701,
      "amenity": "cafe",
      "cuisine": "coffee;oat_snacks",
      "opening_hours": "Mo-We 07:00-17:00; Th-Fr 07:00-20:00; Sa-Su 08:30-15:00",
      "internet_access": "wlan",
      "phone": "8286763188",
      "addr_state": "NC",
      "addr_city": "Arden",
      "addr_postcode": "28704",
      "addr_street": "Sweeten Creek Road",
      "addr_housenumber": "3732"
    },
    {
      "id": 126791,
      "geometry": "POINT (-82.837906 35.532549)",
      "poi_name": "Papertown Coffee",
      "osm_id": 8000505898,
      "amenity": "cafe",
      "cuisine": "coffee_shop",
      "website": "https://www.papertown.coffee/",
      "addr_state": "NC",
      "addr_city": "Canton",
      "addr_postcode": "28716",
      "addr_street": "Main Street",
      "addr_housenumber": "119"
    },
    {
      "id": 114148,
      "geometry": "POINT (-83.918455 35.96582)",
      "poi_name": "Status Dough",
      "osm_id": 3868256757,
      "amenity": "cafe",
      "cuisine": "donut;coffee_shop",
      "outdoor_seating": "no"
    },
    {
      "id": 131076,
      "geometry": "POINT (-83.519825 35.715301)",
      "poi_name": "SkyCafe",
      "osm_id": 9901026061,
      "amenity": "cafe"
    },
    {
      "id": 127270,
      "geometry": "POINT (-83.736774 35.67975)",
      "poi_name": "The Artistic Bean: Organic Espresso & Coffee House",
      "osm_id": 8048283885,
      "amenity": "cafe",
      "opening_hours": "Mo-Sa 08:00-17:30"
    },
    {
      "id": 131081,
      "geometry": "POINT (-83.460311 35.740567)",
      "poi_name": "Morning Mist Cafe",
      "osm_id": 9901162962,
      "amenity": "cafe"
    },
    {
      "id": 131088,
      "geometry": "POINT (-83.504728 35.709783)",
      "poi_name": "Kephart Cafe",
      "osm_id": 9901202441,
      "amenity": "cafe"
    },
    {
      "id": 132608,
      "geometry": "POINT (-83.319325 35.475448)",
      "poi_name": "Qualla Java",
      "osm_id": 9959257622,
      "amenity": "cafe",
      "cuisine": "coffee_shop",
      "phone": "+18284972882",
      "addr_state": "NC",
      "addr_city": "Cherokee",
      "addr_postcode": "28719",
      "addr_street": "Tsalagi Road",
      "addr_housenumber": "938"
    },
    {
      "id": 134380,
      "geometry": "POINT (-82.591408 35.578023)",
      "poi_name": "bad manners coffee",
      "osm_id": 11466239034,
      "amenity": "cafe",
      "cuisine": "coffee_shop"
    },
    {
      "id": 134227,
      "geometry": "POINT (-82.586991 35.586826)",
      "poi_name": "Starbucks",
      "osm_id": 11460809248,
      "amenity": "cafe",
      "cuisine": "coffee_shop",
      "takeaway": "yes",
      "official_name": "Starbucks Coffee"
    },
    {
      "id": 134232,
      "geometry": "POINT (-82.629117 35.56574)",
      "poi_name": "Starbucks",
      "osm_id": 11460812214,
      "amenity": "cafe",
      "cuisine": "coffee_shop",
      "takeaway": "yes",
      "official_name": "Starbucks Coffee"
    },
    {
      "id": 134235,
      "geometry": "POINT (-82.633408 35.561403)",
      "poi_name": "Starbucks",
      "osm_id": 11460812226,
      "amenity": "cafe",
      "cuisine": "coffee_shop",
      "takeaway": "yes",
      "official_name": "Starbucks Coffee"
    },
    {
      "id": 137981,
      "geometry": "POINT (-82.566616 35.577668)",
      "poi_name": "Summit Coffee Company",
      "osm_id": 6124725685,
      "amenity": "cafe",
      "cuisine": "coffee_shop",
      "opening_hours": "Mo-We 07:00-17:00; Th-Fr 07:00-18:00; Sa 08:00-18:00; Su 08:00-17:00",
      "website": "https://summitcoffee.com/",
      "phone": "+1 828 705 8071",
      "addr_state": "NC",
      "addr_city": "Asheville",
      "addr_postcode": "28801",
      "addr_street": "Foundy Street",
      "addr_housenumber": "4"
    },
    {
      "id": 137212,
      "geometry": "POINT (-82.532294 35.445989)",
      "poi_name": "Starbucks",
      "osm_id": 6089177320,
      "amenity": "cafe",
      "cuisine": "coffee_shop",
      "wheelchair": "yes",
      "opening_hours": "Mo-Sa 05:00-22:00; Su 05:30-22:00",
      "phone": "+1 828 684-2741",
      "takeaway": "yes",
      "official_name": "Starbucks Coffee",
      "delivery": "no",
      "addr_state": "NC",
      "addr_city": "Arden",
      "addr_postcode": "28704",
      "addr_street": "Airport Road",
      "addr_housenumber": "421"
    },
    {
      "id": 137850,
      "geometry": "POINT (-82.576742 35.64168)",
      "poi_name": "Baked Pie Company",
      "osm_id": 6117348685,
      "amenity": "cafe",
      "opening_hours": "Tu-Th 10:00-20:00; Fr-Sa 10:00-21:00",
      "addr_street": "N Merrimon Ave",
      "addr_housenumber": "50"
    },
    {
      "id": 137851,
      "geometry": "POINT (-82.527088 35.485008)",
      "poi_name": "Baked Pie Company",
      "osm_id": 6117348686,
      "amenity": "cafe",
      "opening_hours": "Tu-Th 10:00-20:00; Fr-Sa 10:00-21:00; Su 11:00-16:00",
      "addr_street": "Long Shoals Road",
      "addr_housenumber": "7708, 4"
    },
    {
      "id": 137852,
      "geometry": "POINT (-82.527171 35.515507)",
      "poi_name": "Abeja\u2019s House Cafe",
      "osm_id": 6117351085,
      "amenity": "cafe",
      "opening_hours": "Tu-Su 07:00-15:00",
      "addr_street": "Hendersonville Road",
      "addr_housenumber": "1550"
    },
    {
      "id": 137982,
      "geometry": "POINT (-82.553471 35.595785)",
      "poi_name": "High Five",
      "osm_id": 6124725687,
      "amenity": "cafe",
      "addr_street": "Rankin Avenue",
      "addr_housenumber": "13"
    },
    {
      "id": 137983,
      "geometry": "POINT (-82.555794 35.594718)",
      "poi_name": "Trade and Lore",
      "osm_id": 6124727785,
      "amenity": "cafe",
      "addr_street": "Wall Street",
      "addr_housenumber": "37"
    },
    {
      "id": 137984,
      "geometry": "POINT (-82.555428 35.601002)",
      "poi_name": "High Five",
      "osm_id": 6124732285,
      "amenity": "cafe",
      "addr_street": "Broadway Street",
      "addr_housenumber": "190"
    },
    {
      "id": 143231,
      "geometry": "POINT (-83.917761 35.963872)",
      "poi_name": "Cafe Viccolo",
      "osm_id": 6332419519,
      "amenity": "cafe",
      "cuisine": "coffee_shop;sandwich;international",
      "description": "Cafe open for breakfast and lunch.",
      "outdoor_seating": "yes"
    },
    {
      "id": 140650,
      "geometry": "POINT (-82.575088 35.592621)",
      "poi_name": "Green Sage Cafe",
      "osm_id": 6254922285,
      "amenity": "cafe",
      "cuisine": "sandwich;breakfast;tea;coffee_shop;local",
      "opening_hours": "Mo-Su 07:00-19:00",
      "website": "https://www.greensagecafe.com/",
      "internet_access": "wlan",
      "phone": "+1 828-785-1780",
      "addr_postcode": "28806",
      "addr_street": "Westgate Parkway",
      "addr_housenumber": "70"
    },
    {
      "id": 141420,
      "geometry": "POINT (-84.087204 35.921469)",
      "poi_name": "Empty Cup",
      "osm_id": 6284202727,
      "amenity": "cafe"
    },
    {
      "id": 143232,
      "geometry": "POINT (-83.922151 35.970499)",
      "poi_name": "Vienna Coffee",
      "osm_id": 6332423005,
      "amenity": "cafe",
      "cuisine": "coffee_shop",
      "outdoor_seating": "yes"
    },
    {
      "id": 143233,
      "geometry": "POINT (-83.924636 35.974514)",
      "poi_name": "Remedy Coffee",
      "osm_id": 6332438991,
      "amenity": "cafe",
      "cuisine": "coffee_shop",
      "outdoor_seating": "no"
    },
    {
      "id": 154822,
      "geometry": "POINT (-83.990703 35.806588)",
      "poi_name": "Starbucks",
      "osm_id": 4257642077,
      "amenity": "cafe",
      "cuisine": "coffee_shop",
      "takeaway": "yes",
      "official_name": "Starbucks Coffee"
    },
    {
      "id": 143270,
      "geometry": "POINT (-83.93969 35.950864)",
      "poi_name": "Capybara Cafe",
      "osm_id": 6334532474,
      "amenity": "cafe",
      "cuisine": "coffee_shop;bagel",
      "internet_access": "wlan",
      "outdoor_seating": "no"
    },
    {
      "id": 149957,
      "geometry": "POINT (-83.51922 35.711045)",
      "poi_name": "Starbucks",
      "osm_id": 4035716650,
      "amenity": "cafe",
      "cuisine": "coffee_shop",
      "phone": "+18654366995",
      "takeaway": "yes",
      "official_name": "Starbucks Coffee",
      "addr_state": "TN",
      "addr_city": "Gatlinburg",
      "addr_postcode": "37738",
      "addr_street": "Parkway",
      "addr_housenumber": "903"
    },
    {
      "id": 152998,
      "geometry": "POINT (-82.554696 35.482811)",
      "poi_name": "Starbucks",
      "osm_id": 4172060097,
      "amenity": "cafe",
      "cuisine": "coffee_shop",
      "takeaway": "yes",
      "official_name": "Starbucks Coffee"
    },
    {
      "id": 156866,
      "geometry": "POINT (-83.918455 35.970062)",
      "poi_name": "Old City Java",
      "osm_id": 4675521744,
      "amenity": "cafe",
      "cuisine": "coffee_shop;pastry",
      "opening_hours": "Mo-Fr 07:00-21:00, Sa-Su 08:00-21:00",
      "outdoor_seating": "yes",
      "addr_state": "TN",
      "addr_city": "Knoxville",
      "addr_postcode": "37902",
      "addr_street": "South Central Street",
      "addr_housenumber": "109"
    },
    {
      "id": 156867,
      "geometry": "POINT (-83.91948 35.97003)",
      "poi_name": "Awaken Coffee",
      "osm_id": 4675521746,
      "amenity": "cafe",
      "cuisine": "coffee_shop",
      "opening_hours": "Mo-Th 07:00-22:00, Fr 07:00-23:00, Sa 08:00-23:00, Su 14:00-21:00",
      "phone": "(865)951-0427",
      "addr_state": "TN",
      "addr_city": "Knoxville",
      "addr_postcode": "37902",
      "addr_street": "West Jackson Avenue",
      "addr_housenumber": "125"
    },
    {
      "id": 162754,
      "geometry": "POINT (-84.12445 36.111222)",
      "poi_name": "Master Donuts",
      "osm_id": 4939761620,
      "amenity": "cafe",
      "cuisine": "donut",
      "website": "http://masterdonutsoftn.com/",
      "addr_state": "TN",
      "addr_city": "Clinton",
      "addr_postcode": "37716",
      "addr_street": "North Charles G Seivers Boulevard",
      "addr_housenumber": "914"
    },
    {
      "id": 157652,
      "geometry": "POINT (-83.92102 35.963924)",
      "poi_name": "Pete's Coffee Shop",
      "osm_id": 4717664901,
      "amenity": "cafe",
      "cuisine": "cafe/diner",
      "addr_state": "TN",
      "addr_city": "Knoxville",
      "addr_postcode": "37902",
      "addr_street": "Union Avenue",
      "addr_housenumber": "540"
    },
    {
      "id": 158991,
      "geometry": "POINT (-83.446189 35.429132)",
      "poi_name": "Everett Street Diner",
      "osm_id": 4771898129,
      "amenity": "cafe",
      "cuisine": "cafe/diner",
      "addr_state": "NC",
      "addr_city": "Bryson City",
      "addr_postcode": "28713",
      "addr_street": "Everett Street",
      "addr_housenumber": "126"
    },
    {
      "id": 161944,
      "geometry": "POINT (-84.093342 35.924655)",
      "poi_name": "Old Mill Bread Company",
      "osm_id": 4907921740,
      "amenity": "cafe"
    },
    {
      "id": 178327,
      "geometry": "POINT (-83.089431 35.517666)",
      "poi_name": "Organic Beans Coffee Co",
      "osm_id": 10721642090,
      "amenity": "cafe",
      "phone": "+18286682326",
      "addr_state": "NC",
      "addr_city": "Maggie Valley",
      "addr_postcode": "28751",
      "addr_street": "Soco Road",
      "addr_housenumber": "3680"
    },
    {
      "id": 163407,
      "geometry": "POINT (-82.581049 35.577784)",
      "poi_name": "Forage",
      "osm_id": 9416373451,
      "amenity": "cafe",
      "cuisine": "coffee_shop"
    },
    {
      "id": 166172,
      "geometry": "POINT (-83.920354 35.968219)",
      "poi_name": "Jacks of Knoxville",
      "osm_id": 9579181419,
      "amenity": "cafe",
      "cuisine": "coffee_shop",
      "wheelchair": "yes",
      "internet_access": "yes",
      "outdoor_seating": "yes"
    },
    {
      "id": 166190,
      "geometry": "POINT (-83.922627 35.970298)",
      "poi_name": "Pedal Java",
      "osm_id": 9579243737,
      "amenity": "cafe",
      "cuisine": "coffee_shop"
    },
    {
      "id": 165139,
      "geometry": "POINT (-83.202293 35.361386)",
      "poi_name": "Starbucks",
      "osm_id": 9520399458,
      "amenity": "cafe",
      "cuisine": "coffee_shop",
      "takeaway": "yes",
      "official_name": "Starbucks Coffee"
    },
    {
      "id": 166218,
      "geometry": "POINT (-83.91767 35.963746)",
      "poi_name": "The Station Cafe",
      "osm_id": 9581348196,
      "amenity": "cafe"
    },
    {
      "id": 166219,
      "geometry": "POINT (-83.917187 35.963683)",
      "poi_name": "Tombras Cafe",
      "osm_id": 9581348201,
      "amenity": "cafe"
    },
    {
      "id": 166220,
      "geometry": "POINT (-83.91678 35.963019)",
      "poi_name": "Cairo Cafe",
      "osm_id": 9581348206,
      "amenity": "cafe"
    },
    {
      "id": 166221,
      "geometry": "POINT (-83.916656 35.962904)",
      "poi_name": "Hello Tea House",
      "osm_id": 9581348207,
      "amenity": "cafe"
    },
    {
      "id": 166223,
      "geometry": "POINT (-83.91841 35.964827)",
      "poi_name": "KBrew",
      "osm_id": 9581348215,
      "amenity": "cafe"
    },
    {
      "id": 166224,
      "geometry": "POINT (-83.918638 35.965437)",
      "poi_name": "The Parlor",
      "osm_id": 9581361318,
      "amenity": "cafe"
    },
    {
      "id": 174549,
      "geometry": "POINT (-82.989606 35.485492)",
      "poi_name": "City Bakery",
      "osm_id": 2488391148,
      "amenity": "cafe",
      "website": "https://www.citybakery.net/",
      "phone": "828-452-3881"
    },
    {
      "id": 174551,
      "geometry": "POINT (-82.987132 35.491166)",
      "poi_name": "Pheasant Hill Design",
      "osm_id": 2488391155,
      "amenity": "cafe",
      "opening_hours": "Mo-Sa 10:00-17:00",
      "website": "http://www.pheasanthilldesign.com/",
      "shop": "interior_decoration",
      "phone": "828-456-1796"
    },
    {
      "id": 180152,
      "geometry": "POINT (-83.806823 35.323469)",
      "poi_name": "Kin Cafe",
      "osm_id": 10793162390,
      "amenity": "cafe",
      "cuisine": "coffee_shop",
      "phone": "+18284790516",
      "addr_state": "NC",
      "addr_city": "Robbinsville",
      "addr_postcode": "28771",
      "addr_street": "Court Street",
      "addr_housenumber": "34"
    },
    {
      "id": 196722,
      "geometry": "POINT (-83.356472 35.75798)",
      "poi_name": "Cobbly Nob Cafe & Pizza",
      "osm_id": 10594230239,
      "amenity": "cafe",
      "phone": "+18654304688",
      "addr_state": "NC",
      "addr_city": "Gatlinburg",
      "addr_postcode": "37738",
      "addr_street": "East Parkway",
      "addr_housenumber": "3720"
    },
    {
      "id": 196723,
      "geometry": "POINT (-83.28472 35.76708)",
      "poi_name": "Barista's Daughter",
      "osm_id": 10594230241,
      "amenity": "cafe",
      "phone": "+18654149380",
      "addr_state": "TN",
      "addr_city": "Cosby",
      "addr_postcode": "37722",
      "addr_street": "East Parkway",
      "addr_housenumber": "5346"
    },
    {
      "id": 197440,
      "geometry": "POINT (-83.55415 35.785361)",
      "poi_name": "Smokies Cuban Cafe",
      "osm_id": 10648741980,
      "amenity": "cafe",
      "phone": "+18653661098",
      "addr_state": "TN",
      "addr_city": "Pigeon Forge",
      "addr_postcode": "37863",
      "addr_street": "Parkway",
      "addr_housenumber": "3526"
    },
    {
      "id": 217170,
      "geometry": "POINT (-83.918258 35.96484)",
      "poi_name": "K Brew",
      "osm_id": 9208945117,
      "amenity": "cafe"
    },
    {
      "id": 206646,
      "geometry": "POINT (-82.936703 35.527989)",
      "poi_name": "Coffee Cup Cafe",
      "osm_id": 7221111327,
      "amenity": "cafe",
      "phone": "(828) 627-8905",
      "addr_state": "NC",
      "addr_city": "Clyde",
      "addr_postcode": "28721",
      "addr_street": "Haywood Park Drive",
      "addr_housenumber": "48"
    },
    {
      "id": 210010,
      "geometry": "POINT (-83.578632 35.809748)",
      "poi_name": "Mrs Clause",
      "osm_id": 5072311472,
      "amenity": "cafe",
      "cuisine": "coffee_shop;ice_cream"
    },
    {
      "id": 217027,
      "geometry": "POINT (-83.917655 35.9645)",
      "poi_name": "Starbucks",
      "osm_id": 9200282947,
      "amenity": "cafe",
      "cuisine": "coffee_shop",
      "takeaway": "yes",
      "official_name": "Starbucks Coffee",
      "outdoor_seating": "yes"
    },
    {
      "id": 197616,
      "geometry": "POINT (-82.560425 35.700309)",
      "poi_name": "Yellow Mug Coffee Lounge",
      "osm_id": 10657910997,
      "amenity": "cafe",
      "phone": "+18284848844",
      "addr_state": "NC",
      "addr_city": "Weaverville",
      "addr_postcode": "28787",
      "addr_street": "North Main Street",
      "addr_housenumber": "113"
    },
    {
      "id": 214634,
      "geometry": "POINT (-83.572713 35.831757)",
      "poi_name": "Starbucks",
      "osm_id": 5276523224,
      "amenity": "cafe",
      "cuisine": "coffee_shop",
      "takeaway": "yes",
      "official_name": "Starbucks Coffee",
      "addr_state": "TN",
      "addr_city": "Sevierville",
      "addr_postcode": "37862",
      "addr_street": "Parkway",
      "addr_housenumber": "1645"
    },
    {
      "id": 217171,
      "geometry": "POINT (-83.92079 35.964206)",
      "poi_name": "Mahalo Coffee Roasters",
      "osm_id": 9208945217,
      "amenity": "cafe",
      "addr_street": "Union Avenue",
      "addr_housenumber": "513"
    },
    {
      "id": 217172,
      "geometry": "POINT (-83.917739 35.968393)",
      "poi_name": "OliBea",
      "osm_id": 9208969317,
      "amenity": "cafe",
      "opening_hours": "We-Fr 7:00-13:00, Sa-Su 8:00-14:00",
      "website": "https://olibeaoldcity.com/",
      "phone": "+18652005450",
      "addr_state": "TN",
      "addr_city": "Knoxville",
      "addr_postcode": "37902",
      "addr_street": "South Central Street",
      "addr_housenumber": "211"
    },
    {
      "id": 235080,
      "geometry": "POINT (-82.552403 35.594547)",
      "poi_name": "The Rhu",
      "osm_id": 5744735073,
      "amenity": "cafe"
    },
    {
      "id": 226690,
      "geometry": "POINT (-82.493259 35.587145)",
      "poi_name": "Dobra Tea",
      "osm_id": 11165695050,
      "amenity": "cafe"
    },
    {
      "id": 226700,
      "geometry": "POINT (-82.505156 35.591928)",
      "poi_name": "Penny Cup Coffe Co",
      "osm_id": 11166012379,
      "amenity": "cafe",
      "opening_hours": "Mo-Fr 07:00-18:00; Sa,Su 08:00-18:00",
      "outdoor_seating": "no"
    },
    {
      "id": 228185,
      "geometry": "POINT (-82.583367 35.555653)",
      "poi_name": "Creamery",
      "osm_id": 4333123198,
      "amenity": "cafe",
      "cuisine": "ice_cream"
    },
    {
      "id": 228095,
      "geometry": "POINT (-84.180134 36.332747)",
      "poi_name": "MANAHOUSE COFFEE",
      "osm_id": 4330783338,
      "amenity": "cafe",
      "cuisine": "coffee_shop;sandwich;american",
      "opening_hours": "Mo-Su 08:00-18:00",
      "website": "https://www.facebook.com/MANAHOUSECoffee",
      "internet_access": "wlan",
      "outdoor_seating": "no",
      "addr_state": "TN",
      "addr_city": "Jacksboro",
      "addr_postcode": "37757",
      "addr_street": "Main Street",
      "addr_housenumber": "310"
    },
    {
      "id": 239687,
      "geometry": "POINT (-83.922036 35.983721)",
      "poi_name": "K Brew",
      "osm_id": 5935257219,
      "amenity": "cafe",
      "cuisine": "coffee_shop",
      "internet_access": "yes",
      "outdoor_seating": "yes",
      "addr_state": "TN",
      "addr_city": "Knoxville",
      "addr_postcode": "37917",
      "addr_street": "North Broadway",
      "addr_housenumber": "1138"
    },
    {
      "id": 239688,
      "geometry": "POINT (-84.138977 35.894554)",
      "poi_name": "Honeybee Coffee",
      "osm_id": 5935257221,
      "amenity": "cafe",
      "cuisine": "coffee_shop",
      "internet_access": "yes",
      "outdoor_seating": "yes",
      "addr_state": "TN",
      "addr_city": "Knoxville",
      "addr_postcode": "37934",
      "addr_street": "Kingston Pike",
      "addr_housenumber": "10716"
    }
  ],
  "answer_type": "name",
  "question_entities": {
    "[1]": {
      "main_category": "amenity",
      "sub_category": "cafe"
    },
    "[2]": {
      "distance": 90000,
      "text": "90 kilometers"
    },
    "[3]": {
      "main_category": "tourism",
      "sub_category": "attraction",
      "display_name": "Forbidden Caverns, Sevierville, Tn",
      "geo_wkt": "POINT (-83.346851 35.904203)",
      "poi": {
        "id": 19786,
        "geometry": "POINT (-83.346851 35.904203)",
        "poi_name": "Forbidden Caverns",
        "osm_id": 10874244606,
        "tourism": "attraction",
        "addr_state": "Tn",
        "addr_city": "Sevierville",
        "addr_postcode": "37876",
        "addr_street": "Blowing Cave Road",
        "addr_housenumber": "455"
      }
    }
  },
  "id": 837,
  "type": "range+name"
}