{
  "question": "Which path guides to a gallery from Memory Lane, Lexington, IL within 180 kilometers?",
  "sql": "SELECT *, degrees(ST_Azimuth(ST_GeomFromText('POINT (-88.78321 40.645607)',4326)::geography, pois.geometry)) AS angle FROM pois\nWHERE ST_DWithin(pois.geometry, ST_GeomFromText('POINT (-88.78321 40.645607)',4326)::geography, 180000)\nAND tourism = 'gallery';\n",
  "answers": [
    {
      "id": 2892,
      "geometry": "POINT (-87.667963 41.896253)",
      "poi_name": "Patron Gallery",
      "osm_id": 10067042360,
      "tourism": "gallery",
      "opening_hours": "Tu-Sa 11:00-18:00",
      "website": "https://patrongallery.com/",
      "phone": "+1 312-846-1500",
      "addr_state": "IL",
      "addr_city": "Chicago",
      "addr_postcode": "60622",
      "addr_street": "West Chicago Avenue",
      "addr_housenumber": "1612",
      "angle": 33.56539222141296
    },
    {
      "id": 4352,
      "geometry": "POINT (-87.65855 41.886154)",
      "poi_name": "Kavi Gupta Gallery",
      "osm_id": 11230141538,
      "tourism": "gallery",
      "website": "https://kavigupta.com/",
      "addr_housenumber": "219",
      "angle": 34.00393917144465
    },
    {
      "id": 4353,
      "geometry": "POINT (-87.666475 41.895901)",
      "poi_name": "Povos",
      "osm_id": 11230141539,
      "tourism": "gallery",
      "website": "https://povoschicago.com/",
      "angle": 33.60782037385741
    },
    {
      "id": 4398,
      "geometry": "POINT (-87.658207 41.850719)",
      "poi_name": "Mana Contemporary",
      "osm_id": 11246804737,
      "tourism": "gallery",
      "opening_hours": "Mo-Fr 11:00-17:00",
      "website": "https://www.manacontemporary.com/visit/chicago/",
      "addr_housenumber": "2233",
      "angle": 34.797279235630036
    },
    {
      "id": 4445,
      "geometry": "POINT (-87.651537 41.893932)",
      "poi_name": "A very Serious Gallery",
      "osm_id": 11262787237,
      "tourism": "gallery",
      "opening_hours": "We, Fr-Sa 12:00-17:00; Th 13:00-20:00",
      "website": "https://veryseriousgallery.com/",
      "angle": 33.999108737002196
    },
    {
      "id": 5032,
      "geometry": "POINT (-87.153201 40.937978)",
      "poi_name": "Lilian Fendig Gallery",
      "osm_id": 9725188011,
      "tourism": "gallery",
      "opening_hours": "Tu 12:00-16:00; Th 14:00-18:00",
      "operator": "Prairie Arts Council",
      "addr_state": "IN",
      "addr_city": "Rensselaer",
      "addr_postcode": "47978",
      "addr_street": "North Van Rensselaer Street",
      "addr_housenumber": "301",
      "angle": 76.18924463783083
    },
    {
      "id": 5179,
      "geometry": "POINT (-87.852253 41.827262)",
      "poi_name": "The Compassion Factory",
      "osm_id": 9793701292,
      "tourism": "gallery",
      "operator": "Compassion United Methodist Church",
      "angle": 30.434578666107612
    },
    {
      "id": 8403,
      "geometry": "POINT (-88.208319 40.112588)",
      "poi_name": "Cinema Gallery",
      "osm_id": 6681836578,
      "tourism": "gallery",
      "opening_hours": "We-Sa 10:00-17:00",
      "operator": "Carolyn Baxley",
      "website": "https://www.cinemagallery.cc",
      "angle": 140.2965863145396
    },
    {
      "id": 9639,
      "geometry": "POINT (-87.689607 41.895853)",
      "poi_name": "The Martin - Gallery + Event Space",
      "osm_id": 8902331412,
      "tourism": "gallery",
      "operator": "Whitney LaMora",
      "addr_state": "IL",
      "addr_city": "Chicago",
      "addr_postcode": "60622",
      "addr_street": "West Chicago Avenue",
      "addr_housenumber": "2500",
      "angle": 33.06285449495039
    },
    {
      "id": 9649,
      "geometry": "POINT (-87.681523 41.886837)",
      "poi_name": "Corbett vs. Dempsey",
      "osm_id": 8910095375,
      "tourism": "gallery",
      "opening_hours": "Tu-Sa 10:00-17:00",
      "website": "https://www.corbettvsdempsey.com/",
      "phone": "+1-773-278-1664",
      "addr_state": "IL",
      "addr_city": "Chicago",
      "addr_postcode": "60612",
      "addr_street": "West Fulton Street",
      "addr_housenumber": "2156",
      "angle": 33.44780304514704
    },
    {
      "id": 9700,
      "geometry": "POINT (-87.871954 41.814374)",
      "poi_name": "La Grange Art League Gallery",
      "osm_id": 8944618048,
      "tourism": "gallery",
      "angle": 30.181872471522038
    },
    {
      "id": 10026,
      "geometry": "POINT (-87.623635 41.855893)",
      "poi_name": "South Asia Institute",
      "osm_id": 9111624405,
      "tourism": "gallery",
      "opening_hours": "Th-Sa 11:00-18:00 || \"by appointment\"",
      "website": "https://www.saichicago.org/",
      "addr_state": "IL",
      "addr_city": "Chicago",
      "addr_postcode": "60616",
      "addr_street": "S Michigan Ave",
      "addr_housenumber": "1925",
      "angle": 35.488803245453965
    },
    {
      "id": 10294,
      "geometry": "POINT (-87.670213 41.895897)",
      "poi_name": "Western Exhibitions",
      "osm_id": 6776061424,
      "tourism": "gallery",
      "website": "https://westernexhibitions.com/",
      "addr_street": "West Chicago Avenue",
      "addr_housenumber": "1709",
      "angle": 33.52017382955111
    },
    {
      "id": 10295,
      "geometry": "POINT (-87.670286 41.895897)",
      "poi_name": "Rhona Hoffman Gallery",
      "osm_id": 6776086443,
      "tourism": "gallery",
      "wheelchair": "yes",
      "website": "https://www.rhoffmangallery.com/",
      "phone": "+1 312-455-1990",
      "addr_state": "IL",
      "addr_city": "Chicago",
      "addr_postcode": "60622",
      "addr_street": "West Chicago Avenue",
      "addr_housenumber": "1711",
      "angle": 33.51845666363655
    },
    {
      "id": 10474,
      "geometry": "POINT (-87.71138 41.931646)",
      "poi_name": "All Star Press",
      "osm_id": 6872477634,
      "tourism": "gallery",
      "addr_state": "IL",
      "addr_city": "Chicago",
      "addr_postcode": "60647",
      "addr_street": "North Milwaukee Avenue",
      "addr_housenumber": "2775",
      "angle": 31.801979440701317
    },
    {
      "id": 10750,
      "geometry": "POINT (-90.364869 40.947691)",
      "poi_name": "Galesburg Civic Arts Center",
      "osm_id": 8018367609,
      "tourism": "gallery",
      "angle": 284.6231983921491
    },
    {
      "id": 11363,
      "geometry": "POINT (-87.646784 41.85594)",
      "poi_name": "Chicago Art Department",
      "osm_id": 9950117758,
      "tourism": "gallery",
      "addr_street": "South Halsted Street",
      "addr_housenumber": "1926",
      "angle": 34.948487526218244
    },
    {
      "id": 11983,
      "geometry": "POINT (-87.656944 41.858072)",
      "poi_name": "Prospectus Art Gallery",
      "osm_id": 6125250112,
      "tourism": "gallery",
      "phone": "+1 312-733-6132",
      "addr_state": "IL",
      "addr_city": "Chicago",
      "addr_postcode": "60608",
      "addr_street": "West 18th Street",
      "addr_housenumber": "1210",
      "angle": 34.66159418462248
    },
    {
      "id": 12085,
      "geometry": "POINT (-87.625356 41.88463)",
      "poi_name": "Expo 72",
      "osm_id": 6179056467,
      "tourism": "gallery",
      "fee": "no",
      "opening_hours": "24/7",
      "operator": "Chicago Department of Cultural Affairs and Special Events (DCASE)",
      "addr_state": "IL",
      "addr_city": "Chicago",
      "addr_postcode": "60601",
      "addr_street": "East Randolph Street",
      "addr_housenumber": "72",
      "angle": 34.80717614597398
    },
    {
      "id": 12389,
      "geometry": "POINT (-87.614815 41.809548)",
      "poi_name": "Gallery Guichard",
      "osm_id": 6332297187,
      "tourism": "gallery",
      "website": "https://www.galleryguichard.com",
      "phone": "+1-(773) 791-7003",
      "addr_state": "IL",
      "addr_city": "Chicago",
      "addr_postcode": "60615",
      "addr_street": "East 47th Street",
      "addr_housenumber": "436",
      "angle": 36.77319366703876
    },
    {
      "id": 12625,
      "geometry": "POINT (-87.636582 41.503355)",
      "poi_name": "Union Street Gallery",
      "osm_id": 7405079918,
      "tourism": "gallery",
      "website": "https://www.unionstreetgallery.org/",
      "addr_state": "IL",
      "addr_city": "Chicago Heights",
      "addr_postcode": "60411",
      "addr_street": "Otto Boulevard",
      "addr_housenumber": "1527",
      "angle": 44.95508402115895
    },
    {
      "id": 13176,
      "geometry": "POINT (-87.649634 41.957638)",
      "poi_name": "Jake Wittrock Art Gallery",
      "osm_id": 4072641130,
      "tourism": "gallery",
      "operator": "Jake Wittrock",
      "website": "https://jakewittrock.com/",
      "artwork_type": "painting",
      "addr_city": "Chicago",
      "addr_postcode": "60613",
      "angle": 32.71288441935182
    },
    {
      "id": 13869,
      "geometry": "POINT (-89.649748 39.794583)",
      "poi_name": "The Pharmacy",
      "osm_id": 4163430147,
      "tourism": "gallery",
      "website": "https://www.pharmacygallery.com/",
      "addr_state": "IL",
      "addr_city": "Springfield",
      "addr_postcode": "62703",
      "addr_street": "South 5th Street",
      "addr_housenumber": "711",
      "angle": 218.2542059934426
    },
    {
      "id": 14067,
      "geometry": "POINT (-87.727105 41.941733)",
      "poi_name": "Night Club",
      "osm_id": 4217839176,
      "tourism": "gallery",
      "angle": 31.224760941840582
    },
    {
      "id": 14092,
      "geometry": "POINT (-87.616409 41.890937)",
      "poi_name": "Ogilvie Pertl Gallery",
      "osm_id": 4222717944,
      "tourism": "gallery",
      "angle": 34.87362826335361
    },
    {
      "id": 14803,
      "geometry": "POINT (-89.483384 41.843573)",
      "poi_name": "The Next Picture Show",
      "osm_id": 4725026702,
      "tourism": "gallery",
      "addr_state": "IL",
      "addr_city": "Dixon",
      "addr_postcode": "61021",
      "addr_street": "West 1st Street",
      "addr_housenumber": "113",
      "angle": 336.4260861945276
    },
    {
      "id": 15792,
      "geometry": "POINT (-87.635846 41.890096)",
      "poi_name": "ehsan gallery | \u06af\u0627\u0644\u0631\u06cc \u0627\u062d\u0633\u0627\u0646",
      "osm_id": 9531167201,
      "description": "order painting | \u0633\u0641\u0627\u0631\u0634 \u0646\u0642\u0627\u0634\u06cc",
      "tourism": "gallery",
      "angle": 34.44595173201095
    },
    {
      "id": 17826,
      "geometry": "POINT (-88.761695 41.935285)",
      "poi_name": "Jack Olson Gallery",
      "osm_id": 368064447,
      "tourism": "gallery",
      "addr_state": "IL",
      "angle": 0.7137929417868879
    },
    {
      "id": 19440,
      "geometry": "POINT (-87.648942 41.882912)",
      "poi_name": "McCormick Gallery",
      "osm_id": 10757694706,
      "tourism": "gallery",
      "website": "https://thomasmccormick.com/",
      "phone": "+13122266800",
      "addr_postcode": "60607",
      "angle": 34.29904694921172
    },
    {
      "id": 19633,
      "geometry": "POINT (-87.662158 42.001558)",
      "poi_name": "Alleluia Gallery",
      "osm_id": 10857072625,
      "tourism": "gallery",
      "angle": 31.564638251684634
    },
    {
      "id": 19929,
      "geometry": "POINT (-87.624675 41.880159)",
      "poi_name": "Iarca",
      "osm_id": 10958109344,
      "tourism": "gallery",
      "fee": "no",
      "angle": 34.92139735228165
    },
    {
      "id": 20090,
      "geometry": "POINT (-87.669421 41.890034)",
      "poi_name": "Marianne Ibrahim Gallery",
      "osm_id": 7862544202,
      "tourism": "gallery",
      "website": "https://marianneibrahim.com",
      "phone": "+13128775436",
      "addr_street": "North Paulina Street",
      "addr_housenumber": "437",
      "angle": 33.66477884331952
    },
    {
      "id": 21489,
      "geometry": "POINT (-88.059116 41.588431)",
      "poi_name": "Illinois State Museum-Lockport Gallery",
      "osm_id": 10284056341,
      "tourism": "gallery",
      "operator": "Illinois State Museum",
      "website": "https://illinoisstatemuseum.org/content/welcome-ism-lockport-gallery",
      "addr_state": "IL",
      "addr_city": "Lockport",
      "addr_postcode": "60441",
      "addr_street": "West 10th Street",
      "addr_housenumber": "201",
      "angle": 29.91070935630045
    },
    {
      "id": 21724,
      "geometry": "POINT (-89.688539 39.797952)",
      "poi_name": "DIM Art House",
      "osm_id": 10633013453,
      "tourism": "gallery",
      "opening_hours": "Fr 17:00-19:30; Sa 12:00-15:00",
      "website": "http://www.dimarthouse.com/",
      "phone": "+1-773-235-5600",
      "wikidata": "Q116740552",
      "addr_state": "IL",
      "addr_city": "Springfield",
      "addr_postcode": "62704",
      "addr_street": "Chatham Road",
      "addr_housenumber": "319",
      "angle": 219.60058033910323
    },
    {
      "id": 22502,
      "geometry": "POINT (-87.66633 41.903081)",
      "poi_name": "Young Chicago Authors",
      "osm_id": 7118225610,
      "tourism": "gallery",
      "website": "https://youngchicagoauthors.org",
      "addr_state": "IL",
      "addr_city": "Chicago",
      "addr_postcode": "60642",
      "addr_street": "North Milwaukee Avenue",
      "addr_housenumber": "1180",
      "angle": 33.45785714721675
    },
    {
      "id": 23255,
      "geometry": "POINT (-88.057977 41.590922)",
      "poi_name": "3rd Floor Gallery",
      "osm_id": 5084832374,
      "tourism": "gallery",
      "website": "http://www.3rdfloorgallery.com",
      "angle": 29.88329068123076
    },
    {
      "id": 24652,
      "geometry": "POINT (-87.686951 41.880972)",
      "poi_name": "Legendary Art Gallery",
      "osm_id": 11158104112,
      "tourism": "gallery",
      "addr_street": "West Madison Street",
      "addr_housenumber": "2411",
      "angle": 33.445441294012085
    },
    {
      "id": 24653,
      "geometry": "POINT (-87.687895 41.881316)",
      "poi_name": "DragonFLY Gallert & Creative Spaces",
      "osm_id": 11158104313,
      "tourism": "gallery",
      "website": "https://www.dragonflygallery.space/",
      "addr_street": "West Madison Street",
      "addr_housenumber": "2436",
      "angle": 33.415491059043596
    },
    {
      "id": 24672,
      "geometry": "POINT (-87.626115 41.868914)",
      "poi_name": "Glass Curtain Gallery",
      "osm_id": 11165334205,
      "tourism": "gallery",
      "operator": "Columbia College of Chicago",
      "angle": 35.138188181673236
    },
    {
      "id": 25585,
      "geometry": "POINT (-86.888866 40.41923)",
      "poi_name": "Grateful Heart Gallery and Gifts",
      "osm_id": 4546431304,
      "tourism": "gallery",
      "website": "http://gratefulheartgallery.net",
      "phone": "+1-765-838-2266",
      "addr_state": "IN",
      "addr_city": "Lafayette",
      "addr_postcode": "47901",
      "addr_street": "Main Street",
      "addr_housenumber": "654",
      "angle": 98.28502325727392
    },
    {
      "id": 26152,
      "geometry": "POINT (-87.706096 41.887796)",
      "poi_name": "345 Gallery",
      "osm_id": 5794649453,
      "tourism": "gallery",
      "website": "https://www.345artgallery.com",
      "phone": "+1-872-444-5544",
      "addr_state": "IL",
      "addr_city": "Chicago",
      "addr_postcode": "60624",
      "addr_street": "North Kedzie Avenue",
      "addr_housenumber": "345",
      "angle": 32.84043791858595
    },
    {
      "id": 26295,
      "geometry": "POINT (-87.661974 42.001564)",
      "poi_name": "Roman Susan",
      "osm_id": 5838811819,
      "tourism": "gallery",
      "phone": "+1 773 270 1224",
      "addr_street": "West Loyola Avenue",
      "addr_housenumber": "1224",
      "angle": 31.568673029100978
    },
    {
      "id": 26496,
      "geometry": "POINT (-89.596738 41.817827)",
      "poi_name": "SVCC Art Gallery",
      "osm_id": 5906604440,
      "description": "Art Gallery features new exhibits regularly.",
      "tourism": "gallery",
      "angle": 332.61652836947934
    }
  ],
  "answer_type": "angle",
  "question_entities": {
    "[1]": {
      "main_category": "tourism",
      "sub_category": "gallery"
    },
    "[2]": {
      "distance": 180000,
      "text": "180 kilometers"
    },
    "[3]": {
      "main_category": "tourism",
      "sub_category": "attraction",
      "display_name": "Memory Lane, Lexington, IL",
      "geo_wkt": "POINT (-88.78321 40.645607)",
      "poi": {
        "id": 26577,
        "geometry": "POINT (-88.78321 40.645607)",
        "poi_name": "Memory Lane",
        "osm_id": 5934936892,
        "tourism": "attraction",
        "opening_hours": "24/7",
        "addr_state": "IL",
        "addr_city": "Lexington",
        "addr_street": "Parade Road"
      }
    }
  },
  "id": 1027,
  "type": "range+angle"
}