{
  "question": "Would you be able to track down an indian restaurant, preferably within a 180 kilometers radius from Tiger Creek Wildlife Refuge, Tyler, TX?",
  "sql": "SELECT * FROM pois\nWHERE ST_DWithin(pois.geometry, ST_GeomFromText('POINT (-95.264008 32.522834)',4326)::geography, 180000)\nAND amenity = 'restaurant'\nAND cuisine ILIKE '%indian%';\n",
  "answers": [
    {
      "id": 37429,
      "geometry": "POINT (-96.727694 32.951827)",
      "poi_name": "Spice 'N' Rice",
      "osm_id": 2810318534,
      "amenity": "restaurant",
      "cuisine": "indian",
      "website": "http://spicenriceharun.menufy.com/",
      "addr_street": "Terrace Drive",
      "addr_housenumber": "300"
    },
    {
      "id": 39695,
      "geometry": "POINT (-96.797972 33.064119)",
      "poi_name": "Malgudi Gardens",
      "osm_id": 2934934777,
      "amenity": "restaurant",
      "cuisine": "indian",
      "website": "http://malgudigardentx.com/",
      "phone": "+1-800-886-5253",
      "addr_state": "TX",
      "addr_city": "Plano",
      "addr_postcode": "75024",
      "addr_street": "Tennyson Parkway"
    },
    {
      "id": 52851,
      "geometry": "POINT (-96.788424 32.820457)",
      "poi_name": "Roti Grill",
      "osm_id": 10050176281,
      "amenity": "restaurant",
      "cuisine": "indian",
      "website": "https://freshindianfood.com/dallas/",
      "addr_state": "TX",
      "addr_city": "Dallas",
      "addr_postcode": "75205",
      "addr_street": "McKinney Avenue",
      "addr_housenumber": "4438"
    },
    {
      "id": 56662,
      "geometry": "POINT (-96.961094 32.896342)",
      "poi_name": "Southern Spice",
      "osm_id": 10245663419,
      "amenity": "restaurant",
      "cuisine": "indian"
    },
    {
      "id": 56666,
      "geometry": "POINT (-96.958108 32.897254)",
      "poi_name": "O'Desi Aroma",
      "osm_id": 10245663427,
      "amenity": "restaurant",
      "cuisine": "indian"
    },
    {
      "id": 72079,
      "geometry": "POINT (-96.79875 32.998933)",
      "poi_name": "India Chaat Cafe",
      "osm_id": 11411193164,
      "amenity": "restaurant",
      "cuisine": "indian",
      "opening_hours": "Su-Th 11:00-22:00; Fr-Sa 11:00-22:30",
      "website": "https://www.indiachaatcafedallas.com",
      "phone": "+1-972-381-0003",
      "addr_state": "TX",
      "addr_city": "Dallas",
      "addr_postcode": "75252",
      "addr_street": "Preston Road",
      "addr_housenumber": "18101"
    },
    {
      "id": 65305,
      "geometry": "POINT (-96.733247 32.954016)",
      "poi_name": "Kebab N Kurry",
      "osm_id": 5693566185,
      "amenity": "restaurant",
      "cuisine": "indian",
      "opening_hours": "Su 11:30-14:30,17:30-22:00, Mo-Th 11:00-14:00, Mo-Fr 17:30-22:00, Sa 11:30-14:30,17:30-22:30, Fr 11:00-14:00,17:30-22:30",
      "phone": "+1-972-231-5556",
      "takeaway": "yes",
      "addr_street": "Central Expressway",
      "addr_housenumber": "401"
    },
    {
      "id": 68591,
      "geometry": "POINT (-96.587534 32.765633)",
      "poi_name": "Oh My Curry",
      "osm_id": 11276097258,
      "amenity": "restaurant",
      "cuisine": "indian",
      "opening_hours": "Su 11:00-18:00; Tu-Sa 11:00-19:00",
      "website": "https://ohmycurry.com/",
      "phone": "+1 972-303-2121",
      "addr_state": "TX",
      "addr_city": "Mesquite",
      "addr_postcode": "75149",
      "addr_street": "East Davis Street",
      "addr_housenumber": "909"
    },
    {
      "id": 70000,
      "geometry": "POINT (-96.804355 32.782858)",
      "poi_name": "Shivas Bar & Grill",
      "osm_id": 11340444269,
      "amenity": "restaurant",
      "cuisine": "indian",
      "opening_hours": "Mo-Su 11:00-22:00",
      "website": "https://www.shivasbarandgrill.com/",
      "phone": "+1-469-250-1429",
      "addr_postcode": "75202"
    },
    {
      "id": 60714,
      "geometry": "POINT (-96.708846 32.975974)",
      "poi_name": "Masala Twist",
      "osm_id": 5476824540,
      "amenity": "restaurant",
      "cuisine": "indian",
      "opening_hours": "Tu-Fr 11:30-14:30, 17:30-21:30; Sa-Su 12:00-15:00, 18:00-22:30",
      "website": "https://masalatwistusa.com",
      "phone": "+1-972-210-0744",
      "takeaway": "yes",
      "addr_state": "TX",
      "addr_city": "Richardson",
      "addr_postcode": "75081",
      "addr_street": "East Campbell Road",
      "addr_housenumber": "955"
    },
    {
      "id": 67783,
      "geometry": "POINT (-96.790247 32.777315)",
      "poi_name": "8 Cloves",
      "osm_id": 11247575771,
      "amenity": "restaurant",
      "cuisine": "indian",
      "website": "http://8cloves.com/",
      "phone": "+1-214-272-7311",
      "addr_state": "TX",
      "addr_city": "Dallas",
      "addr_street": "South Harwood Street",
      "addr_housenumber": "920"
    },
    {
      "id": 72066,
      "geometry": "POINT (-96.801197 32.988584)",
      "poi_name": "Mumbai Grill",
      "osm_id": 11411042878,
      "amenity": "restaurant",
      "cuisine": "indian",
      "website": "http://www.mumbaigrilldallas.com",
      "phone": "+1-469-547-1654",
      "addr_state": "TX",
      "addr_city": "Dallas",
      "addr_postcode": "75252",
      "addr_street": "Preston Road",
      "addr_housenumber": "17370"
    },
    {
      "id": 72102,
      "geometry": "POINT (-96.764803 32.97914)",
      "poi_name": "Masala Wok",
      "osm_id": 11413105469,
      "amenity": "restaurant",
      "cuisine": "indian"
    },
    {
      "id": 76344,
      "geometry": "POINT (-96.976316 32.865192)",
      "poi_name": "Namaste Grill & Bar",
      "osm_id": 9771842709,
      "amenity": "restaurant",
      "cuisine": "bar&grill;dinner;indian",
      "opening_hours": "13:00 -01:00",
      "website": "https://namastegrillbar.com",
      "phone": "972-457-0009",
      "addr_state": "TX",
      "addr_city": "Irving",
      "addr_postcode": "75038",
      "addr_street": "West Walnut Hill Lane",
      "addr_housenumber": "2234"
    },
    {
      "id": 102992,
      "geometry": "POINT (-96.939469 32.897049)",
      "poi_name": "Premier Desi District",
      "osm_id": 8474401090,
      "amenity": "restaurant",
      "cuisine": "indian",
      "website": "http://www.premierdesidistrict.com/",
      "phone": "+19727992117",
      "addr_state": "TX",
      "addr_city": "Irving",
      "addr_postcode": "75039",
      "addr_street": "Riverside Drive",
      "addr_housenumber": "6421"
    },
    {
      "id": 91870,
      "geometry": "POINT (-96.816634 32.953067)",
      "poi_name": "India West Fine Dining & Lounge",
      "osm_id": 2092465022,
      "amenity": "restaurant",
      "cuisine": "indian",
      "addr_state": "TX",
      "addr_city": "Dallas",
      "addr_street": "Belt Line Road",
      "addr_housenumber": "5290"
    },
    {
      "id": 95313,
      "geometry": "POINT (-96.775592 32.98825)",
      "poi_name": "Swadeshi",
      "osm_id": 6391888789,
      "amenity": "restaurant",
      "cuisine": "indian"
    },
    {
      "id": 141750,
      "geometry": "POINT (-96.767855 32.948347)",
      "poi_name": "Curry Bliss",
      "osm_id": 6296723829,
      "amenity": "restaurant",
      "cuisine": "indian"
    },
    {
      "id": 103511,
      "geometry": "POINT (-96.827001 33.108309)",
      "poi_name": "Roti Grill",
      "osm_id": 8505807732,
      "amenity": "restaurant",
      "cuisine": "indian",
      "website": "https://freshindianfood.com/frisco/",
      "addr_state": "TX",
      "addr_city": "Frisco",
      "addr_postcode": "75034",
      "addr_street": "Gaylord Parkway",
      "addr_housenumber": "3675"
    },
    {
      "id": 122983,
      "geometry": "POINT (-96.749211 32.98673)",
      "poi_name": "Kalachandji's",
      "osm_id": 6831403383,
      "amenity": "restaurant",
      "cuisine": "indian",
      "website": "https://kalachandjis.com/",
      "drive_through": "no",
      "addr_state": "TX",
      "addr_city": "Richardson"
    },
    {
      "id": 128933,
      "geometry": "POINT (-96.613302 33.013862)",
      "poi_name": "Mehfil Indian Cuisine",
      "osm_id": 8198603991,
      "amenity": "restaurant",
      "cuisine": "indian;punjabi",
      "website": "https://mehfildfw.com",
      "phone": "+14694219393",
      "addr_state": "TX",
      "addr_city": "Murphy",
      "addr_postcode": "75094",
      "addr_street": "Murphy Rd",
      "addr_housenumber": "109 N"
    },
    {
      "id": 103388,
      "geometry": "POINT (-96.804419 32.923282)",
      "poi_name": "India Palace",
      "osm_id": 8498694670,
      "amenity": "restaurant",
      "cuisine": "indian",
      "opening_hours": "Mo-Th 11:00-14:30, 17:00-21:30; Fr 11:00-14:30, 17:00-22:00; Sa 11:30-15:00, 17:00-22:00; Su 11:30-15:00, 17:00-21:30",
      "website": "https://www.indiapalacedallas.com/",
      "phone": "+1-972-392-0190",
      "addr_state": "TX",
      "addr_city": "Dallas",
      "addr_postcode": "75230",
      "addr_street": "Preston Road",
      "addr_housenumber": "12817"
    },
    {
      "id": 108121,
      "geometry": "POINT (-96.806631 33.098883)",
      "poi_name": "Adyar Ananda Bhavan",
      "osm_id": 3596938677,
      "amenity": "restaurant",
      "cuisine": "indian",
      "opening_hours": "Mo-Th 11:30-15:00,17:30-22:00; Fr 11:30-15:00,17:00-22:30; Sa 09:00-15:00,18:00-22:30; Su 09:00-15:30,18:00-22:00",
      "website": "http://www.a2bfrisco.com",
      "phone": "+1-214-872-2345",
      "takeaway": "yes",
      "toilets": "yes",
      "addr_city": "Frisco",
      "addr_street": "Preston Road",
      "addr_housenumber": "2429"
    },
    {
      "id": 121181,
      "geometry": "POINT (-96.769167 33.057949)",
      "poi_name": "Madurai Thattu Kadai",
      "osm_id": 6744736410,
      "amenity": "restaurant",
      "cuisine": "indian;south_indian",
      "opening_hours": "Mo-Th 16:00-24:00; Fr-Sa 12:00-24:00; Su 12:00-23:00",
      "internet_access": "wlan"
    },
    {
      "id": 121600,
      "geometry": "POINT (-96.731192 33.127157)",
      "poi_name": "Honest",
      "osm_id": 6768423673,
      "amenity": "restaurant",
      "cuisine": "indian"
    },
    {
      "id": 128975,
      "geometry": "POINT (-96.826369 32.999318)",
      "poi_name": "Vindu Indian Cuisine",
      "osm_id": 8200141060,
      "amenity": "restaurant",
      "cuisine": "indian"
    },
    {
      "id": 131509,
      "geometry": "POINT (-96.907886 32.981187)",
      "poi_name": "BBQ ToNite",
      "osm_id": 9919399409,
      "amenity": "restaurant",
      "cuisine": "indian;pakistani"
    },
    {
      "id": 141028,
      "geometry": "POINT (-96.768808 32.989406)",
      "poi_name": "Charcoal Avenue",
      "osm_id": 6270022180,
      "amenity": "restaurant",
      "cuisine": "indian",
      "opening_hours": "Mo-Th 11:00-22:00; Fr 11:00-24:00; Sa 12:00-24:00; Su 12:00-22:00",
      "website": "https://www.charcoalave.com/",
      "internet_access": "wlan",
      "phone": "+1-214-810-7279",
      "takeaway": "yes",
      "delivery": "yes"
    },
    {
      "id": 164942,
      "geometry": "POINT (-96.751002 33.039707)",
      "poi_name": "Kesari",
      "osm_id": 9509147393,
      "amenity": "restaurant",
      "cuisine": "indian",
      "opening_hours": "Tu-Su 11:30-14:30,17:30-21:30",
      "website": "https://kesarifoods.com/",
      "phone": "+1-972-519-0888",
      "addr_state": "TX",
      "addr_city": "Plano",
      "addr_postcode": "75075",
      "addr_street": "Independence Parkway",
      "addr_housenumber": "3100"
    },
    {
      "id": 143614,
      "geometry": "POINT (-96.804099 33.095621)",
      "poi_name": "Hyperbad House",
      "osm_id": 6345700731,
      "amenity": "restaurant",
      "cuisine": "indian",
      "addr_state": "TX",
      "addr_city": "Plano"
    },
    {
      "id": 179835,
      "geometry": "POINT (-96.864252 33.078337)",
      "poi_name": "Ice2Spice",
      "osm_id": 10779088241,
      "amenity": "restaurant",
      "cuisine": "indian"
    },
    {
      "id": 179905,
      "geometry": "POINT (-96.991087 32.925172)",
      "poi_name": "Biryanis and More",
      "osm_id": 10780834532,
      "amenity": "restaurant",
      "cuisine": "indian"
    },
    {
      "id": 214074,
      "geometry": "POINT (-96.720639 32.976223)",
      "poi_name": "Mumtaz Indian Restaurant",
      "osm_id": 5265103317,
      "amenity": "restaurant",
      "cuisine": "indian",
      "wheelchair": "yes",
      "opening_hours": "Mo-Fr 11:00-14:30, Mo-Th 17:30-22:00, Fr 17:30-22:30; Sa-Su 11:30-15:00, Sa 17:30-22:30, Su 17:30-22:00",
      "addr_state": "TX",
      "addr_city": "Richardson",
      "addr_postcode": "75080",
      "addr_street": "West Campbell Road",
      "addr_housenumber": "216"
    },
    {
      "id": 195137,
      "geometry": "POINT (-97.016755 33.006312)",
      "poi_name": "Seven Tastes",
      "osm_id": 10295986971,
      "amenity": "restaurant",
      "cuisine": "indian",
      "wheelchair": "limited",
      "opening_hours": "Tu-Fr 11:00-15:30; PH closed; Fr-Su 17:30-21:30",
      "takeaway": "yes",
      "toilets": "yes"
    },
    {
      "id": 180932,
      "geometry": "POINT (-96.708286 33.055197)",
      "poi_name": "Rajula's Kitchen",
      "osm_id": 10823687085,
      "amenity": "restaurant",
      "cuisine": "indian",
      "addr_state": "TX",
      "addr_city": "Plano",
      "addr_postcode": "75023",
      "addr_street": "Spring Creek Parkway",
      "addr_housenumber": "820"
    },
    {
      "id": 217518,
      "geometry": "POINT (-96.737346 32.951643)",
      "poi_name": "Royal Sweets & Fast Food",
      "osm_id": 9228792139,
      "amenity": "restaurant",
      "cuisine": "indian;dessert",
      "opening_hours": "Mo-Th 11:30-21:30; Fr-Sa 11:30-22:30; Su 11:30-21:30",
      "phone": "+1-972-669-4973",
      "addr_state": "TX",
      "addr_city": "Richardson",
      "addr_postcode": "75080",
      "addr_street": "West Belt Line Road",
      "addr_housenumber": "524"
    },
    {
      "id": 220066,
      "geometry": "POINT (-96.95362 32.923874)",
      "poi_name": "Swagath Birynais",
      "osm_id": 9357005423,
      "amenity": "restaurant",
      "cuisine": "indian",
      "opening_hours": "Mo-Su 10:00-22:30",
      "website": "https://www.swagathirving.com/",
      "phone": "+19724011449",
      "addr_state": "TX",
      "addr_city": "Irving",
      "addr_postcode": "75063",
      "addr_street": "North MacArthur Boulevard",
      "addr_housenumber": "8600"
    },
    {
      "id": 220067,
      "geometry": "POINT (-96.956113 32.921778)",
      "poi_name": "Mythri's Indian Cuisine",
      "osm_id": 9357025483,
      "amenity": "restaurant",
      "cuisine": "indian",
      "opening_hours": "Mo-Su 11:00-15:00, Mo-Su 17:00-22:00",
      "website": "https://www.mythrisusa.com/",
      "phone": "+14698857999",
      "addr_state": "TX",
      "addr_city": "Irving",
      "addr_postcode": "75063",
      "addr_street": "North MacArthur Boulevard",
      "addr_housenumber": "8350"
    },
    {
      "id": 220068,
      "geometry": "POINT (-96.956217 32.92167)",
      "poi_name": "Mythri's Indian Cuisine Pickup",
      "osm_id": 9357025484,
      "amenity": "restaurant",
      "cuisine": "indian"
    },
    {
      "id": 217704,
      "geometry": "POINT (-96.770677 33.070849)",
      "poi_name": "Arma Indian Cuisine",
      "osm_id": 9239244105,
      "amenity": "restaurant",
      "cuisine": "indian",
      "website": "https://txaroma.com/",
      "addr_state": "TX",
      "addr_city": "Plano",
      "addr_street": "Legacy Drive",
      "addr_housenumber": "3948"
    },
    {
      "id": 220069,
      "geometry": "POINT (-96.956361 32.921563)",
      "poi_name": "King and Cardinal",
      "osm_id": 9357025485,
      "amenity": "restaurant",
      "cuisine": "indian;burger",
      "opening_hours": "Mo-Su 11:00-22:00",
      "website": "https://kingandcardinal.com/",
      "phone": "+14693824447",
      "addr_state": "TX",
      "addr_city": "Irving",
      "addr_postcode": "75063",
      "addr_street": "North MacArthur Boulevard",
      "addr_housenumber": "8350"
    },
    {
      "id": 221683,
      "geometry": "POINT (-96.995939 32.921067)",
      "poi_name": "What The Biryani",
      "osm_id": 10983411748,
      "amenity": "restaurant",
      "cuisine": "indian"
    }
  ],
  "answer_type": "name",
  "question_entities": {
    "[1]": {
      "main_category": "amenity",
      "sub_category": "restaurant",
      "poi_filter_desc": "indian restaurant",
      "poi_filter_sql": "cuisine ILIKE '%indian%'"
    },
    "[2]": {
      "distance": 180000,
      "text": "180 kilometers"
    },
    "[3]": {
      "main_category": "tourism",
      "sub_category": "zoo",
      "display_name": "Tiger Creek Wildlife Refuge, Tyler, TX",
      "geo_wkt": "POINT (-95.264008 32.522834)",
      "poi": {
        "id": 9557,
        "geometry": "POINT (-95.264008 32.522834)",
        "poi_name": "Tiger Creek Wildlife Refuge",
        "osm_id": 3883238421,
        "tourism": "zoo",
        "website": "http://www.tigercreek.org/",
        "addr_state": "TX",
        "addr_city": "Tyler",
        "addr_postcode": "75706",
        "addr_street": "Werner Lane"
      }
    }
  },
  "id": 558,
  "type": "range:non_spat_filter+name"
}