{
  "question": "What direction should I take to reach a gallery from Irish Cultural Garden, Cleveland, OH within 180 kilometers?",
  "sql": "SELECT *, degrees(ST_Azimuth(ST_GeomFromText('POINT (-81.621886 41.522378)',4326)::geography, pois.geometry)) AS angle FROM pois\nWHERE ST_DWithin(pois.geometry, ST_GeomFromText('POINT (-81.621886 41.522378)',4326)::geography, 180000)\nAND tourism = 'gallery';\n",
  "answers": [
    {
      "id": 253,
      "geometry": "POINT (-80.318615 42.000159)",
      "poi_name": "Main Street Art",
      "osm_id": 8262672118,
      "tourism": "gallery",
      "addr_state": "PA",
      "addr_city": "Girard",
      "addr_postcode": "16417",
      "addr_street": "West Main Street",
      "addr_housenumber": "138",
      "angle": 63.47901345122538
    },
    {
      "id": 389,
      "geometry": "POINT (-80.078195 42.115808)",
      "poi_name": "Bastion Studios",
      "osm_id": 8349970743,
      "tourism": "gallery",
      "addr_state": "PA",
      "addr_city": "Erie",
      "addr_postcode": "16502",
      "addr_street": "Peach Street",
      "addr_housenumber": "2016",
      "angle": 62.2879917025332
    },
    {
      "id": 456,
      "geometry": "POINT (-82.105078 41.367311)",
      "poi_name": "Elyria Arts Council",
      "osm_id": 8381421204,
      "tourism": "gallery",
      "fee": "no",
      "opening_hours": "We-Sa 11:00-15:00",
      "addr_state": "OH",
      "addr_city": "Elyria",
      "addr_postcode": "44035",
      "addr_street": "Broad Street",
      "addr_housenumber": "336",
      "angle": 247.06114904054778
    },
    {
      "id": 1240,
      "geometry": "POINT (-83.653155 41.053754)",
      "poi_name": "Dudley and Mary Marks Lea Art Gallery",
      "osm_id": 2915334434,
      "tourism": "gallery",
      "angle": 253.66468319422356
    },
    {
      "id": 2853,
      "geometry": "POINT (-82.009845 39.936386)",
      "poi_name": "Girl UPcycled Studio",
      "osm_id": 10054538059,
      "tourism": "gallery",
      "opening_hours": "Fr-Sa 12:00-18:00, Su-Th off",
      "operator": "Kelly Wiler",
      "website": "https://girlupcycledstudio.com/",
      "phone": "+1-740-297-0656",
      "addr_state": "OH",
      "addr_city": "Zanesville",
      "addr_postcode": "43701",
      "addr_street": "Muskingum Avenue",
      "addr_housenumber": "126",
      "angle": 190.66839435367214
    },
    {
      "id": 2854,
      "geometry": "POINT (-82.009797 39.936432)",
      "poi_name": "BunkoJess Gallery",
      "osm_id": 10054538061,
      "tourism": "gallery",
      "opening_hours": "Fr-Sa 12:00-18:00, Su-Th off",
      "operator": "Jessica Spires",
      "website": "https://www.bunkojess.com/",
      "phone": "+1-740-819-0668",
      "addr_state": "OH",
      "addr_city": "Zanesville",
      "addr_postcode": "43701",
      "addr_street": "Muskingum Avenue",
      "addr_housenumber": "126",
      "angle": 190.6673955081676
    },
    {
      "id": 3614,
      "geometry": "POINT (-81.679713 41.500971)",
      "poi_name": "Bonfoey Gallery",
      "osm_id": 5497146455,
      "tourism": "gallery",
      "fee": "no",
      "opening_hours": "Mo-Fr 09:00-17:00; Sa 09:00-13:00",
      "angle": 243.79930699071804
    },
    {
      "id": 4324,
      "geometry": "POINT (-80.721727 40.067225)",
      "poi_name": "Studio 66",
      "osm_id": 11218862197,
      "tourism": "gallery",
      "angle": 154.52557058300505
    },
    {
      "id": 4495,
      "geometry": "POINT (-83.112132 42.407638)",
      "poi_name": "333 Midland",
      "osm_id": 11274844427,
      "tourism": "gallery",
      "addr_state": "MI",
      "addr_city": "Highland Park",
      "addr_postcode": "48203",
      "addr_street": "Midland Street",
      "addr_housenumber": "333",
      "angle": 309.0144520383287
    },
    {
      "id": 4496,
      "geometry": "POINT (-83.11168 42.407978)",
      "poi_name": "Annex Gallery at 333 Midland",
      "osm_id": 11274844428,
      "tourism": "gallery",
      "addr_state": "MI",
      "addr_city": "Highland Park",
      "addr_postcode": "48203",
      "addr_street": "Midland Street",
      "addr_housenumber": "333",
      "angle": 309.03356029298635
    },
    {
      "id": 4697,
      "geometry": "POINT (-81.81578 41.477695)",
      "poi_name": "Artists Uncorked",
      "osm_id": 11392705725,
      "tourism": "gallery",
      "angle": 253.02187435021017
    },
    {
      "id": 4767,
      "geometry": "POINT (-81.524048 40.719766)",
      "poi_name": "Billy Jacobs Art Gallery",
      "osm_id": 9598737631,
      "tourism": "gallery",
      "angle": 174.70113177968608
    },
    {
      "id": 4892,
      "geometry": "POINT (-83.234768 42.40755)",
      "poi_name": "Norwest Gallery of Art",
      "osm_id": 9671300979,
      "tourism": "gallery",
      "opening_hours": "We-Sa 12:00-18:00 open \"by appointment\"",
      "operator": "Norwest Gallery of Art LLC",
      "website": "https://www.norwestgallery.com/",
      "phone": "+1 313-293-7344",
      "angle": 306.86632489772006
    },
    {
      "id": 4954,
      "geometry": "POINT (-82.493094 42.715226)",
      "poi_name": "The Mariner LLC",
      "osm_id": 9695148984,
      "tourism": "gallery",
      "opening_hours": "Tu-Sa 11:00-17:00; Su 12:00-16:00",
      "operator": "Laura Scaccia",
      "website": "https://mariner-mc.com",
      "phone": "+1-810-765-5155",
      "addr_state": "MI",
      "addr_city": "Marine City",
      "addr_postcode": "48039",
      "addr_street": "South Water Street",
      "addr_housenumber": "430",
      "angle": 331.75582024641307
    },
    {
      "id": 4986,
      "geometry": "POINT (-83.197847 42.268548)",
      "poi_name": "Blue Elephant Studio Gallery",
      "osm_id": 9707506484,
      "tourism": "gallery",
      "website": "http://blueelephantstudiogallery.com",
      "phone": "+1-313-740-7184",
      "addr_state": "MI",
      "addr_city": "Allen Park",
      "addr_postcode": "48101",
      "addr_street": "Allen Road",
      "addr_housenumber": "4607",
      "angle": 302.8870865588227
    },
    {
      "id": 5213,
      "geometry": "POINT (-82.519208 40.067637)",
      "poi_name": "Art @ 43023",
      "osm_id": 9800440118,
      "tourism": "gallery",
      "addr_state": "OH",
      "addr_city": "Granville",
      "addr_postcode": "43023",
      "addr_street": "East Broadway",
      "addr_housenumber": "125",
      "angle": 205.4100831509402
    },
    {
      "id": 7891,
      "geometry": "POINT (-80.014676 40.568496)",
      "poi_name": "Cantellops Art Gallery",
      "osm_id": 6452586515,
      "tourism": "gallery",
      "operator": "La Roche University",
      "angle": 127.56427114890303
    },
    {
      "id": 8692,
      "geometry": "POINT (-83.040911 42.330582)",
      "poi_name": "DuMouchelle's",
      "osm_id": 8625901868,
      "tourism": "gallery",
      "fee": "no",
      "addr_state": "MI",
      "addr_city": "Detroit",
      "addr_postcode": "48226",
      "addr_street": "East Jefferson Avenue",
      "addr_housenumber": "409",
      "angle": 307.8042991331879
    },
    {
      "id": 8734,
      "geometry": "POINT (-83.06476 42.328909)",
      "poi_name": "Reyes | Finn",
      "osm_id": 8656203815,
      "tourism": "gallery",
      "addr_state": "MI",
      "addr_city": "Detroit",
      "addr_postcode": "48216",
      "addr_street": "Trumbull Street",
      "addr_housenumber": "1500",
      "angle": 307.2954813453241
    },
    {
      "id": 9701,
      "geometry": "POINT (-81.898988 41.419561)",
      "poi_name": "Bottle & Bottega",
      "osm_id": 8944836844,
      "tourism": "gallery",
      "addr_state": "OH",
      "addr_city": "North Olmsted",
      "addr_postcode": "44070",
      "addr_street": "Brookpark Road",
      "addr_housenumber": "25102",
      "angle": 243.83352474998833
    },
    {
      "id": 9809,
      "geometry": "POINT (-80.817851 41.237025)",
      "poi_name": "Trumbull Art Gallery",
      "osm_id": 9000022674,
      "tourism": "gallery",
      "opening_hours": "Tu-Sa 12:00-16:00 || \"by appointment\"",
      "phone": "(=1-330) 395-4876",
      "addr_state": "OH",
      "addr_city": "Warren",
      "addr_postcode": "44481",
      "addr_street": "North Park Avenue",
      "addr_housenumber": "158",
      "angle": 114.96347033252844
    },
    {
      "id": 9986,
      "geometry": "POINT (-80.202381 42.005387)",
      "poi_name": "Hooks Gallery",
      "osm_id": 9092381741,
      "tourism": "gallery",
      "addr_state": "PA",
      "addr_city": "Fairview",
      "addr_postcode": "16415",
      "addr_street": "Bear Creek Road",
      "addr_housenumber": "8271",
      "angle": 65.08757605718998
    },
    {
      "id": 11060,
      "geometry": "POINT (-80.676122 41.099294)",
      "poi_name": "Weller Gallery",
      "osm_id": 9840217052,
      "tourism": "gallery",
      "angle": 120.36787099315363
    },
    {
      "id": 11397,
      "geometry": "POINT (-79.640486 41.921402)",
      "poi_name": "Painted Finch Gallery",
      "osm_id": 9958095308,
      "tourism": "gallery",
      "addr_state": "PA",
      "addr_city": "Corry",
      "addr_postcode": "16407",
      "addr_street": "North Center Street",
      "addr_housenumber": "32",
      "angle": 74.29637351615838
    },
    {
      "id": 11594,
      "geometry": "POINT (-82.007642 39.939507)",
      "poi_name": "The Elk's Eye Art Market",
      "osm_id": 10015304497,
      "tourism": "gallery",
      "opening_hours": "Mo,We,Fr,Sa 10:00-18:00, Tu,Th,Su off",
      "operator": "Carol Bridwell",
      "phone": "+1-740-319-1673",
      "addr_state": "OH",
      "addr_city": "Zanesville",
      "addr_postcode": "43701",
      "addr_street": "South 4th Street",
      "addr_housenumber": "22",
      "angle": 190.629091317028
    },
    {
      "id": 11636,
      "geometry": "POINT (-82.008466 39.940884)",
      "poi_name": "The Art Loft",
      "osm_id": 11459367620,
      "tourism": "gallery",
      "website": "https://www.theartloftzanesville.com/",
      "phone": "+1-740-819-8369",
      "addr_state": "OH",
      "addr_city": "Zanesville",
      "addr_postcode": "43701",
      "addr_street": "North 3rd Street",
      "addr_housenumber": "26",
      "angle": 190.6601668590481
    },
    {
      "id": 13894,
      "geometry": "POINT (-83.047118 42.334528)",
      "poi_name": "Library Street Collective",
      "osm_id": 4173480357,
      "tourism": "gallery",
      "angle": 307.821233737932
    },
    {
      "id": 13904,
      "geometry": "POINT (-82.67998 41.60057)",
      "poi_name": "Charles Herndon Gallery",
      "osm_id": 4177048590,
      "tourism": "gallery",
      "operator": "Charles Herndon",
      "addr_state": "OH",
      "addr_city": "Kelleys Island",
      "addr_street": "Laylin Lane",
      "addr_housenumber": "114",
      "angle": 275.9701780987977
    },
    {
      "id": 14055,
      "geometry": "POINT (-81.347627 41.150364)",
      "poi_name": "The Crawford Gallery",
      "osm_id": 4216849746,
      "tourism": "gallery",
      "operator": "Kent State University",
      "website": "https://www.kent.edu/galleries/student-galleries",
      "angle": 150.85077324831815
    },
    {
      "id": 14056,
      "geometry": "POINT (-81.347628 41.150415)",
      "poi_name": "School of Art Collection Room",
      "osm_id": 4216850896,
      "tourism": "gallery",
      "operator": "Kent State University",
      "angle": 150.84755857508463
    },
    {
      "id": 14057,
      "geometry": "POINT (-81.347628 41.150448)",
      "poi_name": "School of Art Gallery",
      "osm_id": 4216850897,
      "description": "Summer Hours Tuesday Wed Thurs 11am-4pm",
      "tourism": "gallery",
      "opening_hours": "Tu-Fr 11:00-17:00; PH off",
      "operator": "Kent State University",
      "website": "https://www.kent.edu/galleries/cva-gallery",
      "angle": 150.84539327148394
    },
    {
      "id": 14058,
      "geometry": "POINT (-81.347628 41.150321)",
      "poi_name": "The Payto Student Gallery",
      "osm_id": 4216853080,
      "tourism": "gallery",
      "operator": "Kent State University",
      "website": "https://www.kent.edu/galleries/student-galleries",
      "angle": 150.85368765102845
    },
    {
      "id": 14349,
      "geometry": "POINT (-83.13325 42.459342)",
      "poi_name": "Lawrence St. Art Gallery",
      "osm_id": 4273770936,
      "tourism": "gallery",
      "angle": 310.230433518867
    },
    {
      "id": 14861,
      "geometry": "POINT (-83.652509 41.039658)",
      "poi_name": "Fisher/Wall Gallery",
      "osm_id": 4743664908,
      "tourism": "gallery",
      "angle": 253.18018605575426
    },
    {
      "id": 16130,
      "geometry": "POINT (-83.050284 42.337451)",
      "poi_name": "Swords Into Plowshares Gallery and Peace Center",
      "osm_id": 354021310,
      "tourism": "gallery",
      "website": "https://www.swordsintoplowsharesdetroit.org/",
      "phone": "+1-313-963-7575",
      "addr_state": "MI",
      "addr_city": "Detroit",
      "addr_postcode": "48201",
      "addr_street": "Adams Avenue East",
      "addr_housenumber": "33",
      "angle": 307.8608866107953
    },
    {
      "id": 18593,
      "geometry": "POINT (-81.571688 41.57125)",
      "poi_name": "Arts Collinwood",
      "osm_id": 2347982447,
      "tourism": "gallery",
      "angle": 37.638040528677564
    },
    {
      "id": 18887,
      "geometry": "POINT (-81.342114 41.146754)",
      "poi_name": "Michener Gallery",
      "osm_id": 2434390949,
      "tourism": "gallery",
      "operator": "Kent State University",
      "angle": 150.59835696285577
    },
    {
      "id": 19840,
      "geometry": "POINT (-79.829912 41.397336)",
      "poi_name": "Coria Jacobs Gallery LLC",
      "osm_id": 10911845564,
      "tourism": "gallery",
      "opening_hours": "Tu-Sa 11:00-18:00",
      "operator": "Coria Jacobs Gallery owned by Stephanie Coria & Reid Jacobs",
      "website": "https://www.coriajacobsgallery.com",
      "phone": "+1-814-350-5904",
      "addr_state": "PA",
      "addr_city": "Franklin",
      "addr_postcode": "16323",
      "addr_street": "Liberty Street",
      "addr_housenumber": "1243",
      "angle": 94.70585748386938
    },
    {
      "id": 19969,
      "geometry": "POINT (-80.14927 42.08451)",
      "poi_name": "V Gallery",
      "osm_id": 7792397535,
      "tourism": "gallery",
      "addr_state": "PA",
      "addr_city": "Erie",
      "addr_postcode": "16506",
      "addr_street": "West 26th Street",
      "addr_housenumber": "3330",
      "angle": 62.48125069845627
    },
    {
      "id": 20073,
      "geometry": "POINT (-80.142558 42.106368)",
      "poi_name": "Kada Gallery",
      "osm_id": 7854912943,
      "tourism": "gallery",
      "addr_state": "PA",
      "addr_city": "Erie",
      "addr_postcode": "16505",
      "addr_street": "West 8th Street",
      "addr_housenumber": "2632",
      "angle": 61.68791590432653
    },
    {
      "id": 20149,
      "geometry": "POINT (-83.171298 41.116509)",
      "poi_name": "The Poignon Project Art Studio & Gallery",
      "osm_id": 7900351133,
      "tourism": "gallery",
      "angle": 251.35223378912696
    },
    {
      "id": 21522,
      "geometry": "POINT (-82.218411 41.291507)",
      "poi_name": "The Studio Gallery & Lyceum",
      "osm_id": 10299282116,
      "tourism": "gallery",
      "angle": 242.9913820206496
    },
    {
      "id": 21524,
      "geometry": "POINT (-82.215556 41.291107)",
      "poi_name": "Foldspace",
      "osm_id": 10299332475,
      "tourism": "gallery",
      "angle": 242.83814540057816
    },
    {
      "id": 21525,
      "geometry": "POINT (-82.21716 41.29116)",
      "poi_name": "Gingko Gallery & Studio",
      "osm_id": 10299340214,
      "tourism": "gallery",
      "fee": "no",
      "angle": 242.90701575630737
    },
    {
      "id": 21526,
      "geometry": "POINT (-82.217151 41.29132)",
      "poi_name": "Verite Glass",
      "osm_id": 10299342826,
      "tourism": "gallery",
      "fee": "no",
      "angle": 242.92278250641763
    },
    {
      "id": 21527,
      "geometry": "POINT (-82.217607 41.291055)",
      "poi_name": "The Workshop",
      "osm_id": 10299396548,
      "tourism": "gallery",
      "fee": "no",
      "opening_hours": "We,Fr,Sa 10:00-15:00",
      "angle": 242.91417272675778
    },
    {
      "id": 21700,
      "geometry": "POINT (-82.365571 41.421903)",
      "poi_name": "the art scene",
      "osm_id": 10608857978,
      "tourism": "gallery",
      "fee": "no",
      "angle": 260.06281932137676
    },
    {
      "id": 21701,
      "geometry": "POINT (-82.364783 41.421821)",
      "poi_name": "Nautical Art Gallery",
      "osm_id": 10608906591,
      "tourism": "gallery",
      "fee": "no",
      "angle": 260.04385976026106
    },
    {
      "id": 21702,
      "geometry": "POINT (-82.364339 41.42126)",
      "poi_name": "Main Street Vermillion",
      "osm_id": 10608921563,
      "tourism": "gallery",
      "fee": "no",
      "opening_hours": "Mo-Fr 10:00-16:00",
      "angle": 259.9819993382333
    },
    {
      "id": 21784,
      "geometry": "POINT (-83.213824 42.545655)",
      "poi_name": "TYP Collection",
      "osm_id": 10678631717,
      "tourism": "gallery",
      "addr_state": "MI",
      "addr_city": "Birmingham",
      "addr_postcode": "48009",
      "addr_street": "East Merrill Street",
      "addr_housenumber": "261",
      "angle": 311.29912226351433
    },
    {
      "id": 21858,
      "geometry": "POINT (-80.082898 42.125208)",
      "poi_name": "D' Hopkins Denniston Gallery",
      "osm_id": 10695616124,
      "tourism": "gallery",
      "addr_state": "PA",
      "addr_city": "Erie",
      "addr_postcode": "16501",
      "addr_street": "West 10th Street",
      "addr_housenumber": "5",
      "angle": 61.84826246729985
    },
    {
      "id": 21862,
      "geometry": "POINT (-80.079042 42.120935)",
      "poi_name": "City Gallery",
      "osm_id": 10697087137,
      "tourism": "gallery",
      "addr_state": "PA",
      "addr_city": "Erie",
      "addr_postcode": "16501",
      "addr_street": "State Street",
      "addr_housenumber": "1503",
      "angle": 62.073584927405385
    },
    {
      "id": 22517,
      "geometry": "POINT (-82.518601 40.0681)",
      "poi_name": "Kussmaul Gallery",
      "osm_id": 7128709828,
      "tourism": "gallery",
      "phone": "+17405874640",
      "addr_state": "OH",
      "addr_city": "Granville",
      "addr_postcode": "43023",
      "addr_street": "East Broadway",
      "addr_housenumber": "140",
      "angle": 205.4019238208372
    },
    {
      "id": 23398,
      "geometry": "POINT (-80.654023 41.102288)",
      "poi_name": "Tom Kraker Gallery of Art",
      "osm_id": 5170168084,
      "tourism": "gallery",
      "angle": 119.60738246348352
    },
    {
      "id": 23799,
      "geometry": "POINT (-83.190058 42.197142)",
      "poi_name": "PASC Art Studio",
      "osm_id": 9145709817,
      "tourism": "gallery",
      "addr_state": "MI",
      "addr_city": "Southgate",
      "addr_postcode": "48195",
      "addr_street": "Eureka Road",
      "addr_housenumber": "13721",
      "angle": 300.44563739450416
    },
    {
      "id": 23862,
      "geometry": "POINT (-81.36147 41.657895)",
      "poi_name": "WonderCleveland",
      "osm_id": 9168575294,
      "tourism": "gallery",
      "angle": 55.185000825599275
    },
    {
      "id": 24252,
      "geometry": "POINT (-83.149444 42.204024)",
      "poi_name": "Sharon Sims Gallery",
      "osm_id": 10981430168,
      "tourism": "gallery",
      "addr_state": "MI",
      "addr_city": "Wyandotte",
      "addr_postcode": "48192",
      "addr_street": "Biddle Avenue",
      "addr_housenumber": "2922",
      "angle": 301.3430554243319
    },
    {
      "id": 24461,
      "geometry": "POINT (-81.537079 41.467265)",
      "poi_name": "District Gallery",
      "osm_id": 11064167796,
      "tourism": "gallery",
      "angle": 130.81063103467505
    },
    {
      "id": 24462,
      "geometry": "POINT (-81.537801 41.466566)",
      "poi_name": "The Creative Pioneer",
      "osm_id": 11064170347,
      "tourism": "gallery",
      "angle": 131.4109330100613
    },
    {
      "id": 24694,
      "geometry": "POINT (-82.004336 39.940113)",
      "poi_name": "Zanesville Appalachian Arts Project",
      "osm_id": 11173650105,
      "tourism": "gallery",
      "opening_hours": "Th-Su 13:00-17:00, Mo-We off",
      "addr_state": "OH",
      "addr_city": "Zanesville",
      "addr_postcode": "43701",
      "addr_street": "Main Street",
      "addr_housenumber": "625",
      "angle": 190.54384662042446
    },
    {
      "id": 25841,
      "geometry": "POINT (-81.71129 41.489852)",
      "poi_name": "Spaces",
      "osm_id": 4621058813,
      "tourism": "gallery",
      "angle": 244.20387463691438
    },
    {
      "id": 26028,
      "geometry": "POINT (-81.550837 41.084623)",
      "poi_name": "Woodrow Nash Art Gallery",
      "osm_id": 5765775263,
      "tourism": "gallery",
      "addr_state": "OH",
      "addr_city": "Akron",
      "addr_postcode": "44320",
      "addr_street": "Copley Road",
      "addr_housenumber": "800",
      "angle": 172.99886641907364
    },
    {
      "id": 26267,
      "geometry": "POINT (-83.650265 41.374404)",
      "poi_name": "Bowling Green High School Student Artwork",
      "osm_id": 5830252261,
      "tourism": "gallery",
      "operator": "Bowling Green City Schools",
      "addr_state": "OH",
      "addr_city": "Bowling Green",
      "addr_postcode": "43402",
      "addr_street": "South Main Street",
      "addr_housenumber": "123 1/2",
      "angle": 265.133848364098
    },
    {
      "id": 26637,
      "geometry": "POINT (-83.063357 42.354852)",
      "poi_name": "Detroit Artists Market",
      "osm_id": 5952663839,
      "tourism": "gallery",
      "opening_hours": "Tu-Sa 11:00-18:00",
      "shop": "art",
      "wikidata": "Q5265857",
      "addr_state": "MI",
      "addr_city": "Detroit",
      "addr_postcode": "48201",
      "addr_street": "Woodward Avenue",
      "addr_housenumber": "4719",
      "angle": 308.2016913865123
    },
    {
      "id": 26836,
      "geometry": "POINT (-80.163447 42.101358)",
      "poi_name": "Artlore Studio",
      "osm_id": 7574244111,
      "tourism": "gallery",
      "addr_state": "PA",
      "addr_city": "Erie",
      "addr_postcode": "16505",
      "addr_street": "West Lake Road",
      "addr_housenumber": "3406",
      "angle": 61.56303477391269
    },
    {
      "id": 26894,
      "geometry": "POINT (-83.061868 42.355093)",
      "poi_name": "N\u2019Namdi",
      "osm_id": 7616152990,
      "tourism": "gallery",
      "opening_hours": "Tu-Sa 11:00-18:00",
      "operator": "The N\u2019Namdi Center for Contemporary Art",
      "website": "https://nnamdicenter.org/",
      "phone": "+1 313-831-8700",
      "addr_state": "MI",
      "addr_city": "Detroit",
      "addr_postcode": "48201",
      "addr_street": "East Forest Avenue",
      "addr_housenumber": "52",
      "angle": 308.23795198105535
    }
  ],
  "answer_type": "angle",
  "question_entities": {
    "[1]": {
      "main_category": "tourism",
      "sub_category": "gallery"
    },
    "[2]": {
      "distance": 180000,
      "text": "180 kilometers"
    },
    "[3]": {
      "main_category": "leisure",
      "sub_category": "garden",
      "display_name": "Irish Cultural Garden, Cleveland, OH",
      "geo_wkt": "POINT (-81.621886 41.522378)",
      "poi": {
        "id": 247028,
        "geometry": "POINT (-81.621886 41.522378)",
        "poi_name": "Irish Cultural Garden",
        "osm_id": 8567373881,
        "leisure": "garden",
        "fee": "no",
        "addr_state": "OH",
        "addr_city": "Cleveland",
        "addr_street": "Martin Luther King Junior Drive",
        "addr_housenumber": "1201"
      }
    }
  },
  "id": 1002,
  "type": "range+angle"
}