{
  "question": "Which restaurant can I find along the route to Wellington Reservation, Wellington, OH within 180 kilometers from Go Ape Treetop Adventure Course, Strongsville, OH?",
  "sql": "WITH\n    angle AS (SELECT degrees(ST_Azimuth(ST_GeomFromText('POINT (-81.818381 41.322133)',4326)::geography, ST_GeomFromText('POINT (-82.231694 41.147108)',4326)::geography)) AS value)\nSELECT * FROM pois,angle\nWHERE amenity = 'restaurant'\nAND ST_DWithin(pois.geometry, ST_GeomFromText('POINT (-81.818381 41.322133)',4326)::geography, 180000)\nAND (degrees(ST_Azimuth(ST_GeomFromText('POINT (-81.818381 41.322133)',4326)::geography, pois.geometry)) BETWEEN angle.value - 22.5 AND angle.value + 22.5);\n",
  "answers": [
    {
      "id": 28419,
      "geometry": "POINT (-82.724735 41.057358)",
      "poi_name": "Uncle Dudley's",
      "osm_id": 479716145,
      "amenity": "restaurant",
      "value": 240.84511630203997
    },
    {
      "id": 28905,
      "geometry": "POINT (-83.017762 40.166017)",
      "poi_name": "Asian Buffet",
      "osm_id": 8266189780,
      "amenity": "restaurant",
      "cuisine": "asian",
      "value": 240.84511630203997
    },
    {
      "id": 28906,
      "geometry": "POINT (-83.018119 40.165986)",
      "poi_name": "Cake Walk Indian Restaurant and Bakery",
      "osm_id": 8266189785,
      "amenity": "restaurant",
      "cuisine": "indian;bakery",
      "value": 240.84511630203997
    },
    {
      "id": 28907,
      "geometry": "POINT (-83.020427 40.157398)",
      "poi_name": "Iguanas Mexican Restaurant & Bar",
      "osm_id": 8266189799,
      "amenity": "restaurant",
      "cuisine": "mexican",
      "value": 240.84511630203997
    },
    {
      "id": 29551,
      "geometry": "POINT (-83.650786 41.059254)",
      "poi_name": "Pizza Hut",
      "osm_id": 8311132273,
      "amenity": "restaurant",
      "cuisine": "pizza",
      "addr_state": "OH",
      "addr_city": "Findlay",
      "addr_postcode": "45840",
      "value": 240.84511630203997
    },
    {
      "id": 38477,
      "geometry": "POINT (-81.834614 41.312096)",
      "poi_name": "Pizza Hut",
      "osm_id": 2867825434,
      "amenity": "restaurant",
      "cuisine": "pizza",
      "value": 240.84511630203997
    },
    {
      "id": 31662,
      "geometry": "POINT (-82.514728 40.761694)",
      "poi_name": "Swavory",
      "osm_id": 8440867647,
      "amenity": "restaurant",
      "opening_hours": "Mo-Sa 10:00-17:00",
      "website": "https://swavory@outlook.com/",
      "phone": "+1-567-560-8237",
      "addr_state": "OH",
      "addr_city": "Mansfield",
      "addr_postcode": "44902",
      "addr_street": "East Temple Court",
      "addr_housenumber": "21",
      "value": 240.84511630203997
    },
    {
      "id": 39800,
      "geometry": "POINT (-82.602124 41.247635)",
      "poi_name": "Star Diner",
      "osm_id": 2940529789,
      "amenity": "restaurant",
      "cuisine": "american",
      "value": 240.84511630203997
    },
    {
      "id": 39101,
      "geometry": "POINT (-83.613606 41.052124)",
      "poi_name": "Asian Grill",
      "osm_id": 2903183531,
      "amenity": "restaurant",
      "cuisine": "asian",
      "phone": "+1-419-420-8080",
      "takeaway": "yes",
      "outdoor_seating": "no",
      "delivery": "no",
      "addr_state": "OH",
      "addr_city": "Findlay",
      "addr_postcode": "45840",
      "addr_street": "Tiffin Avenue",
      "addr_housenumber": "1813",
      "value": 240.84511630203997
    },
    {
      "id": 39102,
      "geometry": "POINT (-83.615357 41.051971)",
      "poi_name": "Rancho Fiesta",
      "osm_id": 2903183532,
      "amenity": "restaurant",
      "cuisine": "mexican",
      "website": "http://www.ranchofiestafindlay.com/",
      "addr_city": "Findlay",
      "addr_postcode": "45840",
      "value": 240.84511630203997
    },
    {
      "id": 43134,
      "geometry": "POINT (-83.592339 41.058422)",
      "poi_name": "City Barbeque",
      "osm_id": 3095046782,
      "amenity": "restaurant",
      "cuisine": "barbecue",
      "value": 240.84511630203997
    },
    {
      "id": 39902,
      "geometry": "POINT (-83.65047 41.036444)",
      "poi_name": "Scramblers",
      "osm_id": 2948688334,
      "amenity": "restaurant",
      "cuisine": "american",
      "opening_hours": "06:30-15:00; PH off",
      "internet_access": "wlan",
      "phone": "+1-419-423-2121",
      "takeaway": "no",
      "delivery": "no",
      "addr_state": "OH",
      "addr_city": "Findlay",
      "addr_postcode": "45840",
      "addr_street": "South Main Street",
      "addr_housenumber": "516",
      "value": 240.84511630203997
    },
    {
      "id": 40024,
      "geometry": "POINT (-83.131918 40.077636)",
      "poi_name": "Casa Patron",
      "osm_id": 2955126736,
      "amenity": "restaurant",
      "cuisine": "mexican",
      "opening_hours": "11:00-22:00",
      "capacity": "100",
      "addr_state": "OH",
      "addr_city": "Dublin",
      "addr_postcode": "43017",
      "addr_street": "Parkcenter Circle",
      "addr_housenumber": "6094",
      "value": 240.84511630203997
    },
    {
      "id": 40028,
      "geometry": "POINT (-83.131991 40.07758)",
      "poi_name": "Noodles & Company",
      "osm_id": 2955196573,
      "amenity": "restaurant",
      "cuisine": "pasta",
      "opening_hours": "11:00-21:00",
      "capacity": "80",
      "addr_state": "OH",
      "addr_city": "Dublin",
      "addr_postcode": "43017",
      "addr_street": "Parkcenter Circle",
      "addr_housenumber": "6104",
      "value": 240.84511630203997
    },
    {
      "id": 40029,
      "geometry": "POINT (-83.13192 40.077712)",
      "poi_name": "Ronin Restaurant",
      "osm_id": 2955198233,
      "amenity": "restaurant",
      "cuisine": "sushi",
      "opening_hours": "11:00-22:00",
      "capacity": "80",
      "addr_state": "OH",
      "addr_city": "Dublin",
      "addr_postcode": "43017",
      "addr_street": "Parkcenter Circle",
      "addr_housenumber": "6100",
      "value": 240.84511630203997
    },
    {
      "id": 43081,
      "geometry": "POINT (-83.60445 41.054663)",
      "poi_name": "The Toasted Yolk Cafe",
      "osm_id": 3093411055,
      "amenity": "restaurant",
      "opening_hours": "Mo-Su 07:00-15:00",
      "value": 240.84511630203997
    },
    {
      "id": 43135,
      "geometry": "POINT (-83.59118 41.058411)",
      "poi_name": "Punjabi Kitchen",
      "osm_id": 3095047262,
      "amenity": "restaurant",
      "cuisine": "indian",
      "phone": "+1-419-424-9700",
      "addr_state": "OH",
      "addr_city": "Findlay",
      "addr_postcode": "45840",
      "addr_street": "Flag City Drive",
      "addr_housenumber": "15085",
      "value": 240.84511630203997
    },
    {
      "id": 43136,
      "geometry": "POINT (-83.59669 41.057148)",
      "poi_name": "Bellachinos",
      "osm_id": 3095047980,
      "amenity": "restaurant",
      "cuisine": "pizza",
      "website": "https://bellacinos.com/",
      "phone": "+1 419-423-4299",
      "takeaway": "yes",
      "delivery": "yes",
      "addr_state": "OH",
      "addr_city": "Findlay",
      "addr_postcode": "45840",
      "addr_street": "Tiffin Avenue",
      "addr_housenumber": "20320",
      "value": 240.84511630203997
    },
    {
      "id": 47569,
      "geometry": "POINT (-83.591026 40.650422)",
      "poi_name": "Royal Buffet",
      "osm_id": 3333288538,
      "amenity": "restaurant",
      "cuisine": "asian",
      "phone": "+1-419-673-0882",
      "addr_state": "OH",
      "addr_city": "Kenton",
      "addr_postcode": "43326",
      "addr_street": "East Columbus Street",
      "addr_housenumber": "952",
      "value": 240.84511630203997
    },
    {
      "id": 47570,
      "geometry": "POINT (-83.601883 40.648561)",
      "poi_name": "Jolene's Cozy Cafe",
      "osm_id": 3333311644,
      "amenity": "restaurant",
      "phone": "+1-419-674-4551",
      "addr_state": "OH",
      "addr_city": "Kenton",
      "addr_postcode": "43326",
      "addr_street": "East Columbus Street",
      "addr_housenumber": "507",
      "value": 240.84511630203997
    },
    {
      "id": 47551,
      "geometry": "POINT (-83.142851 40.083998)",
      "poi_name": "Jet's Pizza",
      "osm_id": 3331206563,
      "amenity": "restaurant",
      "cuisine": "pizza",
      "opening_hours": "Mo-Th 10:00-22:00; Fr-Sa 10:00-23:00; Su 10:00-22:00",
      "website": "https://jetspizza.com/stores/ohio/upper-arlington/4740-reed-rd",
      "phone": "+1-614-764-4500",
      "delivery": "yes",
      "addr_state": "OH",
      "addr_city": "Dublin",
      "addr_postcode": "43016",
      "addr_street": "Woerner Temple Rd",
      "addr_housenumber": "5691",
      "value": 240.84511630203997
    },
    {
      "id": 47571,
      "geometry": "POINT (-83.609373 40.647367)",
      "poi_name": "Table One",
      "osm_id": 3333329702,
      "amenity": "restaurant",
      "cuisine": "american",
      "phone": "+1-419-674-3400",
      "addr_state": "OH",
      "addr_city": "Kenton",
      "addr_postcode": "43326",
      "addr_street": "North Detroit Street",
      "addr_housenumber": "1",
      "value": 240.84511630203997
    },
    {
      "id": 47572,
      "geometry": "POINT (-83.609335 40.648094)",
      "poi_name": "Jitterz Coffee Co",
      "osm_id": 3333332733,
      "amenity": "restaurant",
      "cuisine": "coffee_shop",
      "phone": "+1-419-675-0901",
      "addr_state": "OH",
      "addr_city": "Kenton",
      "addr_postcode": "43326",
      "addr_street": "North Detroit Street",
      "addr_housenumber": "23",
      "value": 240.84511630203997
    },
    {
      "id": 47573,
      "geometry": "POINT (-83.608213 40.64624)",
      "poi_name": "Fillin' Station",
      "osm_id": 3333369085,
      "amenity": "restaurant",
      "cuisine": "sandwich",
      "phone": "+1-419-674-4455",
      "addr_state": "OH",
      "addr_city": "Kenton",
      "addr_postcode": "43326",
      "addr_street": "South Main Street",
      "addr_housenumber": "130",
      "value": 240.84511630203997
    },
    {
      "id": 47576,
      "geometry": "POINT (-83.609078 40.645566)",
      "poi_name": "Michael Angelo's Pizza",
      "osm_id": 3334325702,
      "amenity": "restaurant",
      "cuisine": "pizza",
      "phone": "+1-419-673-7101",
      "addr_state": "OH",
      "addr_city": "Kenton",
      "addr_postcode": "43326",
      "addr_street": "South Detroit Street",
      "addr_housenumber": "215",
      "value": 240.84511630203997
    },
    {
      "id": 47578,
      "geometry": "POINT (-83.593406 40.652062)",
      "poi_name": "En Lai Chinese",
      "osm_id": 3334346089,
      "amenity": "restaurant",
      "cuisine": "chinese",
      "phone": "+1-419-675-2382",
      "addr_state": "OH",
      "addr_city": "Kenton",
      "addr_postcode": "43326",
      "addr_street": "East Columbus Street",
      "addr_housenumber": "955",
      "value": 240.84511630203997
    },
    {
      "id": 47579,
      "geometry": "POINT (-83.610878 40.647391)",
      "poi_name": "Jimmy's Pizza",
      "osm_id": 3334347374,
      "amenity": "restaurant",
      "cuisine": "pizza",
      "phone": "+1-419-675-3529",
      "addr_state": "OH",
      "addr_city": "Kenton",
      "addr_postcode": "43326",
      "addr_street": "West Franklin Street",
      "addr_housenumber": "306",
      "value": 240.84511630203997
    },
    {
      "id": 47584,
      "geometry": "POINT (-83.58486 40.65675)",
      "poi_name": "Salsa's Mexican Buffet/Grill",
      "osm_id": 3334674526,
      "amenity": "restaurant",
      "cuisine": "mexican",
      "phone": "+1 419 674 4343",
      "addr_state": "OH",
      "addr_city": "Kenton",
      "addr_postcode": "43326",
      "addr_street": "SR 67 E / East Columbus St",
      "addr_housenumber": "1235",
      "value": 240.84511630203997
    },
    {
      "id": 54729,
      "geometry": "POINT (-83.075884 40.158198)",
      "poi_name": "Huli Huli Tiki Lounge",
      "osm_id": 10151661707,
      "amenity": "restaurant",
      "value": 240.84511630203997
    },
    {
      "id": 52524,
      "geometry": "POINT (-83.11192 40.313389)",
      "poi_name": "Shanghai Chinese Restaurant",
      "osm_id": 10033597371,
      "amenity": "restaurant",
      "cuisine": "chinese",
      "value": 240.84511630203997
    },
    {
      "id": 52510,
      "geometry": "POINT (-83.075039 40.158125)",
      "poi_name": "Oishi Japanese Bistro",
      "osm_id": 10032628031,
      "amenity": "restaurant",
      "cuisine": "japanese",
      "value": 240.84511630203997
    },
    {
      "id": 54315,
      "geometry": "POINT (-83.092798 40.119631)",
      "poi_name": "Jet's Pizza",
      "osm_id": 10126851865,
      "amenity": "restaurant",
      "cuisine": "pizza",
      "opening_hours": "Mo-Th 10:00-22:00; Fr-Sa 10:00-23:00; Su 10:00-22:00",
      "website": "https://www.jetspizza.com/stores/ohio/dublin/3864-hard-rd",
      "phone": "+1-614-659-0075",
      "takeaway": "only",
      "outdoor_seating": "no",
      "delivery": "yes",
      "addr_state": "OH",
      "addr_city": "Dublin",
      "addr_postcode": "43016",
      "addr_street": "Hard Rd",
      "addr_housenumber": "3864",
      "value": 240.84511630203997
    },
    {
      "id": 54501,
      "geometry": "POINT (-83.088425 40.122184)",
      "poi_name": "Siam Orchid",
      "osm_id": 10137944790,
      "amenity": "restaurant",
      "cuisine": "thai",
      "opening_hours": "Mo-Sa 11:00-14:30,16:30-21:00",
      "website": "http://siamorchidcolumbus.com/",
      "phone": "+1-614-792-1112",
      "takeaway": "yes",
      "outdoor_seating": "no",
      "delivery": "yes",
      "addr_state": "OH",
      "addr_city": "Dublin",
      "addr_postcode": "43016",
      "addr_street": "Sawmill Road",
      "addr_housenumber": "7654",
      "value": 240.84511630203997
    },
    {
      "id": 64413,
      "geometry": "POINT (-83.163058 40.104678)",
      "poi_name": "Amigo's Mexican Restaurant",
      "osm_id": 5652678663,
      "amenity": "restaurant",
      "cuisine": "mexican",
      "addr_state": "OH",
      "addr_city": "Dublin",
      "addr_postcode": "43016",
      "addr_street": "Perimeter Drive",
      "addr_housenumber": "6549",
      "value": 240.84511630203997
    },
    {
      "id": 58272,
      "geometry": "POINT (-83.044542 40.29746)",
      "poi_name": "Corner Cafe Restuarant",
      "osm_id": 5369187652,
      "amenity": "restaurant",
      "value": 240.84511630203997
    },
    {
      "id": 60510,
      "geometry": "POINT (-83.076601 40.459121)",
      "poi_name": "Belly Busters",
      "osm_id": 5469028108,
      "amenity": "restaurant",
      "value": 240.84511630203997
    },
    {
      "id": 60718,
      "geometry": "POINT (-83.037414 40.293205)",
      "poi_name": "Tian Fu Buffet",
      "osm_id": 5476864724,
      "amenity": "restaurant",
      "value": 240.84511630203997
    },
    {
      "id": 63327,
      "geometry": "POINT (-82.337581 40.85409)",
      "poi_name": "lotus",
      "osm_id": 5610576228,
      "amenity": "restaurant",
      "addr_street": "Claremont Avenue",
      "addr_housenumber": "1616",
      "value": 240.84511630203997
    },
    {
      "id": 64590,
      "geometry": "POINT (-82.599282 41.249573)",
      "poi_name": "Pizza Post",
      "osm_id": 5659112421,
      "amenity": "restaurant",
      "cuisine": "pizza",
      "website": "NorwalkPizzaPost.com",
      "internet_access": "wlan",
      "phone": "+1-419-6680-8385",
      "addr_state": "OH",
      "addr_city": "Norwalk",
      "addr_street": "East Main Street",
      "addr_housenumber": "222 1/2",
      "value": 240.84511630203997
    },
    {
      "id": 66587,
      "geometry": "POINT (-83.110283 40.105269)",
      "poi_name": "Kitchen Social",
      "osm_id": 11200570971,
      "amenity": "restaurant",
      "cuisine": "american",
      "opening_hours": "Mo-We 15:00-21:00; Th 11:00-21:00; Fr,Sa 11:00-22:00; Su 12:00-20:00",
      "website": "https://ourkitchensocial.com/locations/dublin/",
      "phone": "+1-614-763-1770",
      "drive_through": "no",
      "outdoor_seating": "no",
      "delivery": "no",
      "addr_state": "OH",
      "addr_city": "Dublin",
      "addr_postcode": "43017",
      "addr_street": "Longshore St",
      "addr_housenumber": "6791",
      "value": 240.84511630203997
    },
    {
      "id": 74989,
      "geometry": "POINT (-83.091121 40.149196)",
      "poi_name": "lazy Chameleon",
      "osm_id": 9705854817,
      "amenity": "restaurant",
      "value": 240.84511630203997
    },
    {
      "id": 73835,
      "geometry": "POINT (-82.615807 41.242438)",
      "poi_name": "Peking House",
      "osm_id": 9656406475,
      "amenity": "restaurant",
      "addr_street": "W Main St",
      "addr_housenumber": "2",
      "value": 240.84511630203997
    },
    {
      "id": 73838,
      "geometry": "POINT (-82.616283 41.242208)",
      "poi_name": "16 West",
      "osm_id": 9656427141,
      "amenity": "restaurant",
      "addr_street": "W Main St",
      "addr_housenumber": "16",
      "value": 240.84511630203997
    },
    {
      "id": 73839,
      "geometry": "POINT (-82.616045 41.241924)",
      "poi_name": "Berry's Restaurant",
      "osm_id": 9656460369,
      "amenity": "restaurant",
      "opening_hours": "\"temporarily closed\"",
      "addr_street": "W Main St",
      "addr_housenumber": "13",
      "value": 240.84511630203997
    },
    {
      "id": 73842,
      "geometry": "POINT (-82.614418 41.240171)",
      "poi_name": "Pizza Cravin'",
      "osm_id": 9656712840,
      "amenity": "restaurant",
      "opening_hours": "Th-Sa 16:00-22:00; Su 16:00-19:00",
      "addr_street": "Benedict Ave",
      "addr_housenumber": "64",
      "value": 240.84511630203997
    },
    {
      "id": 83139,
      "geometry": "POINT (-83.121288 40.097895)",
      "poi_name": "Jason's Deli",
      "osm_id": 1730576888,
      "amenity": "restaurant",
      "cuisine": "sandwich",
      "addr_street": "West Bridge Street",
      "addr_housenumber": "225",
      "value": 240.84511630203997
    },
    {
      "id": 77050,
      "geometry": "POINT (-82.934448 40.267395)",
      "poi_name": "Chipotle",
      "osm_id": 9805075517,
      "amenity": "restaurant",
      "value": 240.84511630203997
    },
    {
      "id": 83089,
      "geometry": "POINT (-83.066034 40.118224)",
      "poi_name": "Donatos Pizza",
      "osm_id": 1727356455,
      "amenity": "restaurant",
      "cuisine": "pizza",
      "website": "https://www.donatos.com/",
      "takeaway": "yes",
      "addr_postcode": "43235",
      "addr_street": "Hard Road",
      "addr_housenumber": "1878",
      "value": 240.84511630203997
    },
    {
      "id": 83090,
      "geometry": "POINT (-83.067517 40.116823)",
      "poi_name": "W.G. Grinders",
      "osm_id": 1727362215,
      "amenity": "restaurant",
      "cuisine": "sandwich",
      "value": 240.84511630203997
    },
    {
      "id": 86921,
      "geometry": "POINT (-83.260428 40.830713)",
      "poi_name": "Steer Barn",
      "osm_id": 1960510664,
      "amenity": "restaurant",
      "cuisine": "steak_house",
      "value": 240.84511630203997
    },
    {
      "id": 86923,
      "geometry": "POINT (-83.290506 40.832207)",
      "poi_name": "Los Arcos",
      "osm_id": 1960539455,
      "amenity": "restaurant",
      "cuisine": "mexican",
      "value": 240.84511630203997
    },
    {
      "id": 86925,
      "geometry": "POINT (-83.290423 40.828722)",
      "poi_name": "China Garden",
      "osm_id": 1960542287,
      "amenity": "restaurant",
      "cuisine": "chinese",
      "value": 240.84511630203997
    },
    {
      "id": 86926,
      "geometry": "POINT (-83.259548 40.829236)",
      "poi_name": "Great Dragon",
      "osm_id": 1960543181,
      "amenity": "restaurant",
      "cuisine": "chinese",
      "value": 240.84511630203997
    },
    {
      "id": 86927,
      "geometry": "POINT (-83.272766 40.833084)",
      "poi_name": "Stone Crossing Restaurant",
      "osm_id": 1960549856,
      "amenity": "restaurant",
      "cuisine": "american",
      "value": 240.84511630203997
    },
    {
      "id": 86929,
      "geometry": "POINT (-83.300625 40.856328)",
      "poi_name": "Woody's Restaurant",
      "osm_id": 1960551174,
      "amenity": "restaurant",
      "cuisine": "american",
      "value": 240.84511630203997
    },
    {
      "id": 86930,
      "geometry": "POINT (-83.282541 40.827324)",
      "poi_name": "MJ Mugsy's",
      "osm_id": 1960559423,
      "amenity": "restaurant",
      "cuisine": "italian",
      "value": 240.84511630203997
    },
    {
      "id": 95065,
      "geometry": "POINT (-82.467359 40.781285)",
      "poi_name": "Gionino's Pizzeria",
      "osm_id": 6384996070,
      "amenity": "restaurant",
      "cuisine": "pizza",
      "opening_hours": "Mo-Th 10:30-22:00; Fr,Sa 10:30-23:00; Su 12:00-22:00",
      "website": "https://www.gioninos.com/locations/oh-mansfield-1289-ashland-rd-44905",
      "phone": "+1-419-589-7000",
      "addr_state": "OH",
      "addr_city": "Mansfield",
      "addr_postcode": "44905",
      "addr_street": "Ashland Road",
      "addr_housenumber": "1289",
      "value": 240.84511630203997
    },
    {
      "id": 94547,
      "geometry": "POINT (-82.614588 41.244814)",
      "poi_name": "Freight House",
      "osm_id": 2252973350,
      "amenity": "restaurant",
      "value": 240.84511630203997
    },
    {
      "id": 99141,
      "geometry": "POINT (-82.543135 40.722404)",
      "poi_name": "Panchos Tacos Mansfield",
      "osm_id": 6541995202,
      "amenity": "restaurant",
      "cuisine": "mexican",
      "opening_hours": "Mo-Su 11:00-22:00",
      "website": "https://panchos-tacos.business.site/",
      "phone": "+1-419-775-5002",
      "addr_state": "OH",
      "addr_city": "Mansfield",
      "addr_postcode": "44907",
      "addr_street": "Lexington Avenue",
      "addr_housenumber": "1344",
      "value": 240.84511630203997
    },
    {
      "id": 95653,
      "geometry": "POINT (-83.068431 40.298749)",
      "poi_name": "Old Dog Alehouse & Brewery",
      "osm_id": 6405232933,
      "amenity": "restaurant",
      "value": 240.84511630203997
    },
    {
      "id": 97371,
      "geometry": "POINT (-82.515309 40.759201)",
      "poi_name": "China Club",
      "osm_id": 6476367172,
      "amenity": "restaurant",
      "cuisine": "chinese",
      "opening_hours": "Mo-Th 17:00-21:00; Fr 11:00-00:30, Sa 17:00-00:30",
      "operator": "Dan Lew Exchange",
      "website": "http://www.chinaclubink.com/menu.html",
      "phone": "+1-419-522-7699",
      "addr_state": "OH",
      "addr_city": "Mansfield",
      "addr_postcode": "44902",
      "addr_street": "North Main Street",
      "addr_housenumber": "28",
      "value": 240.84511630203997
    },
    {
      "id": 97373,
      "geometry": "POINT (-82.515752 40.759605)",
      "poi_name": "Athena Greek Restaurant",
      "osm_id": 6476367174,
      "amenity": "restaurant",
      "cuisine": "greek",
      "opening_hours": "Mo-Sa 11:00-20:00",
      "website": "https://www.athenagreek.com/",
      "phone": "+1-419-524-5620",
      "addr_state": "OH",
      "addr_city": "Mansfield",
      "addr_postcode": "44902",
      "addr_street": "North Main Street",
      "addr_housenumber": "41",
      "value": 240.84511630203997
    },
    {
      "id": 97374,
      "geometry": "POINT (-82.515851 40.758032)",
      "poi_name": "Uncle John's Place",
      "osm_id": 6476367175,
      "amenity": "restaurant",
      "cuisine": "american",
      "opening_hours": "Mo-Sa 11:00-21:00; Su 11:00-24:00",
      "phone": "+1 419-526-9197",
      "addr_state": "OH",
      "addr_city": "Mansfield",
      "addr_postcode": "44902",
      "addr_street": "South Main Street",
      "addr_housenumber": "11",
      "value": 240.84511630203997
    },
    {
      "id": 97375,
      "geometry": "POINT (-82.5153 40.757879)",
      "poi_name": "Reindeer Grill",
      "osm_id": 6476367176,
      "amenity": "restaurant",
      "cuisine": "american",
      "opening_hours": "Tu-Sa 10:00-21:00",
      "addr_state": "OH",
      "addr_city": "Mansfield",
      "addr_postcode": "44902",
      "addr_street": "South Park Street",
      "addr_housenumber": "10",
      "value": 240.84511630203997
    },
    {
      "id": 97376,
      "geometry": "POINT (-82.514974 40.757861)",
      "poi_name": "Coney Island Inn Family Restaurant",
      "osm_id": 6476367177,
      "amenity": "restaurant",
      "cuisine": "american",
      "opening_hours": "Mo-Sa 05:30-20:00",
      "phone": "+1 419-525-1406",
      "addr_state": "OH",
      "addr_city": "Mansfield",
      "addr_postcode": "44902",
      "addr_street": "South Park Street",
      "addr_housenumber": "20",
      "value": 240.84511630203997
    },
    {
      "id": 97377,
      "geometry": "POINT (-82.515265 40.761202)",
      "poi_name": "Coney Island Diner",
      "osm_id": 6476367179,
      "amenity": "restaurant",
      "cuisine": "american",
      "opening_hours": "Mo-Fr 06:30-19:00; Sa 06:30-16:00",
      "website": "http://famousconeyisland.com/",
      "phone": "+1-419-526-2669",
      "addr_state": "OH",
      "addr_city": "Mansfield",
      "addr_postcode": "44902",
      "addr_street": "North Main Street",
      "addr_housenumber": "98",
      "value": 240.84511630203997
    },
    {
      "id": 97378,
      "geometry": "POINT (-82.515622 40.761309)",
      "poi_name": "Two Cousins Pizza",
      "osm_id": 6476367180,
      "amenity": "restaurant",
      "cuisine": "pizza",
      "opening_hours": "Mo 11:00-14:00; Tu-Th 11:00-19:00; Fr 11:00-21:00; Sa 12:00-21:00; Su 12:00-18:00",
      "phone": "+1-419-522-2211",
      "addr_state": "OH",
      "addr_city": "Mansfield",
      "addr_postcode": "44902",
      "addr_street": "North Main Street",
      "addr_housenumber": "103",
      "value": 240.84511630203997
    },
    {
      "id": 97379,
      "geometry": "POINT (-82.514308 40.761124)",
      "poi_name": "City Grille & Bar",
      "osm_id": 6476367183,
      "amenity": "restaurant",
      "cuisine": "american",
      "opening_hours": "Tu,We 11:00-23:00; Th,Fr 11:00-01:00, Sa 12:00-01:00",
      "website": "http://citygrilleandbar.com/",
      "phone": "+1-419-709-9199",
      "addr_state": "OH",
      "addr_city": "Mansfield",
      "addr_postcode": "44902",
      "addr_street": "East 4th Street",
      "addr_housenumber": "37",
      "value": 240.84511630203997
    },
    {
      "id": 97380,
      "geometry": "POINT (-82.513735 40.761088)",
      "poi_name": "Hudson & Essex",
      "osm_id": 6476367184,
      "amenity": "restaurant",
      "opening_hours": "Mo,We-Sa 07:00-16:00",
      "website": "https://hudsonandessex.com/",
      "phone": "+1-419-513-5151",
      "addr_state": "OH",
      "addr_city": "Mansfield",
      "addr_postcode": "44902",
      "addr_street": "East 4th Street",
      "addr_housenumber": "51",
      "value": 240.84511630203997
    },
    {
      "id": 97983,
      "geometry": "POINT (-82.786364 40.73368)",
      "poi_name": "The Wistle Stop",
      "osm_id": 6504340765,
      "amenity": "restaurant",
      "opening_hours": "Mo-Th 05:00-17:00; Fr 05:00-20:00; Sa,Su 05:00-15:00",
      "phone": "+1-419-468-1018",
      "addr_state": "OH",
      "addr_city": "Galion",
      "addr_postcode": "44833",
      "addr_street": "Harding Way East",
      "addr_housenumber": "241",
      "value": 240.84511630203997
    },
    {
      "id": 97984,
      "geometry": "POINT (-82.786839 40.733697)",
      "poi_name": "Jade Palace",
      "osm_id": 6504343424,
      "amenity": "restaurant",
      "cuisine": "chinese",
      "opening_hours": "Tu-Sa 11:00-22:00; Su 11:00-21:00",
      "website": "https://www.jadepalacegalion.com/",
      "phone": "+1-419-468-1688",
      "addr_state": "OH",
      "addr_city": "Galion",
      "addr_postcode": "44833",
      "addr_street": "Harding Way East",
      "addr_housenumber": "225",
      "value": 240.84511630203997
    },
    {
      "id": 97985,
      "geometry": "POINT (-82.787137 40.733704)",
      "poi_name": "Bistro 217",
      "osm_id": 6504343425,
      "amenity": "restaurant",
      "opening_hours": "Mo-Th 07:00-20:00; Fr,Sa 07:00-22:00; Su 07:00-15:00",
      "phone": "+1-419-462-5681",
      "addr_state": "OH",
      "addr_city": "Galion",
      "addr_postcode": "44833",
      "addr_street": "Harding Way East",
      "addr_housenumber": "217",
      "value": 240.84511630203997
    },
    {
      "id": 98937,
      "geometry": "POINT (-83.122058 40.07328)",
      "poi_name": "The Rail - Dublin",
      "osm_id": 6535793585,
      "amenity": "restaurant",
      "value": 240.84511630203997
    },
    {
      "id": 99142,
      "geometry": "POINT (-82.541309 40.722902)",
      "poi_name": "Marco's Pizza",
      "osm_id": 6541995208,
      "amenity": "restaurant",
      "cuisine": "pizza",
      "value": 240.84511630203997
    },
    {
      "id": 125670,
      "geometry": "POINT (-83.029042 40.203974)",
      "poi_name": "Scramblers",
      "osm_id": 6968001341,
      "amenity": "restaurant",
      "cuisine": "breakfast",
      "value": 240.84511630203997
    },
    {
      "id": 101035,
      "geometry": "POINT (-83.648959 41.037139)",
      "poi_name": "Jack-B's",
      "osm_id": 6610756831,
      "amenity": "restaurant",
      "cuisine": "american",
      "website": "https://jackbsfindlay.com/",
      "phone": "+1-567-294-4234",
      "addr_state": "OH",
      "addr_city": "Findlay",
      "addr_postcode": "45840",
      "addr_street": "East Sandusky Street",
      "addr_housenumber": "124",
      "value": 240.84511630203997
    },
    {
      "id": 105623,
      "geometry": "POINT (-83.113798 40.10074)",
      "poi_name": "North High Brewing",
      "osm_id": 8636932817,
      "amenity": "restaurant",
      "value": 240.84511630203997
    },
    {
      "id": 108087,
      "geometry": "POINT (-83.142846 40.084168)",
      "poi_name": "Ty GInger",
      "osm_id": 3595172471,
      "amenity": "restaurant",
      "cuisine": "asian",
      "takeaway": "yes",
      "value": 240.84511630203997
    },
    {
      "id": 110049,
      "geometry": "POINT (-83.643283 40.789546)",
      "poi_name": "Mr. Cheezy's",
      "osm_id": 3684851668,
      "amenity": "restaurant",
      "cuisine": "pizza;wings;sandwich",
      "outdoor_seating": "no",
      "value": 240.84511630203997
    },
    {
      "id": 116749,
      "geometry": "POINT (-81.834838 41.316004)",
      "poi_name": "Square 22",
      "osm_id": 8958333984,
      "amenity": "restaurant",
      "addr_state": "OH",
      "addr_city": "Strongsville",
      "addr_postcode": "44136",
      "addr_street": "Pearl Road",
      "addr_housenumber": "13485",
      "value": 240.84511630203997
    },
    {
      "id": 116752,
      "geometry": "POINT (-81.834517 41.316816)",
      "poi_name": "Master Pizza",
      "osm_id": 8958333988,
      "amenity": "restaurant",
      "cuisine": "pizza",
      "addr_state": "OH",
      "addr_city": "Strongsville",
      "addr_postcode": "44136",
      "addr_street": "Pearl Road",
      "addr_housenumber": "13311",
      "value": 240.84511630203997
    },
    {
      "id": 120549,
      "geometry": "POINT (-83.363422 40.236441)",
      "poi_name": "Leon's Garage",
      "osm_id": 6710511935,
      "amenity": "restaurant",
      "value": 240.84511630203997
    },
    {
      "id": 108160,
      "geometry": "POINT (-83.649531 41.037157)",
      "poi_name": "Stix Restaurant",
      "osm_id": 3599083906,
      "amenity": "restaurant",
      "cuisine": "thai",
      "phone": "+1-567-525-3192",
      "addr_state": "OH",
      "addr_city": "Findlay",
      "addr_postcode": "45840",
      "addr_street": "East Sandusky Street",
      "addr_housenumber": "110",
      "value": 240.84511630203997
    },
    {
      "id": 109468,
      "geometry": "POINT (-83.614095 41.054496)",
      "poi_name": "Pizza Di Roma",
      "osm_id": 3660904988,
      "amenity": "restaurant",
      "cuisine": "pizza",
      "value": 240.84511630203997
    },
    {
      "id": 109502,
      "geometry": "POINT (-83.642668 41.022568)",
      "poi_name": "Paradise Pizza & Subs",
      "osm_id": 3662496424,
      "amenity": "restaurant",
      "cuisine": "pizza",
      "phone": "+1-419-422-9200",
      "value": 240.84511630203997
    },
    {
      "id": 109848,
      "geometry": "POINT (-83.649231 41.037139)",
      "poi_name": "Joey Fratello's Pizzeria",
      "osm_id": 3676862088,
      "amenity": "restaurant",
      "cuisine": "pizza",
      "phone": "+1-419-427-5639",
      "addr_state": "OH",
      "addr_city": "Findlay",
      "addr_postcode": "45840",
      "addr_street": "East Sandusky Street",
      "addr_housenumber": "116",
      "value": 240.84511630203997
    },
    {
      "id": 116700,
      "geometry": "POINT (-81.830376 41.314689)",
      "poi_name": "TGI Friday's",
      "osm_id": 8954745514,
      "amenity": "restaurant",
      "cuisine": "american",
      "opening_hours": "Mo-Su 10:30-23:00",
      "addr_state": "OH",
      "addr_city": "Strongsville",
      "addr_postcode": "44136",
      "addr_street": "Royalton Road",
      "addr_housenumber": "18400",
      "value": 240.84511630203997
    },
    {
      "id": 116701,
      "geometry": "POINT (-81.828074 41.314353)",
      "poi_name": "Blue Habanero",
      "osm_id": 8954748834,
      "amenity": "restaurant",
      "cuisine": "mexican",
      "addr_state": "OH",
      "addr_city": "Strongsville",
      "addr_postcode": "44136",
      "addr_street": "Royalton Road",
      "addr_housenumber": "18066",
      "value": 240.84511630203997
    },
    {
      "id": 125674,
      "geometry": "POINT (-83.026645 40.202408)",
      "poi_name": "Taipei",
      "osm_id": 6968044885,
      "amenity": "restaurant",
      "cuisine": "chinese",
      "value": 240.84511630203997
    },
    {
      "id": 125676,
      "geometry": "POINT (-83.02642 40.201602)",
      "poi_name": "Jet's Pizza",
      "osm_id": 6968044899,
      "amenity": "restaurant",
      "cuisine": "pizza",
      "value": 240.84511630203997
    },
    {
      "id": 125678,
      "geometry": "POINT (-83.072063 40.264804)",
      "poi_name": "Dragon House",
      "osm_id": 6968049466,
      "amenity": "restaurant",
      "cuisine": "chinese",
      "value": 240.84511630203997
    },
    {
      "id": 125682,
      "geometry": "POINT (-83.069036 40.273793)",
      "poi_name": "Asahi Japanese Restaurant",
      "osm_id": 6968077717,
      "amenity": "restaurant",
      "cuisine": "japanese",
      "value": 240.84511630203997
    },
    {
      "id": 132814,
      "geometry": "POINT (-83.067118 40.289936)",
      "poi_name": "El Vaquero Mexican Restaurant",
      "osm_id": 9968254907,
      "amenity": "restaurant",
      "cuisine": "mexican",
      "addr_street": "Wootring Street",
      "addr_housenumber": "33",
      "value": 240.84511630203997
    },
    {
      "id": 129248,
      "geometry": "POINT (-82.52795 40.738381)",
      "poi_name": "The Old Bag of Nails Pub",
      "osm_id": 8225498896,
      "amenity": "restaurant",
      "opening_hours": "Mo-Th 11:00-22:00, Fr-Sa 11:00-23:00, Su 11:00-21:00",
      "website": "https://www.oldbagofnails.com",
      "phone": "+1-419-775-5937",
      "addr_state": "OH",
      "addr_city": "Mansfield",
      "addr_postcode": "44907",
      "addr_street": "Lexington Avenue",
      "addr_housenumber": "625",
      "value": 240.84511630203997
    },
    {
      "id": 131303,
      "geometry": "POINT (-82.976539 40.808909)",
      "poi_name": "Breezzy\u2019s Pizza",
      "osm_id": 9908439917,
      "amenity": "restaurant",
      "value": 240.84511630203997
    },
    {
      "id": 144816,
      "geometry": "POINT (-83.092156 40.093528)",
      "poi_name": "Curry Up",
      "osm_id": 7289224339,
      "amenity": "restaurant",
      "cuisine": "indian",
      "value": 240.84511630203997
    },
    {
      "id": 136508,
      "geometry": "POINT (-83.381884 40.238348)",
      "poi_name": "Tubby's Pizza",
      "osm_id": 11587651973,
      "amenity": "restaurant",
      "cuisine": "pizza",
      "value": 240.84511630203997
    },
    {
      "id": 136797,
      "geometry": "POINT (-83.13462 40.158722)",
      "poi_name": "Dell's Homemade Ice-Cream & Coffee",
      "osm_id": 6071385625,
      "amenity": "restaurant",
      "value": 240.84511630203997
    },
    {
      "id": 136798,
      "geometry": "POINT (-83.133087 40.156485)",
      "poi_name": "George's Pizza",
      "osm_id": 6071385626,
      "amenity": "restaurant",
      "value": 240.84511630203997
    },
    {
      "id": 140101,
      "geometry": "POINT (-83.649972 41.040776)",
      "poi_name": "QQ Garden",
      "osm_id": 6231398624,
      "amenity": "restaurant",
      "cuisine": "chinese",
      "phone": "+1 419-427-8801",
      "outdoor_seating": "no",
      "value": 240.84511630203997
    },
    {
      "id": 142984,
      "geometry": "POINT (-83.109502 40.10255)",
      "poi_name": "Urban Meyer's Pint House",
      "osm_id": 6326730731,
      "amenity": "restaurant",
      "cuisine": "american",
      "opening_hours": "Mo-We 16:00-00:00; Th 16:00-02:00; Fr,Sa 11:00-02:00; Su 11:00-24:00",
      "website": "https://urbanspinthouse.com/",
      "phone": "+1-614-389-7856",
      "drive_through": "no",
      "outdoor_seating": "yes",
      "delivery": "no",
      "addr_state": "OH",
      "addr_city": "Dublin",
      "addr_postcode": "43017",
      "addr_street": "Longshore Street",
      "addr_housenumber": "6632",
      "value": 240.84511630203997
    },
    {
      "id": 142258,
      "geometry": "POINT (-83.352692 40.233403)",
      "poi_name": "Benny's Pizza",
      "osm_id": 6308581791,
      "amenity": "restaurant",
      "cuisine": "pizza",
      "value": 240.84511630203997
    },
    {
      "id": 144862,
      "geometry": "POINT (-83.109469 40.10222)",
      "poi_name": "Rebol",
      "osm_id": 7291760863,
      "amenity": "restaurant",
      "cuisine": "juice;bowl",
      "opening_hours": "Mo-Th 07:00-20:00; Fr 07:00-21:00; Sa 08:00-21:00; Su 08:00-20:00",
      "website": "https://www.wearerebol.com/locations/rebol-dublin/",
      "phone": "+1-614-389-4751",
      "takeaway": "yes",
      "outdoor_seating": "yes",
      "delivery": "yes",
      "addr_state": "OH",
      "addr_city": "Dublin",
      "addr_postcode": "43017",
      "addr_street": "Longshore Street",
      "addr_housenumber": "6608",
      "value": 240.84511630203997
    },
    {
      "id": 144863,
      "geometry": "POINT (-83.10873 40.102293)",
      "poi_name": "Local Cantina",
      "osm_id": 7291760864,
      "amenity": "restaurant",
      "cuisine": "mexican",
      "opening_hours": "Mo 11:00-00:30; Tu-Su 11:00-02:30",
      "website": "https://www.localcantina.com",
      "phone": "+1-614-389-1684",
      "takeaway": "yes",
      "drive_through": "no",
      "outdoor_seating": "yes",
      "delivery": "yes",
      "addr_state": "OH",
      "addr_city": "Dublin",
      "addr_postcode": "43017",
      "addr_street": "Bridge Park Avenue",
      "addr_housenumber": "4537",
      "value": 240.84511630203997
    },
    {
      "id": 144864,
      "geometry": "POINT (-83.108788 40.102559)",
      "poi_name": "Fukuryu Ramen",
      "osm_id": 7291760865,
      "amenity": "restaurant",
      "cuisine": "noodle;japanese",
      "opening_hours": "12:00-20:00; We off; Th-Sa 12:00-20:30",
      "website": "https://www.fukuryuramen.com/bridgepark",
      "phone": "+1-614-553-7392",
      "takeaway": "yes",
      "drive_through": "no",
      "outdoor_seating": "yes",
      "delivery": "yes",
      "addr_state": "OH",
      "addr_city": "Dublin",
      "addr_postcode": "43017",
      "addr_street": "Bridge Park Avenue",
      "addr_housenumber": "4540",
      "value": 240.84511630203997
    },
    {
      "id": 144865,
      "geometry": "POINT (-83.109987 40.102947)",
      "poi_name": "Cap City Diner",
      "osm_id": 7291760866,
      "amenity": "restaurant",
      "cuisine": "american",
      "value": 240.84511630203997
    },
    {
      "id": 154381,
      "geometry": "POINT (-83.65004 41.037494)",
      "poi_name": "the bistro",
      "osm_id": 4236467982,
      "amenity": "restaurant",
      "cuisine": "american",
      "opening_hours": "Mo-Fr 11:00-14:30, Mo-Th 17:00-22:00, Fr-Sa 17:00-23:00; PH off",
      "phone": "+1-419-425-4900",
      "takeaway": "yes",
      "addr_state": "OH",
      "addr_city": "Findlay",
      "addr_postcode": "45840",
      "addr_street": "South Main Street",
      "addr_housenumber": "407",
      "value": 240.84511630203997
    },
    {
      "id": 147911,
      "geometry": "POINT (-82.828076 40.376857)",
      "poi_name": "Legacy Restaurant & Bar",
      "osm_id": 7571299440,
      "amenity": "restaurant",
      "value": 240.84511630203997
    },
    {
      "id": 153183,
      "geometry": "POINT (-83.628274 41.04985)",
      "poi_name": "Pizza Hut",
      "osm_id": 4182295689,
      "amenity": "restaurant",
      "cuisine": "pizza",
      "opening_hours": "Mo-Tu 11:00-22:00; We,Th,Su 11:00-23:00; Fr-Sa 11:00-24:00; PH off",
      "takeaway": "yes",
      "delivery": "yes",
      "addr_state": "OH",
      "addr_city": "Findlay",
      "addr_postcode": "45840",
      "addr_street": "Tiffin Avenue",
      "value": 240.84511630203997
    },
    {
      "id": 153184,
      "geometry": "POINT (-83.633675 41.048345)",
      "poi_name": "Padrone's Pizza",
      "osm_id": 4182313491,
      "amenity": "restaurant",
      "value": 240.84511630203997
    },
    {
      "id": 154336,
      "geometry": "POINT (-83.650479 41.037523)",
      "poi_name": "Japan West",
      "osm_id": 4233014302,
      "amenity": "restaurant",
      "cuisine": "japanese",
      "opening_hours": "Mo-Fr 11:30-14:00, 17:00-22:00; PH off",
      "website": "http://www.japanwestfindlay.com/",
      "takeaway": "yes",
      "delivery": "no",
      "addr_state": "OH",
      "addr_city": "Findlay",
      "addr_postcode": "45840",
      "addr_street": "South Main Street",
      "addr_housenumber": "406",
      "value": 240.84511630203997
    },
    {
      "id": 154186,
      "geometry": "POINT (-83.513241 41.108796)",
      "poi_name": "Kathy's Korner Restaurant",
      "osm_id": 4227548359,
      "amenity": "restaurant",
      "value": 240.84511630203997
    },
    {
      "id": 156103,
      "geometry": "POINT (-81.919443 41.312232)",
      "poi_name": "Sundae Funday's",
      "osm_id": 4640115541,
      "amenity": "restaurant",
      "cuisine": "pizza",
      "takeaway": "only",
      "outdoor_seating": "yes",
      "addr_state": "OH",
      "addr_city": "Columbia Station",
      "addr_postcode": "44028",
      "addr_street": "Royalton Road",
      "addr_housenumber": "25145",
      "value": 240.84511630203997
    },
    {
      "id": 154999,
      "geometry": "POINT (-83.113605 40.099442)",
      "poi_name": "Donatos Pizza",
      "osm_id": 4265370081,
      "amenity": "restaurant",
      "cuisine": "pizza",
      "takeaway": "yes",
      "value": 240.84511630203997
    },
    {
      "id": 155034,
      "geometry": "POINT (-83.115192 40.099197)",
      "poi_name": "La Chatelaine",
      "osm_id": 4267001778,
      "amenity": "restaurant",
      "cuisine": "french",
      "addr_state": "OH",
      "addr_city": "Dublin",
      "addr_postcode": "43017",
      "addr_street": "East Bridge Street",
      "addr_housenumber": "65",
      "value": 240.84511630203997
    },
    {
      "id": 155035,
      "geometry": "POINT (-83.113961 40.0994)",
      "poi_name": "Jeni's Splendid Ice Cream",
      "osm_id": 4267002026,
      "amenity": "restaurant",
      "cuisine": "ice_cream",
      "takeaway": "yes",
      "addr_state": "OH",
      "addr_city": "Dublin",
      "addr_postcode": "43017",
      "addr_street": "West Bridge Street",
      "addr_housenumber": "1",
      "value": 240.84511630203997
    },
    {
      "id": 155036,
      "geometry": "POINT (-83.114081 40.099835)",
      "poi_name": "Mr. Sushi",
      "osm_id": 4267006588,
      "amenity": "restaurant",
      "cuisine": "japanese",
      "opening_hours": "Mo-Th 11:00-22:00, Fr 11:00-22:30, Sa 12:00-22:30, Su 17:00-21:00; PH off",
      "addr_state": "OH",
      "addr_city": "Dublin",
      "addr_postcode": "43017",
      "addr_street": "High Street",
      "addr_housenumber": "3",
      "value": 240.84511630203997
    },
    {
      "id": 155039,
      "geometry": "POINT (-83.114462 40.100256)",
      "poi_name": "Tucci's",
      "osm_id": 4267013405,
      "amenity": "restaurant",
      "value": 240.84511630203997
    },
    {
      "id": 155040,
      "geometry": "POINT (-83.114431 40.100451)",
      "poi_name": "Harvest Pizza",
      "osm_id": 4267014585,
      "amenity": "restaurant",
      "cuisine": "pizza",
      "opening_hours": "Mo-Th 11:00-22:00; Fr,Sa 11:00-23:00",
      "website": "https://www.harvestpizzeria.com/menu/dublin-menu/",
      "phone": "+1-614-726-9919",
      "addr_state": "OH",
      "addr_city": "Dublin",
      "addr_postcode": "43017",
      "addr_street": "North High Street",
      "addr_housenumber": "45",
      "value": 240.84511630203997
    },
    {
      "id": 158135,
      "geometry": "POINT (-82.809548 40.544579)",
      "poi_name": "Pine Lakes  Restaurant",
      "osm_id": 4736866980,
      "amenity": "restaurant",
      "website": "http://www.pinelakesgolfohio.com/",
      "phone": "+1-419-946-1856",
      "addr_state": "OH",
      "addr_city": "Mount Gilead",
      "addr_postcode": "43338",
      "addr_street": "East High Street",
      "addr_housenumber": "901",
      "value": 240.84511630203997
    },
    {
      "id": 157925,
      "geometry": "POINT (-82.828814 40.548606)",
      "poi_name": "Cheng's Gourmet",
      "osm_id": 4729300474,
      "amenity": "restaurant",
      "cuisine": "chinese",
      "phone": "+1-419-946-3888",
      "delivery": "yes",
      "addr_state": "OH",
      "addr_city": "Mount Gilead",
      "addr_postcode": "43338",
      "addr_street": "South Main Street",
      "addr_housenumber": "23",
      "value": 240.84511630203997
    },
    {
      "id": 158338,
      "geometry": "POINT (-83.130935 40.153285)",
      "poi_name": "Shanghai Lily",
      "osm_id": 4743514709,
      "amenity": "restaurant",
      "cuisine": "chinese",
      "value": 240.84511630203997
    },
    {
      "id": 160778,
      "geometry": "POINT (-82.150033 41.207532)",
      "poi_name": "Pheasant run Inn",
      "osm_id": 4846801510,
      "amenity": "restaurant",
      "addr_state": "OH",
      "addr_city": "Lagrange",
      "addr_postcode": "44050",
      "addr_street": "pheasant run dr",
      "addr_housenumber": "1",
      "value": 240.84511630203997
    },
    {
      "id": 159545,
      "geometry": "POINT (-82.828586 40.54956)",
      "poi_name": "The Rusty Horseshoe",
      "osm_id": 4797219679,
      "amenity": "restaurant",
      "opening_hours": "Mo-Sa 06:00-19:00; Su 08:00-19:00",
      "phone": "+1-419-751-7084",
      "outdoor_seating": "no",
      "addr_state": "OH",
      "addr_city": "Mount Gilead",
      "addr_postcode": "43338",
      "addr_street": "North Main Street",
      "addr_housenumber": "11-13",
      "value": 240.84511630203997
    },
    {
      "id": 160525,
      "geometry": "POINT (-82.59315 40.760776)",
      "poi_name": "Hong Kong Buffet",
      "osm_id": 4837401214,
      "amenity": "restaurant",
      "cuisine": "chinese",
      "opening_hours": "Mo-Su 11:00-22:00",
      "phone": "+1 419-529-8678",
      "addr_state": "OH",
      "addr_city": "Ontario",
      "addr_postcode": "44906",
      "addr_street": "North Lexington Springmill Road",
      "addr_housenumber": "331",
      "value": 240.84511630203997
    },
    {
      "id": 168217,
      "geometry": "POINT (-83.65296 41.05266)",
      "poi_name": "Henderson Dining Hall",
      "osm_id": 368155169,
      "amenity": "restaurant",
      "website": "https://www.findlay.edu/offices/student/dining/Henderson",
      "delivery": "no",
      "addr_state": "OH",
      "value": 240.84511630203997
    },
    {
      "id": 163391,
      "geometry": "POINT (-82.925842 40.261074)",
      "poi_name": "Rise Pies",
      "osm_id": 9414244150,
      "amenity": "restaurant",
      "cuisine": "pizza",
      "value": 240.84511630203997
    },
    {
      "id": 161563,
      "geometry": "POINT (-82.975441 40.811073)",
      "poi_name": "Little Athens",
      "osm_id": 4888020313,
      "amenity": "restaurant",
      "cuisine": "greek",
      "value": 240.84511630203997
    },
    {
      "id": 163257,
      "geometry": "POINT (-83.349775 40.236787)",
      "poi_name": "Applebee's",
      "osm_id": 9408919579,
      "amenity": "restaurant",
      "cuisine": "american",
      "official_name": "Applebee's Neighborhood Grill & Bar",
      "value": 240.84511630203997
    },
    {
      "id": 178718,
      "geometry": "POINT (-82.513764 40.761208)",
      "poi_name": "Prohibition at the Caverns",
      "osm_id": 10736399205,
      "amenity": "restaurant",
      "value": 240.84511630203997
    },
    {
      "id": 172471,
      "geometry": "POINT (-83.649553 41.06774)",
      "poi_name": "Flag City Pizza",
      "osm_id": 2404139269,
      "amenity": "restaurant",
      "cuisine": "pizza",
      "value": 240.84511630203997
    },
    {
      "id": 172785,
      "geometry": "POINT (-83.650031 41.038368)",
      "poi_name": "The Greek Garden",
      "osm_id": 2413526316,
      "amenity": "restaurant",
      "cuisine": "greek",
      "addr_state": "OH",
      "addr_city": "Findlay",
      "addr_postcode": "45840",
      "addr_street": "South Main Street",
      "addr_housenumber": "321",
      "value": 240.84511630203997
    },
    {
      "id": 175206,
      "geometry": "POINT (-83.087899 40.15684)",
      "poi_name": "Gooseneck Tavern",
      "osm_id": 2508664904,
      "amenity": "restaurant",
      "value": 240.84511630203997
    },
    {
      "id": 175207,
      "geometry": "POINT (-83.093758 40.160366)",
      "poi_name": "Cherry Berry",
      "osm_id": 2508672634,
      "amenity": "restaurant",
      "cuisine": "frozen_yogurt",
      "value": 240.84511630203997
    },
    {
      "id": 175209,
      "geometry": "POINT (-83.092321 40.147706)",
      "poi_name": "Victoria",
      "osm_id": 2508689132,
      "amenity": "restaurant",
      "cuisine": "italian",
      "value": 240.84511630203997
    },
    {
      "id": 169454,
      "geometry": "POINT (-83.089472 40.115716)",
      "poi_name": "Anna's Greek Cuisine",
      "osm_id": 2301014213,
      "amenity": "restaurant",
      "cuisine": "greek",
      "addr_city": "Columbus",
      "addr_postcode": "43235",
      "addr_street": "Sawmill Road",
      "addr_housenumber": "7370",
      "value": 240.84511630203997
    },
    {
      "id": 180397,
      "geometry": "POINT (-83.113294 40.099772)",
      "poi_name": "Bridge Street Pizza",
      "osm_id": 10799826663,
      "amenity": "restaurant",
      "cuisine": "pizza",
      "opening_hours": "Tu-Th 12:00-22:00; Fr-Sa 12:00-23:00; Su 16:00-22:00",
      "website": "http://www.bridgestreetpizza.us/",
      "phone": "+1-614-761-3169",
      "addr_city": "Dublin",
      "addr_postcode": "43017",
      "addr_street": "East Bridge Street",
      "addr_housenumber": "16",
      "value": 240.84511630203997
    },
    {
      "id": 185999,
      "geometry": "POINT (-83.414834 41.157454)",
      "poi_name": "Fostoria Pizza Palace",
      "osm_id": 7901631369,
      "amenity": "restaurant",
      "cuisine": "pizza",
      "addr_state": "OH",
      "addr_city": "Fostoria",
      "addr_street": "West Center Street",
      "addr_housenumber": "119",
      "value": 240.84511630203997
    },
    {
      "id": 184249,
      "geometry": "POINT (-83.113936 40.101536)",
      "poi_name": "The Pearl",
      "osm_id": 7778235485,
      "amenity": "restaurant",
      "addr_street": "North High Street",
      "addr_housenumber": "88",
      "value": 240.84511630203997
    },
    {
      "id": 198291,
      "geometry": "POINT (-82.494976 40.757953)",
      "poi_name": "The Golden Burrito Mexican Grill",
      "osm_id": 10697032520,
      "amenity": "restaurant",
      "cuisine": "mexican",
      "opening_hours": "Mo-Sa 11:00-21:00, Su 12:00-20:00",
      "website": "https://thegoldenburrito.net/",
      "phone": "+1-419-610-8217",
      "takeaway": "yes",
      "outdoor_seating": "yes",
      "addr_state": "OH",
      "addr_city": "Mansfield",
      "addr_postcode": "44905",
      "addr_street": "Park Avenue East",
      "addr_housenumber": "574",
      "value": 240.84511630203997
    },
    {
      "id": 188005,
      "geometry": "POINT (-83.089377 40.11609)",
      "poi_name": "Sunflower",
      "osm_id": 1124058998,
      "amenity": "restaurant",
      "cuisine": "chinese",
      "opening_hours": "Mo-Th 11:30-23:00; Fr 11:30+; Sa 11:00+; Su 11:00-22:00",
      "phone": "+1-614-764-7888",
      "addr_state": "OH",
      "addr_city": "Columbus",
      "addr_postcode": "43235",
      "addr_street": "Sawmill Road",
      "addr_housenumber": "7370",
      "value": 240.84511630203997
    },
    {
      "id": 188484,
      "geometry": "POINT (-83.090451 40.156858)",
      "poi_name": "Noodles & Company",
      "osm_id": 1156505188,
      "amenity": "restaurant",
      "cuisine": "pasta",
      "value": 240.84511630203997
    },
    {
      "id": 188486,
      "geometry": "POINT (-83.090276 40.157418)",
      "poi_name": "Kogen",
      "osm_id": 1156505203,
      "amenity": "restaurant",
      "value": 240.84511630203997
    },
    {
      "id": 198259,
      "geometry": "POINT (-82.218853 41.168991)",
      "poi_name": "Dog Tracks Diner",
      "osm_id": 10695557378,
      "amenity": "restaurant",
      "cuisine": "diner",
      "opening_hours": "Mo-Fr 06:30-21:00; Sa 07:00-21:00; Su 07:00-15:00",
      "value": 240.84511630203997
    },
    {
      "id": 198262,
      "geometry": "POINT (-82.217637 41.168184)",
      "poi_name": "Pizza House",
      "osm_id": 10695624470,
      "amenity": "restaurant",
      "cuisine": "pizza",
      "phone": "+4406474348",
      "value": 240.84511630203997
    },
    {
      "id": 202375,
      "geometry": "POINT (-83.603929 41.053964)",
      "poi_name": "Golden Flames Asian Bistro Express",
      "osm_id": 7022291205,
      "amenity": "restaurant",
      "cuisine": "asian",
      "addr_state": "OH",
      "addr_city": "Findlay",
      "addr_postcode": "45840",
      "addr_street": "Tiffin Avenue",
      "value": 240.84511630203997
    },
    {
      "id": 201101,
      "geometry": "POINT (-83.163458 40.104677)",
      "poi_name": "Buffalo Wild Wings",
      "osm_id": 612014685,
      "amenity": "restaurant",
      "cuisine": "wings",
      "addr_state": "OH",
      "addr_city": "Dublin",
      "addr_postcode": "43016",
      "addr_street": "Perimeter Drive",
      "value": 240.84511630203997
    },
    {
      "id": 201110,
      "geometry": "POINT (-83.161038 40.106374)",
      "poi_name": "Matt the Miller",
      "osm_id": 612724713,
      "amenity": "restaurant",
      "value": 240.84511630203997
    },
    {
      "id": 201111,
      "geometry": "POINT (-83.157862 40.103944)",
      "poi_name": "Alladin's",
      "osm_id": 612725726,
      "amenity": "restaurant",
      "value": 240.84511630203997
    },
    {
      "id": 201112,
      "geometry": "POINT (-83.156864 40.103998)",
      "poi_name": "First Watch",
      "osm_id": 612726070,
      "amenity": "restaurant",
      "cuisine": "american;breakfast",
      "value": 240.84511630203997
    },
    {
      "id": 201776,
      "geometry": "POINT (-82.716515 41.042059)",
      "poi_name": "Country Kitchen",
      "osm_id": 657676298,
      "amenity": "restaurant",
      "cuisine": "american",
      "value": 240.84511630203997
    },
    {
      "id": 219314,
      "geometry": "POINT (-83.068002 40.290986)",
      "poi_name": "Pizza Hut",
      "osm_id": 9325414308,
      "amenity": "restaurant",
      "cuisine": "pizza",
      "addr_state": "OH",
      "addr_city": "Delaware",
      "addr_postcode": "43015",
      "addr_street": "South Sandusky Street",
      "addr_housenumber": "241",
      "value": 240.84511630203997
    },
    {
      "id": 203684,
      "geometry": "POINT (-83.206782 41.112872)",
      "poi_name": "TJ Willies",
      "osm_id": 7097620766,
      "amenity": "restaurant",
      "value": 240.84511630203997
    },
    {
      "id": 203685,
      "geometry": "POINT (-83.206133 41.112969)",
      "poi_name": "Fu Lin Buffet",
      "osm_id": 7097620767,
      "amenity": "restaurant",
      "cuisine": "chinese",
      "addr_state": "OH",
      "addr_city": "Tiffin",
      "addr_housenumber": "686",
      "value": 240.84511630203997
    },
    {
      "id": 204924,
      "geometry": "POINT (-83.650005 41.039994)",
      "poi_name": "Rossili's",
      "osm_id": 7150300733,
      "amenity": "restaurant",
      "addr_state": "OH",
      "addr_city": "Findlay",
      "addr_postcode": "45840",
      "addr_street": "South Main Street",
      "value": 240.84511630203997
    },
    {
      "id": 206290,
      "geometry": "POINT (-82.560872 40.75775)",
      "poi_name": "China Club",
      "osm_id": 7204359710,
      "amenity": "restaurant",
      "cuisine": "chinese",
      "value": 240.84511630203997
    },
    {
      "id": 212651,
      "geometry": "POINT (-83.617818 41.064626)",
      "poi_name": "Fergie's Burgers, Fries, and Pies",
      "osm_id": 5216937232,
      "amenity": "restaurant",
      "cuisine": "burger;american;fries;pie;salad",
      "phone": "+1-567-250-8657",
      "takeaway": "yes",
      "drive_through": "yes",
      "addr_state": "OH",
      "addr_city": "Findlay",
      "addr_postcode": "45840",
      "addr_street": "Romick Parkway",
      "addr_housenumber": "1702",
      "value": 240.84511630203997
    },
    {
      "id": 209567,
      "geometry": "POINT (-82.592737 40.770984)",
      "poi_name": "China Buffet",
      "osm_id": 5044745336,
      "amenity": "restaurant",
      "cuisine": "chinese",
      "opening_hours": "Mo-Th 10:30-22:00; Fr-Sa 10:30-23:00; Su 11:00-23:00",
      "phone": "+1-419-528-3288",
      "addr_state": "OH",
      "addr_city": "Ontario",
      "addr_postcode": "44906",
      "addr_street": "Richland Mall",
      "addr_housenumber": "2216",
      "value": 240.84511630203997
    },
    {
      "id": 212769,
      "geometry": "POINT (-82.497789 40.763271)",
      "poi_name": "Chinatown",
      "osm_id": 5220539321,
      "amenity": "restaurant",
      "value": 240.84511630203997
    },
    {
      "id": 222490,
      "geometry": "POINT (-82.216531 41.168396)",
      "poi_name": "La Troje",
      "osm_id": 11020704938,
      "amenity": "restaurant",
      "opening_hours": "Su-Th 11:00-21:00; Fr,Sa 11:00-22:00",
      "value": 240.84511630203997
    },
    {
      "id": 222495,
      "geometry": "POINT (-82.217295 41.168705)",
      "poi_name": "Dimitri's Corner",
      "osm_id": 11020798889,
      "amenity": "restaurant",
      "cuisine": "american",
      "value": 240.84511630203997
    },
    {
      "id": 222496,
      "geometry": "POINT (-82.119429 41.23764)",
      "poi_name": "LaGrange Village Pizza",
      "osm_id": 11020870423,
      "amenity": "restaurant",
      "cuisine": "pizza",
      "opening_hours": "Tu-Th 15:00-21:00; Fr,Sa 11:00-22:00; Su 11:00-21:00",
      "value": 240.84511630203997
    },
    {
      "id": 222497,
      "geometry": "POINT (-82.116372 41.236485)",
      "poi_name": "Choo Choo's Restaurant",
      "osm_id": 11020897129,
      "amenity": "restaurant",
      "opening_hours": "Tu-Fr 07:00-14:00, Fr,Sa 07:00-15:00",
      "value": 240.84511630203997
    },
    {
      "id": 224710,
      "geometry": "POINT (-83.089932 40.116607)",
      "poi_name": "Bawarctti Biryanis",
      "osm_id": 11095224028,
      "amenity": "restaurant",
      "cuisine": "indian",
      "value": 240.84511630203997
    },
    {
      "id": 224713,
      "geometry": "POINT (-83.090529 40.102926)",
      "poi_name": "The Honey Baked Ham",
      "osm_id": 11095228211,
      "amenity": "restaurant",
      "website": "https://www.honeybaked.com/stores/8415",
      "phone": "+1-614-764-1717",
      "addr_state": "OH",
      "addr_city": "Columbus",
      "addr_postcode": "43235",
      "addr_street": "Sawmill Road",
      "addr_housenumber": "6630",
      "value": 240.84511630203997
    },
    {
      "id": 224715,
      "geometry": "POINT (-83.090376 40.100795)",
      "poi_name": "BIBIBOP",
      "osm_id": 11095230126,
      "amenity": "restaurant",
      "cuisine": "asian",
      "website": "https://bibibop.com/locations/sawmill/",
      "phone": "+1-614-623-2716",
      "addr_state": "OH",
      "addr_city": "Columbus",
      "addr_postcode": "43235",
      "addr_street": "Sawmill Road",
      "addr_housenumber": "6490",
      "value": 240.84511630203997
    },
    {
      "id": 224716,
      "geometry": "POINT (-83.090373 40.100869)",
      "poi_name": "Charleys",
      "osm_id": 11095230127,
      "amenity": "restaurant",
      "website": "https://www.charleys.com/locations/plaza-at-sawmill/",
      "phone": "+1-614-336-9960",
      "addr_state": "OH",
      "addr_city": "Columbus",
      "addr_postcode": "43235",
      "addr_street": "Sawmill Road",
      "addr_housenumber": "6496",
      "value": 240.84511630203997
    },
    {
      "id": 224717,
      "geometry": "POINT (-83.089455 40.11537)",
      "poi_name": "Pizza Hut",
      "osm_id": 11095235152,
      "amenity": "restaurant",
      "cuisine": "pizza",
      "value": 240.84511630203997
    },
    {
      "id": 226992,
      "geometry": "POINT (-83.109962 40.102174)",
      "poi_name": "Valentina's",
      "osm_id": 11176607670,
      "amenity": "restaurant",
      "cuisine": "italian",
      "opening_hours": "Mo-Th 11:30-21:00; Fr 11:30-22:00; Sa 11:00-22:00; Su 11:00-21:00",
      "website": "https://valentinasitalian.com/",
      "phone": "+1-614-957-0074",
      "drive_through": "no",
      "outdoor_seating": "yes",
      "delivery": "no",
      "addr_state": "OH",
      "addr_postcode": "43017",
      "addr_street": "Bridge Park Avenue",
      "addr_housenumber": "4595",
      "value": 240.84511630203997
    },
    {
      "id": 226993,
      "geometry": "POINT (-83.109208 40.102261)",
      "poi_name": "Kilwins",
      "osm_id": 11176607671,
      "amenity": "restaurant",
      "cuisine": "ice_cream;dessert",
      "opening_hours": "Mo-Tu 12:00-21:00; We-Th 12:00-21:30; Fr-Sa 12:00-20:00; Su 12:00-21:00",
      "website": "https://www.kilwins.com/stores/kilwins-dublin",
      "phone": "+1-614-389-0575",
      "takeaway": "yes",
      "drive_through": "no",
      "outdoor_seating": "no",
      "delivery": "no",
      "addr_state": "OH",
      "addr_city": "Dublin",
      "addr_postcode": "43017",
      "addr_street": "Bridge Park Avenue",
      "addr_housenumber": "4549",
      "value": 240.84511630203997
    },
    {
      "id": 232992,
      "geometry": "POINT (-83.367105 40.236757)",
      "poi_name": "Fiesta Grande",
      "osm_id": 4551887026,
      "amenity": "restaurant",
      "cuisine": "mexican",
      "website": "http://fiestagrandemexicanrestaurant.com",
      "phone": "+1-937-642-1918",
      "addr_state": "OH",
      "addr_city": "Marysville",
      "addr_postcode": "43040",
      "addr_street": "N Main St",
      "addr_housenumber": "109",
      "value": 240.84511630203997
    },
    {
      "id": 227914,
      "geometry": "POINT (-83.383217 40.95243)",
      "poi_name": "Moreno's Casual Dining",
      "osm_id": 4321661314,
      "amenity": "restaurant",
      "cuisine": "tex-mex",
      "takeaway": "yes",
      "delivery": "no",
      "addr_state": "OH",
      "addr_city": "Carey",
      "addr_postcode": "43316",
      "addr_street": "West Findlay Street",
      "value": 240.84511630203997
    },
    {
      "id": 228859,
      "geometry": "POINT (-83.193635 41.113351)",
      "poi_name": "Napoli Pizza",
      "osm_id": 4358204632,
      "amenity": "restaurant",
      "cuisine": "pizza",
      "phone": "+1 419-447-2242",
      "value": 240.84511630203997
    },
    {
      "id": 228861,
      "geometry": "POINT (-83.187093 41.113838)",
      "poi_name": "Paulette's",
      "osm_id": 4358211433,
      "amenity": "restaurant",
      "value": 240.84511630203997
    },
    {
      "id": 228864,
      "geometry": "POINT (-83.17711 41.114668)",
      "poi_name": "Reino's Pizza & Pasta",
      "osm_id": 4358222989,
      "amenity": "restaurant",
      "cuisine": "pizza;pasta",
      "opening_hours": "Su-Th 11:00-23:00; Fr-Sa 11:00-24:00",
      "phone": "+1-419-447-5891",
      "takeaway": "yes",
      "outdoor_seating": "yes",
      "addr_state": "OH",
      "addr_city": "Tiffin",
      "addr_postcode": "44883",
      "addr_street": "East Market Street",
      "value": 240.84511630203997
    },
    {
      "id": 228866,
      "geometry": "POINT (-83.175647 41.109742)",
      "poi_name": "Jac & Do's Pizza and Subs",
      "osm_id": 4358247251,
      "amenity": "restaurant",
      "cuisine": "pizza",
      "value": 240.84511630203997
    },
    {
      "id": 228868,
      "geometry": "POINT (-83.175753 41.110553)",
      "poi_name": "Hunan King",
      "osm_id": 4358248530,
      "amenity": "restaurant",
      "cuisine": "chinese",
      "value": 240.84511630203997
    },
    {
      "id": 228871,
      "geometry": "POINT (-83.18333 41.118434)",
      "poi_name": "Rosies Soup & Such",
      "osm_id": 4358264264,
      "amenity": "restaurant",
      "cuisine": "american",
      "value": 240.84511630203997
    },
    {
      "id": 230888,
      "geometry": "POINT (-82.737237 40.786371)",
      "poi_name": "Checkers",
      "osm_id": 4444983150,
      "amenity": "restaurant",
      "cuisine": "pizza",
      "value": 240.84511630203997
    },
    {
      "id": 230889,
      "geometry": "POINT (-82.726697 40.787778)",
      "poi_name": "Main Street Grill",
      "osm_id": 4444986439,
      "amenity": "restaurant",
      "cuisine": "american",
      "phone": "+1-419-683-3433",
      "addr_state": "OH",
      "addr_city": "Crestline",
      "addr_postcode": "44827",
      "addr_street": "East Main Street",
      "addr_housenumber": "819",
      "value": 240.84511630203997
    },
    {
      "id": 230893,
      "geometry": "POINT (-82.732458 40.787384)",
      "poi_name": "Hot Wok",
      "osm_id": 4444989834,
      "amenity": "restaurant",
      "cuisine": "chinese",
      "value": 240.84511630203997
    },
    {
      "id": 232618,
      "geometry": "POINT (-83.109329 40.090671)",
      "poi_name": "Cafe Istanbul",
      "osm_id": 4534989691,
      "amenity": "restaurant",
      "value": 240.84511630203997
    },
    {
      "id": 232825,
      "geometry": "POINT (-83.161958 40.104546)",
      "poi_name": "Kabuki Korean Restaurant and Sushi Bar",
      "osm_id": 4544354969,
      "amenity": "restaurant",
      "cuisine": "japanese",
      "website": "https://eatatkabuki.com/",
      "phone": "+1-614-336-8855",
      "addr_state": "OH",
      "addr_city": "Dublin",
      "addr_postcode": "43016",
      "addr_street": "Perimeter Drive",
      "addr_housenumber": "6395",
      "value": 240.84511630203997
    },
    {
      "id": 227399,
      "geometry": "POINT (-83.382383 40.952387)",
      "poi_name": "Carey Pizza Place",
      "osm_id": 4306673346,
      "amenity": "restaurant",
      "cuisine": "pizza",
      "value": 240.84511630203997
    },
    {
      "id": 227400,
      "geometry": "POINT (-83.380725 40.952095)",
      "poi_name": "Angelos Pizza",
      "osm_id": 4306686298,
      "amenity": "restaurant",
      "cuisine": "pizza",
      "phone": "+1-419-396-7248",
      "value": 240.84511630203997
    },
    {
      "id": 232115,
      "geometry": "POINT (-83.651566 41.036935)",
      "poi_name": "Circle of Friends",
      "osm_id": 4511180403,
      "amenity": "restaurant",
      "addr_state": "OH",
      "addr_city": "Findlay",
      "addr_postcode": "45840",
      "addr_street": "West Sandusky Street",
      "addr_housenumber": "125",
      "value": 240.84511630203997
    },
    {
      "id": 233672,
      "geometry": "POINT (-83.066405 40.300274)",
      "poi_name": "1808 American Bistro",
      "osm_id": 4583441198,
      "amenity": "restaurant",
      "cuisine": "american",
      "outdoor_seating": "yes",
      "value": 240.84511630203997
    },
    {
      "id": 233479,
      "geometry": "POINT (-83.650491 41.040854)",
      "poi_name": "Dougie John's Pizza",
      "osm_id": 4576097554,
      "amenity": "restaurant",
      "cuisine": "pizza",
      "opening_hours": "Su-Mo 15:00-21:00, Tu-Th 11:00-21:00, Fr-Sa 11:00-20:00",
      "phone": "+1 567-250-8978",
      "outdoor_seating": "yes",
      "addr_state": "OH",
      "addr_city": "Findlay",
      "addr_postcode": "45840",
      "addr_street": "South Main Street",
      "addr_housenumber": "106",
      "value": 240.84511630203997
    },
    {
      "id": 233673,
      "geometry": "POINT (-83.066742 40.300237)",
      "poi_name": "Mi Cerrito",
      "osm_id": 4583442404,
      "amenity": "restaurant",
      "cuisine": "mexican",
      "value": 240.84511630203997
    },
    {
      "id": 233674,
      "geometry": "POINT (-83.066937 40.300245)",
      "poi_name": "Veritas",
      "osm_id": 4583442881,
      "amenity": "restaurant",
      "value": 240.84511630203997
    },
    {
      "id": 233677,
      "geometry": "POINT (-83.06843 40.300341)",
      "poi_name": "Bun's",
      "osm_id": 4583446043,
      "amenity": "restaurant",
      "value": 240.84511630203997
    },
    {
      "id": 233678,
      "geometry": "POINT (-83.067876 40.299619)",
      "poi_name": "Mohio",
      "osm_id": 4583446060,
      "amenity": "restaurant",
      "value": 240.84511630203997
    },
    {
      "id": 233681,
      "geometry": "POINT (-83.067942 40.299105)",
      "poi_name": "JJ Gumbo's",
      "osm_id": 4583449074,
      "amenity": "restaurant",
      "value": 240.84511630203997
    },
    {
      "id": 233682,
      "geometry": "POINT (-83.067456 40.299276)",
      "poi_name": "Hamburger Inn Diner",
      "osm_id": 4583449075,
      "amenity": "restaurant",
      "cuisine": "burger",
      "value": 240.84511630203997
    },
    {
      "id": 233683,
      "geometry": "POINT (-83.067967 40.299029)",
      "poi_name": "Son of Thurman",
      "osm_id": 4583449076,
      "amenity": "restaurant",
      "value": 240.84511630203997
    },
    {
      "id": 233684,
      "geometry": "POINT (-83.067502 40.299122)",
      "poi_name": "Typhoon",
      "osm_id": 4583449823,
      "amenity": "restaurant",
      "cuisine": "asian",
      "value": 240.84511630203997
    },
    {
      "id": 233685,
      "geometry": "POINT (-83.068419 40.298648)",
      "poi_name": "Brooklyn Heigts Italian -American Grill",
      "osm_id": 4583449838,
      "amenity": "restaurant",
      "cuisine": "italian",
      "value": 240.84511630203997
    },
    {
      "id": 233686,
      "geometry": "POINT (-83.06809 40.298518)",
      "poi_name": "Amato's Woodfired Pizza",
      "osm_id": 4583449839,
      "amenity": "restaurant",
      "cuisine": "pizza",
      "value": 240.84511630203997
    },
    {
      "id": 237537,
      "geometry": "POINT (-83.177269 41.114398)",
      "poi_name": "Jolly's",
      "osm_id": 5837409959,
      "amenity": "restaurant",
      "cuisine": "hot_dog;sandwich;dessert",
      "addr_state": "OH",
      "addr_city": "Tiffin",
      "addr_postcode": "44883",
      "addr_street": "East Market Street",
      "addr_housenumber": "66",
      "value": 240.84511630203997
    },
    {
      "id": 235685,
      "geometry": "POINT (-82.924969 40.267652)",
      "poi_name": "Denny's",
      "osm_id": 5763201198,
      "amenity": "restaurant",
      "cuisine": "american",
      "value": 240.84511630203997
    },
    {
      "id": 236352,
      "geometry": "POINT (-83.188985 40.108783)",
      "poi_name": "Bibibop",
      "osm_id": 5790846620,
      "amenity": "restaurant",
      "addr_housenumber": "7286",
      "value": 240.84511630203997
    },
    {
      "id": 237338,
      "geometry": "POINT (-83.649435 41.037662)",
      "poi_name": "+JK Juices",
      "osm_id": 5826285078,
      "amenity": "restaurant",
      "cuisine": "juice",
      "takeaway": "yes",
      "outdoor_seating": "no",
      "delivery": "no",
      "addr_state": "OH",
      "addr_city": "Findlay",
      "addr_postcode": "45840",
      "addr_street": "East Crawford Street",
      "addr_housenumber": "117",
      "value": 240.84511630203997
    },
    {
      "id": 233782,
      "geometry": "POINT (-83.58969 41.057405)",
      "poi_name": "Stevi B's Pizza Buffet",
      "osm_id": 4587496050,
      "amenity": "restaurant",
      "cuisine": "pizza",
      "takeaway": "no",
      "addr_state": "OH",
      "addr_city": "Findlay",
      "addr_postcode": "45840",
      "value": 240.84511630203997
    },
    {
      "id": 243815,
      "geometry": "POINT (-83.109988 40.103307)",
      "poi_name": "Fado Pub and Kitchen",
      "osm_id": 7681036985,
      "amenity": "restaurant",
      "value": 240.84511630203997
    },
    {
      "id": 238874,
      "geometry": "POINT (-82.811186 40.399737)",
      "poi_name": "Main Street Market & Deli",
      "osm_id": 5896045808,
      "amenity": "restaurant",
      "addr_state": "OH",
      "addr_city": "Marengo",
      "addr_postcode": "43334",
      "addr_street": "South Main Street",
      "addr_housenumber": "31",
      "value": 240.84511630203997
    },
    {
      "id": 244073,
      "geometry": "POINT (-83.650035 41.038116)",
      "poi_name": "Amy May's",
      "osm_id": 7699019779,
      "amenity": "restaurant",
      "cuisine": "mexican",
      "value": 240.84511630203997
    },
    {
      "id": 245017,
      "geometry": "POINT (-83.114044 40.101958)",
      "poi_name": "The Avenue",
      "osm_id": 7759475385,
      "amenity": "restaurant",
      "cuisine": "steak_house",
      "opening_hours": "Mo-Th 16:00-21:00; Fr 16:00-22:00; Sa 10:00-22:00; Su 10:00-21:00",
      "website": "https://theavenuesteaktavern.com/locations-menus/dublin/",
      "phone": "+1-614-591-9000",
      "addr_state": "OH",
      "addr_city": "Dublin",
      "addr_postcode": "43017",
      "addr_street": "North High Street",
      "addr_housenumber": "94",
      "value": 240.84511630203997
    }
  ],
  "answer_type": "name",
  "question_entities": {
    "[2]": {
      "distance": 180000,
      "text": "180 kilometers"
    },
    "[3]": {
      "main_category": "tourism",
      "sub_category": "theme park",
      "display_name": "Go Ape Treetop Adventure Course, Strongsville, OH",
      "geo_wkt": "POINT (-81.818381 41.322133)",
      "poi": {
        "id": 14029,
        "geometry": "POINT (-81.818381 41.322133)",
        "poi_name": "Go Ape Treetop Adventure Course",
        "osm_id": 4214519779,
        "tourism": "theme_park",
        "operator": "Go Ape",
        "website": "https://goape.com/zip-line/mill-stream-run-reservation",
        "addr_state": "OH",
        "addr_city": "Strongsville",
        "addr_postcode": "44136",
        "addr_street": "Valley Parkway",
        "addr_housenumber": "16200"
      }
    },
    "[4]": {
      "main_category": "leisure",
      "sub_category": "nature reserve",
      "display_name": "Wellington Reservation, Wellington, OH",
      "geo_wkt": "POINT (-82.231694 41.147108)",
      "poi": {
        "id": 248135,
        "geometry": "POINT (-82.231694 41.147108)",
        "poi_name": "Wellington Reservation",
        "osm_id": 7256911177,
        "leisure": "nature_reserve",
        "website": "https://www.loraincountymetroparks.com/wellington-reservation",
        "addr_state": "OH",
        "addr_city": "Wellington",
        "addr_postcode": "44090",
        "addr_street": "Jones Road",
        "addr_housenumber": "535"
      }
    },
    "[1]": {
      "main_category": "amenity",
      "sub_category": "restaurant"
    }
  },
  "id": 1620,
  "type": "range:towards+name"
}