{
  "question": "How far away is an attraction from Island Gallery West, Holmes Beach, FL within a 100 kilometers distance?",
  "sql": "SELECT *, ST_Distance(ST_GeomFromText('POINT (-82.715421 27.505547)',4326)::geography, pois.geometry) AS distance FROM pois\nWHERE ST_DWithin(pois.geometry, ST_GeomFromText('POINT (-82.715421 27.505547)',4326)::geography, 100000)\nAND tourism = 'attraction';\n",
  "answers": [
    {
      "id": 772,
      "geometry": "POINT (-82.400924 27.792747)",
      "poi_name": "Manatee Viewing Center",
      "osm_id": 2676923692,
      "tourism": "attraction",
      "opening_hours": "Nov 01-Apr 15 10:00-17:00; Nov: Th[4] off; Dec 24-25 off; easter off",
      "operator": "TECO",
      "website": "https://www.tampaelectric.com/company/mvc/",
      "phone": "+1 (813) 228-4289",
      "addr_state": "FL",
      "addr_city": "Apollo Beach",
      "addr_postcode": "33572",
      "addr_street": "Dickman Road",
      "addr_housenumber": "6990",
      "distance": 44452.07550571
    },
    {
      "id": 800,
      "geometry": "POINT (-82.400509 27.667668)",
      "poi_name": "Camp Bayou Outdoor Learning Center",
      "osm_id": 2691657441,
      "tourism": "attraction",
      "opening_hours": "Th-Sa 09:00-14:00",
      "website": "https://campbayou.org/",
      "distance": 35909.6180918
    },
    {
      "id": 4095,
      "geometry": "POINT (-82.827781 27.976557)",
      "poi_name": "Little Toot",
      "osm_id": 5676156213,
      "tourism": "attraction",
      "distance": 53357.84867108
    },
    {
      "id": 12269,
      "geometry": "POINT (-82.465903 28.077066)",
      "poi_name": "Where he did it to em",
      "osm_id": 6270310820,
      "description": "Site of a widely-circulated photo of Twitter user LuckyLuciano17k standing on a sidewalk, wearing a light-colored shirt and shorts, captioned \"You know I had to do it to em.\" Many people make \"pilgrimages\" to this spot to recreate the photo and pose.",
      "tourism": "attraction",
      "operator": "LuckyLuciano17k",
      "addr_state": "FL",
      "addr_city": "Tampa",
      "addr_street": "Capitol Drive",
      "addr_housenumber": "14301",
      "distance": 67939.70980241
    },
    {
      "id": 15234,
      "geometry": "POINT (-82.786274 27.915308)",
      "poi_name": "Largo Central Railroad",
      "osm_id": 4833909519,
      "tourism": "attraction",
      "website": "http://www.lcrailroad.com/",
      "distance": 45942.10141907
    },
    {
      "id": 15527,
      "geometry": "POINT (-82.425036 28.035922)",
      "poi_name": "Busch Garden",
      "osm_id": 4921360121,
      "tourism": "attraction",
      "distance": 65373.05391179
    },
    {
      "id": 15600,
      "geometry": "POINT (-82.826745 27.976662)",
      "poi_name": "Sea Screamer Dolphin Tours",
      "osm_id": 9397791393,
      "tourism": "attraction",
      "website": "https://seascreamer.com/",
      "distance": 53348.10523038
    },
    {
      "id": 15816,
      "geometry": "POINT (-82.689614 27.448438)",
      "poi_name": "Passage Key Dolphin Tours",
      "osm_id": 9544864491,
      "tourism": "attraction",
      "website": "https://www.passagekeydolphintours.com",
      "phone": "941-702-2022",
      "addr_state": "FL",
      "addr_city": "Bradenton Beach",
      "addr_postcode": "34217",
      "addr_street": "Gulf Dr S",
      "addr_housenumber": "1465",
      "distance": 6823.00986193
    },
    {
      "id": 18747,
      "geometry": "POINT (-82.640519 27.814637)",
      "poi_name": "Utopiary Land",
      "osm_id": 2395247504,
      "tourism": "attraction",
      "distance": 35039.75100721
    },
    {
      "id": 19527,
      "geometry": "POINT (-81.796993 27.757311)",
      "poi_name": "W. Henry Lewis House Historical Marker",
      "osm_id": 10799846474,
      "tourism": "attraction",
      "distance": 94839.81530623
    },
    {
      "id": 19641,
      "geometry": "POINT (-82.46164 28.154268)",
      "poi_name": "Debs Whistle Stop Depot",
      "osm_id": 10858718506,
      "tourism": "attraction",
      "opening_hours": "We-Th 10:30-16:00; Fr-Sa 10:30-17:00; Su 12:00-16:00",
      "addr_street": "4th Avenue Northwest",
      "addr_housenumber": "100",
      "distance": 76112.4801009
    },
    {
      "id": 20098,
      "geometry": "POINT (-82.580905 27.525909)",
      "poi_name": "Manatee County Fair",
      "osm_id": 7866162885,
      "tourism": "attraction",
      "distance": 13480.14483288
    },
    {
      "id": 21844,
      "geometry": "POINT (-82.633661 27.376269)",
      "poi_name": "Public Beach Access Point",
      "osm_id": 10694211262,
      "tourism": "attraction",
      "operator": "Longboat Key",
      "addr_state": "FL",
      "addr_city": "Longboat Key",
      "addr_postcode": "34228",
      "addr_street": "Gulf of Mexico Drive",
      "addr_housenumber": "3355",
      "distance": 16448.50165192
    },
    {
      "id": 20206,
      "geometry": "POINT (-82.55998 27.528107)",
      "poi_name": "Lincoln Park",
      "osm_id": 7932894686,
      "tourism": "attraction",
      "distance": 15559.23099728
    },
    {
      "id": 23680,
      "geometry": "POINT (-82.261141 27.058896)",
      "poi_name": "Warm Mineral Springs",
      "osm_id": 5271146121,
      "tourism": "attraction",
      "website": "http://www.warmmineral.com",
      "phone": "+1 941-426-1692",
      "addr_postcode": "34287",
      "addr_street": "San Servando Avenue",
      "addr_housenumber": "12200",
      "distance": 66875.71855915
    },
    {
      "id": 22668,
      "geometry": "POINT (-81.965482 26.974211)",
      "poi_name": "Riverside park public boat launch",
      "osm_id": 7207314785,
      "tourism": "attraction",
      "addr_postcode": "33982",
      "addr_street": "Riverside Drive",
      "addr_housenumber": "8114",
      "distance": 94780.17374896
    },
    {
      "id": 23097,
      "geometry": "POINT (-82.63693 27.754793)",
      "poi_name": "Thrill Hill",
      "osm_id": 5036954975,
      "tourism": "attraction",
      "distance": 28685.64501086
    },
    {
      "id": 24195,
      "geometry": "POINT (-82.547468 27.443416)",
      "poi_name": "Linder Turf and Tractor",
      "osm_id": 9382191118,
      "tourism": "attraction",
      "addr_street": "15th Street East",
      "addr_housenumber": "5450",
      "distance": 17970.76711199
    },
    {
      "id": 24592,
      "geometry": "POINT (-82.113507 27.852614)",
      "poi_name": "Black Tiger Airsoft",
      "osm_id": 11128887305,
      "tourism": "attraction",
      "opening_hours": "Sa 09:00-16:00",
      "addr_postcode": "33547",
      "addr_street": "Gina Trail",
      "addr_housenumber": "3399",
      "distance": 70746.81780505
    },
    {
      "id": 24634,
      "geometry": "POINT (-82.730231 27.890536)",
      "poi_name": "Skyzone Trampoline Park",
      "osm_id": 11148822105,
      "tourism": "attraction",
      "addr_street": "66th Street North",
      "addr_housenumber": "13000",
      "distance": 42687.46036848
    },
    {
      "id": 26158,
      "geometry": "POINT (-82.462542 28.069739)",
      "poi_name": "Shooters World",
      "osm_id": 5797024553,
      "tourism": "attraction",
      "distance": 67305.62632431
    },
    {
      "id": 25228,
      "geometry": "POINT (-82.39753 28.3343)",
      "poi_name": "Florida Estates Winery",
      "osm_id": 4426863363,
      "tourism": "attraction",
      "opening_hours": "Mo-Su 11:00-18:00",
      "website": "http://www.floridaestateswines.com/",
      "shop": "wine",
      "phone": "+1 (813) 996-2113",
      "addr_state": "FL",
      "addr_city": "Land O' Lakes",
      "addr_postcode": "34639",
      "addr_street": "FL 52",
      "addr_housenumber": "25241",
      "distance": 97025.09170732
    },
    {
      "id": 25724,
      "geometry": "POINT (-82.389827 27.967252)",
      "poi_name": "Florida State Fairgrounds",
      "osm_id": 4583124690,
      "tourism": "attraction",
      "addr_postcode": "33610",
      "addr_street": "us Highway 301",
      "addr_housenumber": "4800",
      "distance": 60401.79227883
    },
    {
      "id": 26345,
      "geometry": "POINT (-82.425691 28.035196)",
      "poi_name": "Treehouse trek",
      "osm_id": 5851701863,
      "tourism": "attraction",
      "distance": 65272.56507744
    }
  ],
  "answer_type": "distance",
  "question_entities": {
    "[1]": {
      "main_category": "tourism",
      "sub_category": "attraction"
    },
    "[2]": {
      "distance": 100000,
      "text": "100 kilometers"
    },
    "[3]": {
      "main_category": "tourism",
      "sub_category": "gallery",
      "display_name": "Island Gallery West, Holmes Beach, FL",
      "geo_wkt": "POINT (-82.715421 27.505547)",
      "poi": {
        "id": 19326,
        "geometry": "POINT (-82.715421 27.505547)",
        "poi_name": "Island Gallery West",
        "osm_id": 10727117999,
        "tourism": "gallery",
        "website": "http://islandgallerywest.com/",
        "addr_state": "FL",
        "addr_city": "Holmes Beach",
        "addr_postcode": "34217",
        "addr_street": "Gulf Drive",
        "addr_housenumber": "5368"
      }
    }
  },
  "id": 794,
  "type": "range+distance"
}