{
  "question": "Is it possible for you to discover an italian restaurant that is situated within 110 kilometers of Coats Museum, Coats, NC?",
  "sql": "SELECT * FROM pois\nWHERE ST_DWithin(pois.geometry, ST_GeomFromText('POINT (-78.671628 35.406332)',4326)::geography, 110000)\nAND amenity = 'restaurant'\nAND cuisine ILIKE '%italian%';\n",
  "answers": [
    {
      "id": 32028,
      "geometry": "POINT (-78.812695 35.806651)",
      "poi_name": "Leo's Italian Social",
      "osm_id": 2619235412,
      "amenity": "restaurant",
      "cuisine": "italian",
      "website": "https://www.leositaliansocial.com/park-west-village",
      "addr_state": "NC",
      "addr_street": "Market Center Drive",
      "addr_housenumber": "1301"
    },
    {
      "id": 32782,
      "geometry": "POINT (-79.027337 35.928304)",
      "poi_name": "Alfredo's Pizza Villa",
      "osm_id": 2637778211,
      "amenity": "restaurant",
      "cuisine": "italian"
    },
    {
      "id": 33454,
      "geometry": "POINT (-78.851412 35.730804)",
      "poi_name": "Anna's Pizzeria",
      "osm_id": 2668377014,
      "amenity": "restaurant",
      "cuisine": "italian",
      "opening_hours": "Mo-Th, Su 11:00-22:00; Fr, Sa 11:00-23:00",
      "website": "https://www.annaspizzeria.com/",
      "capacity": "100",
      "addr_state": "NC",
      "addr_city": "Apex",
      "addr_postcode": "27502",
      "addr_street": "North Salem Street",
      "addr_housenumber": "100"
    },
    {
      "id": 34164,
      "geometry": "POINT (-79.096013 35.916345)",
      "poi_name": "Anna Maria's Pizzeria & Restaurant",
      "osm_id": 2696902543,
      "amenity": "restaurant",
      "cuisine": "italian",
      "phone": "+1 919 929 1877",
      "addr_state": "NC",
      "addr_city": "Carrboro",
      "addr_postcode": "27510",
      "addr_street": "NC 54",
      "addr_housenumber": "104"
    },
    {
      "id": 34978,
      "geometry": "POINT (-79.02505 35.854056)",
      "poi_name": "Tarantini",
      "osm_id": 2708074921,
      "amenity": "restaurant",
      "cuisine": "italian",
      "wheelchair": "yes",
      "website": "https://www.tarantinirestaurant.com/",
      "phone": "+1 919 942 4240",
      "addr_state": "NC",
      "addr_city": "Chapel Hill",
      "addr_postcode": "27517",
      "addr_street": "Governors Drive",
      "addr_housenumber": "50160"
    },
    {
      "id": 35766,
      "geometry": "POINT (-78.636763 35.778066)",
      "poi_name": "Caffe Luna",
      "osm_id": 2731382547,
      "amenity": "restaurant",
      "cuisine": "italian"
    },
    {
      "id": 36733,
      "geometry": "POINT (-78.638069 35.778498)",
      "poi_name": "Gravy Italian-American Kitchen",
      "osm_id": 2782527413,
      "amenity": "restaurant",
      "cuisine": "italian",
      "opening_hours": "Mo-Th 11:00-22:00;Fr 11:00-23:00;Sa 11:00-15:00,;17:00-23:00;Su 11:00-15:00,;17:00-22:00",
      "website": "http://www.gravyraleigh.com/",
      "phone": "+1 919-896-8513",
      "addr_state": "NC",
      "addr_city": "Raleigh",
      "addr_postcode": "27601",
      "addr_street": "South Wilmington Street",
      "addr_housenumber": "135"
    },
    {
      "id": 36942,
      "geometry": "POINT (-77.964148 35.743151)",
      "poi_name": "Olive Garden",
      "osm_id": 2791748045,
      "amenity": "restaurant",
      "cuisine": "italian"
    },
    {
      "id": 37152,
      "geometry": "POINT (-78.911445 36.077086)",
      "poi_name": "Ricky's Italian Pizza",
      "osm_id": 2799202994,
      "amenity": "restaurant",
      "cuisine": "italian",
      "website": "https://www.rickysnypizza.com/",
      "phone": "+1 919 477 2800",
      "addr_state": "NC",
      "addr_city": "Durham",
      "addr_postcode": "27712",
      "addr_street": "North Roxboro Street",
      "addr_housenumber": "5729"
    },
    {
      "id": 46153,
      "geometry": "POINT (-78.639598 35.77478)",
      "poi_name": "Jimmy V's Osteria + Bar",
      "osm_id": 3248742656,
      "amenity": "restaurant",
      "cuisine": "italian",
      "website": "https://www.jimmyvsraleigh.com/",
      "phone": "+1-919-256-1451",
      "addr_state": "NC",
      "addr_city": "Raleigh",
      "addr_postcode": "27601",
      "addr_street": "Fayetteville Street",
      "addr_housenumber": "420"
    },
    {
      "id": 45404,
      "geometry": "POINT (-78.65407 35.900594)",
      "poi_name": "Milton's Pizza and Pasta",
      "osm_id": 3205477894,
      "amenity": "restaurant",
      "cuisine": "italian"
    },
    {
      "id": 47182,
      "geometry": "POINT (-78.63571 35.77589)",
      "poi_name": "Vic's Italian Restaurant",
      "osm_id": 3311658572,
      "amenity": "restaurant",
      "cuisine": "italian",
      "opening_hours": "Mo-Th 11:00-22:00;Fr-Sa 11:00-23:00;Su 11:00-21:00",
      "website": "http://www.vicsitalianrestaurant.com/",
      "phone": "+1 919-829-7090"
    },
    {
      "id": 60996,
      "geometry": "POINT (-77.820094 35.955708)",
      "poi_name": "Italian Pizzeria",
      "osm_id": 5491912075,
      "amenity": "restaurant",
      "cuisine": "italian"
    },
    {
      "id": 48944,
      "geometry": "POINT (-78.690497 35.784091)",
      "poi_name": "Amedeo's",
      "osm_id": 3409118393,
      "amenity": "restaurant",
      "cuisine": "italian"
    },
    {
      "id": 54515,
      "geometry": "POINT (-78.849432 35.658663)",
      "poi_name": "Olive Garden",
      "osm_id": 10138327625,
      "amenity": "restaurant",
      "cuisine": "italian",
      "opening_hours": "Mo-Th 11:00-22:00; Fr-Sa 11:00-23:00; Su 11:00-22:00",
      "website": "https://www.olivegarden.com/locations/nc/holly-springs/holly-springs-towne-center/4441",
      "internet_access": "wlan",
      "phone": "+1-919-552-2237",
      "takeaway": "yes",
      "delivery": "yes"
    },
    {
      "id": 64192,
      "geometry": "POINT (-78.960972 35.918018)",
      "poi_name": "Treforni",
      "osm_id": 5643678976,
      "amenity": "restaurant",
      "cuisine": "pizza;italian",
      "outdoor_seating": "yes",
      "addr_state": "NC",
      "addr_city": "Durham"
    },
    {
      "id": 68055,
      "geometry": "POINT (-79.483181 36.077922)",
      "poi_name": "Mama's Italian Restaurant",
      "osm_id": 11258682319,
      "amenity": "restaurant",
      "cuisine": "italian",
      "website": "https://www.mamasitalianrestaurantmenu.com/",
      "addr_state": "NC",
      "addr_city": "Burlington",
      "addr_postcode": "27215",
      "addr_street": "Holly Hill Lane",
      "addr_housenumber": "162"
    },
    {
      "id": 66189,
      "geometry": "POINT (-79.099614 36.075006)",
      "poi_name": "Panciuto",
      "osm_id": 5732101874,
      "amenity": "restaurant",
      "cuisine": "italian",
      "addr_state": "NC",
      "addr_city": "Hillsborough",
      "addr_postcode": "27278",
      "addr_street": "South Churton Street",
      "addr_housenumber": "110"
    },
    {
      "id": 66201,
      "geometry": "POINT (-79.099629 36.075558)",
      "poi_name": "Antonia's",
      "osm_id": 5732114440,
      "amenity": "restaurant",
      "cuisine": "italian",
      "addr_state": "NC",
      "addr_city": "Hillsborough",
      "addr_postcode": "27278",
      "addr_street": "North Churton Street",
      "addr_housenumber": "101"
    },
    {
      "id": 66206,
      "geometry": "POINT (-79.054188 35.962238)",
      "poi_name": "Magone Italian Grill",
      "osm_id": 5732184321,
      "amenity": "restaurant",
      "cuisine": "italian",
      "opening_hours": "Mo-Th 11:00-21:00; Fr-Sa 11:00-21:30; Su 11:00-21:00",
      "internet_access": "wlan",
      "phone": "+1-919-904-7393",
      "addr_state": "NC",
      "addr_city": "Chapel Hill",
      "addr_postcode": "27514",
      "addr_street": "Weaver Dairy Road",
      "addr_housenumber": "1129"
    },
    {
      "id": 66225,
      "geometry": "POINT (-79.080699 36.083764)",
      "poi_name": "Vinny's Italian Grill & Pizzeria",
      "osm_id": 5732256055,
      "amenity": "restaurant",
      "cuisine": "italian",
      "website": "https://vinnyshillsborough.com/",
      "addr_state": "NC",
      "addr_city": "Hillsborough",
      "addr_postcode": "27278",
      "addr_street": "North Scotswood Boulevard",
      "addr_housenumber": "133"
    },
    {
      "id": 86570,
      "geometry": "POINT (-78.6451 35.839049)",
      "poi_name": "Vivace",
      "osm_id": 1938543735,
      "amenity": "restaurant",
      "cuisine": "italian"
    },
    {
      "id": 84676,
      "geometry": "POINT (-78.962855 34.982292)",
      "poi_name": "Sammios",
      "osm_id": 1806149729,
      "amenity": "restaurant",
      "cuisine": "italian"
    },
    {
      "id": 86517,
      "geometry": "POINT (-78.642323 35.837154)",
      "poi_name": "Cinellis Pizzeria and Restaurant",
      "osm_id": 1936226060,
      "amenity": "restaurant",
      "cuisine": "italian"
    },
    {
      "id": 86523,
      "geometry": "POINT (-78.644012 35.836251)",
      "poi_name": "Mia Francesca Trattoria",
      "osm_id": 1936235157,
      "amenity": "restaurant",
      "cuisine": "italian",
      "wheelchair": "yes",
      "website": "http://miafrancescaraleigh.com",
      "capacity": "268",
      "addr_state": "NC",
      "addr_city": "Raleigh",
      "addr_postcode": "27609",
      "addr_street": "Main at North Hills St",
      "addr_housenumber": "4100"
    },
    {
      "id": 88146,
      "geometry": "POINT (-78.880979 35.05366)",
      "poi_name": "Antonella's Ristorante",
      "osm_id": 8767057880,
      "amenity": "restaurant",
      "cuisine": "italian",
      "addr_state": "NC",
      "addr_city": "Fayetteville",
      "addr_postcode": "28301",
      "addr_street": "Hay Street",
      "addr_housenumber": "300"
    },
    {
      "id": 99675,
      "geometry": "POINT (-78.619 35.865152)",
      "poi_name": "Cafe Tiramisu",
      "osm_id": 6561349887,
      "amenity": "restaurant",
      "cuisine": "italian"
    },
    {
      "id": 91975,
      "geometry": "POINT (-78.643551 35.784558)",
      "poi_name": "Mulino Italian Kitchen & Bar",
      "osm_id": 2098187833,
      "amenity": "restaurant",
      "cuisine": "italian",
      "website": "https://mulinoraleigh.com/",
      "phone": "9198388595",
      "addr_state": "NC",
      "addr_city": "Raleigh",
      "addr_postcode": "27603",
      "addr_street": "N Dawson St",
      "addr_housenumber": "309"
    },
    {
      "id": 93416,
      "geometry": "POINT (-79.034435 35.930459)",
      "poi_name": "Il Palio",
      "osm_id": 2164022487,
      "amenity": "restaurant",
      "cuisine": "italian"
    },
    {
      "id": 93624,
      "geometry": "POINT (-78.845319 35.817556)",
      "poi_name": "Georgina's Pizzeria",
      "osm_id": 2178025821,
      "amenity": "restaurant",
      "cuisine": "italian",
      "addr_state": "NC",
      "addr_city": "Morrisville",
      "addr_postcode": "27560-8819",
      "addr_street": "Davis Drive",
      "addr_housenumber": "3536"
    },
    {
      "id": 93021,
      "geometry": "POINT (-79.425029 35.169179)",
      "poi_name": "Olive Garden",
      "osm_id": 2145160304,
      "amenity": "restaurant",
      "cuisine": "italian",
      "addr_state": "NC",
      "addr_city": "Southern Pines",
      "addr_postcode": "28387",
      "addr_street": "US 15/501",
      "addr_housenumber": "10572"
    },
    {
      "id": 117804,
      "geometry": "POINT (-78.826419 35.828319)",
      "poi_name": "La Cucina Italiana",
      "osm_id": 9010740818,
      "amenity": "restaurant",
      "cuisine": "italian_pizza",
      "opening_hours": "Mo-Fr 11:00-22:00; Sa 12:00-22:00; Su 12:00-20:00",
      "website": "https://lacucinaitalians.com",
      "addr_postcode": "27560",
      "addr_street": "Chapel Hill Road",
      "addr_housenumber": "10208"
    },
    {
      "id": 110202,
      "geometry": "POINT (-78.647089 35.787102)",
      "poi_name": "Big Boom",
      "osm_id": 3691470161,
      "amenity": "restaurant",
      "cuisine": "italian"
    },
    {
      "id": 102091,
      "geometry": "POINT (-78.346497 35.65536)",
      "poi_name": "La Cucina Italiana",
      "osm_id": 6655572582,
      "amenity": "restaurant",
      "cuisine": "italian",
      "opening_hours": "Mo-Su 11:00-21:00",
      "website": "https://www.lacucinaitalianamenu.com/",
      "phone": "+1-919-550-2452",
      "addr_state": "NC",
      "addr_city": "Clayton",
      "addr_postcode": "27527",
      "addr_street": "Flowers Crossroads Way",
      "addr_housenumber": "110"
    },
    {
      "id": 103216,
      "geometry": "POINT (-78.324403 34.997348)",
      "poi_name": "Alfredo's Ristorante Italiano",
      "osm_id": 8490778907,
      "amenity": "restaurant",
      "cuisine": "italian",
      "phone": "+19105921657",
      "addr_state": "NC",
      "addr_city": "Clinton",
      "addr_postcode": "28328",
      "addr_street": "North Wall Street",
      "addr_housenumber": "101"
    },
    {
      "id": 103839,
      "geometry": "POINT (-78.549195 35.792158)",
      "poi_name": "Sopranos Grill",
      "osm_id": 8529304375,
      "amenity": "restaurant",
      "cuisine": "italian"
    },
    {
      "id": 103847,
      "geometry": "POINT (-78.581487 35.851018)",
      "poi_name": "Olive Garden",
      "osm_id": 8529623616,
      "amenity": "restaurant",
      "cuisine": "italian",
      "addr_state": "NC",
      "addr_city": "Raleigh",
      "addr_postcode": "27616",
      "addr_street": "Capital Boulevard",
      "addr_housenumber": "4805"
    },
    {
      "id": 103852,
      "geometry": "POINT (-78.581094 35.867295)",
      "poi_name": "Romano's Macaroni Grill",
      "osm_id": 8529636649,
      "amenity": "restaurant",
      "cuisine": "italian",
      "addr_state": "NC",
      "addr_city": "Raleigh",
      "addr_postcode": "27616",
      "addr_street": "Sumner Boulevard",
      "addr_housenumber": "3421"
    },
    {
      "id": 104953,
      "geometry": "POINT (-78.560269 35.940457)",
      "poi_name": "Dante's Italiano",
      "osm_id": 8593018744,
      "amenity": "restaurant",
      "cuisine": "italian"
    },
    {
      "id": 116508,
      "geometry": "POINT (-78.488183 35.795893)",
      "poi_name": "Grand Street Pizza",
      "osm_id": 8945368917,
      "amenity": "restaurant",
      "cuisine": "italian_pizza;pasta;pizza",
      "opening_hours": "Tu-Th 11:00-21:00; Fr-Sa 11:00-22:00; Su 12:00-21:00",
      "website": "https://mygrandstreetpizza.com/",
      "phone": "919-217-3410",
      "addr_postcode": "27545",
      "addr_street": "North Smithfield Road",
      "addr_housenumber": "901"
    },
    {
      "id": 118080,
      "geometry": "POINT (-78.822402 35.820174)",
      "poi_name": "Paolo\u2019s on 54",
      "osm_id": 9024049517,
      "amenity": "restaurant",
      "cuisine": "italian",
      "opening_hours": "Tu-Th 11:00-21:00; Fr-Sa 11:00-22:00; Su 11:00-21:00",
      "website": "https://paoloson54.com/",
      "phone": "9196789030",
      "addr_postcode": "27560",
      "addr_street": "Keybridge Drive",
      "addr_housenumber": "101"
    },
    {
      "id": 120188,
      "geometry": "POINT (-79.152582 35.466116)",
      "poi_name": "Caf\u00e9 Vesuvio",
      "osm_id": 9143696230,
      "amenity": "restaurant",
      "cuisine": "italian",
      "website": "https://cafe-vesuvio.com",
      "phone": "919-774-9966",
      "takeaway": "yes",
      "outdoor_seating": "no",
      "addr_state": "NC",
      "addr_city": "Sanford",
      "addr_postcode": "27330",
      "addr_street": "South Horner Boulevard",
      "addr_housenumber": "1945"
    },
    {
      "id": 130304,
      "geometry": "POINT (-79.148129 35.459142)",
      "poi_name": "Valenti\u2019s Italian Restaurant & Pizzeria",
      "osm_id": 9864396537,
      "amenity": "restaurant",
      "cuisine": "italian",
      "phone": "+19197775464",
      "addr_state": "NC",
      "addr_city": "Sanford",
      "addr_postcode": "27332",
      "addr_street": "East Main Street",
      "addr_housenumber": "405"
    },
    {
      "id": 120250,
      "geometry": "POINT (-78.601115 35.591307)",
      "poi_name": "La Piazza Italian",
      "osm_id": 6697811733,
      "amenity": "restaurant",
      "cuisine": "italian;pizza",
      "opening_hours": "Mo-Th 11:15-21:30; Fr,Sa 11:15-22:30; Su 12:00-21:00",
      "phone": "+1-919-662-5007"
    },
    {
      "id": 128836,
      "geometry": "POINT (-78.985078 35.08937)",
      "poi_name": "Italiano's Pizza & Subs",
      "osm_id": 8189568669,
      "amenity": "restaurant",
      "cuisine": "italian"
    },
    {
      "id": 124202,
      "geometry": "POINT (-78.645486 35.881318)",
      "poi_name": "Vivo's Ristorante Pizzeria",
      "osm_id": 6903846552,
      "amenity": "restaurant",
      "cuisine": "italian"
    },
    {
      "id": 159644,
      "geometry": "POINT (-78.874413 35.138159)",
      "poi_name": "Pierro's Italian Bistro",
      "osm_id": 4801602670,
      "amenity": "restaurant",
      "cuisine": "italian"
    },
    {
      "id": 159729,
      "geometry": "POINT (-78.880274 35.121298)",
      "poi_name": "Brooklyn Pizzeria",
      "osm_id": 4804470307,
      "amenity": "restaurant",
      "cuisine": "italian"
    },
    {
      "id": 133470,
      "geometry": "POINT (-78.982491 35.18213)",
      "poi_name": "La Vista Italian Reataurant",
      "osm_id": 9995467438,
      "amenity": "restaurant",
      "cuisine": "italian",
      "addr_state": "NC",
      "addr_city": "Spring Lake",
      "addr_postcode": "28390",
      "addr_street": "North Bragg Boulevard",
      "addr_housenumber": "1107"
    },
    {
      "id": 163547,
      "geometry": "POINT (-78.783482 35.909997)",
      "poi_name": "Olive Garden",
      "osm_id": 9423787065,
      "amenity": "restaurant",
      "cuisine": "italian"
    },
    {
      "id": 161107,
      "geometry": "POINT (-78.889464 35.848789)",
      "poi_name": "Stellino's Italiano",
      "osm_id": 4867029701,
      "amenity": "restaurant",
      "cuisine": "italian",
      "opening_hours": "Su-Th 11:00-22:00; Fr-Sa 11:00-23:00",
      "website": "https://www.stellinositaliano.com/",
      "phone": "+19196945761",
      "addr_state": "NC",
      "addr_city": "Cary",
      "addr_postcode": "27519",
      "addr_street": "Parkside Main Street",
      "addr_housenumber": "1150"
    },
    {
      "id": 166886,
      "geometry": "POINT (-78.592668 35.906191)",
      "poi_name": "Bella Italia",
      "osm_id": 318709179,
      "amenity": "restaurant",
      "cuisine": "italian",
      "addr_state": "NC",
      "addr_city": "Raleigh",
      "addr_postcode": "27614",
      "addr_street": "Durant Road",
      "addr_housenumber": "10630"
    },
    {
      "id": 188649,
      "geometry": "POINT (-78.707419 35.825157)",
      "poi_name": "Bella Monica",
      "osm_id": 1171616242,
      "amenity": "restaurant",
      "cuisine": "italian",
      "website": "https://www.bellamonica.com",
      "phone": "+19198819778",
      "addr_state": "NC",
      "addr_postcode": "27612",
      "addr_street": "Edwards Mill Road",
      "addr_housenumber": "3121"
    },
    {
      "id": 186278,
      "geometry": "POINT (-78.965728 35.07497)",
      "poi_name": "Elisabaths Pizza",
      "osm_id": 7924387023,
      "amenity": "restaurant",
      "cuisine": "pizza;italian",
      "addr_state": "NC",
      "addr_city": "Fayetteville",
      "addr_postcode": "28303",
      "addr_street": "Skibo Road",
      "addr_housenumber": "1800"
    },
    {
      "id": 172969,
      "geometry": "POINT (-78.901105 35.819672)",
      "poi_name": "Amante Pizza",
      "osm_id": 2420185646,
      "amenity": "restaurant",
      "cuisine": "italian"
    },
    {
      "id": 189347,
      "geometry": "POINT (-78.944268 35.90479)",
      "poi_name": "Maggiano's",
      "osm_id": 1228552425,
      "amenity": "restaurant",
      "cuisine": "italian",
      "addr_state": "NC",
      "addr_city": "Durham",
      "addr_postcode": "27713",
      "addr_street": "Renaissance Parkway",
      "addr_housenumber": "8030"
    },
    {
      "id": 193313,
      "geometry": "POINT (-78.903976 35.996707)",
      "poi_name": "Toast",
      "osm_id": 1520441350,
      "amenity": "restaurant",
      "cuisine": "italian",
      "website": "https://www.toast-fivepoints.com/",
      "addr_state": "NC",
      "addr_city": "Durham",
      "addr_postcode": "27701",
      "addr_street": "West Main Street",
      "addr_housenumber": "345"
    },
    {
      "id": 204311,
      "geometry": "POINT (-77.939476 35.377497)",
      "poi_name": "Olive Garden",
      "osm_id": 7122775672,
      "amenity": "restaurant",
      "cuisine": "italian",
      "phone": "+19197784140",
      "addr_state": "NC",
      "addr_city": "Goldsboro",
      "addr_postcode": "27534",
      "addr_street": "North Berkeley Boulevard",
      "addr_housenumber": "803"
    },
    {
      "id": 221696,
      "geometry": "POINT (-79.469096 35.19433)",
      "poi_name": "Lisi Market",
      "osm_id": 10984120366,
      "amenity": "restaurant",
      "cuisine": "italian"
    },
    {
      "id": 220241,
      "geometry": "POINT (-78.816814 35.398714)",
      "poi_name": "Nonna\u2019s",
      "osm_id": 9366432105,
      "amenity": "restaurant",
      "cuisine": "italian",
      "phone": "919-814-2888",
      "addr_state": "NC",
      "addr_city": "Lillington",
      "addr_postcode": "27546",
      "addr_street": "West Front Street",
      "addr_housenumber": "11"
    },
    {
      "id": 222073,
      "geometry": "POINT (-78.510736 34.952488)",
      "poi_name": "Uncle Vinny's Downtown Roseboro",
      "osm_id": 11004381308,
      "amenity": "restaurant",
      "cuisine": "italian;pizza",
      "addr_state": "NC",
      "addr_city": "Roseboro",
      "addr_postcode": "28382",
      "addr_street": "West Roseboro Street",
      "addr_housenumber": "103"
    },
    {
      "id": 233439,
      "geometry": "POINT (-78.777438 35.738178)",
      "poi_name": "Enrigo",
      "osm_id": 4574040034,
      "amenity": "restaurant",
      "cuisine": "italian",
      "opening_hours": "Mo 16:30-21:00; Tu-Th 11:30-21:00; Fr, Sa 11:30-22:00",
      "website": "https://dineenrigo.com/",
      "phone": "+1-919-854-7731",
      "outdoor_seating": "yes",
      "delivery": "no",
      "addr_postcode": "27518",
      "addr_housenumber": "Suite 106"
    },
    {
      "id": 242238,
      "geometry": "POINT (-78.541357 35.941927)",
      "poi_name": "Mizu House",
      "osm_id": 6064553567,
      "amenity": "restaurant",
      "cuisine": "japanese;sushi;steak_house;seafood;italian",
      "website": "https://mizuhouse.com",
      "addr_state": "NC",
      "addr_city": "Wake Forest",
      "addr_postcode": "27587",
      "addr_street": "Wakefield Common Drive",
      "addr_housenumber": "10750"
    },
    {
      "id": 242239,
      "geometry": "POINT (-78.542175 35.944047)",
      "poi_name": "Milton's Pizza and Pasta",
      "osm_id": 6064560395,
      "amenity": "restaurant",
      "cuisine": "pizza;italian",
      "website": "https://miltonspizza.com/",
      "addr_state": "NC",
      "addr_city": "Raleigh",
      "addr_postcode": "27614",
      "addr_street": "Falls of Neuse Road",
      "addr_housenumber": "14520"
    }
  ],
  "answer_type": "name",
  "question_entities": {
    "[1]": {
      "main_category": "amenity",
      "sub_category": "restaurant",
      "poi_filter_desc": "italian restaurant",
      "poi_filter_sql": "cuisine ILIKE '%italian%'"
    },
    "[2]": {
      "distance": 110000,
      "text": "110 kilometers"
    },
    "[3]": {
      "main_category": "tourism",
      "sub_category": "museum",
      "display_name": "Coats Museum, Coats, NC",
      "geo_wkt": "POINT (-78.671628 35.406332)",
      "poi": {
        "id": 12617,
        "geometry": "POINT (-78.671628 35.406332)",
        "poi_name": "Coats Museum",
        "osm_id": 7393098346,
        "tourism": "museum",
        "website": "http://www.coatsmuseum.com/",
        "phone": "(910) 897-2525",
        "addr_state": "NC",
        "addr_city": "Coats",
        "addr_postcode": "27521",
        "addr_street": "South McKinley Street",
        "addr_housenumber": "109"
      }
    }
  },
  "id": 502,
  "type": "range:non_spat_filter+name"
}