{
  "question": "Where can I find a hospital that's 50 kilometers from Reformed Presbyterian theological Seminary, Pittsburgh, PA?",
  "sql": "SELECT * FROM pois\nWHERE ST_DWithin(pois.geometry, ST_GeomFromText('POINT (-79.897696 40.447418)',4326)::geography, 50000)\nAND amenity = 'hospital';\n",
  "answers": [
    {
      "id": 64843,
      "geometry": "POINT (-80.27895 40.156452)",
      "poi_name": "Advanced Surgical Hospital",
      "osm_id": 5673831171,
      "amenity": "hospital",
      "website": "https://ashospital.net/",
      "phone": "+1 724 884 0710",
      "healthcare": "hospital",
      "emergency": "no",
      "addr_city": "Washington",
      "addr_postcode": "15301",
      "addr_street": "Trich Drive",
      "addr_housenumber": "100"
    },
    {
      "id": 181340,
      "geometry": "POINT (-80.2088 40.438549)",
      "poi_name": "Curahealth Pittsburgh",
      "osm_id": 10840934159,
      "amenity": "hospital",
      "website": "https://curahealth.com",
      "phone": "+1 412 494 5500",
      "addr_state": "PA",
      "addr_city": "Oakdale",
      "addr_postcode": "15071",
      "addr_street": "Steubensville Pike",
      "addr_housenumber": "7777"
    },
    {
      "id": 181379,
      "geometry": "POINT (-79.866065 40.556896)",
      "poi_name": "Encompass Health Rehabilitation Hospital Of Harmarville",
      "osm_id": 10844713629,
      "amenity": "hospital",
      "website": "https://encompasshealth.com/locations/harmarvillerehab",
      "phone": "+1 412 828 1300",
      "addr_state": "PA",
      "addr_city": "Pittsburgh",
      "addr_postcode": "15238",
      "addr_street": "Guys Run Road",
      "addr_housenumber": "320"
    },
    {
      "id": 167455,
      "geometry": "POINT (-79.959846 40.443549)",
      "poi_name": "Western Psychiatric Institute & Clinic of UPMC",
      "osm_id": 357330745,
      "amenity": "hospital",
      "opening_hours": "24/7",
      "operator": "University of Pittsburgh Medical Center",
      "website": "https://www.upmc.com/locations/hospitals/western-psychiatric/",
      "phone": "+1 412 624 2100",
      "healthcare": "hospital",
      "emergency": "no",
      "addr_city": "Pittsburgh",
      "addr_postcode": "15213",
      "addr_street": "O'Hara Street",
      "addr_housenumber": "3811"
    },
    {
      "id": 181336,
      "geometry": "POINT (-79.600152 40.310897)",
      "poi_name": "AHN Hempfield Neighborhood Hospital",
      "osm_id": 10840925849,
      "amenity": "hospital",
      "website": "https://www.ahnneighborhood.org/locations/hempfield",
      "phone": "+1 878 295 4735",
      "addr_state": "PA",
      "addr_city": "Greensburg",
      "addr_postcode": "15601",
      "addr_street": "Route 30",
      "addr_housenumber": "6321"
    }
  ],
  "answer_type": "loc",
  "question_entities": {
    "[1]": {
      "main_category": "amenity",
      "sub_category": "hospital"
    },
    "[2]": {
      "distance": 50000,
      "text": "50 kilometers"
    },
    "[3]": {
      "main_category": "amenity",
      "sub_category": "university",
      "display_name": "Reformed Presbyterian Theological Seminary, Pittsburgh, PA",
      "geo_wkt": "POINT (-79.897696 40.447418)",
      "poi": {
        "id": 181232,
        "geometry": "POINT (-79.897696 40.447418)",
        "poi_name": "Reformed Presbyterian Theological Seminary",
        "osm_id": 10836285954,
        "amenity": "university",
        "operator": "Reformed Presbyterian Church of North America",
        "website": "https://www.rpts.edu/",
        "phone": "+14127316000",
        "addr_state": "PA",
        "addr_city": "Pittsburgh",
        "addr_postcode": "15208",
        "addr_street": "Penn Avenue",
        "addr_housenumber": "7418"
      }
    }
  },
  "id": 2031,
  "type": "range+loc"
}