{
  "question": "I need assistance in locating a Sushi restaurant within 180 kilometers from Atlantic Rehabilitation Institute, Madison, NJ. Can you help me out?",
  "sql": "SELECT * FROM pois\nWHERE ST_DWithin(pois.geometry, ST_GeomFromText('POINT (-74.43567 40.767262)',4326)::geography, 180000)\nAND amenity = 'restaurant'\nAND cuisine ILIKE '%Sushi%';\n",
  "answers": [
    {
      "id": 27440,
      "geometry": "POINT (-73.993819 40.69026)",
      "poi_name": "Mikado",
      "osm_id": 419361808,
      "amenity": "restaurant",
      "cuisine": "sushi",
      "opening_hours": "Mo-Th 10:30-15:30,17:00-22:00; Fr 10:30-23:00; Sa 12:00-23:00; Su 12:00-22:00",
      "website": "http://www.newmikadonyc.com/",
      "phone": "+1-212-381-1388",
      "outdoor_seating": "no",
      "delivery": "yes",
      "addr_state": "NY",
      "addr_city": "Brooklyn",
      "addr_postcode": "11201",
      "addr_street": "Atlantic Avenue",
      "addr_housenumber": "177"
    },
    {
      "id": 28803,
      "geometry": "POINT (-73.990338 40.809671)",
      "poi_name": "Food for Life",
      "osm_id": 8260705161,
      "amenity": "restaurant",
      "cuisine": "sushi;deli",
      "phone": "+1 201 941 3977",
      "addr_state": "NJ",
      "addr_city": "Edgewater",
      "addr_postcode": "07020",
      "addr_street": "Old River Road",
      "addr_housenumber": "270"
    },
    {
      "id": 30619,
      "geometry": "POINT (-75.22377 39.814269)",
      "poi_name": "Idea Asian",
      "osm_id": 8369862972,
      "amenity": "restaurant",
      "cuisine": "sushi;japanese;chinese;thai",
      "phone": "(856) 599-1668",
      "addr_state": "NJ",
      "addr_city": "Clarksboro",
      "addr_postcode": "08020",
      "addr_street": "Berkley Road",
      "addr_housenumber": "121"
    },
    {
      "id": 30701,
      "geometry": "POINT (-73.958102 40.811168)",
      "poi_name": "Dragon Sushi",
      "osm_id": 8375908251,
      "amenity": "restaurant",
      "cuisine": "sushi;bubble_tea;ramen",
      "opening_hours": "Mo-Th 11:00-22:30; Fr-Sa 11:00-23:00; Su 12:00-22:30",
      "website": "https://www.dragonsushiny.com/",
      "shop": "vacant",
      "phone": "+1-646-490-5254",
      "takeaway": "yes",
      "outdoor_seating": "no",
      "addr_state": "NY",
      "addr_city": "New York",
      "addr_postcode": "10027",
      "addr_street": "Amsterdam Avenue",
      "addr_housenumber": "1272"
    },
    {
      "id": 31776,
      "geometry": "POINT (-74.085557 41.748843)",
      "poi_name": "Hokkaido",
      "osm_id": 8446201659,
      "amenity": "restaurant",
      "cuisine": "sushi",
      "opening_hours": "We off; Th 16:30-21:00; Fr-Sa 16:30-22:00; Su-Tu 16:30-21:00",
      "website": "https://www.hokkaidonewpaltz.com/",
      "phone": "+1 845 256 0621",
      "addr_state": "NY",
      "addr_city": "New Paltz",
      "addr_postcode": "12561",
      "addr_street": "Church Street",
      "addr_housenumber": "18"
    },
    {
      "id": 37690,
      "geometry": "POINT (-74.357036 40.717032)",
      "poi_name": "Sushi Palace",
      "osm_id": 2825595319,
      "amenity": "restaurant",
      "cuisine": "asian;sushi",
      "addr_state": "NJ",
      "addr_city": "Summit",
      "addr_postcode": "07901",
      "addr_street": "Union Place",
      "addr_housenumber": "33"
    },
    {
      "id": 38604,
      "geometry": "POINT (-73.743352 40.730303)",
      "poi_name": "Umi Sushi & Seafood Buffet",
      "osm_id": 2871451869,
      "amenity": "restaurant",
      "cuisine": "sushi",
      "opening_hours": "Mo-Th 11:30-22:00; Fr-Sa 11:30-23:00; Su 11:30-22:00",
      "website": "https://umibuffetny.com/",
      "phone": "+1-718-468-2100",
      "takeaway": "yes",
      "addr_state": "NY",
      "addr_city": "Queens Village",
      "addr_postcode": "11427",
      "addr_street": "Hillside Avenue",
      "addr_housenumber": "220-18"
    },
    {
      "id": 40748,
      "geometry": "POINT (-75.845634 41.250268)",
      "poi_name": "Yummy BOwl",
      "osm_id": 2981660125,
      "amenity": "restaurant",
      "cuisine": "japanese;asian;sushi;korean;mongolian_grill",
      "addr_state": "PA",
      "addr_city": "Wilkes-Barre",
      "addr_postcode": "18702",
      "addr_street": "Kidder Street",
      "addr_housenumber": "695"
    },
    {
      "id": 46069,
      "geometry": "POINT (-73.881225 41.982022)",
      "poi_name": "Hana Sushi",
      "osm_id": 3244549813,
      "amenity": "restaurant",
      "cuisine": "sushi",
      "phone": "(845) 758-4333",
      "addr_state": "NY",
      "addr_city": "Red Hook",
      "addr_postcode": "12571",
      "addr_street": "South Broadway",
      "addr_housenumber": "7270"
    },
    {
      "id": 49847,
      "geometry": "POINT (-74.010399 40.703777)",
      "poi_name": "Nara Sushi",
      "osm_id": 3450977039,
      "amenity": "restaurant",
      "cuisine": "sushi",
      "wheelchair": "no",
      "opening_hours": "Mo-Th 11:30-21:30; Fr 11:30-22:00; Sa 12:00-22:00; Su 12:00-21:30",
      "phone": "+1-646-720-0202",
      "addr_state": "NY",
      "addr_city": "New York",
      "addr_postcode": "10004",
      "addr_street": "Pearl Street",
      "addr_housenumber": "76"
    },
    {
      "id": 61894,
      "geometry": "POINT (-74.221592 40.955501)",
      "poi_name": "Umi Japanese Steakhouse",
      "osm_id": 5541420284,
      "amenity": "restaurant",
      "cuisine": "japanese;sushi;steak_house",
      "addr_state": "NJ",
      "addr_city": "Wayne",
      "addr_postcode": "07470",
      "addr_street": "Paterson-Hamburg Turnpike",
      "addr_housenumber": "697"
    },
    {
      "id": 61353,
      "geometry": "POINT (-74.266816 40.915135)",
      "poi_name": "Takei Bamboo Sushi",
      "osm_id": 5512877744,
      "amenity": "restaurant",
      "cuisine": "japanese;sushi",
      "addr_state": "NJ",
      "addr_city": "Wayne",
      "addr_postcode": "07470",
      "addr_street": "Mountainview Boulevard",
      "addr_housenumber": "142"
    },
    {
      "id": 63275,
      "geometry": "POINT (-76.340025 40.082804)",
      "poi_name": "Tokyo Diner Sushi & Hibachi",
      "osm_id": 5607850693,
      "amenity": "restaurant",
      "cuisine": "japanese;hibachi;sushi",
      "phone": "717-569-4305",
      "outdoor_seating": "no",
      "delivery": "no",
      "addr_state": "PA",
      "addr_city": "Lancaster",
      "addr_postcode": "17601",
      "addr_street": "Manheim Pike",
      "addr_housenumber": "1625"
    },
    {
      "id": 63572,
      "geometry": "POINT (-74.242794 40.962472)",
      "poi_name": "Nori",
      "osm_id": 5623272651,
      "amenity": "restaurant",
      "cuisine": "sushi",
      "addr_state": "NJ",
      "addr_city": "Wayne",
      "addr_postcode": "07470",
      "addr_street": "Berdan Avenue",
      "addr_housenumber": "87"
    },
    {
      "id": 63798,
      "geometry": "POINT (-74.121943 41.018025)",
      "poi_name": "Moshi Moshi",
      "osm_id": 5630305766,
      "amenity": "restaurant",
      "cuisine": "sushi",
      "takeaway": "yes",
      "outdoor_seating": "no",
      "addr_state": "NJ",
      "addr_city": "Waldwick",
      "addr_postcode": "07463",
      "addr_street": "Franklin Turnpike",
      "addr_housenumber": "137"
    },
    {
      "id": 64794,
      "geometry": "POINT (-73.67252 40.654872)",
      "poi_name": "Kenji Sushi",
      "osm_id": 5670896322,
      "amenity": "restaurant",
      "cuisine": "sushi;japanese;pizza",
      "addr_state": "NY",
      "addr_city": "Lynbrook",
      "addr_postcode": "11563",
      "addr_street": "Sunrise Highway",
      "addr_housenumber": "427"
    },
    {
      "id": 64654,
      "geometry": "POINT (-73.672892 40.657544)",
      "poi_name": "Mikado Japanese Restaurant",
      "osm_id": 5662016232,
      "amenity": "restaurant",
      "cuisine": "sushi;japanese",
      "website": "http://www.mikadosushirestaurant.com/index.php/home",
      "addr_state": "NY",
      "addr_city": "Lynbrook",
      "addr_postcode": "11563",
      "addr_street": "Merrick Road",
      "addr_housenumber": "355"
    },
    {
      "id": 66341,
      "geometry": "POINT (-74.166133 41.078926)",
      "poi_name": "Nagoya",
      "osm_id": 11189344798,
      "amenity": "restaurant",
      "cuisine": "sushi;japanese",
      "website": "https://nagoyamahwah.com/",
      "phone": "+1-201-818-9933",
      "addr_state": "NJ",
      "addr_city": "Mahwah",
      "addr_postcode": "07430",
      "addr_street": "MacArthur Boulevard",
      "addr_housenumber": "1007"
    },
    {
      "id": 67916,
      "geometry": "POINT (-73.745855 40.736089)",
      "poi_name": "Osaka Japanese Sushi & Grill",
      "osm_id": 11252103895,
      "amenity": "restaurant",
      "cuisine": "sushi",
      "website": "https://www.osaka-nyc.com",
      "phone": "+1-718-217-8283",
      "takeaway": "yes",
      "toilets": "yes",
      "addr_state": "NY",
      "addr_city": "Queens Village",
      "addr_postcode": "11364",
      "addr_street": "Union Turnpike",
      "addr_housenumber": "22423"
    },
    {
      "id": 69285,
      "geometry": "POINT (-73.917084 40.698816)",
      "poi_name": "Sushi King",
      "osm_id": 11298928802,
      "amenity": "restaurant",
      "cuisine": "sushi;bubble_tea",
      "opening_hours": "11:30-23:00",
      "phone": "+1-718-443-3388",
      "addr_state": "NY",
      "addr_city": "Brooklyn",
      "addr_postcode": "11237",
      "addr_street": "Myrtle Avenue",
      "addr_housenumber": "1442"
    },
    {
      "id": 69495,
      "geometry": "POINT (-75.983577 40.357515)",
      "poi_name": "Masa Sushi Hibachi & Bar",
      "osm_id": 11308258089,
      "amenity": "restaurant",
      "cuisine": "sushi;fish;salad",
      "website": "https://masahibachiwyomissing.com",
      "phone": "+1-610-375-8888",
      "addr_state": "PA",
      "addr_city": "Wyomissing",
      "addr_postcode": "19610",
      "addr_street": "Papermill Road",
      "addr_housenumber": "2733"
    },
    {
      "id": 69807,
      "geometry": "POINT (-73.78953 40.73972)",
      "poi_name": "Tokyo",
      "osm_id": 11331444160,
      "amenity": "restaurant",
      "cuisine": "japanese;sushi;steak_house",
      "phone": "+1-718-463-2999",
      "addr_state": "NY",
      "addr_city": "Fresh Meadows",
      "addr_postcode": "11365",
      "addr_street": "Horace Harding Expressway",
      "addr_housenumber": "184-12"
    },
    {
      "id": 70016,
      "geometry": "POINT (-73.814958 40.739637)",
      "poi_name": "Qiu Sushi and Tea Bar",
      "osm_id": 11340744083,
      "amenity": "restaurant",
      "cuisine": "sushi",
      "addr_state": "NY",
      "addr_city": "Queens",
      "addr_postcode": "11355",
      "addr_street": "Kissena Boulevard",
      "addr_housenumber": "60-05"
    },
    {
      "id": 73186,
      "geometry": "POINT (-73.98498 40.762741)",
      "poi_name": "Sake Bar Hagi",
      "osm_id": 9611990778,
      "amenity": "restaurant",
      "cuisine": "japanese;ramen;sushi;yakitori;sake;shochu;cocktails",
      "opening_hours": "Mo-We 17:00-23:00; Th 17:00-00:00; Fr 17:00-01:00; Sa 12:00-15:00,16:00-01:00; Su 12:00-15:00,16:00-23:00",
      "website": "https://sakebar-hagi.com/",
      "phone": "+1-212-956-2429",
      "addr_state": "NY",
      "addr_city": "New York",
      "addr_postcode": "10019",
      "addr_street": "West 51st Street",
      "addr_housenumber": "245A"
    },
    {
      "id": 73490,
      "geometry": "POINT (-73.949205 40.588834)",
      "poi_name": "E sushi II",
      "osm_id": 9638330218,
      "amenity": "restaurant",
      "cuisine": "asian;japanese;sushi",
      "opening_hours": "Mo-Th,Su 11:30-22:00; Fr-Sa 11:30-23:00",
      "website": "https://www.esushi2.com",
      "phone": "+1 718-891-5888",
      "takeaway": "yes",
      "toilets": "yes",
      "addr_state": "NY",
      "addr_city": "Brooklyn",
      "addr_postcode": "11235",
      "addr_street": "Ocean Avenue",
      "addr_housenumber": "2971"
    },
    {
      "id": 73661,
      "geometry": "POINT (-73.966669 40.57667)",
      "poi_name": "Umi Sushi",
      "osm_id": 9649145450,
      "amenity": "restaurant",
      "cuisine": "japanese;sushi",
      "wheelchair": "yes",
      "opening_hours": "Mo-Th 11:00-22:00; Fr 11:00-22:30; Sa 11:30-22:30; Su 12:00-22:00",
      "website": "https://www.umisushibk.com/",
      "phone": "+1-718-769-3338",
      "takeaway": "yes",
      "delivery": "yes",
      "toilets": "yes",
      "addr_state": "NY",
      "addr_city": "Brooklyn",
      "addr_postcode": "11235",
      "addr_street": "Brighton Beach Avenue",
      "addr_housenumber": "215"
    },
    {
      "id": 74713,
      "geometry": "POINT (-73.909408 40.775033)",
      "poi_name": "Watawa Sushi",
      "osm_id": 9693342310,
      "amenity": "restaurant",
      "cuisine": "sushi",
      "opening_hours": "11:30-21:30",
      "website": "https://www.watawasushi.com/",
      "phone": "+1 718-545-9596",
      "addr_state": "NY",
      "addr_city": "Astoria",
      "addr_postcode": "11105",
      "addr_street": "Ditmars Boulevard",
      "addr_housenumber": "33-10"
    },
    {
      "id": 75015,
      "geometry": "POINT (-75.821536 41.26985)",
      "poi_name": "Pearl Sushi Bar",
      "osm_id": 9707425688,
      "amenity": "restaurant",
      "cuisine": "sushi",
      "addr_state": "PA",
      "addr_city": "Wilkes-Barre",
      "addr_postcode": "18702",
      "addr_street": "PA 315",
      "addr_housenumber": "1280"
    },
    {
      "id": 76401,
      "geometry": "POINT (-73.959614 40.699594)",
      "poi_name": "Brooklyn Bagel",
      "osm_id": 9775295982,
      "amenity": "restaurant",
      "cuisine": "bagel;sandwich;pizza;sushi",
      "website": "https://www.brooklynbagelny.com",
      "phone": "+13476783928",
      "addr_state": "NY",
      "addr_city": "Brooklyn",
      "addr_postcode": "11249",
      "addr_street": "Heyward Street",
      "addr_housenumber": "7"
    },
    {
      "id": 88630,
      "geometry": "POINT (-74.090093 41.110467)",
      "poi_name": "Pita Land",
      "osm_id": 8788963118,
      "amenity": "restaurant",
      "cuisine": "pizza;sushi",
      "addr_state": "NY",
      "addr_city": "Monsey",
      "addr_postcode": "10952",
      "addr_street": "Route 59",
      "addr_housenumber": "408"
    },
    {
      "id": 87550,
      "geometry": "POINT (-74.301898 40.922389)",
      "poi_name": "Kenko Sushi",
      "osm_id": 8722186377,
      "amenity": "restaurant",
      "cuisine": "sushi",
      "wheelchair": "yes",
      "opening_hours": "Tu-Sa 12:00-20:00 open \"Dining In\" || Tu-Sa 12:00-19:00 open \"App Orders\"",
      "website": "https://www.kenkosushinj.com/",
      "addr_state": "NJ",
      "addr_city": "Lincoln Park",
      "addr_postcode": "07035",
      "addr_street": "Comly Road",
      "addr_housenumber": "261"
    },
    {
      "id": 88394,
      "geometry": "POINT (-73.656612 40.754187)",
      "poi_name": "Samurai Sushi",
      "osm_id": 8783480734,
      "amenity": "restaurant",
      "cuisine": "japanese;sushi",
      "website": "https://samuraisushiny.3menucities.com/",
      "phone": "+1 516 493 9998",
      "takeaway": "yes",
      "delivery": "yes",
      "addr_state": "NY",
      "addr_city": "Williston Park",
      "addr_postcode": "11596",
      "addr_street": "Hillside Avenue",
      "addr_housenumber": "412"
    },
    {
      "id": 76878,
      "geometry": "POINT (-75.287344 40.243613)",
      "poi_name": "Izu Sushis Asian Fusion",
      "osm_id": 9795787217,
      "amenity": "restaurant",
      "cuisine": "sushi",
      "opening_hours": "Mo-Th 11:30-21:30; Fr-Sa 11:30-22:30; Su 12:00-21:30",
      "website": "https://www.izusushi-online.com/",
      "phone": "+12153933800",
      "addr_state": "PA",
      "addr_city": "Lansdale",
      "addr_postcode": "19446",
      "addr_street": "West Main Street",
      "addr_housenumber": "322 1/2"
    },
    {
      "id": 88668,
      "geometry": "POINT (-73.975992 40.763588)",
      "poi_name": "Nobu",
      "osm_id": 8791561182,
      "amenity": "restaurant",
      "cuisine": "sushi",
      "opening_hours": "Mo-Th 11:45-14:15,17:30-22:15; Fr 11:45-14:15,17:30-23:15; Sa 11:45-14:45,17:30-23:15; Su 11:45-14:45,17:30-22:15",
      "website": "https://www.noburestaurants.com/fifty-seven/home/",
      "phone": "+1-212-757-3000",
      "takeaway": "Mo-Su 12:00-14:30,17:00-21:30",
      "delivery": "yes",
      "addr_state": "NY",
      "addr_city": "New York",
      "addr_postcode": "10019",
      "addr_street": "West 57th Street",
      "addr_housenumber": "40"
    },
    {
      "id": 91101,
      "geometry": "POINT (-73.910475 42.058829)",
      "poi_name": "Osaka",
      "osm_id": 2041485500,
      "amenity": "restaurant",
      "cuisine": "sushi",
      "website": "http://www.osakasushi.net/",
      "phone": "(845) 757-5055",
      "addr_state": "NY",
      "addr_city": "Tivoli",
      "addr_postcode": "12583",
      "addr_street": "Broadway",
      "addr_housenumber": "74"
    },
    {
      "id": 92305,
      "geometry": "POINT (-73.971321 40.792364)",
      "poi_name": "Gan Asia",
      "osm_id": 2111692824,
      "amenity": "restaurant",
      "cuisine": "chinese;sushi;thai",
      "takeaway": "yes",
      "addr_state": "NY",
      "addr_city": "New York",
      "addr_postcode": "10025",
      "addr_street": "Amsterdam Avenue",
      "addr_housenumber": "691"
    },
    {
      "id": 92638,
      "geometry": "POINT (-75.216855 39.948261)",
      "poi_name": "Hayashi Sushi",
      "osm_id": 2129708001,
      "amenity": "restaurant",
      "cuisine": "sushi;poke;bubble_tea;salad",
      "opening_hours": "Tu-Th 11:00-21:30; Fr-Sa 11:00-22:30; Su 13:00-21:30",
      "website": "https://hayashisushiphilly.com",
      "phone": "+1-215-729-6989",
      "addr_state": "PA",
      "addr_city": "Philadelphia",
      "addr_postcode": "19143",
      "addr_street": "South 47th Street",
      "addr_housenumber": "814"
    },
    {
      "id": 91014,
      "geometry": "POINT (-73.972365 40.791696)",
      "poi_name": "Imi Sushi",
      "osm_id": 2033992917,
      "amenity": "restaurant",
      "cuisine": "sushi",
      "website": "http://www.imisushi.com/",
      "addr_state": "NY",
      "addr_city": "New York",
      "addr_postcode": "10025",
      "addr_street": "Amsterdam Avenue",
      "addr_housenumber": "656"
    },
    {
      "id": 91657,
      "geometry": "POINT (-73.985122 40.74749)",
      "poi_name": "Bonchon Chicken",
      "osm_id": 2081537413,
      "amenity": "restaurant",
      "cuisine": "chicken;korean;sushi",
      "addr_state": "NY",
      "addr_city": "New York",
      "addr_postcode": "10016",
      "addr_street": "5th Avenue",
      "addr_housenumber": "525"
    },
    {
      "id": 94551,
      "geometry": "POINT (-75.177176 39.951066)",
      "poi_name": "Tsuki Sushi",
      "osm_id": 2253188235,
      "amenity": "restaurant",
      "cuisine": "sushi",
      "opening_hours": "Mo off; Tu-Fr 11:00-22:00; Sa-Su 12:00-22:00",
      "website": "https://www.tsukiwalnut.com",
      "phone": "+1 215-561-5666",
      "addr_state": "PA",
      "addr_city": "Philadelphia",
      "addr_postcode": "19103",
      "addr_street": "Walnut Street",
      "addr_housenumber": "2135"
    },
    {
      "id": 98256,
      "geometry": "POINT (-73.287431 41.389312)",
      "poi_name": "Fusion 25",
      "osm_id": 6512691226,
      "amenity": "restaurant",
      "cuisine": "sushi;asian",
      "addr_state": "CT",
      "addr_city": "Newtown",
      "addr_postcode": "06470",
      "addr_street": "South Main Street",
      "addr_housenumber": "123"
    },
    {
      "id": 99622,
      "geometry": "POINT (-73.626126 40.653432)",
      "poi_name": "Sushi House",
      "osm_id": 6558480138,
      "amenity": "restaurant",
      "cuisine": "sushi",
      "phone": "+1-516-594-7968",
      "addr_state": "NY",
      "addr_city": "Oceanside",
      "addr_postcode": "11572",
      "addr_street": "Merrick Road",
      "addr_housenumber": "402"
    },
    {
      "id": 100376,
      "geometry": "POINT (-74.661733 40.514008)",
      "poi_name": "Sakura Sushi",
      "osm_id": 6582979191,
      "amenity": "restaurant",
      "cuisine": "sushi",
      "addr_state": "NJ",
      "addr_city": "Hillsborough",
      "addr_postcode": "08844",
      "addr_street": "Triangle Road",
      "addr_housenumber": "220"
    },
    {
      "id": 100016,
      "geometry": "POINT (-74.23712 39.570292)",
      "poi_name": "Gazebo Grill and Sushi Bar",
      "osm_id": 6571405766,
      "amenity": "restaurant",
      "cuisine": "bar&grill;sushi;american",
      "addr_state": "NJ",
      "addr_city": "Beach Haven",
      "addr_postcode": "08008",
      "addr_street": "9th Street",
      "addr_housenumber": "325"
    },
    {
      "id": 102300,
      "geometry": "POINT (-74.161634 40.545487)",
      "poi_name": "East Sushi",
      "osm_id": 6672978331,
      "amenity": "restaurant",
      "cuisine": "sushi",
      "addr_state": "NY",
      "addr_city": "Staten Island",
      "addr_postcode": "10312",
      "addr_street": "Amboy Road",
      "addr_housenumber": "4371"
    },
    {
      "id": 102845,
      "geometry": "POINT (-74.026469 40.920155)",
      "poi_name": "Leo Sushi & Asian Cuisine",
      "osm_id": 8461876810,
      "amenity": "restaurant",
      "cuisine": "asian;sushi",
      "phone": "+1 2012871919",
      "addr_state": "NJ",
      "addr_city": "New Milford",
      "addr_postcode": "07646",
      "addr_street": "River Road",
      "addr_housenumber": "1033"
    },
    {
      "id": 106434,
      "geometry": "POINT (-74.423539 40.500935)",
      "poi_name": "Sultan Wok",
      "osm_id": 8679991554,
      "amenity": "restaurant",
      "cuisine": "chinese;japanese;sushi;thai",
      "phone": "732-393-9656",
      "addr_state": "NJ",
      "addr_city": "Highland Park",
      "addr_postcode": "08904",
      "addr_street": "Raritan Avenue",
      "addr_housenumber": "517"
    },
    {
      "id": 105049,
      "geometry": "POINT (-73.923769 40.761026)",
      "poi_name": "Junko Sushi",
      "osm_id": 8599156665,
      "amenity": "restaurant",
      "cuisine": "sushi",
      "opening_hours": "11:30 - 23:30",
      "website": "junkosushi.com",
      "phone": "(718) 777-1588",
      "addr_city": "Astoria",
      "addr_postcode": "10010",
      "addr_street": "33rd Street",
      "addr_housenumber": "33-02"
    },
    {
      "id": 107475,
      "geometry": "POINT (-74.18505 41.19389)",
      "poi_name": "Tuxedo Sushi",
      "osm_id": 3563514697,
      "amenity": "restaurant",
      "cuisine": "sushi",
      "opening_hours": "Mo-Th 11:30-21:00; Sa 11:30-21:30; Su 14:00-21:00",
      "capacity": "50",
      "takeaway": "yes",
      "addr_state": "NY",
      "addr_city": "Tuxedo Park",
      "addr_postcode": "10987",
      "addr_street": "Route 17",
      "addr_housenumber": "233"
    },
    {
      "id": 109854,
      "geometry": "POINT (-73.986027 40.73298)",
      "poi_name": "Yaki Sushi",
      "osm_id": 3676873366,
      "amenity": "restaurant",
      "cuisine": "sushi",
      "opening_hours": "Mo-Su 11:00-22:00",
      "phone": "+1-929-468-7888",
      "takeaway": "yes",
      "delivery": "yes",
      "addr_state": "NY",
      "addr_city": "New York",
      "addr_postcode": "10003",
      "addr_street": "East 14th Street",
      "addr_housenumber": "225"
    },
    {
      "id": 109871,
      "geometry": "POINT (-73.981438 40.730698)",
      "poi_name": "Akina Sushi",
      "osm_id": 3676993343,
      "amenity": "restaurant",
      "cuisine": "sushi",
      "opening_hours": "Mo-Th 12:00-23:00; Fr-Sa 12:00-23:30; Su 13:00-23:00",
      "website": "http://www.akinasushinyc.com/",
      "phone": "+1-212-388-1127",
      "addr_state": "NY",
      "addr_city": "New York",
      "addr_postcode": "10009",
      "addr_street": "East 14th Street",
      "addr_housenumber": "424"
    },
    {
      "id": 111928,
      "geometry": "POINT (-73.990803 40.702794)",
      "poi_name": "Miso Sushi",
      "osm_id": 3771296548,
      "amenity": "restaurant",
      "cuisine": "sushi",
      "takeaway": "yes",
      "outdoor_seating": "no",
      "delivery": "yes",
      "addr_state": "NY",
      "addr_city": "Brooklyn",
      "addr_postcode": "11201",
      "addr_street": "Main Street",
      "addr_housenumber": "38"
    },
    {
      "id": 107791,
      "geometry": "POINT (-73.920246 40.75971)",
      "poi_name": "Bai Sushi",
      "osm_id": 3577908295,
      "amenity": "restaurant",
      "cuisine": "sushi",
      "wheelchair": "no",
      "opening_hours": "Mo-Sa 11:30-22:45",
      "website": "https://baisushitogo.com",
      "addr_state": "NY",
      "addr_postcode": "11103",
      "addr_street": "Broadway",
      "addr_housenumber": "37-03"
    },
    {
      "id": 120345,
      "geometry": "POINT (-74.178356 40.541155)",
      "poi_name": "Ocean Sushi",
      "osm_id": 6699676996,
      "amenity": "restaurant",
      "cuisine": "sushi",
      "addr_state": "NY",
      "addr_city": "Staten Island",
      "addr_street": "Jefferson Boulevard",
      "addr_housenumber": "20"
    },
    {
      "id": 120413,
      "geometry": "POINT (-74.165661 40.544348)",
      "poi_name": "Kiku",
      "osm_id": 6702152660,
      "amenity": "restaurant",
      "cuisine": "sushi",
      "opening_hours": "Mo-Th 11:30-22:30; Fr 11:30-23:00; Sa 12:00-23:00; Su 12:00-22:00",
      "phone": "7186088589",
      "addr_state": "NY",
      "addr_city": "Staten Island",
      "addr_postcode": "10312",
      "addr_street": "Richmond Avenue",
      "addr_housenumber": "3838"
    },
    {
      "id": 122301,
      "geometry": "POINT (-73.645026 40.656019)",
      "poi_name": "Sushi Palace",
      "osm_id": 6795970497,
      "amenity": "restaurant",
      "cuisine": "sushi",
      "addr_state": "NY",
      "addr_city": "Rockville Centre",
      "addr_street": "Merrick Road",
      "addr_housenumber": "282"
    },
    {
      "id": 122125,
      "geometry": "POINT (-74.032072 40.737585)",
      "poi_name": "Sushi House",
      "osm_id": 6789145077,
      "amenity": "restaurant",
      "cuisine": "sushi",
      "addr_state": "NJ",
      "addr_city": "Hoboken",
      "addr_postcode": "07030",
      "addr_street": "1st Street",
      "addr_housenumber": "155"
    },
    {
      "id": 121583,
      "geometry": "POINT (-74.041452 40.256729)",
      "poi_name": "Takara Japanese Steakhouse",
      "osm_id": 6768277779,
      "amenity": "restaurant",
      "cuisine": "japanese;sushi;steak",
      "website": "http://www.takarasteakhousenj.com/",
      "addr_state": "NJ",
      "addr_city": "Oakhurst",
      "addr_postcode": "07755",
      "addr_street": "Route 35",
      "addr_housenumber": "1610"
    },
    {
      "id": 126410,
      "geometry": "POINT (-74.119038 40.980308)",
      "poi_name": "Sushi \"X\"",
      "osm_id": 6997853418,
      "amenity": "restaurant",
      "cuisine": "sushi;asian;noodle;seafood",
      "opening_hours": "Mo-Th 11:30-21:30; Fr-Sa 11:30-22:30; Su 12:00-21:30",
      "website": "http://www.sushix.net/",
      "phone": "+1-201-689-7878",
      "addr_state": "NJ",
      "addr_city": "Ridgewood",
      "addr_postcode": "07450",
      "addr_street": "Chestnut Street",
      "addr_housenumber": "23"
    },
    {
      "id": 124188,
      "geometry": "POINT (-74.480545 40.796451)",
      "poi_name": "Inspiration Roll",
      "osm_id": 6901695069,
      "amenity": "restaurant",
      "cuisine": "ramen;sushi",
      "phone": "(973) 998-9449",
      "addr_state": "NJ",
      "addr_city": "Morristown",
      "addr_postcode": "07960",
      "addr_street": "South Park Place",
      "addr_housenumber": "46"
    },
    {
      "id": 126538,
      "geometry": "POINT (-73.992087 40.600675)",
      "poi_name": "Ninja 86 Sushi",
      "osm_id": 7009898160,
      "amenity": "restaurant",
      "cuisine": "sushi",
      "opening_hours": "Mo-Th 11:00-23:00; Fr-Sa 11:00-23:30; Su 12:00-23:00",
      "website": "https://www.ninja86.com/",
      "phone": "+1 718-757-7997",
      "takeaway": "yes",
      "delivery": "yes",
      "addr_state": "NY",
      "addr_city": "Brooklyn",
      "addr_postcode": "11214",
      "addr_street": "86th Street",
      "addr_housenumber": "2274"
    },
    {
      "id": 127362,
      "geometry": "POINT (-74.297445 40.850008)",
      "poi_name": "Sushi Cafe",
      "osm_id": 8059366369,
      "amenity": "restaurant",
      "cuisine": "sushi",
      "opening_hours": "Mo-Fr 11:30-08:00; Sa 01:00-08:00; Su 05:00-08:00",
      "addr_state": "NJ",
      "addr_city": "West Caldwell",
      "addr_postcode": "07006",
      "addr_street": "Passaic Avenue",
      "addr_housenumber": "555"
    },
    {
      "id": 127991,
      "geometry": "POINT (-74.627268 40.218246)",
      "poi_name": "Yummy Sushi",
      "osm_id": 8115811038,
      "amenity": "restaurant",
      "cuisine": "sushi;asian",
      "website": "https://www.yummisushi.com",
      "phone": "+1 609-259-8388",
      "addr_state": "NJ",
      "addr_city": "Robbinsville Township",
      "addr_postcode": "08691",
      "addr_street": "Highway 33",
      "addr_housenumber": "2350"
    },
    {
      "id": 129329,
      "geometry": "POINT (-74.318066 40.47628)",
      "poi_name": "Kendy's Sushi and Peking Garden",
      "osm_id": 8235862681,
      "amenity": "restaurant",
      "cuisine": "sushi",
      "opening_hours": "Mo 15:00-22:00; Tu-We 12:00-22:00; Fr-Sa 11:00-23:00; Su 12:00-22:00",
      "website": "https://www.zmenu.com/kendys-sushi-and-peking-garden-sayreville-online-menu/",
      "phone": "732-525-0707",
      "addr_state": "NJ",
      "addr_city": "Sayreville",
      "addr_postcode": "08872",
      "addr_street": "Main Street",
      "addr_housenumber": "881"
    },
    {
      "id": 128736,
      "geometry": "POINT (-75.209433 40.692186)",
      "poi_name": "Tokyo Sushi",
      "osm_id": 8181555386,
      "amenity": "restaurant",
      "cuisine": "sushi",
      "opening_hours": "Mo-Th 11:00-21:30; Fr-Sa 11:00-22:30; Su 12:00-21:00",
      "website": "https://www.tokyosushieastonpa.com/",
      "phone": "610.559.8888",
      "addr_state": "PA",
      "addr_city": "Easton",
      "addr_postcode": "18042",
      "addr_street": "North 3rd Street",
      "addr_housenumber": "22"
    },
    {
      "id": 132216,
      "geometry": "POINT (-74.848758 39.869468)",
      "poi_name": "U Sushi Asian Cuisine",
      "osm_id": 9947477347,
      "amenity": "restaurant",
      "cuisine": "sushi",
      "website": "https://www.usushimedford.com/",
      "phone": "+18563348898",
      "addr_state": "NJ",
      "addr_city": "Medford",
      "addr_postcode": "08055",
      "addr_street": "Tuckerton Road",
      "addr_housenumber": "200"
    },
    {
      "id": 132149,
      "geometry": "POINT (-74.128886 41.030437)",
      "poi_name": "Masa Sushi & Grill",
      "osm_id": 9943870430,
      "amenity": "restaurant",
      "cuisine": "sushi",
      "website": "http://www.masasushiandgrill.com/",
      "phone": "+12019346616",
      "addr_state": "NJ",
      "addr_city": "Allendale",
      "addr_postcode": "07401",
      "addr_street": "West Allendale Avenue",
      "addr_housenumber": "81"
    },
    {
      "id": 133459,
      "geometry": "POINT (-75.199865 39.955066)",
      "poi_name": "Bonchon Chicken",
      "osm_id": 9995231385,
      "amenity": "restaurant",
      "cuisine": "chicken;korean;sushi",
      "addr_state": "PA",
      "addr_city": "Philadelphia",
      "addr_postcode": "19104",
      "addr_street": "Chestnut Street",
      "addr_housenumber": "3836"
    },
    {
      "id": 134630,
      "geometry": "POINT (-74.039773 41.433614)",
      "poi_name": "Sakura Asian Cuisine",
      "osm_id": 11479353652,
      "amenity": "restaurant",
      "cuisine": "sushi;japanese;chinese;asian;thai;poke",
      "website": "https://www.sakuracornwallny.com/",
      "phone": "+1-845-534-3488",
      "addr_state": "NY",
      "addr_city": "Cornwall",
      "addr_postcode": "12518",
      "addr_street": "Quaker Avenue",
      "addr_housenumber": "55"
    },
    {
      "id": 135116,
      "geometry": "POINT (-73.790413 40.726355)",
      "poi_name": "Umi Sushi",
      "osm_id": 11505167583,
      "amenity": "restaurant",
      "cuisine": "sushi",
      "addr_state": "NY",
      "addr_city": "Fresh Meadows",
      "addr_postcode": "11366",
      "addr_street": "Union Turnpike",
      "addr_housenumber": "177-13"
    },
    {
      "id": 135117,
      "geometry": "POINT (-73.790172 40.726422)",
      "poi_name": "Nikko Hibachi",
      "osm_id": 11505167584,
      "amenity": "restaurant",
      "cuisine": "sushi;steak_house",
      "addr_state": "NY",
      "addr_city": "Fresh Meadows",
      "addr_postcode": "11366",
      "addr_street": "Union Turnpike",
      "addr_housenumber": "177-21"
    },
    {
      "id": 135129,
      "geometry": "POINT (-73.756339 40.748036)",
      "poi_name": "River Sushi",
      "osm_id": 11505261130,
      "amenity": "restaurant",
      "cuisine": "sushi",
      "addr_state": "NY",
      "addr_city": "Oakland Gardens",
      "addr_postcode": "11364",
      "addr_street": "Springfield Boulevard",
      "addr_housenumber": "61-44"
    },
    {
      "id": 135836,
      "geometry": "POINT (-73.961554 40.801387)",
      "poi_name": "Kikoo Sushi",
      "osm_id": 11538724479,
      "amenity": "restaurant",
      "cuisine": "sushi",
      "opening_hours": "Mo 15:00-22:00; We-Su 15:00-22:00",
      "website": "https://www.kikoowest.com",
      "phone": "+1-212-533-2211",
      "addr_state": "NY",
      "addr_city": "New York",
      "addr_postcode": "10025",
      "addr_street": "Columbus Avenue",
      "addr_housenumber": "998"
    },
    {
      "id": 135099,
      "geometry": "POINT (-73.786538 40.727299)",
      "poi_name": "Fortune Sushi",
      "osm_id": 11504858107,
      "amenity": "restaurant",
      "cuisine": "sushi",
      "addr_state": "NY",
      "addr_city": "Fresh Meadows",
      "addr_postcode": "11366",
      "addr_street": "Union Turnpike",
      "addr_housenumber": "181-24"
    },
    {
      "id": 135381,
      "geometry": "POINT (-74.103828 40.827365)",
      "poi_name": "Yamada Sushi",
      "osm_id": 11513317471,
      "amenity": "restaurant",
      "cuisine": "sushi",
      "website": "http://www.yamadasushi.com/",
      "phone": "+12014608700",
      "addr_state": "NJ",
      "addr_city": "Rutherford",
      "addr_postcode": "07070",
      "addr_street": "Park Avenue",
      "addr_housenumber": "55"
    },
    {
      "id": 135690,
      "geometry": "POINT (-74.097523 40.833988)",
      "poi_name": "Samurai Sushi",
      "osm_id": 11530040022,
      "amenity": "restaurant",
      "cuisine": "sushi",
      "website": "http://www.njsamurai.com/",
      "phone": "+12018961760",
      "addr_state": "NJ",
      "addr_city": "East Rutherford",
      "addr_postcode": "07073",
      "addr_street": "Paterson Avenue",
      "addr_housenumber": "245"
    },
    {
      "id": 135371,
      "geometry": "POINT (-74.101938 40.828066)",
      "poi_name": "Yellowtail Japanese bistro",
      "osm_id": 11513306556,
      "amenity": "restaurant",
      "cuisine": "sushi;japanese",
      "website": "https://yellowtailrutherford.com/",
      "addr_state": "NJ",
      "addr_city": "Rutherford",
      "addr_postcode": "07070",
      "addr_street": "Park Avenue",
      "addr_housenumber": "17"
    },
    {
      "id": 136606,
      "geometry": "POINT (-73.789419 40.726287)",
      "poi_name": "Gan Da Sushi",
      "osm_id": 11592766721,
      "amenity": "restaurant",
      "cuisine": "sushi",
      "opening_hours": "Tu-Sa 11:00-21:00; Su 12:00-21:00",
      "website": "https://sites.google.com/view/ganda-sushi-express/home",
      "phone": "+1-718-380-1818",
      "addr_state": "NY",
      "addr_city": "Fresh Meadows",
      "addr_postcode": "11432",
      "addr_street": "Surrey Place",
      "addr_housenumber": "80-08"
    },
    {
      "id": 136913,
      "geometry": "POINT (-73.930916 41.781705)",
      "poi_name": "Mizu Sushi",
      "osm_id": 6076099362,
      "amenity": "restaurant",
      "cuisine": "sushi",
      "opening_hours": "Mo-Th 11:00-22:00; Fr 11:00-23:00; Sa 12:00-23:00; Su 12:00-22:00",
      "website": "http://mizusushiny.com",
      "phone": "+1 845-229-8688",
      "addr_state": "NY",
      "addr_city": "Hyde Park",
      "addr_postcode": "12538",
      "addr_street": "Albany Post Rd",
      "addr_housenumber": "4246"
    },
    {
      "id": 139577,
      "geometry": "POINT (-75.113615 40.139734)",
      "poi_name": "Sushi House",
      "osm_id": 6204341403,
      "amenity": "restaurant",
      "cuisine": "sushi",
      "website": "https://www.sushihouse101.com/",
      "phone": "+1 215-658-1888",
      "addr_state": "PA",
      "addr_city": "Willow Grove",
      "addr_postcode": "19090",
      "addr_street": "East Moreland Avenue",
      "addr_housenumber": "101"
    },
    {
      "id": 139036,
      "geometry": "POINT (-73.991825 40.750332)",
      "poi_name": "Sabi Sushi",
      "osm_id": 6178461400,
      "amenity": "restaurant",
      "cuisine": "sushi",
      "opening_hours": "Mo-Su 11:00-21:00",
      "website": "http://www.thepennsy.nyc/sabi-sushi/",
      "takeaway": "yes",
      "outdoor_seating": "yes",
      "addr_state": "NY",
      "addr_city": "New York",
      "addr_postcode": "10121",
      "addr_street": "Pennsylvania Plaza",
      "addr_housenumber": "2"
    },
    {
      "id": 140592,
      "geometry": "POINT (-73.698249 40.664939)",
      "poi_name": "Kaiseki Sushi",
      "osm_id": 6252355491,
      "amenity": "restaurant",
      "cuisine": "sushi",
      "addr_state": "NY",
      "addr_city": "Valley Stream",
      "addr_postcode": "11580",
      "addr_street": "West Merrick Road",
      "addr_housenumber": "7"
    },
    {
      "id": 141269,
      "geometry": "POINT (-75.606695 39.960633)",
      "poi_name": "Kooma West Chester",
      "osm_id": 6279654470,
      "amenity": "restaurant",
      "cuisine": "sushi",
      "opening_hours": "Mo 11:30-21:00; Tu-Th 11:30-21:30; Fr 11:30-22:00; Sa 11:30-24:00; Su 16:00-21:00",
      "website": "http://www.koomafusion.com/",
      "phone": "+1 610-430-8980",
      "addr_city": "West Chester",
      "addr_postcode": "19380",
      "addr_street": "North Church Street",
      "addr_housenumber": "123"
    },
    {
      "id": 141477,
      "geometry": "POINT (-73.983254 40.758492)",
      "poi_name": "Sushi By Bou",
      "osm_id": 6285668319,
      "amenity": "restaurant",
      "cuisine": "sushi",
      "opening_hours": "Mo-Fr 09:00-18:00",
      "website": "https://www.sushibybou.com",
      "phone": "+1-917-348-5737",
      "addr_state": "NY",
      "addr_city": "New York",
      "addr_postcode": "10036",
      "addr_street": "W 47th St",
      "addr_housenumber": "132"
    },
    {
      "id": 141929,
      "geometry": "POINT (-73.98062 40.660323)",
      "poi_name": "Sushi Yu",
      "osm_id": 6300062997,
      "amenity": "restaurant",
      "cuisine": "sushi;asian",
      "opening_hours": "Mo off; Tu-Th 11:15-22:30; Fr-Sa 11:15-22:45; Su 13:00-22:15",
      "website": "https://www.brooklynsushiyu.com",
      "phone": "+1-718-832-8688",
      "takeaway": "Mo off;Tu-Th 11:15-22:30;Fr-Sa 11:15-22:45;Su 13:00-22:15",
      "delivery": "Mo off;Tu-Th 11:30-21:30;Fr-Sa 11:30-22:45;Su 13:30-21:30",
      "addr_state": "NY",
      "addr_city": "Brooklyn",
      "addr_postcode": "11215",
      "addr_street": "Prospect Park West",
      "addr_housenumber": "214"
    },
    {
      "id": 143482,
      "geometry": "POINT (-73.972125 40.758478)",
      "poi_name": "The Lobster Club",
      "osm_id": 6342212317,
      "amenity": "restaurant",
      "cuisine": "japanese;sushi;fine_dining",
      "opening_hours": "Mo-Fr 11:45-14:00 open \"Lunch\", Mo-Sa 17:00-22:00 \"Dinner\"",
      "website": "https://thelobsterclub.com/",
      "phone": "+1-212-375-9001",
      "addr_state": "NY",
      "addr_city": "New York",
      "addr_postcode": "10022",
      "addr_street": "East 53rd Street",
      "addr_housenumber": "98"
    },
    {
      "id": 144299,
      "geometry": "POINT (-73.801433 40.760585)",
      "poi_name": "Nolbu Nolbu",
      "osm_id": 7256526360,
      "amenity": "restaurant",
      "cuisine": "gimbap;fried_chicken;sushi",
      "website": "http://www.nolbunolbunewyork.com/",
      "phone": "718-321-1511",
      "addr_state": "NY",
      "addr_city": "Flushing",
      "addr_postcode": "11358",
      "addr_street": "Northern Boulevard",
      "addr_housenumber": "164-25"
    },
    {
      "id": 144167,
      "geometry": "POINT (-75.604878 40.803928)",
      "poi_name": "Hunan House",
      "osm_id": 6366484832,
      "amenity": "restaurant",
      "cuisine": "chinese;sushi",
      "addr_state": "PA",
      "addr_city": "Palmerton",
      "addr_postcode": "18071",
      "addr_street": "Delaware Avenue",
      "addr_housenumber": "493"
    },
    {
      "id": 145218,
      "geometry": "POINT (-74.108021 40.952208)",
      "poi_name": "asian fusion",
      "osm_id": 7326412677,
      "amenity": "restaurant",
      "cuisine": "chinese;sushi",
      "addr_state": "NJ",
      "addr_city": "Glen Rock",
      "addr_postcode": "07452",
      "addr_street": "Prospect Street",
      "addr_housenumber": "914"
    },
    {
      "id": 146470,
      "geometry": "POINT (-73.667081 40.695672)",
      "poi_name": "Kumo Sushi",
      "osm_id": 7446803916,
      "amenity": "restaurant",
      "cuisine": "sushi",
      "addr_state": "NY",
      "addr_city": "Franklin Square",
      "addr_postcode": "11010",
      "addr_street": "Dogwood Avenue",
      "addr_housenumber": "434"
    },
    {
      "id": 146826,
      "geometry": "POINT (-73.752089 40.92839)",
      "poi_name": "Wasabi",
      "osm_id": 7477155884,
      "amenity": "restaurant",
      "cuisine": "sushi",
      "addr_state": "NY",
      "addr_city": "Larchmont",
      "addr_postcode": "10538",
      "addr_street": "Larchmont Avenue",
      "addr_housenumber": "139"
    },
    {
      "id": 148149,
      "geometry": "POINT (-73.982766 40.768532)",
      "poi_name": "Masa",
      "osm_id": 3932353664,
      "amenity": "restaurant",
      "cuisine": "sushi",
      "wikidata": "Q12408773",
      "addr_state": "NY",
      "addr_city": "New York",
      "addr_postcode": "10019",
      "addr_street": "Columbus Circle",
      "addr_housenumber": "10"
    },
    {
      "id": 151338,
      "geometry": "POINT (-73.984729 40.670847)",
      "poi_name": "Sushi Yashin",
      "osm_id": 4094809532,
      "amenity": "restaurant",
      "cuisine": "sushi",
      "opening_hours": "Mo-Th 13:00-21:30; Fr-Sa 13:00-22:00; Su 13:00-21:30",
      "website": "https://www.yashinsushibrooklyn.com/",
      "phone": "+1-718-788-6789",
      "outdoor_seating": "street",
      "addr_state": "NY",
      "addr_city": "Brooklyn",
      "addr_postcode": "11215",
      "addr_street": "5th Avenue",
      "addr_housenumber": "381"
    },
    {
      "id": 160251,
      "geometry": "POINT (-74.660127 40.349734)",
      "poi_name": "MTea Sushi & Dessert",
      "osm_id": 4828008626,
      "amenity": "restaurant",
      "cuisine": "sushi",
      "addr_state": "NJ",
      "addr_city": "Princeton",
      "addr_postcode": "08542",
      "addr_street": "Nassau Street",
      "addr_housenumber": "86"
    },
    {
      "id": 163914,
      "geometry": "POINT (-74.006316 40.621176)",
      "poi_name": "Fujiyama",
      "osm_id": 9441305090,
      "amenity": "restaurant",
      "cuisine": "japanese;sushi",
      "opening_hours": "Mo-Sa 11:30-23:00; Su off",
      "phone": "+1-718-256-8188",
      "addr_state": "NY",
      "addr_city": "Brooklyn",
      "addr_postcode": "11228",
      "addr_street": "13th Avenue",
      "addr_housenumber": "7307"
    },
    {
      "id": 162757,
      "geometry": "POINT (-74.270282 40.934138)",
      "poi_name": "Lee's Wayne Sushi",
      "osm_id": 4940649021,
      "amenity": "restaurant",
      "cuisine": "sushi",
      "addr_state": "NJ",
      "addr_city": "Wayne",
      "addr_postcode": "07470",
      "addr_street": "NJ-23",
      "addr_housenumber": "1475"
    },
    {
      "id": 170194,
      "geometry": "POINT (-73.873594 41.016107)",
      "poi_name": "Sushi Mike's",
      "osm_id": 2328543592,
      "amenity": "restaurant",
      "cuisine": "sushi",
      "wheelchair": "no",
      "opening_hours": "Tu-Th, Su 15:00-21:00; Fr, Sa 15:00-21:30",
      "website": "https://www.sushimikes.com/",
      "phone": "+1 914-591-0054",
      "addr_state": "NY",
      "addr_city": "Dobbs Ferry",
      "addr_postcode": "10522",
      "addr_street": "Main Street",
      "addr_housenumber": "146"
    },
    {
      "id": 169539,
      "geometry": "POINT (-73.992227 40.746898)",
      "poi_name": "Izumi",
      "osm_id": 2307167700,
      "amenity": "restaurant",
      "cuisine": "sushi",
      "website": "http://www.izumisushiny.com/",
      "addr_state": "NY",
      "addr_city": "New York",
      "addr_street": "West 28th Street",
      "addr_housenumber": "139"
    },
    {
      "id": 170195,
      "geometry": "POINT (-73.8764 41.014008)",
      "poi_name": "Sushi Niji",
      "osm_id": 2328543593,
      "amenity": "restaurant",
      "cuisine": "sushi",
      "opening_hours": "Mo, We, Th 11:15-15:15, 16:15-22:00; Fr 11:15-15:15, 16:15-22:30; Sa 12:15-22:30; Su 13:00-22:00",
      "website": "https://www.73sushiniji.com/",
      "phone": "+1 914-693-8838",
      "takeaway": "yes",
      "delivery": "yes",
      "addr_state": "NY",
      "addr_city": "Dobbs Ferry",
      "addr_postcode": "10522",
      "addr_street": "Main Street",
      "addr_housenumber": "73"
    },
    {
      "id": 173360,
      "geometry": "POINT (-74.291482 41.002868)",
      "poi_name": "Mr. Sushi",
      "osm_id": 2434565687,
      "amenity": "restaurant",
      "cuisine": "sushi",
      "addr_state": "NJ",
      "addr_city": "Pompton Lakes",
      "addr_postcode": "07442",
      "addr_street": "Wanaque Avenue",
      "addr_housenumber": "298"
    },
    {
      "id": 175578,
      "geometry": "POINT (-74.11089 40.634633)",
      "poi_name": "Sushi Wen",
      "osm_id": 2526690073,
      "amenity": "restaurant",
      "cuisine": "japanese;sushi",
      "opening_hours": "Mo-Th 11:00-22:30; Fr-Sa 11:00-23:00; Su 12:00-22:00",
      "phone": "+1-718-816-8279",
      "addr_state": "NY",
      "addr_city": "Staten Island",
      "addr_postcode": "10310",
      "addr_street": "Castleton Avenue",
      "addr_housenumber": "856"
    },
    {
      "id": 179976,
      "geometry": "POINT (-74.402303 40.456444)",
      "poi_name": "Wasabi House",
      "osm_id": 10784647505,
      "amenity": "restaurant",
      "cuisine": "japanese;sushi",
      "opening_hours": "Mo-Fr 11:00-15:00, 16:00-21:00; Sa 11:00-21:00; Su 12:00-21:00",
      "website": "http://wasabihouseeb.com",
      "phone": "732-254-9988",
      "addr_state": "NJ",
      "addr_city": "East Brunswick",
      "addr_postcode": "08826",
      "addr_street": "Tices Lane",
      "addr_housenumber": "77"
    },
    {
      "id": 180802,
      "geometry": "POINT (-74.598382 40.962847)",
      "poi_name": "China King",
      "osm_id": 10819751604,
      "amenity": "restaurant",
      "cuisine": "chinese;asian;japanese;thai;sushi",
      "addr_state": "NJ",
      "addr_city": "Lake Hopatcong",
      "addr_postcode": "07849",
      "addr_street": "Bowling Green Parkway",
      "addr_housenumber": "5"
    },
    {
      "id": 181055,
      "geometry": "POINT (-74.004541 40.731741)",
      "poi_name": "Sushi Nakazawa",
      "osm_id": 10830817798,
      "amenity": "restaurant",
      "cuisine": "japanese;sushi",
      "addr_city": "New York",
      "addr_postcode": "10009",
      "addr_street": "Saint Mark's Place",
      "addr_housenumber": "23"
    },
    {
      "id": 181056,
      "geometry": "POINT (-73.983552 40.726738)",
      "poi_name": "Sushi Mumi",
      "osm_id": 10830817799,
      "amenity": "restaurant",
      "cuisine": "japanese;sushi",
      "addr_city": "New York",
      "addr_postcode": "10009",
      "addr_street": "Saint Mark's Place",
      "addr_housenumber": "130"
    },
    {
      "id": 180491,
      "geometry": "POINT (-73.810191 40.719754)",
      "poi_name": "Mira Sushi",
      "osm_id": 10803289066,
      "amenity": "restaurant",
      "cuisine": "sushi",
      "addr_state": "NY",
      "addr_city": "Flushing",
      "addr_postcode": "11367",
      "addr_street": "Union Turnpike",
      "addr_housenumber": "153-11"
    },
    {
      "id": 194722,
      "geometry": "POINT (-74.067635 41.107748)",
      "poi_name": "Chi Pizza",
      "osm_id": 10281859716,
      "amenity": "restaurant",
      "cuisine": "pizza;sushi",
      "opening_hours": "Mo-Su 11:00-20:00",
      "addr_state": "NY",
      "addr_city": "Monsey",
      "addr_postcode": "10952",
      "addr_street": "Rute 59",
      "addr_housenumber": "100"
    },
    {
      "id": 185340,
      "geometry": "POINT (-73.736112 40.952251)",
      "poi_name": "Ginban Asian Bistro",
      "osm_id": 7846424447,
      "amenity": "restaurant",
      "cuisine": "sushi",
      "addr_state": "NY",
      "addr_city": "Mamaroneck",
      "addr_postcode": "10543",
      "addr_street": "Mamaroneck Avenue",
      "addr_housenumber": "421"
    },
    {
      "id": 190953,
      "geometry": "POINT (-74.662599 40.34957)",
      "poi_name": "Ajihei",
      "osm_id": 1325970496,
      "amenity": "restaurant",
      "cuisine": "sushi",
      "addr_state": "NJ",
      "addr_postcode": "08542",
      "addr_street": "Chamber Street",
      "addr_housenumber": "11"
    },
    {
      "id": 185249,
      "geometry": "POINT (-73.735398 40.95122)",
      "poi_name": "Zenzo Sushi",
      "osm_id": 7840403952,
      "amenity": "restaurant",
      "cuisine": "sushi",
      "addr_state": "NY",
      "addr_city": "Mamaroneck",
      "addr_postcode": "10543",
      "addr_street": "Mamaroneck Avenue",
      "addr_housenumber": "328"
    },
    {
      "id": 191654,
      "geometry": "POINT (-73.980359 40.765385)",
      "poi_name": "Lili's 57",
      "osm_id": 1383955419,
      "amenity": "restaurant",
      "cuisine": "sushi",
      "website": "http://lilis57.com/",
      "addr_city": "New York",
      "addr_postcode": "10019",
      "addr_street": "West 57th Street",
      "addr_housenumber": "200"
    },
    {
      "id": 197292,
      "geometry": "POINT (-73.970563 40.847821)",
      "poi_name": "Sushi House",
      "osm_id": 10628137668,
      "amenity": "restaurant",
      "cuisine": "sushi",
      "website": "https://njsushihouse.com/",
      "phone": "+1 201-947-8884",
      "takeaway": "yes",
      "addr_state": "NJ",
      "addr_city": "Fort Lee",
      "addr_postcode": "07024",
      "addr_street": "Lemoine Avenue",
      "addr_housenumber": "1562"
    },
    {
      "id": 197233,
      "geometry": "POINT (-74.01008 40.713044)",
      "poi_name": "Ito",
      "osm_id": 10619086494,
      "amenity": "restaurant",
      "cuisine": "sushi",
      "opening_hours": "Tu-Sa 18:00,20:45",
      "website": "https://itotribeca.com/",
      "addr_state": "NY",
      "addr_city": "New York",
      "addr_postcode": "10007",
      "addr_street": "Barclay Street",
      "addr_housenumber": "75"
    },
    {
      "id": 198275,
      "geometry": "POINT (-73.826827 40.76139)",
      "poi_name": "Sushi Family Express",
      "osm_id": 10695883331,
      "amenity": "restaurant",
      "cuisine": "sushi;japanese;bento;sakai",
      "opening_hours": "Mo-Su 11:00-22:30",
      "website": "sushifamilyny.com",
      "phone": "(718) 321-2231",
      "takeaway": "yes",
      "outdoor_seating": "no",
      "delivery": "yes",
      "addr_state": "NY",
      "addr_city": "Flushing",
      "addr_postcode": "11354",
      "addr_street": "Union Street",
      "addr_housenumber": "38-09"
    },
    {
      "id": 203695,
      "geometry": "POINT (-73.986098 40.728599)",
      "poi_name": "Sushi Kai",
      "osm_id": 7098499225,
      "amenity": "restaurant",
      "cuisine": "sushi",
      "opening_hours": "Mo-Th 17:00-22:00; Fr-Su 13:00-22:00",
      "website": "https://www.sushikainyc.com",
      "phone": "+1-929-420-5917",
      "outdoor_seating": "street",
      "addr_state": "NY",
      "addr_city": "New York",
      "addr_postcode": "10003",
      "addr_street": "East 9th Street",
      "addr_housenumber": "332"
    },
    {
      "id": 202282,
      "geometry": "POINT (-75.028225 40.101886)",
      "poi_name": "Ahi Sushi",
      "osm_id": 7018090707,
      "amenity": "restaurant",
      "cuisine": "sushi",
      "addr_city": "Philadelphia",
      "addr_postcode": "19115",
      "addr_street": "Bustleton Avenue",
      "addr_housenumber": "9997"
    },
    {
      "id": 204811,
      "geometry": "POINT (-73.631689 40.864015)",
      "poi_name": "Tokyo Sushi",
      "osm_id": 7143280303,
      "amenity": "restaurant",
      "cuisine": "sushi",
      "addr_state": "NY",
      "addr_city": "Glen Cove",
      "addr_street": "Glen Street"
    },
    {
      "id": 205272,
      "geometry": "POINT (-73.975825 40.78688)",
      "poi_name": "Kitaro Sushi",
      "osm_id": 7161597623,
      "amenity": "restaurant",
      "cuisine": "sushi",
      "opening_hours": "Mo-Su 12:00-21:30",
      "website": "https://www.kitarosushiny.com",
      "phone": "+1 212-787-9008",
      "addr_state": "NY",
      "addr_city": "New York",
      "addr_postcode": "10024",
      "addr_street": "Amsterdam Avenue",
      "addr_housenumber": "510"
    },
    {
      "id": 205170,
      "geometry": "POINT (-73.972737 40.79111)",
      "poi_name": "Miyako",
      "osm_id": 7159234141,
      "amenity": "restaurant",
      "cuisine": "sushi",
      "opening_hours": "Mo-Su 11:30-22:45",
      "website": "https://www.miyakosushinyc.com",
      "takeaway": "yes",
      "delivery": "yes",
      "addr_state": "NY",
      "addr_city": "New York",
      "addr_postcode": "10025",
      "addr_street": "Amsterdam Avenue",
      "addr_housenumber": "642"
    },
    {
      "id": 208418,
      "geometry": "POINT (-73.119985 40.916009)",
      "poi_name": "Jasmine",
      "osm_id": 4990450576,
      "amenity": "restaurant",
      "cuisine": "chinese;korean;japanese;sushi;tea",
      "description": "Types of payment accepted: \u2022 Dining Dollars \u2022 Wolfie Wallet \u2022 Cash \u2022 Credit/Debit",
      "website": "https://stonybrook.edu/jasmine",
      "phone": "+1-631-632-1858",
      "takeaway": "yes",
      "outdoor_seating": "yes",
      "addr_state": "NY",
      "addr_city": "Stony Brook"
    },
    {
      "id": 207279,
      "geometry": "POINT (-74.008449 40.637378)",
      "poi_name": "Daizen",
      "osm_id": 7245658925,
      "amenity": "restaurant",
      "cuisine": "sushi",
      "wheelchair": "yes",
      "opening_hours": "Mo-Fr 12:00-23:00; Sa-Su 11:30-23:30",
      "website": "http://www.daizenbrooklyn.com/",
      "internet_access": "yes",
      "phone": "+1-718-567-0888",
      "outdoor_seating": "yes",
      "addr_state": "NY",
      "addr_city": "Brooklyn",
      "addr_postcode": "11220",
      "addr_street": "57th Street",
      "addr_housenumber": "768"
    },
    {
      "id": 207417,
      "geometry": "POINT (-73.991533 40.715365)",
      "poi_name": "Sushi Oku",
      "osm_id": 4947717723,
      "amenity": "restaurant",
      "cuisine": "sushi;japanese",
      "opening_hours": "Wednesday-Monday - 5:30-12:00am",
      "website": "www.sushioku.com",
      "takeaway": "no",
      "addr_state": "NY",
      "addr_city": "New York",
      "addr_postcode": "10002",
      "addr_street": "Orchard Street",
      "addr_housenumber": "22"
    },
    {
      "id": 210861,
      "geometry": "POINT (-75.223106 40.209072)",
      "poi_name": "Kumo Asian Bistro",
      "osm_id": 5125361467,
      "amenity": "restaurant",
      "cuisine": "asian;sushi",
      "addr_state": "PA",
      "addr_city": "North Wales",
      "addr_postcode": "19454",
      "addr_street": "Bethlehem Pike",
      "addr_housenumber": "1460"
    },
    {
      "id": 211686,
      "geometry": "POINT (-75.240858 40.244806)",
      "poi_name": "Cho Cho San Sushi Bar",
      "osm_id": 5168010745,
      "amenity": "restaurant",
      "cuisine": "sushi;chinese;japanese",
      "addr_state": "PA",
      "addr_city": "North Wales",
      "addr_postcode": "19454",
      "addr_street": "North Wales Road",
      "addr_housenumber": "981"
    },
    {
      "id": 212081,
      "geometry": "POINT (-73.985554 40.748398)",
      "poi_name": "Sushi teria",
      "osm_id": 5189146499,
      "amenity": "restaurant",
      "cuisine": "sushi",
      "opening_hours": "Mo-Fr 11:00-09:00",
      "delivery": "yes",
      "addr_state": "NY",
      "addr_city": "New York",
      "addr_postcode": "10118",
      "addr_street": "5th Avenue",
      "addr_housenumber": "350"
    },
    {
      "id": 212094,
      "geometry": "POINT (-74.414498 40.756993)",
      "poi_name": "Takuma Japanese Restaurant",
      "osm_id": 5189713945,
      "amenity": "restaurant",
      "cuisine": "japanese;sushi",
      "opening_hours": "Mo-Th 11:30-14:30, 16:30-22:00; Fr-Sa 11:30-14:30, 16:30-23:00",
      "takeaway": "yes",
      "outdoor_seating": "no",
      "addr_state": "NJ",
      "addr_city": "Madison",
      "addr_postcode": "07940",
      "addr_street": "Lincoln Place",
      "addr_housenumber": "42"
    },
    {
      "id": 216087,
      "geometry": "POINT (-75.388358 40.088446)",
      "poi_name": "Bonchon Chicken",
      "osm_id": 9153322472,
      "amenity": "restaurant",
      "cuisine": "chicken;korean;sushi",
      "opening_hours": "Mo-Th 11:00-20:00; Fr-Sa 11:00-21:00; Su 11:00-18:00",
      "website": "https://locations.bonchon.com/ll/US/PA/King-of-Prussia/350-Mall-Blvd",
      "phone": "+1 610-870-0888",
      "addr_state": "PA",
      "addr_city": "King of Prussia",
      "addr_postcode": "19406",
      "addr_street": "Mall Boulevard",
      "addr_housenumber": "350"
    },
    {
      "id": 215960,
      "geometry": "POINT (-75.748064 39.683336)",
      "poi_name": "Oishii Sushi & Ramen",
      "osm_id": 5319098226,
      "amenity": "restaurant",
      "cuisine": "sushi",
      "opening_hours": "Mo-Th 11:30-22:00; Fr,Sa 11:30-23:00; Su 12:00-22:00",
      "addr_state": "DE",
      "addr_city": "Newark",
      "addr_postcode": "19711",
      "addr_street": "East Main Street",
      "addr_housenumber": "129"
    },
    {
      "id": 215739,
      "geometry": "POINT (-73.702943 40.636322)",
      "poi_name": "New Great Wall",
      "osm_id": 5311468009,
      "amenity": "restaurant",
      "cuisine": "chinese;sushi",
      "opening_hours": "Mo-Th 11:00-22:00; Fr, Sa 11:00-22:30; Su 11:00-22:00",
      "website": "https://www.newgreatwallhewlett.com/",
      "phone": "+1-516-792-0856",
      "takeaway": "yes",
      "addr_state": "NY",
      "addr_city": "Hewlett",
      "addr_postcode": "11557",
      "addr_street": "Broadway",
      "addr_housenumber": "1191"
    },
    {
      "id": 216012,
      "geometry": "POINT (-73.857044 40.717244)",
      "poi_name": "Yellowstone Sushi",
      "osm_id": 9147058666,
      "amenity": "restaurant",
      "cuisine": "sushi",
      "opening_hours": "Mo-Th 11:00-21:30; Fr-Sa 11:00-22:00",
      "website": "https://www.yellowstonesushi.com",
      "phone": "+1 718 261 8882",
      "addr_state": "NY",
      "addr_city": "Forest Hills",
      "addr_postcode": "11375",
      "addr_street": "Selfridge Street",
      "addr_housenumber": "66-73"
    },
    {
      "id": 220926,
      "geometry": "POINT (-75.240118 40.005078)",
      "poi_name": "Maki Han",
      "osm_id": 10963860650,
      "amenity": "restaurant",
      "cuisine": "sushi;asian;chinese",
      "website": "https://www.makisanbalacynwyd.com/menu.aspx",
      "addr_state": "PA",
      "addr_city": "Bala Cynwyd",
      "addr_postcode": "19004",
      "addr_street": "Montgomery Avenue",
      "addr_housenumber": "138"
    },
    {
      "id": 219199,
      "geometry": "POINT (-74.197267 40.942662)",
      "poi_name": "Bento Sushi",
      "osm_id": 9317008518,
      "amenity": "restaurant",
      "cuisine": "sushi",
      "addr_state": "NJ",
      "addr_city": "Wayne",
      "addr_postcode": "07470",
      "addr_street": "Pompton Road",
      "addr_housenumber": "300"
    },
    {
      "id": 224101,
      "geometry": "POINT (-73.952797 40.577386)",
      "poi_name": "O'Sushi & Bar",
      "osm_id": 11074051852,
      "amenity": "restaurant",
      "cuisine": "sushi",
      "wheelchair": "yes",
      "opening_hours": "Mo off; Tu-Su 13:00-24:00",
      "website": "https://www.osushiny.com/",
      "phone": "+1-718-676-5232",
      "outdoor_seating": "yes",
      "addr_state": "NY",
      "addr_city": "Brooklyn",
      "addr_postcode": "11235",
      "addr_street": "West End Avenue",
      "addr_housenumber": "181"
    },
    {
      "id": 225875,
      "geometry": "POINT (-73.909326 40.700467)",
      "poi_name": "Miyama",
      "osm_id": 11141909156,
      "amenity": "restaurant",
      "cuisine": "japanese;sushi;steak",
      "opening_hours": "Mo-Th 11:30-22:30; Fr-Sa 11:30-23:00; Su 12:00-22:00",
      "website": "https://www.miyamany.com/",
      "phone": "+1-917-909-0833",
      "takeaway": "yes",
      "addr_state": "NY",
      "addr_city": "Ridgewood",
      "addr_postcode": "11385",
      "addr_street": "Saint Nicholas Avenue",
      "addr_housenumber": "349"
    },
    {
      "id": 235476,
      "geometry": "POINT (-73.988871 40.73895)",
      "poi_name": "SUGARFISH by sushi nozawa",
      "osm_id": 5757232056,
      "amenity": "restaurant",
      "cuisine": "sushi",
      "website": "https://sugarfishsushi.com/",
      "takeaway": "yes",
      "outdoor_seating": "no",
      "addr_state": "NY",
      "addr_city": "New York",
      "addr_postcode": "10003",
      "addr_street": "East 22nd Street",
      "addr_housenumber": "33"
    },
    {
      "id": 236881,
      "geometry": "POINT (-74.013514 40.706667)",
      "poi_name": "Bravo Kosher Pizza",
      "osm_id": 5810383921,
      "amenity": "restaurant",
      "cuisine": "pizza;sushi",
      "wheelchair": "yes",
      "opening_hours": "Mo-Th 10:00-19:00",
      "website": "https://www.bravokosherdowntown.com/",
      "phone": "+1-212-344-1111",
      "drive_through": "no",
      "outdoor_seating": "yes",
      "addr_state": "NY",
      "addr_city": "New York",
      "addr_postcode": "10006",
      "addr_street": "Trinity Place",
      "addr_housenumber": "17"
    },
    {
      "id": 239097,
      "geometry": "POINT (-73.721642 40.623395)",
      "poi_name": "Wok Tov",
      "osm_id": 5905405486,
      "amenity": "restaurant",
      "cuisine": "sushi",
      "phone": "+1-516-295-3843",
      "takeaway": "yes",
      "outdoor_seating": "no",
      "addr_state": "NY",
      "addr_city": "Cedarhurst",
      "addr_postcode": "11516",
      "addr_street": "Central Avenue",
      "addr_housenumber": "596"
    },
    {
      "id": 239108,
      "geometry": "POINT (-73.724474 40.621318)",
      "poi_name": "Sushi Metsuyan",
      "osm_id": 5906325407,
      "amenity": "restaurant",
      "cuisine": "sushi",
      "addr_state": "NY",
      "addr_city": "Cedarhurst",
      "addr_postcode": "11516",
      "addr_street": "Central Avenue",
      "addr_housenumber": "488"
    },
    {
      "id": 239236,
      "geometry": "POINT (-73.592366 40.735292)",
      "poi_name": "DJ's International Buffet",
      "osm_id": 5912806308,
      "amenity": "restaurant",
      "cuisine": "buffet;sushi;asian;chinese;american",
      "website": "http://www.djsbuffet.com/",
      "phone": "(516)-2272-472",
      "addr_state": "NY",
      "addr_city": "Garden City",
      "addr_postcode": "11530",
      "addr_street": "Stewart Avenue",
      "addr_housenumber": "1100"
    },
    {
      "id": 239972,
      "geometry": "POINT (-73.729455 40.617647)",
      "poi_name": "Sushi Tokyo",
      "osm_id": 5947664594,
      "amenity": "restaurant",
      "cuisine": "sushi",
      "phone": "+1-516-882-2244",
      "addr_state": "NY",
      "addr_city": "Lawrence",
      "addr_postcode": "11559",
      "addr_street": "Central Avenue",
      "addr_housenumber": "337"
    },
    {
      "id": 242219,
      "geometry": "POINT (-73.654032 40.696312)",
      "poi_name": "Oma's Sushi",
      "osm_id": 6063716977,
      "amenity": "restaurant",
      "cuisine": "sushi",
      "phone": "+1-516-481-3781",
      "addr_state": "NY",
      "addr_city": "West Hempstead",
      "addr_postcode": "11552",
      "addr_street": "Hempstead Avenue",
      "addr_housenumber": "492"
    },
    {
      "id": 243532,
      "geometry": "POINT (-73.985514 40.771858)",
      "poi_name": "Rolls & Bowls",
      "osm_id": 7657278602,
      "amenity": "restaurant",
      "cuisine": "sushi",
      "opening_hours": "Mo-Fr 11:00-21:00",
      "website": "https://svkfoodhall.com/",
      "takeaway": "yes",
      "outdoor_seating": "no",
      "delivery": "yes",
      "addr_state": "NY",
      "addr_city": "New York",
      "addr_postcode": "10023",
      "addr_street": "West 62nd Street",
      "addr_housenumber": "150"
    }
  ],
  "answer_type": "loc",
  "question_entities": {
    "[1]": {
      "main_category": "amenity",
      "sub_category": "restaurant",
      "poi_filter_desc": "Sushi restaurant",
      "poi_filter_sql": "cuisine ILIKE '%Sushi%'"
    },
    "[2]": {
      "distance": 180000,
      "text": "180 kilometers"
    },
    "[3]": {
      "main_category": "amenity",
      "sub_category": "hospital",
      "display_name": "Atlantic Rehabilitation Institute, Madison, NJ",
      "geo_wkt": "POINT (-74.43567 40.767262)",
      "poi": {
        "id": 182635,
        "geometry": "POINT (-74.43567 40.767262)",
        "poi_name": "Atlantic Rehabilitation Institute",
        "osm_id": 10897766631,
        "amenity": "hospital",
        "website": "https://www.atlanticrehabinstitute.com",
        "phone": "+1 973 549 7440",
        "healthcare": "rehabilitation",
        "addr_state": "NJ",
        "addr_city": "Madison",
        "addr_postcode": "07940",
        "addr_street": "Giralda Farms",
        "addr_housenumber": "4"
      }
    }
  },
  "id": 492,
  "type": "range:non_spat_filter+loc"
}