{
  "question": "I'm searching for a museum within 110 kilometers radius from Philbrick Park, Farmington, ME, any suggestions?",
  "sql": "SELECT * FROM pois\nWHERE ST_DWithin(pois.geometry, ST_GeomFromText('POINT (-70.074445 44.622493)',4326)::geography, 110000)\nAND tourism = 'museum';\n",
  "answers": [
    {
      "id": 190,
      "geometry": "POINT (-69.633873 44.546945)",
      "poi_name": "Redington Museum",
      "osm_id": 476660194,
      "tourism": "museum",
      "website": "https://www.watervillehistoricalsociety.org/"
    },
    {
      "id": 1084,
      "geometry": "POINT (-69.798465 44.713339)",
      "poi_name": "Norridgewock Historical Society",
      "osm_id": 2825541158,
      "tourism": "museum",
      "website": "https://norridgewockhistoricalsociety.org/"
    },
    {
      "id": 1582,
      "geometry": "POINT (-69.227364 45.18338)",
      "poi_name": "Dover-Foxcroft Historical Society & Museum",
      "osm_id": 3057103794,
      "tourism": "museum",
      "website": "https://dover-foxcrofthistoricalsociety.org/"
    },
    {
      "id": 2241,
      "geometry": "POINT (-71.1292 44.0553)",
      "poi_name": "Weather Discovery Center",
      "osm_id": 3351123846,
      "tourism": "museum",
      "information": "office",
      "opening_hours": "Mo-Su 10:00-15:00",
      "website": "https://www.mountwashington.org/visit-us/weather-discovery-center/",
      "addr_state": "NH",
      "addr_city": "North Conway",
      "addr_postcode": "03860",
      "addr_street": "White Mountain Road",
      "addr_housenumber": "2779"
    },
    {
      "id": 2288,
      "geometry": "POINT (-70.073303 43.796437)",
      "poi_name": "Bustins Island Historical Society",
      "osm_id": 3366864133,
      "tourism": "museum",
      "website": "https://bustinsislandhistoricalsociety.yolasite.com/"
    },
    {
      "id": 4086,
      "geometry": "POINT (-69.008436 44.425991)",
      "poi_name": "Belfast Historical Society",
      "osm_id": 5668113755,
      "tourism": "museum",
      "website": "https://www.belfastmuseum.org/",
      "phone": "+1-207-338-9229",
      "addr_state": "ME",
      "addr_city": "Belfast",
      "addr_street": "Market Street",
      "addr_housenumber": "10"
    },
    {
      "id": 4544,
      "geometry": "POINT (-69.963585 43.913908)",
      "poi_name": "Pejepscot Historical Society",
      "osm_id": 11301454667,
      "tourism": "museum",
      "operator": "Pejepscot Historical Society",
      "museum": "history",
      "addr_state": "ME",
      "addr_city": "Brunswick",
      "addr_postcode": "04011",
      "addr_street": "Park Row",
      "addr_housenumber": "159"
    },
    {
      "id": 5110,
      "geometry": "POINT (-70.800576 43.881226)",
      "poi_name": "Great Ossipee Museum",
      "osm_id": 9756622619,
      "tourism": "museum",
      "operator": "Hiram Historical Society",
      "website": "https://www.hiramhistoricalsociety.org/"
    },
    {
      "id": 6225,
      "geometry": "POINT (-68.903989 44.309173)",
      "poi_name": "Islesboro historical society",
      "osm_id": 1786771434,
      "tourism": "museum"
    },
    {
      "id": 7930,
      "geometry": "POINT (-69.624042 44.060971)",
      "poi_name": "Wiscasset, Waterville and Farmington Railway Museum",
      "osm_id": 6479386753,
      "tourism": "museum",
      "wheelchair": "limited",
      "fee": "yes",
      "opening_hours": "Sa 10:00-15:00 || \"Saturdays and Sundays Memorial Day through Labor Day Weekends.\"",
      "website": "https://www.wwfry.org",
      "phone": "+1-207-882-4193",
      "wikidata": "Q2586049",
      "addr_state": "ME",
      "addr_city": "Alna",
      "addr_postcode": "04535",
      "addr_street": "Cross Road",
      "addr_housenumber": "97"
    },
    {
      "id": 8041,
      "geometry": "POINT (-69.048912 44.201417)",
      "poi_name": "Curtis Island Lighthouse",
      "osm_id": 6532631970,
      "tourism": "museum",
      "wikidata": "Q5195779"
    },
    {
      "id": 8068,
      "geometry": "POINT (-69.771024 44.315979)",
      "poi_name": "Old Fort Western",
      "osm_id": 6546816614,
      "historic": "yes",
      "tourism": "museum",
      "website": "https://www.facebook.com/oldfortwestern/",
      "wikidata": "Q4492009"
    },
    {
      "id": 8137,
      "geometry": "POINT (-68.806064 44.383943)",
      "poi_name": "The Wilson Museum",
      "osm_id": 6573331538,
      "historic": "house",
      "tourism": "museum",
      "fee": "no",
      "website": "https://www.wilsonmuseum.org/",
      "phone": "+1 (207) 326-9247",
      "wikidata": "Q8023151",
      "addr_state": "ME",
      "addr_city": "Castine",
      "addr_postcode": "04421",
      "addr_street": "Perkins Street",
      "addr_housenumber": "120"
    },
    {
      "id": 8310,
      "geometry": "POINT (-69.795564 44.338016)",
      "poi_name": "Michael Klahr Center",
      "osm_id": 6616331676,
      "tourism": "museum",
      "operator": "The Holocaust and Human Rights Center of Maine",
      "website": "https://www.hhrcmaine.org/",
      "addr_state": "ME",
      "addr_city": "Augusta",
      "addr_postcode": "04330",
      "addr_street": "Jewett Drive",
      "addr_housenumber": "20"
    },
    {
      "id": 9372,
      "geometry": "POINT (-68.759848 44.805736)",
      "poi_name": "Hose 5 Fire Museum",
      "osm_id": 3764469734,
      "tourism": "museum",
      "wikidata": "Q4855563",
      "addr_state": "ME",
      "addr_city": "Bangor",
      "addr_postcode": "04401",
      "addr_street": "State Street",
      "addr_housenumber": "247"
    },
    {
      "id": 9405,
      "geometry": "POINT (-70.155844 43.859288)",
      "poi_name": "Desert of Maine Farm Museum",
      "osm_id": 3789898814,
      "tourism": "museum"
    },
    {
      "id": 10272,
      "geometry": "POINT (-70.193538 43.68361)",
      "poi_name": "Fort McKinley Museum",
      "osm_id": 6767583137,
      "tourism": "museum",
      "opening_hours": "Fr-Su 10:30-14:30",
      "website": "https://www.diamondcove.com/fort-mckinley-museum-2/"
    },
    {
      "id": 10640,
      "geometry": "POINT (-71.127 44.0512)",
      "poi_name": "New England Ski Museum",
      "osm_id": 6964612821,
      "tourism": "museum",
      "opening_hours": "Mo-Sa 09:00-16:00; Su 10:00-16:00",
      "website": "https://newenglandskimuseum.org/"
    },
    {
      "id": 12526,
      "geometry": "POINT (-68.796316 44.572014)",
      "poi_name": "Bucksport Historical Society Museum",
      "osm_id": 7289609786,
      "tourism": "museum",
      "website": "https://www.facebook.com/people/Bucksport-Historical-Society/100057153952600/",
      "wikidata": "Q4983533",
      "addr_state": "ME",
      "addr_city": "Bucksport",
      "addr_postcode": "04416",
      "addr_street": "Main Street",
      "addr_housenumber": "92;47"
    },
    {
      "id": 12711,
      "geometry": "POINT (-69.757925 43.707512)",
      "poi_name": "Seguin Lighthouse Museum and Gift Shop",
      "osm_id": 7481901167,
      "tourism": "museum",
      "website": "https://www.seguinisland.org/"
    },
    {
      "id": 12811,
      "geometry": "POINT (-69.719631 44.547499)",
      "poi_name": "Oakland historical artifacts & photo museum",
      "osm_id": 7566907154,
      "tourism": "museum",
      "addr_state": "ME",
      "addr_city": "Oakland",
      "addr_postcode": "04963",
      "addr_street": "Railroad Avenue",
      "addr_housenumber": "7"
    },
    {
      "id": 12812,
      "geometry": "POINT (-69.715327 44.548205)",
      "poi_name": "Mc Cartney House Museum",
      "osm_id": 7566918810,
      "tourism": "museum",
      "addr_state": "ME",
      "addr_city": "Oakland",
      "addr_postcode": "04963",
      "addr_street": "Main Street",
      "addr_housenumber": "25"
    },
    {
      "id": 14656,
      "geometry": "POINT (-70.035614 44.23796)",
      "poi_name": "Monmouth Museum",
      "osm_id": 4679478404,
      "tourism": "museum",
      "addr_state": "ME",
      "addr_city": "Monmouth",
      "addr_postcode": "04259",
      "addr_street": "Main Street",
      "addr_housenumber": "748"
    },
    {
      "id": 16273,
      "geometry": "POINT (-68.902254 44.282856)",
      "poi_name": "Maple Grove Cemetery",
      "osm_id": 358221830,
      "tourism": "museum"
    },
    {
      "id": 17401,
      "geometry": "POINT (-69.529275 44.031979)",
      "poi_name": "Chapman-Hall House Museum",
      "osm_id": 367795349,
      "tourism": "museum",
      "building": "yes",
      "opening_hours": "Sa-Su 12:00-16:00",
      "website": "https://www.lincolncountyhistory.org/visit/museums/chapman-hall-house/",
      "museum": "history",
      "wikidata": "Q23128520",
      "addr_state": "ME",
      "addr_city": "Damariscotta",
      "addr_postcode": "04543",
      "addr_street": "Main Street",
      "addr_housenumber": "270"
    },
    {
      "id": 17403,
      "geometry": "POINT (-69.11393 44.104247)",
      "poi_name": "Shore Village Museum",
      "osm_id": 367795351,
      "tourism": "museum",
      "addr_state": "ME"
    },
    {
      "id": 17406,
      "geometry": "POINT (-70.201919 44.108097)",
      "poi_name": "Bates College Museum of Art",
      "osm_id": 367795366,
      "tourism": "museum",
      "opening_hours": "Mo-Sa 10:00-17:00",
      "website": "https://www.bates.edu/museum/",
      "wikidata": "Q4868797",
      "addr_state": "ME",
      "addr_city": "Lewiston",
      "addr_postcode": "04240",
      "addr_street": "Russell Street",
      "addr_housenumber": "75"
    },
    {
      "id": 17409,
      "geometry": "POINT (-69.078216 44.196873)",
      "poi_name": "Mary Meeker Cramer Museum",
      "osm_id": 367795383,
      "tourism": "museum",
      "addr_state": "ME"
    },
    {
      "id": 17410,
      "geometry": "POINT (-69.281529 44.215686)",
      "poi_name": "Matthews Museum of Maine Heritage",
      "osm_id": 367795384,
      "tourism": "museum",
      "website": "https://matthewsmuseum.org/",
      "addr_state": "ME"
    },
    {
      "id": 17411,
      "geometry": "POINT (-69.11393 44.104247)",
      "poi_name": "Shore Village Lighthouse Museum Library",
      "osm_id": 367795385,
      "tourism": "museum",
      "addr_state": "ME"
    },
    {
      "id": 17412,
      "geometry": "POINT (-69.079064 44.199438)",
      "poi_name": "Conway House Museum",
      "osm_id": 367795386,
      "tourism": "museum",
      "website": "https://camdenrockporthistoricalsociety.org/our-facility/1770s-homestead/",
      "addr_state": "ME"
    },
    {
      "id": 17413,
      "geometry": "POINT (-69.335048 43.987304)",
      "poi_name": "Friendship Museum",
      "osm_id": 367795387,
      "tourism": "museum",
      "addr_state": "ME"
    },
    {
      "id": 17414,
      "geometry": "POINT (-69.066982 44.209801)",
      "poi_name": "Knox Mill Museum",
      "osm_id": 367795388,
      "tourism": "museum",
      "addr_state": "ME"
    },
    {
      "id": 17415,
      "geometry": "POINT (-69.180044 44.071192)",
      "poi_name": "Maine Watercraft Museum",
      "osm_id": 367795389,
      "tourism": "museum",
      "addr_state": "ME"
    },
    {
      "id": 17416,
      "geometry": "POINT (-70.789792 44.403954)",
      "poi_name": "Moses Mason House Museum",
      "osm_id": 367795394,
      "tourism": "museum",
      "website": "https://www.bethelhistorical.org/",
      "addr_state": "ME"
    },
    {
      "id": 17417,
      "geometry": "POINT (-70.968957 44.033681)",
      "poi_name": "Fryeburg Fair Farm Museum",
      "osm_id": 367795395,
      "tourism": "museum",
      "website": "https://www.fryeburgfair.org/p/exhibitions/history-museum",
      "phone": "+1-207-935-6097",
      "addr_state": "ME"
    },
    {
      "id": 17418,
      "geometry": "POINT (-70.789514 44.404232)",
      "poi_name": "Bethel Historical Society Regional History Museum",
      "osm_id": 367795396,
      "tourism": "museum",
      "addr_state": "ME"
    },
    {
      "id": 17419,
      "geometry": "POINT (-70.249777 44.082018)",
      "poi_name": "Auburn Fire Department Museum",
      "osm_id": 367795398,
      "tourism": "museum",
      "addr_state": "ME"
    },
    {
      "id": 17420,
      "geometry": "POINT (-70.223806 44.098111)",
      "poi_name": "Androscoggin County Historical Museum",
      "osm_id": 367795399,
      "tourism": "museum",
      "website": "https://androhistory.org/museum-library-2/",
      "addr_state": "ME"
    },
    {
      "id": 17421,
      "geometry": "POINT (-69.626958 44.662702)",
      "poi_name": "L C Bates Museum",
      "osm_id": 367795400,
      "tourism": "museum",
      "website": "https://www.gwh.org/programs/lc-bates-museum/",
      "wikidata": "Q6456375",
      "addr_state": "ME"
    },
    {
      "id": 17422,
      "geometry": "POINT (-69.672552 44.927003)",
      "poi_name": "Athens Historical Society Museum",
      "osm_id": 367795402,
      "tourism": "museum",
      "website": "https://www.athens.maine.gov/historical-society/",
      "addr_state": "ME",
      "addr_city": "Athens",
      "addr_postcode": "04912",
      "addr_street": "Academy Street",
      "addr_housenumber": "26"
    },
    {
      "id": 17423,
      "geometry": "POINT (-70.714368 44.982725)",
      "poi_name": "Wilhelm Reich Museum",
      "osm_id": 367795403,
      "tourism": "museum",
      "building": "residential",
      "website": "https://wilhelmreichmuseum.org/",
      "phone": "+1 (207) 864-3443",
      "museum": "history",
      "addr_state": "ME",
      "addr_city": "Rangeley",
      "addr_postcode": "04970",
      "addr_street": "Orgonon Circle",
      "addr_housenumber": "19"
    },
    {
      "id": 17424,
      "geometry": "POINT (-69.815457 43.893986)",
      "poi_name": "Maine Maritime Museum Library Archives",
      "osm_id": 367795414,
      "tourism": "museum",
      "website": "https://www.mainemaritimemuseum.org/collection/research/",
      "addr_state": "ME"
    },
    {
      "id": 17425,
      "geometry": "POINT (-69.803935 43.787861)",
      "poi_name": "Phippsburg Historical Museum",
      "osm_id": 367795415,
      "tourism": "museum",
      "website": "https://www.phippsburghistorical.com/",
      "addr_state": "ME"
    },
    {
      "id": 17426,
      "geometry": "POINT (-69.803176 44.088348)",
      "poi_name": "CHTJ Southard House Museum",
      "osm_id": 367795437,
      "tourism": "museum",
      "website": "https://www.richmondmaine.com/SouthardHouseMuseum",
      "phone": "+1 (207) 737-8202",
      "museum": "history",
      "addr_state": "ME",
      "addr_city": "Richmond",
      "addr_postcode": "04357",
      "addr_street": "Main Street",
      "addr_housenumber": "75"
    },
    {
      "id": 17429,
      "geometry": "POINT (-70.051993 43.712286)",
      "poi_name": "Admiral Robert E. Peary Home Museum",
      "osm_id": 367795463,
      "tourism": "museum",
      "website": "https://www.pearyeagleisland.org",
      "addr_state": "ME"
    },
    {
      "id": 17430,
      "geometry": "POINT (-70.704658 44.053556)",
      "poi_name": "Bridgton Historical Society Museum",
      "osm_id": 367795464,
      "historic": "yes",
      "tourism": "museum",
      "website": "https://www.bridgtonhistory.org/",
      "museum": "local",
      "addr_state": "ME"
    },
    {
      "id": 17431,
      "geometry": "POINT (-70.55157 43.736032)",
      "poi_name": "Daniel Marrett House Museum",
      "osm_id": 367795467,
      "tourism": "museum",
      "wikidata": "Q6772810",
      "addr_state": "ME"
    },
    {
      "id": 17432,
      "geometry": "POINT (-70.60968 43.970601)",
      "poi_name": "Naples Historical Society Museum",
      "osm_id": 367795471,
      "tourism": "museum",
      "website": "https://www.townofnaples.org/museum",
      "addr_state": "ME",
      "addr_city": "Naples",
      "addr_postcode": "04055",
      "addr_street": "Village Green Lane",
      "addr_housenumber": "21"
    },
    {
      "id": 17441,
      "geometry": "POINT (-69.593666 45.463102)",
      "poi_name": "Katahdin Museum",
      "osm_id": 367795509,
      "tourism": "museum",
      "addr_state": "ME"
    },
    {
      "id": 17442,
      "geometry": "POINT (-69.557824 43.879527)",
      "poi_name": "Thompson Harvesting Museum",
      "osm_id": 367795510,
      "tourism": "museum",
      "website": "https://www.thompsonicehouse.com/",
      "addr_state": "ME"
    },
    {
      "id": 17443,
      "geometry": "POINT (-69.591166 45.462546)",
      "poi_name": "Moosehead Marine Museum",
      "osm_id": 367795514,
      "tourism": "museum",
      "website": "https://www.katahdincruises.com/museum/",
      "addr_state": "ME"
    },
    {
      "id": 17444,
      "geometry": "POINT (-69.251157 45.196999)",
      "poi_name": "Old Blacksmith Shop Museum",
      "osm_id": 367795515,
      "tourism": "museum",
      "website": "https://dover-foxcrofthistoricalsociety.org/blacksmith-shop/",
      "addr_state": "ME"
    },
    {
      "id": 17451,
      "geometry": "POINT (-68.775036 44.799793)",
      "poi_name": "Isaac Farrar Mansion Museum",
      "osm_id": 367795535,
      "tourism": "museum",
      "addr_state": "ME"
    },
    {
      "id": 17452,
      "geometry": "POINT (-68.780036 44.813404)",
      "poi_name": "Godfrey House Museum",
      "osm_id": 367795537,
      "tourism": "museum",
      "addr_state": "ME"
    },
    {
      "id": 17454,
      "geometry": "POINT (-69.289662 45.025195)",
      "poi_name": "Dexter Historical Society Abbot Museum",
      "osm_id": 367795539,
      "tourism": "museum",
      "website": "https://dextermaine.info/abbott-museum.html",
      "wikidata": "Q22059338",
      "addr_state": "ME"
    },
    {
      "id": 17455,
      "geometry": "POINT (-68.762536 44.792293)",
      "poi_name": "Clewley Museum",
      "osm_id": 367795541,
      "tourism": "museum",
      "website": "https://www.brewerhistoricalsociety.org/",
      "addr_state": "ME"
    },
    {
      "id": 17456,
      "geometry": "POINT (-70.290768 43.65073)",
      "poi_name": "Children's Museum & Theatre of Maine",
      "osm_id": 367795543,
      "tourism": "museum",
      "wheelchair": "yes",
      "fee": "yes",
      "opening_hours": "We-Su 09:00-16:00",
      "website": "https://www.kitetails.org/",
      "wikidata": "Q5098174",
      "addr_state": "ME",
      "addr_city": "Portland",
      "addr_postcode": "04102",
      "addr_street": "Thompsons Point Road",
      "addr_housenumber": "250"
    },
    {
      "id": 17458,
      "geometry": "POINT (-70.262585 43.65389)",
      "poi_name": "Portland Museum of Art",
      "osm_id": 367795548,
      "tourism": "museum",
      "wheelchair": "yes",
      "website": "https://www.portlandmuseum.org/",
      "phone": "+1-207-775-6148",
      "wikidata": "Q2105170",
      "addr_state": "ME",
      "addr_city": "Portland",
      "addr_postcode": "04101",
      "addr_street": "Congress Street",
      "addr_housenumber": "7"
    },
    {
      "id": 19748,
      "geometry": "POINT (-68.874635 44.149371)",
      "poi_name": "North Haven Historical Society",
      "osm_id": 10869725656,
      "tourism": "museum",
      "operator": "North Haven Historical Society",
      "website": "http://www.northhavenmainehistoricalsociety.org/",
      "museum": "history",
      "addr_state": "ME",
      "addr_city": "North Haven",
      "addr_postcode": "04853",
      "addr_street": "Pulpit Harbor Road",
      "addr_housenumber": "77"
    },
    {
      "id": 19787,
      "geometry": "POINT (-68.874162 44.149192)",
      "poi_name": "North Haven Museum",
      "osm_id": 10874271950,
      "tourism": "museum",
      "operator": "North Haven Museum",
      "website": "http://www.northhavenmainehistoricalsociety.org/",
      "museum": "history",
      "addr_state": "ME",
      "addr_city": "North Haven",
      "addr_street": "Pulpit Harbor Road"
    },
    {
      "id": 20433,
      "geometry": "POINT (-70.25303 43.662536)",
      "poi_name": "Maine Jewish Museum",
      "osm_id": 1167617649,
      "tourism": "museum",
      "website": "https://mainejewishmuseum.org/",
      "addr_state": "ME",
      "addr_city": "Portland",
      "addr_postcode": "04101",
      "addr_street": "Congress Street",
      "addr_housenumber": "267"
    },
    {
      "id": 21234,
      "geometry": "POINT (-68.942836 44.281642)",
      "poi_name": "Islesboro sailors memorial",
      "osm_id": 1448104534,
      "tourism": "museum"
    },
    {
      "id": 21438,
      "geometry": "POINT (-69.959918 43.907904)",
      "poi_name": "Peary\u2013MacMillan Arctic Museum",
      "osm_id": 10262962459,
      "tourism": "museum",
      "operator": "Bowdoin College",
      "wikidata": "Q7158400",
      "addr_state": "ME",
      "addr_city": "Brunswick",
      "addr_postcode": "04011",
      "addr_street": "Polar Loop",
      "addr_housenumber": "10"
    },
    {
      "id": 22573,
      "geometry": "POINT (-69.370199 44.101005)",
      "poi_name": "Waldoborough Historical Society Museum",
      "osm_id": 7159535347,
      "tourism": "museum",
      "building": "detached",
      "website": "https://www.waldoborohistory.us/",
      "addr_state": "ME",
      "addr_city": "Waldoboro",
      "addr_postcode": "04572",
      "addr_street": "Main Street",
      "addr_housenumber": "1164"
    },
    {
      "id": 22683,
      "geometry": "POINT (-70.722782 43.982438)",
      "poi_name": "Naramissic Farm Bridgton Historical Society",
      "osm_id": 7215330981,
      "historic": "yes",
      "tourism": "museum",
      "website": "https://www.bridgtonhistory.org/narramissic",
      "museum": "history",
      "addr_state": "ME",
      "addr_city": "Bridgton",
      "addr_postcode": "04009",
      "addr_street": "Naramissic Road",
      "addr_housenumber": "46"
    },
    {
      "id": 23140,
      "geometry": "POINT (-69.002178 44.298639)",
      "poi_name": "Indian basket",
      "osm_id": 5048285031,
      "tourism": "museum"
    },
    {
      "id": 23564,
      "geometry": "POINT (-70.290529 43.651576)",
      "poi_name": "International Cryptozoology Museum",
      "osm_id": 5255083521,
      "tourism": "museum",
      "opening_hours": "We-Mo 11:00-15:30",
      "website": "https://cryptozoologymuseum.com/",
      "addr_state": "ME",
      "addr_city": "Portland",
      "addr_postcode": "04102",
      "addr_street": "Thompsons Point",
      "addr_housenumber": "106"
    },
    {
      "id": 24261,
      "geometry": "POINT (-68.772443 44.796927)",
      "poi_name": "Police Museum",
      "osm_id": 10984445940,
      "tourism": "museum",
      "fee": "no",
      "opening_hours": "\"by appointment\"",
      "website": "https://www.bangormaine.gov/content/318/354/1134/1171.aspx"
    },
    {
      "id": 24386,
      "geometry": "POINT (-69.627169 43.850744)",
      "poi_name": "Windjammer Maritime Museum",
      "osm_id": 11032450667,
      "tourism": "museum",
      "operator": "Windjammer Emporium",
      "museum": "history",
      "addr_state": "ME",
      "addr_city": "Boothbay Harbor",
      "addr_postcode": "04538",
      "addr_street": "Wharf Street",
      "addr_housenumber": "16"
    },
    {
      "id": 25394,
      "geometry": "POINT (-70.210286 44.407399)",
      "poi_name": "The Washburn-Norlands Living History Center",
      "osm_id": 4482384153,
      "tourism": "museum",
      "website": "https://www.norlands.org/",
      "wikidata": "Q7754310"
    },
    {
      "id": 25395,
      "geometry": "POINT (-70.340078 44.831563)",
      "poi_name": "Sandy River and Rangeley Lakes Railroad",
      "osm_id": 4482437342,
      "tourism": "museum",
      "website": "https://srrl-rr.org/"
    }
  ],
  "answer_type": "name",
  "question_entities": {
    "[1]": {
      "main_category": "tourism",
      "sub_category": "museum"
    },
    "[2]": {
      "distance": 110000,
      "text": "110 kilometers"
    },
    "[3]": {
      "main_category": "leisure",
      "sub_category": "park",
      "display_name": "Philbrick Park, Farmington, ME",
      "geo_wkt": "POINT (-70.074445 44.622493)",
      "poi": {
        "id": 248265,
        "geometry": "POINT (-70.074445 44.622493)",
        "poi_name": "Philbrick Park",
        "osm_id": 7564193706,
        "leisure": "park",
        "addr_state": "ME",
        "addr_city": "Farmington",
        "addr_postcode": "04938",
        "addr_street": "Farmington Falls Road",
        "addr_housenumber": "1091"
      }
    }
  },
  "id": 875,
  "type": "range+name"
}