{
  "question": "Which fast food restaurant is on the path towards Cosmetic Surgeons of Michigan, PC, St. Clair Shores, MI within a 60 kilometers radius from Sea Life Aquarium, Auburn Hills, MI?",
  "sql": "WITH\n    angle AS (SELECT degrees(ST_Azimuth(ST_GeomFromText('POINT (-83.296505 42.70361)',4326)::geography, ST_GeomFromText('POINT (-82.900778 42.460402)',4326)::geography)) AS value)\nSELECT * FROM pois,angle\nWHERE amenity = 'fast_food'\nAND ST_DWithin(pois.geometry, ST_GeomFromText('POINT (-83.296505 42.70361)',4326)::geography, 60000)\nAND (degrees(ST_Azimuth(ST_GeomFromText('POINT (-83.296505 42.70361)',4326)::geography, pois.geometry)) BETWEEN angle.value - 22.5 AND angle.value + 22.5);\n",
  "answers": [
    {
      "id": 30544,
      "geometry": "POINT (-82.999914 42.400404)",
      "poi_name": "White Castle",
      "osm_id": 8365340858,
      "amenity": "fast_food",
      "cuisine": "burger",
      "takeaway": "yes",
      "drive_through": "yes",
      "addr_state": "MI",
      "addr_city": "Detroit",
      "addr_postcode": "48213",
      "addr_street": "Gratiot Avenue",
      "addr_housenumber": "10530",
      "value": 129.61440292472253
    },
    {
      "id": 40090,
      "geometry": "POINT (-83.026214 42.550727)",
      "poi_name": "McDonald's",
      "osm_id": 2957143641,
      "amenity": "fast_food",
      "cuisine": "burger",
      "website": "https://www.mcdonalds.com/us/en-us/location/mi/sterling-heights/8280-15-mile-rd/4162.html",
      "takeaway": "yes",
      "value": 129.61440292472253
    },
    {
      "id": 40093,
      "geometry": "POINT (-83.028803 42.564338)",
      "poi_name": "Sonic",
      "osm_id": 2957157100,
      "amenity": "fast_food",
      "cuisine": "burger",
      "website": "https://locations.sonicdrivein.com/mi/sterling-heights/36888-van-dyke-road.html",
      "phone": "+1-586-264-8700",
      "takeaway": "yes",
      "drive_through": "yes",
      "addr_state": "MI",
      "addr_city": "Sterling Heights",
      "addr_postcode": "48312",
      "addr_street": "Van Dyke Avenue",
      "addr_housenumber": "36888",
      "value": 129.61440292472253
    },
    {
      "id": 40091,
      "geometry": "POINT (-83.030281 42.565039)",
      "poi_name": "Subway",
      "osm_id": 2957152212,
      "amenity": "fast_food",
      "cuisine": "sandwich",
      "takeaway": "yes",
      "value": 129.61440292472253
    },
    {
      "id": 48350,
      "geometry": "POINT (-82.92708 42.510263)",
      "poi_name": "Jimmy John's",
      "osm_id": 3378722087,
      "amenity": "fast_food",
      "cuisine": "sandwich",
      "takeaway": "yes",
      "official_name": "Jimmy John's Gourmet Sandwiches",
      "delivery": "yes",
      "addr_state": "MI",
      "addr_city": "Roseville",
      "addr_street": "North Gratiot Avenue",
      "addr_housenumber": "29016",
      "value": 129.61440292472253
    },
    {
      "id": 47897,
      "geometry": "POINT (-82.852244 42.571786)",
      "poi_name": "McDonald's",
      "osm_id": 3355023441,
      "amenity": "fast_food",
      "cuisine": "burger",
      "website": "https://www.mcdonalds.com/us/en-us/location/mi/harrison-township/25900-crocker-boulevard/11325.html",
      "takeaway": "yes",
      "value": 129.61440292472253
    },
    {
      "id": 43714,
      "geometry": "POINT (-82.940036 42.44979)",
      "poi_name": "McDonald's",
      "osm_id": 3128685254,
      "amenity": "fast_food",
      "cuisine": "burger",
      "website": "https://www.mcdonalds.com/us/en-us/location/mi/harper-woods/17800-east-8-mile-road/15806.html",
      "takeaway": "yes",
      "value": 129.61440292472253
    },
    {
      "id": 55079,
      "geometry": "POINT (-82.987827 42.62642)",
      "poi_name": "Chipotle",
      "osm_id": 10170278400,
      "amenity": "fast_food",
      "cuisine": "mexican",
      "opening_hours": "Mo-Su 10:45-22:00",
      "website": "https://locations.chipotle.com/mi/sterling-heights/13975-lakeside-cir",
      "phone": "+1-586-532-1139",
      "takeaway": "yes",
      "drive_through": "no",
      "official_name": "Chipotle Mexican Grill",
      "delivery": "yes",
      "value": 129.61440292472253
    },
    {
      "id": 50842,
      "geometry": "POINT (-83.200628 42.641589)",
      "poi_name": "Five Guys",
      "osm_id": 3509148436,
      "amenity": "fast_food",
      "cuisine": "burger",
      "takeaway": "yes",
      "drive_through": "no",
      "official_name": "Five Guys Burgers and Fries",
      "delivery": "yes",
      "addr_state": "MI",
      "addr_city": "Rochester Hills",
      "addr_postcode": "48309",
      "addr_street": "South Adams Road",
      "addr_housenumber": "2544",
      "value": 129.61440292472253
    },
    {
      "id": 51463,
      "geometry": "POINT (-83.1459 42.53102)",
      "poi_name": "Woodpile BBQ Shack",
      "osm_id": 535533222,
      "amenity": "fast_food",
      "cuisine": "american",
      "opening_hours": "Mo-Su 11:00-21:00",
      "website": "https://www.woodpilebbqshack.com/",
      "phone": "+1-248-565-8149",
      "drive_through": "no",
      "addr_state": "MI",
      "addr_city": "Clawson",
      "addr_postcode": "48017",
      "addr_street": "South Main Street",
      "addr_housenumber": "303",
      "value": 129.61440292472253
    },
    {
      "id": 52707,
      "geometry": "POINT (-83.068626 42.550829)",
      "poi_name": "Savvy Sliders",
      "osm_id": 10043824785,
      "amenity": "fast_food",
      "cuisine": "burger;chicken",
      "website": "https://www.savvysliders.com/",
      "phone": "+1-586-551-7777",
      "addr_state": "MI",
      "addr_city": "Sterling Heights",
      "addr_postcode": "48310",
      "addr_street": "15 Mile Road",
      "addr_housenumber": "4051",
      "value": 129.61440292472253
    },
    {
      "id": 51508,
      "geometry": "POINT (-83.136948 42.528246)",
      "poi_name": "Green Lantern Pizza",
      "osm_id": 538375987,
      "amenity": "fast_food",
      "value": 129.61440292472253
    },
    {
      "id": 51509,
      "geometry": "POINT (-83.135112 42.533875)",
      "poi_name": "Tubby's",
      "osm_id": 538375995,
      "amenity": "fast_food",
      "cuisine": "sandwich",
      "value": 129.61440292472253
    },
    {
      "id": 51514,
      "geometry": "POINT (-83.14388 42.533282)",
      "poi_name": "Dunkin'",
      "osm_id": 538376040,
      "amenity": "fast_food",
      "cuisine": "donut;coffee_shop",
      "takeaway": "yes",
      "value": 129.61440292472253
    },
    {
      "id": 51515,
      "geometry": "POINT (-83.167037 42.548307)",
      "poi_name": "China King",
      "osm_id": 538376068,
      "amenity": "fast_food",
      "addr_city": "Troy",
      "addr_postcode": "48084",
      "addr_street": "West Maple Road",
      "addr_housenumber": "1430",
      "value": 129.61440292472253
    },
    {
      "id": 51518,
      "geometry": "POINT (-83.165865 42.547699)",
      "poi_name": "Rio Wraps",
      "osm_id": 538376083,
      "amenity": "fast_food",
      "value": 129.61440292472253
    },
    {
      "id": 51521,
      "geometry": "POINT (-83.168035 42.563012)",
      "poi_name": "Potbelly Sandwich Works",
      "osm_id": 538376092,
      "amenity": "fast_food",
      "value": 129.61440292472253
    },
    {
      "id": 51538,
      "geometry": "POINT (-83.234764 42.670412)",
      "poi_name": "Subway",
      "osm_id": 539277417,
      "amenity": "fast_food",
      "cuisine": "sandwich",
      "takeaway": "yes",
      "value": 129.61440292472253
    },
    {
      "id": 51539,
      "geometry": "POINT (-83.234539 42.67041)",
      "poi_name": "Rio Bravo Wraps",
      "osm_id": 539277423,
      "amenity": "fast_food",
      "value": 129.61440292472253
    },
    {
      "id": 51542,
      "geometry": "POINT (-83.233466 42.670088)",
      "poi_name": "Jimmy John's",
      "osm_id": 539277472,
      "amenity": "fast_food",
      "cuisine": "sandwich",
      "takeaway": "yes",
      "official_name": "Jimmy John's Gourmet Sandwiches",
      "value": 129.61440292472253
    },
    {
      "id": 55869,
      "geometry": "POINT (-83.08573 42.417688)",
      "poi_name": "L.A. Coney Island",
      "osm_id": 10212178189,
      "amenity": "fast_food",
      "addr_state": "MI",
      "addr_city": "Detroit",
      "addr_postcode": "48203",
      "addr_street": "East McNichols Road",
      "addr_housenumber": "1700",
      "value": 129.61440292472253
    },
    {
      "id": 73129,
      "geometry": "POINT (-82.966395 42.450929)",
      "poi_name": "Burger King",
      "osm_id": 9609343827,
      "amenity": "fast_food",
      "cuisine": "burger",
      "website": "https://www.bk.com/store-locator/store/restaurant_236",
      "phone": "+1-586-771-3950",
      "takeaway": "yes",
      "drive_through": "yes",
      "addr_state": "MI",
      "addr_city": "Eastpointe",
      "addr_street": "North Gratiot Avenue",
      "addr_housenumber": "20840",
      "value": 129.61440292472253
    },
    {
      "id": 58400,
      "geometry": "POINT (-83.076146 42.44685)",
      "poi_name": "KFC",
      "osm_id": 5373732535,
      "amenity": "fast_food",
      "cuisine": "chicken",
      "wheelchair": "yes",
      "operator": "KFC",
      "website": "https://locations.kfc.com/mi/detroit/2600-e-8-mile-rd",
      "takeaway": "yes",
      "drive_through": "yes",
      "delivery": "no",
      "value": 129.61440292472253
    },
    {
      "id": 71353,
      "geometry": "POINT (-83.014988 42.341263)",
      "poi_name": "Tubby's",
      "osm_id": 11386608319,
      "amenity": "fast_food",
      "cuisine": "sandwich",
      "opening_hours": "Mo-Sa 10:00-22:00; Su 11:00-20:00",
      "phone": "+1-313-394-2222",
      "takeaway": "yes",
      "addr_state": "MI",
      "addr_city": "Detroit",
      "addr_postcode": "48207",
      "addr_street": "East Jefferson Avenue",
      "addr_housenumber": "3250",
      "value": 129.61440292472253
    },
    {
      "id": 71354,
      "geometry": "POINT (-82.977289 42.434886)",
      "poi_name": "Church's Chicken",
      "osm_id": 11386634386,
      "amenity": "fast_food",
      "cuisine": "chicken",
      "operator": "FALCON HOLDINGS, LLC. #974",
      "takeaway": "yes",
      "addr_state": "MI",
      "addr_city": "Detroit",
      "addr_postcode": "48205",
      "addr_street": "Gratiot Avenue",
      "addr_housenumber": "14260",
      "value": 129.61440292472253
    },
    {
      "id": 61144,
      "geometry": "POINT (-83.149664 42.590486)",
      "poi_name": "Little Caesars",
      "osm_id": 5499843016,
      "amenity": "fast_food",
      "cuisine": "pizza",
      "website": "https://littlecaesars.com/en-us/store/7144/",
      "takeaway": "yes",
      "value": 129.61440292472253
    },
    {
      "id": 70188,
      "geometry": "POINT (-82.995092 42.380092)",
      "poi_name": "Home Style Coney Island Restaurant",
      "osm_id": 11348588639,
      "amenity": "fast_food",
      "addr_state": "MI",
      "addr_city": "Detroit",
      "addr_postcode": "48214",
      "addr_street": "Cadillac Boulevard",
      "addr_housenumber": "4720",
      "value": 129.61440292472253
    },
    {
      "id": 73019,
      "geometry": "POINT (-82.959492 42.4643)",
      "poi_name": "Papa Romano's & Mr. Pita",
      "osm_id": 9602234054,
      "amenity": "fast_food",
      "cuisine": "pizza",
      "website": "http://paparomanos.snappyeats.com/",
      "phone": "+1 586 771 0008",
      "addr_state": "MI",
      "addr_city": "Eastpointe",
      "addr_street": "North Gratiot Avenue",
      "addr_housenumber": "22661",
      "value": 129.61440292472253
    },
    {
      "id": 73035,
      "geometry": "POINT (-83.230987 42.655314)",
      "poi_name": "Subway",
      "osm_id": 9603442358,
      "amenity": "fast_food",
      "cuisine": "sandwich",
      "takeaway": "yes",
      "addr_street": "Chrysler Drive",
      "addr_housenumber": "1000",
      "value": 129.61440292472253
    },
    {
      "id": 73558,
      "geometry": "POINT (-82.978485 42.434744)",
      "poi_name": "McDonald's",
      "osm_id": 9644437622,
      "amenity": "fast_food",
      "cuisine": "burger",
      "website": "https://www.mcdonalds.com/us/en-us/location/MI/DETROIT/14271-GRATIOT-AVE/3233.html",
      "phone": "+1-313-521-4212",
      "takeaway": "yes",
      "addr_state": "MI",
      "addr_city": "Detroit",
      "addr_postcode": "48205",
      "addr_street": "East 7 Mile Road",
      "addr_housenumber": "14271",
      "value": 129.61440292472253
    },
    {
      "id": 73225,
      "geometry": "POINT (-82.969655 42.448238)",
      "poi_name": "Little Caesars",
      "osm_id": 9619894423,
      "amenity": "fast_food",
      "cuisine": "pizza",
      "website": "https://littlecaesars.com/en-us/store/7152",
      "phone": "+1-313-839-5595",
      "takeaway": "yes",
      "addr_state": "MI",
      "addr_city": "Detroit",
      "addr_postcode": "48205",
      "addr_street": "Gratiot Avenue",
      "addr_housenumber": "15405",
      "value": 129.61440292472253
    },
    {
      "id": 73702,
      "geometry": "POINT (-82.915817 42.406443)",
      "poi_name": "Chipotle",
      "osm_id": 9651479142,
      "amenity": "fast_food",
      "cuisine": "mexican",
      "takeaway": "yes",
      "official_name": "Chipotle Mexican Grill",
      "addr_state": "MI",
      "addr_city": "Detroit",
      "addr_postcode": "48224",
      "addr_street": "Radnor Street",
      "addr_housenumber": "4444",
      "value": 129.61440292472253
    },
    {
      "id": 73643,
      "geometry": "POINT (-82.978002 42.433904)",
      "poi_name": "Popeyes",
      "osm_id": 9647530651,
      "amenity": "fast_food",
      "cuisine": "chicken",
      "takeaway": "yes",
      "drive_through": "yes",
      "official_name": "Popeyes Louisiana Kitchen",
      "addr_city": "Detroit",
      "addr_street": "Gratiot Avenue",
      "addr_housenumber": "14180",
      "value": 129.61440292472253
    },
    {
      "id": 73645,
      "geometry": "POINT (-82.979115 42.433646)",
      "poi_name": "Captain Jay's Fish and Chicken",
      "osm_id": 9647577805,
      "amenity": "fast_food",
      "cuisine": "seafood",
      "website": "https://www.captainjays.net/",
      "phone": "+1-313-526-3474",
      "addr_city": "Detroit",
      "addr_street": "Gratiot Avenue",
      "addr_housenumber": "14205",
      "value": 129.61440292472253
    },
    {
      "id": 73646,
      "geometry": "POINT (-82.979935 42.431173)",
      "poi_name": "Fry Guy",
      "osm_id": 9647600312,
      "amenity": "fast_food",
      "phone": "+1-313-314-7201",
      "value": 129.61440292472253
    },
    {
      "id": 73855,
      "geometry": "POINT (-82.984835 42.42354)",
      "poi_name": "Domino's",
      "osm_id": 9657073083,
      "amenity": "fast_food",
      "cuisine": "pizza",
      "takeaway": "yes",
      "value": 129.61440292472253
    },
    {
      "id": 73874,
      "geometry": "POINT (-82.990965 42.43456)",
      "poi_name": "Prince Pizza",
      "osm_id": 9657409476,
      "amenity": "fast_food",
      "cuisine": "pizza",
      "phone": "+1-313-839-0500",
      "addr_state": "MI",
      "addr_city": "Detroit",
      "addr_street": "East 7 Mile Road",
      "addr_housenumber": "13000",
      "value": 129.61440292472253
    },
    {
      "id": 87236,
      "geometry": "POINT (-83.106808 42.518824)",
      "poi_name": "Subway",
      "osm_id": 8699364758,
      "amenity": "fast_food",
      "cuisine": "sandwich",
      "takeaway": "yes",
      "drive_through": "no",
      "addr_state": "MI",
      "addr_city": "Madison Heights",
      "addr_postcode": "48071",
      "addr_street": "John R Road",
      "addr_housenumber": "30775",
      "value": 129.61440292472253
    },
    {
      "id": 77360,
      "geometry": "POINT (-83.000629 42.399274)",
      "poi_name": "McDonald's",
      "osm_id": 9817892569,
      "amenity": "fast_food",
      "cuisine": "burger",
      "website": "https://www.mcdonalds.com/us/en-us/location/mi/detroit/10400-gratiot-avenue/2527.html",
      "takeaway": "yes",
      "addr_state": "MI",
      "addr_city": "Detroit",
      "addr_postcode": "48213",
      "addr_street": "Gratiot Avenue",
      "addr_housenumber": "10400",
      "value": 129.61440292472253
    },
    {
      "id": 78573,
      "geometry": "POINT (-83.127324 42.573006)",
      "poi_name": "Subway",
      "osm_id": 757456908,
      "amenity": "fast_food",
      "cuisine": "sandwich",
      "takeaway": "yes",
      "value": 129.61440292472253
    },
    {
      "id": 85437,
      "geometry": "POINT (-83.167684 42.562175)",
      "poi_name": "Savvy Sliders",
      "osm_id": 1868197083,
      "amenity": "fast_food",
      "cuisine": "burger",
      "website": "https://www.savvysliders.com/menu/",
      "phone": "+1-248-929-5555",
      "addr_state": "MI",
      "addr_city": "Troy",
      "addr_postcode": "48084",
      "addr_street": "West Big Beaver Road",
      "addr_housenumber": "1434",
      "value": 129.61440292472253
    },
    {
      "id": 87316,
      "geometry": "POINT (-82.976525 42.628169)",
      "poi_name": "MOD Pizza",
      "osm_id": 8707156876,
      "amenity": "fast_food",
      "cuisine": "pizza",
      "takeaway": "yes",
      "value": 129.61440292472253
    },
    {
      "id": 87317,
      "geometry": "POINT (-82.976194 42.62817)",
      "poi_name": "DiBella's Subs",
      "osm_id": 8707156877,
      "amenity": "fast_food",
      "cuisine": "sandwich",
      "value": 129.61440292472253
    },
    {
      "id": 87319,
      "geometry": "POINT (-82.96782 42.626823)",
      "poi_name": "Taco Bell",
      "osm_id": 8707156885,
      "amenity": "fast_food",
      "cuisine": "tex-mex",
      "website": "https://locations.tacobell.com/mi/clinton-township/15640-hall-rd-.html",
      "takeaway": "yes",
      "value": 129.61440292472253
    },
    {
      "id": 87320,
      "geometry": "POINT (-82.967957 42.626823)",
      "poi_name": "Tropical Smoothie Cafe",
      "osm_id": 8707156886,
      "amenity": "fast_food",
      "cuisine": "juice",
      "takeaway": "yes",
      "value": 129.61440292472253
    },
    {
      "id": 87321,
      "geometry": "POINT (-82.975299 42.626734)",
      "poi_name": "Firehouse Subs",
      "osm_id": 8707156887,
      "amenity": "fast_food",
      "cuisine": "sandwich",
      "takeaway": "yes",
      "value": 129.61440292472253
    },
    {
      "id": 87237,
      "geometry": "POINT (-83.106687 42.51667)",
      "poi_name": "Hungry Howie's",
      "osm_id": 8699364767,
      "amenity": "fast_food",
      "cuisine": "pizza",
      "takeaway": "yes",
      "value": 129.61440292472253
    },
    {
      "id": 87238,
      "geometry": "POINT (-83.107128 42.505117)",
      "poi_name": "Penn Station",
      "osm_id": 8699364785,
      "amenity": "fast_food",
      "cuisine": "sandwich",
      "takeaway": "yes",
      "value": 129.61440292472253
    },
    {
      "id": 87239,
      "geometry": "POINT (-83.107487 42.505111)",
      "poi_name": "Wingsnob",
      "osm_id": 8699364788,
      "amenity": "fast_food",
      "value": 129.61440292472253
    },
    {
      "id": 87480,
      "geometry": "POINT (-83.106012 42.53388)",
      "poi_name": "Chipotle",
      "osm_id": 8715749620,
      "amenity": "fast_food",
      "cuisine": "mexican",
      "opening_hours": "Mo-Su 10:45-22:00",
      "phone": "+1-248-581-8014",
      "takeaway": "yes",
      "drive_through": "no",
      "official_name": "Chipotle Mexican Grill",
      "addr_state": "MI",
      "addr_city": "Madison Heights",
      "addr_postcode": "48071",
      "addr_street": "East 14 Mile Road",
      "addr_housenumber": "32",
      "value": 129.61440292472253
    },
    {
      "id": 87489,
      "geometry": "POINT (-83.10602 42.533794)",
      "poi_name": "Jersey Mike's Subs",
      "osm_id": 8716039580,
      "amenity": "fast_food",
      "cuisine": "sandwich",
      "opening_hours": "Mo-Su 10:00-20:00",
      "phone": "+1-248-588-5088",
      "takeaway": "yes",
      "drive_through": "no",
      "addr_state": "MI",
      "addr_city": "Madison Heights",
      "addr_postcode": "48071",
      "addr_street": "East 14 Mile Road",
      "addr_housenumber": "40",
      "value": 129.61440292472253
    },
    {
      "id": 87583,
      "geometry": "POINT (-82.893496 42.527675)",
      "poi_name": "Little Caesars",
      "osm_id": 8723468122,
      "amenity": "fast_food",
      "cuisine": "pizza",
      "opening_hours": "Su-Th 11:00-22:00; Fr-Sa 11:00-23:00",
      "website": "https://littlecaesars.com/en-us/store/35/",
      "phone": "+1-586-294-6300",
      "takeaway": "yes",
      "addr_state": "MI",
      "addr_city": "Saint Clair Shores",
      "addr_postcode": "48082",
      "addr_street": "Harper Avenue",
      "addr_housenumber": "31541",
      "value": 129.61440292472253
    },
    {
      "id": 88012,
      "geometry": "POINT (-83.063602 42.377654)",
      "poi_name": "Krispy Krunchy Chicken",
      "osm_id": 8757650489,
      "amenity": "fast_food",
      "cuisine": "chicken",
      "takeaway": "yes",
      "addr_state": "MI",
      "addr_city": "Detroit",
      "addr_postcode": "48211",
      "addr_street": "Clay Street",
      "addr_housenumber": "1140",
      "value": 129.61440292472253
    },
    {
      "id": 88013,
      "geometry": "POINT (-83.04202 42.42228)",
      "poi_name": "Subway",
      "osm_id": 8757822228,
      "amenity": "fast_food",
      "cuisine": "sandwich",
      "takeaway": "yes",
      "addr_state": "MI",
      "addr_city": "Detroit",
      "addr_postcode": "48212",
      "addr_street": "East Davison Street",
      "addr_housenumber": "5944",
      "value": 129.61440292472253
    },
    {
      "id": 88016,
      "geometry": "POINT (-83.005284 42.392406)",
      "poi_name": "Captain Jay's Fish & Chicken",
      "osm_id": 8758151077,
      "amenity": "fast_food",
      "cuisine": "fish_and_chips",
      "addr_state": "MI",
      "addr_city": "Detroit",
      "addr_postcode": "48213",
      "addr_street": "Gratiot Avenue",
      "addr_housenumber": "9654",
      "value": 129.61440292472253
    },
    {
      "id": 88546,
      "geometry": "POINT (-83.063566 42.446902)",
      "poi_name": "Krispy Krunchy Chicken",
      "osm_id": 8787182931,
      "amenity": "fast_food",
      "cuisine": "chicken",
      "takeaway": "yes",
      "addr_state": "MI",
      "addr_city": "Detroit",
      "addr_postcode": "48234",
      "addr_street": "East 8 Mile Road",
      "addr_housenumber": "4100",
      "value": 129.61440292472253
    },
    {
      "id": 88108,
      "geometry": "POINT (-82.974533 42.389434)",
      "poi_name": "Captain Jay's Fish & Chicken",
      "osm_id": 8764462149,
      "amenity": "fast_food",
      "cuisine": "fish_and_chips",
      "addr_state": "MI",
      "addr_city": "Detroit",
      "addr_postcode": "48215",
      "addr_street": "East Warren Avenue",
      "addr_housenumber": "12248",
      "value": 129.61440292472253
    },
    {
      "id": 88547,
      "geometry": "POINT (-82.959752 42.405877)",
      "poi_name": "Subway",
      "osm_id": 8787254019,
      "amenity": "fast_food",
      "cuisine": "sandwich",
      "takeaway": "yes",
      "addr_state": "MI",
      "addr_city": "Detroit",
      "addr_postcode": "48224",
      "addr_street": "East Outer Drive",
      "addr_housenumber": "10601",
      "value": 129.61440292472253
    },
    {
      "id": 96331,
      "geometry": "POINT (-83.132366 42.635325)",
      "poi_name": "MOD Pizza",
      "osm_id": 6429063583,
      "amenity": "fast_food",
      "cuisine": "pizza",
      "takeaway": "yes",
      "value": 129.61440292472253
    },
    {
      "id": 88545,
      "geometry": "POINT (-83.023977 42.440873)",
      "poi_name": "McDonald's",
      "osm_id": 8787170882,
      "amenity": "fast_food",
      "cuisine": "burger",
      "website": "https://www.mcdonalds.com/us/en-us/location/mi/detroit/19840-van-dyke/14217.html",
      "takeaway": "yes",
      "value": 129.61440292472253
    },
    {
      "id": 89443,
      "geometry": "POINT (-83.026861 42.336626)",
      "poi_name": "Main Street Grill & Coney Island",
      "osm_id": 8846092279,
      "amenity": "fast_food",
      "cuisine": "italian",
      "addr_state": "MI",
      "addr_city": "Detroit",
      "addr_postcode": "48207",
      "addr_street": "East Jefferson Avenue",
      "addr_housenumber": "1985",
      "value": 129.61440292472253
    },
    {
      "id": 89491,
      "geometry": "POINT (-83.020659 42.338556)",
      "poi_name": "Bucharest Grill",
      "osm_id": 8848572248,
      "amenity": "fast_food",
      "cuisine": "sandwich;middle_eastern",
      "website": "https://www.bucharestgrill.com/",
      "phone": "+1-313-965-3111",
      "drive_through": "no",
      "addr_state": "MI",
      "addr_city": "Detroit",
      "addr_postcode": "48207",
      "addr_street": "Jefferson Avenue East",
      "addr_housenumber": "2684",
      "value": 129.61440292472253
    },
    {
      "id": 89493,
      "geometry": "POINT (-83.011862 42.34218)",
      "poi_name": "Subway",
      "osm_id": 8848572270,
      "amenity": "fast_food",
      "cuisine": "sandwich",
      "takeaway": "yes",
      "drive_through": "no",
      "addr_street": "East Jefferson Avenue",
      "value": 129.61440292472253
    },
    {
      "id": 92069,
      "geometry": "POINT (-83.027723 42.549721)",
      "poi_name": "Eclipse Burger",
      "osm_id": 2103670738,
      "amenity": "fast_food",
      "value": 129.61440292472253
    },
    {
      "id": 92070,
      "geometry": "POINT (-83.028282 42.549748)",
      "poi_name": "Mr Pita",
      "osm_id": 2103670739,
      "amenity": "fast_food",
      "value": 129.61440292472253
    },
    {
      "id": 92072,
      "geometry": "POINT (-83.028159 42.549748)",
      "poi_name": "Papa Romanos",
      "osm_id": 2103670741,
      "amenity": "fast_food",
      "website": "http://paparomanos.snappyeats.com",
      "phone": "+1-586-978-8610",
      "addr_state": "MI",
      "addr_city": "Sterling Heights",
      "addr_postcode": "48312",
      "addr_street": "Van Dyke Avenue",
      "addr_housenumber": "3480",
      "value": 129.61440292472253
    },
    {
      "id": 96333,
      "geometry": "POINT (-83.132386 42.635497)",
      "poi_name": "Firehouse Subs",
      "osm_id": 6429063787,
      "amenity": "fast_food",
      "cuisine": "sandwich",
      "takeaway": "yes",
      "value": 129.61440292472253
    },
    {
      "id": 96334,
      "geometry": "POINT (-83.132397 42.635708)",
      "poi_name": "Qdoba",
      "osm_id": 6429063789,
      "amenity": "fast_food",
      "cuisine": "mexican",
      "website": "https://locations.qdoba.com/us/mi/rochester-hills/3014-rochester-rd-s.html",
      "takeaway": "yes",
      "official_name": "Qdoba Mexican Grill",
      "value": 129.61440292472253
    },
    {
      "id": 96335,
      "geometry": "POINT (-83.132563 42.636461)",
      "poi_name": "Einstein Bros. Bagels",
      "osm_id": 6429063793,
      "amenity": "fast_food",
      "cuisine": "bagel",
      "takeaway": "yes",
      "value": 129.61440292472253
    },
    {
      "id": 100126,
      "geometry": "POINT (-83.113595 42.637968)",
      "poi_name": "Subway",
      "osm_id": 6575650630,
      "amenity": "fast_food",
      "cuisine": "sandwich",
      "takeaway": "yes",
      "value": 129.61440292472253
    },
    {
      "id": 97470,
      "geometry": "POINT (-83.049969 42.565635)",
      "poi_name": "McDonald's",
      "osm_id": 6481668579,
      "amenity": "fast_food",
      "cuisine": "burger",
      "website": "https://www.mcdonalds.com/us/en-us/location/mi/sterling-heights/37037-mound-rd/19386.html",
      "takeaway": "yes",
      "value": 129.61440292472253
    },
    {
      "id": 100018,
      "geometry": "POINT (-83.129087 42.577238)",
      "poi_name": "Wendy's",
      "osm_id": 6571409023,
      "amenity": "fast_food",
      "cuisine": "burger",
      "takeaway": "yes",
      "drive_through": "yes",
      "value": 129.61440292472253
    },
    {
      "id": 100019,
      "geometry": "POINT (-83.1271 42.56711)",
      "poi_name": "Taco Bell",
      "osm_id": 6571409024,
      "amenity": "fast_food",
      "cuisine": "tex-mex",
      "website": "https://locations.tacobell.com/mi/troy/3268-rochester-road.html",
      "takeaway": "yes",
      "value": 129.61440292472253
    },
    {
      "id": 100020,
      "geometry": "POINT (-83.112558 42.563958)",
      "poi_name": "Smashburger",
      "osm_id": 6571409034,
      "amenity": "fast_food",
      "cuisine": "burger",
      "takeaway": "yes",
      "value": 129.61440292472253
    },
    {
      "id": 102818,
      "geometry": "POINT (-82.946172 42.525897)",
      "poi_name": "Jimmy John's",
      "osm_id": 8459762552,
      "amenity": "fast_food",
      "cuisine": "sandwich",
      "takeaway": "yes",
      "official_name": "Jimmy John's Gourmet Sandwiches",
      "value": 129.61440292472253
    },
    {
      "id": 102848,
      "geometry": "POINT (-82.912004 42.534055)",
      "poi_name": "McDonald's",
      "osm_id": 8462066059,
      "amenity": "fast_food",
      "cuisine": "burger",
      "website": "https://www.mcdonalds.com/us/en-us/location/mi/roseville/32222-gratiot-avenue/2202.html",
      "takeaway": "yes",
      "value": 129.61440292472253
    },
    {
      "id": 102849,
      "geometry": "POINT (-82.940072 42.493673)",
      "poi_name": "McDonald's",
      "osm_id": 8462083067,
      "amenity": "fast_food",
      "cuisine": "burger",
      "website": "https://www.mcdonalds.com/us/en-us/location/mi/roseville/26765-gratiot-avenue/18341.html",
      "takeaway": "yes",
      "addr_state": "MI",
      "addr_city": "Roseville",
      "addr_postcode": "48066",
      "addr_street": "Gratiot Avenue",
      "addr_housenumber": "26765",
      "value": 129.61440292472253
    },
    {
      "id": 100251,
      "geometry": "POINT (-83.006396 42.508247)",
      "poi_name": "Hungry Howie's",
      "osm_id": 6579440553,
      "amenity": "fast_food",
      "cuisine": "pizza",
      "takeaway": "yes",
      "value": 129.61440292472253
    },
    {
      "id": 102884,
      "geometry": "POINT (-82.934805 42.465554)",
      "poi_name": "Wendy's",
      "osm_id": 8462776436,
      "amenity": "fast_food",
      "cuisine": "burger",
      "opening_hours": "Mo-Su 06:30-00:00",
      "website": "https://locations.wendys.com/united-states/mi/eastpointe/18001-nine-mile-road-east",
      "phone": "+1 586 779 0132",
      "takeaway": "yes",
      "drive_through": "yes",
      "delivery": "yes",
      "addr_street": "East Nine Mile Road",
      "addr_housenumber": "18001",
      "value": 129.61440292472253
    },
    {
      "id": 102885,
      "geometry": "POINT (-82.91764 42.479916)",
      "poi_name": "Subway",
      "osm_id": 8462776480,
      "amenity": "fast_food",
      "cuisine": "sandwich",
      "takeaway": "yes",
      "value": 129.61440292472253
    },
    {
      "id": 103207,
      "geometry": "POINT (-83.032375 42.608805)",
      "poi_name": "Dunkin'",
      "osm_id": 8490596280,
      "amenity": "fast_food",
      "cuisine": "donut;coffee_shop",
      "opening_hours": "05:00-20:00",
      "phone": "+1 586 991 0049",
      "takeaway": "yes",
      "addr_state": "MI",
      "addr_city": "Sterling Heights",
      "addr_postcode": "48314",
      "addr_street": "Van Dyke Avenue",
      "addr_housenumber": "42851",
      "value": 129.61440292472253
    },
    {
      "id": 102886,
      "geometry": "POINT (-82.965032 42.479865)",
      "poi_name": "Domino's",
      "osm_id": 8462776552,
      "amenity": "fast_food",
      "cuisine": "pizza",
      "takeaway": "yes",
      "value": 129.61440292472253
    },
    {
      "id": 102904,
      "geometry": "POINT (-83.033759 42.641216)",
      "poi_name": "Subway",
      "osm_id": 8464304471,
      "amenity": "fast_food",
      "cuisine": "sandwich",
      "takeaway": "yes",
      "value": 129.61440292472253
    },
    {
      "id": 103128,
      "geometry": "POINT (-82.898213 42.523042)",
      "poi_name": "Subway",
      "osm_id": 8484269380,
      "amenity": "fast_food",
      "cuisine": "sandwich",
      "takeaway": "yes",
      "value": 129.61440292472253
    },
    {
      "id": 103129,
      "geometry": "POINT (-82.893966 42.526605)",
      "poi_name": "Jimmy John's",
      "osm_id": 8484269382,
      "amenity": "fast_food",
      "cuisine": "sandwich",
      "takeaway": "yes",
      "official_name": "Jimmy John's Gourmet Sandwiches",
      "value": 129.61440292472253
    },
    {
      "id": 103130,
      "geometry": "POINT (-82.898445 42.52098)",
      "poi_name": "Burger King",
      "osm_id": 8484269443,
      "amenity": "fast_food",
      "cuisine": "burger",
      "takeaway": "yes",
      "value": 129.61440292472253
    },
    {
      "id": 103131,
      "geometry": "POINT (-82.898142 42.500615)",
      "poi_name": "KFC",
      "osm_id": 8484269459,
      "amenity": "fast_food",
      "cuisine": "chicken",
      "website": "https://locations.kfc.com/mi/saint-clair-shores/28155-harper-avenue",
      "takeaway": "yes",
      "value": 129.61440292472253
    },
    {
      "id": 103132,
      "geometry": "POINT (-82.897004 42.526157)",
      "poi_name": "McDonald's",
      "osm_id": 8484269504,
      "amenity": "fast_food",
      "cuisine": "burger",
      "website": "https://www.mcdonalds.com/us/en-us/location/mi/st-clair-shores/31255-harper-avenue/488.html",
      "takeaway": "yes",
      "value": 129.61440292472253
    },
    {
      "id": 103234,
      "geometry": "POINT (-82.913602 42.56864)",
      "poi_name": "Tubby's",
      "osm_id": 8492120267,
      "amenity": "fast_food",
      "cuisine": "sandwich",
      "takeaway": "yes",
      "value": 129.61440292472253
    },
    {
      "id": 103235,
      "geometry": "POINT (-82.922719 42.556319)",
      "poi_name": "McDonald's",
      "osm_id": 8492122834,
      "amenity": "fast_food",
      "cuisine": "burger",
      "website": "https://www.mcdonalds.com/us/en-us/location/mi/clinton-township/35243-groesbeck-hwy/7955.html",
      "takeaway": "yes",
      "value": 129.61440292472253
    },
    {
      "id": 103236,
      "geometry": "POINT (-82.953148 42.601326)",
      "poi_name": "KFC",
      "osm_id": 8492122962,
      "amenity": "fast_food",
      "cuisine": "chicken",
      "takeaway": "yes",
      "value": 129.61440292472253
    },
    {
      "id": 103238,
      "geometry": "POINT (-82.871055 42.555706)",
      "poi_name": "McDonald's",
      "osm_id": 8492123249,
      "amenity": "fast_food",
      "cuisine": "burger",
      "website": "https://www.mcdonalds.com/us/en-us/location/mi/clinton-township/35025-harper-avenue/21049.html",
      "takeaway": "yes",
      "addr_state": "MI",
      "addr_city": "Clinton Township",
      "addr_postcode": "48035",
      "addr_street": "Harper Avenue",
      "addr_housenumber": "35025",
      "value": 129.61440292472253
    },
    {
      "id": 103239,
      "geometry": "POINT (-82.962382 42.553679)",
      "poi_name": "McDonald's",
      "osm_id": 8492123409,
      "amenity": "fast_food",
      "cuisine": "burger",
      "website": "https://www.mcdonalds.com/us/en-us/location/mi/clinton-township/15855-15-mile-rd/19405.html",
      "takeaway": "yes",
      "value": 129.61440292472253
    },
    {
      "id": 103240,
      "geometry": "POINT (-82.931225 42.554644)",
      "poi_name": "Bigtime Market",
      "osm_id": 8492123460,
      "amenity": "fast_food",
      "cuisine": "sandwich",
      "opening_hours": "Mo-Fr 11:00-18:00; Sa 11:00-16:00",
      "website": "https://www.bigtimemarkets.com/",
      "shop": "convenience",
      "phone": "+1-586-422-2292",
      "addr_state": "MI",
      "addr_city": "Clinton Township",
      "addr_postcode": "48035",
      "addr_street": "15 Mile Road",
      "addr_housenumber": "18645",
      "value": 129.61440292472253
    },
    {
      "id": 103241,
      "geometry": "POINT (-82.924227 42.554606)",
      "poi_name": "Wendy's",
      "osm_id": 8492123514,
      "amenity": "fast_food",
      "cuisine": "burger",
      "takeaway": "yes",
      "value": 129.61440292472253
    },
    {
      "id": 103208,
      "geometry": "POINT (-83.031271 42.612413)",
      "poi_name": "KFC",
      "osm_id": 8490596313,
      "amenity": "fast_food",
      "cuisine": "chicken",
      "website": "https://locations.kfc.com/mi/sterling-heights/43280-van-dyke",
      "takeaway": "yes",
      "value": 129.61440292472253
    },
    {
      "id": 110614,
      "geometry": "POINT (-83.20007 42.64182)",
      "poi_name": "Panera Bread",
      "osm_id": 3710886332,
      "amenity": "fast_food",
      "cuisine": "sandwich;bakery",
      "takeaway": "yes",
      "drive_through": "no",
      "addr_state": "MI",
      "addr_city": "Rochester Hills",
      "addr_postcode": "48309",
      "addr_street": "South Adams Road",
      "addr_housenumber": "2508",
      "value": 129.61440292472253
    },
    {
      "id": 103326,
      "geometry": "POINT (-83.065668 42.476012)",
      "poi_name": "Wendy's",
      "osm_id": 8495369806,
      "amenity": "fast_food",
      "cuisine": "burger",
      "takeaway": "yes",
      "value": 129.61440292472253
    },
    {
      "id": 103327,
      "geometry": "POINT (-83.080292 42.47605)",
      "poi_name": "McDonald's",
      "osm_id": 8495369821,
      "amenity": "fast_food",
      "cuisine": "burger",
      "website": "https://www.mcdonalds.com/us/en-us/location/mi/warren/2250-e-10-mile-road/1908.html",
      "takeaway": "yes",
      "value": 129.61440292472253
    },
    {
      "id": 103329,
      "geometry": "POINT (-83.045501 42.462002)",
      "poi_name": "A&W",
      "osm_id": 8495370053,
      "amenity": "fast_food",
      "cuisine": "burger",
      "opening_hours": "11:00-21:00",
      "website": "https://awrestaurants.com/locations/michigan/warren/22901-mound-road",
      "phone": "+1 589 756 9000",
      "takeaway": "yes",
      "addr_state": "MI",
      "addr_city": "Warren",
      "addr_postcode": "48091",
      "addr_street": "Mound Road",
      "addr_housenumber": "22901",
      "value": 129.61440292472253
    },
    {
      "id": 103331,
      "geometry": "POINT (-83.079749 42.447732)",
      "poi_name": "Popeyes",
      "osm_id": 8495370160,
      "amenity": "fast_food",
      "cuisine": "chicken",
      "takeaway": "yes",
      "official_name": "Popeyes Louisiana Kitchen",
      "value": 129.61440292472253
    },
    {
      "id": 103332,
      "geometry": "POINT (-83.045192 42.448279)",
      "poi_name": "Wendy's",
      "osm_id": 8495370201,
      "amenity": "fast_food",
      "cuisine": "burger",
      "takeaway": "yes",
      "value": 129.61440292472253
    },
    {
      "id": 103333,
      "geometry": "POINT (-83.063441 42.447886)",
      "poi_name": "Taco Bell",
      "osm_id": 8495370285,
      "amenity": "fast_food",
      "cuisine": "tex-mex",
      "website": "https://locations.tacobell.com/mi/warren/4105-e-8-mile-rd.html",
      "takeaway": "yes",
      "value": 129.61440292472253
    },
    {
      "id": 103334,
      "geometry": "POINT (-83.000581 42.450874)",
      "poi_name": "Burger King",
      "osm_id": 8495370304,
      "amenity": "fast_food",
      "cuisine": "burger",
      "takeaway": "yes",
      "value": 129.61440292472253
    },
    {
      "id": 103335,
      "geometry": "POINT (-83.002758 42.449631)",
      "poi_name": "Wendy's",
      "osm_id": 8495370335,
      "amenity": "fast_food",
      "cuisine": "burger",
      "takeaway": "yes",
      "value": 129.61440292472253
    },
    {
      "id": 103336,
      "geometry": "POINT (-83.026409 42.466662)",
      "poi_name": "KFC",
      "osm_id": 8495370461,
      "amenity": "fast_food",
      "cuisine": "chicken",
      "website": "https://locations.kfc.com/mi/warren/23450-van-dyke",
      "takeaway": "yes",
      "value": 129.61440292472253
    },
    {
      "id": 103337,
      "geometry": "POINT (-83.028614 42.492337)",
      "poi_name": "Dunkin'",
      "osm_id": 8495370468,
      "amenity": "fast_food",
      "cuisine": "donut;coffee_shop",
      "takeaway": "yes",
      "value": 129.61440292472253
    },
    {
      "id": 103681,
      "geometry": "POINT (-83.107852 42.46147)",
      "poi_name": "Wendy's",
      "osm_id": 8519327735,
      "amenity": "fast_food",
      "cuisine": "burger",
      "takeaway": "yes",
      "addr_state": "MI",
      "addr_city": "Hazel Park",
      "addr_postcode": "48030",
      "addr_street": "West 9 Mile Road",
      "addr_housenumber": "330",
      "value": 129.61440292472253
    },
    {
      "id": 104469,
      "geometry": "POINT (-83.129664 42.589496)",
      "poi_name": "McDonald's",
      "osm_id": 8570222580,
      "amenity": "fast_food",
      "cuisine": "burger",
      "website": "https://www.mcdonalds.com/us/en-us/location/mi/troy/4819-rochester-road/3085.html",
      "takeaway": "yes",
      "value": 129.61440292472253
    },
    {
      "id": 104780,
      "geometry": "POINT (-82.984814 42.626367)",
      "poi_name": "Portillo's",
      "osm_id": 8587088882,
      "amenity": "fast_food",
      "cuisine": "hot_dog;burger",
      "opening_hours": "Mo-Su 10:30-22:00",
      "website": "https://www.portillos.com/location/sterling-heights/",
      "phone": "+1-586-238-3111",
      "takeaway": "yes",
      "drive_through": "yes",
      "value": 129.61440292472253
    },
    {
      "id": 108078,
      "geometry": "POINT (-83.085978 42.507083)",
      "poi_name": "Little Caesars",
      "osm_id": 3594513861,
      "amenity": "fast_food",
      "cuisine": "pizza",
      "website": "https://littlecaesars.com/en-us/store/30/",
      "takeaway": "yes",
      "value": 129.61440292472253
    },
    {
      "id": 103441,
      "geometry": "POINT (-83.248906 42.638819)",
      "poi_name": "Bobby Ray's Gourmet Submarines",
      "osm_id": 8501615040,
      "amenity": "fast_food",
      "website": "https://www.bobbyraysmi.com/",
      "phone": "+1 248 334 5327",
      "addr_state": "MI",
      "addr_city": "Auburn Hills",
      "addr_postcode": "48326",
      "addr_street": "North Opdyke Road",
      "addr_housenumber": "200",
      "value": 129.61440292472253
    },
    {
      "id": 103442,
      "geometry": "POINT (-83.246414 42.66357)",
      "poi_name": "McDonald's",
      "osm_id": 8501615149,
      "amenity": "fast_food",
      "cuisine": "burger",
      "website": "https://www.mcdonalds.com/us/en-us/location/mi/auburn-hills/1481-opdyke-rd/10697.html",
      "takeaway": "yes",
      "value": 129.61440292472253
    },
    {
      "id": 103753,
      "geometry": "POINT (-83.107946 42.505108)",
      "poi_name": "Tropical Smoothie Cafe",
      "osm_id": 8522486273,
      "amenity": "fast_food",
      "cuisine": "juice",
      "takeaway": "yes",
      "drive_through": "yes",
      "addr_state": "MI",
      "addr_city": "Madison Heights",
      "addr_postcode": "48071",
      "addr_street": "West 12 Mile Road",
      "addr_housenumber": "200",
      "value": 129.61440292472253
    },
    {
      "id": 104668,
      "geometry": "POINT (-82.990303 42.628123)",
      "poi_name": "Chick-fil-A",
      "osm_id": 8580830753,
      "amenity": "fast_food",
      "cuisine": "chicken",
      "opening_hours": "Mo-Th 06:30-21:00; Fr-Sa 06:30-22:00; Su off",
      "operator": "Dennis Sampier",
      "website": "https://www.chick-fil-a.com/locations/mi/shelby-township-mi",
      "internet_access": "wlan",
      "phone": "+1-586-840-1311",
      "takeaway": "yes",
      "drive_through": "yes",
      "delivery": "yes",
      "value": 129.61440292472253
    },
    {
      "id": 106872,
      "geometry": "POINT (-83.066596 42.506681)",
      "poi_name": "Subway",
      "osm_id": 3520884770,
      "amenity": "fast_food",
      "cuisine": "sandwich",
      "takeaway": "yes",
      "value": 129.61440292472253
    },
    {
      "id": 106902,
      "geometry": "POINT (-83.084911 42.503014)",
      "poi_name": "Del Taco",
      "osm_id": 3522831509,
      "amenity": "fast_food",
      "cuisine": "mexican",
      "takeaway": "yes",
      "drive_through": "yes",
      "value": 129.61440292472253
    },
    {
      "id": 106903,
      "geometry": "POINT (-83.084907 42.502957)",
      "poi_name": "Papa John's",
      "osm_id": 3522831510,
      "amenity": "fast_food",
      "cuisine": "pizza",
      "takeaway": "yes",
      "value": 129.61440292472253
    },
    {
      "id": 107864,
      "geometry": "POINT (-83.171882 42.635422)",
      "poi_name": "Subway",
      "osm_id": 3582144906,
      "amenity": "fast_food",
      "cuisine": "sandwich",
      "takeaway": "yes",
      "value": 129.61440292472253
    },
    {
      "id": 107866,
      "geometry": "POINT (-83.171396 42.641839)",
      "poi_name": "McDonald's",
      "osm_id": 3582169893,
      "amenity": "fast_food",
      "cuisine": "burger",
      "website": "https://www.mcdonalds.com/us/en-us/location/mi/rochester-hills/2590-crooks-rd/10741.html",
      "takeaway": "yes",
      "drive_through": "yes",
      "value": 129.61440292472253
    },
    {
      "id": 107867,
      "geometry": "POINT (-83.170009 42.641857)",
      "poi_name": "Burger King",
      "osm_id": 3582171993,
      "amenity": "fast_food",
      "cuisine": "burger",
      "takeaway": "yes",
      "value": 129.61440292472253
    },
    {
      "id": 107868,
      "geometry": "POINT (-83.198732 42.643255)",
      "poi_name": "Subway",
      "osm_id": 3582174493,
      "amenity": "fast_food",
      "cuisine": "sandwich",
      "takeaway": "yes",
      "drive_through": "no",
      "addr_state": "MI",
      "addr_city": "Rochester Hills",
      "addr_postcode": "48309",
      "addr_street": "South Adams Road",
      "addr_housenumber": "2500",
      "value": 129.61440292472253
    },
    {
      "id": 107869,
      "geometry": "POINT (-83.223328 42.633854)",
      "poi_name": "Subway",
      "osm_id": 3582174494,
      "amenity": "fast_food",
      "cuisine": "sandwich",
      "takeaway": "yes",
      "value": 129.61440292472253
    },
    {
      "id": 112576,
      "geometry": "POINT (-83.058528 42.397626)",
      "poi_name": "Amicci's Pizza",
      "osm_id": 3796860656,
      "amenity": "fast_food",
      "cuisine": "pizza",
      "website": "http://www.amiccispizzamenu.com/",
      "addr_city": "Hamtramck",
      "addr_postcode": "48212",
      "addr_street": "Joseph Campau Street",
      "addr_housenumber": "9841",
      "value": 129.61440292472253
    },
    {
      "id": 129349,
      "geometry": "POINT (-83.028299 42.542428)",
      "poi_name": "Captain Jay's Fish & Chicken",
      "osm_id": 8238129196,
      "amenity": "fast_food",
      "website": "https://www.captainjays.net/",
      "phone": "+1-586-795-3334",
      "drive_through": "yes",
      "value": 129.61440292472253
    },
    {
      "id": 119282,
      "geometry": "POINT (-83.042452 42.353226)",
      "poi_name": "Louie's Corned Beef and Ham",
      "osm_id": 9095050650,
      "amenity": "fast_food",
      "website": "https://louieseasternmarket.com/",
      "addr_state": "MI",
      "addr_city": "Detroit",
      "addr_postcode": "48207",
      "addr_street": "Riopelle Street",
      "addr_housenumber": "3570",
      "value": 129.61440292472253
    },
    {
      "id": 128804,
      "geometry": "POINT (-83.029913 42.533903)",
      "poi_name": "Uncle Joe\u2019s Chicken Fingers",
      "osm_id": 8188026361,
      "amenity": "fast_food",
      "value": 129.61440292472253
    },
    {
      "id": 128805,
      "geometry": "POINT (-83.028869 42.534288)",
      "poi_name": "Subway",
      "osm_id": 8188026376,
      "amenity": "fast_food",
      "cuisine": "sandwich",
      "takeaway": "yes",
      "addr_state": "MI",
      "addr_city": "Warren",
      "addr_postcode": "48093",
      "addr_street": "Van Dyke Avenue",
      "addr_housenumber": "32620",
      "value": 129.61440292472253
    },
    {
      "id": 120729,
      "geometry": "POINT (-83.084313 42.491678)",
      "poi_name": "Subway",
      "osm_id": 6721207939,
      "amenity": "fast_food",
      "cuisine": "sandwich",
      "takeaway": "yes",
      "value": 129.61440292472253
    },
    {
      "id": 129063,
      "geometry": "POINT (-83.02973 42.532058)",
      "poi_name": "Donut Hole",
      "osm_id": 8206672968,
      "amenity": "fast_food",
      "cuisine": "donut",
      "phone": "+1-586-939-8810",
      "addr_state": "MI",
      "addr_city": "Warren",
      "addr_postcode": "48093",
      "addr_street": "Van Dyke Avenue",
      "addr_housenumber": "32187",
      "value": 129.61440292472253
    },
    {
      "id": 129064,
      "geometry": "POINT (-83.029902 42.531598)",
      "poi_name": "McDonald's",
      "osm_id": 8206672985,
      "amenity": "fast_food",
      "cuisine": "burger",
      "website": "https://www.mcdonalds.com/us/en-us/location/mi/warren/32155-van-dyke-ave/35179.html",
      "phone": "+1-586-983-2606",
      "takeaway": "yes",
      "drive_through": "yes",
      "addr_state": "MI",
      "addr_city": "Warren",
      "addr_postcode": "48093",
      "addr_street": "Van Dyke Avenue",
      "addr_housenumber": "32155",
      "value": 129.61440292472253
    },
    {
      "id": 129350,
      "geometry": "POINT (-83.028374 42.540456)",
      "poi_name": "Tubby's Sub Shop",
      "osm_id": 8238129205,
      "amenity": "fast_food",
      "cuisine": "sandwich",
      "value": 129.61440292472253
    },
    {
      "id": 150032,
      "geometry": "POINT (-83.055222 42.44825)",
      "poi_name": "McDonald's",
      "osm_id": 4039411412,
      "amenity": "fast_food",
      "cuisine": "burger",
      "website": "https://www.mcdonalds.com/us/en-us/location/mi/warren/4899-east-eight-mile-road/10204.html",
      "takeaway": "yes",
      "value": 129.61440292472253
    },
    {
      "id": 130440,
      "geometry": "POINT (-83.169646 42.599629)",
      "poi_name": "Panera Bread",
      "osm_id": 9872497208,
      "amenity": "fast_food",
      "cuisine": "sandwich;bakery",
      "takeaway": "yes",
      "addr_state": "MI",
      "addr_city": "Troy",
      "addr_postcode": "48098",
      "addr_street": "Crooks Road",
      "addr_housenumber": "5569",
      "value": 129.61440292472253
    },
    {
      "id": 130442,
      "geometry": "POINT (-83.168131 42.595595)",
      "poi_name": "Chipotle",
      "osm_id": 9872497210,
      "amenity": "fast_food",
      "cuisine": "mexican",
      "takeaway": "yes",
      "official_name": "Chipotle Mexican Grill",
      "value": 129.61440292472253
    },
    {
      "id": 130443,
      "geometry": "POINT (-83.169518 42.5964)",
      "poi_name": "Jimmy John's",
      "osm_id": 9872562494,
      "amenity": "fast_food",
      "cuisine": "sandwich",
      "takeaway": "yes",
      "official_name": "Jimmy John's Gourmet Sandwiches",
      "addr_state": "MI",
      "addr_city": "Troy",
      "addr_postcode": "48098",
      "addr_street": "Crooks Road",
      "addr_housenumber": "5373",
      "value": 129.61440292472253
    },
    {
      "id": 130453,
      "geometry": "POINT (-83.164077 42.562366)",
      "poi_name": "Clean Juice",
      "osm_id": 9872827291,
      "amenity": "fast_food",
      "cuisine": "juice",
      "takeaway": "yes",
      "addr_state": "MI",
      "addr_city": "Troy",
      "addr_postcode": "48084",
      "addr_street": "West Big Beaver Road",
      "addr_housenumber": "766",
      "value": 129.61440292472253
    },
    {
      "id": 130454,
      "geometry": "POINT (-83.164535 42.562351)",
      "poi_name": "Shake Shack",
      "osm_id": 9872827292,
      "amenity": "fast_food",
      "cuisine": "burger",
      "takeaway": "yes",
      "addr_state": "MI",
      "addr_city": "Troy",
      "addr_postcode": "48084",
      "addr_street": "West Big Beaver Road",
      "addr_housenumber": "850",
      "value": 129.61440292472253
    },
    {
      "id": 130455,
      "geometry": "POINT (-83.163848 42.562486)",
      "poi_name": "Kura Sushi",
      "osm_id": 9872827293,
      "amenity": "fast_food",
      "cuisine": "sushi",
      "takeaway": "yes",
      "official_name": "Kura Revolving Sushi Bar",
      "addr_state": "MI",
      "addr_city": "Troy",
      "addr_postcode": "48084",
      "addr_street": "West Big Beaver Road",
      "addr_housenumber": "736",
      "value": 129.61440292472253
    },
    {
      "id": 130460,
      "geometry": "POINT (-83.16181 42.56243)",
      "poi_name": "Dave's Hot Chicken",
      "osm_id": 9872827298,
      "amenity": "fast_food",
      "cuisine": "chicken",
      "takeaway": "yes",
      "addr_state": "MI",
      "addr_city": "Troy",
      "addr_postcode": "48084",
      "addr_street": "West Big Beaver Road",
      "addr_housenumber": "624",
      "value": 129.61440292472253
    },
    {
      "id": 130719,
      "geometry": "POINT (-83.025001 42.441678)",
      "poi_name": "Burger King",
      "osm_id": 9887269125,
      "amenity": "fast_food",
      "cuisine": "burger",
      "takeaway": "yes",
      "addr_state": "MI",
      "addr_city": "Detroit",
      "addr_postcode": "48234",
      "addr_street": "Van Dyke Street",
      "addr_housenumber": "19901",
      "value": 129.61440292472253
    },
    {
      "id": 130733,
      "geometry": "POINT (-83.064156 42.447018)",
      "poi_name": "Checkers",
      "osm_id": 9887930362,
      "amenity": "fast_food",
      "cuisine": "burger",
      "takeaway": "yes",
      "addr_state": "MI",
      "addr_city": "Detroit",
      "addr_postcode": "48234",
      "addr_street": "East 8 Mile Road",
      "addr_housenumber": "4030",
      "value": 129.61440292472253
    },
    {
      "id": 144447,
      "geometry": "POINT (-83.104425 42.461743)",
      "poi_name": "Subway",
      "osm_id": 7264955911,
      "amenity": "fast_food",
      "cuisine": "sandwich",
      "takeaway": "yes",
      "value": 129.61440292472253
    },
    {
      "id": 133343,
      "geometry": "POINT (-83.063861 42.378294)",
      "poi_name": "Clay Super Coney Island",
      "osm_id": 9989078305,
      "amenity": "fast_food",
      "addr_state": "MI",
      "addr_city": "Detroit",
      "addr_postcode": "48211",
      "addr_street": "Clay Street",
      "addr_housenumber": "1141",
      "value": 129.61440292472253
    },
    {
      "id": 136039,
      "geometry": "POINT (-82.949683 42.369887)",
      "poi_name": "motorcity smoothie",
      "osm_id": 11557222640,
      "amenity": "fast_food",
      "cuisine": "juice",
      "value": 129.61440292472253
    },
    {
      "id": 137040,
      "geometry": "POINT (-82.914478 42.40946)",
      "poi_name": "McDonald's",
      "osm_id": 6083055340,
      "amenity": "fast_food",
      "cuisine": "burger",
      "website": "https://www.mcdonalds.com/us/en-us/location/mi/detroit/18201-mack-avenue/34783.html",
      "takeaway": "yes",
      "addr_state": "MI",
      "addr_city": "Detroit",
      "addr_postcode": "48224",
      "addr_street": "Mack Avenue",
      "addr_housenumber": "18201",
      "value": 129.61440292472253
    },
    {
      "id": 144017,
      "geometry": "POINT (-82.968729 42.449464)",
      "poi_name": "Dunkin' Donuts",
      "osm_id": 6359283116,
      "amenity": "fast_food",
      "cuisine": "donut",
      "addr_state": "MI",
      "addr_city": "Detroit",
      "addr_postcode": "48205",
      "addr_street": "East 8 Mile Road",
      "addr_housenumber": "14900",
      "value": 129.61440292472253
    },
    {
      "id": 163978,
      "geometry": "POINT (-83.014504 42.378231)",
      "poi_name": "Wendy's",
      "osm_id": 9445661534,
      "amenity": "fast_food",
      "cuisine": "burger",
      "takeaway": "yes",
      "addr_state": "MI",
      "addr_city": "Detroit",
      "addr_postcode": "48213",
      "addr_street": "Gratiot Avenue",
      "addr_housenumber": "7850",
      "value": 129.61440292472253
    },
    {
      "id": 153088,
      "geometry": "POINT (-82.978332 42.389738)",
      "poi_name": "Subway",
      "osm_id": 4175664324,
      "amenity": "fast_food",
      "cuisine": "sandwich",
      "takeaway": "yes",
      "addr_city": "Detroit",
      "value": 129.61440292472253
    },
    {
      "id": 159243,
      "geometry": "POINT (-83.21668 42.674428)",
      "poi_name": "Chick-fil-A",
      "osm_id": 4783431307,
      "amenity": "fast_food",
      "cuisine": "chicken",
      "opening_hours": "Mo-Th 10:00-19:00; Fr 10:00-17:00; PH off",
      "takeaway": "yes",
      "delivery": "no",
      "value": 129.61440292472253
    },
    {
      "id": 159950,
      "geometry": "POINT (-83.216472 42.674366)",
      "poi_name": "Subway",
      "osm_id": 4812148990,
      "amenity": "fast_food",
      "cuisine": "sandwich",
      "opening_hours": "Mo-Th 10:00-19:00; Fr 10:00-17:00; Sa 11:00-19:00; Su 12:00-19:00; PH off",
      "takeaway": "yes",
      "value": 129.61440292472253
    },
    {
      "id": 159951,
      "geometry": "POINT (-83.216728 42.674364)",
      "poi_name": "Panda Express",
      "osm_id": 4812148991,
      "amenity": "fast_food",
      "cuisine": "chinese",
      "opening_hours": "Mo-Th 10:00-19:00; Fr 10:00-17:00; PH off",
      "takeaway": "yes",
      "value": 129.61440292472253
    },
    {
      "id": 159952,
      "geometry": "POINT (-83.216538 42.674429)",
      "poi_name": "Moe's Southwest Grill",
      "osm_id": 4812148992,
      "amenity": "fast_food",
      "cuisine": "mexican",
      "opening_hours": "Mo-Th 10:00-19:00; Fr 10:00-17:00; PH off",
      "takeaway": "yes",
      "value": 129.61440292472253
    },
    {
      "id": 180222,
      "geometry": "POINT (-82.953279 42.435055)",
      "poi_name": "Wendy's",
      "osm_id": 10795948365,
      "amenity": "fast_food",
      "cuisine": "burger",
      "takeaway": "yes",
      "addr_state": "MI",
      "addr_city": "Detroit",
      "addr_postcode": "48205",
      "addr_street": "Kelly Road",
      "addr_housenumber": "19100",
      "value": 129.61440292472253
    },
    {
      "id": 172701,
      "geometry": "POINT (-83.150034 42.605889)",
      "poi_name": "Peppy's Pizza",
      "osm_id": 2411229837,
      "amenity": "fast_food",
      "cuisine": "pizza",
      "addr_street": "Livernois Rd",
      "addr_housenumber": "5965",
      "value": 129.61440292472253
    },
    {
      "id": 163973,
      "geometry": "POINT (-83.045312 42.497544)",
      "poi_name": "Burger King",
      "osm_id": 9445231305,
      "amenity": "fast_food",
      "cuisine": "burger",
      "takeaway": "yes",
      "drive_through": "yes",
      "value": 129.61440292472253
    },
    {
      "id": 166148,
      "geometry": "POINT (-82.930399 42.462077)",
      "poi_name": "Papa John's",
      "osm_id": 9576883966,
      "amenity": "fast_food",
      "cuisine": "pizza",
      "website": "https://www.papajohns.com/",
      "phone": "+1 586 777 7272",
      "takeaway": "yes",
      "drive_through": "no",
      "addr_state": "MI",
      "addr_city": "Eastpointe",
      "addr_street": "Kelly Road",
      "addr_housenumber": "22241",
      "value": 129.61440292472253
    },
    {
      "id": 166149,
      "geometry": "POINT (-82.928958 42.463562)",
      "poi_name": "Hungry Howie's",
      "osm_id": 9576883976,
      "amenity": "fast_food",
      "cuisine": "pizza",
      "website": "https://www.hungryhowies.com/store/hungry-howies-00019",
      "phone": "+1 586 445 2220",
      "takeaway": "yes",
      "drive_through": "no",
      "addr_state": "MI",
      "addr_city": "Eastpointe",
      "addr_street": "Kelly Road",
      "addr_housenumber": "22431",
      "value": 129.61440292472253
    },
    {
      "id": 179713,
      "geometry": "POINT (-83.073234 42.418888)",
      "poi_name": "Joe's Coney Island",
      "osm_id": 10776076795,
      "amenity": "fast_food",
      "addr_state": "MI",
      "addr_city": "Detroit",
      "addr_postcode": "48212",
      "addr_street": "East McNichols Road",
      "addr_housenumber": "2801",
      "value": 129.61440292472253
    },
    {
      "id": 180269,
      "geometry": "POINT (-83.07943 42.446818)",
      "poi_name": "Subway",
      "osm_id": 10797058735,
      "amenity": "fast_food",
      "cuisine": "sandwich",
      "takeaway": "yes",
      "drive_through": "yes",
      "addr_state": "MI",
      "addr_city": "Detroit",
      "addr_postcode": "48234",
      "addr_street": "East 8 Mile Road",
      "addr_housenumber": "2240",
      "value": 129.61440292472253
    },
    {
      "id": 180445,
      "geometry": "POINT (-83.005426 42.393717)",
      "poi_name": "Hollywood Coney Island",
      "osm_id": 10801813352,
      "amenity": "fast_food",
      "addr_state": "MI",
      "addr_city": "Detroit",
      "addr_postcode": "48213",
      "addr_street": "Gratiot Avenue",
      "addr_housenumber": "9951",
      "value": 129.61440292472253
    },
    {
      "id": 196032,
      "geometry": "POINT (-83.03394 42.440608)",
      "poi_name": "Grandy's Coney Island",
      "osm_id": 10559705450,
      "amenity": "fast_food",
      "addr_state": "MI",
      "addr_city": "Detroit",
      "addr_postcode": "48234",
      "addr_street": "East Outer Drive",
      "addr_housenumber": "4004",
      "value": 129.61440292472253
    },
    {
      "id": 180498,
      "geometry": "POINT (-82.96517 42.405066)",
      "poi_name": "KFC",
      "osm_id": 10803598874,
      "amenity": "fast_food",
      "cuisine": "chicken",
      "website": "https://locations.kfc.com/mi/detroit/9041-chalmers",
      "takeaway": "yes",
      "addr_state": "MI",
      "addr_city": "Detroit",
      "addr_postcode": "48213",
      "addr_street": "Chalmers Street",
      "addr_housenumber": "9041",
      "value": 129.61440292472253
    },
    {
      "id": 180499,
      "geometry": "POINT (-82.9651 42.404871)",
      "poi_name": "Little Caesars",
      "osm_id": 10803598875,
      "amenity": "fast_food",
      "cuisine": "pizza",
      "website": "https://littlecaesars.com/en-us/store/16/",
      "takeaway": "yes",
      "addr_state": "MI",
      "addr_city": "Detroit",
      "addr_postcode": "48213",
      "addr_street": "Harper Avenue",
      "addr_housenumber": "14351",
      "value": 129.61440292472253
    },
    {
      "id": 180500,
      "geometry": "POINT (-82.964602 42.405247)",
      "poi_name": "Captain Jay's Fish and Chicken",
      "osm_id": 10803598876,
      "amenity": "fast_food",
      "cuisine": "chicken",
      "addr_state": "MI",
      "addr_city": "Detroit",
      "addr_postcode": "48213",
      "addr_street": "Harper Avenue",
      "addr_housenumber": "14401",
      "value": 129.61440292472253
    },
    {
      "id": 180501,
      "geometry": "POINT (-82.942366 42.41278)",
      "poi_name": "Checkers",
      "osm_id": 10803598993,
      "amenity": "fast_food",
      "cuisine": "burger",
      "takeaway": "yes",
      "addr_state": "MI",
      "addr_city": "Detroit",
      "addr_postcode": "48224",
      "addr_street": "Harper Avenue",
      "addr_housenumber": "16511",
      "value": 129.61440292472253
    },
    {
      "id": 180502,
      "geometry": "POINT (-82.937787 42.415494)",
      "poi_name": "McDonald's",
      "osm_id": 10803599015,
      "amenity": "fast_food",
      "cuisine": "burger",
      "takeaway": "yes",
      "addr_state": "MI",
      "addr_city": "Detroit",
      "addr_postcode": "48224",
      "addr_street": "Harper Avenue",
      "addr_housenumber": "16950",
      "value": 129.61440292472253
    },
    {
      "id": 180503,
      "geometry": "POINT (-82.937179 42.415826)",
      "poi_name": "Wendy's",
      "osm_id": 10803599016,
      "amenity": "fast_food",
      "cuisine": "burger",
      "takeaway": "yes",
      "value": 129.61440292472253
    },
    {
      "id": 183532,
      "geometry": "POINT (-83.11063 42.578643)",
      "poi_name": "NYC Halal Eats",
      "osm_id": 10935036548,
      "amenity": "fast_food",
      "cuisine": "burger",
      "opening_hours": "Tu-Th,Su 12:00-23:00; Fr 15:00-24:00; Sa 12:00-24:00",
      "value": 129.61440292472253
    },
    {
      "id": 185049,
      "geometry": "POINT (-82.997198 42.406082)",
      "poi_name": "Rio's Coney Island",
      "osm_id": 7829805282,
      "amenity": "fast_food",
      "cuisine": "hot_dog",
      "addr_state": "MI",
      "addr_city": "Detroit",
      "addr_postcode": "48213",
      "addr_street": "Gratiot Avenue",
      "addr_housenumber": "10993",
      "value": 129.61440292472253
    },
    {
      "id": 189621,
      "geometry": "POINT (-83.109971 42.564534)",
      "poi_name": "Insalata",
      "osm_id": 1240072303,
      "amenity": "fast_food",
      "cuisine": "salad",
      "phone": "+1-248-528-2250",
      "addr_state": "MI",
      "addr_city": "Troy",
      "addr_postcode": "48083",
      "addr_street": "East Big Beaver Road",
      "addr_housenumber": "1919",
      "value": 129.61440292472253
    },
    {
      "id": 190745,
      "geometry": "POINT (-83.08564 42.534483)",
      "poi_name": "Erma's Frozen Custard",
      "osm_id": 1314168516,
      "amenity": "fast_food",
      "cuisine": "ice_cream",
      "description": "Open from April 1st \u2013 October 31st.",
      "website": "https://www.ermascustard.com/",
      "addr_state": "MI",
      "addr_city": "Warren",
      "addr_postcode": "48092",
      "addr_street": "East 14 Mile Road",
      "addr_housenumber": "2080",
      "value": 129.61440292472253
    },
    {
      "id": 194021,
      "geometry": "POINT (-82.938128 42.493601)",
      "poi_name": "White Castle",
      "osm_id": 1576861865,
      "amenity": "fast_food",
      "cuisine": "burger",
      "website": "https://www.whitecastle.com/",
      "addr_postcode": "48066",
      "addr_street": "Gratiot Avenue",
      "addr_housenumber": "26900",
      "value": 129.61440292472253
    },
    {
      "id": 183412,
      "geometry": "POINT (-82.925126 42.407535)",
      "poi_name": "Burger King",
      "osm_id": 10929688518,
      "amenity": "fast_food",
      "cuisine": "burger",
      "takeaway": "yes",
      "addr_state": "MI",
      "addr_city": "Detroit",
      "addr_postcode": "48224",
      "addr_street": "East Warren Avenue",
      "addr_housenumber": "17440",
      "value": 129.61440292472253
    },
    {
      "id": 183949,
      "geometry": "POINT (-82.941728 42.422545)",
      "poi_name": "All American Coney Island",
      "osm_id": 10955162778,
      "amenity": "fast_food",
      "cuisine": "hot_dog",
      "addr_state": "MI",
      "addr_city": "Detroit",
      "addr_postcode": "48224",
      "addr_street": "Morang Drive",
      "addr_housenumber": "11001",
      "value": 129.61440292472253
    },
    {
      "id": 185268,
      "geometry": "POINT (-82.959462 42.464242)",
      "poi_name": "Five Guys",
      "osm_id": 7841597473,
      "amenity": "fast_food",
      "cuisine": "burger",
      "phone": "+1-586-773-3483",
      "takeaway": "yes",
      "drive_through": "no",
      "official_name": "Five Guys Burgers and Fries",
      "addr_state": "MI",
      "addr_city": "Eastpointe",
      "addr_postcode": "48021",
      "addr_street": "South Gratiot Avenue",
      "addr_housenumber": "22641",
      "value": 129.61440292472253
    },
    {
      "id": 197075,
      "geometry": "POINT (-83.0829 42.43985)",
      "poi_name": "Pete's Grill Coney Island",
      "osm_id": 10611436274,
      "amenity": "fast_food",
      "addr_state": "MI",
      "addr_city": "Detroit",
      "addr_postcode": "48234",
      "addr_street": "East Outer Drive",
      "addr_housenumber": "1400",
      "value": 129.61440292472253
    },
    {
      "id": 196015,
      "geometry": "POINT (-83.042955 42.433838)",
      "poi_name": "Lou's Coney Island",
      "osm_id": 10558473751,
      "amenity": "fast_food",
      "addr_state": "MI",
      "addr_city": "Detroit",
      "addr_postcode": "48234",
      "addr_street": "Mound Road",
      "addr_housenumber": "19100",
      "value": 129.61440292472253
    },
    {
      "id": 196017,
      "geometry": "POINT (-83.082917 42.445316)",
      "poi_name": "McDonald's",
      "osm_id": 10558533498,
      "amenity": "fast_food",
      "cuisine": "burger",
      "website": "https://www.mcdonalds.com/us/en-us/location/mi/detroit/20405-conant-avenue/1702.html",
      "takeaway": "yes",
      "addr_state": "MI",
      "addr_city": "Detroit",
      "addr_postcode": "48234",
      "addr_street": "Conant Street",
      "addr_housenumber": "20405",
      "value": 129.61440292472253
    },
    {
      "id": 201480,
      "geometry": "POINT (-82.987821 42.356651)",
      "poi_name": "McDonald's",
      "osm_id": 634780162,
      "amenity": "fast_food",
      "cuisine": "burger",
      "website": "https://www.mcdonalds.com/us/en-us/location/mi/detroit/8825-e-jefferson/2285.html",
      "takeaway": "yes",
      "value": 129.61440292472253
    },
    {
      "id": 199593,
      "geometry": "POINT (-83.131359 42.563974)",
      "poi_name": "Panera Bread",
      "osm_id": 974702547,
      "amenity": "fast_food",
      "cuisine": "sandwich;bakery",
      "internet_access": "wlan",
      "takeaway": "yes",
      "addr_state": "MI",
      "addr_city": "Troy",
      "addr_postcode": "48084",
      "addr_street": "East Big Beaver Road",
      "addr_housenumber": "823",
      "value": 129.61440292472253
    },
    {
      "id": 200866,
      "geometry": "POINT (-83.111134 42.564432)",
      "poi_name": "Olga's Kitchen",
      "osm_id": 599357832,
      "amenity": "fast_food",
      "phone": "+1-248-524-1500",
      "addr_state": "MI",
      "addr_city": "Troy",
      "addr_postcode": "48083",
      "addr_street": "East Big Beaver Road",
      "addr_housenumber": "1853",
      "value": 129.61440292472253
    },
    {
      "id": 200868,
      "geometry": "POINT (-83.109766 42.564568)",
      "poi_name": "Einstein Bros. Bagels",
      "osm_id": 599357853,
      "amenity": "fast_food",
      "cuisine": "bagel",
      "phone": "+1-248-619-9963",
      "takeaway": "yes",
      "addr_state": "MI",
      "addr_city": "Troy",
      "addr_postcode": "48083",
      "addr_street": "East Big Beaver Road",
      "addr_housenumber": "1925",
      "value": 129.61440292472253
    },
    {
      "id": 198573,
      "geometry": "POINT (-83.049031 42.550996)",
      "poi_name": "Burger King",
      "osm_id": 902679757,
      "amenity": "fast_food",
      "cuisine": "burger",
      "takeaway": "yes",
      "value": 129.61440292472253
    },
    {
      "id": 198574,
      "geometry": "POINT (-83.049138 42.551786)",
      "poi_name": "Hardee's",
      "osm_id": 902680430,
      "amenity": "fast_food",
      "cuisine": "burger",
      "website": "https://locations.hardees.com/mi/sterling-heights/35155-mound-rd",
      "takeaway": "yes",
      "value": 129.61440292472253
    },
    {
      "id": 198575,
      "geometry": "POINT (-83.04931 42.549368)",
      "poi_name": "Subway",
      "osm_id": 902680706,
      "amenity": "fast_food",
      "cuisine": "sandwich",
      "takeaway": "yes",
      "value": 129.61440292472253
    },
    {
      "id": 198576,
      "geometry": "POINT (-83.067785 42.535092)",
      "poi_name": "Little Caesars",
      "osm_id": 902684248,
      "amenity": "fast_food",
      "cuisine": "pizza",
      "website": "https://littlecaesars.com/en-us/store/14/",
      "takeaway": "yes",
      "value": 129.61440292472253
    },
    {
      "id": 198578,
      "geometry": "POINT (-83.065349 42.535242)",
      "poi_name": "McDonald's",
      "osm_id": 902685493,
      "amenity": "fast_food",
      "cuisine": "burger",
      "website": "https://www.mcdonalds.com/us/en-us/location/mi/warren/4240-e-14-mile/5506.html",
      "takeaway": "yes",
      "value": 129.61440292472253
    },
    {
      "id": 198579,
      "geometry": "POINT (-83.067956 42.536736)",
      "poi_name": "Dairy Queen",
      "osm_id": 902686362,
      "amenity": "fast_food",
      "cuisine": "ice_cream;burger",
      "takeaway": "yes",
      "value": 129.61440292472253
    },
    {
      "id": 199648,
      "geometry": "POINT (-83.086106 42.56338)",
      "poi_name": "Burger King",
      "osm_id": 978909568,
      "amenity": "fast_food",
      "cuisine": "burger",
      "takeaway": "yes",
      "value": 129.61440292472253
    },
    {
      "id": 216568,
      "geometry": "POINT (-83.067632 42.535002)",
      "poi_name": "Subway",
      "osm_id": 9175794210,
      "amenity": "fast_food",
      "cuisine": "sandwich",
      "takeaway": "yes",
      "value": 129.61440292472253
    },
    {
      "id": 205381,
      "geometry": "POINT (-83.008107 42.520173)",
      "poi_name": "Jimmy John's",
      "osm_id": 7167304130,
      "amenity": "fast_food",
      "cuisine": "sandwich",
      "takeaway": "yes",
      "official_name": "Jimmy John's Gourmet Sandwiches",
      "value": 129.61440292472253
    },
    {
      "id": 205382,
      "geometry": "POINT (-83.006468 42.520957)",
      "poi_name": "Subway",
      "osm_id": 7167304140,
      "amenity": "fast_food",
      "cuisine": "sandwich",
      "takeaway": "yes",
      "value": 129.61440292472253
    },
    {
      "id": 207815,
      "geometry": "POINT (-83.122935 42.468172)",
      "poi_name": "Little Caesars",
      "osm_id": 4962153300,
      "amenity": "fast_food",
      "cuisine": "pizza",
      "website": "https://littlecaesars.com/en-us/store/1193/",
      "takeaway": "yes",
      "addr_state": "MI",
      "addr_city": "Ferndale",
      "addr_postcode": "48220",
      "addr_street": "Hilton Road",
      "addr_housenumber": "2660",
      "value": 129.61440292472253
    },
    {
      "id": 207816,
      "geometry": "POINT (-83.123625 42.46709)",
      "poi_name": "Subway",
      "osm_id": 4962153301,
      "amenity": "fast_food",
      "cuisine": "sandwich",
      "takeaway": "yes",
      "addr_state": "MI",
      "addr_city": "Ferndale",
      "addr_postcode": "48220",
      "addr_street": "Hilton Road",
      "addr_housenumber": "2525",
      "value": 129.61440292472253
    },
    {
      "id": 214813,
      "geometry": "POINT (-83.220226 42.680415)",
      "poi_name": "Subway",
      "osm_id": 5281248516,
      "amenity": "fast_food",
      "cuisine": "sandwich",
      "website": "https://www.subway.com",
      "value": 129.61440292472253
    },
    {
      "id": 204021,
      "geometry": "POINT (-83.162121 42.562406)",
      "poi_name": "Jersey Mike's Subs",
      "osm_id": 7110800040,
      "amenity": "fast_food",
      "cuisine": "sandwich",
      "takeaway": "yes",
      "addr_state": "MI",
      "addr_city": "Troy",
      "addr_postcode": "48084",
      "addr_street": "West Big Beaver Road",
      "addr_housenumber": "644",
      "value": 129.61440292472253
    },
    {
      "id": 204343,
      "geometry": "POINT (-83.023773 42.507257)",
      "poi_name": "Penn Station",
      "osm_id": 7122938457,
      "amenity": "fast_food",
      "cuisine": "sandwich",
      "takeaway": "yes",
      "value": 129.61440292472253
    },
    {
      "id": 211887,
      "geometry": "POINT (-83.150915 42.60709)",
      "poi_name": "Subway",
      "osm_id": 5178581992,
      "amenity": "fast_food",
      "cuisine": "sandwich",
      "takeaway": "yes",
      "value": 129.61440292472253
    },
    {
      "id": 214541,
      "geometry": "POINT (-82.976113 42.628179)",
      "poi_name": "Qdoba",
      "osm_id": 5274693320,
      "amenity": "fast_food",
      "cuisine": "mexican",
      "website": "https://locations.qdoba.com/us/mi/shelby-charter-township/15099-hall-rd.html",
      "takeaway": "yes",
      "official_name": "Qdoba Mexican Grill",
      "value": 129.61440292472253
    },
    {
      "id": 214543,
      "geometry": "POINT (-82.97769 42.626611)",
      "poi_name": "Jersey Mike's Subs",
      "osm_id": 5274693716,
      "amenity": "fast_food",
      "cuisine": "sandwich",
      "takeaway": "yes",
      "addr_state": "MI",
      "addr_city": "Sterling Heights",
      "addr_postcode": "48313",
      "addr_street": "Hall Road",
      "value": 129.61440292472253
    },
    {
      "id": 214545,
      "geometry": "POINT (-82.994526 42.616597)",
      "poi_name": "Subway",
      "osm_id": 5274790520,
      "amenity": "fast_food",
      "cuisine": "sandwich",
      "takeaway": "yes",
      "value": 129.61440292472253
    },
    {
      "id": 214820,
      "geometry": "POINT (-83.22132 42.673398)",
      "poi_name": "Jersey Mike's Subs",
      "osm_id": 5281251347,
      "amenity": "fast_food",
      "cuisine": "sandwich",
      "takeaway": "yes",
      "value": 129.61440292472253
    },
    {
      "id": 220085,
      "geometry": "POINT (-83.068947 42.385894)",
      "poi_name": "Grandy's Coney Island",
      "osm_id": 9358484521,
      "amenity": "fast_food",
      "cuisine": "hot_dog",
      "addr_state": "MI",
      "addr_city": "Detroit",
      "addr_postcode": "48211",
      "addr_street": "Holbrook Street",
      "addr_housenumber": "1200",
      "value": 129.61440292472253
    },
    {
      "id": 220824,
      "geometry": "POINT (-83.032284 42.376954)",
      "poi_name": "Legends Coney Island",
      "osm_id": 10959707607,
      "amenity": "fast_food",
      "cuisine": "hot_dog",
      "addr_state": "MI",
      "addr_city": "Detroit",
      "addr_postcode": "48211",
      "addr_street": "Mount Elliott Street",
      "addr_housenumber": "5805",
      "value": 129.61440292472253
    },
    {
      "id": 222240,
      "geometry": "POINT (-83.086722 42.432655)",
      "poi_name": "Jed's Pizza",
      "osm_id": 11011154704,
      "amenity": "fast_food",
      "cuisine": "pizza",
      "addr_state": "MI",
      "addr_city": "Detroit",
      "addr_postcode": "48203",
      "addr_street": "East 7 Mile Road",
      "addr_housenumber": "1648",
      "value": 129.61440292472253
    },
    {
      "id": 233337,
      "geometry": "POINT (-83.22824 42.654772)",
      "poi_name": "Dunkin' Donuts",
      "osm_id": 4568950752,
      "amenity": "fast_food",
      "cuisine": "donut;coffee_shop",
      "internet_access": "no",
      "takeaway": "yes",
      "value": 129.61440292472253
    },
    {
      "id": 228904,
      "geometry": "POINT (-83.13031 42.636934)",
      "poi_name": "Panera Bread",
      "osm_id": 4359330623,
      "amenity": "fast_food",
      "cuisine": "sandwich;bakery",
      "takeaway": "yes",
      "value": 129.61440292472253
    },
    {
      "id": 238602,
      "geometry": "POINT (-83.216424 42.673916)",
      "poi_name": "Plum Market Kitchen",
      "osm_id": 5885316530,
      "amenity": "fast_food",
      "cuisine": "sandwich;seafood;snack",
      "takeaway": "yes",
      "drive_through": "no",
      "delivery": "no",
      "addr_state": "MI",
      "addr_city": "Rochester",
      "addr_postcode": "48309",
      "addr_street": "Meadow Brook Road",
      "addr_housenumber": "312",
      "value": 129.61440292472253
    },
    {
      "id": 240398,
      "geometry": "POINT (-82.994892 42.352089)",
      "poi_name": "Subway",
      "osm_id": 5972743500,
      "amenity": "fast_food",
      "cuisine": "sandwich",
      "takeaway": "yes",
      "value": 129.61440292472253
    },
    {
      "id": 240399,
      "geometry": "POINT (-83.010655 42.34506)",
      "poi_name": "Little Caesars",
      "osm_id": 5972917366,
      "amenity": "fast_food",
      "cuisine": "pizza",
      "website": "https://littlecaesars.com/en-us/store/7674/",
      "takeaway": "yes",
      "addr_state": "MI",
      "addr_city": "Detroit",
      "addr_postcode": "48207",
      "addr_street": "Mount Elliott Street",
      "addr_housenumber": "500",
      "value": 129.61440292472253
    }
  ],
  "answer_type": "name",
  "question_entities": {
    "[2]": {
      "distance": 60000,
      "text": "60 kilometers"
    },
    "[3]": {
      "main_category": "tourism",
      "sub_category": "aquarium",
      "display_name": "Sea Life Aquarium, Auburn Hills, MI",
      "geo_wkt": "POINT (-83.296505 42.70361)",
      "poi": {
        "id": 27034,
        "geometry": "POINT (-83.296505 42.70361)",
        "poi_name": "Sea Life Aquarium",
        "osm_id": 7653305135,
        "tourism": "aquarium",
        "wheelchair": "yes",
        "opening_hours": "Mo-Fr 10:00-18:00; Sa 10:00-19:00; Su 11:00-18:00",
        "website": "https://www.visitsealife.com/michigan/",
        "phone": "+1 248-409-6001",
        "toilets": "yes",
        "addr_state": "MI",
        "addr_city": "Auburn Hills",
        "addr_postcode": "48326",
        "addr_street": "Baldwin Road",
        "addr_housenumber": "4316"
      }
    },
    "[4]": {
      "main_category": "amenity",
      "sub_category": "hospital",
      "display_name": "Cosmetic Surgeons of Michigan, PC, St. Clair Shores, MI",
      "geo_wkt": "POINT (-82.900778 42.460402)",
      "poi": {
        "id": 222957,
        "geometry": "POINT (-82.900778 42.460402)",
        "poi_name": "Cosmetic Surgeons of Michigan, PC",
        "osm_id": 11042343299,
        "amenity": "hospital",
        "opening_hours": "Mo-Sa 09:00-17:00",
        "website": "https://www.cosmeticsurgeonsofmichigan.net/",
        "phone": "+1-586-773-6900",
        "healthcare": "hospital",
        "addr_state": "MI",
        "addr_city": "St. Clair Shores",
        "addr_postcode": "48080",
        "addr_street": "Greater Mack Avenue",
        "addr_housenumber": "22631"
      }
    },
    "[1]": {
      "main_category": "amenity",
      "sub_category": "fast_food"
    }
  },
  "id": 1656,
  "type": "range:towards+name"
}