{
  "question": "How far can I find a caf\u00e9 from Parent Gallery, Belfast, ME within 70 kilometers?",
  "sql": "SELECT *, ST_Distance(ST_GeomFromText('POINT (-69.006627 44.42596)',4326)::geography, pois.geometry) AS distance FROM pois\nWHERE ST_DWithin(pois.geometry, ST_GeomFromText('POINT (-69.006627 44.42596)',4326)::geography, 70000)\nAND amenity = 'cafe';\n",
  "answers": [
    {
      "id": 47243,
      "geometry": "POINT (-68.568971 44.26608)",
      "poi_name": "The Morning Moon Cafe",
      "osm_id": 3314799062,
      "amenity": "cafe",
      "cuisine": "regional",
      "internet_access": "yes",
      "addr_state": "ME",
      "addr_city": "Brooklin",
      "addr_postcode": "04616",
      "addr_street": "Bay Road",
      "addr_housenumber": "1 Bay Road",
      "distance": 39159.76439144
    },
    {
      "id": 48574,
      "geometry": "POINT (-68.705795 44.840566)",
      "poi_name": "STONE SPARROW CAFE",
      "osm_id": 3388511310,
      "amenity": "cafe",
      "distance": 51889.38775744
    },
    {
      "id": 55186,
      "geometry": "POINT (-68.203745 44.386156)",
      "poi_name": "Choco-Latte Cafe",
      "osm_id": 10176210517,
      "amenity": "cafe",
      "opening_hours": "Mo-Su 07:00-19:00",
      "outdoor_seating": "yes",
      "distance": 64107.81090435
    },
    {
      "id": 57129,
      "geometry": "POINT (-68.81689 44.808346)",
      "poi_name": "Highlands Cafe",
      "osm_id": 5326265498,
      "amenity": "cafe",
      "outdoor_seating": "no",
      "distance": 45082.02727043
    },
    {
      "id": 69438,
      "geometry": "POINT (-69.660806 44.561274)",
      "poi_name": "Mary Low Coffeehouse",
      "osm_id": 11304960280,
      "amenity": "cafe",
      "cuisine": "coffee_shop",
      "opening_hours": "Mo-Fr 08:00-17:00; Su 10:00-16:00",
      "distance": 54161.13498999
    },
    {
      "id": 75698,
      "geometry": "POINT (-68.742242 44.841829)",
      "poi_name": "Starbucks",
      "osm_id": 9740684842,
      "amenity": "cafe",
      "cuisine": "coffee_shop",
      "takeaway": "yes",
      "official_name": "Starbucks Coffee",
      "addr_state": "ME",
      "addr_city": "Bangor",
      "addr_postcode": "04401",
      "addr_street": "Longview Drive",
      "addr_housenumber": "60",
      "distance": 50751.80947242
    },
    {
      "id": 80328,
      "geometry": "POINT (-68.326233 44.280006)",
      "poi_name": "Little Notch Cafe & Bakery",
      "osm_id": 876504257,
      "amenity": "cafe",
      "cuisine": "pasta;salad;sandwich;pizza",
      "opening_hours": "Mo-Su 08:00-19:00",
      "website": "https://www.littlenotchcafe.com/",
      "capacity": "30",
      "shop": "bakery",
      "phone": "+1-207-244-3357",
      "takeaway": "yes",
      "outdoor_seating": "yes",
      "addr_state": "ME",
      "addr_city": "Southwest Harbor",
      "addr_postcode": "04679",
      "addr_street": "Main Street",
      "addr_housenumber": "340",
      "distance": 56619.52529004
    },
    {
      "id": 93753,
      "geometry": "POINT (-69.005493 44.426325)",
      "poi_name": "Belfast Co-op and Cafe",
      "osm_id": 2184603383,
      "amenity": "cafe",
      "cuisine": "sandwich;burger;salad",
      "wheelchair": "limited",
      "opening_hours": "Mo-Su 07:30-20:00",
      "website": "https://belfast.coop/",
      "shop": "supermarket",
      "internet_access": "wlan",
      "phone": "+1-207-338-2532",
      "toilets": "yes",
      "addr_state": "ME",
      "addr_city": "Belfast",
      "addr_street": "High Street",
      "addr_housenumber": "123",
      "distance": 99.00077092
    },
    {
      "id": 96863,
      "geometry": "POINT (-68.205312 44.386909)",
      "poi_name": "Cafe this way",
      "osm_id": 6448676987,
      "amenity": "cafe",
      "distance": 63977.14662189
    },
    {
      "id": 102426,
      "geometry": "POINT (-68.324828 44.280232)",
      "poi_name": "Sips 2.0",
      "osm_id": 6681510609,
      "amenity": "cafe",
      "opening_hours": "Mo-Fr 09:00-17:00; Sa 09:00-14:00",
      "takeaway": "only",
      "distance": 56719.64505941
    },
    {
      "id": 101272,
      "geometry": "POINT (-68.214218 44.388375)",
      "poi_name": "Take A Hike",
      "osm_id": 6618310045,
      "amenity": "cafe",
      "opening_hours": "Mo-Su 08:00-14:00",
      "website": "https://takeahikecafemaine.com/",
      "phone": "+1-207-801-9268",
      "takeaway": "yes",
      "addr_state": "ME",
      "addr_city": "Bar Harbor",
      "addr_postcode": "04609",
      "addr_street": "Cottage Street",
      "addr_housenumber": "140",
      "distance": 63257.61579745
    },
    {
      "id": 119272,
      "geometry": "POINT (-69.631953 44.554246)",
      "poi_name": "Jorgensens cafe and Deli",
      "osm_id": 9094637531,
      "amenity": "cafe",
      "distance": 51742.62714522
    },
    {
      "id": 109219,
      "geometry": "POINT (-69.827555 44.20741)",
      "poi_name": "Starbucks",
      "osm_id": 3654996980,
      "amenity": "cafe",
      "cuisine": "coffee_shop",
      "opening_hours": "Mo-Su 06:00-20:00",
      "takeaway": "yes",
      "distance": 69849.42009145
    },
    {
      "id": 116613,
      "geometry": "POINT (-69.773909 44.31621)",
      "poi_name": "Wrapped Up Coffee house",
      "osm_id": 8949756961,
      "amenity": "cafe",
      "cuisine": "coffee_shop",
      "addr_state": "ME",
      "addr_city": "Augusta",
      "addr_postcode": "04330",
      "addr_street": "Water Street",
      "addr_housenumber": "216",
      "distance": 62359.79591857
    },
    {
      "id": 228573,
      "geometry": "POINT (-68.845237 44.638191)",
      "poi_name": "Bantam Cafe",
      "osm_id": 4348866547,
      "amenity": "cafe",
      "cuisine": "cafe",
      "opening_hours": "Mo 06:00-14:00, We-Sa 06:00-14:00, Su 08:00-14:00",
      "phone": "+1-207-223-8118",
      "addr_state": "ME",
      "addr_city": "Winterport",
      "addr_postcode": "04496",
      "addr_street": "Main Street",
      "addr_housenumber": "111",
      "distance": 26846.8274416
    },
    {
      "id": 123308,
      "geometry": "POINT (-68.270611 44.257729)",
      "poi_name": "Seawich Cafe",
      "osm_id": 6847991885,
      "amenity": "cafe",
      "phone": "+1-207-244-5336",
      "distance": 61597.80689382
    },
    {
      "id": 150815,
      "geometry": "POINT (-68.811218 44.790656)",
      "poi_name": "Tim Hortons",
      "osm_id": 4069784637,
      "amenity": "cafe",
      "cuisine": "coffee_shop",
      "takeaway": "yes",
      "distance": 43393.75243515
    },
    {
      "id": 155686,
      "geometry": "POINT (-69.066234 44.210228)",
      "poi_name": "Bagel Cafe",
      "osm_id": 4296804314,
      "amenity": "cafe",
      "cuisine": "bagel",
      "opening_hours": "Mo-Sa 06:30-14:00; Su 07:00-14:00",
      "website": "http://www.bagelcafemaine.com/",
      "takeaway": "yes",
      "addr_state": "ME",
      "addr_city": "Camden",
      "addr_postcode": "04843",
      "addr_street": "Mechanic Street",
      "addr_housenumber": "25",
      "distance": 24438.86032775
    },
    {
      "id": 154841,
      "geometry": "POINT (-69.065062 44.210564)",
      "poi_name": "Boynton McKay",
      "osm_id": 4258675890,
      "amenity": "cafe",
      "distance": 24384.22590835
    },
    {
      "id": 154851,
      "geometry": "POINT (-69.109258 44.102609)",
      "poi_name": "Rock City Cafe",
      "osm_id": 4259333089,
      "amenity": "cafe",
      "cuisine": "coffee_shop;sandwich;pastry",
      "opening_hours": "Su-We 09:00-19:00; Th 09:00-20:00; Fr,Sa 09:00-21:00",
      "website": "https://www.masiello.com/rockland-me",
      "phone": "+1 207 594 4123",
      "addr_state": "ME",
      "addr_city": "Rockland",
      "addr_postcode": "04841",
      "addr_street": "Main Street",
      "addr_housenumber": "316",
      "distance": 36852.63848667
    },
    {
      "id": 162111,
      "geometry": "POINT (-68.327332 44.280438)",
      "poi_name": "Village Green Coffee House",
      "osm_id": 4915885592,
      "amenity": "cafe",
      "phone": "+1-207-244-8040",
      "addr_city": "Southwest Harbor",
      "addr_street": "Village Green Way",
      "addr_housenumber": "128",
      "distance": 56521.65176563
    },
    {
      "id": 206222,
      "geometry": "POINT (-69.654789 44.541325)",
      "poi_name": "Aroma Joe's",
      "osm_id": 7201671076,
      "amenity": "cafe",
      "cuisine": "coffee_shop",
      "opening_hours": "Mo-Su 05:00-22:00",
      "website": "https://aromajoes.com/",
      "phone": "+12076604218",
      "takeaway": "yes",
      "drive_through": "yes",
      "addr_state": "ME",
      "addr_city": "Waterville",
      "addr_postcode": "04901",
      "addr_street": "Kennedy Memorial Drive",
      "addr_housenumber": "84",
      "distance": 53132.03731638
    },
    {
      "id": 206223,
      "geometry": "POINT (-69.642316 44.570646)",
      "poi_name": "Starbucks",
      "osm_id": 7201672095,
      "amenity": "cafe",
      "cuisine": "coffee_shop",
      "opening_hours": "Mo-Sa 05:00-20:00; Su 06:00-20:00",
      "website": "https://www.starbucks.com/store-locator/store/8367/waterville-maine-2-waterville-commons-drive-the-small-shops-at-wate",
      "internet_access": "wlan",
      "phone": "+1-207-861-5430",
      "takeaway": "yes",
      "drive_through": "yes",
      "official_name": "Starbucks Coffee",
      "addr_state": "ME",
      "addr_city": "Waterville",
      "addr_postcode": "04901",
      "addr_street": "Waterville Commons Drive",
      "addr_housenumber": "2",
      "distance": 53052.26132362
    },
    {
      "id": 206886,
      "geometry": "POINT (-68.408969 44.531955)",
      "poi_name": "Aroma Joe's",
      "osm_id": 7231557847,
      "amenity": "cafe",
      "cuisine": "coffee_shop",
      "takeaway": "yes",
      "addr_state": "ME",
      "addr_city": "Ellsworth",
      "addr_postcode": "04605",
      "addr_street": "High Street",
      "addr_housenumber": "233",
      "distance": 48985.55875201
    },
    {
      "id": 228879,
      "geometry": "POINT (-68.205637 44.389761)",
      "poi_name": "Cup dinner",
      "osm_id": 4358882138,
      "amenity": "cafe",
      "distance": 63929.06258415
    },
    {
      "id": 228882,
      "geometry": "POINT (-68.205888 44.389713)",
      "poi_name": "Trailhead cafe",
      "osm_id": 4358917920,
      "amenity": "cafe",
      "distance": 63909.45818308
    },
    {
      "id": 236198,
      "geometry": "POINT (-68.324644 44.280005)",
      "poi_name": "Common Good Soup Kitchen and Cafe",
      "osm_id": 5784584525,
      "amenity": "cafe",
      "description": "Food provider for people in need. They serve delicious popovers (pastries) and other breakfast food to public between 7:30 and 11:30 for donations they use to fund their operation.",
      "opening_hours": "Tu-Su 07:30-11:30",
      "distance": 56740.97910307
    },
    {
      "id": 235202,
      "geometry": "POINT (-68.268769 44.252096)",
      "poi_name": "Hitty's Cafe",
      "osm_id": 5747886727,
      "amenity": "cafe",
      "cuisine": "seafood;sandwich",
      "website": "https://www.cranberryisles.com/cranberry-house/hitty's-cafe.html",
      "internet_access": "wlan",
      "phone": "+1-207-244-7845",
      "outdoor_seating": "yes",
      "distance": 61932.82917544
    }
  ],
  "answer_type": "distance",
  "question_entities": {
    "[1]": {
      "main_category": "amenity",
      "sub_category": "cafe"
    },
    "[2]": {
      "distance": 70000,
      "text": "70 kilometers"
    },
    "[3]": {
      "main_category": "tourism",
      "sub_category": "gallery",
      "display_name": "Parent Gallery, Belfast, ME",
      "geo_wkt": "POINT (-69.006627 44.42596)",
      "poi": {
        "id": 4070,
        "geometry": "POINT (-69.006627 44.42596)",
        "poi_name": "Parent Gallery",
        "osm_id": 5664763128,
        "tourism": "gallery",
        "website": "https://nealparent.com/",
        "phone": "+1-207-338-1553",
        "addr_state": "ME",
        "addr_city": "Belfast",
        "addr_postcode": "04915",
        "addr_street": "Main Street",
        "addr_housenumber": "92"
      }
    }
  },
  "id": 723,
  "type": "range+distance"
}