{
  "question": "Where can I find a restaurant in the northeast direction of Bittersweet Falls, Weybridge, VT, within a radius of 70 kilometers?",
  "sql": "\nWITH origin AS  (SELECT ST_GeomFromText('POINT (-73.217661 44.029954)',4326)::geography AS geometry)\nSELECT * FROM pois, origin\nWHERE ST_DWithin(pois.geometry, ST_GeomFromText('POINT (-73.217661 44.029954)',4326)::geography, 70000)\nAND amenity = 'restaurant'\nAND degrees(ST_Azimuth(origin.geometry, pois.geometry)) BETWEEN 22.5 AND 67.5;\n",
  "answers": [
    {
      "id": 34235,
      "geometry": "POINT (-73.217661 44.029954)",
      "poi_name": "Royal Orchid Thai Restaurant",
      "osm_id": 2698405098,
      "amenity": "restaurant",
      "cuisine": "thai",
      "addr_city": "Montpelier",
      "addr_postcode": "05602",
      "addr_street": "Elm Street",
      "addr_housenumber": "38"
    },
    {
      "id": 34130,
      "geometry": "POINT (-73.217661 44.029954)",
      "poi_name": "Pho Capital",
      "osm_id": 2696372894,
      "amenity": "restaurant",
      "cuisine": "vietnamese;thai",
      "addr_city": "Montpelier",
      "addr_postcode": "05602",
      "addr_street": "State Street",
      "addr_housenumber": "107"
    },
    {
      "id": 34172,
      "geometry": "POINT (-73.217661 44.029954)",
      "poi_name": "J. Morgan's Steakhouse",
      "osm_id": 2697097512,
      "amenity": "restaurant",
      "cuisine": "steak",
      "addr_state": "VT",
      "addr_city": "Montpelier",
      "addr_postcode": "05602",
      "addr_street": "State Street",
      "addr_housenumber": "100"
    },
    {
      "id": 34173,
      "geometry": "POINT (-73.217661 44.029954)",
      "poi_name": "Oakes & Evelyn",
      "osm_id": 2697097532,
      "amenity": "restaurant",
      "cuisine": "american",
      "website": "https://www.oakesandevelyn.com/",
      "phone": "1 802 347 9100",
      "addr_state": "VT",
      "addr_city": "Montpelier",
      "addr_postcode": "05602",
      "addr_street": "State Street",
      "addr_housenumber": "52"
    },
    {
      "id": 34174,
      "geometry": "POINT (-73.217661 44.029954)",
      "poi_name": "Julio's",
      "osm_id": 2697097534,
      "amenity": "restaurant",
      "addr_city": "Montpelier",
      "addr_postcode": "05602",
      "addr_street": "State Street",
      "addr_housenumber": "54"
    },
    {
      "id": 34236,
      "geometry": "POINT (-73.217661 44.029954)",
      "poi_name": "Hippie Chickpea",
      "osm_id": 2698405130,
      "amenity": "restaurant",
      "cuisine": "mediterranean;falafel",
      "website": "https://www.thehippiechickpea.com/",
      "phone": "+1 802-613-3543",
      "addr_state": "VT",
      "addr_city": "Montpelier",
      "addr_postcode": "05602",
      "addr_street": "Elm Street",
      "addr_housenumber": "41"
    },
    {
      "id": 38929,
      "geometry": "POINT (-73.217661 44.029954)",
      "poi_name": "Mad Taco",
      "osm_id": 2892577162,
      "amenity": "restaurant",
      "cuisine": "mexican",
      "addr_city": "Waitsfield",
      "addr_street": "Village Square",
      "addr_housenumber": "2"
    },
    {
      "id": 88641,
      "geometry": "POINT (-73.217661 44.029954)",
      "poi_name": "The Big Spruce",
      "osm_id": 8789550099,
      "amenity": "restaurant",
      "cuisine": "mexican",
      "opening_hours": "Tu-Sa 16:00-21:00",
      "website": "https://www.thebigspruce.com/",
      "phone": "+1 802-434-4111",
      "addr_state": "VT",
      "addr_city": "Richmond",
      "addr_postcode": "05477",
      "addr_street": "Bridge Street",
      "addr_housenumber": "39"
    },
    {
      "id": 94435,
      "geometry": "POINT (-73.217661 44.029954)",
      "poi_name": "Skinny Pancake",
      "osm_id": 2245125295,
      "amenity": "restaurant",
      "cuisine": "crepe",
      "website": "https://skinnypancake.com/",
      "phone": "+1-802-262-2253",
      "addr_city": "Montpelier",
      "addr_street": "Main Street",
      "addr_housenumber": "89"
    },
    {
      "id": 110163,
      "geometry": "POINT (-73.217661 44.029954)",
      "poi_name": "Cubbers Restaurant",
      "osm_id": 3688766709,
      "amenity": "restaurant",
      "cuisine": "pizza",
      "description": "Located in downtown Bristol, Cubbers has a warm family atmosphere and serves fantastic pizza, sandwiches, quiche, and salads. A popular, friendly, comfortably place.",
      "opening_hours": "Tu-Th 04:00-20:00, Fr-Sa 11:00-20:00",
      "website": "http://www.cubberspizza.com",
      "phone": "+18024532400",
      "addr_state": "VT",
      "addr_city": "Bristol",
      "addr_postcode": "05443",
      "addr_street": "Main Street",
      "addr_housenumber": "8"
    },
    {
      "id": 94950,
      "geometry": "POINT (-73.217661 44.029954)",
      "poi_name": "Tandem",
      "osm_id": 6381948007,
      "amenity": "restaurant",
      "addr_state": "VT",
      "addr_city": "Bristol",
      "addr_postcode": "05443",
      "addr_street": "Main Street",
      "addr_housenumber": "26"
    },
    {
      "id": 94951,
      "geometry": "POINT (-73.217661 44.029954)",
      "poi_name": "Snap's Restaurant",
      "osm_id": 6381948008,
      "amenity": "restaurant",
      "description": "Breakfast, lunch and dinner daily with Sunday brunch from 7am-3pm.  Cocktails available, and the food is delicious!",
      "addr_state": "VT",
      "addr_city": "Bristol",
      "addr_postcode": "05443",
      "addr_street": "Main Street",
      "addr_housenumber": "24"
    },
    {
      "id": 120172,
      "geometry": "POINT (-73.217661 44.029954)",
      "poi_name": "Wokky's",
      "osm_id": 9143546019,
      "amenity": "restaurant",
      "cuisine": "chinese",
      "opening_hours": "Mo-Th 10:00-21:00, Fr-Su 11:00-21:00",
      "website": "http://wokkybristol.com/",
      "phone": "+1-802-4534-888",
      "addr_state": "VT",
      "addr_city": "Bristol",
      "addr_postcode": "05443",
      "addr_street": "Main Street",
      "addr_housenumber": "17"
    },
    {
      "id": 138963,
      "geometry": "POINT (-73.217661 44.029954)",
      "poi_name": "Doc Ponds Restaurant & Bar",
      "osm_id": 6176977618,
      "amenity": "restaurant",
      "website": "https://www.docponds.com/",
      "addr_state": "VT",
      "addr_city": "Stowe",
      "addr_postcode": "05672",
      "addr_street": "Mountain Road",
      "addr_housenumber": "294"
    },
    {
      "id": 135920,
      "geometry": "POINT (-73.217661 44.029954)",
      "poi_name": "Pho Thai Express",
      "osm_id": 11547191269,
      "amenity": "restaurant",
      "cuisine": "thai",
      "website": "https://www.phothaiexpress.com/",
      "phone": "+1 802-225-6010",
      "addr_state": "VT",
      "addr_city": "Montpelier",
      "addr_postcode": "05602",
      "addr_street": "Main Street",
      "addr_housenumber": "54"
    },
    {
      "id": 175944,
      "geometry": "POINT (-73.217661 44.029954)",
      "poi_name": "Dairy Creme",
      "osm_id": 2548094268,
      "amenity": "restaurant",
      "cuisine": "ice_cream",
      "addr_city": "Montpelier",
      "addr_postcode": "05602",
      "addr_street": "State Street",
      "addr_housenumber": "320"
    },
    {
      "id": 178276,
      "geometry": "POINT (-73.217661 44.029954)",
      "poi_name": "Piecasso",
      "osm_id": 10719309038,
      "amenity": "restaurant",
      "cuisine": "pizza;pasta;sandwich",
      "opening_hours": "Su-Th 11:00-21:00; Fr-Sa 11:00-22:00",
      "website": "https://www.piecasso.com/index.php",
      "phone": "+1-802-253-4411",
      "delivery": "yes",
      "addr_state": "VT",
      "addr_city": "Stowe",
      "addr_postcode": "05672",
      "addr_street": "Mountain Road",
      "addr_housenumber": "1899"
    },
    {
      "id": 184480,
      "geometry": "POINT (-73.217661 44.029954)",
      "poi_name": "Fit to be Thai'd",
      "osm_id": 7794905332,
      "amenity": "restaurant",
      "cuisine": "thai",
      "opening_hours": "Mo-Su 15:00-20:30",
      "website": "http://fit2bethaied.com/",
      "phone": "+18024963008",
      "addr_state": "VT",
      "addr_city": "Warren",
      "addr_postcode": "05674",
      "addr_street": "Sugarbush Access Road",
      "addr_housenumber": "1838"
    },
    {
      "id": 206368,
      "geometry": "POINT (-73.217661 44.029954)",
      "poi_name": "Mary's Restaurant",
      "osm_id": 7206932354,
      "amenity": "restaurant",
      "cuisine": "american",
      "opening_hours": "Fr-Su 17:30-20:30",
      "website": "http://www.baldwincreek.net/marys",
      "phone": "+1 802 453 2432",
      "addr_state": "VT",
      "addr_city": "Bristol",
      "addr_postcode": "05443",
      "addr_street": "North 116 Road",
      "addr_housenumber": "1868"
    },
    {
      "id": 244703,
      "geometry": "POINT (-73.217661 44.029954)",
      "poi_name": "Mad Taco",
      "osm_id": 7737450280,
      "amenity": "restaurant",
      "cuisine": "mexican",
      "opening_hours": "Mo-Su 11:00-21:00",
      "website": "https://www.themadtaco.com/montpelier/",
      "phone": "+18022256038",
      "addr_state": "VT",
      "addr_city": "Montpelier",
      "addr_postcode": "05602",
      "addr_street": "Main Street",
      "addr_housenumber": "72"
    },
    {
      "id": 244704,
      "geometry": "POINT (-73.217661 44.029954)",
      "poi_name": "Kathamandu - Indian Nepali Restaurant",
      "osm_id": 7737454257,
      "amenity": "restaurant",
      "cuisine": "indian",
      "addr_state": "VT",
      "addr_city": "Montpelier",
      "addr_postcode": "05602",
      "addr_street": "Main Street",
      "addr_housenumber": "104"
    },
    {
      "id": 244706,
      "geometry": "POINT (-73.217661 44.029954)",
      "poi_name": "Positive Pie Inc.",
      "osm_id": 7737502131,
      "amenity": "restaurant",
      "cuisine": "pizza",
      "opening_hours": "Mo-Su 11:00-21:00",
      "website": "https://www.positivepie.com/montpelier/about.php",
      "phone": "+18022290453",
      "addr_state": "VT",
      "addr_city": "Montpelier",
      "addr_postcode": "05602",
      "addr_street": "State Street",
      "addr_housenumber": "22"
    },
    {
      "id": 230252,
      "geometry": "POINT (-73.217661 44.029954)",
      "poi_name": "Hen of the Wood",
      "osm_id": 4418929891,
      "amenity": "restaurant",
      "opening_hours": "Mo,We-Sa 16:30-23:00",
      "website": "https://www.henofthewood.com/waterbury",
      "phone": "+1 802-244-7300",
      "addr_state": "VT",
      "addr_city": "Waterbury",
      "addr_postcode": "05676",
      "addr_street": "South Main Street",
      "addr_housenumber": "14"
    },
    {
      "id": 232787,
      "geometry": "POINT (-73.217661 44.029954)",
      "poi_name": "Harrison's Restaurant & Bar",
      "osm_id": 4543010102,
      "amenity": "restaurant",
      "cuisine": "american",
      "website": "https://harrisonsstowe.com/",
      "phone": "+1-802-253-7773",
      "addr_state": "VT",
      "addr_city": "Stowe",
      "addr_postcode": "05672",
      "addr_street": "Main Street",
      "addr_housenumber": "25"
    },
    {
      "id": 239017,
      "geometry": "POINT (-73.217661 44.029954)",
      "poi_name": "Maxi's Restaurant",
      "osm_id": 5901669158,
      "amenity": "restaurant",
      "addr_city": "Waterbury",
      "addr_street": "North Main Street",
      "addr_housenumber": "47"
    }
  ],
  "answer_type": "loc",
  "question_entities": {
    "[1]": {
      "main_category": "amenity",
      "sub_category": "restaurant"
    },
    "[2]": {
      "distance": 70000,
      "text": "70 kilometers"
    },
    "[3]": {
      "main_category": "tourism",
      "sub_category": "viewpoint",
      "display_name": "Bittersweet Falls, Weybridge, VT",
      "geo_wkt": "POINT (-73.217661 44.029954)",
      "poi": {
        "id": 25384,
        "geometry": "POINT (-73.217661 44.029954)",
        "poi_name": "Bittersweet Falls",
        "osm_id": 4475236640,
        "tourism": "viewpoint",
        "addr_state": "VT",
        "addr_city": "Weybridge",
        "addr_postcode": "05753",
        "addr_street": "Bittersweet Falls Road",
        "addr_housenumber": "617"
      }
    },
    "[4]": {
      "direction_desc": "northeast",
      "direction_predicate": "degrees(ST_Azimuth(origin.geometry, pois.geometry)) BETWEEN 22.5 AND 67.5"
    }
  },
  "id": 38,
  "type": "range:direction+loc"
}