{
  "question": "Could you assist me in locating a takeout restaurant within a 40 kilometers radius originating from Lighthouse Denver, Denver, CO?",
  "sql": "SELECT * FROM pois\nWHERE ST_DWithin(pois.geometry, ST_GeomFromText('POINT (-104.992657 39.771454)',4326)::geography, 40000)\nAND amenity = 'restaurant'\nAND takeaway ILIKE '%yes%';\n",
  "answers": [
    {
      "id": 29247,
      "geometry": "POINT (-105.32983 39.634165)",
      "poi_name": "Coal Mine Dragon",
      "osm_id": 8290538896,
      "amenity": "restaurant",
      "cuisine": "chinese",
      "opening_hours": "Mo-Sa 11:00-21:00",
      "takeaway": "yes",
      "addr_state": "CO",
      "addr_city": "Evergreen",
      "addr_postcode": "80439",
      "addr_street": "Upper Bear Creek Road",
      "addr_housenumber": "29017"
    },
    {
      "id": 32256,
      "geometry": "POINT (-104.978366 39.880701)",
      "poi_name": "$1.26/scoop",
      "osm_id": 2623060074,
      "amenity": "restaurant",
      "cuisine": "chinese",
      "takeaway": "yes",
      "outdoor_seating": "no",
      "addr_state": "CO",
      "addr_city": "Thornton",
      "addr_postcode": "80229",
      "addr_street": "Washington Street",
      "addr_housenumber": "10185"
    },
    {
      "id": 34258,
      "geometry": "POINT (-104.958835 39.679729)",
      "poi_name": "Gyroz",
      "osm_id": 2698612307,
      "amenity": "restaurant",
      "cuisine": "greek",
      "phone": "+1-720-749-2683",
      "takeaway": "yes",
      "addr_state": "CO",
      "addr_city": "Denver",
      "addr_postcode": "80210",
      "addr_street": "South University Boulevard",
      "addr_housenumber": "2008"
    },
    {
      "id": 36196,
      "geometry": "POINT (-104.862182 39.668531)",
      "poi_name": "Golden Saigon",
      "osm_id": 2753160845,
      "amenity": "restaurant",
      "cuisine": "vietnamese;chinese",
      "opening_hours": "Mo,We,Fr,Sa 11:00-21:00; Su 12:00-20:00; Tu,Th off",
      "website": "https://goldensaigon.com/",
      "phone": "+1-303-671-7100",
      "takeaway": "yes",
      "delivery": "no",
      "addr_state": "CO",
      "addr_city": "Aurora",
      "addr_postcode": "80014",
      "addr_street": "South Parker Road",
      "addr_housenumber": "2648"
    },
    {
      "id": 37838,
      "geometry": "POINT (-104.978336 39.725344)",
      "poi_name": "Brothers BBQ",
      "osm_id": 2833246779,
      "amenity": "restaurant",
      "cuisine": "barbecue",
      "wheelchair": "yes",
      "opening_hours": "Mo-Su 10:00-22:00",
      "website": "https://brothers-bbq.com/bbq-near-me/denver-capitol-hill/",
      "phone": "+1-720-570-4227",
      "takeaway": "yes",
      "outdoor_seating": "yes",
      "addr_state": "CO",
      "addr_city": "Denver",
      "addr_postcode": "80203",
      "addr_street": "Washington Street",
      "addr_housenumber": "568"
    },
    {
      "id": 37840,
      "geometry": "POINT (-104.979128 39.725491)",
      "poi_name": "Angelo's Taverna",
      "osm_id": 2833269080,
      "amenity": "restaurant",
      "cuisine": "seafood;pizza;oyster",
      "wheelchair": "yes",
      "opening_hours": "Mo-We, Su 11:00-22:00; Th-Sa 11:00-00:00",
      "website": "https://angelostaverna.com/denver/",
      "phone": "+1-303-744-3366",
      "takeaway": "yes",
      "outdoor_seating": "yes",
      "addr_state": "CO",
      "addr_city": "Denver",
      "addr_postcode": "80203",
      "addr_street": "East 6th Avenue",
      "addr_housenumber": "620"
    },
    {
      "id": 41631,
      "geometry": "POINT (-104.993711 39.745534)",
      "poi_name": "Mici Handcrafted Italian",
      "osm_id": 3023140378,
      "amenity": "restaurant",
      "cuisine": "italian",
      "wheelchair": "yes",
      "opening_hours": "Mo-Th 11:00-21:00; Fr-Sa 11:00-22:00; Su 12:00-21:00",
      "capacity": "30",
      "phone": "+1-303-629-6424",
      "takeaway": "yes",
      "delivery": "yes",
      "addr_state": "CO",
      "addr_city": "Denver",
      "addr_postcode": "80202",
      "addr_street": "Stout Street",
      "addr_housenumber": "1531"
    },
    {
      "id": 41636,
      "geometry": "POINT (-104.994197 39.746527)",
      "poi_name": "Modern Market Eatery",
      "osm_id": 3023140385,
      "amenity": "restaurant",
      "cuisine": "american",
      "wheelchair": "yes",
      "opening_hours": "07:00-20:00",
      "website": "https://www.modernmarket.com/locationDetails/42704",
      "phone": "+1-303-534-0190",
      "takeaway": "yes",
      "delivery": "yes",
      "addr_state": "CO",
      "addr_city": "Denver",
      "addr_postcode": "80202",
      "addr_street": "16th Street Mall",
      "addr_housenumber": "900"
    },
    {
      "id": 43487,
      "geometry": "POINT (-105.011267 39.758167)",
      "poi_name": "Ohana Island Kitchen",
      "osm_id": 3115233991,
      "amenity": "restaurant",
      "cuisine": "regional",
      "opening_hours": "Tu-Sa 10:30-14:30",
      "takeaway": "yes",
      "addr_state": "CO",
      "addr_city": "Denver",
      "addr_postcode": "80211",
      "addr_street": "15th Street",
      "addr_housenumber": "2563"
    },
    {
      "id": 43612,
      "geometry": "POINT (-104.986833 39.757593)",
      "poi_name": "Los Chingones",
      "osm_id": 3122633585,
      "amenity": "restaurant",
      "cuisine": "mexican",
      "opening_hours": "Mo-Th 11:30-22:00; Fr, Sa 11:30-23:00; Su 11:30-21:00",
      "website": "https://www.loschingonesmexican.com/",
      "phone": "+1-303-295-0686",
      "takeaway": "yes",
      "outdoor_seating": "sidewalk",
      "toilets": "yes",
      "addr_state": "CO",
      "addr_city": "Denver",
      "addr_postcode": "80205",
      "addr_street": "Larimer Street",
      "addr_housenumber": "2463"
    },
    {
      "id": 45587,
      "geometry": "POINT (-104.999968 39.750958)",
      "poi_name": "Illegal Pete's",
      "osm_id": 3218329786,
      "amenity": "restaurant",
      "cuisine": "mexican;burrito;tacos",
      "wheelchair": "yes",
      "opening_hours": "Mo-We 07:00-00:00; Th, Fr 07:00-02:30; Sa 09:00-02:30; Su 09:00-00:00",
      "website": "https://www.illegalpetes.com/",
      "phone": "+1-303-623-2169",
      "takeaway": "yes",
      "outdoor_seating": "yes",
      "toilets": "yes",
      "addr_state": "CO",
      "addr_city": "Denver",
      "addr_postcode": "80202",
      "addr_street": "16th Street Mall",
      "addr_housenumber": "1530"
    },
    {
      "id": 45712,
      "geometry": "POINT (-105.000051 39.751013)",
      "poi_name": "The Kitchen Denver",
      "osm_id": 3225345961,
      "amenity": "restaurant",
      "cuisine": "american",
      "wheelchair": "yes",
      "opening_hours": "Mo, Tu 11:00-21:30; We-Fr 11:00-22:30; Sa 10:00-22:30; Su 10:00-21:30",
      "website": "https://www.thekitchenbistros.com/location/the-kitchen-denver/",
      "phone": "+1-303-623-3127",
      "takeaway": "yes",
      "outdoor_seating": "yes",
      "toilets": "yes",
      "addr_state": "CO",
      "addr_city": "Denver",
      "addr_postcode": "80202",
      "addr_street": "Wazee Street",
      "addr_housenumber": "1560"
    },
    {
      "id": 46467,
      "geometry": "POINT (-104.987239 39.693167)",
      "poi_name": "Maria Empanada",
      "osm_id": 3267208812,
      "amenity": "restaurant",
      "cuisine": "argentinian;empanada",
      "wheelchair": "yes",
      "opening_hours": "Mo-Sa 07:30-20:30; Su 09:00-17:00",
      "website": "https://mariaempanada.com/",
      "phone": "+1-303-934-2221",
      "takeaway": "yes",
      "outdoor_seating": "yes",
      "addr_city": "Denver",
      "addr_postcode": "80210",
      "addr_street": "South Broadway",
      "addr_housenumber": "1298"
    },
    {
      "id": 48130,
      "geometry": "POINT (-104.994081 39.740232)",
      "poi_name": "Bar Red",
      "osm_id": 3367142698,
      "amenity": "restaurant",
      "cuisine": "italian",
      "wheelchair": "yes",
      "opening_hours": "Mo-Fr 16:00-02:00; Sa 17:00-02:00",
      "website": "http://barreddenver.com/",
      "phone": "+1-303-573-0223",
      "takeaway": "yes",
      "addr_state": "CO",
      "addr_city": "Denver",
      "addr_postcode": "80204",
      "addr_street": "West Colfax Avenue",
      "addr_housenumber": "437"
    },
    {
      "id": 48667,
      "geometry": "POINT (-105.072668 39.914664)",
      "poi_name": "Oscar's Kabob and Gyros",
      "osm_id": 3394582029,
      "amenity": "restaurant",
      "cuisine": "mediterranean",
      "website": "http://www.oscarskabobgyros.com/",
      "phone": "+1-303-404-3434",
      "takeaway": "yes",
      "addr_state": "CO",
      "addr_city": "Broomfield",
      "addr_postcode": "80020",
      "addr_street": "West 120th Avenue",
      "addr_housenumber": "6831"
    },
    {
      "id": 48826,
      "geometry": "POINT (-104.986356 39.731878)",
      "poi_name": "100% de Agave",
      "osm_id": 3401579126,
      "amenity": "restaurant",
      "cuisine": "mexican",
      "wheelchair": "yes",
      "opening_hours": "Fr, Sa 11:00-23:00; Mo-We, Su 11:00-21:00; Th 11:00-22:00",
      "website": "https://100deagave.com/",
      "phone": "+1-303-731-1100",
      "takeaway": "yes",
      "outdoor_seating": "yes",
      "toilets": "yes",
      "addr_state": "CO",
      "addr_city": "Denver",
      "addr_postcode": "80203",
      "addr_street": "Lincoln Street",
      "addr_housenumber": "975"
    },
    {
      "id": 48890,
      "geometry": "POINT (-104.982885 39.739868)",
      "poi_name": "Sassafras American Eatery",
      "osm_id": 3406591936,
      "amenity": "restaurant",
      "cuisine": "southern;american;cocktails;coffee;brunch",
      "takeaway": "yes",
      "outdoor_seating": "no",
      "addr_state": "CO",
      "addr_city": "Denver",
      "addr_postcode": "80203",
      "addr_street": "East Colfax Avenue",
      "addr_housenumber": "320"
    },
    {
      "id": 48936,
      "geometry": "POINT (-104.985963 39.731826)",
      "poi_name": "Pizza and Grill",
      "osm_id": 3408325597,
      "amenity": "restaurant",
      "cuisine": "mexican;italian;indian;pizza",
      "opening_hours": "Mo-Su 10:30-21:45",
      "website": "http://pizzadeliveryindenver.com/",
      "phone": "+1-303-837-1111",
      "takeaway": "yes",
      "delivery": "yes",
      "addr_state": "CO",
      "addr_city": "Denver",
      "addr_postcode": "80203",
      "addr_street": "Lincoln Street",
      "addr_housenumber": "990"
    },
    {
      "id": 49007,
      "geometry": "POINT (-105.128928 39.728559)",
      "poi_name": "Nick's Cafe",
      "osm_id": 3412178182,
      "amenity": "restaurant",
      "cuisine": "breakfast;lunch;burger;sandwich;greek;cafe;american",
      "description": "Cozy landmark diner serving American & Greek comfort fare amid Elvis photos & memorabilia. Cash only.",
      "opening_hours": "Mo-Su 05:00-14:00",
      "website": "https://www.facebook.com/NicksElvisCafe/",
      "phone": "+1-303-238-9670",
      "takeaway": "yes",
      "addr_state": "CO",
      "addr_city": "Golden",
      "addr_postcode": "80401",
      "addr_street": "Simms Street",
      "addr_housenumber": "777 1/2"
    },
    {
      "id": 49140,
      "geometry": "POINT (-104.980846 39.736972)",
      "poi_name": "SubCulture",
      "osm_id": 3417117652,
      "amenity": "restaurant",
      "cuisine": "sandwich",
      "opening_hours": "Mo-Fr 07:00-20:00; Sa, Su 11:00-20:00",
      "website": "https://thisissubculture.com/",
      "capacity": "49",
      "phone": "+1-303-420-3232",
      "takeaway": "yes",
      "outdoor_seating": "patio",
      "delivery": "yes",
      "toilets": "yes",
      "addr_state": "CO",
      "addr_city": "Denver",
      "addr_postcode": "80203",
      "addr_street": "Pennsylvania Street",
      "addr_housenumber": "1300"
    },
    {
      "id": 50036,
      "geometry": "POINT (-104.978591 39.725736)",
      "poi_name": "Fontana Sushi",
      "osm_id": 3462751858,
      "amenity": "restaurant",
      "cuisine": "sushi;japanese",
      "wheelchair": "yes",
      "opening_hours": "Mo-Th 11:00-22:00; Fr 11:00-22:30; Sa 12:00-22:30; Su 12:00-21:30",
      "website": "https://fontanacuisine.com/",
      "phone": "+1-303-861-2555",
      "takeaway": "yes",
      "addr_state": "CO",
      "addr_city": "Denver",
      "addr_postcode": "80203",
      "addr_street": "East 6th Avenue",
      "addr_housenumber": "701"
    },
    {
      "id": 50687,
      "geometry": "POINT (-104.99849 39.731198)",
      "poi_name": "Swift's Breakfast House",
      "osm_id": 3499449358,
      "amenity": "restaurant",
      "cuisine": "breakfast",
      "wheelchair": "yes",
      "opening_hours": "Mo-Su 07:00-15:00",
      "phone": "+1-303-623-9743",
      "takeaway": "yes",
      "addr_state": "CO",
      "addr_city": "Denver",
      "addr_postcode": "80204",
      "addr_street": "Santa Fe Drive",
      "addr_housenumber": "930"
    },
    {
      "id": 57117,
      "geometry": "POINT (-104.989161 39.744492)",
      "poi_name": "Backcountry Delicatessen",
      "osm_id": 5325323609,
      "amenity": "restaurant",
      "cuisine": "sandwich",
      "wheelchair": "yes",
      "opening_hours": "Mo-Fr 06:30-15:00; Sa 08:00-15:00",
      "website": "https://backcountry-deli.com/",
      "phone": "+1-303-534-2100",
      "takeaway": "yes",
      "delivery": "yes",
      "addr_state": "CO",
      "addr_city": "Denver",
      "addr_postcode": "80202",
      "addr_street": "17th Street",
      "addr_housenumber": "444"
    },
    {
      "id": 58695,
      "geometry": "POINT (-104.96043 39.608386)",
      "poi_name": "Ralphie's Pizza",
      "osm_id": 5394414808,
      "amenity": "restaurant",
      "cuisine": "pizza",
      "website": "https://www.ralphiespizzamenu.com/",
      "phone": "+1-303-953-6723",
      "takeaway": "yes",
      "drive_through": "no",
      "delivery": "yes",
      "addr_state": "CO",
      "addr_city": "Greenwood Village",
      "addr_postcode": "80121",
      "addr_street": "South University Boulevard",
      "addr_housenumber": "5999"
    },
    {
      "id": 59420,
      "geometry": "POINT (-104.877566 39.752945)",
      "poi_name": "Misaki",
      "osm_id": 5423981993,
      "amenity": "restaurant",
      "cuisine": "sushi;japanese",
      "phone": "+1-720-400-1212",
      "takeaway": "yes",
      "delivery": "no",
      "addr_state": "CO",
      "addr_city": "Aurora",
      "addr_postcode": "80010",
      "addr_street": "Dallas Street",
      "addr_housenumber": "2501"
    },
    {
      "id": 59962,
      "geometry": "POINT (-104.987756 39.716909)",
      "poi_name": "Spicy Basil",
      "osm_id": 5450285858,
      "amenity": "restaurant",
      "cuisine": "thai;vietnamese;japanese;chinese",
      "opening_hours": "Mo-Fr 11:00-22:00; Sa 12:00-23:00; Su 12:00-21:30",
      "website": "http://spicybasil.com/",
      "phone": "+1-303-871-8828",
      "takeaway": "yes",
      "outdoor_seating": "yes",
      "delivery": "yes",
      "addr_state": "CO",
      "addr_city": "Denver",
      "addr_postcode": "80203",
      "addr_street": "Broadway",
      "addr_housenumber": "1"
    },
    {
      "id": 60876,
      "geometry": "POINT (-104.911598 39.543011)",
      "poi_name": "Tokyo Joe's",
      "osm_id": 5486625430,
      "amenity": "restaurant",
      "cuisine": "japanese;sushi",
      "opening_hours": "Mo-Su 10:45-21:05",
      "takeaway": "yes",
      "addr_state": "CO",
      "addr_city": "Highlands Ranch",
      "addr_postcode": "80130",
      "addr_street": "Timberline Road",
      "addr_housenumber": "6642"
    },
    {
      "id": 62062,
      "geometry": "POINT (-104.978035 39.725427)",
      "poi_name": "Uno Mas Taqueria",
      "osm_id": 5549668542,
      "amenity": "restaurant",
      "cuisine": "mexican;tacos",
      "wheelchair": "yes",
      "opening_hours": "Mo-Th, Su 11:30-21:00; Fr, Sa 11:30-22:00",
      "website": "https://unomastaqueria.com/",
      "phone": "+1-720-708-4623",
      "takeaway": "yes",
      "outdoor_seating": "yes",
      "toilets": "yes",
      "addr_state": "CO",
      "addr_city": "Denver",
      "addr_postcode": "80203",
      "addr_street": "East 6th Avenue",
      "addr_housenumber": "730"
    },
    {
      "id": 62644,
      "geometry": "POINT (-104.968968 39.743054)",
      "poi_name": "Olive and Finch Eatery and Bakery",
      "osm_id": 5579502881,
      "amenity": "restaurant",
      "cuisine": "sandwich;pastry",
      "wheelchair": "yes",
      "opening_hours": "Mo-Su 07:00-21:00; Dec 25 off; Dec 24 07:00-17:00; Dec 31,Jan 01 07:00-17:00",
      "website": "https://oliveandfincheatery.com/",
      "phone": "+1-303-832-8663",
      "takeaway": "yes",
      "outdoor_seating": "yes",
      "addr_state": "CO",
      "addr_city": "Denver",
      "addr_postcode": "80218",
      "addr_street": "East 17th Avenue",
      "addr_housenumber": "1552"
    },
    {
      "id": 62396,
      "geometry": "POINT (-104.981957 39.739907)",
      "poi_name": "Thai Monkey Club",
      "osm_id": 5566496344,
      "amenity": "restaurant",
      "opening_hours": "Mo-Fr 11:00-21:30; Sa 12:00-21:30; Su 12:00-21:00",
      "phone": "+1-303-813-1000",
      "takeaway": "yes",
      "delivery": "yes",
      "addr_state": "CO",
      "addr_city": "Denver",
      "addr_postcode": "80203",
      "addr_street": "East Colfax Avenue",
      "addr_housenumber": "406"
    },
    {
      "id": 65124,
      "geometry": "POINT (-104.911551 39.701414)",
      "poi_name": "Brooklyn Pizza",
      "osm_id": 5686475514,
      "amenity": "restaurant",
      "cuisine": "pizza",
      "wheelchair": "yes",
      "opening_hours": "Su-Th 11:00-21:00, Fr 11:00-02:00, Sa 11:00-23:59",
      "website": "https://www.brooklynpizzadenver.com/",
      "phone": "+1-303-355-5777",
      "takeaway": "yes",
      "delivery": "PostMates",
      "addr_state": "CO",
      "addr_city": "Denver",
      "addr_postcode": "80224",
      "addr_street": "South Monaco Parkway",
      "addr_housenumber": "850"
    },
    {
      "id": 65125,
      "geometry": "POINT (-104.911651 39.701544)",
      "poi_name": "Pho OK & Boba",
      "osm_id": 5686475515,
      "amenity": "restaurant",
      "cuisine": "vietnamese",
      "opening_hours": "Mo-Su 10:00-21:00",
      "website": "https://pho-okdenver.com/",
      "phone": "+1-720-328-9589",
      "takeaway": "yes",
      "delivery": "no",
      "addr_state": "CO",
      "addr_city": "Denver",
      "addr_postcode": "80224",
      "addr_street": "South Monaco Parkway",
      "addr_housenumber": "850"
    },
    {
      "id": 73570,
      "geometry": "POINT (-104.990448 39.571979)",
      "poi_name": "Jet's Pizza",
      "osm_id": 9644512361,
      "amenity": "restaurant",
      "cuisine": "pizza",
      "website": "https://www.jetspizza.com/stores/colorado/littleton/7935-south-broadway/",
      "phone": "+1-303-707-1100",
      "takeaway": "yes",
      "outdoor_seating": "no",
      "addr_state": "CO",
      "addr_city": "Littleton",
      "addr_postcode": "80122",
      "addr_street": "South Broadway",
      "addr_housenumber": "7935"
    },
    {
      "id": 77812,
      "geometry": "POINT (-105.131875 39.7184)",
      "poi_name": "Jason's Deli",
      "osm_id": 718350882,
      "amenity": "restaurant",
      "cuisine": "sandwich",
      "website": "https://www.jasonsdeli.com/restaurants/lakewood-deli",
      "phone": "+1-303-986-1111",
      "takeaway": "yes",
      "outdoor_seating": "yes",
      "addr_state": "CO",
      "addr_city": "Lakewood",
      "addr_postcode": "80228",
      "addr_street": "Union Boulevard",
      "addr_housenumber": "204"
    },
    {
      "id": 77935,
      "geometry": "POINT (-104.977221 39.748022)",
      "poi_name": "Gold Panda",
      "osm_id": 728876821,
      "amenity": "restaurant",
      "cuisine": "asian",
      "description": "Chinese",
      "takeaway": "yes",
      "addr_state": "CO",
      "addr_city": "Denver",
      "addr_postcode": "80205",
      "addr_street": "East 20th Avenue",
      "addr_housenumber": "757"
    },
    {
      "id": 83596,
      "geometry": "POINT (-104.806232 39.593636)",
      "poi_name": "PokeCity Cornerstar",
      "osm_id": 1754529737,
      "amenity": "restaurant",
      "cuisine": "poke",
      "takeaway": "yes",
      "addr_state": "CO",
      "addr_city": "Aurora",
      "addr_postcode": "80016",
      "addr_street": "South Cornerstar Way",
      "addr_housenumber": "6750"
    },
    {
      "id": 79960,
      "geometry": "POINT (-104.973179 39.672634)",
      "poi_name": "John Holly's Asian Bistro",
      "osm_id": 839606714,
      "amenity": "restaurant",
      "cuisine": "asian",
      "opening_hours": "Mo-Th 11:00-21:30, Fr 11:00-22:30, Sa 11:30-10:30, Su 11:30-21:30",
      "website": "http://www.JohnHollysDenver.com",
      "phone": "+1-303-722-8686",
      "takeaway": "yes",
      "delivery": "yes",
      "addr_state": "CO",
      "addr_city": "Denver",
      "addr_postcode": "80210",
      "addr_street": "South Downing Street",
      "addr_housenumber": "2422"
    },
    {
      "id": 83470,
      "geometry": "POINT (-104.865536 39.666621)",
      "poi_name": "Hungry Wolf BBQ",
      "osm_id": 1746254286,
      "amenity": "restaurant",
      "cuisine": "barbecue;american",
      "opening_hours": "Tu-Th 11:00-20:00; Fr-Sa 11:00-22:00; Su 12:00-18:00; Mo closed",
      "website": "http://hungry-wolf-bbq.com/#/",
      "phone": "+1-303-750-2344",
      "takeaway": "yes",
      "delivery": "no",
      "addr_state": "CO",
      "addr_city": "Aurora",
      "addr_postcode": "80014",
      "addr_street": "South Havana Street",
      "addr_housenumber": "2710"
    },
    {
      "id": 86730,
      "geometry": "POINT (-105.015626 39.7762)",
      "poi_name": "Chickees Lil Kitchen",
      "osm_id": 1948323899,
      "amenity": "restaurant",
      "cuisine": "american",
      "phone": "+1-720-329-3980",
      "takeaway": "yes",
      "outdoor_seating": "yes",
      "delivery": "no",
      "addr_state": "CO",
      "addr_city": "Denver",
      "addr_postcode": "80211",
      "addr_street": "Zuni Street",
      "addr_housenumber": "4340"
    },
    {
      "id": 85031,
      "geometry": "POINT (-104.961974 39.69826)",
      "poi_name": "Home Grown Tap and Dough",
      "osm_id": 1834231121,
      "amenity": "restaurant",
      "cuisine": "pizza",
      "takeaway": "yes",
      "addr_state": "CO",
      "addr_city": "Denver",
      "addr_postcode": "80209",
      "addr_street": "South Gaylord Street",
      "addr_housenumber": "1001"
    },
    {
      "id": 84639,
      "geometry": "POINT (-104.886162 39.592431)",
      "poi_name": "Hong Kong Station",
      "osm_id": 1803504588,
      "amenity": "restaurant",
      "cuisine": "chinese",
      "opening_hours": "Mo-Th 11:00-20:30; Tu off; Fr 11:00-21:00; Sa 12:00-21:00; Su 12:00-20:30",
      "website": "https://www.hkstationdenver.com/",
      "phone": "+1-720-592-0861",
      "takeaway": "yes",
      "outdoor_seating": "yes",
      "delivery": "yes",
      "addr_state": "CO",
      "addr_city": "Centennial",
      "addr_postcode": "80112",
      "addr_street": "South Yosemite Street",
      "addr_housenumber": "6878"
    },
    {
      "id": 90355,
      "geometry": "POINT (-104.969473 39.74043)",
      "poi_name": "Spices",
      "osm_id": 1991831242,
      "amenity": "restaurant",
      "cuisine": "sandwich",
      "takeaway": "yes",
      "outdoor_seating": "yes",
      "addr_state": "CO",
      "addr_city": "Denver",
      "addr_postcode": "80218",
      "addr_street": "Humboldt Street",
      "addr_housenumber": "1510"
    },
    {
      "id": 93851,
      "geometry": "POINT (-105.043874 39.771334)",
      "poi_name": "Hops & Pie",
      "osm_id": 2189314598,
      "amenity": "restaurant",
      "cuisine": "pizza",
      "opening_hours": "Tu-Th 11:30-22:00; Fr 11:30-23:00; Sa 12:00-23:00; Su 14:00-21:00",
      "website": "https://hopsandpie.com/",
      "phone": "+1-303-477-7000",
      "takeaway": "yes",
      "delivery": "yes",
      "toilets": "yes",
      "addr_state": "CO",
      "addr_city": "Denver",
      "addr_postcode": "80212",
      "addr_street": "Tennyson Street",
      "addr_housenumber": "3920"
    },
    {
      "id": 90896,
      "geometry": "POINT (-104.867628 39.674366)",
      "poi_name": "Tofu House 1962",
      "osm_id": 2025745571,
      "amenity": "restaurant",
      "cuisine": "korean",
      "wheelchair": "yes",
      "opening_hours": "Tu-Su 11:00-22:00, Mo closed",
      "website": "https://www.tofuhouse1962co.com/",
      "internet_access": "wlan",
      "phone": "+1-303-751-2840",
      "takeaway": "yes",
      "addr_state": "CO",
      "addr_city": "Aurora",
      "addr_postcode": "80014",
      "addr_street": "South Havana Street",
      "addr_housenumber": "2353"
    },
    {
      "id": 90515,
      "geometry": "POINT (-104.971296 39.725332)",
      "poi_name": "Pho on 6th",
      "osm_id": 1999204190,
      "amenity": "restaurant",
      "cuisine": "vietnamese",
      "wheelchair": "yes",
      "opening_hours": "Mo-Su 11:00-21:30",
      "internet_access": "no",
      "phone": "+1-720-570-8800",
      "takeaway": "yes",
      "outdoor_seating": "sidewalk",
      "toilets": "yes",
      "addr_state": "CO",
      "addr_city": "Denver",
      "addr_postcode": "80218",
      "addr_street": "East 6th Avenue",
      "addr_housenumber": "1312"
    },
    {
      "id": 93878,
      "geometry": "POINT (-105.044478 39.769564)",
      "poi_name": "Javier's Diner",
      "osm_id": 2190626821,
      "amenity": "restaurant",
      "cuisine": "mexican;american",
      "wheelchair": "yes",
      "opening_hours": "Mo-Sa 07:00-20:30; Su 07:00-17:00",
      "takeaway": "yes",
      "outdoor_seating": "yes",
      "addr_state": "CO",
      "addr_city": "Denver",
      "addr_postcode": "80212",
      "addr_street": "Tennyson Street",
      "addr_housenumber": "3801"
    },
    {
      "id": 95863,
      "geometry": "POINT (-104.994423 39.746723)",
      "poi_name": "Moe\u2019s Broadway Bagel",
      "osm_id": 6414078996,
      "amenity": "restaurant",
      "wheelchair": "yes",
      "takeaway": "yes",
      "addr_state": "CO",
      "addr_city": "Denver",
      "addr_postcode": "80202",
      "addr_street": "16th Street Mall",
      "addr_housenumber": "918"
    },
    {
      "id": 95529,
      "geometry": "POINT (-104.989442 39.711596)",
      "poi_name": "El Nopalito Mexican Restaurant",
      "osm_id": 6401065148,
      "amenity": "restaurant",
      "cuisine": "mexican",
      "takeaway": "yes",
      "outdoor_seating": "no",
      "addr_state": "CO",
      "addr_city": "Denver",
      "addr_postcode": "80223",
      "addr_street": "West Alameda Avenue",
      "addr_housenumber": "77"
    },
    {
      "id": 109335,
      "geometry": "POINT (-104.707734 39.604793)",
      "poi_name": "Monsoon Indian Restaurant",
      "osm_id": 3657952669,
      "amenity": "restaurant",
      "cuisine": "indian",
      "website": "https://www.monsoonsouthlands.com/",
      "takeaway": "yes",
      "outdoor_seating": "yes",
      "delivery": "yes",
      "addr_state": "CO",
      "addr_city": "Aurora",
      "addr_postcode": "80016",
      "addr_street": "East Commons Avenue",
      "addr_housenumber": "24107"
    },
    {
      "id": 107049,
      "geometry": "POINT (-104.889338 39.619164)",
      "poi_name": "Illegal Pete's",
      "osm_id": 3531945919,
      "amenity": "restaurant",
      "cuisine": "mexican",
      "opening_hours": "Mo-Th 10:30-21:00; Fr 10:30-22:00; Sa 09:00-22:00; Su 09:00-21:00",
      "takeaway": "yes",
      "addr_state": "CO",
      "addr_city": "Greenwood Village",
      "addr_postcode": "80111",
      "addr_street": "DTC Boulevard",
      "addr_housenumber": "5312"
    },
    {
      "id": 111003,
      "geometry": "POINT (-105.052177 39.862007)",
      "poi_name": "Huakee BBQ",
      "osm_id": 3726912686,
      "amenity": "restaurant",
      "cuisine": "barbecue;chinese",
      "website": "https://huakeebbqtogo.com/",
      "capacity": "10",
      "phone": "+1-720-535-8871",
      "takeaway": "yes",
      "addr_state": "CO",
      "addr_city": "Westminster",
      "addr_postcode": "80031",
      "addr_street": "West 92nd Avenue",
      "addr_housenumber": "5072"
    },
    {
      "id": 110259,
      "geometry": "POINT (-104.816946 39.616391)",
      "poi_name": "Jason's Deli",
      "osm_id": 3693910746,
      "amenity": "restaurant",
      "cuisine": "sandwich",
      "website": "https://www.jasonsdeli.com/",
      "takeaway": "yes",
      "delivery": "yes",
      "addr_state": "CO",
      "addr_city": "Aurora",
      "addr_postcode": "80015",
      "addr_street": "South Parker Road",
      "addr_housenumber": "5440"
    },
    {
      "id": 112909,
      "geometry": "POINT (-105.143033 39.747674)",
      "poi_name": "Tafilinos Mexican Family Restaurant",
      "osm_id": 3810142627,
      "amenity": "restaurant",
      "cuisine": "mexican",
      "opening_hours": "Mon-Thurs 10:30am-9pm",
      "website": "https://www.tafolinosgolden.com/",
      "phone": "+1-303-232-5118",
      "takeaway": "yes",
      "addr_state": "CO",
      "addr_city": "Golden",
      "addr_postcode": "80401",
      "addr_street": "Youngfield Street",
      "addr_housenumber": "2001"
    },
    {
      "id": 112790,
      "geometry": "POINT (-104.75752 39.615039)",
      "poi_name": "Fontana Sushi",
      "osm_id": 3804937387,
      "amenity": "restaurant",
      "cuisine": "sushi",
      "takeaway": "yes",
      "addr_state": "CO",
      "addr_city": "Centennial",
      "addr_postcode": "80015",
      "addr_street": "East Smoky Hill Road",
      "addr_housenumber": "19741"
    },
    {
      "id": 112811,
      "geometry": "POINT (-104.994883 39.549883)",
      "poi_name": "ModMarket",
      "osm_id": 3806120880,
      "amenity": "restaurant",
      "cuisine": "american",
      "takeaway": "yes",
      "delivery": "no",
      "addr_state": "CO",
      "addr_city": "Highlands Ranch",
      "addr_postcode": "80129",
      "addr_street": "West Highlands Ranch Parkway",
      "addr_housenumber": "537"
    },
    {
      "id": 114677,
      "geometry": "POINT (-105.025593 39.761018)",
      "poi_name": "Brewshine BBQ & Taphouse",
      "osm_id": 3891092657,
      "amenity": "restaurant",
      "phone": "+1-303-561-1111",
      "takeaway": "yes",
      "addr_state": "CO",
      "addr_city": "Denver",
      "addr_postcode": "80211",
      "addr_street": "Federal Boulevard",
      "addr_housenumber": "3109"
    },
    {
      "id": 114570,
      "geometry": "POINT (-105.051279 39.769688)",
      "poi_name": "Snarf's Sandwiches",
      "osm_id": 3886513205,
      "amenity": "restaurant",
      "takeaway": "yes",
      "delivery": "yes",
      "addr_state": "CO",
      "addr_city": "Denver",
      "addr_postcode": "80212",
      "addr_street": "West 38th Avenue",
      "addr_housenumber": "5001"
    },
    {
      "id": 126814,
      "geometry": "POINT (-105.139794 39.701266)",
      "poi_name": "Burrito Express",
      "osm_id": 8001321344,
      "amenity": "restaurant",
      "cuisine": "mexican",
      "opening_hours": "Mo-Su 06:30-23:00",
      "website": "https://burritoexpresslakewood.com",
      "phone": "+1-303-984-4628",
      "takeaway": "yes",
      "addr_state": "CO",
      "addr_city": "Lakewood",
      "addr_postcode": "80228",
      "addr_street": "West Alameda Parkway",
      "addr_housenumber": "12792"
    },
    {
      "id": 116308,
      "geometry": "POINT (-104.955619 39.779558)",
      "poi_name": "Tacos la Tapatia",
      "osm_id": 8936740984,
      "amenity": "restaurant",
      "cuisine": "mexican",
      "opening_hours": "Mo-Sa 09:00-20:00; Su closed",
      "operator": "Little Angels Food Service",
      "website": "https://www.tacoslatapatiaco.com/",
      "capacity": "10",
      "phone": "+1-720-573-8962",
      "takeaway": "yes",
      "addr_state": "CO",
      "addr_city": "Denver",
      "addr_postcode": "80216",
      "addr_street": "Thompson Court",
      "addr_housenumber": "4535"
    },
    {
      "id": 118951,
      "geometry": "POINT (-105.043871 39.771775)",
      "poi_name": "Colorado Cherry Co. Pie + Provisions",
      "osm_id": 9072436213,
      "amenity": "restaurant",
      "cuisine": "pie;coffee_shop;coffee;pastry",
      "opening_hours": "Mo-Th 08:00-20:00; Fr,Sa 08:00-21:00",
      "website": "https://coloradocherrycodenver.com/",
      "phone": "+1-303-635-6748",
      "takeaway": "yes",
      "addr_state": "CO",
      "addr_city": "Denver",
      "addr_postcode": "80212",
      "addr_street": "Tennyson Street",
      "addr_housenumber": "4000"
    },
    {
      "id": 126816,
      "geometry": "POINT (-105.139737 39.70134)",
      "poi_name": "#Poke",
      "osm_id": 8001321346,
      "amenity": "restaurant",
      "cuisine": "poke",
      "website": "https://pokelakewood.com",
      "phone": "+1-303-984-0208",
      "takeaway": "yes",
      "addr_state": "CO",
      "addr_city": "Lakewood",
      "addr_postcode": "80228",
      "addr_street": "West Alameda Parkway",
      "addr_housenumber": "12792"
    },
    {
      "id": 140931,
      "geometry": "POINT (-104.846501 39.69539)",
      "poi_name": "Fortune Kitchen",
      "osm_id": 6267341859,
      "amenity": "restaurant",
      "cuisine": "asian",
      "opening_hours": "Mo-Fr 11:00-22:00, Sa 12:00-22:00, Su 12:00-21:30",
      "website": "https://www.fortunekitchenonline.com/",
      "phone": "+1-303-369-9387",
      "takeaway": "yes",
      "delivery": "yes",
      "addr_state": "CO",
      "addr_city": "Aurora",
      "addr_postcode": "80012",
      "addr_street": "East Mississippi Avenue",
      "addr_housenumber": "12120"
    },
    {
      "id": 128391,
      "geometry": "POINT (-104.88223 39.77368)",
      "poi_name": "Fuzzy's Taco Shop",
      "osm_id": 8153527097,
      "amenity": "restaurant",
      "cuisine": "mexican",
      "opening_hours": "Mo-Fr 07:00-21:00; Sa-Su 08:00-21:00",
      "website": "https://www.fuzzystacoshop.com/locations/denver-co-stapleton/",
      "phone": "+1-303-576-3228",
      "takeaway": "yes",
      "drive_through": "no",
      "addr_state": "CO",
      "addr_city": "Denver",
      "addr_postcode": "80238",
      "addr_street": "Central Park Boulevard",
      "addr_housenumber": "3996"
    },
    {
      "id": 128392,
      "geometry": "POINT (-104.882273 39.773192)",
      "poi_name": "Cheba Hut",
      "osm_id": 8153527101,
      "amenity": "restaurant",
      "cuisine": "sandwich",
      "opening_hours": "Mo-Su 10:00-23:59",
      "website": "https://chebahut.com/locations/denver-stapleton/",
      "phone": "+1-303-574-0972",
      "takeaway": "yes",
      "drive_through": "yes",
      "delivery": "yes",
      "addr_state": "CO",
      "addr_city": "Denver",
      "addr_postcode": "80238",
      "addr_street": "Central Park Boulevard",
      "addr_housenumber": "3990"
    },
    {
      "id": 137092,
      "geometry": "POINT (-105.001937 39.755313)",
      "poi_name": "Whole Sol Blend Bar",
      "osm_id": 6086076848,
      "amenity": "restaurant",
      "cuisine": "smoothie;a\u00e7a\u00ed",
      "opening_hours": "Mo-Fr 06:00-19:00; Sa-Su 07:00-17:00",
      "website": "https://www.wholesol.com/",
      "takeaway": "yes",
      "outdoor_seating": "no",
      "delivery": "yes",
      "addr_state": "CO",
      "addr_city": "Denver",
      "addr_postcode": "80202",
      "addr_street": "Chestnut Place",
      "addr_housenumber": "1735"
    },
    {
      "id": 138498,
      "geometry": "POINT (-104.767218 39.536209)",
      "poi_name": "Tokyo Joe\u2019s",
      "osm_id": 6152615085,
      "amenity": "restaurant",
      "cuisine": "japanese",
      "opening_hours": "10:45-21:05",
      "website": "https://tokyojoes.com",
      "phone": "+1-720-450-3180",
      "takeaway": "yes",
      "outdoor_seating": "yes",
      "addr_state": "CO",
      "addr_city": "Parker",
      "addr_postcode": "80138",
      "addr_street": "East Lincoln Avenue",
      "addr_housenumber": "19240"
    },
    {
      "id": 139367,
      "geometry": "POINT (-104.999495 39.883848)",
      "poi_name": "Fu Shing Chinese Restaurant",
      "osm_id": 6194166123,
      "amenity": "restaurant",
      "cuisine": "chinese",
      "phone": "+1-303-451-8952",
      "takeaway": "yes",
      "outdoor_seating": "no",
      "addr_state": "CO",
      "addr_city": "Northglenn",
      "addr_postcode": "80234",
      "addr_street": "West 104th Avenue",
      "addr_housenumber": "1024"
    },
    {
      "id": 137192,
      "geometry": "POINT (-105.05538 39.747346)",
      "poi_name": "Asuka Ramen",
      "osm_id": 6088987790,
      "amenity": "restaurant",
      "website": "https://asukaramenedgewater.com",
      "phone": "+1-720-949-0699",
      "takeaway": "yes",
      "addr_state": "CO",
      "addr_city": "Edgewater",
      "addr_postcode": "80214",
      "addr_street": "Sheridan Boulevard",
      "addr_housenumber": "1931"
    },
    {
      "id": 155562,
      "geometry": "POINT (-105.099044 39.877641)",
      "poi_name": "G's Tacos",
      "osm_id": 4289844810,
      "amenity": "restaurant",
      "cuisine": "tacos;wings;mexican;breakfast",
      "opening_hours": "mo-fr 11:00-20:30, sa-su 09:00-20:30",
      "website": "https://www.gstacos.com",
      "phone": "+1-303-423-1533",
      "takeaway": "yes",
      "delivery": "no",
      "addr_state": "CO",
      "addr_city": "Westminster",
      "addr_postcode": "80021",
      "addr_street": "West 100th Avenue",
      "addr_housenumber": "9100"
    },
    {
      "id": 145097,
      "geometry": "POINT (-105.134248 39.712274)",
      "poi_name": "Westrail Tap & Grill",
      "osm_id": 7310037667,
      "amenity": "restaurant",
      "cuisine": "burger;sandwich;fish_and_chips;salad;brunch",
      "description": "Buzzy tavern with a few big screen TVs offering comfort food classics, craft beer & cocktails. Pool table. Brunch on the Weekends.",
      "opening_hours": "Mo-Su 11:00-23:00",
      "website": "https://www.westrailtapandgrill.com/menu",
      "internet_access": "yes",
      "phone": "+1-303-986-2200",
      "takeaway": "yes",
      "addr_state": "CO",
      "addr_city": "Lakewood",
      "addr_postcode": "80228",
      "addr_street": "South Union Boulevard",
      "addr_housenumber": "195"
    },
    {
      "id": 144947,
      "geometry": "POINT (-105.192125 39.654358)",
      "poi_name": "Red Rocks Grill",
      "osm_id": 7296816275,
      "amenity": "restaurant",
      "cuisine": "burger;mexican;sandwich;breakfast;american",
      "website": "http://www.redrocksgrill.com/",
      "phone": "+1-303-697-9290",
      "takeaway": "yes",
      "outdoor_seating": "yes",
      "addr_state": "CO",
      "addr_city": "Morrison",
      "addr_postcode": "80465",
      "addr_street": "Bear Creek Avenue",
      "addr_housenumber": "415"
    },
    {
      "id": 145158,
      "geometry": "POINT (-105.132917 39.722365)",
      "poi_name": "Jose O'Shea's",
      "osm_id": 7320708773,
      "amenity": "restaurant",
      "cuisine": "mexican;brunch",
      "description": "Burritos, enchiladas & Mexican specialties, plus free taco bar during upstairs cantina happy hour.",
      "wheelchair": "yes",
      "website": "https://joseosheas.com/",
      "phone": "+1-303-988-7333",
      "takeaway": "yes",
      "addr_state": "CO",
      "addr_city": "Lakewood",
      "addr_postcode": "80228",
      "addr_street": "Union Boulevard",
      "addr_housenumber": "385"
    },
    {
      "id": 145160,
      "geometry": "POINT (-105.165043 39.724209)",
      "poi_name": "Bono's Italian Restaurant",
      "osm_id": 7320764901,
      "amenity": "restaurant",
      "cuisine": "italian;pizza;sandwich;salad",
      "description": "Low-key venue known for its East Coast-style pizza & other Italian standards.",
      "opening_hours": "Mo-Su 11:00-21:00",
      "website": "https://www.bonositalianrestaurant.com/",
      "phone": "+1-303-278-1068",
      "takeaway": "yes",
      "delivery": "yes",
      "addr_state": "CO",
      "addr_city": "Golden",
      "addr_postcode": "80401",
      "addr_street": "West 6th Avenue Frontage Road",
      "addr_housenumber": "14799"
    },
    {
      "id": 145169,
      "geometry": "POINT (-105.165133 39.723954)",
      "poi_name": "Citizen Thai Bistro",
      "osm_id": 7321637901,
      "amenity": "restaurant",
      "cuisine": "thai",
      "description": "Loungey, modern Thai eatery & bar offering classic & updated eats & happy hour specials daily.",
      "website": "http://citizenthaibistro.com/",
      "phone": "+1-303-217-8010",
      "takeaway": "yes",
      "addr_state": "CO",
      "addr_city": "Golden",
      "addr_postcode": "80401",
      "addr_street": "West 6th Avenue Frontage Road",
      "addr_housenumber": "14799"
    },
    {
      "id": 145173,
      "geometry": "POINT (-105.122989 39.710492)",
      "poi_name": "Manning's Steaks and Spirits",
      "osm_id": 7321660133,
      "amenity": "restaurant",
      "cuisine": "steak_house;pasta;burger;sandwich;salad",
      "wheelchair": "yes",
      "website": "https://www.manningssteaksandspirits.com/",
      "phone": "+1-720-484-6567",
      "takeaway": "yes",
      "addr_state": "CO",
      "addr_city": "Lakewood",
      "addr_postcode": "80226",
      "addr_street": "West Alameda Avenue",
      "addr_housenumber": "11100"
    },
    {
      "id": 159114,
      "geometry": "POINT (-105.01157 39.758034)",
      "poi_name": "ProsperOats",
      "osm_id": 4778011335,
      "amenity": "restaurant",
      "cuisine": "coffee_shop",
      "opening_hours": "Mo-Fr 06:00-16:00; Sa-Su 07:00-16:00",
      "website": "https://prosperoats.com/",
      "takeaway": "yes",
      "outdoor_seating": "yes",
      "delivery": "yes",
      "addr_state": "CO",
      "addr_city": "Denver",
      "addr_postcode": "80211",
      "addr_street": "15th Street",
      "addr_housenumber": "2550"
    },
    {
      "id": 189927,
      "geometry": "POINT (-105.263462 40.014844)",
      "poi_name": "Tibet Kitchen",
      "osm_id": 1256872477,
      "amenity": "restaurant",
      "cuisine": "tibetan",
      "opening_hours": "Mo-Sa 11:00-10:00; Su 17:00-22:00",
      "website": "http://www.tibetkitchen.com",
      "takeaway": "yes",
      "addr_state": "CO",
      "addr_city": "Boulder",
      "addr_postcode": "80303",
      "addr_street": "Arapahoe Avenue",
      "addr_housenumber": "2359"
    },
    {
      "id": 197303,
      "geometry": "POINT (-104.959143 39.678233)",
      "poi_name": "Saucy's Southern BBQ & Cuisine",
      "osm_id": 10628354660,
      "amenity": "restaurant",
      "cuisine": "barbecue",
      "opening_hours": "Mo-Su 11:00-22:00",
      "website": "http://www.saucyssouthernbbq.com/",
      "phone": "+1-720-484-6035",
      "takeaway": "yes",
      "delivery": "yes",
      "addr_state": "CO",
      "addr_city": "Denver",
      "addr_postcode": "80210",
      "addr_street": "East Evans Avenue",
      "addr_housenumber": "2360"
    },
    {
      "id": 190631,
      "geometry": "POINT (-104.716101 39.605214)",
      "poi_name": "Bangkok Tokyo",
      "osm_id": 1308409075,
      "amenity": "restaurant",
      "cuisine": "asian",
      "takeaway": "yes",
      "outdoor_seating": "no",
      "delivery": "yes",
      "addr_state": "CO",
      "addr_city": "Aurora",
      "addr_postcode": "80016",
      "addr_street": "South Gun Club Road",
      "addr_housenumber": "6020"
    },
    {
      "id": 191464,
      "geometry": "POINT (-104.958111 39.609389)",
      "poi_name": "Sazza",
      "osm_id": 1368581673,
      "amenity": "restaurant",
      "cuisine": "pizza",
      "wheelchair": "yes",
      "website": "https://sazzarestaurant.com/",
      "phone": "+1-303-797-2992",
      "takeaway": "yes",
      "delivery": "no",
      "addr_city": "Greenwood Village",
      "addr_postcode": "80121",
      "addr_street": "East Orchard Road",
      "addr_housenumber": "2500"
    },
    {
      "id": 199889,
      "geometry": "POINT (-105.078539 39.797333)",
      "poi_name": "Namaste India Restaurant & Bar",
      "osm_id": 994107387,
      "amenity": "restaurant",
      "cuisine": "indian",
      "website": "https://niarvada.com/",
      "phone": "+1-303-940-2517",
      "takeaway": "yes",
      "delivery": "yes",
      "addr_state": "CO",
      "addr_city": "Arvada",
      "addr_postcode": "80002",
      "addr_street": "Wadsworth Bypass",
      "addr_housenumber": "5455"
    },
    {
      "id": 203803,
      "geometry": "POINT (-104.968001 39.743054)",
      "poi_name": "Yogi's Indian Restaurant",
      "osm_id": 7100225467,
      "amenity": "restaurant",
      "cuisine": "indian",
      "opening_hours": "Tu-Sa 05:00-21:30",
      "website": "https://www.yogisindian.com/",
      "phone": "+1-303-632-6866",
      "takeaway": "yes",
      "addr_state": "CO",
      "addr_city": "Denver",
      "addr_postcode": "80218",
      "addr_street": "East 17th Avenue",
      "addr_housenumber": "1612"
    },
    {
      "id": 199984,
      "geometry": "POINT (-104.976536 39.74345)",
      "poi_name": "WaterCourse Foods",
      "osm_id": 1001230363,
      "amenity": "restaurant",
      "wheelchair": "yes",
      "opening_hours": "Th-Sa 07:00-23:00; Mo-We, Su 07:00-22:00",
      "website": "https://watercoursefoods.com/",
      "internet_access": "wlan",
      "phone": "+1-303-832-7313",
      "takeaway": "yes",
      "toilets": "yes",
      "addr_state": "CO",
      "addr_city": "Denver",
      "addr_postcode": "80203",
      "addr_street": "East 17th Avenue",
      "addr_housenumber": "837"
    },
    {
      "id": 199985,
      "geometry": "POINT (-104.984671 39.73669)",
      "poi_name": "City O' City",
      "osm_id": 1001230366,
      "amenity": "restaurant",
      "wheelchair": "yes",
      "opening_hours": "Mo-Su 07:00-02:00",
      "website": "https://cityocitydenver.com/",
      "phone": "+1-303-831-6443",
      "takeaway": "yes",
      "toilets": "yes",
      "addr_state": "CO",
      "addr_city": "Denver",
      "addr_postcode": "80203",
      "addr_street": "East 13th Avenue",
      "addr_housenumber": "206"
    },
    {
      "id": 209152,
      "geometry": "POINT (-104.976232 39.87127)",
      "poi_name": "Taste of Philly",
      "osm_id": 5025391727,
      "amenity": "restaurant",
      "cuisine": "american;sandwich",
      "takeaway": "yes",
      "addr_state": "CO",
      "addr_city": "Thornton",
      "addr_postcode": "80229",
      "addr_street": "Thornton Parkway",
      "addr_housenumber": "823"
    },
    {
      "id": 208369,
      "geometry": "POINT (-105.025604 39.771783)",
      "poi_name": "Chuladas Mexican Restaurant",
      "osm_id": 4988195186,
      "amenity": "restaurant",
      "cuisine": "mexican",
      "wheelchair": "yes",
      "opening_hours": "Mo-Sa 06:00-20:00; Su 07:00-16:00",
      "takeaway": "yes",
      "addr_state": "CO",
      "addr_city": "Denver",
      "addr_postcode": "80211",
      "addr_street": "Federal Boulevard",
      "addr_housenumber": "3939"
    },
    {
      "id": 210198,
      "geometry": "POINT (-104.963648 39.739863)",
      "poi_name": "Pete's Kitchen",
      "osm_id": 5084512033,
      "amenity": "restaurant",
      "cuisine": "greek;burger;breakfast;lunch;dinner",
      "wheelchair": "limited",
      "phone": "+1-303-321-3139",
      "takeaway": "yes",
      "addr_state": "CO",
      "addr_city": "Denver",
      "addr_postcode": "80206",
      "addr_street": "East Colfax Avenue",
      "addr_housenumber": "1962"
    },
    {
      "id": 210046,
      "geometry": "POINT (-105.101619 40.003478)",
      "poi_name": "Uturn BBQ",
      "osm_id": 5073885317,
      "amenity": "restaurant",
      "takeaway": "yes",
      "delivery": "yes",
      "addr_state": "CO",
      "addr_city": "Lafayette",
      "addr_postcode": "80026",
      "addr_street": "Crossing Drive",
      "addr_housenumber": "599"
    },
    {
      "id": 210212,
      "geometry": "POINT (-104.920653 39.740317)",
      "poi_name": "Phoenician Kabob",
      "osm_id": 5086747344,
      "amenity": "restaurant",
      "cuisine": "regional;middle_eastern",
      "opening_hours": "Mo-Th 11:00-21:30, Fr-Sa 11:00-22:00, Su 11:00-21:00",
      "takeaway": "yes",
      "delivery": "no",
      "addr_state": "CO",
      "addr_city": "Denver",
      "addr_postcode": "80220",
      "addr_street": "East Colfax Avenue",
      "addr_housenumber": "5709"
    },
    {
      "id": 210402,
      "geometry": "POINT (-104.991348 39.744288)",
      "poi_name": "Henry's Tavern",
      "osm_id": 5102416575,
      "amenity": "restaurant",
      "cuisine": "american",
      "wheelchair": "yes",
      "opening_hours": "Mo-Th 11:00-00:00; Fr, Sa 11:00-01:00; Su 11:00-23:00",
      "website": "https://henrystavern.com/location.php?c=denver",
      "phone": "+1-720-399-8466",
      "takeaway": "yes",
      "outdoor_seating": "yes",
      "addr_state": "CO",
      "addr_city": "Denver",
      "addr_postcode": "80202",
      "addr_street": "16th Street Mall",
      "addr_housenumber": "500"
    },
    {
      "id": 210678,
      "geometry": "POINT (-104.939333 39.671541)",
      "poi_name": "Red Dragon",
      "osm_id": 5113870413,
      "amenity": "restaurant",
      "cuisine": "chinese",
      "opening_hours": "Mo-Fr 11:00-21:45; Sa 12:00-22:00; Su 17:00-21:00",
      "phone": "+1-303-722-8888",
      "takeaway": "yes",
      "delivery": "yes",
      "addr_state": "CO",
      "addr_city": "Denver",
      "addr_postcode": "80222",
      "addr_street": "South Colorado Boulevard",
      "addr_housenumber": "2456"
    },
    {
      "id": 213011,
      "geometry": "POINT (-105.131874 39.718595)",
      "poi_name": "Tuk Tuk Thai Grill",
      "osm_id": 5230957756,
      "amenity": "restaurant",
      "cuisine": "thai",
      "description": "Inventive presentations of flavorful Thai dishes served in a stylish dining room. Beer.",
      "opening_hours": "Mo-Su 11:00-21:00",
      "website": "https://tuktukrocks.wordpress.com/",
      "phone": "+1-303-716-9999",
      "takeaway": "yes",
      "addr_state": "CO",
      "addr_city": "Lakewood",
      "addr_postcode": "80228",
      "addr_street": "Union Boulevard",
      "addr_housenumber": "218"
    },
    {
      "id": 213182,
      "geometry": "POINT (-105.043019 39.913061)",
      "poi_name": "5280 Burger Bar",
      "osm_id": 5239812973,
      "amenity": "restaurant",
      "cuisine": "burger;american;bar&grill",
      "opening_hours": "Mo-Su 11:00-22:00",
      "website": "https://www.5280burgerbar.com/westminster",
      "phone": "+1-720-887-5970",
      "takeaway": "yes",
      "delivery": "no",
      "addr_state": "CO",
      "addr_city": "Westminster",
      "addr_postcode": "80031",
      "addr_street": "Main Street",
      "addr_housenumber": "4301"
    },
    {
      "id": 214403,
      "geometry": "POINT (-104.883347 39.625079)",
      "poi_name": "Byblos Express Greek & Lebanese",
      "osm_id": 5271384662,
      "amenity": "restaurant",
      "cuisine": "greek;lebanese",
      "takeaway": "yes",
      "outdoor_seating": "yes",
      "addr_state": "CO",
      "addr_city": "Greenwood Village",
      "addr_postcode": "80111",
      "addr_street": "South Yosemite Street",
      "addr_housenumber": "4940"
    },
    {
      "id": 229209,
      "geometry": "POINT (-105.044155 39.771448)",
      "poi_name": "Vital Root",
      "osm_id": 4372084701,
      "amenity": "restaurant",
      "description": "What is vital? We are committed to keeping it real. Real ingredients. Real food. Real passion.",
      "wheelchair": "yes",
      "opening_hours": "Tu-Th 10:00-21:00; Fr-Su 09:00-21:00",
      "internet_access": "wlan",
      "takeaway": "yes",
      "outdoor_seating": "patio",
      "delivery": "yes",
      "toilets": "yes",
      "addr_state": "CO",
      "addr_city": "Denver",
      "addr_postcode": "80212",
      "addr_street": "Tennyson Street",
      "addr_housenumber": "3915"
    },
    {
      "id": 222271,
      "geometry": "POINT (-104.816759 39.616176)",
      "poi_name": "Mountain Mike's",
      "osm_id": 11012239349,
      "amenity": "restaurant",
      "cuisine": "pizza",
      "takeaway": "yes",
      "addr_state": "CO",
      "addr_city": "Aurora",
      "addr_postcode": "80015",
      "addr_street": "South Parker Road",
      "addr_housenumber": "5448"
    },
    {
      "id": 227469,
      "geometry": "POINT (-105.05142 39.911858)",
      "poi_name": "GQue Championship Barbeque",
      "osm_id": 4309630204,
      "amenity": "restaurant",
      "cuisine": "barbecue",
      "opening_hours": "11:00-12:00+ \"until it's gone\"",
      "takeaway": "yes",
      "delivery": "no",
      "addr_state": "CO",
      "addr_city": "Westminster",
      "addr_postcode": "80020",
      "addr_street": "West 120th Avenue",
      "addr_housenumber": "5160"
    },
    {
      "id": 228835,
      "geometry": "POINT (-104.959499 39.58211)",
      "poi_name": "Udom Thai",
      "osm_id": 4357975586,
      "amenity": "restaurant",
      "cuisine": "thai",
      "opening_hours": "Mo-Tu 11:00-13:30, 17:00-21:00; Fr 11:00-13:30, 17:00-21:30; Sa 12:00-21:30; Su 12:00-20:30",
      "capacity": "50",
      "takeaway": "yes",
      "delivery": "no",
      "addr_state": "CO",
      "addr_city": "Centennial",
      "addr_postcode": "80122",
      "addr_street": "South University Boulevard",
      "addr_housenumber": "7412"
    },
    {
      "id": 231262,
      "geometry": "POINT (-105.054825 40.032532)",
      "poi_name": "Abos Pizza",
      "osm_id": 4461125341,
      "amenity": "restaurant",
      "cuisine": "pizza;dessert",
      "internet_access": "yes",
      "phone": "+1-303-828-9777",
      "takeaway": "yes",
      "delivery": "yes",
      "addr_state": "CO",
      "addr_city": "Erie",
      "addr_postcode": "80516",
      "addr_street": "Austin Avenue",
      "addr_housenumber": "720"
    },
    {
      "id": 230779,
      "geometry": "POINT (-104.968676 39.742977)",
      "poi_name": "Patxi's Pizza",
      "osm_id": 4439298103,
      "amenity": "restaurant",
      "cuisine": "pizza;american;soup;sandwich;salad",
      "opening_hours": "Fr,Sa 11:00-23:00; Mo-Th,Su 11:00-22:00",
      "website": "https://www.patxispizza.com/Location/Uptown",
      "internet_access": "wlan",
      "phone": "+1-303-832-8000",
      "takeaway": "yes",
      "outdoor_seating": "patio",
      "delivery": "yes",
      "toilets": "yes",
      "addr_state": "CO",
      "addr_city": "Denver",
      "addr_postcode": "80218",
      "addr_street": "East 17th Avenue",
      "addr_housenumber": "1598"
    },
    {
      "id": 231206,
      "geometry": "POINT (-104.93905 39.926344)",
      "poi_name": "Capri Pizza",
      "osm_id": 4459790694,
      "amenity": "restaurant",
      "cuisine": "pizza",
      "opening_hours": "11:00-21:00",
      "website": "https://capripizza2022.com",
      "phone": "+1-303-254-9988",
      "takeaway": "yes",
      "delivery": "yes",
      "addr_state": "CO",
      "addr_city": "Thornton",
      "addr_postcode": "80241",
      "addr_street": "Colorado Boulevard",
      "addr_housenumber": "12720"
    },
    {
      "id": 231279,
      "geometry": "POINT (-104.897225 39.622905)",
      "poi_name": "Bryan\u2019s Dumpling House",
      "osm_id": 4461238623,
      "amenity": "restaurant",
      "cuisine": "chinese",
      "wheelchair": "yes",
      "opening_hours": "Mo-Su 11:00-15:00, 16:30-21:00",
      "website": "https://www.bryansdumpling.com/",
      "phone": "(303) 952-9631",
      "takeaway": "yes",
      "addr_state": "CO",
      "addr_city": "Greenwood Village",
      "addr_postcode": "80111",
      "addr_street": "East Belleview Avenue",
      "addr_housenumber": "8000"
    },
    {
      "id": 238581,
      "geometry": "POINT (-104.963193 39.743388)",
      "poi_name": "Chada Thai",
      "osm_id": 5883514441,
      "amenity": "restaurant",
      "cuisine": "thai",
      "takeaway": "yes",
      "outdoor_seating": "yes",
      "addr_state": "CO",
      "addr_city": "Denver",
      "addr_postcode": "80206",
      "addr_street": "East 17th Avenue",
      "addr_housenumber": "2005"
    },
    {
      "id": 232096,
      "geometry": "POINT (-105.262542 40.014297)",
      "poi_name": "Doug's Day Diner",
      "osm_id": 4509840721,
      "amenity": "restaurant",
      "cuisine": "breakfast",
      "opening_hours": "Mo-Su 07:00-14:30",
      "website": "https://www.dougsdiner.com/",
      "takeaway": "yes",
      "addr_state": "CO",
      "addr_city": "Boulder",
      "addr_postcode": "80302",
      "addr_street": "Arapahoe Avenue",
      "addr_housenumber": "2400"
    },
    {
      "id": 232440,
      "geometry": "POINT (-105.091326 39.988544)",
      "poi_name": "Udon Kaisha",
      "osm_id": 4525289354,
      "amenity": "restaurant",
      "cuisine": "japanese",
      "opening_hours": "11:00-21:00",
      "capacity": "30",
      "takeaway": "yes",
      "addr_state": "CO",
      "addr_city": "Lafayette",
      "addr_postcode": "80026",
      "addr_street": "South Public Road",
      "addr_housenumber": "191"
    },
    {
      "id": 235481,
      "geometry": "POINT (-104.982892 39.725456)",
      "poi_name": "Little India",
      "osm_id": 5757330837,
      "amenity": "restaurant",
      "cuisine": "indian",
      "opening_hours": "Mo-Su 11:00-23:00",
      "website": "https://www.littleindiaofdenver.com/locations/330-east-6th-avenue/",
      "phone": "+1-303-871-9777",
      "takeaway": "yes",
      "outdoor_seating": "yes",
      "delivery": "yes",
      "toilets": "yes",
      "addr_state": "CO",
      "addr_city": "Denver",
      "addr_postcode": "80203",
      "addr_street": "West 6th Avenue",
      "addr_housenumber": "330"
    },
    {
      "id": 231712,
      "geometry": "POINT (-104.987897 39.744727)",
      "poi_name": "La Loma",
      "osm_id": 4484801289,
      "amenity": "restaurant",
      "cuisine": "mexican",
      "wheelchair": "yes",
      "opening_hours": "Mo-Th, Su 11:00-22:00; Fr, Sa 11:00-22:30",
      "website": "http://lalomamexican.com/",
      "phone": "+1-303-433-8300",
      "takeaway": "yes",
      "outdoor_seating": "yes",
      "toilets": "yes",
      "addr_state": "CO",
      "addr_city": "Denver",
      "addr_postcode": "80202",
      "addr_street": "Broadway",
      "addr_housenumber": "1801"
    },
    {
      "id": 240404,
      "geometry": "POINT (-104.91184 39.702561)",
      "poi_name": "Nonnas Chicago Bistro",
      "osm_id": 5973317482,
      "amenity": "restaurant",
      "cuisine": "italian",
      "opening_hours": "Mo-Fr 11:00-14:30",
      "capacity": "90",
      "takeaway": "yes",
      "outdoor_seating": "no",
      "addr_state": "CO",
      "addr_city": "Denver",
      "addr_postcode": "80224",
      "addr_street": "Leetsdale Drive",
      "addr_housenumber": "6603"
    },
    {
      "id": 242365,
      "geometry": "POINT (-105.016017 39.536467)",
      "poi_name": "Little Holly\u2019s Asia Cafe",
      "osm_id": 6068838154,
      "amenity": "restaurant",
      "cuisine": "asian",
      "opening_hours": "11:00-22:00",
      "takeaway": "yes",
      "addr_state": "CO",
      "addr_city": "Highlands Ranch",
      "addr_postcode": "80129",
      "addr_street": "Wildcat Reserve Parkway",
      "addr_housenumber": "2223"
    },
    {
      "id": 240891,
      "geometry": "POINT (-104.878132 39.596055)",
      "poi_name": "NYC Bagel and Sandwich Shop",
      "osm_id": 5998092895,
      "amenity": "restaurant",
      "cuisine": "bagel;sandwich;panini;salad;breakfast;lunch",
      "opening_hours": "Mo-Sa 5:00-16:00 , Su 6:00-16:00",
      "website": "https://nycbagelsandwichshop.com/nyc-bagel-and-sandwich-shop-greenwoodvillage-co.html",
      "capacity": "30",
      "phone": "+1-303-955-7458",
      "takeaway": "yes",
      "outdoor_seating": "no",
      "delivery": "yes",
      "addr_state": "CO",
      "addr_city": "Greenwood Village",
      "addr_postcode": "80112",
      "addr_street": "East Arapahoe Road",
      "addr_housenumber": "9555"
    }
  ],
  "answer_type": "loc",
  "question_entities": {
    "[1]": {
      "main_category": "amenity",
      "sub_category": "restaurant",
      "poi_filter_desc": "takeout restaurant",
      "poi_filter_sql": "takeaway ILIKE '%yes%'"
    },
    "[2]": {
      "distance": 40000,
      "text": "40 kilometers"
    },
    "[3]": {
      "main_category": "tourism",
      "sub_category": "gallery",
      "display_name": "Lighthouse Denver, Denver, CO",
      "geo_wkt": "POINT (-104.992657 39.771454)",
      "poi": {
        "id": 15852,
        "geometry": "POINT (-104.992657 39.771454)",
        "poi_name": "Lighthouse Denver",
        "osm_id": 9565172529,
        "tourism": "gallery",
        "wheelchair": "yes",
        "operator": "Lighthouse Immersive",
        "website": "https://lighthouseimmersive.com/",
        "addr_state": "CO",
        "addr_city": "Denver",
        "addr_postcode": "80216",
        "addr_street": "Elati Street",
        "addr_housenumber": "3900"
      }
    }
  },
  "id": 464,
  "type": "range:non_spat_filter+loc"
}