{
  "question": "Can you suggest a gallery that's within 140 kilometers from Safari West, Sant Rosa, CA?",
  "sql": "SELECT * FROM pois\nWHERE ST_DWithin(pois.geometry, ST_GeomFromText('POINT (-122.695392 38.557332)',4326)::geography, 140000)\nAND tourism = 'gallery';\n",
  "answers": [
    {
      "id": 223,
      "geometry": "POINT (-122.686375 38.443796)",
      "poi_name": "Lori Austen Gallery",
      "osm_id": 8244038063,
      "tourism": "gallery",
      "addr_street": "Farmers Lane",
      "addr_housenumber": "725"
    },
    {
      "id": 591,
      "geometry": "POINT (-122.419452 37.752285)",
      "poi_name": "Campfire Gallery",
      "osm_id": 2618099677,
      "tourism": "gallery",
      "addr_city": "San Francisco",
      "addr_street": "24th Street",
      "addr_housenumber": "3344"
    },
    {
      "id": 644,
      "geometry": "POINT (-122.403921 37.78807)",
      "poi_name": "Gallery Paule Anglim",
      "osm_id": 2627794649,
      "tourism": "gallery",
      "website": "https://www.gallerypauleanglim.com/",
      "phone": "(415) 433-2710",
      "wikidata": "Q5518998",
      "addr_city": "San Francisco",
      "addr_postcode": "94108",
      "addr_street": "Geary Street",
      "addr_housenumber": "14"
    },
    {
      "id": 645,
      "geometry": "POINT (-122.421631 37.76552)",
      "poi_name": "ArtZone 461 Gallery",
      "osm_id": 2627803906,
      "tourism": "gallery",
      "website": "http://www.artzone461.com/",
      "phone": "415.441.8680",
      "addr_city": "San Francisco",
      "addr_postcode": "94103",
      "addr_street": "Valencia Street",
      "addr_housenumber": "461"
    },
    {
      "id": 647,
      "geometry": "POINT (-122.185358 37.450435)",
      "poi_name": "Sense Fine Art",
      "osm_id": 2628201933,
      "description": "verify open",
      "tourism": "gallery",
      "website": "https://www.sensefineart.com/",
      "addr_state": "CA",
      "addr_city": "Menlo Park",
      "addr_postcode": "94025",
      "addr_street": "Santa Cruz Avenue",
      "addr_housenumber": "845"
    },
    {
      "id": 648,
      "geometry": "POINT (-122.185994 37.44967)",
      "poi_name": "The Main Gallery",
      "osm_id": 2628201948,
      "tourism": "gallery",
      "addr_state": "CA",
      "addr_city": "Menlo Park",
      "addr_postcode": "94025",
      "addr_street": "Santa Cruz Avenue",
      "addr_housenumber": "883"
    },
    {
      "id": 1176,
      "geometry": "POINT (-122.804361 38.067019)",
      "poi_name": "Gallery Route One",
      "osm_id": 2882780805,
      "tourism": "gallery",
      "website": "https://galleryrouteone.org/"
    },
    {
      "id": 1363,
      "geometry": "POINT (-121.504574 38.58465)",
      "poi_name": "Stafford Gallery",
      "osm_id": 2955929532,
      "tourism": "gallery"
    },
    {
      "id": 1952,
      "geometry": "POINT (-121.740978 38.54212)",
      "poi_name": "John Natsoulas Gallery",
      "osm_id": 3226037808,
      "tourism": "gallery",
      "opening_hours": "07:00-19:00",
      "internet_access": "yes",
      "addr_state": "CA",
      "addr_city": "Davis",
      "addr_postcode": "95616",
      "addr_street": "1st Street",
      "addr_housenumber": "521"
    },
    {
      "id": 2712,
      "geometry": "POINT (-122.184917 37.450942)",
      "poi_name": "Simon Breitbard",
      "osm_id": 559832679,
      "description": "Fine art",
      "tourism": "gallery",
      "addr_state": "CA",
      "addr_city": "Menlo Park",
      "addr_postcode": "94025",
      "addr_street": "Santa Cruz Avenue",
      "addr_housenumber": "779"
    },
    {
      "id": 2942,
      "geometry": "POINT (-122.423189 37.806195)",
      "poi_name": "Col Gallery",
      "osm_id": 10087741500,
      "tourism": "gallery",
      "addr_state": "CA",
      "addr_city": "San Francisco",
      "addr_postcode": "94109",
      "addr_street": "Beach Street",
      "addr_housenumber": "887"
    },
    {
      "id": 2966,
      "geometry": "POINT (-122.399241 37.785633)",
      "poi_name": "Berggruen Gallery",
      "osm_id": 10103442907,
      "tourism": "gallery",
      "addr_street": "Hawthorne Street",
      "addr_housenumber": "10"
    },
    {
      "id": 3112,
      "geometry": "POINT (-122.397319 37.779183)",
      "poi_name": "Andrea Schwartz Gallery",
      "osm_id": 10179921398,
      "tourism": "gallery",
      "website": "http://www.asgallery.com/",
      "phone": "+1 415 495 2090",
      "addr_postcode": "94107",
      "addr_street": "4th Street",
      "addr_housenumber": "545"
    },
    {
      "id": 3167,
      "geometry": "POINT (-123.800238 39.305332)",
      "poi_name": "Prentice",
      "osm_id": 10218579693,
      "tourism": "gallery"
    },
    {
      "id": 3215,
      "geometry": "POINT (-122.409068 37.788321)",
      "poi_name": "Chloe Gallery",
      "osm_id": 10239425288,
      "tourism": "gallery",
      "website": "http://www.chloegallery.com",
      "phone": "+1 415-749-1000"
    },
    {
      "id": 3238,
      "geometry": "POINT (-122.502264 37.756723)",
      "poi_name": "The Great Highway",
      "osm_id": 10251330871,
      "tourism": "gallery",
      "website": "https://thegreathighway.com/",
      "addr_state": "CA",
      "addr_city": "San Francisco",
      "addr_postcode": "94122",
      "addr_street": "Lawton Street",
      "addr_housenumber": "3649"
    },
    {
      "id": 3665,
      "geometry": "POINT (-122.270127 37.80409)",
      "poi_name": "Joyce Gordon Gallery",
      "osm_id": 5534711410,
      "tourism": "gallery",
      "addr_state": "CA",
      "addr_city": "Oakland",
      "addr_street": "14th Street",
      "addr_housenumber": "406"
    },
    {
      "id": 4546,
      "geometry": "POINT (-122.492264 37.634102)",
      "poi_name": "7.3.1 Designs",
      "osm_id": 11306432005,
      "tourism": "gallery",
      "phone": "+1-650-735-5437",
      "addr_state": "CA",
      "addr_city": "Pacifica",
      "addr_postcode": "94044",
      "addr_street": "Palmetto Avenue",
      "addr_housenumber": "1932"
    },
    {
      "id": 4554,
      "geometry": "POINT (-122.823084 38.402797)",
      "poi_name": "Retrospect Art Gallery",
      "osm_id": 11321089278,
      "description": "Mid-century modern furniture art gallery",
      "tourism": "gallery"
    },
    {
      "id": 4555,
      "geometry": "POINT (-122.821875 38.403821)",
      "poi_name": "Lori Austin",
      "osm_id": 11321836812,
      "tourism": "gallery",
      "addr_street": "McKinley Street",
      "addr_housenumber": "6790"
    },
    {
      "id": 4768,
      "geometry": "POINT (-122.289375 37.815654)",
      "poi_name": "Metal Haus Gallery",
      "osm_id": 9600802722,
      "tourism": "gallery"
    },
    {
      "id": 4770,
      "geometry": "POINT (-122.275266 37.813388)",
      "poi_name": "Transmission Gallery",
      "osm_id": 9603801381,
      "tourism": "gallery"
    },
    {
      "id": 4870,
      "geometry": "POINT (-122.415253 37.786585)",
      "poi_name": "Mini Mart",
      "osm_id": 9659806925,
      "tourism": "gallery",
      "wheelchair": "yes",
      "website": "https://www.minimartsf.com/",
      "addr_state": "CA",
      "addr_city": "San Francisco",
      "addr_street": "Geary Street",
      "addr_housenumber": "720"
    },
    {
      "id": 4893,
      "geometry": "POINT (-122.4227 37.774778)",
      "poi_name": "Tint Gallery",
      "osm_id": 9672970883,
      "tourism": "gallery",
      "opening_hours": "We-Sa 13:00-19:00; Su 13:00-17:00",
      "website": "https://www.thetintgallery.com/",
      "phone": "+1 415 829 7692",
      "addr_street": "Gough Street",
      "addr_housenumber": "149"
    },
    {
      "id": 5317,
      "geometry": "POINT (-122.498393 37.742185)",
      "poi_name": "Far Out Gallery",
      "osm_id": 718375841,
      "tourism": "gallery",
      "addr_state": "CA",
      "addr_city": "San Francisco",
      "addr_postcode": "94116",
      "addr_street": "Taraval Street",
      "addr_housenumber": "3004"
    },
    {
      "id": 6844,
      "geometry": "POINT (-122.40614 37.792844)",
      "poi_name": "Jessica Silverman",
      "osm_id": 8727307961,
      "tourism": "gallery",
      "website": "https://jessicasilvermangallery.com/",
      "phone": "+1 (415) 255-9508",
      "addr_state": "CA",
      "addr_city": "San Francisco",
      "addr_postcode": "94108",
      "addr_street": "Grant Avenue",
      "addr_housenumber": "621"
    },
    {
      "id": 6958,
      "geometry": "POINT (-122.268261 37.812404)",
      "poi_name": "Gallery 459",
      "osm_id": 8786466216,
      "tourism": "gallery"
    },
    {
      "id": 6962,
      "geometry": "POINT (-122.286507 37.89111)",
      "poi_name": "Art Thou",
      "osm_id": 8787321667,
      "tourism": "gallery",
      "fee": "no",
      "opening_hours": "We-Sa 10:00-14:00",
      "website": "https://www.theartthougallery.com/",
      "phone": "5105257779",
      "addr_state": "CA",
      "addr_city": "Berkeley",
      "addr_postcode": "94707",
      "addr_street": "Solano Avenue",
      "addr_housenumber": "1533"
    },
    {
      "id": 7172,
      "geometry": "POINT (-122.44514 37.770143)",
      "poi_name": "Psychedelic SF",
      "osm_id": 1990455819,
      "description": "Blotter paper/water art",
      "tourism": "gallery",
      "wheelchair": "yes",
      "fee": "no",
      "addr_street": "Haight Street",
      "addr_housenumber": "1399"
    },
    {
      "id": 7255,
      "geometry": "POINT (-122.399331 37.787416)",
      "poi_name": "111 Minna",
      "osm_id": 2026996113,
      "tourism": "gallery",
      "addr_street": "Minna Street",
      "addr_housenumber": "111"
    },
    {
      "id": 7973,
      "geometry": "POINT (-122.715963 38.441964)",
      "poi_name": "The Corner Store Collective",
      "osm_id": 6496551506,
      "description": "Contemporary Art Gallery located in Downtown Santa Rosa. Monthly themed exhibitions feature artists from the Bay Area & around the world.",
      "tourism": "gallery",
      "opening_hours": "\"appointment only\"",
      "phone": "+1-707-292-9580",
      "addr_state": "CA",
      "addr_city": "Santa Rosa",
      "addr_street": "Ross Street",
      "addr_housenumber": "575"
    },
    {
      "id": 8029,
      "geometry": "POINT (-122.71282 38.44157)",
      "poi_name": "J Gallery",
      "osm_id": 6522450241,
      "tourism": "gallery",
      "opening_hours": "Tu-Sa 11:00-18:00; Su 12:00-17:00",
      "website": "https://www.jgalleryfineart.com",
      "phone": "+1-707-521-9093",
      "addr_state": "CA",
      "addr_city": "Santa Rosa",
      "addr_postcode": "95404",
      "addr_street": "D Street",
      "addr_housenumber": "311"
    },
    {
      "id": 8202,
      "geometry": "POINT (-122.716677 38.443751)",
      "poi_name": "Calabi Gallery",
      "osm_id": 6587850130,
      "tourism": "gallery"
    },
    {
      "id": 8276,
      "geometry": "POINT (-122.415593 37.778926)",
      "poi_name": "Mr. and Mrs. George F. Jewett, Jr. Exhibit Gallery",
      "osm_id": 6604085460,
      "tourism": "gallery",
      "fee": "no"
    },
    {
      "id": 8414,
      "geometry": "POINT (-122.997544 38.502155)",
      "poi_name": "Lifvendahl",
      "osm_id": 6684957213,
      "tourism": "gallery"
    },
    {
      "id": 8586,
      "geometry": "POINT (-122.278924 37.797428)",
      "poi_name": "Studios 11",
      "osm_id": 8579954522,
      "tourism": "gallery",
      "addr_street": "2nd Street",
      "addr_housenumber": "560"
    },
    {
      "id": 8666,
      "geometry": "POINT (-122.304306 37.878618)",
      "poi_name": "Shoh",
      "osm_id": 8618224577,
      "tourism": "gallery"
    },
    {
      "id": 9628,
      "geometry": "POINT (-121.318391 37.996184)",
      "poi_name": "LH Horton Jr. Art Gallery",
      "osm_id": 8894435456,
      "tourism": "gallery"
    },
    {
      "id": 9655,
      "geometry": "POINT (-122.285297 37.818925)",
      "poi_name": "Aggregate Space Gallery",
      "osm_id": 8910728453,
      "description": "ASG is a charitable, artist-run exhibition and performance space in West Oakland that prioritizes the exhibition of artwork that generally can\u2019t be seen elsewhere \u2013 our mantra is \u201cInstall the Unimaginable.\u201d",
      "tourism": "gallery",
      "website": "https://aggregatespacegallery.org/",
      "addr_state": "CA",
      "addr_city": "Oakland",
      "addr_postcode": "94607",
      "addr_street": "26th Street",
      "addr_housenumber": "1255"
    },
    {
      "id": 10282,
      "geometry": "POINT (-122.263555 37.853251)",
      "poi_name": "Whosabird",
      "osm_id": 6773474857,
      "tourism": "gallery",
      "fee": "no",
      "opening_hours": "24/7",
      "website": "https://whosabird.com",
      "addr_state": "CA",
      "addr_city": "Berkeley",
      "addr_postcode": "94705",
      "addr_street": "Prince Street",
      "addr_housenumber": "2210"
    },
    {
      "id": 10634,
      "geometry": "POINT (-122.405606 37.791187)",
      "poi_name": "Heaven Art Gallery",
      "osm_id": 6960882346,
      "tourism": "gallery",
      "fee": "no",
      "addr_street": "Grant Avenue",
      "addr_housenumber": "444"
    },
    {
      "id": 10761,
      "geometry": "POINT (-122.253047 37.858269)",
      "poi_name": "Moss Gallery",
      "osm_id": 8026571051,
      "tourism": "gallery"
    },
    {
      "id": 10871,
      "geometry": "POINT (-122.178774 37.451911)",
      "poi_name": "Atherton Fine Art",
      "osm_id": 8105582994,
      "tourism": "gallery",
      "website": "https://artgallerymenlopark.com/",
      "addr_postcode": "94025",
      "addr_street": "El Camino Real",
      "addr_housenumber": "700"
    },
    {
      "id": 10872,
      "geometry": "POINT (-122.182913 37.453361)",
      "poi_name": "Peabody Fine Art Gallery and Framing",
      "osm_id": 8105658050,
      "tourism": "gallery",
      "addr_state": "CA",
      "addr_city": "Menlo Park",
      "addr_postcode": "94025",
      "addr_street": "Santa Cruz Avenue",
      "addr_housenumber": "603"
    },
    {
      "id": 10923,
      "geometry": "POINT (-121.479002 38.576604)",
      "poi_name": "Viewpoint | Photographic Art Center",
      "osm_id": 8147229792,
      "tourism": "gallery",
      "addr_state": "CA",
      "addr_city": "Sacramento",
      "addr_postcode": "95811",
      "addr_street": "J Street",
      "addr_housenumber": "2015"
    },
    {
      "id": 11081,
      "geometry": "POINT (-122.413378 37.788732)",
      "poi_name": "Rebecca Camacho Presents",
      "osm_id": 9849528027,
      "tourism": "gallery",
      "wheelchair": "yes",
      "addr_state": "CA",
      "addr_city": "San Francisco",
      "addr_street": "Sutter Street",
      "addr_housenumber": "794"
    },
    {
      "id": 11082,
      "geometry": "POINT (-122.413852 37.788672)",
      "poi_name": "Glass Rice",
      "osm_id": 9849528031,
      "tourism": "gallery",
      "addr_state": "CA",
      "addr_city": "San Francisco",
      "addr_street": "Sutter Street",
      "addr_housenumber": "808"
    },
    {
      "id": 11083,
      "geometry": "POINT (-122.413939 37.788662)",
      "poi_name": "The Bird Cage",
      "osm_id": 9849528033,
      "tourism": "gallery",
      "wheelchair": "yes",
      "website": "https://spoke-art.com/",
      "addr_state": "CA",
      "addr_city": "San Francisco",
      "addr_street": "Sutter Street",
      "addr_housenumber": "816"
    },
    {
      "id": 11180,
      "geometry": "POINT (-122.160972 38.046782)",
      "poi_name": "Benicia Plein Air Gallery",
      "osm_id": 9878416618,
      "tourism": "gallery",
      "website": "http://beniciapleinair.com/",
      "addr_postcode": "94510",
      "addr_street": "1st Street",
      "addr_housenumber": "307"
    },
    {
      "id": 11181,
      "geometry": "POINT (-122.158653 38.04938)",
      "poi_name": "Happy Life Pottery",
      "osm_id": 9878439517,
      "tourism": "gallery",
      "website": "https://happylifepottery.com/",
      "addr_postcode": "94510",
      "addr_street": "1st Street",
      "addr_housenumber": "632"
    },
    {
      "id": 11511,
      "geometry": "POINT (-122.41866 37.78806)",
      "poi_name": "Modern Eden Gallery",
      "osm_id": 9996421217,
      "tourism": "gallery",
      "website": "https://www.moderneden.com/",
      "phone": "+1 415 9563303",
      "addr_state": "CA",
      "addr_city": "San Francisco",
      "addr_postcode": "94109",
      "addr_street": "Sutter Street",
      "addr_housenumber": "1100"
    },
    {
      "id": 11600,
      "geometry": "POINT (-122.417112 37.786344)",
      "poi_name": "Book & Job Gallery",
      "osm_id": 10016621434,
      "tourism": "gallery",
      "addr_street": "Geary Street",
      "addr_housenumber": "838"
    },
    {
      "id": 11699,
      "geometry": "POINT (-122.407623 37.80119)",
      "poi_name": "Berz Gallery Of African Art",
      "osm_id": 11495567280,
      "tourism": "gallery"
    },
    {
      "id": 11737,
      "geometry": "POINT (-122.421344 37.794467)",
      "poi_name": "Gallery-O-Rama",
      "osm_id": 11511552469,
      "tourism": "gallery",
      "opening_hours": "Fr-Su 03:00-19:00",
      "website": "https://www.galleryorama.com/",
      "addr_postcode": "94109",
      "addr_housenumber": "1920"
    },
    {
      "id": 11803,
      "geometry": "POINT (-121.975706 37.576029)",
      "poi_name": "Smith's Cottage Gallery",
      "osm_id": 11547173437,
      "tourism": "gallery"
    },
    {
      "id": 11823,
      "geometry": "POINT (-122.268067 37.804201)",
      "poi_name": "Dream Farm Commons",
      "osm_id": 11557806884,
      "tourism": "gallery",
      "addr_street": "15th Street",
      "addr_housenumber": "349"
    },
    {
      "id": 11847,
      "geometry": "POINT (-122.414006 37.803571)",
      "poi_name": "Paul Thiebaud Gallery",
      "osm_id": 11579822221,
      "tourism": "gallery",
      "website": "https://www.paulthiebaudgallery.com/"
    },
    {
      "id": 12206,
      "geometry": "POINT (-122.413807 37.788679)",
      "poi_name": "Hashimoto Contemporary",
      "osm_id": 6242792043,
      "tourism": "gallery",
      "website": "https://www.hashimotocontemporary.com/",
      "addr_state": "CA",
      "addr_city": "San Francisco",
      "addr_postcode": "94109",
      "addr_street": "Sutter Street",
      "addr_housenumber": "804"
    },
    {
      "id": 12882,
      "geometry": "POINT (-122.270009 37.805836)",
      "poi_name": "Black Arts Movement Business District",
      "osm_id": 3927989512,
      "tourism": "gallery",
      "website": "http://www.bambdcdc.com/",
      "addr_state": "CA",
      "addr_city": "Oakland",
      "addr_postcode": "94612",
      "addr_street": "Broadway",
      "addr_housenumber": "1540"
    },
    {
      "id": 12950,
      "geometry": "POINT (-122.270019 37.807065)",
      "poi_name": "Oakstop Gallery",
      "osm_id": 3981344396,
      "tourism": "gallery"
    },
    {
      "id": 13075,
      "geometry": "POINT (-122.414159 37.787747)",
      "poi_name": "John Pence Gallery",
      "osm_id": 4046025013,
      "tourism": "gallery",
      "website": "https://www.johnpence.com/",
      "phone": "+1 415 4411138",
      "addr_state": "CA",
      "addr_city": "San Francisco",
      "addr_postcode": "94109",
      "addr_street": "Post Street",
      "addr_housenumber": "750"
    },
    {
      "id": 13077,
      "geometry": "POINT (-122.266466 37.814267)",
      "poi_name": "The Moon",
      "osm_id": 4049345779,
      "tourism": "gallery"
    },
    {
      "id": 13078,
      "geometry": "POINT (-122.267142 37.814386)",
      "poi_name": "Vessel Gallery",
      "osm_id": 4049345781,
      "tourism": "gallery"
    },
    {
      "id": 13079,
      "geometry": "POINT (-122.267716 37.814474)",
      "poi_name": "Slate Contemporary",
      "osm_id": 4049345782,
      "tourism": "gallery"
    },
    {
      "id": 13080,
      "geometry": "POINT (-122.267274 37.814405)",
      "poi_name": "Mercury 20 Gallery",
      "osm_id": 4049345783,
      "tourism": "gallery"
    },
    {
      "id": 13081,
      "geometry": "POINT (-122.266584 37.81429)",
      "poi_name": "Oakopolis",
      "osm_id": 4049345787,
      "tourism": "gallery"
    },
    {
      "id": 13082,
      "geometry": "POINT (-122.267502 37.814436)",
      "poi_name": "Wendy Daniel",
      "osm_id": 4049345788,
      "tourism": "gallery"
    },
    {
      "id": 13254,
      "geometry": "POINT (-122.247428 37.81191)",
      "poi_name": "Studio Grand",
      "osm_id": 4080771382,
      "tourism": "gallery",
      "website": "https://www.studiograndoakland.org/",
      "addr_state": "CA",
      "addr_city": "Oakland",
      "addr_postcode": "94610",
      "addr_street": "Grand Avenue",
      "addr_housenumber": "3234"
    },
    {
      "id": 13445,
      "geometry": "POINT (-122.284708 37.819394)",
      "poi_name": "Oakland Terminal",
      "osm_id": 4096811045,
      "tourism": "gallery"
    },
    {
      "id": 13932,
      "geometry": "POINT (-122.286404 37.891115)",
      "poi_name": "Nielsen Arts",
      "osm_id": 4193070046,
      "tourism": "gallery",
      "fee": "no",
      "opening_hours": "Mo-Sa 10:00-18:00",
      "website": "https://www.nielsenarts.com/",
      "shop": "frame"
    },
    {
      "id": 14526,
      "geometry": "POINT (-122.285476 37.84904)",
      "poi_name": "Grease Diner",
      "osm_id": 4650647038,
      "description": "Laurie Shapiro Gallery: gifts cards zines clothing classes workshops",
      "tourism": "gallery",
      "website": "https://www.thegreasediner.com/",
      "addr_state": "CA",
      "addr_street": "San Pablo Avenue",
      "addr_housenumber": "6604"
    },
    {
      "id": 14894,
      "geometry": "POINT (-122.266326 37.812441)",
      "poi_name": "OMI Gallery",
      "osm_id": 4749976949,
      "tourism": "gallery",
      "addr_street": "Broadway",
      "addr_housenumber": "2315"
    },
    {
      "id": 14913,
      "geometry": "POINT (-122.416411 37.764306)",
      "poi_name": "A Very Small Gallery",
      "osm_id": 4761684656,
      "tourism": "gallery"
    },
    {
      "id": 15052,
      "geometry": "POINT (-122.271124 37.805318)",
      "poi_name": "Pro Arts Gallery",
      "osm_id": 4793646998,
      "tourism": "gallery",
      "opening_hours": "Tu-Fr 12:00-18:00",
      "website": "https://proartsgallery.org/",
      "addr_state": "CA",
      "addr_city": "Oakland",
      "addr_postcode": "94612",
      "addr_street": "Kahn's Alley",
      "addr_housenumber": "150"
    },
    {
      "id": 15603,
      "geometry": "POINT (-122.407421 37.795574)",
      "poi_name": "41ross",
      "osm_id": 9398686060,
      "tourism": "gallery",
      "opening_hours": "We-Sa 11:00-16:00",
      "website": "https://www.41ross.org/",
      "addr_state": "CA",
      "addr_city": "San Francisco",
      "addr_postcode": "94108",
      "addr_street": "Ross Alley",
      "addr_housenumber": "41"
    },
    {
      "id": 15610,
      "geometry": "POINT (-122.415429 37.788274)",
      "poi_name": "Vanitas Contemporary",
      "osm_id": 9408415650,
      "tourism": "gallery",
      "opening_hours": "Fr-Sa 12:00-17:00; Tu-Th \"by appointment\"",
      "website": "https://www.vanitascontemporary.com/",
      "phone": "+1 415 9908784",
      "addr_state": "CA",
      "addr_city": "San Francisco",
      "addr_street": "Sutter Street",
      "addr_housenumber": "909"
    },
    {
      "id": 15611,
      "geometry": "POINT (-122.415368 37.78828)",
      "poi_name": "Soft Times",
      "osm_id": 9408415651,
      "tourism": "gallery",
      "opening_hours": "We-Fr 12:00-17:00; Sa 11:00-16:00",
      "website": "https://www.softtimesgallery.com/",
      "addr_state": "CA",
      "addr_city": "San Francisco",
      "addr_postcode": "94109",
      "addr_street": "Sutter Street",
      "addr_housenumber": "905"
    },
    {
      "id": 15815,
      "geometry": "POINT (-122.405733 37.790349)",
      "poi_name": "Serge Sorokko Gallery",
      "osm_id": 9544205106,
      "tourism": "gallery",
      "wheelchair": "yes",
      "fee": "no",
      "website": "https://www.sorokko.com/",
      "phone": "+1 415 4217770",
      "addr_state": "CA",
      "addr_city": "San Francisco",
      "addr_street": "Grant Avenue",
      "addr_housenumber": "365"
    },
    {
      "id": 15894,
      "geometry": "POINT (-122.405489 37.789249)",
      "poi_name": "Gefen Gallery",
      "osm_id": 9590578299,
      "tourism": "gallery",
      "website": "https://gefengallery.com/315-grant-ave/"
    },
    {
      "id": 16024,
      "geometry": "POINT (-122.268586 37.812627)",
      "poi_name": "Johansson Projects",
      "osm_id": 311252178,
      "tourism": "gallery"
    },
    {
      "id": 18997,
      "geometry": "POINT (-122.300944 37.871465)",
      "poi_name": "Stream in the meadow photography",
      "osm_id": 2475992668,
      "tourism": "gallery",
      "wheelchair": "yes",
      "addr_state": "CA",
      "addr_city": "Berkeley",
      "addr_housenumber": "1717 C"
    },
    {
      "id": 19356,
      "geometry": "POINT (-122.394971 37.758402)",
      "poi_name": "Maracuja Gallery",
      "osm_id": 10733880549,
      "tourism": "gallery",
      "fee": "no",
      "opening_hours": "\"By appointment\""
    },
    {
      "id": 19608,
      "geometry": "POINT (-122.406447 37.778095)",
      "poi_name": "Siy Gallery",
      "osm_id": 10833332996,
      "tourism": "gallery"
    },
    {
      "id": 19819,
      "geometry": "POINT (-122.251437 37.837684)",
      "poi_name": "SoMa",
      "osm_id": 10895285076,
      "tourism": "gallery",
      "opening_hours": "We,Th 12:--19:00; Fr 12:00-20:00; Sa 11:00-19:00; Su 10:00-17:00",
      "website": "https://somaartgallery.com",
      "addr_state": "CA",
      "addr_city": "Oakland",
      "addr_postcode": "94618",
      "addr_street": "College Avenue",
      "addr_housenumber": "5289"
    },
    {
      "id": 19829,
      "geometry": "POINT (-123.207238 39.149314)",
      "poi_name": "Corner Gallery",
      "osm_id": 10901082384,
      "tourism": "gallery"
    },
    {
      "id": 19862,
      "geometry": "POINT (-122.397043 37.776525)",
      "poi_name": "63 Bluxome Gallery",
      "osm_id": 10917024146,
      "tourism": "gallery",
      "addr_street": "Bluxome Street",
      "addr_housenumber": "63"
    },
    {
      "id": 20618,
      "geometry": "POINT (-122.400693 37.786865)",
      "poi_name": "SF Camerawork",
      "osm_id": 1206749885,
      "tourism": "gallery"
    },
    {
      "id": 21552,
      "geometry": "POINT (-122.252082 37.848826)",
      "poi_name": "Bosko's Gallery",
      "osm_id": 10314109831,
      "tourism": "gallery",
      "wheelchair": "yes",
      "fee": "no",
      "addr_street": "College Avenue",
      "addr_housenumber": "6038"
    },
    {
      "id": 21566,
      "geometry": "POINT (-122.403254 37.79588)",
      "poi_name": "Foster Gwin Gallery",
      "osm_id": 10543783374,
      "tourism": "gallery",
      "website": "https://www.fostergwin.com/",
      "addr_street": "Montgomery Street",
      "addr_housenumber": "712"
    },
    {
      "id": 21625,
      "geometry": "POINT (-122.251905 37.848012)",
      "poi_name": "Thelma Harris Art Gallery",
      "osm_id": 10580484622,
      "tourism": "gallery"
    },
    {
      "id": 21670,
      "geometry": "POINT (-122.417597 37.787965)",
      "poi_name": "Smaart Gallery & Studio",
      "osm_id": 10602156460,
      "description": "Art classes and gallery",
      "tourism": "gallery",
      "website": "https://www.smaartstudio.com/",
      "addr_street": "Sutter Street",
      "addr_housenumber": "1045"
    },
    {
      "id": 21704,
      "geometry": "POINT (-122.458459 37.724202)",
      "poi_name": "Ingleside Gallery",
      "osm_id": 10610311544,
      "tourism": "gallery",
      "addr_postcode": "94112",
      "addr_street": "Ocean Avenue",
      "addr_housenumber": "1507"
    },
    {
      "id": 21706,
      "geometry": "POINT (-122.179316 37.441794)",
      "poi_name": "Portola Art Gallery",
      "osm_id": 10612899264,
      "tourism": "gallery",
      "addr_state": "CA",
      "addr_city": "Menlo Park",
      "addr_postcode": "94025",
      "addr_street": "Arbor Road",
      "addr_housenumber": "75"
    },
    {
      "id": 21719,
      "geometry": "POINT (-122.418254 37.784334)",
      "poi_name": "Modernism",
      "osm_id": 10623964563,
      "tourism": "gallery"
    },
    {
      "id": 21750,
      "geometry": "POINT (-122.411165 37.764144)",
      "poi_name": "Vista Point",
      "osm_id": 10656556517,
      "tourism": "gallery",
      "wheelchair": "yes",
      "website": "https://www.vistapointstudio.com/",
      "addr_street": "Florida Street",
      "addr_housenumber": "405"
    },
    {
      "id": 21751,
      "geometry": "POINT (-122.410733 37.751209)",
      "poi_name": "EUQINOM Gallery",
      "osm_id": 10656580600,
      "tourism": "gallery",
      "wheelchair": "yes",
      "website": "https://www.euqinomgallery.com/",
      "phone": "+1 415-823-2990",
      "addr_street": "Alabama Street",
      "addr_housenumber": "1295"
    },
    {
      "id": 21752,
      "geometry": "POINT (-122.416988 37.755457)",
      "poi_name": "House of Seiko",
      "osm_id": 10656580601,
      "tourism": "gallery",
      "wheelchair": "yes",
      "opening_hours": "Mo-Th off; Fr-Su 11:00-18:00",
      "website": "https://houseofseiko.info/",
      "addr_street": "22nd Street",
      "addr_housenumber": "3109"
    },
    {
      "id": 21753,
      "geometry": "POINT (-122.409558 37.752882)",
      "poi_name": "Sirron Norris Studio & Gallery",
      "osm_id": 10656846904,
      "tourism": "gallery",
      "wheelchair": "yes",
      "opening_hours": "Appointment Only",
      "website": "http://www.sirronnorris.com/studiogallery",
      "addr_street": "24th Street",
      "addr_housenumber": "2860"
    },
    {
      "id": 21859,
      "geometry": "POINT (-122.410366 37.781934)",
      "poi_name": "Luggage Store Gallery",
      "osm_id": 10695669958,
      "tourism": "gallery",
      "opening_hours": "We-Sa 12:00-17:00",
      "website": "https://luggagestoregallerysf.org/",
      "addr_state": "CA",
      "addr_city": "San Francisco",
      "addr_postcode": "94103",
      "addr_street": "Market Street",
      "addr_housenumber": "1007"
    },
    {
      "id": 23215,
      "geometry": "POINT (-121.486262 38.558917)",
      "poi_name": "Soul Collective Art",
      "osm_id": 5072617872,
      "tourism": "gallery",
      "addr_street": "21st Street",
      "addr_housenumber": "2547"
    },
    {
      "id": 23216,
      "geometry": "POINT (-121.486897 38.556361)",
      "poi_name": "Park Fine Art",
      "osm_id": 5072639830,
      "tourism": "gallery",
      "addr_street": "21st Street",
      "addr_housenumber": "2673"
    },
    {
      "id": 24129,
      "geometry": "POINT (-122.407407 37.789485)",
      "poi_name": "Sin Titulo",
      "osm_id": 9339899670,
      "tourism": "gallery",
      "wheelchair": "limited",
      "fee": "no",
      "addr_state": "CA",
      "addr_city": "San Francisco",
      "addr_street": "Sutter Street",
      "addr_housenumber": "418"
    },
    {
      "id": 24130,
      "geometry": "POINT (-122.4079 37.7892)",
      "poi_name": "Montague Gallery",
      "osm_id": 9339899671,
      "tourism": "gallery",
      "opening_hours": "Tu-Sa 11:00-17:00 || \"by appointment\"",
      "website": "https://montaguegallery.com/",
      "phone": "+1 415 9644978",
      "addr_state": "CA",
      "addr_city": "San Francisco",
      "addr_postcode": "94108",
      "addr_street": "Sutter Street",
      "addr_housenumber": "445"
    },
    {
      "id": 24163,
      "geometry": "POINT (-122.055963 37.658368)",
      "poi_name": "University Art Gallery",
      "osm_id": 9359564914,
      "tourism": "gallery"
    },
    {
      "id": 24327,
      "geometry": "POINT (-122.399109 37.785527)",
      "poi_name": "Crown Point Press",
      "osm_id": 11008350407,
      "tourism": "gallery",
      "opening_hours": "Mo-Fr 09:00-17:00",
      "website": "https://crownpoint.com/",
      "wikidata": "Q60740068",
      "addr_state": "CA",
      "addr_city": "San Francisco",
      "addr_postcode": "94105",
      "addr_street": "Hawthorne Street",
      "addr_housenumber": "20"
    },
    {
      "id": 24328,
      "geometry": "POINT (-122.471244 37.78626)",
      "poi_name": "Avenue 12 Gallery",
      "osm_id": 11009374817,
      "tourism": "gallery",
      "wheelchair": "yes",
      "website": "https://avenue12gallery.com",
      "phone": "+1 415-750-9955",
      "addr_street": "Lake Street",
      "addr_housenumber": "1101"
    },
    {
      "id": 24353,
      "geometry": "POINT (-123.046058 38.32962)",
      "poi_name": "Meredith Pier Public Art Project",
      "osm_id": 11015169805,
      "tourism": "gallery",
      "operator": "Creative Sonoma"
    },
    {
      "id": 24361,
      "geometry": "POINT (-122.39546 37.781325)",
      "poi_name": "Gallery 16",
      "osm_id": 11020495314,
      "tourism": "gallery",
      "opening_hours": "Tu-Fr 10:00-17:00; Sa 11:00-17:00",
      "website": "https://gallery16.com/",
      "wikidata": "Q5518981",
      "addr_street": "3rd Street",
      "addr_housenumber": "501"
    },
    {
      "id": 24784,
      "geometry": "POINT (-122.267202 37.804086)",
      "poi_name": "Burnt Oak Gallery",
      "osm_id": 4320499539,
      "tourism": "gallery",
      "addr_street": "15th Street",
      "addr_housenumber": "306"
    },
    {
      "id": 25001,
      "geometry": "POINT (-122.409438 37.777063)",
      "poi_name": "Langton Labs",
      "osm_id": 4370295596,
      "tourism": "gallery",
      "addr_state": "CA",
      "addr_city": "San Francisco",
      "addr_postcode": "94103",
      "addr_street": "Langton Street",
      "addr_housenumber": "32"
    },
    {
      "id": 25002,
      "geometry": "POINT (-122.410832 37.777056)",
      "poi_name": "Alter Space",
      "osm_id": 4370393289,
      "tourism": "gallery",
      "addr_state": "CA",
      "addr_city": "San Francisco",
      "addr_postcode": "94127",
      "addr_street": "Howard Street",
      "addr_housenumber": "1158"
    },
    {
      "id": 25357,
      "geometry": "POINT (-121.121026 38.649764)",
      "poi_name": "Painted",
      "osm_id": 4460957383,
      "tourism": "gallery"
    },
    {
      "id": 25713,
      "geometry": "POINT (-123.798659 39.306048)",
      "poi_name": "Lansing St gallery",
      "osm_id": 4581695600,
      "tourism": "gallery",
      "addr_state": "CA",
      "addr_city": "Mendocino",
      "addr_postcode": "95460",
      "addr_street": "Lansing Street",
      "addr_housenumber": "10466"
    },
    {
      "id": 25714,
      "geometry": "POINT (-123.800897 39.306053)",
      "poi_name": "The Mendocino Beacon",
      "osm_id": 4581695601,
      "tourism": "gallery"
    },
    {
      "id": 25717,
      "geometry": "POINT (-122.429195 37.465177)",
      "poi_name": "Light and Art",
      "osm_id": 4581997336,
      "tourism": "gallery"
    },
    {
      "id": 25718,
      "geometry": "POINT (-122.429366 37.465525)",
      "poi_name": "Coastal Arts League",
      "osm_id": 4582002141,
      "tourism": "gallery"
    },
    {
      "id": 25850,
      "geometry": "POINT (-122.406072 37.788509)",
      "poi_name": "Speciality Shops Art Gallery",
      "osm_id": 4625205008,
      "tourism": "gallery",
      "addr_state": "CA",
      "addr_city": "San Francisco",
      "addr_street": "Post Street",
      "addr_housenumber": "251"
    },
    {
      "id": 25867,
      "geometry": "POINT (-122.409172 37.788308)",
      "poi_name": "Gallery 444",
      "osm_id": 4628571737,
      "tourism": "gallery",
      "opening_hours": "10:00-17:00",
      "addr_street": "Post Street",
      "addr_housenumber": "444"
    },
    {
      "id": 25887,
      "geometry": "POINT (-122.415423 37.739051)",
      "poi_name": "Inclusions Gallery",
      "osm_id": 5735235209,
      "tourism": "gallery",
      "opening_hours": "We-Sa 13:00-19:00; Su 13:00-18:00",
      "website": "https://www.inclusionsgallery.com/",
      "phone": "415-817-1493",
      "addr_street": "Cortland Avenue",
      "addr_housenumber": "627"
    },
    {
      "id": 26758,
      "geometry": "POINT (-122.414808 37.752579)",
      "poi_name": "Adobe Books and Arts Cooperative",
      "osm_id": 6032494975,
      "description": "Cooperatively run, community oriented used book store with an art gallery in the back and regular literary, music and art events.",
      "tourism": "gallery",
      "opening_hours": "Mo-Su 12:00-19:00",
      "website": "http://www.adobebooks.com/",
      "shop": "books",
      "phone": "+1 415 8643936",
      "addr_state": "CA",
      "addr_city": "San Francisco",
      "addr_postcode": "94110",
      "addr_street": "24th Street",
      "addr_housenumber": "3130"
    },
    {
      "id": 77,
      "geometry": "POINT (-122.272777 37.811782)",
      "poi_name": "Rock Paper Scissors",
      "osm_id": 428101674,
      "tourism": "gallery"
    }
  ],
  "answer_type": "name",
  "question_entities": {
    "[1]": {
      "main_category": "tourism",
      "sub_category": "gallery"
    },
    "[2]": {
      "distance": 140000,
      "text": "140 kilometers"
    },
    "[3]": {
      "main_category": "tourism",
      "sub_category": "zoo",
      "display_name": "Safari West, Sant Rosa, CA",
      "geo_wkt": "POINT (-122.695392 38.557332)",
      "poi": {
        "id": 14066,
        "geometry": "POINT (-122.695392 38.557332)",
        "poi_name": "Safari West",
        "osm_id": 4217522083,
        "tourism": "zoo",
        "website": "https://www.safariwest.com/",
        "phone": "(800) 616-2695",
        "wikidata": "Q7398400",
        "addr_state": "CA",
        "addr_city": "Sant Rosa",
        "addr_postcode": "95404",
        "addr_street": "Porter Creek Road",
        "addr_housenumber": "3115"
      }
    }
  },
  "id": 831,
  "type": "range+name"
}