{
  "question": "What's the distance to a university from S 22nd and Sears St. Garden, Philadelphia, PA within 190 kilometers?",
  "sql": "SELECT *, ST_Distance(ST_GeomFromText('POINT (-75.180513 39.935321)',4326)::geography, pois.geometry) AS distance FROM pois\nWHERE ST_DWithin(pois.geometry, ST_GeomFromText('POINT (-75.180513 39.935321)',4326)::geography, 190000)\nAND amenity = 'university';\n",
  "answers": [
    {
      "id": 34678,
      "geometry": "POINT (-73.990094 40.748387)",
      "poi_name": "CUNY School of Professional Studies",
      "osm_id": 2703449228,
      "amenity": "university",
      "operator": "City University of New York",
      "addr_state": "NY",
      "addr_city": "New York",
      "addr_postcode": "10001",
      "addr_street": "West 31st Street",
      "addr_housenumber": "119",
      "distance": 135576.3079998
    },
    {
      "id": 35055,
      "geometry": "POINT (-73.987103 40.749698)",
      "poi_name": "Mercy University",
      "osm_id": 2709702410,
      "amenity": "university",
      "addr_postcode": "10001",
      "addr_street": "West 34th Street",
      "addr_housenumber": "47",
      "distance": 135862.10093989
    },
    {
      "id": 35073,
      "geometry": "POINT (-73.983176 40.770074)",
      "poi_name": "New York Institute of Technology",
      "osm_id": 2710082455,
      "amenity": "university",
      "addr_state": "NY",
      "addr_city": "New York",
      "addr_postcode": "10023",
      "addr_street": "West 61st Street",
      "addr_housenumber": "26",
      "distance": 137613.63211296
    },
    {
      "id": 35095,
      "geometry": "POINT (-73.993669 40.736284)",
      "poi_name": "Student Study Center",
      "osm_id": 2710177862,
      "amenity": "university",
      "operator": "The New School",
      "addr_city": "New York",
      "addr_postcode": "10011",
      "addr_street": "5th Avenue",
      "addr_housenumber": "90",
      "distance": 134463.91104273
    },
    {
      "id": 35178,
      "geometry": "POINT (-74.033047 40.726699)",
      "poi_name": "University of Phoenix",
      "osm_id": 2712074758,
      "amenity": "university",
      "distance": 131263.14629029
    },
    {
      "id": 39110,
      "geometry": "POINT (-75.129394 40.086172)",
      "poi_name": "Salus University",
      "osm_id": 2903322114,
      "amenity": "university",
      "website": "https://www.salus.edu/",
      "phone": "+1-215-780-1400",
      "wikidata": "Q7406311",
      "addr_state": "PA",
      "addr_city": "Elkins Park",
      "addr_postcode": "19027",
      "addr_street": "Old York Road",
      "addr_housenumber": "8360",
      "distance": 17309.00260489
    },
    {
      "id": 44980,
      "geometry": "POINT (-74.199445 40.858358)",
      "poi_name": "John J. Cali School of Music",
      "osm_id": 3187535835,
      "amenity": "university",
      "distance": 132068.73787126
    },
    {
      "id": 57741,
      "geometry": "POINT (-75.192951 39.952747)",
      "poi_name": "Jaffe",
      "osm_id": 5349684421,
      "amenity": "university",
      "wheelchair": "yes",
      "addr_city": "Philadelphia",
      "addr_postcode": "19104",
      "addr_street": "Woodland Walk",
      "addr_housenumber": "3405",
      "distance": 2207.66166308
    },
    {
      "id": 58218,
      "geometry": "POINT (-75.340179 40.03575)",
      "poi_name": "Villanova University",
      "osm_id": 5368369743,
      "amenity": "university",
      "wheelchair": "yes",
      "distance": 17615.9973434
    },
    {
      "id": 63022,
      "geometry": "POINT (-74.197392 40.946212)",
      "poi_name": "Science Hall East",
      "osm_id": 5597728216,
      "amenity": "university",
      "addr_state": "NJ",
      "addr_city": "Wayne",
      "addr_postcode": "07470",
      "addr_street": "Pompton Road",
      "addr_housenumber": "300",
      "distance": 139847.21443592
    },
    {
      "id": 63023,
      "geometry": "POINT (-74.197766 40.946744)",
      "poi_name": "Science Hall West",
      "osm_id": 5597728217,
      "amenity": "university",
      "addr_state": "NJ",
      "addr_city": "Wayne",
      "addr_postcode": "07470",
      "addr_street": "Pompton Road",
      "addr_housenumber": "300",
      "distance": 139875.57137896
    },
    {
      "id": 63024,
      "geometry": "POINT (-74.19993 40.945873)",
      "poi_name": "Speert Hall",
      "osm_id": 5597729522,
      "amenity": "university",
      "addr_state": "NJ",
      "addr_city": "Wayne",
      "addr_postcode": "07470",
      "addr_street": "Pompton Road",
      "addr_housenumber": "300",
      "distance": 139688.731916
    },
    {
      "id": 63245,
      "geometry": "POINT (-74.222716 40.96713)",
      "poi_name": "Russ Berrie Institute for Professional Sales",
      "osm_id": 5605978384,
      "amenity": "university",
      "addr_state": "NJ",
      "addr_city": "Wayne",
      "addr_postcode": "07470",
      "addr_street": "Valley Road",
      "addr_housenumber": "1600",
      "distance": 140457.61545694
    },
    {
      "id": 63246,
      "geometry": "POINT (-74.222484 40.967732)",
      "poi_name": "Role Play Bldg",
      "osm_id": 5605978385,
      "amenity": "university",
      "addr_state": "NJ",
      "addr_city": "Wayne",
      "addr_postcode": "07470",
      "addr_street": "Valley Road",
      "addr_housenumber": "1600",
      "distance": 140523.23883366
    },
    {
      "id": 63247,
      "geometry": "POINT (-74.222565 40.967502)",
      "poi_name": "William Paterson University School of Continuing and Professional Education",
      "osm_id": 5605978386,
      "amenity": "university",
      "addr_state": "NJ",
      "addr_city": "Wayne",
      "addr_postcode": "07470",
      "addr_street": "Valley Road",
      "addr_housenumber": "1600",
      "distance": 140498.57434721
    },
    {
      "id": 64141,
      "geometry": "POINT (-73.576903 40.801055)",
      "poi_name": "Woodlands Residence Halls",
      "osm_id": 5641013418,
      "amenity": "university",
      "internet_access": "wlan",
      "distance": 166704.29783607
    },
    {
      "id": 69468,
      "geometry": "POINT (-76.601597 39.282443)",
      "poi_name": "Johns Hopkins Carey Business School",
      "osm_id": 11306162108,
      "amenity": "university",
      "wikidata": "Q5039173",
      "distance": 141942.51058143
    },
    {
      "id": 77462,
      "geometry": "POINT (-76.865455 40.797599)",
      "poi_name": "Susquehanna University",
      "osm_id": 35127941,
      "amenity": "university",
      "distance": 172182.81975292
    },
    {
      "id": 77476,
      "geometry": "POINT (-75.400549 40.080379)",
      "poi_name": "University of Phoenix Wayne Campus",
      "osm_id": 693259553,
      "amenity": "university",
      "distance": 24746.56706685
    },
    {
      "id": 80601,
      "geometry": "POINT (-73.995999 40.731119)",
      "poi_name": "NYU Graduate School of Arts and Sciences",
      "osm_id": 886430773,
      "amenity": "university",
      "distance": 133939.27010615
    },
    {
      "id": 85574,
      "geometry": "POINT (-73.994276 40.72946)",
      "poi_name": "NYU Philosophy Department",
      "osm_id": 1882727600,
      "amenity": "university",
      "distance": 133928.86498563
    },
    {
      "id": 87026,
      "geometry": "POINT (-76.881117 40.262412)",
      "poi_name": "Temple University Harrisburg",
      "osm_id": 1966207495,
      "amenity": "university",
      "distance": 149487.72339199
    },
    {
      "id": 94285,
      "geometry": "POINT (-75.193841 39.95325)",
      "poi_name": "University of Pennsylvania",
      "osm_id": 2222508794,
      "amenity": "university",
      "addr_postcode": "19104",
      "addr_street": "Walnut Street",
      "addr_housenumber": "3451",
      "distance": 2293.55352506
    },
    {
      "id": 97036,
      "geometry": "POINT (-73.605891 40.809909)",
      "poi_name": "NYIT College of Osteopathic Medicine",
      "osm_id": 6456703204,
      "amenity": "university",
      "website": "https://www.nyit.edu/medicine",
      "distance": 165267.77688796
    },
    {
      "id": 111642,
      "geometry": "POINT (-74.198927 40.857864)",
      "poi_name": "Russ Hall",
      "osm_id": 3757752848,
      "amenity": "university",
      "distance": 132054.14189074
    },
    {
      "id": 111643,
      "geometry": "POINT (-74.198244 40.858318)",
      "poi_name": "Freeman Hall",
      "osm_id": 3757804483,
      "amenity": "university",
      "distance": 132129.74681725
    },
    {
      "id": 115429,
      "geometry": "POINT (-74.170524 40.745093)",
      "poi_name": "Rutgers Business School",
      "osm_id": 8895070621,
      "amenity": "university",
      "distance": 124295.57584842
    },
    {
      "id": 117920,
      "geometry": "POINT (-74.173198 40.740548)",
      "poi_name": "Rutgers Law School",
      "osm_id": 9017988882,
      "amenity": "university",
      "operator": "Rutgers University of New Jersey",
      "distance": 123775.79842037
    },
    {
      "id": 117921,
      "geometry": "POINT (-74.173153 40.74044)",
      "poi_name": "Rutgers School of Criminal Justice",
      "osm_id": 9017988883,
      "amenity": "university",
      "operator": "Rutgers University of New Jersey",
      "distance": 123769.81711222
    },
    {
      "id": 126531,
      "geometry": "POINT (-75.200049 39.950897)",
      "poi_name": "University of Pennsylvania School of Veterinary Medicine",
      "osm_id": 7009010681,
      "amenity": "university",
      "operator": "University of Pennsylvania",
      "distance": 2403.86436359
    },
    {
      "id": 126962,
      "geometry": "POINT (-73.542555 41.052229)",
      "poi_name": "UCONN Stamford Dorms",
      "osm_id": 8014918079,
      "amenity": "university",
      "addr_state": "CT",
      "addr_city": "Stamford",
      "addr_postcode": "06901",
      "addr_street": "Washington Boulevard",
      "addr_housenumber": "914",
      "distance": 186176.66681553
    },
    {
      "id": 151729,
      "geometry": "POINT (-73.950469 40.817679)",
      "poi_name": "The Bernard and Anne Spitzer School of Architecture",
      "osm_id": 4111168785,
      "amenity": "university",
      "distance": 143215.41445103
    },
    {
      "id": 158187,
      "geometry": "POINT (-73.999408 40.730677)",
      "poi_name": "New York University School of Law",
      "osm_id": 4738808806,
      "amenity": "university",
      "wheelchair": "yes",
      "operator": "New York University",
      "wikidata": "Q846173",
      "addr_state": "NY",
      "addr_city": "New York",
      "addr_postcode": "10012",
      "addr_street": "Washington Square South",
      "addr_housenumber": "40",
      "distance": 133689.51190297
    },
    {
      "id": 158208,
      "geometry": "POINT (-75.209809 40.699473)",
      "poi_name": "Lafayette College Admissions Office",
      "osm_id": 4739108923,
      "amenity": "university",
      "distance": 84888.54316148
    },
    {
      "id": 158346,
      "geometry": "POINT (-73.995686 40.728648)",
      "poi_name": "Courant Institute of Mathematical Sciences",
      "osm_id": 4743911217,
      "amenity": "university",
      "internet_access": "no",
      "wikidata": "Q946028",
      "addr_state": "NY",
      "addr_city": "New York",
      "addr_postcode": "10012",
      "addr_street": "Mercer Street",
      "addr_housenumber": "251",
      "distance": 133779.79581454
    },
    {
      "id": 158508,
      "geometry": "POINT (-76.514364 40.332402)",
      "poi_name": "Lebanon Valley College",
      "osm_id": 4751392048,
      "amenity": "university",
      "website": "https://www.lvc.edu/",
      "addr_state": "PA",
      "addr_city": "Annville",
      "addr_postcode": "17003",
      "addr_street": "North College Avenue",
      "distance": 121929.19050169
    },
    {
      "id": 166475,
      "geometry": "POINT (-75.36118 40.601)",
      "poi_name": "Lehigh University Mountaintop Campus",
      "osm_id": 261604596,
      "amenity": "university",
      "distance": 75497.30904032
    },
    {
      "id": 166476,
      "geometry": "POINT (-75.356854 40.586779)",
      "poi_name": "Lehigh University Goodman Campus",
      "osm_id": 261609954,
      "amenity": "university",
      "distance": 73876.68511051
    },
    {
      "id": 167460,
      "geometry": "POINT (-77.107202 40.279254)",
      "poi_name": "Elliots School",
      "osm_id": 357366210,
      "amenity": "university",
      "distance": 168646.37689761
    },
    {
      "id": 167484,
      "geometry": "POINT (-73.954912 40.764752)",
      "poi_name": "Weill Cornell Medical College",
      "osm_id": 357573246,
      "amenity": "university",
      "wikidata": "Q3567094",
      "distance": 139008.40210568
    },
    {
      "id": 167485,
      "geometry": "POINT (-73.606206 40.811475)",
      "poi_name": "New York Institute of Technology",
      "osm_id": 357573252,
      "amenity": "university",
      "distance": 165347.14302213
    },
    {
      "id": 167486,
      "geometry": "POINT (-74.091114 40.621392)",
      "poi_name": "Saint John's University Staten Island Campus",
      "osm_id": 357574570,
      "amenity": "university",
      "distance": 119945.92828759
    },
    {
      "id": 167503,
      "geometry": "POINT (-73.983102 40.773839)",
      "poi_name": "The Juilliard School",
      "osm_id": 357607753,
      "amenity": "university",
      "website": "https://www.juilliard.edu/",
      "internet_access": "wlan",
      "phone": "+1-212-799-5000",
      "wikidata": "Q503246",
      "addr_state": "NY",
      "addr_city": "New York",
      "addr_postcode": "10023-6588",
      "addr_street": "Lincoln Center Plaza",
      "addr_housenumber": "60",
      "distance": 137898.11573244
    },
    {
      "id": 167509,
      "geometry": "POINT (-73.427778 40.752778)",
      "poi_name": "Farmingdale State College (SUNY)",
      "osm_id": 357615813,
      "amenity": "university",
      "operator": "State of New York",
      "website": "https://www.farmingdale.edu/",
      "phone": "631-420-2000",
      "official_name": "Farmingdale State College (SUNY)",
      "addr_state": "NY",
      "addr_city": "Farmingdale",
      "addr_postcode": "11735-1021",
      "addr_street": "Broad Hollow Road",
      "addr_housenumber": "2350",
      "distance": 174397.20713901
    },
    {
      "id": 167536,
      "geometry": "POINT (-74.432067 40.775446)",
      "poi_name": "Fairleigh Dickinson University: College at Florham",
      "osm_id": 357739928,
      "amenity": "university",
      "distance": 112893.58474752
    },
    {
      "id": 167539,
      "geometry": "POINT (-74.033728 40.726311)",
      "poi_name": "University of Phoenix Jersey City Campus",
      "osm_id": 357750415,
      "amenity": "university",
      "distance": 131191.53455413
    },
    {
      "id": 167596,
      "geometry": "POINT (-76.599967 39.288163)",
      "poi_name": "Stratford University",
      "osm_id": 358245801,
      "amenity": "university",
      "distance": 141494.36433677
    },
    {
      "id": 167598,
      "geometry": "POINT (-76.483216 38.981598)",
      "poi_name": "United States Naval Academy",
      "osm_id": 358250114,
      "amenity": "university",
      "operator": "United States Navy",
      "website": "https://www.usna.edu/",
      "wikidata": "Q559549",
      "addr_state": "MD",
      "addr_city": "Annapolis",
      "addr_postcode": "21402",
      "addr_street": "Blake Road",
      "addr_housenumber": "121",
      "distance": 154210.72029735
    },
    {
      "id": 168213,
      "geometry": "POINT (-73.995715 40.728699)",
      "poi_name": "NYU Courant Institute of Mathematical Sciences",
      "osm_id": 368055987,
      "amenity": "university",
      "internet_access": "wlan",
      "phone": "+12129983315",
      "wikidata": "Q946028",
      "addr_state": "NY",
      "addr_city": "New York",
      "addr_street": "Mercer Street",
      "addr_housenumber": "251",
      "distance": 133781.65468357
    },
    {
      "id": 168461,
      "geometry": "POINT (-73.992236 40.736792)",
      "poi_name": "The New School",
      "osm_id": 2259028668,
      "amenity": "university",
      "addr_street": "East 16th Street",
      "addr_housenumber": "6",
      "distance": 134592.23936605
    },
    {
      "id": 169334,
      "geometry": "POINT (-73.995643 40.730978)",
      "poi_name": "NYU Silver School of Social Work",
      "osm_id": 2297023428,
      "amenity": "university",
      "wikidata": "Q3339074",
      "addr_postcode": "10003",
      "addr_street": "Washington Square North",
      "addr_housenumber": "1-3 Washington Square North",
      "distance": 133951.74947629
    },
    {
      "id": 172590,
      "geometry": "POINT (-73.995675 40.750536)",
      "poi_name": "Touro College",
      "osm_id": 2407444755,
      "amenity": "university",
      "website": "https://www.touro.edu/",
      "wikidata": "Q7669715",
      "addr_city": "New York",
      "addr_postcode": "10001",
      "addr_street": "West 31st Street",
      "addr_housenumber": "320",
      "distance": 135381.20207987
    },
    {
      "id": 173947,
      "geometry": "POINT (-75.119836 39.707738)",
      "poi_name": "Technology Assistance Center",
      "osm_id": 2460525689,
      "amenity": "university",
      "website": "https://irt.rowan.edu/help/",
      "shop": "computer",
      "distance": 25797.27708353
    },
    {
      "id": 172552,
      "geometry": "POINT (-74.589598 41.448415)",
      "poi_name": "Fei Tian Academy of Arts",
      "osm_id": 2406481578,
      "amenity": "university",
      "website": "https://www.feitianacademy.org/",
      "addr_postcode": "12729",
      "addr_street": "Galley Hill Road",
      "addr_housenumber": "140",
      "distance": 175291.27720003
    },
    {
      "id": 173858,
      "geometry": "POINT (-73.996504 40.728974)",
      "poi_name": "NYU Stern School of Business",
      "osm_id": 2458230564,
      "amenity": "university",
      "operator": "New York University",
      "wikidata": "Q770467",
      "distance": 133751.1562813
    },
    {
      "id": 192205,
      "geometry": "POINT (-73.994533 40.735357)",
      "poi_name": "Parsons School of Design",
      "osm_id": 1427294706,
      "amenity": "university",
      "addr_postcode": "10011",
      "addr_street": "5th Avenue",
      "addr_housenumber": "66",
      "distance": 134341.26896792
    },
    {
      "id": 186123,
      "geometry": "POINT (-75.209413 40.690601)",
      "poi_name": "Lafayette College Office of Information Technology Services",
      "osm_id": 7910105939,
      "amenity": "university",
      "operator": "Lafayette College",
      "distance": 83902.77827603
    },
    {
      "id": 186124,
      "geometry": "POINT (-75.209419 40.690641)",
      "poi_name": "Lafayette College Office of Community Engagement",
      "osm_id": 7910105940,
      "amenity": "university",
      "operator": "Lafayette College",
      "distance": 83907.19840732
    },
    {
      "id": 186125,
      "geometry": "POINT (-75.209409 40.690564)",
      "poi_name": "Lafayette College Office of Communications",
      "osm_id": 7910105941,
      "amenity": "university",
      "operator": "Lafayette College",
      "distance": 83898.59472942
    },
    {
      "id": 186126,
      "geometry": "POINT (-75.209423 40.690673)",
      "poi_name": "Lafayette College Office of Admissions",
      "osm_id": 7910105942,
      "amenity": "university",
      "operator": "Lafayette College",
      "distance": 83910.81585656
    },
    {
      "id": 187593,
      "geometry": "POINT (-75.393151 40.091431)",
      "poi_name": "Strayer University",
      "osm_id": 1081183906,
      "amenity": "university",
      "distance": 25100.53632889
    },
    {
      "id": 189499,
      "geometry": "POINT (-73.973722 40.741525)",
      "poi_name": "NYU School of Medicine",
      "osm_id": 1234961112,
      "amenity": "university",
      "wikidata": "Q3100195",
      "distance": 136118.66500614
    },
    {
      "id": 191262,
      "geometry": "POINT (-76.890385 39.165681)",
      "poi_name": "The Johns Hopkins Applied Physics Laboratory",
      "osm_id": 1351570041,
      "amenity": "university",
      "distance": 169996.80802826
    },
    {
      "id": 228324,
      "geometry": "POINT (-73.989774 40.739706)",
      "poi_name": "Stanford in New York Center",
      "osm_id": 4338958231,
      "amenity": "university",
      "operator": "The Board of Trustees of the Leland Stanford Junior University",
      "website": "https://undergrad.stanford.edu/stanford-in-new-york",
      "phone": "(212) 768-2905",
      "addr_state": "NY",
      "addr_city": "New York",
      "addr_postcode": "10010",
      "addr_street": "Broadway",
      "addr_housenumber": "915",
      "distance": 134961.47445248
    },
    {
      "id": 208734,
      "geometry": "POINT (-74.170032 40.744658)",
      "poi_name": "Rutgers Bussiness School",
      "osm_id": 5002398246,
      "amenity": "university",
      "distance": 124289.77030454
    },
    {
      "id": 214282,
      "geometry": "POINT (-73.569718 40.797046)",
      "poi_name": "Academic Village",
      "osm_id": 5268574551,
      "amenity": "university",
      "internet_access": "wlan",
      "distance": 166950.99293062
    },
    {
      "id": 234159,
      "geometry": "POINT (-76.617663 39.322242)",
      "poi_name": "Johns Hopkins University School of Education",
      "osm_id": 4608984015,
      "amenity": "university",
      "internet_access": "yes",
      "addr_state": "MD",
      "addr_city": "Baltimore",
      "addr_postcode": "21218",
      "addr_street": "North Charles Street",
      "addr_housenumber": "2800",
      "distance": 140913.49211668
    },
    {
      "id": 232217,
      "geometry": "POINT (-73.988988 40.755324)",
      "poi_name": "CUNY Graduate School of Journalism",
      "osm_id": 4515559287,
      "amenity": "university",
      "operator": "City University of New York (CUNY)",
      "website": "https://www.journalism.cuny.edu/",
      "phone": "+1 646 758 7700",
      "wikidata": "Q14706210",
      "addr_state": "NY",
      "addr_city": "New York",
      "addr_postcode": "10018",
      "addr_street": "West 40th Street",
      "addr_housenumber": "219",
      "distance": 136156.50673289
    }
  ],
  "answer_type": "distance",
  "question_entities": {
    "[1]": {
      "main_category": "amenity",
      "sub_category": "university"
    },
    "[2]": {
      "distance": 190000,
      "text": "190 kilometers"
    },
    "[3]": {
      "main_category": "leisure",
      "sub_category": "garden",
      "display_name": "S 22nd and Sears St. Garden, Philadelphia, PA",
      "geo_wkt": "POINT (-75.180513 39.935321)",
      "poi": {
        "id": 247116,
        "geometry": "POINT (-75.180513 39.935321)",
        "poi_name": "S 22nd and Sears St. Garden",
        "osm_id": 3559344530,
        "leisure": "garden",
        "addr_state": "PA",
        "addr_city": "Philadelphia",
        "addr_street": "S 22nd St",
        "addr_housenumber": "1315"
      }
    }
  },
  "id": 772,
  "type": "range+distance"
}