{
  "question": "Where can I find a chinese restaurant within 130 kilometers from SEA LIFE Minnesota Aquarium, Bloomington, MN?",
  "sql": "SELECT * FROM pois\nWHERE ST_DWithin(pois.geometry, ST_GeomFromText('POINT (-93.240076 44.854752)',4326)::geography, 130000)\nAND amenity = 'restaurant'\nAND cuisine ILIKE '%chinese%';\n",
  "answers": [
    {
      "id": 37942,
      "geometry": "POINT (-93.227305 44.973314)",
      "poi_name": "Lao Szechuan",
      "osm_id": 2838749014,
      "amenity": "restaurant",
      "cuisine": "chinese",
      "opening_hours": "Mo-Th 11:00-23:00; Fr 11:00-24:00; Sa 11:30-24:00; Su 11:30-21:30",
      "website": "http://littleszechuan.com/minneapolis/",
      "phone": "+16128863906",
      "addr_state": "MN",
      "addr_city": "Minneapolis",
      "addr_postcode": "55455",
      "addr_street": "Southeast Oak Street",
      "addr_housenumber": "304"
    },
    {
      "id": 37943,
      "geometry": "POINT (-93.348858 44.967464)",
      "poi_name": "Little Szechuan Chinese Restaurant and Bar",
      "osm_id": 2838765656,
      "amenity": "restaurant",
      "cuisine": "chinese",
      "opening_hours": "Mo-Th 11:00-22:00; Fr 11:00-23:00; Sa 11:30-23:00; Su 11:30-21:30",
      "website": "http://littleszechuan.com/west-end/",
      "phone": "+19523227671",
      "addr_state": "MN",
      "addr_city": "Saint Louis Park",
      "addr_postcode": "55416",
      "addr_street": "16th Street West",
      "addr_housenumber": "5377"
    },
    {
      "id": 44766,
      "geometry": "POINT (-93.308889 44.881499)",
      "poi_name": "Hope's Silver Spoon Restaurant",
      "osm_id": 3175444406,
      "amenity": "restaurant",
      "cuisine": "chinese;american",
      "website": "https://www.facebook.com/HopesSilverSpoon",
      "phone": "+1 612 866 4981",
      "addr_state": "MN",
      "addr_city": "Richfield",
      "addr_postcode": "55423",
      "addr_street": "Penn Avenue South",
      "addr_housenumber": "6700"
    },
    {
      "id": 51700,
      "geometry": "POINT (-93.506557 44.779563)",
      "poi_name": "Hong Kong Buffet",
      "osm_id": 552751558,
      "amenity": "restaurant",
      "cuisine": "chinese",
      "website": "http://www.hongkongbuffetchineserestaurant.com/",
      "phone": "+1-952-403-6073",
      "addr_state": "MN",
      "addr_city": "Shakopee",
      "addr_postcode": "55379",
      "addr_street": "Vierling Drive East",
      "addr_housenumber": "1274"
    },
    {
      "id": 55988,
      "geometry": "POINT (-93.957182 44.168265)",
      "poi_name": "China Buffet",
      "osm_id": 10220235580,
      "amenity": "restaurant",
      "cuisine": "chinese",
      "opening_hours": "Mo,We-Th 11:00-20:30; Fr-Sa 11:00-21:00; Su 11:00-20:00",
      "addr_state": "MN",
      "addr_city": "Mankato",
      "addr_postcode": "56001",
      "addr_street": "Madison Avenue",
      "addr_housenumber": "1770"
    },
    {
      "id": 76713,
      "geometry": "POINT (-92.892113 44.738861)",
      "poi_name": "Hey Yu & Song Tea",
      "osm_id": 9789282196,
      "amenity": "restaurant",
      "cuisine": "chinese;tea;milk_tea",
      "opening_hours": "Mo-Su 10:30-21:30",
      "website": "https://www.heyyusongtea.com/",
      "phone": "+1 (651) 346-1378",
      "addr_state": "MN",
      "addr_city": "Hastings",
      "addr_postcode": "55033",
      "addr_street": "North Frontage Road",
      "addr_housenumber": "1741"
    },
    {
      "id": 80880,
      "geometry": "POINT (-93.290722 44.82713)",
      "poi_name": "98 Pounds Buffet",
      "osm_id": 1584945886,
      "amenity": "restaurant",
      "cuisine": "chinese",
      "opening_hours": "Su-Th 11:00-21:00, Fr-Sa 11:00-22:00",
      "website": "https://98poundsbuffet.net",
      "takeaway": "yes",
      "delivery": "yes",
      "toilets": "yes",
      "addr_state": "MN",
      "addr_city": "Bloomington",
      "addr_postcode": "55420",
      "addr_street": "West 98th Street",
      "addr_housenumber": "824"
    },
    {
      "id": 79066,
      "geometry": "POINT (-93.292779 44.949132)",
      "poi_name": "China Moon",
      "osm_id": 771701419,
      "amenity": "restaurant",
      "cuisine": "chinese",
      "website": "https://www.chinamoonminneapolis.com",
      "addr_state": "MN",
      "addr_city": "Minneapolis",
      "addr_postcode": "55408",
      "addr_street": "Dupont Avenue South",
      "addr_housenumber": "2929"
    },
    {
      "id": 82081,
      "geometry": "POINT (-92.48859 44.066718)",
      "poi_name": "Wong's Cafe",
      "osm_id": 1681230226,
      "amenity": "restaurant",
      "cuisine": "chinese",
      "website": "https://www.wongscafemenu.com/",
      "phone": "+1-507-288-3730",
      "addr_state": "MN",
      "addr_city": "Rochester",
      "addr_postcode": "55901",
      "addr_street": "18th Avenue Northwest",
      "addr_housenumber": "4180"
    },
    {
      "id": 84387,
      "geometry": "POINT (-93.371832 44.959252)",
      "poi_name": "Sichuan",
      "osm_id": 1786935166,
      "amenity": "restaurant",
      "cuisine": "chinese",
      "website": "http://places.singleplatform.com/sichuan-restaurant/menu?ref=google",
      "phone": "+19525461773",
      "addr_state": "MN",
      "addr_city": "Saint Louis Park",
      "addr_postcode": "55426",
      "addr_street": "Cedar Lake Road",
      "addr_housenumber": "7239"
    },
    {
      "id": 84616,
      "geometry": "POINT (-93.148062 44.992598)",
      "poi_name": "House of Wong",
      "osm_id": 1802230749,
      "amenity": "restaurant",
      "cuisine": "chinese",
      "opening_hours": "Mo-Su 11:00-21:00",
      "phone": "+1-651-488-6687",
      "addr_state": "MN",
      "addr_city": "Roseville",
      "addr_postcode": "55113",
      "addr_street": "Larpenteur Avenue West",
      "addr_housenumber": "1135"
    },
    {
      "id": 85899,
      "geometry": "POINT (-93.225527 44.97374)",
      "poi_name": "Hong Kong Noodle",
      "osm_id": 1907722271,
      "amenity": "restaurant",
      "cuisine": "chinese",
      "website": "https://www.mnhongkongnoodle.com",
      "phone": "+1-612-379-9472",
      "addr_state": "MN",
      "addr_city": "Minneapolis",
      "addr_postcode": "55414",
      "addr_street": "Southeast Washington Avenue",
      "addr_housenumber": "901"
    },
    {
      "id": 85900,
      "geometry": "POINT (-93.224383 44.973778)",
      "poi_name": "Kowloon Restaurant",
      "osm_id": 1907722272,
      "amenity": "restaurant",
      "cuisine": "chinese",
      "website": "https://www.kowloonmntogo.com",
      "phone": "+1-612-623-3888",
      "addr_state": "MN",
      "addr_city": "Minneapolis",
      "addr_postcode": "55414",
      "addr_street": "Southeast Washington Avenue",
      "addr_housenumber": "935"
    },
    {
      "id": 89307,
      "geometry": "POINT (-93.176048 44.681716)",
      "poi_name": "Mei Wei",
      "osm_id": 8837210075,
      "amenity": "restaurant",
      "cuisine": "chinese",
      "opening_hours": "Su-Th 11:00-10:00; Fr-Sa 11:00-10:30",
      "website": "http://www.meiwei.biz/",
      "phone": "+1-651-463-8900",
      "addr_state": "MN",
      "addr_city": "Farmington",
      "addr_postcode": "55024",
      "addr_street": "Pilot Knob Road",
      "addr_housenumber": "18500"
    },
    {
      "id": 90247,
      "geometry": "POINT (-93.127839 44.732687)",
      "poi_name": "Eddie Cheng",
      "osm_id": 1987269580,
      "amenity": "restaurant",
      "cuisine": "chinese",
      "wheelchair": "yes",
      "takeaway": "yes",
      "outdoor_seating": "no",
      "addr_state": "MN",
      "addr_city": "Rosemount"
    },
    {
      "id": 86063,
      "geometry": "POINT (-93.1457 44.993001)",
      "poi_name": "Panda Garden Buffet",
      "osm_id": 1914627271,
      "amenity": "restaurant",
      "cuisine": "chinese",
      "opening_hours": "Mo-Th 11:00-21:00; Fr-Sa 11:00-22:00; Su 11:00-21:00",
      "website": "https://www.facebook.com/PandaGardenBuffetRoseville/",
      "phone": "+1-651-488-5505",
      "addr_state": "MN",
      "addr_city": "Roseville",
      "addr_postcode": "55113",
      "addr_street": "Lexington Avenue North",
      "addr_housenumber": "1706"
    },
    {
      "id": 107410,
      "geometry": "POINT (-93.231859 44.92653)",
      "poi_name": "Bill's Garden Chinese Gourmet",
      "osm_id": 3560061121,
      "amenity": "restaurant",
      "cuisine": "chinese",
      "opening_hours": "Mo-Fr 10:30-21:00; Sa 11:00-21:30",
      "phone": "+1 612 721 4565",
      "takeaway": "yes",
      "addr_city": "Minneapolis",
      "addr_postcode": "55406",
      "addr_street": "28th Avenue South",
      "addr_housenumber": "4209"
    },
    {
      "id": 96346,
      "geometry": "POINT (-93.234917 44.981913)",
      "poi_name": "Le Pot Chinese Hotpot",
      "osm_id": 6429470585,
      "amenity": "restaurant",
      "cuisine": "chinese",
      "opening_hours": "Mo-Th 11:00-22:00; Fr-Sa 11:00-23:00; Su 11:00-22:00",
      "website": "https://www.lepot-hotpot.com",
      "addr_state": "MN",
      "addr_city": "Minneapolis",
      "addr_postcode": "55414",
      "addr_street": "Southeast 14th Avenue",
      "addr_housenumber": "507"
    },
    {
      "id": 114542,
      "geometry": "POINT (-93.288342 44.947702)",
      "poi_name": "Szechuan Spice",
      "osm_id": 3885491309,
      "amenity": "restaurant",
      "cuisine": "chinese",
      "opening_hours": "Su-Th 11:00-22:00; Fr,Sa 11:00-22:30",
      "website": "https://www.szechuanspice1.com/",
      "takeaway": "yes",
      "delivery": "yes",
      "addr_state": "MN",
      "addr_city": "Minneapolis",
      "addr_postcode": "55408",
      "addr_street": "Lyndale Avenue South",
      "addr_housenumber": "3016"
    },
    {
      "id": 120396,
      "geometry": "POINT (-93.320995 44.949353)",
      "poi_name": "1st Wok",
      "osm_id": 6701050759,
      "amenity": "restaurant",
      "cuisine": "chinese",
      "opening_hours": "Mo-Th 11:00-21:30; Fr 11:00-22:00; Sa 11:30-22:00; Su 12:00-21:30; PH closed",
      "website": "freshwokchinese.com",
      "phone": "(612) 827-0505",
      "takeaway": "yes",
      "addr_state": "MN",
      "addr_city": "Minneapolis",
      "addr_postcode": "55416",
      "addr_street": "Lake Street West",
      "addr_housenumber": "3236"
    },
    {
      "id": 143226,
      "geometry": "POINT (-93.217335 44.972131)",
      "poi_name": "U Garden Restaurant and Event Center",
      "osm_id": 6332252024,
      "amenity": "restaurant",
      "cuisine": "chinese",
      "website": "https://www.ugardenrestaurant.com",
      "phone": "+1-612-378-1255",
      "addr_state": "MN",
      "addr_city": "Minneapolis",
      "addr_postcode": "55414",
      "addr_street": "University Avenue Southeast",
      "addr_housenumber": "2725"
    },
    {
      "id": 147220,
      "geometry": "POINT (-93.100517 44.915939)",
      "poi_name": "No.1 New China",
      "osm_id": 7515952332,
      "amenity": "restaurant",
      "cuisine": "chinese",
      "phone": "+1-651-457-3002",
      "addr_state": "MN",
      "addr_city": "West Saint Paul",
      "addr_postcode": "55118",
      "addr_street": "Bernard Street West",
      "addr_housenumber": "364"
    },
    {
      "id": 143276,
      "geometry": "POINT (-93.221538 44.973783)",
      "poi_name": "Tea House",
      "osm_id": 6334601254,
      "amenity": "restaurant",
      "cuisine": "chinese",
      "addr_state": "MN",
      "addr_city": "Minneapolis",
      "addr_postcode": "55414",
      "addr_street": "Southeast University Avenue",
      "addr_housenumber": "2425"
    },
    {
      "id": 147046,
      "geometry": "POINT (-93.102047 44.916655)",
      "poi_name": "Chin Chin",
      "osm_id": 7499470398,
      "amenity": "restaurant",
      "cuisine": "chinese",
      "phone": "+1-651-455-1801",
      "addr_state": "MN",
      "addr_city": "West Saint Paul",
      "addr_postcode": "55118",
      "addr_street": "Smith Avenue South",
      "addr_housenumber": "985"
    },
    {
      "id": 151969,
      "geometry": "POINT (-93.351489 44.969541)",
      "poi_name": "Yangtze Chinese Restaurant",
      "osm_id": 4121384393,
      "amenity": "restaurant",
      "cuisine": "chinese",
      "website": "https://www.yangtzemn.com/",
      "phone": "+19525419469",
      "addr_state": "MN",
      "addr_city": "Saint Louis Park",
      "addr_postcode": "55416",
      "addr_street": "Wayzata Boulevard",
      "addr_housenumber": "5625"
    },
    {
      "id": 159504,
      "geometry": "POINT (-93.27852 44.919319)",
      "poi_name": "Fresh Wok",
      "osm_id": 4795800510,
      "amenity": "restaurant",
      "cuisine": "chinese",
      "website": "https://www.freshwokmn.com/",
      "phone": "+1-612-827-0505;+1-612-827-0500",
      "takeaway": "yes",
      "outdoor_seating": "no",
      "addr_state": "MN",
      "addr_city": "Minneapolis",
      "addr_postcode": "55419",
      "addr_street": "Nicollet Avenue South",
      "addr_housenumber": "4610"
    },
    {
      "id": 159979,
      "geometry": "POINT (-93.468931 45.235848)",
      "poi_name": "China Dragon",
      "osm_id": 4812605188,
      "amenity": "restaurant",
      "cuisine": "chinese",
      "delivery": "no",
      "addr_state": "MN",
      "addr_city": "ramsey",
      "addr_postcode": "55303",
      "addr_street": "Sunwood Drive Northwest",
      "addr_housenumber": "7962"
    },
    {
      "id": 187763,
      "geometry": "POINT (-93.277683 44.952467)",
      "poi_name": "Rainbow Chinese Restaurant and Bar",
      "osm_id": 1102902711,
      "amenity": "restaurant",
      "cuisine": "chinese;asian",
      "opening_hours": "Tu-Th 16:00-21:00; Fr 16:00-22:00; Sa 11:00-22:00; Su 11:00-21:00",
      "website": "https://rainbowrestaurant.com/",
      "phone": "+1-612-870-7084",
      "takeaway": "yes",
      "outdoor_seating": "yes",
      "delivery": "yes",
      "addr_state": "MN",
      "addr_city": "Minneapolis",
      "addr_postcode": "55408",
      "addr_street": "Nicollet Avenue South",
      "addr_housenumber": "2739"
    },
    {
      "id": 177105,
      "geometry": "POINT (-92.929712 44.816107)",
      "poi_name": "Ho King Restaurant",
      "osm_id": 2574345633,
      "amenity": "restaurant",
      "cuisine": "chinese",
      "phone": "+1-651-458-1111",
      "addr_city": "Cottage Grove",
      "addr_postcode": "55016",
      "addr_street": "East Point Douglas Road South",
      "addr_housenumber": "8711"
    },
    {
      "id": 177108,
      "geometry": "POINT (-92.956988 44.83407)",
      "poi_name": "Tom Moy Cafe",
      "osm_id": 2574356664,
      "amenity": "restaurant",
      "cuisine": "chinese",
      "phone": "+1-651-459-9119",
      "addr_city": "Cottage Grove",
      "addr_postcode": "55016",
      "addr_street": "80th Street South",
      "addr_housenumber": "7420"
    },
    {
      "id": 201624,
      "geometry": "POINT (-93.116735 44.95548)",
      "poi_name": "Peking Garden",
      "osm_id": 647179294,
      "amenity": "restaurant",
      "cuisine": "chinese",
      "website": "https://pekinggardenmn.com/",
      "phone": "+1-651-644-0888",
      "takeaway": "yes",
      "addr_city": "Saint Paul",
      "addr_street": "University Avenue",
      "addr_housenumber": "394"
    },
    {
      "id": 203635,
      "geometry": "POINT (-92.907518 44.495735)",
      "poi_name": "Great China",
      "osm_id": 7096058842,
      "amenity": "restaurant",
      "cuisine": "chinese",
      "phone": "+1 507 263 8868",
      "addr_state": "MN",
      "addr_city": "Cannon Falls",
      "addr_postcode": "55009"
    },
    {
      "id": 201918,
      "geometry": "POINT (-93.407054 44.978928)",
      "poi_name": "Tea House",
      "osm_id": 665667219,
      "amenity": "restaurant",
      "cuisine": "chinese",
      "opening_hours": "Tu-Th 11:00-21:00; Fr-Mo 11:00-21:30",
      "phone": "+1-763-544-3422",
      "addr_state": "MN",
      "addr_city": "Plymouth",
      "addr_postcode": "55441",
      "addr_street": "Nathan Lane North",
      "addr_housenumber": "88"
    },
    {
      "id": 204541,
      "geometry": "POINT (-93.366845 45.053382)",
      "poi_name": "Jin's Chow Mein",
      "osm_id": 7131839071,
      "amenity": "restaurant",
      "cuisine": "chinese",
      "addr_state": "MN",
      "addr_city": "Crystal",
      "addr_postcode": "55428",
      "addr_street": "Willow Bend",
      "addr_housenumber": "129"
    },
    {
      "id": 220279,
      "geometry": "POINT (-93.393097 45.184094)",
      "poi_name": "Mi's Eatery",
      "osm_id": 9368416842,
      "amenity": "restaurant",
      "cuisine": "chinese",
      "opening_hours": "We-Su 11:00-20:30",
      "website": "https://miseatery.com",
      "phone": "+1-763-427-9848",
      "addr_state": "MN",
      "addr_city": "Champlin",
      "addr_postcode": "55316",
      "addr_street": "Jefferson Highway North",
      "addr_housenumber": "516"
    },
    {
      "id": 215126,
      "geometry": "POINT (-93.288271 44.961236)",
      "poi_name": "Red Dragon",
      "osm_id": 5287908891,
      "amenity": "restaurant",
      "cuisine": "chinese",
      "description": "Colorful venue offering classic Chinese fare, from egg foo yong to chow mein, plus sweet cocktails.",
      "phone": "+1-612-874-8877",
      "addr_state": "MN",
      "addr_city": "Minneapolis",
      "addr_postcode": "55405",
      "addr_street": "Lyndale Avenue South",
      "addr_housenumber": "2116"
    },
    {
      "id": 222201,
      "geometry": "POINT (-93.87813 45.184178)",
      "poi_name": "Aloha",
      "osm_id": 11009425037,
      "amenity": "restaurant",
      "cuisine": "chinese",
      "addr_state": "MN",
      "addr_city": "Buffalo",
      "addr_postcode": "55313",
      "addr_street": "Minnesota Highway 55",
      "addr_housenumber": "11"
    },
    {
      "id": 220664,
      "geometry": "POINT (-93.409575 45.033781)",
      "poi_name": "#1 Express",
      "osm_id": 9382489661,
      "amenity": "restaurant",
      "cuisine": "chinese",
      "addr_state": "MN",
      "addr_city": "Plymouth",
      "addr_postcode": "55442",
      "addr_street": "Nathan Lane North",
      "addr_housenumber": "4345"
    },
    {
      "id": 232583,
      "geometry": "POINT (-92.757125 44.974714)",
      "poi_name": "Dragon Pearl",
      "osm_id": 4533195396,
      "amenity": "restaurant",
      "cuisine": "chinese;japanese",
      "opening_hours": "Su-Mo, We-Th 11:00-21:30; Fr-Sa 11:00-22:00",
      "website": "https://dragonpearlwi.com/",
      "phone": "+1 715-381-1338",
      "takeaway": "yes",
      "addr_state": "WI",
      "addr_city": "Hudson",
      "addr_postcode": "54016",
      "addr_street": "Second Street",
      "addr_housenumber": "431"
    },
    {
      "id": 228451,
      "geometry": "POINT (-93.223307 44.9732)",
      "poi_name": "Legendary Spice",
      "osm_id": 4343817375,
      "amenity": "restaurant",
      "cuisine": "chinese",
      "website": "https://www.legendaryspicemn.com/",
      "addr_state": "MN",
      "addr_city": "Minneapolis",
      "addr_postcode": "55414",
      "addr_street": "Southeast Huron Boulevard",
      "addr_housenumber": "317"
    },
    {
      "id": 234401,
      "geometry": "POINT (-93.277658 44.956293)",
      "poi_name": "Caravelle Restaurant",
      "osm_id": 4619841619,
      "amenity": "restaurant",
      "cuisine": "chinese;vietnamese",
      "opening_hours": "10:00-21:00",
      "website": "https://www.caravellempls.com/",
      "phone": "+1-612-871-3226",
      "addr_state": "MN",
      "addr_city": "Minneapolis",
      "addr_postcode": "55404",
      "addr_street": "Nicollet Avenue South",
      "addr_housenumber": "2529"
    },
    {
      "id": 238720,
      "geometry": "POINT (-93.320518 45.1085)",
      "poi_name": "Thanh Vi Restaurant",
      "osm_id": 5892404398,
      "amenity": "restaurant",
      "cuisine": "chinese;thai",
      "opening_hours": "Mo 11:00-21:00; Tu 11:00-20:30; Th-Sa 11:00-21:00; Su 11:00-20:00",
      "website": "http://thanhvirestaurant.com",
      "phone": "+1 763-424-9259",
      "addr_state": "MN",
      "addr_city": "Brooklyn Park",
      "addr_postcode": "55444",
      "addr_street": "85th Avenue North",
      "addr_housenumber": "3023"
    }
  ],
  "answer_type": "loc",
  "question_entities": {
    "[1]": {
      "main_category": "amenity",
      "sub_category": "restaurant",
      "poi_filter_desc": "chinese restaurant",
      "poi_filter_sql": "cuisine ILIKE '%chinese%'"
    },
    "[2]": {
      "distance": 130000,
      "text": "130 kilometers"
    },
    "[3]": {
      "main_category": "tourism",
      "sub_category": "aquarium",
      "display_name": "SEA LIFE Minnesota Aquarium, Bloomington, MN",
      "geo_wkt": "POINT (-93.240076 44.854752)",
      "poi": {
        "id": 25908,
        "geometry": "POINT (-93.240076 44.854752)",
        "poi_name": "SEA LIFE Minnesota Aquarium",
        "osm_id": 5739830095,
        "description": "Sea Life at Mall of America is a public aquarium located in the Mall of America in Bloomington, Minnesota, United States. The 1.3 million-US-gallon aquarium contains thousands of aquatic creatures, including sea turtles, sharks, sawfish, stingrays, jellyf",
        "tourism": "aquarium",
        "fee": "yes",
        "opening_hours": "Mo-Th 11:00-18:00; Fr-Sa 10:00-20:00; Su 11:00-18:00",
        "operator": "Merlin Entertainments'",
        "website": "https://www.visitsealife.com/minnesota/",
        "phone": "+1-952-883-0202",
        "addr_state": "MN",
        "addr_city": "Bloomington",
        "addr_postcode": "55425",
        "addr_street": "East Broadway",
        "addr_housenumber": "120"
      }
    }
  },
  "id": 499,
  "type": "range:non_spat_filter+loc"
}