{
  "question": "Can you assist me in finding an emergency hospital, preferably within 60 kilometers from Jay Heritage Center, Rye, NY?",
  "sql": "SELECT * FROM pois\nWHERE ST_DWithin(pois.geometry, ST_GeomFromText('POINT (-73.706068 40.95728)',4326)::geography, 60000)\nAND amenity = 'hospital'\nAND emergency ILIKE '%yes%';\n",
  "answers": [
    {
      "id": 59057,
      "geometry": "POINT (-73.804937 41.086049)",
      "poi_name": "Maria Fareri Children's Hospital",
      "osm_id": 5408870771,
      "amenity": "hospital",
      "opening_hours": "24/7",
      "operator": "Westchester Medical Center Health Network",
      "website": "https://www.mariafarerichildrens.org/",
      "phone": "+1 914 493 7000",
      "healthcare": "hospital",
      "emergency": "yes",
      "wikidata": "Q17020173",
      "addr_city": "Valhalla",
      "addr_postcode": "10595",
      "addr_street": "Woods Road",
      "addr_housenumber": "100"
    },
    {
      "id": 146611,
      "geometry": "POINT (-73.92622 41.095996)",
      "poi_name": "Nyack Hospital",
      "osm_id": 7463163965,
      "amenity": "hospital",
      "healthcare": "hospital",
      "emergency": "yes"
    },
    {
      "id": 167483,
      "geometry": "POINT (-73.879844 40.880085)",
      "poi_name": "Montefiore Medical Center West Campus Moses Division Hospital",
      "osm_id": 357571909,
      "amenity": "hospital",
      "opening_hours": "24/7",
      "operator": "Montefiore Health System",
      "website": "https://www.montefiore.org/west",
      "phone": "+1 718 920 4321",
      "healthcare": "hospital",
      "emergency": "yes",
      "wikidata": "Q6905066",
      "addr_city": "Bronx",
      "addr_postcode": "10467",
      "addr_street": "East 210th Street",
      "addr_housenumber": "111"
    },
    {
      "id": 167507,
      "geometry": "POINT (-73.881396 40.880358)",
      "poi_name": "North Central Bronx Hospital",
      "osm_id": 357611253,
      "amenity": "hospital",
      "opening_hours": "24/7",
      "operator": "NYC Health + Hospitals",
      "website": "https://www.nychealthandhospitals.org/northcentralbronx/",
      "phone": "+1 718 519 5000",
      "healthcare": "hospital",
      "emergency": "yes",
      "wikidata": "Q96396296",
      "addr_city": "Bronx",
      "addr_postcode": "10467",
      "addr_street": "Kossuth Avenue",
      "addr_housenumber": "3424"
    },
    {
      "id": 167511,
      "geometry": "POINT (-73.708333 40.753889)",
      "poi_name": "Cohen\u2019s Children\u2019s Medical Center",
      "osm_id": 357616936,
      "amenity": "hospital",
      "opening_hours": "24/7",
      "operator": "Northwell Health",
      "website": "https://childrenshospital.northwell.edu/",
      "healthcare": "hospital",
      "emergency": "yes",
      "addr_city": "New Hyde Park",
      "addr_postcode": "11040",
      "addr_street": "76th Avenue",
      "addr_housenumber": "269-01"
    },
    {
      "id": 167513,
      "geometry": "POINT (-74.000833 40.737778)",
      "poi_name": "Lenox Health Greenwich Village",
      "osm_id": 357620244,
      "amenity": "hospital",
      "opening_hours": "24/7",
      "operator": "Northwell Health",
      "website": "https://www.northwell.edu/lenox-health-greenwich-village",
      "phone": "+1 646 665 6000",
      "healthcare": "hospital",
      "emergency": "yes",
      "addr_city": "New York",
      "addr_postcode": "10011",
      "addr_street": "7th Avenue",
      "addr_housenumber": "30"
    }
  ],
  "answer_type": "name",
  "question_entities": {
    "[1]": {
      "main_category": "amenity",
      "sub_category": "hospital",
      "poi_filter_desc": "emergency hospital",
      "poi_filter_sql": "emergency ILIKE '%yes%'"
    },
    "[2]": {
      "distance": 60000,
      "text": "60 kilometers"
    },
    "[3]": {
      "main_category": "leisure",
      "sub_category": "park",
      "display_name": "Jay Heritage Center, Rye, NY",
      "geo_wkt": "POINT (-73.706068 40.95728)",
      "poi": {
        "id": 248470,
        "geometry": "POINT (-73.706068 40.95728)",
        "poi_name": "Jay Heritage Center",
        "osm_id": 4196086062,
        "leisure": "park",
        "description": "National Historic Landmark home of John Jay. Historic Site and Park. Member Site of New York State's Path Through History, Hudson River Valley National Heritage Area and Westchester County African American Heritage Trail. Hours Wed. thru Fri. 10am - 4pm ",
        "addr_state": "NY",
        "addr_city": "Rye",
        "addr_postcode": "10580",
        "addr_street": "Boston Post Road",
        "addr_housenumber": "210"
      }
    }
  },
  "id": 537,
  "type": "range:non_spat_filter+name"
}