{
  "question": "What caf\u00e9 can I find within 200 kilometers northwest of Montefiore Medical Center - Wakefield Campus, Bronx, NY?",
  "sql": "\nWITH origin AS  (SELECT ST_GeomFromText('POINT (-73.861082 40.893776)',4326)::geography AS geometry)\nSELECT * FROM pois, origin\nWHERE ST_DWithin(pois.geometry, ST_GeomFromText('POINT (-73.861082 40.893776)',4326)::geography, 200000)\nAND amenity = 'cafe'\nAND degrees(ST_Azimuth(origin.geometry, pois.geometry)) BETWEEN 292.5 AND 337.5;\n",
  "answers": [
    {
      "id": 66474,
      "geometry": "POINT (-73.861082 40.893776)",
      "poi_name": "Dave's Daylight Donuts",
      "osm_id": 11196390537,
      "amenity": "cafe",
      "cuisine": "donut",
      "opening_hours": "Th-Mo 06:00-14:00",
      "operator": "Dave",
      "website": "https://m.facebook.com/DavesDaylight",
      "phone": "8452385481",
      "addr_postcode": "10950",
      "addr_street": "NY-17M",
      "addr_housenumber": "371"
    },
    {
      "id": 77700,
      "geometry": "POINT (-73.861082 40.893776)",
      "poi_name": "Gourmet Garden",
      "osm_id": 707525201,
      "amenity": "cafe"
    },
    {
      "id": 29882,
      "geometry": "POINT (-73.861082 40.893776)",
      "poi_name": "Starbucks",
      "osm_id": 8331410188,
      "amenity": "cafe",
      "cuisine": "coffee_shop",
      "internet_access": "wlan",
      "takeaway": "yes",
      "official_name": "Starbucks Coffee"
    },
    {
      "id": 32716,
      "geometry": "POINT (-73.861082 40.893776)",
      "poi_name": "Starbucks",
      "osm_id": 2636142607,
      "amenity": "cafe",
      "cuisine": "coffee_shop",
      "takeaway": "yes",
      "drive_through": "yes",
      "official_name": "Starbucks Coffee"
    },
    {
      "id": 88089,
      "geometry": "POINT (-73.861082 40.893776)",
      "poi_name": "Starbucks",
      "osm_id": 8761620034,
      "amenity": "cafe",
      "cuisine": "coffee_shop",
      "takeaway": "yes",
      "official_name": "Starbucks Coffee"
    },
    {
      "id": 77493,
      "geometry": "POINT (-73.861082 40.893776)",
      "poi_name": "Starbucks",
      "osm_id": 693986999,
      "amenity": "cafe",
      "cuisine": "coffee_shop",
      "takeaway": "yes",
      "official_name": "Starbucks Coffee"
    },
    {
      "id": 79318,
      "geometry": "POINT (-73.861082 40.893776)",
      "poi_name": "Starbucks Main Street",
      "osm_id": 794611677,
      "amenity": "cafe"
    },
    {
      "id": 68777,
      "geometry": "POINT (-73.861082 40.893776)",
      "poi_name": "Christopher's Bistro",
      "osm_id": 11283984662,
      "amenity": "cafe"
    },
    {
      "id": 88737,
      "geometry": "POINT (-73.861082 40.893776)",
      "poi_name": "Cozy Brook Caf\u00e9",
      "osm_id": 8793495401,
      "amenity": "cafe",
      "opening_hours": "We, Th, Sa 07:00-14:00; Fr 07:00-20:00; Su 08:00-14:00",
      "addr_state": "NY",
      "addr_city": "Windsor",
      "addr_postcode": "13865",
      "addr_street": "Route 41;NY 41",
      "addr_housenumber": "56"
    },
    {
      "id": 88359,
      "geometry": "POINT (-73.861082 40.893776)",
      "poi_name": "Citrus Cafe",
      "osm_id": 8780224454,
      "amenity": "cafe",
      "website": "https://citruscafeny.com/",
      "phone": "+18454344600",
      "addr_state": "NY",
      "addr_city": "Woodbourne",
      "addr_postcode": "12788",
      "addr_street": "State Route 52",
      "addr_housenumber": "436"
    },
    {
      "id": 88608,
      "geometry": "POINT (-73.861082 40.893776)",
      "poi_name": "19 Main Street Luncheonette",
      "osm_id": 8788827614,
      "amenity": "cafe",
      "addr_state": "NY",
      "addr_city": "Chester",
      "addr_postcode": "10918",
      "addr_street": "Main Street",
      "addr_housenumber": "19"
    },
    {
      "id": 88613,
      "geometry": "POINT (-73.861082 40.893776)",
      "poi_name": "Valkyrie Coffee Roasters",
      "osm_id": 8788834893,
      "amenity": "cafe",
      "opening_hours": "Mo-Su 08:00-16:30",
      "website": "valkyriecoffeeroasters.com",
      "internet_access": "wlan",
      "phone": "(845) 610-3019",
      "outdoor_seating": "no",
      "addr_state": "NY",
      "addr_city": "Chester",
      "addr_postcode": "10918",
      "addr_street": "Main Street",
      "addr_housenumber": "23"
    },
    {
      "id": 88616,
      "geometry": "POINT (-73.861082 40.893776)",
      "poi_name": "Not Just Bagels",
      "osm_id": 8788837505,
      "amenity": "cafe",
      "cuisine": "bagel",
      "opening_hours": "Mo-Su 05:00-16:00",
      "website": "https://thenotjustbagels.com/",
      "phone": "+1 845 294 0589",
      "addr_state": "NY",
      "addr_city": "Goshen",
      "addr_postcode": "10924",
      "addr_street": "West Main Street",
      "addr_housenumber": "129"
    },
    {
      "id": 97408,
      "geometry": "POINT (-73.861082 40.893776)",
      "poi_name": "Super Coffee Shop",
      "osm_id": 6478324525,
      "amenity": "cafe",
      "cuisine": "breakfast;brunch",
      "addr_state": "NJ",
      "addr_city": "Waldwick",
      "addr_postcode": "07463",
      "addr_street": "Franklin Turnpike",
      "addr_housenumber": "62"
    },
    {
      "id": 131096,
      "geometry": "POINT (-73.861082 40.893776)",
      "poi_name": "Bagel Boys Cafe",
      "osm_id": 9901851818,
      "amenity": "cafe",
      "opening_hours": "Mo-Su 06:00-15:00",
      "website": "https://www.bagelboyscafe.co/",
      "addr_city": "Suffern",
      "addr_postcode": "10901",
      "addr_street": "North Airmont Road",
      "addr_housenumber": "7"
    },
    {
      "id": 97795,
      "geometry": "POINT (-73.861082 40.893776)",
      "poi_name": "Starbucks",
      "osm_id": 6495415520,
      "amenity": "cafe",
      "cuisine": "coffee_shop",
      "internet_access": "yes",
      "takeaway": "yes",
      "official_name": "Starbucks Coffee",
      "addr_city": "Ridgewood",
      "addr_postcode": "07450",
      "addr_street": "East Ridgewood Avenue",
      "addr_housenumber": "193"
    },
    {
      "id": 105818,
      "geometry": "POINT (-73.861082 40.893776)",
      "poi_name": "La Vie En Rose Bakery Caf\u00e9",
      "osm_id": 8644895319,
      "amenity": "cafe"
    },
    {
      "id": 126411,
      "geometry": "POINT (-73.861082 40.893776)",
      "poi_name": "Ridgewood Coffee Company",
      "osm_id": 6997853419,
      "amenity": "cafe",
      "cuisine": "coffee_shop",
      "opening_hours": "Mo-Th 07:00-21:00; Fr 07:00-22:00; Sa 08:00-22:00; Su 08:00-17:00",
      "website": "https://ridgewoodcoffeecompany.com/",
      "internet_access": "wlan",
      "phone": "+1 201-493-1002",
      "outdoor_seating": "yes",
      "addr_postcode": "07451",
      "addr_street": "East Ridgewood Avenue",
      "addr_housenumber": "90"
    },
    {
      "id": 126420,
      "geometry": "POINT (-73.861082 40.893776)",
      "poi_name": "Cravings Tapas Bistro",
      "osm_id": 6997936263,
      "amenity": "cafe",
      "cuisine": "tapas",
      "website": "https://www.cravingstapas.com/",
      "phone": "+1-201-857-8533",
      "addr_state": "NJ",
      "addr_city": "Ridgewood",
      "addr_postcode": "07450",
      "addr_street": "Wilsey Square",
      "addr_housenumber": "8"
    },
    {
      "id": 97527,
      "geometry": "POINT (-73.861082 40.893776)",
      "poi_name": "Amercian Bulldog Coffee Roasters",
      "osm_id": 6482934064,
      "amenity": "cafe",
      "cuisine": "breakfast",
      "addr_state": "NJ",
      "addr_city": "Ridgewood",
      "addr_postcode": "07450",
      "addr_street": "North Broad Street",
      "addr_housenumber": "31"
    },
    {
      "id": 99793,
      "geometry": "POINT (-73.861082 40.893776)",
      "poi_name": "Starbucks",
      "osm_id": 6565195446,
      "amenity": "cafe",
      "cuisine": "coffee_shop",
      "takeaway": "yes",
      "official_name": "Starbucks Coffee"
    },
    {
      "id": 116569,
      "geometry": "POINT (-73.861082 40.893776)",
      "poi_name": "Tim Hortons",
      "osm_id": 8947289338,
      "amenity": "cafe",
      "cuisine": "coffee_shop",
      "takeaway": "yes",
      "drive_through": "yes",
      "outdoor_seating": "no"
    },
    {
      "id": 118327,
      "geometry": "POINT (-73.861082 40.893776)",
      "poi_name": "Cafe Chocolat",
      "osm_id": 9039916333,
      "amenity": "cafe",
      "description": "Cafe",
      "phone": "(845) 434-7641",
      "addr_state": "NY",
      "addr_city": "Woodbourne",
      "addr_postcode": "12788",
      "addr_street": "NY-52;State Route 52",
      "addr_housenumber": "441"
    },
    {
      "id": 123417,
      "geometry": "POINT (-73.861082 40.893776)",
      "poi_name": "Starbucks",
      "osm_id": 6853702760,
      "amenity": "cafe",
      "cuisine": "coffee_shop",
      "takeaway": "yes",
      "official_name": "Starbucks Coffee"
    },
    {
      "id": 130339,
      "geometry": "POINT (-73.861082 40.893776)",
      "poi_name": "Brick Street Cafe",
      "osm_id": 9867028325,
      "amenity": "cafe"
    },
    {
      "id": 137785,
      "geometry": "POINT (-73.861082 40.893776)",
      "poi_name": "Super Juice Nation",
      "osm_id": 6113919171,
      "amenity": "cafe"
    },
    {
      "id": 137787,
      "geometry": "POINT (-73.861082 40.893776)",
      "poi_name": "Starbucks",
      "osm_id": 6113919175,
      "amenity": "cafe",
      "cuisine": "coffee_shop",
      "takeaway": "yes",
      "official_name": "Starbucks Coffee"
    },
    {
      "id": 151562,
      "geometry": "POINT (-73.861082 40.893776)",
      "poi_name": "Starbucks",
      "osm_id": 4106002351,
      "amenity": "cafe",
      "cuisine": "coffee_shop",
      "internet_access": "wlan",
      "takeaway": "yes",
      "official_name": "Starbucks Coffee"
    },
    {
      "id": 138986,
      "geometry": "POINT (-73.861082 40.893776)",
      "poi_name": "Starbucks",
      "osm_id": 6177666481,
      "amenity": "cafe",
      "cuisine": "coffee_shop"
    },
    {
      "id": 143404,
      "geometry": "POINT (-73.861082 40.893776)",
      "poi_name": "Main Street Farm",
      "osm_id": 6339557875,
      "amenity": "cafe",
      "outdoor_seating": "no"
    },
    {
      "id": 144452,
      "geometry": "POINT (-73.861082 40.893776)",
      "poi_name": "Village Tea Shop",
      "osm_id": 7265131623,
      "amenity": "cafe"
    },
    {
      "id": 145100,
      "geometry": "POINT (-73.861082 40.893776)",
      "poi_name": "Cafe 37",
      "osm_id": 7310088494,
      "amenity": "cafe",
      "addr_state": "NJ",
      "addr_city": "Ridgewood",
      "addr_postcode": "07450",
      "addr_street": "Broad Street",
      "addr_housenumber": "37"
    },
    {
      "id": 147537,
      "geometry": "POINT (-73.861082 40.893776)",
      "poi_name": "Cafe Amici",
      "osm_id": 7539557482,
      "amenity": "cafe",
      "website": "https://www.albertscafeamici.com"
    },
    {
      "id": 151563,
      "geometry": "POINT (-73.861082 40.893776)",
      "poi_name": "Sogno Coffeehouse & Creperie",
      "osm_id": 4106002352,
      "amenity": "cafe"
    },
    {
      "id": 151568,
      "geometry": "POINT (-73.861082 40.893776)",
      "poi_name": "The Rolling Pin Cafe",
      "osm_id": 4106002361,
      "amenity": "cafe"
    },
    {
      "id": 169040,
      "geometry": "POINT (-73.861082 40.893776)",
      "poi_name": "Starbucks",
      "osm_id": 2291991335,
      "amenity": "cafe",
      "cuisine": "coffee_shop",
      "takeaway": "yes",
      "official_name": "Starbucks Coffee"
    },
    {
      "id": 165097,
      "geometry": "POINT (-73.861082 40.893776)",
      "poi_name": "Curtain Call Cafe",
      "osm_id": 9517845217,
      "amenity": "cafe"
    },
    {
      "id": 168211,
      "geometry": "POINT (-73.861082 40.893776)",
      "poi_name": "Tuscan Cafe",
      "osm_id": 368048898,
      "amenity": "cafe",
      "internet_access": "yes",
      "outdoor_seating": "yes",
      "addr_state": "NY",
      "addr_city": "Warwick",
      "addr_postcode": "10990",
      "addr_housenumber": "5 1/2 South"
    },
    {
      "id": 190105,
      "geometry": "POINT (-73.861082 40.893776)",
      "poi_name": "Kitchen",
      "osm_id": 1270395610,
      "amenity": "cafe",
      "addr_state": "NJ",
      "addr_city": "Westwood",
      "addr_postcode": "07675",
      "addr_street": "Center Avenue",
      "addr_housenumber": "262"
    },
    {
      "id": 179709,
      "geometry": "POINT (-73.861082 40.893776)",
      "poi_name": "Foundry42",
      "osm_id": 10775947894,
      "amenity": "cafe",
      "addr_state": "NY",
      "addr_city": "Port Jervis",
      "addr_postcode": "12771",
      "addr_street": "Front Street",
      "addr_housenumber": "42"
    },
    {
      "id": 183882,
      "geometry": "POINT (-73.861082 40.893776)",
      "poi_name": "Starbucks",
      "osm_id": 10949058694,
      "amenity": "cafe",
      "cuisine": "coffee_shop",
      "takeaway": "yes",
      "official_name": "Starbucks Coffee"
    },
    {
      "id": 184890,
      "geometry": "POINT (-73.861082 40.893776)",
      "poi_name": "Starbucks",
      "osm_id": 7820305781,
      "amenity": "cafe",
      "cuisine": "coffee_shop",
      "takeaway": "yes",
      "official_name": "Starbucks Coffee"
    },
    {
      "id": 178429,
      "geometry": "POINT (-73.861082 40.893776)",
      "poi_name": "Starbucks",
      "osm_id": 10726866884,
      "amenity": "cafe",
      "cuisine": "coffee_shop",
      "takeaway": "yes",
      "official_name": "Starbucks Coffee"
    },
    {
      "id": 178444,
      "geometry": "POINT (-73.861082 40.893776)",
      "poi_name": "Java Love",
      "osm_id": 10726917405,
      "amenity": "cafe",
      "cuisine": "coffee_shop"
    },
    {
      "id": 194723,
      "geometry": "POINT (-73.861082 40.893776)",
      "poi_name": "Hava Java",
      "osm_id": 10281859717,
      "amenity": "cafe",
      "cuisine": "sandwich;donut;american",
      "opening_hours": "Su-Fr 07:00-14:00",
      "website": "https://www.havajavaonline.com/",
      "outdoor_seating": "no"
    },
    {
      "id": 198443,
      "geometry": "POINT (-73.861082 40.893776)",
      "poi_name": "Starbucks",
      "osm_id": 10705501261,
      "amenity": "cafe",
      "cuisine": "coffee_shop",
      "takeaway": "yes",
      "official_name": "Starbucks Coffee",
      "outdoor_seating": "yes",
      "addr_state": "NY",
      "addr_city": "Middletown",
      "addr_postcode": "10941",
      "addr_street": "NY-211",
      "addr_housenumber": "555"
    },
    {
      "id": 194833,
      "geometry": "POINT (-73.861082 40.893776)",
      "poi_name": "Hava Java",
      "osm_id": 10286462628,
      "amenity": "cafe",
      "website": "https://www.havajavaonline.com/",
      "internet_access": "yes",
      "phone": "8453621019",
      "outdoor_seating": "yes",
      "addr_state": "NY",
      "addr_city": "Village of Wesley Hills",
      "addr_postcode": "10952",
      "addr_street": "State Highway 306",
      "addr_housenumber": "455"
    },
    {
      "id": 195787,
      "geometry": "POINT (-73.861082 40.893776)",
      "poi_name": "Old Bat Factory",
      "osm_id": 10538306436,
      "amenity": "cafe"
    },
    {
      "id": 244295,
      "geometry": "POINT (-73.861082 40.893776)",
      "poi_name": "Milford's Daily Grind",
      "osm_id": 7712212386,
      "amenity": "cafe",
      "addr_state": "PA",
      "addr_city": "Milford",
      "addr_postcode": "18337",
      "addr_street": "7th Street",
      "addr_housenumber": "115"
    },
    {
      "id": 206748,
      "geometry": "POINT (-73.861082 40.893776)",
      "poi_name": "Burning Bush Coffee Shop",
      "osm_id": 7223169323,
      "amenity": "cafe"
    },
    {
      "id": 214509,
      "geometry": "POINT (-73.861082 40.893776)",
      "poi_name": "Starbucks",
      "osm_id": 5274012736,
      "amenity": "cafe",
      "cuisine": "coffee_shop",
      "internet_access": "yes",
      "takeaway": "yes",
      "official_name": "Starbucks Coffee",
      "outdoor_seating": "yes",
      "addr_state": "NJ",
      "addr_city": "Emerson",
      "addr_postcode": "07630",
      "addr_street": "Kinderkamack Road",
      "addr_housenumber": "322"
    },
    {
      "id": 215975,
      "geometry": "POINT (-73.861082 40.893776)",
      "poi_name": "Starbucks",
      "osm_id": 5320281049,
      "amenity": "cafe",
      "cuisine": "coffee_shop",
      "takeaway": "yes",
      "official_name": "Starbucks Coffee"
    },
    {
      "id": 244223,
      "geometry": "POINT (-73.861082 40.893776)",
      "poi_name": "The Frisky Goat Coffeehouse",
      "osm_id": 7708152109,
      "amenity": "cafe",
      "addr_state": "PA",
      "addr_city": "Milford",
      "addr_postcode": "18337",
      "addr_street": "Broad Street",
      "addr_housenumber": "611"
    },
    {
      "id": 205152,
      "geometry": "POINT (-73.861082 40.893776)",
      "poi_name": "Alt Eats Cafe",
      "osm_id": 7158877630,
      "amenity": "cafe",
      "cuisine": "american",
      "opening_hours": "Mo-Sa 08:00-17:00",
      "website": "https://www.alteatscafe.com/",
      "addr_state": "NJ",
      "addr_city": "Ho-Ho-Kus",
      "addr_postcode": "07423",
      "addr_street": "North Maple Avenue",
      "addr_housenumber": "622"
    },
    {
      "id": 205153,
      "geometry": "POINT (-73.861082 40.893776)",
      "poi_name": "catchy. cafe & catering",
      "osm_id": 7158877638,
      "amenity": "cafe",
      "opening_hours": "Mo-Fr 10:00-20:00; Sa 10:00-15:00",
      "website": "https://thecatchycaterer.com/",
      "phone": "+1-201-445-6400",
      "outdoor_seating": "yes",
      "addr_state": "NJ",
      "addr_city": "Ho-Ho-Kus",
      "addr_postcode": "07423",
      "addr_street": "North Maple Avenue",
      "addr_housenumber": "614"
    },
    {
      "id": 205156,
      "geometry": "POINT (-73.861082 40.893776)",
      "poi_name": "Red Cedar Market Seasonal Kitchen",
      "osm_id": 7158914114,
      "amenity": "cafe",
      "website": "https://www.redcedarmarket.com/",
      "phone": "+1-201-444-1522",
      "addr_state": "NJ",
      "addr_city": "Ho-Ho-Kus",
      "addr_postcode": "07423",
      "addr_street": "North Maple Avenue",
      "addr_housenumber": "611"
    },
    {
      "id": 216610,
      "geometry": "POINT (-73.861082 40.893776)",
      "poi_name": "Starbucks",
      "osm_id": 9177398487,
      "amenity": "cafe",
      "cuisine": "coffee_shop",
      "takeaway": "yes",
      "official_name": "Starbucks Coffee",
      "addr_state": "PA",
      "addr_city": "Dickson City",
      "addr_postcode": "18519",
      "addr_street": "Commerce Boulevard",
      "addr_housenumber": "1140"
    },
    {
      "id": 232144,
      "geometry": "POINT (-73.861082 40.893776)",
      "poi_name": "White Rock Cafe",
      "osm_id": 4512117841,
      "amenity": "cafe"
    },
    {
      "id": 244470,
      "geometry": "POINT (-73.861082 40.893776)",
      "poi_name": "Cafe Margierite",
      "osm_id": 7726522348,
      "amenity": "cafe",
      "cuisine": "breakfast;coffee_shop",
      "opening_hours": "Mo 08:00-14:00; Fr-Su 08:00-15:00",
      "website": "https://www.cafemarguerite.com",
      "phone": "+1-917-306-9562",
      "addr_city": "Margaretville",
      "addr_postcode": "12455",
      "addr_street": "Main Street",
      "addr_housenumber": "746"
    }
  ],
  "answer_type": "name",
  "question_entities": {
    "[1]": {
      "main_category": "amenity",
      "sub_category": "cafe"
    },
    "[2]": {
      "distance": 200000,
      "text": "200 kilometers"
    },
    "[3]": {
      "main_category": "amenity",
      "sub_category": "hospital",
      "display_name": "Montefiore Medical Center - Wakefield Campus, Bronx, NY",
      "geo_wkt": "POINT (-73.861082 40.893776)",
      "poi": {
        "id": 37608,
        "geometry": "POINT (-73.861082 40.893776)",
        "poi_name": "Montefiore Medical Center - Wakefield Campus",
        "osm_id": 2822777418,
        "amenity": "hospital",
        "healthcare": "hospital",
        "addr_state": "NY",
        "addr_city": "Bronx",
        "addr_postcode": "10466",
        "addr_street": "Carpenter Avenue",
        "addr_housenumber": "4141"
      }
    },
    "[4]": {
      "direction_desc": "northwest",
      "direction_predicate": "degrees(ST_Azimuth(origin.geometry, pois.geometry)) BETWEEN 292.5 AND 337.5"
    }
  },
  "id": 2635,
  "type": "range:direction+name"
}