{
  "question": "What's the distance to a restaurant from Rainbow Valley Family Farms, Traverse City, MI within a 70 kilometers radius?",
  "sql": "SELECT *, ST_Distance(ST_GeomFromText('POINT (-85.697759 44.695249)',4326)::geography, pois.geometry) AS distance FROM pois\nWHERE ST_DWithin(pois.geometry, ST_GeomFromText('POINT (-85.697759 44.695249)',4326)::geography, 70000)\nAND amenity = 'restaurant';\n",
  "answers": [
    {
      "id": 33794,
      "geometry": "POINT (-85.621174 44.763229)",
      "poi_name": "The Omelette Shoppe",
      "osm_id": 2683763729,
      "amenity": "restaurant",
      "cuisine": "breakfast",
      "opening_hours": "Mo-Fr 07:00-14:00; Sa,Su 08:00-14:00",
      "website": "https://omeletteshoppe.com/",
      "internet_access": "wlan",
      "addr_city": "Traverse City",
      "addr_postcode": "49684",
      "addr_street": "South Cass Street",
      "addr_housenumber": "124",
      "distance": 9688.92769263
    },
    {
      "id": 33795,
      "geometry": "POINT (-85.620772 44.762566)",
      "poi_name": "The Towne Plaza",
      "osm_id": 2683763737,
      "amenity": "restaurant",
      "website": "http://www.thetowneplaza.com/",
      "addr_state": "MI",
      "addr_city": "Traverse City",
      "addr_postcode": "49684",
      "addr_street": "South Cass Street",
      "addr_housenumber": "203",
      "distance": 9651.69712737
    },
    {
      "id": 34008,
      "geometry": "POINT (-85.402144 44.281946)",
      "poi_name": "Ruby Tuesday",
      "osm_id": 2689802498,
      "amenity": "restaurant",
      "cuisine": "american",
      "addr_city": "Cadillac",
      "addr_postcode": "49601",
      "addr_street": "East Boon Road",
      "addr_housenumber": "8711",
      "distance": 51596.68934915
    },
    {
      "id": 34009,
      "geometry": "POINT (-85.40098 44.282019)",
      "poi_name": "Pizza Hut",
      "osm_id": 2689802499,
      "amenity": "restaurant",
      "cuisine": "pizza",
      "addr_city": "Cadillac",
      "addr_postcode": "49601",
      "addr_street": "East Boon Road",
      "addr_housenumber": "8781",
      "distance": 51631.73425008
    },
    {
      "id": 35775,
      "geometry": "POINT (-85.396023 44.245168)",
      "poi_name": "Ponderosa Steakhouse",
      "osm_id": 2732262002,
      "amenity": "restaurant",
      "cuisine": "american;steak;buffet",
      "addr_city": "Cadillac",
      "addr_postcode": "49601",
      "addr_street": "South Mitchell Street",
      "addr_housenumber": "621",
      "distance": 55477.84933547
    },
    {
      "id": 39312,
      "geometry": "POINT (-85.457647 44.233036)",
      "poi_name": "Chicos Taco House",
      "osm_id": 2915928412,
      "amenity": "restaurant",
      "cuisine": "mexican",
      "website": "http://www.chicostacohouse.com/",
      "addr_city": "Cadillac",
      "addr_postcode": "49601",
      "addr_street": "East M 55 Highway",
      "addr_housenumber": "5954",
      "distance": 54800.70302352
    },
    {
      "id": 39313,
      "geometry": "POINT (-85.455903 44.235858)",
      "poi_name": "Lakeside Charlies",
      "osm_id": 2915928495,
      "amenity": "restaurant",
      "distance": 54555.57933366
    },
    {
      "id": 39550,
      "geometry": "POINT (-85.651393 44.975898)",
      "poi_name": "VI Grill",
      "osm_id": 2927442308,
      "amenity": "restaurant",
      "addr_street": "St Joseph Street",
      "addr_housenumber": "201",
      "distance": 31402.86870551
    },
    {
      "id": 39551,
      "geometry": "POINT (-85.65123 44.97713)",
      "poi_name": "Wren",
      "osm_id": 2927442311,
      "amenity": "restaurant",
      "addr_state": "MI",
      "addr_city": "Suttons Bay",
      "addr_postcode": "49682",
      "addr_street": "Saint Joseph Street",
      "addr_housenumber": "303",
      "distance": 31540.39250714
    },
    {
      "id": 39553,
      "geometry": "POINT (-85.649912 44.978374)",
      "poi_name": "Martha's Leelanau Table Cafe",
      "osm_id": 2927442313,
      "amenity": "restaurant",
      "distance": 31689.87707769
    },
    {
      "id": 39579,
      "geometry": "POINT (-85.601594 44.732832)",
      "poi_name": "Willie's Rear",
      "osm_id": 2929643507,
      "amenity": "restaurant",
      "cuisine": "breakfast",
      "addr_city": "Traverse City",
      "addr_street": "South Airport Road West",
      "distance": 8689.413334
    },
    {
      "id": 39679,
      "geometry": "POINT (-85.619958 44.763047)",
      "poi_name": "Thirsty Fish Sports Grille",
      "osm_id": 2934456601,
      "amenity": "restaurant",
      "cuisine": "american",
      "website": "https://thirstyfishsportsgrille.com",
      "addr_state": "MI",
      "addr_city": "Traverse City",
      "addr_postcode": "49684",
      "addr_street": "East State Street",
      "addr_housenumber": "221",
      "distance": 9733.87989654
    },
    {
      "id": 39680,
      "geometry": "POINT (-85.621174 44.76104)",
      "poi_name": "Fire Fly",
      "osm_id": 2934460301,
      "amenity": "restaurant",
      "addr_city": "Traverse City",
      "addr_street": "South Cass Street",
      "addr_housenumber": "310",
      "distance": 9500.53625837
    },
    {
      "id": 44574,
      "geometry": "POINT (-85.650965 44.974555)",
      "poi_name": "Boone's Prime Time Pub",
      "osm_id": 3165616568,
      "amenity": "restaurant",
      "cuisine": "burger",
      "distance": 31258.68294385
    },
    {
      "id": 47197,
      "geometry": "POINT (-85.621664 44.764197)",
      "poi_name": "Mama Lu's",
      "osm_id": 3312571912,
      "amenity": "restaurant",
      "cuisine": "mexican",
      "website": "https://mamalustc.com/",
      "takeaway": "yes",
      "addr_state": "MI",
      "addr_city": "Traverse City",
      "addr_postcode": "49684",
      "addr_street": "East Front Street",
      "addr_housenumber": "149",
      "distance": 9748.97047767
    },
    {
      "id": 50783,
      "geometry": "POINT (-86.099528 44.616776)",
      "poi_name": "Roadhouse",
      "osm_id": 3506371293,
      "amenity": "restaurant",
      "distance": 33038.75948448
    },
    {
      "id": 50063,
      "geometry": "POINT (-86.241247 44.632392)",
      "poi_name": "The Fusion",
      "osm_id": 3464557953,
      "amenity": "restaurant",
      "cuisine": "asian",
      "addr_state": "MI",
      "addr_city": "Frankfort",
      "addr_postcode": "49635",
      "addr_street": "Main Street",
      "addr_housenumber": "300",
      "distance": 43664.40561714
    },
    {
      "id": 55142,
      "geometry": "POINT (-85.63277 44.76392)",
      "poi_name": "Modern Bird",
      "osm_id": 10173843805,
      "amenity": "restaurant",
      "cuisine": "american",
      "website": "https://modernbirdtc.com/",
      "addr_state": "MI",
      "addr_city": "Traverse City",
      "addr_postcode": "49684",
      "addr_street": "West Front Street",
      "addr_housenumber": "541",
      "distance": 9205.38247022
    },
    {
      "id": 52856,
      "geometry": "POINT (-85.616371 45.129592)",
      "poi_name": "The Union",
      "osm_id": 10050856476,
      "amenity": "restaurant",
      "distance": 48694.53463797
    },
    {
      "id": 52857,
      "geometry": "POINT (-85.616495 45.128791)",
      "poi_name": "Around the Corner Food & Fun",
      "osm_id": 10050856481,
      "amenity": "restaurant",
      "addr_state": "MI",
      "addr_city": "Northport",
      "addr_postcode": "49670",
      "addr_street": "South Waukazoo Street",
      "addr_housenumber": "115",
      "distance": 48605.06720237
    },
    {
      "id": 54642,
      "geometry": "POINT (-85.795109 44.847772)",
      "poi_name": "Polish Countryside Kitchen",
      "osm_id": 10144846584,
      "amenity": "restaurant",
      "cuisine": "polish",
      "website": "https://www.polishheritagefarm.com/",
      "distance": 18619.06823951
    },
    {
      "id": 57934,
      "geometry": "POINT (-85.133465 44.829328)",
      "poi_name": "Mustangs",
      "osm_id": 5356905084,
      "amenity": "restaurant",
      "distance": 47095.36213939
    },
    {
      "id": 59327,
      "geometry": "POINT (-85.993537 44.517775)",
      "poi_name": "The Thistle",
      "osm_id": 5419103625,
      "amenity": "restaurant",
      "distance": 30663.67706947
    },
    {
      "id": 62097,
      "geometry": "POINT (-85.990862 44.897391)",
      "poi_name": "Boonedocks",
      "osm_id": 5552269821,
      "amenity": "restaurant",
      "cuisine": "american;seafood",
      "opening_hours": "Mo-Th 11:00-20:00; Fr-Sa 11:00-21:00",
      "takeaway": "yes",
      "outdoor_seating": "yes",
      "delivery": "no",
      "addr_state": "MI",
      "addr_city": "Glen Arbor",
      "addr_postcode": "49636",
      "addr_street": "Manitou View",
      "addr_housenumber": "5858",
      "distance": 32287.39782891
    },
    {
      "id": 65451,
      "geometry": "POINT (-85.398772 44.41102)",
      "poi_name": "Cast Iron Kitchen",
      "osm_id": 5696172421,
      "amenity": "restaurant",
      "cuisine": "pizza;burger;coffee_shop;sandwich;regional",
      "capacity": "0",
      "phone": "+1-231-824-4244",
      "outdoor_seating": "no",
      "addr_state": "MI",
      "addr_city": "Manton",
      "addr_postcode": "49663",
      "addr_street": "West Main Street",
      "addr_housenumber": "110",
      "distance": 39521.51877174
    },
    {
      "id": 65706,
      "geometry": "POINT (-86.208125 44.689904)",
      "poi_name": "Rocks Landing",
      "osm_id": 5708612053,
      "amenity": "restaurant",
      "cuisine": "regional",
      "capacity": "50",
      "takeaway": "no",
      "outdoor_seating": "yes",
      "delivery": "no",
      "addr_state": "MI",
      "addr_city": "Frankfort",
      "addr_postcode": "49635",
      "addr_street": "Crystal Drive",
      "addr_housenumber": "1577",
      "distance": 40459.61810467
    },
    {
      "id": 74580,
      "geometry": "POINT (-85.596855 44.732801)",
      "poi_name": "J & S Hamburg South",
      "osm_id": 9686326057,
      "amenity": "restaurant",
      "opening_hours": "Mo 07:00-15:00; Tu-Sa 07:00-20:00; Su 08:00-15:00",
      "website": "https://jshamburgsouth.com/",
      "phone": "+1-231-941-8844",
      "addr_state": "MI",
      "addr_city": "Traverse City",
      "addr_postcode": "49686",
      "addr_street": "West South Airport Road",
      "addr_housenumber": "1083",
      "distance": 9018.95528459
    },
    {
      "id": 66098,
      "geometry": "POINT (-85.403706 44.279864)",
      "poi_name": "Little Mexico",
      "osm_id": 5729106448,
      "amenity": "restaurant",
      "distance": 51746.60324062
    },
    {
      "id": 66646,
      "geometry": "POINT (-85.413958 44.898286)",
      "poi_name": "Cellar 152",
      "osm_id": 11203285357,
      "amenity": "restaurant",
      "cuisine": "sandwich;burger;american",
      "opening_hours": "Tu-Th 11:00-20:00; Fr-Sa 11:00-21:00",
      "phone": "+1 231-264-9000",
      "outdoor_seating": "yes",
      "addr_street": "River Street",
      "addr_housenumber": "152",
      "distance": 31833.11853621
    },
    {
      "id": 66673,
      "geometry": "POINT (-85.642931 44.75588)",
      "poi_name": "Red Spire Brunch House",
      "osm_id": 11205542648,
      "amenity": "restaurant",
      "cuisine": "american;coffee_shop;regional;sandwich;breakfast",
      "opening_hours": "Mo,We-Fr 08:00-15:00;Sa-Su 09:00-15:00",
      "website": "https://www.redspirebrunchhouse.com/",
      "phone": "+1 231-252-4648",
      "takeaway": "yes",
      "outdoor_seating": "no",
      "toilets": "yes",
      "addr_state": "MI",
      "addr_city": "Traverse City",
      "addr_postcode": "49684",
      "addr_street": "Cottageview Drive",
      "addr_housenumber": "800",
      "distance": 8016.46798495
    },
    {
      "id": 66767,
      "geometry": "POINT (-85.402338 44.899812)",
      "poi_name": "Ames Street Cafe",
      "osm_id": 11210329710,
      "amenity": "restaurant",
      "cuisine": "sandwich",
      "website": "https://www.facebook.com/amescafe",
      "phone": "+1 231-498-6005",
      "outdoor_seating": "yes",
      "toilets": "yes",
      "addr_street": "Ames Street",
      "addr_housenumber": "145",
      "distance": 32606.04795399
    },
    {
      "id": 69084,
      "geometry": "POINT (-85.638475 44.724916)",
      "poi_name": "Frida's Mexican Grill",
      "osm_id": 11294625973,
      "amenity": "restaurant",
      "cuisine": "mexican",
      "distance": 5739.25789328
    },
    {
      "id": 69244,
      "geometry": "POINT (-85.582603 44.7666)",
      "poi_name": "Hawk Owl Cafe",
      "osm_id": 11298188361,
      "amenity": "restaurant",
      "distance": 12086.36997103
    },
    {
      "id": 69326,
      "geometry": "POINT (-85.606178 44.765392)",
      "poi_name": "Lobdell's: A Teaching Restaurant",
      "osm_id": 11300774299,
      "amenity": "restaurant",
      "operator": "Northwestern Michigan College",
      "addr_state": "MI",
      "addr_city": "Traverse City",
      "addr_postcode": "49686",
      "addr_street": "East Front Street",
      "addr_housenumber": "715",
      "distance": 10648.3949554
    },
    {
      "id": 89651,
      "geometry": "POINT (-85.636555 44.792922)",
      "poi_name": "West End Tavern",
      "osm_id": 8853920104,
      "amenity": "restaurant",
      "website": "https://www.westendtaverntc.com/",
      "addr_state": "MI",
      "addr_city": "Traverse City",
      "addr_postcode": "49684",
      "addr_street": "South West Bay Shore Drive",
      "addr_housenumber": "12719",
      "distance": 11887.16727797
    },
    {
      "id": 86647,
      "geometry": "POINT (-85.618755 44.764204)",
      "poi_name": "Grand Traverse Pie Company",
      "osm_id": 1942633956,
      "amenity": "restaurant",
      "cuisine": "pie;sandwich;soup;breakfast",
      "opening_hours": "Tu-Sa 9:00-16:00",
      "operator": "Grand Traverse Pie Company",
      "website": "https://gtpie.com/locations/traverse-city-downtown/",
      "phone": "+1-231-933-3972",
      "addr_state": "MI",
      "addr_city": "Traverse City",
      "addr_postcode": "49684",
      "addr_street": "North Park Street",
      "addr_housenumber": "101",
      "distance": 9893.73236762
    },
    {
      "id": 86648,
      "geometry": "POINT (-85.61978 44.764213)",
      "poi_name": "Amical",
      "osm_id": 1942640874,
      "amenity": "restaurant",
      "cuisine": "french",
      "website": "https://www.amical.com/",
      "addr_state": "MI",
      "addr_city": "Traverse City",
      "addr_postcode": "49684",
      "addr_street": "East Front Street",
      "addr_housenumber": "229",
      "distance": 9843.34420531
    },
    {
      "id": 88269,
      "geometry": "POINT (-85.621193 44.763968)",
      "poi_name": "The Pub",
      "osm_id": 8776946100,
      "amenity": "restaurant",
      "website": "https://thepubtc.com",
      "phone": "+1-231-252-4275",
      "addr_state": "MI",
      "addr_city": "Traverse City",
      "addr_postcode": "49684",
      "addr_street": "East Front Street",
      "addr_housenumber": "160",
      "distance": 9752.13006791
    },
    {
      "id": 85171,
      "geometry": "POINT (-85.642437 44.755178)",
      "poi_name": "Trattoria Stella",
      "osm_id": 1843943527,
      "amenity": "restaurant",
      "cuisine": "italian",
      "website": "http://www.stellatc.com/",
      "addr_street": "West Eleventh Street",
      "addr_housenumber": "1200",
      "distance": 7972.41485488
    },
    {
      "id": 99854,
      "geometry": "POINT (-85.396828 44.23785)",
      "poi_name": "Big Boy",
      "osm_id": 6566719476,
      "amenity": "restaurant",
      "cuisine": "burger",
      "official_name": "Big Boy Restaurant & Bakery",
      "distance": 56185.27391965
    },
    {
      "id": 89757,
      "geometry": "POINT (-85.085162 44.243508)",
      "poi_name": "Duanes Family Restaurant",
      "osm_id": 8859491637,
      "amenity": "restaurant",
      "cuisine": "american",
      "opening_hours": "Tu-Th 06:00-19:00; Fr,Sa 06:00-20:00",
      "phone": "+1-231-826-3313",
      "takeaway": "yes",
      "delivery": "no",
      "addr_state": "MI",
      "addr_city": "Falmouth",
      "addr_postcode": "49632",
      "addr_street": "East Prosper Road",
      "addr_housenumber": "456",
      "distance": 69970.50468202
    },
    {
      "id": 100153,
      "geometry": "POINT (-85.63214 44.726092)",
      "poi_name": "Fuji Sushi Steak House",
      "osm_id": 6577185183,
      "amenity": "restaurant",
      "cuisine": "japanese",
      "addr_state": "MI",
      "addr_city": "Traverse City",
      "addr_postcode": "49684",
      "addr_street": "Crossing Circle",
      "addr_housenumber": "2576",
      "distance": 6227.80805384
    },
    {
      "id": 105964,
      "geometry": "POINT (-86.058184 44.811994)",
      "poi_name": "Shipwreck Cafe",
      "osm_id": 8656469947,
      "amenity": "restaurant",
      "distance": 31350.22495614
    },
    {
      "id": 111282,
      "geometry": "POINT (-85.536445 44.583953)",
      "poi_name": "A Papano's",
      "osm_id": 3739883984,
      "amenity": "restaurant",
      "cuisine": "pizza",
      "distance": 17797.84494485
    },
    {
      "id": 109808,
      "geometry": "POINT (-85.617726 44.763034)",
      "poi_name": "Scalawag's Whitefish and Chips",
      "osm_id": 3675442954,
      "amenity": "restaurant",
      "cuisine": "fish_and_chips",
      "website": "http://www.scalawagstc.com/",
      "addr_state": "MI",
      "addr_city": "Traverse City",
      "addr_postcode": "49684",
      "addr_street": "East State Street",
      "addr_housenumber": "303",
      "distance": 9845.62782613
    },
    {
      "id": 109809,
      "geometry": "POINT (-85.618039 44.762793)",
      "poi_name": "Minerva's",
      "osm_id": 3675442955,
      "amenity": "restaurant",
      "website": "https://www.minervas.net/minervas-traverse-city/",
      "addr_state": "MI",
      "addr_city": "Traverse City",
      "addr_postcode": "49684",
      "addr_street": "East State Street",
      "addr_housenumber": "300",
      "distance": 9809.22411691
    },
    {
      "id": 106664,
      "geometry": "POINT (-85.594823 44.758513)",
      "poi_name": "Oakwood Proper Burgers",
      "osm_id": 8694054859,
      "amenity": "restaurant",
      "cuisine": "burger",
      "addr_state": "MI",
      "addr_city": "Traverse City",
      "addr_postcode": "49686",
      "addr_street": "East Eighth Street",
      "addr_housenumber": "1108",
      "distance": 10766.72289992
    },
    {
      "id": 110743,
      "geometry": "POINT (-85.395943 44.899708)",
      "poi_name": "Pearl's New Orlean's Kitchen",
      "osm_id": 3716131890,
      "amenity": "restaurant",
      "cuisine": "southern",
      "website": "https://www.magnumhospitality.com/pearls/",
      "phone": "+1 231-264-0530",
      "addr_street": "Ames Street",
      "addr_housenumber": "617",
      "distance": 32962.71143864
    },
    {
      "id": 112018,
      "geometry": "POINT (-85.468626 44.268295)",
      "poi_name": "13th Street Market",
      "osm_id": 3775766676,
      "amenity": "restaurant",
      "distance": 50825.05282363
    },
    {
      "id": 112019,
      "geometry": "POINT (-85.466564 44.264251)",
      "poi_name": "Timbers",
      "osm_id": 3775766677,
      "amenity": "restaurant",
      "distance": 51303.62976468
    },
    {
      "id": 115426,
      "geometry": "POINT (-85.286798 44.641177)",
      "poi_name": "Yankee Boy",
      "osm_id": 8893641957,
      "amenity": "restaurant",
      "distance": 33138.6606574
    },
    {
      "id": 112381,
      "geometry": "POINT (-85.528643 44.886047)",
      "poi_name": "Mission Table",
      "osm_id": 3789222560,
      "amenity": "restaurant",
      "addr_city": "Traverse City",
      "addr_street": "Peninsula Drive",
      "addr_housenumber": "13512",
      "distance": 25073.11948052
    },
    {
      "id": 112422,
      "geometry": "POINT (-85.611644 44.75981)",
      "poi_name": "Dino's Pizza",
      "osm_id": 3790686674,
      "amenity": "restaurant",
      "cuisine": "pizza",
      "addr_state": "MI",
      "addr_city": "Traverse City",
      "addr_postcode": "49686",
      "addr_street": "East Eighth Street",
      "addr_housenumber": "539",
      "distance": 9900.09039162
    },
    {
      "id": 115446,
      "geometry": "POINT (-85.650844 44.975225)",
      "poi_name": "The Roman Wheel",
      "osm_id": 8895812103,
      "amenity": "restaurant",
      "cuisine": "pizza",
      "addr_state": "MI",
      "addr_city": "Suttons Bay",
      "addr_street": "Saint Joseph Street",
      "addr_housenumber": "116",
      "distance": 31333.6885106
    },
    {
      "id": 115555,
      "geometry": "POINT (-85.62214 44.763963)",
      "poi_name": "Flying Noodle",
      "osm_id": 8902443895,
      "amenity": "restaurant",
      "cuisine": "italian",
      "opening_hours": "Tu-Sa 15:00-21:30",
      "website": "https://flyingnoodletc.com/",
      "phone": "+1-231-943-1178",
      "addr_state": "MI",
      "addr_city": "Traverse City",
      "addr_postcode": "49684",
      "addr_street": "East Front Street",
      "addr_housenumber": "136",
      "distance": 9705.23803876
    },
    {
      "id": 115510,
      "geometry": "POINT (-85.620064 44.762782)",
      "poi_name": "Cousin Jenny's",
      "osm_id": 8901051354,
      "amenity": "restaurant",
      "cuisine": "regional",
      "website": "https://cousinjennyspasties.com/",
      "addr_state": "MI",
      "addr_city": "Traverse City",
      "addr_postcode": "49684",
      "addr_street": "East State Street",
      "addr_housenumber": "222",
      "distance": 9705.78452414
    },
    {
      "id": 115613,
      "geometry": "POINT (-85.592331 44.764736)",
      "poi_name": "The Omelette Shoppe",
      "osm_id": 8905268843,
      "amenity": "restaurant",
      "cuisine": "breakfast",
      "website": "https://omeletteshoppe.com/",
      "addr_state": "MI",
      "addr_city": "Traverse City",
      "addr_postcode": "49686",
      "addr_street": "East Front Street",
      "addr_housenumber": "1209",
      "distance": 11374.35791759
    },
    {
      "id": 122988,
      "geometry": "POINT (-85.173913 44.740454)",
      "poi_name": "Nico\u2019s Pizza & Grinders",
      "osm_id": 6831675920,
      "amenity": "restaurant",
      "cuisine": "pizza",
      "opening_hours": "Mo-Su 10:00-22:00; Fr,Sa 10:00-23:00",
      "phone": "+1-231-258-4045",
      "takeaway": "yes",
      "delivery": "yes",
      "addr_state": "MI",
      "addr_city": "Kalkaska",
      "addr_postcode": "49646",
      "addr_street": "North Cedar Street",
      "addr_housenumber": "606",
      "distance": 41808.59254999
    },
    {
      "id": 116157,
      "geometry": "POINT (-85.626597 44.763944)",
      "poi_name": "Barrio",
      "osm_id": 8930614941,
      "amenity": "restaurant",
      "cuisine": "mexican",
      "opening_hours": "We-Su 11:00-01:00",
      "website": "https://barrio-tacos.com/location/traverse-city",
      "phone": "+1-231-421-1855",
      "addr_state": "MI",
      "addr_city": "Traverse City",
      "addr_postcode": "49684",
      "addr_street": "West Front Street",
      "addr_housenumber": "305",
      "distance": 9489.63278558
    },
    {
      "id": 119198,
      "geometry": "POINT (-85.402768 44.224839)",
      "poi_name": "Curly's Diner",
      "osm_id": 9088330718,
      "amenity": "restaurant",
      "distance": 57302.27298285
    },
    {
      "id": 119199,
      "geometry": "POINT (-85.403044 44.225095)",
      "poi_name": "The Terrace Room",
      "osm_id": 9088330719,
      "amenity": "restaurant",
      "distance": 57267.33570192
    },
    {
      "id": 123725,
      "geometry": "POINT (-85.984567 44.8976)",
      "poi_name": "Riverfront Pizza & Deli",
      "osm_id": 6875519596,
      "amenity": "restaurant",
      "cuisine": "pizza",
      "website": "https://riverfrontpizza.com",
      "addr_state": "MI",
      "addr_city": "Glen Arbor",
      "addr_street": "Western Avenue",
      "addr_housenumber": "6281",
      "distance": 31947.9058854
    },
    {
      "id": 124719,
      "geometry": "POINT (-85.61803 44.763558)",
      "poi_name": "Park Street Cafe",
      "osm_id": 6927030135,
      "amenity": "restaurant",
      "website": "https://parkstreetcafetc.com",
      "addr_state": "MI",
      "addr_city": "Traverse City",
      "addr_postcode": "49684",
      "addr_street": "Park Street",
      "addr_housenumber": "113",
      "distance": 9874.89984148
    },
    {
      "id": 126263,
      "geometry": "POINT (-85.6203 44.763957)",
      "poi_name": "U & I Lounge",
      "osm_id": 6990669244,
      "amenity": "restaurant",
      "website": "https://www.uandilounge.com/",
      "addr_state": "MI",
      "addr_city": "Traverse City",
      "addr_postcode": "49684",
      "addr_street": "East Front Street",
      "addr_housenumber": "214",
      "distance": 9795.32975741
    },
    {
      "id": 125193,
      "geometry": "POINT (-85.758115 45.022224)",
      "poi_name": "The Riverside Inn",
      "osm_id": 6949456991,
      "amenity": "restaurant",
      "distance": 36648.24703997
    },
    {
      "id": 130174,
      "geometry": "POINT (-85.061959 44.902234)",
      "poi_name": "Pizza Shoppe",
      "osm_id": 9858035095,
      "amenity": "restaurant",
      "cuisine": "pizza",
      "opening_hours": "Mo-Fr 11:00-13:00,16:00-21:00; Sa,Su 16:00-21:00",
      "phone": "+1-231-587-5162",
      "takeaway": "yes",
      "delivery": "yes",
      "addr_state": "MI",
      "addr_city": "Mancelona",
      "addr_postcode": "49659",
      "addr_street": "West State Street",
      "addr_housenumber": "113",
      "distance": 55315.01739744
    },
    {
      "id": 136313,
      "geometry": "POINT (-85.768422 44.647126)",
      "poi_name": "Hofbrau Steak House & American Grille",
      "osm_id": 11576951671,
      "amenity": "restaurant",
      "addr_state": "MI",
      "addr_city": "Interlochen",
      "addr_postcode": "49643",
      "addr_street": "J Maddy Parkway",
      "addr_housenumber": "2784",
      "distance": 7745.69493846
    },
    {
      "id": 131111,
      "geometry": "POINT (-85.508713 44.893046)",
      "poi_name": "The Peninsula Grill",
      "osm_id": 9902243478,
      "amenity": "restaurant",
      "website": "http://www.tcpeninsulagrill.com/",
      "distance": 26588.03517406
    },
    {
      "id": 134155,
      "geometry": "POINT (-85.645414 44.755978)",
      "poi_name": "Spanglish",
      "osm_id": 11457584490,
      "amenity": "restaurant",
      "cuisine": "mexican",
      "addr_state": "MI",
      "addr_city": "Traverse City",
      "addr_postcode": "49684",
      "addr_street": "Yellow Drive",
      "addr_housenumber": "1333",
      "distance": 7920.8865096
    },
    {
      "id": 135309,
      "geometry": "POINT (-85.514563 44.743513)",
      "poi_name": "T-Bar & Grill",
      "osm_id": 11511458958,
      "amenity": "restaurant",
      "addr_state": "MI",
      "addr_city": "Traverse City",
      "addr_postcode": "49686",
      "addr_street": "Holiday Road",
      "addr_housenumber": "3100",
      "distance": 15473.95539611
    },
    {
      "id": 141590,
      "geometry": "POINT (-85.645817 44.755166)",
      "poi_name": "Sugar 2 Salt",
      "osm_id": 6291183311,
      "amenity": "restaurant",
      "cuisine": "brunch",
      "website": "https://www.sugar2salt.com/",
      "addr_state": "MI",
      "addr_city": "Traverse City",
      "addr_postcode": "49684",
      "addr_street": "Gray Drive",
      "addr_housenumber": "1371",
      "distance": 7827.30255994
    },
    {
      "id": 152480,
      "geometry": "POINT (-85.626818 44.765466)",
      "poi_name": "Hexenbelle",
      "osm_id": 4147367786,
      "amenity": "restaurant",
      "addr_city": "Traverse City",
      "addr_postcode": "49684",
      "addr_street": "Hall Street",
      "addr_housenumber": "144",
      "distance": 9615.93097543
    },
    {
      "id": 150122,
      "geometry": "POINT (-85.591854 44.764756)",
      "poi_name": "Thai Caf\u00e9",
      "osm_id": 4043096642,
      "amenity": "restaurant",
      "cuisine": "thai",
      "distance": 11403.60701242
    },
    {
      "id": 175675,
      "geometry": "POINT (-85.989127 44.896419)",
      "poi_name": "Cherry Republic",
      "osm_id": 2531717061,
      "amenity": "restaurant",
      "distance": 32113.79575781
    },
    {
      "id": 153620,
      "geometry": "POINT (-85.619492 44.763942)",
      "poi_name": "Georgina's",
      "osm_id": 4205045822,
      "amenity": "restaurant",
      "cuisine": "international",
      "website": "https://www.georginastaqueria.com/",
      "takeaway": "yes",
      "addr_state": "MI",
      "addr_city": "Traverse City",
      "addr_postcode": "49684",
      "addr_street": "East Front Street",
      "addr_housenumber": "236",
      "distance": 9834.280968
    },
    {
      "id": 160072,
      "geometry": "POINT (-85.413992 44.897793)",
      "poi_name": "Foundry",
      "osm_id": 4816786093,
      "amenity": "restaurant",
      "cuisine": "italian_pizza",
      "addr_state": "MI",
      "addr_city": "Elk Rapids",
      "addr_postcode": "49629",
      "addr_street": "River Street",
      "addr_housenumber": "151",
      "distance": 31792.54891777
    },
    {
      "id": 157928,
      "geometry": "POINT (-85.641303 44.777584)",
      "poi_name": "Harrington's By The Bay",
      "osm_id": 4729413905,
      "amenity": "restaurant",
      "website": "http://www.harringtonsbythebay.com",
      "distance": 10183.96343073
    },
    {
      "id": 160670,
      "geometry": "POINT (-85.594092 44.747537)",
      "poi_name": "Randy's Diner",
      "osm_id": 4841784202,
      "amenity": "restaurant",
      "cuisine": "diner",
      "website": "https://randysdiner.com/",
      "addr_state": "MI",
      "addr_city": "Traverse City",
      "addr_postcode": "49686",
      "addr_street": "Carver Street",
      "addr_housenumber": "1120",
      "distance": 10060.85236694
    },
    {
      "id": 181445,
      "geometry": "POINT (-85.609911 44.765102)",
      "poi_name": "Artisan Waterfront Restaurant & Tavern",
      "osm_id": 10846965690,
      "amenity": "restaurant",
      "distance": 10425.19184284
    },
    {
      "id": 188034,
      "geometry": "POINT (-85.598118 44.73523)",
      "poi_name": "Opa",
      "osm_id": 1125317830,
      "amenity": "restaurant",
      "distance": 9059.43695003
    },
    {
      "id": 187581,
      "geometry": "POINT (-85.489503 44.773644)",
      "poi_name": "McGee's No. 72",
      "osm_id": 1080575135,
      "amenity": "restaurant",
      "website": "https://www.facebook.com/McGees72/",
      "distance": 18655.05772668
    },
    {
      "id": 190318,
      "geometry": "POINT (-85.628475 44.764241)",
      "poi_name": "North Peak Brewing Company",
      "osm_id": 1284791512,
      "amenity": "restaurant",
      "website": "http://www.northpeak.net/np.html",
      "addr_state": "MI",
      "addr_city": "Traverse City",
      "addr_postcode": "49684",
      "addr_street": "West Front Street",
      "addr_housenumber": "400",
      "distance": 9428.89294417
    },
    {
      "id": 188214,
      "geometry": "POINT (-85.632656 44.763921)",
      "poi_name": "Mary's Kitchen Port",
      "osm_id": 1129842972,
      "amenity": "restaurant",
      "cuisine": "sandwich",
      "website": "https://maryskitchenport.com/",
      "addr_state": "MI",
      "addr_city": "Traverse City",
      "addr_postcode": "49684",
      "addr_street": "West Front Street",
      "addr_housenumber": "539",
      "distance": 9210.53186586
    },
    {
      "id": 188217,
      "geometry": "POINT (-85.631579 44.763658)",
      "poi_name": "The Chef's In",
      "osm_id": 1129842985,
      "amenity": "restaurant",
      "cuisine": "sandwich",
      "website": "http://www.chefsintc.com/",
      "addr_state": "MI",
      "addr_city": "Traverse City",
      "addr_postcode": "49684",
      "addr_street": "West Front Street",
      "addr_housenumber": "519",
      "distance": 9234.51976996
    },
    {
      "id": 188218,
      "geometry": "POINT (-85.631944 44.763864)",
      "poi_name": "Grand Traverse Pie Company",
      "osm_id": 1129842988,
      "amenity": "restaurant",
      "website": "https://gtpie.com/",
      "addr_state": "MI",
      "addr_city": "Traverse City",
      "addr_postcode": "49684",
      "addr_street": "West Front Street",
      "addr_housenumber": "525",
      "distance": 9236.9998124
    },
    {
      "id": 208328,
      "geometry": "POINT (-84.995859 44.466061)",
      "poi_name": "Whipple's",
      "osm_id": 4987148877,
      "amenity": "restaurant",
      "addr_state": "MI",
      "addr_city": "Moorestown",
      "addr_postcode": "49651",
      "addr_street": "East Moorestown Road",
      "addr_housenumber": "4865",
      "distance": 61286.83775164
    },
    {
      "id": 202281,
      "geometry": "POINT (-85.456697 44.241638)",
      "poi_name": "Firehouse 115",
      "osm_id": 7018065104,
      "amenity": "restaurant",
      "addr_city": "Cadillac",
      "addr_street": "E M 115",
      "addr_housenumber": "6080",
      "distance": 53932.27462017
    },
    {
      "id": 207705,
      "geometry": "POINT (-85.611492 44.759817)",
      "poi_name": "Raduno",
      "osm_id": 4958326531,
      "amenity": "restaurant",
      "cuisine": "deli;italian;sausage",
      "opening_hours": "Mo-Sa 11:00-19:00",
      "website": "http://www.radunotc.com",
      "phone": "+1-231-421-1218",
      "takeaway": "yes",
      "outdoor_seating": "yes",
      "delivery": "no",
      "addr_state": "MI",
      "addr_city": "Traverse City",
      "addr_postcode": "49686",
      "addr_street": "East Eighth Street",
      "addr_housenumber": "545",
      "distance": 9908.96248652
    },
    {
      "id": 191281,
      "geometry": "POINT (-85.283729 44.942828)",
      "poi_name": "Dockside Torch Lake",
      "osm_id": 1352178702,
      "amenity": "restaurant",
      "cuisine": "burger;sandwich;mexican;chicken;american",
      "opening_hours": "Mo-Su 11:00-02:00",
      "website": "http://docksidetorchlake.com/",
      "capacity": "200",
      "phone": "+1 231-377-7777",
      "takeaway": "yes",
      "outdoor_seating": "yes",
      "delivery": "no",
      "addr_state": "MI",
      "addr_city": "Bellaire",
      "addr_postcode": "49615",
      "addr_street": "Old Torch Lake Drive",
      "addr_housenumber": "6340",
      "distance": 42771.0575422
    },
    {
      "id": 208128,
      "geometry": "POINT (-85.153728 44.742648)",
      "poi_name": "Twin Birch Golf Course",
      "osm_id": 4974326949,
      "amenity": "restaurant",
      "distance": 43424.85052308
    },
    {
      "id": 229742,
      "geometry": "POINT (-85.631307 44.752018)",
      "poi_name": "white on rice",
      "osm_id": 4397910008,
      "amenity": "restaurant",
      "cuisine": "sushi",
      "addr_state": "MI",
      "addr_city": "Traverse City",
      "addr_postcode": "49684",
      "addr_street": "West Fourteenth Street",
      "addr_housenumber": "510",
      "distance": 8216.67302092
    },
    {
      "id": 223660,
      "geometry": "POINT (-85.651358 44.974891)",
      "poi_name": "Streetwise Grille",
      "osm_id": 11060814578,
      "amenity": "restaurant",
      "distance": 31292.09792718
    },
    {
      "id": 223661,
      "geometry": "POINT (-85.650635 44.97606)",
      "poi_name": "Bay Burrito Co.",
      "osm_id": 11060814579,
      "amenity": "restaurant",
      "cuisine": "mexican",
      "distance": 31427.75592266
    },
    {
      "id": 225673,
      "geometry": "POINT (-85.720736 44.718014)",
      "poi_name": "Boone's Long Lake Inn",
      "osm_id": 11136821521,
      "amenity": "restaurant",
      "cuisine": "steak_house",
      "website": "https://booneslli.com",
      "addr_state": "MI",
      "addr_city": "Traverse City",
      "addr_postcode": "49685",
      "addr_street": "Secor Road",
      "addr_housenumber": "7208",
      "distance": 3116.99458924
    },
    {
      "id": 212474,
      "geometry": "POINT (-85.632033 44.752025)",
      "poi_name": "Crusted Creations",
      "osm_id": 5208693046,
      "amenity": "restaurant",
      "cuisine": "pizza",
      "distance": 8180.5679553
    },
    {
      "id": 212475,
      "geometry": "POINT (-85.632075 44.751361)",
      "poi_name": "Ming\u2019s Garden",
      "osm_id": 5208693047,
      "amenity": "restaurant",
      "cuisine": "chinese",
      "distance": 8121.69112339
    },
    {
      "id": 221108,
      "geometry": "POINT (-86.06334 44.810801)",
      "poi_name": "Joe\u2019s Friendly Tavern",
      "osm_id": 10968035772,
      "amenity": "restaurant",
      "distance": 31668.59854343
    },
    {
      "id": 228012,
      "geometry": "POINT (-85.620853 44.764202)",
      "poi_name": "Sparks BBQ",
      "osm_id": 4326822669,
      "amenity": "restaurant",
      "cuisine": "barbecue",
      "website": "http://home.eatsparksbbq.com/",
      "addr_state": "MI",
      "addr_city": "Traverse City",
      "addr_postcode": "49684",
      "addr_street": "East Front Street",
      "addr_housenumber": "201",
      "distance": 9789.27196982
    },
    {
      "id": 232748,
      "geometry": "POINT (-85.450222 44.233001)",
      "poi_name": "Burke's Waterfront Restaurant",
      "osm_id": 4540945612,
      "amenity": "restaurant",
      "website": "https://www.burkeswaterfront.com/",
      "phone": "+1-231-775-7555",
      "addr_state": "MI",
      "addr_city": "Cadillac",
      "addr_postcode": "49601",
      "addr_street": "Sunnyside Drive",
      "addr_housenumber": "2403",
      "distance": 55013.21118822
    },
    {
      "id": 230438,
      "geometry": "POINT (-85.175449 44.728644)",
      "poi_name": "Trouttown Cafe",
      "osm_id": 4426001763,
      "amenity": "restaurant",
      "distance": 41554.26161062
    },
    {
      "id": 230859,
      "geometry": "POINT (-85.398428 44.415066)",
      "poi_name": "The North Side Restarant",
      "osm_id": 4442997005,
      "amenity": "restaurant",
      "cuisine": "american",
      "website": "https://www.facebook.com/pages/The-North-Side-Restaurant/119914571357810",
      "phone": "+1 231 824 9427",
      "addr_street": "North Michigan Avenue",
      "addr_housenumber": "411",
      "distance": 39179.29355794
    },
    {
      "id": 232683,
      "geometry": "POINT (-85.457978 44.102516)",
      "poi_name": "Lisa's Grill",
      "osm_id": 4538725007,
      "amenity": "restaurant",
      "distance": 68578.60173894
    },
    {
      "id": 233193,
      "geometry": "POINT (-85.604723 44.733776)",
      "poi_name": "Sparky's Diner",
      "osm_id": 4562034540,
      "amenity": "restaurant",
      "cuisine": "diner",
      "addr_state": "MI",
      "addr_city": "Traverse City",
      "addr_street": "South Airport Road West",
      "addr_housenumber": "1462",
      "distance": 8524.97636891
    },
    {
      "id": 233778,
      "geometry": "POINT (-85.598058 44.732874)",
      "poi_name": "Thai Kitchen",
      "osm_id": 4587131998,
      "amenity": "restaurant",
      "cuisine": "thai",
      "addr_street": "South Airport Road West",
      "addr_housenumber": "1133",
      "distance": 8938.30723008
    },
    {
      "id": 237850,
      "geometry": "POINT (-86.316313 44.260381)",
      "poi_name": "Pink Lotus",
      "osm_id": 5850752579,
      "amenity": "restaurant",
      "cuisine": "thai",
      "distance": 68970.22444111
    },
    {
      "id": 235139,
      "geometry": "POINT (-85.649245 44.978328)",
      "poi_name": "North Country Grill and Pub",
      "osm_id": 5746168112,
      "amenity": "restaurant",
      "distance": 31691.1322398
    },
    {
      "id": 235716,
      "geometry": "POINT (-85.616982 44.763989)",
      "poi_name": "The Good Bowl",
      "osm_id": 5764510857,
      "amenity": "restaurant",
      "cuisine": "vietnamese",
      "website": "https://www.goodbowleatery.com/",
      "addr_state": "MI",
      "addr_city": "Traverse City",
      "addr_postcode": "49684",
      "addr_street": "East Front Street",
      "addr_housenumber": "328",
      "distance": 9964.79544297
    },
    {
      "id": 235717,
      "geometry": "POINT (-85.618955 44.763979)",
      "poi_name": "Sorellina",
      "osm_id": 5764510858,
      "amenity": "restaurant",
      "cuisine": "italian",
      "website": "http://www.sorellinatc.com/",
      "addr_state": "MI",
      "addr_city": "Traverse City",
      "addr_postcode": "49684",
      "addr_street": "East Front Street",
      "addr_housenumber": "250",
      "distance": 9864.35468794
    },
    {
      "id": 235718,
      "geometry": "POINT (-85.619068 44.763983)",
      "poi_name": "Slate",
      "osm_id": 5764510859,
      "amenity": "restaurant",
      "cuisine": "steak",
      "addr_state": "MI",
      "addr_city": "Traverse City",
      "addr_postcode": "49684",
      "addr_street": "East Front Street",
      "addr_housenumber": "250",
      "distance": 9859.00279224
    },
    {
      "id": 235719,
      "geometry": "POINT (-85.616878 44.763118)",
      "poi_name": "Crepes & Co",
      "osm_id": 5764510860,
      "amenity": "restaurant",
      "cuisine": "crepe",
      "addr_state": "MI",
      "addr_city": "Traverse City",
      "addr_postcode": "49684",
      "addr_street": "East State Street",
      "addr_housenumber": "329",
      "distance": 9896.17930643
    },
    {
      "id": 237851,
      "geometry": "POINT (-86.318448 44.257995)",
      "poi_name": "Mancino's Pizza & Grinders",
      "osm_id": 5850755023,
      "amenity": "restaurant",
      "distance": 69277.92473268
    },
    {
      "id": 241554,
      "geometry": "POINT (-85.616986 44.763307)",
      "poi_name": "Midland Burger Company",
      "osm_id": 6029540908,
      "amenity": "restaurant",
      "cuisine": "burger",
      "website": "https://www.midlandburgercompany.com/downtown-traverse-city/",
      "distance": 9906.62468699
    }
  ],
  "answer_type": "distance",
  "question_entities": {
    "[1]": {
      "main_category": "amenity",
      "sub_category": "restaurant"
    },
    "[2]": {
      "distance": 70000,
      "text": "70 kilometers"
    },
    "[3]": {
      "main_category": "tourism",
      "sub_category": "zoo",
      "display_name": "Rainbow Valley Family Farms, Traverse City, MI",
      "geo_wkt": "POINT (-85.697759 44.695249)",
      "poi": {
        "id": 24437,
        "geometry": "POINT (-85.697759 44.695249)",
        "poi_name": "Rainbow Valley Family Farms",
        "osm_id": 11054966206,
        "tourism": "zoo",
        "zoo": "petting_zoo",
        "addr_state": "MI",
        "addr_city": "Traverse City",
        "addr_postcode": "49685",
        "addr_street": "Culver Road",
        "addr_housenumber": "6040"
      }
    }
  },
  "id": 717,
  "type": "range+distance"
}