{
  "question": "Which fast food restaurant is available towards Tobacco City Museum, WI within 30 kilometers from Tilt Studio, IL?",
  "sql": "WITH\n    angle AS (SELECT degrees(ST_Azimuth(ST_GeomFromText('POINT (-88.973072 42.24581)',4326)::geography, ST_GeomFromText('POINT (-89.071779 42.835006)',4326)::geography)) AS value)\nSELECT * FROM pois,angle\nWHERE amenity = 'fast_food'\nAND ST_DWithin(pois.geometry, ST_GeomFromText('POINT (-88.973072 42.24581)',4326)::geography, 30000)\nAND (degrees(ST_Azimuth(ST_GeomFromText('POINT (-88.973072 42.24581)',4326)::geography, pois.geometry)) BETWEEN angle.value - 22.5 AND angle.value + 22.5);\n",
  "answers": [
    {
      "id": 33718,
      "geometry": "POINT (-88.97932 42.268144)",
      "poi_name": "Panda Express",
      "osm_id": 2679304660,
      "amenity": "fast_food",
      "cuisine": "chinese",
      "phone": "+1 81-227-9606",
      "takeaway": "yes",
      "addr_postcode": "61108",
      "addr_street": "Walton Street",
      "addr_housenumber": "7046",
      "value": 352.9711427003237
    },
    {
      "id": 33719,
      "geometry": "POINT (-88.979248 42.268215)",
      "poi_name": "Charleys Philly Steaks",
      "osm_id": 2679304661,
      "amenity": "fast_food",
      "cuisine": "sandwich",
      "phone": "+1 815-227-5679",
      "takeaway": "yes",
      "addr_postcode": "61108",
      "addr_street": "Walton Street",
      "addr_housenumber": "7038",
      "value": 352.9711427003237
    },
    {
      "id": 94289,
      "geometry": "POINT (-89.046462 42.470059)",
      "poi_name": "Happy Wok",
      "osm_id": 2224146274,
      "amenity": "fast_food",
      "cuisine": "chinese",
      "website": "http://happywoksb.com/",
      "addr_state": "IL",
      "addr_city": "South Beloit",
      "addr_postcode": "61080",
      "addr_street": "Prairie Hill Road",
      "addr_housenumber": "356A",
      "value": 352.9711427003237
    },
    {
      "id": 87862,
      "geometry": "POINT (-88.997142 42.319252)",
      "poi_name": "Dunkin'",
      "osm_id": 8747643882,
      "amenity": "fast_food",
      "cuisine": "donut;coffee_shop",
      "takeaway": "yes",
      "drive_through": "yes",
      "outdoor_seating": "no",
      "addr_state": "IL",
      "addr_city": "Loves Park",
      "addr_postcode": "61111",
      "addr_street": "East Riverside Boulevard",
      "addr_housenumber": "6152",
      "value": 352.9711427003237
    },
    {
      "id": 79934,
      "geometry": "POINT (-88.998312 42.455927)",
      "poi_name": "Hardee's",
      "osm_id": 837277548,
      "amenity": "fast_food",
      "cuisine": "burger",
      "website": "https://locations.hardees.com/il/roscoe/13477-quality-dr",
      "phone": "+1 815-389-1925",
      "takeaway": "yes",
      "drive_through": "no",
      "addr_state": "IL",
      "addr_city": "Roscoe",
      "addr_postcode": "61073",
      "addr_street": "Quality Drive",
      "addr_housenumber": "13477",
      "value": 352.9711427003237
    },
    {
      "id": 94298,
      "geometry": "POINT (-89.046736 42.470054)",
      "poi_name": "Subway",
      "osm_id": 2225392742,
      "amenity": "fast_food",
      "cuisine": "sandwich",
      "website": "https://www.subway.com/",
      "takeaway": "yes",
      "addr_state": "IL",
      "addr_city": "South Beloit",
      "addr_postcode": "61080",
      "addr_street": "Prairie Hill Road",
      "addr_housenumber": "356",
      "value": 352.9711427003237
    },
    {
      "id": 133578,
      "geometry": "POINT (-88.984152 42.269115)",
      "poi_name": "Five Guys",
      "osm_id": 9998816137,
      "amenity": "fast_food",
      "cuisine": "burger",
      "takeaway": "yes",
      "official_name": "Five Guys Burgers and Fries",
      "addr_state": "IL",
      "addr_city": "Rockford",
      "addr_postcode": "61108",
      "addr_street": "East State Street",
      "value": 352.9711427003237
    },
    {
      "id": 131854,
      "geometry": "POINT (-89.031427 42.36428)",
      "poi_name": "Freddy's",
      "osm_id": 9932422563,
      "amenity": "fast_food",
      "cuisine": "ice_cream;burger",
      "takeaway": "yes",
      "drive_through": "yes",
      "official_name": "Freddy's Frozen Custard & Steakburgers",
      "outdoor_seating": "yes",
      "toilets": "yes",
      "addr_state": "IL",
      "addr_city": "Machesney Park",
      "addr_postcode": "61115",
      "addr_street": "Orlando Street",
      "addr_housenumber": "9901",
      "value": 352.9711427003237
    },
    {
      "id": 126265,
      "geometry": "POINT (-88.999039 42.31913)",
      "poi_name": "Papa John's",
      "osm_id": 6991041476,
      "amenity": "fast_food",
      "cuisine": "pizza",
      "opening_hours": "Mo-Th,Su 10:00-24:00; Fr-Sa 10:00-01:00; PH open",
      "internet_access": "no",
      "phone": "+1 815-636-7272",
      "takeaway": "yes",
      "delivery": "yes",
      "addr_state": "IL",
      "addr_city": "Loves Park",
      "addr_street": "East Riverside Boulevard",
      "addr_housenumber": "4011",
      "value": 352.9711427003237
    },
    {
      "id": 177110,
      "geometry": "POINT (-89.019385 42.431586)",
      "poi_name": "Subway",
      "osm_id": 2574399915,
      "amenity": "fast_food",
      "cuisine": "sandwich",
      "takeaway": "yes",
      "value": 352.9711427003237
    },
    {
      "id": 168536,
      "geometry": "POINT (-89.0237 42.454328)",
      "poi_name": "Subway",
      "osm_id": 2266553076,
      "amenity": "fast_food",
      "cuisine": "sandwich",
      "wheelchair": "yes",
      "website": "https://order.subway.com/en-us/restaurant/39384/menu/",
      "phone": "+1 815-525-0207",
      "takeaway": "yes",
      "outdoor_seating": "no",
      "addr_state": "IL",
      "addr_city": "Roscoe",
      "addr_postcode": "61073",
      "addr_street": "East Rockton Road",
      "addr_housenumber": "4781",
      "value": 352.9711427003237
    },
    {
      "id": 145933,
      "geometry": "POINT (-88.973652 42.269391)",
      "poi_name": "Eggspress",
      "osm_id": 7399591008,
      "amenity": "fast_food",
      "addr_state": "IL",
      "addr_city": "Rockford",
      "value": 352.9711427003237
    },
    {
      "id": 153334,
      "geometry": "POINT (-88.980593 42.264537)",
      "poi_name": "Chipotle",
      "osm_id": 4190919491,
      "amenity": "fast_food",
      "cuisine": "mexican",
      "phone": "+1 815-397-8688",
      "takeaway": "yes",
      "official_name": "Chipotle Mexican Grill",
      "addr_state": "IL",
      "addr_city": "Rockford",
      "addr_postcode": "61108",
      "addr_street": "South Perryville Road",
      "addr_housenumber": "751",
      "value": 352.9711427003237
    },
    {
      "id": 153335,
      "geometry": "POINT (-88.980911 42.265356)",
      "poi_name": "Panera Bread",
      "osm_id": 4190919492,
      "amenity": "fast_food",
      "cuisine": "sandwich;bakery",
      "phone": "+1 815-316-2552",
      "takeaway": "yes",
      "drive_through": "yes",
      "addr_state": "IL",
      "addr_city": "Rockford",
      "addr_postcode": "61108",
      "addr_street": "South Perryville Road",
      "addr_housenumber": "609",
      "value": 352.9711427003237
    },
    {
      "id": 168511,
      "geometry": "POINT (-88.988987 42.4899)",
      "poi_name": "McDonald's",
      "osm_id": 2265491360,
      "amenity": "fast_food",
      "cuisine": "burger",
      "website": "https://www.mcdonalds.com/us/en-us/location/il/south-beloit/15766-manchester-rd/29838.html",
      "internet_access": "wlan",
      "phone": "+1-815-704-0071",
      "takeaway": "yes",
      "addr_state": "IL",
      "addr_city": "South Beloit",
      "addr_postcode": "61080",
      "addr_street": "Manchester Road",
      "addr_housenumber": "15766",
      "value": 352.9711427003237
    },
    {
      "id": 203334,
      "geometry": "POINT (-89.027008 42.365024)",
      "poi_name": "Jersey Mike's Subs",
      "osm_id": 7079040468,
      "amenity": "fast_food",
      "cuisine": "sandwich",
      "wheelchair": "yes",
      "internet_access": "wlan",
      "phone": "+1 815-633-4200",
      "takeaway": "yes",
      "toilets": "yes",
      "value": 352.9711427003237
    },
    {
      "id": 184126,
      "geometry": "POINT (-88.999512 42.490941)",
      "poi_name": "Subway",
      "osm_id": 7774025107,
      "amenity": "fast_food",
      "cuisine": "sandwich",
      "website": "https://order.subway.com/en-us/restaurant/31119/menu/",
      "phone": "+1-815-957-4030",
      "takeaway": "yes",
      "addr_state": "IL",
      "addr_city": "South Beloit",
      "addr_postcode": "61080",
      "addr_street": "Willowbrook Road",
      "addr_housenumber": "6070",
      "value": 352.9711427003237
    },
    {
      "id": 187055,
      "geometry": "POINT (-88.998982 42.457593)",
      "poi_name": "Wendy's",
      "osm_id": 7967633248,
      "amenity": "fast_food",
      "cuisine": "burger",
      "takeaway": "yes",
      "drive_through": "yes",
      "addr_state": "IL",
      "addr_city": "Roscoe",
      "addr_postcode": "61073",
      "addr_street": "East Rockton Road",
      "addr_housenumber": "5951",
      "value": 352.9711427003237
    },
    {
      "id": 203348,
      "geometry": "POINT (-89.029997 42.365053)",
      "poi_name": "Potbelly",
      "osm_id": 7080395357,
      "amenity": "fast_food",
      "cuisine": "sandwich",
      "takeaway": "yes",
      "official_name": "Potbelly Sandwich Works",
      "value": 352.9711427003237
    },
    {
      "id": 203349,
      "geometry": "POINT (-89.029775 42.364956)",
      "poi_name": "MOD Pizza",
      "osm_id": 7080395363,
      "amenity": "fast_food",
      "cuisine": "pizza",
      "takeaway": "yes",
      "value": 352.9711427003237
    },
    {
      "id": 227830,
      "geometry": "POINT (-88.992134 42.31921)",
      "poi_name": "Beef-a-Roo",
      "osm_id": 4318643194,
      "amenity": "fast_food",
      "cuisine": "burger;sandwich",
      "internet_access": "wlan",
      "phone": "+1-815-877-5610",
      "drive_through": "yes",
      "addr_state": "IL",
      "addr_city": "Loves Park",
      "addr_postcode": "61114",
      "addr_street": "East Riverside Boulevard",
      "addr_housenumber": "6380",
      "value": 352.9711427003237
    },
    {
      "id": 230375,
      "geometry": "POINT (-88.981959 42.297382)",
      "poi_name": "Subway",
      "osm_id": 4424359290,
      "amenity": "fast_food",
      "cuisine": "sandwich",
      "phone": "+1 815-633-5622",
      "takeaway": "yes",
      "addr_state": "IL",
      "addr_city": "Rockford",
      "addr_postcode": "61114",
      "addr_street": "Spring Creek Road",
      "addr_housenumber": "6830",
      "value": 352.9711427003237
    },
    {
      "id": 228722,
      "geometry": "POINT (-88.981681 42.270648)",
      "poi_name": "Pita Pit",
      "osm_id": 4352849192,
      "amenity": "fast_food",
      "cuisine": "pita",
      "phone": "+1 8159775407",
      "takeaway": "yes",
      "addr_state": "IL",
      "addr_city": "Rockford",
      "addr_postcode": "61107",
      "addr_street": "Deane Drive",
      "addr_housenumber": "275",
      "value": 352.9711427003237
    },
    {
      "id": 233581,
      "geometry": "POINT (-89.032802 42.366632)",
      "poi_name": "Jimmy John's",
      "osm_id": 4580205895,
      "amenity": "fast_food",
      "cuisine": "sandwich",
      "takeaway": "yes",
      "official_name": "Jimmy John's Gourmet Sandwiches",
      "addr_state": "IL",
      "addr_city": "Machesney Park",
      "addr_postcode": "61115",
      "addr_street": "West Lane Road",
      "value": 352.9711427003237
    },
    {
      "id": 231134,
      "geometry": "POINT (-88.980691 42.263026)",
      "poi_name": "Subway",
      "osm_id": 4457235289,
      "amenity": "fast_food",
      "cuisine": "sandwich",
      "takeaway": "yes",
      "addr_street": "South Perryville Road",
      "value": 352.9711427003237
    },
    {
      "id": 232426,
      "geometry": "POINT (-88.993626 42.319047)",
      "poi_name": "Subway",
      "osm_id": 4524151289,
      "amenity": "fast_food",
      "cuisine": "sandwich",
      "takeaway": "yes",
      "value": 352.9711427003237
    },
    {
      "id": 232960,
      "geometry": "POINT (-88.998472 42.319082)",
      "poi_name": "Rosati's",
      "osm_id": 4551288889,
      "amenity": "fast_food",
      "cuisine": "pizza",
      "takeaway": "yes",
      "official_name": "Rosati's Authentic Chicago Pizza",
      "addr_state": "IL",
      "addr_city": "Loves Park",
      "addr_postcode": "61111",
      "addr_street": "East Riverside Boulevard",
      "addr_housenumber": "6104",
      "value": 352.9711427003237
    }
  ],
  "answer_type": "name",
  "question_entities": {
    "[2]": {
      "distance": 30000,
      "text": "30 kilometers"
    },
    "[3]": {
      "main_category": "tourism",
      "sub_category": "theme park",
      "display_name": "Tilt Studio, IL",
      "geo_wkt": "POINT (-88.973072 42.24581)",
      "poi": {
        "id": 5126,
        "geometry": "POINT (-88.973072 42.24581)",
        "poi_name": "Tilt Studio",
        "osm_id": 9768506456,
        "tourism": "theme_park",
        "addr_state": "IL"
      }
    },
    "[4]": {
      "main_category": "tourism",
      "sub_category": "museum",
      "display_name": "Tobacco City Museum, WI",
      "geo_wkt": "POINT (-89.071779 42.835006)",
      "poi": {
        "id": 17527,
        "geometry": "POINT (-89.071779 42.835006)",
        "poi_name": "Tobacco City Museum",
        "osm_id": 367811180,
        "tourism": "museum",
        "addr_state": "WI"
      }
    },
    "[1]": {
      "main_category": "amenity",
      "sub_category": "fast_food"
    }
  },
  "id": 1639,
  "type": "range:towards+name"
}