{
  "question": "Which fast food restaurant is available when approaching Heritage Park, Napa, CA within 90 kilometers from Bowditch Middle School Auditorium, Foster City, CA?",
  "sql": "WITH\n    angle AS (SELECT degrees(ST_Azimuth(ST_GeomFromText('POINT (-122.248613 37.559053)',4326)::geography, ST_GeomFromText('POINT (-122.287873 38.300572)',4326)::geography)) AS value)\nSELECT * FROM pois,angle\nWHERE amenity = 'fast_food'\nAND ST_DWithin(pois.geometry, ST_GeomFromText('POINT (-122.248613 37.559053)',4326)::geography, 90000)\nAND (degrees(ST_Azimuth(ST_GeomFromText('POINT (-122.248613 37.559053)',4326)::geography, pois.geometry)) BETWEEN angle.value - 22.5 AND angle.value + 22.5);\n",
  "answers": [
    {
      "id": 28470,
      "geometry": "POINT (-122.250374 37.756464)",
      "poi_name": "Panera Bread",
      "osm_id": 484911502,
      "amenity": "fast_food",
      "cuisine": "sandwich;bakery",
      "takeaway": "yes",
      "value": 357.61067150628844
    },
    {
      "id": 28471,
      "geometry": "POINT (-122.250189 37.756243)",
      "poi_name": "MOD Pizza",
      "osm_id": 484912336,
      "amenity": "fast_food",
      "cuisine": "pizza",
      "takeaway": "yes",
      "value": 357.61067150628844
    },
    {
      "id": 28472,
      "geometry": "POINT (-122.250083 37.756121)",
      "poi_name": "Chipotle",
      "osm_id": 484913920,
      "amenity": "fast_food",
      "cuisine": "mexican",
      "takeaway": "yes",
      "official_name": "Chipotle Mexican Grill",
      "value": 357.61067150628844
    },
    {
      "id": 28811,
      "geometry": "POINT (-122.27015 37.869861)",
      "poi_name": "K's Coffee House",
      "osm_id": 8260742967,
      "amenity": "fast_food",
      "phone": "+15108482147",
      "addr_city": "Berkeley",
      "addr_street": "Center Street",
      "addr_housenumber": "2002",
      "value": 357.61067150628844
    },
    {
      "id": 29577,
      "geometry": "POINT (-122.284104 37.828622)",
      "poi_name": "Kelly's deli",
      "osm_id": 8313408238,
      "amenity": "fast_food",
      "value": 357.61067150628844
    },
    {
      "id": 29597,
      "geometry": "POINT (-122.259782 37.875264)",
      "poi_name": "Tony's Style",
      "osm_id": 8316933705,
      "amenity": "fast_food",
      "cuisine": "pizza",
      "opening_hours": "Mo-Su 17:00-24:00",
      "phone": "+1-917-2444797",
      "addr_state": "CA",
      "addr_city": "Berkeley",
      "addr_postcode": "94709",
      "addr_street": "Hearst Avenue",
      "addr_housenumber": "2503",
      "value": 357.61067150628844
    },
    {
      "id": 33980,
      "geometry": "POINT (-122.258006 37.868076)",
      "poi_name": "King Pin Donuts",
      "osm_id": 2688825405,
      "amenity": "fast_food",
      "cuisine": "donut",
      "opening_hours": "Mo-Su 07:00-03:00",
      "drive_through": "no",
      "outdoor_seating": "yes",
      "addr_state": "CA",
      "addr_city": "Berkeley",
      "addr_postcode": "94704",
      "addr_street": "Durant Avenue",
      "addr_housenumber": "2521",
      "value": 357.61067150628844
    },
    {
      "id": 35035,
      "geometry": "POINT (-122.461478 38.00088)",
      "poi_name": "Quan Brothers Market",
      "osm_id": 2709406697,
      "amenity": "fast_food",
      "value": 357.61067150628844
    },
    {
      "id": 38325,
      "geometry": "POINT (-122.459523 38.282661)",
      "poi_name": "El Coyote",
      "osm_id": 2858716401,
      "amenity": "fast_food",
      "cuisine": "mexican",
      "description": "Food truck",
      "internet_access": "no",
      "takeaway": "only",
      "drive_through": "no",
      "outdoor_seating": "yes",
      "delivery": "no",
      "value": 357.61067150628844
    },
    {
      "id": 42019,
      "geometry": "POINT (-122.385 37.926115)",
      "poi_name": "Extreme Pizza",
      "osm_id": 3036917825,
      "amenity": "fast_food",
      "cuisine": "pizza",
      "website": "https://www.extremepizza.com/location/extreme-pizza-point-richmond-california/",
      "takeaway": "yes",
      "value": 357.61067150628844
    },
    {
      "id": 42020,
      "geometry": "POINT (-122.383674 37.92439)",
      "poi_name": "Great American Burger and Pie",
      "osm_id": 3036917826,
      "amenity": "fast_food",
      "website": "https://www.gahamburger.com/",
      "value": 357.61067150628844
    },
    {
      "id": 44467,
      "geometry": "POINT (-122.364509 37.924978)",
      "poi_name": "Burger King",
      "osm_id": 3159687298,
      "amenity": "fast_food",
      "cuisine": "burger",
      "takeaway": "yes",
      "addr_state": "CA",
      "addr_city": "Richmond",
      "addr_postcode": "94804",
      "addr_street": "Cutting Boulevard",
      "addr_housenumber": "550",
      "value": 357.61067150628844
    },
    {
      "id": 43658,
      "geometry": "POINT (-122.251899 37.799849)",
      "poi_name": "Subway",
      "osm_id": 3125416921,
      "amenity": "fast_food",
      "cuisine": "sandwich",
      "takeaway": "yes",
      "value": 357.61067150628844
    },
    {
      "id": 43590,
      "geometry": "POINT (-122.622672 38.247698)",
      "poi_name": "Noah's Bagels",
      "osm_id": 3121139938,
      "amenity": "fast_food",
      "cuisine": "bagel",
      "takeaway": "yes",
      "official_name": "Noah's New York Bagels",
      "value": 357.61067150628844
    },
    {
      "id": 62406,
      "geometry": "POINT (-122.274779 37.816022)",
      "poi_name": "Giant Burrito",
      "osm_id": 5567354723,
      "amenity": "fast_food",
      "value": 357.61067150628844
    },
    {
      "id": 49403,
      "geometry": "POINT (-122.258077 37.86781)",
      "poi_name": "Bunz",
      "osm_id": 3430431123,
      "amenity": "fast_food",
      "cuisine": "burger",
      "opening_hours": "Mo-Su 17:30-2:30",
      "website": "https://www.whatsinyourbunz.com/",
      "phone": "+1-510-529-4327",
      "addr_city": "Berkeley",
      "addr_postcode": "94704",
      "addr_street": "Durant Avenue",
      "addr_housenumber": "2518",
      "value": 357.61067150628844
    },
    {
      "id": 55318,
      "geometry": "POINT (-122.268065 37.805881)",
      "poi_name": "Juice Holick",
      "osm_id": 10181337806,
      "amenity": "fast_food",
      "cuisine": "juice",
      "addr_street": "17th Street",
      "addr_housenumber": "377",
      "value": 357.61067150628844
    },
    {
      "id": 57246,
      "geometry": "POINT (-122.533737 38.063889)",
      "poi_name": "Nekter Juice Bar",
      "osm_id": 5331514565,
      "amenity": "fast_food",
      "cuisine": "juice",
      "value": 357.61067150628844
    },
    {
      "id": 57247,
      "geometry": "POINT (-122.554419 38.090838)",
      "poi_name": "Panera Bread",
      "osm_id": 5331543627,
      "amenity": "fast_food",
      "cuisine": "sandwich;bakery",
      "phone": "+1 415 897 1056",
      "takeaway": "yes",
      "addr_city": "Novato",
      "addr_postcode": "94945",
      "addr_street": "Vintage Way",
      "addr_housenumber": "132",
      "value": 357.61067150628844
    },
    {
      "id": 57250,
      "geometry": "POINT (-122.554267 38.092007)",
      "poi_name": "Extreme Pizza",
      "osm_id": 5331565062,
      "amenity": "fast_food",
      "cuisine": "pizza",
      "takeaway": "yes",
      "value": 357.61067150628844
    },
    {
      "id": 62412,
      "geometry": "POINT (-122.263638 37.801508)",
      "poi_name": "Uarhi Taqueria",
      "osm_id": 5567592257,
      "amenity": "fast_food",
      "cuisine": "mexican",
      "addr_state": "CA",
      "addr_city": "Oakland",
      "addr_street": "14th Street",
      "addr_housenumber": "134",
      "value": 357.61067150628844
    },
    {
      "id": 62413,
      "geometry": "POINT (-122.263746 37.801549)",
      "poi_name": "Panda Kitchen",
      "osm_id": 5567592258,
      "amenity": "fast_food",
      "addr_state": "CA",
      "addr_city": "Oakland",
      "addr_street": "14th Street",
      "addr_housenumber": "138",
      "value": 357.61067150628844
    },
    {
      "id": 45838,
      "geometry": "POINT (-122.311136 37.987579)",
      "poi_name": "Panera Bread",
      "osm_id": 3232022852,
      "amenity": "fast_food",
      "cuisine": "sandwich;bakery",
      "takeaway": "yes",
      "value": 357.61067150628844
    },
    {
      "id": 48312,
      "geometry": "POINT (-122.257516 37.867876)",
      "poi_name": "La Burrita",
      "osm_id": 3375326842,
      "amenity": "fast_food",
      "cuisine": "mexican",
      "addr_street": "Durant Avenue",
      "addr_housenumber": "2530",
      "value": 357.61067150628844
    },
    {
      "id": 52492,
      "geometry": "POINT (-122.262146 37.837044)",
      "poi_name": "Bakesale Betty's",
      "osm_id": 585429735,
      "amenity": "fast_food",
      "cuisine": "american",
      "wheelchair": "yes",
      "opening_hours": "Tu-Sa 11:00-14:00",
      "website": "https://www.bakesalebetty.com/",
      "internet_access": "no",
      "phone": "+1-510-985-1213",
      "takeaway": "only",
      "drive_through": "no",
      "delivery": "no",
      "addr_city": "Oakland",
      "addr_postcode": "94609",
      "addr_street": "Telegraph Avenue",
      "addr_housenumber": "5098",
      "value": 357.61067150628844
    },
    {
      "id": 53947,
      "geometry": "POINT (-122.253445 38.16876)",
      "poi_name": "Subway",
      "osm_id": 10109009197,
      "amenity": "fast_food",
      "cuisine": "sandwich",
      "takeaway": "yes",
      "value": 357.61067150628844
    },
    {
      "id": 61958,
      "geometry": "POINT (-122.254416 38.182226)",
      "poi_name": "Jamba",
      "osm_id": 5543985885,
      "amenity": "fast_food",
      "cuisine": "juice",
      "takeaway": "yes",
      "value": 357.61067150628844
    },
    {
      "id": 61959,
      "geometry": "POINT (-122.254111 38.180871)",
      "poi_name": "Panda Express",
      "osm_id": 5543992079,
      "amenity": "fast_food",
      "cuisine": "chinese",
      "takeaway": "yes",
      "value": 357.61067150628844
    },
    {
      "id": 61960,
      "geometry": "POINT (-122.25391 38.180879)",
      "poi_name": "Wingstop",
      "osm_id": 5543992080,
      "amenity": "fast_food",
      "cuisine": "wings",
      "takeaway": "yes",
      "value": 357.61067150628844
    },
    {
      "id": 64787,
      "geometry": "POINT (-122.267985 37.806082)",
      "poi_name": "Happy Donuts",
      "osm_id": 5670752051,
      "amenity": "fast_food",
      "cuisine": "donut",
      "addr_street": "17th Street",
      "addr_housenumber": "378",
      "value": 357.61067150628844
    },
    {
      "id": 63815,
      "geometry": "POINT (-122.290155 37.881366)",
      "poi_name": "Brazil Cafe food truck",
      "osm_id": 5631116752,
      "amenity": "fast_food",
      "cuisine": "brazilian",
      "website": "https://www.westbraebiergarten.com/",
      "addr_street": "Gilman Street",
      "value": 357.61067150628844
    },
    {
      "id": 63174,
      "geometry": "POINT (-122.348253 37.919511)",
      "poi_name": "Taqueria Esperanza Food Truck",
      "osm_id": 5603187722,
      "amenity": "fast_food",
      "cuisine": "mexican",
      "opening_hours": "Su-Th 12:00-22:00; Fr-Sa 12:00-00:00",
      "operator": "Martinez",
      "phone": "5104189515",
      "value": 357.61067150628844
    },
    {
      "id": 71797,
      "geometry": "POINT (-122.274908 37.801858)",
      "poi_name": "Super Juiced",
      "osm_id": 11401519139,
      "amenity": "fast_food",
      "cuisine": "juice",
      "value": 357.61067150628844
    },
    {
      "id": 65164,
      "geometry": "POINT (-122.275127 37.804516)",
      "poi_name": "Ronald V. Dellums Federal Building Cafeteria",
      "osm_id": 5688275470,
      "amenity": "fast_food",
      "fast_food": "cafeteria",
      "value": 357.61067150628844
    },
    {
      "id": 68929,
      "geometry": "POINT (-122.625193 38.249328)",
      "poi_name": "Jersey Mike's Subs",
      "osm_id": 11289163459,
      "amenity": "fast_food",
      "cuisine": "sandwich",
      "opening_hours": "Mo-Su 10:00-21:00",
      "operator": "Wagoner Management Corp.",
      "website": "https://www.jerseymikes.com/20395/petaluma-ca",
      "phone": "+1-707-238-3220",
      "takeaway": "yes",
      "drive_through": "no",
      "addr_state": "CA",
      "addr_street": "South McDowell Boulevard",
      "addr_housenumber": "201",
      "value": 357.61067150628844
    },
    {
      "id": 69765,
      "geometry": "POINT (-122.256122 38.127151)",
      "poi_name": "Carl's Jr.",
      "osm_id": 11330013077,
      "amenity": "fast_food",
      "cuisine": "burger",
      "website": "https://locations.carlsjr.com/ca/vallejo/3897-sonoma-blvd",
      "takeaway": "yes",
      "value": 357.61067150628844
    },
    {
      "id": 69766,
      "geometry": "POINT (-122.255913 38.126418)",
      "poi_name": "Bud's Giant Burgers",
      "osm_id": 11330013078,
      "amenity": "fast_food",
      "cuisine": "burger",
      "website": "https://www.budsburgersvallejo.com/",
      "value": 357.61067150628844
    },
    {
      "id": 87475,
      "geometry": "POINT (-122.294911 37.890366)",
      "poi_name": "Islice",
      "osm_id": 8715520434,
      "amenity": "fast_food",
      "cuisine": "pizza",
      "wheelchair": "yes",
      "opening_hours": "Tu-Su 11:00-20:00",
      "website": "https://www.isliceonline.com",
      "outdoor_seating": "yes",
      "addr_city": "Albany",
      "addr_street": "Solano Avenue",
      "value": 357.61067150628844
    },
    {
      "id": 75252,
      "geometry": "POINT (-122.265455 37.807971)",
      "poi_name": "Poke Parlor",
      "osm_id": 9721421803,
      "amenity": "fast_food",
      "website": "http://www.pokeparlor.com/",
      "value": 357.61067150628844
    },
    {
      "id": 75884,
      "geometry": "POINT (-122.271341 38.010279)",
      "poi_name": "Taco Bell",
      "osm_id": 9750601937,
      "amenity": "fast_food",
      "cuisine": "tex-mex",
      "opening_hours": "Mo-Fr 06:00-22:00; Sa-Su 07:00-22:00",
      "website": "https://locations.tacobell.com/ca/hercules/1541-sycamore-avenue.html",
      "phone": "+1-510-245-2528",
      "takeaway": "yes",
      "drive_through": "yes",
      "addr_state": "CA",
      "addr_city": "Hercules",
      "addr_postcode": "94547",
      "addr_street": "Sycamore Avenue",
      "addr_housenumber": "1541",
      "value": 357.61067150628844
    },
    {
      "id": 81348,
      "geometry": "POINT (-122.271199 37.803875)",
      "poi_name": "BigE Burgers",
      "osm_id": 1629071719,
      "amenity": "fast_food",
      "cuisine": "burger",
      "wheelchair": "yes",
      "takeaway": "yes",
      "addr_street": "Broadway",
      "addr_housenumber": "1312",
      "value": 357.61067150628844
    },
    {
      "id": 81363,
      "geometry": "POINT (-122.329757 37.932988)",
      "poi_name": "Panda Express",
      "osm_id": 1630431833,
      "amenity": "fast_food",
      "cuisine": "chinese",
      "wheelchair": "yes",
      "takeaway": "yes",
      "value": 357.61067150628844
    },
    {
      "id": 81364,
      "geometry": "POINT (-122.329655 37.93297)",
      "poi_name": "Subway",
      "osm_id": 1630431892,
      "amenity": "fast_food",
      "cuisine": "sandwich",
      "wheelchair": "yes",
      "takeaway": "yes",
      "value": 357.61067150628844
    },
    {
      "id": 81914,
      "geometry": "POINT (-122.291757 37.869447)",
      "poi_name": "Subway",
      "osm_id": 1669802067,
      "amenity": "fast_food",
      "cuisine": "sandwich",
      "wheelchair": "yes",
      "opening_hours": "Mo-Fr 08:00-21:00; Sa, Su 09:00-21:00",
      "website": "https://www.subway.com",
      "phone": "+15105408900",
      "takeaway": "yes",
      "addr_state": "CA",
      "addr_street": "University Avenue",
      "addr_housenumber": "1105",
      "value": 357.61067150628844
    },
    {
      "id": 81916,
      "geometry": "POINT (-122.291646 37.869368)",
      "poi_name": "Little Caesars",
      "osm_id": 1669803326,
      "amenity": "fast_food",
      "cuisine": "pizza",
      "website": "https://littlecaesars.com/en-us/store/9101",
      "takeaway": "yes",
      "addr_state": "CA",
      "addr_street": "University Avenue",
      "addr_housenumber": "1109",
      "value": 357.61067150628844
    },
    {
      "id": 84362,
      "geometry": "POINT (-122.266617 37.811053)",
      "poi_name": "Ike's Love and Sandwiches",
      "osm_id": 1785876296,
      "amenity": "fast_food",
      "cuisine": "sandwich",
      "wheelchair": "yes",
      "opening_hours": "Mo-Su 10:00-19:00",
      "website": "https://locations.ikessandwich.com/ca/oakland/sandwich-shop-112.html",
      "phone": "+1 510 3386789",
      "takeaway": "yes",
      "addr_postcode": "94612",
      "addr_street": "Broadway",
      "addr_housenumber": "2204",
      "value": 357.61067150628844
    },
    {
      "id": 75279,
      "geometry": "POINT (-122.279339 37.891515)",
      "poi_name": "Pizza Twist",
      "osm_id": 9722615595,
      "amenity": "fast_food",
      "cuisine": "pizza",
      "website": "https://pizzatwist.com/",
      "outdoor_seating": "no",
      "value": 357.61067150628844
    },
    {
      "id": 81260,
      "geometry": "POINT (-122.261515 38.021285)",
      "poi_name": "Burger King",
      "osm_id": 1618351691,
      "amenity": "fast_food",
      "cuisine": "burger",
      "takeaway": "yes",
      "value": 357.61067150628844
    },
    {
      "id": 85113,
      "geometry": "POINT (-122.32469 37.933856)",
      "poi_name": "Wendy's",
      "osm_id": 1837176575,
      "amenity": "fast_food",
      "cuisine": "burger",
      "wheelchair": "yes",
      "takeaway": "yes",
      "drive_through": "yes",
      "value": 357.61067150628844
    },
    {
      "id": 90718,
      "geometry": "POINT (-122.336489 37.990395)",
      "poi_name": "A&W",
      "osm_id": 2013493270,
      "amenity": "fast_food",
      "cuisine": "burger",
      "website": "https://awrestaurants.com/locations/california/richmond/15555-san-pablo-ave/",
      "takeaway": "yes",
      "addr_state": "CA",
      "addr_city": "Richmond",
      "addr_postcode": "94806",
      "addr_street": "San Pablo Avenue",
      "addr_housenumber": "15555",
      "value": 357.61067150628844
    },
    {
      "id": 88044,
      "geometry": "POINT (-122.313621 37.918014)",
      "poi_name": "W",
      "osm_id": 8759011497,
      "amenity": "fast_food",
      "value": 357.61067150628844
    },
    {
      "id": 88045,
      "geometry": "POINT (-122.305634 37.907816)",
      "poi_name": "Subway",
      "osm_id": 8759011498,
      "amenity": "fast_food",
      "cuisine": "sandwich",
      "opening_hours": "Mo-Sa 08:00-20:30; Su 09:00-20:00",
      "website": "https://restaurants.subway.com/united-states/ca/el-cerrito/10398-san-pablo-ave",
      "phone": "+1 510-527-4300",
      "takeaway": "yes",
      "addr_state": "CA",
      "addr_street": "San Pablo Avenue",
      "addr_housenumber": "10398",
      "value": 357.61067150628844
    },
    {
      "id": 88046,
      "geometry": "POINT (-122.315813 37.922254)",
      "poi_name": "Subway",
      "osm_id": 8759011846,
      "amenity": "fast_food",
      "cuisine": "sandwich",
      "takeaway": "yes",
      "value": 357.61067150628844
    },
    {
      "id": 88049,
      "geometry": "POINT (-122.310461 37.914418)",
      "poi_name": "Mr Pickle's Sandwich Shop",
      "osm_id": 8759011943,
      "amenity": "fast_food",
      "cuisine": "sandwich",
      "value": 357.61067150628844
    },
    {
      "id": 87728,
      "geometry": "POINT (-122.29989 37.894054)",
      "poi_name": "Taco Bell",
      "osm_id": 8736839518,
      "amenity": "fast_food",
      "cuisine": "tex-mex",
      "opening_hours": "Mo-Fr 06:00-01:00; Sa-Su 09:00-01:00",
      "website": "https://locations.tacobell.com/ca/albany/635-san-pablo-ave.html",
      "phone": "(510) 527-5090",
      "takeaway": "yes",
      "drive_through": "yes",
      "delivery": "no",
      "addr_state": "CA",
      "addr_city": "Albany",
      "addr_postcode": "94706",
      "addr_street": "San Pablo Avenue",
      "addr_housenumber": "635",
      "value": 357.61067150628844
    },
    {
      "id": 87985,
      "geometry": "POINT (-122.300079 37.898831)",
      "poi_name": "BurgerIM",
      "osm_id": 8756544985,
      "amenity": "fast_food",
      "cuisine": "burger",
      "opening_hours": "Tu-Su 11:00-20:30",
      "website": "https://burgerim.com/location/el-cerrito/",
      "takeaway": "yes",
      "value": 357.61067150628844
    },
    {
      "id": 88059,
      "geometry": "POINT (-122.304294 37.903437)",
      "poi_name": "Popeyes",
      "osm_id": 8759018941,
      "amenity": "fast_food",
      "cuisine": "chicken",
      "takeaway": "yes",
      "official_name": "Popeyes Louisiana Kitchen",
      "value": 357.61067150628844
    },
    {
      "id": 101567,
      "geometry": "POINT (-122.258349 37.865364)",
      "poi_name": "Nom Nom Banh Mi",
      "osm_id": 6634175894,
      "amenity": "fast_food",
      "cuisine": "vietnamese;sandwich",
      "opening_hours": "Mo-Sa 11:00-19:00",
      "website": "https://nomnombanhmi.store",
      "phone": "(510) 984-0957",
      "drive_through": "no",
      "addr_state": "CA",
      "addr_city": "Berkeley",
      "addr_postcode": "94704",
      "addr_street": "Telegraph Avenue",
      "addr_housenumber": "2491",
      "value": 357.61067150628844
    },
    {
      "id": 93781,
      "geometry": "POINT (-122.267892 37.871322)",
      "poi_name": "Subway",
      "osm_id": 2186238363,
      "amenity": "fast_food",
      "cuisine": "sandwich",
      "wheelchair": "yes",
      "opening_hours": "Mo-Fr 07:00-21:00; Sa 08:30-21:00; Su 09:30-20:30",
      "website": "https://www.subway.com",
      "phone": "+1 510-649-0224",
      "takeaway": "yes",
      "drive_through": "no",
      "addr_state": "CA",
      "addr_city": "Berkeley",
      "addr_street": "Shattuck Square",
      "addr_housenumber": "92",
      "value": 357.61067150628844
    },
    {
      "id": 94574,
      "geometry": "POINT (-122.274324 38.285401)",
      "poi_name": "MOD Pizza",
      "osm_id": 6369155125,
      "amenity": "fast_food",
      "cuisine": "pizza",
      "takeaway": "yes",
      "value": 357.61067150628844
    },
    {
      "id": 93536,
      "geometry": "POINT (-122.29397 37.805262)",
      "poi_name": "Subway",
      "osm_id": 2169807691,
      "amenity": "fast_food",
      "cuisine": "sandwich",
      "website": "https://www.subway.com",
      "takeaway": "yes",
      "value": 357.61067150628844
    },
    {
      "id": 94257,
      "geometry": "POINT (-122.263233 37.836909)",
      "poi_name": "Noah's Bagels",
      "osm_id": 2217677430,
      "amenity": "fast_food",
      "cuisine": "bagel",
      "wheelchair": "yes",
      "phone": "+15103795557",
      "takeaway": "yes",
      "official_name": "Noah's New York Bagels",
      "outdoor_seating": "no",
      "value": 357.61067150628844
    },
    {
      "id": 98533,
      "geometry": "POINT (-122.292125 37.850837)",
      "poi_name": "Tacos el Rey Food Truck",
      "osm_id": 6522368098,
      "amenity": "fast_food",
      "website": "http://www.elreytacos.com",
      "phone": "5105931020",
      "addr_street": "Potter Street",
      "value": 357.61067150628844
    },
    {
      "id": 106113,
      "geometry": "POINT (-122.276521 37.776398)",
      "poi_name": "Subway",
      "osm_id": 8665318355,
      "amenity": "fast_food",
      "cuisine": "sandwich",
      "takeaway": "yes",
      "value": 357.61067150628844
    },
    {
      "id": 105296,
      "geometry": "POINT (-122.27667 37.77249)",
      "poi_name": "Nation's Giant Hamburgers",
      "osm_id": 8616255412,
      "amenity": "fast_food",
      "value": 357.61067150628844
    },
    {
      "id": 112397,
      "geometry": "POINT (-122.266186 37.869725)",
      "poi_name": "Sumo Roll",
      "osm_id": 3789654984,
      "amenity": "fast_food",
      "cuisine": "sushi",
      "opening_hours": "11:00-20:30",
      "website": "http://www.eatsumoroll.com/",
      "phone": "+1 510 8419000",
      "takeaway": "yes",
      "drive_through": "no",
      "addr_city": "Berkeley",
      "addr_postcode": "94704",
      "addr_street": "Allston Way",
      "addr_housenumber": "2173",
      "value": 357.61067150628844
    },
    {
      "id": 108393,
      "geometry": "POINT (-122.532136 38.0614)",
      "poi_name": "McDonald's",
      "osm_id": 3611753516,
      "amenity": "fast_food",
      "cuisine": "burger",
      "website": "https://www.mcdonalds.com/us/en-us/location/ca/novato/5600-nave-dr/21156.html",
      "takeaway": "yes",
      "drive_through": "yes",
      "value": 357.61067150628844
    },
    {
      "id": 112353,
      "geometry": "POINT (-122.356882 37.958717)",
      "poi_name": "JK Giant Burgers",
      "osm_id": 3787994183,
      "amenity": "fast_food",
      "cuisine": "burger",
      "value": 357.61067150628844
    },
    {
      "id": 109142,
      "geometry": "POINT (-122.256224 37.828667)",
      "poi_name": "TrueBurger",
      "osm_id": 3651321987,
      "amenity": "fast_food",
      "cuisine": "burger",
      "opening_hours": "Tu-Sa 11:00-21:30; Su 12:00-19:00",
      "website": "https://trueburgeroakland.com/",
      "takeaway": "yes",
      "drive_through": "no",
      "delivery": "no",
      "addr_state": "CA",
      "addr_city": "Oakland",
      "addr_postcode": "94607",
      "addr_street": "Broadway",
      "addr_housenumber": "4101",
      "value": 357.61067150628844
    },
    {
      "id": 109755,
      "geometry": "POINT (-122.291269 37.846672)",
      "poi_name": "Subway",
      "osm_id": 3673285749,
      "amenity": "fast_food",
      "cuisine": "sandwich",
      "takeaway": "yes",
      "value": 357.61067150628844
    },
    {
      "id": 111939,
      "geometry": "POINT (-122.275527 37.796994)",
      "poi_name": "Domino's",
      "osm_id": 3771490179,
      "amenity": "fast_food",
      "cuisine": "pizza",
      "takeaway": "only",
      "addr_city": "Oakland",
      "addr_postcode": "94607",
      "addr_street": "Broadway",
      "addr_housenumber": "314",
      "value": 357.61067150628844
    },
    {
      "id": 112562,
      "geometry": "POINT (-122.266588 37.811328)",
      "poi_name": "Dave's Hot Chicken",
      "osm_id": 3796571717,
      "amenity": "fast_food",
      "cuisine": "chicken",
      "takeaway": "yes",
      "addr_state": "CA",
      "addr_city": "Oakland",
      "addr_postcode": "94612",
      "addr_street": "Broadway",
      "addr_housenumber": "2228",
      "value": 357.61067150628844
    },
    {
      "id": 116576,
      "geometry": "POINT (-122.280596 37.78685)",
      "poi_name": "Panda Express",
      "osm_id": 8947382602,
      "amenity": "fast_food",
      "cuisine": "chinese",
      "takeaway": "yes",
      "value": 357.61067150628844
    },
    {
      "id": 112506,
      "geometry": "POINT (-122.266436 37.86881)",
      "poi_name": "Organic Greens",
      "osm_id": 3793692373,
      "amenity": "fast_food",
      "wheelchair": "limited",
      "opening_hours": "Mo-Sa 7:00-18:00; Su 8:00-18:00",
      "phone": "+1 510-280-5125",
      "addr_city": "Berkeley",
      "addr_postcode": "94703",
      "addr_street": "Kittredge Street",
      "addr_housenumber": "2177",
      "value": 357.61067150628844
    },
    {
      "id": 112668,
      "geometry": "POINT (-122.251112 37.787703)",
      "poi_name": "Subway",
      "osm_id": 3799840919,
      "amenity": "fast_food",
      "cuisine": "sandwich",
      "takeaway": "yes",
      "value": 357.61067150628844
    },
    {
      "id": 112935,
      "geometry": "POINT (-122.282176 37.803188)",
      "poi_name": "McDonald's",
      "osm_id": 3810642508,
      "amenity": "fast_food",
      "cuisine": "burger",
      "website": "https://www.mcdonalds.com/us/en-us/location/ca/oakland/800-market-st/7498.html",
      "takeaway": "yes",
      "drive_through": "yes",
      "value": 357.61067150628844
    },
    {
      "id": 112936,
      "geometry": "POINT (-122.282109 37.804076)",
      "poi_name": "KFC",
      "osm_id": 3810642509,
      "amenity": "fast_food",
      "cuisine": "chicken",
      "website": "https://locations.kfc.com/ca/oakland/950-market-street",
      "takeaway": "yes",
      "drive_through": "yes",
      "value": 357.61067150628844
    },
    {
      "id": 114385,
      "geometry": "POINT (-122.292586 37.836853)",
      "poi_name": "Cornology",
      "osm_id": 3880788039,
      "amenity": "fast_food",
      "value": 357.61067150628844
    },
    {
      "id": 115511,
      "geometry": "POINT (-122.29576 37.880914)",
      "poi_name": "Tacos El Rulas",
      "osm_id": 8901494466,
      "amenity": "fast_food",
      "cuisine": "mexican",
      "value": 357.61067150628844
    },
    {
      "id": 116577,
      "geometry": "POINT (-122.28122 37.786619)",
      "poi_name": "Jamba",
      "osm_id": 8947382612,
      "amenity": "fast_food",
      "cuisine": "juice",
      "takeaway": "yes",
      "value": 357.61067150628844
    },
    {
      "id": 127159,
      "geometry": "POINT (-122.259825 37.852182)",
      "poi_name": "Krispy Krunchy Chicken",
      "osm_id": 8037941642,
      "amenity": "fast_food",
      "value": 357.61067150628844
    },
    {
      "id": 121361,
      "geometry": "POINT (-122.269362 37.809298)",
      "poi_name": "Shake Shack",
      "osm_id": 6757517959,
      "amenity": "fast_food",
      "cuisine": "burger",
      "takeaway": "yes",
      "addr_state": "CA",
      "addr_city": "Oakland",
      "addr_postcode": "94612",
      "addr_street": "Broadway",
      "addr_housenumber": "1955",
      "value": 357.61067150628844
    },
    {
      "id": 127093,
      "geometry": "POINT (-122.260031 37.851333)",
      "poi_name": "Jack in the Box",
      "osm_id": 8026289395,
      "amenity": "fast_food",
      "cuisine": "burger",
      "website": "https://www.jackinthebox.com",
      "takeaway": "yes",
      "addr_street": "Telegraph Avenue",
      "addr_housenumber": "6510",
      "value": 357.61067150628844
    },
    {
      "id": 117893,
      "geometry": "POINT (-122.249702 37.834892)",
      "poi_name": "The Habit Burger Grill",
      "osm_id": 9015621618,
      "amenity": "fast_food",
      "cuisine": "burger",
      "takeaway": "yes",
      "value": 357.61067150628844
    },
    {
      "id": 117894,
      "geometry": "POINT (-122.249899 37.83468)",
      "poi_name": "Panda Express",
      "osm_id": 9015621619,
      "amenity": "fast_food",
      "cuisine": "chinese",
      "takeaway": "yes",
      "value": 357.61067150628844
    },
    {
      "id": 117895,
      "geometry": "POINT (-122.249818 37.834756)",
      "poi_name": "Best Coast Burritos",
      "osm_id": 9015621621,
      "amenity": "fast_food",
      "value": 357.61067150628844
    },
    {
      "id": 125431,
      "geometry": "POINT (-122.286042 37.849278)",
      "poi_name": "McDonald's",
      "osm_id": 6959372193,
      "amenity": "fast_food",
      "cuisine": "burger",
      "website": "https://www.mcdonalds.com/us/en-us/location/ca/oakland/6623-san-pablo-ave/1405.html",
      "takeaway": "yes",
      "drive_through": "yes",
      "value": 357.61067150628844
    },
    {
      "id": 138951,
      "geometry": "POINT (-122.255326 38.138862)",
      "poi_name": "Jack in the Box",
      "osm_id": 6175883786,
      "amenity": "fast_food",
      "cuisine": "burger",
      "opening_hours": "Mo-Su 06:00-22:00",
      "operator": "Jack in the Box",
      "website": "https://www.jackinthebox.com/",
      "internet_access": "wlan",
      "phone": "7075528307",
      "takeaway": "yes",
      "drive_through": "yes",
      "addr_postcode": "94590",
      "addr_street": "Lewis Brown Road",
      "addr_housenumber": "1610",
      "value": 357.61067150628844
    },
    {
      "id": 138407,
      "geometry": "POINT (-122.252936 38.183428)",
      "poi_name": "McDonald's",
      "osm_id": 6148025985,
      "amenity": "fast_food",
      "cuisine": "burger",
      "opening_hours": "Mo-Su 09:00-22:00",
      "phone": "7075538570",
      "takeaway": "yes",
      "value": 357.61067150628844
    },
    {
      "id": 138673,
      "geometry": "POINT (-122.255443 38.119164)",
      "poi_name": "McDonald's",
      "osm_id": 6162773685,
      "amenity": "fast_food",
      "cuisine": "burger",
      "opening_hours": "Mo-Su 06:00-22:00",
      "operator": "McDonald's",
      "website": "https://www.mcdonalds.com/us/en-us/location/ca/vallejo/3289-sonoma-blvd/757.html",
      "internet_access": "wlan",
      "phone": "7076436220",
      "takeaway": "yes",
      "addr_postcode": "94590",
      "addr_street": "Sonoma Boulevard",
      "addr_housenumber": "3289",
      "value": 357.61067150628844
    },
    {
      "id": 127375,
      "geometry": "POINT (-122.280257 37.830747)",
      "poi_name": "Panda Express",
      "osm_id": 8060674292,
      "amenity": "fast_food",
      "cuisine": "chinese",
      "opening_hours": "Mo-Su 10:00-21:30",
      "website": "https://www.pandaexpress.com/userlocation/2385/ca/emeryville/1151-40th-st",
      "takeaway": "yes",
      "addr_state": "CA",
      "addr_city": "Emeryville",
      "addr_postcode": "94608",
      "addr_street": "40th Street",
      "addr_housenumber": "1151",
      "value": 357.61067150628844
    },
    {
      "id": 127376,
      "geometry": "POINT (-122.280799 37.832853)",
      "poi_name": "Wingstop",
      "osm_id": 8060681596,
      "amenity": "fast_food",
      "cuisine": "wings",
      "website": "https://www.wingstop.com/location/wingstop-454-emeryville-ca-94608/menu",
      "takeaway": "yes",
      "value": 357.61067150628844
    },
    {
      "id": 133951,
      "geometry": "POINT (-122.296941 37.868466)",
      "poi_name": "Burger King",
      "osm_id": 10018909585,
      "amenity": "fast_food",
      "cuisine": "burger",
      "takeaway": "yes",
      "value": 357.61067150628844
    },
    {
      "id": 135867,
      "geometry": "POINT (-122.269973 37.80416)",
      "poi_name": "Minto's Jamaican Juice Bar",
      "osm_id": 11540631177,
      "amenity": "fast_food",
      "cuisine": "juice",
      "value": 357.61067150628844
    },
    {
      "id": 144315,
      "geometry": "POINT (-122.270239 38.00876)",
      "poi_name": "L&L Drive-Inn",
      "osm_id": 7256963062,
      "amenity": "fast_food",
      "cuisine": "hawaiian",
      "takeaway": "yes",
      "value": 357.61067150628844
    },
    {
      "id": 139537,
      "geometry": "POINT (-122.252205 37.850096)",
      "poi_name": "Ike's Love and Sandwiches",
      "osm_id": 6202212159,
      "amenity": "fast_food",
      "cuisine": "sandwich",
      "wheelchair": "yes",
      "opening_hours": "Mo-Su 10:00-21:00",
      "website": "https://locations.ikessandwich.com/ca/oakland/119/",
      "phone": "+1 510 8232462",
      "takeaway": "yes",
      "outdoor_seating": "no",
      "addr_state": "CA",
      "addr_city": "Oakland",
      "addr_postcode": "94618",
      "addr_street": "College Avenue",
      "addr_housenumber": "6310",
      "value": 357.61067150628844
    },
    {
      "id": 143108,
      "geometry": "POINT (-122.254779 38.123734)",
      "poi_name": "Burger King",
      "osm_id": 6329150383,
      "amenity": "fast_food",
      "cuisine": "burger",
      "takeaway": "yes",
      "value": 357.61067150628844
    },
    {
      "id": 143109,
      "geometry": "POINT (-122.254791 38.123334)",
      "poi_name": "Taco Bell",
      "osm_id": 6329150384,
      "amenity": "fast_food",
      "cuisine": "tex-mex",
      "website": "https://locations.tacobell.com/ca/vallejo/3600-sonoma-blvd.html",
      "takeaway": "yes",
      "value": 357.61067150628844
    },
    {
      "id": 143111,
      "geometry": "POINT (-122.254801 38.121141)",
      "poi_name": "Tacos Jalisco",
      "osm_id": 6329150490,
      "amenity": "fast_food",
      "cuisine": "mexican",
      "value": 357.61067150628844
    },
    {
      "id": 143750,
      "geometry": "POINT (-122.266652 37.811142)",
      "poi_name": "The Halal Guys",
      "osm_id": 6348892871,
      "amenity": "fast_food",
      "cuisine": "chicken;falafel;gyros",
      "takeaway": "yes",
      "addr_state": "CA",
      "addr_city": "Oakland",
      "addr_postcode": "94612",
      "addr_street": "Broadway",
      "addr_housenumber": "2214",
      "value": 357.61067150628844
    },
    {
      "id": 139988,
      "geometry": "POINT (-122.287373 37.998297)",
      "poi_name": "Tropical Smoothie Cafe",
      "osm_id": 6224450080,
      "amenity": "fast_food",
      "cuisine": "juice",
      "website": "https://www.tropicalsmoothiecafe.com/",
      "phone": "510-417-2245",
      "takeaway": "yes",
      "addr_state": "CA",
      "addr_city": "Pinole",
      "addr_postcode": "94564",
      "addr_street": "Pinole Valley Rd",
      "addr_housenumber": "1424",
      "value": 357.61067150628844
    },
    {
      "id": 144316,
      "geometry": "POINT (-122.270269 38.008823)",
      "poi_name": "Subway",
      "osm_id": 7256963063,
      "amenity": "fast_food",
      "cuisine": "sandwich",
      "takeaway": "yes",
      "value": 357.61067150628844
    },
    {
      "id": 146714,
      "geometry": "POINT (-122.26783 37.865196)",
      "poi_name": "Noodles Fresh",
      "osm_id": 7471934966,
      "amenity": "fast_food",
      "cuisine": "chinese",
      "website": "https://noodlesfresh.com/",
      "phone": "+1-510-906-8800",
      "addr_state": "CA",
      "addr_city": "Berkeley",
      "addr_postcode": "94704",
      "addr_street": "Shattuck Avenue",
      "addr_housenumber": "2430",
      "value": 357.61067150628844
    },
    {
      "id": 144815,
      "geometry": "POINT (-122.251064 38.122101)",
      "poi_name": "Wendy's",
      "osm_id": 7289205514,
      "amenity": "fast_food",
      "cuisine": "burger",
      "website": "https://locations.wendys.com/united-states/ca/vallejo/1001-redwood",
      "internet_access": "wlan",
      "takeaway": "yes",
      "drive_through": "yes",
      "addr_state": "CA",
      "addr_city": "Vallejo",
      "addr_postcode": "94590",
      "addr_street": "Redwood Street",
      "addr_housenumber": "1001",
      "value": 357.61067150628844
    },
    {
      "id": 144828,
      "geometry": "POINT (-122.264636 37.808559)",
      "poi_name": "North Beach Sandwicheez",
      "osm_id": 7289711946,
      "amenity": "fast_food",
      "cuisine": "sandwich",
      "website": "https://www.sandwicheez.com/location/north-beach-deli-kaiser-center/",
      "takeaway": "yes",
      "value": 357.61067150628844
    },
    {
      "id": 144465,
      "geometry": "POINT (-122.274124 38.012135)",
      "poi_name": "Extreme Pizza",
      "osm_id": 7266790965,
      "amenity": "fast_food",
      "cuisine": "pizza",
      "takeaway": "yes",
      "value": 357.61067150628844
    },
    {
      "id": 146725,
      "geometry": "POINT (-122.30144 37.870014)",
      "poi_name": "Pollara Pizzeria",
      "osm_id": 7472208124,
      "amenity": "fast_food",
      "cuisine": "pizza",
      "website": "https://www.pollarapizzeria.com/",
      "phone": "+1-510-529-4548",
      "addr_state": "CA",
      "addr_city": "Berkeley",
      "addr_postcode": "94710",
      "addr_street": "Fourth Street",
      "addr_housenumber": "1788",
      "value": 357.61067150628844
    },
    {
      "id": 146734,
      "geometry": "POINT (-122.259715 37.867847)",
      "poi_name": "Riceful",
      "osm_id": 7472267370,
      "amenity": "fast_food",
      "cuisine": "japanese",
      "wheelchair": "yes",
      "opening_hours": "Mo-Su 11:00-20:00",
      "website": "http://bericeful.com/",
      "takeaway": "only",
      "addr_state": "CA",
      "addr_city": "Berkeley",
      "addr_postcode": "94704",
      "addr_street": "Durant Avenue",
      "addr_housenumber": "2435",
      "value": 357.61067150628844
    },
    {
      "id": 146738,
      "geometry": "POINT (-122.258283 37.865304)",
      "poi_name": "Savory Kitchen",
      "osm_id": 7472319188,
      "amenity": "fast_food",
      "cuisine": "salad;sandwich",
      "website": "https://www.grubhub.com/restaurant/savory-kitchen-2493-telegraph-ave-berkeley/2285621",
      "phone": "+15109906131",
      "addr_state": "CA",
      "addr_city": "Berkeley",
      "addr_postcode": "94704",
      "addr_street": "Telegraph Avenue",
      "addr_housenumber": "2493",
      "value": 357.61067150628844
    },
    {
      "id": 148529,
      "geometry": "POINT (-122.265872 37.849338)",
      "poi_name": "Subway",
      "osm_id": 3960217074,
      "amenity": "fast_food",
      "cuisine": "sandwich",
      "opening_hours": "Mo-Fr 10:00-20:30; Sa-Su 10:00-19:00",
      "website": "https://order.subway.com/en-US/restaurant/62223",
      "takeaway": "yes",
      "drive_through": "no",
      "addr_state": "CA",
      "addr_street": "Shattuck Avenue",
      "addr_housenumber": "6341",
      "value": 357.61067150628844
    },
    {
      "id": 148085,
      "geometry": "POINT (-122.271348 37.803667)",
      "poi_name": "Chipotle",
      "osm_id": 3927989508,
      "amenity": "fast_food",
      "cuisine": "mexican",
      "takeaway": "yes",
      "official_name": "Chipotle Mexican Grill",
      "addr_street": "Broadway",
      "addr_housenumber": "1302",
      "value": 357.61067150628844
    },
    {
      "id": 148533,
      "geometry": "POINT (-122.332522 37.916603)",
      "poi_name": "Eunice Gourmet",
      "osm_id": 3960350057,
      "amenity": "fast_food",
      "value": 357.61067150628844
    },
    {
      "id": 149964,
      "geometry": "POINT (-122.275047 37.80571)",
      "poi_name": "Roasted and Raw",
      "osm_id": 4035870209,
      "amenity": "fast_food",
      "cuisine": "juice",
      "value": 357.61067150628844
    },
    {
      "id": 149592,
      "geometry": "POINT (-122.254188 37.79483)",
      "poi_name": "Lee's Sandwiches",
      "osm_id": 4015833267,
      "amenity": "fast_food",
      "cuisine": "vietnamese;sandwich",
      "takeaway": "yes",
      "value": 357.61067150628844
    },
    {
      "id": 148641,
      "geometry": "POINT (-122.267444 37.805855)",
      "poi_name": "Rush Bowls",
      "osm_id": 3969664022,
      "amenity": "fast_food",
      "cuisine": "a\u00e7a\u00ed",
      "takeaway": "yes",
      "value": 357.61067150628844
    },
    {
      "id": 148644,
      "geometry": "POINT (-122.269423 37.805103)",
      "poi_name": "Quick Bite",
      "osm_id": 3969668592,
      "amenity": "fast_food",
      "addr_street": "Franklin Street",
      "addr_housenumber": "1511",
      "value": 357.61067150628844
    },
    {
      "id": 153176,
      "geometry": "POINT (-122.259887 37.869074)",
      "poi_name": "Root 150",
      "osm_id": 4181862715,
      "amenity": "fast_food",
      "value": 357.61067150628844
    },
    {
      "id": 151207,
      "geometry": "POINT (-122.633588 38.2414)",
      "poi_name": "A&W",
      "osm_id": 4085852317,
      "amenity": "fast_food",
      "cuisine": "burger",
      "website": "https://awrestaurants.com/locations/california/petaluma/701-east-washington-street/",
      "takeaway": "yes",
      "addr_state": "CA",
      "addr_city": "Petaluma",
      "addr_postcode": "94952",
      "addr_street": "East Washington Street",
      "addr_housenumber": "701",
      "value": 357.61067150628844
    },
    {
      "id": 151208,
      "geometry": "POINT (-122.63346 38.241315)",
      "poi_name": "KFC",
      "osm_id": 4085852318,
      "amenity": "fast_food",
      "cuisine": "chicken",
      "website": "https://locations.kfc.com/ca/petaluma/701-east-washington-street",
      "takeaway": "yes",
      "addr_state": "CA",
      "addr_city": "Petaluma",
      "addr_postcode": "94952",
      "addr_street": "East Washington Street",
      "addr_housenumber": "701",
      "value": 357.61067150628844
    },
    {
      "id": 153061,
      "geometry": "POINT (-122.262356 37.819085)",
      "poi_name": "Chipotle",
      "osm_id": 4174545091,
      "amenity": "fast_food",
      "cuisine": "mexican",
      "takeaway": "yes",
      "official_name": "Chipotle Mexican Grill",
      "value": 357.61067150628844
    },
    {
      "id": 153178,
      "geometry": "POINT (-122.259871 37.868994)",
      "poi_name": "True Blue Burgers",
      "osm_id": 4181862727,
      "amenity": "fast_food",
      "value": 357.61067150628844
    },
    {
      "id": 153179,
      "geometry": "POINT (-122.259924 37.86926)",
      "poi_name": "Asado",
      "osm_id": 4181862747,
      "amenity": "fast_food",
      "value": 357.61067150628844
    },
    {
      "id": 153180,
      "geometry": "POINT (-122.259892 37.869163)",
      "poi_name": "House of Pi",
      "osm_id": 4181862754,
      "amenity": "fast_food",
      "value": 357.61067150628844
    },
    {
      "id": 153400,
      "geometry": "POINT (-122.275558 37.800738)",
      "poi_name": "Lana's",
      "osm_id": 4195545977,
      "amenity": "fast_food",
      "cuisine": "burger",
      "website": "https://www.lanasoakland.com/",
      "value": 357.61067150628844
    },
    {
      "id": 156882,
      "geometry": "POINT (-122.270598 37.849962)",
      "poi_name": "The Fat Fish",
      "osm_id": 4675887964,
      "amenity": "fast_food",
      "cuisine": "fish_and_chips",
      "addr_state": "CA",
      "addr_street": "Adeline Street",
      "addr_housenumber": "3221",
      "value": 357.61067150628844
    },
    {
      "id": 164791,
      "geometry": "POINT (-122.309415 37.877634)",
      "poi_name": "Taqueria food truck",
      "osm_id": 9501233308,
      "amenity": "fast_food",
      "phone": "5104785999",
      "value": 357.61067150628844
    },
    {
      "id": 159823,
      "geometry": "POINT (-122.285893 37.993963)",
      "poi_name": "MOD Pizza",
      "osm_id": 4809024488,
      "amenity": "fast_food",
      "cuisine": "pizza",
      "opening_hours": "10:30-23:00",
      "website": "https://modpizza.com/",
      "takeaway": "yes",
      "addr_state": "CA",
      "addr_city": "Pinole",
      "addr_postcode": "94564",
      "addr_street": "Pinole Valley Road",
      "addr_housenumber": "2830",
      "value": 357.61067150628844
    },
    {
      "id": 159824,
      "geometry": "POINT (-122.286432 37.994515)",
      "poi_name": "Five Guys",
      "osm_id": 4809024489,
      "amenity": "fast_food",
      "cuisine": "burger",
      "opening_hours": "11:00-22:00",
      "website": "https://www.fiveguys.com/",
      "takeaway": "yes",
      "official_name": "Five Guys Burgers and Fries",
      "addr_state": "CA",
      "addr_city": "Pinole",
      "addr_postcode": "94564",
      "addr_street": "Pinole Valley Road",
      "addr_housenumber": "2780",
      "value": 357.61067150628844
    },
    {
      "id": 165724,
      "geometry": "POINT (-122.257654 37.867872)",
      "poi_name": "Taco Bell Cantina",
      "osm_id": 9553418873,
      "amenity": "fast_food",
      "cuisine": "tex-mex",
      "website": "https://locations.tacobell.com/ca/berkeley/2528-durant-ave.html",
      "takeaway": "yes",
      "addr_city": "Berkeley",
      "addr_street": "Durant Avenue",
      "addr_housenumber": "2528",
      "value": 357.61067150628844
    },
    {
      "id": 164913,
      "geometry": "POINT (-122.288867 37.839255)",
      "poi_name": "Ike's",
      "osm_id": 9506858288,
      "amenity": "fast_food",
      "value": 357.61067150628844
    },
    {
      "id": 165182,
      "geometry": "POINT (-122.272093 37.801898)",
      "poi_name": "Colonial Donuts",
      "osm_id": 9522503977,
      "amenity": "fast_food",
      "cuisine": "donut",
      "value": 357.61067150628844
    },
    {
      "id": 166064,
      "geometry": "POINT (-122.259822 37.867957)",
      "poi_name": "Take.Eat.Easy",
      "osm_id": 9572013607,
      "amenity": "fast_food",
      "cuisine": "bubble_tea",
      "takeaway": "only",
      "value": 357.61067150628844
    },
    {
      "id": 166077,
      "geometry": "POINT (-122.276567 37.775469)",
      "poi_name": "Left Field Dogs",
      "osm_id": 9572235077,
      "amenity": "fast_food",
      "cuisine": "hot_dog",
      "opening_hours": "+1-510-217-8697",
      "website": "https://www.leftfielddogs.com/",
      "addr_state": "CA",
      "addr_city": "Alameda",
      "addr_street": "Webster Street",
      "addr_housenumber": "1606",
      "value": 357.61067150628844
    },
    {
      "id": 166813,
      "geometry": "POINT (-122.268921 37.879866)",
      "poi_name": "Mexicana Taqueria",
      "osm_id": 314115417,
      "amenity": "fast_food",
      "cuisine": "mexican",
      "opening_hours": "Mo-Su 11:00-19:00",
      "website": "https://www.mexicanataqueria.com/",
      "phone": "+1-510-6292040",
      "value": 357.61067150628844
    },
    {
      "id": 166252,
      "geometry": "POINT (-122.261181 37.847093)",
      "poi_name": "KFC",
      "osm_id": 9583500381,
      "amenity": "fast_food",
      "cuisine": "chicken",
      "website": "https://locations.kfc.com/ca/oakland/6035-telegraph-road",
      "takeaway": "yes",
      "value": 357.61067150628844
    },
    {
      "id": 166253,
      "geometry": "POINT (-122.261165 37.847035)",
      "poi_name": "Taco Bell",
      "osm_id": 9583500382,
      "amenity": "fast_food",
      "cuisine": "tex-mex",
      "website": "https://locations.tacobell.com/ca/oakland/6035-telegraph-road.html",
      "takeaway": "yes",
      "value": 357.61067150628844
    },
    {
      "id": 166587,
      "geometry": "POINT (-122.258768 37.86861)",
      "poi_name": "Jamba Juice",
      "osm_id": 286632462,
      "amenity": "fast_food",
      "cuisine": "juice",
      "wheelchair": "limited",
      "website": "https://www.jamba.com/ca/berkeley/bancroft-150",
      "takeaway": "yes",
      "addr_city": "Berkeley",
      "addr_postcode": "94704",
      "addr_street": "Bancroft Way",
      "value": 357.61067150628844
    },
    {
      "id": 166598,
      "geometry": "POINT (-122.274845 37.870952)",
      "poi_name": "Nation's Giant Hamburgers",
      "osm_id": 288991105,
      "amenity": "fast_food",
      "cuisine": "burger",
      "wheelchair": "yes",
      "opening_hours": "Mo-Th, Su 06:00-00:30; Sa, Su 06:00-01:30",
      "website": "https://www.nationsrestaurants.com/",
      "phone": "+1 510 8437326",
      "addr_state": "CA",
      "addr_city": "Berkeley",
      "addr_postcode": "94703",
      "addr_street": "University Avenue",
      "addr_housenumber": "1800",
      "value": 357.61067150628844
    },
    {
      "id": 166835,
      "geometry": "POINT (-122.268629 37.872303)",
      "poi_name": "McDonald's",
      "osm_id": 314115730,
      "amenity": "fast_food",
      "cuisine": "burger",
      "wheelchair": "yes",
      "opening_hours": "Su-Tu 05:00-23:00; We-Sa 05:00-00:00",
      "website": "https://www.mcdonalds.com/us/en-us/location/ca/berkeley/1998-shattuck-ave/4372.html",
      "internet_access": "wlan",
      "phone": "+1 510 8431500",
      "takeaway": "yes",
      "drive_through": "no",
      "addr_state": "CA",
      "addr_city": "Berkeley",
      "addr_postcode": "94704",
      "addr_street": "Shattuck Avenue",
      "addr_housenumber": "1998",
      "value": 357.61067150628844
    },
    {
      "id": 167188,
      "geometry": "POINT (-122.289488 37.890991)",
      "poi_name": "Gordo Taqueria",
      "osm_id": 343610977,
      "amenity": "fast_food",
      "cuisine": "mexican",
      "wheelchair": "yes",
      "opening_hours": "Mo-Su 10:00-21:30",
      "website": "https://shop.gordotaqueria.co/gordo-solano-ave/menu",
      "phone": "(510) 528-8226",
      "takeaway": "only",
      "drive_through": "no",
      "outdoor_seating": "no",
      "addr_state": "CA",
      "addr_city": "Albany",
      "addr_street": "Solano Avenue",
      "addr_housenumber": "1423",
      "value": 357.61067150628844
    },
    {
      "id": 167158,
      "geometry": "POINT (-122.304088 37.902327)",
      "poi_name": "Burger King",
      "osm_id": 343317738,
      "amenity": "fast_food",
      "cuisine": "burger",
      "wheelchair": "yes",
      "opening_hours": "Mo-Sa 06:00-24:00; Sa 07:00-24:00",
      "phone": "+1 510 525 6377",
      "takeaway": "yes",
      "drive_through": "no",
      "delivery": "no",
      "value": 357.61067150628844
    },
    {
      "id": 166899,
      "geometry": "POINT (-122.259678 37.875279)",
      "poi_name": "Subway",
      "osm_id": 318886210,
      "amenity": "fast_food",
      "cuisine": "sandwich",
      "opening_hours": "Mo-Fr 10:00-17:00",
      "operator": "Subway IP Inc.",
      "website": "https://order.subway.com/",
      "phone": "+1 510-849-9009",
      "takeaway": "yes",
      "addr_street": "Hearst Avenue",
      "addr_housenumber": "2490",
      "value": 357.61067150628844
    },
    {
      "id": 166908,
      "geometry": "POINT (-122.260433 37.875803)",
      "poi_name": "Banh Mi and Rolls Factory",
      "osm_id": 318886226,
      "amenity": "fast_food",
      "cuisine": "vietnamese;sandwich",
      "opening_hours": "Mo-Su 10:00-17:00",
      "website": "https://places.singleplatform.com/banh-mi--roll-factory/menu",
      "addr_state": "CA",
      "addr_city": "Berkeley",
      "addr_postcode": "94709",
      "addr_street": "Euclid Avenue",
      "addr_housenumber": "1814",
      "value": 357.61067150628844
    },
    {
      "id": 167189,
      "geometry": "POINT (-122.289548 37.890944)",
      "poi_name": "Domino's",
      "osm_id": 343610978,
      "amenity": "fast_food",
      "cuisine": "pizza",
      "wheelchair": "limited",
      "opening_hours": "Su-Th 10:30-00:00; Fr-Sa 10:30-01:00",
      "website": "https://www.dominos.com/",
      "phone": "(510) 526-9346",
      "takeaway": "only",
      "drive_through": "no",
      "delivery": "yes",
      "addr_state": "CA",
      "addr_city": "Berkeley",
      "addr_postcode": "94706",
      "addr_street": "Solano Avenue",
      "addr_housenumber": "1421",
      "value": 357.61067150628844
    },
    {
      "id": 167166,
      "geometry": "POINT (-122.277757 37.891603)",
      "poi_name": "Noah's Bagels",
      "osm_id": 343610923,
      "amenity": "fast_food",
      "cuisine": "bagel",
      "opening_hours": "Mo-Fr 05:30-14:00; Sa, Su 06:00-14:00",
      "website": "https://locations.noahs.com/us/ca/berkeley/1883-solano-ave",
      "shop": "bakery",
      "phone": "+1 510-525-4447",
      "takeaway": "yes",
      "official_name": "Noah's New York Bagels",
      "addr_state": "CA",
      "addr_city": "Berkeley",
      "addr_street": "Solano Avenue",
      "addr_housenumber": "1883",
      "value": 357.61067150628844
    },
    {
      "id": 167193,
      "geometry": "POINT (-122.293848 37.890694)",
      "poi_name": "Oori Rice Triangles",
      "osm_id": 343610994,
      "amenity": "fast_food",
      "cuisine": "japanese;korean",
      "wheelchair": "limited",
      "opening_hours": "Mo-Su 11:00-21:00",
      "website": "https://www.ooririce.com/location/oori-foods-albany/",
      "takeaway": "yes",
      "outdoor_seating": "yes",
      "addr_state": "CA",
      "addr_city": "Albany",
      "addr_postcode": "94706",
      "addr_street": "Solano Avenue",
      "addr_housenumber": "1247",
      "value": 357.61067150628844
    },
    {
      "id": 167230,
      "geometry": "POINT (-122.256571 37.79891)",
      "poi_name": "Tacos Mi Rancho",
      "osm_id": 346416732,
      "amenity": "fast_food",
      "cuisine": "mexican",
      "phone": "(510) 485-3054",
      "takeaway": "only",
      "outdoor_seating": "no",
      "value": 357.61067150628844
    },
    {
      "id": 167198,
      "geometry": "POINT (-122.298601 37.890006)",
      "poi_name": "The Hot Shop",
      "osm_id": 343611008,
      "amenity": "fast_food",
      "cuisine": "mexican",
      "opening_hours": "Mo-Sa 11:00-20:00",
      "phone": "5105289011",
      "drive_through": "no",
      "outdoor_seating": "no",
      "addr_city": "Albany",
      "addr_street": "San Pablo Avenue",
      "value": 357.61067150628844
    },
    {
      "id": 170232,
      "geometry": "POINT (-122.296137 37.879418)",
      "poi_name": "Chipotle",
      "osm_id": 2329583711,
      "amenity": "fast_food",
      "cuisine": "mexican",
      "opening_hours": "Mo-Su 10:46-22:00",
      "website": "https://chipotle.com",
      "phone": "(510)900-2658",
      "takeaway": "yes",
      "official_name": "Chipotle Mexican Grill",
      "addr_state": "CA",
      "addr_city": "Albany",
      "addr_street": "Gilman Street",
      "addr_housenumber": "1050",
      "value": 357.61067150628844
    },
    {
      "id": 167333,
      "geometry": "POINT (-122.267196 37.870287)",
      "poi_name": "Mr. Cupbob",
      "osm_id": 354702929,
      "amenity": "fast_food",
      "cuisine": "korean",
      "drive_through": "no",
      "addr_state": "CA",
      "addr_city": "Berkeley",
      "addr_postcode": "94704",
      "addr_street": "Center Street",
      "addr_housenumber": "2126",
      "value": 357.61067150628844
    },
    {
      "id": 167338,
      "geometry": "POINT (-122.26643 37.870384)",
      "poi_name": "Bongo Burger",
      "osm_id": 354703876,
      "amenity": "fast_food",
      "cuisine": "burger;mediterranean",
      "wheelchair": "yes",
      "opening_hours": "Mo-Fr 10:00-15:00; Sa 11:30-15:00",
      "website": "https://bongoburger.com/",
      "phone": "+1 510-548-7700",
      "takeaway": "yes",
      "outdoor_seating": "yes",
      "addr_postcode": "94704",
      "addr_street": "Center Street",
      "addr_housenumber": "2154",
      "value": 357.61067150628844
    },
    {
      "id": 167339,
      "geometry": "POINT (-122.266356 37.870395)",
      "poi_name": "Top Dog",
      "osm_id": 354703981,
      "amenity": "fast_food",
      "cuisine": "american;hot_dog",
      "wheelchair": "yes",
      "opening_hours": "Mo-Fr 10:30-17:00; Sa-Su 11:00-17:00",
      "website": "http://www.topdoghotdogs.com/",
      "takeaway": "yes",
      "drive_through": "no",
      "outdoor_seating": "yes",
      "addr_city": "Berkeley",
      "addr_street": "Center Street",
      "addr_housenumber": "2160",
      "value": 357.61067150628844
    },
    {
      "id": 168225,
      "geometry": "POINT (-122.258151 37.865293)",
      "poi_name": "Bongo Burger",
      "osm_id": 368204308,
      "amenity": "fast_food",
      "cuisine": "burger",
      "wheelchair": "yes",
      "website": "https://bongoburger.com/",
      "phone": "+1 510 5484100",
      "drive_through": "no",
      "addr_state": "CA",
      "addr_city": "Berkeley",
      "addr_postcode": "94704",
      "addr_street": "Dwight Way",
      "addr_housenumber": "2505",
      "value": 357.61067150628844
    },
    {
      "id": 170177,
      "geometry": "POINT (-122.273632 37.800828)",
      "poi_name": "Sweetgreen",
      "osm_id": 2328402797,
      "amenity": "fast_food",
      "cuisine": "salad",
      "takeaway": "yes",
      "addr_city": "Oakland",
      "addr_postcode": "94612",
      "addr_street": "Broadway",
      "addr_housenumber": "831",
      "value": 357.61067150628844
    },
    {
      "id": 167304,
      "geometry": "POINT (-122.2574 37.867891)",
      "poi_name": "Top Dog",
      "osm_id": 354035785,
      "amenity": "fast_food",
      "cuisine": "hot_dog",
      "website": "http://www.topdoghotdogs.com/",
      "phone": "+1 510 8435967",
      "addr_street": "Durant Avenue",
      "addr_housenumber": "2534",
      "value": 357.61067150628844
    },
    {
      "id": 168151,
      "geometry": "POINT (-122.25882 37.867686)",
      "poi_name": "Super Duper Burger",
      "osm_id": 365795396,
      "amenity": "fast_food",
      "cuisine": "burger",
      "opening_hours": "Mo-Su 07:00-22:00",
      "website": "https://superduperburgers.com/",
      "phone": "+1-510-9906483",
      "takeaway": "yes",
      "drive_through": "no",
      "addr_city": "Berkeley",
      "addr_postcode": "94704",
      "addr_street": "Telegraph Avenue",
      "addr_housenumber": "2355",
      "value": 357.61067150628844
    },
    {
      "id": 168153,
      "geometry": "POINT (-122.259703 37.869831)",
      "poi_name": "Golden Bear Cafe",
      "osm_id": 365795484,
      "amenity": "fast_food",
      "wheelchair": "yes",
      "opening_hours": "Mo-Th 07:30-19:30; Fr 07:30-17:30; Sa 09:00-16:30",
      "value": 357.61067150628844
    },
    {
      "id": 168161,
      "geometry": "POINT (-122.25928 37.868579)",
      "poi_name": "Subway",
      "osm_id": 366086633,
      "amenity": "fast_food",
      "cuisine": "sandwich",
      "wheelchair": "yes",
      "opening_hours": "Mo-Fr 09:00-19:00; Sa 09:00-17:00; Su 10:00-16:00",
      "takeaway": "yes",
      "value": 357.61067150628844
    },
    {
      "id": 168162,
      "geometry": "POINT (-122.258954 37.868371)",
      "poi_name": "Chipotle",
      "osm_id": 366086636,
      "amenity": "fast_food",
      "cuisine": "mexican",
      "opening_hours": "Mo-Su 10:45-22:00",
      "website": "https://locations.chipotle.com/ca/berkeley/2311-telegraph-ave",
      "phone": "+15105480340",
      "takeaway": "yes",
      "official_name": "Chipotle Mexican Grill",
      "addr_state": "CA",
      "addr_city": "Berkeley",
      "addr_postcode": "94704",
      "addr_street": "Telegraph Avenue",
      "addr_housenumber": "2311",
      "value": 357.61067150628844
    },
    {
      "id": 168163,
      "geometry": "POINT (-122.259166 37.868019)",
      "poi_name": "Blondie's Pizza",
      "osm_id": 366086641,
      "amenity": "fast_food",
      "cuisine": "pizza",
      "opening_hours": "Mo-Su 10:00- 00:00",
      "website": "http://www.abespizza.com/bk-store.html",
      "drive_through": "no",
      "addr_state": "CA",
      "addr_city": "Berkeley",
      "addr_postcode": "94704",
      "addr_street": "Telegraph Avenue",
      "addr_housenumber": "2340",
      "value": 357.61067150628844
    },
    {
      "id": 170625,
      "geometry": "POINT (-122.268421 37.87055)",
      "poi_name": "Crave Subs",
      "osm_id": 2342888634,
      "amenity": "fast_food",
      "cuisine": "sandwich",
      "opening_hours": "Mo-Fr 10:00-20:00; Sa 11:00-20:00; Su 11:00-19:00",
      "website": "https://www.cravesubsberkeley.com/",
      "phone": "+1-510-7051140",
      "takeaway": "yes",
      "outdoor_seating": "yes",
      "addr_state": "CA",
      "addr_city": "Berkeley",
      "addr_postcode": "94704",
      "addr_street": "Shattuck Avenue",
      "addr_housenumber": "2122",
      "value": 357.61067150628844
    },
    {
      "id": 170817,
      "geometry": "POINT (-122.268336 37.869764)",
      "poi_name": "Sliver",
      "osm_id": 2350130005,
      "amenity": "fast_food",
      "cuisine": "pizza",
      "wheelchair": "yes",
      "website": "https://www.sliverpizzeria.com/",
      "drive_through": "no",
      "outdoor_seating": "yes",
      "addr_city": "Berkeley",
      "addr_street": "Shattuck Avenue",
      "addr_housenumber": "2174",
      "value": 357.61067150628844
    },
    {
      "id": 170819,
      "geometry": "POINT (-122.268993 37.872239)",
      "poi_name": "Tender Greens",
      "osm_id": 2350147008,
      "amenity": "fast_food",
      "cuisine": "salad",
      "opening_hours": "Mo-Fr 10:00-21:00; Sa,Su 11:00-21:00",
      "website": "https://www.tendergreens.com/locations/berkeley",
      "takeaway": "yes",
      "drive_through": "no",
      "outdoor_seating": "yes",
      "addr_state": "CA",
      "addr_city": "Berkeley",
      "addr_postcode": "94704",
      "addr_street": "University Avenue",
      "addr_housenumber": "2071",
      "value": 357.61067150628844
    },
    {
      "id": 174921,
      "geometry": "POINT (-122.268342 37.869835)",
      "poi_name": "Ike's Love & Sandwiches",
      "osm_id": 2501269406,
      "amenity": "fast_food",
      "cuisine": "sandwich",
      "wheelchair": "yes",
      "opening_hours": "Mo-Su 10:00-21:00",
      "phone": "+1 510-679-5130",
      "takeaway": "yes",
      "drive_through": "no",
      "outdoor_seating": "no",
      "addr_city": "Berkeley",
      "addr_street": "Shattuck Avenue",
      "addr_housenumber": "2172",
      "value": 357.61067150628844
    },
    {
      "id": 172931,
      "geometry": "POINT (-122.347934 37.920449)",
      "poi_name": "Quiznos",
      "osm_id": 2419243687,
      "amenity": "fast_food",
      "cuisine": "sandwich",
      "takeaway": "yes",
      "value": 357.61067150628844
    },
    {
      "id": 177272,
      "geometry": "POINT (-122.299963 37.900521)",
      "poi_name": "Jamba",
      "osm_id": 2580380975,
      "amenity": "fast_food",
      "cuisine": "juice",
      "wheelchair": "yes",
      "opening_hours": "Mo-Sa 08:00-20:00; Su 09:00-19:00",
      "website": "https://locations.jamba.com/ca/el-cerrito/5030-el-cerrito-plaza",
      "takeaway": "yes",
      "drive_through": "no",
      "delivery": "no",
      "addr_state": "CA",
      "addr_city": "El Cerrito",
      "addr_postcode": "94530",
      "addr_street": "El Cerrito Plaza",
      "addr_housenumber": "5030",
      "value": 357.61067150628844
    },
    {
      "id": 176371,
      "geometry": "POINT (-122.252024 37.848263)",
      "poi_name": "Oori",
      "osm_id": 2557928589,
      "amenity": "fast_food",
      "cuisine": "japanese;onigiri;tacos",
      "wheelchair": "yes",
      "opening_hours": "Mo-Su 11:00-20:00",
      "website": "https://www.oorifoods.com/",
      "phone": "+1 510 2509833",
      "takeaway": "yes",
      "outdoor_seating": "sidewalk",
      "addr_state": "CA",
      "addr_city": "Oakland",
      "addr_postcode": "94618",
      "addr_street": "College Avenue",
      "addr_housenumber": "6000",
      "value": 357.61067150628844
    },
    {
      "id": 177273,
      "geometry": "POINT (-122.299972 37.900608)",
      "poi_name": "Panda Express",
      "osm_id": 2580380983,
      "amenity": "fast_food",
      "cuisine": "chinese",
      "wheelchair": "yes",
      "opening_hours": "Mo-Su 10:00-21:30",
      "website": "https://www.pandaexpress.com/userlocation/1003/ca/el-cerrito/5020-el-cerrito-plaza-e-2",
      "phone": "+1 510 526 9989",
      "takeaway": "yes",
      "addr_state": "CA",
      "addr_city": "El Cerrito",
      "addr_postcode": "94530",
      "addr_street": "El Cerrito Plaza",
      "addr_housenumber": "5020",
      "value": 357.61067150628844
    },
    {
      "id": 180223,
      "geometry": "POINT (-122.273515 37.8045)",
      "poi_name": "Subway",
      "osm_id": 10795956022,
      "amenity": "fast_food",
      "cuisine": "sandwich",
      "takeaway": "yes",
      "value": 357.61067150628844
    },
    {
      "id": 178512,
      "geometry": "POINT (-122.252195 37.850019)",
      "poi_name": "Pressed",
      "osm_id": 10728634917,
      "amenity": "fast_food",
      "cuisine": "juice",
      "wheelchair": "yes",
      "outdoor_seating": "no",
      "value": 357.61067150628844
    },
    {
      "id": 179620,
      "geometry": "POINT (-122.2716 37.805986)",
      "poi_name": "Juice Joint Mexican Deli",
      "osm_id": 10771482335,
      "amenity": "fast_food",
      "value": 357.61067150628844
    },
    {
      "id": 177458,
      "geometry": "POINT (-122.268378 37.869982)",
      "poi_name": "Mixt",
      "osm_id": 2589491438,
      "amenity": "fast_food",
      "cuisine": "salad",
      "wheelchair": "yes",
      "drive_through": "no",
      "outdoor_seating": "no",
      "addr_street": "Shattuck Avenue",
      "addr_housenumber": "2150",
      "value": 357.61067150628844
    },
    {
      "id": 178588,
      "geometry": "POINT (-122.2938 37.841443)",
      "poi_name": "Naru Sushi",
      "osm_id": 10731757132,
      "amenity": "fast_food",
      "cuisine": "sushi",
      "value": 357.61067150628844
    },
    {
      "id": 178589,
      "geometry": "POINT (-122.29392 37.841492)",
      "poi_name": "Juice House Co.",
      "osm_id": 10731757134,
      "amenity": "fast_food",
      "cuisine": "juice",
      "value": 357.61067150628844
    },
    {
      "id": 178606,
      "geometry": "POINT (-122.291886 37.834053)",
      "poi_name": "Shake Shack",
      "osm_id": 10731903405,
      "amenity": "fast_food",
      "cuisine": "burger",
      "takeaway": "yes",
      "value": 357.61067150628844
    },
    {
      "id": 181646,
      "geometry": "POINT (-122.310861 37.986152)",
      "poi_name": "Ike's Love and Sandwiches",
      "osm_id": 10858725627,
      "amenity": "fast_food",
      "cuisine": "sandwich",
      "takeaway": "yes",
      "value": 357.61067150628844
    },
    {
      "id": 181605,
      "geometry": "POINT (-122.636514 38.254232)",
      "poi_name": "Sourdough & Co.",
      "osm_id": 10857431755,
      "amenity": "fast_food",
      "cuisine": "sandwich",
      "value": 357.61067150628844
    },
    {
      "id": 182042,
      "geometry": "POINT (-122.266425 37.855707)",
      "poi_name": "Mochinut",
      "osm_id": 10876095870,
      "amenity": "fast_food",
      "cuisine": "donut;bubble_tea",
      "takeaway": "yes",
      "value": 357.61067150628844
    },
    {
      "id": 186513,
      "geometry": "POINT (-122.25685 37.867954)",
      "poi_name": "Artichoke Basille's Pizza",
      "osm_id": 7932880097,
      "amenity": "fast_food",
      "cuisine": "pizza",
      "drive_through": "no",
      "outdoor_seating": "parklet",
      "value": 357.61067150628844
    },
    {
      "id": 182402,
      "geometry": "POINT (-122.26474 37.829554)",
      "poi_name": "Lee's Donuts",
      "osm_id": 10891935032,
      "amenity": "fast_food",
      "cuisine": "donut",
      "value": 357.61067150628844
    },
    {
      "id": 183657,
      "geometry": "POINT (-122.626402 38.243638)",
      "poi_name": "Chipotle",
      "osm_id": 10940414511,
      "amenity": "fast_food",
      "cuisine": "mexican",
      "phone": "7077725225",
      "takeaway": "yes",
      "drive_through": "no",
      "official_name": "Chipotle Mexican Grill",
      "addr_state": "CA",
      "addr_city": "Petaluma",
      "addr_postcode": "94952",
      "addr_street": "Kenilworth Drive",
      "addr_housenumber": "401",
      "value": 357.61067150628844
    },
    {
      "id": 183658,
      "geometry": "POINT (-122.626232 38.243808)",
      "poi_name": "Five Guys",
      "osm_id": 10940414512,
      "amenity": "fast_food",
      "cuisine": "burger",
      "phone": "7077652255",
      "takeaway": "yes",
      "official_name": "Five Guys Burgers and Fries",
      "addr_state": "CA",
      "addr_city": "Petaluma",
      "addr_postcode": "94952",
      "addr_street": "Kenilworth Drive",
      "addr_housenumber": "401",
      "value": 357.61067150628844
    },
    {
      "id": 188826,
      "geometry": "POINT (-122.272811 37.80391)",
      "poi_name": "Jamba Juice",
      "osm_id": 1186413847,
      "amenity": "fast_food",
      "cuisine": "juice",
      "wheelchair": "yes",
      "takeaway": "yes",
      "value": 357.61067150628844
    },
    {
      "id": 188325,
      "geometry": "POINT (-122.267964 37.87202)",
      "poi_name": "Stand-Up Burgers",
      "osm_id": 1140526023,
      "amenity": "fast_food",
      "cuisine": "burger",
      "opening_hours": "Mo-Su 11:00-21:00",
      "website": "https://www.standupburgers.com/berkeley",
      "addr_state": "CA",
      "addr_city": "Berkeley",
      "addr_postcode": "94704",
      "addr_street": "Kala Bagai Way",
      "addr_housenumber": "2000",
      "value": 357.61067150628844
    },
    {
      "id": 188327,
      "geometry": "POINT (-122.306579 37.991215)",
      "poi_name": "Panda Express",
      "osm_id": 1140673870,
      "amenity": "fast_food",
      "cuisine": "chinese",
      "takeaway": "yes",
      "value": 357.61067150628844
    },
    {
      "id": 188328,
      "geometry": "POINT (-122.306487 37.991226)",
      "poi_name": "Subway",
      "osm_id": 1140673894,
      "amenity": "fast_food",
      "cuisine": "sandwich",
      "takeaway": "yes",
      "value": 357.61067150628844
    },
    {
      "id": 186655,
      "geometry": "POINT (-122.260082 37.856742)",
      "poi_name": "Krispy Krunchy Chicken",
      "osm_id": 7940287676,
      "amenity": "fast_food",
      "cuisine": "chicken",
      "website": "https://www.krispykrunchy.com/locations/store-10286",
      "phone": "(510)543-1939",
      "takeaway": "yes",
      "value": 357.61067150628844
    },
    {
      "id": 187533,
      "geometry": "POINT (-122.553908 38.090909)",
      "poi_name": "Jenny Low's",
      "osm_id": 1076446319,
      "amenity": "fast_food",
      "cuisine": "chinese",
      "value": 357.61067150628844
    },
    {
      "id": 188827,
      "geometry": "POINT (-122.27257 37.804109)",
      "poi_name": "Sidewalk",
      "osm_id": 1186413872,
      "amenity": "fast_food",
      "cuisine": "burger",
      "wheelchair": "yes",
      "value": 357.61067150628844
    },
    {
      "id": 191554,
      "geometry": "POINT (-122.279796 37.855883)",
      "poi_name": "Tacos sinaloa",
      "osm_id": 1374984803,
      "amenity": "fast_food",
      "cuisine": "mexican",
      "drive_through": "no",
      "addr_state": "CA",
      "addr_city": "Berkeley",
      "addr_street": "Sacramento Street",
      "addr_housenumber": "2830",
      "value": 357.61067150628844
    },
    {
      "id": 189342,
      "geometry": "POINT (-122.266108 37.806516)",
      "poi_name": "Winky Dinky Dogs",
      "osm_id": 1228088211,
      "amenity": "fast_food",
      "cuisine": "hot_dog",
      "value": 357.61067150628844
    },
    {
      "id": 190578,
      "geometry": "POINT (-122.291256 37.84077)",
      "poi_name": "Subway",
      "osm_id": 1305397498,
      "amenity": "fast_food",
      "cuisine": "sandwich",
      "takeaway": "yes",
      "value": 357.61067150628844
    },
    {
      "id": 190580,
      "geometry": "POINT (-122.283513 37.84292)",
      "poi_name": "Red Door Pizza",
      "osm_id": 1305397505,
      "amenity": "fast_food",
      "value": 357.61067150628844
    },
    {
      "id": 190792,
      "geometry": "POINT (-122.252558 37.757124)",
      "poi_name": "Subway",
      "osm_id": 1315928542,
      "amenity": "fast_food",
      "cuisine": "sandwich",
      "takeaway": "yes",
      "value": 357.61067150628844
    },
    {
      "id": 190794,
      "geometry": "POINT (-122.250481 37.756366)",
      "poi_name": "Five Guys",
      "osm_id": 1315928642,
      "amenity": "fast_food",
      "cuisine": "burger",
      "opening_hours": "11:00-22:00",
      "takeaway": "yes",
      "official_name": "Five Guys Burgers and Fries",
      "addr_street": "South Shore Center",
      "addr_housenumber": "2254",
      "value": 357.61067150628844
    },
    {
      "id": 190865,
      "geometry": "POINT (-122.286104 37.995801)",
      "poi_name": "Chipotle",
      "osm_id": 1321080988,
      "amenity": "fast_food",
      "cuisine": "mexican",
      "takeaway": "yes",
      "official_name": "Chipotle Mexican Grill",
      "value": 357.61067150628844
    },
    {
      "id": 190868,
      "geometry": "POINT (-122.286455 37.994656)",
      "poi_name": "Subway",
      "osm_id": 1321089548,
      "amenity": "fast_food",
      "cuisine": "sandwich",
      "takeaway": "yes",
      "value": 357.61067150628844
    },
    {
      "id": 190875,
      "geometry": "POINT (-122.285308 37.996298)",
      "poi_name": "Jack in the Box",
      "osm_id": 1321244323,
      "amenity": "fast_food",
      "cuisine": "burger",
      "takeaway": "yes",
      "value": 357.61067150628844
    },
    {
      "id": 192638,
      "geometry": "POINT (-122.279995 37.830596)",
      "poi_name": "Subway",
      "osm_id": 1467717306,
      "amenity": "fast_food",
      "cuisine": "sandwich",
      "website": "https://catering.subway.com/Cart/Menu2.aspx?r=1585456230",
      "takeaway": "yes",
      "addr_state": "CA",
      "addr_city": "Emeryville",
      "addr_postcode": "94608",
      "addr_street": "San Pablo Avenue",
      "addr_housenumber": "3999",
      "value": 357.61067150628844
    },
    {
      "id": 193309,
      "geometry": "POINT (-122.291042 37.866736)",
      "poi_name": "Jack in the Box",
      "osm_id": 1519114319,
      "amenity": "fast_food",
      "cuisine": "burger",
      "wheelchair": "yes",
      "opening_hours": "Mo-Su 06:00-23:58",
      "website": "https://locations.jackinthebox.com/us/ca/berkeley/2197-san-pablo-ave",
      "phone": "(510) 841-3574",
      "takeaway": "yes",
      "drive_through": "yes",
      "addr_state": "CA",
      "addr_city": "Berkeley",
      "addr_street": "San Pablo Avenue",
      "addr_housenumber": "2197",
      "value": 357.61067150628844
    },
    {
      "id": 193038,
      "geometry": "POINT (-122.294988 37.836483)",
      "poi_name": "Jamba Juice",
      "osm_id": 1491645169,
      "amenity": "fast_food",
      "cuisine": "juice",
      "takeaway": "yes",
      "value": 357.61067150628844
    },
    {
      "id": 193039,
      "geometry": "POINT (-122.294827 37.836097)",
      "poi_name": "Togo's",
      "osm_id": 1491645204,
      "amenity": "fast_food",
      "cuisine": "sandwich",
      "takeaway": "yes",
      "value": 357.61067150628844
    },
    {
      "id": 193196,
      "geometry": "POINT (-122.280716 37.830679)",
      "poi_name": "Little Caesars",
      "osm_id": 1507828034,
      "amenity": "fast_food",
      "cuisine": "pizza",
      "website": "https://littlecaesars.com/en-us/store/9084",
      "phone": "(510) 547 - 7499",
      "takeaway": "yes",
      "addr_state": "CA",
      "addr_city": "Emeryville",
      "addr_postcode": "94608",
      "addr_street": "40th Street",
      "addr_housenumber": "1199",
      "value": 357.61067150628844
    },
    {
      "id": 193365,
      "geometry": "POINT (-122.298325 37.899608)",
      "poi_name": "Wingstop",
      "osm_id": 1529100863,
      "amenity": "fast_food",
      "cuisine": "wings",
      "wheelchair": "yes",
      "opening_hours": "Mo-Fr 11:00-24:00",
      "website": "https://www.wingstop.com/location/wingstop-477-el-cerrito-ca-94530/menu",
      "phone": "+1 510 528 9464",
      "takeaway": "yes",
      "drive_through": "no",
      "addr_state": "CA",
      "addr_city": "El Cerrito",
      "addr_postcode": "94530",
      "addr_street": "El Cerrito Plaza",
      "addr_housenumber": "340",
      "value": 357.61067150628844
    },
    {
      "id": 193013,
      "geometry": "POINT (-122.28183 37.837954)",
      "poi_name": "Lee's Donuts and Chinese",
      "osm_id": 1489746246,
      "amenity": "fast_food",
      "value": 357.61067150628844
    },
    {
      "id": 193014,
      "geometry": "POINT (-122.281766 37.837971)",
      "poi_name": "Papa John's",
      "osm_id": 1489746271,
      "amenity": "fast_food",
      "cuisine": "pizza",
      "takeaway": "yes",
      "value": 357.61067150628844
    },
    {
      "id": 193020,
      "geometry": "POINT (-122.281185 37.834388)",
      "poi_name": "KFC",
      "osm_id": 1490108963,
      "amenity": "fast_food",
      "cuisine": "chicken",
      "website": "https://locations.kfc.com/ca/emeryville/4501-san-pablo-avenue",
      "takeaway": "yes",
      "value": 357.61067150628844
    },
    {
      "id": 193270,
      "geometry": "POINT (-122.295816 37.84345)",
      "poi_name": "Subway Sandwich",
      "osm_id": 1515953792,
      "amenity": "fast_food",
      "value": 357.61067150628844
    },
    {
      "id": 195732,
      "geometry": "POINT (-122.26698 37.805709)",
      "poi_name": "Senor Sisig",
      "osm_id": 10402226933,
      "amenity": "fast_food",
      "cuisine": "filipino",
      "value": 357.61067150628844
    },
    {
      "id": 193691,
      "geometry": "POINT (-122.268686 37.807551)",
      "poi_name": "Gai Noi",
      "osm_id": 1556251727,
      "amenity": "fast_food",
      "cuisine": "thai",
      "value": 357.61067150628844
    },
    {
      "id": 193692,
      "geometry": "POINT (-122.270036 37.80657)",
      "poi_name": "Prospect Park Sandwiches",
      "osm_id": 1556251731,
      "amenity": "fast_food",
      "cuisine": "sandwich",
      "value": 357.61067150628844
    },
    {
      "id": 197888,
      "geometry": "POINT (-122.271253 37.871614)",
      "poi_name": "BurgerIM",
      "osm_id": 10680003138,
      "amenity": "fast_food",
      "cuisine": "burger",
      "value": 357.61067150628844
    },
    {
      "id": 211143,
      "geometry": "POINT (-122.332657 37.953838)",
      "poi_name": "Popeyes",
      "osm_id": 5142075321,
      "amenity": "fast_food",
      "cuisine": "chicken",
      "opening_hours": "Mo-Su 10:00-21:00",
      "website": "https://locations.popeyes.com/ca/san-pablo/4569/",
      "phone": "+1 (510) 412-2289",
      "takeaway": "yes",
      "official_name": "Popeyes Louisiana Kitchen",
      "addr_postcode": "94806",
      "value": 357.61067150628844
    },
    {
      "id": 201366,
      "geometry": "POINT (-122.292811 37.871868)",
      "poi_name": "Popeyes",
      "osm_id": 626216926,
      "amenity": "fast_food",
      "cuisine": "chicken",
      "takeaway": "yes",
      "official_name": "Popeyes Louisiana Kitchen",
      "value": 357.61067150628844
    },
    {
      "id": 203142,
      "geometry": "POINT (-122.268276 37.8733)",
      "poi_name": "Marugame Udon",
      "osm_id": 7065237633,
      "amenity": "fast_food",
      "cuisine": "noodle",
      "wheelchair": "yes",
      "website": "https://marugameudon.com/",
      "phone": "+1-510-529-4622",
      "drive_through": "no",
      "outdoor_seating": "yes",
      "addr_state": "CA",
      "addr_city": "Berkeley",
      "addr_postcode": "94704",
      "addr_street": "Shattuck Avenue",
      "addr_housenumber": "1919",
      "value": 357.61067150628844
    },
    {
      "id": 204001,
      "geometry": "POINT (-122.29733 37.884403)",
      "poi_name": "The Habit Burger Grill",
      "osm_id": 7109324499,
      "amenity": "fast_food",
      "cuisine": "burger",
      "opening_hours": "Mo-Su 10:30-22:00",
      "website": "https://www.habitburger.com/locations/albany/",
      "phone": "+15105265560",
      "takeaway": "yes",
      "addr_state": "CA",
      "addr_city": "Albany",
      "addr_postcode": "94706",
      "addr_street": "Monroe Street",
      "addr_housenumber": "1080",
      "value": 357.61067150628844
    },
    {
      "id": 201740,
      "geometry": "POINT (-122.264002 37.811359)",
      "poi_name": "True Burger",
      "osm_id": 655373734,
      "amenity": "fast_food",
      "cuisine": "burger",
      "wheelchair": "yes",
      "opening_hours": "Mo-Sa 11:00-21:00; Su 12:00-20:00",
      "website": "https://trueburgeroakland.com/",
      "phone": "+1 510-208-5678",
      "drive_through": "no",
      "addr_street": "Grand Avenue",
      "addr_housenumber": "146",
      "value": 357.61067150628844
    },
    {
      "id": 206189,
      "geometry": "POINT (-122.384586 37.925676)",
      "poi_name": "Maya Tacqueria",
      "osm_id": 7199451539,
      "amenity": "fast_food",
      "cuisine": "mexican",
      "takeaway": "yes",
      "drive_through": "no",
      "outdoor_seating": "yes",
      "value": 357.61067150628844
    },
    {
      "id": 215580,
      "geometry": "POINT (-122.267639 37.868859)",
      "poi_name": "Chipotle",
      "osm_id": 5305408860,
      "amenity": "fast_food",
      "cuisine": "mexican",
      "wheelchair": "yes",
      "opening_hours": "Mo-Su 10:45-22:00",
      "website": "https://locations.chipotle.com/ca/berkeley/2225-shattuck-ave",
      "phone": "+1-510-6479166",
      "takeaway": "yes",
      "drive_through": "no",
      "official_name": "Chipotle Mexican Grill",
      "outdoor_seating": "no",
      "addr_state": "CA",
      "addr_city": "Berkeley",
      "addr_postcode": "94704",
      "addr_street": "Shattuck Avenue",
      "addr_housenumber": "2225",
      "value": 357.61067150628844
    },
    {
      "id": 214586,
      "geometry": "POINT (-122.332099 37.948942)",
      "poi_name": "Burger King",
      "osm_id": 5275425026,
      "amenity": "fast_food",
      "cuisine": "burger",
      "opening_hours": "Mo-Sa 06:00-00:00; Su 07:00-00:00",
      "phone": "+15102374665",
      "takeaway": "yes",
      "addr_postcode": "94805",
      "value": 357.61067150628844
    },
    {
      "id": 219804,
      "geometry": "POINT (-122.251789 37.871608)",
      "poi_name": "Gridiron Grill",
      "osm_id": 9347384610,
      "amenity": "fast_food",
      "value": 357.61067150628844
    },
    {
      "id": 219206,
      "geometry": "POINT (-122.293536 37.841105)",
      "poi_name": "Super Duper Burgers",
      "osm_id": 9318880039,
      "amenity": "fast_food",
      "value": 357.61067150628844
    },
    {
      "id": 216337,
      "geometry": "POINT (-122.249465 37.833729)",
      "poi_name": "Boston Market",
      "osm_id": 9167934815,
      "amenity": "fast_food",
      "cuisine": "american;chicken",
      "opening_hours": "Mo-Su 11:00-22:00",
      "website": "https://www.bostonmarket.com/location/ca/oakland/5132-broadway",
      "phone": "+1 510 601 0300",
      "takeaway": "yes",
      "addr_state": "CA",
      "addr_city": "Oakland",
      "addr_postcode": "94611",
      "addr_street": "Broadway",
      "addr_housenumber": "5132",
      "value": 357.61067150628844
    },
    {
      "id": 219805,
      "geometry": "POINT (-122.251837 37.871016)",
      "poi_name": "Oski's Place",
      "osm_id": 9347384611,
      "amenity": "fast_food",
      "value": 357.61067150628844
    },
    {
      "id": 219806,
      "geometry": "POINT (-122.251594 37.870837)",
      "poi_name": "Carved Stand",
      "osm_id": 9347384612,
      "amenity": "fast_food",
      "value": 357.61067150628844
    },
    {
      "id": 219807,
      "geometry": "POINT (-122.25153 37.870783)",
      "poi_name": "Pizza My Heart",
      "osm_id": 9347384613,
      "amenity": "fast_food",
      "value": 357.61067150628844
    },
    {
      "id": 219808,
      "geometry": "POINT (-122.251475 37.870723)",
      "poi_name": "Fifty Yard Franks",
      "osm_id": 9347384614,
      "amenity": "fast_food",
      "value": 357.61067150628844
    },
    {
      "id": 219809,
      "geometry": "POINT (-122.251414 37.870669)",
      "poi_name": "Golden Bear Grill",
      "osm_id": 9347384615,
      "amenity": "fast_food",
      "value": 357.61067150628844
    },
    {
      "id": 219810,
      "geometry": "POINT (-122.251357 37.870614)",
      "poi_name": "Taste of the Bay",
      "osm_id": 9347384616,
      "amenity": "fast_food",
      "value": 357.61067150628844
    },
    {
      "id": 219811,
      "geometry": "POINT (-122.25083 37.870187)",
      "poi_name": "Oski's Place",
      "osm_id": 9347384617,
      "amenity": "fast_food",
      "value": 357.61067150628844
    },
    {
      "id": 219812,
      "geometry": "POINT (-122.250055 37.870156)",
      "poi_name": "End Zone Grill",
      "osm_id": 9347384618,
      "amenity": "fast_food",
      "value": 357.61067150628844
    },
    {
      "id": 219814,
      "geometry": "POINT (-122.249616 37.870822)",
      "poi_name": "Fryers Not Cryers",
      "osm_id": 9347384620,
      "amenity": "fast_food",
      "value": 357.61067150628844
    },
    {
      "id": 219815,
      "geometry": "POINT (-122.249787 37.871269)",
      "poi_name": "Meat Street",
      "osm_id": 9347384621,
      "amenity": "fast_food",
      "value": 357.61067150628844
    },
    {
      "id": 219816,
      "geometry": "POINT (-122.250755 37.871906)",
      "poi_name": "Burgers & Hotdogs",
      "osm_id": 9347384623,
      "amenity": "fast_food",
      "value": 357.61067150628844
    },
    {
      "id": 219817,
      "geometry": "POINT (-122.250852 37.871936)",
      "poi_name": "Fault Line",
      "osm_id": 9347384624,
      "amenity": "fast_food",
      "value": 357.61067150628844
    },
    {
      "id": 228380,
      "geometry": "POINT (-122.300246 37.89494)",
      "poi_name": "Tacos El Autlense Truck",
      "osm_id": 4340589718,
      "amenity": "fast_food",
      "cuisine": "mexican",
      "opening_hours": "Mo-Su 11:00-00:00",
      "takeaway": "only",
      "drive_through": "no",
      "delivery": "no",
      "addr_street": "San Pablo Avenue",
      "value": 357.61067150628844
    },
    {
      "id": 221231,
      "geometry": "POINT (-122.258462 37.868016)",
      "poi_name": "I.B.'s",
      "osm_id": 10969667013,
      "amenity": "fast_food",
      "cuisine": "sandwich",
      "addr_street": "Durant Avenue",
      "addr_housenumber": "2513",
      "value": 357.61067150628844
    },
    {
      "id": 221233,
      "geometry": "POINT (-122.258309 37.867766)",
      "poi_name": "Seniore's Pizza",
      "osm_id": 10969667017,
      "amenity": "fast_food",
      "cuisine": "pizza",
      "value": 357.61067150628844
    },
    {
      "id": 221401,
      "geometry": "POINT (-122.273127 37.871018)",
      "poi_name": "Tacos truck",
      "osm_id": 10975548400,
      "amenity": "fast_food",
      "value": 357.61067150628844
    },
    {
      "id": 223586,
      "geometry": "POINT (-122.250262 37.756284)",
      "poi_name": "Jamba",
      "osm_id": 11057670722,
      "amenity": "fast_food",
      "cuisine": "juice",
      "takeaway": "yes",
      "value": 357.61067150628844
    },
    {
      "id": 224361,
      "geometry": "POINT (-122.261932 37.836586)",
      "poi_name": "Back Alley Burgers",
      "osm_id": 11079299147,
      "amenity": "fast_food",
      "cuisine": "burger",
      "opening_hours": "Mo-Fr off; Sa-Su 11:30-15:00",
      "value": 357.61067150628844
    },
    {
      "id": 227810,
      "geometry": "POINT (-122.280188 37.786841)",
      "poi_name": "The Habit Burger Grill",
      "osm_id": 4318478184,
      "amenity": "fast_food",
      "cuisine": "burger",
      "takeaway": "yes",
      "value": 357.61067150628844
    },
    {
      "id": 227811,
      "geometry": "POINT (-122.280727 37.787216)",
      "poi_name": "Firehouse Subs",
      "osm_id": 4318478498,
      "amenity": "fast_food",
      "cuisine": "sandwich",
      "takeaway": "yes",
      "value": 357.61067150628844
    },
    {
      "id": 227816,
      "geometry": "POINT (-122.281231 37.786104)",
      "poi_name": "Chipotle",
      "osm_id": 4318501493,
      "amenity": "fast_food",
      "cuisine": "mexican",
      "takeaway": "yes",
      "official_name": "Chipotle Mexican Grill",
      "value": 357.61067150628844
    },
    {
      "id": 221286,
      "geometry": "POINT (-122.258394 37.866838)",
      "poi_name": "Champion's Curry",
      "osm_id": 10969972610,
      "amenity": "fast_food",
      "addr_street": "Channing Way",
      "addr_housenumber": "2506",
      "value": 357.61067150628844
    },
    {
      "id": 230686,
      "geometry": "POINT (-122.259488 37.867373)",
      "poi_name": "Cheese 'n Stuff",
      "osm_id": 4435259900,
      "amenity": "fast_food",
      "cuisine": "sandwich",
      "website": "http://www.cheesenstuff.com/",
      "phone": "+1 510 8439233",
      "takeaway": "only",
      "addr_city": "Berkeley",
      "addr_street": "Durant Avenue",
      "addr_housenumber": "2442",
      "value": 357.61067150628844
    },
    {
      "id": 229634,
      "geometry": "POINT (-122.296847 37.882504)",
      "poi_name": "McDonald's",
      "osm_id": 4390546116,
      "amenity": "fast_food",
      "cuisine": "burger",
      "wheelchair": "yes",
      "opening_hours": "24/7",
      "website": "https://www.mcdonalds.com/us/en-us/location/ca/berkeley/1198-san-pablo-ave/776.html",
      "phone": "5105251411",
      "takeaway": "yes",
      "drive_through": "yes",
      "addr_state": "CA",
      "addr_city": "Berkeley",
      "addr_street": "San Pablo Avenue",
      "addr_housenumber": "1198",
      "value": 357.61067150628844
    },
    {
      "id": 230332,
      "geometry": "POINT (-122.356505 37.935336)",
      "poi_name": "Burger King",
      "osm_id": 4422423955,
      "amenity": "fast_food",
      "cuisine": "burger",
      "takeaway": "yes",
      "value": 357.61067150628844
    },
    {
      "id": 231690,
      "geometry": "POINT (-122.30225 37.899219)",
      "poi_name": "Chipotle",
      "osm_id": 4484525910,
      "amenity": "fast_food",
      "cuisine": "mexican",
      "opening_hours": "Mo-Sa 11:00-22:00; Su 11:00-18:00",
      "website": "https://chipotle.com/",
      "takeaway": "yes",
      "drive_through": "no",
      "official_name": "Chipotle Mexican Grill",
      "delivery": "no",
      "addr_state": "CA",
      "addr_city": "El Cerrito",
      "addr_postcode": "94530",
      "addr_street": "San Pablo Avenue",
      "addr_housenumber": "9901",
      "value": 357.61067150628844
    },
    {
      "id": 233810,
      "geometry": "POINT (-122.306029 38.321242)",
      "poi_name": "Chipotle",
      "osm_id": 4588450148,
      "amenity": "fast_food",
      "cuisine": "mexican",
      "takeaway": "yes",
      "official_name": "Chipotle Mexican Grill",
      "value": 357.61067150628844
    },
    {
      "id": 231960,
      "geometry": "POINT (-122.286521 38.324165)",
      "poi_name": "Jamba",
      "osm_id": 4499473090,
      "amenity": "fast_food",
      "cuisine": "juice",
      "takeaway": "yes",
      "value": 357.61067150628844
    },
    {
      "id": 231961,
      "geometry": "POINT (-122.286626 38.324028)",
      "poi_name": "Jersey Mike's Subs",
      "osm_id": 4499473189,
      "amenity": "fast_food",
      "cuisine": "sandwich",
      "takeaway": "yes",
      "value": 357.61067150628844
    },
    {
      "id": 232497,
      "geometry": "POINT (-122.543418 38.067371)",
      "poi_name": "Subway",
      "osm_id": 4527800074,
      "amenity": "fast_food",
      "cuisine": "sandwich",
      "takeaway": "yes",
      "value": 357.61067150628844
    },
    {
      "id": 233830,
      "geometry": "POINT (-122.30289 38.306707)",
      "poi_name": "Subway",
      "osm_id": 4589512351,
      "amenity": "fast_food",
      "cuisine": "sandwich",
      "website": "https://restaurants.subway.com/united-states/ca/napa/2375-california-blvd",
      "phone": "(707) 637-4275",
      "takeaway": "yes",
      "addr_state": "CA",
      "addr_city": "Napa",
      "addr_street": "California Boulevard",
      "addr_housenumber": "2375",
      "value": 357.61067150628844
    },
    {
      "id": 233831,
      "geometry": "POINT (-122.30267 38.306795)",
      "poi_name": "Little Caesars",
      "osm_id": 4589512352,
      "amenity": "fast_food",
      "cuisine": "pizza",
      "website": "https://littlecaesars.com/en-us/store/7091/",
      "takeaway": "yes",
      "addr_state": "CA",
      "addr_city": "Napa",
      "addr_street": "California Boulevard",
      "addr_housenumber": "2375C",
      "value": 357.61067150628844
    },
    {
      "id": 233842,
      "geometry": "POINT (-122.274307 38.28586)",
      "poi_name": "Chipotle",
      "osm_id": 4589631154,
      "amenity": "fast_food",
      "cuisine": "mexican",
      "takeaway": "yes",
      "official_name": "Chipotle Mexican Grill",
      "value": 357.61067150628844
    },
    {
      "id": 233843,
      "geometry": "POINT (-122.274338 38.285704)",
      "poi_name": "The Habit Burger Grill",
      "osm_id": 4589631155,
      "amenity": "fast_food",
      "cuisine": "burger",
      "takeaway": "yes",
      "value": 357.61067150628844
    },
    {
      "id": 233844,
      "geometry": "POINT (-122.275425 38.283158)",
      "poi_name": "Jamba",
      "osm_id": 4589641818,
      "amenity": "fast_food",
      "cuisine": "juice",
      "takeaway": "yes",
      "outdoor_seating": "yes",
      "value": 357.61067150628844
    },
    {
      "id": 233845,
      "geometry": "POINT (-122.275046 38.283408)",
      "poi_name": "Panda Express",
      "osm_id": 4589641825,
      "amenity": "fast_food",
      "cuisine": "chinese",
      "takeaway": "yes",
      "drive_through": "no",
      "delivery": "no",
      "value": 357.61067150628844
    },
    {
      "id": 233354,
      "geometry": "POINT (-122.27129 37.80766)",
      "poi_name": "Snack Bar",
      "osm_id": 4569356787,
      "amenity": "fast_food",
      "value": 357.61067150628844
    },
    {
      "id": 233812,
      "geometry": "POINT (-122.306734 38.320712)",
      "poi_name": "Panera Bread",
      "osm_id": 4588450154,
      "amenity": "fast_food",
      "cuisine": "sandwich;bakery",
      "takeaway": "yes",
      "value": 357.61067150628844
    },
    {
      "id": 233813,
      "geometry": "POINT (-122.306783 38.321073)",
      "poi_name": "The Habit Burger Grill",
      "osm_id": 4588450158,
      "amenity": "fast_food",
      "cuisine": "burger",
      "takeaway": "yes",
      "value": 357.61067150628844
    },
    {
      "id": 233817,
      "geometry": "POINT (-122.285736 38.310797)",
      "poi_name": "Subway",
      "osm_id": 4588635628,
      "amenity": "fast_food",
      "cuisine": "sandwich",
      "takeaway": "yes",
      "drive_through": "no",
      "value": 357.61067150628844
    },
    {
      "id": 233819,
      "geometry": "POINT (-122.284432 38.307435)",
      "poi_name": "Papa Murphy's",
      "osm_id": 4588635641,
      "amenity": "fast_food",
      "cuisine": "pizza",
      "takeaway": "only",
      "official_name": "Papa Murphy's Take 'N' Bake Pizza",
      "value": 357.61067150628844
    },
    {
      "id": 237667,
      "geometry": "POINT (-122.332941 37.950945)",
      "poi_name": "El Pollo Loco",
      "osm_id": 5842536985,
      "amenity": "fast_food",
      "cuisine": "mexican",
      "opening_hours": "Mo-Su 10:00-23:00",
      "website": "https://www.elpolloloco.com/locations/store/3472?",
      "internet_access": "wlan",
      "phone": "510-234-0097",
      "takeaway": "yes",
      "addr_postcode": "94805",
      "value": 357.61067150628844
    },
    {
      "id": 234307,
      "geometry": "POINT (-122.292438 38.281038)",
      "poi_name": "Subway",
      "osm_id": 4615542651,
      "amenity": "fast_food",
      "cuisine": "sandwich",
      "takeaway": "yes",
      "value": 357.61067150628844
    },
    {
      "id": 234310,
      "geometry": "POINT (-122.290507 38.280917)",
      "poi_name": "Mo\u2019s Hot Dogs",
      "osm_id": 4615542661,
      "amenity": "fast_food",
      "cuisine": "hot_dog",
      "value": 357.61067150628844
    },
    {
      "id": 234197,
      "geometry": "POINT (-122.298284 38.31933)",
      "poi_name": "Subway",
      "osm_id": 4611373697,
      "amenity": "fast_food",
      "cuisine": "sandwich",
      "takeaway": "yes",
      "value": 357.61067150628844
    },
    {
      "id": 240449,
      "geometry": "POINT (-122.258984 37.867165)",
      "poi_name": "Tacos Sinaloa",
      "osm_id": 5977580683,
      "amenity": "fast_food",
      "cuisine": "mexican",
      "website": "https://www.doordash.com/store/tacos-sinaloa-berkeley-44986",
      "phone": "510-6657895",
      "addr_state": "CA",
      "addr_city": "Berkeley",
      "addr_postcode": "94704",
      "addr_street": "Telegraph Avenue",
      "addr_housenumber": "2384",
      "value": 357.61067150628844
    },
    {
      "id": 240228,
      "geometry": "POINT (-122.271386 37.870874)",
      "poi_name": "Rush Bowls",
      "osm_id": 5963310936,
      "amenity": "fast_food",
      "cuisine": "a\u00e7a\u00ed",
      "opening_hours": "Mo-Su 07:00-20:00",
      "website": "https://rushbowls.com/berkeley",
      "phone": "+1 510-529-4419",
      "takeaway": "yes",
      "addr_state": "CA",
      "addr_city": "Berkeley",
      "addr_postcode": "94704",
      "addr_street": "Addison Street",
      "addr_housenumber": "1935B",
      "value": 357.61067150628844
    }
  ],
  "answer_type": "name",
  "question_entities": {
    "[2]": {
      "distance": 90000,
      "text": "90 kilometers"
    },
    "[3]": {
      "main_category": "leisure",
      "sub_category": "stadium",
      "display_name": "Bowditch Middle School Auditorium, Foster City, CA",
      "geo_wkt": "POINT (-122.248613 37.559053)",
      "poi": {
        "id": 246975,
        "geometry": "POINT (-122.248613 37.559053)",
        "poi_name": "Bowditch Middle School Auditorium",
        "osm_id": 8468035653,
        "leisure": "stadium",
        "sport": "basketball;volleyball",
        "addr_state": "CA",
        "addr_city": "Foster City",
        "addr_postcode": "94404",
        "addr_street": "Tarpon Street",
        "addr_housenumber": "1450"
      }
    },
    "[4]": {
      "main_category": "leisure",
      "sub_category": "park",
      "display_name": "Heritage Park, Napa, CA",
      "geo_wkt": "POINT (-122.287873 38.300572)",
      "poi": {
        "id": 267194,
        "geometry": "POINT (-122.287873 38.300572)",
        "poi_name": "Heritage Park",
        "osm_id": 4632849889,
        "leisure": "park",
        "addr_state": "CA",
        "addr_city": "Napa",
        "addr_street": "Pearl Street",
        "addr_housenumber": "1118"
      }
    },
    "[1]": {
      "main_category": "amenity",
      "sub_category": "fast_food"
    }
  },
  "id": 1654,
  "type": "range:towards+name"
}