{
  "question": "Which restaurant is available towards Bowditch Middle School Auditorium, Foster City, CA within 30 kilometers from Northeastern University Silicon Valley, San Jose, CA?",
  "sql": "WITH\n    angle AS (SELECT degrees(ST_Azimuth(ST_GeomFromText('POINT (-121.889552 37.33709)',4326)::geography, ST_GeomFromText('POINT (-122.248613 37.559053)',4326)::geography)) AS value)\nSELECT * FROM pois,angle\nWHERE amenity = 'restaurant'\nAND ST_DWithin(pois.geometry, ST_GeomFromText('POINT (-121.889552 37.33709)',4326)::geography, 30000)\nAND (degrees(ST_Azimuth(ST_GeomFromText('POINT (-121.889552 37.33709)',4326)::geography, pois.geometry)) BETWEEN angle.value - 22.5 AND angle.value + 22.5);\n",
  "answers": [
    {
      "id": 27672,
      "geometry": "POINT (-122.088166 37.43259)",
      "poi_name": "American Bistro",
      "osm_id": 441986670,
      "amenity": "restaurant",
      "cuisine": "american",
      "website": "https://shorelinelake.com/american_bistro.html",
      "outdoor_seating": "yes",
      "addr_city": "Mountain View",
      "addr_street": "North Shoreline Boulevard",
      "addr_housenumber": "3160",
      "value": 307.89760205011265
    },
    {
      "id": 27766,
      "geometry": "POINT (-121.994258 37.392041)",
      "poi_name": "Ph\u1edf Nam - Pho Nam",
      "osm_id": 447927252,
      "amenity": "restaurant",
      "cuisine": "vietnamese",
      "addr_city": "Sunnyvale",
      "addr_street": "Wildwood Avenue",
      "addr_housenumber": "1205",
      "value": 307.89760205011265
    },
    {
      "id": 27827,
      "geometry": "POINT (-122.161557 37.445074)",
      "poi_name": "Nola's",
      "osm_id": 452568752,
      "amenity": "restaurant",
      "cuisine": "new_orleans",
      "wheelchair": "yes",
      "value": 307.89760205011265
    },
    {
      "id": 27921,
      "geometry": "POINT (-122.182008 37.452906)",
      "poi_name": "Mountain Mike's",
      "osm_id": 458666417,
      "amenity": "restaurant",
      "cuisine": "pizza",
      "takeaway": "yes",
      "addr_state": "CA",
      "addr_city": "Menlo Park",
      "addr_postcode": "94025",
      "addr_street": "El Camino Real",
      "addr_housenumber": "1010",
      "value": 307.89760205011265
    },
    {
      "id": 27922,
      "geometry": "POINT (-122.182977 37.453332)",
      "poi_name": "Kyosho",
      "osm_id": 458678255,
      "amenity": "restaurant",
      "cuisine": "sushi;japanese;seafood",
      "addr_state": "CA",
      "addr_city": "Menlo Park",
      "addr_postcode": "94025",
      "addr_street": "Santa Cruz Avenue",
      "addr_housenumber": "605",
      "value": 307.89760205011265
    },
    {
      "id": 28045,
      "geometry": "POINT (-122.158366 37.438308)",
      "poi_name": "Telef\u00e8ric Barcelona",
      "osm_id": 462479994,
      "amenity": "restaurant",
      "cuisine": "regional;catalan",
      "outdoor_seating": "yes",
      "value": 307.89760205011265
    },
    {
      "id": 28498,
      "geometry": "POINT (-122.128049 37.433003)",
      "poi_name": "Round Table Pizza",
      "osm_id": 486625789,
      "amenity": "restaurant",
      "cuisine": "pizza",
      "value": 307.89760205011265
    },
    {
      "id": 28500,
      "geometry": "POINT (-122.130058 37.433529)",
      "poi_name": "Mike's Diner Bar",
      "osm_id": 486628756,
      "amenity": "restaurant",
      "cuisine": "italian",
      "value": 307.89760205011265
    },
    {
      "id": 28501,
      "geometry": "POINT (-122.129398 37.433206)",
      "poi_name": "Indochine",
      "osm_id": 486648038,
      "amenity": "restaurant",
      "cuisine": "thai;vietnamese",
      "opening_hours": "Mo-Th 16:30-21:00; Fr-Sa 16:30-21:30; Su 16:30-21:00",
      "website": "https://www.indochinethai.com/",
      "phone": "(650) 853 1238",
      "addr_state": "CA",
      "addr_city": "Palo Alto",
      "addr_postcode": "94306",
      "addr_street": "Middlefield Road",
      "addr_housenumber": "2710",
      "value": 307.89760205011265
    },
    {
      "id": 28503,
      "geometry": "POINT (-122.030257 37.388333)",
      "poi_name": "Pizza Hut",
      "osm_id": 487082144,
      "amenity": "restaurant",
      "cuisine": "pizza",
      "addr_city": "Sunnyvale",
      "addr_postcode": "94085",
      "addr_street": "North Mathilda Avenue",
      "addr_housenumber": "464",
      "value": 307.89760205011265
    },
    {
      "id": 28539,
      "geometry": "POINT (-122.025083 37.404808)",
      "poi_name": "Faz Restaurant & Bar",
      "osm_id": 490455845,
      "amenity": "restaurant",
      "value": 307.89760205011265
    },
    {
      "id": 28541,
      "geometry": "POINT (-122.029943 37.38826)",
      "poi_name": "Falafel Flame",
      "osm_id": 490455856,
      "amenity": "restaurant",
      "cuisine": "falafel",
      "addr_street": "West Maude Avenue",
      "addr_housenumber": "470",
      "value": 307.89760205011265
    },
    {
      "id": 29108,
      "geometry": "POINT (-122.060264 37.414693)",
      "poi_name": "Mega Bites Caf\u00e9",
      "osm_id": 8281635274,
      "amenity": "restaurant",
      "value": 307.89760205011265
    },
    {
      "id": 29110,
      "geometry": "POINT (-122.055495 37.412321)",
      "poi_name": "The SpaceBar",
      "osm_id": 8281725087,
      "amenity": "restaurant",
      "value": 307.89760205011265
    },
    {
      "id": 30337,
      "geometry": "POINT (-122.14656 37.42569)",
      "poi_name": "MJ Sushi",
      "osm_id": 8350009075,
      "amenity": "restaurant",
      "opening_hours": "Mo-Th 16:30-22:30; Fr-Sa 12:00-24:00; Su 12:00-22:30",
      "addr_city": "Palo Alto",
      "addr_street": "El Camino Real",
      "addr_housenumber": "2305",
      "value": 307.89760205011265
    },
    {
      "id": 30842,
      "geometry": "POINT (-121.985089 37.358435)",
      "poi_name": "Good Guys Pizza",
      "osm_id": 8388564194,
      "amenity": "restaurant",
      "cuisine": "pizza",
      "addr_state": "CA",
      "addr_city": "Santa Clara",
      "addr_postcode": "95051",
      "addr_street": "Cabrillo Avenue",
      "addr_housenumber": "3207",
      "value": 307.89760205011265
    },
    {
      "id": 30550,
      "geometry": "POINT (-121.940369 37.402544)",
      "poi_name": "Inchin's Bamboo Garden",
      "osm_id": 8365713534,
      "amenity": "restaurant",
      "cuisine": "asian",
      "addr_state": "CA",
      "addr_city": "San Jose",
      "addr_postcode": "95134",
      "addr_street": "River Oaks Place",
      "addr_housenumber": "55",
      "value": 307.89760205011265
    },
    {
      "id": 30551,
      "geometry": "POINT (-121.940183 37.402299)",
      "poi_name": "Blast and Brew San Jose",
      "osm_id": 8365713535,
      "amenity": "restaurant",
      "cuisine": "american",
      "operator": "Manntra LLC",
      "addr_state": "CA",
      "addr_city": "San Jose",
      "addr_postcode": "95134",
      "addr_street": "River Oaks Place",
      "addr_housenumber": "55",
      "value": 307.89760205011265
    },
    {
      "id": 32042,
      "geometry": "POINT (-122.113978 37.399763)",
      "poi_name": "Estrellita's Mexican Restaurant",
      "osm_id": 2619982654,
      "amenity": "restaurant",
      "cuisine": "mexican",
      "addr_city": "Los Altos",
      "addr_postcode": "94022",
      "addr_street": "North San Antonio Road",
      "addr_housenumber": "971",
      "value": 307.89760205011265
    },
    {
      "id": 31156,
      "geometry": "POINT (-121.976857 37.381031)",
      "poi_name": "Puesto",
      "osm_id": 8406796955,
      "amenity": "restaurant",
      "cuisine": "mexican",
      "operator": "Mexican Street Food",
      "addr_state": "CA",
      "addr_city": "Santa Clara",
      "addr_postcode": "95054",
      "addr_street": "Augustine Drive",
      "addr_housenumber": "2752",
      "value": 307.89760205011265
    },
    {
      "id": 31931,
      "geometry": "POINT (-122.013695 37.39145)",
      "poi_name": "Daily Donuts",
      "osm_id": 2614202317,
      "amenity": "restaurant",
      "cuisine": "donut",
      "addr_state": "CA",
      "addr_city": "Sunnyvale",
      "addr_postcode": "94085",
      "addr_street": "North Fair Oaks Avenue",
      "addr_housenumber": "708",
      "value": 307.89760205011265
    },
    {
      "id": 31933,
      "geometry": "POINT (-122.013343 37.391356)",
      "poi_name": "Rene Rose",
      "osm_id": 2614202332,
      "amenity": "restaurant",
      "addr_state": "CA",
      "addr_city": "Sunnyvale",
      "addr_postcode": "94085",
      "addr_street": "Caliente Drive",
      "addr_housenumber": "621",
      "value": 307.89760205011265
    },
    {
      "id": 31934,
      "geometry": "POINT (-122.01406 37.390527)",
      "poi_name": "Tres Potrillos",
      "osm_id": 2614202340,
      "amenity": "restaurant",
      "cuisine": "mexican",
      "phone": "4087358657",
      "addr_street": "North Fair Oaks Avenue",
      "addr_housenumber": "672",
      "value": 307.89760205011265
    },
    {
      "id": 31935,
      "geometry": "POINT (-122.013276 37.391345)",
      "poi_name": "Yong Shen",
      "osm_id": 2614202342,
      "amenity": "restaurant",
      "cuisine": "chinese",
      "addr_state": "CA",
      "addr_city": "Sunnyvale",
      "addr_postcode": "94085",
      "addr_street": "Caliente Drive",
      "addr_housenumber": "623",
      "value": 307.89760205011265
    },
    {
      "id": 32070,
      "geometry": "POINT (-122.183692 37.453742)",
      "poi_name": "Sultana",
      "osm_id": 2620593489,
      "amenity": "restaurant",
      "cuisine": "turkish",
      "website": "http://sultanamenlopark.com/",
      "phone": "6503224343",
      "addr_housenumber": "1149",
      "value": 307.89760205011265
    },
    {
      "id": 32065,
      "geometry": "POINT (-122.185424 37.450816)",
      "poi_name": "Roma Italian Cuisine",
      "osm_id": 2620593432,
      "amenity": "restaurant",
      "cuisine": "italian",
      "addr_state": "CA",
      "addr_city": "Menlo Park",
      "addr_postcode": "94025",
      "addr_street": "Santa Cruz Avenue",
      "addr_housenumber": "820",
      "value": 307.89760205011265
    },
    {
      "id": 32066,
      "geometry": "POINT (-122.186116 37.450009)",
      "poi_name": "Camper",
      "osm_id": 2620593447,
      "amenity": "restaurant",
      "cuisine": "american",
      "website": "https://campermp.com/",
      "phone": "650 321-8980",
      "addr_state": "CA",
      "addr_city": "Menlo Park",
      "addr_postcode": "94025",
      "addr_street": "Santa Cruz Avenue",
      "addr_housenumber": "898",
      "value": 307.89760205011265
    },
    {
      "id": 32069,
      "geometry": "POINT (-122.183277 37.453393)",
      "poi_name": "Stack's American Breakfast & Lunch",
      "osm_id": 2620593478,
      "amenity": "restaurant",
      "cuisine": "breakfast;american",
      "addr_state": "CA",
      "addr_city": "Menlo Park",
      "addr_postcode": "94025",
      "addr_street": "Santa Cruz Avenue",
      "addr_housenumber": "600",
      "value": 307.89760205011265
    },
    {
      "id": 32578,
      "geometry": "POINT (-122.185943 37.450203)",
      "poi_name": "Amici",
      "osm_id": 2629382150,
      "amenity": "restaurant",
      "cuisine": "pizza",
      "addr_state": "CA",
      "addr_city": "Menlo Park",
      "addr_postcode": "94025",
      "addr_street": "Santa Cruz Avenue",
      "addr_housenumber": "880",
      "value": 307.89760205011265
    },
    {
      "id": 32516,
      "geometry": "POINT (-122.181631 37.452549)",
      "poi_name": "Mami Cheli's",
      "osm_id": 2628201838,
      "amenity": "restaurant",
      "cuisine": "mexican",
      "opening_hours": "Mo-Sa 10:00-20:00; Su 11:00-19:00",
      "website": "https://mamichelis.com/",
      "phone": "650-521-0636",
      "takeaway": "yes",
      "addr_state": "CA",
      "addr_city": "Menlo Park",
      "addr_postcode": "94025",
      "addr_street": "El Camino Real",
      "addr_housenumber": "989",
      "value": 307.89760205011265
    },
    {
      "id": 32518,
      "geometry": "POINT (-122.185302 37.450496)",
      "poi_name": "Galata Bistro",
      "osm_id": 2628201858,
      "amenity": "restaurant",
      "cuisine": "mediterranean;turkish",
      "addr_state": "CA",
      "addr_city": "Menlo Park",
      "addr_postcode": "94025",
      "addr_street": "Santa Cruz Avenue",
      "addr_housenumber": "827",
      "value": 307.89760205011265
    },
    {
      "id": 32519,
      "geometry": "POINT (-122.184376 37.453675)",
      "poi_name": "Phil's Kitchen",
      "osm_id": 2628201913,
      "amenity": "restaurant",
      "cuisine": "chinese",
      "addr_housenumber": "625",
      "value": 307.89760205011265
    },
    {
      "id": 32520,
      "geometry": "POINT (-122.18454 37.453597)",
      "poi_name": "Piccolo",
      "osm_id": 2628201917,
      "amenity": "restaurant",
      "cuisine": "italian",
      "phone": "6503261314",
      "value": 307.89760205011265
    },
    {
      "id": 32521,
      "geometry": "POINT (-122.185569 37.450159)",
      "poi_name": "Posh Bagel",
      "osm_id": 2628201921,
      "amenity": "restaurant",
      "addr_state": "CA",
      "addr_city": "Menlo Park",
      "addr_postcode": "94025",
      "addr_street": "Santa Cruz Avenue",
      "addr_housenumber": "869",
      "value": 307.89760205011265
    },
    {
      "id": 32523,
      "geometry": "POINT (-122.183574 37.452557)",
      "poi_name": "Bistro Vida",
      "osm_id": 2628201949,
      "amenity": "restaurant",
      "cuisine": "french",
      "addr_state": "CA",
      "addr_city": "Menlo Park",
      "addr_postcode": "94025",
      "addr_street": "Santa Cruz Avenue",
      "addr_housenumber": "641",
      "value": 307.89760205011265
    },
    {
      "id": 32795,
      "geometry": "POINT (-122.114446 37.40077)",
      "poi_name": "\u798f\u725b\u5802 Noodle Talk",
      "osm_id": 2638611644,
      "amenity": "restaurant",
      "cuisine": "chinese",
      "website": "https://www.noodletalk.us/",
      "phone": "+1 650 935 2357",
      "addr_state": "CA",
      "addr_city": "Los Altos",
      "addr_postcode": "94022",
      "addr_street": "West El Camino Real",
      "addr_housenumber": "4546",
      "value": 307.89760205011265
    },
    {
      "id": 32796,
      "geometry": "POINT (-122.114516 37.400656)",
      "poi_name": "Sudam",
      "osm_id": 2638611655,
      "amenity": "restaurant",
      "cuisine": "korean",
      "description": "BBQ and Tofu",
      "opening_hours": "Mo-Sa 11:30-21:30; Su 12:00-21:00",
      "value": 307.89760205011265
    },
    {
      "id": 32797,
      "geometry": "POINT (-122.114562 37.400555)",
      "poi_name": "Sushiko",
      "osm_id": 2638611663,
      "amenity": "restaurant",
      "cuisine": "japanese",
      "opening_hours": "Mo-Sa 11:30-14:30,17:00-21:30",
      "value": 307.89760205011265
    },
    {
      "id": 32798,
      "geometry": "POINT (-122.114356 37.400941)",
      "poi_name": "The Pasta Market",
      "osm_id": 2638611668,
      "amenity": "restaurant",
      "cuisine": "italian",
      "website": "https://pastamarket.com/",
      "phone": "(650) 949-1235",
      "takeaway": "yes",
      "value": 307.89760205011265
    },
    {
      "id": 33360,
      "geometry": "POINT (-122.014237 37.370127)",
      "poi_name": "Madurai Modern Cafe",
      "osm_id": 2663431758,
      "amenity": "restaurant",
      "cuisine": "indian",
      "website": "https://maduraimoderncafe.com/",
      "phone": "+1 408 685-2985",
      "addr_postcode": "94086",
      "addr_street": "East Evelyn Avenue",
      "addr_housenumber": "848",
      "value": 307.89760205011265
    },
    {
      "id": 33363,
      "geometry": "POINT (-122.016643 37.366274)",
      "poi_name": "Round Table Pizza",
      "osm_id": 2663431831,
      "amenity": "restaurant",
      "cuisine": "pizza",
      "opening_hours": "Mo-Th,Su 11:00-22:00; Fr,Sa 11:00-23:00",
      "addr_street": "Old San Francisco Road",
      "addr_housenumber": "860",
      "value": 307.89760205011265
    },
    {
      "id": 33364,
      "geometry": "POINT (-122.015907 37.366275)",
      "poi_name": "Shanghai Flavor Shop",
      "osm_id": 2663431852,
      "amenity": "restaurant",
      "cuisine": "chinese",
      "addr_street": "Old San Francisco Road",
      "addr_housenumber": "888",
      "value": 307.89760205011265
    },
    {
      "id": 33365,
      "geometry": "POINT (-122.016115 37.366272)",
      "poi_name": "Windsor Fish and Chips",
      "osm_id": 2663431881,
      "amenity": "restaurant",
      "cuisine": "fish_and_chips",
      "opening_hours": "Mo-Fr 10:00-21:00; Sa 10:00-15:00",
      "addr_street": "Old San Francisco Road",
      "addr_housenumber": "876",
      "value": 307.89760205011265
    },
    {
      "id": 33355,
      "geometry": "POINT (-122.015713 37.366268)",
      "poi_name": "Athidhi Indian Cuisine",
      "osm_id": 2663431550,
      "amenity": "restaurant",
      "cuisine": "indian",
      "addr_street": "Old San Francisco Road",
      "addr_housenumber": "727",
      "value": 307.89760205011265
    },
    {
      "id": 33356,
      "geometry": "POINT (-122.016207 37.366272)",
      "poi_name": "Famous Food Restaurant",
      "osm_id": 2663431597,
      "amenity": "restaurant",
      "cuisine": "chinese",
      "addr_street": "Old San Francisco Road",
      "addr_housenumber": "872",
      "value": 307.89760205011265
    },
    {
      "id": 34179,
      "geometry": "POINT (-122.123053 37.429623)",
      "poi_name": "Pizza Fandango",
      "osm_id": 2697101164,
      "amenity": "restaurant",
      "cuisine": "pizza",
      "value": 307.89760205011265
    },
    {
      "id": 34180,
      "geometry": "POINT (-122.129068 37.433415)",
      "poi_name": "Sancho's Taqueria",
      "osm_id": 2697101166,
      "amenity": "restaurant",
      "cuisine": "mexican",
      "opening_hours": "Mo-Sa 11:00-21:00; Su 11:00-20:00",
      "website": "https://www.sanchostaqueria.com/",
      "phone": "(650)324-8226",
      "addr_state": "CA",
      "addr_city": "Palo Alto",
      "addr_postcode": "94306",
      "addr_street": "Middlefield Road",
      "addr_housenumber": "2373",
      "value": 307.89760205011265
    },
    {
      "id": 40323,
      "geometry": "POINT (-122.018788 37.381964)",
      "poi_name": "Little Michoacan Taqueria",
      "osm_id": 2966953082,
      "amenity": "restaurant",
      "cuisine": "mexican",
      "addr_city": "Sunnyvale",
      "addr_street": "North Fair Oaks Avenue",
      "addr_housenumber": "305",
      "value": 307.89760205011265
    },
    {
      "id": 36308,
      "geometry": "POINT (-122.013253 37.366995)",
      "poi_name": "Cam Hung sandwich & Coffee",
      "osm_id": 2760024809,
      "amenity": "restaurant",
      "cuisine": "vietnamese",
      "value": 307.89760205011265
    },
    {
      "id": 38888,
      "geometry": "POINT (-121.920517 37.369235)",
      "poi_name": "Se\u00f1or Jalepe\u00f1o",
      "osm_id": 2888487500,
      "amenity": "restaurant",
      "cuisine": "mexican",
      "addr_city": "San Jose",
      "addr_postcode": "95110",
      "addr_street": "Technology Drive",
      "addr_housenumber": "1759",
      "value": 307.89760205011265
    },
    {
      "id": 34222,
      "geometry": "POINT (-122.158257 37.439159)",
      "poi_name": "Sushi House",
      "osm_id": 2697975490,
      "amenity": "restaurant",
      "cuisine": "japanese",
      "opening_hours": "Mo-We,Su 11:00-14:00,16:30-20:00; Th-Sa 10:00-14:00,16:30-20:30",
      "website": "https://www.sushihousepaloalto.com/",
      "phone": "6503213453",
      "addr_housenumber": "855",
      "value": 307.89760205011265
    },
    {
      "id": 34974,
      "geometry": "POINT (-122.044189 37.371361)",
      "poi_name": "Thai Spoons",
      "osm_id": 2707992500,
      "amenity": "restaurant",
      "cuisine": "thai",
      "phone": "+1 408 739 1798",
      "addr_postcode": "94087",
      "addr_street": "West El Camino Real",
      "addr_housenumber": "909",
      "value": 307.89760205011265
    },
    {
      "id": 36775,
      "geometry": "POINT (-122.160189 37.445468)",
      "poi_name": "Curry Up Now",
      "osm_id": 2784718495,
      "amenity": "restaurant",
      "cuisine": "indian",
      "opening_hours": "Mo-Th 11:00-21:00; Fr, Sa 11:00-22:00; Su 12:00-21:00",
      "phone": "+1 650 278 4888",
      "addr_city": "Palo Alto",
      "addr_postcode": "94301",
      "addr_street": "Hamilton Avenue",
      "addr_housenumber": "321",
      "value": 307.89760205011265
    },
    {
      "id": 37472,
      "geometry": "POINT (-122.032215 37.369472)",
      "poi_name": "Dumpling Depot",
      "osm_id": 2813722319,
      "amenity": "restaurant",
      "cuisine": "chinese",
      "wheelchair": "yes",
      "website": "https://www.dumplingdepot.com/",
      "addr_state": "CA",
      "addr_city": "Sunnyvale",
      "addr_postcode": "94086",
      "addr_street": "South Murphy Avenue",
      "addr_housenumber": "562",
      "value": 307.89760205011265
    },
    {
      "id": 39008,
      "geometry": "POINT (-122.06379 37.375616)",
      "poi_name": "Satsuma",
      "osm_id": 2898441801,
      "amenity": "restaurant",
      "cuisine": "japanese",
      "opening_hours": "Mo-Fr 11:00-14:00, Mo-We 17:00-20:30, Th 17:00-21:00",
      "outdoor_seating": "no",
      "addr_state": "CA",
      "addr_city": "Mountain View",
      "addr_postcode": "94086",
      "addr_street": "East El Camino Real",
      "addr_housenumber": "705",
      "value": 307.89760205011265
    },
    {
      "id": 46065,
      "geometry": "POINT (-122.172257 37.443356)",
      "poi_name": "California Pizza Kitchen",
      "osm_id": 3243900245,
      "amenity": "restaurant",
      "cuisine": "pizza",
      "value": 307.89760205011265
    },
    {
      "id": 45695,
      "geometry": "POINT (-122.082698 37.388232)",
      "poi_name": "Masa Sushi",
      "osm_id": 3224283361,
      "amenity": "restaurant",
      "cuisine": "japanese",
      "opening_hours": "Mo-Sa 11:00-21:00",
      "phone": "+1-650-282-5222",
      "official_name": "Masa\u2019s Sushi LLC",
      "addr_state": "CA",
      "addr_city": "Mountain View",
      "addr_postcode": "94041",
      "addr_street": "Castro Street",
      "addr_housenumber": "650",
      "value": 307.89760205011265
    },
    {
      "id": 42486,
      "geometry": "POINT (-122.045635 37.371652)",
      "poi_name": "Chaat House",
      "osm_id": 3066022105,
      "amenity": "restaurant",
      "cuisine": "indian",
      "website": "http://chaatus.com",
      "phone": "+1 408 733 1111",
      "addr_street": "West El Camino Real",
      "addr_housenumber": "939",
      "value": 307.89760205011265
    },
    {
      "id": 45219,
      "geometry": "POINT (-122.09164 37.424135)",
      "poi_name": "Crave",
      "osm_id": 3195071282,
      "amenity": "restaurant",
      "wheelchair": "no",
      "opening_hours": "07:00 - 10:30, 11:30, 14:00, 19:00 - 20:30",
      "internet_access": "wlan",
      "addr_state": "CA",
      "addr_city": "Mountain View",
      "addr_postcode": "94043",
      "addr_street": "Garcia Avenue",
      "addr_housenumber": "2025",
      "value": 307.89760205011265
    },
    {
      "id": 46603,
      "geometry": "POINT (-122.185291 37.452022)",
      "poi_name": "Shiok Singapore Kitchen",
      "osm_id": 3277803123,
      "amenity": "restaurant",
      "cuisine": "asian;indonesian",
      "website": "http://shiokkitchen.com",
      "phone": "(650) 838-9448",
      "addr_state": "CA",
      "addr_city": "Menlo Park",
      "addr_postcode": "94025",
      "addr_street": "Chestnut Street",
      "addr_housenumber": "1137",
      "value": 307.89760205011265
    },
    {
      "id": 46297,
      "geometry": "POINT (-121.969473 37.404358)",
      "poi_name": "Bourbon Steak & Pub",
      "osm_id": 3257678728,
      "amenity": "restaurant",
      "cuisine": "steak_house;pub;bar&grill",
      "description": "Inside Levi's stadium",
      "value": 307.89760205011265
    },
    {
      "id": 46683,
      "geometry": "POINT (-122.07878 37.394492)",
      "poi_name": "Ramen Izakaya Yu-Gen",
      "osm_id": 3282721066,
      "amenity": "restaurant",
      "cuisine": "japanese;ramen",
      "wheelchair": "yes",
      "opening_hours": "Mo-Su 11:30-22:00",
      "phone": "+1 650 4280888",
      "outdoor_seating": "yes",
      "addr_state": "CA",
      "addr_city": "Mountain View",
      "addr_street": "Castro Street",
      "addr_housenumber": "152",
      "value": 307.89760205011265
    },
    {
      "id": 46684,
      "geometry": "POINT (-122.078755 37.394558)",
      "poi_name": "Blue Line Pizza",
      "osm_id": 3282721067,
      "amenity": "restaurant",
      "cuisine": "pizza",
      "wheelchair": "yes",
      "opening_hours": "Mo-Th, Su 11:30-21:00; Fr, Sa 11:30-22:30",
      "website": "https://bluelinepizza.com/",
      "internet_access": "wlan",
      "outdoor_seating": "yes",
      "addr_state": "CA",
      "addr_city": "Mountain View",
      "addr_street": "Castro Street",
      "addr_housenumber": "146",
      "value": 307.89760205011265
    },
    {
      "id": 46685,
      "geometry": "POINT (-122.078661 37.394753)",
      "poi_name": "Oren's Hummus Shop",
      "osm_id": 3282721068,
      "amenity": "restaurant",
      "cuisine": "israeli",
      "opening_hours": "Mo-Su 11:00-23:00",
      "website": "https://orenshummus.com/",
      "phone": "6509386736",
      "takeaway": "yes",
      "delivery": "no",
      "addr_state": "CA",
      "addr_city": "Mountain View",
      "addr_street": "Castro Street",
      "addr_housenumber": "126",
      "value": 307.89760205011265
    },
    {
      "id": 46942,
      "geometry": "POINT (-122.126275 37.448199)",
      "poi_name": "House of Bagels",
      "osm_id": 3299432566,
      "amenity": "restaurant",
      "cuisine": "bagel",
      "value": 307.89760205011265
    },
    {
      "id": 46958,
      "geometry": "POINT (-121.997648 37.367156)",
      "poi_name": "Vito's Famous Pizza",
      "osm_id": 3300883732,
      "amenity": "restaurant",
      "cuisine": "pizza",
      "website": "https://www.vitospizzasunnyvale.com/",
      "phone": "+1 408 246 8800",
      "addr_city": "Sunnyvale",
      "addr_postcode": "94086",
      "addr_street": "Reed Avenue",
      "addr_housenumber": "1155",
      "value": 307.89760205011265
    },
    {
      "id": 51830,
      "geometry": "POINT (-121.905354 37.356595)",
      "poi_name": "LeYou Ethiopian",
      "osm_id": 563310829,
      "amenity": "restaurant",
      "cuisine": "ethiopian",
      "operator": "Leyou LLC",
      "website": "https://leyou-sj.com/",
      "addr_state": "CA",
      "addr_city": "San Jose",
      "addr_postcode": "95110",
      "addr_street": "North 1st Street",
      "addr_housenumber": "1100",
      "value": 307.89760205011265
    },
    {
      "id": 51645,
      "geometry": "POINT (-121.972909 37.385388)",
      "poi_name": "Birk's Restaurant",
      "osm_id": 544673028,
      "amenity": "restaurant",
      "cuisine": "american",
      "website": "https://www.birksrestaurant.com/",
      "phone": "+ 408 980 6400",
      "addr_city": "Santa Clara",
      "addr_postcode": "95054",
      "addr_street": "Freedom Circle",
      "addr_housenumber": "3955",
      "value": 307.89760205011265
    },
    {
      "id": 47556,
      "geometry": "POINT (-121.953689 37.416891)",
      "poi_name": "SAJJ Mediterranean Grill",
      "osm_id": 3331411161,
      "amenity": "restaurant",
      "cuisine": "mediterranean",
      "opening_hours": "Mo-Su 11:00-21:00",
      "website": "https://www.sajjstreeteats.com/",
      "takeaway": "yes",
      "outdoor_seating": "yes",
      "addr_state": "CA",
      "addr_city": "San Jose",
      "addr_postcode": "95134",
      "addr_street": "North 1st Street",
      "addr_housenumber": "4140",
      "value": 307.89760205011265
    },
    {
      "id": 47719,
      "geometry": "POINT (-122.162906 37.442982)",
      "poi_name": "Pampas",
      "osm_id": 3344442783,
      "amenity": "restaurant",
      "cuisine": "brazilian",
      "wheelchair": "yes",
      "website": "https://pampaspaloalto.com/",
      "phone": "+1-650-327-1323",
      "addr_state": "CA",
      "addr_city": "Palo Alto",
      "addr_street": "Alma Street",
      "addr_housenumber": "529",
      "value": 307.89760205011265
    },
    {
      "id": 48716,
      "geometry": "POINT (-122.030426 37.37656)",
      "poi_name": "Tao Tao",
      "osm_id": 3397518885,
      "amenity": "restaurant",
      "cuisine": "chinese",
      "opening_hours": "Tu-Th 11:30-14:00,15:30-20:30; Fr 11:30-14:00,15:30-21:00; Sa 15:00-21:00; Su 15:00-20:00; Mo off",
      "website": "https://taotao.carry-out.com",
      "phone": "(408) 736-3731",
      "addr_state": "CA",
      "addr_city": "Sunnyvale",
      "addr_postcode": "94086",
      "addr_street": "South Murphy Avenue",
      "addr_housenumber": "175",
      "value": 307.89760205011265
    },
    {
      "id": 49220,
      "geometry": "POINT (-122.049119 37.548642)",
      "poi_name": "Chopsticks Pho & Grill",
      "osm_id": 3418956993,
      "amenity": "restaurant",
      "cuisine": "vietnamese",
      "phone": "+1-510-793-9888",
      "addr_state": "CA",
      "addr_city": "Newark",
      "addr_postcode": "94560",
      "addr_street": "Jarvis Avenue",
      "addr_housenumber": "6180",
      "value": 307.89760205011265
    },
    {
      "id": 49221,
      "geometry": "POINT (-122.049048 37.548612)",
      "poi_name": "Pan Fried Dumplings",
      "osm_id": 3418956994,
      "amenity": "restaurant",
      "cuisine": "chinese",
      "website": "https://www.pan-frieddumplings.com/",
      "phone": "+1-510-894-1243",
      "addr_state": "CA",
      "addr_city": "Newark",
      "addr_postcode": "94560",
      "addr_street": "Jarvis Avenue",
      "addr_housenumber": "6180",
      "value": 307.89760205011265
    },
    {
      "id": 49528,
      "geometry": "POINT (-122.111554 37.403218)",
      "poi_name": "Pacific Catch",
      "osm_id": 3441175105,
      "amenity": "restaurant",
      "cuisine": "seafood",
      "opening_hours": "Su,Mo-Th 11:00-21:00; Fr,Sa 11:00-22:00",
      "website": "https://pacificcatch.com/locations/mountain-view/",
      "phone": "+1-650-941-1810",
      "outdoor_seating": "yes",
      "addr_state": "CA",
      "addr_city": "Mountain View",
      "addr_postcode": "94040",
      "addr_street": "San Antonio Road",
      "addr_housenumber": "545",
      "value": 307.89760205011265
    },
    {
      "id": 49860,
      "geometry": "POINT (-121.994949 37.406586)",
      "poi_name": "Bella's Bar & Grill",
      "osm_id": 3451448572,
      "amenity": "restaurant",
      "cuisine": "mediterranean",
      "website": "https://bellasbargrill.com/",
      "phone": "+1 408 744-0485",
      "delivery": "yes",
      "addr_state": "CA",
      "addr_city": "Sunnyvale",
      "addr_postcode": "94089",
      "addr_street": "Elko Drive",
      "addr_housenumber": "111",
      "value": 307.89760205011265
    },
    {
      "id": 50474,
      "geometry": "POINT (-122.075367 37.385011)",
      "poi_name": "Yami Grill",
      "osm_id": 3487285493,
      "amenity": "restaurant",
      "cuisine": "asian",
      "description": "Asian fusion",
      "opening_hours": "Su-Sa 11ap-9p",
      "website": "https://yamigrill.com/",
      "phone": "650-584-3328",
      "takeaway": "yes",
      "addr_state": "CA",
      "addr_city": "Mountain View",
      "addr_postcode": "94041",
      "addr_street": "Calderon Avenue",
      "addr_housenumber": "699",
      "value": 307.89760205011265
    },
    {
      "id": 51835,
      "geometry": "POINT (-121.917139 37.370882)",
      "poi_name": "Tandoori House",
      "osm_id": 563335934,
      "amenity": "restaurant",
      "cuisine": "indian",
      "addr_city": "San Jose",
      "addr_postcode": "95110",
      "addr_street": "North 1st Street",
      "addr_housenumber": "1751",
      "value": 307.89760205011265
    },
    {
      "id": 51837,
      "geometry": "POINT (-121.91705 37.370862)",
      "poi_name": "Ph\u1edf Bel-Air",
      "osm_id": 563339753,
      "amenity": "restaurant",
      "cuisine": "vietnamese;soup",
      "website": "https://phobelair.business.site/",
      "phone": "+1-408-452-1060",
      "official_name": "Pho Bel-Air Incorporated",
      "addr_state": "CA",
      "addr_city": "San Jose",
      "addr_postcode": "95110",
      "addr_street": "North 1st Street",
      "addr_housenumber": "1751",
      "value": 307.89760205011265
    },
    {
      "id": 51919,
      "geometry": "POINT (-122.030099 37.376262)",
      "poi_name": "Dish Dash",
      "osm_id": 566054493,
      "amenity": "restaurant",
      "cuisine": "mediterranean",
      "website": "https://www.dishdash.com/location/dishdash-sunnyvale/",
      "phone": "+1 408 774 1889",
      "outdoor_seating": "yes",
      "addr_state": "CA",
      "addr_city": "Sunnyvale",
      "addr_postcode": "94086",
      "addr_street": "South Murphy Avenue",
      "addr_housenumber": "190",
      "value": 307.89760205011265
    },
    {
      "id": 51840,
      "geometry": "POINT (-121.945979 37.410898)",
      "poi_name": "Sendo Sushi",
      "osm_id": 563360022,
      "amenity": "restaurant",
      "cuisine": "sushi",
      "addr_city": "San Jose",
      "addr_postcode": "95134",
      "addr_street": "North 1st Street",
      "addr_housenumber": "3730",
      "value": 307.89760205011265
    },
    {
      "id": 51842,
      "geometry": "POINT (-121.94581 37.410799)",
      "poi_name": "Round Table Pizza",
      "osm_id": 563361084,
      "amenity": "restaurant",
      "cuisine": "pizza",
      "addr_city": "San Jose",
      "addr_postcode": "95134",
      "addr_street": "North 1st Street",
      "addr_housenumber": "3730",
      "value": 307.89760205011265
    },
    {
      "id": 51843,
      "geometry": "POINT (-121.945585 37.410668)",
      "poi_name": "Gyro Express",
      "osm_id": 563361294,
      "amenity": "restaurant",
      "cuisine": "gyros",
      "addr_city": "San Jose",
      "addr_postcode": "95134",
      "addr_street": "North 1st Street",
      "addr_housenumber": "3730",
      "value": 307.89760205011265
    },
    {
      "id": 52838,
      "geometry": "POINT (-121.946839 37.354247)",
      "poi_name": "Euro Grill",
      "osm_id": 10049991817,
      "amenity": "restaurant",
      "cuisine": "balkan",
      "opening_hours": "Tu-Fr 11:00-14:30; Sa-Su 11:00-17:30",
      "phone": "+1 408 244 9745",
      "addr_state": "CA",
      "addr_city": "Santa Clara",
      "addr_postcode": "95050",
      "addr_street": "El Camino Real",
      "addr_housenumber": "980",
      "value": 307.89760205011265
    },
    {
      "id": 60026,
      "geometry": "POINT (-122.096034 37.419878)",
      "poi_name": "Pho Tran Vu",
      "osm_id": 5452430810,
      "amenity": "restaurant",
      "cuisine": "vietnamese",
      "wheelchair": "yes",
      "opening_hours": "Mo-Su 10:00-23:00",
      "website": "https://photranvu.com/",
      "phone": "+1-650-386-5928",
      "addr_street": "North Rengstorff Avenue",
      "addr_housenumber": "1020",
      "value": 307.89760205011265
    },
    {
      "id": 55383,
      "geometry": "POINT (-122.183608 37.455012)",
      "poi_name": "Son & Garden",
      "osm_id": 10184707748,
      "amenity": "restaurant",
      "addr_housenumber": "1195",
      "value": 307.89760205011265
    },
    {
      "id": 55384,
      "geometry": "POINT (-122.183301 37.454925)",
      "poi_name": "Farmhouse Kitchen Thai Cuisine",
      "osm_id": 10184707749,
      "amenity": "restaurant",
      "website": "https://farmhousethai.com/",
      "phone": "+16506657935",
      "addr_street": "Merrill Street",
      "addr_housenumber": "1165",
      "value": 307.89760205011265
    },
    {
      "id": 55653,
      "geometry": "POINT (-122.203996 37.419874)",
      "poi_name": "SLACafe",
      "osm_id": 10202358352,
      "amenity": "restaurant",
      "description": "SLAC National Accelerator Laboratory Cafeteria",
      "opening_hours": "Mo-Fr 11:00-14:30",
      "website": "https://rde.stanford.edu/hospitality/SLACafe",
      "addr_housenumber": "53",
      "value": 307.89760205011265
    },
    {
      "id": 55957,
      "geometry": "POINT (-122.201575 37.432021)",
      "poi_name": "Dutch Goose",
      "osm_id": 10218194795,
      "amenity": "restaurant",
      "cuisine": "american;burger",
      "addr_street": "Alameda de las Pulgas",
      "addr_housenumber": "3567",
      "value": 307.89760205011265
    },
    {
      "id": 58052,
      "geometry": "POINT (-121.961871 37.38352)",
      "poi_name": "Montague's Cafe",
      "osm_id": 5361473329,
      "amenity": "restaurant",
      "value": 307.89760205011265
    },
    {
      "id": 58053,
      "geometry": "POINT (-121.961843 37.383412)",
      "poi_name": "Hops Bar and Grill",
      "osm_id": 5361473330,
      "amenity": "restaurant",
      "value": 307.89760205011265
    },
    {
      "id": 58221,
      "geometry": "POINT (-121.953366 37.416749)",
      "poi_name": "Rok Steakhouse and Grill",
      "osm_id": 5368467505,
      "amenity": "restaurant",
      "cuisine": "steak_house",
      "wheelchair": "yes",
      "opening_hours": "Mo-Su 11:00-21:00; Fr 11:00-22:00",
      "website": "https://www.roksteakhouse.com/",
      "outdoor_seating": "yes",
      "toilets": "yes",
      "addr_state": "CA",
      "addr_city": "San Jose",
      "addr_postcode": "95134",
      "addr_street": "North 1st Street",
      "addr_housenumber": "4130",
      "value": 307.89760205011265
    },
    {
      "id": 63918,
      "geometry": "POINT (-121.945698 37.410733)",
      "poi_name": "Mina's Korean BBQ",
      "osm_id": 5635774024,
      "amenity": "restaurant",
      "cuisine": "korean",
      "phone": "4084332270",
      "addr_city": "San Jose",
      "addr_postcode": "95134",
      "addr_street": "North 1st Street",
      "addr_housenumber": "3730",
      "value": 307.89760205011265
    },
    {
      "id": 61953,
      "geometry": "POINT (-122.038744 37.530612)",
      "poi_name": "Chef Wu",
      "osm_id": 5543549937,
      "amenity": "restaurant",
      "value": 307.89760205011265
    },
    {
      "id": 66261,
      "geometry": "POINT (-121.955107 37.416854)",
      "poi_name": "Shan Tandoori Pizza",
      "osm_id": 5732773896,
      "amenity": "restaurant",
      "cuisine": "pizza",
      "wheelchair": "yes",
      "takeaway": "yes",
      "outdoor_seating": "yes",
      "delivery": "yes",
      "toilets": "yes",
      "addr_state": "CA",
      "addr_city": "San Jose",
      "addr_postcode": "95134",
      "addr_street": "North 1st Street",
      "addr_housenumber": "4190",
      "value": 307.89760205011265
    },
    {
      "id": 65383,
      "geometry": "POINT (-122.051684 37.549844)",
      "poi_name": "Venus Cafe",
      "osm_id": 5695221991,
      "amenity": "restaurant",
      "cuisine": "hong_kong",
      "value": 307.89760205011265
    },
    {
      "id": 65504,
      "geometry": "POINT (-122.046098 37.547561)",
      "poi_name": "Saigon",
      "osm_id": 5698950428,
      "amenity": "restaurant",
      "value": 307.89760205011265
    },
    {
      "id": 65505,
      "geometry": "POINT (-122.045671 37.547382)",
      "poi_name": "Zenzen Sushi Express",
      "osm_id": 5698955071,
      "amenity": "restaurant",
      "cuisine": "sushi",
      "value": 307.89760205011265
    },
    {
      "id": 64807,
      "geometry": "POINT (-121.914661 37.366116)",
      "poi_name": "Ladda's Thai Cuisine",
      "osm_id": 5671323700,
      "amenity": "restaurant",
      "cuisine": "thai",
      "opening_hours": "Mo-Sa 7:00-15:00,17:00-21:00",
      "addr_state": "CA",
      "addr_city": "San Jose",
      "addr_postcode": "95110",
      "addr_street": "Skyport Drive",
      "addr_housenumber": "50",
      "value": 307.89760205011265
    },
    {
      "id": 65196,
      "geometry": "POINT (-121.927757 37.384628)",
      "poi_name": "Ph\u1edf Vi\u1ec7t",
      "osm_id": 5689655700,
      "amenity": "restaurant",
      "cuisine": "vietnamese;soup",
      "wheelchair": "yes",
      "opening_hours": "Mo-Fr 08:00-20:00; Sa 08:00-18:00",
      "takeaway": "yes",
      "outdoor_seating": "yes",
      "toilets": "yes",
      "addr_state": "CA",
      "addr_city": "San Jose",
      "addr_postcode": "95131",
      "addr_street": "North 1st Street",
      "addr_housenumber": "2557",
      "value": 307.89760205011265
    },
    {
      "id": 65441,
      "geometry": "POINT (-122.045099 37.54892)",
      "poi_name": "Fairwood Cafe",
      "osm_id": 5696049084,
      "amenity": "restaurant",
      "value": 307.89760205011265
    },
    {
      "id": 65442,
      "geometry": "POINT (-122.05159 37.549962)",
      "poi_name": "Sweethoney Dessert",
      "osm_id": 5696049085,
      "amenity": "restaurant",
      "value": 307.89760205011265
    },
    {
      "id": 65443,
      "geometry": "POINT (-122.048657 37.55173)",
      "poi_name": "Urban Kitchen",
      "osm_id": 5696050028,
      "amenity": "restaurant",
      "cuisine": "indian",
      "website": "https://urbankitchennewark.com/",
      "phone": "+1-510-509-9100",
      "addr_state": "CA",
      "addr_city": "Newark",
      "addr_postcode": "94560",
      "addr_street": "Jarvis Avenue",
      "addr_housenumber": "5855",
      "value": 307.89760205011265
    },
    {
      "id": 65820,
      "geometry": "POINT (-122.048854 37.549526)",
      "poi_name": "Vitality Bowl",
      "osm_id": 5714367710,
      "amenity": "restaurant",
      "value": 307.89760205011265
    },
    {
      "id": 67598,
      "geometry": "POINT (-122.185249 37.454906)",
      "poi_name": "Robin Menlo Park",
      "osm_id": 11242052896,
      "amenity": "restaurant",
      "cuisine": "japanese",
      "opening_hours": "Th-Su 5-9:30PM",
      "website": "https://www.robinomakase.com/",
      "addr_state": "CA",
      "addr_city": "Menlo Park",
      "addr_postcode": "94025",
      "addr_street": "El Camino Real",
      "addr_housenumber": "1300",
      "value": 307.89760205011265
    },
    {
      "id": 67429,
      "geometry": "POINT (-121.959792 37.394278)",
      "poi_name": "Great Indian Cuisine",
      "osm_id": 11235206912,
      "amenity": "restaurant",
      "value": 307.89760205011265
    },
    {
      "id": 67601,
      "geometry": "POINT (-122.185719 37.455376)",
      "poi_name": "Che Fico Parco Menlo",
      "osm_id": 11242094147,
      "amenity": "restaurant",
      "cuisine": "italian",
      "website": "http://chefparcomenlo.com",
      "addr_state": "CA",
      "addr_city": "Menlo Park",
      "addr_postcode": "94025",
      "addr_street": "El Camino Real",
      "addr_housenumber": "1302",
      "value": 307.89760205011265
    },
    {
      "id": 72838,
      "geometry": "POINT (-122.144841 37.426619)",
      "poi_name": "Sun of Wolf",
      "osm_id": 11449841179,
      "amenity": "restaurant",
      "value": 307.89760205011265
    },
    {
      "id": 70386,
      "geometry": "POINT (-121.973292 37.382147)",
      "poi_name": "Mountain Mike's",
      "osm_id": 11360787588,
      "amenity": "restaurant",
      "cuisine": "pizza",
      "takeaway": "yes",
      "value": 307.89760205011265
    },
    {
      "id": 70390,
      "geometry": "POINT (-121.974373 37.381659)",
      "poi_name": "Jak's Authentic Indian",
      "osm_id": 11360787592,
      "amenity": "restaurant",
      "cuisine": "indian",
      "value": 307.89760205011265
    },
    {
      "id": 70506,
      "geometry": "POINT (-122.080368 37.421619)",
      "poi_name": "Google Cafe",
      "osm_id": 11365172584,
      "amenity": "restaurant",
      "wheelchair": "yes",
      "opening_hours": "Mo-Sa 9:00-18:00, Su 10:00-17:00",
      "website": "https://visit.withgoogle.com/visitor-experience/cafe/",
      "value": 307.89760205011265
    },
    {
      "id": 68682,
      "geometry": "POINT (-121.984029 37.389511)",
      "poi_name": "The Roasted Crab",
      "osm_id": 11280607424,
      "amenity": "restaurant",
      "cuisine": "seafood",
      "addr_state": "CA",
      "addr_city": "Santa Clara",
      "addr_street": "Mission College Boulevard",
      "addr_housenumber": "3151",
      "value": 307.89760205011265
    },
    {
      "id": 69775,
      "geometry": "POINT (-122.013423 37.366061)",
      "poi_name": "Madurai Idli Kadai",
      "osm_id": 11330220238,
      "amenity": "restaurant",
      "cuisine": "indian;south_indian",
      "opening_hours": "Mo,We,Th 08:30-14:30,17:30-9:30; Fr-Su 08:30-14:30,17:30-10:000",
      "website": "http://www.maduraiidlishop.com/",
      "phone": "+14087384354",
      "addr_state": "CA",
      "addr_city": "Sunnyvale",
      "addr_postcode": "94086",
      "addr_street": "S Wolfe Rd",
      "addr_housenumber": "744",
      "value": 307.89760205011265
    },
    {
      "id": 71155,
      "geometry": "POINT (-122.108614 37.399158)",
      "poi_name": "Veggie Garden",
      "osm_id": 11382864169,
      "amenity": "restaurant",
      "cuisine": "asian;chinese",
      "opening_hours": "Tu-Fr 11:30-14:30, 17:00-21:30; Sa-Su 11:30-21:30",
      "website": "https://www.veggiegardenvip.com/",
      "phone": "+16509616888",
      "addr_postcode": "94040",
      "addr_street": "West El Camino Real",
      "addr_housenumber": "2464",
      "value": 307.89760205011265
    },
    {
      "id": 71807,
      "geometry": "POINT (-122.007679 37.381226)",
      "poi_name": "Macho Burger",
      "osm_id": 11401904813,
      "amenity": "restaurant",
      "opening_hours": "Mo-Su 11:00-20:30",
      "value": 307.89760205011265
    },
    {
      "id": 71809,
      "geometry": "POINT (-122.007585 37.381251)",
      "poi_name": "Jin Jin Gourmet",
      "osm_id": 11401951207,
      "amenity": "restaurant",
      "value": 307.89760205011265
    },
    {
      "id": 71810,
      "geometry": "POINT (-122.007559 37.381378)",
      "poi_name": "Tong Sui",
      "osm_id": 11401971440,
      "amenity": "restaurant",
      "value": 307.89760205011265
    },
    {
      "id": 76863,
      "geometry": "POINT (-122.081293 37.425908)",
      "poi_name": "Sushi Confidential",
      "osm_id": 9795735563,
      "amenity": "restaurant",
      "cuisine": "sushi",
      "value": 307.89760205011265
    },
    {
      "id": 73139,
      "geometry": "POINT (-122.172685 37.442777)",
      "poi_name": "Taro San",
      "osm_id": 9609846941,
      "amenity": "restaurant",
      "cuisine": "japanese",
      "value": 307.89760205011265
    },
    {
      "id": 73140,
      "geometry": "POINT (-122.172951 37.442794)",
      "poi_name": "Pacific Catch",
      "osm_id": 9609846942,
      "amenity": "restaurant",
      "cuisine": "seafood",
      "value": 307.89760205011265
    },
    {
      "id": 76273,
      "geometry": "POINT (-121.95464 37.415999)",
      "poi_name": "Blue Water Seafood And Crab",
      "osm_id": 9767844859,
      "amenity": "restaurant",
      "cuisine": "seafood",
      "wheelchair": "yes",
      "opening_hours": "Mo-Fr 11:00-24:00; Sa-Su 10:00-24:00",
      "phone": "+1 408-493-5112",
      "takeaway": "yes",
      "outdoor_seating": "yes",
      "toilets": "yes",
      "addr_city": "San Jose",
      "addr_postcode": "95134",
      "addr_street": "North 1st Street",
      "addr_housenumber": "4180",
      "value": 307.89760205011265
    },
    {
      "id": 73685,
      "geometry": "POINT (-122.183457 37.452727)",
      "poi_name": "Left Bank Brasserie",
      "osm_id": 9650331427,
      "amenity": "restaurant",
      "cuisine": "french",
      "addr_state": "CA",
      "addr_city": "Menlo Park",
      "addr_postcode": "94025",
      "addr_street": "Santa Cruz Avenue",
      "addr_housenumber": "635",
      "value": 307.89760205011265
    },
    {
      "id": 73686,
      "geometry": "POINT (-122.183814 37.452268)",
      "poi_name": "Tilak Indian Cuisine",
      "osm_id": 9650331429,
      "amenity": "restaurant",
      "cuisine": "indian",
      "addr_state": "CA",
      "addr_city": "Menlo Park",
      "addr_postcode": "94025",
      "addr_street": "Santa Cruz Avenue",
      "addr_housenumber": "683",
      "value": 307.89760205011265
    },
    {
      "id": 74131,
      "geometry": "POINT (-122.185893 37.451425)",
      "poi_name": "The Refuge",
      "osm_id": 9668358527,
      "amenity": "restaurant",
      "cuisine": "sandwich",
      "website": "https://refugesc.com",
      "phone": "1 (650) 319-8197",
      "addr_state": "CA",
      "addr_city": "Menlo Park",
      "addr_postcode": "94025",
      "addr_street": "Crane Street",
      "addr_housenumber": "1143",
      "value": 307.89760205011265
    },
    {
      "id": 74132,
      "geometry": "POINT (-122.185449 37.451388)",
      "poi_name": "Carpaccio",
      "osm_id": 9668358528,
      "amenity": "restaurant",
      "addr_state": "CA",
      "addr_city": "Menlo Park",
      "addr_postcode": "94025",
      "addr_street": "Crane Street",
      "addr_housenumber": "1120",
      "value": 307.89760205011265
    },
    {
      "id": 75946,
      "geometry": "POINT (-122.078054 37.393338)",
      "poi_name": "Superhot Hot Pot",
      "osm_id": 9753130038,
      "amenity": "restaurant",
      "cuisine": "korean;hotpot",
      "opening_hours": "Mo-Th 17:00-23:00; Fr,Sa 11:30-14:30,17:00-24:00; Su 11:30-14:30,17:00-23:00",
      "website": "https://superhotrestaurant.weebly.com/",
      "phone": "+1 650 9639819",
      "addr_state": "CA",
      "addr_city": "Mountain View",
      "addr_postcode": "94041",
      "addr_street": "Hope Street",
      "addr_housenumber": "210",
      "value": 307.89760205011265
    },
    {
      "id": 76864,
      "geometry": "POINT (-122.079712 37.427004)",
      "poi_name": "VIP Terrace",
      "osm_id": 9795735564,
      "amenity": "restaurant",
      "value": 307.89760205011265
    },
    {
      "id": 78451,
      "geometry": "POINT (-122.05493 37.551741)",
      "poi_name": "Pizza Italia",
      "osm_id": 746914810,
      "amenity": "restaurant",
      "cuisine": "pizza",
      "wheelchair": "yes",
      "takeaway": "yes",
      "toilets": "yes",
      "addr_state": "CA",
      "addr_city": "Fremont",
      "addr_street": "Ardenwood Terrace",
      "addr_housenumber": "34765",
      "value": 307.89760205011265
    },
    {
      "id": 77169,
      "geometry": "POINT (-121.976796 37.381942)",
      "poi_name": "Eureka!",
      "osm_id": 9809848184,
      "amenity": "restaurant",
      "cuisine": "american",
      "addr_state": "CA",
      "addr_city": "Santa Clara",
      "addr_postcode": "95054",
      "addr_street": "Augustine Drive",
      "addr_housenumber": "2762",
      "value": 307.89760205011265
    },
    {
      "id": 77170,
      "geometry": "POINT (-121.977325 37.381943)",
      "poi_name": "Fleming's",
      "osm_id": 9809848185,
      "amenity": "restaurant",
      "cuisine": "steak_house",
      "addr_state": "CA",
      "addr_city": "Santa Clara",
      "addr_postcode": "95050",
      "addr_street": "Augustine Drive",
      "addr_housenumber": "2762",
      "value": 307.89760205011265
    },
    {
      "id": 77171,
      "geometry": "POINT (-121.977209 37.381049)",
      "poi_name": "Il Fornaio",
      "osm_id": 9809848186,
      "amenity": "restaurant",
      "cuisine": "italian",
      "addr_state": "CA",
      "addr_city": "Santa Clara",
      "addr_postcode": "95050",
      "addr_street": "Augustine Drive",
      "addr_housenumber": "2752",
      "value": 307.89760205011265
    },
    {
      "id": 77173,
      "geometry": "POINT (-121.974336 37.381511)",
      "poi_name": "Pacific Catch",
      "osm_id": 9809848189,
      "amenity": "restaurant",
      "cuisine": "seafood",
      "addr_state": "CA",
      "addr_city": "Santa Clara",
      "addr_postcode": "95054",
      "addr_street": "Coronado Place",
      "addr_housenumber": "3315",
      "value": 307.89760205011265
    },
    {
      "id": 78452,
      "geometry": "POINT (-122.055124 37.552101)",
      "poi_name": "Chat Patta Corner",
      "osm_id": 746914831,
      "amenity": "restaurant",
      "cuisine": "indian",
      "addr_state": "CA",
      "addr_city": "Fremont",
      "addr_street": "Ardenwood Terrace",
      "addr_housenumber": "34751",
      "value": 307.89760205011265
    },
    {
      "id": 80989,
      "geometry": "POINT (-122.029755 37.376544)",
      "poi_name": "House of Kabobs",
      "osm_id": 1595294678,
      "amenity": "restaurant",
      "cuisine": "persian",
      "website": "https://www.houseofkabobs.com/",
      "takeaway": "yes",
      "addr_state": "CA",
      "addr_city": "Sunnyvale",
      "addr_postcode": "94086",
      "addr_street": "South Sunnyvale Avenue",
      "addr_housenumber": "161",
      "value": 307.89760205011265
    },
    {
      "id": 78636,
      "geometry": "POINT (-122.097555 37.404363)",
      "poi_name": "Rinc\u00f3n Sabroso",
      "osm_id": 761343882,
      "amenity": "restaurant",
      "cuisine": "mexican;salvadoran",
      "wheelchair": "yes",
      "website": "https://rinconsabrosorestaurant.com/",
      "phone": "(650) 968-3990",
      "takeaway": "yes",
      "addr_state": "CA",
      "addr_city": "Mountain View",
      "addr_postcode": "94043",
      "addr_street": "North Rengstorff Avenue",
      "addr_housenumber": "122",
      "value": 307.89760205011265
    },
    {
      "id": 81642,
      "geometry": "POINT (-122.047251 37.548036)",
      "poi_name": "Chou Mama's Kitchen",
      "osm_id": 1654045178,
      "amenity": "restaurant",
      "cuisine": "chinese",
      "value": 307.89760205011265
    },
    {
      "id": 81020,
      "geometry": "POINT (-122.098133 37.403883)",
      "poi_name": "Hobee\u2019s",
      "osm_id": 1596744376,
      "amenity": "restaurant",
      "cuisine": "breakfast",
      "opening_hours": "Mo-Fr 08:00-14:00; Sa-Su 08:00-15:00",
      "addr_state": "CA",
      "addr_city": "Mountain View",
      "addr_postcode": "94043",
      "addr_street": "Central Expressway",
      "addr_housenumber": "2312",
      "value": 307.89760205011265
    },
    {
      "id": 81049,
      "geometry": "POINT (-122.136392 37.457221)",
      "poi_name": "Three Brothers Tacos",
      "osm_id": 1600385965,
      "amenity": "restaurant",
      "cuisine": "mexican",
      "addr_housenumber": "1760",
      "value": 307.89760205011265
    },
    {
      "id": 81644,
      "geometry": "POINT (-122.047559 37.548162)",
      "poi_name": "Newark Buffet",
      "osm_id": 1654049139,
      "amenity": "restaurant",
      "website": "http://newarkbuffet.com/",
      "value": 307.89760205011265
    },
    {
      "id": 81645,
      "geometry": "POINT (-122.051998 37.549372)",
      "poi_name": "Simply Thai",
      "osm_id": 1654050152,
      "amenity": "restaurant",
      "cuisine": "thai",
      "value": 307.89760205011265
    },
    {
      "id": 81646,
      "geometry": "POINT (-122.050405 37.549686)",
      "poi_name": "L & L Hawaiian Barbeque",
      "osm_id": 1654052002,
      "amenity": "restaurant",
      "cuisine": "hawaiian",
      "value": 307.89760205011265
    },
    {
      "id": 81648,
      "geometry": "POINT (-122.045642 37.549132)",
      "poi_name": "Taqueria Los Gallos",
      "osm_id": 1654070524,
      "amenity": "restaurant",
      "cuisine": "mexican",
      "value": 307.89760205011265
    },
    {
      "id": 84302,
      "geometry": "POINT (-122.082993 37.387735)",
      "poi_name": "Mediterranean Grill House",
      "osm_id": 1783200421,
      "amenity": "restaurant",
      "cuisine": "mediterranean",
      "addr_state": "CA",
      "addr_city": "Mountain View",
      "addr_postcode": "94041",
      "addr_street": "Castro Street",
      "addr_housenumber": "650",
      "value": 307.89760205011265
    },
    {
      "id": 82989,
      "geometry": "POINT (-122.145084 37.425767)",
      "poi_name": "Namaste",
      "osm_id": 1724670931,
      "amenity": "restaurant",
      "cuisine": "indian",
      "addr_city": "Palo Alto",
      "addr_street": "South California Avenue",
      "addr_housenumber": "447",
      "value": 307.89760205011265
    },
    {
      "id": 82996,
      "geometry": "POINT (-122.144648 37.426273)",
      "poi_name": "La Boh\u00e8me",
      "osm_id": 1724861805,
      "amenity": "restaurant",
      "cuisine": "french",
      "opening_hours": "Tu-Fr 11:00-14:30; Tu-Sa 17:00-21:30; Sa,Su 09:00-14:30",
      "outdoor_seating": "yes",
      "addr_city": "Palo Alto",
      "addr_postcode": "94306",
      "addr_street": "South California Avenue",
      "addr_housenumber": "415",
      "value": 307.89760205011265
    },
    {
      "id": 83718,
      "geometry": "POINT (-122.142405 37.428471)",
      "poi_name": "Imperial Treasure",
      "osm_id": 1761722261,
      "amenity": "restaurant",
      "cuisine": "chinese",
      "wheelchair": "yes",
      "addr_city": "Palo Alto",
      "addr_postcode": "94036",
      "addr_street": "South California Avenue",
      "addr_housenumber": "151",
      "value": 307.89760205011265
    },
    {
      "id": 84238,
      "geometry": "POINT (-122.212057 37.419408)",
      "poi_name": "Madera",
      "osm_id": 1781786926,
      "amenity": "restaurant",
      "value": 307.89760205011265
    },
    {
      "id": 82936,
      "geometry": "POINT (-122.079029 37.394124)",
      "poi_name": "La Fontaine",
      "osm_id": 1722140170,
      "amenity": "restaurant",
      "cuisine": "french;italian",
      "description": "French & Italian fusion",
      "wheelchair": "yes",
      "opening_hours": "Mo-Th 17:00-21:30; Fr 17:00-22:30; Sa 17:00-22:00; Su 17:00-21:00",
      "website": "https://www.lafontainerestaurant.com/",
      "phone": "6509682300",
      "addr_state": "CA",
      "addr_city": "Mountain View",
      "addr_street": "Castro Street",
      "addr_housenumber": "186",
      "value": 307.89760205011265
    },
    {
      "id": 82937,
      "geometry": "POINT (-122.078995 37.394203)",
      "poi_name": "Udon Mugizo",
      "osm_id": 1722141153,
      "amenity": "restaurant",
      "cuisine": "japanese;udon",
      "website": "https://www.mugizo-us.com/mountainview",
      "phone": "+1 650 9618880",
      "addr_state": "CA",
      "addr_city": "Mountain View",
      "addr_street": "Castro Street",
      "addr_housenumber": "180",
      "value": 307.89760205011265
    },
    {
      "id": 82938,
      "geometry": "POINT (-122.078829 37.394383)",
      "poi_name": "Doppio Zero",
      "osm_id": 1722142269,
      "amenity": "restaurant",
      "cuisine": "pizza",
      "wheelchair": "yes",
      "opening_hours": "Mo-Th 11:30-14:30, 16:30-22:00; Fr 11:30-14:30, 16:30-23:00; Su 11:30-21:30",
      "website": "https://www.dzpizzeria.com/",
      "addr_state": "CA",
      "addr_city": "Mountain View",
      "addr_street": "Castro Street",
      "addr_housenumber": "160",
      "value": 307.89760205011265
    },
    {
      "id": 82941,
      "geometry": "POINT (-122.079338 37.39367)",
      "poi_name": "Quality Bourbons & Barbecue",
      "osm_id": 1722162306,
      "amenity": "restaurant",
      "cuisine": "barbecue",
      "addr_state": "CA",
      "addr_city": "Mountain View",
      "addr_street": "Castro Street",
      "addr_housenumber": "216",
      "value": 307.89760205011265
    },
    {
      "id": 87150,
      "geometry": "POINT (-122.160137 37.437971)",
      "poi_name": "Howie's Artisan Pizza",
      "osm_id": 1974499272,
      "amenity": "restaurant",
      "cuisine": "pizza",
      "opening_hours": "11:30-20:00",
      "website": "https://www.howiesartisanpizza.com/",
      "addr_postcode": "94301",
      "addr_street": "El Camino Real",
      "addr_housenumber": "855",
      "value": 307.89760205011265
    },
    {
      "id": 85207,
      "geometry": "POINT (-121.996938 37.397437)",
      "poi_name": "Hong Kong Saigon Seafood Harbor",
      "osm_id": 1847619969,
      "amenity": "restaurant",
      "cuisine": "chinese",
      "opening_hours": "Mo-Fr 11:00-14:30, 17:00-21:30; Sa, Su 10:00-15:00, 17:00-21:30",
      "addr_street": "Lawrence Expressway",
      "addr_housenumber": "1135",
      "value": 307.89760205011265
    },
    {
      "id": 85550,
      "geometry": "POINT (-121.946289 37.394528)",
      "poi_name": "Premier Pizza",
      "osm_id": 1880241766,
      "amenity": "restaurant",
      "cuisine": "pizza",
      "opening_hours": "Mo-Su 11:00-21:00",
      "website": "http://premier-pizza.com/",
      "phone": "+1-408-727-1000",
      "addr_state": "CA",
      "addr_city": "Santa Clara",
      "addr_postcode": "95054",
      "addr_street": "Rivermark Plaza",
      "addr_housenumber": "3944",
      "value": 307.89760205011265
    },
    {
      "id": 87189,
      "geometry": "POINT (-122.090842 37.388949)",
      "poi_name": "El Paso Cafe",
      "osm_id": 1975950418,
      "amenity": "restaurant",
      "website": "https://www.elpasocafe.com/",
      "addr_postcode": "94040",
      "addr_street": "West El Camino Real",
      "addr_housenumber": "1407",
      "value": 307.89760205011265
    },
    {
      "id": 87190,
      "geometry": "POINT (-122.090755 37.388889)",
      "poi_name": "Le Petit Bistro",
      "osm_id": 1975950766,
      "amenity": "restaurant",
      "cuisine": "french",
      "opening_hours": "Tu-Sa 17:00-20:30",
      "website": "https://www.lepetitbistromountainview.com",
      "addr_state": "CA",
      "addr_city": "Mountain View",
      "addr_postcode": "94040",
      "addr_street": "West El Camino Real",
      "addr_housenumber": "1405",
      "value": 307.89760205011265
    },
    {
      "id": 85191,
      "geometry": "POINT (-122.007991 37.384148)",
      "poi_name": "Agape Grill",
      "osm_id": 1845616779,
      "amenity": "restaurant",
      "cuisine": "mediterranean",
      "takeaway": "yes",
      "value": 307.89760205011265
    },
    {
      "id": 85419,
      "geometry": "POINT (-122.003883 37.389123)",
      "poi_name": "Barn Thai",
      "osm_id": 1866581824,
      "amenity": "restaurant",
      "cuisine": "thai",
      "addr_city": "Sunnyvale",
      "addr_street": "East Duane Avenue",
      "addr_housenumber": "921",
      "value": 307.89760205011265
    },
    {
      "id": 85922,
      "geometry": "POINT (-122.114705 37.401332)",
      "poi_name": "A Good Morning",
      "osm_id": 1908819426,
      "amenity": "restaurant",
      "opening_hours": "Mo-Fr 06:00-15:00; Sa,Su 07:00-15:00",
      "phone": "+1 650-941-8154",
      "value": 307.89760205011265
    },
    {
      "id": 90372,
      "geometry": "POINT (-122.004597 37.388878)",
      "poi_name": "Sushi Blvd",
      "osm_id": 1993236250,
      "amenity": "restaurant",
      "cuisine": "sushi",
      "website": "http://www.sushiblvd.com/",
      "phone": "4087377183",
      "addr_street": "East Duane Avenue",
      "addr_housenumber": "903",
      "value": 307.89760205011265
    },
    {
      "id": 87775,
      "geometry": "POINT (-121.912416 37.349571)",
      "poi_name": "Amici",
      "osm_id": 8740733638,
      "amenity": "restaurant",
      "cuisine": "pizza",
      "takeaway": "only",
      "delivery": "yes",
      "addr_state": "CA",
      "addr_city": "San Jose",
      "addr_postcode": "95110",
      "addr_street": "Ruff Drive",
      "addr_housenumber": "949",
      "value": 307.89760205011265
    },
    {
      "id": 87786,
      "geometry": "POINT (-121.912359 37.349696)",
      "poi_name": "Dickey's Barbecue Pit",
      "osm_id": 8740733653,
      "amenity": "restaurant",
      "cuisine": "barbecue",
      "operator": "Hometown BBQ, LP",
      "takeaway": "only",
      "delivery": "yes",
      "addr_state": "CA",
      "addr_city": "San Jose",
      "addr_postcode": "95110",
      "addr_street": "Ruff Drive",
      "addr_housenumber": "949",
      "value": 307.89760205011265
    },
    {
      "id": 89114,
      "geometry": "POINT (-121.962 37.369119)",
      "poi_name": "Tacos and Tequila",
      "osm_id": 8825995784,
      "amenity": "restaurant",
      "cuisine": "mexican",
      "addr_state": "CA",
      "addr_city": "Santa Clara",
      "addr_postcode": "95051",
      "addr_street": "Walsh Avenue",
      "addr_housenumber": "2120",
      "value": 307.89760205011265
    },
    {
      "id": 89750,
      "geometry": "POINT (-122.08114 37.390856)",
      "poi_name": "Sweetgreen",
      "osm_id": 8858911295,
      "amenity": "restaurant",
      "cuisine": "salad",
      "opening_hours": "Mo-Fr 10:30-20:00",
      "phone": "+1-650-753-7300",
      "addr_street": "Castro Street",
      "addr_housenumber": "440",
      "value": 307.89760205011265
    },
    {
      "id": 90373,
      "geometry": "POINT (-122.004133 37.389114)",
      "poi_name": "Pho Vy",
      "osm_id": 1993236251,
      "amenity": "restaurant",
      "cuisine": "vietnamese",
      "phone": "4087398844",
      "addr_street": "East Duane Avenue",
      "addr_housenumber": "913",
      "value": 307.89760205011265
    },
    {
      "id": 90374,
      "geometry": "POINT (-122.004594 37.388729)",
      "poi_name": "Tia Juana Grill",
      "osm_id": 1993236257,
      "amenity": "restaurant",
      "cuisine": "mexican",
      "website": "http://www.tiajuanamexicangrill.com/",
      "phone": "4087308578",
      "addr_housenumber": "901",
      "value": 307.89760205011265
    },
    {
      "id": 92114,
      "geometry": "POINT (-122.114023 37.399936)",
      "poi_name": "Esther's German Bakery",
      "osm_id": 2104739782,
      "amenity": "restaurant",
      "opening_hours": "Mo 07:30-17:00; Tu-Fr 07:30-21:00; Sa 08:00-21:00; Su 08:30-17:00",
      "website": "https://www.esthersbakery.com/",
      "phone": "+16509414463",
      "addr_city": "Los Altos",
      "addr_postcode": "94022",
      "addr_street": "North San Antonio Road",
      "addr_housenumber": "987",
      "value": 307.89760205011265
    },
    {
      "id": 90505,
      "geometry": "POINT (-121.995096 37.378821)",
      "poi_name": "Sneha",
      "osm_id": 1998283903,
      "amenity": "restaurant",
      "cuisine": "indian",
      "value": 307.89760205011265
    },
    {
      "id": 91197,
      "geometry": "POINT (-122.142798 37.428096)",
      "poi_name": "Legends Pizza Co.",
      "osm_id": 2050245822,
      "amenity": "restaurant",
      "cuisine": "pizza",
      "opening_hours": "Mo-Fr 11:00-21:00; Sa-Su 14:00-21:00",
      "website": "https://legends-pizza.com/",
      "addr_city": "Palo Alto",
      "addr_postcode": "94306",
      "addr_street": "Park Boulevard",
      "addr_housenumber": "2450",
      "value": 307.89760205011265
    },
    {
      "id": 92063,
      "geometry": "POINT (-122.093782 37.410709)",
      "poi_name": "Chang\u2019an Artisan Noodle",
      "osm_id": 2103435736,
      "amenity": "restaurant",
      "cuisine": "chinese",
      "opening_hours": "Tu-Su 11:30-14:30,17:30-9:00",
      "phone": "+16509643300",
      "addr_city": "Mountain View",
      "addr_postcode": "94043",
      "addr_street": "North Rengstorff Avenue",
      "addr_housenumber": "580",
      "value": 307.89760205011265
    },
    {
      "id": 93227,
      "geometry": "POINT (-122.07907 37.394032)",
      "poi_name": "Agave",
      "osm_id": 2157827669,
      "amenity": "restaurant",
      "cuisine": "mexican",
      "description": "Mexican bistro",
      "wheelchair": "yes",
      "opening_hours": "Mo-Th 11:00-14:00, 17:00-21:00; Fr 11:00-14:00, 17:00-22:00; Sa 11:00-22:00; Su 11:00-20:00",
      "website": "https://www.agaveca.com/",
      "phone": "6509696767",
      "addr_state": "CA",
      "addr_city": "Mountain View",
      "addr_street": "Castro Street",
      "addr_housenumber": "198",
      "value": 307.89760205011265
    },
    {
      "id": 92616,
      "geometry": "POINT (-122.042373 37.389784)",
      "poi_name": "Little India Cafe",
      "osm_id": 2128203209,
      "amenity": "restaurant",
      "cuisine": "indian",
      "website": "http://littleindiacafeus.com",
      "phone": "+14088235502",
      "addr_city": "Sunnyvale",
      "addr_postcode": "94085",
      "addr_street": "North Mary Avenue",
      "addr_housenumber": "415",
      "value": 307.89760205011265
    },
    {
      "id": 92617,
      "geometry": "POINT (-122.042304 37.389897)",
      "poi_name": "Sushi Club",
      "osm_id": 2128203210,
      "amenity": "restaurant",
      "cuisine": "japanese",
      "website": "http://sushiclubsunnyvale.com",
      "phone": "+14087380408",
      "addr_city": "Sunnyvale",
      "addr_postcode": "94085",
      "addr_street": "North Mary Avenue",
      "addr_housenumber": "415",
      "value": 307.89760205011265
    },
    {
      "id": 92951,
      "geometry": "POINT (-121.918799 37.36836)",
      "poi_name": "Zeytoun Restaurant",
      "osm_id": 2143130617,
      "amenity": "restaurant",
      "cuisine": "international",
      "website": "http://www.zeytoun.com/",
      "addr_state": "CA",
      "addr_city": "San Jose",
      "addr_postcode": "95110",
      "addr_street": "Metro Drive",
      "addr_housenumber": "191",
      "value": 307.89760205011265
    },
    {
      "id": 92289,
      "geometry": "POINT (-121.974083 37.390783)",
      "poi_name": "Parcel 104",
      "osm_id": 2110237779,
      "amenity": "restaurant",
      "addr_postcode": "95054",
      "addr_street": "Mission College Boulevard",
      "addr_housenumber": "2700",
      "value": 307.89760205011265
    },
    {
      "id": 93228,
      "geometry": "POINT (-122.078796 37.394455)",
      "poi_name": "Bushido Izakaya",
      "osm_id": 2157827670,
      "amenity": "restaurant",
      "cuisine": "japanese",
      "wheelchair": "yes",
      "opening_hours": "Mo-Fr 11:30-14:00, 17:30-22:00; Sa 12:00-15:00, 17:30-21:00; Su 12:00-15:00, 17:30-21:00",
      "website": "https://www.bushidoizakaya.com/",
      "addr_state": "CA",
      "addr_city": "Mountain View",
      "addr_street": "Castro Street",
      "addr_housenumber": "156",
      "value": 307.89760205011265
    },
    {
      "id": 93230,
      "geometry": "POINT (-122.078466 37.394311)",
      "poi_name": "Fu Lam Mum",
      "osm_id": 2157827673,
      "amenity": "restaurant",
      "cuisine": "chinese",
      "opening_hours": "Mo,We,Th 11:00-14:30,17:00-21:30; Fr 11:00-14:30,17:00-22:00; Sa 10:00-15:00,17:00-22:00; Su 10:00-15:00,17:00-21:30; Tu off",
      "addr_city": "Mountain View",
      "addr_postcode": "94041",
      "addr_street": "Castro Street",
      "addr_housenumber": "153",
      "value": 307.89760205011265
    },
    {
      "id": 93231,
      "geometry": "POINT (-122.078401 37.394413)",
      "poi_name": "Amarin Thai Cusine",
      "osm_id": 2157827674,
      "amenity": "restaurant",
      "cuisine": "thai",
      "wheelchair": "yes",
      "opening_hours": "We-Fr 12:00-15:00; Sa-Su 11:00-15:00; We-Su 18:00-21:30",
      "addr_city": "Mountain View",
      "addr_postcode": "94041",
      "addr_street": "Castro Street",
      "addr_housenumber": "147",
      "value": 307.89760205011265
    },
    {
      "id": 93236,
      "geometry": "POINT (-122.079499 37.393888)",
      "poi_name": "Mifen 101",
      "osm_id": 2157948558,
      "amenity": "restaurant",
      "cuisine": "chinese;noodle",
      "value": 307.89760205011265
    },
    {
      "id": 93237,
      "geometry": "POINT (-122.080682 37.392275)",
      "poi_name": "Totoro",
      "osm_id": 2157948572,
      "amenity": "restaurant",
      "cuisine": "vietnamese",
      "value": 307.89760205011265
    },
    {
      "id": 93243,
      "geometry": "POINT (-122.08327 37.387212)",
      "poi_name": "Amici's East Coast Pizzeria",
      "osm_id": 2158026393,
      "amenity": "restaurant",
      "cuisine": "pizza;italian",
      "outdoor_seating": "yes",
      "delivery": "yes",
      "value": 307.89760205011265
    },
    {
      "id": 93376,
      "geometry": "POINT (-122.113611 37.400668)",
      "poi_name": "Chef Chu's",
      "osm_id": 2161946493,
      "amenity": "restaurant",
      "cuisine": "chinese",
      "value": 307.89760205011265
    },
    {
      "id": 93806,
      "geometry": "POINT (-122.078728 37.394607)",
      "poi_name": "Asian Box",
      "osm_id": 2187335117,
      "amenity": "restaurant",
      "cuisine": "asian",
      "opening_hours": "Mo-Su 11:00-21:00",
      "website": "https://www.asianbox.com/",
      "addr_state": "CA",
      "addr_city": "Mountain View",
      "addr_street": "Castro Street",
      "addr_housenumber": "142",
      "value": 307.89760205011265
    },
    {
      "id": 93564,
      "geometry": "POINT (-122.071057 37.378459)",
      "poi_name": "Chaat Bhavan",
      "osm_id": 2172216358,
      "amenity": "restaurant",
      "cuisine": "indian",
      "addr_street": "East El Camino Real",
      "addr_housenumber": "165",
      "value": 307.89760205011265
    },
    {
      "id": 94012,
      "geometry": "POINT (-122.080876 37.390297)",
      "poi_name": "Kirin",
      "osm_id": 2199903060,
      "amenity": "restaurant",
      "cuisine": "chinese",
      "website": "https://www.kirinmountainview.com/",
      "addr_state": "CA",
      "addr_city": "Mountain View",
      "addr_postcode": "94041",
      "addr_street": "Castro Street",
      "addr_housenumber": "485",
      "value": 307.89760205011265
    },
    {
      "id": 93906,
      "geometry": "POINT (-122.077593 37.416022)",
      "poi_name": "Cucina Venti",
      "osm_id": 2192480912,
      "amenity": "restaurant",
      "cuisine": "italian",
      "website": "https://www.cucinaventi.com/",
      "addr_state": "CA",
      "addr_city": "Mountain View",
      "addr_postcode": "94043",
      "addr_street": "Pear Avenue",
      "addr_housenumber": "1390",
      "value": 307.89760205011265
    },
    {
      "id": 93951,
      "geometry": "POINT (-121.960693 37.353021)",
      "poi_name": "B\u00e1nh Cu\u1ed1n T\u00e2y H\u1ed3 #10",
      "osm_id": 2195192937,
      "amenity": "restaurant",
      "cuisine": "vietnamese",
      "wheelchair": "yes",
      "opening_hours": "11:00-19:30",
      "website": "https://restaurant.tayho.com",
      "phone": "+1 408-239-4748",
      "takeaway": "yes",
      "outdoor_seating": "sidewalk",
      "delivery": "yes",
      "toilets": "yes",
      "addr_state": "CA",
      "addr_city": "Santa Clara",
      "addr_postcode": "95050",
      "addr_street": "El Camino Real",
      "addr_housenumber": "2047",
      "value": 307.89760205011265
    },
    {
      "id": 94013,
      "geometry": "POINT (-122.080667 37.390669)",
      "poi_name": "Casa Lupe",
      "osm_id": 2199903066,
      "amenity": "restaurant",
      "cuisine": "mexican",
      "opening_hours": "Mo-Sa 11:30-14:30,17:00-21:00",
      "website": "https://www.casalupemountainview.com",
      "addr_state": "CA",
      "addr_city": "Mountain View",
      "addr_postcode": "94041",
      "addr_street": "Castro Street",
      "addr_housenumber": "459",
      "value": 307.89760205011265
    },
    {
      "id": 94368,
      "geometry": "POINT (-122.030344 37.376682)",
      "poi_name": "Chef Yu",
      "osm_id": 2235551627,
      "amenity": "restaurant",
      "cuisine": "chinese",
      "wheelchair": "yes",
      "addr_street": "South Murphy Avenue",
      "addr_housenumber": "163",
      "value": 307.89760205011265
    },
    {
      "id": 94250,
      "geometry": "POINT (-122.078292 37.393427)",
      "poi_name": "Fiesta del Mar Too",
      "osm_id": 2217251295,
      "amenity": "restaurant",
      "cuisine": "mexican",
      "opening_hours": "Tu-Th,Su 17:00-20:00; Fr,Sa 17:00-20:30",
      "addr_street": "Villa Street",
      "addr_housenumber": "735",
      "value": 307.89760205011265
    },
    {
      "id": 94107,
      "geometry": "POINT (-122.079029 37.393354)",
      "poi_name": "Ristorante Don Giovanni",
      "osm_id": 2207131289,
      "amenity": "restaurant",
      "cuisine": "italian",
      "wheelchair": "yes",
      "opening_hours": "Mo-Fr 11:00-14:30, 17:00-22:00; Sa, Su 11:00-22:00",
      "website": "https://www.dongiovannis.com/contact/index.html",
      "addr_street": "Castro Street",
      "addr_housenumber": "235",
      "value": 307.89760205011265
    },
    {
      "id": 94108,
      "geometry": "POINT (-122.079973 37.392496)",
      "poi_name": "Crepevine",
      "osm_id": 2207131297,
      "amenity": "restaurant",
      "cuisine": "crepe;pasta;sandwich",
      "wheelchair": "yes",
      "opening_hours": "Mo-Th 8:00-21:30; Fr-Sa 7:30-22:30; Su 7:30-21:30",
      "website": "https://www.crepevine.com",
      "internet_access": "wlan",
      "phone": "+1-650-969-6878",
      "takeaway": "yes",
      "outdoor_seating": "yes",
      "addr_street": "Castro Street",
      "addr_housenumber": "300",
      "value": 307.89760205011265
    },
    {
      "id": 94109,
      "geometry": "POINT (-122.080006 37.392437)",
      "poi_name": "New Mongolian BBQ",
      "osm_id": 2207131298,
      "amenity": "restaurant",
      "cuisine": "mongolian_grill",
      "wheelchair": "yes",
      "opening_hours": "Mo-Th 11:00-14:00, 17:00-21:30; Fr 11:00-14:00, 17:00-22:00; Sa 11:00-22:00, 09:00-18:00; Su 11:00-21:30",
      "outdoor_seating": "yes",
      "addr_street": "Castro Street",
      "addr_housenumber": "304",
      "value": 307.89760205011265
    },
    {
      "id": 94369,
      "geometry": "POINT (-122.030263 37.377012)",
      "poi_name": "Mayan Kitchen",
      "osm_id": 2235551636,
      "amenity": "restaurant",
      "cuisine": "latin_american",
      "opening_hours": "Tu-Th 17:00-21:00; Fr-Su 11:00-14:30,17:00-21:00",
      "website": "https://www.mayankitchenfood.com",
      "addr_state": "CA",
      "addr_city": "Sunnyvale",
      "addr_postcode": "94086",
      "addr_street": "South Murphy Avenue",
      "addr_housenumber": "139",
      "value": 307.89760205011265
    },
    {
      "id": 94370,
      "geometry": "POINT (-122.030266 37.376943)",
      "poi_name": "Shosha",
      "osm_id": 2235551642,
      "amenity": "restaurant",
      "cuisine": "indian",
      "website": "https://www.shosharestaurant.com/",
      "addr_state": "CA",
      "addr_city": "Sunnyvale",
      "addr_postcode": "94086",
      "addr_street": "South Murphy Avenue",
      "addr_housenumber": "141",
      "value": 307.89760205011265
    },
    {
      "id": 96614,
      "geometry": "POINT (-121.956884 37.35266)",
      "poi_name": "Denny's",
      "osm_id": 6439737985,
      "amenity": "restaurant",
      "cuisine": "american",
      "addr_city": "Santa Clara",
      "addr_postcode": "95050",
      "addr_street": "El Camino Real",
      "addr_housenumber": "1745",
      "value": 307.89760205011265
    },
    {
      "id": 97488,
      "geometry": "POINT (-122.023611 37.367063)",
      "poi_name": "Delhiwala Chaat",
      "osm_id": 6481830030,
      "amenity": "restaurant",
      "cuisine": "indian",
      "opening_hours": "Mo off; Tu-Su 12:00-20:30",
      "addr_state": "CA",
      "addr_city": "Sunnyvale",
      "addr_postcode": "94086",
      "addr_street": "Old San Francisco Road",
      "addr_housenumber": "590",
      "value": 307.89760205011265
    },
    {
      "id": 96782,
      "geometry": "POINT (-122.172451 37.430451)",
      "poi_name": "Blend Eatery",
      "osm_id": 6444457266,
      "amenity": "restaurant",
      "opening_hours": "Mo-Fr 11:00-14:00",
      "outdoor_seating": "yes",
      "addr_housenumber": "382",
      "value": 307.89760205011265
    },
    {
      "id": 101250,
      "geometry": "POINT (-122.18227 37.453009)",
      "poi_name": "Black Pepper",
      "osm_id": 6617493853,
      "amenity": "restaurant",
      "cuisine": "thai",
      "opening_hours": "Mo-Th 11:30-14:40,17:00-21:00; Fr 11:30-14:40,17:00-22:00; Sa 11:45-22:00; Su Off",
      "website": "https://www.blackpepper-usa.com/",
      "phone": "+1-650-485-2345",
      "addr_city": "Menlo Park",
      "addr_postcode": "94025",
      "addr_street": "El Camino Real",
      "addr_housenumber": "1029",
      "value": 307.89760205011265
    },
    {
      "id": 97654,
      "geometry": "POINT (-122.170283 37.443906)",
      "poi_name": "True Food Kitchen",
      "osm_id": 6487045421,
      "amenity": "restaurant",
      "cuisine": "american",
      "opening_hours": "Mo-Th 11:00-21:00; Fr 11:00-22:00; Sa 10:00-22:00; Su 10:00-21:00",
      "website": "https://www.truefoodkitchen.com/",
      "phone": "+1-650-272-5157",
      "addr_state": "CA",
      "addr_city": "Palo Alto",
      "addr_postcode": "94304",
      "addr_street": "El Camino Real",
      "addr_housenumber": "180",
      "value": 307.89760205011265
    },
    {
      "id": 102305,
      "geometry": "POINT (-122.074978 37.381733)",
      "poi_name": "Annachikadai",
      "osm_id": 6672995951,
      "amenity": "restaurant",
      "cuisine": "indian",
      "opening_hours": "PH,Mo-Fr 11:30-14:30,18:30-22:00; Sa-Su 11:30-22:00",
      "value": 307.89760205011265
    },
    {
      "id": 101326,
      "geometry": "POINT (-122.049794 37.548976)",
      "poi_name": "Vons Chicken",
      "osm_id": 6621664026,
      "amenity": "restaurant",
      "cuisine": "korean",
      "website": "http://newarkvonschicken.com/",
      "phone": "+1-510-894-1387",
      "addr_state": "CA",
      "addr_city": "Newark",
      "addr_postcode": "94560",
      "addr_street": "Jarvis Avenue",
      "addr_housenumber": "6180",
      "value": 307.89760205011265
    },
    {
      "id": 103627,
      "geometry": "POINT (-122.131696 37.417906)",
      "poi_name": "Da Sichuan Bistro",
      "osm_id": 8515231424,
      "amenity": "restaurant",
      "cuisine": "chinese",
      "opening_hours": "Su-Th 11:00-14:30, 16:30-21:30; Fr-Sa 16:30-14:30, 16:30-22:00",
      "website": "http://dasichuanrestaurant.com/",
      "phone": "(650)849-2000",
      "addr_state": "CA",
      "addr_city": "Palo Alto",
      "addr_postcode": "94306",
      "addr_street": "El Camino Real",
      "addr_housenumber": "3781",
      "value": 307.89760205011265
    },
    {
      "id": 102985,
      "geometry": "POINT (-122.14426 37.427858)",
      "poi_name": "Daigo",
      "osm_id": 8474197589,
      "amenity": "restaurant",
      "cuisine": "japanese",
      "phone": "(650) 384-6880",
      "addr_state": "CA",
      "addr_city": "Palo Alto",
      "addr_postcode": "94306",
      "addr_street": "Birch Street",
      "addr_housenumber": "2363",
      "value": 307.89760205011265
    },
    {
      "id": 103800,
      "geometry": "POINT (-121.94121 37.379969)",
      "poi_name": "IGrill Kebabs and Biryani",
      "osm_id": 8526251750,
      "amenity": "restaurant",
      "cuisine": "indian",
      "addr_state": "CA",
      "addr_city": "Santa Clara",
      "addr_postcode": "95054",
      "addr_street": "De La Cruz Boulevard",
      "addr_housenumber": "3170",
      "value": 307.89760205011265
    },
    {
      "id": 104415,
      "geometry": "POINT (-122.134785 37.419534)",
      "poi_name": "\u6c34\u9903\u4e4b\u57ce;Dumpling City",
      "osm_id": 8568788836,
      "amenity": "restaurant",
      "cuisine": "chinese;dumpling",
      "official_name": "Dumpling City LLC",
      "addr_state": "CA",
      "addr_city": "Palo Alto",
      "addr_postcode": "94306",
      "addr_street": "El Camino Real",
      "addr_housenumber": "3487",
      "value": 307.89760205011265
    },
    {
      "id": 105180,
      "geometry": "POINT (-122.099285 37.414605)",
      "poi_name": "Las Muchachas",
      "osm_id": 8609343321,
      "amenity": "restaurant",
      "cuisine": "mexican",
      "website": "https://lasmuchachasmv.com/",
      "phone": "(650) 968-3003",
      "addr_state": "CA",
      "addr_city": "Mountain View",
      "addr_postcode": "94043",
      "addr_street": "Old Middlefield Way",
      "addr_housenumber": "2483",
      "value": 307.89760205011265
    },
    {
      "id": 107118,
      "geometry": "POINT (-122.033301 37.376746)",
      "poi_name": "Kabul",
      "osm_id": 3537007146,
      "amenity": "restaurant",
      "cuisine": "afghan",
      "operator": "Kabura Incorporated",
      "website": "https://www.kabulrestaurant.net/",
      "phone": "+1-408-245-4350",
      "official_name": "Kabul Afghan Cuisine",
      "addr_state": "CA",
      "addr_city": "Sunnyvale",
      "addr_postcode": "94086",
      "addr_street": "West Washington Avenue",
      "addr_housenumber": "351",
      "value": 307.89760205011265
    },
    {
      "id": 106677,
      "geometry": "POINT (-121.928255 37.385223)",
      "poi_name": "Korean House",
      "osm_id": 8695203813,
      "amenity": "restaurant",
      "cuisine": "korean",
      "wheelchair": "yes",
      "opening_hours": "Mo-Fr 10:30-20:00; Sa-Su 11:30-19:00",
      "operator": "KHouse LLC",
      "takeaway": "yes",
      "toilets": "yes",
      "addr_state": "CA",
      "addr_city": "San Jose",
      "addr_postcode": "95131",
      "addr_street": "North 1st Street",
      "addr_housenumber": "2589",
      "value": 307.89760205011265
    },
    {
      "id": 106678,
      "geometry": "POINT (-121.928184 37.385263)",
      "poi_name": "Okayama Xpress",
      "osm_id": 8695203814,
      "amenity": "restaurant",
      "cuisine": "japanese",
      "wheelchair": "yes",
      "opening_hours": "Mo-Sa 11:00-21:00; Su 12:00-21:00",
      "takeaway": "yes",
      "toilets": "yes",
      "addr_state": "CA",
      "addr_city": "San Jose",
      "addr_postcode": "95131",
      "addr_street": "North 1st Street",
      "addr_housenumber": "2587",
      "value": 307.89760205011265
    },
    {
      "id": 106679,
      "geometry": "POINT (-121.928313 37.385184)",
      "poi_name": "Thai Orchid",
      "osm_id": 8695203815,
      "amenity": "restaurant",
      "cuisine": "thai",
      "wheelchair": "yes",
      "website": "https://www.eatthaiorchid.com/",
      "phone": "+1 408-432-3229",
      "takeaway": "yes",
      "toilets": "yes",
      "addr_state": "CA",
      "addr_city": "San Jose",
      "addr_postcode": "95131",
      "addr_street": "North 1st Street",
      "addr_housenumber": "2591",
      "value": 307.89760205011265
    },
    {
      "id": 106682,
      "geometry": "POINT (-121.927838 37.384805)",
      "poi_name": "Biryani Stop",
      "osm_id": 8695206344,
      "amenity": "restaurant",
      "cuisine": "indian",
      "wheelchair": "yes",
      "phone": "+1 408-824-5114",
      "takeaway": "yes",
      "outdoor_seating": "yes",
      "toilets": "yes",
      "addr_state": "CA",
      "addr_city": "San Jose",
      "addr_postcode": "95131",
      "addr_street": "North 1st Street",
      "addr_housenumber": "2565",
      "value": 307.89760205011265
    },
    {
      "id": 106684,
      "geometry": "POINT (-121.928399 37.38516)",
      "poi_name": "Ume Chinese Food",
      "osm_id": 8695220853,
      "amenity": "restaurant",
      "cuisine": "chinese",
      "wheelchair": "yes",
      "opening_hours": "Mo-Fr 10:30-19:30; Sa 10:30-15:30",
      "phone": "+1 408-433-3333",
      "takeaway": "yes",
      "addr_state": "CA",
      "addr_city": "San Jose",
      "addr_postcode": "95131",
      "addr_street": "North 1st Street",
      "addr_housenumber": "2595",
      "value": 307.89760205011265
    },
    {
      "id": 107119,
      "geometry": "POINT (-122.030079 37.376531)",
      "poi_name": "Roberto's Cantina",
      "osm_id": 3537007148,
      "amenity": "restaurant",
      "cuisine": "mexican",
      "opening_hours": "Tu-Th 11:30-21:00; Fr-Sa 11:30-22:00; Su 12:00-20:00",
      "website": "https://www.robertoscantina.com/",
      "addr_state": "CA",
      "addr_city": "Sunnyvale",
      "addr_postcode": "94086",
      "addr_street": "South Murphy Avenue",
      "addr_housenumber": "168",
      "value": 307.89760205011265
    },
    {
      "id": 107211,
      "geometry": "POINT (-122.079425 37.416213)",
      "poi_name": "Zareen\u2019s",
      "osm_id": 3544924417,
      "amenity": "restaurant",
      "cuisine": "indian;pakistani",
      "opening_hours": "Tu-Th 11:30-21:00, Fr 11:30-22:00, Sa 11:00-22:00, Su 11:00-21:00",
      "website": "https://www.zareensrestaurant.com/orderlocation11e95584f3cc2d7697f50cc47a2b63cc.html",
      "phone": "+1-650-641-0335",
      "addr_state": "CA",
      "addr_city": "Mountain View",
      "addr_street": "Plymouth Street",
      "addr_housenumber": "1477",
      "value": 307.89760205011265
    },
    {
      "id": 107120,
      "geometry": "POINT (-122.030097 37.376473)",
      "poi_name": "Siam Taste",
      "osm_id": 3537007149,
      "amenity": "restaurant",
      "cuisine": "thai",
      "wheelchair": "yes",
      "phone": "+1 408-245-8585",
      "delivery": "yes",
      "addr_state": "CA",
      "addr_city": "Sunnyvale",
      "addr_postcode": "94086",
      "addr_street": "South Murphy Avenue",
      "addr_housenumber": "172",
      "value": 307.89760205011265
    },
    {
      "id": 107161,
      "geometry": "POINT (-121.922448 37.350651)",
      "poi_name": "Chikin Drip",
      "osm_id": 3540148726,
      "amenity": "restaurant",
      "addr_city": "San Jose",
      "addr_postcode": "95110",
      "addr_street": "Newhall Drive",
      "addr_housenumber": "530",
      "value": 307.89760205011265
    },
    {
      "id": 108104,
      "geometry": "POINT (-121.901255 37.346719)",
      "poi_name": "Sagar Sweets",
      "osm_id": 3595854503,
      "amenity": "restaurant",
      "cuisine": "indian",
      "website": "https://www.sagarsweetsrestaurant.com/",
      "shop": "confectionery",
      "phone": "+1-408-291-8832",
      "addr_state": "CA",
      "addr_city": "San Jose",
      "addr_postcode": "95110",
      "addr_street": "George Street",
      "addr_housenumber": "146",
      "value": 307.89760205011265
    },
    {
      "id": 108932,
      "geometry": "POINT (-122.094063 37.424535)",
      "poi_name": "Evolution Cafe",
      "osm_id": 3641632110,
      "amenity": "restaurant",
      "wheelchair": "yes",
      "value": 307.89760205011265
    },
    {
      "id": 108732,
      "geometry": "POINT (-121.935963 37.356575)",
      "poi_name": "Men-Bei Ramen",
      "osm_id": 3633624886,
      "amenity": "restaurant",
      "cuisine": "japanese",
      "opening_hours": "We-Mo 11:30-14:30,17:30-19:30",
      "value": 307.89760205011265
    },
    {
      "id": 111847,
      "geometry": "POINT (-122.061369 37.396619)",
      "poi_name": "Joy Sushi",
      "osm_id": 3764833760,
      "amenity": "restaurant",
      "cuisine": "sushi",
      "takeaway": "yes",
      "addr_state": "CA",
      "addr_city": "Mountain View",
      "addr_postcode": "94043",
      "addr_street": "E Middlefield Rd",
      "addr_housenumber": "225-1B",
      "value": 307.89760205011265
    },
    {
      "id": 109157,
      "geometry": "POINT (-121.909085 37.360434)",
      "poi_name": "Jade Cathay",
      "osm_id": 3652273216,
      "amenity": "restaurant",
      "cuisine": "chinese",
      "website": "http://www.jadecathay.com/",
      "addr_city": "San Jose",
      "addr_postcode": "95110",
      "addr_street": "North 1st Street",
      "addr_housenumber": "1339",
      "value": 307.89760205011265
    },
    {
      "id": 109158,
      "geometry": "POINT (-121.908927 37.36028)",
      "poi_name": "House of Genji",
      "osm_id": 3652273217,
      "amenity": "restaurant",
      "cuisine": "japanese",
      "website": "http://www.houseofgenji.net/",
      "addr_city": "San Jose",
      "addr_postcode": "95110",
      "addr_street": "North 1st Street",
      "addr_housenumber": "1335",
      "value": 307.89760205011265
    },
    {
      "id": 111164,
      "geometry": "POINT (-121.946971 37.356589)",
      "poi_name": "House of Egg Rolls",
      "osm_id": 3733958218,
      "amenity": "restaurant",
      "cuisine": "chinese",
      "value": 307.89760205011265
    },
    {
      "id": 111165,
      "geometry": "POINT (-121.948489 37.360075)",
      "poi_name": "Ed\u2019s Teriyaki",
      "osm_id": 3733963125,
      "amenity": "restaurant",
      "cuisine": "japanese",
      "value": 307.89760205011265
    },
    {
      "id": 109650,
      "geometry": "POINT (-121.946215 37.354378)",
      "poi_name": "White Elephant",
      "osm_id": 3668322838,
      "amenity": "restaurant",
      "cuisine": "thai",
      "website": "http://www.whiteelephanttogo.com/",
      "value": 307.89760205011265
    },
    {
      "id": 109751,
      "geometry": "POINT (-121.956471 37.376453)",
      "poi_name": "Athena Grill",
      "osm_id": 3672800918,
      "amenity": "restaurant",
      "cuisine": "greek",
      "opening_hours": "10:30-21:00",
      "addr_housenumber": "1505",
      "value": 307.89760205011265
    },
    {
      "id": 109902,
      "geometry": "POINT (-121.922174 37.350522)",
      "poi_name": "Togo's",
      "osm_id": 3678142008,
      "amenity": "restaurant",
      "opening_hours": "Mo-Fr 09:00-21:00; Sa,Su 10:00-21:00",
      "addr_state": "CA",
      "addr_city": "San Jose",
      "addr_postcode": "95110",
      "addr_street": "Newhall Drive",
      "addr_housenumber": "540",
      "value": 307.89760205011265
    },
    {
      "id": 110970,
      "geometry": "POINT (-122.061578 37.396666)",
      "poi_name": "Khao Kang Thai Kitchen",
      "osm_id": 3725512509,
      "amenity": "restaurant",
      "cuisine": "asian",
      "website": "https://www.khaokang.com/",
      "phone": "+1 650-960-7100",
      "takeaway": "yes",
      "delivery": "yes",
      "addr_state": "CA",
      "addr_city": "Mountain View",
      "addr_postcode": "94043",
      "addr_street": "East Middlefield Road",
      "addr_housenumber": "225-2",
      "value": 307.89760205011265
    },
    {
      "id": 110971,
      "geometry": "POINT (-122.061179 37.397335)",
      "poi_name": "La Coste\u00f1a",
      "osm_id": 3725512510,
      "amenity": "restaurant",
      "cuisine": "mexican",
      "wheelchair": "yes",
      "outdoor_seating": "no",
      "addr_state": "CA",
      "addr_city": "Mountain View",
      "addr_postcode": "94043",
      "addr_street": "East Middlefield Road",
      "addr_housenumber": "235",
      "value": 307.89760205011265
    },
    {
      "id": 111719,
      "geometry": "POINT (-122.098024 37.414497)",
      "poi_name": "Baji's Cafe",
      "osm_id": 3760951657,
      "amenity": "restaurant",
      "cuisine": "american;burger;breakfast;lunch",
      "opening_hours": "Mo-Su 07:00-14:00",
      "website": "https://bajiscafe.com/",
      "phone": "(650) 967-7477",
      "addr_state": "CA",
      "addr_city": "Mountain View",
      "addr_postcode": "94043",
      "addr_street": "Old Middlefield Way",
      "addr_housenumber": "2423",
      "value": 307.89760205011265
    },
    {
      "id": 123502,
      "geometry": "POINT (-121.945735 37.39405)",
      "poi_name": "Red Robin",
      "osm_id": 6859149502,
      "amenity": "restaurant",
      "cuisine": "burger",
      "official_name": "Red Robin Gourmet Burgers and Brews",
      "value": 307.89760205011265
    },
    {
      "id": 113927,
      "geometry": "POINT (-121.995247 37.382757)",
      "poi_name": "Myzen Ramen",
      "osm_id": 3857425757,
      "amenity": "restaurant",
      "cuisine": "japanese;ramen",
      "opening_hours": "Mo-Sa 11:00-13:30,17:00-19:30",
      "value": 307.89760205011265
    },
    {
      "id": 113338,
      "geometry": "POINT (-122.156618 37.48051)",
      "poi_name": "Mama Penny's",
      "osm_id": 3831477779,
      "amenity": "restaurant",
      "value": 307.89760205011265
    },
    {
      "id": 113339,
      "geometry": "POINT (-122.156835 37.481123)",
      "poi_name": "Cho's Hawker Center",
      "osm_id": 3831477780,
      "amenity": "restaurant",
      "value": 307.89760205011265
    },
    {
      "id": 113496,
      "geometry": "POINT (-122.057907 37.37522)",
      "poi_name": "Satkar Indian cuisine",
      "osm_id": 3836342236,
      "amenity": "restaurant",
      "cuisine": "indian",
      "value": 307.89760205011265
    },
    {
      "id": 113497,
      "geometry": "POINT (-122.062695 37.377227)",
      "poi_name": "Himalayan Kitchen",
      "osm_id": 3836342851,
      "amenity": "restaurant",
      "cuisine": "indian",
      "value": 307.89760205011265
    },
    {
      "id": 119686,
      "geometry": "POINT (-122.078285 37.394492)",
      "poi_name": "Das Bierhauz",
      "osm_id": 9115285018,
      "amenity": "restaurant",
      "cuisine": "german",
      "opening_hours": "Mo-Su 10:00-22:00",
      "website": "https://dasbierhauz.com/",
      "phone": "+1 650 336 7613",
      "addr_state": "CA",
      "addr_city": "Mountain View",
      "addr_postcode": "94041",
      "addr_street": "Castro Street",
      "addr_housenumber": "135",
      "value": 307.89760205011265
    },
    {
      "id": 123250,
      "geometry": "POINT (-122.110397 37.403892)",
      "poi_name": "Fairchilds Public House",
      "osm_id": 6842547984,
      "amenity": "restaurant",
      "opening_hours": "Mo-Fr 06:30-09:30,17:00-22:00; Sa 07:30-10:30,17:00-22:00; Su 07:30-10:30; PH off",
      "website": "https://www.fairchildspublichouse.com/",
      "phone": "+1-650-966-6949",
      "outdoor_seating": "yes",
      "addr_state": "CA",
      "addr_city": "Mountain View",
      "addr_postcode": "94040",
      "addr_street": "San Antonio Road",
      "addr_housenumber": "409",
      "value": 307.89760205011265
    },
    {
      "id": 140909,
      "geometry": "POINT (-122.03059 37.376169)",
      "poi_name": "Vino Vino",
      "osm_id": 6266655866,
      "amenity": "restaurant",
      "website": "https://www.vinovinosj.com/",
      "addr_state": "CA",
      "addr_city": "Sunnyvale",
      "addr_street": "South Murphy Avenue",
      "addr_housenumber": "199",
      "value": 307.89760205011265
    },
    {
      "id": 129307,
      "geometry": "POINT (-122.120043 37.407844)",
      "poi_name": "Dinah\u2019s Poolside Restaurant",
      "osm_id": 8232754968,
      "amenity": "restaurant",
      "cuisine": "american",
      "website": "https://www.dinahshotel.com/dining/dinah-s-poolside-restaurant",
      "phone": "+1 650 798 1314",
      "outdoor_seating": "yes",
      "addr_state": "CA",
      "addr_city": "Palo Alto",
      "addr_postcode": "94306",
      "addr_street": "El Camino Real",
      "addr_housenumber": "4261",
      "value": 307.89760205011265
    },
    {
      "id": 129319,
      "geometry": "POINT (-122.122916 37.409391)",
      "poi_name": "Kitchen at Palo Alto",
      "osm_id": 8234724662,
      "amenity": "restaurant",
      "website": "https://paloalto.thekitchenandbar.com",
      "phone": "(650) 843-0795",
      "addr_state": "CA",
      "addr_city": "Palo Alto",
      "addr_postcode": "94306",
      "addr_street": "El Camino Real",
      "addr_housenumber": "4216",
      "value": 307.89760205011265
    },
    {
      "id": 134477,
      "geometry": "POINT (-122.172805 37.442785)",
      "poi_name": "Hummus",
      "osm_id": 11471924886,
      "amenity": "restaurant",
      "cuisine": "mediterranean",
      "value": 307.89760205011265
    },
    {
      "id": 124273,
      "geometry": "POINT (-122.03043 37.376455)",
      "poi_name": "Ramen Seas",
      "osm_id": 6907540316,
      "amenity": "restaurant",
      "value": 307.89760205011265
    },
    {
      "id": 131926,
      "geometry": "POINT (-121.948988 37.384908)",
      "poi_name": "Smoked Out BBQ",
      "osm_id": 9934746347,
      "amenity": "restaurant",
      "cuisine": "barbecue",
      "addr_state": "CA",
      "addr_city": "Santa Clara",
      "addr_postcode": "95054",
      "addr_street": "Aldo Avenue",
      "addr_housenumber": "807",
      "value": 307.89760205011265
    },
    {
      "id": 136684,
      "geometry": "POINT (-122.144445 37.427082)",
      "poi_name": "Anatolian Kitchen",
      "osm_id": 11596772769,
      "amenity": "restaurant",
      "value": 307.89760205011265
    },
    {
      "id": 149095,
      "geometry": "POINT (-122.057932 37.400844)",
      "poi_name": "Everest Cuisine",
      "osm_id": 3996459057,
      "amenity": "restaurant",
      "cuisine": "indian",
      "capacity": "30",
      "takeaway": "yes",
      "delivery": "no",
      "addr_city": "Mountain View",
      "addr_street": "North Whisman Road",
      "addr_housenumber": "425",
      "value": 307.89760205011265
    },
    {
      "id": 142017,
      "geometry": "POINT (-121.892558 37.340383)",
      "poi_name": "Devine Cheese and Wine",
      "osm_id": 6301022410,
      "amenity": "restaurant",
      "opening_hours": "Tu-Th 17:00-20:30; Fr-Sa 16:00-21:00",
      "website": "https://www.devinecheeseandwine.com/",
      "phone": "+1 (408) 924-0818",
      "outdoor_seating": "yes",
      "addr_state": "CA",
      "addr_city": "San Jose",
      "addr_postcode": "95110;95112",
      "addr_street": "Devine Street",
      "addr_housenumber": "27",
      "value": 307.89760205011265
    },
    {
      "id": 145134,
      "geometry": "POINT (-122.158898 37.447956)",
      "poi_name": "Il Fornaio",
      "osm_id": 7317361163,
      "amenity": "restaurant",
      "cuisine": "italian",
      "addr_city": "Palo Alto",
      "addr_postcode": "94301",
      "addr_street": "Cowper Street",
      "addr_housenumber": "520",
      "value": 307.89760205011265
    },
    {
      "id": 146830,
      "geometry": "POINT (-122.126121 37.448278)",
      "poi_name": "Chef Zhao Kitchen",
      "osm_id": 7477527557,
      "amenity": "restaurant",
      "cuisine": "chinese",
      "website": "http://chefzhaokitchen.com/",
      "phone": "+1-650-485-2221",
      "addr_state": "CA",
      "addr_city": "Palo Alto",
      "addr_postcode": "94303",
      "addr_street": "West Bayshore Road",
      "addr_housenumber": "2180",
      "value": 307.89760205011265
    },
    {
      "id": 141969,
      "geometry": "POINT (-121.953816 37.416928)",
      "poi_name": "Shan",
      "osm_id": 6300469132,
      "amenity": "restaurant",
      "cuisine": "indian",
      "wheelchair": "yes",
      "opening_hours": "Mo-Th 11:15-15:00,17:30-22:30; Fr 11:15-15:00,17:30-23:00; Sa,Su 12:00-16:00,17:30-23:00",
      "website": "https://shanrestaurant.com",
      "takeaway": "yes",
      "outdoor_seating": "yes",
      "toilets": "yes",
      "addr_state": "CA",
      "addr_city": "San Jose",
      "addr_postcode": "95134",
      "addr_street": "North 1st Street",
      "addr_housenumber": "4140",
      "value": 307.89760205011265
    },
    {
      "id": 143264,
      "geometry": "POINT (-122.079351 37.392938)",
      "poi_name": "Queen House",
      "osm_id": 6334494410,
      "amenity": "restaurant",
      "cuisine": "chinese;taiwanese",
      "addr_street": "Castro Street",
      "addr_housenumber": "273",
      "value": 307.89760205011265
    },
    {
      "id": 150404,
      "geometry": "POINT (-122.079424 37.416302)",
      "poi_name": "Hon Sushi",
      "osm_id": 4053643839,
      "amenity": "restaurant",
      "cuisine": "japanese;sushi",
      "wheelchair": "yes",
      "opening_hours": "Mo 10:30-14:30; Tu-Su 10:30-21:00",
      "website": "https://honsushi.eat24hour.com/",
      "drive_through": "no",
      "addr_state": "CA",
      "addr_city": "Mountain View",
      "addr_postcode": "94043",
      "addr_street": "Plymouth Street",
      "addr_housenumber": "1477",
      "value": 307.89760205011265
    },
    {
      "id": 149829,
      "geometry": "POINT (-122.032806 37.376649)",
      "poi_name": "PhoEver",
      "osm_id": 4027095442,
      "amenity": "restaurant",
      "cuisine": "vietnamese",
      "addr_state": "CA",
      "addr_city": "Sunnyvale",
      "addr_postcode": "94086",
      "addr_street": "West Washington Avenue",
      "addr_housenumber": "321",
      "value": 307.89760205011265
    },
    {
      "id": 152110,
      "geometry": "POINT (-122.201155 37.4318)",
      "poi_name": "Flea Street Cafe",
      "osm_id": 4128541512,
      "amenity": "restaurant",
      "cuisine": "american",
      "addr_state": "CA",
      "addr_city": "Menlo Park",
      "addr_postcode": "94025",
      "addr_street": "Alameda de Las Pulgas",
      "addr_housenumber": "3607",
      "value": 307.89760205011265
    },
    {
      "id": 153051,
      "geometry": "POINT (-121.963413 37.408146)",
      "poi_name": "Bistro Siam",
      "osm_id": 4173741393,
      "amenity": "restaurant",
      "cuisine": "thai",
      "opening_hours": "Mo-Th 11:00-21:00; Fr,Sa 11:00-21:30; Su 17:00-21:00",
      "website": "https://bistrosiam.ordersnapp.com/",
      "phone": "+1-408-988-3966",
      "addr_state": "CA",
      "addr_city": "Santa Clara",
      "addr_postcode": "95054",
      "addr_street": "Tasman Drive",
      "addr_housenumber": "2211",
      "value": 307.89760205011265
    },
    {
      "id": 153052,
      "geometry": "POINT (-121.963544 37.408093)",
      "poi_name": "Dona Maria",
      "osm_id": 4173741394,
      "amenity": "restaurant",
      "cuisine": "mexican",
      "website": "http://www.dona-maria-restaurant.com/",
      "phone": "+1-408-654-9503",
      "addr_state": "CA",
      "addr_city": "Santa Clara",
      "addr_postcode": "95054",
      "addr_street": "Tasman Drive",
      "addr_housenumber": "2215",
      "value": 307.89760205011265
    },
    {
      "id": 153054,
      "geometry": "POINT (-121.963266 37.40821)",
      "poi_name": "Ph\u1edf Khang",
      "osm_id": 4173741396,
      "amenity": "restaurant",
      "cuisine": "vietnamese",
      "addr_state": "CA",
      "addr_city": "Santa Clara",
      "addr_postcode": "95054",
      "addr_street": "Tasman Drive",
      "addr_housenumber": "2207",
      "value": 307.89760205011265
    },
    {
      "id": 154863,
      "geometry": "POINT (-121.948973 37.354202)",
      "poi_name": "Su\u2019s Mongolian BBQ",
      "osm_id": 4259744394,
      "amenity": "restaurant",
      "cuisine": "mongolian_grill",
      "addr_state": "CA",
      "addr_city": "Santa Clara",
      "addr_postcode": "95050",
      "addr_street": "El Camino Real",
      "addr_housenumber": "1111",
      "value": 307.89760205011265
    },
    {
      "id": 154472,
      "geometry": "POINT (-122.112241 37.400971)",
      "poi_name": "Sajj Mediterranean",
      "osm_id": 4240016788,
      "amenity": "restaurant",
      "wheelchair": "yes",
      "opening_hours": "Mo-Su 11:00-21:00; Fr,Sa 11:00-22:00",
      "takeaway": "yes",
      "addr_state": "CA",
      "addr_city": "Mountain View",
      "addr_postcode": "94040",
      "addr_street": "West El Camino Real",
      "addr_housenumber": "2580",
      "value": 307.89760205011265
    },
    {
      "id": 155296,
      "geometry": "POINT (-122.024002 37.387884)",
      "poi_name": "Pho Lovers",
      "osm_id": 4279365592,
      "amenity": "restaurant",
      "value": 307.89760205011265
    },
    {
      "id": 156438,
      "geometry": "POINT (-122.182728 37.453252)",
      "poi_name": "Trellis",
      "osm_id": 4657292649,
      "amenity": "restaurant",
      "value": 307.89760205011265
    },
    {
      "id": 160207,
      "geometry": "POINT (-122.144087 37.426961)",
      "poi_name": "iTalico",
      "osm_id": 4826510577,
      "amenity": "restaurant",
      "cuisine": "italian",
      "addr_street": "South California Avenue",
      "addr_housenumber": "341",
      "value": 307.89760205011265
    },
    {
      "id": 160102,
      "geometry": "POINT (-121.920603 37.36932)",
      "poi_name": "Honba Sushi",
      "osm_id": 4819074921,
      "amenity": "restaurant",
      "cuisine": "japanese",
      "takeaway": "yes",
      "addr_city": "San Jose",
      "addr_postcode": "95110",
      "addr_street": "Technology Drive",
      "addr_housenumber": "1759",
      "value": 307.89760205011265
    },
    {
      "id": 161195,
      "geometry": "POINT (-122.149762 37.483689)",
      "poi_name": "Noodle Bar",
      "osm_id": 4869055832,
      "amenity": "restaurant",
      "cuisine": "noodle",
      "opening_hours": "Mo-Fr 08:00-10:00,11:00-14:00",
      "takeaway": "yes",
      "outdoor_seating": "yes",
      "delivery": "no",
      "value": 307.89760205011265
    },
    {
      "id": 160931,
      "geometry": "POINT (-121.925664 37.366026)",
      "poi_name": "Sushi Boat",
      "osm_id": 4853674929,
      "amenity": "restaurant",
      "cuisine": "sushi",
      "opening_hours": "Su-Fr 10:30-24:00",
      "value": 307.89760205011265
    },
    {
      "id": 160932,
      "geometry": "POINT (-121.925609 37.365974)",
      "poi_name": "Trader Vic's Outpost",
      "osm_id": 4853716325,
      "amenity": "restaurant",
      "opening_hours": "Mo-Su 08:00-21:00",
      "value": 307.89760205011265
    },
    {
      "id": 161127,
      "geometry": "POINT (-121.922595 37.350724)",
      "poi_name": "Smoking Pig BBQ",
      "osm_id": 4867458368,
      "amenity": "restaurant",
      "cuisine": "barbecue",
      "opening_hours": "Su-Th 11:00-20:00; Fr,Sa 11:00-21:00",
      "website": "https://smokingpigbbq.net/",
      "phone": "+1-408-289-1510",
      "addr_state": "CA",
      "addr_city": "San Jose",
      "addr_postcode": "95110",
      "addr_street": "Newhall Drive",
      "addr_housenumber": "530",
      "value": 307.89760205011265
    },
    {
      "id": 161352,
      "geometry": "POINT (-121.961903 37.35298)",
      "poi_name": "Burma Bistro",
      "osm_id": 4877499738,
      "amenity": "restaurant",
      "cuisine": "burmese",
      "opening_hours": "Mo-Su 11:30-14:00,17:30-21:00",
      "website": "https://www.burmabistro.net/",
      "value": 307.89760205011265
    },
    {
      "id": 162735,
      "geometry": "POINT (-121.9933 37.367204)",
      "poi_name": "California Pizza Kitchen",
      "osm_id": 4939160351,
      "amenity": "restaurant",
      "cuisine": "pizza",
      "opening_hours": "Su-Th 11:00-22:00; Fr,Sa 11:00-23:00",
      "outdoor_seating": "yes",
      "addr_state": "CA",
      "addr_city": "Santa Clara",
      "addr_postcode": "95051",
      "addr_street": "North Monroe Street",
      "addr_housenumber": "3535",
      "value": 307.89760205011265
    },
    {
      "id": 162632,
      "geometry": "POINT (-121.919948 37.371172)",
      "poi_name": "Zone 8",
      "osm_id": 4937199859,
      "amenity": "restaurant",
      "cuisine": "american",
      "value": 307.89760205011265
    },
    {
      "id": 161327,
      "geometry": "POINT (-122.054261 37.373714)",
      "poi_name": "Pizza Hut",
      "osm_id": 4876220831,
      "amenity": "restaurant",
      "cuisine": "pizza",
      "opening_hours": "Su-Th 11:00-23:00; Th,Fr 11:00-23:59",
      "takeaway": "only",
      "delivery": "yes",
      "value": 307.89760205011265
    },
    {
      "id": 162396,
      "geometry": "POINT (-121.945698 37.40936)",
      "poi_name": "Honey Berry",
      "osm_id": 4929794306,
      "amenity": "restaurant",
      "internet_access": "wlan",
      "value": 307.89760205011265
    },
    {
      "id": 166594,
      "geometry": "POINT (-122.158398 37.423529)",
      "poi_name": "Ray's Grill",
      "osm_id": 287483398,
      "amenity": "restaurant",
      "addr_city": "Stanford",
      "addr_postcode": "94305",
      "addr_street": "Escondido Road",
      "addr_housenumber": "750",
      "value": 307.89760205011265
    },
    {
      "id": 166509,
      "geometry": "POINT (-121.995321 37.37827)",
      "poi_name": "Swati Tiffins",
      "osm_id": 267984815,
      "amenity": "restaurant",
      "value": 307.89760205011265
    },
    {
      "id": 166511,
      "geometry": "POINT (-121.983776 37.388556)",
      "poi_name": "Tomatina",
      "osm_id": 270031383,
      "amenity": "restaurant",
      "phone": "4086549000",
      "addr_housenumber": "3127",
      "value": 307.89760205011265
    },
    {
      "id": 166513,
      "geometry": "POINT (-121.983889 37.389465)",
      "poi_name": "Tostadas Prime",
      "osm_id": 270031387,
      "amenity": "restaurant",
      "cuisine": "mexican",
      "website": "https://www.tostadasprime.com/",
      "addr_state": "CA",
      "addr_city": "Santa Clara",
      "addr_street": "Mission College Boulevard",
      "addr_housenumber": "3149",
      "value": 307.89760205011265
    },
    {
      "id": 166565,
      "geometry": "POINT (-122.171192 37.423915)",
      "poi_name": "Treehouse",
      "osm_id": 281870039,
      "amenity": "restaurant",
      "cuisine": "mexican;burger;pizza",
      "website": "http://treehousemenu.com/",
      "value": 307.89760205011265
    },
    {
      "id": 167115,
      "geometry": "POINT (-121.915736 37.365293)",
      "poi_name": "Vito\u2019s Trattoria",
      "osm_id": 338838615,
      "amenity": "restaurant",
      "cuisine": "italian",
      "operator": "Vito's New York Trattoria, Inc",
      "addr_state": "CA",
      "addr_city": "San Jose",
      "addr_postcode": "95110",
      "addr_street": "Skyport Drive",
      "addr_housenumber": "90",
      "value": 307.89760205011265
    },
    {
      "id": 166657,
      "geometry": "POINT (-122.143056 37.42821)",
      "poi_name": "Rara",
      "osm_id": 303809251,
      "amenity": "restaurant",
      "cuisine": "nepalese",
      "opening_hours": "Tu-Su 11:00-15:00, 17:00-22:00",
      "website": "https://rararestaurant.com/",
      "phone": "+1 650 485 1055",
      "addr_state": "CA",
      "addr_city": "Palo Alto",
      "addr_postcode": "94306",
      "addr_street": "South California Avenue",
      "addr_housenumber": "201",
      "value": 307.89760205011265
    },
    {
      "id": 166658,
      "geometry": "POINT (-122.144204 37.427865)",
      "poi_name": "Homma\u2019s Brown Rice Sushi",
      "osm_id": 303809254,
      "amenity": "restaurant",
      "cuisine": "sushi",
      "value": 307.89760205011265
    },
    {
      "id": 166660,
      "geometry": "POINT (-122.144866 37.426594)",
      "poi_name": "Palo Alto Sol Restaurant",
      "osm_id": 303809267,
      "amenity": "restaurant",
      "cuisine": "mexican",
      "phone": "650.328-8840",
      "addr_city": "Palo Alto",
      "addr_postcode": "94306",
      "addr_street": "South California Avenue",
      "addr_housenumber": "408",
      "value": 307.89760205011265
    },
    {
      "id": 166661,
      "geometry": "POINT (-122.145063 37.42579)",
      "poi_name": "Ramen Kowa",
      "osm_id": 303809300,
      "amenity": "restaurant",
      "cuisine": "japanese",
      "addr_city": "Palo Alto",
      "addr_street": "South California Avenue",
      "addr_housenumber": "445",
      "value": 307.89760205011265
    },
    {
      "id": 166662,
      "geometry": "POINT (-122.143424 37.427247)",
      "poi_name": "Cafe Pro Bono",
      "osm_id": 303809307,
      "amenity": "restaurant",
      "addr_street": "Birch Street",
      "addr_housenumber": "2439",
      "value": 307.89760205011265
    },
    {
      "id": 166663,
      "geometry": "POINT (-122.144715 37.4262)",
      "poi_name": "Sekoya",
      "osm_id": 303809310,
      "amenity": "restaurant",
      "addr_city": "Palo Alto",
      "addr_street": "South California Avenue",
      "addr_housenumber": "417",
      "value": 307.89760205011265
    },
    {
      "id": 166665,
      "geometry": "POINT (-122.144133 37.426784)",
      "poi_name": "Zareen's",
      "osm_id": 303809343,
      "amenity": "restaurant",
      "cuisine": "pakistani;punjabi",
      "description": "food ordering is cafeteria style, order->wait for food-> only then, find a seat to allow others a fair chance to find seating",
      "opening_hours": "Mo-Th 11:30-21:00; Fr 11:30-22:00; Sa 11:30-15:00,17:00-22:00; Su 11:30-15:00,17:00-21:00",
      "website": "https://www.zareensrestaurant.com/",
      "outdoor_seating": "yes",
      "delivery": "no",
      "addr_city": "Palo Alto",
      "addr_postcode": "94306",
      "addr_street": "South California Avenue",
      "addr_housenumber": "365",
      "value": 307.89760205011265
    },
    {
      "id": 167250,
      "geometry": "POINT (-122.080372 37.392923)",
      "poi_name": "Taqueria Los Charros",
      "osm_id": 347409552,
      "amenity": "restaurant",
      "cuisine": "mexican",
      "phone": "+1 650 969 1464",
      "addr_street": "West Dana Street",
      "addr_housenumber": "854",
      "value": 307.89760205011265
    },
    {
      "id": 167210,
      "geometry": "POINT (-122.030845 37.376228)",
      "poi_name": "Poki Bowl",
      "osm_id": 343637149,
      "amenity": "restaurant",
      "cuisine": "hawaiian",
      "website": "https://www.pokibowl.com/sunnyvale/",
      "addr_state": "CA",
      "addr_city": "Sunnyvale",
      "addr_postcode": "94086",
      "addr_street": "West Washington Avenue",
      "addr_housenumber": "127",
      "value": 307.89760205011265
    },
    {
      "id": 167153,
      "geometry": "POINT (-122.078676 37.393854)",
      "poi_name": "Eureka!",
      "osm_id": 343268782,
      "amenity": "restaurant",
      "cuisine": "burger",
      "wheelchair": "yes",
      "opening_hours": "Su 10:00-23:00, Mo-We 11:00-23:00, Th,Fr 11:00-24:00, Sa 10:00-24:00",
      "website": "https://eurekarestaurantgroup.com/blog/locations/mountain-view/",
      "addr_state": "CA",
      "addr_city": "Mountain View",
      "addr_street": "Castro Street",
      "addr_housenumber": "191",
      "value": 307.89760205011265
    },
    {
      "id": 167161,
      "geometry": "POINT (-122.077922 37.39352)",
      "poi_name": "Bangkok Spoon",
      "osm_id": 343562073,
      "amenity": "restaurant",
      "cuisine": "thai",
      "addr_street": "Villa Street",
      "addr_housenumber": "702",
      "value": 307.89760205011265
    },
    {
      "id": 167251,
      "geometry": "POINT (-122.079806 37.392806)",
      "poi_name": "Mantra India",
      "osm_id": 347409668,
      "amenity": "restaurant",
      "cuisine": "indian",
      "wheelchair": "yes",
      "opening_hours": "11:30-15:00, 17:00-22:00",
      "website": "https://www.mantraindiausa.com/",
      "phone": "+1-650-960-1000",
      "addr_street": "Castro Street",
      "addr_housenumber": "288",
      "value": 307.89760205011265
    },
    {
      "id": 167214,
      "geometry": "POINT (-122.03002 37.377536)",
      "poi_name": "Thai Basil",
      "osm_id": 344025047,
      "amenity": "restaurant",
      "cuisine": "thai",
      "wheelchair": "yes",
      "addr_street": "South Murphy Avenue",
      "addr_housenumber": "103",
      "value": 307.89760205011265
    },
    {
      "id": 173747,
      "geometry": "POINT (-121.994904 37.403834)",
      "poi_name": "Ph\u1edf Queen",
      "osm_id": 2452808750,
      "amenity": "restaurant",
      "cuisine": "vietnamese",
      "value": 307.89760205011265
    },
    {
      "id": 167217,
      "geometry": "POINT (-122.079656 37.393906)",
      "poi_name": "Ph\u1edf T\u00f4 Ch\u00e2u",
      "osm_id": 344561369,
      "amenity": "restaurant",
      "cuisine": "vietnamese",
      "wheelchair": "yes",
      "opening_hours": "Mo-Th,Su 11:00-21:00; Fr-Sa 11:00-22:00",
      "phone": "+1 650-961-8069",
      "addr_street": "Villa Street",
      "addr_housenumber": "853",
      "value": 307.89760205011265
    },
    {
      "id": 169363,
      "geometry": "POINT (-122.138888 37.426374)",
      "poi_name": "Caffe Machiavello",
      "osm_id": 2297989664,
      "amenity": "restaurant",
      "addr_street": "Page Mill Road",
      "addr_housenumber": "195",
      "value": 307.89760205011265
    },
    {
      "id": 172031,
      "geometry": "POINT (-122.162767 37.428287)",
      "poi_name": "Arbuckle Dining Pavillion",
      "osm_id": 2392411741,
      "amenity": "restaurant",
      "value": 307.89760205011265
    },
    {
      "id": 172232,
      "geometry": "POINT (-122.110417 37.419206)",
      "poi_name": "Rojoz Wraps",
      "osm_id": 2398606779,
      "amenity": "restaurant",
      "opening_hours": "Mo-Su 10:00-20:00",
      "website": "https://www.rojozwrapspaloalto.com/",
      "phone": "+1-650-20324-9727",
      "takeaway": "yes",
      "addr_city": "Palo Alto",
      "addr_street": "Middlefield Road",
      "addr_housenumber": "3906",
      "value": 307.89760205011265
    },
    {
      "id": 172233,
      "geometry": "POINT (-122.109251 37.41854)",
      "poi_name": "Rick's Ice Cream",
      "osm_id": 2398606791,
      "amenity": "restaurant",
      "cuisine": "ice_cream",
      "opening_hours": "Mo-Th 11:30-21:00; Fr-Su 11:00-21:30",
      "website": "http://www.ricksicecream.com/",
      "phone": "+16504936553",
      "addr_state": "CA",
      "addr_city": "Palo Alto",
      "addr_postcode": "94303",
      "addr_street": "Middlefield Road",
      "addr_housenumber": "3946",
      "value": 307.89760205011265
    },
    {
      "id": 172234,
      "geometry": "POINT (-122.109152 37.418651)",
      "poi_name": "Green Elephant Gourmet",
      "osm_id": 2398606793,
      "amenity": "restaurant",
      "cuisine": "burmese",
      "opening_hours": "Su-Th 11:00-14:30,16:30-21:00; Fr-Sa 11:00-14:30,16:30-21:30",
      "website": "http://www.greenelephantgourmet.com",
      "phone": "+16504947391",
      "addr_state": "CA",
      "addr_city": "Palo Alto",
      "addr_postcode": "94303",
      "addr_street": "Middlefield Road",
      "addr_housenumber": "3950",
      "value": 307.89760205011265
    },
    {
      "id": 172550,
      "geometry": "POINT (-122.143753 37.427895)",
      "poi_name": "Prot\u00e9g\u00e9",
      "osm_id": 2406392063,
      "amenity": "restaurant",
      "website": "https://www.protegepaloalto.com/",
      "phone": "+1-650-494-4181",
      "addr_city": "Palo Alto",
      "addr_street": "South California Avenue",
      "addr_housenumber": "250",
      "value": 307.89760205011265
    },
    {
      "id": 172583,
      "geometry": "POINT (-122.135599 37.419453)",
      "poi_name": "Cibo Restaurant & Bar",
      "osm_id": 2407257128,
      "amenity": "restaurant",
      "website": "http://www.ciborestaurantpaloalto.com/",
      "phone": "+1 650-494-2426",
      "addr_state": "CA",
      "addr_city": "Palo Alto",
      "addr_postcode": "94306",
      "addr_street": "El Camino Real",
      "addr_housenumber": "3398",
      "value": 307.89760205011265
    },
    {
      "id": 168826,
      "geometry": "POINT (-122.075679 37.378723)",
      "poi_name": "Lucky",
      "osm_id": 2280997765,
      "amenity": "restaurant",
      "cuisine": "chinese",
      "opening_hours": "Mo-Fr 11:00-20:00; Sa,Su 11:30-20:00",
      "addr_street": "Grant Road",
      "addr_housenumber": "1040 #100",
      "value": 307.89760205011265
    },
    {
      "id": 170537,
      "geometry": "POINT (-122.013271 37.366097)",
      "poi_name": "magic wok",
      "osm_id": 2340145645,
      "amenity": "restaurant",
      "value": 307.89760205011265
    },
    {
      "id": 171790,
      "geometry": "POINT (-122.168094 37.443709)",
      "poi_name": "P.F. Chang's",
      "osm_id": 2386604729,
      "amenity": "restaurant",
      "cuisine": "asian",
      "opening_hours": "Mo-Th,Su 11:00-21:00; Fr-Sa 11:00-22:00",
      "phone": "+1 (650) 330-1782",
      "takeaway": "yes",
      "official_name": "P.F. Chang's China Bistro",
      "outdoor_seating": "yes",
      "addr_state": "CA",
      "addr_city": "Palo Alto",
      "addr_postcode": "94304",
      "value": 307.89760205011265
    },
    {
      "id": 173761,
      "geometry": "POINT (-122.04215 37.390106)",
      "poi_name": "Round Table Pizza",
      "osm_id": 2453453619,
      "amenity": "restaurant",
      "cuisine": "pizza",
      "wheelchair": "yes",
      "opening_hours": "Mo-Fr 08:30-20:00; Sa,Su 08:00-15:00; PH off",
      "website": "https://www.thebibimbowl.com/",
      "phone": "+14084819383",
      "addr_city": "Sunnyvale",
      "addr_postcode": "94085",
      "addr_street": "North Mary Avenue",
      "addr_housenumber": "415",
      "value": 307.89760205011265
    },
    {
      "id": 174260,
      "geometry": "POINT (-122.031114 37.376283)",
      "poi_name": "Inchin's Bamboo Garden",
      "osm_id": 2472520689,
      "amenity": "restaurant",
      "opening_hours": "Mo-Th 11:30-14:30,17:00-22:00; Fr 11:30-14:30,17:00-22:30; Sa 12:00-22:00; Su 12:00-21:00",
      "website": "https://www.bamboo-gardens.com/",
      "phone": "+1-408-481-9350",
      "addr_state": "CA",
      "addr_city": "Sunnyvale",
      "addr_postcode": "94087",
      "addr_street": "West Washington Avenue",
      "addr_housenumber": "151",
      "value": 307.89760205011265
    },
    {
      "id": 173726,
      "geometry": "POINT (-122.112224 37.400831)",
      "poi_name": "The Counter",
      "osm_id": 2452349995,
      "amenity": "restaurant",
      "cuisine": "burger",
      "wheelchair": "yes",
      "opening_hours": "Mo-Th 11:00-22:00; Fr, Sa 11:00-23:00; Su 11:30-21:00",
      "addr_state": "CA",
      "addr_city": "Mountain View",
      "addr_postcode": "94040",
      "addr_street": "West El Camino Real",
      "addr_housenumber": "2580",
      "value": 307.89760205011265
    },
    {
      "id": 174261,
      "geometry": "POINT (-122.031225 37.376543)",
      "poi_name": "Rokko",
      "osm_id": 2472520693,
      "amenity": "restaurant",
      "cuisine": "japanese",
      "opening_hours": "Tu-Sa 11:30-13:30,05:30-20:30; Su 17:30-20:30",
      "website": "https://www.rokkorestaurant.com/",
      "phone": "(408) 773-8225",
      "addr_state": "CA",
      "addr_city": "Sunnyvale",
      "addr_postcode": "94086",
      "addr_street": "South Frances Street",
      "addr_housenumber": "190",
      "value": 307.89760205011265
    },
    {
      "id": 174262,
      "geometry": "POINT (-122.031883 37.376446)",
      "poi_name": "Nom Burger",
      "osm_id": 2472520706,
      "amenity": "restaurant",
      "cuisine": "burger",
      "website": "https://nom-burger.com/",
      "addr_city": "Sunnyvale",
      "addr_street": "West Washington Avenue",
      "addr_housenumber": "251",
      "value": 307.89760205011265
    },
    {
      "id": 177029,
      "geometry": "POINT (-121.893577 37.339821)",
      "poi_name": "Teske\u2019s Germania",
      "osm_id": 2572326447,
      "amenity": "restaurant",
      "cuisine": "german",
      "addr_city": "San Jose",
      "addr_postcode": "95110",
      "addr_street": "North 1st Street",
      "addr_housenumber": "255",
      "value": 307.89760205011265
    },
    {
      "id": 175085,
      "geometry": "POINT (-122.074319 37.379576)",
      "poi_name": "New York Pizza Mountain View",
      "osm_id": 2505144210,
      "amenity": "restaurant",
      "cuisine": "pizza",
      "opening_hours": "Mo-Su 10:30-23:00",
      "phone": "+1(650) 210-9700",
      "addr_city": "Mountain View",
      "addr_postcode": "94040",
      "addr_street": "Grant Road",
      "addr_housenumber": "1040 #310",
      "value": 307.89760205011265
    },
    {
      "id": 175813,
      "geometry": "POINT (-122.135459 37.46084)",
      "poi_name": "Wingstop",
      "osm_id": 2542440238,
      "amenity": "restaurant",
      "cuisine": "wings",
      "outdoor_seating": "yes",
      "value": 307.89760205011265
    },
    {
      "id": 175835,
      "geometry": "POINT (-122.015063 37.365466)",
      "poi_name": "Asia Village",
      "osm_id": 2544124399,
      "amenity": "restaurant",
      "cuisine": "chinese",
      "addr_city": "Sunnyvale",
      "addr_postcode": "94086",
      "addr_street": "South Wolfe Road",
      "addr_housenumber": "747",
      "value": 307.89760205011265
    },
    {
      "id": 177651,
      "geometry": "POINT (-122.110126 37.418906)",
      "poi_name": "Mountain Mike's",
      "osm_id": 2600730348,
      "amenity": "restaurant",
      "cuisine": "pizza",
      "takeaway": "yes",
      "addr_city": "Palo Alto",
      "addr_street": "Middlefield Road",
      "addr_housenumber": "3918B",
      "value": 307.89760205011265
    },
    {
      "id": 177719,
      "geometry": "POINT (-121.98465 37.388803)",
      "poi_name": "SmokeEaters",
      "osm_id": 2603733578,
      "amenity": "restaurant",
      "opening_hours": "Mo-Th, Su 11:00-00:00; Fr, Sa 11:00-01:00",
      "website": "https://smoke-eaters.com/",
      "phone": "4089703300",
      "addr_housenumber": "3175",
      "value": 307.89760205011265
    },
    {
      "id": 177721,
      "geometry": "POINT (-121.983616 37.38938)",
      "poi_name": "yo yo sushi",
      "osm_id": 2603733600,
      "amenity": "restaurant",
      "cuisine": "sushi",
      "phone": "4085679899",
      "addr_housenumber": "3147",
      "value": 307.89760205011265
    },
    {
      "id": 177656,
      "geometry": "POINT (-122.072526 37.379122)",
      "poi_name": "The Sandwich Spot",
      "osm_id": 2600782851,
      "amenity": "restaurant",
      "opening_hours": "Mo-Fr 10:00-19:00; Sa 11:00-17:00; Su 11:00-16:00",
      "website": "https://www.thesandwichspot.com/",
      "phone": "+1-650-906-6176",
      "addr_city": "Mountain View",
      "addr_postcode": "94040",
      "addr_street": "East El Camino Real",
      "addr_housenumber": "123",
      "value": 307.89760205011265
    },
    {
      "id": 177746,
      "geometry": "POINT (-122.09529 37.389927)",
      "poi_name": "Bagel Street Cafe",
      "osm_id": 2604121117,
      "amenity": "restaurant",
      "addr_postcode": "94040",
      "addr_street": "North El Monte Avenue",
      "addr_housenumber": "1049",
      "value": 307.89760205011265
    },
    {
      "id": 177853,
      "geometry": "POINT (-121.99526 37.383219)",
      "poi_name": "Chaats and Curry",
      "osm_id": 2607395534,
      "amenity": "restaurant",
      "cuisine": "indian",
      "website": "https://www.chaatsandcurrys.com/chaatsandcurrys.html",
      "phone": "+1-408-746-9192",
      "addr_street": "Lawrence Expressway",
      "addr_housenumber": "520",
      "value": 307.89760205011265
    },
    {
      "id": 177749,
      "geometry": "POINT (-122.094852 37.390928)",
      "poi_name": "Pizza My Heart",
      "osm_id": 2604121125,
      "amenity": "restaurant",
      "cuisine": "pizza",
      "opening_hours": "Mo-Su 11:00-22:00",
      "website": "https://www.pizzamyheart.com/location/pizza-my-heart-mt-view/",
      "phone": "+1 650-938-4200",
      "addr_state": "CA",
      "addr_city": "Mountain View",
      "addr_postcode": "94040",
      "addr_street": "El Monte Avenue",
      "addr_housenumber": "1037",
      "value": 307.89760205011265
    },
    {
      "id": 177754,
      "geometry": "POINT (-121.996919 37.396935)",
      "poi_name": "Giovanni's Pizzeria",
      "osm_id": 2604149614,
      "amenity": "restaurant",
      "addr_street": "Lawrence Expressway",
      "addr_housenumber": "1127",
      "value": 307.89760205011265
    },
    {
      "id": 177755,
      "geometry": "POINT (-121.996935 37.397338)",
      "poi_name": "Homi Japanese Ramen",
      "osm_id": 2604149616,
      "amenity": "restaurant",
      "cuisine": "japanese",
      "addr_street": "Lawrence Expressway",
      "addr_housenumber": "1129",
      "value": 307.89760205011265
    },
    {
      "id": 177756,
      "geometry": "POINT (-121.996927 37.397054)",
      "poi_name": "Ming Tasty",
      "osm_id": 2604149620,
      "amenity": "restaurant",
      "cuisine": "chinese",
      "addr_street": "Lawrence Expressway",
      "addr_housenumber": "1129",
      "value": 307.89760205011265
    },
    {
      "id": 177757,
      "geometry": "POINT (-121.996937 37.397631)",
      "poi_name": "Hunan Mifen Chinese Rice Noodles",
      "osm_id": 2604149622,
      "amenity": "restaurant",
      "cuisine": "chinese",
      "addr_street": "Lawrence Expressway",
      "addr_housenumber": "1149",
      "value": 307.89760205011265
    },
    {
      "id": 177854,
      "geometry": "POINT (-121.995244 37.382699)",
      "poi_name": "Happy Lemon",
      "osm_id": 2607395539,
      "amenity": "restaurant",
      "opening_hours": "Su-Th 11:00-22:00; Fr,Sa 11:00-23:00",
      "addr_street": "Lawrence Expressway",
      "addr_housenumber": "520",
      "value": 307.89760205011265
    },
    {
      "id": 177855,
      "geometry": "POINT (-121.995342 37.381678)",
      "poi_name": "Falafel Bite",
      "osm_id": 2607395540,
      "amenity": "restaurant",
      "cuisine": "mediterranean",
      "opening_hours": "Mo-Su 10:30-22:00",
      "addr_state": "CA",
      "addr_city": "Sunnyvale",
      "addr_postcode": "94086",
      "addr_street": "Lawrence Expressway",
      "addr_housenumber": "500",
      "value": 307.89760205011265
    },
    {
      "id": 177856,
      "geometry": "POINT (-121.995348 37.381887)",
      "poi_name": "Fresh U Order",
      "osm_id": 2607395543,
      "amenity": "restaurant",
      "cuisine": "sandwich",
      "official_name": "Fresh U Order Bakery & Cafe",
      "addr_state": "CA",
      "addr_city": "Santa Clara",
      "addr_postcode": "94085",
      "addr_street": "Lawrence Expressway",
      "addr_housenumber": "500",
      "value": 307.89760205011265
    },
    {
      "id": 177931,
      "geometry": "POINT (-122.149168 37.484467)",
      "poi_name": "Sol",
      "osm_id": 2611183817,
      "amenity": "restaurant",
      "opening_hours": "Mo-Fr 11:00-14:00, 17:00-20:00",
      "value": 307.89760205011265
    },
    {
      "id": 177857,
      "geometry": "POINT (-121.995337 37.381504)",
      "poi_name": "Luv Ph\u1edf",
      "osm_id": 2607395544,
      "amenity": "restaurant",
      "cuisine": "vietnamese;noodle",
      "official_name": "Luv Pho LLC",
      "addr_state": "CA",
      "addr_city": "Sunnyvale",
      "addr_postcode": "95133",
      "addr_street": "Lawrence Expressway",
      "addr_housenumber": "500",
      "value": 307.89760205011265
    },
    {
      "id": 177858,
      "geometry": "POINT (-121.99521 37.384408)",
      "poi_name": "Madhuban Indian Cuisine",
      "osm_id": 2607395547,
      "amenity": "restaurant",
      "cuisine": "indian",
      "website": "http://www.madhubanindiancuisine.net/",
      "phone": "+1-408-735-7448",
      "addr_street": "Lawrence Expressway",
      "addr_housenumber": "544",
      "value": 307.89760205011265
    },
    {
      "id": 177859,
      "geometry": "POINT (-121.995339 37.38158)",
      "poi_name": "Pad Thai Cusine",
      "osm_id": 2607395549,
      "amenity": "restaurant",
      "cuisine": "thai",
      "opening_hours": "Mo-Sa 11:00-21:00",
      "official_name": "Pad Thai Cuisine Incorporated",
      "addr_state": "CA",
      "addr_city": "Sunnyvale",
      "addr_postcode": "94085",
      "addr_street": "Lawrence Expressway",
      "addr_housenumber": "500",
      "value": 307.89760205011265
    },
    {
      "id": 177861,
      "geometry": "POINT (-122.004613 37.389021)",
      "poi_name": "Clarita's Filipino Cusine",
      "osm_id": 2607498429,
      "amenity": "restaurant",
      "addr_street": "East Duane Avenue",
      "addr_housenumber": "905B",
      "value": 307.89760205011265
    },
    {
      "id": 177862,
      "geometry": "POINT (-122.004369 37.389114)",
      "poi_name": "Obed",
      "osm_id": 2607498431,
      "amenity": "restaurant",
      "cuisine": "mediterranean",
      "addr_street": "East Duane Avenue",
      "addr_housenumber": "911A",
      "value": 307.89760205011265
    },
    {
      "id": 182120,
      "geometry": "POINT (-122.033116 37.374433)",
      "poi_name": "Pacific Catch",
      "osm_id": 10877059642,
      "amenity": "restaurant",
      "cuisine": "american",
      "value": 307.89760205011265
    },
    {
      "id": 179981,
      "geometry": "POINT (-122.158749 37.438233)",
      "poi_name": "Wild Seed",
      "osm_id": 10784942721,
      "amenity": "restaurant",
      "opening_hours": "Mo-Th 11:30-21:00; Fr 11:30-22:00; Sa 11:00-22:00; Su 11:00-21:00",
      "website": "https://www.wildseedsf.com/palo-alto-home/",
      "addr_state": "CA",
      "addr_city": "Palo Alto",
      "addr_street": "El Camino Real",
      "addr_housenumber": "855",
      "value": 307.89760205011265
    },
    {
      "id": 182121,
      "geometry": "POINT (-122.033988 37.374664)",
      "poi_name": "Urban Plates",
      "osm_id": 10877059644,
      "amenity": "restaurant",
      "cuisine": "american",
      "value": 307.89760205011265
    },
    {
      "id": 189928,
      "geometry": "POINT (-122.156926 37.465523)",
      "poi_name": "Tony's Pizza",
      "osm_id": 1256999040,
      "amenity": "restaurant",
      "cuisine": "pizza",
      "opening_hours": "Mo-Su 10:00-22:00",
      "phone": "6508530860",
      "addr_street": "Willow Road",
      "addr_housenumber": "820",
      "value": 307.89760205011265
    },
    {
      "id": 189683,
      "geometry": "POINT (-122.0981 37.404096)",
      "poi_name": "Dumpling Garden",
      "osm_id": 1242843999,
      "amenity": "restaurant",
      "cuisine": "chinese",
      "opening_hours": "Mo-Fr 11:00-14:30,17:00-21:00; Sa-Su 11:00-15:00,17:00-21:00",
      "website": "https://www.dumplinggarden.com/",
      "phone": "+1-650-967-7334",
      "addr_city": "Mountain View",
      "addr_postcode": "94043",
      "addr_street": "North Rengstorff Avenue",
      "addr_housenumber": "108",
      "value": 307.89760205011265
    },
    {
      "id": 189929,
      "geometry": "POINT (-122.156869 37.465696)",
      "poi_name": "Dosa Point",
      "osm_id": 1257001108,
      "amenity": "restaurant",
      "cuisine": "indian",
      "opening_hours": "We-Mo 11:00-14:30,17:00-21:00; Tu off",
      "website": "https://www.dosapoint.co/",
      "addr_street": "Willow Road",
      "addr_housenumber": "840",
      "value": 307.89760205011265
    },
    {
      "id": 190675,
      "geometry": "POINT (-122.079593 37.393244)",
      "poi_name": "Zhangliang Malatang",
      "osm_id": 1311379483,
      "amenity": "restaurant",
      "cuisine": "chinese",
      "addr_state": "CA",
      "addr_city": "Mountain View",
      "addr_street": "Castro Street",
      "addr_housenumber": "246",
      "value": 307.89760205011265
    },
    {
      "id": 190597,
      "geometry": "POINT (-122.080942 37.391188)",
      "poi_name": "Cascal",
      "osm_id": 1306272796,
      "amenity": "restaurant",
      "cuisine": "spanish",
      "opening_hours": "Mo-Th 11:30-21:30, 09:00-18:00; Fr, Sa 11:30-23:00; Su 11:30-21:30",
      "website": "https://www.cascalrestaurant.com/",
      "addr_street": "Castro Street",
      "addr_housenumber": "400",
      "value": 307.89760205011265
    },
    {
      "id": 190599,
      "geometry": "POINT (-122.078626 37.394822)",
      "poi_name": "Afuri",
      "osm_id": 1306274949,
      "amenity": "restaurant",
      "cuisine": "ramen",
      "description": "\"ramen + dumplings\"",
      "wheelchair": "yes",
      "opening_hours": "Mo,We,Th 11:30-14:30,17:00-20:30; Fr 11:30-14:30,17:00-21:00; Sa 11:30-21:00; Su 11:30-20:30",
      "addr_state": "CA",
      "addr_city": "Mountain View",
      "addr_street": "Castro Street",
      "addr_housenumber": "124",
      "value": 307.89760205011265
    },
    {
      "id": 190726,
      "geometry": "POINT (-122.046676 37.378464)",
      "poi_name": "Old Town Shanghai",
      "osm_id": 1313317876,
      "amenity": "restaurant",
      "cuisine": "chinese",
      "opening_hours": "We-Mo 11:00-14:30,17:00-21:00",
      "addr_state": "CA",
      "addr_city": "Sunnyvale",
      "addr_postcode": "94086",
      "addr_street": "South Mary Avenue",
      "addr_housenumber": "251",
      "value": 307.89760205011265
    },
    {
      "id": 190886,
      "geometry": "POINT (-122.096825 37.394138)",
      "poi_name": "Napoletana Pizzeria",
      "osm_id": 1322647963,
      "amenity": "restaurant",
      "cuisine": "pizza",
      "opening_hours": "Mo-Th 17:00-21:00, Fr,Sa 11:00-14:00,17:00-22:00, Su 11:00-14:00,17:00-21:00",
      "addr_street": "West El Camino Real",
      "addr_housenumber": "1910C",
      "value": 307.89760205011265
    },
    {
      "id": 190730,
      "geometry": "POINT (-122.098072 37.393404)",
      "poi_name": "Gochi Japanese Tapas",
      "osm_id": 1313566127,
      "amenity": "restaurant",
      "cuisine": "japanese",
      "website": "https://www.gochifusiontapas.com/mountain-view-gochi-fusion-tapas/",
      "addr_state": "CA",
      "addr_city": "Mountain View",
      "addr_postcode": "94040",
      "addr_street": "West El Camino Real",
      "addr_housenumber": "1943",
      "value": 307.89760205011265
    },
    {
      "id": 190844,
      "geometry": "POINT (-121.995101 37.384895)",
      "poi_name": "Merit Vegetarian Cuisine",
      "osm_id": 1319639566,
      "amenity": "restaurant",
      "cuisine": "asian",
      "opening_hours": "PH off; Mo-Su 11:30-15:00,04:30-20:00",
      "website": "https://www.meritvegetarian.com/",
      "phone": "+1-408-245-8988",
      "addr_city": "Sunnyvale",
      "addr_postcode": "94085",
      "addr_street": "Lawrence Expressway",
      "addr_housenumber": "548",
      "value": 307.89760205011265
    },
    {
      "id": 191095,
      "geometry": "POINT (-122.156801 37.465776)",
      "poi_name": "My Tasties",
      "osm_id": 1339130094,
      "amenity": "restaurant",
      "cuisine": "sushi",
      "addr_street": "Willow Road",
      "addr_housenumber": "888",
      "value": 307.89760205011265
    },
    {
      "id": 191011,
      "geometry": "POINT (-122.078696 37.394686)",
      "poi_name": "3 Kingdoms",
      "osm_id": 1330277742,
      "amenity": "restaurant",
      "cuisine": "chinese;hotpot",
      "addr_state": "CA",
      "addr_city": "Mountain View",
      "addr_street": "Castro Street",
      "addr_housenumber": "134",
      "value": 307.89760205011265
    },
    {
      "id": 191285,
      "geometry": "POINT (-122.1824 37.452399)",
      "poi_name": "Cafe Del Sol",
      "osm_id": 1353171045,
      "amenity": "restaurant",
      "cuisine": "mexican",
      "addr_state": "CA",
      "addr_city": "Menlo Park",
      "addr_postcode": "94025",
      "addr_street": "Doyle Street",
      "addr_housenumber": "1010",
      "value": 307.89760205011265
    },
    {
      "id": 191244,
      "geometry": "POINT (-122.144569 37.426387)",
      "poi_name": "Joanie's Cafe",
      "osm_id": 1350903567,
      "amenity": "restaurant",
      "cuisine": "french",
      "opening_hours": "08:00-14:00",
      "website": "http://www.joaniescafepaloalto.com/",
      "phone": "+16503266505",
      "addr_city": "Palo Alto",
      "addr_postcode": "94306",
      "addr_street": "South California Avenue",
      "addr_housenumber": "405",
      "value": 307.89760205011265
    },
    {
      "id": 191250,
      "geometry": "POINT (-122.145389 37.425417)",
      "poi_name": "Izzy's Brooklyn Bagels",
      "osm_id": 1350930646,
      "amenity": "restaurant",
      "cuisine": "bagel",
      "website": "https://www.izzysbrooklynbagels.com/",
      "phone": "(650)329-0700",
      "addr_city": "Palo Alto",
      "addr_postcode": "94306",
      "addr_street": "South California Avenue",
      "addr_housenumber": "477",
      "value": 307.89760205011265
    },
    {
      "id": 191476,
      "geometry": "POINT (-122.025852 37.388506)",
      "poi_name": "Seto",
      "osm_id": 1370410484,
      "amenity": "restaurant",
      "cuisine": "japanese",
      "addr_street": "Borregas Avenue",
      "addr_housenumber": "511",
      "value": 307.89760205011265
    },
    {
      "id": 191275,
      "geometry": "POINT (-122.140777 37.426553)",
      "poi_name": "Cafe Riace",
      "osm_id": 1351857207,
      "amenity": "restaurant",
      "cuisine": "italian",
      "addr_street": "Sheridan Avenue",
      "addr_housenumber": "200",
      "value": 307.89760205011265
    },
    {
      "id": 191718,
      "geometry": "POINT (-122.093218 37.414126)",
      "poi_name": "Dosa Paratha Indian Cuisine",
      "osm_id": 1388187050,
      "amenity": "restaurant",
      "cuisine": "indian",
      "opening_hours": "Mo-Su 10:00-16:00",
      "website": "https://dosa-paratha-indian-cuisine.business.site",
      "phone": "+1-650-965-1888",
      "takeaway": "yes",
      "outdoor_seating": "no",
      "value": 307.89760205011265
    },
    {
      "id": 193354,
      "geometry": "POINT (-122.036589 37.406636)",
      "poi_name": "Le Boulanger",
      "osm_id": 1526054121,
      "amenity": "restaurant",
      "value": 307.89760205011265
    },
    {
      "id": 192243,
      "geometry": "POINT (-122.172315 37.447977)",
      "poi_name": "Menlo Grill Bistro and Bar",
      "osm_id": 1429136773,
      "amenity": "restaurant",
      "addr_street": "El Camino Real",
      "addr_housenumber": "100",
      "value": 307.89760205011265
    },
    {
      "id": 192399,
      "geometry": "POINT (-122.107824 37.397288)",
      "poi_name": "Amber India",
      "osm_id": 1440032358,
      "amenity": "restaurant",
      "cuisine": "indian",
      "addr_state": "CA",
      "addr_city": "Los Altos",
      "addr_postcode": "94022",
      "addr_street": "West El Camino Real",
      "addr_housenumber": "4926",
      "value": 307.89760205011265
    },
    {
      "id": 192279,
      "geometry": "POINT (-122.144561 37.427859)",
      "poi_name": "Naschmarkt",
      "osm_id": 1432253334,
      "amenity": "restaurant",
      "cuisine": "austrian",
      "opening_hours": "Tu-We 17:00-21:00; Th 11:30-14:00, 17:00-21:00; Fr-Sa 11:30-14:00, 17:00-21:30; Su 11:30-14:00, 17:00-21:00",
      "website": "https://naschmarktrestaurants.com/palo-alto-venu/",
      "phone": "+1 650 561 3202",
      "addr_city": "Palo Alto",
      "addr_postcode": "94306",
      "addr_street": "Birch Street",
      "addr_housenumber": "2323",
      "value": 307.89760205011265
    },
    {
      "id": 192280,
      "geometry": "POINT (-122.148082 37.427026)",
      "poi_name": "Odori Sushi",
      "osm_id": 1432280515,
      "amenity": "restaurant",
      "cuisine": "japanese",
      "opening_hours": "Tu-Sa 11:00-14:30,17:00-21:30; Su 16:30-21:30",
      "addr_city": "Palo Alto",
      "addr_street": "El Camino Real",
      "addr_housenumber": "2111",
      "value": 307.89760205011265
    },
    {
      "id": 193940,
      "geometry": "POINT (-122.052423 37.373356)",
      "poi_name": "AppaKadai",
      "osm_id": 1572294519,
      "amenity": "restaurant",
      "cuisine": "indian",
      "opening_hours": "Mo-Th 11:30-14:30,18:00-22:00; Fr 11:30-14:30, Fr,Sa 18:00-22:30; Sa,Su 11:30-14:30, Su 18:00-21:30",
      "value": 307.89760205011265
    },
    {
      "id": 193439,
      "geometry": "POINT (-122.078674 37.393968)",
      "poi_name": "Ephesus",
      "osm_id": 1538487239,
      "amenity": "restaurant",
      "cuisine": "mediterranean",
      "opening_hours": "Mo-Sa 11:00-22:00; Su 11:00-21:00",
      "website": "https://ephesusrestaurant.net/",
      "phone": "+1 (650) 625-8155",
      "addr_street": "Castro Street",
      "addr_housenumber": "185",
      "value": 307.89760205011265
    },
    {
      "id": 193942,
      "geometry": "POINT (-122.053623 37.373926)",
      "poi_name": "The Old Siam",
      "osm_id": 1572294525,
      "amenity": "restaurant",
      "cuisine": "thai",
      "opening_hours": "Mo, We-Fr 11:00-20:30; Sa-Su 12:00-20:30",
      "website": "https://theoldsiam.net",
      "phone": "+1-408-530-8552",
      "addr_state": "CA",
      "addr_city": "Sunnyvale",
      "addr_postcode": "94087",
      "addr_street": "West El Camino Real",
      "addr_housenumber": "1111",
      "value": 307.89760205011265
    },
    {
      "id": 193943,
      "geometry": "POINT (-122.055206 37.374341)",
      "poi_name": "Ph\u1edf Quy\u1ec1n 2 Noodle House",
      "osm_id": 1572297516,
      "amenity": "restaurant",
      "cuisine": "vietnamese",
      "opening_hours": "Mo-Sa 10:00-22:00; Su 10:00-21:00",
      "addr_state": "CA",
      "addr_city": "Sunnyvale",
      "addr_postcode": "94087",
      "addr_street": "West El Camino Real",
      "addr_housenumber": "1185",
      "value": 307.89760205011265
    },
    {
      "id": 199920,
      "geometry": "POINT (-122.144448 37.427102)",
      "poi_name": "Anatolian Kitchen",
      "osm_id": 995558474,
      "amenity": "restaurant",
      "cuisine": "asian",
      "addr_city": "Palo Alto",
      "addr_postcode": "94306",
      "addr_street": "South California Avenue",
      "addr_housenumber": "340",
      "value": 307.89760205011265
    },
    {
      "id": 194044,
      "geometry": "POINT (-122.080399 37.391048)",
      "poi_name": "Scratch",
      "osm_id": 1578531275,
      "amenity": "restaurant",
      "cuisine": "american",
      "opening_hours": "Mo-Th 16:00-21:30; Fr 16:00-22:00; Sa 10:00-15:00, 16:00-22:00; Su 10:00-15:00, 16:00-21:00",
      "internet_access": "no",
      "outdoor_seating": "yes",
      "value": 307.89760205011265
    },
    {
      "id": 197749,
      "geometry": "POINT (-121.961528 37.3769)",
      "poi_name": "Puranpoli",
      "osm_id": 10672719932,
      "amenity": "restaurant",
      "cuisine": "indian",
      "description": "Indian vegetarian restaurant specializing in authentic Maharashtrian cuisine.",
      "opening_hours": "We-Th 11:00-21:00; Fr-Sa 11:00 - 22:00; Su 11:00-21:00",
      "website": "https://puranpoli.net/",
      "phone": "+1 408-404-5439",
      "addr_state": "CA",
      "addr_city": "Santa Clara",
      "addr_postcode": "95054",
      "addr_street": "Scott Boulevard",
      "addr_housenumber": "3074",
      "value": 307.89760205011265
    },
    {
      "id": 197751,
      "geometry": "POINT (-121.959427 37.376886)",
      "poi_name": "Kabab & Curry",
      "osm_id": 10672892452,
      "amenity": "restaurant",
      "cuisine": "indian",
      "website": "https://www.kababandcurrys.com/",
      "addr_state": "CA",
      "addr_city": "Santa Clara",
      "addr_postcode": "95054",
      "addr_street": "Scott Boulevard",
      "addr_housenumber": "3003",
      "value": 307.89760205011265
    },
    {
      "id": 197863,
      "geometry": "POINT (-121.945572 37.394561)",
      "poi_name": "Easterly Hunan Cuisine",
      "osm_id": 10679458657,
      "amenity": "restaurant",
      "cuisine": "asian;chinese",
      "wheelchair": "yes",
      "toilets": "yes",
      "addr_state": "CA",
      "addr_city": "Santa Clara",
      "addr_postcode": "95054",
      "addr_street": "Rivermark Plaza",
      "addr_housenumber": "3927",
      "value": 307.89760205011265
    },
    {
      "id": 194006,
      "geometry": "POINT (-122.089018 37.387868)",
      "poi_name": "Garden Fresh",
      "osm_id": 1576214409,
      "amenity": "restaurant",
      "cuisine": "chinese",
      "wheelchair": "yes",
      "opening_hours": "Tu-Su 11:30-14:30,16:30-21:30",
      "website": "http://www.gardenfresh.us/",
      "phone": "+1 650 2541688",
      "takeaway": "yes",
      "outdoor_seating": "no",
      "addr_street": "West El Camino Real",
      "addr_housenumber": "1245",
      "value": 307.89760205011265
    },
    {
      "id": 194042,
      "geometry": "POINT (-122.079645 37.393131)",
      "poi_name": "Bonchon Chicken",
      "osm_id": 1578531186,
      "amenity": "restaurant",
      "cuisine": "chicken;korean",
      "opening_hours": "Mo 11:30-14:30, 17:00-21:00; We, Th 11:30-14:30, 17:00-22:00; Fr, Sa 11:30-22:30; Su 11:30-21:00",
      "website": "https://bonchon.com/korean-fried-chicken-mountain-view-ca/",
      "addr_state": "CA",
      "addr_city": "Mountain View",
      "addr_street": "Castro Street",
      "addr_housenumber": "260",
      "value": 307.89760205011265
    },
    {
      "id": 194043,
      "geometry": "POINT (-122.080085 37.391688)",
      "poi_name": "Sakoon",
      "osm_id": 1578531270,
      "amenity": "restaurant",
      "cuisine": "indian",
      "addr_street": "Castro Street",
      "addr_housenumber": "357",
      "value": 307.89760205011265
    },
    {
      "id": 198359,
      "geometry": "POINT (-122.183927 37.455178)",
      "poi_name": "Canteen Wine & Spirts",
      "osm_id": 10700227527,
      "amenity": "restaurant",
      "opening_hours": "Mo-Su 17:00-21:00",
      "website": "https://www.canteen.studio/wine-bar",
      "phone": "+16505500081",
      "addr_state": "CA",
      "addr_city": "Menlo Park",
      "addr_postcode": "94025",
      "addr_street": "Oak Grove Avenue",
      "addr_housenumber": "550",
      "value": 307.89760205011265
    },
    {
      "id": 199741,
      "geometry": "POINT (-121.995313 37.383366)",
      "poi_name": "Tasty Subs",
      "osm_id": 988280236,
      "amenity": "restaurant",
      "cuisine": "sandwich",
      "website": "https://tastysubspizza.com/",
      "phone": "+1-408-738-8761",
      "addr_street": "Lawrence Expressway",
      "addr_housenumber": "528",
      "value": 307.89760205011265
    },
    {
      "id": 199742,
      "geometry": "POINT (-121.995378 37.382474)",
      "poi_name": "Saint John\u2019s Bar & Grill",
      "osm_id": 988281448,
      "amenity": "restaurant",
      "cuisine": "burger",
      "opening_hours": "Su,Mo off; Tu-Th 11:00-21:00; Fr 11:00-22:00; Sa 11:30-21:00",
      "website": "https://stjohnsgrill.com/",
      "phone": "+1 408 7388515",
      "takeaway": "yes",
      "outdoor_seating": "yes",
      "wikidata": "Q64166165",
      "addr_street": "Lawrence Expressway",
      "addr_housenumber": "510",
      "value": 307.89760205011265
    },
    {
      "id": 200328,
      "geometry": "POINT (-121.935813 37.356535)",
      "poi_name": "Lettuce Sandwich Shop",
      "osm_id": 1033921445,
      "amenity": "restaurant",
      "cuisine": "sandwich",
      "phone": "+1-408-844-9400",
      "value": 307.89760205011265
    },
    {
      "id": 201069,
      "geometry": "POINT (-122.114565 37.401286)",
      "poi_name": "Ph\u1edf V\u1ec9 Hoa",
      "osm_id": 610769982,
      "amenity": "restaurant",
      "cuisine": "vietnamese",
      "opening_hours": "Mo-Su 10:00-22:00",
      "website": "http://www.phovihoa.com/",
      "phone": "+1-650-947-1290",
      "outdoor_seating": "no",
      "addr_state": "CA",
      "addr_city": "Los Altos",
      "addr_postcode": "94022",
      "addr_street": "West El Camino Real",
      "addr_housenumber": "4546",
      "value": 307.89760205011265
    },
    {
      "id": 200438,
      "geometry": "POINT (-122.144313 37.42775)",
      "poi_name": "Bistro Elan",
      "osm_id": 586085481,
      "amenity": "restaurant",
      "cuisine": "french",
      "website": "https://www.bistroelan.com/",
      "phone": "+16503270284",
      "value": 307.89760205011265
    },
    {
      "id": 209042,
      "geometry": "POINT (-121.904998 37.356078)",
      "poi_name": "Danbi Korean Restaurant",
      "osm_id": 5020538569,
      "amenity": "restaurant",
      "cuisine": "korean",
      "operator": "Danbi Family, Incorporated",
      "addr_city": "San Jose",
      "addr_postcode": "95112",
      "addr_street": "North 1st Street",
      "addr_housenumber": "1092",
      "value": 307.89760205011265
    },
    {
      "id": 202529,
      "geometry": "POINT (-122.092369 37.414686)",
      "poi_name": "Tacomania",
      "osm_id": 7034726047,
      "amenity": "restaurant",
      "cuisine": "mexican",
      "opening_hours": "Mo-Th 11:00-21:00; Fr,Sa 11:00-22:00; Su 11:00-17:00",
      "website": "https://tacomaniainc.com/",
      "phone": "+1-650-242-0222",
      "takeaway": "yes",
      "outdoor_seating": "yes",
      "delivery": "yes",
      "addr_street": "Old Middlefield Way",
      "addr_housenumber": "2070",
      "value": 307.89760205011265
    },
    {
      "id": 201040,
      "geometry": "POINT (-122.054947 37.374283)",
      "poi_name": "Madras Caf\u00e9",
      "osm_id": 608516963,
      "amenity": "restaurant",
      "cuisine": "indian",
      "wheelchair": "limited",
      "opening_hours": "Tu-Fr 08:30-14:30,17:30-22:00; Sa-Su 08:30-22:00",
      "website": "http://www.madrascafe.us",
      "phone": "+1 408-737-2323",
      "addr_state": "CA",
      "addr_city": "Sunnyvale",
      "addr_postcode": "94087",
      "addr_street": "West El Camino Real",
      "addr_housenumber": "1177",
      "value": 307.89760205011265
    },
    {
      "id": 203148,
      "geometry": "POINT (-122.18748 37.456185)",
      "poi_name": "Oak + Violet",
      "osm_id": 7065316694,
      "amenity": "restaurant",
      "website": "https://www.parkjames.com/oak-and-violet",
      "phone": "+1 650 304 3880",
      "value": 307.89760205011265
    },
    {
      "id": 204034,
      "geometry": "POINT (-122.039834 37.4199)",
      "poi_name": "The Hanger Four Grill and Brew",
      "osm_id": 7111086800,
      "amenity": "restaurant",
      "opening_hours": "Mo-Su 08:00-18:00",
      "website": "https://www.moffettgolf.com/golf/proto/moffettgolf/hanger-four-grill-and-brew/hanger-four-grill-and-brew.htm",
      "phone": "1-650-386-0720",
      "addr_state": "CA",
      "addr_city": "Mountain View",
      "addr_postcode": "94043",
      "addr_street": "Macon Road",
      "addr_housenumber": "934",
      "value": 307.89760205011265
    },
    {
      "id": 207176,
      "geometry": "POINT (-122.029948 37.39488)",
      "poi_name": "Kitchen at Peery Park",
      "osm_id": 7240979208,
      "amenity": "restaurant",
      "cuisine": "american",
      "addr_state": "CA",
      "addr_city": "Sunnyvale",
      "addr_postcode": "94085",
      "addr_street": "North Mathilda Avenue",
      "addr_housenumber": "767",
      "value": 307.89760205011265
    },
    {
      "id": 209043,
      "geometry": "POINT (-121.904848 37.355892)",
      "poi_name": "Karimi Restaurant",
      "osm_id": 5020538571,
      "amenity": "restaurant",
      "cuisine": "indian;pakistani",
      "phone": "+1-408-477-2914",
      "addr_city": "San Jose",
      "addr_postcode": "95112",
      "addr_street": "North 1st Street",
      "addr_housenumber": "1086",
      "value": 307.89760205011265
    },
    {
      "id": 209303,
      "geometry": "POINT (-122.096921 37.394174)",
      "poi_name": "Caspian Grill Restaurant",
      "osm_id": 5031457746,
      "amenity": "restaurant",
      "cuisine": "kebab;middle_eastern;mediterranean",
      "opening_hours": "Mo-Sa 11:00-20:00; Su 11:00-14:00",
      "website": "https://caspiangrillrestaurant.com/",
      "phone": "+1-650-967-7752",
      "outdoor_seating": "yes",
      "addr_state": "CA",
      "addr_city": "Mountain View",
      "addr_postcode": "94040",
      "addr_street": "West El Camino Real",
      "addr_housenumber": "1910",
      "value": 307.89760205011265
    },
    {
      "id": 210367,
      "geometry": "POINT (-121.978136 37.409546)",
      "poi_name": "Golkonda Indian Cuisine",
      "osm_id": 5099705289,
      "amenity": "restaurant",
      "cuisine": "indian",
      "outdoor_seating": "no",
      "addr_state": "CA",
      "addr_city": "Santa Clara",
      "addr_postcode": "95054",
      "addr_street": "Great America Parkway",
      "addr_housenumber": "5350",
      "value": 307.89760205011265
    },
    {
      "id": 209864,
      "geometry": "POINT (-122.030296 37.37688)",
      "poi_name": "Metro City Restaurant & Bar",
      "osm_id": 5062796121,
      "amenity": "restaurant",
      "opening_hours": "Mo-Su 08:00-21:00",
      "website": "https://www.metrocitysunnyvale.com",
      "addr_state": "CA",
      "addr_city": "Sunnyvale",
      "addr_postcode": "94086",
      "addr_street": "South Murphy Avenue",
      "addr_housenumber": "151",
      "value": 307.89760205011265
    },
    {
      "id": 210368,
      "geometry": "POINT (-121.978115 37.40946)",
      "poi_name": "Joe Chinese Fast Food",
      "osm_id": 5099705290,
      "amenity": "restaurant",
      "cuisine": "chinese",
      "phone": "+1-408-855-3977",
      "outdoor_seating": "no",
      "addr_state": "CA",
      "addr_city": "Santa Clara",
      "addr_postcode": "95054",
      "addr_street": "Great America Parkway",
      "addr_housenumber": "5350",
      "value": 307.89760205011265
    },
    {
      "id": 210679,
      "geometry": "POINT (-122.152075 37.48115)",
      "poi_name": "Fromage",
      "osm_id": 5113881826,
      "amenity": "restaurant",
      "cuisine": "grilled_cheese;soup;sandwich",
      "description": "On the roof of Facebook Building 20",
      "opening_hours": "Mo-Fr 11:45-14:00",
      "takeaway": "yes",
      "addr_state": "CA",
      "addr_city": "Menlo Park",
      "addr_postcode": "94025",
      "addr_street": "Facebook Way",
      "addr_housenumber": "1",
      "value": 307.89760205011265
    },
    {
      "id": 210680,
      "geometry": "POINT (-122.154562 37.480746)",
      "poi_name": "Straw",
      "osm_id": 5113884524,
      "amenity": "restaurant",
      "cuisine": "juice",
      "description": "Roof of Facebook Building 20",
      "takeaway": "yes",
      "outdoor_seating": "yes",
      "addr_state": "CA",
      "addr_city": "Menlo Park",
      "addr_postcode": "94025",
      "addr_street": "Facebook Way",
      "addr_housenumber": "1",
      "value": 307.89760205011265
    },
    {
      "id": 210875,
      "geometry": "POINT (-122.074975 37.399628)",
      "poi_name": "Chef Zhao Bistro",
      "osm_id": 5125561609,
      "amenity": "restaurant",
      "cuisine": "chinese",
      "outdoor_seating": "no",
      "addr_state": "CA",
      "addr_city": "Mountain View",
      "addr_postcode": "94043",
      "addr_street": "Moffett Boulevard",
      "addr_housenumber": "400",
      "value": 307.89760205011265
    },
    {
      "id": 210903,
      "geometry": "POINT (-122.075319 37.398072)",
      "poi_name": "Taqueria Tres Hermanos",
      "osm_id": 5127223599,
      "amenity": "restaurant",
      "cuisine": "mexican",
      "wheelchair": "yes",
      "addr_street": "Moffett Boulevard",
      "addr_housenumber": "327D",
      "value": 307.89760205011265
    },
    {
      "id": 210904,
      "geometry": "POINT (-122.07606 37.397758)",
      "poi_name": "Shana Thai",
      "osm_id": 5127223604,
      "amenity": "restaurant",
      "cuisine": "thai",
      "wheelchair": "yes",
      "opening_hours": "Mo-Su 11:00-15:00,17:00-22:00",
      "website": "https://www.shanathai.com/",
      "phone": "+1-650-940-9990",
      "addr_street": "Moffett Boulevard",
      "addr_housenumber": "311A",
      "value": 307.89760205011265
    },
    {
      "id": 214426,
      "geometry": "POINT (-122.042018 37.390163)",
      "poi_name": "Round Table Pizza",
      "osm_id": 5272491139,
      "amenity": "restaurant",
      "cuisine": "pizza",
      "opening_hours": "Mo-Fr 08:30-20:00; Sa,Su 08:00-15:00; PH off",
      "value": 307.89760205011265
    },
    {
      "id": 211855,
      "geometry": "POINT (-122.182395 37.45309)",
      "poi_name": "Yum Cha Palace",
      "osm_id": 5177104926,
      "amenity": "restaurant",
      "cuisine": "chinese",
      "opening_hours": "Mo-Th 11:00-14:30, 17:00-21:00; Fr 11:00-14:30, 17:00-22:00; Sa-Su 11:00-15:00, 17:00-22:00",
      "website": "https://www.yumchamenlopark.com/",
      "addr_city": "Menlo Park",
      "addr_postcode": "94025",
      "addr_street": "El Camino Real",
      "addr_housenumber": "1039",
      "value": 307.89760205011265
    },
    {
      "id": 212753,
      "geometry": "POINT (-121.940519 37.402637)",
      "poi_name": "A2B Indian Vegetarian Restaurant",
      "osm_id": 5219196322,
      "amenity": "restaurant",
      "cuisine": "indian",
      "operator": "Tahra Spices LLC",
      "addr_state": "CA",
      "addr_city": "San Jose",
      "addr_postcode": "95134",
      "addr_street": "River Oaks Place",
      "addr_housenumber": "55",
      "value": 307.89760205011265
    },
    {
      "id": 212922,
      "geometry": "POINT (-122.134746 37.471168)",
      "poi_name": "Taqueria La Cazuela",
      "osm_id": 5225687621,
      "amenity": "restaurant",
      "cuisine": "mexican",
      "addr_street": "Clarke Avenue",
      "value": 307.89760205011265
    },
    {
      "id": 219243,
      "geometry": "POINT (-121.994751 37.367613)",
      "poi_name": "The Yellow Chilli by Sanjeev Kapoor",
      "osm_id": 9319663608,
      "amenity": "restaurant",
      "cuisine": "indian",
      "addr_state": "CA",
      "addr_city": "Santa Clara",
      "addr_postcode": "95051",
      "addr_street": "Monroe Street",
      "addr_housenumber": "3555",
      "value": 307.89760205011265
    },
    {
      "id": 215835,
      "geometry": "POINT (-121.945923 37.410865)",
      "poi_name": "Sri's Kitchen",
      "osm_id": 5314269456,
      "amenity": "restaurant",
      "cuisine": "indian",
      "addr_city": "San Jose",
      "addr_postcode": "95134",
      "addr_street": "North 1st Street",
      "addr_housenumber": "3730",
      "value": 307.89760205011265
    },
    {
      "id": 218946,
      "geometry": "POINT (-121.912294 37.349574)",
      "poi_name": "Poorboy's Kitchen",
      "osm_id": 9309905889,
      "amenity": "restaurant",
      "cuisine": "seafood;sandwich",
      "website": "https://poorboys-kitchen.square.site/",
      "takeaway": "only",
      "addr_state": "CA",
      "addr_city": "San Jose",
      "addr_postcode": "95110",
      "addr_street": "Ruff Drive",
      "addr_housenumber": "949",
      "value": 307.89760205011265
    },
    {
      "id": 215037,
      "geometry": "POINT (-122.03365 37.538515)",
      "poi_name": "Jade Palace Restaurant",
      "osm_id": 5285211011,
      "amenity": "restaurant",
      "cuisine": "chinese",
      "opening_hours": "Mo,We,Th 11:30-21:00; Fr-Sa 11:30-22:00; Su 13:00-21:00",
      "phone": "510-792-5456",
      "takeaway": "yes",
      "outdoor_seating": "no",
      "delivery": "yes",
      "addr_state": "CA",
      "addr_city": "Newark",
      "addr_postcode": "94560",
      "addr_street": "Newark Boulevard",
      "addr_housenumber": "36601",
      "value": 307.89760205011265
    },
    {
      "id": 222672,
      "geometry": "POINT (-122.080598 37.391506)",
      "poi_name": "Lim\u00f3n",
      "osm_id": 11030582305,
      "amenity": "restaurant",
      "value": 307.89760205011265
    },
    {
      "id": 222045,
      "geometry": "POINT (-122.048142 37.552432)",
      "poi_name": "My No. 1 BBQ And Tofu",
      "osm_id": 11002786077,
      "amenity": "restaurant",
      "cuisine": "asian",
      "addr_state": "CA",
      "addr_city": "Newark",
      "addr_postcode": "94560",
      "addr_street": "Jarvis Avenue",
      "addr_housenumber": "5829",
      "value": 307.89760205011265
    },
    {
      "id": 220121,
      "geometry": "POINT (-121.97389 37.38817)",
      "poi_name": "Aramark @ Mission Kitchen and Coffee",
      "osm_id": 9359729788,
      "amenity": "restaurant",
      "addr_state": "CA",
      "addr_city": "Santa Clara",
      "addr_postcode": "95054",
      "addr_street": "Freedom Circle",
      "addr_housenumber": "3979",
      "value": 307.89760205011265
    },
    {
      "id": 220123,
      "geometry": "POINT (-122.168313 37.423436)",
      "poi_name": "COLLEGE RESTAURANTS INC",
      "osm_id": 9359811238,
      "amenity": "restaurant",
      "addr_state": "CA",
      "addr_city": "Stanford",
      "addr_postcode": "94305",
      "addr_street": "Lagunita Drive",
      "addr_housenumber": "459",
      "value": 307.89760205011265
    },
    {
      "id": 221103,
      "geometry": "POINT (-122.049276 37.548728)",
      "poi_name": "Himalayan Chef Kitchen",
      "osm_id": 10967902127,
      "amenity": "restaurant",
      "cuisine": "asian",
      "description": "Nepalese Indo-Chinese cuisine",
      "website": "https://himalayanchefkitchen.com/",
      "phone": "+15103582165",
      "addr_state": "CA",
      "addr_city": "Newark",
      "addr_postcode": "94560",
      "addr_street": "Jarvis Ave",
      "addr_housenumber": "6180",
      "value": 307.89760205011265
    },
    {
      "id": 221294,
      "geometry": "POINT (-122.049928 37.549034)",
      "poi_name": "Cocurry Thai Cuisine",
      "osm_id": 10970200663,
      "amenity": "restaurant",
      "cuisine": "thai",
      "website": "https://cocurrythai.com",
      "phone": "+1-510-946-9100",
      "addr_state": "CA",
      "addr_city": "Newark",
      "addr_postcode": "94560",
      "addr_street": "Jarvis Avenue",
      "addr_housenumber": "6180",
      "value": 307.89760205011265
    },
    {
      "id": 221297,
      "geometry": "POINT (-122.0487 37.551846)",
      "poi_name": "Dino's Grill",
      "osm_id": 10970200669,
      "amenity": "restaurant",
      "cuisine": "american;italian;greek",
      "website": "https://www.dinosgrillnewark.com/",
      "phone": "+1-510-494-1203",
      "addr_state": "CA",
      "addr_city": "Newark",
      "addr_postcode": "94560",
      "addr_street": "Jarvis Avenue",
      "addr_housenumber": "5855",
      "value": 307.89760205011265
    },
    {
      "id": 224819,
      "geometry": "POINT (-122.18267 37.453817)",
      "poi_name": "British Bankers Club",
      "osm_id": 11100045811,
      "amenity": "restaurant",
      "opening_hours": "Mo-Th 11:30-22:00; Fr-Sa 11:30-23:00; Su 10:00-21:00",
      "website": "https://www.britishbankersclub.com",
      "phone": "+1-650-382-3191",
      "outdoor_seating": "yes",
      "addr_street": "Santa Cruz Avenue",
      "addr_housenumber": "555",
      "value": 307.89760205011265
    },
    {
      "id": 224825,
      "geometry": "POINT (-122.186296 37.455476)",
      "poi_name": "Burma Love",
      "osm_id": 11100285771,
      "amenity": "restaurant",
      "cuisine": "burmese",
      "opening_hours": "Mo-Su 04:00-21:00",
      "website": "https://www.burmalove.co",
      "phone": "+16502505660",
      "addr_street": "El Camino Real",
      "addr_housenumber": "1302",
      "value": 307.89760205011265
    },
    {
      "id": 224826,
      "geometry": "POINT (-122.185496 37.455057)",
      "poi_name": "Proper Food",
      "osm_id": 11100292927,
      "amenity": "restaurant",
      "cuisine": "sandwich;pasta;salad",
      "opening_hours": "Mo-Fr 09:00-16:00",
      "website": "https://properfood.com",
      "phone": "+1415 656-8397",
      "addr_street": "El Camino Real",
      "addr_housenumber": "1300",
      "value": 307.89760205011265
    },
    {
      "id": 225522,
      "geometry": "POINT (-122.094124 37.390435)",
      "poi_name": "Local Kitchens",
      "osm_id": 11129235068,
      "amenity": "restaurant",
      "website": "https://www.localkitchens.com/order/store/mountainview/popular",
      "addr_state": "CA",
      "addr_city": "Mountain View",
      "addr_postcode": "94040",
      "addr_street": "West El Camino Real",
      "addr_housenumber": "1711",
      "value": 307.89760205011265
    },
    {
      "id": 226712,
      "geometry": "POINT (-122.055088 37.551501)",
      "poi_name": "King Of Thai Noodles",
      "osm_id": 11166102148,
      "amenity": "restaurant",
      "cuisine": "thai",
      "takeaway": "yes",
      "toilets": "yes",
      "addr_state": "CA",
      "addr_city": "Fremont",
      "addr_street": "Ardenwood Terrace",
      "addr_housenumber": "34787",
      "value": 307.89760205011265
    },
    {
      "id": 229257,
      "geometry": "POINT (-121.99768 37.406612)",
      "poi_name": "Minh\u2019s",
      "osm_id": 4374659109,
      "amenity": "restaurant",
      "cuisine": "vietnamese",
      "opening_hours": "Mo-Fr 10:00-15:00",
      "phone": "+1-408-734-2200",
      "addr_street": "Persian Drive",
      "addr_housenumber": "1274",
      "value": 307.89760205011265
    },
    {
      "id": 228137,
      "geometry": "POINT (-122.024521 37.387852)",
      "poi_name": "Sunnywich Cafe",
      "osm_id": 4331564065,
      "amenity": "restaurant",
      "cuisine": "mediterranean",
      "wheelchair": "yes",
      "opening_hours": "Mo-Su 10:00-17:00",
      "outdoor_seating": "yes",
      "addr_state": "CA",
      "addr_city": "Sunnyvale",
      "addr_postcode": "94085",
      "addr_street": "East Maude Avenue",
      "addr_housenumber": "223",
      "value": 307.89760205011265
    },
    {
      "id": 228089,
      "geometry": "POINT (-122.023341 37.396936)",
      "poi_name": "Ruby's Taqueria",
      "osm_id": 4330309391,
      "amenity": "restaurant",
      "cuisine": "mexican",
      "addr_street": "Borregas Avenue",
      "addr_housenumber": "821",
      "value": 307.89760205011265
    },
    {
      "id": 229697,
      "geometry": "POINT (-122.079415 37.402744)",
      "poi_name": "Momoya Sushi",
      "osm_id": 4395482133,
      "amenity": "restaurant",
      "cuisine": "sushi",
      "opening_hours": "Mo-Th 11:00-14:00,17:00-21:00; Fr 11:00-14:00,17:00-21:30; Sa 17:00-21:00",
      "addr_state": "CA",
      "addr_city": "Mountain View",
      "addr_postcode": "94043",
      "addr_street": "North Shoreline Boulevard",
      "addr_housenumber": "570",
      "value": 307.89760205011265
    },
    {
      "id": 229699,
      "geometry": "POINT (-122.07945 37.402691)",
      "poi_name": "Round Table Pizza",
      "osm_id": 4395482135,
      "amenity": "restaurant",
      "cuisine": "pizza",
      "opening_hours": "Mo-Fr 11:00-21:30; Sa,Su 11:00-22:30",
      "operator": "Round Table Pizza",
      "website": "https://www.roundtablepizza.com/",
      "phone": "+1 650-961-0361",
      "takeaway": "yes",
      "delivery": "yes",
      "addr_state": "CA",
      "addr_city": "Mountain View",
      "addr_postcode": "94043",
      "addr_street": "North Shoreline Boulevard",
      "addr_housenumber": "570",
      "value": 307.89760205011265
    },
    {
      "id": 231037,
      "geometry": "POINT (-122.050731 37.402811)",
      "poi_name": "Specialty's Caf\u00e9 & Bakery",
      "osm_id": 4452639097,
      "amenity": "restaurant",
      "cuisine": "coffee_shop;sandwich",
      "opening_hours": "Mo-Fr 07:00-16:00",
      "website": "https://www.specialtys.com",
      "outdoor_seating": "yes",
      "addr_state": "CA",
      "addr_city": "Mountain View",
      "addr_postcode": "94043",
      "addr_street": "Ellis Street",
      "addr_housenumber": "645",
      "value": 307.89760205011265
    },
    {
      "id": 229661,
      "geometry": "POINT (-122.079556 37.40253)",
      "poi_name": "Dickey's Barbeque Pit",
      "osm_id": 4392976743,
      "amenity": "restaurant",
      "cuisine": "barbecue",
      "addr_state": "CA",
      "addr_city": "Mountain View",
      "addr_postcode": "94043",
      "addr_street": "North Shoreline Boulevard",
      "addr_housenumber": "570",
      "value": 307.89760205011265
    },
    {
      "id": 229908,
      "geometry": "POINT (-122.096585 37.394362)",
      "poi_name": "Jennifer Taqueria",
      "osm_id": 4406237431,
      "amenity": "restaurant",
      "opening_hours": "Mo-Su 07:00-23:00",
      "addr_street": "Latham Street",
      "addr_housenumber": "1928",
      "value": 307.89760205011265
    },
    {
      "id": 232681,
      "geometry": "POINT (-122.11012 37.399863)",
      "poi_name": "Pho Avenue",
      "osm_id": 4538700725,
      "amenity": "restaurant",
      "cuisine": "vietnamese",
      "opening_hours": "Mo-Fr 11:00-15:00,16:00-20:30; Sa,Su 11:00-20:30",
      "phone": "+1 650-935-2183",
      "addr_state": "CA",
      "addr_city": "Mountain View",
      "addr_postcode": "94040",
      "addr_street": "West El Camino Real",
      "addr_housenumber": "2500",
      "value": 307.89760205011265
    },
    {
      "id": 233138,
      "geometry": "POINT (-122.143719 37.4274)",
      "poi_name": "Calave",
      "osm_id": 4559150502,
      "amenity": "restaurant",
      "opening_hours": "Mo-We 16:00-22:00; Th-Sa 16:00-23:59; Su 16:00-21:00",
      "website": "https://calave.com/",
      "phone": "+16505210443",
      "value": 307.89760205011265
    },
    {
      "id": 234161,
      "geometry": "POINT (-122.111743 37.403271)",
      "poi_name": "Dong Lai Shun",
      "osm_id": 4609011998,
      "amenity": "restaurant",
      "cuisine": "chinese",
      "website": "http://usdls.com/",
      "phone": "+1-650-209-5490",
      "addr_state": "CA",
      "addr_city": "Mountain View",
      "addr_postcode": "94040",
      "addr_street": "San Antonio Road",
      "addr_housenumber": "545",
      "value": 307.89760205011265
    },
    {
      "id": 234162,
      "geometry": "POINT (-122.11196 37.403334)",
      "poi_name": "Il Fornaio",
      "osm_id": 4609011999,
      "amenity": "restaurant",
      "cuisine": "italian",
      "website": "https://www.ilfornaio.com/location/mountain-view/",
      "addr_state": "CA",
      "addr_city": "Mountain View",
      "addr_postcode": "94040",
      "addr_street": "San Antonio Road",
      "addr_housenumber": "545",
      "value": 307.89760205011265
    },
    {
      "id": 234165,
      "geometry": "POINT (-122.112981 37.401289)",
      "poi_name": "Mizu Sushi Bar & Grill",
      "osm_id": 4609012006,
      "amenity": "restaurant",
      "cuisine": "sushi",
      "opening_hours": "Mo-Th 11:30-02:30,17:00-22:00; Fr-Sa 11:30-02:30,17:00-23:00; Su 17:00-22:00",
      "website": "https://mizusbg.com/mtnview/",
      "phone": "+1 650 397 7700",
      "outdoor_seating": "yes",
      "addr_state": "CA",
      "addr_city": "Mountain View",
      "addr_postcode": "94040",
      "addr_street": "West El Camino Real",
      "addr_housenumber": "2590",
      "value": 307.89760205011265
    },
    {
      "id": 234931,
      "geometry": "POINT (-122.050886 37.550856)",
      "poi_name": "Tasty Pot",
      "osm_id": 5740848555,
      "amenity": "restaurant",
      "value": 307.89760205011265
    },
    {
      "id": 235601,
      "geometry": "POINT (-121.945286 37.410164)",
      "poi_name": "La Catalana",
      "osm_id": 5760687519,
      "amenity": "restaurant",
      "cuisine": "spanish",
      "opening_hours": "Mo 17:00-21:00; Tu-Th 11:00-14:00,17:00-21:00; Fr 11:00-14:00,17:00-22:00; Sa 17:00-22:00",
      "website": "https://www.lacatalanatapas.com/",
      "phone": "(408) 324-1321",
      "addr_state": "CA",
      "addr_city": "San Jos\u00e9",
      "addr_postcode": "95134",
      "addr_street": "North 1st Street",
      "addr_housenumber": "3720",
      "value": 307.89760205011265
    },
    {
      "id": 235602,
      "geometry": "POINT (-121.946035 37.410931)",
      "poi_name": "eat viet",
      "osm_id": 5760687520,
      "amenity": "restaurant",
      "cuisine": "vietnamese",
      "addr_city": "San Jose",
      "addr_postcode": "95134",
      "addr_street": "North 1st Street",
      "addr_housenumber": "3730",
      "value": 307.89760205011265
    },
    {
      "id": 235603,
      "geometry": "POINT (-121.945642 37.4107)",
      "poi_name": "Von Chicken",
      "osm_id": 5760688122,
      "amenity": "restaurant",
      "cuisine": "chicken",
      "addr_city": "San Jose",
      "addr_postcode": "95134",
      "addr_street": "North 1st Street",
      "addr_housenumber": "3730",
      "value": 307.89760205011265
    },
    {
      "id": 239377,
      "geometry": "POINT (-121.975002 37.380862)",
      "poi_name": "Opa!",
      "osm_id": 5919205987,
      "amenity": "restaurant",
      "cuisine": "greek",
      "opening_hours": "Mo-Su 11:00-21:00",
      "official_name": "Opa! Santa Clara",
      "addr_state": "CA",
      "addr_city": "Santa Clara",
      "addr_postcode": "95054",
      "addr_street": "Augustine Drive",
      "addr_housenumber": "2722",
      "value": 307.89760205011265
    },
    {
      "id": 240364,
      "geometry": "POINT (-122.163163 37.423964)",
      "poi_name": "Wilbur Dining",
      "osm_id": 5969685571,
      "amenity": "restaurant",
      "value": 307.89760205011265
    }
  ],
  "answer_type": "name",
  "question_entities": {
    "[2]": {
      "distance": 30000,
      "text": "30 kilometers"
    },
    "[3]": {
      "main_category": "amenity",
      "sub_category": "university",
      "display_name": "Northeastern University Silicon Valley, San Jose, CA",
      "geo_wkt": "POINT (-121.889552 37.33709)",
      "poi": {
        "id": 134959,
        "geometry": "POINT (-121.889552 37.33709)",
        "poi_name": "Northeastern University Silicon Valley",
        "osm_id": 11498164632,
        "amenity": "university",
        "operator": "Northeastern University",
        "website": "https://siliconvalley.northeastern.edu/",
        "addr_state": "CA",
        "addr_city": "San Jose",
        "addr_street": "East Santa Clara Street",
        "addr_housenumber": "75"
      }
    },
    "[4]": {
      "main_category": "leisure",
      "sub_category": "stadium",
      "display_name": "Bowditch Middle School Auditorium, Foster City, CA",
      "geo_wkt": "POINT (-122.248613 37.559053)",
      "poi": {
        "id": 246975,
        "geometry": "POINT (-122.248613 37.559053)",
        "poi_name": "Bowditch Middle School Auditorium",
        "osm_id": 8468035653,
        "leisure": "stadium",
        "sport": "basketball;volleyball",
        "addr_state": "CA",
        "addr_city": "Foster City",
        "addr_postcode": "94404",
        "addr_street": "Tarpon Street",
        "addr_housenumber": "1450"
      }
    },
    "[1]": {
      "main_category": "amenity",
      "sub_category": "restaurant"
    }
  },
  "id": 1673,
  "type": "range:towards+name"
}