{
  "question": "Where can I find fast food restaurant on the way to Alejandra von Hartz Gallery, Miami, FL within 60 kilometers from 60 kilometers?",
  "sql": "WITH\n    angle AS (SELECT degrees(ST_Azimuth(ST_GeomFromText('POINT (-80.470734 25.614343)',4326)::geography, ST_GeomFromText('POINT (-80.19926 25.802075)',4326)::geography)) AS value)\nSELECT * FROM pois,angle\nWHERE amenity = 'fast_food'\nAND ST_DWithin(pois.geometry, ST_GeomFromText('POINT (-80.470734 25.614343)',4326)::geography, 60000)\nAND (degrees(ST_Azimuth(ST_GeomFromText('POINT (-80.470734 25.614343)',4326)::geography, pois.geometry)) BETWEEN angle.value - 22.5 AND angle.value + 22.5);\n",
  "answers": [
    {
      "id": 31327,
      "geometry": "POINT (-80.331515 25.808988)",
      "poi_name": "BurgerFi",
      "osm_id": 8419470970,
      "amenity": "fast_food",
      "cuisine": "burger",
      "phone": "+1-305-856-9918",
      "takeaway": "yes",
      "addr_state": "FL",
      "addr_city": "Doral",
      "addr_postcode": "33122",
      "addr_street": "Northwest 83rd Avenue",
      "addr_housenumber": "3530",
      "value": 52.58585152534821
    },
    {
      "id": 32141,
      "geometry": "POINT (-80.220935 25.765867)",
      "poi_name": "Domino's",
      "osm_id": 2622709780,
      "amenity": "fast_food",
      "cuisine": "pizza",
      "opening_hours": "Mo-Fr 00:00-01:00, 10:00-24:00; Sa-Su 00:00-02:00, 10:00-24:00",
      "website": "https://www.dominos.com/en/",
      "phone": "+1-305-642-2583",
      "takeaway": "yes",
      "drive_through": "no",
      "outdoor_seating": "no",
      "delivery": "yes",
      "addr_state": "FL",
      "addr_city": "Miami",
      "addr_postcode": "33135",
      "addr_street": "Southwest 8th Street",
      "addr_housenumber": "1575",
      "value": 52.58585152534821
    },
    {
      "id": 34213,
      "geometry": "POINT (-80.290089 25.703534)",
      "poi_name": "Einstein Bros. Bagels",
      "osm_id": 2697912496,
      "amenity": "fast_food",
      "cuisine": "bagel",
      "website": "https://www.einsteinbros.com/",
      "phone": "(305) 668-6260",
      "takeaway": "yes",
      "addr_state": "FL",
      "addr_city": "South Miami",
      "addr_postcode": "33143",
      "addr_street": "S Dixie Hwy",
      "addr_housenumber": "5946",
      "value": 52.58585152534821
    },
    {
      "id": 34216,
      "geometry": "POINT (-80.221999 25.746372)",
      "poi_name": "Quiznos",
      "osm_id": 2697912536,
      "amenity": "fast_food",
      "cuisine": "sandwich",
      "website": "https://www.quiznos.com/",
      "phone": "(305) 854-3836",
      "takeaway": "yes",
      "addr_state": "FL",
      "addr_city": "Miami",
      "addr_postcode": "33145",
      "addr_street": "SW 17th Ave",
      "addr_housenumber": "2490",
      "value": 52.58585152534821
    },
    {
      "id": 37870,
      "geometry": "POINT (-80.330621 25.769461)",
      "poi_name": "Dunkin'",
      "osm_id": 2836333732,
      "amenity": "fast_food",
      "cuisine": "donut;coffee_shop",
      "opening_hours": "24/7",
      "takeaway": "yes",
      "addr_city": "Miami",
      "addr_postcode": "33144",
      "addr_street": "West Flagler Street",
      "value": 52.58585152534821
    },
    {
      "id": 37871,
      "geometry": "POINT (-80.331109 25.770163)",
      "poi_name": "Taco Bell",
      "osm_id": 2836333765,
      "amenity": "fast_food",
      "cuisine": "tex-mex",
      "website": "https://locations.tacobell.com/fl/miami/8363-w-flagler-street.html",
      "phone": "+1 305-267-1356",
      "takeaway": "yes",
      "addr_city": "Miami",
      "addr_postcode": "33144",
      "addr_street": "West Flagler Street",
      "addr_housenumber": "8363",
      "value": 52.58585152534821
    },
    {
      "id": 39842,
      "geometry": "POINT (-80.187336 25.823558)",
      "poi_name": "Dunkin'",
      "osm_id": 2941412401,
      "amenity": "fast_food",
      "cuisine": "donut;coffee_shop",
      "takeaway": "yes",
      "addr_city": "Miami",
      "addr_postcode": "33137",
      "addr_street": "Biscayne Boulevard",
      "addr_housenumber": "5128",
      "value": 52.58585152534821
    },
    {
      "id": 39844,
      "geometry": "POINT (-80.184606 25.856588)",
      "poi_name": "Papa John's",
      "osm_id": 2941428137,
      "amenity": "fast_food",
      "cuisine": "pizza",
      "takeaway": "yes",
      "addr_city": "Miami",
      "addr_postcode": "33138",
      "addr_street": "Biscayne Boulevard",
      "addr_housenumber": "8849",
      "value": 52.58585152534821
    },
    {
      "id": 39846,
      "geometry": "POINT (-80.144861 25.967196)",
      "poi_name": "Subway",
      "osm_id": 2941496458,
      "amenity": "fast_food",
      "cuisine": "sandwich",
      "takeaway": "yes",
      "drive_through": "no",
      "addr_state": "FL",
      "addr_city": "Aventura",
      "addr_postcode": "33180",
      "addr_street": "Biscayne Boulevard",
      "addr_housenumber": "20965",
      "value": 52.58585152534821
    },
    {
      "id": 39802,
      "geometry": "POINT (-80.122634 25.93279)",
      "poi_name": "Papa John's",
      "osm_id": 2940575327,
      "amenity": "fast_food",
      "cuisine": "pizza",
      "takeaway": "yes",
      "drive_through": "no",
      "addr_state": "FL",
      "addr_city": "Sunny Isles Beach",
      "addr_postcode": "33160",
      "addr_street": "Collins Avenue",
      "addr_housenumber": "16850",
      "value": 52.58585152534821
    },
    {
      "id": 39805,
      "geometry": "POINT (-80.17107 25.944657)",
      "poi_name": "Papa John's",
      "osm_id": 2940575407,
      "amenity": "fast_food",
      "cuisine": "pizza",
      "takeaway": "yes",
      "drive_through": "yes",
      "addr_state": "FL",
      "addr_city": "Miami",
      "addr_postcode": "33179",
      "addr_street": "Northeast Miami Gardens Drive",
      "addr_housenumber": "1498",
      "value": 52.58585152534821
    },
    {
      "id": 39808,
      "geometry": "POINT (-80.163447 25.945686)",
      "poi_name": "Subway",
      "osm_id": 2940575426,
      "amenity": "fast_food",
      "cuisine": "sandwich",
      "takeaway": "yes",
      "drive_through": "no",
      "addr_state": "FL",
      "addr_city": "Miami",
      "addr_postcode": "33179",
      "addr_street": "Northeast Miami Gardens Drive",
      "addr_housenumber": "1838",
      "value": 52.58585152534821
    },
    {
      "id": 45448,
      "geometry": "POINT (-80.193959 25.808069)",
      "poi_name": "Rubio's",
      "osm_id": 3209168912,
      "amenity": "fast_food",
      "cuisine": "mexican",
      "takeaway": "yes",
      "official_name": "Rubio's Coastal Grill",
      "addr_state": "FL",
      "addr_city": "Miami",
      "addr_street": "North Miami Avenue",
      "addr_housenumber": "3201",
      "value": 52.58585152534821
    },
    {
      "id": 45464,
      "geometry": "POINT (-80.142903 26.032504)",
      "poi_name": "Burger King",
      "osm_id": 3210907139,
      "amenity": "fast_food",
      "cuisine": "burger",
      "takeaway": "yes",
      "addr_state": "FL",
      "addr_city": "Hollywood",
      "addr_postcode": "33020",
      "addr_street": "North Federal Highway",
      "addr_housenumber": "2319",
      "value": 52.58585152534821
    },
    {
      "id": 45465,
      "geometry": "POINT (-80.143641 26.035729)",
      "poi_name": "McDonald's",
      "osm_id": 3210930862,
      "amenity": "fast_food",
      "cuisine": "burger",
      "website": "https://www.mcdonalds.com/us/en-us/location/fl/dania/1310-s-federal-hwy/1901.html",
      "takeaway": "yes",
      "addr_state": "FL",
      "addr_city": "Dania Beach",
      "addr_postcode": "33004",
      "addr_street": "South Federal Highway",
      "addr_housenumber": "1310",
      "value": 52.58585152534821
    },
    {
      "id": 46103,
      "geometry": "POINT (-80.337894 25.769052)",
      "poi_name": "Panda Express",
      "osm_id": 3246396234,
      "amenity": "fast_food",
      "cuisine": "chinese",
      "phone": "+1 305-228-1888",
      "takeaway": "yes",
      "addr_state": "FL",
      "addr_city": "Miami",
      "addr_postcode": "33174",
      "addr_street": "West Flagler Street",
      "addr_housenumber": "8750",
      "value": 52.58585152534821
    },
    {
      "id": 46379,
      "geometry": "POINT (-80.253992 25.771728)",
      "poi_name": "Jacalito Taqueria",
      "osm_id": 3261312005,
      "amenity": "fast_food",
      "cuisine": "mexican",
      "addr_state": "FL",
      "addr_city": "Miami",
      "addr_postcode": "33135",
      "addr_street": "West Flagler Street",
      "addr_housenumber": "3622",
      "value": 52.58585152534821
    },
    {
      "id": 54571,
      "geometry": "POINT (-80.194982 25.766476)",
      "poi_name": "Toasted Bagelry & Deli",
      "osm_id": 10141171652,
      "amenity": "fast_food",
      "cuisine": "sandwich",
      "website": "https://www.toastedbagelry.com/",
      "phone": "+1-305-400-6996",
      "addr_state": "FL",
      "addr_city": "Miami",
      "addr_postcode": "33130",
      "addr_street": "Southwest 8th Street",
      "addr_housenumber": "83",
      "value": 52.58585152534821
    },
    {
      "id": 53287,
      "geometry": "POINT (-80.364286 25.686587)",
      "poi_name": "Subway",
      "osm_id": 10073851917,
      "amenity": "fast_food",
      "cuisine": "sandwich",
      "wheelchair": "yes",
      "opening_hours": "Mo-Fr 07:00-01:00, Sa 09:00-01:00, Su 09:00-00:00",
      "website": "https://restaurants.subway.com/united-states/fl/miami/10530-sw-88th-st",
      "phone": "+1-305-274-2285",
      "takeaway": "yes",
      "drive_through": "no",
      "outdoor_seating": "yes",
      "delivery": "yes",
      "addr_state": "FL",
      "addr_city": "Miami",
      "addr_postcode": "33176",
      "addr_street": "North Kendall Drive",
      "addr_housenumber": "10530",
      "value": 52.58585152534821
    },
    {
      "id": 54176,
      "geometry": "POINT (-80.135156 25.77104)",
      "poi_name": "Qbano South Beach",
      "osm_id": 10119894542,
      "amenity": "fast_food",
      "cuisine": "sandwich",
      "addr_state": "FL",
      "addr_city": "Miami Beach",
      "addr_postcode": "33139",
      "addr_street": "Washington Avenue",
      "addr_housenumber": "110",
      "value": 52.58585152534821
    },
    {
      "id": 54178,
      "geometry": "POINT (-80.134873 25.768152)",
      "poi_name": "Dreamer Miami",
      "osm_id": 10119894547,
      "amenity": "fast_food",
      "cuisine": "juice",
      "website": "https://dreamermiami.com",
      "addr_state": "FL",
      "addr_city": "Miami Beach",
      "addr_postcode": "33139",
      "addr_street": "South Pointe Drive",
      "addr_housenumber": "500",
      "value": 52.58585152534821
    },
    {
      "id": 48260,
      "geometry": "POINT (-80.143543 26.054815)",
      "poi_name": "Dairy Belle",
      "osm_id": 3373416793,
      "amenity": "fast_food",
      "internet_access": "no",
      "takeaway": "yes",
      "drive_through": "no",
      "outdoor_seating": "yes",
      "delivery": "no",
      "addr_city": "Dania Beach",
      "addr_postcode": "33004",
      "addr_street": "Federal Highway",
      "addr_housenumber": "118",
      "value": 52.58585152534821
    },
    {
      "id": 56625,
      "geometry": "POINT (-80.312488 25.687848)",
      "poi_name": "Panera Bread",
      "osm_id": 10244843194,
      "amenity": "fast_food",
      "cuisine": "sandwich;bakery",
      "opening_hours": "Mo-Sa 06:00-20:00; Su 07:00-22:00",
      "takeaway": "yes",
      "outdoor_seating": "yes",
      "delivery": "yes",
      "addr_state": "FL",
      "addr_city": "Miami",
      "addr_postcode": "33156",
      "addr_street": "Southwest 72nd Court",
      "addr_housenumber": "8870",
      "value": 52.58585152534821
    },
    {
      "id": 61717,
      "geometry": "POINT (-80.315322 25.808868)",
      "poi_name": "Chipotle",
      "osm_id": 5533453727,
      "amenity": "fast_food",
      "cuisine": "mexican",
      "website": "https://chipotle.com/",
      "phone": "+1 305-591-2742",
      "takeaway": "yes",
      "official_name": "Chipotle Mexican Grill",
      "addr_state": "FL",
      "addr_city": "Miami",
      "addr_postcode": "33166",
      "addr_street": "Northwest 36th Street",
      "addr_housenumber": "7230",
      "value": 52.58585152534821
    },
    {
      "id": 69919,
      "geometry": "POINT (-80.198981 25.801677)",
      "poi_name": "Sweetgreen",
      "osm_id": 11336950638,
      "amenity": "fast_food",
      "cuisine": "salad",
      "opening_hours": "Mo-Su 10:30-22:00",
      "website": "https://order.sweetgreen.com/wynwood/menu",
      "phone": "+1-305-614-9007",
      "takeaway": "yes",
      "drive_through": "no",
      "addr_state": "FL",
      "addr_city": "Miami",
      "addr_postcode": "33127",
      "addr_street": "Northwest 2nd Avenue",
      "addr_housenumber": "2621",
      "value": 52.58585152534821
    },
    {
      "id": 70147,
      "geometry": "POINT (-80.19379 25.773995)",
      "poi_name": "Tacos El Porky",
      "osm_id": 11346711301,
      "amenity": "fast_food",
      "cuisine": "mexican",
      "website": "https://tacoselporky.com/",
      "phone": "+1-305-359-7997",
      "drive_through": "no",
      "addr_state": "FL",
      "addr_city": "Miami",
      "addr_postcode": "33130",
      "addr_street": "West Flagler Street",
      "addr_housenumber": "16",
      "value": 52.58585152534821
    },
    {
      "id": 70406,
      "geometry": "POINT (-80.387925 25.688867)",
      "poi_name": "Ken\u2019s Healthy Delights",
      "osm_id": 11361064329,
      "amenity": "fast_food",
      "cuisine": "american",
      "addr_state": "FL",
      "addr_city": "Miami",
      "addr_postcode": "33183",
      "addr_street": "Mills Drive",
      "addr_housenumber": "8422",
      "value": 52.58585152534821
    },
    {
      "id": 76443,
      "geometry": "POINT (-80.285839 25.707906)",
      "poi_name": "Popeyes",
      "osm_id": 9776978443,
      "amenity": "fast_food",
      "cuisine": "chicken",
      "opening_hours": "Mo-Su 10:00-22:00",
      "website": "https://www.popeyes.com/store-locator/store/restaurant_240534",
      "phone": "+1-786-783-3470",
      "takeaway": "yes",
      "drive_through": "yes",
      "official_name": "Popeyes Louisiana Kitchen",
      "delivery": "yes",
      "addr_state": "FL",
      "addr_city": "South Miami",
      "addr_postcode": "33143",
      "addr_street": "Southwest 57th Avenue",
      "addr_housenumber": "6800",
      "value": 52.58585152534821
    },
    {
      "id": 94633,
      "geometry": "POINT (-80.123163 25.932402)",
      "poi_name": "Subway",
      "osm_id": 6371509823,
      "amenity": "fast_food",
      "cuisine": "sandwich",
      "takeaway": "yes",
      "drive_through": "no",
      "addr_state": "FL",
      "addr_city": "Sunny Isles Beach",
      "addr_postcode": "33160",
      "addr_street": "Collins Avenue",
      "addr_housenumber": "16850",
      "value": 52.58585152534821
    },
    {
      "id": 94591,
      "geometry": "POINT (-80.163964 25.945674)",
      "poi_name": "Little Caesars",
      "osm_id": 6369437729,
      "amenity": "fast_food",
      "cuisine": "pizza",
      "website": "https://littlecaesars.com/en-us/store/507/",
      "takeaway": "yes",
      "drive_through": "no",
      "addr_state": "FL",
      "addr_city": "Miami",
      "addr_postcode": "33179",
      "addr_street": "Northeast Miami Gardens Drive",
      "addr_housenumber": "1812",
      "value": 52.58585152534821
    },
    {
      "id": 94594,
      "geometry": "POINT (-80.171143 25.94464)",
      "poi_name": "Dunkin'",
      "osm_id": 6369438014,
      "amenity": "fast_food",
      "cuisine": "donut;coffee_shop",
      "takeaway": "yes",
      "drive_through": "no",
      "addr_state": "FL",
      "addr_city": "Miami",
      "addr_postcode": "33179",
      "addr_street": "Northeast Miami Gardens Drive",
      "addr_housenumber": "1496",
      "value": 52.58585152534821
    },
    {
      "id": 108495,
      "geometry": "POINT (-80.132416 25.783723)",
      "poi_name": "BurgerFi",
      "osm_id": 3622388810,
      "amenity": "fast_food",
      "cuisine": "burger",
      "phone": "+1 305 534 0340",
      "takeaway": "yes",
      "addr_city": "Miami Beach",
      "addr_postcode": "33139",
      "addr_street": "Washington Avenue",
      "addr_housenumber": "1242",
      "value": 52.58585152534821
    },
    {
      "id": 113560,
      "geometry": "POINT (-80.130787 25.786523)",
      "poi_name": "Zesto Pizza",
      "osm_id": 3839886466,
      "amenity": "fast_food",
      "website": "https://zestopizza.com/",
      "addr_state": "FL",
      "addr_city": "Miami",
      "addr_street": "Collins Avenue",
      "addr_housenumber": "1434",
      "value": 52.58585152534821
    },
    {
      "id": 116948,
      "geometry": "POINT (-80.219107 25.785411)",
      "poi_name": "Chick-fil-A",
      "osm_id": 8972390573,
      "amenity": "fast_food",
      "cuisine": "chicken",
      "opening_hours": "Mo-Sa 06:30-23:00",
      "website": "https://www.chick-fil-a.com/locations/fl/river-landing-in-line",
      "takeaway": "yes",
      "drive_through": "no",
      "outdoor_seating": "no",
      "delivery": "yes",
      "addr_state": "FL",
      "addr_city": "Miami",
      "addr_postcode": "33125",
      "addr_street": "Northwest North River Drive",
      "addr_housenumber": "1410",
      "value": 52.58585152534821
    },
    {
      "id": 114893,
      "geometry": "POINT (-80.317409 25.809929)",
      "poi_name": "McDonald's",
      "osm_id": 3900612057,
      "amenity": "fast_food",
      "cuisine": "burger",
      "website": "https://www.mcdonalds.com/us/en-us/location/fl/miami/7405-nw-36th-st/6486.html",
      "takeaway": "yes",
      "addr_state": "FL",
      "addr_city": "Miami",
      "addr_postcode": "33166",
      "addr_street": "Northwest 36th Street",
      "addr_housenumber": "7405",
      "value": 52.58585152534821
    },
    {
      "id": 114894,
      "geometry": "POINT (-80.316451 25.809738)",
      "poi_name": "Wendy's",
      "osm_id": 3900612058,
      "amenity": "fast_food",
      "cuisine": "burger",
      "takeaway": "yes",
      "drive_through": "yes",
      "addr_state": "FL",
      "addr_city": "Miami",
      "addr_postcode": "33166",
      "addr_street": "Northwest 36th Street",
      "addr_housenumber": "7393",
      "value": 52.58585152534821
    },
    {
      "id": 117292,
      "geometry": "POINT (-80.221005 25.765865)",
      "poi_name": "Subway",
      "osm_id": 8986750744,
      "amenity": "fast_food",
      "cuisine": "sandwich",
      "opening_hours": "Mo-Th 09:00-23:00, Fr-Sa 09:00-24:00, Su 09:00-22:00",
      "website": "https://restaurants.subway.com/united-states/fl/miami/1575-sw-8th-street",
      "phone": "+1-305-541-8455",
      "takeaway": "yes",
      "drive_through": "no",
      "outdoor_seating": "no",
      "delivery": "yes",
      "addr_state": "FL",
      "addr_city": "Miami",
      "addr_postcode": "33135",
      "addr_street": "Southwest 8th Street",
      "addr_housenumber": "1575",
      "value": 52.58585152534821
    },
    {
      "id": 130814,
      "geometry": "POINT (-80.169288 26.031898)",
      "poi_name": "El Sabor Caribe",
      "osm_id": 9892079914,
      "amenity": "fast_food",
      "cuisine": "latin_american",
      "phone": "+1-305-298-1262",
      "addr_state": "FL",
      "addr_city": "Hollywood",
      "addr_postcode": "33020",
      "addr_street": "Sheridan Street",
      "addr_housenumber": "3080",
      "value": 52.58585152534821
    },
    {
      "id": 134067,
      "geometry": "POINT (-80.364408 25.685276)",
      "poi_name": "Ernesto\u2019s Taco Shop",
      "osm_id": 10028411771,
      "amenity": "fast_food",
      "cuisine": "mexican",
      "wheelchair": "yes",
      "opening_hours": "Mo-Sa 11:00-21:00, Su 11:00-20:00",
      "drive_through": "no",
      "addr_state": "FL",
      "addr_city": "Miami",
      "addr_postcode": "33176",
      "addr_street": "Southwest 107th Avenue",
      "addr_housenumber": "8845",
      "value": 52.58585152534821
    },
    {
      "id": 133773,
      "geometry": "POINT (-80.417624 25.684398)",
      "poi_name": "Papa John's",
      "osm_id": 10007784615,
      "amenity": "fast_food",
      "cuisine": "pizza",
      "takeaway": "yes",
      "addr_state": "FL",
      "addr_city": "Miami",
      "addr_postcode": "33186",
      "addr_street": "Southwest 88th Street",
      "addr_housenumber": "13716",
      "value": 52.58585152534821
    },
    {
      "id": 133781,
      "geometry": "POINT (-80.415823 25.683878)",
      "poi_name": "Jersey Mike's Subs",
      "osm_id": 10008017357,
      "amenity": "fast_food",
      "cuisine": "sandwich",
      "takeaway": "yes",
      "addr_state": "FL",
      "addr_city": "Miami",
      "addr_postcode": "33186",
      "addr_street": "Southwest 88th Street",
      "addr_housenumber": "13668",
      "value": 52.58585152534821
    },
    {
      "id": 134068,
      "geometry": "POINT (-80.364412 25.685326)",
      "poi_name": "Outrageous Bagel Company",
      "osm_id": 10028411780,
      "amenity": "fast_food",
      "cuisine": "bagel",
      "wheelchair": "yes",
      "opening_hours": "Mo-Fr 06:30-16:30; Sa 07:00-16:30; Su 07:00-15:00",
      "website": "https://www.outrageousbagel.com/",
      "phone": "+1 305-595-0188",
      "takeaway": "yes",
      "drive_through": "no",
      "outdoor_seating": "yes",
      "delivery": "yes",
      "addr_state": "FL",
      "addr_city": "Miami",
      "addr_postcode": "33176",
      "addr_street": "Southwest 107th Avenue",
      "addr_housenumber": "8843",
      "value": 52.58585152534821
    },
    {
      "id": 134069,
      "geometry": "POINT (-80.364956 25.684637)",
      "poi_name": "Jersey Mike's Subs",
      "osm_id": 10028411783,
      "amenity": "fast_food",
      "cuisine": "sandwich",
      "wheelchair": "yes",
      "opening_hours": "10:00-21:00",
      "takeaway": "yes",
      "drive_through": "no",
      "addr_state": "FL",
      "addr_city": "Miami",
      "addr_postcode": "33176",
      "addr_street": "Southwest 107th Avenue",
      "addr_housenumber": "9001",
      "value": 52.58585152534821
    },
    {
      "id": 136844,
      "geometry": "POINT (-80.257311 25.74987)",
      "poi_name": "Jimmy John's",
      "osm_id": 6073265220,
      "amenity": "fast_food",
      "cuisine": "sandwich",
      "opening_hours": "Mo-Fr 11:00-21:00; Sa-Su 11:00-19:00",
      "website": "https://locations.jimmyjohns.com/fl/coralgables/sandwiches-576.html",
      "phone": "+1-305-447-9900",
      "takeaway": "yes",
      "drive_through": "no",
      "official_name": "Jimmy John's Gourmet Sandwiches",
      "delivery": "yes",
      "addr_state": "FL",
      "addr_city": "Coral Gables",
      "addr_postcode": "33134",
      "addr_street": "Miracle Mile",
      "addr_housenumber": "125",
      "value": 52.58585152534821
    },
    {
      "id": 136915,
      "geometry": "POINT (-80.246296 25.736577)",
      "poi_name": "McDonald's",
      "osm_id": 6076173901,
      "amenity": "fast_food",
      "cuisine": "burger",
      "opening_hours": "24/7",
      "website": "https://www.mcdonalds.com/us/en-us/location/FL/MIAMI/3200-S-DIXIE-HWY/7147.html",
      "phone": "+1-305-448-0531",
      "takeaway": "yes",
      "drive_through": "yes",
      "addr_state": "FL",
      "addr_city": "Miami",
      "addr_postcode": "33133",
      "addr_street": "South Dixie Highway",
      "addr_housenumber": "3200",
      "value": 52.58585152534821
    },
    {
      "id": 136847,
      "geometry": "POINT (-80.255014 25.750417)",
      "poi_name": "Pollo Tropical",
      "osm_id": 6073265269,
      "amenity": "fast_food",
      "cuisine": "chicken",
      "opening_hours": "Mo-Su 11:00-24:00",
      "website": "https://www.pollotropical.com/locations",
      "phone": "+1-305-461-1915",
      "takeaway": "yes",
      "drive_through": "yes",
      "addr_state": "FL",
      "addr_city": "Coral Gables",
      "addr_postcode": "33134",
      "addr_street": "Douglas Road",
      "addr_housenumber": "2350",
      "value": 52.58585152534821
    },
    {
      "id": 136985,
      "geometry": "POINT (-80.241217 25.764924)",
      "poi_name": "McDonald's",
      "osm_id": 6080057205,
      "amenity": "fast_food",
      "cuisine": "burger",
      "opening_hours": "Mo-Su 05:00-24:00",
      "website": "https://www.mcdonalds.com/us/en-us/location/FL/MIAMI/2940-SW-8TH-ST/7296.html",
      "phone": "+1-305-541-4768",
      "takeaway": "yes",
      "drive_through": "yes",
      "addr_state": "FL",
      "addr_city": "Miami",
      "addr_postcode": "33135",
      "addr_street": "Southwest 8th Street",
      "addr_housenumber": "2920",
      "value": 52.58585152534821
    },
    {
      "id": 136922,
      "geometry": "POINT (-80.245539 25.736441)",
      "poi_name": "Taco Bell",
      "osm_id": 6076491825,
      "amenity": "fast_food",
      "cuisine": "tex-mex",
      "opening_hours": "Mo-Su 08:00-22:00",
      "website": "https://locations.tacobell.com/fl/miami/2935-sw-32nd-ave.html",
      "phone": "+1-305-447-0397",
      "takeaway": "yes",
      "drive_through": "yes",
      "addr_state": "FL",
      "addr_city": "Miami",
      "addr_postcode": "33133",
      "addr_street": "Southwest 32nd Avenue",
      "addr_housenumber": "2935",
      "value": 52.58585152534821
    },
    {
      "id": 136923,
      "geometry": "POINT (-80.238789 25.739146)",
      "poi_name": "Pollo Tropical",
      "osm_id": 6076495316,
      "amenity": "fast_food",
      "cuisine": "chicken",
      "opening_hours": "Mo-Su 10:30-22:00",
      "website": "https://www.pollotropical.com/locations",
      "phone": "+1-305-448-9892",
      "takeaway": "yes",
      "drive_through": "yes",
      "outdoor_seating": "yes",
      "addr_state": "FL",
      "addr_city": "Miami",
      "addr_postcode": "33133",
      "addr_street": "South Dixie Highway",
      "addr_housenumber": "2710",
      "value": 52.58585152534821
    },
    {
      "id": 136924,
      "geometry": "POINT (-80.237469 25.738513)",
      "poi_name": "Burger King",
      "osm_id": 6076527173,
      "amenity": "fast_food",
      "cuisine": "burger",
      "opening_hours": "Mo-Su 06:00-24:00",
      "website": "https://www.bk.com/store-locator/store/restaurant_1236?gclid=Cj0KCQjw08aYBhDlARIsAA_gb0eNvvF0pepvSGY7OETJA9Hhg5eyK0Xeo6DSWTsoz4C9k9mObrS637gaAkqeEALw_wcB",
      "phone": "+1 305 445 3985",
      "takeaway": "yes",
      "restaurant": "fast_food",
      "addr_state": "FL",
      "addr_city": "Miami",
      "addr_postcode": "33133",
      "addr_street": "Southwest 27th Avenue",
      "addr_housenumber": "2801",
      "value": 52.58585152534821
    },
    {
      "id": 137183,
      "geometry": "POINT (-80.163128 25.945747)",
      "poi_name": "Wendy's",
      "osm_id": 6088831485,
      "amenity": "fast_food",
      "cuisine": "burger",
      "takeaway": "yes",
      "drive_through": "yes",
      "addr_state": "FL",
      "addr_city": "Miami",
      "addr_postcode": "33179",
      "addr_street": "Northeast Miami Gardens Drive",
      "addr_housenumber": "1856",
      "value": 52.58585152534821
    },
    {
      "id": 137085,
      "geometry": "POINT (-80.195596 25.779113)",
      "poi_name": "Chick-fil-A",
      "osm_id": 6085571238,
      "amenity": "fast_food",
      "cuisine": "chicken",
      "takeaway": "yes",
      "drive_through": "no",
      "addr_state": "FL",
      "addr_city": "Miami",
      "addr_postcode": "33128",
      "addr_street": "Northwest 5th Street",
      "addr_housenumber": "93",
      "value": 52.58585152534821
    },
    {
      "id": 137086,
      "geometry": "POINT (-80.192178 25.776725)",
      "poi_name": "Smoothie Spot",
      "osm_id": 6085573501,
      "amenity": "fast_food",
      "cuisine": "juice",
      "addr_state": "FL",
      "addr_city": "Miami",
      "addr_postcode": "33132",
      "addr_street": "Northeast 1st Avenue",
      "addr_housenumber": "228",
      "value": 52.58585152534821
    },
    {
      "id": 140148,
      "geometry": "POINT (-80.306243 25.732974)",
      "poi_name": "Wendy's",
      "osm_id": 6233157638,
      "amenity": "fast_food",
      "cuisine": "burger",
      "takeaway": "yes",
      "drive_through": "yes",
      "addr_state": "FL",
      "addr_city": "Miami",
      "addr_postcode": "33155",
      "addr_street": "Southwest 40th Street",
      "addr_housenumber": "6898",
      "value": 52.58585152534821
    },
    {
      "id": 137230,
      "geometry": "POINT (-80.194566 25.791513)",
      "poi_name": "Doughnut Break",
      "osm_id": 6090248665,
      "amenity": "fast_food",
      "cuisine": "donut",
      "addr_state": "FL",
      "addr_city": "Miami",
      "addr_postcode": "33136",
      "addr_street": "North Miami Avenue",
      "addr_housenumber": "1653",
      "value": 52.58585152534821
    },
    {
      "id": 137232,
      "geometry": "POINT (-80.171517 25.925932)",
      "poi_name": "Subway",
      "osm_id": 6090301110,
      "amenity": "fast_food",
      "cuisine": "sandwich",
      "takeaway": "yes",
      "addr_state": "FL",
      "addr_city": "Miami",
      "addr_postcode": "33162",
      "addr_street": "Northeast 163rd Street",
      "addr_housenumber": "1437",
      "value": 52.58585152534821
    },
    {
      "id": 145759,
      "geometry": "POINT (-80.332796 25.748164)",
      "poi_name": "Dunkin'",
      "osm_id": 7387612540,
      "amenity": "fast_food",
      "cuisine": "donut;coffee_shop",
      "takeaway": "yes",
      "addr_state": "FL",
      "addr_city": "Miami",
      "addr_postcode": "33155",
      "addr_street": "Coral Way",
      "addr_housenumber": "8565",
      "value": 52.58585152534821
    },
    {
      "id": 142961,
      "geometry": "POINT (-80.148324 25.947879)",
      "poi_name": "Subway",
      "osm_id": 6326493657,
      "amenity": "fast_food",
      "cuisine": "sandwich",
      "takeaway": "yes",
      "drive_through": "no",
      "addr_state": "FL",
      "addr_city": "Miami",
      "addr_postcode": "33180",
      "addr_street": "West Dixie Highway",
      "addr_housenumber": "18615",
      "value": 52.58585152534821
    },
    {
      "id": 144162,
      "geometry": "POINT (-80.157681 25.912542)",
      "poi_name": "Chipotle",
      "osm_id": 6366329040,
      "amenity": "fast_food",
      "cuisine": "mexican",
      "takeaway": "yes",
      "drive_through": "no",
      "official_name": "Chipotle Mexican Grill",
      "addr_state": "FL",
      "addr_city": "North Miami Beach",
      "addr_postcode": "33181",
      "addr_street": "Biscayne Boulevard",
      "addr_housenumber": "14776",
      "value": 52.58585152534821
    },
    {
      "id": 142890,
      "geometry": "POINT (-80.144793 25.949082)",
      "poi_name": "Subway",
      "osm_id": 6324413022,
      "amenity": "fast_food",
      "cuisine": "sandwich",
      "takeaway": "yes",
      "drive_through": "no",
      "addr_state": "FL",
      "addr_city": "Aventura",
      "addr_postcode": "33180",
      "addr_street": "Biscayne Boulevard",
      "addr_housenumber": "18731",
      "value": 52.58585152534821
    },
    {
      "id": 143662,
      "geometry": "POINT (-80.142839 25.971582)",
      "poi_name": "Boston Market",
      "osm_id": 6346357093,
      "amenity": "fast_food",
      "cuisine": "american;chicken",
      "takeaway": "yes",
      "drive_through": "no",
      "addr_state": "FL",
      "addr_city": "Aventura",
      "addr_postcode": "33180",
      "addr_street": "Biscayne Boulevard",
      "addr_housenumber": "21175",
      "value": 52.58585152534821
    },
    {
      "id": 143664,
      "geometry": "POINT (-80.142347 25.972133)",
      "poi_name": "Jimmy John's",
      "osm_id": 6346357101,
      "amenity": "fast_food",
      "cuisine": "sandwich",
      "takeaway": "yes",
      "drive_through": "no",
      "official_name": "Jimmy John's Gourmet Sandwiches",
      "addr_state": "FL",
      "addr_city": "Aventura",
      "addr_postcode": "33180",
      "addr_street": "Biscayne Boulevard",
      "addr_housenumber": "21213",
      "value": 52.58585152534821
    },
    {
      "id": 144088,
      "geometry": "POINT (-80.144102 25.958161)",
      "poi_name": "Auntie Anne's",
      "osm_id": 6363176214,
      "amenity": "fast_food",
      "cuisine": "pretzel",
      "website": "https://aventuramall.com/shops/auntie-annes-pretzels/",
      "phone": "+1 305 936 8066",
      "takeaway": "yes",
      "drive_through": "no",
      "addr_state": "FL",
      "addr_city": "Aventura",
      "addr_postcode": "33180",
      "addr_street": "Biscayne Boulevard",
      "addr_housenumber": "19575",
      "value": 52.58585152534821
    },
    {
      "id": 146831,
      "geometry": "POINT (-80.299966 25.695202)",
      "poi_name": "Dunkin'",
      "osm_id": 7477638229,
      "amenity": "fast_food",
      "cuisine": "donut;coffee_shop",
      "takeaway": "yes",
      "addr_state": "FL",
      "addr_city": "Miami",
      "addr_postcode": "33143",
      "addr_street": "South Dixie Highway",
      "addr_housenumber": "8099",
      "value": 52.58585152534821
    },
    {
      "id": 145805,
      "geometry": "POINT (-80.287479 25.734894)",
      "poi_name": "Subway",
      "osm_id": 7390272503,
      "amenity": "fast_food",
      "cuisine": "sandwich",
      "takeaway": "yes",
      "addr_state": "FL",
      "addr_city": "Miami",
      "addr_postcode": "33155",
      "addr_street": "Southwest 40th Street",
      "addr_housenumber": "5749",
      "value": 52.58585152534821
    },
    {
      "id": 145971,
      "geometry": "POINT (-80.304599 25.732299)",
      "poi_name": "Subway",
      "osm_id": 7402706169,
      "amenity": "fast_food",
      "cuisine": "sandwich",
      "takeaway": "yes",
      "addr_state": "FL",
      "addr_city": "Miami",
      "addr_postcode": "33155",
      "addr_street": "Southwest 40th Street",
      "addr_housenumber": "6792",
      "value": 52.58585152534821
    },
    {
      "id": 145972,
      "geometry": "POINT (-80.304596 25.732108)",
      "poi_name": "Chicken Kitchen",
      "osm_id": 7402706170,
      "amenity": "fast_food",
      "cuisine": "chicken",
      "addr_state": "FL",
      "addr_city": "Miami",
      "addr_postcode": "33155",
      "addr_street": "Southwest 40th Street",
      "addr_housenumber": "6786",
      "value": 52.58585152534821
    },
    {
      "id": 145973,
      "geometry": "POINT (-80.303186 25.731333)",
      "poi_name": "Little Caesars",
      "osm_id": 7402706176,
      "amenity": "fast_food",
      "cuisine": "pizza",
      "website": "https://littlecaesars.com/en-us/store/494/",
      "takeaway": "yes",
      "addr_state": "FL",
      "addr_city": "Miami",
      "addr_postcode": "33155",
      "addr_street": "Southwest 67th Avenue",
      "addr_housenumber": "4100",
      "value": 52.58585152534821
    },
    {
      "id": 145901,
      "geometry": "POINT (-80.336749 25.749055)",
      "poi_name": "Domino's",
      "osm_id": 7396316180,
      "amenity": "fast_food",
      "cuisine": "pizza",
      "takeaway": "yes",
      "addr_state": "FL",
      "addr_city": "Miami",
      "addr_postcode": "33165",
      "addr_street": "Southwest 24th Street",
      "addr_housenumber": "8737",
      "value": 52.58585152534821
    },
    {
      "id": 146832,
      "geometry": "POINT (-80.299885 25.695267)",
      "poi_name": "Subway",
      "osm_id": 7477638230,
      "amenity": "fast_food",
      "cuisine": "sandwich",
      "takeaway": "yes",
      "addr_state": "FL",
      "addr_city": "Miami",
      "addr_postcode": "33143",
      "addr_street": "South Dixie Highway",
      "addr_housenumber": "8099",
      "value": 52.58585152534821
    },
    {
      "id": 147043,
      "geometry": "POINT (-80.16353 25.697987)",
      "poi_name": "Subway",
      "osm_id": 7499041095,
      "amenity": "fast_food",
      "cuisine": "sandwich",
      "takeaway": "yes",
      "addr_state": "FL",
      "addr_city": "Key Biscayne",
      "addr_postcode": "33149",
      "addr_street": "Crandon Boulevard",
      "addr_housenumber": "180",
      "value": 52.58585152534821
    },
    {
      "id": 147044,
      "geometry": "POINT (-80.163642 25.697987)",
      "poi_name": "Domino's",
      "osm_id": 7499041096,
      "amenity": "fast_food",
      "cuisine": "pizza",
      "takeaway": "yes",
      "addr_state": "FL",
      "addr_city": "Key Biscayne",
      "addr_postcode": "33149",
      "addr_street": "Crandon Boulevard",
      "addr_housenumber": "180",
      "value": 52.58585152534821
    },
    {
      "id": 147248,
      "geometry": "POINT (-80.263832 25.799362)",
      "poi_name": "Subway",
      "osm_id": 7516393948,
      "amenity": "fast_food",
      "cuisine": "sandwich",
      "takeaway": "only",
      "outdoor_seating": "no",
      "addr_state": "FL",
      "addr_city": "Miami",
      "addr_postcode": "33142",
      "addr_street": "Northwest 42nd Avenue",
      "addr_housenumber": "2545",
      "value": 52.58585152534821
    },
    {
      "id": 147381,
      "geometry": "POINT (-80.262915 25.763315)",
      "poi_name": "McDonald's",
      "osm_id": 7527823811,
      "amenity": "fast_food",
      "cuisine": "burger",
      "building": "retail",
      "opening_hours": "24/7",
      "website": "https://www.mcdonalds.com/us/en-us/location/fl/miami/4180-sw-9th-st/2287.html",
      "phone": "+1-305-443-9366",
      "takeaway": "yes",
      "drive_through": "yes",
      "addr_state": "FL",
      "addr_city": "Miami",
      "addr_postcode": "33134",
      "addr_street": "Southwest 9th Street",
      "addr_housenumber": "4180",
      "value": 52.58585152534821
    },
    {
      "id": 147388,
      "geometry": "POINT (-80.207163 25.765597)",
      "poi_name": "Little Caesars",
      "osm_id": 7528041422,
      "amenity": "fast_food",
      "cuisine": "pizza",
      "opening_hours": "Mo-Su 10:30-22:00",
      "website": "https://littlecaesars.com/en-us/store/8963",
      "phone": "+1-305-854-5045",
      "takeaway": "yes",
      "drive_through": "no",
      "addr_state": "FL",
      "addr_city": "Miami",
      "addr_postcode": "33130",
      "addr_street": "Southwest 8th Avenue",
      "addr_housenumber": "827",
      "value": 52.58585152534821
    },
    {
      "id": 147463,
      "geometry": "POINT (-80.262492 25.752922)",
      "poi_name": "Burger King",
      "osm_id": 7535404474,
      "amenity": "fast_food",
      "cuisine": "burger",
      "opening_hours": "Mo-Su 06:00-23:00",
      "website": "https://www.bk.com/store-locator/store/restaurant_50",
      "takeaway": "yes",
      "drive_through": "yes",
      "addr_state": "FL",
      "addr_city": "Coral Gables",
      "addr_postcode": "33134",
      "addr_street": "Alcazar Avenue",
      "addr_housenumber": "395",
      "value": 52.58585152534821
    },
    {
      "id": 147464,
      "geometry": "POINT (-80.286952 25.777684)",
      "poi_name": "McDonald's",
      "osm_id": 7535463710,
      "amenity": "fast_food",
      "cuisine": "burger",
      "opening_hours": "Mo-Su 05:00-24:00",
      "website": "https://www.mcdonalds.com/us/en-us/location/fl/miami/5650-nw-7th-street/11599.html",
      "phone": "+1-305-262-3961",
      "takeaway": "yes",
      "drive_through": "yes",
      "addr_state": "FL",
      "addr_city": "Miami",
      "addr_postcode": "33126",
      "addr_street": "Northwest 7th Street",
      "addr_housenumber": "5640",
      "value": 52.58585152534821
    },
    {
      "id": 147567,
      "geometry": "POINT (-80.321874 25.67172)",
      "poi_name": "BurgerFi",
      "osm_id": 7545515467,
      "amenity": "fast_food",
      "cuisine": "burger",
      "opening_hours": "Mo-Su 11:00-21:00",
      "website": "https://order.burgerfi.com/locations/FL/miami-pinecrest-place/84341",
      "phone": "+1-786-633-4991",
      "takeaway": "yes",
      "drive_through": "no",
      "addr_state": "FL",
      "addr_city": "Miami",
      "addr_postcode": "33156",
      "addr_street": "Southwest 104th Street",
      "addr_housenumber": "7890",
      "value": 52.58585152534821
    },
    {
      "id": 147568,
      "geometry": "POINT (-80.322651 25.672508)",
      "poi_name": "Pizza Hut Express",
      "osm_id": 7545568614,
      "amenity": "fast_food",
      "cuisine": "pizza",
      "opening_hours": "Mo-Su 08:00-21:00",
      "website": "https://locations.pizzahut.com/fl/miami/7800-sw-104th-street",
      "takeaway": "yes",
      "drive_through": "no",
      "addr_state": "FL",
      "addr_city": "Miami",
      "addr_postcode": "33156",
      "addr_street": "Southwest 104th Street",
      "addr_housenumber": "7800",
      "value": 52.58585152534821
    },
    {
      "id": 147742,
      "geometry": "POINT (-80.239443 25.738949)",
      "poi_name": "Dunkin'",
      "osm_id": 7557799361,
      "amenity": "fast_food",
      "cuisine": "donut;coffee_shop",
      "opening_hours": "Mo-Fr 05:00-19:00; Sa-Su 06:00-19:00",
      "phone": "+1-305-444-1805",
      "takeaway": "yes",
      "drive_through": "no",
      "addr_state": "FL",
      "addr_city": "Miami",
      "addr_postcode": "33133",
      "addr_street": "South Dixie Highway",
      "addr_housenumber": "2720",
      "value": 52.58585152534821
    },
    {
      "id": 147743,
      "geometry": "POINT (-80.239144 25.73904)",
      "poi_name": "Subway",
      "osm_id": 7557799365,
      "amenity": "fast_food",
      "cuisine": "sandwich",
      "opening_hours": "Mo-Su 09:00-21:00",
      "website": "https://www.subway.com/en-US/FindAStore",
      "takeaway": "yes",
      "drive_through": "no",
      "addr_state": "FL",
      "addr_city": "Miami",
      "addr_postcode": "33133",
      "addr_street": "South Dixie Highway",
      "addr_housenumber": "2720",
      "value": 52.58585152534821
    },
    {
      "id": 147482,
      "geometry": "POINT (-80.240444 25.764917)",
      "poi_name": "Pollo Campero",
      "osm_id": 7535981125,
      "amenity": "fast_food",
      "cuisine": "chicken",
      "opening_hours": "Mo-Su 11:00-20:00",
      "website": "https://us.campero.com/locations/calle-ocho",
      "phone": "+1-833-226-7376",
      "takeaway": "yes",
      "drive_through": "yes",
      "outdoor_seating": "yes",
      "addr_state": "FL",
      "addr_city": "Miami",
      "addr_postcode": "33135",
      "addr_street": "Southwest 8th Street",
      "addr_housenumber": "2800",
      "value": 52.58585152534821
    },
    {
      "id": 147504,
      "geometry": "POINT (-80.254375 25.749327)",
      "poi_name": "Chipotle",
      "osm_id": 7538451828,
      "amenity": "fast_food",
      "cuisine": "mexican",
      "opening_hours": "Mo-Su 10:45-23:00",
      "website": "https://locations.chipotle.com/fl/miami/2235-sw-37th-ave",
      "phone": "+1-786-441-2385",
      "takeaway": "yes",
      "drive_through": "no",
      "official_name": "Chipotle Mexican Grill",
      "delivery": "yes",
      "addr_state": "FL",
      "addr_city": "Miami",
      "addr_postcode": "33145",
      "addr_street": "Southwest 37th Avenue",
      "addr_housenumber": "2235",
      "value": 52.58585152534821
    },
    {
      "id": 149292,
      "geometry": "POINT (-80.127454 25.813977)",
      "poi_name": "Dunkin'",
      "osm_id": 4002678189,
      "amenity": "fast_food",
      "cuisine": "donut;coffee_shop",
      "takeaway": "yes",
      "addr_state": "FL",
      "addr_city": "Miami Beach",
      "addr_postcode": "33140",
      "addr_street": "41st Street",
      "addr_housenumber": "341",
      "value": 52.58585152534821
    },
    {
      "id": 149267,
      "geometry": "POINT (-80.141294 25.787172)",
      "poi_name": "Pollo Tropical",
      "osm_id": 4001730234,
      "amenity": "fast_food",
      "cuisine": "chicken",
      "opening_hours": "Mo-Sa 10:30-01:00, Su 10:30-24:00",
      "website": "https://www.pollotropical.com/",
      "internet_access": "wlan",
      "phone": "+1 305 672 8888",
      "takeaway": "yes",
      "drive_through": "yes",
      "delivery": "no",
      "addr_state": "FL",
      "addr_city": "Miami Beach",
      "addr_postcode": "33139",
      "addr_street": "Alton Road",
      "addr_housenumber": "1454",
      "value": 52.58585152534821
    },
    {
      "id": 149268,
      "geometry": "POINT (-80.132059 25.790426)",
      "poi_name": "McDonald's",
      "osm_id": 4001731082,
      "amenity": "fast_food",
      "cuisine": "burger",
      "opening_hours": "24/7",
      "website": "https://www.mcdonalds.com/us/en-us/location/fl/miami-beach/1650-washington-ave/10664.html",
      "internet_access": "wlan",
      "phone": "+1 305 672 8031",
      "takeaway": "yes",
      "drive_through": "no",
      "addr_state": "FL",
      "addr_city": "Miami Beach",
      "addr_postcode": "33139",
      "addr_street": "Washington Avenue",
      "addr_housenumber": "1650",
      "value": 52.58585152534821
    },
    {
      "id": 149272,
      "geometry": "POINT (-80.131969 25.787687)",
      "poi_name": "Five Guys",
      "osm_id": 4001770889,
      "amenity": "fast_food",
      "cuisine": "burger",
      "opening_hours": "Mo-Su 11:00-23:30",
      "website": "https://restaurants.fiveguys.com/1500-washington-ave",
      "phone": "+1 305 538 3807",
      "takeaway": "yes",
      "official_name": "Five Guys Burgers and Fries",
      "addr_state": "FL",
      "addr_city": "Miami Beach",
      "addr_postcode": "33139",
      "addr_street": "Washington Avenue",
      "addr_housenumber": "1500",
      "value": 52.58585152534821
    },
    {
      "id": 153197,
      "geometry": "POINT (-80.120512 25.852637)",
      "poi_name": "BurgerFi",
      "osm_id": 4183781830,
      "amenity": "fast_food",
      "cuisine": "burger",
      "phone": "(786) 803-8179",
      "takeaway": "yes",
      "addr_city": "Miami Beach",
      "addr_postcode": "33140",
      "addr_street": "Collins Avenue",
      "addr_housenumber": "6812",
      "value": 52.58585152534821
    },
    {
      "id": 151410,
      "geometry": "POINT (-80.202296 25.801474)",
      "poi_name": "Serendipity",
      "osm_id": 4098016339,
      "amenity": "fast_food",
      "cuisine": "ice_cream",
      "opening_hours": "Su-Th 12:00-18:00; Fr-Sa 12:00-23:00",
      "addr_state": "FL",
      "addr_city": "Miami",
      "addr_postcode": "33127",
      "addr_street": "Northwest 26th Street",
      "addr_housenumber": "421",
      "value": 52.58585152534821
    },
    {
      "id": 153329,
      "geometry": "POINT (-80.18847 25.777078)",
      "poi_name": "Smoothie King",
      "osm_id": 4190506745,
      "amenity": "fast_food",
      "cuisine": "juice",
      "opening_hours": "Mo-Fr 07:00-21:00; Sa 09:00-21:00; Su 11:00-19:00",
      "takeaway": "yes",
      "addr_state": "FL",
      "addr_city": "Miami",
      "addr_postcode": "33132",
      "addr_street": "Biscayne Boulevard",
      "addr_housenumber": "248",
      "value": 52.58585152534821
    },
    {
      "id": 156559,
      "geometry": "POINT (-80.272633 25.764364)",
      "poi_name": "Sweet Dogs",
      "osm_id": 4664713789,
      "amenity": "fast_food",
      "cuisine": "hot_dog;american",
      "opening_hours": "Mo-Th 11:00-22:00; Fr 11:00-00:00; Sa 00:00-03:00, 11:00-00:00; Su 00:00-03:00, 12:00-22:00",
      "website": "http://www.sweetdogs.net",
      "phone": "+1-305-448-4900",
      "takeaway": "yes",
      "drive_through": "no",
      "addr_state": "FL",
      "addr_city": "Miami",
      "addr_postcode": "33134",
      "addr_street": "Southwest 8th Street",
      "addr_housenumber": "4749",
      "value": 52.58585152534821
    },
    {
      "id": 158661,
      "geometry": "POINT (-80.209307 25.869)",
      "poi_name": "Dunkin'",
      "osm_id": 4757147234,
      "amenity": "fast_food",
      "cuisine": "donut;coffee_shop",
      "takeaway": "yes",
      "addr_state": "FL",
      "addr_city": "Miami",
      "addr_street": "Northwest 103rd Street",
      "addr_housenumber": "658",
      "value": 52.58585152534821
    },
    {
      "id": 158662,
      "geometry": "POINT (-80.209707 25.8727)",
      "poi_name": "Subway",
      "osm_id": 4757147237,
      "amenity": "fast_food",
      "cuisine": "sandwich",
      "takeaway": "yes",
      "addr_state": "FL",
      "addr_city": "Miami",
      "addr_housenumber": "109-D",
      "value": 52.58585152534821
    },
    {
      "id": 160996,
      "geometry": "POINT (-80.141048 25.955407)",
      "poi_name": "Five Guys",
      "osm_id": 4858714956,
      "amenity": "fast_food",
      "cuisine": "burger",
      "takeaway": "yes",
      "drive_through": "no",
      "official_name": "Five Guys Burgers and Fries",
      "addr_state": "FL",
      "addr_city": "Aventura",
      "addr_postcode": "33180",
      "addr_street": "Biscayne Boulevard",
      "addr_housenumber": "19575",
      "value": 52.58585152534821
    },
    {
      "id": 162822,
      "geometry": "POINT (-80.128568 25.986696)",
      "poi_name": "BurgerFi",
      "osm_id": 4943092521,
      "amenity": "fast_food",
      "cuisine": "burger",
      "opening_hours": "Mo-Su 11:00-23:00",
      "website": "https://order.burgerfi.com/",
      "phone": "+1 954-455-0536",
      "takeaway": "yes",
      "addr_city": "Hallandale Beach",
      "addr_postcode": "33009",
      "addr_street": "East Hallandale Beach Boulevard",
      "addr_housenumber": "1955",
      "value": 52.58585152534821
    },
    {
      "id": 180940,
      "geometry": "POINT (-80.190162 25.782062)",
      "poi_name": "Subway",
      "osm_id": 10824442408,
      "amenity": "fast_food",
      "cuisine": "sandwich",
      "takeaway": "yes",
      "addr_state": "FL",
      "addr_city": "Miami",
      "addr_postcode": "33132",
      "addr_street": "Biscayne Boulevard",
      "addr_housenumber": "888",
      "value": 52.58585152534821
    },
    {
      "id": 180941,
      "geometry": "POINT (-80.210062 25.859779)",
      "poi_name": "McDonald's",
      "osm_id": 10824442409,
      "amenity": "fast_food",
      "cuisine": "burger",
      "website": "https://www.mcdonalds.com/us/en-us/location/fl/miami/9250-nw-7th-ave/5112.html",
      "takeaway": "yes",
      "addr_state": "FL",
      "addr_city": "Miami",
      "addr_postcode": "33150",
      "addr_street": "Northwest 7th Avenue",
      "addr_housenumber": "9250",
      "value": 52.58585152534821
    },
    {
      "id": 187066,
      "geometry": "POINT (-80.365265 25.684559)",
      "poi_name": "Puerto Riquismo",
      "osm_id": 7969527190,
      "amenity": "fast_food",
      "cuisine": "Puerto_Rico",
      "wheelchair": "yes",
      "opening_hours": "Su-Th 12:00-01:00; Fr-Sa 12:00-05:00",
      "drive_through": "no",
      "addr_state": "FL",
      "addr_city": "Miami",
      "addr_postcode": "33176",
      "addr_street": "Southwest 107th Avenue",
      "addr_housenumber": "9019",
      "value": 52.58585152534821
    },
    {
      "id": 194014,
      "geometry": "POINT (-80.303271 25.733026)",
      "poi_name": "McDonald's",
      "osm_id": 1576341806,
      "amenity": "fast_food",
      "cuisine": "burger",
      "website": "https://www.mcdonalds.com/us/en-us/location/fl/miami/6700-bird-rd/10408.html",
      "takeaway": "yes",
      "drive_through": "yes",
      "addr_state": "FL",
      "addr_city": "Miami",
      "addr_postcode": "33155",
      "addr_street": "Southwest 40th Street",
      "addr_housenumber": "6700",
      "value": 52.58585152534821
    },
    {
      "id": 206347,
      "geometry": "POINT (-80.140782 25.788134)",
      "poi_name": "Smoothie King",
      "osm_id": 7206580390,
      "amenity": "fast_food",
      "cuisine": "juice",
      "takeaway": "yes",
      "addr_state": "FL",
      "addr_city": "Miami Beach",
      "addr_postcode": "33139",
      "addr_street": "Alton Road",
      "addr_housenumber": "1525",
      "value": 52.58585152534821
    },
    {
      "id": 204835,
      "geometry": "POINT (-80.138543 25.790346)",
      "poi_name": "Groovy's Pizza & Bar",
      "osm_id": 7143754539,
      "amenity": "fast_food",
      "cuisine": "pizza",
      "outdoor_seating": "yes",
      "addr_state": "FL",
      "addr_city": "Miami Beach",
      "addr_postcode": "33139",
      "addr_street": "Lincoln Road",
      "addr_housenumber": "938",
      "value": 52.58585152534821
    },
    {
      "id": 207597,
      "geometry": "POINT (-80.274928 25.7646)",
      "poi_name": "Subway",
      "osm_id": 4953853231,
      "amenity": "fast_food",
      "cuisine": "sandwich",
      "takeaway": "yes",
      "drive_through": "no",
      "addr_state": "FL",
      "addr_city": "Miami",
      "addr_postcode": "33134",
      "addr_street": "Southwest 8th Street",
      "addr_housenumber": "4819",
      "value": 52.58585152534821
    },
    {
      "id": 206343,
      "geometry": "POINT (-80.14075 25.787581)",
      "poi_name": "Chicken Kitchen",
      "osm_id": 7206567783,
      "amenity": "fast_food",
      "cuisine": "chicken",
      "addr_state": "FL",
      "addr_city": "Miami Beach",
      "addr_postcode": "33139",
      "addr_street": "Alton Road",
      "addr_housenumber": "1509",
      "value": 52.58585152534821
    },
    {
      "id": 219536,
      "geometry": "POINT (-80.161421 25.899638)",
      "poi_name": "The Food Truck Store",
      "osm_id": 9335308990,
      "amenity": "fast_food",
      "cuisine": "burger",
      "addr_state": "FL",
      "addr_city": "North Miami",
      "addr_postcode": "33181",
      "addr_street": "Biscayne Boulevard",
      "addr_housenumber": "13448",
      "value": 52.58585152534821
    },
    {
      "id": 211473,
      "geometry": "POINT (-80.14725 25.942782)",
      "poi_name": "BurgerFi",
      "osm_id": 5159146879,
      "amenity": "fast_food",
      "cuisine": "burger",
      "phone": "(305) 466-0350",
      "takeaway": "yes",
      "drive_through": "no",
      "addr_city": "Aventura",
      "addr_postcode": "33160",
      "addr_street": "Biscayne Boulevard",
      "addr_housenumber": "181",
      "value": 52.58585152534821
    },
    {
      "id": 218881,
      "geometry": "POINT (-80.182168 25.927975)",
      "poi_name": "Dunkin'",
      "osm_id": 9306987113,
      "amenity": "fast_food",
      "cuisine": "donut;coffee_shop",
      "takeaway": "yes",
      "drive_through": "yes",
      "addr_state": "FL",
      "addr_city": "North Miami Beach",
      "addr_postcode": "33162",
      "addr_street": "North Miami Beach Boulevard",
      "value": 52.58585152534821
    },
    {
      "id": 218882,
      "geometry": "POINT (-80.182275 25.928014)",
      "poi_name": "Chipotle",
      "osm_id": 9306987115,
      "amenity": "fast_food",
      "cuisine": "mexican",
      "takeaway": "yes",
      "drive_through": "no",
      "official_name": "Chipotle Mexican Grill",
      "addr_state": "FL",
      "addr_city": "North Miami Beach",
      "addr_postcode": "33162",
      "addr_street": "North Miami Beach Boulevard",
      "addr_housenumber": "886",
      "value": 52.58585152534821
    },
    {
      "id": 218883,
      "geometry": "POINT (-80.181227 25.926548)",
      "poi_name": "Smoothie King",
      "osm_id": 9307129917,
      "amenity": "fast_food",
      "cuisine": "juice",
      "takeaway": "yes",
      "drive_through": "no",
      "addr_state": "FL",
      "addr_city": "North Miami Beach",
      "addr_postcode": "33162",
      "addr_street": "North Miami Beach Boulevard",
      "addr_housenumber": "974",
      "value": 52.58585152534821
    },
    {
      "id": 215830,
      "geometry": "POINT (-80.205153 26.009811)",
      "poi_name": "Panda Express",
      "osm_id": 5314148922,
      "amenity": "fast_food",
      "cuisine": "chinese",
      "opening_hours": "Mo-Su 10:30-21:30",
      "website": "https://www.pandaexpress.com/userlocation/2601/fl/hollywood/5860-hollywood-blvd",
      "phone": "+1-954-989-8938",
      "takeaway": "yes",
      "drive_through": "yes",
      "addr_state": "FL",
      "addr_city": "Hollywood",
      "addr_postcode": "33021",
      "addr_street": "Hollywood Boulevard",
      "addr_housenumber": "5860",
      "value": 52.58585152534821
    },
    {
      "id": 219538,
      "geometry": "POINT (-80.162244 25.897733)",
      "poi_name": "Five Guys",
      "osm_id": 9335308993,
      "amenity": "fast_food",
      "cuisine": "burger",
      "takeaway": "yes",
      "official_name": "Five Guys Burgers and Fries",
      "addr_state": "FL",
      "addr_city": "North Miami",
      "addr_postcode": "33181",
      "addr_street": "Biscayne Boulevard",
      "addr_housenumber": "13286",
      "value": 52.58585152534821
    },
    {
      "id": 219540,
      "geometry": "POINT (-80.162492 25.89699)",
      "poi_name": "Guarapo Juice Bar & Cafe",
      "osm_id": 9335308996,
      "amenity": "fast_food",
      "cuisine": "juice",
      "addr_state": "FL",
      "addr_city": "North Miami",
      "addr_postcode": "33181",
      "addr_street": "Biscayne Boulevard",
      "addr_housenumber": "13130",
      "value": 52.58585152534821
    },
    {
      "id": 219749,
      "geometry": "POINT (-80.27524 25.808276)",
      "poi_name": "Subway",
      "osm_id": 9344883043,
      "amenity": "fast_food",
      "cuisine": "sandwich",
      "takeaway": "yes",
      "addr_state": "FL",
      "addr_city": "Miami Springs",
      "addr_postcode": "33166",
      "addr_street": "Northwest 36th Street",
      "addr_housenumber": "4767",
      "value": 52.58585152534821
    },
    {
      "id": 219750,
      "geometry": "POINT (-80.315755 25.808867)",
      "poi_name": "Dunkin'",
      "osm_id": 9344883100,
      "amenity": "fast_food",
      "cuisine": "donut;coffee_shop",
      "takeaway": "yes",
      "drive_through": "yes",
      "addr_state": "FL",
      "addr_city": "Miami",
      "addr_postcode": "33166",
      "addr_street": "Northwest 36th Street",
      "addr_housenumber": "7330",
      "value": 52.58585152534821
    },
    {
      "id": 229866,
      "geometry": "POINT (-80.134288 25.774928)",
      "poi_name": "Subway",
      "osm_id": 4403672990,
      "amenity": "fast_food",
      "cuisine": "sandwich",
      "takeaway": "yes",
      "addr_state": "FL",
      "addr_city": "Miami Beach",
      "addr_postcode": "33139",
      "addr_street": "Washington Avenue",
      "addr_housenumber": "508",
      "value": 52.58585152534821
    },
    {
      "id": 233005,
      "geometry": "POINT (-80.264278 25.774883)",
      "poi_name": "Subway",
      "osm_id": 4553165986,
      "amenity": "fast_food",
      "cuisine": "sandwich",
      "takeaway": "yes",
      "addr_city": "Miami",
      "addr_postcode": "33126",
      "addr_street": "Northwest 42nd Avenue",
      "addr_housenumber": "292",
      "value": 52.58585152534821
    },
    {
      "id": 241472,
      "geometry": "POINT (-80.30036 25.694214)",
      "poi_name": "Smoothie King",
      "osm_id": 6025987199,
      "amenity": "fast_food",
      "cuisine": "juice",
      "takeaway": "yes",
      "addr_state": "FL",
      "addr_city": "Miami",
      "addr_postcode": "33143",
      "addr_street": "South Dixie Highway",
      "addr_housenumber": "6637",
      "value": 52.58585152534821
    },
    {
      "id": 241297,
      "geometry": "POINT (-80.308464 25.732908)",
      "poi_name": "Burger King",
      "osm_id": 6018248808,
      "amenity": "fast_food",
      "cuisine": "burger",
      "takeaway": "yes",
      "addr_state": "FL",
      "addr_city": "Miami",
      "addr_postcode": "33155",
      "addr_street": "Southwest 40th Street",
      "addr_housenumber": "7070",
      "value": 52.58585152534821
    },
    {
      "id": 240875,
      "geometry": "POINT (-80.367737 25.700329)",
      "poi_name": "Papa John's",
      "osm_id": 5996800581,
      "amenity": "fast_food",
      "cuisine": "pizza",
      "opening_hours": "Mo-Th 10:00-22:10; Fr,Sa 10:00-24:00; Su 10:00-22:10",
      "website": "https://locations.papajohns.com/united-states/fl/33173-2702/miami/10756-sw-72nd-st",
      "phone": "+1-305-596-7272",
      "takeaway": "yes",
      "drive_through": "no",
      "delivery": "yes",
      "addr_state": "FL",
      "addr_city": "Miami",
      "addr_postcode": "33173",
      "addr_street": "Southwest 72nd Street",
      "addr_housenumber": "10756",
      "value": 52.58585152534821
    },
    {
      "id": 241183,
      "geometry": "POINT (-80.194343 25.764293)",
      "poi_name": "Power Pizza",
      "osm_id": 6010864341,
      "amenity": "fast_food",
      "cuisine": "pizza",
      "opening_hours": "Mo-Su 11:00-22:00",
      "website": "https://www.powerpizzamiami.com/",
      "phone": "+1-305-381-4446",
      "takeaway": "yes",
      "drive_through": "no",
      "delivery": "yes",
      "addr_state": "FL",
      "addr_city": "Miami",
      "addr_postcode": "33130",
      "addr_street": "Southwest 10th Street",
      "addr_housenumber": "50",
      "value": 52.58585152534821
    },
    {
      "id": 241326,
      "geometry": "POINT (-80.19326 25.863367)",
      "poi_name": "Dunkin'",
      "osm_id": 6019671534,
      "amenity": "fast_food",
      "cuisine": "donut;coffee_shop",
      "takeaway": "yes",
      "addr_state": "FL",
      "addr_city": "Miami Shores",
      "addr_postcode": "33138",
      "addr_street": "Northeast 2nd Avenue",
      "addr_housenumber": "9545",
      "value": 52.58585152534821
    },
    {
      "id": 241327,
      "geometry": "POINT (-80.193597 25.862039)",
      "poi_name": "Subway",
      "osm_id": 6019671619,
      "amenity": "fast_food",
      "cuisine": "sandwich",
      "takeaway": "yes",
      "addr_state": "FL",
      "addr_city": "Miami Shores",
      "addr_postcode": "33138",
      "addr_street": "Northeast 2nd Avenue",
      "addr_housenumber": "9450",
      "value": 52.58585152534821
    },
    {
      "id": 241347,
      "geometry": "POINT (-80.303201 25.732127)",
      "poi_name": "Dairy Queen",
      "osm_id": 6020065936,
      "amenity": "fast_food",
      "cuisine": "ice_cream;burger",
      "takeaway": "yes",
      "addr_state": "FL",
      "addr_city": "Miami",
      "addr_postcode": "33155",
      "addr_street": "Southwest 67th Avenue",
      "addr_housenumber": "4040",
      "value": 52.58585152534821
    },
    {
      "id": 241521,
      "geometry": "POINT (-80.162909 25.890811)",
      "poi_name": "Wendy's",
      "osm_id": 6027563617,
      "amenity": "fast_food",
      "cuisine": "burger",
      "takeaway": "yes",
      "addr_state": "FL",
      "addr_city": "North Miami",
      "addr_postcode": "33181",
      "addr_street": "Biscayne Boulevard",
      "addr_housenumber": "12415",
      "value": 52.58585152534821
    },
    {
      "id": 241522,
      "geometry": "POINT (-80.16256 25.891654)",
      "poi_name": "Dunkin'",
      "osm_id": 6027563622,
      "amenity": "fast_food",
      "cuisine": "donut;coffee_shop",
      "takeaway": "yes",
      "addr_state": "FL",
      "addr_city": "North Miami",
      "addr_postcode": "33181",
      "addr_street": "Biscayne Boulevard",
      "addr_housenumber": "12561",
      "value": 52.58585152534821
    },
    {
      "id": 241530,
      "geometry": "POINT (-80.165206 25.889483)",
      "poi_name": "Vegas Burger Bar",
      "osm_id": 6028053074,
      "amenity": "fast_food",
      "cuisine": "burger",
      "addr_state": "FL",
      "addr_city": "North Miami",
      "addr_postcode": "33181",
      "addr_street": "Northeast North Miami Street",
      "addr_housenumber": "1699",
      "value": 52.58585152534821
    },
    {
      "id": 241531,
      "geometry": "POINT (-80.162301 25.897578)",
      "poi_name": "Subway",
      "osm_id": 6028053112,
      "amenity": "fast_food",
      "cuisine": "sandwich",
      "takeaway": "yes",
      "addr_state": "FL",
      "addr_city": "North Miami",
      "addr_postcode": "33181",
      "addr_street": "Biscayne Boulevard",
      "addr_housenumber": "13190",
      "value": 52.58585152534821
    },
    {
      "id": 241532,
      "geometry": "POINT (-80.162265 25.897686)",
      "poi_name": "Little Caesars",
      "osm_id": 6028053113,
      "amenity": "fast_food",
      "cuisine": "pizza",
      "website": "https://littlecaesars.com/en-us/store/8643/",
      "takeaway": "yes",
      "addr_state": "FL",
      "addr_city": "North Miami",
      "addr_postcode": "33181",
      "addr_street": "Biscayne Boulevard",
      "addr_housenumber": "13280",
      "value": 52.58585152534821
    },
    {
      "id": 241536,
      "geometry": "POINT (-80.303087 25.73365)",
      "poi_name": "Papa John's",
      "osm_id": 6028332777,
      "amenity": "fast_food",
      "cuisine": "pizza",
      "takeaway": "yes",
      "addr_state": "FL",
      "addr_city": "Miami",
      "addr_postcode": "33155",
      "addr_street": "Southwest 40th Street",
      "addr_housenumber": "6701",
      "value": 52.58585152534821
    },
    {
      "id": 241537,
      "geometry": "POINT (-80.3032 25.747754)",
      "poi_name": "Domino's",
      "osm_id": 6028393973,
      "amenity": "fast_food",
      "cuisine": "pizza",
      "takeaway": "yes",
      "addr_state": "FL",
      "addr_city": "Miami",
      "addr_postcode": "33155",
      "addr_street": "Southwest 24th Street",
      "addr_housenumber": "6696",
      "value": 52.58585152534821
    },
    {
      "id": 241590,
      "geometry": "POINT (-80.186446 25.961911)",
      "poi_name": "Burger King",
      "osm_id": 6030982391,
      "amenity": "fast_food",
      "cuisine": "burger",
      "takeaway": "yes",
      "addr_state": "FL",
      "addr_city": "Miami",
      "addr_postcode": "33179",
      "addr_street": "Ives Dairy Road",
      "addr_housenumber": "900",
      "value": 52.58585152534821
    },
    {
      "id": 241604,
      "geometry": "POINT (-80.14571 25.950172)",
      "poi_name": "Chipotle",
      "osm_id": 6032184683,
      "amenity": "fast_food",
      "cuisine": "mexican",
      "takeaway": "yes",
      "official_name": "Chipotle Mexican Grill",
      "addr_state": "FL",
      "addr_city": "Aventura",
      "addr_postcode": "33180",
      "addr_street": "Biscayne Boulevard",
      "addr_housenumber": "18815",
      "value": 52.58585152534821
    },
    {
      "id": 241512,
      "geometry": "POINT (-80.122512 25.933364)",
      "poi_name": "Domino's",
      "osm_id": 6027314284,
      "amenity": "fast_food",
      "cuisine": "pizza",
      "takeaway": "yes",
      "drive_through": "no",
      "addr_state": "FL",
      "addr_city": "Sunny Isles Beach",
      "addr_postcode": "33160",
      "addr_street": "Collins Avenue",
      "addr_housenumber": "17028",
      "value": 52.58585152534821
    },
    {
      "id": 241648,
      "geometry": "POINT (-80.340306 25.747205)",
      "poi_name": "Wendy's",
      "osm_id": 6034264505,
      "amenity": "fast_food",
      "cuisine": "burger",
      "takeaway": "yes",
      "addr_state": "FL",
      "addr_city": "Miami",
      "addr_postcode": "33165",
      "addr_street": "Southwest 24th Street",
      "addr_housenumber": "8922",
      "value": 52.58585152534821
    },
    {
      "id": 241651,
      "geometry": "POINT (-80.336737 25.747212)",
      "poi_name": "KFC",
      "osm_id": 6034265489,
      "amenity": "fast_food",
      "cuisine": "chicken",
      "website": "https://locations.kfc.com/fl/miami/8760-coral-way",
      "takeaway": "yes",
      "addr_state": "FL",
      "addr_city": "Miami",
      "addr_postcode": "33165",
      "addr_street": "Southwest 24th Street",
      "addr_housenumber": "8760",
      "value": 52.58585152534821
    },
    {
      "id": 241559,
      "geometry": "POINT (-80.147801 25.942715)",
      "poi_name": "Panera Bread",
      "osm_id": 6029836543,
      "amenity": "fast_food",
      "cuisine": "sandwich;bakery",
      "takeaway": "yes",
      "drive_through": "no",
      "addr_state": "FL",
      "addr_city": "Aventura",
      "addr_postcode": "33160",
      "addr_street": "Biscayne Boulevard",
      "addr_housenumber": "18111",
      "value": 52.58585152534821
    },
    {
      "id": 241560,
      "geometry": "POINT (-80.121066 25.948944)",
      "poi_name": "Jamba",
      "osm_id": 6029855637,
      "amenity": "fast_food",
      "cuisine": "juice",
      "takeaway": "yes",
      "drive_through": "no",
      "addr_state": "FL",
      "addr_city": "Sunny Isles Beach",
      "addr_postcode": "33160",
      "addr_street": "Collins Avenue",
      "addr_housenumber": "18660",
      "value": 52.58585152534821
    },
    {
      "id": 241669,
      "geometry": "POINT (-80.366406 25.684219)",
      "poi_name": "Chicken Kitchen",
      "osm_id": 6035365632,
      "amenity": "fast_food",
      "cuisine": "chicken",
      "wheelchair": "yes",
      "opening_hours": "Mo-Sa 11:00-22:00; Su 11:00-21:00",
      "takeaway": "yes",
      "drive_through": "no",
      "outdoor_seating": "no",
      "addr_state": "FL",
      "addr_city": "Miami",
      "addr_postcode": "33176",
      "addr_street": "Southwest 107th Avenue",
      "addr_housenumber": "9067",
      "value": 52.58585152534821
    },
    {
      "id": 241670,
      "geometry": "POINT (-80.364554 25.685648)",
      "poi_name": "88 poke",
      "osm_id": 6035366012,
      "amenity": "fast_food",
      "wheelchair": "yes",
      "drive_through": "no",
      "addr_state": "FL",
      "addr_city": "Miami",
      "addr_postcode": "33176",
      "addr_street": "Southwest 107th Avenue",
      "addr_housenumber": "8817",
      "value": 52.58585152534821
    },
    {
      "id": 241671,
      "geometry": "POINT (-80.366495 25.684131)",
      "poi_name": "Wingstop",
      "osm_id": 6035367520,
      "amenity": "fast_food",
      "cuisine": "wings",
      "opening_hours": "11:00-24:00",
      "takeaway": "yes",
      "drive_through": "no",
      "addr_state": "FL",
      "addr_city": "Miami",
      "addr_postcode": "33176",
      "addr_street": "Southwest 107th Avenue",
      "addr_housenumber": "9069",
      "value": 52.58585152534821
    },
    {
      "id": 241770,
      "geometry": "POINT (-80.336122 25.749188)",
      "poi_name": "Chipotle",
      "osm_id": 6038068302,
      "amenity": "fast_food",
      "cuisine": "mexican",
      "takeaway": "yes",
      "official_name": "Chipotle Mexican Grill",
      "addr_state": "FL",
      "addr_city": "Miami",
      "addr_postcode": "33165",
      "addr_street": "Southwest 87th Avenue",
      "addr_housenumber": "2200",
      "value": 52.58585152534821
    },
    {
      "id": 241672,
      "geometry": "POINT (-80.366344 25.684336)",
      "poi_name": "Fit4U",
      "osm_id": 6035367530,
      "amenity": "fast_food",
      "cuisine": "juice",
      "wheelchair": "yes",
      "opening_hours": "Mo-Sa 11:00-21:00; Su off",
      "phone": "+1 786-721-2821",
      "addr_state": "FL",
      "addr_city": "Miami",
      "addr_postcode": "33176",
      "addr_street": "Southwest 107th Avenue",
      "addr_housenumber": "9061",
      "value": 52.58585152534821
    },
    {
      "id": 241673,
      "geometry": "POINT (-80.366328 25.684391)",
      "poi_name": "Carlitos Cafe",
      "osm_id": 6035367539,
      "amenity": "fast_food",
      "wheelchair": "yes",
      "addr_state": "FL",
      "addr_city": "Miami",
      "addr_postcode": "33176",
      "addr_street": "Southwest 107th Avenue",
      "addr_housenumber": "9045",
      "value": 52.58585152534821
    },
    {
      "id": 241675,
      "geometry": "POINT (-80.364659 25.68657)",
      "poi_name": "Chipotle",
      "osm_id": 6035367642,
      "amenity": "fast_food",
      "cuisine": "mexican",
      "opening_hours": "Mo-Su 10:45-22:00",
      "website": "https://locations.chipotle.com/fl/miami/10600-n-kendall-dr",
      "capacity": "122",
      "internet_access": "no",
      "phone": "+1-786-361-1296",
      "takeaway": "yes",
      "drive_through": "no",
      "official_name": "Chipotle Mexican Grill",
      "outdoor_seating": "yes",
      "addr_state": "FL",
      "addr_city": "Miami",
      "addr_postcode": "33176",
      "addr_street": "North Kendall Drive;Southwest 88th Street",
      "addr_housenumber": "10600",
      "value": 52.58585152534821
    },
    {
      "id": 241676,
      "geometry": "POINT (-80.371321 25.671611)",
      "poi_name": "Subway",
      "osm_id": 6035368646,
      "amenity": "fast_food",
      "cuisine": "sandwich",
      "takeaway": "yes",
      "addr_state": "FL",
      "addr_city": "Miami",
      "addr_postcode": "33176",
      "addr_street": "Southwest 104th Street",
      "addr_housenumber": "10846",
      "value": 52.58585152534821
    },
    {
      "id": 241681,
      "geometry": "POINT (-80.393375 25.685743)",
      "poi_name": "Einstein Bros. Bagels",
      "osm_id": 6035444813,
      "amenity": "fast_food",
      "cuisine": "bagel",
      "takeaway": "yes",
      "addr_state": "FL",
      "addr_city": "Miami",
      "addr_postcode": "33186",
      "addr_street": "Southwest 88th Street",
      "addr_housenumber": "12180",
      "value": 52.58585152534821
    },
    {
      "id": 241682,
      "geometry": "POINT (-80.392592 25.684723)",
      "poi_name": "Subway",
      "osm_id": 6035444824,
      "amenity": "fast_food",
      "cuisine": "sandwich",
      "takeaway": "yes",
      "addr_state": "FL",
      "addr_city": "Miami",
      "addr_postcode": "33186",
      "addr_street": "Southwest 88th Street",
      "addr_housenumber": "12046",
      "value": 52.58585152534821
    },
    {
      "id": 241685,
      "geometry": "POINT (-80.416031 25.683853)",
      "poi_name": "Panera Bread",
      "osm_id": 6035494122,
      "amenity": "fast_food",
      "cuisine": "sandwich;bakery",
      "takeaway": "yes",
      "drive_through": "no",
      "addr_state": "FL",
      "addr_city": "Miami",
      "addr_postcode": "33186",
      "addr_street": "Southwest 88th Street",
      "addr_housenumber": "13672",
      "value": 52.58585152534821
    },
    {
      "id": 241687,
      "geometry": "POINT (-80.415178 25.684559)",
      "poi_name": "Chipotle",
      "osm_id": 6035494399,
      "amenity": "fast_food",
      "cuisine": "mexican",
      "takeaway": "yes",
      "drive_through": "no",
      "official_name": "Chipotle Mexican Grill",
      "addr_state": "FL",
      "addr_city": "Miami",
      "addr_postcode": "33186",
      "addr_street": "North Kendall Drive",
      "addr_housenumber": "13612",
      "value": 52.58585152534821
    },
    {
      "id": 241692,
      "geometry": "POINT (-80.416873 25.662443)",
      "poi_name": "Meking II",
      "osm_id": 6035527398,
      "amenity": "fast_food",
      "cuisine": "chinese",
      "addr_state": "FL",
      "addr_city": "Miami",
      "addr_postcode": "33186",
      "addr_street": "Southwest 137th Avenue",
      "addr_housenumber": "11274",
      "value": 52.58585152534821
    },
    {
      "id": 241695,
      "geometry": "POINT (-80.432111 25.671139)",
      "poi_name": "Dunkin'",
      "osm_id": 6035560827,
      "amenity": "fast_food",
      "cuisine": "donut;coffee_shop",
      "takeaway": "yes",
      "drive_through": "yes",
      "addr_state": "FL",
      "addr_city": "Miami",
      "addr_postcode": "33186",
      "addr_street": "Southwest 104th Street",
      "addr_housenumber": "14699",
      "value": 52.58585152534821
    },
    {
      "id": 241779,
      "geometry": "POINT (-80.335374 25.747993)",
      "poi_name": "Taco Bell",
      "osm_id": 6038185124,
      "amenity": "fast_food",
      "cuisine": "tex-mex",
      "website": "https://locations.tacobell.com/fl/miami/8699-sw-24th-st.html",
      "takeaway": "yes",
      "addr_state": "FL",
      "addr_city": "Miami",
      "addr_postcode": "33155",
      "addr_street": "Southwest 24th Street",
      "addr_housenumber": "8699",
      "value": 52.58585152534821
    },
    {
      "id": 242170,
      "geometry": "POINT (-80.309075 25.763218)",
      "poi_name": "Pollo Tropical",
      "osm_id": 6058559502,
      "amenity": "fast_food",
      "cuisine": "chicken",
      "website": "https://www.pollotropical.com/locations",
      "phone": "+1-786-329-7650",
      "takeaway": "yes",
      "drive_through": "yes",
      "addr_state": "FL",
      "addr_city": "Miami",
      "addr_postcode": "33144",
      "addr_street": "Southwest 8th Street",
      "addr_housenumber": "7021",
      "value": 52.58585152534821
    },
    {
      "id": 242120,
      "geometry": "POINT (-80.19582 25.764569)",
      "poi_name": "Dunkin'",
      "osm_id": 6055473562,
      "amenity": "fast_food",
      "cuisine": "donut;coffee_shop",
      "takeaway": "yes",
      "addr_state": "FL",
      "addr_city": "Miami",
      "addr_postcode": "33130",
      "addr_street": "Southwest 1st Avenue",
      "addr_housenumber": "940",
      "value": 52.58585152534821
    },
    {
      "id": 242181,
      "geometry": "POINT (-80.289457 25.778184)",
      "poi_name": "Burger King",
      "osm_id": 6059013136,
      "amenity": "fast_food",
      "cuisine": "burger",
      "opening_hours": "Mo-Su 06:00-22:00",
      "website": "https://www.bk.com/store-locator/store/restaurant_44",
      "phone": "+1-305-261-2673",
      "takeaway": "yes",
      "drive_through": "yes",
      "addr_state": "FL",
      "addr_city": "Miami",
      "addr_postcode": "33126",
      "addr_street": "Northwest 7th Street",
      "addr_housenumber": "5721",
      "value": 52.58585152534821
    },
    {
      "id": 242183,
      "geometry": "POINT (-80.290402 25.778854)",
      "poi_name": "Domino's",
      "osm_id": 6059013228,
      "amenity": "fast_food",
      "cuisine": "pizza",
      "takeaway": "yes",
      "addr_state": "FL",
      "addr_city": "Miami",
      "addr_postcode": "33126",
      "addr_street": "Northwest 7th Street",
      "addr_housenumber": "5769",
      "value": 52.58585152534821
    },
    {
      "id": 242294,
      "geometry": "POINT (-80.287826 25.776846)",
      "poi_name": "Pollo Tropical",
      "osm_id": 6066477893,
      "amenity": "fast_food",
      "cuisine": "chicken",
      "opening_hours": "Mo-Su 11:00-21:00",
      "takeaway": "yes",
      "drive_through": "yes",
      "addr_state": "FL",
      "addr_city": "Miami",
      "addr_postcode": "33126",
      "addr_street": "Northwest 57th Avenue",
      "addr_housenumber": "581",
      "value": 52.58585152534821
    },
    {
      "id": 242295,
      "geometry": "POINT (-80.287713 25.777352)",
      "poi_name": "Wendy's",
      "osm_id": 6066477910,
      "amenity": "fast_food",
      "cuisine": "burger",
      "opening_hours": "Mo-Su 06:30-23:00",
      "website": "https://locations.wendys.com/united-states/fl/miami/645-nw-57th-avenue",
      "phone": "+1-786-388-3033",
      "takeaway": "yes",
      "drive_through": "yes",
      "addr_state": "FL",
      "addr_city": "Miami",
      "addr_postcode": "33126",
      "addr_street": "Northwest 57th Avenue",
      "addr_housenumber": "645",
      "value": 52.58585152534821
    },
    {
      "id": 244680,
      "geometry": "POINT (-80.15899 25.848817)",
      "poi_name": "Sakura",
      "osm_id": 7734752868,
      "amenity": "fast_food",
      "cuisine": "chinese",
      "addr_city": "North Bay Village",
      "addr_postcode": "33141",
      "addr_street": "79th Street Causeway",
      "addr_housenumber": "1335",
      "value": 52.58585152534821
    },
    {
      "id": 242514,
      "geometry": "POINT (-80.201027 25.765954)",
      "poi_name": "Papa John's",
      "osm_id": 7576264160,
      "amenity": "fast_food",
      "cuisine": "pizza",
      "opening_hours": "Mo-Sa 10:00-24:00; Su 10:00-23:00",
      "website": "https://locations.papajohns.com/united-states/fl/33130-2814/miami/400-sw-8th-st",
      "phone": "+1-305-856-1188",
      "takeaway": "yes",
      "drive_through": "no",
      "delivery": "yes",
      "addr_state": "FL",
      "addr_city": "Miami",
      "addr_postcode": "33130",
      "addr_street": "Southwest 8th Street",
      "addr_housenumber": "400",
      "value": 52.58585152534821
    },
    {
      "id": 242607,
      "geometry": "POINT (-80.29276 25.701237)",
      "poi_name": "McDonald's",
      "osm_id": 7581191406,
      "amenity": "fast_food",
      "cuisine": "burger",
      "opening_hours": "24/7",
      "website": "https://www.mcdonalds.com/us/en-us/location/fl/miami/6150-s-dixie-hwy/792.html",
      "phone": "+1-305-661-7131",
      "takeaway": "yes",
      "drive_through": "yes",
      "addr_state": "FL",
      "addr_city": "South Miami",
      "addr_postcode": "33143",
      "addr_street": "South Dixie Highway",
      "addr_housenumber": "6150",
      "value": 52.58585152534821
    },
    {
      "id": 242979,
      "geometry": "POINT (-80.257515 25.749858)",
      "poi_name": "Panera Bread",
      "osm_id": 7613806831,
      "amenity": "fast_food",
      "cuisine": "sandwich;bakery",
      "opening_hours": "Mo-Fr 07:00-21:00; Sa-Su 07:00-20:00",
      "website": "https://locations.panerabread.com/fl/coral-gables/137-miracle-mile.html",
      "phone": "+1-305-448-0478",
      "takeaway": "yes",
      "drive_through": "no",
      "addr_state": "FL",
      "addr_city": "Coral Gables",
      "addr_postcode": "33134",
      "addr_street": "Miracle Mile",
      "addr_housenumber": "137",
      "value": 52.58585152534821
    },
    {
      "id": 245012,
      "geometry": "POINT (-80.206933 26.007751)",
      "poi_name": "Taco Bell",
      "osm_id": 7758642396,
      "amenity": "fast_food",
      "cuisine": "tex-mex",
      "opening_hours": "Mo-Fr 00:00-03:00, 08:00-24:00; Sa-Su 00:00-04:00, 08:00-24:00",
      "website": "https://locations.tacobell.com/fl/hollywood/235-s-r--7.html",
      "phone": "+1-954-963-2656",
      "takeaway": "yes",
      "drive_through": "yes",
      "delivery": "yes",
      "addr_state": "FL",
      "addr_city": "Hollywood",
      "addr_postcode": "33023",
      "addr_street": "State Road 7",
      "addr_housenumber": "235",
      "value": 52.58585152534821
    },
    {
      "id": 245013,
      "geometry": "POINT (-80.206912 26.007204)",
      "poi_name": "Pollo Tropical",
      "osm_id": 7758642398,
      "amenity": "fast_food",
      "cuisine": "chicken",
      "opening_hours": "Mo-Su 11:00-22:00",
      "website": "https://www.pollotropical.com/locations",
      "phone": "+1-754-263-5960",
      "takeaway": "yes",
      "drive_through": "yes",
      "addr_state": "FL",
      "addr_city": "Hollywood",
      "addr_postcode": "33023",
      "addr_street": "State Road 7",
      "addr_housenumber": "311",
      "value": 52.58585152534821
    }
  ],
  "answer_type": "loc",
  "question_entities": {
    "[2]": {
      "distance": 60000,
      "text": "60 kilometers"
    },
    "[3]": {
      "main_category": "tourism",
      "sub_category": "zoo",
      "display_name": "Zoological Wildlife Foundation, Miami, FL",
      "geo_wkt": "POINT (-80.470734 25.614343)",
      "poi": {
        "id": 14087,
        "geometry": "POINT (-80.470734 25.614343)",
        "poi_name": "Zoological Wildlife Foundation",
        "osm_id": 4221532470,
        "tourism": "zoo",
        "website": "https://zoologicalwildlifefoundation.com/",
        "phone": "+1-305-969-3696",
        "addr_state": "FL",
        "addr_city": "Miami",
        "addr_postcode": "33187",
        "addr_street": "SW 172nd Ave",
        "addr_housenumber": "16225"
      }
    },
    "[4]": {
      "main_category": "tourism",
      "sub_category": "gallery",
      "display_name": "Alejandra von Hartz Gallery, Miami, FL",
      "geo_wkt": "POINT (-80.19926 25.802075)",
      "poi": {
        "id": 14099,
        "geometry": "POINT (-80.19926 25.802075)",
        "poi_name": "Alejandra von Hartz Gallery",
        "osm_id": 4224000190,
        "tourism": "gallery",
        "opening_hours": "Tu-Fr 10:00-18:00, Sa 12:00-17:00",
        "phone": "(305) 438-0220",
        "addr_state": "FL",
        "addr_city": "Miami",
        "addr_postcode": "33127",
        "addr_street": "Northwest 2nd Avenue",
        "addr_housenumber": "2630"
      }
    },
    "[1]": {
      "main_category": "amenity",
      "sub_category": "fast_food"
    }
  },
  "id": 1207,
  "type": "range:towards+loc"
}