{
  "question": "Could you track down a sandwich restaurant and is conveniently situated within 190 kilometers from Aquarium Outfitters Carolina, Wake Forest, NC?",
  "sql": "SELECT * FROM pois\nWHERE ST_DWithin(pois.geometry, ST_GeomFromText('POINT (-78.515805 35.970785)',4326)::geography, 190000)\nAND amenity = 'restaurant'\nAND cuisine ILIKE '%sandwich%';\n",
  "answers": [
    {
      "id": 33385,
      "geometry": "POINT (-79.035204 35.962305)",
      "poi_name": "The Bagel Bar",
      "osm_id": 2664104846,
      "amenity": "restaurant",
      "cuisine": "bagel;sandwich;coffee",
      "outdoor_seating": "yes",
      "addr_state": "NC",
      "addr_city": "Chapel Hill",
      "addr_postcode": "27514",
      "addr_street": "Weaver Dairy Road",
      "addr_housenumber": "630"
    },
    {
      "id": 33579,
      "geometry": "POINT (-78.954493 35.903999)",
      "poi_name": "Penn Station East Coast Subs",
      "osm_id": 2674816692,
      "amenity": "restaurant",
      "cuisine": "sandwich",
      "wheelchair": "yes",
      "addr_state": "NC",
      "addr_city": "Durham",
      "addr_postcode": "27713",
      "addr_street": "Renaissance Parkway",
      "addr_housenumber": "8200-1001"
    },
    {
      "id": 40967,
      "geometry": "POINT (-78.899148 35.993888)",
      "poi_name": "Subway",
      "osm_id": 2988744731,
      "amenity": "restaurant",
      "cuisine": "sandwich",
      "opening_hours": "Mo-Fr 7:30-16:00",
      "takeaway": "yes",
      "addr_state": "NC",
      "addr_city": "Durham",
      "addr_postcode": "27701",
      "addr_street": "East Main Street",
      "addr_housenumber": "200"
    },
    {
      "id": 43411,
      "geometry": "POINT (-78.918952 36.016582)",
      "poi_name": "The Loop",
      "osm_id": 3110869464,
      "amenity": "restaurant",
      "cuisine": "sandwich;pizza",
      "opening_hours": "Su-Th 11:00-21:00,Fr-Sa 11:00-22:00",
      "website": "https://www.thelooprestaurant.com/durham-nc",
      "phone": "+1-919-408-7448",
      "addr_state": "NC",
      "addr_city": "Durham",
      "addr_postcode": "27705",
      "addr_street": "Broad Street",
      "addr_housenumber": "1116"
    },
    {
      "id": 44835,
      "geometry": "POINT (-77.791022 37.516113)",
      "poi_name": "Mabel's Craft Burgers & Crazy Shakes",
      "osm_id": 3179936800,
      "amenity": "restaurant",
      "cuisine": "burger;dessert;sandwich",
      "opening_hours": "Mo-Th 11:00-20:30; Fr,Sa 11:00-21:30",
      "website": "https://www.mabels.net/",
      "phone": "+1-804-598-5344",
      "addr_state": "VA",
      "addr_city": "Powhatan",
      "addr_postcode": "23139",
      "addr_street": "South Creek One",
      "addr_housenumber": "1800"
    },
    {
      "id": 60840,
      "geometry": "POINT (-79.394941 35.171456)",
      "poi_name": "Scott's Table",
      "osm_id": 5484634432,
      "amenity": "restaurant",
      "cuisine": "burger;sandwich;american;steak_house;seafood;chicken",
      "opening_hours": "Tu-Th 11:00-15:00; Fr, Sa 11:00-15:00, 17:00-21:00",
      "capacity": "100",
      "takeaway": "yes",
      "outdoor_seating": "no",
      "addr_state": "NC",
      "addr_city": "Southern Pines",
      "addr_postcode": "28387",
      "addr_street": "Southeast Broad Street",
      "addr_housenumber": "311"
    },
    {
      "id": 69747,
      "geometry": "POINT (-79.991823 36.174922)",
      "poi_name": "Joey's Burger Bar",
      "osm_id": 11329902031,
      "amenity": "restaurant",
      "cuisine": "burger;chicken;ice_cream;sandwich",
      "opening_hours": "Mo-Su 11:00-21:00",
      "website": "https://www.joeysburgerbar.com/",
      "phone": "3364418009",
      "addr_state": "NC",
      "addr_city": "Oak Ridge",
      "addr_postcode": "27310",
      "addr_street": "Oak Ridge Road",
      "addr_housenumber": "2205"
    },
    {
      "id": 61570,
      "geometry": "POINT (-78.740177 35.760624)",
      "poi_name": "Jason's Deli",
      "osm_id": 5523893929,
      "amenity": "restaurant",
      "cuisine": "sandwich",
      "addr_state": "NC",
      "addr_city": "Cary",
      "addr_postcode": "27518",
      "addr_street": "Crossroads Boulevard",
      "addr_housenumber": "210"
    },
    {
      "id": 69898,
      "geometry": "POINT (-77.098438 35.093374)",
      "poi_name": "Carolina Bagel Co&Deli",
      "osm_id": 11336137260,
      "amenity": "restaurant",
      "cuisine": "sandwich",
      "addr_city": "New Bern",
      "addr_street": "Trent Road",
      "addr_housenumber": "3601"
    },
    {
      "id": 83408,
      "geometry": "POINT (-78.508927 35.973512)",
      "poi_name": "Over the Falls",
      "osm_id": 1743906780,
      "amenity": "restaurant",
      "cuisine": "sandwich",
      "wheelchair": "yes",
      "website": "https://www.otfalls.com/",
      "phone": "+19195708588",
      "addr_state": "NC",
      "addr_postcode": "27587",
      "addr_street": "South Brooks Street",
      "addr_housenumber": "419"
    },
    {
      "id": 77032,
      "geometry": "POINT (-78.711791 35.857628)",
      "poi_name": "Papas Pizza And Wings",
      "osm_id": 9802899786,
      "amenity": "restaurant",
      "cuisine": "pizza;wings;american;burger;sandwich",
      "website": "https://www.papaspizzawingsmenu.com/",
      "phone": "(919) 783-7373",
      "addr_state": "NC",
      "addr_city": "Raleigh",
      "addr_postcode": "27612",
      "addr_street": "Duraleigh Rd",
      "addr_housenumber": "5800"
    },
    {
      "id": 94962,
      "geometry": "POINT (-80.081348 35.883994)",
      "poi_name": "Side Street Deli",
      "osm_id": 6382082099,
      "amenity": "restaurant",
      "cuisine": "sandwich",
      "opening_hours": "Mo-Th 10:00-15:00; Fr-Sa 10:00-21:00",
      "addr_state": "NC",
      "addr_city": "Thomasville",
      "addr_street": "Commerce Street",
      "addr_housenumber": "12"
    },
    {
      "id": 95284,
      "geometry": "POINT (-79.179911 37.36467)",
      "poi_name": "Farmers Garden",
      "osm_id": 6391735511,
      "amenity": "restaurant",
      "cuisine": "sandwich",
      "addr_state": "VA",
      "addr_city": "Lynchburg",
      "addr_street": "Candlers Mountain Road",
      "addr_housenumber": "3405"
    },
    {
      "id": 100952,
      "geometry": "POINT (-79.88735 36.089372)",
      "poi_name": "Jams Deli",
      "osm_id": 6606218293,
      "amenity": "restaurant",
      "cuisine": "burger;sandwich",
      "opening_hours": "Mo-Sa 11:00-20:00",
      "website": "http://www.jams-deli.com/",
      "phone": "+1-336-547-0771",
      "addr_state": "NC",
      "addr_city": "Greensboro",
      "addr_postcode": "27410",
      "addr_street": "West Friendly Avenue",
      "addr_housenumber": "5707"
    },
    {
      "id": 97361,
      "geometry": "POINT (-78.632161 35.775165)",
      "poi_name": "Transfer Co. Food Hall",
      "osm_id": 6475583334,
      "amenity": "restaurant",
      "cuisine": "sandwich;asian;argentinian;mexican;salad;burger;barbecue;regional;international",
      "wheelchair": "yes",
      "opening_hours": "Tu-Su 11:00-22:00",
      "website": "https://www.transfercofoodhall.com/",
      "outdoor_seating": "yes",
      "addr_state": "NC",
      "addr_city": "Raleigh",
      "addr_postcode": "27601",
      "addr_street": "East Davie Street",
      "addr_housenumber": "500"
    },
    {
      "id": 97933,
      "geometry": "POINT (-79.843799 36.061717)",
      "poi_name": "Fat Dog's Grille & Pub",
      "osm_id": 6501252965,
      "amenity": "restaurant",
      "cuisine": "burger;sandwich;wings;hot_dog",
      "opening_hours": "Mo-Su 11:00-21:00",
      "website": "https://www.fatdogsgrill.com/",
      "phone": "+1-336-856-1364",
      "addr_state": "NC",
      "addr_city": "Greensboro",
      "addr_postcode": "27410",
      "addr_street": "Spring Garden Street",
      "addr_housenumber": "3021"
    },
    {
      "id": 101668,
      "geometry": "POINT (-78.497228 35.666962)",
      "poi_name": "Sak's Deli",
      "osm_id": 6637749864,
      "amenity": "restaurant",
      "cuisine": "sandwich",
      "opening_hours": "Tu-Su 08:00-16:00",
      "phone": "+19195508100",
      "addr_city": "Clayton",
      "addr_postcode": "27520",
      "addr_street": "Gulley Drive",
      "addr_housenumber": "876"
    },
    {
      "id": 105262,
      "geometry": "POINT (-79.140417 37.411777)",
      "poi_name": "Barb's Dream Hut",
      "osm_id": 8615501595,
      "amenity": "restaurant",
      "cuisine": "regional;diner;sandwich;burger",
      "phone": "+1 434 845 6700",
      "addr_state": "VA",
      "addr_city": "Lynchburg",
      "addr_postcode": "24504",
      "addr_street": "Main Street",
      "addr_housenumber": "1219"
    },
    {
      "id": 114333,
      "geometry": "POINT (-79.898363 36.01684)",
      "poi_name": "Toshi's Caf\u00e9",
      "osm_id": 3878490696,
      "amenity": "restaurant",
      "cuisine": "coffee_shop;sushi;sandwich",
      "opening_hours": "Su 08:00-14:00, Mo-Th 06:30-19:00, Fr 06:30-20:00, Sa 08:00-19:00",
      "addr_state": "NC",
      "addr_city": "Greensboro",
      "addr_postcode": "27407",
      "addr_street": "Gate City Blvd",
      "addr_housenumber": "5710"
    },
    {
      "id": 152924,
      "geometry": "POINT (-79.833451 36.052563)",
      "poi_name": "Tito's Pizza",
      "osm_id": 4168479593,
      "amenity": "restaurant",
      "cuisine": "pizza;sandwich",
      "opening_hours": "Mo-Th 11:00-23:00; Fr-Sa 11:00-01:00, Su 12:00-23:59",
      "website": "https://www.titospizzasubs.com/",
      "phone": "+1-336-299-8486",
      "delivery": "yes",
      "addr_state": "NC",
      "addr_city": "Greensboro",
      "addr_postcode": "27403",
      "addr_street": "West Gate City Boulevard",
      "addr_housenumber": "2700"
    },
    {
      "id": 145459,
      "geometry": "POINT (-78.622824 35.86753)",
      "poi_name": "Jason's Deli",
      "osm_id": 7359794280,
      "amenity": "restaurant",
      "cuisine": "sandwich",
      "opening_hours": "Mo-Su 10:00-22:00",
      "website": "https://www.jasonsdeli.com/restaurants/spring-forest-deli",
      "phone": "+1 (919) 855-9898",
      "addr_state": "NC",
      "addr_city": "Raleigh",
      "addr_postcode": "27609",
      "addr_street": "Spring Forest Road",
      "addr_housenumber": "909"
    },
    {
      "id": 160400,
      "geometry": "POINT (-78.829504 35.746826)",
      "poi_name": "McAlister's Deli",
      "osm_id": 4833555940,
      "amenity": "restaurant",
      "cuisine": "sandwich",
      "description": "Easygoing counter-service chain known for its sandwiches, stuffed baked potatoes & sweet tea.",
      "opening_hours": "Su-Sa 10:30-22:30",
      "website": "https://www.snapfinger.com/o/c/McAlisters/Restaurant/26786",
      "phone": "(919) 362-6518",
      "addr_state": "NC",
      "addr_city": "Apex",
      "addr_postcode": "27523",
      "addr_street": "Pine Plaza Dr",
      "addr_housenumber": "1061"
    },
    {
      "id": 168487,
      "geometry": "POINT (-78.848243 35.791624)",
      "poi_name": "Tazza Kitchen",
      "osm_id": 2262185417,
      "amenity": "restaurant",
      "cuisine": "sandwich;pizza;salad",
      "opening_hours": "Mo-Th 16:00-22:00;Fr-Sa 16:00-23:00;Su 10:30-15:00,16:00-21:00",
      "addr_state": "NC",
      "addr_street": "Ledgestone Way",
      "addr_housenumber": "600"
    },
    {
      "id": 166885,
      "geometry": "POINT (-78.592411 35.906115)",
      "poi_name": "Pressed by Spanglish",
      "osm_id": 318708851,
      "amenity": "restaurant",
      "cuisine": "puerto_rican;southern;regional;empanada;fried_food;sandwich;seafood;soup",
      "opening_hours": "Mo-Fr 07:00-20:00; Sa 08:00-20:00; Su 08:00-16:00",
      "phone": "+1-984-269-5099",
      "takeaway": "yes",
      "drive_through": "no",
      "outdoor_seating": "yes",
      "delivery": "no",
      "addr_state": "NC",
      "addr_city": "Raleigh",
      "addr_street": "Durant Road",
      "addr_housenumber": "10630"
    },
    {
      "id": 168186,
      "geometry": "POINT (-78.947169 36.007395)",
      "poi_name": "Nosh",
      "osm_id": 367126423,
      "amenity": "restaurant",
      "cuisine": "regional;breakfast;pizza;sandwich;salad",
      "opening_hours": "Mo-Fr 07:30-16:00; Sa,Su 08:00-15:00",
      "website": "https://www.noshfood.com/",
      "outdoor_seating": "yes",
      "addr_state": "NC",
      "addr_city": "Durham",
      "addr_postcode": "27705",
      "addr_street": "Erwin Road",
      "addr_housenumber": "2812"
    },
    {
      "id": 176398,
      "geometry": "POINT (-76.880264 35.324111)",
      "poi_name": "Veri-Kwik",
      "osm_id": 2560651387,
      "amenity": "restaurant",
      "cuisine": "pizza;burger;sandwich;salad",
      "website": "http://veri-kwik.edwardnc.org",
      "capacity": "8",
      "phone": "+12523224645",
      "addr_state": "NC",
      "addr_city": "Edward",
      "addr_postcode": "27821",
      "addr_street": "State Highway 33",
      "addr_housenumber": "19237"
    },
    {
      "id": 206695,
      "geometry": "POINT (-78.850637 35.876426)",
      "poi_name": "Farmside Kitchen",
      "osm_id": 7221585927,
      "amenity": "restaurant",
      "cuisine": "salad;sandwich;grain_bowl;farmbowl",
      "opening_hours": "Mo-Su 11:00-21:00",
      "website": "https://www.farmsidekitchen.com/",
      "phone": "+1-984-219-2739",
      "takeaway": "yes",
      "outdoor_seating": "yes",
      "delivery": "yes",
      "addr_state": "NC",
      "addr_city": "Durham",
      "addr_postcode": "27703",
      "addr_street": "Page Road",
      "addr_housenumber": "5431"
    },
    {
      "id": 191966,
      "geometry": "POINT (-78.660738 35.791264)",
      "poi_name": "The Village Deli",
      "osm_id": 1411329841,
      "amenity": "restaurant",
      "cuisine": "sandwich",
      "opening_hours": "Mo-Fr 11:00-21:00; Sa 08:00-21:00; Su 11:00-16; 00",
      "website": "https://www.villagedeli.net/locations/cameron-village-raleigh-nc",
      "phone": "+19198281428",
      "addr_state": "NC",
      "addr_city": "Raleigh",
      "addr_postcode": "27605",
      "addr_street": "Daniels Street",
      "addr_housenumber": "500"
    },
    {
      "id": 203925,
      "geometry": "POINT (-78.638474 35.776127)",
      "poi_name": "Manhattan Cafe",
      "osm_id": 7105802413,
      "amenity": "restaurant",
      "cuisine": "sandwich;salad",
      "opening_hours": "Mo-Fr 11:00-15:00",
      "website": "https://manhattancafe.com/",
      "phone": "+1 919 833 6105",
      "drive_through": "no",
      "addr_state": "NC",
      "addr_city": "Raleigh",
      "addr_postcode": "27601",
      "addr_street": "South Wilmington Street",
      "addr_housenumber": "320"
    },
    {
      "id": 204304,
      "geometry": "POINT (-77.947252 35.374178)",
      "poi_name": "McAlister's Deli",
      "osm_id": 7122749052,
      "amenity": "restaurant",
      "cuisine": "sandwich",
      "addr_state": "NC",
      "addr_city": "Goldsboro",
      "addr_postcode": "27534",
      "addr_street": "North Berkeley Boulevard",
      "addr_housenumber": "431"
    },
    {
      "id": 196665,
      "geometry": "POINT (-79.815228 35.705582)",
      "poi_name": "The Black Lantern Tea Room and Bakery",
      "osm_id": 10590110245,
      "amenity": "restaurant",
      "cuisine": "sandwich",
      "phone": "+13366102582",
      "addr_state": "NC",
      "addr_city": "Asheboro",
      "addr_postcode": "27203",
      "addr_street": "Sunset Avenue",
      "addr_housenumber": "137"
    },
    {
      "id": 205903,
      "geometry": "POINT (-77.952902 35.624054)",
      "poi_name": "Bill's Grill",
      "osm_id": 7187945135,
      "amenity": "restaurant",
      "cuisine": "burger;sandwich;american",
      "website": "https://www.billsgrillnc.com/",
      "phone": "252-239-1627;(252) 239-1627",
      "drive_through": "yes",
      "outdoor_seating": "yes",
      "addr_state": "NC",
      "addr_city": "Wilson",
      "addr_postcode": "27893",
      "addr_street": "US-117;US-117 ALT",
      "addr_housenumber": "5615"
    },
    {
      "id": 210118,
      "geometry": "POINT (-80.033515 35.974013)",
      "poi_name": "Tipsy'z Tavern",
      "osm_id": 5078216109,
      "amenity": "restaurant",
      "cuisine": "burger;sandwich",
      "opening_hours": "Tu-Th 11:00-21:00; Fr-Sa 11:00-22:00; Su 11:00-20:00",
      "website": "https://tipsyztavern.com/",
      "phone": "+1-336-887-0230",
      "addr_state": "NC",
      "addr_city": "High Point",
      "addr_postcode": "27262",
      "addr_street": "Westchester Drive",
      "addr_housenumber": "805"
    },
    {
      "id": 211719,
      "geometry": "POINT (-78.89473 35.738005)",
      "poi_name": "Glory Days Bar and Grill",
      "osm_id": 5169781306,
      "amenity": "restaurant",
      "cuisine": "burger;sandwich",
      "capacity": "100",
      "takeaway": "yes",
      "outdoor_seating": "yes",
      "addr_state": "NC",
      "addr_city": "Apex",
      "addr_postcode": "27502",
      "addr_street": "Kelly Road",
      "addr_housenumber": "1413"
    },
    {
      "id": 225999,
      "geometry": "POINT (-78.930486 35.910568)",
      "poi_name": "Kokyu",
      "osm_id": 11146259018,
      "amenity": "restaurant",
      "cuisine": "sandwich;asian_fusion",
      "opening_hours": "Tu,We,Su 11:00-21:00; Th,Fr,Sa 11:00-22:00",
      "website": "http://www.kokyubbq.com/",
      "phone": "+19192519017",
      "addr_state": "NC",
      "addr_city": "Durham",
      "addr_postcode": "27713",
      "addr_street": "NC-54",
      "addr_housenumber": "254 E"
    },
    {
      "id": 215445,
      "geometry": "POINT (-78.793512 35.974269)",
      "poi_name": "Roma Pizza Shop",
      "osm_id": 5300154694,
      "amenity": "restaurant",
      "cuisine": "pizza;gyros;pasta;sandwich",
      "website": "https://romapizzashopnc.com/",
      "phone": "+1-919-957-7662",
      "takeaway": "yes",
      "outdoor_seating": "no",
      "addr_state": "NC",
      "addr_city": "Durham",
      "addr_postcode": "27703",
      "addr_street": "Sherron Road",
      "addr_housenumber": "121"
    },
    {
      "id": 236213,
      "geometry": "POINT (-78.636091 35.715137)",
      "poi_name": "Rudino's Pizza & Grinders",
      "osm_id": 5785307253,
      "amenity": "restaurant",
      "cuisine": "pizza;sandwich",
      "opening_hours": "Mo-Sa 09:00-21:00, Su 11:30-20:30",
      "takeaway": "yes",
      "outdoor_seating": "no",
      "addr_state": "NC",
      "addr_city": "Garner",
      "addr_postcode": "27529",
      "addr_street": "Timber Drive",
      "addr_housenumber": "2644"
    },
    {
      "id": 238366,
      "geometry": "POINT (-78.993289 35.955523)",
      "poi_name": "McAlister's Deli",
      "osm_id": 5874399506,
      "amenity": "restaurant",
      "cuisine": "sandwich",
      "addr_state": "NC",
      "addr_city": "Durham",
      "addr_postcode": "27707",
      "addr_street": "New Hope Commons Drive",
      "addr_housenumber": "5318"
    }
  ],
  "answer_type": "loc",
  "question_entities": {
    "[1]": {
      "main_category": "amenity",
      "sub_category": "restaurant",
      "poi_filter_desc": "sandwich restaurant",
      "poi_filter_sql": "cuisine ILIKE '%sandwich%'"
    },
    "[2]": {
      "distance": 190000,
      "text": "190 kilometers"
    },
    "[3]": {
      "main_category": "tourism",
      "sub_category": "aquarium",
      "display_name": "Aquarium Outfitters Carolina, Wake Forest, NC",
      "geo_wkt": "POINT (-78.515805 35.970785)",
      "poi": {
        "id": 12563,
        "geometry": "POINT (-78.515805 35.970785)",
        "poi_name": "Aquarium Outfitters Carolina",
        "osm_id": 7329125760,
        "tourism": "aquarium",
        "phone": "(919) 556-8335",
        "addr_state": "NC",
        "addr_city": "Wake Forest",
        "addr_postcode": "27587",
        "addr_street": "South Main Street",
        "addr_housenumber": "823"
      }
    }
  },
  "id": 473,
  "type": "range:non_spat_filter+loc"
}