{
  "question": "Would you be able to track down a takeaway restaurant, preferably within a 140 kilometers radius from Monongahela River, Railroad, and Transportation Museum, Brownsville, PA?",
  "sql": "SELECT * FROM pois\nWHERE ST_DWithin(pois.geometry, ST_GeomFromText('POINT (-79.879537 40.022979)',4326)::geography, 140000)\nAND amenity = 'restaurant'\nAND takeaway ILIKE '%yes%';\n",
  "answers": [
    {
      "id": 27328,
      "geometry": "POINT (-79.949936 40.462333)",
      "poi_name": "Thai Cuisine",
      "osm_id": 412045724,
      "amenity": "restaurant",
      "cuisine": "thai",
      "wheelchair": "yes",
      "opening_hours": "Tu-Th 16:00-21:30; Fr 16:00-22:00; Sa 12:00-22:00; Su 12:00-21:00",
      "phone": "+1-412-688-9661",
      "takeaway": "yes",
      "outdoor_seating": "no",
      "delivery": "yes",
      "toilets": "yes",
      "addr_street": "Liberty Avenue",
      "addr_housenumber": "4627"
    },
    {
      "id": 32602,
      "geometry": "POINT (-79.826193 40.405174)",
      "poi_name": "Fox's Pizza Den",
      "osm_id": 2630630773,
      "amenity": "restaurant",
      "cuisine": "pizza",
      "opening_hours": "Su 11:00-21:00; Mo-Sa 10:30-22:00",
      "phone": "+1-412-823-9960",
      "takeaway": "yes",
      "delivery": "yes",
      "addr_state": "PA",
      "addr_city": "Turtle Creek",
      "addr_postcode": "15145",
      "addr_street": "Church Street",
      "addr_housenumber": "104"
    },
    {
      "id": 32604,
      "geometry": "POINT (-79.82552 40.404189)",
      "poi_name": "Shelly's Pies",
      "osm_id": 2630715860,
      "amenity": "restaurant",
      "cuisine": "pizza;burger;pasta",
      "opening_hours": "Su 12:00-21:00;Tu-Th 11:00-22:00;Fr 11:00-23:00",
      "website": "https://www.shellypiepizza.com/",
      "phone": "+1-412-646-2560",
      "takeaway": "yes",
      "delivery": "no",
      "addr_state": "PA",
      "addr_city": "Turtle Creek",
      "addr_postcode": "15145",
      "addr_street": "Penn Avenue",
      "addr_housenumber": "912"
    },
    {
      "id": 32612,
      "geometry": "POINT (-79.826396 40.405661)",
      "poi_name": "Turtle Creek Market and Deli",
      "osm_id": 2631371409,
      "amenity": "restaurant",
      "cuisine": "deli;sandwich;salad",
      "takeaway": "yes",
      "delivery": "no",
      "addr_state": "PA",
      "addr_city": "Turtle Creek",
      "addr_postcode": "15145",
      "addr_street": "Penn Plaza"
    },
    {
      "id": 32613,
      "geometry": "POINT (-79.826349 40.405746)",
      "poi_name": "Pizza Palermo",
      "osm_id": 2631383497,
      "amenity": "restaurant",
      "cuisine": "pizza",
      "opening_hours": "Su-Th 10:00-23:00; Fr-Sa 10:00-00:00",
      "website": "http://www.eatpizzapalermo.com/",
      "phone": "412-829-7744",
      "takeaway": "yes",
      "addr_state": "PA",
      "addr_city": "Turtle Creek",
      "addr_postcode": "15145",
      "addr_street": "Penn Plaza",
      "addr_housenumber": "109"
    },
    {
      "id": 35085,
      "geometry": "POINT (-79.958167 40.440584)",
      "poi_name": "Piada Italian Street Food",
      "osm_id": 2710170970,
      "amenity": "restaurant",
      "cuisine": "italian",
      "wheelchair": "yes",
      "opening_hours": "Mo-Fr 10:45-22:00, Sa-Su 10:45-21:00",
      "website": "https://mypiada.com/locations/oakland",
      "takeaway": "yes",
      "addr_state": "PA",
      "addr_city": "Pittsburgh",
      "addr_postcode": "15213",
      "addr_street": "Forbes Avenue",
      "addr_housenumber": "3600"
    },
    {
      "id": 35094,
      "geometry": "POINT (-79.956839 40.441807)",
      "poi_name": "Noodles & Company",
      "osm_id": 2710170995,
      "amenity": "restaurant",
      "cuisine": "pasta",
      "takeaway": "yes",
      "addr_state": "PA",
      "addr_city": "Pittsburgh",
      "addr_street": "Forbes Avenue",
      "addr_housenumber": "3805"
    },
    {
      "id": 36576,
      "geometry": "POINT (-80.0501 40.420994)",
      "poi_name": "Vincent's of Greentree",
      "osm_id": 2771204405,
      "amenity": "restaurant",
      "cuisine": "italian",
      "opening_hours": "Mo-Th 11:00-23:00; Fr-Sa 11:00-24:00; Su 12:00-22:00",
      "website": "https://vincentsgreentree.com/",
      "phone": "+1-412-921-8811",
      "takeaway": "yes",
      "delivery": "yes",
      "addr_state": "PA",
      "addr_city": "Pittsburgh",
      "addr_postcode": "15220",
      "addr_street": "Mansfield Avenue",
      "addr_housenumber": "333"
    },
    {
      "id": 38066,
      "geometry": "POINT (-79.971635 39.653978)",
      "poi_name": "Black Bear Burritos Evansdale",
      "osm_id": 2843362782,
      "amenity": "restaurant",
      "cuisine": "mexican",
      "website": "https://www.blackbearburritos.com/index.html",
      "takeaway": "yes",
      "outdoor_seating": "yes",
      "addr_city": "Morgantown",
      "addr_postcode": "26505",
      "addr_street": "University Ave",
      "addr_housenumber": "3119"
    },
    {
      "id": 38067,
      "geometry": "POINT (-79.834465 40.28084)",
      "poi_name": "China Fortune",
      "osm_id": 2843365541,
      "amenity": "restaurant",
      "cuisine": "chinese",
      "takeaway": "yes",
      "addr_postcode": "15037",
      "addr_street": "Swiss Lane",
      "addr_housenumber": "400"
    },
    {
      "id": 41421,
      "geometry": "POINT (-78.405948 40.467858)",
      "poi_name": "Eat'n Park",
      "osm_id": 3013615680,
      "amenity": "restaurant",
      "cuisine": "american",
      "phone": "+1-814-943-4070",
      "takeaway": "yes",
      "drive_through": "yes",
      "addr_state": "PA",
      "addr_city": "Altoona",
      "addr_postcode": "16601",
      "addr_street": "Bowling Lane",
      "addr_housenumber": "137"
    },
    {
      "id": 42843,
      "geometry": "POINT (-79.50979 40.303545)",
      "poi_name": "Eat'n Park",
      "osm_id": 3084711978,
      "amenity": "restaurant",
      "cuisine": "american",
      "phone": "+1-724-837-2759",
      "takeaway": "yes",
      "drive_through": "no",
      "addr_state": "PA",
      "addr_city": "Greensburg",
      "addr_postcode": "15601",
      "addr_street": "Route 30",
      "addr_housenumber": "5277"
    },
    {
      "id": 48038,
      "geometry": "POINT (-79.950442 40.44955)",
      "poi_name": "Pizza Prima",
      "osm_id": 3362506384,
      "amenity": "restaurant",
      "cuisine": "pizza",
      "phone": "(412) 687-6464",
      "takeaway": "yes",
      "delivery": "no",
      "addr_state": "PA",
      "addr_city": "Pittsburgh",
      "addr_postcode": "15213",
      "addr_street": "North Craig Street",
      "addr_housenumber": "190"
    },
    {
      "id": 52726,
      "geometry": "POINT (-79.92363 40.460244)",
      "poi_name": "Choolah",
      "osm_id": 10045324510,
      "amenity": "restaurant",
      "cuisine": "indian",
      "takeaway": "yes",
      "addr_state": "PA",
      "addr_city": "Pittsburgh",
      "addr_postcode": "15206",
      "addr_street": "Centre Avenue",
      "addr_housenumber": "6114"
    },
    {
      "id": 52727,
      "geometry": "POINT (-79.922486 40.460405)",
      "poi_name": "Condado Tacos",
      "osm_id": 10045372605,
      "amenity": "restaurant",
      "cuisine": "mexican",
      "opening_hours": "Su-Th 11:00-23:00; Fr-Sa 11:00-00:00",
      "website": "https://locations.condadotacos.com/pa/6210-penn-ave",
      "phone": "+1 412-785-0600",
      "takeaway": "yes",
      "drive_through": "no",
      "addr_state": "PA",
      "addr_city": "Pittsburgh",
      "addr_postcode": "15206",
      "addr_street": "Centre Avenue",
      "addr_housenumber": "6210"
    },
    {
      "id": 58406,
      "geometry": "POINT (-79.886557 40.488063)",
      "poi_name": "Ichiban Steakhouse & Sushi Bar",
      "osm_id": 5373915767,
      "amenity": "restaurant",
      "cuisine": "steak_house;japanese;hibachi;sushi",
      "opening_hours": "Mo-Th 11:00-14:30, 16:30-21:30; Fr 11:00-14:30, 16:30-22:30; Sa 13:00-22:30; Su 12:00-20:30",
      "website": "ichiban-hibachi-steakhouse.com",
      "takeaway": "yes",
      "outdoor_seating": "no",
      "delivery": "no",
      "addr_state": "PA",
      "addr_city": "Pittsburgh",
      "addr_postcode": "15238",
      "addr_street": "Freeport Road",
      "addr_housenumber": "983"
    },
    {
      "id": 58407,
      "geometry": "POINT (-79.073302 40.037588)",
      "poi_name": "Yamato Steak House of Japan",
      "osm_id": 5373915793,
      "amenity": "restaurant",
      "cuisine": "japanese;hibachi;sushi;steak_house",
      "website": "https://www.yamatosteakhousejapanpa.com/",
      "phone": "814-443-6888",
      "takeaway": "yes",
      "outdoor_seating": "no",
      "delivery": "no",
      "addr_state": "PA",
      "addr_city": "Somerset",
      "addr_postcode": "15501",
      "addr_street": "North Center Avenue",
      "addr_housenumber": "1606"
    },
    {
      "id": 58408,
      "geometry": "POINT (-78.83452 40.294338)",
      "poi_name": "Fuji Japanese Steakhouse",
      "osm_id": 5373915794,
      "amenity": "restaurant",
      "cuisine": "japanese;hibachi;sushi;steak_house",
      "website": "https://fujijohnstown.com/",
      "phone": "814-266-5000",
      "takeaway": "yes",
      "outdoor_seating": "no",
      "delivery": "no",
      "addr_state": "PA",
      "addr_city": "Johnstown",
      "addr_postcode": "15904",
      "addr_street": "Galleria Drive"
    },
    {
      "id": 58409,
      "geometry": "POINT (-78.405571 40.467284)",
      "poi_name": "Sakura Japanese Steak House",
      "osm_id": 5373915795,
      "amenity": "restaurant",
      "cuisine": "japanese;hibachi;sushi;steak_house",
      "website": "sakuraaltoona.com",
      "phone": "814-941-8588",
      "takeaway": "yes",
      "outdoor_seating": "no",
      "delivery": "no",
      "addr_state": "PA",
      "addr_city": "Altoona",
      "addr_postcode": "16601",
      "addr_street": "Orchard Avenue",
      "addr_housenumber": "415"
    },
    {
      "id": 58411,
      "geometry": "POINT (-78.404522 40.471559)",
      "poi_name": "Aki Japanese Steakhouse and Sushi Bar",
      "osm_id": 5373915808,
      "amenity": "restaurant",
      "cuisine": "japanese;hibachi;sushi;steak_house",
      "website": "https://akialtoona.weebly.com/",
      "phone": "814) 942-2118",
      "takeaway": "yes",
      "outdoor_seating": "no",
      "delivery": "no",
      "addr_state": "PA",
      "addr_city": "Altoona",
      "addr_postcode": "16602",
      "addr_street": "Park Hills Plaza",
      "addr_housenumber": "267"
    },
    {
      "id": 58580,
      "geometry": "POINT (-79.947281 40.460565)",
      "poi_name": "Lombardozzi's",
      "osm_id": 5384512913,
      "amenity": "restaurant",
      "cuisine": "italian",
      "wheelchair": "yes",
      "opening_hours": "We, Th 11:00-21:00; Fr 11:00-22:00; Sa 13:00-22:00; Su 13:00-21:00",
      "website": "http://lombardozzis.com/",
      "phone": "+1-412-682-5785",
      "takeaway": "yes",
      "addr_street": "Liberty Avenue",
      "addr_housenumber": "4786"
    },
    {
      "id": 58581,
      "geometry": "POINT (-79.949256 40.461922)",
      "poi_name": "Wai Wai Chinese Cuisine",
      "osm_id": 5384512916,
      "amenity": "restaurant",
      "cuisine": "chinese",
      "wheelchair": "yes",
      "opening_hours": "Mo-Th 11:00-22:00; Fr, Sa 11:00-23:00; Su 12:00-22:00",
      "website": "https://waiwaichinese.com/",
      "phone": "+1-412-621-0133",
      "takeaway": "yes",
      "delivery": "yes",
      "addr_street": "Liberty Avenue",
      "addr_housenumber": "4717"
    },
    {
      "id": 61818,
      "geometry": "POINT (-79.844723 40.410532)",
      "poi_name": "Vincent's Pizza Park",
      "osm_id": 5538097887,
      "amenity": "restaurant",
      "cuisine": "pizza",
      "opening_hours": "We-Th 16:00-22:00; Fr-Sa 16:00-23:00; Su 16:00-22:00",
      "website": "http://www.vincentspizzapark.com/",
      "phone": "+1-412-271-9181",
      "takeaway": "yes",
      "outdoor_seating": "no",
      "addr_state": "PA",
      "addr_city": "Forest Hills",
      "addr_postcode": "15112",
      "addr_street": "Ardmore Boulevard",
      "addr_housenumber": "998"
    },
    {
      "id": 61955,
      "geometry": "POINT (-79.520381 40.301604)",
      "poi_name": "Robokyo Japanese Steakhouse & Sushi",
      "osm_id": 5543759316,
      "amenity": "restaurant",
      "cuisine": "steak_house;japanese;hibachi;sushi",
      "website": "https://robokyo.com/",
      "phone": "724-834-7423",
      "takeaway": "yes",
      "outdoor_seating": "no",
      "delivery": "no",
      "addr_state": "PA",
      "addr_city": "Greensburg",
      "addr_postcode": "15601",
      "addr_street": "Toll House Road",
      "addr_housenumber": "117"
    },
    {
      "id": 64023,
      "geometry": "POINT (-79.71039 41.177065)",
      "poi_name": "Little It Deli",
      "osm_id": 5638565067,
      "amenity": "restaurant",
      "cuisine": "italian",
      "takeaway": "yes"
    },
    {
      "id": 62138,
      "geometry": "POINT (-79.948823 40.461369)",
      "poi_name": "Ginza Japanese Restaurant",
      "osm_id": 5553591722,
      "amenity": "restaurant",
      "cuisine": "japanese",
      "wheelchair": "yes",
      "opening_hours": "Tu-Th 11:00-22:00; Fr 11:00-23:00; Sa 12:00-23:00; Su 12:00-21:00",
      "website": "http://ginzapa.com/",
      "phone": "+1-412-688-7272",
      "takeaway": "yes",
      "addr_state": "PA",
      "addr_city": "Pittsburgh",
      "addr_postcode": "15224",
      "addr_street": "Liberty Avenue",
      "addr_housenumber": "4734"
    },
    {
      "id": 62139,
      "geometry": "POINT (-79.948117 40.461349)",
      "poi_name": "Rocky's Cafe",
      "osm_id": 5553608413,
      "amenity": "restaurant",
      "cuisine": "burger;breakfast;sandwich",
      "opening_hours": "Tu, Th, Sa-Su 08:00-12:00",
      "takeaway": "yes",
      "addr_state": "PA",
      "addr_city": "Pittsburgh",
      "addr_postcode": "15224",
      "addr_street": "Liberty Avenue",
      "addr_housenumber": "4759"
    },
    {
      "id": 62154,
      "geometry": "POINT (-80.03741 40.392823)",
      "poi_name": "My Thai",
      "osm_id": 5554109613,
      "amenity": "restaurant",
      "cuisine": "thai",
      "opening_hours": "Su, Mo, We, Th, Sa 11:30-21:00; Tu off; Fr 11:30-22:00",
      "website": "http://www.mythaipittsburgh.com/",
      "phone": "+1-412-207-7507",
      "takeaway": "yes",
      "outdoor_seating": "yes",
      "addr_state": "PA",
      "addr_city": "Dormont",
      "addr_postcode": "15216",
      "addr_street": "West Liberty Avenue",
      "addr_housenumber": "3024"
    },
    {
      "id": 62181,
      "geometry": "POINT (-80.022415 40.395252)",
      "poi_name": "Parker's Cafe",
      "osm_id": 5555063704,
      "amenity": "restaurant",
      "cuisine": "american;sandwich",
      "opening_hours": "Tu-Th 10:00-19:00; Fr-Su 08:00-15:00",
      "phone": "+1-412-207-8099",
      "takeaway": "yes",
      "outdoor_seating": "yes",
      "toilets": "yes",
      "addr_housenumber": "600"
    },
    {
      "id": 62183,
      "geometry": "POINT (-80.022679 40.39543)",
      "poi_name": "No Name Cafe",
      "osm_id": 5555063710,
      "amenity": "restaurant",
      "cuisine": "american",
      "opening_hours": "Mo-Su 08:00-15:30",
      "phone": "4125631813",
      "takeaway": "yes",
      "toilets": "yes",
      "addr_state": "PA",
      "addr_city": "Pittsburgh",
      "addr_postcode": "15226",
      "addr_street": "Brookline Boulevard",
      "addr_housenumber": "536"
    },
    {
      "id": 62199,
      "geometry": "POINT (-80.018436 40.392803)",
      "poi_name": "Hank's Dogs",
      "osm_id": 5555532665,
      "amenity": "restaurant",
      "cuisine": "hot_dog",
      "opening_hours": "Mo-Sa 10:00-16:00",
      "takeaway": "yes",
      "outdoor_seating": "yes",
      "addr_state": "PA",
      "addr_city": "Pittsburgh",
      "addr_postcode": "15226",
      "addr_street": "Brookline Boulevard"
    },
    {
      "id": 62200,
      "geometry": "POINT (-80.017261 40.392147)",
      "poi_name": "Jolina's Mediterranean Cuisine",
      "osm_id": 5555532697,
      "amenity": "restaurant",
      "cuisine": "mediterranean",
      "opening_hours": "Mo-Th 11:00-20:30; Fr-Sa 11:00-17:30",
      "phone": "+1-412-341-3333",
      "takeaway": "yes",
      "addr_state": "PA",
      "addr_city": "Pittsburgh",
      "addr_postcode": "15226",
      "addr_street": "Brookline Boulevard",
      "addr_housenumber": "1011"
    },
    {
      "id": 73939,
      "geometry": "POINT (-79.922859 40.433582)",
      "poi_name": "Maya Sushi",
      "osm_id": 9659374222,
      "amenity": "restaurant",
      "wheelchair": "limited",
      "opening_hours": "Mo-Th 12:00-21:30; Fr,Sa 12:00-22:30; Su 14:00-21:00",
      "takeaway": "yes"
    },
    {
      "id": 72878,
      "geometry": "POINT (-79.95302 40.464179)",
      "poi_name": "COBRA",
      "osm_id": 11454121907,
      "amenity": "restaurant",
      "cuisine": "japanese;barbecue",
      "opening_hours": "We-Su 17:00-23:00",
      "website": "https://cobrapgh.com/",
      "phone": "412-682-2608",
      "takeaway": "yes",
      "outdoor_seating": "no",
      "addr_state": "PA",
      "addr_city": "Pittsburgh",
      "addr_postcode": "15224",
      "addr_street": "Main Street",
      "addr_housenumber": "4305"
    },
    {
      "id": 79511,
      "geometry": "POINT (-79.94762 40.511922)",
      "poi_name": "Eat'n Park",
      "osm_id": 809486363,
      "amenity": "restaurant",
      "cuisine": "american",
      "phone": "+1-412-487-4870",
      "takeaway": "yes",
      "drive_through": "yes",
      "addr_state": "PA",
      "addr_city": "Etna",
      "addr_postcode": "15223",
      "addr_street": "Butler Street",
      "addr_housenumber": "930"
    },
    {
      "id": 95864,
      "geometry": "POINT (-80.033515 40.395758)",
      "poi_name": "Eat'n Park",
      "osm_id": 6414100547,
      "amenity": "restaurant",
      "cuisine": "american",
      "opening_hours": "24/7",
      "phone": "+1-412-561-4944",
      "takeaway": "yes",
      "drive_through": "no",
      "addr_state": "PA",
      "addr_city": "Pittsburgh",
      "addr_postcode": "15216",
      "addr_street": "West Liberty Avenue",
      "addr_housenumber": "2874"
    },
    {
      "id": 90730,
      "geometry": "POINT (-79.91965 40.475768)",
      "poi_name": "The Smiling Banana Leaf",
      "osm_id": 2014437487,
      "amenity": "restaurant",
      "cuisine": "thai",
      "website": "https://smilingbananaleaf.com/",
      "takeaway": "yes",
      "addr_state": "PA",
      "addr_city": "Pittsburgh",
      "addr_postcode": "15206",
      "addr_street": "Byrant St.",
      "addr_housenumber": "5901"
    },
    {
      "id": 114119,
      "geometry": "POINT (-79.960133 40.470627)",
      "poi_name": "Condado Tacos",
      "osm_id": 3865719389,
      "amenity": "restaurant",
      "cuisine": "mexican",
      "opening_hours": "Su-Th 11:00-23:00; Fr-Sa 11:00-00:00",
      "internet_access": "wlan",
      "phone": "+1-412-863-7630",
      "takeaway": "yes",
      "outdoor_seating": "yes",
      "addr_state": "PA",
      "addr_city": "Pittsburgh",
      "addr_postcode": "15201",
      "addr_street": "Butler Street",
      "addr_housenumber": "4300"
    },
    {
      "id": 95989,
      "geometry": "POINT (-79.925295 40.457772)",
      "poi_name": "Noodlehead",
      "osm_id": 6417261386,
      "amenity": "restaurant",
      "cuisine": "thai",
      "wheelchair": "yes",
      "opening_hours": "12:00-22:00",
      "website": "http://noodleheadpgh.com/",
      "takeaway": "yes",
      "outdoor_seating": "yes",
      "addr_state": "PA",
      "addr_city": "Pittsburgh",
      "addr_postcode": "15206",
      "addr_street": "South Highland Avenue",
      "addr_housenumber": "242"
    },
    {
      "id": 108734,
      "geometry": "POINT (-80.035448 40.547519)",
      "poi_name": "Khoo's Garden",
      "osm_id": 3633630616,
      "amenity": "restaurant",
      "cuisine": "chinese",
      "opening_hours": "Mo-Th 11:00-21:30; Fr-Sa 11:00-22:30; Su 12:00-21:00",
      "website": "http://khoosgarden.com",
      "phone": "+1 412 369 5858",
      "takeaway": "yes",
      "addr_state": "PA",
      "addr_city": "Pittsburgh",
      "addr_postcode": "15237",
      "addr_street": "Perry Highway",
      "addr_housenumber": "1130"
    },
    {
      "id": 112002,
      "geometry": "POINT (-79.704631 40.462764)",
      "poi_name": "Fox's Pizza",
      "osm_id": 3774980871,
      "amenity": "restaurant",
      "cuisine": "pizza",
      "opening_hours": "Mo-Th 10:30-22:00; Fr-Sa 10:30-23:00; Su 12:00-22:00",
      "takeaway": "yes",
      "delivery": "yes",
      "addr_state": "PA",
      "addr_city": "Plum",
      "addr_postcode": "15239",
      "addr_street": "Golden Mile Highway",
      "addr_housenumber": "2374"
    },
    {
      "id": 112003,
      "geometry": "POINT (-79.704812 40.461727)",
      "poi_name": "Azan Wok",
      "osm_id": 3774980875,
      "amenity": "restaurant",
      "cuisine": "asian",
      "opening_hours": "Mo-Th 11:00-21:30; Fr-Sa 11:00-22:30; Su 12:00-21:00",
      "takeaway": "yes",
      "delivery": "no",
      "addr_state": "PA",
      "addr_city": "Plum",
      "addr_postcode": "15239",
      "addr_street": "Golden Mile Highway",
      "addr_housenumber": "2352"
    },
    {
      "id": 101103,
      "geometry": "POINT (-79.24249 40.245876)",
      "poi_name": "Rosalie Jioio's Little Italy",
      "osm_id": 6611336973,
      "amenity": "restaurant",
      "cuisine": "italian;pizza",
      "opening_hours": "Tu-Th,Su 11:00-21:00; Fr-Sa 11:00-22:00",
      "website": "http://jioioslittleitaly.com/",
      "phone": "+1-724-238-3007",
      "takeaway": "yes",
      "addr_state": "PA",
      "addr_city": "Ligonier",
      "addr_postcode": "15658",
      "addr_street": "West Main Street",
      "addr_housenumber": "333"
    },
    {
      "id": 107090,
      "geometry": "POINT (-80.018616 40.530266)",
      "poi_name": "Pelegrino's Pizza & Pasta",
      "osm_id": 3534500350,
      "amenity": "restaurant",
      "cuisine": "pizza;pasta",
      "description": "A family-owned restaurant offering affordable Italian fare.",
      "opening_hours": "closed",
      "website": "https://pelegrinos.net/",
      "phone": "+1-412-837-1919",
      "takeaway": "yes",
      "delivery": "yes",
      "addr_state": "PA",
      "addr_city": "Pittsburgh",
      "addr_postcode": "15237",
      "addr_street": "Babcock Boulevard",
      "addr_housenumber": "3275"
    },
    {
      "id": 115216,
      "geometry": "POINT (-80.001944 40.440714)",
      "poi_name": "DiBella's",
      "osm_id": 8881675376,
      "amenity": "restaurant",
      "cuisine": "sandwich",
      "opening_hours": "Su 11:00-19:00; Mo-Sa 10:00-21:00",
      "website": "https://www.dibellas.com",
      "phone": "+1-412-338-8634",
      "takeaway": "yes",
      "official_name": "DiBella's Subs",
      "outdoor_seating": "yes",
      "delivery": "yes",
      "addr_state": "PA",
      "addr_city": "Pittsburgh",
      "addr_postcode": "15222",
      "addr_street": "Market Street",
      "addr_housenumber": "16"
    },
    {
      "id": 115080,
      "geometry": "POINT (-79.71284 40.445259)",
      "poi_name": "Vocelli Pizza",
      "osm_id": 3909424639,
      "amenity": "restaurant",
      "opening_hours": "Mo-Th 11:00-23:00; Fr-Sa 11:00-1:00; Su 11:00-23:00",
      "takeaway": "yes",
      "addr_street": "Golden Mile Highway",
      "addr_housenumber": "1786"
    },
    {
      "id": 115918,
      "geometry": "POINT (-79.255395 40.439948)",
      "poi_name": "Clem's Cafe (BBQ)",
      "osm_id": 8919464938,
      "amenity": "restaurant",
      "cuisine": "barbecue",
      "wheelchair": "yes",
      "building": "yes",
      "opening_hours": "Tu-Su 00:00-24:00",
      "phone": "+1 724-459-8334",
      "takeaway": "yes",
      "addr_street": "Route 22 East",
      "addr_housenumber": "1985"
    },
    {
      "id": 116039,
      "geometry": "POINT (-80.044539 40.518272)",
      "poi_name": "Severina",
      "osm_id": 8925192299,
      "amenity": "restaurant",
      "cuisine": "italian",
      "phone": "+1 412 931 3610",
      "takeaway": "yes",
      "outdoor_seating": "yes"
    },
    {
      "id": 128229,
      "geometry": "POINT (-79.953205 40.440067)",
      "poi_name": "Beta Bites",
      "osm_id": 8140325968,
      "amenity": "restaurant",
      "cuisine": "moroccan",
      "phone": "+1-412-621-7000",
      "takeaway": "yes",
      "delivery": "yes",
      "addr_state": "PA",
      "addr_city": "Pittsburgh",
      "addr_street": "South Bouquet Street",
      "addr_housenumber": "338"
    },
    {
      "id": 121283,
      "geometry": "POINT (-80.046147 41.062706)",
      "poi_name": "Quaker Steak & Lube",
      "osm_id": 6751172604,
      "amenity": "restaurant",
      "cuisine": "wings",
      "internet_access": "yes",
      "takeaway": "yes",
      "outdoor_seating": "yes"
    },
    {
      "id": 123328,
      "geometry": "POINT (-79.726678 40.621931)",
      "poi_name": "Eat'n Park",
      "osm_id": 6848888079,
      "amenity": "restaurant",
      "cuisine": "american",
      "phone": "+1-724-224-2442",
      "takeaway": "yes",
      "drive_through": "yes",
      "addr_state": "PA",
      "addr_city": "Natrona Heights",
      "addr_postcode": "15065",
      "addr_street": "Broadview Boulevard",
      "addr_housenumber": "1626"
    },
    {
      "id": 123342,
      "geometry": "POINT (-78.856978 40.270015)",
      "poi_name": "Eat'n Park",
      "osm_id": 6848941863,
      "amenity": "restaurant",
      "cuisine": "american",
      "phone": "+1-814-266-5174",
      "takeaway": "yes",
      "drive_through": "yes",
      "addr_state": "PA",
      "addr_city": "Johnstown",
      "addr_postcode": "15904",
      "addr_street": "Scalp Avenue",
      "addr_housenumber": "1461"
    },
    {
      "id": 123361,
      "geometry": "POINT (-79.759997 40.556904)",
      "poi_name": "Eat'n Park",
      "osm_id": 6851859822,
      "amenity": "restaurant",
      "cuisine": "american",
      "phone": "+1-724-335-3361",
      "takeaway": "yes",
      "drive_through": "yes",
      "addr_state": "PA",
      "addr_city": "New Kensington",
      "addr_postcode": "15068",
      "addr_street": "Freeport Street",
      "addr_housenumber": "380"
    },
    {
      "id": 123363,
      "geometry": "POINT (-79.610071 40.217895)",
      "poi_name": "Eat'n Park",
      "osm_id": 6851905691,
      "amenity": "restaurant",
      "cuisine": "american",
      "phone": "+1-724-925-1060",
      "takeaway": "yes",
      "drive_through": "no",
      "addr_state": "PA",
      "addr_city": "New Stanton",
      "addr_postcode": "15672",
      "addr_street": "West Byers Avenue",
      "addr_housenumber": "111"
    },
    {
      "id": 123883,
      "geometry": "POINT (-80.594 40.062522)",
      "poi_name": "Eat'n Park",
      "osm_id": 6886636274,
      "amenity": "restaurant",
      "cuisine": "american",
      "phone": "+1-304-547-9500",
      "takeaway": "yes",
      "drive_through": "no",
      "addr_state": "WV",
      "addr_city": "Triadelphia",
      "addr_postcode": "26059",
      "addr_street": "Fort Henry Road",
      "addr_housenumber": "80"
    },
    {
      "id": 121889,
      "geometry": "POINT (-80.101146 40.370208)",
      "poi_name": "Eat'n Park",
      "osm_id": 6781275227,
      "amenity": "restaurant",
      "cuisine": "american",
      "opening_hours": "24/7",
      "internet_access": "no",
      "phone": "+1-412-221-8800",
      "takeaway": "yes",
      "drive_through": "no",
      "addr_state": "PA",
      "addr_city": "Bridgeville",
      "addr_postcode": "15017",
      "addr_street": "Washington Pike",
      "addr_housenumber": "1197"
    },
    {
      "id": 126246,
      "geometry": "POINT (-79.942356 39.651485)",
      "poi_name": "Pies n' Pints",
      "osm_id": 6990264264,
      "amenity": "restaurant",
      "cuisine": "pizza",
      "takeaway": "yes",
      "delivery": "no"
    },
    {
      "id": 126247,
      "geometry": "POINT (-79.943873 39.653403)",
      "poi_name": "Buffalo Wild Wings",
      "osm_id": 6990264266,
      "amenity": "restaurant",
      "cuisine": "wings",
      "takeaway": "yes",
      "addr_state": "WV"
    },
    {
      "id": 136935,
      "geometry": "POINT (-79.956829 40.465261)",
      "poi_name": "Fazio's Pizza",
      "osm_id": 6076809937,
      "amenity": "restaurant",
      "cuisine": "pizza",
      "wheelchair": "no",
      "opening_hours": "Fr, Sa 11:00-23:00; Tu-Th 11:00-22:00; Su 12:00-20:00",
      "website": "http://faziopizza.com/",
      "phone": "+1-412-251-5312",
      "takeaway": "yes",
      "outdoor_seating": "yes",
      "delivery": "yes",
      "addr_street": "Penn Avenue",
      "addr_housenumber": "4028"
    },
    {
      "id": 129774,
      "geometry": "POINT (-79.954222 39.631982)",
      "poi_name": "Casa D'Amici",
      "osm_id": 9840109165,
      "amenity": "restaurant",
      "cuisine": "pizza;italian",
      "opening_hours": "Su-Tu 11:00-01:30,  We-Sa 11:00-03:30",
      "website": "https://www.casadamiciwv.com/",
      "takeaway": "yes",
      "delivery": "yes",
      "addr_state": "WV",
      "addr_city": "Morgantown",
      "addr_postcode": "26505",
      "addr_street": "High Street",
      "addr_housenumber": "485"
    },
    {
      "id": 136936,
      "geometry": "POINT (-79.96026 40.464673)",
      "poi_name": "Piazza Talarico and Papa Joe\u2019s Wine Cellar",
      "osm_id": 6076837752,
      "amenity": "restaurant",
      "cuisine": "italian",
      "wheelchair": "yes",
      "opening_hours": "Tu-Th 12:00-20:00; Fr, Sa 12:00-21:00; PH off",
      "website": "https://piazzatalarico.com/",
      "phone": "+1-412-652-9426",
      "takeaway": "yes",
      "outdoor_seating": "yes",
      "toilets": "yes",
      "addr_street": "Penn Avenue",
      "addr_housenumber": "3832"
    },
    {
      "id": 137807,
      "geometry": "POINT (-80.650417 41.10478)",
      "poi_name": "Subway",
      "osm_id": 6114265731,
      "amenity": "restaurant",
      "cuisine": "sandwich",
      "takeaway": "yes"
    },
    {
      "id": 145496,
      "geometry": "POINT (-80.046718 40.393691)",
      "poi_name": "Atria's Restaurant & Tavern",
      "osm_id": 7360515164,
      "amenity": "restaurant",
      "cuisine": "american",
      "opening_hours": "Su-Th 11:00-21:00; Fr,Sa 11:00-22:00",
      "phone": "+1-412-343-2411",
      "takeaway": "yes",
      "outdoor_seating": "yes",
      "addr_state": "PA",
      "addr_city": "Pittsburgh",
      "addr_postcode": "15216",
      "addr_street": "Beverly Road",
      "addr_housenumber": "110"
    },
    {
      "id": 140890,
      "geometry": "POINT (-79.973346 40.427063)",
      "poi_name": "Thai Me Up",
      "osm_id": 6266219592,
      "amenity": "restaurant",
      "cuisine": "asian;thai",
      "opening_hours": "Mo-Fr 11:00-21:30, Sa 12:00-21:30",
      "takeaway": "yes",
      "delivery": "no"
    },
    {
      "id": 140357,
      "geometry": "POINT (-79.751543 40.592612)",
      "poi_name": "Asian Kitchen",
      "osm_id": 6242914786,
      "amenity": "restaurant",
      "cuisine": "chinese",
      "takeaway": "yes",
      "delivery": "no"
    },
    {
      "id": 148711,
      "geometry": "POINT (-79.930143 39.627853)",
      "poi_name": "Rio Verde",
      "osm_id": 3975069217,
      "amenity": "restaurant",
      "cuisine": "mexican",
      "opening_hours": "Mo-Th 11:00-22:00; Fr 11:00-22:30; Sa 12:00-22:30; Su 12:00-21:00",
      "website": "https://www.rioverdemorgantown.com/",
      "takeaway": "yes",
      "addr_state": "WV",
      "addr_city": "Morgantown",
      "addr_postcode": "26508",
      "addr_street": "Earl Core Road",
      "addr_housenumber": "1417"
    },
    {
      "id": 154242,
      "geometry": "POINT (-79.990898 40.539334)",
      "poi_name": "Adrian's Pizza",
      "osm_id": 4229160618,
      "amenity": "restaurant",
      "cuisine": "pizza",
      "takeaway": "yes",
      "delivery": "yes"
    },
    {
      "id": 149094,
      "geometry": "POINT (-79.963678 39.656689)",
      "poi_name": "Los Mariachis",
      "osm_id": 3996455857,
      "amenity": "restaurant",
      "cuisine": "mexican",
      "opening_hours": "10:00-22:00",
      "takeaway": "yes",
      "addr_state": "WV",
      "addr_city": "Morgantown",
      "addr_postcode": "26505",
      "addr_street": "Van Voorhis Road",
      "addr_housenumber": "1137"
    },
    {
      "id": 150651,
      "geometry": "POINT (-79.89157 39.648572)",
      "poi_name": "Morgantown Draft Restaurant and Bar",
      "osm_id": 4060940239,
      "amenity": "restaurant",
      "cuisine": "american",
      "website": "https://www.draftwv.com/",
      "phone": "+1-304-241-6890",
      "takeaway": "yes",
      "addr_state": "WV",
      "addr_city": "Morgantown",
      "addr_postcode": "26508",
      "addr_street": "Mid Atlantic Drive",
      "addr_housenumber": "5008"
    },
    {
      "id": 154304,
      "geometry": "POINT (-79.368008 39.80586)",
      "poi_name": "The Outflow",
      "osm_id": 4231891676,
      "amenity": "restaurant",
      "cuisine": "regional",
      "description": "The style is walk-up windows, and is noted for soft serve & hand dipped ice cream. There are picnic tables available.",
      "capacity": "50",
      "takeaway": "yes"
    },
    {
      "id": 154988,
      "geometry": "POINT (-80.04986 40.388838)",
      "poi_name": "Green Garden",
      "osm_id": 4264630897,
      "amenity": "restaurant",
      "cuisine": "chinese",
      "phone": "+1-412-531-0881",
      "takeaway": "yes",
      "addr_street": "Beverly Road",
      "addr_housenumber": "300"
    },
    {
      "id": 161142,
      "geometry": "POINT (-80.01674 40.45208)",
      "poi_name": "Bier's Pub",
      "osm_id": 4868333971,
      "amenity": "restaurant",
      "cuisine": "american;pub",
      "website": "https://bierspub.com/",
      "phone": "+1-412-224-2163",
      "takeaway": "yes",
      "outdoor_seating": "yes",
      "addr_state": "PA",
      "addr_city": "Pittsburgh",
      "addr_postcode": "15233",
      "addr_street": "Western Avenue",
      "addr_housenumber": "900"
    },
    {
      "id": 158566,
      "geometry": "POINT (-80.67688 40.375637)",
      "poi_name": "Sumo Sushi",
      "osm_id": 4754031940,
      "amenity": "restaurant",
      "cuisine": "japanese",
      "takeaway": "yes",
      "addr_state": "OH",
      "addr_city": "Steubenville",
      "addr_postcode": "43952",
      "addr_street": "Sunset Boulevard",
      "addr_housenumber": "4170"
    },
    {
      "id": 158569,
      "geometry": "POINT (-80.550263 40.401248)",
      "poi_name": "Eat'n Park",
      "osm_id": 4754124866,
      "amenity": "restaurant",
      "cuisine": "american",
      "phone": "+1-304-723-5179",
      "takeaway": "yes",
      "drive_through": "no",
      "addr_state": "WV",
      "addr_city": "Weirton",
      "addr_postcode": "26062",
      "addr_street": "Three Springs Drive",
      "addr_housenumber": "226"
    },
    {
      "id": 167819,
      "geometry": "POINT (-79.955967 40.465429)",
      "poi_name": "Tram's Kitchen",
      "osm_id": 361975506,
      "amenity": "restaurant",
      "cuisine": "vietnamese",
      "wheelchair": "no",
      "opening_hours": "Tu-Sa 10:00-22:00; Su 11:00-20:30",
      "phone": "+1-412-682-2688",
      "takeaway": "yes",
      "addr_street": "Penn Avenue",
      "addr_housenumber": "4050"
    },
    {
      "id": 175027,
      "geometry": "POINT (-80.235298 40.18254)",
      "poi_name": "Eat'n Park",
      "osm_id": 2503424748,
      "amenity": "restaurant",
      "cuisine": "american",
      "phone": "+1-724-229-7333",
      "takeaway": "yes",
      "drive_through": "yes",
      "addr_state": "PA",
      "addr_city": "Washington",
      "addr_postcode": "15301",
      "addr_street": "Oak Spring Road",
      "addr_housenumber": "320"
    },
    {
      "id": 170359,
      "geometry": "POINT (-80.103402 40.699617)",
      "poi_name": "Ichiban Steakhouse & Sushi Bar",
      "osm_id": 2333123086,
      "amenity": "restaurant",
      "cuisine": "steak_house;japanese;hibachi;sushi",
      "opening_hours": "Mo-Th 11:00-14:30, 16:30-21:30; Fr 11:00-14:30, 16:30-22:30; Sa 13:00-22:30; Su 12:00-20:30",
      "website": "ichiban-hibachi-steakhouse.com",
      "phone": "724-779-2223",
      "takeaway": "yes",
      "outdoor_seating": "no",
      "delivery": "no",
      "addr_state": "PA",
      "addr_city": "Cranberry Twp",
      "addr_postcode": "16066",
      "addr_street": "Perry Highway",
      "addr_housenumber": "20510"
    },
    {
      "id": 175093,
      "geometry": "POINT (-79.824354 40.385258)",
      "poi_name": "Eat'n Park",
      "osm_id": 2505421490,
      "amenity": "restaurant",
      "cuisine": "american",
      "opening_hours": "Su-Th 6:00-23:00; Fr-Sa 6:00-24:00",
      "website": "http://www.eatnpark.com/",
      "phone": "+1-412-816-2006",
      "takeaway": "yes",
      "drive_through": "no",
      "delivery": "no",
      "addr_state": "PA",
      "addr_city": "North Versailles",
      "addr_postcode": "15137",
      "addr_street": "Lincoln Highway",
      "addr_housenumber": "299"
    },
    {
      "id": 175116,
      "geometry": "POINT (-79.772519 40.436655)",
      "poi_name": "Eat'n Park",
      "osm_id": 2506667944,
      "amenity": "restaurant",
      "cuisine": "american",
      "phone": "+1-412-471-1111",
      "takeaway": "yes",
      "drive_through": "yes",
      "addr_state": "PA",
      "addr_city": "Monroeville",
      "addr_postcode": "15146",
      "addr_street": "Monroeville Boulevard",
      "addr_housenumber": "3987"
    },
    {
      "id": 177138,
      "geometry": "POINT (-80.030919 40.29247)",
      "poi_name": "Subway",
      "osm_id": 2575178879,
      "amenity": "restaurant",
      "cuisine": "sandwich",
      "website": "https://www.subway.com/",
      "takeaway": "yes"
    },
    {
      "id": 181067,
      "geometry": "POINT (-79.760322 40.081215)",
      "poi_name": "Fox's Pizza Den",
      "osm_id": 10830939087,
      "amenity": "restaurant",
      "cuisine": "pizza",
      "opening_hours": "Mo-Su 11:00-22:00",
      "website": "https://www.foxspizza.com/store/pennsylvania/perryopolis-pa/",
      "takeaway": "yes",
      "delivery": "yes",
      "addr_state": "PA",
      "addr_city": "Perryopolis",
      "addr_postcode": "15473",
      "addr_street": "Pittsburgh Road",
      "addr_housenumber": "3357"
    },
    {
      "id": 188432,
      "geometry": "POINT (-79.951551 40.463162)",
      "poi_name": "Thai Gourmet",
      "osm_id": 1152028822,
      "amenity": "restaurant",
      "cuisine": "thai",
      "wheelchair": "yes",
      "opening_hours": "Mo, We, Th 11:00-14:00, 16:00-20:30; Su 04:30-20:30; Fr 11:00-14:00, 16:00-21:30; Sa 16:00-21:30",
      "phone": "+1-412-681-4373",
      "takeaway": "yes",
      "addr_street": "Liberty Avenue",
      "addr_housenumber": "4505"
    },
    {
      "id": 188433,
      "geometry": "POINT (-79.950714 40.462725)",
      "poi_name": "Tessaro's American Bar & Hardwood Grill",
      "osm_id": 1152028826,
      "amenity": "restaurant",
      "cuisine": "burger;salad;sandwich;chicken",
      "wheelchair": "yes",
      "opening_hours": "We-Su 16:00-22:00; Mo-Tu off",
      "website": "https://tessaros.com/",
      "phone": "+1-412 682 6809",
      "takeaway": "yes",
      "addr_state": "PA",
      "addr_city": "Pittsburgh",
      "addr_postcode": "15224",
      "addr_street": "Liberty Avenue",
      "addr_housenumber": "4601"
    },
    {
      "id": 207568,
      "geometry": "POINT (-79.833368 40.322974)",
      "poi_name": "China Jade",
      "osm_id": 4952713916,
      "amenity": "restaurant",
      "cuisine": "chinese",
      "takeaway": "yes"
    },
    {
      "id": 192874,
      "geometry": "POINT (-80.035735 40.396776)",
      "poi_name": "Don Campiti's Pizzeria",
      "osm_id": 1483865331,
      "amenity": "restaurant",
      "cuisine": "pizza",
      "opening_hours": "Su-Tu 11:00-21:00; We-Sa 11:00-22:00",
      "website": "https://www.campspizza.com/",
      "phone": "+1 412 561 9608",
      "takeaway": "yes",
      "addr_state": "PA",
      "addr_city": "Pittsburgh",
      "addr_postcode": "15216",
      "addr_street": "Potomac Avenue",
      "addr_housenumber": "1509"
    },
    {
      "id": 205554,
      "geometry": "POINT (-79.957096 40.441807)",
      "poi_name": "Szechuan Express",
      "osm_id": 7172930394,
      "amenity": "restaurant",
      "cuisine": "asian",
      "takeaway": "yes"
    },
    {
      "id": 191526,
      "geometry": "POINT (-79.97356 40.345858)",
      "poi_name": "Eat'n Park",
      "osm_id": 1372552301,
      "amenity": "restaurant",
      "cuisine": "american",
      "phone": "+1-412-882-0258",
      "takeaway": "yes",
      "drive_through": "yes",
      "addr_state": "PA",
      "addr_city": "Pittsburgh",
      "addr_postcode": "15236",
      "addr_street": "Clairton Boulevard",
      "addr_housenumber": "5100"
    },
    {
      "id": 194166,
      "geometry": "POINT (-80.212106 40.502008)",
      "poi_name": "Casa Amigos",
      "osm_id": 10261616881,
      "amenity": "restaurant",
      "cuisine": "mexican",
      "opening_hours": "Mo-Fr 11:00-22:00; Sa 11:30-22:00; Su 12:00-21:00",
      "website": "https://www.casaamigospgh.com/",
      "phone": "+1 412 264 0800",
      "takeaway": "yes",
      "outdoor_seating": "yes",
      "delivery": "yes",
      "addr_street": "Rouser Road",
      "addr_housenumber": "333"
    },
    {
      "id": 207593,
      "geometry": "POINT (-79.804527 40.335867)",
      "poi_name": "China House",
      "osm_id": 4953821660,
      "amenity": "restaurant",
      "cuisine": "chinese",
      "takeaway": "yes"
    },
    {
      "id": 207595,
      "geometry": "POINT (-79.805228 40.336572)",
      "poi_name": "My Big Fat Greek Gyro",
      "osm_id": 4953821672,
      "amenity": "restaurant",
      "cuisine": "greek",
      "takeaway": "yes"
    },
    {
      "id": 228204,
      "geometry": "POINT (-80.670445 40.36765)",
      "poi_name": "Eat'n Park",
      "osm_id": 4334601199,
      "amenity": "restaurant",
      "cuisine": "american",
      "phone": "+1-740-266-6643",
      "takeaway": "yes",
      "drive_through": "yes",
      "addr_state": "OH",
      "addr_city": "Steubenville",
      "addr_postcode": "43952",
      "addr_street": "Mall Drive",
      "addr_housenumber": "100"
    },
    {
      "id": 207918,
      "geometry": "POINT (-79.842831 40.51573)",
      "poi_name": "Fox's Pizza",
      "osm_id": 4968436972,
      "amenity": "restaurant",
      "cuisine": "pizza",
      "takeaway": "yes",
      "delivery": "yes"
    },
    {
      "id": 208845,
      "geometry": "POINT (-79.948822 39.656536)",
      "poi_name": "Street Meatz",
      "osm_id": 5007860004,
      "amenity": "restaurant",
      "cuisine": "burger",
      "opening_hours": "Fr 11:00-18:00",
      "capacity": "10",
      "takeaway": "yes",
      "delivery": "no"
    },
    {
      "id": 213207,
      "geometry": "POINT (-79.955312 40.439087)",
      "poi_name": "Sichuan Gourmet",
      "osm_id": 5240343115,
      "amenity": "restaurant",
      "cuisine": "chinese",
      "takeaway": "yes",
      "outdoor_seating": "no",
      "addr_state": "PA",
      "addr_city": "Pittsburgh",
      "addr_postcode": "15213-4026",
      "addr_street": "Atwood Street",
      "addr_housenumber": "328"
    },
    {
      "id": 213209,
      "geometry": "POINT (-79.955328 40.439124)",
      "poi_name": "Bangal Kebab House & Restaurant",
      "osm_id": 5240345045,
      "amenity": "restaurant",
      "cuisine": "indian",
      "opening_hours": "Mo-Th 11:00-22:00; Fr-Sa 10:00-23:00; Su 12:00-22:00",
      "takeaway": "yes"
    },
    {
      "id": 225416,
      "geometry": "POINT (-80.662142 40.992023)",
      "poi_name": "Belleria Pizza & Italian Restaurant",
      "osm_id": 11126141113,
      "amenity": "restaurant",
      "cuisine": "italian;pizza",
      "phone": "+1-330-879-8916",
      "takeaway": "yes",
      "delivery": "yes",
      "addr_state": "OH",
      "addr_city": "Boardman",
      "addr_postcode": "44512",
      "addr_street": "Market Street",
      "addr_housenumber": "8485"
    },
    {
      "id": 237244,
      "geometry": "POINT (-80.002357 40.439887)",
      "poi_name": "Ephesus",
      "osm_id": 5824544292,
      "amenity": "restaurant",
      "cuisine": "mediterranean;turkish;pizza",
      "takeaway": "yes",
      "addr_state": "PA",
      "addr_city": "Pittsburgh",
      "addr_postcode": "15222",
      "addr_street": "Fourth Avenue",
      "addr_housenumber": "219"
    },
    {
      "id": 229541,
      "geometry": "POINT (-80.756435 40.770414)",
      "poi_name": "Pondi's",
      "osm_id": 4385937009,
      "amenity": "restaurant",
      "capacity": "60",
      "takeaway": "yes",
      "delivery": "no",
      "addr_state": "OH",
      "addr_city": "Lisbon",
      "addr_postcode": "44432",
      "addr_street": "State Route 45"
    },
    {
      "id": 233464,
      "geometry": "POINT (-80.017503 40.45166)",
      "poi_name": "Peppi's",
      "osm_id": 4575674117,
      "amenity": "restaurant",
      "cuisine": "sandwich",
      "opening_hours": "Mo-Fr 10:00-20:00, Sa 10:00-17:00",
      "website": "http://www.peppisubs.com/",
      "phone": "+1-412-231-9009",
      "takeaway": "yes",
      "delivery": "yes",
      "addr_state": "PA",
      "addr_city": "Pittsburgh",
      "addr_postcode": "15233",
      "addr_street": "Western Avenue",
      "addr_housenumber": "927"
    },
    {
      "id": 242325,
      "geometry": "POINT (-79.954572 40.465649)",
      "poi_name": "Los Cabos Mexican Restaurant",
      "osm_id": 6066644204,
      "amenity": "restaurant",
      "cuisine": "burrito;tacos;tortas",
      "wheelchair": "yes",
      "opening_hours": "Mo-Sa 10:00-22:00",
      "website": "https://loscabosmexfood.wordpress.com/",
      "phone": "+1-412-251-5105",
      "takeaway": "yes",
      "outdoor_seating": "yes",
      "addr_street": "Penn Avenue",
      "addr_housenumber": "4110"
    },
    {
      "id": 241902,
      "geometry": "POINT (-79.947748 40.460793)",
      "poi_name": "Pad Thai Noodle",
      "osm_id": 6044338909,
      "amenity": "restaurant",
      "cuisine": "thai",
      "opening_hours": "Mo-Su 11:00-22:00",
      "website": "https://padthaipitt.com/",
      "phone": "+1-412-904-1640",
      "takeaway": "yes",
      "delivery": "yes",
      "addr_street": "Liberty Avenue",
      "addr_housenumber": "4770"
    },
    {
      "id": 241904,
      "geometry": "POINT (-79.94614 40.45994)",
      "poi_name": "GM Dog N' Burger Shoppe",
      "osm_id": 6044389852,
      "amenity": "restaurant",
      "cuisine": "burger;breakfast;sandwich",
      "opening_hours": "Mo-Fr 06:00-17:00; Sa 07:00-14:00",
      "phone": "+1-412-681-8276",
      "takeaway": "yes",
      "addr_street": "Liberty Avenue",
      "addr_housenumber": "4830"
    },
    {
      "id": 242003,
      "geometry": "POINT (-79.949315 40.461977)",
      "poi_name": "Azorean Cafe",
      "osm_id": 6050046173,
      "amenity": "restaurant",
      "cuisine": "breakfast",
      "opening_hours": "Tu-Fr 09:00-21:00; Mo, Sa, Su 07:30-16:00",
      "website": "https://azoreancafe.com/",
      "phone": "+1 412-586-4241",
      "takeaway": "yes",
      "toilets": "yes",
      "addr_street": "Liberty Avenue",
      "addr_housenumber": "4715"
    },
    {
      "id": 242006,
      "geometry": "POINT (-79.950382 40.462544)",
      "poi_name": "Bitter Ends Garden & Luncheonette",
      "osm_id": 6050122405,
      "amenity": "restaurant",
      "cuisine": "pastry;salad;sandwich",
      "wheelchair": "no",
      "opening_hours": "We 16:00-19:00; Th 12:00-14:00; Fr 08:00-14:00; Sa, Su 09:00-14:00",
      "website": "https://www.tillthebitterends.com/",
      "takeaway": "yes",
      "outdoor_seating": "yes",
      "addr_street": "Liberty Avenue",
      "addr_housenumber": "4713"
    },
    {
      "id": 242026,
      "geometry": "POINT (-79.950098 40.46205)",
      "poi_name": "Caliente Pizza & Drafthouse",
      "osm_id": 6050559785,
      "amenity": "restaurant",
      "cuisine": "pizza;burger;sandwich",
      "wheelchair": "limited",
      "opening_hours": "Mo-Su 11:00-14:00",
      "website": "https://pizzadrafthouse.com/",
      "phone": "+1-412-682-1414",
      "takeaway": "yes",
      "outdoor_seating": "no",
      "toilets": "yes",
      "addr_street": "Liberty Avenue",
      "addr_housenumber": "4624"
    },
    {
      "id": 242027,
      "geometry": "POINT (-79.951399 40.462745)",
      "poi_name": "Pizza Italia",
      "osm_id": 6051094664,
      "amenity": "restaurant",
      "cuisine": "pizza",
      "opening_hours": "Mo-Th 11:00-22:00; Fr, Sa 11:00-23:00; Su 12:00-21:00",
      "phone": "+1-412-621-8960",
      "takeaway": "yes",
      "outdoor_seating": "yes",
      "delivery": "yes",
      "addr_street": "Liberty Avenue",
      "addr_housenumber": "4512"
    },
    {
      "id": 242028,
      "geometry": "POINT (-79.951534 40.462808)",
      "poi_name": "Baby Loves Tacos",
      "osm_id": 6051095809,
      "amenity": "restaurant",
      "cuisine": "mexican",
      "opening_hours": "Mo-Sa 11:00-20:00",
      "website": "http://babylovestacospgh.com/",
      "takeaway": "yes",
      "toilets": "yes",
      "addr_street": "Liberty Avenue",
      "addr_housenumber": "4508"
    },
    {
      "id": 242029,
      "geometry": "POINT (-79.951594 40.462825)",
      "poi_name": "China House",
      "osm_id": 6051095810,
      "amenity": "restaurant",
      "cuisine": "chinese",
      "wheelchair": "yes",
      "opening_hours": "Mo-Fr 11:00-22:00; Sa 11:00-23:00",
      "website": "https://www.chinahouse15224.com/",
      "phone": "+1-412-621-0995",
      "takeaway": "yes",
      "delivery": "yes",
      "addr_street": "Liberty Avenue",
      "addr_housenumber": "4506"
    },
    {
      "id": 242326,
      "geometry": "POINT (-79.954837 40.46582)",
      "poi_name": "Graziano's Pizzeria",
      "osm_id": 6066644329,
      "amenity": "restaurant",
      "cuisine": "pizza",
      "wheelchair": "yes",
      "opening_hours": "Mo-Sa 11:00-22:00; Su 11:00-21:00",
      "website": "https://grazianospizzeriaandbeer.com/",
      "phone": "+1-412-621-7790",
      "takeaway": "yes",
      "delivery": "yes",
      "addr_street": "Penn Avenue",
      "addr_housenumber": "4109"
    },
    {
      "id": 242331,
      "geometry": "POINT (-79.955544 40.465694)",
      "poi_name": "Black Lotus Pizza",
      "osm_id": 6066760416,
      "amenity": "restaurant",
      "cuisine": "pizza;sandwich",
      "wheelchair": "yes",
      "opening_hours": "Tu-Sa 12:00-22:00; Su 15:00-21:00",
      "website": "https://www.blacklotuspizza.com/",
      "internet_access": "wlan",
      "phone": "+1-412-683-1011",
      "takeaway": "yes",
      "delivery": "Mo-Sa 11:00-21:30",
      "addr_postcode": "15224",
      "addr_street": "Penn Avenue",
      "addr_housenumber": "4065"
    },
    {
      "id": 243788,
      "geometry": "POINT (-80.332971 41.121036)",
      "poi_name": "Pizza Joe's",
      "osm_id": 7678530251,
      "amenity": "restaurant",
      "cuisine": "pizza",
      "website": "https://www.pizzajoes.com/locations/new-wilmington/",
      "phone": "+1-724-946-2515",
      "takeaway": "yes",
      "addr_state": "PA",
      "addr_city": "New Wilmington",
      "addr_postcode": "16142",
      "addr_street": "South Market Street",
      "addr_housenumber": "209"
    }
  ],
  "answer_type": "name",
  "question_entities": {
    "[1]": {
      "main_category": "amenity",
      "sub_category": "restaurant",
      "poi_filter_desc": "takeaway restaurant",
      "poi_filter_sql": "takeaway ILIKE '%yes%'"
    },
    "[2]": {
      "distance": 140000,
      "text": "140 kilometers"
    },
    "[3]": {
      "main_category": "tourism",
      "sub_category": "museum",
      "display_name": "Monongahela River, Railroad, and Transportation Museum, Brownsville, PA",
      "geo_wkt": "POINT (-79.879537 40.022979)",
      "poi": {
        "id": 5821,
        "geometry": "POINT (-79.879537 40.022979)",
        "poi_name": "Monongahela River, Railroad, and Transportation Museum",
        "osm_id": 1622308091,
        "tourism": "museum",
        "fee": "no",
        "website": "https://montransportationmuseum.webnode.page/",
        "phone": "+1 724-880-5960",
        "addr_state": "PA",
        "addr_city": "Brownsville",
        "addr_postcode": "15417",
        "addr_street": "Church Street",
        "addr_housenumber": "412"
      }
    }
  },
  "id": 560,
  "type": "range:non_spat_filter+name"
}