{
  "question": "Which route leads to an attraction from Fisherman Suites, Astoria, OR within 150 kilometers?",
  "sql": "SELECT *, degrees(ST_Azimuth(ST_GeomFromText('POINT (-123.798088 46.197073)',4326)::geography, pois.geometry)) AS angle FROM pois\nWHERE ST_DWithin(pois.geometry, ST_GeomFromText('POINT (-123.798088 46.197073)',4326)::geography, 150000)\nAND tourism = 'attraction';\n",
  "answers": [
    {
      "id": 475,
      "geometry": "POINT (-123.98399 45.108412)",
      "poi_name": "Mount Angel Street beach access 39A (Ocean Shore State Recreation Area)",
      "osm_id": 8401083417,
      "tourism": "attraction",
      "angle": 186.89562370659715
    },
    {
      "id": 479,
      "geometry": "POINT (-123.982412 45.102957)",
      "poi_name": "Neskowin State Recreation Site\u2014beach access 39B (Ocean Shore State Recreation Area)",
      "osm_id": 8401173717,
      "tourism": "attraction",
      "angle": 186.80449033333718
    },
    {
      "id": 481,
      "geometry": "POINT (-123.955145 45.193126)",
      "poi_name": "Fishers Point County Boat Launch",
      "osm_id": 8402583017,
      "tourism": "attraction",
      "angle": 186.312554168545
    },
    {
      "id": 488,
      "geometry": "POINT (-123.935316 45.159366)",
      "poi_name": "Little Nestucca County Boat Launch",
      "osm_id": 8403495417,
      "tourism": "attraction",
      "angle": 185.3453362257071
    },
    {
      "id": 567,
      "geometry": "POINT (-122.848267 45.647307)",
      "poi_name": "Troll Bridge",
      "osm_id": 8447034730,
      "tourism": "attraction",
      "addr_state": "OR",
      "addr_city": "Portland",
      "addr_postcode": "97231",
      "addr_street": "Northwest McNamee Road",
      "addr_housenumber": "16498",
      "angle": 129.32890612182538
    },
    {
      "id": 2147,
      "geometry": "POINT (-122.937891 46.493327)",
      "poi_name": "World's Largest Egg",
      "osm_id": 3280903215,
      "tourism": "attraction",
      "operator": "City of Winlock",
      "addr_state": "WA",
      "addr_city": "Winlock",
      "addr_postcode": "98596",
      "addr_street": "Northwest Kerron Street",
      "addr_housenumber": "520",
      "angle": 63.247603885326576
    },
    {
      "id": 3412,
      "geometry": "POINT (-124.103763 46.871341)",
      "poi_name": "Street of Flags Veterans Memorial",
      "osm_id": 5400614911,
      "tourism": "attraction",
      "angle": 342.7380364442409
    },
    {
      "id": 3420,
      "geometry": "POINT (-122.666583 45.621018)",
      "poi_name": "Vancouver Land Bridge",
      "osm_id": 5404873922,
      "tourism": "attraction",
      "angle": 125.69605814673858
    },
    {
      "id": 4161,
      "geometry": "POINT (-122.213016 46.099083)",
      "poi_name": "Trail Of Two Forests Interpretive Site",
      "osm_id": 5698282442,
      "tourism": "attraction",
      "angle": 94.5109450838604
    },
    {
      "id": 4203,
      "geometry": "POINT (-122.518592 47.186576)",
      "poi_name": "Bradley BlockHouse & Flett House",
      "osm_id": 5714418005,
      "tourism": "attraction",
      "angle": 41.19727321503717
    },
    {
      "id": 4248,
      "geometry": "POINT (-122.534157 47.221224)",
      "poi_name": "The Eagles Nest",
      "osm_id": 5732761698,
      "tourism": "attraction",
      "angle": 39.8702315485178
    },
    {
      "id": 4305,
      "geometry": "POINT (-122.5542 46.571092)",
      "poi_name": "The Huntting's Pumpkin Patch and Haunted Forest",
      "osm_id": 11214339511,
      "tourism": "attraction",
      "opening_hours": "Sep Fr[-1]-Oct 31 Mo-Su 10:00-23:00",
      "website": "https://thehunttings.business.site",
      "phone": "+1-360-388-7920",
      "addr_state": "WA",
      "addr_city": "Cinebar",
      "addr_street": "Cinebar Road",
      "addr_housenumber": "600",
      "angle": 66.06581744924728
    },
    {
      "id": 4633,
      "geometry": "POINT (-123.879859 45.693116)",
      "poi_name": "Twins Ranch Railriders - Wheeler South",
      "osm_id": 11365551260,
      "tourism": "attraction",
      "website": "https://www.tillamookrailriders.com/",
      "angle": 186.48742561833794
    },
    {
      "id": 4978,
      "geometry": "POINT (-122.829956 45.507792)",
      "poi_name": "Girl Effect",
      "osm_id": 9703595234,
      "tourism": "attraction",
      "angle": 135.18721445700015
    },
    {
      "id": 5155,
      "geometry": "POINT (-124.061787 46.362628)",
      "poi_name": "Old growth spruce",
      "osm_id": 9784209853,
      "description": "Donated by: The Gustafson Family Damon, Erin, Canon, Finley & Kollyns 2018",
      "tourism": "attraction",
      "angle": 312.2552016962343
    },
    {
      "id": 5329,
      "geometry": "POINT (-123.312285 47.338209)",
      "poi_name": "Camp Govey",
      "osm_id": 726946524,
      "historic": "ruins",
      "tourism": "attraction",
      "angle": 16.128711613352614
    },
    {
      "id": 5641,
      "geometry": "POINT (-123.829595 47.477977)",
      "poi_name": "World's Largest Spruce",
      "osm_id": 848925260,
      "tourism": "attraction",
      "website": "https://www.monumentaltrees.com/en/usa/washington/graysharborcounty/2549_lakequinaultresort/7019/",
      "angle": 359.0444516485661
    },
    {
      "id": 7119,
      "geometry": "POINT (-122.340251 45.431789)",
      "poi_name": "North American Bigfoot Center",
      "osm_id": 8868908017,
      "tourism": "attraction",
      "angle": 126.37144618431138
    },
    {
      "id": 7364,
      "geometry": "POINT (-122.595558 45.376742)",
      "poi_name": "The Pow Wow Tree",
      "osm_id": 2105330991,
      "tourism": "attraction",
      "angle": 133.84447633733842
    },
    {
      "id": 8054,
      "geometry": "POINT (-122.672586 45.524414)",
      "poi_name": "Portland Walking Tours",
      "osm_id": 6538245685,
      "tourism": "attraction",
      "addr_street": "Northwest 2nd Avenue",
      "addr_housenumber": "131",
      "angle": 130.13879649291184
    },
    {
      "id": 9080,
      "geometry": "POINT (-123.042112 45.295308)",
      "poi_name": "Lange Estates Winery",
      "osm_id": 3666692935,
      "tourism": "attraction",
      "angle": 149.31834263391806
    },
    {
      "id": 9292,
      "geometry": "POINT (-122.923883 45.600106)",
      "poi_name": "Molly's Castle",
      "osm_id": 3731517825,
      "tourism": "attraction",
      "angle": 134.0492947118196
    },
    {
      "id": 9293,
      "geometry": "POINT (-122.924216 45.600156)",
      "poi_name": "Pirate Ship",
      "osm_id": 3731517827,
      "tourism": "attraction",
      "angle": 134.05796622082093
    },
    {
      "id": 9294,
      "geometry": "POINT (-122.921913 45.598809)",
      "poi_name": "Roloff Farm",
      "osm_id": 3731518543,
      "tourism": "attraction",
      "wheelchair": "limited",
      "website": "http://therolofffamily.com/farm",
      "angle": 134.04597683167742
    },
    {
      "id": 9295,
      "geometry": "POINT (-122.924144 45.600226)",
      "poi_name": "Treehouse",
      "osm_id": 3731518545,
      "tourism": "attraction",
      "angle": 134.0522544216756
    },
    {
      "id": 9780,
      "geometry": "POINT (-122.967467 45.824758)",
      "poi_name": "Old Tractor",
      "osm_id": 8989083285,
      "tourism": "attraction",
      "angle": 122.45379565527972
    },
    {
      "id": 9892,
      "geometry": "POINT (-122.559065 45.530493)",
      "poi_name": "Online Order Pickup",
      "osm_id": 9046523417,
      "tourism": "attraction",
      "phone": "5038325967",
      "angle": 127.15213740502267
    },
    {
      "id": 11177,
      "geometry": "POINT (-122.832958 45.513849)",
      "poi_name": "Nike Swoosh",
      "osm_id": 9877811301,
      "tourism": "attraction",
      "angle": 135.02600233721571
    },
    {
      "id": 11178,
      "geometry": "POINT (-122.824646 45.508661)",
      "poi_name": "LA Swoosh",
      "osm_id": 9878171810,
      "tourism": "attraction",
      "angle": 134.9927082165243
    },
    {
      "id": 11179,
      "geometry": "POINT (-122.829145 45.511088)",
      "poi_name": "Seb Coe",
      "osm_id": 9878275999,
      "tourism": "attraction",
      "angle": 135.02651421310125
    },
    {
      "id": 11282,
      "geometry": "POINT (-122.516502 46.579733)",
      "poi_name": "Cinnabar Creek waterfalls",
      "osm_id": 9919796065,
      "tourism": "attraction",
      "angle": 66.19710940972627
    },
    {
      "id": 11960,
      "geometry": "POINT (-124.034433 44.958567)",
      "poi_name": "Nelscott Reef",
      "osm_id": 6110263424,
      "tourism": "attraction",
      "sport": "surfing",
      "angle": 187.71734824535804
    },
    {
      "id": 12557,
      "geometry": "POINT (-122.489833 47.15662)",
      "poi_name": "Grand Prix Raceway",
      "osm_id": 7317267186,
      "tourism": "attraction",
      "angle": 42.706098288871445
    },
    {
      "id": 12740,
      "geometry": "POINT (-122.767269 45.456134)",
      "poi_name": "Nordic Finn Ware",
      "osm_id": 7505192048,
      "description": "Nordic Finn Ware is a shop for all of your Nordic needs. Featuring Marimekko, Iitala, Moomin & Miffy products, Nordic flags and a huge selection of kitchen and candy items, Finn Ware of Astoria has come to Portland.",
      "tourism": "attraction",
      "opening_hours": "Mo-Su 09:00-17:00",
      "operator": "Nordic Northwest",
      "website": "https://www.nordicnorthwest.org",
      "shop": "gift",
      "phone": "+1-503-741-1103",
      "addr_state": "OR",
      "addr_city": "Portland",
      "addr_postcode": "97223",
      "addr_street": "Southwest Oleson Road",
      "addr_housenumber": "8800",
      "angle": 135.42430117118886
    },
    {
      "id": 12741,
      "geometry": "POINT (-122.76743 45.456129)",
      "poi_name": "Broder S\u00f6der",
      "osm_id": 7505192049,
      "amenity": "restaurant",
      "cuisine": "nordic",
      "description": "Inspired by the sights and sounds of Swedish cafes and informed by the New Nordic movement, Broder, and now Broder S\u00f6der, is proud to serve a brunch and lunch menu that's been consistently ranked in Portland's Top Ten since 2007.",
      "tourism": "attraction",
      "opening_hours": "Mo-Su 08:00-17:00",
      "operator": "Nordic Northwest",
      "website": "https://www.nordicnorthwest.org",
      "shop": "variety_store",
      "phone": "+1-971-373-8762",
      "addr_state": "OR",
      "addr_city": "Portland",
      "addr_postcode": "97223",
      "addr_street": "Southwest Oleson Road",
      "addr_housenumber": "8800",
      "angle": 135.42904437505132
    },
    {
      "id": 12993,
      "geometry": "POINT (-124.054746 46.349266)",
      "poi_name": "World's Largest Chopsticks",
      "osm_id": 4003535176,
      "tourism": "attraction",
      "angle": 310.62714177592517
    },
    {
      "id": 12994,
      "geometry": "POINT (-124.054282 46.349034)",
      "poi_name": "World's Biggest Frying Pan",
      "osm_id": 4003537099,
      "tourism": "attraction",
      "angle": 310.6348863749927
    },
    {
      "id": 13260,
      "geometry": "POINT (-123.965882 46.2064)",
      "poi_name": "155mm GPF Gun",
      "osm_id": 4081057497,
      "historic": "cannon",
      "tourism": "attraction",
      "angle": 274.6376990705124
    },
    {
      "id": 13524,
      "geometry": "POINT (-123.817401 46.181374)",
      "poi_name": "Time Capsule",
      "osm_id": 4110730645,
      "tourism": "attraction",
      "angle": 220.51836764548932
    },
    {
      "id": 13879,
      "geometry": "POINT (-122.546852 45.599835)",
      "poi_name": "Water Wheel",
      "osm_id": 4167986276,
      "tourism": "attraction",
      "angle": 123.90750756667161
    },
    {
      "id": 14572,
      "geometry": "POINT (-122.711272 45.508672)",
      "poi_name": "Elephant Lands",
      "osm_id": 4660928507,
      "tourism": "attraction",
      "angle": 131.79983088420528
    },
    {
      "id": 14573,
      "geometry": "POINT (-122.713793 45.508945)",
      "poi_name": "Primate Forest",
      "osm_id": 4660928508,
      "tourism": "attraction",
      "angle": 131.855737036933
    },
    {
      "id": 14574,
      "geometry": "POINT (-122.714794 45.508074)",
      "poi_name": "Africa",
      "osm_id": 4660928509,
      "tourism": "attraction",
      "angle": 131.91824763182882
    },
    {
      "id": 14575,
      "geometry": "POINT (-122.715208 45.508882)",
      "poi_name": "Discovery Zone",
      "osm_id": 4660928510,
      "tourism": "attraction",
      "angle": 131.89607467091508
    },
    {
      "id": 14576,
      "geometry": "POINT (-122.714298 45.509354)",
      "poi_name": "Pacific Shores",
      "osm_id": 4660928511,
      "tourism": "attraction",
      "angle": 131.85234325091363
    },
    {
      "id": 14577,
      "geometry": "POINT (-122.71548 45.510935)",
      "poi_name": "Great Northwest",
      "osm_id": 4660928512,
      "tourism": "attraction",
      "angle": 131.81865422439077
    },
    {
      "id": 14781,
      "geometry": "POINT (-122.978495 45.05287)",
      "poi_name": "Steam Sawmill",
      "osm_id": 4719064525,
      "tourism": "attraction",
      "angle": 153.02234940040745
    },
    {
      "id": 14972,
      "geometry": "POINT (-122.236983 46.984173)",
      "poi_name": "Kapowsin Event Center",
      "osm_id": 4773068858,
      "tourism": "attraction",
      "angle": 53.25462414889956
    },
    {
      "id": 15118,
      "geometry": "POINT (-122.754215 45.12158)",
      "poi_name": "Oregon Fishing Club",
      "osm_id": 4808328232,
      "tourism": "attraction",
      "angle": 145.38605417644294
    },
    {
      "id": 15119,
      "geometry": "POINT (-122.748554 45.118381)",
      "poi_name": "Wooden Shoe Tulip Farm",
      "osm_id": 4808328233,
      "tourism": "attraction",
      "angle": 145.31823787107163
    },
    {
      "id": 18325,
      "geometry": "POINT (-122.663071 45.626951)",
      "poi_name": "Vancouver Barracks",
      "osm_id": 369034793,
      "tourism": "attraction",
      "angle": 125.33009596927647
    },
    {
      "id": 18902,
      "geometry": "POINT (-123.938126 45.60242)",
      "poi_name": "Largest cedar tree in Oregon",
      "osm_id": 2443326713,
      "tourism": "attraction",
      "angle": 189.38734561642647
    },
    {
      "id": 20152,
      "geometry": "POINT (-123.810894 46.666338)",
      "poi_name": "World's Largest Oyster",
      "osm_id": 7903216517,
      "tourism": "attraction",
      "angle": 358.9237041354894
    },
    {
      "id": 85,
      "geometry": "POINT (-122.715274 45.510169)",
      "poi_name": "Cascade Crest",
      "osm_id": 430971631,
      "tourism": "attraction",
      "angle": 131.84478379986297
    },
    {
      "id": 21285,
      "geometry": "POINT (-122.661684 45.472527)",
      "poi_name": "Ferris Wheel",
      "osm_id": 1472265889,
      "tourism": "attraction",
      "wheelchair": "no",
      "angle": 131.95974706820903
    },
    {
      "id": 21956,
      "geometry": "POINT (-122.725079 45.528294)",
      "poi_name": "Witch's Castle",
      "osm_id": 942667370,
      "historic": "ruins",
      "tourism": "attraction",
      "angle": 131.3502473550406
    },
    {
      "id": 22249,
      "geometry": "POINT (-123.469386 46.958918)",
      "poi_name": "Satsop Nuclear Power Plant (Not in use)",
      "osm_id": 622196664,
      "tourism": "attraction",
      "wikidata": "Q1739457",
      "angle": 16.449157458585464
    },
    {
      "id": 22347,
      "geometry": "POINT (-124.063285 46.347032)",
      "poi_name": "Grey Whale Skeleton",
      "osm_id": 667698492,
      "tourism": "attraction",
      "angle": 309.29032378486113
    },
    {
      "id": 23045,
      "geometry": "POINT (-122.493292 45.439907)",
      "poi_name": "Pickathon Music Festival / Pendarvis Farm",
      "osm_id": 5014784621,
      "tourism": "attraction",
      "opening_hours": "24/7",
      "website": "https://pickathon.com",
      "addr_postcode": "97086",
      "angle": 129.2207473795267
    },
    {
      "id": 22456,
      "geometry": "POINT (-123.936391 45.562705)",
      "poi_name": "Three Graces",
      "osm_id": 7084745172,
      "tourism": "attraction",
      "angle": 188.70772202863114
    },
    {
      "id": 22468,
      "geometry": "POINT (-123.89154 45.523426)",
      "poi_name": "Twins Ranch Railriders - Bay City",
      "osm_id": 7092798112,
      "tourism": "attraction",
      "website": "https://www.tillamookrailriders.com/",
      "angle": 185.56972391452308
    },
    {
      "id": 23755,
      "geometry": "POINT (-122.483812 47.130915)",
      "poi_name": "Canadian Vickers SA-10A Catalina",
      "osm_id": 5297962775,
      "historic": "aircraft",
      "tourism": "attraction",
      "angle": 43.61922035215109
    },
    {
      "id": 23342,
      "geometry": "POINT (-122.718288 45.510098)",
      "poi_name": "\"Peggy\" Locomotive",
      "osm_id": 5132735083,
      "tourism": "attraction",
      "angle": 131.92827957022791
    },
    {
      "id": 24264,
      "geometry": "POINT (-122.678692 45.515071)",
      "poi_name": "Liberty Bell",
      "osm_id": 10989036267,
      "tourism": "attraction",
      "wikidata": "Q19720513",
      "angle": 130.6837258111232
    },
    {
      "id": 24981,
      "geometry": "POINT (-122.950324 46.146063)",
      "poi_name": "Pluto",
      "osm_id": 4365457602,
      "tourism": "attraction",
      "angle": 94.64401692174346
    },
    {
      "id": 24358,
      "geometry": "POINT (-122.272803 46.886432)",
      "poi_name": "Ohop Ridge Christmas Tree Farm",
      "osm_id": 11017330105,
      "tourism": "attraction",
      "angle": 56.22377167786507
    },
    {
      "id": 24919,
      "geometry": "POINT (-122.401661 45.59837)",
      "poi_name": "Camas Potholes",
      "osm_id": 4356732948,
      "tourism": "attraction",
      "wikidata": "Q5024996",
      "angle": 121.04930621657067
    },
    {
      "id": 137,
      "geometry": "POINT (-123.972732 45.484369)",
      "poi_name": "Octopus Tree",
      "osm_id": 452867359,
      "tourism": "attraction",
      "angle": 189.78146035212677
    },
    {
      "id": 25122,
      "geometry": "POINT (-122.942252 46.127226)",
      "poi_name": "Venus",
      "osm_id": 4407535210,
      "tourism": "attraction",
      "angle": 96.39002408136153
    },
    {
      "id": 25177,
      "geometry": "POINT (-122.952848 46.141088)",
      "poi_name": "Neptune",
      "osm_id": 4416982499,
      "tourism": "attraction",
      "angle": 95.14086009836917
    },
    {
      "id": 25123,
      "geometry": "POINT (-122.942947 46.127314)",
      "poi_name": "Mars",
      "osm_id": 4407535212,
      "tourism": "attraction",
      "angle": 96.3873202295266
    },
    {
      "id": 25208,
      "geometry": "POINT (-123.803792 46.195824)",
      "poi_name": "Sea Lion Dock",
      "osm_id": 4423185067,
      "tourism": "attraction",
      "angle": 252.49586551510225
    },
    {
      "id": 25124,
      "geometry": "POINT (-122.945734 46.128487)",
      "poi_name": "Jupiter",
      "osm_id": 4407535214,
      "tourism": "attraction",
      "angle": 96.29814974962864
    },
    {
      "id": 25125,
      "geometry": "POINT (-122.952777 46.134501)",
      "poi_name": "Uranus",
      "osm_id": 4407535215,
      "tourism": "attraction",
      "angle": 95.77616235161798
    },
    {
      "id": 25126,
      "geometry": "POINT (-122.941636 46.127334)",
      "poi_name": "Sun",
      "osm_id": 4407535224,
      "tourism": "attraction",
      "angle": 96.37475971316972
    },
    {
      "id": 25127,
      "geometry": "POINT (-122.942492 46.127233)",
      "poi_name": "Earth-Moon",
      "osm_id": 4407535225,
      "tourism": "attraction",
      "angle": 96.39131957402722
    },
    {
      "id": 25128,
      "geometry": "POINT (-122.941958 46.127247)",
      "poi_name": "Mercury",
      "osm_id": 4407536926,
      "tourism": "attraction",
      "angle": 96.38562347923376
    },
    {
      "id": 27212,
      "geometry": "POINT (-123.887994 46.980802)",
      "poi_name": "Events on Emerson",
      "osm_id": 7745839598,
      "tourism": "attraction",
      "angle": 355.51071471630195
    },
    {
      "id": 25331,
      "geometry": "POINT (-122.948786 46.129894)",
      "poi_name": "Saturn",
      "osm_id": 4449972087,
      "tourism": "attraction",
      "angle": 96.18803159413567
    },
    {
      "id": 26508,
      "geometry": "POINT (-123.784633 47.500518)",
      "poi_name": "Merriman Falls",
      "osm_id": 5910879057,
      "tourism": "attraction",
      "angle": 0.4008813803419891
    },
    {
      "id": 147097,
      "geometry": "POINT (-122.76743 45.456129)",
      "poi_name": "Broder S\u00f6der",
      "osm_id": 7505192049,
      "amenity": "restaurant",
      "cuisine": "nordic",
      "description": "Inspired by the sights and sounds of Swedish cafes and informed by the New Nordic movement, Broder, and now Broder S\u00f6der, is proud to serve a brunch and lunch menu that's been consistently ranked in Portland's Top Ten since 2007.",
      "tourism": "attraction",
      "opening_hours": "Mo-Su 08:00-17:00",
      "operator": "Nordic Northwest",
      "website": "https://www.nordicnorthwest.org",
      "shop": "variety_store",
      "phone": "+1-971-373-8762",
      "addr_state": "OR",
      "addr_city": "Portland",
      "addr_postcode": "97223",
      "addr_street": "Southwest Oleson Road",
      "addr_housenumber": "8800",
      "angle": 135.42904437505132
    }
  ],
  "answer_type": "angle",
  "question_entities": {
    "[1]": {
      "main_category": "tourism",
      "sub_category": "attraction"
    },
    "[2]": {
      "distance": 150000,
      "text": "150 kilometers"
    },
    "[3]": {
      "main_category": "tourism",
      "sub_category": "hotel",
      "display_name": "Fisherman Suites, Astoria, OR",
      "geo_wkt": "POINT (-123.798088 46.197073)",
      "poi": {
        "id": 9298,
        "geometry": "POINT (-123.798088 46.197073)",
        "poi_name": "Fisherman Suites",
        "osm_id": 3731995057,
        "tourism": "hotel",
        "addr_state": "OR",
        "addr_city": "Astoria",
        "addr_postcode": "97103",
        "addr_street": "39th Street"
      }
    }
  },
  "id": 1000,
  "type": "range+angle"
}