{
  "question": "Is there a museum within 160 kilometers from Strayer University, Charlotte, NC?",
  "sql": "SELECT * FROM pois\nWHERE ST_DWithin(pois.geometry, ST_GeomFromText('POINT (-80.930371 35.139039)',4326)::geography, 160000)\nAND tourism = 'museum';\n",
  "answers": [
    {
      "id": 262,
      "geometry": "POINT (-80.708507 36.502824)",
      "poi_name": "Thunder Road Museum",
      "osm_id": 8267030439,
      "tourism": "museum",
      "website": "https://thunderdomecarmuseum.org/",
      "phone": "+13367865127",
      "addr_state": "NC",
      "addr_city": "Mt Airy",
      "addr_postcode": "27030",
      "addr_street": "Fast Track Lane",
      "addr_housenumber": "124"
    },
    {
      "id": 565,
      "geometry": "POINT (-80.55623 35.814768)",
      "poi_name": "Textile Heritage Center",
      "osm_id": 8446344519,
      "tourism": "museum",
      "website": "https://www.visitnc.com/listing/dvgW/textile-heritage-center-museum",
      "addr_state": "NC",
      "addr_city": "Cooleemee",
      "addr_postcode": "27014",
      "addr_street": "Church Street",
      "addr_housenumber": "131"
    },
    {
      "id": 594,
      "geometry": "POINT (-81.548988 36.183964)",
      "poi_name": "Turtle Island Preserve",
      "osm_id": 2619147008,
      "tourism": "museum",
      "website": "http://www.turtleislandpreserve.com/",
      "phone": "(828) 265-2267",
      "addr_state": "NC",
      "addr_street": "Lonnie Carlton Rd",
      "addr_housenumber": "1443"
    },
    {
      "id": 1552,
      "geometry": "POINT (-81.389571 35.742032)",
      "poi_name": "Hickory Aviation Museum",
      "osm_id": 3053002030,
      "tourism": "museum",
      "fee": "no",
      "opening_hours": "Tu-Fr 10:00-15:00; Sa 10:00-16:00; Su 13:00-16:00",
      "website": "https://www.hickoryaviationmuseum.org/"
    },
    {
      "id": 2982,
      "geometry": "POINT (-80.253762 35.824065)",
      "poi_name": "Davidson County Historical Museum",
      "osm_id": 10117821989,
      "tourism": "museum",
      "opening_hours": "Tu-Fr 10:00-16:00, Sa 10:00-15:00",
      "website": "https://www.davidsoncountyhistoricalmuseum.com/",
      "phone": "+1-336-242-2035",
      "museum": "history",
      "addr_state": "NC",
      "addr_city": "Lexington",
      "addr_postcode": "27292",
      "addr_street": "South Main Street",
      "addr_housenumber": "2"
    },
    {
      "id": 3928,
      "geometry": "POINT (-81.933697 34.95007)",
      "poi_name": "Children's Museum of the Upstate - Spartanburg",
      "osm_id": 5635166671,
      "tourism": "museum",
      "website": "https://tcmupstate.org/spartanburg/",
      "addr_state": "SC",
      "addr_city": "Spartanburg",
      "addr_postcode": "29306",
      "addr_street": "Magnolia Street",
      "addr_housenumber": "130"
    },
    {
      "id": 3931,
      "geometry": "POINT (-81.930148 34.952729)",
      "poi_name": "Spartanburg Art Museum",
      "osm_id": 5637891658,
      "tourism": "museum",
      "website": "https://www.spartanburgartmuseum.org/",
      "addr_state": "SC",
      "addr_city": "Spartanburg",
      "addr_postcode": "29306",
      "addr_street": "East Saint John Street",
      "addr_housenumber": "200"
    },
    {
      "id": 3932,
      "geometry": "POINT (-81.929295 34.953025)",
      "poi_name": "Spartanburg Science Center",
      "osm_id": 5637891659,
      "tourism": "museum",
      "website": "https://www.spartanburgsciencecenter.org/",
      "addr_state": "SC",
      "addr_city": "Spartanburg",
      "addr_postcode": "29306",
      "addr_street": "East Saint John Street",
      "addr_housenumber": "200"
    },
    {
      "id": 4586,
      "geometry": "POINT (-81.022555 34.000288)",
      "poi_name": "Anne Frank Center",
      "osm_id": 11339058399,
      "tourism": "museum"
    },
    {
      "id": 5894,
      "geometry": "POINT (-79.805818 36.066151)",
      "poi_name": "Weatherspoon Art Museum",
      "osm_id": 1663832240,
      "tourism": "museum",
      "website": "https://weatherspoonart.org/",
      "museum": "art"
    },
    {
      "id": 7179,
      "geometry": "POINT (-81.151668 36.148798)",
      "poi_name": "Wilkes Heritage Museum",
      "osm_id": 1994650433,
      "tourism": "museum",
      "fee": "yes",
      "opening_hours": "Mo-Sa 10:00-16:00; PH off",
      "phone": "+13366673171",
      "addr_state": "NC",
      "addr_city": "Wilkesboro",
      "addr_postcode": "28697",
      "addr_street": "East Main Street",
      "addr_housenumber": "100"
    },
    {
      "id": 8031,
      "geometry": "POINT (-81.679337 36.130312)",
      "poi_name": "Blowing Rock Art & History Museum",
      "osm_id": 6525656921,
      "tourism": "museum",
      "fee": "no",
      "opening_hours": "Tu-Sa 11:00-17:00; May-Oct: Su 11:00-16:00",
      "website": "https://www.blowingrockmuseum.org/"
    },
    {
      "id": 9992,
      "geometry": "POINT (-80.84204 35.226901)",
      "poi_name": "Bank of America Heritage Center",
      "osm_id": 9099545840,
      "tourism": "museum",
      "museum": "history"
    },
    {
      "id": 11059,
      "geometry": "POINT (-82.434342 35.305496)",
      "poi_name": "Western North Carolina Air Museum",
      "osm_id": 9840117914,
      "tourism": "museum",
      "website": "http://www.westernnorthcarolinaairmuseum.com/"
    },
    {
      "id": 11348,
      "geometry": "POINT (-79.391433 35.17477)",
      "poi_name": "Creation Museum",
      "osm_id": 9940001609,
      "tourism": "museum",
      "building": "yes",
      "fee": "no",
      "shop": "religion",
      "phone": "+19106923471",
      "museum": "history",
      "addr_state": "NC",
      "addr_city": "Southern Pines",
      "addr_postcode": "28387",
      "addr_street": "Northwest Broad Street",
      "addr_housenumber": "156"
    },
    {
      "id": 11592,
      "geometry": "POINT (-81.653425 35.072938)",
      "poi_name": "Cherokee County Veterans Museum",
      "osm_id": 10014274483,
      "tourism": "museum",
      "website": "https://discoversouthcarolina.com/products/1555",
      "museum": "military",
      "addr_state": "SC",
      "addr_city": "Gaffney",
      "addr_postcode": "29340",
      "addr_street": "South Logan Street",
      "addr_housenumber": "200"
    },
    {
      "id": 11945,
      "geometry": "POINT (-81.220699 35.673762)",
      "poi_name": "Historic Newton Depot",
      "osm_id": 6104301744,
      "tourism": "museum"
    },
    {
      "id": 11946,
      "geometry": "POINT (-81.219864 35.674588)",
      "poi_name": "Newton Depot Equipment Pavilion",
      "osm_id": 6104309602,
      "tourism": "museum",
      "website": "http://www.newtondepot.com/"
    },
    {
      "id": 12367,
      "geometry": "POINT (-81.252467 35.473316)",
      "poi_name": "Lincoln County Museum of History",
      "osm_id": 6318770145,
      "tourism": "museum",
      "operator": "Lincoln County Historical Association",
      "website": "https://www.lincolncountyhistory.com/museum/",
      "phone": "+1 704 748 9090",
      "addr_state": "NC",
      "addr_city": "Lincolnton",
      "addr_postcode": "28092",
      "addr_street": "East Main Street",
      "addr_housenumber": "403"
    },
    {
      "id": 12603,
      "geometry": "POINT (-79.762958 35.072506)",
      "poi_name": "Rankin Museum of American Heritage",
      "osm_id": 7367472445,
      "tourism": "museum",
      "website": "https://rankinmuseum.org/",
      "phone": "(910) 652-6378",
      "museum": "history",
      "addr_state": "NC",
      "addr_city": "Ellerbe",
      "addr_postcode": "28338",
      "addr_street": "Church Street",
      "addr_housenumber": "131"
    },
    {
      "id": 13713,
      "geometry": "POINT (-81.221948 35.663044)",
      "poi_name": "Catawba County Historical Museum",
      "osm_id": 4134015698,
      "tourism": "museum",
      "opening_hours": "Tu-Fr 09:00-16:00",
      "website": "https://www.catawbahistory.org/our-sites/history-museum-of-catawba-county",
      "wikidata": "Q18148844",
      "addr_state": "NC",
      "addr_city": "Newton",
      "addr_postcode": "28658",
      "addr_street": "North College Avenue",
      "addr_housenumber": "30"
    },
    {
      "id": 14156,
      "geometry": "POINT (-82.18193 35.629006)",
      "poi_name": "Old Fort Railroad Museum",
      "osm_id": 4238103380,
      "tourism": "museum",
      "phone": "+18286684244",
      "addr_state": "NC",
      "addr_city": "Old Fort",
      "addr_postcode": "28762",
      "addr_street": "West Main Street",
      "addr_housenumber": "25"
    },
    {
      "id": 14470,
      "geometry": "POINT (-80.198376 35.351446)",
      "poi_name": "Stanly County Museum",
      "osm_id": 4643260593,
      "tourism": "museum",
      "opening_hours": "Mo-Fr 09:00-17:00",
      "website": "https://stanlycountymuseum.com/",
      "phone": "+1 (704) 986-3777",
      "addr_state": "NC",
      "addr_city": "Albemarle",
      "addr_postcode": "28001",
      "addr_street": "North 2nd Street",
      "addr_housenumber": "157"
    },
    {
      "id": 15312,
      "geometry": "POINT (-82.014212 34.498763)",
      "poi_name": "Laurens County Museum",
      "osm_id": 4848509927,
      "tourism": "museum",
      "website": "https://laurenscountymuseum.us/"
    },
    {
      "id": 15569,
      "geometry": "POINT (-80.297269 36.155824)",
      "poi_name": "Bethabara Visitor Center",
      "osm_id": 4942427599,
      "tourism": "museum",
      "fee": "no",
      "website": "https://historicbethabara.org/",
      "phone": "+1 336 924 8191",
      "addr_state": "NC",
      "addr_city": "Winston-Salem",
      "addr_postcode": "27106",
      "addr_street": "Bethabara Road",
      "addr_housenumber": "2147"
    },
    {
      "id": 16189,
      "geometry": "POINT (-81.648558 35.067802)",
      "poi_name": "Cherokee County Museum",
      "osm_id": 357121440,
      "description": "Cherokee County History and Arts Museum",
      "tourism": "museum",
      "operator": "Cherokee County",
      "addr_state": "SC",
      "addr_city": "Gaffney",
      "addr_postcode": "29340",
      "addr_street": "College Drive",
      "addr_housenumber": "301"
    },
    {
      "id": 16234,
      "geometry": "POINT (-81.334275 35.736061)",
      "poi_name": "Catawba Science Center",
      "osm_id": 357770664,
      "tourism": "museum",
      "website": "https://www.catawbascience.org/",
      "phone": "828-322-8169",
      "museum": "science"
    },
    {
      "id": 17491,
      "geometry": "POINT (-80.344827 33.923328)",
      "poi_name": "Sumter County Museum",
      "osm_id": 367807784,
      "tourism": "museum",
      "website": "https://www.sumtercountymuseum.org/",
      "addr_state": "SC"
    },
    {
      "id": 17493,
      "geometry": "POINT (-79.789507 34.1921)",
      "poi_name": "Harllee Natural History Museum",
      "osm_id": 367807786,
      "tourism": "museum",
      "addr_state": "SC"
    },
    {
      "id": 17509,
      "geometry": "POINT (-81.029432 34.010501)",
      "poi_name": "Hampton-Preston House Museum",
      "osm_id": 367807864,
      "tourism": "museum",
      "website": "https://www.historiccolumbia.org/tours/house-tours/hampton-preston-mansion-and-gardens",
      "wikidata": "Q5646146",
      "addr_state": "SC"
    },
    {
      "id": 17680,
      "geometry": "POINT (-82.051429 35.854127)",
      "poi_name": "Museum of North Carolina Minerals",
      "osm_id": 367912291,
      "tourism": "museum",
      "website": "https://www.blueridgeheritage.com/destinations/museum-of-north-carolina-minerals/",
      "phone": "1 828 765 2761",
      "addr_state": "NC",
      "addr_city": "Spruce Pine",
      "addr_postcode": "28777",
      "addr_street": "Blue Ridge Parkway",
      "addr_housenumber": "79"
    },
    {
      "id": 17681,
      "geometry": "POINT (-80.893407 35.77847)",
      "poi_name": "Vance House Museum",
      "osm_id": 367912294,
      "tourism": "museum",
      "addr_state": "NC"
    },
    {
      "id": 17682,
      "geometry": "POINT (-80.508114 36.272917)",
      "poi_name": "Surry County Historical Farm Museum",
      "osm_id": 367912299,
      "tourism": "museum",
      "addr_state": "NC"
    },
    {
      "id": 18782,
      "geometry": "POINT (-81.669688 36.208387)",
      "poi_name": "Hickory Ridge Living History Museum",
      "osm_id": 2404339504,
      "tourism": "museum",
      "operator": "Southern Appalachian Historical Association",
      "website": "http://hickoryridgemuseum.com/",
      "wikidata": "Q5751280",
      "addr_city": "Boone",
      "addr_postcode": "28607",
      "addr_street": "Horn in the West Drive",
      "addr_housenumber": "591"
    },
    {
      "id": 19285,
      "geometry": "POINT (-79.369077 35.147375)",
      "poi_name": "Weymouth Woods-Sandhills Nature Preserve-Museum",
      "osm_id": 2607411356,
      "tourism": "museum",
      "fee": "no",
      "opening_hours": "8:00-17:00; Dec 25 off"
    },
    {
      "id": 20133,
      "geometry": "POINT (-82.016149 34.499595)",
      "poi_name": "Revolutionary War Museum & Library",
      "osm_id": 7895348897,
      "tourism": "museum",
      "website": "https://revwarmuseum.weebly.com/"
    },
    {
      "id": 21031,
      "geometry": "POINT (-81.216028 34.709336)",
      "poi_name": "Chester County Transportation Museum",
      "osm_id": 1350327166,
      "tourism": "museum",
      "website": "http://chesterschistory.org/transportation-museum.html"
    },
    {
      "id": 21195,
      "geometry": "POINT (-80.884799 34.901649)",
      "poi_name": "Catawba Cultural Center",
      "osm_id": 1437932380,
      "tourism": "museum",
      "website": "https://www.catawbaindiancrafts.com/"
    },
    {
      "id": 21541,
      "geometry": "POINT (-81.026852 34.925755)",
      "poi_name": "Main Street Children's Museum",
      "osm_id": 10311926451,
      "tourism": "museum",
      "website": "https://www.chmuseums.org/childrens/"
    },
    {
      "id": 21545,
      "geometry": "POINT (-80.579942 35.570133)",
      "poi_name": "Sound Money Museum",
      "osm_id": 10312947288,
      "description": "Museum Education",
      "tourism": "museum",
      "opening_hours": "\"nach Vereinbarung\"",
      "website": "https://bitcoin101.io/events/",
      "phone": "+1 989 834 4501",
      "addr_state": "NC",
      "addr_city": "China Grove",
      "addr_postcode": "28023",
      "addr_street": "South Main Street",
      "addr_housenumber": "101"
    },
    {
      "id": 21546,
      "geometry": "POINT (-80.676414 36.136849)",
      "poi_name": "Tractor Brown's Museum",
      "osm_id": 10312996581,
      "tourism": "museum",
      "addr_state": "NC",
      "addr_city": "Yadkinville",
      "addr_postcode": "27055",
      "addr_street": "North Lee Avenue",
      "addr_housenumber": "112"
    },
    {
      "id": 21562,
      "geometry": "POINT (-82.065816 35.890531)",
      "poi_name": "NC Mineral and Gem Festival",
      "osm_id": 10539730875,
      "tourism": "museum",
      "phone": "+18287659033",
      "addr_state": "NC",
      "addr_city": "Spruce Pine",
      "addr_postcode": "28777",
      "addr_street": "NC-226",
      "addr_housenumber": "12085"
    },
    {
      "id": 21918,
      "geometry": "POINT (-82.031738 34.580668)",
      "poi_name": "Cherokee Museum",
      "osm_id": 925854054,
      "tourism": "museum"
    },
    {
      "id": 22356,
      "geometry": "POINT (-80.074617 34.375981)",
      "poi_name": "Hartsville Museum",
      "osm_id": 672849134,
      "tourism": "museum",
      "fee": "no",
      "opening_hours": "Mo-Fr 10:00-14:00; Sa 10:00-14:00",
      "website": "https://hartsvillemuseum.org/"
    },
    {
      "id": 22385,
      "geometry": "POINT (-82.460022 35.316958)",
      "poi_name": "Mineral & Lapidary Museum",
      "osm_id": 686672317,
      "tourism": "museum",
      "opening_hours": "Mar-Dec: Mo-Fr 13:00-17:00; Sa 10:00-17:00; Jan, Feb Tu-Fr 13:00-17:00; Sa 10:00-17:00",
      "website": "http://www.mineralmuseum.org/",
      "phone": "828-698-1977",
      "wikidata": "Q6864343"
    },
    {
      "id": 22484,
      "geometry": "POINT (-82.199321 35.250205)",
      "poi_name": "Polk County History Museum",
      "osm_id": 7102096589,
      "tourism": "museum",
      "website": "http://www.polknchistory.org/"
    },
    {
      "id": 22680,
      "geometry": "POINT (-82.010426 35.681342)",
      "poi_name": "Marion Train Depot",
      "osm_id": 7215071348,
      "tourism": "museum",
      "website": "https://www.marionnc.org/Facilities/Facility/Details/Historic-Marion-Train-Depot-1",
      "addr_state": "NC",
      "addr_city": "Marion",
      "addr_postcode": "28752",
      "addr_street": "Depot Street",
      "addr_housenumber": "45"
    },
    {
      "id": 22692,
      "geometry": "POINT (-82.285972 34.91944)",
      "poi_name": "Model Trains Station",
      "osm_id": 7217278467,
      "tourism": "museum",
      "website": "https://www.modeltrainsstation.com/",
      "addr_state": "SC",
      "addr_city": "Taylors",
      "addr_postcode": "29687",
      "addr_street": "Mill Street",
      "addr_housenumber": "250"
    },
    {
      "id": 22710,
      "geometry": "POINT (-82.057079 35.690893)",
      "poi_name": "Historic Carson House",
      "osm_id": 7222985110,
      "tourism": "museum",
      "opening_hours": "We-Sa 10:00-16:00; Su 14:00-17:00",
      "phone": "(828) 724-4948",
      "wikidata": "Q5046941",
      "addr_state": "NC",
      "addr_city": "Marion",
      "addr_postcode": "28752",
      "addr_street": "US-70",
      "addr_housenumber": "1805"
    },
    {
      "id": 22728,
      "geometry": "POINT (-81.733441 35.823767)",
      "poi_name": "Joara. Fort San Juan",
      "osm_id": 7230629906,
      "tourism": "museum",
      "addr_state": "NC",
      "addr_city": "Morganton",
      "addr_postcode": "28655",
      "addr_street": "Henderson Mill Road",
      "addr_housenumber": "1981"
    },
    {
      "id": 23182,
      "geometry": "POINT (-80.246751 34.220586)",
      "poi_name": "South Carolina Cotton Museum",
      "osm_id": 5060245851,
      "tourism": "museum",
      "opening_hours": "Mo-Sa 10:00-16:00",
      "website": "http://www.sccotton.org",
      "addr_housenumber": "121"
    },
    {
      "id": 23183,
      "geometry": "POINT (-80.24682 34.220718)",
      "poi_name": "Lee County Veterans Museum",
      "osm_id": 5060270595,
      "tourism": "museum",
      "website": "http://www.sccotton.org/20412.html"
    },
    {
      "id": 23983,
      "geometry": "POINT (-80.847905 35.223113)",
      "poi_name": "Harvey B. Gantt Center for African-American Arts + Culture",
      "osm_id": 9236226040,
      "tourism": "museum",
      "website": "https://www.ganttcenter.org/",
      "phone": "+1 704 547 3700",
      "museum": "african-american_arts_+_culture",
      "addr_state": "NC",
      "addr_city": "Charlotte",
      "addr_postcode": "28202",
      "addr_street": "South Tryon Street",
      "addr_housenumber": "551"
    },
    {
      "id": 26087,
      "geometry": "POINT (-79.370946 35.780428)",
      "poi_name": "Silk Hope Ruritan Club",
      "osm_id": 5782634492,
      "tourism": "museum",
      "website": "https://silkhopenc.org/",
      "phone": "+19196630331",
      "addr_state": "NC",
      "addr_city": "Siler City",
      "addr_postcode": "27344",
      "addr_street": "Silk Hope Road",
      "addr_housenumber": "4221"
    },
    {
      "id": 26227,
      "geometry": "POINT (-80.608607 36.501755)",
      "poi_name": "Mount Airy Museum of Regional History",
      "osm_id": 5820495234,
      "tourism": "museum",
      "opening_hours": "Tu-Sa 10:00-17:00",
      "website": "https://www.northcarolinamuseum.org/",
      "addr_state": "NC",
      "addr_city": "Mount Airy",
      "addr_postcode": "27030",
      "addr_street": "North Main Street",
      "addr_housenumber": "301"
    },
    {
      "id": 27217,
      "geometry": "POINT (-82.493843 34.522121)",
      "poi_name": "S.C. Tennis Hall of Fame",
      "osm_id": 7754864354,
      "tourism": "museum",
      "website": "https://sctpf.org/hall-of-fame/"
    }
  ],
  "answer_type": "name",
  "question_entities": {
    "[1]": {
      "main_category": "tourism",
      "sub_category": "museum"
    },
    "[2]": {
      "distance": 160000,
      "text": "160 kilometers"
    },
    "[3]": {
      "main_category": "amenity",
      "sub_category": "university",
      "display_name": "Strayer University, Charlotte, NC",
      "geo_wkt": "POINT (-80.930371 35.139039)",
      "poi": {
        "id": 71121,
        "geometry": "POINT (-80.930371 35.139039)",
        "poi_name": "Strayer University",
        "osm_id": 11382339319,
        "amenity": "university",
        "addr_state": "NC",
        "addr_city": "Charlotte",
        "addr_postcode": "28273",
        "addr_street": "North Kings Parade Boulevard",
        "addr_housenumber": "9101"
      }
    }
  },
  "id": 867,
  "type": "range+name"
}