{
  "question": "Where can I find a caf\u00e9 positioned towards the northeast of Residence Inn, Los Angeles, CA, within a radius of 30 kilometers?",
  "sql": "\nWITH origin AS  (SELECT ST_GeomFromText('POINT (-118.265659 34.045984)',4326)::geography AS geometry)\nSELECT * FROM pois, origin\nWHERE ST_DWithin(pois.geometry, ST_GeomFromText('POINT (-118.265659 34.045984)',4326)::geography, 30000)\nAND amenity = 'cafe'\nAND degrees(ST_Azimuth(origin.geometry, pois.geometry)) BETWEEN 22.5 AND 67.5;\n",
  "answers": [
    {
      "id": 46589,
      "geometry": "POINT (-118.265659 34.045984)",
      "poi_name": "Amara Kitchen",
      "osm_id": 3277035045,
      "amenity": "cafe",
      "addr_state": "CA",
      "addr_city": "Los Angeles",
      "addr_postcode": "90042",
      "addr_street": "North Avenue 64",
      "addr_housenumber": "519"
    },
    {
      "id": 28198,
      "geometry": "POINT (-118.265659 34.045984)",
      "poi_name": "Marie's Coffee & Deli",
      "osm_id": 471255297,
      "amenity": "cafe",
      "cuisine": "coffee_shop;sandwich",
      "opening_hours": "Mo-Fr 07:00-15:00",
      "website": "https://mariescoffeedeli.com/home",
      "phone": "+12136225283",
      "outdoor_seating": "no",
      "addr_state": "CA",
      "addr_city": "Los Angeles",
      "addr_postcode": "90017",
      "addr_street": "West 7th Street",
      "addr_housenumber": "731"
    },
    {
      "id": 38678,
      "geometry": "POINT (-118.265659 34.045984)",
      "poi_name": "AU79 Tea House",
      "osm_id": 2875645777,
      "amenity": "cafe",
      "cuisine": "asian",
      "opening_hours": "Su-Th 10:00-00:30; Fr-Sa 10:00-01:00",
      "website": "https://au79teahouse.com/",
      "phone": "(626) 574-7665",
      "addr_city": "Arcadia",
      "addr_postcode": "91007",
      "addr_street": "West Naomi Avenue",
      "addr_housenumber": "815"
    },
    {
      "id": 38921,
      "geometry": "POINT (-118.265659 34.045984)",
      "poi_name": "FLAME BROILER",
      "osm_id": 2890917490,
      "amenity": "cafe",
      "cuisine": "regional",
      "addr_city": "Alhambra",
      "addr_street": "Main Street"
    },
    {
      "id": 44887,
      "geometry": "POINT (-118.265659 34.045984)",
      "poi_name": "Urth Caff\u00e9 - Pasadena",
      "osm_id": 3181482548,
      "amenity": "cafe",
      "cuisine": "coffee_shop",
      "website": "https://www.urthcaffe.com/",
      "shop": "coffee",
      "phone": "626) 844-4644",
      "outdoor_seating": "yes",
      "addr_state": "CA",
      "addr_city": "Pasadena",
      "addr_street": "East Colorado Boulevard",
      "addr_housenumber": "594"
    },
    {
      "id": 38660,
      "geometry": "POINT (-118.265659 34.045984)",
      "poi_name": "Half and Half Tea House (Express)",
      "osm_id": 2874995377,
      "amenity": "cafe",
      "cuisine": "taiwanese",
      "opening_hours": "11:30-23:00",
      "website": "http://www.halfandhalfteaexpress.com/",
      "addr_city": "Pasadena",
      "addr_postcode": "91107",
      "addr_street": "Huntington Drive",
      "addr_housenumber": "3007"
    },
    {
      "id": 41019,
      "geometry": "POINT (-118.265659 34.045984)",
      "poi_name": "Fosselman's",
      "osm_id": 2990889341,
      "amenity": "cafe",
      "cuisine": "ice_cream",
      "addr_city": "Alhambra",
      "addr_postcode": "91801",
      "addr_street": "Main Street",
      "addr_housenumber": "1824"
    },
    {
      "id": 44819,
      "geometry": "POINT (-118.265659 34.045984)",
      "poi_name": "ConfeXion Cupcakes",
      "osm_id": 3178369745,
      "amenity": "cafe",
      "opening_hours": "Tu-Sa 10:00-19:00;Su 10:00-18:00",
      "website": "http://www.confexioncupcakes.com",
      "shop": "bakery",
      "phone": "626.486.9977",
      "addr_state": "CA",
      "addr_city": "Pasadena",
      "addr_street": "West Dayton Street",
      "addr_housenumber": "11"
    },
    {
      "id": 44948,
      "geometry": "POINT (-118.265659 34.045984)",
      "poi_name": "Mandarin Coffee Stand",
      "osm_id": 3184214966,
      "amenity": "cafe",
      "opening_hours": "Mo-Su 08:00-16:00",
      "website": "https://mandarin.ju.mp/",
      "internet_access": "wlan",
      "phone": "(626) 616-1964",
      "outdoor_seating": "yes",
      "addr_state": "CA",
      "addr_city": "Pasadena",
      "addr_postcode": "91101",
      "addr_street": "South Lake Avenue",
      "addr_housenumber": "380"
    },
    {
      "id": 48159,
      "geometry": "POINT (-118.265659 34.045984)",
      "poi_name": "Starbucks",
      "osm_id": 3368990234,
      "amenity": "cafe",
      "cuisine": "coffee_shop",
      "takeaway": "yes",
      "official_name": "Starbucks Coffee",
      "addr_state": "CA",
      "addr_city": "Los Angeles",
      "addr_postcode": "90041",
      "addr_street": "Figueroa Street",
      "addr_housenumber": "7311"
    },
    {
      "id": 54750,
      "geometry": "POINT (-118.265659 34.045984)",
      "poi_name": "Kindness and Mischeif",
      "osm_id": 10153756709,
      "amenity": "cafe",
      "addr_state": "CA",
      "addr_city": "Los Angeles",
      "addr_postcode": "90042",
      "addr_street": "N Figueroa Street",
      "addr_housenumber": "5537"
    },
    {
      "id": 93426,
      "geometry": "POINT (-118.265659 34.045984)",
      "poi_name": "Goldstein's Bagel Bakery",
      "osm_id": 2164851854,
      "amenity": "cafe",
      "addr_city": "Arcadia",
      "addr_postcode": "91006",
      "addr_street": "Santa Anita Avenue",
      "addr_housenumber": "412"
    },
    {
      "id": 125655,
      "geometry": "POINT (-118.265659 34.045984)",
      "poi_name": "Zweet Cafe",
      "osm_id": 6967914004,
      "amenity": "cafe",
      "cuisine": "coffee_shop;cafe;pastry;organic",
      "website": "https://www.zweetcafe.com/food.html",
      "phone": "+1-323-305-4038",
      "addr_state": "CA",
      "addr_city": "Los Angeles",
      "addr_postcode": "90041",
      "addr_street": "Eagle Rock Boulevard",
      "addr_housenumber": "4682"
    },
    {
      "id": 129409,
      "geometry": "POINT (-118.265659 34.045984)",
      "poi_name": "Tea Maru",
      "osm_id": 8241879776,
      "amenity": "cafe",
      "cuisine": "bubble_tea",
      "addr_state": "CA",
      "addr_city": "San Gabriel",
      "addr_postcode": "91776",
      "addr_street": "Las Tunas Drive",
      "addr_housenumber": "709"
    },
    {
      "id": 135091,
      "geometry": "POINT (-118.265659 34.045984)",
      "poi_name": "Unincorporated Coffee Roasters",
      "osm_id": 11504673342,
      "amenity": "cafe",
      "cuisine": "coffee_shop;burritos;sandwich;tea;matcha;coffee;pastry",
      "wheelchair": "yes",
      "opening_hours": "Mo-Su 06:00-18:00",
      "website": "https://unincorporated.coffee/",
      "internet_access": "yes",
      "outdoor_seating": "yes",
      "toilets": "yes",
      "addr_state": "CA",
      "addr_city": "Altadena",
      "addr_postcode": "91001",
      "addr_street": "Lincoln Avenue",
      "addr_housenumber": "3045"
    },
    {
      "id": 145205,
      "geometry": "POINT (-118.265659 34.045984)",
      "poi_name": "Nice Coffee",
      "osm_id": 7324498233,
      "amenity": "cafe",
      "cuisine": "coffee_shop;pastry",
      "opening_hours": "Mo-Fr 07:00-16:00",
      "website": "http://www.nicecoffee.com/",
      "internet_access": "wlan",
      "outdoor_seating": "yes",
      "addr_state": "CA",
      "addr_city": "Los Angeles",
      "addr_postcode": "90071",
      "addr_street": "South Flower Street",
      "addr_housenumber": "515"
    },
    {
      "id": 162966,
      "geometry": "POINT (-118.265659 34.045984)",
      "poi_name": "Amara Caf\u00e9",
      "osm_id": 9392748922,
      "amenity": "cafe",
      "opening_hours": "Tu-We 07:30-14:15; Th-Fr 07:30-15:15; Sa-Su 07:30-16:15",
      "website": "https://amaracafe.com/",
      "phone": "+1 626-744-1765",
      "takeaway": "yes",
      "outdoor_seating": "yes",
      "addr_state": "CA",
      "addr_city": "Pasadena",
      "addr_postcode": "91105",
      "addr_street": "South Raymond Avenue",
      "addr_housenumber": "55"
    },
    {
      "id": 175429,
      "geometry": "POINT (-118.265659 34.045984)",
      "poi_name": "Bean Town",
      "osm_id": 2521583209,
      "amenity": "cafe",
      "cuisine": "coffee_shop;american;sandwich;breakfast",
      "wheelchair": "yes",
      "website": "https://beantown.cafe/",
      "internet_access": "wlan",
      "phone": "+1 626 355 1596",
      "outdoor_seating": "yes",
      "addr_city": "Sierra Madre",
      "addr_postcode": "91024",
      "addr_street": "North Baldwin Avenue",
      "addr_housenumber": "43"
    },
    {
      "id": 169376,
      "geometry": "POINT (-118.265659 34.045984)",
      "poi_name": "Float",
      "osm_id": 2298992022,
      "amenity": "cafe",
      "cuisine": "coffee_shop",
      "opening_hours": "Mo-Su 09:00-17:00",
      "internet_access": "yes",
      "addr_city": "Pasadena",
      "addr_street": "South Lake Ave #106",
      "addr_housenumber": "380"
    },
    {
      "id": 170644,
      "geometry": "POINT (-118.265659 34.045984)",
      "poi_name": "Starbucks",
      "osm_id": 2343758104,
      "amenity": "cafe",
      "cuisine": "coffee_shop",
      "internet_access": "yes",
      "phone": "(626) 303-2986",
      "takeaway": "yes",
      "official_name": "Starbucks Coffee",
      "addr_city": "Monrovia",
      "addr_postcode": "91016",
      "addr_housenumber": "140"
    },
    {
      "id": 170647,
      "geometry": "POINT (-118.265659 34.045984)",
      "poi_name": "Monrovia Coffee Co",
      "osm_id": 2343783791,
      "amenity": "cafe",
      "cuisine": "coffee_shop",
      "addr_city": "Monrovia",
      "addr_postcode": "91016",
      "addr_housenumber": "425"
    },
    {
      "id": 170656,
      "geometry": "POINT (-118.265659 34.045984)",
      "poi_name": "Jameson Brown",
      "osm_id": 2343942876,
      "amenity": "cafe",
      "cuisine": "coffee_shop",
      "website": "https://www.jamesonbrown.com",
      "internet_access": "yes",
      "outdoor_seating": "yes",
      "addr_city": "Pasadena",
      "addr_postcode": "91106",
      "addr_street": "Allen Avenue",
      "addr_housenumber": "260"
    },
    {
      "id": 180181,
      "geometry": "POINT (-118.265659 34.045984)",
      "poi_name": "Lavender & Honey",
      "osm_id": 10794398000,
      "amenity": "cafe",
      "opening_hours": "Mo-Su 07:00-16:00",
      "website": "https://lavenderandhoneyespresso.com/",
      "outdoor_seating": "yes",
      "addr_state": "CA",
      "addr_city": "Pasadena",
      "addr_postcode": "91104",
      "addr_street": "East Washington Boulevard",
      "addr_housenumber": "1383"
    },
    {
      "id": 200531,
      "geometry": "POINT (-118.265659 34.045984)",
      "poi_name": "Caf\u00e9 de Leche",
      "osm_id": 594171613,
      "amenity": "cafe",
      "cuisine": "coffee_shop",
      "website": "https://www.cafedeleche.net/",
      "phone": "+1 323 551-6828",
      "addr_city": "Los Angeles",
      "addr_postcode": "90042",
      "addr_street": "York Boulevard",
      "addr_housenumber": "5000"
    },
    {
      "id": 201165,
      "geometry": "POINT (-118.265659 34.045984)",
      "poi_name": "Unincorporated Coffee Roasters",
      "osm_id": 616429286,
      "amenity": "cafe",
      "cuisine": "cafe",
      "opening_hours": "Mo-Su 06:00-18:00",
      "website": "https://unincorporated.coffee/",
      "internet_access": "yes",
      "outdoor_seating": "yes",
      "addr_state": "CA",
      "addr_city": "Los Angeles",
      "addr_postcode": "90041",
      "addr_street": "Colorado Boulevard",
      "addr_housenumber": "2160"
    },
    {
      "id": 205612,
      "geometry": "POINT (-118.265659 34.045984)",
      "poi_name": "endorffeine",
      "osm_id": 7176076986,
      "amenity": "cafe",
      "cuisine": "coffee;coffee_shop",
      "opening_hours": "Tu-Su 10:00-18:00; Mo closed",
      "addr_state": "CA",
      "addr_city": "Los Angeles",
      "addr_postcode": "90012",
      "addr_street": "North Broadway",
      "addr_housenumber": "727"
    },
    {
      "id": 213481,
      "geometry": "POINT (-118.265659 34.045984)",
      "poi_name": "Cafecito Pura Vida",
      "osm_id": 5251330563,
      "amenity": "cafe",
      "opening_hours": "Mo-Fr 06:00-17:00",
      "takeaway": "yes",
      "addr_state": "CA",
      "addr_city": "Los Angeles",
      "addr_postcode": "90012",
      "addr_street": "West 2nd Street",
      "addr_housenumber": "306"
    }
  ],
  "answer_type": "loc",
  "question_entities": {
    "[1]": {
      "main_category": "amenity",
      "sub_category": "cafe"
    },
    "[2]": {
      "distance": 30000,
      "text": "30 kilometers"
    },
    "[3]": {
      "main_category": "tourism",
      "sub_category": "hotel",
      "display_name": "Residence Inn, Los Angeles, CA",
      "geo_wkt": "POINT (-118.265659 34.045984)",
      "poi": {
        "id": 427,
        "geometry": "POINT (-118.265659 34.045984)",
        "poi_name": "Residence Inn",
        "osm_id": 8369844542,
        "tourism": "hotel",
        "wheelchair": "yes",
        "internet_access": "wlan",
        "official_name": "Residence Inn by Marriott",
        "addr_state": "CA",
        "addr_city": "Los Angeles",
        "addr_street": "West Olympic Boulevard",
        "addr_housenumber": "901"
      }
    },
    "[4]": {
      "direction_desc": "northeast",
      "direction_predicate": "degrees(ST_Azimuth(origin.geometry, pois.geometry)) BETWEEN 22.5 AND 67.5"
    }
  },
  "id": 29,
  "type": "range:direction+loc"
}