{
  "question": "Seeking a takeout restaurant, ideally within 130 kilometers of Downtown Gazebo, Lake Jackson, TX. Can you find one for me?",
  "sql": "SELECT * FROM pois\nWHERE ST_DWithin(pois.geometry, ST_GeomFromText('POINT (-95.450044 29.041946)',4326)::geography, 130000)\nAND amenity = 'restaurant'\nAND takeaway ILIKE '%yes%';\n",
  "answers": [
    {
      "id": 28277,
      "geometry": "POINT (-95.645779 29.86479)",
      "poi_name": "Spring Creek Barbeque",
      "osm_id": 472499019,
      "amenity": "restaurant",
      "cuisine": "barbecue",
      "wheelchair": "yes",
      "internet_access": "wlan",
      "takeaway": "yes",
      "outdoor_seating": "no",
      "toilets": "yes"
    },
    {
      "id": 34445,
      "geometry": "POINT (-95.362542 29.761373)",
      "poi_name": "Frank's Pizza",
      "osm_id": 2700275156,
      "amenity": "restaurant",
      "cuisine": "pizza",
      "opening_hours": "Su-We 11:00-22:00, Th 11:00-01:00, Fr-Sa 11:00-03:00",
      "website": "https://www.frankspizza.com",
      "phone": "+1-713-225-5656",
      "takeaway": "yes",
      "delivery": "yes",
      "addr_city": "Houston",
      "addr_postcode": "77002",
      "addr_street": "Travis Street",
      "addr_housenumber": "417"
    },
    {
      "id": 37582,
      "geometry": "POINT (-95.42706 29.999143)",
      "poi_name": "Denny's",
      "osm_id": 2821356102,
      "amenity": "restaurant",
      "cuisine": "american",
      "wheelchair": "yes",
      "opening_hours": "24/7",
      "internet_access": "wlan",
      "takeaway": "yes",
      "toilets": "yes"
    },
    {
      "id": 52843,
      "geometry": "POINT (-95.462828 29.66659)",
      "poi_name": "168 Szechuan",
      "osm_id": 10050018053,
      "amenity": "restaurant",
      "cuisine": "chinese",
      "opening_hours": "Tu-Th 10:30-21:00; Fr-Sa 10:30-22:00; Su 12:00-21:00",
      "website": "https://www.168szechuanrestaurant.com",
      "phone": "+1-712-283-1688",
      "takeaway": "yes",
      "addr_state": "TX",
      "addr_city": "Houston",
      "addr_postcode": "77035",
      "addr_street": "South Post Oak Road",
      "addr_housenumber": "10535"
    },
    {
      "id": 53086,
      "geometry": "POINT (-95.401281 29.770326)",
      "poi_name": "CAVA",
      "osm_id": 10064648725,
      "amenity": "restaurant",
      "cuisine": "mediterranean",
      "opening_hours": "Mo-Su 011:45-22:00",
      "website": "https://cava.com",
      "phone": "+1-346-971-5833",
      "takeaway": "yes",
      "delivery": "yes",
      "addr_state": "TX",
      "addr_city": "Houston",
      "addr_postcode": "77007",
      "addr_street": "Washington Avenue",
      "addr_housenumber": "4000"
    },
    {
      "id": 65573,
      "geometry": "POINT (-95.387053 29.744249)",
      "poi_name": "Sorrento Ristorante",
      "osm_id": 5703182724,
      "amenity": "restaurant",
      "cuisine": "italian",
      "opening_hours": "Mo-Fr 11:00-22:00, Sa 17:00-23:00, Su 11:00-21:00",
      "website": "sorrentoristoranteofhouston.com",
      "phone": "+1-713-527-0609",
      "takeaway": "yes",
      "outdoor_seating": "no",
      "addr_state": "TX",
      "addr_city": "Houston",
      "addr_postcode": "77006",
      "addr_street": "Westheimer Road",
      "addr_housenumber": "415"
    },
    {
      "id": 67533,
      "geometry": "POINT (-94.497794 29.509688)",
      "poi_name": "JayLa's Bar & Grill",
      "osm_id": 11238632301,
      "amenity": "restaurant",
      "description": "Full bar and grill located in Gilchrist east of Rollover. We\u2019re at Barrel G20 if coming by beach side.",
      "internet_access": "wlan",
      "phone": "(970) 317-0832",
      "takeaway": "yes",
      "outdoor_seating": "yes",
      "addr_state": "TX",
      "addr_city": "Gilchrist",
      "addr_street": "Texas State Highway 87",
      "addr_housenumber": "1951"
    },
    {
      "id": 77424,
      "geometry": "POINT (-95.834207 29.397506)",
      "poi_name": "Pizza Hut",
      "osm_id": 9821474756,
      "amenity": "restaurant",
      "cuisine": "pizza",
      "opening_hours": "Su-Th 11:00-22:00; Fr-Sa 11:00-23:00",
      "website": "https://locations.pizzahut.com/tx/needville/13400-tx-36",
      "phone": "+1-979-793-7821",
      "takeaway": "yes",
      "delivery": "yes",
      "addr_state": "TX",
      "addr_city": "Needville",
      "addr_postcode": "77461",
      "addr_street": "TX-36",
      "addr_housenumber": "13400"
    },
    {
      "id": 67542,
      "geometry": "POINT (-94.623358 29.464206)",
      "poi_name": "Tia Juanita's Fish Camp",
      "osm_id": 11238691518,
      "amenity": "restaurant",
      "cuisine": "mexican;seafood;cajun",
      "phone": "(409) 684-5006",
      "takeaway": "yes",
      "addr_state": "TX",
      "addr_city": "Crystal Beach",
      "addr_postcode": "77650",
      "addr_street": "State Highway 87",
      "addr_housenumber": "2275"
    },
    {
      "id": 75580,
      "geometry": "POINT (-95.389296 29.753596)",
      "poi_name": "Pink's Pizza",
      "osm_id": 9736154662,
      "amenity": "restaurant",
      "cuisine": "pizza",
      "takeaway": "yes",
      "toilets": "yes",
      "addr_state": "TX",
      "addr_street": "West Gray Street",
      "addr_housenumber": "710"
    },
    {
      "id": 75657,
      "geometry": "POINT (-95.61588 30.096535)",
      "poi_name": "Market Street Cafe",
      "osm_id": 9739904147,
      "amenity": "restaurant",
      "cuisine": "american;sandwich;tex-mex",
      "wheelchair": "yes",
      "opening_hours": "Mo-Tu 11:00-16:00; Th-Sa 11:00-20:00; Su 11:00-15:30; PH closed",
      "takeaway": "yes",
      "outdoor_seating": "yes",
      "toilets": "yes",
      "addr_state": "TX",
      "addr_city": "Tomball",
      "addr_street": "Market Street",
      "addr_housenumber": "302"
    },
    {
      "id": 89895,
      "geometry": "POINT (-95.493288 29.785068)",
      "poi_name": "Tortoni",
      "osm_id": 8868990735,
      "amenity": "restaurant",
      "cuisine": "italian",
      "opening_hours": "Tu-Sa 16:30-21:00; Su 16:30-20:30; PH closed",
      "takeaway": "yes",
      "addr_street": "Katy Freeway",
      "addr_housenumber": "8412"
    },
    {
      "id": 108894,
      "geometry": "POINT (-95.379522 29.738803)",
      "poi_name": "Winnie's",
      "osm_id": 3638003786,
      "amenity": "restaurant",
      "website": "https://www.winnieshouston.com/",
      "takeaway": "yes",
      "addr_state": "TX",
      "addr_city": "Houston",
      "addr_postcode": "77002",
      "addr_street": "Main Street",
      "addr_housenumber": "3622"
    },
    {
      "id": 89935,
      "geometry": "POINT (-95.389384 29.781333)",
      "poi_name": "Russo's New York Pizzeria",
      "osm_id": 8870719126,
      "amenity": "restaurant",
      "cuisine": "pizza",
      "takeaway": "yes",
      "addr_state": "TX",
      "addr_city": "Houston",
      "addr_street": "White Oak Drive",
      "addr_housenumber": "2805"
    },
    {
      "id": 96549,
      "geometry": "POINT (-95.459758 29.749278)",
      "poi_name": "Berryhill Baja Grill",
      "osm_id": 6436999319,
      "amenity": "restaurant",
      "cuisine": "mexican",
      "wheelchair": "yes",
      "internet_access": "wlan",
      "takeaway": "yes",
      "outdoor_seating": "yes",
      "toilets": "yes"
    },
    {
      "id": 96930,
      "geometry": "POINT (-95.77893 29.776386)",
      "poi_name": "Sanskar Maharashtrian Veg Cuisine",
      "osm_id": 6452485727,
      "amenity": "restaurant",
      "cuisine": "indian;marathi;maharashtrian;thali",
      "opening_hours": "We-Mo 12:00-15:00, 17:30-21:00",
      "website": "http://www.sanskarllc.com/",
      "takeaway": "yes",
      "outdoor_seating": "no",
      "addr_state": "TX",
      "addr_city": "Katy",
      "addr_postcode": "77494",
      "addr_street": "West Grand Parkway South Frontage Road",
      "addr_housenumber": "406"
    },
    {
      "id": 96400,
      "geometry": "POINT (-94.771412 29.306906)",
      "poi_name": "Russo's New York Pizzeria",
      "osm_id": 6431981119,
      "amenity": "restaurant",
      "cuisine": "italian",
      "takeaway": "yes"
    },
    {
      "id": 100386,
      "geometry": "POINT (-95.402854 29.87052)",
      "poi_name": "China One",
      "osm_id": 6582986066,
      "amenity": "restaurant",
      "cuisine": "chinese",
      "takeaway": "yes",
      "addr_state": "TX",
      "addr_city": "Houston",
      "addr_street": "West Little York Road",
      "addr_housenumber": "306"
    },
    {
      "id": 124370,
      "geometry": "POINT (-95.378646 29.828124)",
      "poi_name": "Hungry Farmer Barbecue",
      "osm_id": 6914098889,
      "amenity": "restaurant",
      "cuisine": "barbecue",
      "wheelchair": "yes",
      "opening_hours": "Mo-Su 10:30-22:00; Dec 25 closed",
      "website": "http://hungryfarmerbbq.com",
      "phone": "+1-713-697-4874",
      "takeaway": "yes",
      "outdoor_seating": "yes",
      "addr_state": "TX",
      "addr_city": "Houston",
      "addr_street": "East Crosstimbers Street",
      "addr_housenumber": "40"
    },
    {
      "id": 121752,
      "geometry": "POINT (-95.430532 29.829166)",
      "poi_name": "Fajita Pete's",
      "osm_id": 6778446785,
      "amenity": "restaurant",
      "cuisine": "mexican",
      "wheelchair": "yes",
      "opening_hours": "Mo-Th 11:00-20:30; Fr,Sa 11:00-21:00; Su 12:00-20:00",
      "internet_access": "no",
      "takeaway": "yes",
      "delivery": "yes",
      "toilets": "yes",
      "addr_state": "TX",
      "addr_city": "Houston",
      "addr_street": "West 43rd Street",
      "addr_housenumber": "1214"
    },
    {
      "id": 111262,
      "geometry": "POINT (-95.15577 29.580793)",
      "poi_name": "Abe's Cajun Market & Cafe",
      "osm_id": 3739511575,
      "amenity": "restaurant",
      "opening_hours": "Mo-Th 09:00-21:00; Fr-Sa 09:00-22:00; Su 11:00-21:00",
      "website": "https://www.abescajunmarket.com/",
      "takeaway": "yes"
    },
    {
      "id": 111264,
      "geometry": "POINT (-95.157116 29.578456)",
      "poi_name": "Alamo Tamales",
      "osm_id": 3739511605,
      "amenity": "restaurant",
      "cuisine": "mexican",
      "opening_hours": "Mo 06:00-19:00; Tu-Fr 06:00-20:00; Sa 07:00-20:00; Su 09:00-15:00",
      "website": "http://alamotamalesclearlake.com/",
      "takeaway": "yes",
      "delivery": "yes"
    },
    {
      "id": 111279,
      "geometry": "POINT (-95.088952 29.55029)",
      "poi_name": "Mediterraneo",
      "osm_id": 3739869768,
      "amenity": "restaurant",
      "cuisine": "mediterranean",
      "opening_hours": "Mo-Th 09:00-21:00; Fr-Sa 09:00-22:00",
      "website": "http://mediterraneomarket.com/",
      "takeaway": "yes",
      "addr_state": "TX",
      "addr_city": "Nassau Bay",
      "addr_postcode": "77058",
      "addr_street": "Upper Bay Road",
      "addr_housenumber": "18033"
    },
    {
      "id": 112970,
      "geometry": "POINT (-95.46295 30.207802)",
      "poi_name": "Atsumi",
      "osm_id": 3812782211,
      "amenity": "restaurant",
      "cuisine": "asian",
      "opening_hours": "Mo-Su 11:00-22:00",
      "takeaway": "yes",
      "delivery": "yes",
      "addr_state": "TX",
      "addr_city": "The Woodlands",
      "addr_postcode": "77384",
      "addr_street": "College Park Drive",
      "addr_housenumber": "3335"
    },
    {
      "id": 112971,
      "geometry": "POINT (-95.445559 30.13342)",
      "poi_name": "IHOP",
      "osm_id": 3812838344,
      "amenity": "restaurant",
      "cuisine": "breakfast;pancake",
      "opening_hours": "24/7",
      "takeaway": "yes",
      "delivery": "no",
      "addr_state": "TX",
      "addr_city": "Spring",
      "addr_postcode": "77380",
      "addr_street": "Interstate 45 North",
      "addr_housenumber": "25619"
    },
    {
      "id": 115032,
      "geometry": "POINT (-95.46593 29.73278)",
      "poi_name": "Dimassi's Mediterranean Buffet",
      "osm_id": 3907087151,
      "amenity": "restaurant",
      "cuisine": "greek;buffet",
      "wheelchair": "yes",
      "opening_hours": "Su-Th 11:00-21:00; Fr-Sa 11:00-22:00",
      "website": "https://dimassis.com",
      "phone": "+1-713-439-7481",
      "takeaway": "yes",
      "outdoor_seating": "yes",
      "delivery": "yes",
      "addr_state": "TX",
      "addr_city": "Houston",
      "addr_postcode": "77056",
      "addr_street": "Richmond Avenue",
      "addr_housenumber": "5160"
    },
    {
      "id": 117672,
      "geometry": "POINT (-95.494941 29.886339)",
      "poi_name": "Antojitos Mexican Restaurant",
      "osm_id": 9005411136,
      "amenity": "restaurant",
      "opening_hours": "Mo,We 09:00-18:00; Tu-Fr 09:00-21:00; Sa 08:00-21:00; Su 08:00-19:00; PH closed",
      "takeaway": "yes",
      "addr_state": "TX",
      "addr_city": "Houston",
      "addr_postcode": "77040",
      "addr_street": "North Houston Rosslyn Road",
      "addr_housenumber": "9907"
    },
    {
      "id": 117673,
      "geometry": "POINT (-95.49494 29.886555)",
      "poi_name": "Lazaro's Pizza",
      "osm_id": 9005411144,
      "amenity": "restaurant",
      "cuisine": "pizza",
      "opening_hours": "Tu-Sa 11:00-21:00; Su 13:30-21:00; PH closed",
      "takeaway": "yes",
      "addr_street": "North Houston Rosslyn Road",
      "addr_housenumber": "9913"
    },
    {
      "id": 124887,
      "geometry": "POINT (-95.36487 29.838092)",
      "poi_name": "Alamo Tamale Company",
      "osm_id": 6938184900,
      "amenity": "restaurant",
      "cuisine": "mexican",
      "wheelchair": "yes",
      "opening_hours": "Mo-Su 05:00-18:00",
      "website": "https://www.alamotamale.net",
      "takeaway": "yes",
      "delivery": "no",
      "addr_state": "TX",
      "addr_city": "Houston",
      "addr_postcode": "77022",
      "addr_street": "Berry Road",
      "addr_housenumber": "809"
    },
    {
      "id": 126427,
      "geometry": "POINT (-95.770008 29.81382)",
      "poi_name": "T. Jin's China Diner",
      "osm_id": 7001418542,
      "amenity": "restaurant",
      "cuisine": "chinese",
      "takeaway": "yes"
    },
    {
      "id": 132902,
      "geometry": "POINT (-95.554986 29.65231)",
      "poi_name": "Star Pizzeria",
      "osm_id": 9970965717,
      "amenity": "restaurant",
      "cuisine": "turkish;pizza",
      "opening_hours": "Mo-Sa 11:00-20:00",
      "website": "https://www.starpizzeriamenu.com/",
      "phone": "+1-281-205-8777",
      "takeaway": "yes",
      "addr_state": "TX",
      "addr_city": "Houston",
      "addr_postcode": "77031",
      "addr_street": "West Bellfort Avenue",
      "addr_housenumber": "10001"
    },
    {
      "id": 132475,
      "geometry": "POINT (-95.390007 29.691603)",
      "poi_name": "Abu Omar",
      "osm_id": 9955906045,
      "amenity": "restaurant",
      "cuisine": "arab",
      "operator": "Abu Omar",
      "website": "https://www.abuomarhalal.com/",
      "phone": "+1-346-262-6149",
      "takeaway": "yes",
      "addr_state": "TX",
      "addr_city": "Houston",
      "addr_postcode": "77054",
      "addr_street": "Almeda Road",
      "addr_housenumber": "7500"
    },
    {
      "id": 155332,
      "geometry": "POINT (-95.683726 29.87882)",
      "poi_name": "Thai Chefs",
      "osm_id": 4281540913,
      "amenity": "restaurant",
      "cuisine": "thai",
      "capacity": "30",
      "takeaway": "yes",
      "delivery": "no",
      "addr_state": "TX",
      "addr_city": "Houston",
      "addr_postcode": "77084",
      "addr_street": "Barker Cypress Road",
      "addr_housenumber": "6965"
    },
    {
      "id": 139327,
      "geometry": "POINT (-95.229001 30.133843)",
      "poi_name": "Buffalo Wild Wings",
      "osm_id": 6193532876,
      "amenity": "restaurant",
      "cuisine": "wings",
      "opening_hours": "Mo-Th,Su 11:00-24:00, Fr-Sa 11:00-02:00",
      "website": "https://www.buffalowildwings.com/en/locations/detail/0724",
      "phone": "+1-281-354-6255",
      "takeaway": "yes",
      "outdoor_seating": "no",
      "addr_state": "TX",
      "addr_city": "New Caney",
      "addr_postcode": "77357",
      "addr_street": "Eastex Freeway",
      "addr_housenumber": "21372"
    },
    {
      "id": 139328,
      "geometry": "POINT (-95.228929 30.134045)",
      "poi_name": "Airi Poke and Ramen",
      "osm_id": 6193532877,
      "amenity": "restaurant",
      "cuisine": "noodle;sushi;ramen;japanese;korean",
      "opening_hours": "Mo-Th 11:00-21:30; Fr-Sa 11:00-22:00; Su 12:00-21:30",
      "phone": "+1-281-354-8900",
      "takeaway": "yes",
      "outdoor_seating": "no",
      "addr_state": "TX",
      "addr_city": "New Caney",
      "addr_postcode": "77357",
      "addr_street": "Eastex Freeway",
      "addr_housenumber": "21372"
    },
    {
      "id": 141891,
      "geometry": "POINT (-95.513631 29.785255)",
      "poi_name": "Peli Peli Kitchen",
      "osm_id": 6299373587,
      "amenity": "restaurant",
      "cuisine": "south_african",
      "takeaway": "yes",
      "outdoor_seating": "yes",
      "delivery": "yes",
      "addr_state": "TX",
      "addr_city": "Houston",
      "addr_postcode": "77055",
      "addr_street": "Katy Freeway Frontage Road",
      "addr_housenumber": "9090"
    },
    {
      "id": 150066,
      "geometry": "POINT (-95.400271 29.76956)",
      "poi_name": "Buffalo Wild Wings",
      "osm_id": 4040988394,
      "amenity": "restaurant",
      "cuisine": "wings",
      "wheelchair": "yes",
      "opening_hours": "Mo-Th 11:00-01:00, Fr-Sa 11:00-02:00, Su 11:00-24:00",
      "website": "https://www.buffalowildwings.com",
      "takeaway": "yes",
      "outdoor_seating": "yes",
      "addr_state": "TX",
      "addr_city": "Houston",
      "addr_postcode": "77007",
      "addr_street": "Washington Avenue",
      "addr_housenumber": "3939"
    },
    {
      "id": 150077,
      "geometry": "POINT (-95.401209 29.803752)",
      "poi_name": "CAVA",
      "osm_id": 4040988423,
      "amenity": "restaurant",
      "cuisine": "mediterranean",
      "takeaway": "yes",
      "addr_state": "TX",
      "addr_city": "Houston",
      "addr_street": "West 20th Street",
      "addr_housenumber": "250"
    },
    {
      "id": 151074,
      "geometry": "POINT (-95.416881 29.741933)",
      "poi_name": "Avalon Diner",
      "osm_id": 4080694422,
      "amenity": "restaurant",
      "opening_hours": "Mo-Fr 06:30-16:00; Sa-Su 07:00-16:00",
      "website": "http://avalondiner.com",
      "phone": "+1-713-527-8900",
      "takeaway": "yes",
      "addr_state": "TX",
      "addr_city": "Houston",
      "addr_postcode": "77098",
      "addr_street": "Westheimer Road",
      "addr_housenumber": "2417"
    },
    {
      "id": 155277,
      "geometry": "POINT (-95.720707 29.790644)",
      "poi_name": "Green Garden",
      "osm_id": 4279072991,
      "amenity": "restaurant",
      "cuisine": "asian",
      "capacity": "30",
      "takeaway": "yes",
      "addr_state": "TX",
      "addr_city": "Katy",
      "addr_postcode": "77449",
      "addr_street": "Park Row",
      "addr_housenumber": "19922"
    },
    {
      "id": 155487,
      "geometry": "POINT (-95.232262 30.048701)",
      "poi_name": "Oriental Gardens Chinese Restaurant",
      "osm_id": 4286971443,
      "amenity": "restaurant",
      "cuisine": "chinese",
      "opening_hours": "Su-Th 11:00-21:30; Fr-Sa 11:00-22:30",
      "website": "http://www.orientalgardenskingwood.com/",
      "phone": "+1-281-358-7119",
      "takeaway": "yes",
      "delivery": "yes",
      "addr_state": "TX",
      "addr_city": "Kingwood",
      "addr_postcode": "77339",
      "addr_street": "Kingwood Drive",
      "addr_housenumber": "1528"
    },
    {
      "id": 137202,
      "geometry": "POINT (-95.244402 30.072274)",
      "poi_name": "JJ China Diner",
      "osm_id": 6089074973,
      "amenity": "restaurant",
      "cuisine": "chinese",
      "opening_hours": "Mo-Th,Su 11:00-22:00; Fr-Sa 11:00-22:30",
      "website": "https://www.jjchinadinertx.com/",
      "phone": "+1-281-354-4111",
      "takeaway": "yes",
      "outdoor_seating": "no",
      "delivery": "yes",
      "addr_state": "TX",
      "addr_city": "Kingwood",
      "addr_postcode": "77339",
      "addr_street": "Eastex Freeway",
      "addr_housenumber": "25639"
    },
    {
      "id": 149710,
      "geometry": "POINT (-95.409887 29.817702)",
      "poi_name": "Pink's Pizza",
      "osm_id": 4021617088,
      "amenity": "restaurant",
      "cuisine": "pizza",
      "wheelchair": "yes",
      "opening_hours": "Su-Th 11:00-22:00; Fr,Sa 11:00-23:00",
      "takeaway": "yes",
      "addr_state": "TX",
      "addr_city": "Houston",
      "addr_postcode": "77018",
      "addr_street": "North Shepherd Drive",
      "addr_housenumber": "3404"
    },
    {
      "id": 150053,
      "geometry": "POINT (-95.377645 29.743861)",
      "poi_name": "Simply Ph\u1edf",
      "osm_id": 4040879530,
      "amenity": "restaurant",
      "cuisine": "vietnamese",
      "opening_hours": "Mo-Su 10:00-22:00",
      "phone": "+1-713-677-0501",
      "takeaway": "yes",
      "addr_state": "TX",
      "addr_city": "Houston",
      "addr_postcode": "77006",
      "addr_street": "Milam Street",
      "addr_housenumber": "2929"
    },
    {
      "id": 155363,
      "geometry": "POINT (-95.212833 30.069686)",
      "poi_name": "Las Palomas Mexican Restaurant",
      "osm_id": 4283433288,
      "amenity": "restaurant",
      "cuisine": "mexican",
      "takeaway": "yes",
      "addr_state": "TX",
      "addr_city": "Kingwood",
      "addr_postcode": "77339",
      "addr_street": "Northpark Drive",
      "addr_housenumber": "2229"
    },
    {
      "id": 170694,
      "geometry": "POINT (-95.45989 29.688858)",
      "poi_name": "Escalante's Mexican Grille",
      "osm_id": 2345832882,
      "amenity": "restaurant",
      "cuisine": "mexican",
      "takeaway": "yes",
      "outdoor_seating": "yes",
      "addr_state": "TX",
      "addr_city": "Houston",
      "addr_housenumber": "590"
    },
    {
      "id": 157344,
      "geometry": "POINT (-95.833726 29.776584)",
      "poi_name": "Good 'Ol Boys",
      "osm_id": 4704144110,
      "amenity": "restaurant",
      "cuisine": "cajun",
      "takeaway": "yes",
      "outdoor_seating": "yes"
    },
    {
      "id": 163354,
      "geometry": "POINT (-95.397933 29.773381)",
      "poi_name": "Barnaby's Cafe",
      "osm_id": 9413691418,
      "amenity": "restaurant",
      "cuisine": "american",
      "takeaway": "yes",
      "addr_state": "TX",
      "addr_city": "Houston",
      "addr_street": "Heights Boulevard",
      "addr_housenumber": "181"
    },
    {
      "id": 170695,
      "geometry": "POINT (-95.46056 29.685633)",
      "poi_name": "Caf\u00e9 Express",
      "osm_id": 2345863635,
      "amenity": "restaurant",
      "cuisine": "american",
      "takeaway": "yes",
      "outdoor_seating": "yes",
      "addr_state": "TX",
      "addr_city": "Houston",
      "addr_housenumber": "210"
    },
    {
      "id": 170696,
      "geometry": "POINT (-95.460311 29.689606)",
      "poi_name": "Fadi's Mediterranean Grill",
      "osm_id": 2345893539,
      "amenity": "restaurant",
      "cuisine": "mediterranean",
      "takeaway": "yes",
      "outdoor_seating": "no",
      "addr_state": "TX",
      "addr_city": "Houston",
      "addr_street": "Beechnut Street",
      "addr_housenumber": "4738"
    },
    {
      "id": 170704,
      "geometry": "POINT (-95.468326 29.708195)",
      "poi_name": "Jax Grill",
      "osm_id": 2346498313,
      "amenity": "restaurant",
      "cuisine": "american",
      "takeaway": "yes",
      "outdoor_seating": "yes"
    },
    {
      "id": 170711,
      "geometry": "POINT (-95.440835 29.706868)",
      "poi_name": "Fajita Pete's",
      "osm_id": 2346537983,
      "amenity": "restaurant",
      "cuisine": "mexican",
      "website": "https://fajitapetes.com/",
      "takeaway": "yes",
      "drive_through": "no",
      "outdoor_seating": "no",
      "delivery": "yes",
      "addr_state": "TX",
      "addr_city": "Houston",
      "addr_postcode": "77005",
      "addr_street": "Weslayan Street",
      "addr_housenumber": "6719"
    },
    {
      "id": 170961,
      "geometry": "POINT (-95.440892 29.705441)",
      "poi_name": "Pizza Hut",
      "osm_id": 2353755211,
      "amenity": "restaurant",
      "cuisine": "pizza",
      "takeaway": "yes",
      "addr_state": "TX",
      "addr_city": "Houston",
      "addr_street": "Bellaire Boulevard",
      "addr_housenumber": "4001"
    },
    {
      "id": 170911,
      "geometry": "POINT (-95.457024 29.756166)",
      "poi_name": "Flower Child",
      "osm_id": 2352127672,
      "amenity": "restaurant",
      "website": "https://www.iamaflowerchild.com/locations/houston-tx/",
      "takeaway": "yes",
      "outdoor_seating": "yes",
      "addr_street": "Uptown Park Boulevard",
      "addr_housenumber": "1101"
    },
    {
      "id": 170992,
      "geometry": "POINT (-95.437454 29.729946)",
      "poi_name": "Caf\u00e9 Express",
      "osm_id": 2356085833,
      "amenity": "restaurant",
      "cuisine": "american",
      "takeaway": "yes",
      "outdoor_seating": "no",
      "delivery": "no"
    },
    {
      "id": 172522,
      "geometry": "POINT (-95.362128 29.762707)",
      "poi_name": "Niko Niko's",
      "osm_id": 2404974408,
      "amenity": "restaurant",
      "cuisine": "greek",
      "opening_hours": "Mo-Fr 07:00-21:00; Sa-Su 08:00-21:00",
      "website": "https://www.nikonikos.com/",
      "phone": "+1-713-224-4976",
      "takeaway": "yes",
      "outdoor_seating": "yes",
      "wikidata": "Q17038878",
      "addr_city": "Houston",
      "addr_postcode": "77002",
      "addr_street": "Milam Street",
      "addr_housenumber": "301"
    },
    {
      "id": 171009,
      "geometry": "POINT (-95.463765 29.663227)",
      "poi_name": "Annie's Hamburgers",
      "osm_id": 2356444426,
      "amenity": "restaurant",
      "cuisine": "burger",
      "takeaway": "yes",
      "outdoor_seating": "no",
      "delivery": "no",
      "addr_state": "TX",
      "addr_city": "Houston",
      "addr_street": "South Post Oak Road",
      "addr_housenumber": "10821"
    },
    {
      "id": 171453,
      "geometry": "POINT (-95.935098 30.069323)",
      "poi_name": "Waller County Line BBQ",
      "osm_id": 2375547702,
      "amenity": "restaurant",
      "cuisine": "barbecue",
      "wheelchair": "yes",
      "opening_hours": "05:00-22:00",
      "takeaway": "yes",
      "addr_state": "TX",
      "addr_city": "Waller",
      "addr_street": "FM 362",
      "addr_housenumber": "20767"
    },
    {
      "id": 178585,
      "geometry": "POINT (-95.21087 29.585628)",
      "poi_name": "H\u1ee7 T\u00edu M\u00ec S.45",
      "osm_id": 10731713239,
      "amenity": "restaurant",
      "cuisine": "vietnamese",
      "opening_hours": "Mo,Tu,Th-Su 08:30-21:00",
      "website": "https://hutiumis45houston.com/",
      "internet_access": "no",
      "phone": "+1 832-486-9205",
      "takeaway": "yes",
      "addr_state": "TX",
      "addr_city": "Houston",
      "addr_postcode": "77089",
      "addr_street": "Scarsdale Boulevard",
      "addr_housenumber": "10904"
    },
    {
      "id": 172607,
      "geometry": "POINT (-95.426676 29.705819)",
      "poi_name": "Pronto Cusino",
      "osm_id": 2408160688,
      "amenity": "restaurant",
      "cuisine": "italian",
      "takeaway": "yes",
      "outdoor_seating": "yes",
      "delivery": "no",
      "addr_city": "Houston",
      "addr_street": "West Holcombe Boulevard",
      "addr_housenumber": "3191"
    },
    {
      "id": 182618,
      "geometry": "POINT (-94.795038 29.307137)",
      "poi_name": "Yaga's Cafe",
      "osm_id": 10897690516,
      "amenity": "restaurant",
      "cuisine": "american;pizza;seafood",
      "wheelchair": "limited",
      "opening_hours": "Mo-Fr 11:00-21:00; Sa-Su 10:30-24:00",
      "website": "https://yagascafe.com/",
      "phone": "+1 409-762-6676",
      "takeaway": "yes",
      "outdoor_seating": "yes",
      "addr_state": "TX",
      "addr_city": "Galveston",
      "addr_street": "The Strand",
      "addr_housenumber": "2314"
    },
    {
      "id": 184605,
      "geometry": "POINT (-95.2475 29.961483)",
      "poi_name": "Queen's Kitchen Halal",
      "osm_id": 7799813252,
      "amenity": "restaurant",
      "cuisine": "american;barbecue;burger;mexican;seafood",
      "description": "The name has \"halal\" in it but no other references saying they stick to halal items or preparation methods. Diner beware.",
      "website": "https://queenskitchenhalal.com/",
      "takeaway": "yes",
      "addr_street": "Wilson Road",
      "addr_housenumber": "3103"
    },
    {
      "id": 200342,
      "geometry": "POINT (-95.385631 29.744737)",
      "poi_name": "El Tiempo Cantina",
      "osm_id": 1036110479,
      "amenity": "restaurant",
      "cuisine": "tex-mex",
      "wheelchair": "yes",
      "opening_hours": "Su-Tu 11:00-21:00, We-Th 11:00-22:00, Fr-Sa 11:00-23:00",
      "website": "https://eltiempocantina.com/",
      "phone": "+1-713-807-8101",
      "takeaway": "yes",
      "outdoor_seating": "yes",
      "delivery": "yes",
      "addr_state": "TX",
      "addr_city": "Houston",
      "addr_postcode": "77006",
      "addr_street": "Westheimer Road",
      "addr_housenumber": "322"
    },
    {
      "id": 205371,
      "geometry": "POINT (-95.757748 29.78436)",
      "poi_name": "Landry's Seafood House",
      "osm_id": 7166832901,
      "amenity": "restaurant",
      "cuisine": "seafood",
      "takeaway": "yes"
    },
    {
      "id": 204291,
      "geometry": "POINT (-95.449865 29.746962)",
      "poi_name": "Liberty Kitchen & Oysterette",
      "osm_id": 7122288477,
      "amenity": "restaurant",
      "cuisine": "american;seafood",
      "takeaway": "yes",
      "addr_street": "San Felipe Street",
      "addr_housenumber": "4224"
    },
    {
      "id": 203566,
      "geometry": "POINT (-95.399044 29.805132)",
      "poi_name": "Yale Street Grill",
      "osm_id": 7093560574,
      "amenity": "restaurant",
      "cuisine": "american",
      "wheelchair": "yes",
      "opening_hours": "Mo-Fr 07:00-16:30; Sa-Su 07:00-17:00; PH closed",
      "internet_access": "no",
      "takeaway": "yes",
      "delivery": "no",
      "toilets": "yes",
      "addr_state": "TX",
      "addr_city": "Houston",
      "addr_street": "Yale Street",
      "addr_housenumber": "2100"
    },
    {
      "id": 227477,
      "geometry": "POINT (-95.186349 30.05109)",
      "poi_name": "Hunan Garden Restaurant",
      "osm_id": 4310052426,
      "amenity": "restaurant",
      "cuisine": "chinese",
      "phone": "+1-281-360-2668",
      "takeaway": "yes",
      "delivery": "yes",
      "addr_state": "TX",
      "addr_city": "Kingwood",
      "addr_postcode": "77339",
      "addr_street": "Kingwood Drive",
      "addr_housenumber": "4331"
    },
    {
      "id": 209944,
      "geometry": "POINT (-95.646493 29.788534)",
      "poi_name": "Hyderabad House",
      "osm_id": 5067476674,
      "amenity": "restaurant",
      "cuisine": "indian;hyderabadi;biryani",
      "opening_hours": "Tu-Th 11:00-22:00,Fr-Sa 11:00-22:30, Su 09:30-22:00",
      "takeaway": "yes",
      "outdoor_seating": "no",
      "delivery": "no",
      "addr_state": "TX",
      "addr_city": "Houston",
      "addr_postcode": "77084",
      "addr_street": "Park Row",
      "addr_housenumber": "14838"
    },
    {
      "id": 212114,
      "geometry": "POINT (-95.146166 29.567058)",
      "poi_name": "Dan's Pizza Co.",
      "osm_id": 5190988572,
      "amenity": "restaurant",
      "cuisine": "pizza",
      "description": "Pizza and craft beer bar",
      "wheelchair": "yes",
      "opening_hours": "Mo-Th 11:00-22:30; Fr-Sa 11:00-23:00; Su 11:00-22:00",
      "website": "https://danspizzaco.com/",
      "phone": "+1-281-480-9700",
      "takeaway": "yes",
      "delivery": "yes",
      "addr_state": "TX",
      "addr_city": "Webster",
      "addr_postcode": "77598",
      "addr_street": "Galveston Road",
      "addr_housenumber": "15148"
    },
    {
      "id": 213616,
      "geometry": "POINT (-95.845696 29.726217)",
      "poi_name": "Ling's Restaurant",
      "osm_id": 5256216648,
      "amenity": "restaurant",
      "cuisine": "chinese",
      "opening_hours": "Mo-Su 11:00-22:00",
      "takeaway": "yes",
      "outdoor_seating": "no",
      "delivery": "yes",
      "addr_state": "TX",
      "addr_city": "Katy",
      "addr_postcode": "77494",
      "addr_street": "FM 1463",
      "addr_housenumber": "4603"
    },
    {
      "id": 213042,
      "geometry": "POINT (-95.498773 29.987153)",
      "poi_name": "The Crab Station Oyster Bar",
      "osm_id": 5232857921,
      "amenity": "restaurant",
      "cuisine": "seafood",
      "takeaway": "yes",
      "outdoor_seating": "yes",
      "addr_state": "TX",
      "addr_city": "Houston",
      "addr_postcode": "77068",
      "addr_street": "Cypress Creek Parkway",
      "addr_housenumber": "4505"
    },
    {
      "id": 213471,
      "geometry": "POINT (-95.229113 30.133136)",
      "poi_name": "Chili's",
      "osm_id": 5251176798,
      "amenity": "restaurant",
      "cuisine": "tex-mex",
      "opening_hours": "Mo-Th 11:00-22:00; Fr-Sa 11:00-24:00; Su 11:00-22:00",
      "website": "https://www.chilis.com/locations/us/texas/new-caney/new-caney/",
      "phone": "+1-281-354-0594",
      "takeaway": "yes",
      "official_name": "Chili's Grill & Bar",
      "outdoor_seating": "no",
      "delivery": "yes",
      "addr_state": "TX",
      "addr_city": "New Caney",
      "addr_postcode": "77357",
      "addr_street": "Eastex Freeway",
      "addr_housenumber": "21470"
    },
    {
      "id": 215753,
      "geometry": "POINT (-95.44072 30.01882)",
      "poi_name": "Luby's",
      "osm_id": 5312054485,
      "amenity": "restaurant",
      "cuisine": "american",
      "wheelchair": "yes",
      "internet_access": "wlan",
      "takeaway": "yes",
      "toilets": "yes"
    },
    {
      "id": 216266,
      "geometry": "POINT (-95.164176 29.997347)",
      "poi_name": "Teriyaki Madness",
      "osm_id": 9165383212,
      "amenity": "restaurant",
      "opening_hours": "Mo-Su 11:00-21:00",
      "takeaway": "yes",
      "addr_state": "TX",
      "addr_city": "Humble",
      "addr_postcode": "77346",
      "addr_street": "FM 1960 East",
      "addr_housenumber": "7412"
    },
    {
      "id": 239897,
      "geometry": "POINT (-95.235282 30.133113)",
      "poi_name": "Shogun Japanese Grill & Sushi Bar",
      "osm_id": 5941656796,
      "amenity": "restaurant",
      "cuisine": "japanese;asian;sushi",
      "takeaway": "yes",
      "addr_state": "TX",
      "addr_city": "New Caney",
      "addr_postcode": "77357"
    },
    {
      "id": 235491,
      "geometry": "POINT (-95.742574 29.618676)",
      "poi_name": "Ninja Japanese Cuisine",
      "osm_id": 5757418942,
      "amenity": "restaurant",
      "cuisine": "japanese",
      "takeaway": "yes",
      "outdoor_seating": "no",
      "addr_state": "TX",
      "addr_city": "Richmond",
      "addr_postcode": "77469",
      "addr_street": "Farm to Market 359",
      "addr_housenumber": "1800"
    },
    {
      "id": 236327,
      "geometry": "POINT (-95.590126 29.770437)",
      "poi_name": "Luchi & Joey's",
      "osm_id": 5790105015,
      "amenity": "restaurant",
      "cuisine": "tacos;mexican",
      "website": "https://luchiandjoeys.com/",
      "takeaway": "yes",
      "addr_state": "TX",
      "addr_city": "Houston",
      "addr_postcode": "77079",
      "addr_street": "Memorial Drive",
      "addr_housenumber": "14005"
    },
    {
      "id": 229626,
      "geometry": "POINT (-95.818282 29.77094)",
      "poi_name": "Pizza Bella",
      "osm_id": 4389799899,
      "amenity": "restaurant",
      "cuisine": "pizza",
      "capacity": "25",
      "takeaway": "yes",
      "delivery": "no",
      "addr_state": "TX",
      "addr_city": "Katy",
      "addr_postcode": "77494",
      "addr_street": "Pin Oak Road",
      "addr_housenumber": "1306"
    },
    {
      "id": 235490,
      "geometry": "POINT (-95.74307 29.618706)",
      "poi_name": "49ers Grill",
      "osm_id": 5757418941,
      "amenity": "restaurant",
      "takeaway": "yes",
      "outdoor_seating": "yes",
      "delivery": "no",
      "addr_state": "TX",
      "addr_city": "Richmond",
      "addr_postcode": "77469",
      "addr_street": "Farm to market 359",
      "addr_housenumber": "1800"
    },
    {
      "id": 235558,
      "geometry": "POINT (-95.744398 29.624897)",
      "poi_name": "Pizza Hut",
      "osm_id": 5759436148,
      "amenity": "restaurant",
      "cuisine": "pizza",
      "takeaway": "yes",
      "delivery": "yes"
    },
    {
      "id": 238218,
      "geometry": "POINT (-95.431389 29.827531)",
      "poi_name": "Pizza Hut",
      "osm_id": 5867045588,
      "amenity": "restaurant",
      "cuisine": "pizza",
      "wheelchair": "yes",
      "opening_hours": "Mo-Th,Su 11:00-23:00; Fr-Sa 11:00-24:00",
      "takeaway": "yes",
      "delivery": "yes",
      "addr_state": "TX",
      "addr_city": "Houston",
      "addr_street": "West 43rd Street",
      "addr_housenumber": "1227"
    },
    {
      "id": 239074,
      "geometry": "POINT (-95.094469 29.548427)",
      "poi_name": "NASA Fast Food",
      "osm_id": 5903101779,
      "amenity": "restaurant",
      "cuisine": "vietnamese",
      "takeaway": "yes"
    },
    {
      "id": 239898,
      "geometry": "POINT (-95.235358 30.133078)",
      "poi_name": "Lin's China Diner",
      "osm_id": 5941656797,
      "amenity": "restaurant",
      "cuisine": "chinese",
      "website": "http://linschinadiner.com/",
      "phone": "+1-281-747-2300",
      "takeaway": "yes",
      "addr_state": "TX",
      "addr_city": "New Caney",
      "addr_postcode": "77357",
      "addr_street": "Market Place Drive",
      "addr_housenumber": "21968"
    },
    {
      "id": 243247,
      "geometry": "POINT (-95.246991 30.064386)",
      "poi_name": "Luby's",
      "osm_id": 7635824490,
      "amenity": "restaurant",
      "cuisine": "american",
      "website": "https://www.lubys.com/kingwood-eastex-frwy",
      "internet_access": "wlan",
      "phone": "+1-281-359-6180",
      "takeaway": "yes",
      "addr_state": "TX",
      "addr_city": "Kingwood",
      "addr_postcode": "77339",
      "addr_street": "Highway 59 North",
      "addr_housenumber": "24004"
    }
  ],
  "answer_type": "name",
  "question_entities": {
    "[1]": {
      "main_category": "amenity",
      "sub_category": "restaurant",
      "poi_filter_desc": "takeout restaurant",
      "poi_filter_sql": "takeaway ILIKE '%yes%'"
    },
    "[2]": {
      "distance": 130000,
      "text": "130 kilometers"
    },
    "[3]": {
      "main_category": "leisure",
      "sub_category": "garden",
      "display_name": "Downtown Gazebo, Lake Jackson, TX",
      "geo_wkt": "POINT (-95.450044 29.041946)",
      "poi": {
        "id": 248644,
        "geometry": "POINT (-95.450044 29.041946)",
        "poi_name": "Downtown Gazebo",
        "osm_id": 4714526068,
        "leisure": "garden",
        "addr_state": "TX",
        "addr_city": "Lake Jackson",
        "addr_postcode": "77566",
        "addr_street": "Parking Way"
      }
    }
  },
  "id": 527,
  "type": "range:non_spat_filter+name"
}