{
  "question": "What restaurant can I find in the direction of Hampton Inn & Suites Las Vegas Convention Center, Las Vegas, NV from CSI: the Experience, Las Vegas, NV, within a radius of 180 kilometers?",
  "sql": "WITH\n    angle AS (SELECT degrees(ST_Azimuth(ST_GeomFromText('POINT (-115.170869 36.1016)',4326)::geography, ST_GeomFromText('POINT (-115.146458 36.126677)',4326)::geography)) AS value)\nSELECT * FROM pois,angle\nWHERE amenity = 'restaurant'\nAND ST_DWithin(pois.geometry, ST_GeomFromText('POINT (-115.170869 36.1016)',4326)::geography, 180000)\nAND (degrees(ST_Azimuth(ST_GeomFromText('POINT (-115.170869 36.1016)',4326)::geography, pois.geometry)) BETWEEN angle.value - 22.5 AND angle.value + 22.5);\n",
  "answers": [
    {
      "id": 33007,
      "geometry": "POINT (-115.142748 36.169522)",
      "poi_name": "Andiamo Italian Steakhouse",
      "osm_id": 2645244780,
      "amenity": "restaurant",
      "cuisine": "italian",
      "website": "https://www.thed.com/dining/andiamo-steakhouse/",
      "phone": "+1 702 388 2220",
      "addr_city": "Las Vegas",
      "addr_postcode": "89101",
      "addr_street": "Fremont Street Experience",
      "addr_housenumber": "301",
      "value": 38.29619139666765
    },
    {
      "id": 29298,
      "geometry": "POINT (-115.147258 36.15955)",
      "poi_name": "Dona Maria tamales",
      "osm_id": 8294827017,
      "amenity": "restaurant",
      "cuisine": "mexican",
      "opening_hours": "Su-Th 08:00-21:00; Fr-Sa 08:00-22:00",
      "website": "http://www.do\u00f1amariatemales.com",
      "internet_access": "wlan",
      "phone": "+1(702)382-6538",
      "addr_postcode": "89101",
      "addr_street": "South Las Vegas Boulevard",
      "addr_housenumber": "910",
      "value": 38.29619139666765
    },
    {
      "id": 30908,
      "geometry": "POINT (-113.61906 37.098548)",
      "poi_name": "Tifiny's Creperie",
      "osm_id": 8392536817,
      "amenity": "restaurant",
      "opening_hours": "Mo-Sa 10:00-19:00",
      "website": "https://www.tifinyscreperie.com",
      "phone": "+1 435 879 3363",
      "addr_postcode": "84770",
      "addr_street": "South Valley View Drive",
      "addr_housenumber": "567",
      "value": 38.29619139666765
    },
    {
      "id": 33008,
      "geometry": "POINT (-115.142839 36.169518)",
      "poi_name": "American Coney Island",
      "osm_id": 2645245665,
      "amenity": "restaurant",
      "cuisine": "american",
      "website": "https://www.thed.com/dining/american-coney-island-2/",
      "phone": "+1 702 388 2120",
      "addr_city": "Las Vegas",
      "addr_postcode": "89101",
      "addr_street": "Fremont Street Experience",
      "addr_housenumber": "301",
      "value": 38.29619139666765
    },
    {
      "id": 36706,
      "geometry": "POINT (-115.061676 36.160544)",
      "poi_name": "Olive Garden",
      "osm_id": 2780650188,
      "amenity": "restaurant",
      "cuisine": "italian",
      "opening_hours": "Su-Th 11:00-22:00; Fr-Sa 11:00-23:00",
      "website": "https://www.olivegarden.com/",
      "phone": "17024380082",
      "addr_postcode": "89110",
      "addr_street": "North Nellis Boulevard",
      "addr_housenumber": "80",
      "value": 38.29619139666765
    },
    {
      "id": 33482,
      "geometry": "POINT (-115.142522 36.169561)",
      "poi_name": "D Grill",
      "osm_id": 2669698757,
      "amenity": "restaurant",
      "website": "https://www.thed.com/dining/the-d-grill/",
      "phone": "+1 702 388 2400",
      "addr_city": "Las Vegas",
      "addr_postcode": "89101",
      "addr_street": "Fremont Street Experience",
      "addr_housenumber": "301",
      "value": 38.29619139666765
    },
    {
      "id": 36056,
      "geometry": "POINT (-115.082853 36.155071)",
      "poi_name": "Golden Corral",
      "osm_id": 2746598422,
      "amenity": "restaurant",
      "cuisine": "american;buffet",
      "website": "https://goldencorral.com/",
      "phone": "(702) 685-9595",
      "addr_street": "North Lamb Boulevard",
      "addr_housenumber": "1455",
      "value": 38.29619139666765
    },
    {
      "id": 35890,
      "geometry": "POINT (-115.062577 36.162523)",
      "poi_name": "Buffet @ Asia",
      "osm_id": 2735776351,
      "amenity": "restaurant",
      "cuisine": "asian",
      "value": 38.29619139666765
    },
    {
      "id": 72269,
      "geometry": "POINT (-115.142553 36.142024)",
      "poi_name": "Madang Garden",
      "osm_id": 11418706847,
      "amenity": "restaurant",
      "cuisine": "korean",
      "addr_state": "NV",
      "addr_city": "Las Vegas",
      "addr_postcode": "89104",
      "addr_street": "East Sahara Avenue",
      "addr_housenumber": "953",
      "value": 38.29619139666765
    },
    {
      "id": 40081,
      "geometry": "POINT (-113.622451 37.123207)",
      "poi_name": "Hungry Howies Pizza",
      "osm_id": 2956957356,
      "amenity": "restaurant",
      "cuisine": "pizza",
      "value": 38.29619139666765
    },
    {
      "id": 61314,
      "geometry": "POINT (-115.155146 36.144593)",
      "poi_name": "Thai Pepper",
      "osm_id": 5512699866,
      "amenity": "restaurant",
      "cuisine": "thai",
      "value": 38.29619139666765
    },
    {
      "id": 62913,
      "geometry": "POINT (-115.125625 36.218735)",
      "poi_name": "Tacos El Gordo",
      "osm_id": 5593143158,
      "amenity": "restaurant",
      "cuisine": "mexican",
      "value": 38.29619139666765
    },
    {
      "id": 70603,
      "geometry": "POINT (-115.168458 36.103516)",
      "poi_name": "International Smoke",
      "osm_id": 11367634619,
      "amenity": "restaurant",
      "outdoor_seating": "no",
      "value": 38.29619139666765
    },
    {
      "id": 70605,
      "geometry": "POINT (-115.170304 36.102374)",
      "poi_name": "Grand Wok Noodle Bar",
      "osm_id": 11367642279,
      "amenity": "restaurant",
      "outdoor_seating": "no",
      "addr_state": "NV",
      "addr_city": "Las Vegas",
      "value": 38.29619139666765
    },
    {
      "id": 71405,
      "geometry": "POINT (-113.512524 37.007447)",
      "poi_name": "Sidecar Cafe",
      "osm_id": 11388707683,
      "amenity": "restaurant",
      "cuisine": "american",
      "website": "https://www.thesidecarcafe.com/",
      "phone": "+1 (435) 291-1757",
      "outdoor_seating": "yes",
      "addr_state": "UT",
      "addr_city": "St. George",
      "addr_postcode": "84790",
      "addr_street": "Desert Canyons Parkway",
      "addr_housenumber": "3480",
      "value": 38.29619139666765
    },
    {
      "id": 59817,
      "geometry": "POINT (-113.66064 37.146808)",
      "poi_name": "Cafe Rio",
      "osm_id": 5444078631,
      "amenity": "restaurant",
      "cuisine": "mexican",
      "value": 38.29619139666765
    },
    {
      "id": 59964,
      "geometry": "POINT (-115.154037 36.119013)",
      "poi_name": "Toscano",
      "osm_id": 5450526144,
      "amenity": "restaurant",
      "value": 38.29619139666765
    },
    {
      "id": 59967,
      "geometry": "POINT (-115.156435 36.11503)",
      "poi_name": "Fogo de Ch\u00e3o",
      "osm_id": 5450526149,
      "amenity": "restaurant",
      "cuisine": "brazilian;steak_house",
      "value": 38.29619139666765
    },
    {
      "id": 59968,
      "geometry": "POINT (-115.158604 36.114899)",
      "poi_name": "H2O",
      "osm_id": 5450526150,
      "amenity": "restaurant",
      "cuisine": "japanese",
      "value": 38.29619139666765
    },
    {
      "id": 59969,
      "geometry": "POINT (-115.154484 36.119092)",
      "poi_name": "Tacos & Beer",
      "osm_id": 5450526958,
      "amenity": "restaurant",
      "value": 38.29619139666765
    },
    {
      "id": 59970,
      "geometry": "POINT (-115.153953 36.118817)",
      "poi_name": "Urban Turban",
      "osm_id": 5450526959,
      "amenity": "restaurant",
      "cuisine": "indian",
      "value": 38.29619139666765
    },
    {
      "id": 59972,
      "geometry": "POINT (-115.15555 36.114915)",
      "poi_name": "Pieology Pizzeria",
      "osm_id": 5450526962,
      "amenity": "restaurant",
      "cuisine": "pizza",
      "value": 38.29619139666765
    },
    {
      "id": 59973,
      "geometry": "POINT (-115.156996 36.115016)",
      "poi_name": "Claim Jumper",
      "osm_id": 5450526963,
      "amenity": "restaurant",
      "cuisine": "american",
      "operator": "Landry's",
      "value": 38.29619139666765
    },
    {
      "id": 59975,
      "geometry": "POINT (-115.154408 36.1199)",
      "poi_name": "Firefly",
      "osm_id": 5450535934,
      "amenity": "restaurant",
      "cuisine": "tapas",
      "opening_hours": "Mo-Th 11:30-01:00; Fr-Sa 11:30-02:00; Su 10:00-01:00",
      "website": "https://fireflylv.com/",
      "phone": "7023693971",
      "addr_street": "Paradise Road",
      "addr_housenumber": "3824",
      "value": 38.29619139666765
    },
    {
      "id": 59976,
      "geometry": "POINT (-115.155259 36.116947)",
      "poi_name": "Gordon Biersch",
      "osm_id": 5450535936,
      "amenity": "restaurant",
      "website": "https://gordonbiersch.com",
      "value": 38.29619139666765
    },
    {
      "id": 59979,
      "geometry": "POINT (-115.1586 36.114602)",
      "poi_name": "Bandito",
      "osm_id": 5450535939,
      "amenity": "restaurant",
      "cuisine": "coffee_shop",
      "opening_hours": "Mo-We 04:30-24:00; Th-Su 04:30-00:30",
      "website": "http://www.starbuck.com",
      "internet_access": "wlan",
      "value": 38.29619139666765
    },
    {
      "id": 62714,
      "geometry": "POINT (-115.138606 36.167614)",
      "poi_name": "BBQ",
      "osm_id": 5583577065,
      "amenity": "restaurant",
      "cuisine": "barbecue",
      "value": 38.29619139666765
    },
    {
      "id": 62715,
      "geometry": "POINT (-115.140608 36.167873)",
      "poi_name": "Carson Kitchen",
      "osm_id": 5583644715,
      "amenity": "restaurant",
      "cuisine": "tapas;american",
      "wheelchair": "yes",
      "opening_hours": "Mo-Th 12:00-21:00; Fr-Sa 12:00-22:00; Su 11:00-21:00",
      "website": "https://carsonkitchen.com/",
      "phone": "+1 702-473-9523",
      "takeaway": "yes",
      "wikidata": "Q61982078",
      "addr_state": "NV",
      "addr_city": "Las Vegas",
      "addr_postcode": "89101",
      "addr_street": "South 6th Street",
      "addr_housenumber": "124",
      "value": 38.29619139666765
    },
    {
      "id": 70907,
      "geometry": "POINT (-115.168204 36.103559)",
      "poi_name": "Blizz Frozen Yogurt & Deserts",
      "osm_id": 11376205910,
      "amenity": "restaurant",
      "value": 38.29619139666765
    },
    {
      "id": 70909,
      "geometry": "POINT (-115.167983 36.103518)",
      "poi_name": "Nellie's",
      "osm_id": 11376210087,
      "amenity": "restaurant",
      "value": 38.29619139666765
    },
    {
      "id": 70910,
      "geometry": "POINT (-115.169024 36.102699)",
      "poi_name": "Morimoto",
      "osm_id": 11376210370,
      "amenity": "restaurant",
      "cuisine": "japanese",
      "addr_state": "NV",
      "addr_city": "Las Vegas",
      "value": 38.29619139666765
    },
    {
      "id": 75213,
      "geometry": "POINT (-115.163396 36.113252)",
      "poi_name": "Village Pub",
      "osm_id": 9719070375,
      "amenity": "restaurant",
      "value": 38.29619139666765
    },
    {
      "id": 75214,
      "geometry": "POINT (-115.163292 36.1132)",
      "poi_name": "Ellis Island Barbecue",
      "osm_id": 9719070376,
      "amenity": "restaurant",
      "cuisine": "barbecue",
      "value": 38.29619139666765
    },
    {
      "id": 93051,
      "geometry": "POINT (-115.141484 36.169961)",
      "poi_name": "Denny's",
      "osm_id": 2146969419,
      "amenity": "restaurant",
      "cuisine": "american",
      "value": 38.29619139666765
    },
    {
      "id": 76910,
      "geometry": "POINT (-113.662665 37.146291)",
      "poi_name": "Royal Thai Cuisine Express",
      "osm_id": 9796626998,
      "amenity": "restaurant",
      "cuisine": "thai",
      "value": 38.29619139666765
    },
    {
      "id": 92990,
      "geometry": "POINT (-115.139059 36.166885)",
      "poi_name": "eat.",
      "osm_id": 2143523656,
      "amenity": "restaurant",
      "website": "eatdowntownlv.com",
      "value": 38.29619139666765
    },
    {
      "id": 93116,
      "geometry": "POINT (-115.140358 36.168947)",
      "poi_name": "Kabob Korner",
      "osm_id": 2149942888,
      "amenity": "restaurant",
      "cuisine": "kebab",
      "addr_street": "Fremont Street",
      "addr_housenumber": "507",
      "value": 38.29619139666765
    },
    {
      "id": 86634,
      "geometry": "POINT (-115.151548 36.155602)",
      "poi_name": "Vegas Vegan Culinary School & Eatery",
      "osm_id": 1941820087,
      "amenity": "restaurant",
      "wheelchair": "yes",
      "opening_hours": "We-Sa 08:30-21:00; Su 09:00-17:00",
      "website": "https://vegasveganculinary.com/",
      "internet_access": "wlan",
      "phone": "+1 702-478-6777",
      "takeaway": "yes",
      "outdoor_seating": "yes",
      "delivery": "We,Fr-Sa 08:30-21:00; Su 09:00-17:00",
      "toilets": "yes",
      "addr_state": "NV",
      "addr_city": "Las Vegas",
      "addr_postcode": "89104",
      "addr_street": "South 3rd Street",
      "addr_housenumber": "1310",
      "value": 38.29619139666765
    },
    {
      "id": 87138,
      "geometry": "POINT (-113.587332 37.082756)",
      "poi_name": "Haven",
      "osm_id": 1974037861,
      "amenity": "restaurant",
      "cuisine": "american",
      "description": "great american cuisine",
      "value": 38.29619139666765
    },
    {
      "id": 92939,
      "geometry": "POINT (-115.139889 36.168749)",
      "poi_name": "Le Thai",
      "osm_id": 2142151360,
      "amenity": "restaurant",
      "cuisine": "thai",
      "wheelchair": "yes",
      "internet_access": "no",
      "takeaway": "yes",
      "outdoor_seating": "yes",
      "addr_street": "Fremont Street",
      "addr_housenumber": "523",
      "value": 38.29619139666765
    },
    {
      "id": 92940,
      "geometry": "POINT (-115.14081 36.169492)",
      "poi_name": "Heart Attack Grill",
      "osm_id": 2142152213,
      "amenity": "restaurant",
      "cuisine": "american",
      "website": "https://www.heartattackgrill.com/",
      "wikidata": "Q2068768",
      "addr_state": "NV",
      "addr_city": "Las Vegas",
      "addr_postcode": "89101",
      "addr_street": "Fremont St",
      "addr_housenumber": "450",
      "value": 38.29619139666765
    },
    {
      "id": 93069,
      "geometry": "POINT (-115.140427 36.168974)",
      "poi_name": "Uncle Joe's",
      "osm_id": 2148184438,
      "amenity": "restaurant",
      "cuisine": "pizza",
      "addr_street": "Fremont Street",
      "addr_housenumber": "505",
      "value": 38.29619139666765
    },
    {
      "id": 93493,
      "geometry": "POINT (-115.140118 36.16917)",
      "poi_name": "Evel Pie",
      "osm_id": 2168310883,
      "amenity": "restaurant",
      "cuisine": "pizza",
      "website": "https://www.evelpie.com/",
      "addr_postcode": "89101",
      "addr_street": "E. Fremont Street",
      "addr_housenumber": "508",
      "value": 38.29619139666765
    },
    {
      "id": 93363,
      "geometry": "POINT (-115.14208 36.171835)",
      "poi_name": "Triple George Grill",
      "osm_id": 2161291763,
      "amenity": "restaurant",
      "value": 38.29619139666765
    },
    {
      "id": 93389,
      "geometry": "POINT (-115.142966 36.143464)",
      "poi_name": "Lotus of Siam",
      "osm_id": 2162297617,
      "amenity": "restaurant",
      "cuisine": "thai",
      "opening_hours": "Mo-Fr 11:30-14:30; Mo-Su 17:30-22:00",
      "website": "https://lotusofsiamlv.com/",
      "phone": "+1-702-735-3033",
      "addr_state": "NV",
      "addr_city": "Las Vegas",
      "addr_postcode": "89104",
      "addr_street": "East Sahara Ave",
      "addr_housenumber": "953",
      "value": 38.29619139666765
    },
    {
      "id": 93396,
      "geometry": "POINT (-115.145555 36.169598)",
      "poi_name": "Carson Street Cafe",
      "osm_id": 2162916504,
      "amenity": "restaurant",
      "value": 38.29619139666765
    },
    {
      "id": 93397,
      "geometry": "POINT (-115.145883 36.170274)",
      "poi_name": "Chart House",
      "osm_id": 2162916505,
      "amenity": "restaurant",
      "value": 38.29619139666765
    },
    {
      "id": 93398,
      "geometry": "POINT (-115.145702 36.169365)",
      "poi_name": "Lillie's Asian Cuisine",
      "osm_id": 2162916506,
      "amenity": "restaurant",
      "value": 38.29619139666765
    },
    {
      "id": 93400,
      "geometry": "POINT (-115.14558 36.170514)",
      "poi_name": "Red Sushi",
      "osm_id": 2162916508,
      "amenity": "restaurant",
      "value": 38.29619139666765
    },
    {
      "id": 93401,
      "geometry": "POINT (-115.145131 36.170409)",
      "poi_name": "Vic & Anthony's",
      "osm_id": 2162916509,
      "amenity": "restaurant",
      "value": 38.29619139666765
    },
    {
      "id": 93645,
      "geometry": "POINT (-115.14408 36.168144)",
      "poi_name": "El Gaucho Luca Cafe",
      "osm_id": 2178810809,
      "amenity": "restaurant",
      "value": 38.29619139666765
    },
    {
      "id": 94572,
      "geometry": "POINT (-115.126592 36.158586)",
      "poi_name": "Tacos El Gordo",
      "osm_id": 6369045685,
      "amenity": "restaurant",
      "cuisine": "mexican",
      "website": "http://www.tacoselgordobc.com",
      "phone": "+1 702-251-8226",
      "addr_postcode": "89104",
      "addr_street": "East Charleston Boulevard",
      "addr_housenumber": "1724",
      "value": 38.29619139666765
    },
    {
      "id": 111352,
      "geometry": "POINT (-115.081785 36.143876)",
      "poi_name": "Abuelas Tacos",
      "osm_id": 3743415589,
      "amenity": "restaurant",
      "cuisine": "mexican",
      "value": 38.29619139666765
    },
    {
      "id": 96535,
      "geometry": "POINT (-115.084492 36.195973)",
      "poi_name": "El Pollo Mobile",
      "osm_id": 6436213885,
      "amenity": "restaurant",
      "addr_postcode": "89030",
      "addr_street": "East Lake Mead Boulevard",
      "addr_housenumber": "2400",
      "value": 38.29619139666765
    },
    {
      "id": 99351,
      "geometry": "POINT (-114.759566 36.499847)",
      "poi_name": "Tu Ka Kahn",
      "osm_id": 6548574549,
      "amenity": "restaurant",
      "value": 38.29619139666765
    },
    {
      "id": 109119,
      "geometry": "POINT (-113.585248 37.096133)",
      "poi_name": "Irmita's Casita",
      "osm_id": 3649766948,
      "amenity": "restaurant",
      "cuisine": "mexican",
      "value": 38.29619139666765
    },
    {
      "id": 109578,
      "geometry": "POINT (-113.58515 37.090902)",
      "poi_name": "Garden Buffet",
      "osm_id": 3666247935,
      "amenity": "restaurant",
      "cuisine": "chinese",
      "value": 38.29619139666765
    },
    {
      "id": 109923,
      "geometry": "POINT (-115.150968 36.153057)",
      "poi_name": "Boston Pizza",
      "osm_id": 3678389982,
      "amenity": "restaurant",
      "cuisine": "pizza",
      "opening_hours": "Mo-Su 00:00-03:30,10:00-24:00",
      "website": "http://www.bostonpizzavegas.com",
      "phone": "+1(702)385-2595",
      "addr_postcode": "89104",
      "addr_street": "South Las Vegas Boulevard",
      "addr_housenumber": "1507",
      "value": 38.29619139666765
    },
    {
      "id": 109924,
      "geometry": "POINT (-115.149904 36.154781)",
      "poi_name": "Florida Cafe Cuban Bar & Grill",
      "osm_id": 3678389984,
      "amenity": "restaurant",
      "cuisine": "cuban",
      "addr_city": "Las Vegas",
      "addr_postcode": "89104",
      "addr_street": "South Las Vegas Boulevard",
      "addr_housenumber": "1401",
      "value": 38.29619139666765
    },
    {
      "id": 122759,
      "geometry": "POINT (-115.082967 36.223288)",
      "poi_name": "Hitching Post Saloon & Steakhouse",
      "osm_id": 6817701585,
      "amenity": "restaurant",
      "internet_access": "wlan",
      "addr_street": "North Las Vegas Boulevard",
      "value": 38.29619139666765
    },
    {
      "id": 111283,
      "geometry": "POINT (-115.113511 36.1294)",
      "poi_name": "Original Lindo Michoacan",
      "osm_id": 3739930626,
      "amenity": "restaurant",
      "website": "https://lindomichoacan.com/",
      "phone": "(702) 735-6828",
      "addr_state": "NV",
      "addr_city": "Las Vegas",
      "addr_postcode": "89121",
      "addr_street": "East Desert Inn Road",
      "addr_housenumber": "2655",
      "value": 38.29619139666765
    },
    {
      "id": 113449,
      "geometry": "POINT (-115.063846 36.174421)",
      "poi_name": "Thai Cuisine",
      "osm_id": 3834980728,
      "amenity": "restaurant",
      "cuisine": "thai",
      "value": 38.29619139666765
    },
    {
      "id": 113454,
      "geometry": "POINT (-115.061669 36.178206)",
      "poi_name": "La Pupusa Loca",
      "osm_id": 3835157626,
      "amenity": "restaurant",
      "value": 38.29619139666765
    },
    {
      "id": 113455,
      "geometry": "POINT (-115.062965 36.180078)",
      "poi_name": "Tacos Los Toritos",
      "osm_id": 3835157974,
      "amenity": "restaurant",
      "cuisine": "mexican",
      "value": 38.29619139666765
    },
    {
      "id": 113456,
      "geometry": "POINT (-115.064787 36.173618)",
      "poi_name": "The Blue Skillet",
      "osm_id": 3835157992,
      "amenity": "restaurant",
      "value": 38.29619139666765
    },
    {
      "id": 113459,
      "geometry": "POINT (-115.06165 36.168307)",
      "poi_name": "Applebee's",
      "osm_id": 3835158033,
      "amenity": "restaurant",
      "cuisine": "american",
      "official_name": "Applebee's Neighborhood Grill & Bar",
      "addr_state": "NV",
      "value": 38.29619139666765
    },
    {
      "id": 113461,
      "geometry": "POINT (-115.063776 36.167696)",
      "poi_name": "Hibachi Grill and Supreme Buffet",
      "osm_id": 3835158057,
      "amenity": "restaurant",
      "phone": "(702) 531-8588",
      "takeaway": "yes",
      "addr_city": "Las Vegas",
      "addr_postcode": "89110",
      "addr_street": "North Nellis Boulevard",
      "addr_housenumber": "313",
      "value": 38.29619139666765
    },
    {
      "id": 113462,
      "geometry": "POINT (-115.063665 36.166941)",
      "poi_name": "Cicis",
      "osm_id": 3835158058,
      "amenity": "restaurant",
      "cuisine": "pizza;buffet",
      "value": 38.29619139666765
    },
    {
      "id": 113464,
      "geometry": "POINT (-115.06265 36.16573)",
      "poi_name": "Los Burritos",
      "osm_id": 3835158061,
      "amenity": "restaurant",
      "cuisine": "mexican",
      "value": 38.29619139666765
    },
    {
      "id": 113466,
      "geometry": "POINT (-115.061616 36.165595)",
      "poi_name": "IHOP",
      "osm_id": 3835158063,
      "amenity": "restaurant",
      "cuisine": "breakfast;pancake",
      "opening_hours": "24/7",
      "website": "http://www.IHop.com",
      "phone": "17024382000",
      "addr_postcode": "89110",
      "addr_street": "North Nellis Boulevard",
      "addr_housenumber": "352",
      "value": 38.29619139666765
    },
    {
      "id": 121562,
      "geometry": "POINT (-115.149838 36.115133)",
      "poi_name": "Lotus of Siam",
      "osm_id": 6767167988,
      "amenity": "restaurant",
      "addr_street": "East Flamingo Road",
      "addr_housenumber": "620",
      "value": 38.29619139666765
    },
    {
      "id": 112570,
      "geometry": "POINT (-115.10935 36.130522)",
      "poi_name": "Pizza Hut",
      "osm_id": 3796637537,
      "amenity": "restaurant",
      "cuisine": "pizza",
      "opening_hours": "Su-Th 10:30-23:00; Fr-Sa 10:30-24:00",
      "phone": "+17027359011",
      "addr_postcode": "89121",
      "addr_street": "East Desert Inn Road",
      "addr_housenumber": "3050",
      "value": 38.29619139666765
    },
    {
      "id": 113770,
      "geometry": "POINT (-115.153222 36.114835)",
      "poi_name": "Morton's The Steakhouse",
      "osm_id": 3845998075,
      "amenity": "restaurant",
      "cuisine": "steak_house",
      "value": 38.29619139666765
    },
    {
      "id": 113771,
      "geometry": "POINT (-115.151836 36.11497)",
      "poi_name": "Buca di Beppo",
      "osm_id": 3845998076,
      "amenity": "restaurant",
      "cuisine": "italian",
      "opening_hours": "Mo-Th 11:00-22:00; Fr-Sa 11:00-23:00; Su 11:00-21:00",
      "website": "http://www.bucadebeppo.com",
      "phone": "+17028662867",
      "addr_postcode": "89169-4813",
      "addr_street": "East Flamingo Road",
      "addr_housenumber": "412",
      "value": 38.29619139666765
    },
    {
      "id": 124167,
      "geometry": "POINT (-115.139235 36.167329)",
      "poi_name": "7th & Carson",
      "osm_id": 6901273285,
      "amenity": "restaurant",
      "cuisine": "american",
      "opening_hours": "Mo-Sa 09:00-20:00; Su 09:00-17:00",
      "website": "https://www.7thandcarson.com/",
      "phone": "+17028683355",
      "addr_state": "NV",
      "addr_city": "Las Vegas",
      "addr_postcode": "89101",
      "addr_street": "E. Carson Avenue",
      "addr_housenumber": "616",
      "value": 38.29619139666765
    },
    {
      "id": 123693,
      "geometry": "POINT (-115.025803 36.194191)",
      "poi_name": "Pizza Hut",
      "osm_id": 6873409715,
      "amenity": "restaurant",
      "cuisine": "pizza",
      "value": 38.29619139666765
    },
    {
      "id": 124335,
      "geometry": "POINT (-115.145606 36.161302)",
      "poi_name": "Rick's Rollin Smoke BBQ & Tavern",
      "osm_id": 6911837785,
      "amenity": "restaurant",
      "cuisine": "barbecue",
      "value": 38.29619139666765
    },
    {
      "id": 144809,
      "geometry": "POINT (-115.153224 36.149353)",
      "poi_name": "IHOP",
      "osm_id": 7287942585,
      "amenity": "restaurant",
      "cuisine": "breakfast;pancake",
      "opening_hours": "24/7",
      "website": "https://www.ihop.com/",
      "internet_access": "wlan",
      "phone": "+1-702-331-4436",
      "addr_postcode": "89104",
      "addr_street": "South Las Vegas Boulevard",
      "addr_housenumber": "1809",
      "value": 38.29619139666765
    },
    {
      "id": 128706,
      "geometry": "POINT (-115.153715 36.150074)",
      "poi_name": "Tacos Mexico",
      "osm_id": 8179632618,
      "amenity": "restaurant",
      "cuisine": "mexican",
      "opening_hours": "24/7",
      "phone": "+1(702)444-2288",
      "addr_postcode": "89104",
      "addr_street": "South Las Vegas Boulevard",
      "addr_housenumber": "1800",
      "value": 38.29619139666765
    },
    {
      "id": 134936,
      "geometry": "POINT (-115.142553 36.142178)",
      "poi_name": "Nigerian Food",
      "osm_id": 11496542399,
      "amenity": "restaurant",
      "cuisine": "african",
      "opening_hours": "Mo-Sa 11:00-20:00",
      "website": "https://www.nigerianfoodlv.com/",
      "phone": "+1-702-684-9023",
      "addr_state": "NV",
      "addr_city": "Las Vegas",
      "addr_postcode": "89104",
      "addr_street": "East Sahara Avenue",
      "addr_housenumber": "953",
      "value": 38.29619139666765
    },
    {
      "id": 146452,
      "geometry": "POINT (-113.564889 37.053179)",
      "poi_name": "Royal Thai Cuisine",
      "osm_id": 7443647823,
      "amenity": "restaurant",
      "cuisine": "thai",
      "value": 38.29619139666765
    },
    {
      "id": 148131,
      "geometry": "POINT (-115.151701 36.120888)",
      "poi_name": "India Palace",
      "osm_id": 3931648681,
      "amenity": "restaurant",
      "value": 38.29619139666765
    },
    {
      "id": 150369,
      "geometry": "POINT (-115.137315 36.133869)",
      "poi_name": "Denny's",
      "osm_id": 4052483499,
      "amenity": "restaurant",
      "cuisine": "american",
      "value": 38.29619139666765
    },
    {
      "id": 150377,
      "geometry": "POINT (-115.137271 36.137831)",
      "poi_name": "La Mojarra Loca",
      "osm_id": 4052503759,
      "amenity": "restaurant",
      "cuisine": "mexican",
      "value": 38.29619139666765
    },
    {
      "id": 150378,
      "geometry": "POINT (-115.137588 36.139291)",
      "poi_name": "Pizza Hut",
      "osm_id": 4052503788,
      "amenity": "restaurant",
      "cuisine": "pizza",
      "value": 38.29619139666765
    },
    {
      "id": 150379,
      "geometry": "POINT (-115.136448 36.141058)",
      "poi_name": "DJ Bibingkahan",
      "osm_id": 4052505250,
      "amenity": "restaurant",
      "cuisine": "filipino",
      "value": 38.29619139666765
    },
    {
      "id": 150381,
      "geometry": "POINT (-115.136483 36.142164)",
      "poi_name": "China Star of Vegas",
      "osm_id": 4052505252,
      "amenity": "restaurant",
      "cuisine": "chinese",
      "website": "http://www.chinastarlasvegas.com",
      "phone": "7027316822",
      "value": 38.29619139666765
    },
    {
      "id": 151785,
      "geometry": "POINT (-115.116409 36.158357)",
      "poi_name": "Pepe's Tacos",
      "osm_id": 4113362314,
      "amenity": "restaurant",
      "cuisine": "mexican",
      "value": 38.29619139666765
    },
    {
      "id": 153143,
      "geometry": "POINT (-115.079404 36.181287)",
      "poi_name": "Roberto's Taco Shop",
      "osm_id": 4179884599,
      "amenity": "restaurant",
      "value": 38.29619139666765
    },
    {
      "id": 158942,
      "geometry": "POINT (-115.134396 36.166736)",
      "poi_name": "Chow",
      "osm_id": 4770476643,
      "amenity": "restaurant",
      "value": 38.29619139666765
    },
    {
      "id": 153425,
      "geometry": "POINT (-114.062541 36.811267)",
      "poi_name": "Thai House Restaurant",
      "osm_id": 4196332590,
      "amenity": "restaurant",
      "cuisine": "thai",
      "opening_hours": "Mo-Sa 11:00-21:00",
      "phone": "(702)345-3228",
      "addr_postcode": "89027",
      "addr_street": "North Sandhill Boulevard",
      "addr_housenumber": "430",
      "value": 38.29619139666765
    },
    {
      "id": 153426,
      "geometry": "POINT (-114.063065 36.810275)",
      "poi_name": "Peggy Sue's",
      "osm_id": 4196332591,
      "amenity": "restaurant",
      "value": 38.29619139666765
    },
    {
      "id": 156369,
      "geometry": "POINT (-113.590817 37.099542)",
      "poi_name": "Cliffside Restaurant",
      "osm_id": 4653048725,
      "amenity": "restaurant",
      "value": 38.29619139666765
    },
    {
      "id": 156370,
      "geometry": "POINT (-113.586063 37.089874)",
      "poi_name": "Pier 49 Pizza",
      "osm_id": 4653086708,
      "amenity": "restaurant",
      "cuisine": "pizza",
      "value": 38.29619139666765
    },
    {
      "id": 156371,
      "geometry": "POINT (-113.586382 37.090159)",
      "poi_name": "Pancho & Lefty's",
      "osm_id": 4653086709,
      "amenity": "restaurant",
      "cuisine": "mexican",
      "value": 38.29619139666765
    },
    {
      "id": 156372,
      "geometry": "POINT (-113.586043 37.089273)",
      "poi_name": "Ristorante Italiano Chef Alfredo's",
      "osm_id": 4653086710,
      "amenity": "restaurant",
      "cuisine": "italian",
      "value": 38.29619139666765
    },
    {
      "id": 156373,
      "geometry": "POINT (-113.585836 37.061319)",
      "poi_name": "Pepper's Cantina",
      "osm_id": 4653110002,
      "amenity": "restaurant",
      "cuisine": "mexican",
      "value": 38.29619139666765
    },
    {
      "id": 156374,
      "geometry": "POINT (-113.586573 37.061011)",
      "poi_name": "Tiki Island Restaurant",
      "osm_id": 4653110025,
      "amenity": "restaurant",
      "value": 38.29619139666765
    },
    {
      "id": 156377,
      "geometry": "POINT (-113.618994 37.098539)",
      "poi_name": "La Frontera",
      "osm_id": 4653252985,
      "amenity": "restaurant",
      "value": 38.29619139666765
    },
    {
      "id": 156378,
      "geometry": "POINT (-113.61913 37.097758)",
      "poi_name": "Don Pedro's Mexican",
      "osm_id": 4653252986,
      "amenity": "restaurant",
      "cuisine": "mexican",
      "value": 38.29619139666765
    },
    {
      "id": 156379,
      "geometry": "POINT (-113.609817 37.124154)",
      "poi_name": "Anasazi Steakhouse",
      "osm_id": 4653324327,
      "amenity": "restaurant",
      "value": 38.29619139666765
    },
    {
      "id": 156723,
      "geometry": "POINT (-115.168441 36.103147)",
      "poi_name": "Hecho En Vegas Mexican Grill & Cantina",
      "osm_id": 4668886735,
      "amenity": "restaurant",
      "cuisine": "mexican",
      "opening_hours": "We-Su 17:00-22:00",
      "website": "https://www.mgmgrand.com/hechoenvegasmexicangrill",
      "phone": "+1708913200",
      "outdoor_seating": "no",
      "addr_state": "NV",
      "addr_city": "Las Vegas",
      "addr_postcode": "89109",
      "value": 38.29619139666765
    },
    {
      "id": 156724,
      "geometry": "POINT (-115.168839 36.102858)",
      "poi_name": "Emeril's New Orleans Fish House",
      "osm_id": 4668886736,
      "amenity": "restaurant",
      "outdoor_seating": "no",
      "value": 38.29619139666765
    },
    {
      "id": 156725,
      "geometry": "POINT (-115.169602 36.102205)",
      "poi_name": "Wolfgang Puck Bar & Grill",
      "osm_id": 4668886738,
      "amenity": "restaurant",
      "outdoor_seating": "no",
      "addr_state": "NV",
      "addr_city": "Las Vegas",
      "value": 38.29619139666765
    },
    {
      "id": 156726,
      "geometry": "POINT (-115.169589 36.10264)",
      "poi_name": "L'Atelier De Joel Robuchon",
      "osm_id": 4668886739,
      "amenity": "restaurant",
      "outdoor_seating": "no",
      "addr_state": "NV",
      "addr_city": "Las Vegas",
      "value": 38.29619139666765
    },
    {
      "id": 157348,
      "geometry": "POINT (-113.622403 37.123319)",
      "poi_name": "Peppers Cantina",
      "osm_id": 4704329982,
      "amenity": "restaurant",
      "cuisine": "mexican",
      "value": 38.29619139666765
    },
    {
      "id": 158943,
      "geometry": "POINT (-115.13842 36.168577)",
      "poi_name": "Turmeric",
      "osm_id": 4770476646,
      "amenity": "restaurant",
      "cuisine": "indian",
      "value": 38.29619139666765
    },
    {
      "id": 160334,
      "geometry": "POINT (-113.584779 37.084082)",
      "poi_name": "Magleby's",
      "osm_id": 4831282021,
      "amenity": "restaurant",
      "phone": "+14356529600",
      "addr_postcode": "84770",
      "addr_street": "South Hilton Drive",
      "addr_housenumber": "1450",
      "value": 38.29619139666765
    },
    {
      "id": 159173,
      "geometry": "POINT (-114.443515 36.537219)",
      "poi_name": "The Inside Scoop",
      "osm_id": 4781942412,
      "amenity": "restaurant",
      "value": 38.29619139666765
    },
    {
      "id": 159174,
      "geometry": "POINT (-114.443522 36.538863)",
      "poi_name": "blp Breakfast Lunch and Pizza",
      "osm_id": 4781942414,
      "amenity": "restaurant",
      "value": 38.29619139666765
    },
    {
      "id": 160340,
      "geometry": "POINT (-115.147479 36.159866)",
      "poi_name": "The Goodwich",
      "osm_id": 4831334522,
      "amenity": "restaurant",
      "cuisine": "sandwich",
      "website": "https://thegoodwich.com/",
      "phone": "+17029108681",
      "addr_postcode": "89101",
      "addr_street": "South Las Vegas Boulevard",
      "addr_housenumber": "900",
      "value": 38.29619139666765
    },
    {
      "id": 165273,
      "geometry": "POINT (-113.584987 37.085952)",
      "poi_name": "Blaze Pizza",
      "osm_id": 9525647735,
      "amenity": "restaurant",
      "cuisine": "pizza",
      "value": 38.29619139666765
    },
    {
      "id": 163971,
      "geometry": "POINT (-115.140528 36.143179)",
      "poi_name": "Balkan Bar and Grill",
      "osm_id": 9445034317,
      "amenity": "restaurant",
      "addr_city": "Las Vegas",
      "addr_street": "East Sahara Avenue",
      "addr_housenumber": "953",
      "value": 38.29619139666765
    },
    {
      "id": 169323,
      "geometry": "POINT (-115.139969 36.17002)",
      "poi_name": "Rachel's Kitchen",
      "osm_id": 2296641037,
      "amenity": "restaurant",
      "value": 38.29619139666765
    },
    {
      "id": 166301,
      "geometry": "POINT (-113.585272 37.09665)",
      "poi_name": "Gaia's Garden Cafe",
      "osm_id": 9586565002,
      "amenity": "restaurant",
      "description": "Fully vegan restaurant serving rice bowls, tofu scramble, breakfast burritos, avocado toast, and more. (Source:  UARC 2022 directory)",
      "opening_hours": "Tu-Sa 08:00-20:00",
      "addr_state": "UT",
      "addr_city": "Saint George",
      "addr_street": "South 100 West",
      "addr_housenumber": "695",
      "value": 38.29619139666765
    },
    {
      "id": 166685,
      "geometry": "POINT (-115.154109 36.113433)",
      "poi_name": "P.F. Chang's",
      "osm_id": 306342921,
      "amenity": "restaurant",
      "cuisine": "asian",
      "opening_hours": "Su-Th 11:00-22:00; Fr-Sa 11:00-23:00",
      "website": "https://www.pfchangs.com/",
      "phone": "+17027922207",
      "official_name": "P.F. Chang's China Bistro",
      "addr_postcode": "89169-6512",
      "addr_street": "Paradise Road",
      "addr_housenumber": "4165",
      "value": 38.29619139666765
    },
    {
      "id": 168583,
      "geometry": "POINT (-113.62553 37.124159)",
      "poi_name": "Pizza Hut",
      "osm_id": 2270170062,
      "amenity": "restaurant",
      "cuisine": "pizza",
      "value": 38.29619139666765
    },
    {
      "id": 168584,
      "geometry": "POINT (-113.624302 37.124206)",
      "poi_name": "Pizza Factory",
      "osm_id": 2270170063,
      "amenity": "restaurant",
      "cuisine": "pizza",
      "value": 38.29619139666765
    },
    {
      "id": 168585,
      "geometry": "POINT (-113.622285 37.123453)",
      "poi_name": "Dub's BBQ",
      "osm_id": 2270170085,
      "amenity": "restaurant",
      "cuisine": "pizza",
      "value": 38.29619139666765
    },
    {
      "id": 169324,
      "geometry": "POINT (-115.140195 36.169213)",
      "poi_name": "Park on Fremont",
      "osm_id": 2296641038,
      "amenity": "restaurant",
      "value": 38.29619139666765
    },
    {
      "id": 169325,
      "geometry": "POINT (-115.139896 36.168464)",
      "poi_name": "La Comida",
      "osm_id": 2296641039,
      "amenity": "restaurant",
      "cuisine": "mexican",
      "value": 38.29619139666765
    },
    {
      "id": 177944,
      "geometry": "POINT (-115.141628 36.170334)",
      "poi_name": "Nacho Daddy",
      "osm_id": 2611292855,
      "amenity": "restaurant",
      "cuisine": "tex-mex",
      "website": "https://nachodaddy.com/",
      "addr_postcode": "89101",
      "addr_street": "Las Vegas Boulevard North",
      "addr_housenumber": "113",
      "value": 38.29619139666765
    },
    {
      "id": 171377,
      "geometry": "POINT (-113.58741 37.092465)",
      "poi_name": "Hawaiian Poke Bowl",
      "osm_id": 2374326101,
      "amenity": "restaurant",
      "cuisine": "hawaiian",
      "value": 38.29619139666765
    },
    {
      "id": 176548,
      "geometry": "POINT (-115.13953 36.170069)",
      "poi_name": "Wild",
      "osm_id": 2562441785,
      "amenity": "restaurant",
      "cuisine": "pizza",
      "phone": "702-527-7717",
      "addr_city": "Las Vegas",
      "addr_postcode": "89101",
      "addr_street": "North Las Vegas Boulevard",
      "addr_housenumber": "150",
      "value": 38.29619139666765
    },
    {
      "id": 177668,
      "geometry": "POINT (-115.047093 36.158036)",
      "poi_name": "Angelina's Pizza and Restaurant",
      "osm_id": 2600834868,
      "amenity": "restaurant",
      "cuisine": "pizza",
      "phone": "(702) 432-0727",
      "addr_state": "NV",
      "addr_city": "Las Vegas",
      "addr_postcode": "89142",
      "addr_street": "East Charleston Boulevard",
      "addr_housenumber": "5821",
      "value": 38.29619139666765
    },
    {
      "id": 177669,
      "geometry": "POINT (-115.046859 36.158038)",
      "poi_name": "Putter's Bar and Grill",
      "osm_id": 2600834869,
      "amenity": "restaurant",
      "addr_state": "NV",
      "addr_city": "Las Vegas",
      "addr_street": "East Charleston Boulevard",
      "addr_housenumber": "5821",
      "value": 38.29619139666765
    },
    {
      "id": 177945,
      "geometry": "POINT (-115.142248 36.171596)",
      "poi_name": "Pizza Rock - Downtown",
      "osm_id": 2611292856,
      "amenity": "restaurant",
      "opening_hours": "Su-Th 11:00-24:00; Fr-Sa 11:00-02:00",
      "website": "https://www.pizzarocklasvegas.com/",
      "internet_access": "wlan",
      "phone": "17023850838",
      "wikidata": "Q61982168",
      "addr_postcode": "89101",
      "addr_street": "North 3rd Street",
      "addr_housenumber": "201",
      "value": 38.29619139666765
    },
    {
      "id": 194076,
      "geometry": "POINT (-115.154688 36.117777)",
      "poi_name": "Marakesh",
      "osm_id": 1580118941,
      "amenity": "restaurant",
      "cuisine": "moroccan",
      "value": 38.29619139666765
    },
    {
      "id": 189231,
      "geometry": "POINT (-115.145291 36.17463)",
      "poi_name": "Garden Court Buffet",
      "osm_id": 1221405037,
      "amenity": "restaurant",
      "value": 38.29619139666765
    },
    {
      "id": 194077,
      "geometry": "POINT (-115.154542 36.117774)",
      "poi_name": "Musashi",
      "osm_id": 1580118944,
      "amenity": "restaurant",
      "cuisine": "japanese",
      "value": 38.29619139666765
    },
    {
      "id": 194078,
      "geometry": "POINT (-115.154298 36.118216)",
      "poi_name": "Satay",
      "osm_id": 1580118947,
      "amenity": "restaurant",
      "cuisine": "thai",
      "value": 38.29619139666765
    },
    {
      "id": 214933,
      "geometry": "POINT (-115.152336 36.13508)",
      "poi_name": "Benihana",
      "osm_id": 5283207321,
      "amenity": "restaurant",
      "cuisine": "japanese;teppanyaki;steak",
      "addr_postcode": "89109",
      "value": 38.29619139666765
    },
    {
      "id": 214743,
      "geometry": "POINT (-115.136431 36.14131)",
      "poi_name": "Thai Original BBQof Las Vegas",
      "osm_id": 5279925221,
      "amenity": "restaurant",
      "value": 38.29619139666765
    },
    {
      "id": 208742,
      "geometry": "POINT (-115.154015 36.149354)",
      "poi_name": "Denny's",
      "osm_id": 5003162522,
      "amenity": "restaurant",
      "cuisine": "american",
      "opening_hours": "24/7",
      "website": "https://www.dennys.com/",
      "phone": "+1(702)384-5624",
      "addr_state": "NV",
      "addr_city": "Las Vegas",
      "addr_postcode": "89104",
      "addr_street": "South Las Vegas Boulevard",
      "addr_housenumber": "1822",
      "value": 38.29619139666765
    },
    {
      "id": 213726,
      "geometry": "POINT (-115.139355 36.16736)",
      "poi_name": "VegeNation",
      "osm_id": 5258345879,
      "amenity": "restaurant",
      "cuisine": "burger;pizza;breakfast;brunch",
      "opening_hours": "Su-Sa 09:00-20:00",
      "website": "https://vegenationlv.com",
      "phone": "+1 702-366-8515",
      "delivery": "no",
      "addr_state": "NV",
      "addr_city": "Las Vegas",
      "addr_postcode": "89101",
      "addr_street": "E. Carson Avenue",
      "addr_housenumber": "616",
      "value": 38.29619139666765
    },
    {
      "id": 214666,
      "geometry": "POINT (-113.579058 37.076665)",
      "poi_name": "Burger Theory",
      "osm_id": 5277797641,
      "amenity": "restaurant",
      "cuisine": "burger",
      "value": 38.29619139666765
    },
    {
      "id": 225084,
      "geometry": "POINT (-115.11464 36.239577)",
      "poi_name": "Tokyo Cafe",
      "osm_id": 11110453906,
      "amenity": "restaurant",
      "cuisine": "japanese",
      "value": 38.29619139666765
    },
    {
      "id": 224499,
      "geometry": "POINT (-114.068415 36.803701)",
      "poi_name": "Rain Thai & Sushi Cuisine",
      "osm_id": 11084394817,
      "amenity": "restaurant",
      "cuisine": "asian",
      "value": 38.29619139666765
    },
    {
      "id": 227931,
      "geometry": "POINT (-113.62597 37.122288)",
      "poi_name": "Bishop's",
      "osm_id": 4322612173,
      "amenity": "restaurant",
      "value": 38.29619139666765
    },
    {
      "id": 239720,
      "geometry": "POINT (-115.137478 36.144651)",
      "poi_name": "Pollo Inka Express",
      "osm_id": 5937092985,
      "amenity": "restaurant",
      "cuisine": "chicken",
      "opening_hours": "Mo-Su 10:30-22:30",
      "website": "http://polloinkaexpress.com",
      "phone": "+17025227871",
      "addr_postcode": "89104",
      "addr_street": "South Maryland Parkway",
      "addr_housenumber": "2440",
      "value": 38.29619139666765
    },
    {
      "id": 230395,
      "geometry": "POINT (-115.147771 36.115074)",
      "poi_name": "Mint Indian Bistro",
      "osm_id": 4424572858,
      "amenity": "restaurant",
      "cuisine": "indian",
      "wheelchair": "yes",
      "takeaway": "yes",
      "outdoor_seating": "no",
      "toilets": "yes",
      "addr_state": "NV",
      "addr_city": "Las Vegas",
      "addr_postcode": "89119",
      "addr_street": "East Flamingo Road",
      "addr_housenumber": "730",
      "value": 38.29619139666765
    },
    {
      "id": 233289,
      "geometry": "POINT (-115.107488 36.210048)",
      "poi_name": "Poker Palace",
      "osm_id": 4567435089,
      "amenity": "restaurant",
      "opening_hours": "24/7",
      "wikidata": "Q28368852",
      "addr_street": "Las Vegas Boulevard North",
      "addr_housenumber": "2757",
      "value": 38.29619139666765
    },
    {
      "id": 233408,
      "geometry": "POINT (-115.162939 36.118129)",
      "poi_name": "Gold mine Bar & Grill",
      "osm_id": 4572189294,
      "amenity": "restaurant",
      "cuisine": "american",
      "value": 38.29619139666765
    },
    {
      "id": 230561,
      "geometry": "POINT (-114.072743 36.803804)",
      "poi_name": "Los Lupes",
      "osm_id": 4431609291,
      "amenity": "restaurant",
      "cuisine": "mexican",
      "opening_hours": "Su-Th 09:00-21:00; Fr-Sa 09:00-22:00",
      "addr_postcode": "89027",
      "addr_street": "West Mesquite Boulevard",
      "addr_housenumber": "312",
      "value": 38.29619139666765
    },
    {
      "id": 240550,
      "geometry": "POINT (-115.126105 36.159224)",
      "poi_name": "mcayo",
      "osm_id": 5979597485,
      "amenity": "restaurant",
      "cuisine": "mexican",
      "opening_hours": "Su-Th 11:00-21:00; Fr-Sa 11:00-22:00",
      "website": "http://www.mcayo.com",
      "phone": "+17023825605",
      "addr_postcode": "89104",
      "addr_street": "East Charleston Boulevard",
      "addr_housenumber": "1741",
      "value": 38.29619139666765
    }
  ],
  "answer_type": "name",
  "question_entities": {
    "[2]": {
      "distance": 180000,
      "text": "180 kilometers"
    },
    "[3]": {
      "main_category": "tourism",
      "sub_category": "attraction",
      "display_name": "CSI: The Experience, Las Vegas, NV",
      "geo_wkt": "POINT (-115.170869 36.1016)",
      "poi": {
        "id": 14893,
        "geometry": "POINT (-115.170869 36.1016)",
        "poi_name": "CSI: The Experience",
        "osm_id": 4749150238,
        "tourism": "attraction",
        "addr_state": "NV",
        "addr_city": "Las Vegas"
      }
    },
    "[4]": {
      "main_category": "tourism",
      "sub_category": "hotel",
      "display_name": "Hampton Inn & Suites Las Vegas Convention Center, Las Vegas, NV",
      "geo_wkt": "POINT (-115.146458 36.126677)",
      "poi": {
        "id": 27183,
        "geometry": "POINT (-115.146458 36.126677)",
        "poi_name": "Hampton Inn & Suites Las Vegas Convention Center",
        "osm_id": 7740624677,
        "tourism": "hotel",
        "official_name": "Hampton Inn & Suites by Hilton",
        "addr_state": "NV",
        "addr_city": "Las Vegas",
        "addr_postcode": "89169",
        "addr_street": "Sierra Vista Drive",
        "addr_housenumber": "755"
      }
    },
    "[1]": {
      "main_category": "amenity",
      "sub_category": "restaurant"
    }
  },
  "id": 1695,
  "type": "range:towards+name"
}