{
  "question": "I need assistance in locating an emergency hospital within 160 kilometers from MSU Poultry Research & Teaching Center, Lansing, MI. Can you help me out?",
  "sql": "SELECT * FROM pois\nWHERE ST_DWithin(pois.geometry, ST_GeomFromText('POINT (-84.471691 42.682206)',4326)::geography, 160000)\nAND amenity = 'hospital'\nAND emergency ILIKE '%yes%';\n",
  "answers": [
    {
      "id": 189986,
      "geometry": "POINT (-84.555122 42.993121)",
      "poi_name": "Sparrow Clinton Hospital",
      "osm_id": 1260156516,
      "amenity": "hospital",
      "website": "https://www.sparrow.org/sparrowclinton",
      "healthcare": "hospital",
      "emergency": "yes",
      "addr_city": "Saint Johns",
      "addr_postcode": "48879",
      "addr_street": "South Oakland Street",
      "addr_housenumber": "805"
    },
    {
      "id": 167303,
      "geometry": "POINT (-85.647932 41.935358)",
      "poi_name": "Three Rivers Health",
      "osm_id": 354031294,
      "amenity": "hospital",
      "opening_hours": "24/7",
      "website": "https://www.threerivershealth.org/",
      "phone": "+1-269-278-1145",
      "healthcare": "hospital",
      "emergency": "yes",
      "addr_state": "MI",
      "addr_city": "Three Rivers",
      "addr_postcode": "49093",
      "addr_street": "South Health Parkway",
      "addr_housenumber": "701"
    },
    {
      "id": 231220,
      "geometry": "POINT (-83.721983 41.674958)",
      "poi_name": "Mercy Health Sylvania Medical Center",
      "osm_id": 4459970689,
      "amenity": "hospital",
      "opening_hours": "24/7",
      "operator": "Mercy Health",
      "website": "https://www.mercy.com/toledo/locations/medical-centers/mercy-health-sylvania-medical-center",
      "phone": "+1 567 455 5800",
      "healthcare": "hospital",
      "emergency": "yes",
      "addr_city": "Sylvania",
      "addr_postcode": "43560",
      "addr_street": "King Road",
      "addr_housenumber": "3100"
    }
  ],
  "answer_type": "loc",
  "question_entities": {
    "[1]": {
      "main_category": "amenity",
      "sub_category": "hospital",
      "poi_filter_desc": "emergency hospital",
      "poi_filter_sql": "emergency ILIKE '%yes%'"
    },
    "[2]": {
      "distance": 160000,
      "text": "160 kilometers"
    },
    "[3]": {
      "main_category": "amenity",
      "sub_category": "university",
      "display_name": "MSU Poultry Research & Teaching Center, Lansing, MI",
      "geo_wkt": "POINT (-84.471691 42.682206)",
      "poi": {
        "id": 77434,
        "geometry": "POINT (-84.471691 42.682206)",
        "poi_name": "MSU Poultry Research & Teaching Center",
        "osm_id": 9822138005,
        "amenity": "university",
        "opening_hours": "Mo-Fr 07:30-16:00",
        "operator": "Michigan State University",
        "website": "http://www.ans.msu.edu/facilities/poultry_research_teaching_center",
        "phone": "+1 517 355 0360",
        "addr_state": "MI",
        "addr_city": "Lansing",
        "addr_postcode": "48910",
        "addr_street": "East Jolly Road",
        "addr_housenumber": "5252"
      }
    }
  },
  "id": 490,
  "type": "range:non_spat_filter+loc"
}