{
  "question": "Is it possible for you to discover a sandwich restaurant that is situated within 50 kilometers of Urban Air Trampoline & Adventure Park, South Hackensack, NJ?",
  "sql": "SELECT * FROM pois\nWHERE ST_DWithin(pois.geometry, ST_GeomFromText('POINT (-74.053112 40.869207)',4326)::geography, 50000)\nAND amenity = 'restaurant'\nAND cuisine ILIKE '%sandwich%';\n",
  "answers": [
    {
      "id": 28447,
      "geometry": "POINT (-74.476308 40.893285)",
      "poi_name": "Carver's",
      "osm_id": 483029747,
      "amenity": "restaurant",
      "cuisine": "sandwich;american",
      "addr_city": "Denville",
      "addr_postcode": "07834",
      "addr_street": "1st Avenue",
      "addr_housenumber": "38"
    },
    {
      "id": 29157,
      "geometry": "POINT (-73.97899 40.648411)",
      "poi_name": "Stang Thai",
      "osm_id": 8284985191,
      "amenity": "restaurant",
      "cuisine": "thai;sandwich",
      "phone": "+1-718-436-6932",
      "outdoor_seating": "yes"
    },
    {
      "id": 30052,
      "geometry": "POINT (-73.959139 40.774406)",
      "poi_name": "Wrap-N-Run Grill",
      "osm_id": 8333736492,
      "amenity": "restaurant",
      "cuisine": "sandwich;american",
      "website": "https://www.wrapnrungrill.getsauce.com/",
      "phone": "+1 212-744-1588",
      "addr_postcode": "10075",
      "addr_street": "Lexington Avenue",
      "addr_housenumber": "1125"
    },
    {
      "id": 30183,
      "geometry": "POINT (-74.005076 40.615461)",
      "poi_name": "Papa Pasquale Ravioli",
      "osm_id": 8339056625,
      "amenity": "restaurant",
      "cuisine": "italian;sandwich;deli;pasta",
      "opening_hours": "Mo-Sa 08:00-18:00; Su off",
      "website": "https://papapasqualeravioli.net",
      "phone": "+1 718 232 1798",
      "addr_postcode": "11228",
      "addr_street": "15th Avenue",
      "addr_housenumber": "7817"
    },
    {
      "id": 32011,
      "geometry": "POINT (-74.306276 40.724276)",
      "poi_name": "Goldberg's Famous Deli",
      "osm_id": 2618093952,
      "amenity": "restaurant",
      "cuisine": "sandwich"
    },
    {
      "id": 37357,
      "geometry": "POINT (-73.97864 40.666193)",
      "poi_name": "Pasta Louise Cafe",
      "osm_id": 2808476708,
      "amenity": "restaurant",
      "cuisine": "italian;ice_cream;pasta;sandwich",
      "opening_hours": "Tu-Fr 08:00-21:00; Sa-Su 09:00-21:00",
      "website": "https://www.pastalouise.com",
      "phone": "+1-347-725-3883",
      "takeaway": "yes",
      "outdoor_seating": "sidewalk;street",
      "addr_state": "NY",
      "addr_city": "Brooklyn",
      "addr_postcode": "11215",
      "addr_street": "8th Avenue",
      "addr_housenumber": "803"
    },
    {
      "id": 37935,
      "geometry": "POINT (-73.946118 40.711275)",
      "poi_name": "Sandwich Shop",
      "osm_id": 2838697360,
      "amenity": "restaurant",
      "cuisine": "sandwich",
      "wheelchair": "yes",
      "opening_hours": "Mo-Sa 11:00-21:30; Su 11:00-21:00",
      "website": "http://www.thesandwichshopbk.com/",
      "phone": "+1-718-360-0737",
      "takeaway": "yes",
      "delivery": "yes",
      "addr_postcode": "11206",
      "addr_street": "Grand Street",
      "addr_housenumber": "658"
    },
    {
      "id": 38123,
      "geometry": "POINT (-73.999024 40.73402)",
      "poi_name": "Lenny's",
      "osm_id": 2845882106,
      "amenity": "restaurant",
      "cuisine": "sandwich",
      "addr_postcode": "10011",
      "addr_street": "Avenue Of The Americas",
      "addr_housenumber": "418"
    },
    {
      "id": 38189,
      "geometry": "POINT (-73.940128 40.761265)",
      "poi_name": "Niforos Corner",
      "osm_id": 2847152867,
      "amenity": "restaurant",
      "cuisine": "sandwich",
      "addr_postcode": "11106",
      "addr_street": "36th Avenue",
      "addr_housenumber": "10-15"
    },
    {
      "id": 38767,
      "geometry": "POINT (-73.827856 40.766046)",
      "poi_name": "Oh! Bagel Cafe",
      "osm_id": 2882806089,
      "amenity": "restaurant",
      "cuisine": "bagel;sandwich",
      "opening_hours": "Mo-Fr 05:00-16:00; Sa 05:00-14:00; PH,Su closed",
      "takeaway": "yes",
      "outdoor_seating": "no",
      "addr_state": "NY",
      "addr_city": "Flushing",
      "addr_postcode": "11354",
      "addr_street": "Union Street",
      "addr_housenumber": "34-30"
    },
    {
      "id": 38776,
      "geometry": "POINT (-73.825449 40.764257)",
      "poi_name": "Los Marinillos",
      "osm_id": 2883431955,
      "amenity": "restaurant",
      "cuisine": "colombian;breakfast;deli;coffee;empanada;sandwich;lunch",
      "wheelchair": "yes",
      "opening_hours": "Mo-Su 07:00-19:00",
      "phone": "19292007035",
      "takeaway": "yes",
      "delivery": "yes",
      "addr_state": "NY",
      "addr_city": "Flushing",
      "addr_postcode": "11354",
      "addr_street": "Northern Boulevard",
      "addr_housenumber": "141-08"
    },
    {
      "id": 39219,
      "geometry": "POINT (-73.681083 40.58868)",
      "poi_name": "Lindell Deli and Grocery",
      "osm_id": 2910162781,
      "amenity": "restaurant",
      "cuisine": "sandwich",
      "opening_hours": "Mo-Fr 06:30-20:00, Sa 07:30-20:00, Su 07:30-17:00",
      "phone": "516-432-9171",
      "addr_street": "Lindell Boulevard"
    },
    {
      "id": 39242,
      "geometry": "POINT (-73.990829 40.744687)",
      "poi_name": "Melt Shop",
      "osm_id": 2910889370,
      "amenity": "restaurant",
      "cuisine": "grilled_cheese;sandwich",
      "addr_city": "New York",
      "addr_postcode": "10010",
      "addr_street": "West 26th Street",
      "addr_housenumber": "55"
    },
    {
      "id": 43007,
      "geometry": "POINT (-74.382641 40.740606)",
      "poi_name": "Chatham Sandwich Shop",
      "osm_id": 3091939330,
      "amenity": "restaurant",
      "cuisine": "sandwich",
      "addr_city": "Chatham",
      "addr_postcode": "07928",
      "addr_street": "Main Street",
      "addr_housenumber": "253"
    },
    {
      "id": 48869,
      "geometry": "POINT (-74.30754 40.532275)",
      "poi_name": "Rosevelt's Deli",
      "osm_id": 3404266226,
      "amenity": "restaurant",
      "cuisine": "sandwich",
      "addr_street": "King George's Post Road",
      "addr_housenumber": "684"
    },
    {
      "id": 53405,
      "geometry": "POINT (-74.042967 40.720275)",
      "poi_name": "Little Sandwich Shop",
      "osm_id": 10078964003,
      "amenity": "restaurant",
      "cuisine": "sandwich",
      "website": "http://littlesandwichshopjerseycity.com/",
      "capacity": "10",
      "phone": "+1-201-435-1919",
      "addr_city": "Jersey City",
      "addr_postcode": "07302",
      "addr_street": "Grove Street",
      "addr_housenumber": "333"
    },
    {
      "id": 55778,
      "geometry": "POINT (-73.960999 40.808848)",
      "poi_name": "Chef Mike's Sub Shop",
      "osm_id": 10207581130,
      "amenity": "restaurant",
      "cuisine": "sandwich"
    },
    {
      "id": 56460,
      "geometry": "POINT (-73.911078 40.703158)",
      "poi_name": "Mama Yoshi Mini Mart",
      "osm_id": 10238102608,
      "amenity": "restaurant",
      "cuisine": "japanese;sandwich",
      "opening_hours": "We-Fr 11:00-19:00;Sa 12:00-16:00",
      "outdoor_seating": "yes",
      "addr_postcode": "11385",
      "addr_street": "Grove Street",
      "addr_housenumber": "1711"
    },
    {
      "id": 56790,
      "geometry": "POINT (-74.061125 40.710387)",
      "poi_name": "Mordi's Sandwich Shop",
      "osm_id": 10248416533,
      "amenity": "restaurant",
      "cuisine": "israeli;sandwich",
      "opening_hours": "Mo-Fr 10:00-20:00; Sa 10:00-16:00",
      "website": "https://mordissandwichshop.com",
      "phone": "+1 551-203-2348",
      "addr_street": "Communipaw Avenue",
      "addr_housenumber": "321"
    },
    {
      "id": 59117,
      "geometry": "POINT (-73.903869 40.70406)",
      "poi_name": "Madison Pizza",
      "osm_id": 5411674660,
      "amenity": "restaurant",
      "cuisine": "pizza;italian;pasta;sandwich",
      "opening_hours": "Mo-Sa 11:00-02:00; Su 12:00-21:00",
      "website": "http://ordermadisonpizzeria.com/",
      "phone": "+1-718-831-8555",
      "takeaway": "yes",
      "delivery": "yes",
      "addr_street": "Madison Street",
      "addr_housenumber": "775"
    },
    {
      "id": 58112,
      "geometry": "POINT (-73.906739 40.699949)",
      "poi_name": "Ltauha Restaurant",
      "osm_id": 5364870799,
      "amenity": "restaurant",
      "cuisine": "coffee;american;sandwich",
      "wheelchair": "yes",
      "opening_hours": "Tu-Fr 12:00-23:00; Sa, Su 10:00-23:00",
      "website": "http://www.ltauha.com",
      "phone": "+1-347-689-3462",
      "takeaway": "yes",
      "delivery": "yes",
      "toilets": "yes",
      "addr_state": "NY",
      "addr_city": "Ridgewood",
      "addr_postcode": "11385",
      "addr_street": "Myrtle Avenue",
      "addr_housenumber": "55-50"
    },
    {
      "id": 58933,
      "geometry": "POINT (-73.964864 40.755962)",
      "poi_name": "Madison Restaurant",
      "osm_id": 5403602687,
      "amenity": "restaurant",
      "cuisine": "italian;coffee_shop;breakfast;sandwich",
      "wheelchair": "yes",
      "opening_hours": "06:00-24:00",
      "phone": "+1 212-421-0948",
      "addr_street": "1st Avenue",
      "addr_housenumber": "965"
    },
    {
      "id": 59126,
      "geometry": "POINT (-73.901326 40.700346)",
      "poi_name": "Tasty's Diner",
      "osm_id": 5412537499,
      "amenity": "restaurant",
      "cuisine": "american;burger;sandwich",
      "wheelchair": "yes",
      "opening_hours": "Mo-Su 07:30-21:00",
      "phone": "+1-718-456-0954",
      "takeaway": "yes",
      "delivery": "yes",
      "addr_street": "Myrtle Avenue",
      "addr_housenumber": "58-02"
    },
    {
      "id": 59241,
      "geometry": "POINT (-73.997212 40.737698)",
      "poi_name": "Bareburger",
      "osm_id": 5415638384,
      "amenity": "restaurant",
      "cuisine": "burger;salad;sandwich",
      "wheelchair": "yes",
      "opening_hours": "Mo-Su 11:00-22:00",
      "website": "https://bareburger.com/",
      "internet_access": "no",
      "phone": "+1-646-596-7980",
      "takeaway": "yes",
      "toilets": "yes",
      "addr_street": "West 14th Street",
      "addr_housenumber": "103"
    },
    {
      "id": 63341,
      "geometry": "POINT (-73.895191 40.703023)",
      "poi_name": "House Of Gyro & Shawarma",
      "osm_id": 5611838879,
      "amenity": "restaurant",
      "cuisine": "mediterranean;coffee;gyros;sandwich",
      "opening_hours": "Mo-Su 14:00-23:45",
      "phone": "+1-347-844-9183",
      "takeaway": "yes",
      "delivery": "yes",
      "addr_street": "Fresh Pond Road",
      "addr_housenumber": "69-01"
    },
    {
      "id": 60608,
      "geometry": "POINT (-73.91948 40.702099)",
      "poi_name": "Milk & Pull",
      "osm_id": 5472952097,
      "amenity": "restaurant",
      "cuisine": "coffee_shop;donut;sandwich",
      "opening_hours": "Mo-Fr 07:00-18:00;Sa 08:00-18:00;Su 08:00-17:00",
      "website": "https://www.milkandpull.com/",
      "internet_access": "wlan",
      "phone": "+1-347-627-8511",
      "takeaway": "yes",
      "delivery": "yes",
      "toilets": "yes"
    },
    {
      "id": 61401,
      "geometry": "POINT (-73.912604 40.700512)",
      "poi_name": "The Bushwick Diner",
      "osm_id": 5517243775,
      "amenity": "restaurant",
      "cuisine": "american;coffee;burger;bagel;sandwich;pastry",
      "wheelchair": "yes",
      "opening_hours": "24/7",
      "website": "http://thebushwickbagelhousebrooklyn.com/",
      "internet_access": "no",
      "phone": "+1-718-552-2455",
      "takeaway": "yes",
      "delivery": "yes",
      "toilets": "yes",
      "addr_state": "NY",
      "addr_city": "Brooklyn",
      "addr_postcode": "11237",
      "addr_street": "Wyckoff Avenue",
      "addr_housenumber": "299"
    },
    {
      "id": 61868,
      "geometry": "POINT (-73.907428 40.700113)",
      "poi_name": "Barcelo",
      "osm_id": 5540457457,
      "amenity": "restaurant",
      "cuisine": "sandwich;seafood;chicken",
      "wheelchair": "yes",
      "opening_hours": "Mo-Su 06:00-23:00",
      "website": "http://www.barcelorestaurant.com/",
      "phone": "+1-917-909-1511",
      "addr_street": "Myrtle Avenue",
      "addr_housenumber": "55-33"
    },
    {
      "id": 61888,
      "geometry": "POINT (-73.906164 40.700266)",
      "poi_name": "San Remo",
      "osm_id": 5541240618,
      "amenity": "restaurant",
      "cuisine": "pizza;sandwich",
      "wheelchair": "yes",
      "opening_hours": "Su-Th 11:00-22:00; Fr-Sa 11:00-23:00",
      "website": "https://www.sanremopizza.com/",
      "phone": "+1-718-497-1903",
      "takeaway": "yes",
      "delivery": "Mo-Su 11:00-23:00",
      "addr_street": "Myrtle Avenue",
      "addr_housenumber": "56-01"
    },
    {
      "id": 62069,
      "geometry": "POINT (-73.914498 40.701221)",
      "poi_name": "D' Montazo",
      "osm_id": 5550498111,
      "amenity": "restaurant",
      "cuisine": "spanish;coffee;burger;chicken;sandwich",
      "wheelchair": "yes",
      "opening_hours": "Mo-Su 08:00-23:00",
      "website": "http://www.dmontazorestaurant.com/",
      "phone": "+1-718-497-3978",
      "takeaway": "yes",
      "delivery": "yes",
      "addr_street": "Wyckoff Avenue",
      "addr_housenumber": "216"
    },
    {
      "id": 63799,
      "geometry": "POINT (-74.121918 41.017945)",
      "poi_name": "Yogybee",
      "osm_id": 5630305767,
      "amenity": "restaurant",
      "cuisine": "salad;sandwich;smoothie",
      "takeaway": "yes",
      "outdoor_seating": "no",
      "addr_state": "NJ",
      "addr_city": "Waldwick",
      "addr_postcode": "07463",
      "addr_street": "Franklin Turnpike",
      "addr_housenumber": "137"
    },
    {
      "id": 64973,
      "geometry": "POINT (-73.923238 40.710496)",
      "poi_name": "Bunker Vietnamese",
      "osm_id": 5679677533,
      "amenity": "restaurant",
      "cuisine": "sandwich;vietnamese",
      "wheelchair": "yes",
      "opening_hours": "Tu, We, Su 12:00-22:00; Th-Sa 12:00-23:00",
      "website": "https://www.bunkernyc.com/",
      "phone": "+1-718-386-4282",
      "takeaway": "yes",
      "delivery": "yes",
      "addr_street": "Scott Avenue",
      "addr_housenumber": "99"
    },
    {
      "id": 66343,
      "geometry": "POINT (-74.164408 41.078685)",
      "poi_name": "Primo Hoagies",
      "osm_id": 11189356453,
      "amenity": "restaurant",
      "cuisine": "sandwich",
      "website": "https://primohoagies.com/",
      "phone": "+1 201-962-8772",
      "addr_state": "NJ",
      "addr_city": "Mahwah",
      "addr_postcode": "07430",
      "addr_street": "Ridge Road",
      "addr_housenumber": "320"
    },
    {
      "id": 65122,
      "geometry": "POINT (-74.189572 40.9529)",
      "poi_name": "Paesano's Restaurant & Pizzeria",
      "osm_id": 5686419695,
      "amenity": "restaurant",
      "cuisine": "italian;pizza;sandwich;regional",
      "outdoor_seating": "no",
      "delivery": "yes",
      "addr_state": "NJ",
      "addr_city": "North Haledon",
      "addr_postcode": "07508",
      "addr_street": "Belmont Avenue",
      "addr_housenumber": "885"
    },
    {
      "id": 65516,
      "geometry": "POINT (-73.896631 40.706275)",
      "poi_name": "Delight Diner and Donuts",
      "osm_id": 5699831759,
      "amenity": "restaurant",
      "cuisine": "american;burger;salad;wrap;soup;donut;sandwich",
      "wheelchair": "yes",
      "opening_hours": "Mo-Sa 06:00-22:00; Su 06:00-15:00",
      "website": "http://delightdiner.com/",
      "phone": "+1-718-628-4708",
      "takeaway": "yes",
      "delivery": "yes",
      "addr_street": "Fresh Pond Road",
      "addr_housenumber": "66-91"
    },
    {
      "id": 66310,
      "geometry": "POINT (-73.928382 40.704344)",
      "poi_name": "Burger It Up",
      "osm_id": 5734407321,
      "amenity": "restaurant",
      "cuisine": "burger;chicken;sandwich;salad",
      "opening_hours": "Mo-Th 11:00-22:00; Fr 11:00-24:00; Sa 13:00-24:00; Su 13:00-22:00",
      "website": "https://burgerituptogo.com/",
      "phone": "+1-347-318-2618",
      "takeaway": "yes",
      "delivery": "yes",
      "addr_street": "Knickerbocker Avenue",
      "addr_housenumber": "146"
    },
    {
      "id": 71751,
      "geometry": "POINT (-73.642797 40.757323)",
      "poi_name": "Brendos",
      "osm_id": 11399382536,
      "amenity": "restaurant",
      "cuisine": "sandwich;burger",
      "website": "https://www.brendosheros.com/",
      "phone": "+1 516 246 9130",
      "takeaway": "yes",
      "addr_state": "NY",
      "addr_city": "Williston Park",
      "addr_postcode": "11596",
      "addr_street": "Hillside Avenue",
      "addr_housenumber": "82"
    },
    {
      "id": 71916,
      "geometry": "POINT (-73.957923 40.76548)",
      "poi_name": "Le Gourmet",
      "osm_id": 11405903375,
      "amenity": "restaurant",
      "cuisine": "italian;pizza;sandwich;burger;salad",
      "wheelchair": "yes",
      "opening_hours": "06:30-20:00",
      "website": "https://legourmetnyc.com",
      "phone": "+1 212-772-8811",
      "takeaway": "yes",
      "addr_street": "1st Avenue",
      "addr_housenumber": "1267"
    },
    {
      "id": 75955,
      "geometry": "POINT (-74.007761 40.707271)",
      "poi_name": "Caf\u00e9 Hestia",
      "osm_id": 9753289208,
      "amenity": "restaurant",
      "cuisine": "american;asian;sandwich",
      "wheelchair": "yes",
      "opening_hours": "Mo-Fr 07:00-20:00; Sa 07:00-17:00; Su 09:00-17:00",
      "website": "https://www.cafehestia.com",
      "phone": "+1 917-261-7005",
      "takeaway": "yes",
      "outdoor_seating": "no",
      "delivery": "yes",
      "addr_postcode": "10038",
      "addr_street": "Maiden Lane",
      "addr_housenumber": "80"
    },
    {
      "id": 74102,
      "geometry": "POINT (-73.770935 40.763846)",
      "poi_name": "Sandwich Shop & Eatery",
      "osm_id": 9667152785,
      "amenity": "restaurant",
      "cuisine": "pizza;sandwich",
      "outdoor_seating": "yes",
      "addr_state": "NY",
      "addr_city": "Bayside",
      "addr_postcode": "11361",
      "addr_street": "Bell Boulevard",
      "addr_housenumber": "40-15"
    },
    {
      "id": 88894,
      "geometry": "POINT (-73.916175 41.286647)",
      "poi_name": "Benny's Brown Bag",
      "osm_id": 8805996884,
      "amenity": "restaurant",
      "cuisine": "deli;local;sandwich",
      "opening_hours": "We-Su 11:00-16:00",
      "website": "https://bennysbrownbag.square.site/",
      "addr_state": "NY",
      "addr_city": "Peekskill",
      "addr_postcode": "10566",
      "addr_street": "Elm Street",
      "addr_housenumber": "1100"
    },
    {
      "id": 76401,
      "geometry": "POINT (-73.959614 40.699594)",
      "poi_name": "Brooklyn Bagel",
      "osm_id": 9775295982,
      "amenity": "restaurant",
      "cuisine": "bagel;sandwich;pizza;sushi",
      "website": "https://www.brooklynbagelny.com",
      "phone": "+13476783928",
      "addr_state": "NY",
      "addr_city": "Brooklyn",
      "addr_postcode": "11249",
      "addr_street": "Heyward Street",
      "addr_housenumber": "7"
    },
    {
      "id": 82684,
      "geometry": "POINT (-73.996781 40.753388)",
      "poi_name": "Skylight Diner",
      "osm_id": 1707825816,
      "amenity": "restaurant",
      "cuisine": "american;burger;soup;salad;omelette;sandwich;breakfast",
      "wheelchair": "yes",
      "opening_hours": "24/7",
      "website": "https://skylightdinernyc.com/",
      "phone": "+1-212-244-0395",
      "takeaway": "yes",
      "delivery": "yes",
      "addr_street": "West 34th Street",
      "addr_housenumber": "402"
    },
    {
      "id": 87889,
      "geometry": "POINT (-73.950686 40.779641)",
      "poi_name": "Capriotti's Sandwich Shop",
      "osm_id": 8750011522,
      "amenity": "restaurant",
      "cuisine": "sandwich",
      "wheelchair": "yes",
      "opening_hours": "Mo-Su 10:00-22:00",
      "website": "https://order.capriottis.com/store/6453",
      "phone": "+1 646-590-1500",
      "takeaway": "yes",
      "delivery": "yes",
      "addr_postcode": "10128",
      "addr_street": "2nd Avenue",
      "addr_housenumber": "1711"
    },
    {
      "id": 88292,
      "geometry": "POINT (-74.204419 40.944251)",
      "poi_name": "Manhattan Bagel",
      "osm_id": 8778016098,
      "amenity": "restaurant",
      "cuisine": "bagel;sandwich;lunch;breakfast;coffee",
      "opening_hours": "Mo-Su 06:00-15:00",
      "website": "https://manhattanbagelwayne.com/",
      "phone": "(973) 925-4000",
      "drive_through": "no",
      "addr_state": "NJ",
      "addr_city": "Wayne",
      "addr_postcode": "07470",
      "addr_street": "Paterson-Hamburg Turnpike",
      "addr_housenumber": "163"
    },
    {
      "id": 98887,
      "geometry": "POINT (-73.579342 40.655281)",
      "poi_name": "Rincon Latino Restaurant",
      "osm_id": 6534541706,
      "amenity": "restaurant",
      "cuisine": "latin_american;hot_dog;sandwich;chicken;fish;dessert",
      "website": "https://g.co/kgs/YHYYNi",
      "phone": "516-608-0966",
      "delivery": "yes",
      "addr_state": "NY",
      "addr_city": "Freeport",
      "addr_postcode": "11520",
      "addr_street": "Henry Street",
      "addr_housenumber": "85"
    },
    {
      "id": 93798,
      "geometry": "POINT (-74.008836 40.704771)",
      "poi_name": "Lenwich",
      "osm_id": 2186614188,
      "amenity": "restaurant",
      "cuisine": "breakfast;sandwich",
      "wheelchair": "yes",
      "opening_hours": "Mo-Fr 08:00-04:00",
      "outdoor_seating": "no",
      "addr_state": "NY",
      "addr_city": "New York",
      "addr_postcode": "10005",
      "addr_street": "Hanover Square",
      "addr_housenumber": "10"
    },
    {
      "id": 96503,
      "geometry": "POINT (-73.988016 40.728423)",
      "poi_name": "B&H Dairy",
      "osm_id": 6434573686,
      "amenity": "restaurant",
      "cuisine": "breakfast;sandwich;eastern_european",
      "wheelchair": "no",
      "opening_hours": "Tu-Su 07:00-22:00",
      "phone": "+1-212-505-8065",
      "outdoor_seating": "yes",
      "addr_street": "2nd Avenue",
      "addr_housenumber": "127"
    },
    {
      "id": 99481,
      "geometry": "POINT (-73.987179 40.752458)",
      "poi_name": "Mr. Broadway Kosher",
      "osm_id": 6554084385,
      "amenity": "restaurant",
      "cuisine": "sandwich",
      "addr_street": "Broadway",
      "addr_housenumber": "1374"
    },
    {
      "id": 102257,
      "geometry": "POINT (-73.957873 40.765571)",
      "poi_name": "Lenwich",
      "osm_id": 6670244858,
      "amenity": "restaurant",
      "cuisine": "sandwich",
      "wheelchair": "yes",
      "opening_hours": "Mo-Fr 07:00-20:00; Sa-Su 08:00-18:00",
      "website": "https://lenwich.com",
      "phone": "+1 212-288-0852",
      "addr_street": "1st Avenue",
      "addr_housenumber": "1269"
    },
    {
      "id": 105761,
      "geometry": "POINT (-74.334609 40.543614)",
      "poi_name": "Menlo Pizza & Subs",
      "osm_id": 8641787966,
      "amenity": "restaurant",
      "cuisine": "pizza;sandwich"
    },
    {
      "id": 103643,
      "geometry": "POINT (-73.885186 41.200508)",
      "poi_name": "Croton Mini Deli",
      "osm_id": 8515828892,
      "amenity": "restaurant",
      "cuisine": "sandwich",
      "opening_hours": "Mo-Sa 6:45-20:00; Su 6:45-15:00",
      "takeaway": "yes",
      "addr_state": "NY",
      "addr_city": "Croton-on-Hudson",
      "addr_postcode": "10520",
      "addr_street": "Maple Street",
      "addr_housenumber": "10"
    },
    {
      "id": 104033,
      "geometry": "POINT (-74.022431 40.77115)",
      "poi_name": "Bagels on Park",
      "osm_id": 8541740749,
      "amenity": "restaurant",
      "cuisine": "breakfast;bagel;sandwich;american",
      "opening_hours": "Tu-Su 08:00-14:00; Fr off",
      "website": "https://bagelsonpark.com/",
      "phone": "+1-201-330-0625",
      "addr_state": "NJ",
      "addr_city": "Weehawken",
      "addr_postcode": "07086",
      "addr_street": "Park Avenue",
      "addr_housenumber": "3506"
    },
    {
      "id": 104034,
      "geometry": "POINT (-73.975268 40.824707)",
      "poi_name": "Brownstone Pancake Factory",
      "osm_id": 8541844957,
      "amenity": "restaurant",
      "cuisine": "breakfast;pancake;sandwich",
      "opening_hours": "Mo-Th 8:00-15:00; Fr-Sa 8:00-20:00; Su 8:00-17:00",
      "website": "https://www.brownstonepancakefactory.com/",
      "phone": "+12019454800",
      "addr_state": "NJ",
      "addr_city": "Edgewater",
      "addr_postcode": "07020",
      "addr_street": "River Road",
      "addr_housenumber": "860"
    },
    {
      "id": 106974,
      "geometry": "POINT (-74.292585 40.675684)",
      "poi_name": "Messy Tessy's Kitchen",
      "osm_id": 3527115339,
      "amenity": "restaurant",
      "cuisine": "sandwich",
      "addr_street": "Boulevard",
      "addr_housenumber": "491"
    },
    {
      "id": 107016,
      "geometry": "POINT (-74.291294 40.676274)",
      "poi_name": "Lenny and John's Subs",
      "osm_id": 3529382968,
      "amenity": "restaurant",
      "cuisine": "sandwich",
      "addr_state": "NJ",
      "addr_city": "Kenilworth",
      "addr_postcode": "07033",
      "addr_street": "Boulevard",
      "addr_housenumber": "522A"
    },
    {
      "id": 108324,
      "geometry": "POINT (-73.995747 40.722965)",
      "poi_name": "The Grey Dog",
      "osm_id": 3608616551,
      "amenity": "restaurant",
      "cuisine": "sandwich;salad;brunch",
      "wheelchair": "yes",
      "opening_hours": "Mo-Fr 07:30-22:00; Sa, Su 08:15-22:00",
      "website": "https://thegreydog.com/",
      "internet_access": "wlan",
      "phone": "+1-212-966-1060",
      "takeaway": "yes",
      "outdoor_seating": "yes",
      "toilets": "yes",
      "addr_street": "Mulberry Street",
      "addr_housenumber": "244"
    },
    {
      "id": 108089,
      "geometry": "POINT (-73.532821 40.874139)",
      "poi_name": "Sweet Tomato",
      "osm_id": 3595259660,
      "amenity": "restaurant",
      "cuisine": "italian;sandwich;soup",
      "opening_hours": "Mo-Sa 08:30-17:30; Su 08:30-16:30",
      "website": "https://sweettomato.business.site/",
      "phone": "+1 516-802-5353",
      "addr_street": "Audrey Avenue",
      "addr_housenumber": "91"
    },
    {
      "id": 114063,
      "geometry": "POINT (-74.000637 40.729691)",
      "poi_name": "Saigon Shack",
      "osm_id": 3863997257,
      "amenity": "restaurant",
      "cuisine": "vietnamese;coffee;noodle;sandwich",
      "wheelchair": "yes",
      "opening_hours": "Mo-Th, Su 11:00-23:00; Fr, Sa 11:00-01:00",
      "website": "https://saigonshack.squarespace.com/",
      "phone": "+1-212-228-0588",
      "takeaway": "yes",
      "delivery": "no",
      "addr_street": "MacDougal Street",
      "addr_housenumber": "114"
    },
    {
      "id": 108598,
      "geometry": "POINT (-73.985091 40.597114)",
      "poi_name": "The Original John's Deli",
      "osm_id": 3627488979,
      "amenity": "restaurant",
      "cuisine": "sandwich;italian",
      "opening_hours": "Mo-Sa 08:00-22:00; Su 08:00-21:00",
      "website": "https://www.theoriginaljohnsdeli.com/",
      "phone": "+1 718-372-7481",
      "takeaway": "yes",
      "delivery": "yes",
      "addr_postcode": "11223",
      "addr_street": "Stillwell Avenue",
      "addr_housenumber": "2033"
    },
    {
      "id": 113037,
      "geometry": "POINT (-73.925479 40.762167)",
      "poi_name": "Parisi Brothers Bakery",
      "osm_id": 3814797675,
      "amenity": "restaurant",
      "cuisine": "bakery;sandwich",
      "wheelchair": "yes"
    },
    {
      "id": 126293,
      "geometry": "POINT (-73.747648 40.715673)",
      "poi_name": "Roti Paradise",
      "osm_id": 6992718869,
      "amenity": "restaurant",
      "cuisine": "sandwich",
      "addr_street": "Jamaica Avenue",
      "addr_housenumber": "211-51"
    },
    {
      "id": 119964,
      "geometry": "POINT (-73.995637 40.732081)",
      "poi_name": "Panineria",
      "osm_id": 9130216017,
      "amenity": "restaurant",
      "cuisine": "italian;sandwich",
      "website": "https://www.lapanineria.com/",
      "addr_postcode": "10003",
      "addr_street": "East 8th Street",
      "addr_housenumber": "9"
    },
    {
      "id": 121456,
      "geometry": "POINT (-73.950714 40.783611)",
      "poi_name": "Fillmore Delicatessen",
      "osm_id": 6762609288,
      "amenity": "restaurant",
      "cuisine": "sandwich",
      "opening_hours": "Mo-Fr 07:30-22:30; Sa, Su 09:00-22:30",
      "website": "http://fillmoredeli.com",
      "phone": "+1 646-912-9488",
      "takeaway": "yes",
      "outdoor_seating": "yes",
      "delivery": "yes",
      "addr_postcode": "10128",
      "addr_street": "3rd Avenue",
      "addr_housenumber": "1668"
    },
    {
      "id": 139034,
      "geometry": "POINT (-73.991726 40.750297)",
      "poi_name": "Pat LaFrieda Meat Purveyors",
      "osm_id": 6178461393,
      "amenity": "restaurant",
      "cuisine": "steak;sandwich",
      "opening_hours": "Mo-Su 11:00-21:00",
      "website": "http://www.thepennsy.nyc/pat-lafrieda/",
      "takeaway": "yes",
      "outdoor_seating": "yes",
      "addr_state": "NY",
      "addr_city": "New York",
      "addr_postcode": "10121",
      "addr_street": "Pennsylvania Plaza",
      "addr_housenumber": "2"
    },
    {
      "id": 126456,
      "geometry": "POINT (-73.961107 40.806419)",
      "poi_name": "Hamilton Deli",
      "osm_id": 7004354698,
      "amenity": "restaurant",
      "cuisine": "sandwich",
      "opening_hours": "Mo-Su 09:00-21:00",
      "website": "https://www.hamiltonsdeli.com/",
      "phone": "+12127498924",
      "addr_state": "NY",
      "addr_city": "New York",
      "addr_postcode": "10029",
      "addr_street": "Amsterdam Avenue",
      "addr_housenumber": "1131"
    },
    {
      "id": 129747,
      "geometry": "POINT (-73.990648 40.752001)",
      "poi_name": "Cutlets",
      "osm_id": 9838737047,
      "amenity": "restaurant",
      "cuisine": "sandwich",
      "opening_hours": "Mo-Fr 09:00-21:00",
      "website": "https://www.cutlets.co/location/midtown-west/",
      "phone": "+1 212-518-6091",
      "takeaway": "yes",
      "delivery": "yes",
      "addr_street": "West 35th Street",
      "addr_housenumber": "213"
    },
    {
      "id": 130764,
      "geometry": "POINT (-73.966443 40.757387)",
      "poi_name": "Lenwich",
      "osm_id": 9890344447,
      "amenity": "restaurant",
      "cuisine": "sandwich"
    },
    {
      "id": 131756,
      "geometry": "POINT (-74.145148 40.874127)",
      "poi_name": "Fratelli's Pizza & Pasta",
      "osm_id": 9926616039,
      "amenity": "restaurant",
      "cuisine": "pizza;wings;sandwich;pasta",
      "opening_hours": "Tu-Su 10:00-20:00",
      "website": "https://fratellispizzaandpasta.com",
      "phone": "862-225-9999",
      "addr_state": "NJ",
      "addr_city": "Clifton",
      "addr_postcode": "07011",
      "addr_street": "Clifton Avenue",
      "addr_housenumber": "457"
    },
    {
      "id": 137190,
      "geometry": "POINT (-73.885015 40.85699)",
      "poi_name": "Nike's Pizzeria",
      "osm_id": 6088917224,
      "amenity": "restaurant",
      "cuisine": "pizza;sandwich",
      "wheelchair": "yes",
      "opening_hours": "Mo-Sa 12:00-04:00; Su 12:00-21:30",
      "website": "http://nikespizzanyc.com/",
      "phone": "+1-347-297-2132",
      "takeaway": "yes",
      "delivery": "yes",
      "addr_street": "East 189th Street",
      "addr_housenumber": "625"
    },
    {
      "id": 138061,
      "geometry": "POINT (-73.924292 40.700044)",
      "poi_name": "The Wheelhouse",
      "osm_id": 6127449695,
      "amenity": "restaurant",
      "cuisine": "sandwich",
      "opening_hours": "Mo-Th, Su 11:30-22:30; Fr, Sa 11:30-23:30",
      "website": "https://wheelhousebrooklyn.com/",
      "phone": "+1-718-483-9970",
      "takeaway": "yes",
      "delivery": "yes",
      "addr_street": "Wilson Avenue",
      "addr_housenumber": "165"
    },
    {
      "id": 138075,
      "geometry": "POINT (-73.922556 40.699074)",
      "poi_name": "Sol Sips",
      "osm_id": 6128709937,
      "amenity": "restaurant",
      "cuisine": "sandwich",
      "opening_hours": "Mo 10:00-20:00; Tu 12:00-19:00; We-Sa 10:00-20:00; Su 10:00-18:00",
      "website": "https://sol-sips.business.site/",
      "phone": "+1-718-683-0482",
      "takeaway": "yes",
      "outdoor_seating": "yes",
      "delivery": "yes",
      "addr_state": "NY",
      "addr_city": "Brooklyn",
      "addr_postcode": "11237",
      "addr_street": "Wilson Avenue",
      "addr_housenumber": "203"
    },
    {
      "id": 143407,
      "geometry": "POINT (-73.91422 40.69912)",
      "poi_name": "rico chimi",
      "osm_id": 6339896148,
      "amenity": "restaurant",
      "cuisine": "mexican;burger;sandwich",
      "opening_hours": "Mo-Th 11:30-26:00; Fr, Sa 11:30-29:30; Su 11:30-27:00",
      "website": "https://www.ricochimi.com/",
      "phone": "+1-718-366-3777",
      "delivery": "only",
      "addr_street": "Myrtle Avenue",
      "addr_housenumber": "1492"
    },
    {
      "id": 143940,
      "geometry": "POINT (-73.992599 40.758117)",
      "poi_name": "Shorty\u2019s",
      "osm_id": 6356571487,
      "amenity": "restaurant",
      "cuisine": "sandwich",
      "opening_hours": "Mo-We, Su 11:00-01:00; Th-Sa 11:00-02:00",
      "website": "https://www.shortysnyc.com/hells-kitchen.php",
      "phone": "+1 212-967-3055",
      "delivery": "11:00-23:00",
      "addr_postcode": "10036",
      "addr_street": "9th Avenue",
      "addr_housenumber": "576"
    },
    {
      "id": 143460,
      "geometry": "POINT (-74.122016 41.011489)",
      "poi_name": "Ike's Big Mouth",
      "osm_id": 6341801201,
      "amenity": "restaurant",
      "cuisine": "american;wings;sandwich",
      "addr_state": "NJ",
      "addr_city": "Waldwick",
      "addr_postcode": "07463",
      "addr_street": "West Prospect Street",
      "addr_housenumber": "26"
    },
    {
      "id": 147112,
      "geometry": "POINT (-73.822408 40.864482)",
      "poi_name": "Section 5 pizza",
      "osm_id": 7505992410,
      "amenity": "restaurant",
      "cuisine": "pizza;burger;italian;sandwich",
      "opening_hours": "Mo-Su 06:00-21:00",
      "phone": "718- 320-3887",
      "addr_state": "NY",
      "addr_city": "Bronx",
      "addr_postcode": "10475",
      "addr_street": "Einstein Loop North",
      "addr_housenumber": "133"
    },
    {
      "id": 147030,
      "geometry": "POINT (-73.831985 40.714511)",
      "poi_name": "Redwood Deli",
      "osm_id": 7495767705,
      "amenity": "restaurant",
      "cuisine": "sandwich",
      "opening_hours": "Mo-Fr 06:00-19:00; Sa, Su 06:00-17:00",
      "website": "https://www.redwooddeli.com",
      "phone": "+1 718-261-9326",
      "takeaway": "yes",
      "delivery": "yes",
      "addr_postcode": "11375",
      "addr_street": "Queens Boulevard",
      "addr_housenumber": "118-18"
    },
    {
      "id": 157575,
      "geometry": "POINT (-73.995156 40.72044)",
      "poi_name": "Egg Shop",
      "osm_id": 4714002691,
      "amenity": "restaurant",
      "cuisine": "breakfast;sandwich",
      "opening_hours": "Mo-Fr 08:30-15:00; Sa-Su 08:30-16:00",
      "website": "https://www.eggshopnyc.com/location/nolita/",
      "phone": "+1-646-666-0810",
      "addr_street": "Elizabeth Street",
      "addr_housenumber": "151"
    },
    {
      "id": 151068,
      "geometry": "POINT (-73.980133 40.57325)",
      "poi_name": "Ruby's Bar and Grill",
      "osm_id": 4080306997,
      "amenity": "restaurant",
      "cuisine": "burger;sandwich;chicken;american;ice_cream;hot_dog",
      "wheelchair": "yes",
      "outdoor_seating": "yes"
    },
    {
      "id": 165498,
      "geometry": "POINT (-74.056468 40.731272)",
      "poi_name": "John's",
      "osm_id": 9538728541,
      "amenity": "restaurant",
      "cuisine": "sandwich;american;burger;breakfast;bagel;salad",
      "opening_hours": "Mo-Fr 07:30-16:00; Sa-Su 07:30-15:30",
      "phone": "(201) 420-6661",
      "addr_state": "NJ",
      "addr_city": "Jersey City",
      "addr_postcode": "07306",
      "addr_street": "Newark Avenue",
      "addr_housenumber": "553 1/2"
    },
    {
      "id": 165080,
      "geometry": "POINT (-74.268273 40.677339)",
      "poi_name": "Manhattan Bagel",
      "osm_id": 9517111410,
      "amenity": "restaurant",
      "cuisine": "bagel;sandwich;breakfast;lunch;coffee",
      "opening_hours": "Mo-Su 06:00-15:00",
      "website": "WestfieldUnionMB.com",
      "phone": "(908) 687-4900",
      "addr_state": "NJ",
      "addr_city": "Union",
      "addr_postcode": "07083",
      "addr_street": "Galloping Hill Road",
      "addr_housenumber": "1350"
    },
    {
      "id": 158599,
      "geometry": "POINT (-73.981808 40.763389)",
      "poi_name": "Roxy Diner & Delicatessen",
      "osm_id": 4755575516,
      "amenity": "restaurant",
      "cuisine": "burger;sandwich",
      "opening_hours": "Mo-Su 09:00-21:00",
      "website": "https://www.roxydelicatessen.com",
      "phone": "+1-646-688- 3055",
      "addr_state": "NY",
      "addr_city": "New York",
      "addr_postcode": "10019",
      "addr_street": "7th Avenue",
      "addr_housenumber": "834"
    },
    {
      "id": 165516,
      "geometry": "POINT (-74.059197 40.734168)",
      "poi_name": "Lievito Pizza",
      "osm_id": 9539253676,
      "amenity": "restaurant",
      "cuisine": "pizza;pasta;sandwich;salad",
      "opening_hours": "Su-Th 11:00-01:45; Fr-Sa 11:00-02:45",
      "website": "https://lievitopizza.com/",
      "phone": "(201) 918-6461",
      "takeaway": "yes",
      "delivery": "yes",
      "addr_state": "NJ",
      "addr_city": "Jersey City",
      "addr_postcode": "07306",
      "addr_street": "Summit Avenue",
      "addr_housenumber": "584"
    },
    {
      "id": 176898,
      "geometry": "POINT (-74.000566 40.735378)",
      "poi_name": "Wogies",
      "osm_id": 2569065493,
      "amenity": "restaurant",
      "cuisine": "sandwich",
      "opening_hours": "Su-Th 11:30-02:00; Fr-Sa 11:30-03:00",
      "website": "https://wogies.com/",
      "phone": "+1 212-229-2171",
      "takeaway": "yes",
      "outdoor_seating": "yes",
      "delivery": "yes",
      "addr_postcode": "10014",
      "addr_street": "Greenwich Avenue",
      "addr_housenumber": "39"
    },
    {
      "id": 176356,
      "geometry": "POINT (-74.003096 40.610465)",
      "poi_name": "Panino Rustico",
      "osm_id": 2557077657,
      "amenity": "restaurant",
      "cuisine": "sandwich",
      "opening_hours": "Mo-Sa 10:00-22:00",
      "phone": "+1-718-236-6343",
      "addr_state": "NY",
      "addr_city": "Brooklyn",
      "addr_postcode": "11214",
      "addr_street": "17th Avenue",
      "addr_housenumber": "8222"
    },
    {
      "id": 176857,
      "geometry": "POINT (-73.92281 40.701704)",
      "poi_name": "Hartbreakers",
      "osm_id": 2568643693,
      "amenity": "restaurant",
      "cuisine": "sandwich",
      "opening_hours": "Mo-Su 11:00-23:00",
      "website": "https://www.hartbreakersbk.com/",
      "phone": "+1-718-326-4500",
      "addr_postcode": "11237",
      "addr_street": "Hart Street",
      "addr_housenumber": "820"
    },
    {
      "id": 166281,
      "geometry": "POINT (-73.966977 40.76361)",
      "poi_name": "Boar's Head Cafe",
      "osm_id": 9586083803,
      "amenity": "restaurant",
      "cuisine": "sandwich",
      "opening_hours": "Mo-Fr 08:00-17:00",
      "website": "https://boarsheadcafe.com",
      "phone": "+1 646-682-7688",
      "addr_postcode": "10065",
      "addr_street": "Lexington Avenue",
      "addr_housenumber": "787"
    },
    {
      "id": 172747,
      "geometry": "POINT (-73.98616 40.7436)",
      "poi_name": "Olde City",
      "osm_id": 2412370159,
      "amenity": "restaurant",
      "cuisine": "sandwich",
      "wheelchair": "yes",
      "opening_hours": "Mo-Su 11:00-24:00",
      "website": "https://www.loveoldecity.com/",
      "phone": "+1 929-281-3222",
      "addr_city": "New York",
      "addr_postcode": "10010",
      "addr_street": "Madison Avenue",
      "addr_housenumber": "66"
    },
    {
      "id": 180113,
      "geometry": "POINT (-73.98697 40.757046)",
      "poi_name": "Brooklyn Deli",
      "osm_id": 10791083576,
      "amenity": "restaurant",
      "cuisine": "burger;pizza;sandwich;salad",
      "wheelchair": "yes",
      "opening_hours": "Mo-Th,Su 07:00-20:00; Fr-Sa 07:00-23:00",
      "website": "https://brooklyndelicatessen.com",
      "internet_access": "wlan",
      "phone": "+1 212-840-5800",
      "takeaway": "yes",
      "outdoor_seating": "no",
      "addr_street": "Broadway",
      "addr_housenumber": "1501"
    },
    {
      "id": 178446,
      "geometry": "POINT (-74.248194 40.832998)",
      "poi_name": "Bagelwich",
      "osm_id": 10726917479,
      "amenity": "restaurant",
      "cuisine": "bagel;sandwich",
      "opening_hours": "Mo-Sa 05:00-15:00; Su 05:00-14:00",
      "website": "https://bagelwichnj.com/",
      "phone": "+1-973-857-9408",
      "takeaway": "yes",
      "outdoor_seating": "yes",
      "delivery": "no",
      "addr_state": "NJ",
      "addr_city": "Verona",
      "addr_street": "Bloomfield Avenue",
      "addr_housenumber": "652"
    },
    {
      "id": 198128,
      "geometry": "POINT (-74.000354 40.730663)",
      "poi_name": "Wolfnights - The Gourmet Wrap",
      "osm_id": 10689545494,
      "amenity": "restaurant",
      "cuisine": "sandwich",
      "opening_hours": "Fr-Sa 11:00-04:30; Su-Th 11:00-24:00",
      "website": "https://www.wolfnights.com/location/wolfnights-macdougal/",
      "phone": "+1-646-429-9048\u202c",
      "takeaway": "yes",
      "addr_state": "NY",
      "addr_city": "New York",
      "addr_postcode": "10012",
      "addr_street": "West 3rd Street",
      "addr_housenumber": "121"
    },
    {
      "id": 180790,
      "geometry": "POINT (-73.984786 40.692002)",
      "poi_name": "Everytable",
      "osm_id": 10817712250,
      "amenity": "restaurant",
      "cuisine": "salad;sandwich",
      "opening_hours": "Mo-Su 07:00-19:00",
      "website": "https://everytable.com/",
      "phone": "(646) 222-9334",
      "outdoor_seating": "yes",
      "addr_state": "NY",
      "addr_city": "Brooklyn",
      "addr_postcode": "11201",
      "addr_street": "Willoughby Street",
      "addr_housenumber": "102"
    },
    {
      "id": 191655,
      "geometry": "POINT (-73.980101 40.765728)",
      "poi_name": "Carnegie Diner & Cafe",
      "osm_id": 1383955759,
      "amenity": "restaurant",
      "cuisine": "burger;sandwich;coffee_shop;italian;ice_cream;seafood",
      "opening_hours": "Mo-Sa 07:30-23:00; Su 07:30-22:00",
      "website": "https://www.carnegiediner.com/",
      "phone": "+1-212-664-1001",
      "addr_state": "NY",
      "addr_city": "New York",
      "addr_postcode": "10019",
      "addr_street": "West 57th Street",
      "addr_housenumber": "205"
    },
    {
      "id": 193884,
      "geometry": "POINT (-74.412216 40.905427)",
      "poi_name": "Venturini's Super Deli",
      "osm_id": 1568268517,
      "amenity": "restaurant",
      "cuisine": "sandwich"
    },
    {
      "id": 190102,
      "geometry": "POINT (-74.03459 40.990802)",
      "poi_name": "Flynn's Deli",
      "osm_id": 1270395429,
      "amenity": "restaurant",
      "cuisine": "sandwich"
    },
    {
      "id": 202914,
      "geometry": "POINT (-73.958785 40.77258)",
      "poi_name": "Lenwich",
      "osm_id": 7055185614,
      "amenity": "restaurant",
      "cuisine": "sandwich",
      "opening_hours": "08:00-18:00",
      "website": "https://www.lenwich.com",
      "phone": "+1 212-288-5288",
      "takeaway": "yes",
      "delivery": "yes",
      "addr_state": "NY",
      "addr_city": "New York",
      "addr_postcode": "10021",
      "addr_street": "3rd Avenue",
      "addr_housenumber": "1332"
    },
    {
      "id": 206051,
      "geometry": "POINT (-73.999297 40.674961)",
      "poi_name": "Cremini's",
      "osm_id": 7194344517,
      "amenity": "restaurant",
      "cuisine": "italian;sandwich",
      "opening_hours": "Mo-Fr 16:00-22:00; Sa-Su 12:00-22:00",
      "website": "https://creminis.com",
      "phone": "+1-929-305-2967",
      "outdoor_seating": "street",
      "toilets": "yes"
    },
    {
      "id": 204445,
      "geometry": "POINT (-73.912881 40.699021)",
      "poi_name": "NEWYORKTITLAN",
      "osm_id": 7126529285,
      "amenity": "restaurant",
      "cuisine": "mexican;sandwich;breakfast",
      "opening_hours": "Mo-Fr 09:00-16:00; Sa, Su 09:00-17:00",
      "website": "https://newyorktitlan.myshopify.com/",
      "phone": "+1-347-715-5387",
      "takeaway": "yes",
      "addr_street": "Gates Avenue",
      "addr_housenumber": "1525"
    },
    {
      "id": 207174,
      "geometry": "POINT (-73.695006 40.742785)",
      "poi_name": "Hangry Restaurant",
      "osm_id": 7240955873,
      "amenity": "restaurant",
      "cuisine": "pizza;sandwich;hot_dog",
      "addr_street": "Hillside Avenue"
    },
    {
      "id": 208058,
      "geometry": "POINT (-74.013462 40.707586)",
      "poi_name": "Wogies",
      "osm_id": 4972322721,
      "amenity": "restaurant",
      "cuisine": "sandwich",
      "opening_hours": "Mo-Su 11:00-02:00",
      "website": "https://wogies.com",
      "phone": "+1 212-785-2838",
      "takeaway": "yes",
      "outdoor_seating": "no",
      "delivery": "yes",
      "addr_city": "New York",
      "addr_street": "Trinity Place",
      "addr_housenumber": "44"
    },
    {
      "id": 210685,
      "geometry": "POINT (-74.029922 40.746223)",
      "poi_name": "Mr. Wrap's",
      "osm_id": 5113963278,
      "amenity": "restaurant",
      "cuisine": "sandwich;american",
      "wheelchair": "limited",
      "opening_hours": "Mo-Fr 10:00-22:30, Sa-Su 9:00-22:30",
      "capacity": "10",
      "takeaway": "yes",
      "outdoor_seating": "yes",
      "delivery": "yes",
      "addr_state": "NJ",
      "addr_city": "Hoboken",
      "addr_postcode": "07030",
      "addr_street": "Garden Street",
      "addr_housenumber": "741"
    },
    {
      "id": 210825,
      "geometry": "POINT (-73.951009 40.723913)",
      "poi_name": "Frankel's Delicatessen and Appetizing",
      "osm_id": 5123299921,
      "amenity": "restaurant",
      "cuisine": "bagel;sandwich;deli",
      "website": "https://www.frankelsdelicatessen.com",
      "phone": "+1-718-389-2302",
      "addr_state": "NY",
      "addr_city": "Brooklyn",
      "addr_postcode": "11222",
      "addr_street": "Manhattan Avenue",
      "addr_housenumber": "631"
    },
    {
      "id": 211369,
      "geometry": "POINT (-73.790262 40.739488)",
      "poi_name": "Halal Boyz",
      "osm_id": 5155256166,
      "amenity": "restaurant",
      "cuisine": "fast_food;burger;sandwich",
      "toilets": "yes",
      "addr_street": "Horace Harding Expressway",
      "addr_housenumber": "183-20"
    },
    {
      "id": 211386,
      "geometry": "POINT (-73.931172 40.703641)",
      "poi_name": "Tina's Place",
      "osm_id": 5155660121,
      "amenity": "restaurant",
      "cuisine": "american;wrap;pancake;sandwich",
      "opening_hours": "Mo-Su 03:00-16:00",
      "phone": "+1-718-497-6890",
      "takeaway": "yes",
      "delivery": "yes",
      "addr_street": "Flushing Avenue",
      "addr_housenumber": "1002"
    },
    {
      "id": 212491,
      "geometry": "POINT (-73.980464 40.615016)",
      "poi_name": "Bay Bagels",
      "osm_id": 5209205752,
      "amenity": "restaurant",
      "cuisine": "sandwich;deli;coffee",
      "capacity": "15",
      "takeaway": "yes",
      "delivery": "yes",
      "addr_state": "NY",
      "addr_city": "Brooklyn",
      "addr_postcode": "11204",
      "addr_street": "Bay Parkway",
      "addr_housenumber": "6302"
    },
    {
      "id": 225371,
      "geometry": "POINT (-73.908612 40.706745)",
      "poi_name": "Salty Lunch Lady\u2019s Little Luncheonette",
      "osm_id": 11124103373,
      "amenity": "restaurant",
      "cuisine": "american;sandwich",
      "addr_state": "NY",
      "addr_city": "Ridgewood",
      "addr_postcode": "11385",
      "addr_street": "Woodward Avenue",
      "addr_housenumber": "565"
    },
    {
      "id": 223747,
      "geometry": "POINT (-73.963149 40.761554)",
      "poi_name": "Capriotti's",
      "osm_id": 11062619196,
      "amenity": "restaurant",
      "cuisine": "sandwich",
      "wheelchair": "yes",
      "opening_hours": "10:00-22:00",
      "website": "https://order.capriottis.com/store/8624",
      "phone": "+1 646-838-5130",
      "addr_state": "NY",
      "addr_city": "New York",
      "addr_postcode": "10065",
      "addr_street": "East 61st Street",
      "addr_housenumber": "300"
    },
    {
      "id": 222190,
      "geometry": "POINT (-73.778163 40.642251)",
      "poi_name": "Beacon Bar and Kitchen",
      "osm_id": 11009135682,
      "amenity": "restaurant",
      "cuisine": "pizza;sandwich"
    },
    {
      "id": 235405,
      "geometry": "POINT (-73.992094 40.759443)",
      "poi_name": "Lenwich",
      "osm_id": 5754840633,
      "amenity": "restaurant",
      "cuisine": "sandwich",
      "addr_street": "9th Avenue",
      "addr_housenumber": "613"
    },
    {
      "id": 231554,
      "geometry": "POINT (-74.002407 40.684112)",
      "poi_name": "Cafe Spaghetti",
      "osm_id": 4475198381,
      "amenity": "restaurant",
      "cuisine": "italian;sandwich;coffee_shop",
      "opening_hours": "Tu-Fr 08:00-14:30,17:00-22:00; Sa 09:00-14:30,17:00-22:00; Su 09:00-14:30,17:00-21:00",
      "website": "https://www.cafespaghetti.com",
      "outdoor_seating": "garden;street"
    },
    {
      "id": 235050,
      "geometry": "POINT (-73.935398 40.69721)",
      "poi_name": "Sajhoma #3",
      "osm_id": 5744312486,
      "amenity": "restaurant",
      "cuisine": "latin_american;sandwich;american;italian",
      "wheelchair": "yes",
      "phone": "+1-718-443-0243",
      "takeaway": "yes",
      "delivery": "yes",
      "toilets": "yes",
      "addr_postcode": "11206",
      "addr_street": "Broadway",
      "addr_housenumber": "941"
    },
    {
      "id": 227699,
      "geometry": "POINT (-74.004706 40.615652)",
      "poi_name": "Lioni Italian Heroes",
      "osm_id": 4316449892,
      "amenity": "restaurant",
      "cuisine": "italian;sandwich",
      "opening_hours": "Mo-Sa 08:00-19:00; Su 08:30-14:30",
      "website": "https://www.lioniheroes.com",
      "phone": "+1 718-232-1411",
      "takeaway": "yes",
      "delivery": "yes",
      "addr_postcode": "11232",
      "addr_street": "15th Avenue",
      "addr_housenumber": "7803"
    },
    {
      "id": 227701,
      "geometry": "POINT (-73.94949 40.679121)",
      "poi_name": "David's Brisket House",
      "osm_id": 4316479293,
      "amenity": "restaurant",
      "cuisine": "sandwich",
      "opening_hours": "Mo-Th 09:00-21:00; Fr-Sa 09:00-22:00; Su 10:00-20:00",
      "phone": "+1-718-789-1155",
      "addr_postcode": "11216",
      "addr_street": "Nostrand Avenue",
      "addr_housenumber": "533"
    },
    {
      "id": 227752,
      "geometry": "POINT (-73.960739 40.712665)",
      "poi_name": "Bunk Sandwiches",
      "osm_id": 4317379401,
      "amenity": "restaurant",
      "cuisine": "sandwich",
      "addr_state": "NY",
      "addr_city": "Brooklyn",
      "addr_postcode": "11211",
      "addr_street": "Driggs Avenue",
      "addr_housenumber": "740"
    },
    {
      "id": 235355,
      "geometry": "POINT (-73.993144 40.73378)",
      "poi_name": "The Grey Dog",
      "osm_id": 5752611173,
      "amenity": "restaurant",
      "cuisine": "sandwich;burger;salad",
      "wheelchair": "yes",
      "opening_hours": "Mo-Fr 07:30-22:00; Sa, Su 08:15-22:00",
      "website": "https://thegreydog.com/",
      "internet_access": "wlan",
      "phone": "+1-212-966-1060",
      "takeaway": "yes",
      "delivery": "yes",
      "toilets": "yes",
      "addr_street": "University Place",
      "addr_housenumber": "90"
    },
    {
      "id": 237525,
      "geometry": "POINT (-74.039189 40.765174)",
      "poi_name": "Tom's Delicious Pizza",
      "osm_id": 5837223689,
      "amenity": "restaurant",
      "cuisine": "pizza;sandwich;pasta",
      "capacity": "5",
      "phone": "+1 (201) 553-0333",
      "takeaway": "yes",
      "addr_state": "NJ",
      "addr_city": "Union City",
      "addr_postcode": "07087",
      "addr_street": "Summit Avenue",
      "addr_housenumber": "1719"
    },
    {
      "id": 237073,
      "geometry": "POINT (-73.991753 40.755456)",
      "poi_name": "Rattle N Hum West",
      "osm_id": 5818318681,
      "amenity": "restaurant",
      "cuisine": "pizza;sandwich;breakfast;american",
      "wheelchair": "yes",
      "opening_hours": "Mo-We, Su 06:00-02:00; Th-Sa 06:00-04:00",
      "website": "https://rattlenhumbarnyc.com/rattlenhumwest",
      "phone": "+1-917-262-0423",
      "takeaway": "yes",
      "toilets": "yes",
      "addr_street": "West 39th Street",
      "addr_housenumber": "306"
    },
    {
      "id": 237033,
      "geometry": "POINT (-73.989044 40.751862)",
      "poi_name": "Macaron Caf\u00e9",
      "osm_id": 5816276401,
      "amenity": "restaurant",
      "cuisine": "french;sandwich;salad",
      "wheelchair": "yes",
      "opening_hours": "Mo-Fr 07:00-19:30; Sa 09:00-19:00",
      "website": "https://macaroncafe.com/",
      "phone": "+1-212-564-3525",
      "takeaway": "yes",
      "delivery": "yes",
      "addr_street": "West 36th Street",
      "addr_housenumber": "152"
    },
    {
      "id": 242712,
      "geometry": "POINT (-74.048833 40.723136)",
      "poi_name": "Sub Culture",
      "osm_id": 7592942132,
      "amenity": "restaurant",
      "cuisine": "sandwich",
      "website": "https://www.subculturejc.com/",
      "takeaway": "yes",
      "addr_state": "NJ",
      "addr_city": "Jersey City",
      "addr_postcode": "07302",
      "addr_street": "Newark Avenue",
      "addr_housenumber": "260"
    },
    {
      "id": 240192,
      "geometry": "POINT (-73.955555 40.712437)",
      "poi_name": "Gertie",
      "osm_id": 5962184849,
      "amenity": "restaurant",
      "cuisine": "coffee_shop;sandwich;american;regional",
      "description": "Luncheonette and Liquor Bar",
      "website": "https://www.gertie.nyc/",
      "delivery": "no",
      "addr_state": "NY",
      "addr_city": "Brooklyn",
      "addr_postcode": "11211",
      "addr_street": "Marcy Avenue",
      "addr_housenumber": "58"
    },
    {
      "id": 244035,
      "geometry": "POINT (-74.469024 40.799344)",
      "poi_name": "Ridgedale Lunch",
      "osm_id": 7696045983,
      "amenity": "restaurant",
      "cuisine": "burger;omelette;sandwich",
      "opening_hours": "Mo-Sa 06:00-14:00",
      "addr_state": "NJ",
      "addr_city": "Morristown",
      "addr_postcode": "07960",
      "addr_street": "Ridgedale Avenue",
      "addr_housenumber": "66"
    }
  ],
  "answer_type": "name",
  "question_entities": {
    "[1]": {
      "main_category": "amenity",
      "sub_category": "restaurant",
      "poi_filter_desc": "sandwich restaurant",
      "poi_filter_sql": "cuisine ILIKE '%sandwich%'"
    },
    "[2]": {
      "distance": 50000,
      "text": "50 kilometers"
    },
    "[3]": {
      "main_category": "tourism",
      "sub_category": "attraction",
      "display_name": "Urban Air Trampoline & Adventure Park, South Hackensack, NJ",
      "geo_wkt": "POINT (-74.053112 40.869207)",
      "poi": {
        "id": 23386,
        "geometry": "POINT (-74.053112 40.869207)",
        "poi_name": "Urban Air Trampoline & Adventure Park",
        "osm_id": 5159110696,
        "leisure": "playground",
        "description": "Trampoline Park in South Hackensack.",
        "tourism": "attraction",
        "operator": "Urban Air LLC",
        "website": "https://www.urbanairtrampolinepark.com/trampoline-park-locations/south-hackensack-nj/",
        "phone": "+1-201- 212-6454",
        "addr_state": "NJ",
        "addr_city": "South Hackensack",
        "addr_postcode": "07606",
        "addr_street": "Wesley Street",
        "addr_housenumber": "69"
      }
    }
  },
  "id": 574,
  "type": "range:non_spat_filter+name"
}