{
  "question": "Would you be able to find me an emergency hospital located within 190 kilometers from Joy Burns Arena, CO?",
  "sql": "SELECT * FROM pois\nWHERE ST_DWithin(pois.geometry, ST_GeomFromText('POINT (-104.961111 39.6825)',4326)::geography, 190000)\nAND amenity = 'hospital'\nAND emergency ILIKE '%yes%';\n",
  "answers": [
    {
      "id": 46398,
      "geometry": "POINT (-104.769926 39.547935)",
      "poi_name": "Children's Hospital Colorado at Parker Adventist Hospital, Emergency Care, Parker",
      "osm_id": 3262306022,
      "amenity": "hospital",
      "opening_hours": "24/7",
      "operator": "Children's Hospital Colorado",
      "website": "https://www.childrenscolorado.org/your-visit/locations/parker-adventist-hospital/",
      "phone": "+1-720-777-1350",
      "healthcare": "hospital",
      "emergency": "yes",
      "addr_state": "CO",
      "addr_city": "Parker",
      "addr_postcode": "80138",
      "addr_street": "Crown Crest Boulevard",
      "addr_housenumber": "9395"
    },
    {
      "id": 48778,
      "geometry": "POINT (-104.990709 39.728464)",
      "poi_name": "Denver Health Medical Center Emergency Department Trauma Center",
      "osm_id": 3399819764,
      "amenity": "hospital",
      "opening_hours": "24/7",
      "website": "https://www.denverhealth.org/services/emergency-medicine",
      "phone": "+1-303-602-8100",
      "healthcare": "hospital",
      "emergency": "yes",
      "addr_state": "CO",
      "addr_city": "Denver",
      "addr_postcode": "80204",
      "addr_street": "Bannock Street",
      "addr_housenumber": "777"
    },
    {
      "id": 48779,
      "geometry": "POINT (-104.991082 39.727656)",
      "poi_name": "Denver Health Medical Emergency Center for Children",
      "osm_id": 3399825687,
      "amenity": "hospital",
      "opening_hours": "24/7",
      "website": "https://www.denverhealth.org/services/emergency-medicine/pediatric-emergency-urgent-care",
      "phone": "+1-303-436-6000",
      "healthcare": "hospital",
      "emergency": "yes",
      "addr_state": "CO",
      "addr_city": "Denver",
      "addr_postcode": "80204",
      "addr_street": "Bannock Street",
      "addr_housenumber": "777"
    },
    {
      "id": 61565,
      "geometry": "POINT (-104.971086 39.746176)",
      "poi_name": "SCL Health Saint Joseph Hospital",
      "osm_id": 5523640617,
      "amenity": "hospital",
      "website": "https://www.sclhealth.org/locations/saint-joseph-hospital/",
      "phone": "+1-303-812-2000",
      "healthcare": "hospital",
      "emergency": "yes",
      "wikidata": "Q5419994",
      "addr_state": "CO",
      "addr_city": "Denver",
      "addr_postcode": "80218",
      "addr_street": "East 19th Avenue",
      "addr_housenumber": "1375"
    },
    {
      "id": 76126,
      "geometry": "POINT (-105.109193 39.597005)",
      "poi_name": "West Littleton Health Center",
      "osm_id": 9760767133,
      "amenity": "hospital",
      "operator": "Centura Health",
      "healthcare": "hospital",
      "emergency": "yes"
    },
    {
      "id": 167746,
      "geometry": "POINT (-104.841661 39.742544)",
      "poi_name": "University of Colorado Hospital",
      "osm_id": 358949545,
      "amenity": "hospital",
      "website": "https://www.uchealth.org/metrodenver/Pages/default.aspx",
      "phone": "+1-720-848-0000",
      "healthcare": "hospital",
      "emergency": "yes",
      "wikidata": "Q7895285",
      "addr_postcode": "80045",
      "addr_street": "East 16th Avenue",
      "addr_housenumber": "12605"
    }
  ],
  "answer_type": "name",
  "question_entities": {
    "[1]": {
      "main_category": "amenity",
      "sub_category": "hospital",
      "poi_filter_desc": "emergency hospital",
      "poi_filter_sql": "emergency ILIKE '%yes%'"
    },
    "[2]": {
      "distance": 190000,
      "text": "190 kilometers"
    },
    "[3]": {
      "main_category": "leisure",
      "sub_category": "stadium",
      "display_name": "Joy Burns Arena, CO",
      "geo_wkt": "POINT (-104.961111 39.6825)",
      "poi": {
        "id": 265350,
        "geometry": "POINT (-104.961111 39.6825)",
        "poi_name": "Joy Burns Arena",
        "osm_id": 366396382,
        "leisure": "stadium",
        "addr_state": "CO"
      }
    }
  },
  "id": 593,
  "type": "range:non_spat_filter+name"
}