{
  "question": "I need assistance in locating a Hawaiian restaurant within 140 kilometers from Kona Cloud Forest - Guided Walking Tours, Kailua-Kona, HI. Can you help me out?",
  "sql": "SELECT * FROM pois\nWHERE ST_DWithin(pois.geometry, ST_GeomFromText('POINT (-155.946499 19.706114)',4326)::geography, 140000)\nAND amenity = 'restaurant'\nAND cuisine ILIKE '%Hawaiian%';\n",
  "answers": [
    {
      "id": 38304,
      "geometry": "POINT (-155.674807 20.022513)",
      "poi_name": "Hawaiian Style Cafe",
      "osm_id": 2856982732,
      "amenity": "restaurant",
      "cuisine": "hawaiian",
      "addr_state": "HI",
      "addr_city": "Kamuela",
      "addr_street": "Kawaihae Road",
      "addr_housenumber": "65-1290"
    },
    {
      "id": 91655,
      "geometry": "POINT (-155.464551 20.071898)",
      "poi_name": "Tex Drive In",
      "osm_id": 2080866730,
      "amenity": "restaurant",
      "cuisine": "donut;burger;hot_dog;hawaiian;breakfast;sandwich;salad;soup",
      "website": "https://www.texdriveinhawaii.com",
      "phone": "+1-808-775-0598",
      "addr_state": "HI",
      "addr_city": "Honokaa",
      "addr_postcode": "96727",
      "addr_street": "Pakalana Street",
      "addr_housenumber": "45-690"
    },
    {
      "id": 210958,
      "geometry": "POINT (-155.991042 19.829351)",
      "poi_name": "`ULU Ocean Grill",
      "osm_id": 5132030277,
      "amenity": "restaurant",
      "cuisine": "hawaiian;sushi",
      "opening_hours": "Mo-Su 06:30-11:00, 17:30-21:00",
      "operator": "Four Seasons Resort Hualalai",
      "website": "https://www.fourseasons.com/hualalai/dining/restaurants/ulu_ocean_grill/",
      "phone": "+1 808 325 8000",
      "addr_state": "HI",
      "addr_city": "Kailua-Kona",
      "addr_postcode": "96740",
      "addr_street": "Ka`upulehu Drive",
      "addr_housenumber": "72-100"
    },
    {
      "id": 212752,
      "geometry": "POINT (-155.069957 19.713098)",
      "poi_name": "Hawaiian Style Cafe",
      "osm_id": 5219178607,
      "amenity": "restaurant",
      "cuisine": "hawaiian",
      "toilets": "yes",
      "addr_state": "HI",
      "addr_city": "Hilo",
      "addr_postcode": "96720",
      "addr_street": "Manono Street",
      "addr_housenumber": "578"
    },
    {
      "id": 128194,
      "geometry": "POINT (-155.064288 19.696807)",
      "poi_name": "Zippy's",
      "osm_id": 8132874491,
      "amenity": "restaurant",
      "cuisine": "hawaiian;japanese;chinese;american",
      "takeaway": "yes",
      "addr_state": "HI",
      "addr_city": "Hilo",
      "addr_postcode": "96720",
      "addr_street": "Puainako Street",
      "addr_housenumber": "111"
    }
  ],
  "answer_type": "loc",
  "question_entities": {
    "[1]": {
      "main_category": "amenity",
      "sub_category": "restaurant",
      "poi_filter_desc": "Hawaiian restaurant",
      "poi_filter_sql": "cuisine ILIKE '%Hawaiian%'"
    },
    "[2]": {
      "distance": 140000,
      "text": "140 kilometers"
    },
    "[3]": {
      "main_category": "leisure",
      "sub_category": "nature reserve",
      "display_name": "Kona Cloud Forest - Guided Walking Tours, Kailua-Kona, HI",
      "geo_wkt": "POINT (-155.946499 19.706114)",
      "poi": {
        "id": 246983,
        "geometry": "POINT (-155.946499 19.706114)",
        "poi_name": "Kona Cloud Forest - Guided Walking Tours",
        "osm_id": 8504192679,
        "leisure": "nature_reserve",
        "description": "The Only Cloud Forest in the United States. Three Hour Guided Walking Tours weather permitting. All tours are offered through our educational non profit Painted Trees of Hawaii. All donations are 100% tax deductible. All tours are by appointment only.",
        "opening_hours": "Mo-Su 09:00-16:30",
        "operator": "Kelly Dunn",
        "website": "KonaCloudForest.Org",
        "phone": "+1-808-640-3888",
        "addr_state": "HI",
        "addr_city": "Kailua-Kona",
        "addr_postcode": "96740",
        "addr_street": "Hao Street",
        "addr_housenumber": "73-1865"
      }
    }
  },
  "id": 430,
  "type": "range:non_spat_filter+loc"
}