{
  "question": "What's the course towards a caf\u00e9 from CTOR, Killeen, TX within 170 kilometers?",
  "sql": "SELECT *, degrees(ST_Azimuth(ST_GeomFromText('POINT (-97.676797 30.96805)',4326)::geography, pois.geometry)) AS angle FROM pois\nWHERE ST_DWithin(pois.geometry, ST_GeomFromText('POINT (-97.676797 30.96805)',4326)::geography, 170000)\nAND amenity = 'cafe';\n",
  "answers": [
    {
      "id": 28254,
      "geometry": "POINT (-97.878824 30.202674)",
      "poi_name": "Starbucks",
      "osm_id": 472263141,
      "amenity": "cafe",
      "cuisine": "coffee_shop",
      "takeaway": "yes",
      "official_name": "Starbucks Coffee",
      "angle": 192.91548205901907
    },
    {
      "id": 28406,
      "geometry": "POINT (-97.93835 29.885465)",
      "poi_name": "Jo on the Go",
      "osm_id": 479057769,
      "amenity": "cafe",
      "cuisine": "greek",
      "angle": 191.89166309427733
    },
    {
      "id": 28428,
      "geometry": "POINT (-97.726396 30.401991)",
      "poi_name": "Starbucks",
      "osm_id": 480598791,
      "amenity": "cafe",
      "cuisine": "coffee_shop",
      "wheelchair": "yes",
      "opening_hours": "Mo-Fr 06:00-21:00; Sa,Su 06:30-21:00",
      "internet_access": "wlan",
      "takeaway": "yes",
      "official_name": "Starbucks Coffee",
      "outdoor_seating": "yes",
      "addr_state": "TX",
      "addr_city": "Austin",
      "addr_postcode": "78758",
      "addr_street": "Century Oaks Terrace",
      "addr_housenumber": "11410",
      "angle": 184.34332690431157
    },
    {
      "id": 29277,
      "geometry": "POINT (-97.680659 30.561104)",
      "poi_name": "Starbucks",
      "osm_id": 8292116212,
      "amenity": "cafe",
      "cuisine": "coffee_shop",
      "wheelchair": "yes",
      "phone": "+1-512-626-2159",
      "takeaway": "yes",
      "official_name": "Starbucks Coffee",
      "outdoor_seating": "yes",
      "delivery": "yes",
      "addr_state": "TX",
      "addr_city": "Round Rock",
      "addr_postcode": "78665",
      "addr_street": "University Boulevard",
      "addr_housenumber": "455",
      "angle": 180.47053378197683
    },
    {
      "id": 29284,
      "geometry": "POINT (-97.681176 30.558886)",
      "poi_name": "Palkis Cafe",
      "osm_id": 8293393476,
      "amenity": "cafe",
      "wheelchair": "yes",
      "phone": "+1-512-246-7235",
      "takeaway": "yes",
      "outdoor_seating": "no",
      "addr_state": "TX",
      "addr_city": "Round Rock",
      "addr_postcode": "78665",
      "addr_street": "University Boulevard",
      "addr_housenumber": "425",
      "angle": 180.5305916734746
    },
    {
      "id": 29305,
      "geometry": "POINT (-97.689838 30.560087)",
      "poi_name": "Summer Moon Woodfired Coffee",
      "osm_id": 8295108668,
      "amenity": "cafe",
      "cuisine": "coffee_shop",
      "wheelchair": "yes",
      "opening_hours": "Mo-Fr 06:00-20:00; Sa-Su 07:00-20:00",
      "website": "https://summermooncoffee.com/",
      "phone": "+1-512-843-4269",
      "takeaway": "yes",
      "outdoor_seating": "yes",
      "delivery": "yes",
      "addr_state": "TX",
      "addr_city": "Round Rock",
      "addr_postcode": "78665",
      "addr_street": "University Boulevard",
      "addr_housenumber": "200",
      "angle": 181.5845859789194
    },
    {
      "id": 29778,
      "geometry": "POINT (-96.316408 30.638246)",
      "poi_name": "Minuti Coffee",
      "osm_id": 8326278871,
      "amenity": "cafe",
      "cuisine": "coffee_shop",
      "opening_hours": "Mo-Fr 06:00-21:00; Sa-Su 07:00-21:00",
      "angle": 105.33852252496345
    },
    {
      "id": 31200,
      "geometry": "POINT (-97.795777 30.137192)",
      "poi_name": "Opera Caf\u00e9 & Coffeehouse",
      "osm_id": 8410344622,
      "amenity": "cafe",
      "cuisine": "breakfast;salad;sandwich;burger",
      "wheelchair": "yes",
      "opening_hours": "Mo-Fr 07:00-15:00; Sa-Su 08:00-15:00",
      "website": "http://www.operacafeaustin.com/",
      "internet_access": "no",
      "phone": "+1-512-296-2755",
      "takeaway": "no",
      "outdoor_seating": "yes",
      "delivery": "no",
      "addr_state": "TX",
      "addr_city": "Austin",
      "addr_postcode": "78747",
      "addr_street": "South Interstate 35",
      "addr_housenumber": "11215",
      "angle": 187.09527478717146
    },
    {
      "id": 31391,
      "geometry": "POINT (-97.727544 30.24241)",
      "poi_name": "Starbucks",
      "osm_id": 8421705334,
      "amenity": "cafe",
      "cuisine": "coffee_shop",
      "wheelchair": "yes",
      "opening_hours": "Su-Mo 08:00-18:00; Tu-Fr 05:00-21:00",
      "internet_access": "wlan",
      "phone": "+1-512-592-9727",
      "takeaway": "yes",
      "official_name": "Starbucks Coffee",
      "outdoor_seating": "yes",
      "delivery": "yes",
      "addr_state": "TX",
      "addr_city": "Austin",
      "addr_postcode": "78741",
      "addr_street": "East Riverside Drive",
      "addr_housenumber": "1920",
      "angle": 183.47465185305245
    },
    {
      "id": 32417,
      "geometry": "POINT (-97.357939 31.103149)",
      "poi_name": "Black Rifle Coffee Company",
      "osm_id": 2625468388,
      "amenity": "cafe",
      "cuisine": "coffee_shop",
      "website": "https://www.blackriflecoffee.com/retail/temple",
      "phone": "210-890-2675",
      "addr_state": "Tx",
      "addr_city": "Temple",
      "addr_postcode": "76504",
      "addr_street": "North General Bruce Drive",
      "addr_housenumber": "111",
      "angle": 63.718465682465805
    },
    {
      "id": 32418,
      "geometry": "POINT (-97.356632 31.102883)",
      "poi_name": "Shipley's Donuts",
      "osm_id": 2625469400,
      "amenity": "cafe",
      "addr_state": "TX",
      "addr_city": "Temple",
      "angle": 63.855532398027485
    },
    {
      "id": 32986,
      "geometry": "POINT (-97.190531 31.533866)",
      "poi_name": "Starbucks",
      "osm_id": 2644344502,
      "amenity": "cafe",
      "cuisine": "coffee_shop",
      "takeaway": "yes",
      "official_name": "Starbucks Coffee",
      "angle": 36.31365469189812
    },
    {
      "id": 33013,
      "geometry": "POINT (-97.160363 31.497904)",
      "poi_name": "Starbucks",
      "osm_id": 2645873200,
      "amenity": "cafe",
      "cuisine": "coffee_shop",
      "takeaway": "yes",
      "official_name": "Starbucks Coffee",
      "angle": 39.81309917172595
    },
    {
      "id": 33581,
      "geometry": "POINT (-97.744405 30.278064)",
      "poi_name": "Starbucks",
      "osm_id": 2675028497,
      "amenity": "cafe",
      "cuisine": "coffee_shop",
      "takeaway": "yes",
      "drive_through": "no",
      "official_name": "Starbucks Coffee",
      "addr_city": "Austin",
      "addr_street": "West 15th Street",
      "addr_housenumber": "501",
      "angle": 184.86093235790295
    },
    {
      "id": 33582,
      "geometry": "POINT (-97.741283 30.268835)",
      "poi_name": "Slake Cafe",
      "osm_id": 2675179188,
      "amenity": "cafe",
      "takeaway": "yes",
      "drive_through": "no",
      "outdoor_seating": "no",
      "angle": 184.5769390012091
    },
    {
      "id": 35654,
      "geometry": "POINT (-97.741927 30.27972)",
      "poi_name": "Arturo's",
      "osm_id": 2727206432,
      "amenity": "cafe",
      "opening_hours": "Tu-Fr 08:00-14:00; Sa,Su 10:00-14:30",
      "addr_city": "Austin",
      "addr_postcode": "78701",
      "addr_street": "West 17th Street",
      "addr_housenumber": "314",
      "angle": 184.6947252248604
    },
    {
      "id": 36802,
      "geometry": "POINT (-97.738559 30.302625)",
      "poi_name": "YaYa Cafe",
      "osm_id": 2785219877,
      "amenity": "cafe",
      "website": "http://yayacafeaustin.com/",
      "addr_street": "Guadalupe Street",
      "addr_housenumber": "3706",
      "angle": 184.60447997229645
    },
    {
      "id": 36990,
      "geometry": "POINT (-97.869813 30.20047)",
      "poi_name": "Summer Moon",
      "osm_id": 2793724685,
      "amenity": "cafe",
      "addr_city": "Austin",
      "addr_postcode": "78749",
      "addr_street": "West Slaughter Lane",
      "addr_housenumber": "5701",
      "angle": 192.3231305767266
    },
    {
      "id": 37531,
      "geometry": "POINT (-96.692878 30.530867)",
      "poi_name": "Mad Hatters Tea Room",
      "osm_id": 2819145258,
      "amenity": "cafe",
      "website": "http://www.madhatterstearoom.com/index.html",
      "addr_city": "Caldwell",
      "addr_street": "South Echols Street",
      "addr_housenumber": "210",
      "angle": 116.97157261440063
    },
    {
      "id": 38501,
      "geometry": "POINT (-97.792558 30.237654)",
      "poi_name": "Starbucks",
      "osm_id": 2868784017,
      "amenity": "cafe",
      "cuisine": "coffee_shop",
      "takeaway": "yes",
      "official_name": "Starbucks Coffee",
      "angle": 187.83588904734492
    },
    {
      "id": 39723,
      "geometry": "POINT (-97.131954 31.556328)",
      "poi_name": "Dichotomy Coffee & Spirits",
      "osm_id": 2937257480,
      "amenity": "cafe",
      "cuisine": "coffee_shop",
      "internet_access": "yes",
      "angle": 38.36422580937265
    },
    {
      "id": 40443,
      "geometry": "POINT (-97.708002 30.305821)",
      "poi_name": "Starbucks",
      "osm_id": 2970345629,
      "amenity": "cafe",
      "cuisine": "coffee_shop",
      "wheelchair": "yes",
      "opening_hours": "Mo-Su 05:00-22:00",
      "website": "https://www.starbucks.com/store-locator/store/7462/i-35-barbara-jordan-mueller-w-1201-barbara-jordan-blvd-1200-austin-tx-787233083-",
      "internet_access": "wlan",
      "phone": "+1-512-391-1801",
      "takeaway": "yes",
      "official_name": "Starbucks Coffee",
      "outdoor_seating": "yes",
      "addr_state": "TX",
      "addr_city": "Austin",
      "addr_postcode": "78723",
      "addr_street": "Barbara Jordan Boulevard",
      "addr_housenumber": "1201",
      "angle": 182.3412685141841
    },
    {
      "id": 41512,
      "geometry": "POINT (-96.676656 29.904479)",
      "poi_name": "Orsak's Cafe",
      "osm_id": 3018972732,
      "amenity": "cafe",
      "cuisine": "regional",
      "internet_access": "no",
      "angle": 140.57120777951607
    },
    {
      "id": 41868,
      "geometry": "POINT (-97.837314 30.222115)",
      "poi_name": "Starbucks",
      "osm_id": 3027587146,
      "amenity": "cafe",
      "cuisine": "coffee_shop",
      "wheelchair": "yes",
      "takeaway": "yes",
      "official_name": "Starbucks Coffee",
      "angle": 190.58621560389292
    },
    {
      "id": 44458,
      "geometry": "POINT (-97.679098 30.407144)",
      "poi_name": "Shahi Cafe",
      "osm_id": 3159519435,
      "amenity": "cafe",
      "cuisine": "indian;mediterranean;dessert",
      "wheelchair": "yes",
      "opening_hours": "Mo-Su 11:00-20:00",
      "phone": "+1-512-837-8669",
      "takeaway": "yes",
      "addr_state": "TX",
      "addr_city": "Austin",
      "addr_postcode": "78753",
      "addr_street": "North Lamar Boulevard",
      "addr_housenumber": "12410",
      "angle": 180.20367932288966
    },
    {
      "id": 44892,
      "geometry": "POINT (-97.784248 30.295435)",
      "poi_name": "Mozart's Coffee Roasters",
      "osm_id": 3181780243,
      "amenity": "cafe",
      "cuisine": "coffee_shop",
      "wheelchair": "yes",
      "internet_access": "yes",
      "addr_city": "Austin",
      "addr_street": "Lake Austin Boulevard",
      "addr_housenumber": "3825",
      "angle": 187.89274258247391
    },
    {
      "id": 44893,
      "geometry": "POINT (-97.749355 30.251089)",
      "poi_name": "Jo's Coffee",
      "osm_id": 3181780244,
      "amenity": "cafe",
      "website": "https://www.joscoffee.com/south-congress-jos",
      "addr_street": "South Congress Avenue",
      "addr_housenumber": "1300",
      "angle": 185.0211423255291
    },
    {
      "id": 44895,
      "geometry": "POINT (-97.740007 30.310607)",
      "poi_name": "Houndstooth",
      "osm_id": 3181780246,
      "amenity": "cafe",
      "cuisine": "coffee_shop",
      "opening_hours": "Mo-Su 06:30-17:00",
      "website": "https://www.houndstoothcoffee.com/",
      "internet_access": "yes",
      "phone": "+1-512-531-9417",
      "outdoor_seating": "yes",
      "addr_state": "TX",
      "addr_city": "Austin",
      "addr_postcode": "78756",
      "addr_street": "North Lamar Boulevard",
      "addr_housenumber": "4200",
      "angle": 184.76849468567534
    },
    {
      "id": 44901,
      "geometry": "POINT (-97.719627 30.279798)",
      "poi_name": "Bennu Coffee",
      "osm_id": 3181892455,
      "amenity": "cafe",
      "cuisine": "coffee_shop",
      "website": "https://bennucoffee.com/",
      "phone": "+1-512-478-4700",
      "addr_state": "TX",
      "addr_city": "Austin",
      "addr_postcode": "78702",
      "addr_street": "East Martin Luther King Jr Boulevard",
      "addr_housenumber": "2001",
      "angle": 183.09152029983866
    },
    {
      "id": 45133,
      "geometry": "POINT (-97.783535 30.242217)",
      "poi_name": "Kerbey Lane Cafe",
      "osm_id": 3190821386,
      "amenity": "cafe",
      "opening_hours": "Fr-Sa 07:00-24:00; Su-Th 07:00-22:00",
      "website": "https://kerbeylanecafe.com/locations/south",
      "phone": "+1-512-445-4451",
      "outdoor_seating": "yes",
      "addr_state": "TX",
      "addr_city": "Austin",
      "addr_postcode": "78704",
      "addr_street": "South Lamar Boulevard",
      "addr_housenumber": "3003",
      "angle": 187.27646356718452
    },
    {
      "id": 45142,
      "geometry": "POINT (-97.74608 30.265042)",
      "poi_name": "Jo's Coffee",
      "osm_id": 3190877885,
      "amenity": "cafe",
      "opening_hours": "Mo-Fr 07:00-18:00; Sa,Su 08:00-18:00",
      "internet_access": "wlan",
      "phone": "+1-512-462-9003",
      "addr_street": "West 2nd Street",
      "addr_housenumber": "242",
      "angle": 184.88962436559527
    },
    {
      "id": 45143,
      "geometry": "POINT (-97.756227 30.232602)",
      "poi_name": "Jo's Coffee",
      "osm_id": 3190877898,
      "amenity": "cafe",
      "cuisine": "coffee_shop",
      "addr_street": "South Congress Avenue",
      "addr_housenumber": "3001",
      "angle": 185.35766539654142
    },
    {
      "id": 45144,
      "geometry": "POINT (-97.743114 30.266284)",
      "poi_name": "Houndstooth",
      "osm_id": 3190890891,
      "amenity": "cafe",
      "addr_street": "Congress Avenue",
      "addr_housenumber": "401",
      "angle": 184.6894029617259
    },
    {
      "id": 45265,
      "geometry": "POINT (-97.727762 30.264284)",
      "poi_name": "Revival Coffee",
      "osm_id": 3197335001,
      "amenity": "cafe",
      "cuisine": "coffee_shop",
      "internet_access": "wlan",
      "outdoor_seating": "yes",
      "addr_state": "TX",
      "addr_city": "Austin",
      "addr_postcode": "78702",
      "addr_street": "East 7th Street",
      "addr_housenumber": "1405",
      "angle": 183.5969376748101
    },
    {
      "id": 45560,
      "geometry": "POINT (-97.747232 31.111233)",
      "poi_name": "Starbucks",
      "osm_id": 3216852041,
      "amenity": "cafe",
      "cuisine": "coffee_shop",
      "takeaway": "yes",
      "official_name": "Starbucks Coffee",
      "angle": 337.0619804800835
    },
    {
      "id": 45563,
      "geometry": "POINT (-97.744369 31.113379)",
      "poi_name": "Chau's Cafe",
      "osm_id": 3216886299,
      "amenity": "cafe",
      "angle": 338.1987767601153
    },
    {
      "id": 46081,
      "geometry": "POINT (-97.74651 30.265849)",
      "poi_name": "Starbucks",
      "osm_id": 3245051655,
      "amenity": "cafe",
      "cuisine": "coffee_shop",
      "takeaway": "yes",
      "official_name": "Starbucks Coffee",
      "angle": 184.92537787593199
    },
    {
      "id": 47028,
      "geometry": "POINT (-98.483984 29.61431)",
      "poi_name": "Local Coffee",
      "osm_id": 3303450155,
      "amenity": "cafe",
      "cuisine": "coffee_shop",
      "opening_hours": "Mo-Fr 06:30-20:00, Sa 07:00-20:00, Su 07:00-18:00",
      "website": "http://www.localcoffeesa.com",
      "internet_access": "wlan",
      "angle": 207.5636049298089
    },
    {
      "id": 50786,
      "geometry": "POINT (-97.742354 30.233657)",
      "poi_name": "Starbucks",
      "osm_id": 3506571688,
      "amenity": "cafe",
      "cuisine": "coffee_shop",
      "takeaway": "yes",
      "official_name": "Starbucks Coffee",
      "angle": 184.43225681696438
    },
    {
      "id": 51227,
      "geometry": "POINT (-98.467519 29.605539)",
      "poi_name": "Starbucks",
      "osm_id": 522234358,
      "amenity": "cafe",
      "cuisine": "coffee_shop",
      "takeaway": "yes",
      "official_name": "Starbucks Coffee",
      "angle": 206.93242915624324
    },
    {
      "id": 51323,
      "geometry": "POINT (-97.74164 30.3158)",
      "poi_name": "Upper Crust Bakery",
      "osm_id": 530778738,
      "amenity": "cafe",
      "wheelchair": "limited",
      "angle": 184.92961425946766
    },
    {
      "id": 51324,
      "geometry": "POINT (-97.740602 30.317378)",
      "poi_name": "Pacha",
      "osm_id": 530779155,
      "amenity": "cafe",
      "angle": 184.86266346994944
    },
    {
      "id": 51340,
      "geometry": "POINT (-97.727289 30.354055)",
      "poi_name": "Genuine Joe Coffeehouse",
      "osm_id": 530788990,
      "amenity": "cafe",
      "angle": 184.0793053758195
    },
    {
      "id": 51349,
      "geometry": "POINT (-97.745164 30.306568)",
      "poi_name": "Teo's Gelato and Espresso",
      "osm_id": 530929398,
      "amenity": "cafe",
      "angle": 185.12446313451264
    },
    {
      "id": 51352,
      "geometry": "POINT (-97.760199 30.332705)",
      "poi_name": "Russell's Bakery",
      "osm_id": 530932290,
      "amenity": "cafe",
      "angle": 186.4963632238447
    },
    {
      "id": 51387,
      "geometry": "POINT (-97.649489 29.681746)",
      "poi_name": "The Coffee Shop",
      "osm_id": 532753747,
      "amenity": "cafe",
      "angle": 178.9379821576859
    },
    {
      "id": 51427,
      "geometry": "POINT (-97.742826 30.294867)",
      "poi_name": "Ken's Donuts",
      "osm_id": 534448267,
      "amenity": "cafe",
      "angle": 184.86504107732262
    },
    {
      "id": 51435,
      "geometry": "POINT (-97.738612 30.301689)",
      "poi_name": "La Tazza Fresca",
      "osm_id": 534455646,
      "amenity": "cafe",
      "angle": 184.6020366374845
    },
    {
      "id": 51815,
      "geometry": "POINT (-97.832796 30.141679)",
      "poi_name": "Chuck's Deli",
      "osm_id": 561484694,
      "amenity": "cafe",
      "angle": 189.31848845510262
    },
    {
      "id": 51867,
      "geometry": "POINT (-97.847197 30.18523)",
      "poi_name": "Texenza Coffie",
      "osm_id": 564537851,
      "amenity": "cafe",
      "cuisine": "coffee_shop",
      "takeaway": "yes",
      "addr_street": "Brodie Lane",
      "addr_housenumber": "110",
      "angle": 190.7097491445379
    },
    {
      "id": 52214,
      "geometry": "POINT (-97.724504 30.318532)",
      "poi_name": "Epoch Coffee",
      "osm_id": 573843025,
      "amenity": "cafe",
      "cuisine": "coffee_shop",
      "website": "https://www.epochcoffee.com/",
      "internet_access": "wlan",
      "addr_postcode": "78751",
      "addr_street": "W North Loop Blvd.",
      "addr_housenumber": "221",
      "angle": 183.64607876786204
    },
    {
      "id": 53586,
      "geometry": "POINT (-97.966619 30.341152)",
      "poi_name": "Starbucks",
      "osm_id": 10087258569,
      "amenity": "cafe",
      "cuisine": "coffee_shop",
      "description": "Inside Randall\u2019s",
      "wheelchair": "yes",
      "opening_hours": "Mo-Su 06:00-20:00",
      "phone": "+1-512-263-6420",
      "takeaway": "yes",
      "official_name": "Starbucks Coffee",
      "outdoor_seating": "no",
      "toilets": "yes",
      "addr_state": "TX",
      "addr_city": "Lakeway",
      "addr_postcode": "78734",
      "addr_street": "Ranch Road 620 South",
      "addr_housenumber": "2301",
      "angle": 201.86010223946494
    },
    {
      "id": 54162,
      "geometry": "POINT (-97.740918 30.550274)",
      "poi_name": "Mojo Coffee",
      "osm_id": 10119503409,
      "amenity": "cafe",
      "cuisine": "coffee_shop",
      "angle": 187.5667670017905
    },
    {
      "id": 54704,
      "geometry": "POINT (-97.021732 30.645934)",
      "poi_name": "Perk Up Coffee House",
      "osm_id": 10148040300,
      "amenity": "cafe",
      "website": "https://www.dailyperkup.com/",
      "phone": "+12547807554",
      "addr_state": "TX",
      "addr_city": "Rockdale",
      "addr_postcode": "76567",
      "addr_street": "West Cameron Avenue",
      "addr_housenumber": "1703",
      "angle": 119.50131869488712
    },
    {
      "id": 54916,
      "geometry": "POINT (-97.880948 29.989153)",
      "poi_name": "Kyle's Daily Grind",
      "osm_id": 10162337079,
      "amenity": "cafe",
      "cuisine": "coffee_shop",
      "wheelchair": "yes",
      "opening_hours": "Mo-Fr 06:00-18:00; Su 08:00-15:00",
      "website": "https://www.kylesdailygrind.com/",
      "phone": "+1-512-268-9901",
      "takeaway": "yes",
      "drive_through": "yes",
      "outdoor_seating": "no",
      "delivery": "yes",
      "addr_state": "TX",
      "addr_city": "Kyle",
      "addr_postcode": "78640",
      "addr_street": "West Center Street",
      "addr_housenumber": "607",
      "angle": 190.29103290934017
    },
    {
      "id": 55197,
      "geometry": "POINT (-97.390351 32.356585)",
      "poi_name": "Sunrise Cafe",
      "osm_id": 10177319627,
      "amenity": "cafe",
      "cuisine": "american",
      "opening_hours": "Mo-Fr 06:00-15:00; Sa-Su 07:00-15:00",
      "phone": "+1-817-645-0055",
      "takeaway": "yes",
      "outdoor_seating": "yes",
      "addr_state": "TX",
      "addr_city": "Cleburne",
      "addr_postcode": "76033",
      "addr_street": "Williams Avenue",
      "addr_housenumber": "100",
      "angle": 9.93165135497301
    },
    {
      "id": 55210,
      "geometry": "POINT (-97.39296 32.378269)",
      "poi_name": "Scooter's Coffee",
      "osm_id": 10177565007,
      "amenity": "cafe",
      "cuisine": "coffee_shop",
      "opening_hours": "05:00-20:00",
      "website": "https://www.scooterscoffee.com",
      "phone": "+1-682-317-1233",
      "addr_state": "TX",
      "addr_city": "Cleburne",
      "addr_postcode": "76033",
      "addr_street": "North Main Street",
      "addr_housenumber": "2102",
      "angle": 9.692349018639842
    },
    {
      "id": 55836,
      "geometry": "POINT (-96.397763 30.166628)",
      "poi_name": "The Grand Leader",
      "osm_id": 10210531578,
      "amenity": "cafe",
      "cuisine": "coffee_shop",
      "wheelchair": "yes",
      "opening_hours": "Mo-Th,Su 07:30-17:00; Fr-Sa 07:30-18:00",
      "internet_access": "wlan",
      "addr_street": "East Alamo Street",
      "addr_housenumber": "100",
      "angle": 125.58149918743504
    },
    {
      "id": 56445,
      "geometry": "POINT (-97.734812 30.277468)",
      "poi_name": "Nourish",
      "osm_id": 10236686752,
      "amenity": "cafe",
      "opening_hours": "Mo-Fr 07:30-14:00",
      "outdoor_seating": "yes",
      "angle": 184.1702542316863
    },
    {
      "id": 56766,
      "geometry": "POINT (-96.398024 30.140969)",
      "poi_name": "Fortune Tea",
      "osm_id": 10247880056,
      "amenity": "cafe",
      "cuisine": "bubble_tea",
      "opening_hours": "Mo-Sa 10:30-21:00",
      "website": "https://fortunetea.com/",
      "phone": "+1-979-277-1111",
      "addr_state": "TX",
      "addr_city": "Brenham",
      "addr_postcode": "77833",
      "addr_street": "Highway 36 South",
      "addr_housenumber": "2670",
      "angle": 126.44542841030909
    },
    {
      "id": 56886,
      "geometry": "POINT (-96.339973 30.624544)",
      "poi_name": "Harvest Coffee Bar",
      "osm_id": 10251599403,
      "amenity": "cafe",
      "cuisine": "coffee_shop;sandwich",
      "opening_hours": "Mo-Su 07:00-18:00",
      "website": "https://www.harvestbcs.com/",
      "internet_access": "wlan",
      "phone": "+1-979-599-3236",
      "addr_state": "TX",
      "addr_city": "College Station",
      "addr_postcode": "77840",
      "addr_street": "University Drive",
      "addr_housenumber": "1037",
      "angle": 106.23302541838629
    },
    {
      "id": 57192,
      "geometry": "POINT (-97.883974 30.388023)",
      "poi_name": "Summer Moon Coffee",
      "osm_id": 5329733929,
      "amenity": "cafe",
      "opening_hours": "Mo-Su 06:00-20:00",
      "website": "https://summermooncoffee.com/",
      "phone": "(512) 401-3124",
      "drive_through": "yes",
      "outdoor_seating": "yes",
      "angle": 197.2098412519281
    },
    {
      "id": 57224,
      "geometry": "POINT (-97.718753 30.338688)",
      "poi_name": "Fat Cats: Organic Coffee & Desserts",
      "osm_id": 5330357249,
      "amenity": "cafe",
      "opening_hours": "We-Fr 09:00-16:00; Sa,Su 08:00-16:00; Mo,Tu off",
      "website": "https://www.fatcatsaustin.com",
      "addr_state": "TX",
      "addr_city": "Austin",
      "addr_postcode": "78752",
      "addr_street": "Easy Wind Drive",
      "addr_housenumber": "7020",
      "angle": 183.30928684335342
    },
    {
      "id": 57553,
      "geometry": "POINT (-97.806931 30.470595)",
      "poi_name": "Starbucks",
      "osm_id": 5339602851,
      "amenity": "cafe",
      "cuisine": "coffee_shop",
      "takeaway": "yes",
      "official_name": "Starbucks Coffee",
      "angle": 192.76881720977534
    },
    {
      "id": 58297,
      "geometry": "POINT (-97.829092 30.47985)",
      "poi_name": "Summer Moon coffee bar",
      "osm_id": 5370115622,
      "amenity": "cafe",
      "cuisine": "coffee_shop",
      "angle": 195.12193882386265
    },
    {
      "id": 59402,
      "geometry": "POINT (-97.677579 30.508782)",
      "poi_name": "Star Coffee",
      "osm_id": 5423401422,
      "amenity": "cafe",
      "internet_access": "wlan",
      "addr_state": "TX",
      "addr_city": "Round Rock",
      "addr_postcode": "78664",
      "addr_street": "East Main Street",
      "addr_housenumber": "201",
      "angle": 180.08450199503545
    },
    {
      "id": 59522,
      "geometry": "POINT (-97.630943 30.443072)",
      "poi_name": "Donut Palace",
      "osm_id": 5429998721,
      "amenity": "cafe",
      "cuisine": "donut;coffee_shop",
      "outdoor_seating": "no",
      "addr_state": "TX",
      "addr_city": "Pflugerville",
      "addr_postcode": "78660",
      "addr_street": "12th Street",
      "addr_housenumber": "100",
      "angle": 175.6721351773355
    },
    {
      "id": 59659,
      "geometry": "POINT (-97.698035 30.437845)",
      "poi_name": "Johnny Beans",
      "osm_id": 5436383521,
      "amenity": "cafe",
      "cuisine": "coffee_shop",
      "internet_access": "wlan",
      "angle": 181.98778542806818
    },
    {
      "id": 60463,
      "geometry": "POINT (-97.825123 30.292394)",
      "poi_name": "Starbucks",
      "osm_id": 5465673506,
      "amenity": "cafe",
      "cuisine": "coffee_shop",
      "takeaway": "yes",
      "official_name": "Starbucks Coffee",
      "angle": 190.78704626505797
    },
    {
      "id": 60710,
      "geometry": "POINT (-96.373099 30.67388)",
      "poi_name": "Harvest Coffee Bar",
      "osm_id": 5476786321,
      "amenity": "cafe",
      "opening_hours": "Mo-Su 07:00-22:00",
      "addr_state": "TX",
      "addr_city": "Bryan",
      "addr_postcode": "77803",
      "addr_street": "North Main Street",
      "addr_housenumber": "101",
      "angle": 104.31746069587699
    },
    {
      "id": 60953,
      "geometry": "POINT (-97.650281 30.388602)",
      "poi_name": "Starbucks",
      "osm_id": 5488522987,
      "amenity": "cafe",
      "cuisine": "coffee_shop",
      "takeaway": "yes",
      "official_name": "Starbucks Coffee",
      "angle": 177.72821909842546
    },
    {
      "id": 61107,
      "geometry": "POINT (-96.482353 32.082849)",
      "poi_name": "Golden Tea House",
      "osm_id": 5497847702,
      "amenity": "cafe",
      "cuisine": "tea",
      "angle": 42.23425005259327
    },
    {
      "id": 61409,
      "geometry": "POINT (-97.841449 30.474546)",
      "poi_name": "Cypress Creek Coffee Company",
      "osm_id": 5517401990,
      "amenity": "cafe",
      "cuisine": "coffee_shop",
      "internet_access": "wlan",
      "angle": 196.12152572560345
    },
    {
      "id": 61824,
      "geometry": "POINT (-97.742058 30.288567)",
      "poi_name": "Lucky Lab Coffee",
      "osm_id": 5538321951,
      "amenity": "cafe",
      "cuisine": "coffee_shop",
      "description": "Local coffee shop with gourmet bakeries.",
      "website": "https://www.luckylabcoffee.com/",
      "internet_access": "wlan",
      "outdoor_seating": "yes",
      "addr_state": "TX",
      "addr_city": "Austin",
      "addr_postcode": "78705",
      "addr_street": "San Antonio Street",
      "addr_housenumber": "2421",
      "angle": 184.76468159545146
    },
    {
      "id": 62115,
      "geometry": "POINT (-97.738529 30.312715)",
      "poi_name": "Starbucks",
      "osm_id": 5553104923,
      "amenity": "cafe",
      "cuisine": "coffee_shop",
      "takeaway": "yes",
      "official_name": "Starbucks Coffee",
      "addr_state": "TX",
      "addr_city": "Austin",
      "addr_postcode": "78756",
      "addr_street": "North Lamar Boulevard",
      "addr_housenumber": "4400",
      "angle": 184.6723071272828
    },
    {
      "id": 62484,
      "geometry": "POINT (-97.741685 30.283568)",
      "poi_name": "Starbucks",
      "osm_id": 5571027694,
      "amenity": "cafe",
      "cuisine": "coffee_shop",
      "takeaway": "yes",
      "official_name": "Starbucks Coffee",
      "angle": 184.7033335975729
    },
    {
      "id": 62485,
      "geometry": "POINT (-97.74201 30.285442)",
      "poi_name": "Caf\u00e9 Medici",
      "osm_id": 5571027695,
      "amenity": "cafe",
      "cuisine": "coffee_shop",
      "opening_hours": "Mo-Su 07:00-19:00",
      "angle": 184.73957317341345
    },
    {
      "id": 63450,
      "geometry": "POINT (-97.721144 30.261436)",
      "poi_name": "Cuv\u00e9e Coffee",
      "osm_id": 5615816955,
      "amenity": "cafe",
      "website": "http://www.cuveecoffee.com/location/",
      "angle": 183.11838906001304
    },
    {
      "id": 66825,
      "geometry": "POINT (-97.744736 30.28508)",
      "poi_name": "Starbucks",
      "osm_id": 11212844007,
      "amenity": "cafe",
      "cuisine": "coffee_shop",
      "opening_hours": "Mo-Fr 05:30-19:30; Sa-Su 06:00-19:30",
      "website": "https://www.starbucks.com/store-locator/store/1031272/",
      "phone": "+1-512-768-0910",
      "takeaway": "yes",
      "official_name": "Starbucks Coffee",
      "addr_state": "TX",
      "addr_city": "Austin",
      "addr_postcode": "78705",
      "addr_street": "West 22nd Street",
      "addr_housenumber": "611",
      "angle": 184.93420417980806
    },
    {
      "id": 66458,
      "geometry": "POINT (-97.721395 30.274174)",
      "poi_name": "El Tigre",
      "osm_id": 11196203589,
      "amenity": "cafe",
      "cuisine": "cafe",
      "opening_hours": "Mo-Fr 07:00-14:00, Sa-Su 09:00-14:00",
      "website": "https://www.eltigrecoffee.com/",
      "internet_access": "yes",
      "phone": "+1-512-387-6712",
      "outdoor_seating": "yes",
      "addr_state": "TX",
      "addr_city": "Austin",
      "addr_postcode": "78702",
      "addr_street": "Salina Street",
      "addr_housenumber": "1204",
      "angle": 183.19298546241689
    },
    {
      "id": 66827,
      "geometry": "POINT (-97.74492 30.286841)",
      "poi_name": "TSAOCAA",
      "osm_id": 11212844032,
      "amenity": "cafe",
      "cuisine": "bubble_tea",
      "website": "https://www.tsaocaatx.com/",
      "addr_state": "TX",
      "addr_city": "Austin",
      "addr_postcode": "78705",
      "addr_street": "Rio Grande Street",
      "addr_housenumber": "2222",
      "angle": 184.96013829179586
    },
    {
      "id": 67960,
      "geometry": "POINT (-97.761715 30.468079)",
      "poi_name": "Rocket Coffee",
      "osm_id": 11253959206,
      "amenity": "cafe",
      "cuisine": "coffee_shop;sandwich;pastry",
      "website": "https://rocketcoffeeatx.com/",
      "phone": "+1-512-551-2655",
      "outdoor_seating": "yes",
      "addr_state": "TX",
      "addr_city": "Austin",
      "addr_postcode": "78729",
      "addr_street": "West Parmer Lane",
      "addr_housenumber": "8701",
      "angle": 188.36985192485318
    },
    {
      "id": 68086,
      "geometry": "POINT (-98.276802 30.571845)",
      "poi_name": "Choccolatte's",
      "osm_id": 11260109498,
      "amenity": "cafe",
      "angle": 232.74802201847447
    },
    {
      "id": 68089,
      "geometry": "POINT (-98.277919 30.571314)",
      "poi_name": "The Ragtime Oriole",
      "osm_id": 11260122268,
      "amenity": "cafe",
      "cuisine": "coffee_shop",
      "angle": 232.76279769265102
    },
    {
      "id": 69909,
      "geometry": "POINT (-97.797663 30.215817)",
      "poi_name": "Jo's Coffee",
      "osm_id": 11336423623,
      "amenity": "cafe",
      "cuisine": "coffee_shop",
      "angle": 187.94438136591157
    },
    {
      "id": 72776,
      "geometry": "POINT (-97.80008 30.27592)",
      "poi_name": "Starbucks",
      "osm_id": 11447439341,
      "amenity": "cafe",
      "cuisine": "coffee_shop",
      "wheelchair": "yes",
      "opening_hours": "Mo-Fr 05:30-19:00; Sa 06:00-19:30; Su 06:00-17:00",
      "website": "https://www.starbucks.com",
      "internet_access": "wlan",
      "phone": "+1-512-306-8744",
      "takeaway": "yes",
      "official_name": "Starbucks Coffee",
      "addr_state": "TX",
      "addr_city": "Austin",
      "addr_postcode": "78746",
      "addr_street": "Bee Caves Road",
      "addr_housenumber": "3300",
      "angle": 188.78880156736028
    },
    {
      "id": 71690,
      "geometry": "POINT (-97.866507 30.015474)",
      "poi_name": "Black Rock Coffee Bar",
      "osm_id": 11397211611,
      "amenity": "cafe",
      "cuisine": "coffee_shop",
      "website": "https://br.coffee/",
      "internet_access": "yes",
      "phone": "+1 214-463-2721",
      "addr_state": "TX",
      "addr_city": "Kyle",
      "addr_postcode": "78640",
      "addr_street": "South FM 1626",
      "addr_housenumber": "5160",
      "angle": 189.83382220645697
    },
    {
      "id": 71872,
      "geometry": "POINT (-97.851509 30.409994)",
      "poi_name": "Starbucks",
      "osm_id": 11404295569,
      "amenity": "cafe",
      "cuisine": "coffee_shop",
      "opening_hours": "Mo-Fr 05:00-20:00; Sa-Su 05:30-20:00",
      "website": "https://www.starbucks.com/store-locator/store/15515",
      "internet_access": "wlan",
      "phone": "+1 512-250-3533",
      "takeaway": "yes",
      "official_name": "Starbucks Coffee",
      "addr_postcode": "78726",
      "addr_street": "Ranch Road 620 North",
      "addr_housenumber": "7710",
      "angle": 195.1845791348611
    },
    {
      "id": 71873,
      "geometry": "POINT (-97.827047 30.453205)",
      "poi_name": "Starbucks",
      "osm_id": 11404295570,
      "amenity": "cafe",
      "cuisine": "coffee_shop",
      "opening_hours": "Mo-Fr 05:00-20:00; Sa 05:30-20:00; Su 05:30-19:30",
      "website": "https://www.starbucks.com/store-locator/store/68132",
      "internet_access": "wlan",
      "phone": "+1 512-250-8066",
      "takeaway": "yes",
      "official_name": "Starbucks Coffee",
      "addr_postcode": "78726",
      "addr_street": "Ranch Road 620 North",
      "addr_housenumber": "11521",
      "angle": 194.19096719846777
    },
    {
      "id": 73394,
      "geometry": "POINT (-96.347738 30.63736)",
      "poi_name": "H&J's Tea House",
      "osm_id": 9630577474,
      "amenity": "cafe",
      "description": "Aggieland's first Cat Cafe. Serving boba tea and coffee.",
      "opening_hours": "Mo-Su 13:00-17:00, 18:00-22:00",
      "website": "https://hnjsteahouse.carrd.co/",
      "phone": "9793260432",
      "addr_street": "3700 S Texas Ave",
      "addr_housenumber": "550",
      "angle": 105.7383518106527
    },
    {
      "id": 74029,
      "geometry": "POINT (-97.843911 30.556315)",
      "poi_name": "Starbucks",
      "osm_id": 9662313924,
      "amenity": "cafe",
      "cuisine": "coffee_shop",
      "opening_hours": "Mo-Sa 05:00-21:00; Su 06:00-21:00",
      "internet_access": "wlan",
      "takeaway": "yes",
      "drive_through": "yes",
      "official_name": "Starbucks Coffee",
      "outdoor_seating": "yes",
      "addr_state": "TX",
      "addr_city": "Leander",
      "addr_postcode": "78641",
      "addr_street": "South Highway 183",
      "addr_housenumber": "1805",
      "angle": 199.3586373040445
    },
    {
      "id": 76983,
      "geometry": "POINT (-97.713825 30.263066)",
      "poi_name": "Desnudo Coffee",
      "osm_id": 9799864985,
      "amenity": "cafe",
      "angle": 182.6104668407317
    },
    {
      "id": 79056,
      "geometry": "POINT (-98.274239 30.57389)",
      "poi_name": "Brother's Bakery",
      "osm_id": 770915644,
      "amenity": "cafe",
      "angle": 232.7718171294923
    },
    {
      "id": 77073,
      "geometry": "POINT (-96.391237 30.152334)",
      "poi_name": "Max Donuts",
      "osm_id": 9805410883,
      "amenity": "cafe",
      "cuisine": "donut;coffee_shop",
      "angle": 125.92114799789096
    },
    {
      "id": 77611,
      "geometry": "POINT (-97.943317 29.882598)",
      "poi_name": "Tantra Coffee House",
      "osm_id": 702833476,
      "amenity": "cafe",
      "cuisine": "coffee_shop",
      "addr_city": "San Marcos",
      "addr_postcode": "78666",
      "addr_street": "West Hopkins Street",
      "addr_housenumber": "217",
      "angle": 192.08026331627903
    },
    {
      "id": 78601,
      "geometry": "POINT (-97.332014 32.395662)",
      "poi_name": "Mandy's Cafe",
      "osm_id": 760170800,
      "amenity": "cafe",
      "angle": 11.578615128255729
    },
    {
      "id": 79461,
      "geometry": "POINT (-97.732451 30.284684)",
      "poi_name": "Starbucks",
      "osm_id": 806741774,
      "amenity": "cafe",
      "cuisine": "coffee_shop",
      "takeaway": "yes",
      "official_name": "Starbucks Coffee",
      "angle": 184.04293705956783
    },
    {
      "id": 79088,
      "geometry": "POINT (-97.962797 29.864376)",
      "poi_name": "Mochas & Javas",
      "osm_id": 773377283,
      "amenity": "cafe",
      "cuisine": "coffee",
      "angle": 192.73064373980242
    },
    {
      "id": 80232,
      "geometry": "POINT (-97.806464 30.446335)",
      "poi_name": "Big City Bagels & Subs",
      "osm_id": 864958865,
      "amenity": "cafe",
      "angle": 192.1536994044288
    },
    {
      "id": 81282,
      "geometry": "POINT (-97.421526 30.567597)",
      "poi_name": "West End Cafe",
      "osm_id": 1619428816,
      "amenity": "cafe",
      "angle": 151.10376008206234
    },
    {
      "id": 80960,
      "geometry": "POINT (-96.981103 31.09556)",
      "poi_name": "Hwy 77 Cafe",
      "osm_id": 1594936295,
      "amenity": "cafe",
      "cuisine": "american",
      "angle": 77.80508536349025
    },
    {
      "id": 80962,
      "geometry": "POINT (-96.97874 31.072754)",
      "poi_name": "Pizza and More",
      "osm_id": 1594936366,
      "amenity": "cafe",
      "cuisine": "american",
      "angle": 79.94051037917923
    },
    {
      "id": 80963,
      "geometry": "POINT (-96.977316 31.073451)",
      "poi_name": "Jake N Boos Bar and Grill",
      "osm_id": 1594936382,
      "amenity": "cafe",
      "cuisine": "burger",
      "angle": 79.89549171748013
    },
    {
      "id": 82362,
      "geometry": "POINT (-98.096677 29.996043)",
      "poi_name": "Wimberley cafe",
      "osm_id": 1695438151,
      "amenity": "cafe",
      "angle": 200.61923653852563
    },
    {
      "id": 82547,
      "geometry": "POINT (-97.768473 30.201242)",
      "poi_name": "Starbucks",
      "osm_id": 1701907426,
      "amenity": "cafe",
      "cuisine": "coffee_shop",
      "takeaway": "yes",
      "official_name": "Starbucks Coffee",
      "angle": 185.92882910969837
    },
    {
      "id": 83478,
      "geometry": "POINT (-97.118083 31.548744)",
      "poi_name": "Starbucks",
      "osm_id": 1746770263,
      "amenity": "cafe",
      "cuisine": "coffee_shop",
      "takeaway": "yes",
      "official_name": "Starbucks Coffee",
      "angle": 39.43010609215094
    },
    {
      "id": 82618,
      "geometry": "POINT (-97.688227 30.413273)",
      "poi_name": "Starbucks",
      "osm_id": 1706120138,
      "amenity": "cafe",
      "cuisine": "coffee_shop",
      "opening_hours": "05:00-22:00",
      "internet_access": "wlan",
      "phone": "+1-512-833-7272",
      "takeaway": "yes",
      "drive_through": "yes",
      "official_name": "Starbucks Coffee",
      "outdoor_seating": "yes",
      "addr_state": "TX",
      "addr_city": "Austin",
      "addr_postcode": "78727",
      "addr_street": "West Parmer Lane",
      "addr_housenumber": "1701",
      "angle": 181.022963310418
    },
    {
      "id": 86329,
      "geometry": "POINT (-97.949034 29.568879)",
      "poi_name": "The Java Joint",
      "osm_id": 1927243820,
      "amenity": "cafe",
      "cuisine": "coffee_shop",
      "website": "http://www.chirojava.com/",
      "addr_postcode": "78155",
      "addr_street": "East Court Street",
      "addr_housenumber": "1117",
      "angle": 189.65506341918
    },
    {
      "id": 86552,
      "geometry": "POINT (-97.718375 30.284145)",
      "poi_name": "El Chilito Cafe y Cantina",
      "osm_id": 1937536449,
      "amenity": "cafe",
      "cuisine": "mexican",
      "opening_hours": "Mo-Su 08:00-21:00",
      "addr_postcode": "78722",
      "addr_street": "Manor Road",
      "addr_housenumber": "2219",
      "angle": 183.02018521288528
    },
    {
      "id": 88343,
      "geometry": "POINT (-98.125127 29.703067)",
      "poi_name": "New Braunfels Coffee",
      "osm_id": 8779706726,
      "amenity": "cafe",
      "addr_state": "TX",
      "addr_city": "New Braunfels",
      "addr_postcode": "78130",
      "addr_street": "Main Plaza",
      "addr_housenumber": "489",
      "angle": 197.20238731430175
    },
    {
      "id": 88344,
      "geometry": "POINT (-98.12521 29.703009)",
      "poi_name": "Crosswalk Coffeehouse & Cafe",
      "osm_id": 8779706731,
      "amenity": "cafe",
      "angle": 197.20466673600703
    },
    {
      "id": 91982,
      "geometry": "POINT (-97.834179 30.481701)",
      "poi_name": "Starbucks",
      "osm_id": 2098735206,
      "amenity": "cafe",
      "cuisine": "coffee_shop",
      "takeaway": "yes",
      "official_name": "Starbucks Coffee",
      "angle": 195.65916712286915
    },
    {
      "id": 89207,
      "geometry": "POINT (-97.705359 30.29767)",
      "poi_name": "Halcyon",
      "osm_id": 8830940580,
      "amenity": "cafe",
      "website": "https://www.halcyoncoffeebar.com/location/mueller",
      "phone": "+1-512-400-0445",
      "outdoor_seating": "yes",
      "addr_state": "TX",
      "addr_city": "Austin",
      "addr_postcode": "78723",
      "addr_street": "Aldrich Street",
      "addr_housenumber": "1905",
      "angle": 182.11726623443914
    },
    {
      "id": 90062,
      "geometry": "POINT (-97.71481 30.325124)",
      "poi_name": "Bennu Coffee",
      "osm_id": 8881107226,
      "amenity": "cafe",
      "cuisine": "coffee_shop",
      "opening_hours": "Mo-Su 00:01-23:59",
      "website": "https://bennucoffee.com/",
      "internet_access": "wlan",
      "phone": "+1-512-520-2525",
      "addr_state": "TX",
      "addr_city": "Austin",
      "addr_postcode": "78752",
      "addr_street": "Jacob Fontaine Lane",
      "addr_housenumber": "109",
      "angle": 182.9361380385013
    },
    {
      "id": 90065,
      "geometry": "POINT (-97.713763 30.323916)",
      "poi_name": "Feng Cha",
      "osm_id": 8881195711,
      "amenity": "cafe",
      "cuisine": "bubble_tea",
      "website": "https://www.fengchausa.com/",
      "phone": "+1-512-551-3386",
      "addr_state": "TX",
      "addr_city": "Austin",
      "addr_postcode": "78752",
      "addr_street": "Clayton Lane",
      "addr_housenumber": "609",
      "angle": 182.8501272775514
    },
    {
      "id": 90474,
      "geometry": "POINT (-96.374464 30.674007)",
      "poi_name": "The Village Cafe",
      "osm_id": 1997880881,
      "amenity": "cafe",
      "cuisine": "american",
      "opening_hours": "Mo-Su 07:30-21:00",
      "website": "https://www.thevillagedowntown.com/",
      "internet_access": "wlan",
      "phone": "(979)703-8514",
      "addr_postcode": "77803",
      "addr_street": "West 26th Street",
      "addr_housenumber": "210",
      "angle": 104.32642037962059
    },
    {
      "id": 90483,
      "geometry": "POINT (-96.372946 30.675175)",
      "poi_name": "The Chocolate Gallery",
      "osm_id": 1997929802,
      "amenity": "cafe",
      "angle": 104.25412667631896
    },
    {
      "id": 92830,
      "geometry": "POINT (-97.739527 30.327745)",
      "poi_name": "Monkey Nest",
      "osm_id": 2137598190,
      "amenity": "cafe",
      "website": "https://monkeynestcoffee.com/",
      "phone": "+1-512-505-8033",
      "angle": 184.8576866580016
    },
    {
      "id": 92385,
      "geometry": "POINT (-97.386307 32.346235)",
      "poi_name": "Heroes Cafe",
      "osm_id": 2118629238,
      "amenity": "cafe",
      "opening_hours": "Mo-Th 10:30-14:00; Fr-Sa10:30-20:00",
      "website": "http://www.heroescafecleburne.com/",
      "phone": "+1 817 645 1400",
      "addr_postcode": "76033",
      "addr_street": "South Main Street",
      "addr_housenumber": "115",
      "angle": 10.144123567639744
    },
    {
      "id": 93366,
      "geometry": "POINT (-97.741118 30.286074)",
      "poi_name": "Starbucks",
      "osm_id": 2161699449,
      "amenity": "cafe",
      "cuisine": "coffee_shop",
      "takeaway": "yes",
      "official_name": "Starbucks Coffee",
      "angle": 184.67938737110802
    },
    {
      "id": 93371,
      "geometry": "POINT (-96.936584 30.182918)",
      "poi_name": "290 Grind",
      "osm_id": 2161833263,
      "amenity": "cafe",
      "cuisine": "coffee_shop",
      "angle": 140.60503798034972
    },
    {
      "id": 95800,
      "geometry": "POINT (-98.44146 30.658038)",
      "poi_name": "M&M Donuts",
      "osm_id": 6412480628,
      "amenity": "cafe",
      "cuisine": "regional",
      "outdoor_seating": "no",
      "angle": 245.03572767105234
    },
    {
      "id": 94376,
      "geometry": "POINT (-98.418646 29.599834)",
      "poi_name": "Starbucks",
      "osm_id": 2237567460,
      "amenity": "cafe",
      "cuisine": "coffee_shop",
      "internet_access": "wlan",
      "takeaway": "yes",
      "official_name": "Starbucks Coffee",
      "addr_state": "TX",
      "addr_city": "San Antonio",
      "addr_postcode": "78247",
      "addr_street": "North Loop 1604 East",
      "angle": 205.38787755380298
    },
    {
      "id": 94735,
      "geometry": "POINT (-98.327556 29.568489)",
      "poi_name": "Starbucks",
      "osm_id": 6374762801,
      "amenity": "cafe",
      "cuisine": "coffee_shop",
      "takeaway": "yes",
      "official_name": "Starbucks Coffee",
      "angle": 202.1439660517927
    },
    {
      "id": 95801,
      "geometry": "POINT (-98.4453 30.657508)",
      "poi_name": "Blue Herron Coffee",
      "osm_id": 6412480634,
      "amenity": "cafe",
      "angle": 245.10950202078783
    },
    {
      "id": 99285,
      "geometry": "POINT (-97.799769 31.110837)",
      "poi_name": "Coffee Beanery",
      "osm_id": 6546532779,
      "amenity": "cafe",
      "addr_state": "TX",
      "addr_city": "Killeen",
      "addr_postcode": "76549",
      "addr_street": "Clear Creek Road",
      "addr_housenumber": "2408",
      "angle": 323.47251673902485
    },
    {
      "id": 96568,
      "geometry": "POINT (-97.863568 30.015613)",
      "poi_name": "Starbucks",
      "osm_id": 6437497123,
      "amenity": "cafe",
      "cuisine": "coffee_shop",
      "takeaway": "yes",
      "official_name": "Starbucks Coffee",
      "angle": 189.6857208099621
    },
    {
      "id": 96835,
      "geometry": "POINT (-98.871602 30.274954)",
      "poi_name": "Java Ranch Espresso Bar & Cafe",
      "osm_id": 6446845286,
      "amenity": "cafe",
      "cuisine": "coffee_shop",
      "internet_access": "wlan",
      "angle": 236.45390505134554
    },
    {
      "id": 97007,
      "geometry": "POINT (-96.914514 30.179693)",
      "poi_name": "Starbucks",
      "osm_id": 6456255072,
      "amenity": "cafe",
      "cuisine": "coffee_shop",
      "takeaway": "yes",
      "official_name": "Starbucks Coffee",
      "angle": 139.88769546786776
    },
    {
      "id": 99287,
      "geometry": "POINT (-97.799932 31.110434)",
      "poi_name": "Top Donuts",
      "osm_id": 6546532784,
      "amenity": "cafe",
      "angle": 323.35857498423377
    },
    {
      "id": 99289,
      "geometry": "POINT (-97.800006 31.110238)",
      "poi_name": "Mango Cup",
      "osm_id": 6546532786,
      "amenity": "cafe",
      "angle": 323.30434246862666
    },
    {
      "id": 99290,
      "geometry": "POINT (-97.799556 31.109723)",
      "poi_name": "Bite the Bagel Deli Cafe",
      "osm_id": 6546532789,
      "amenity": "cafe",
      "angle": 323.30482439165786
    },
    {
      "id": 100198,
      "geometry": "POINT (-97.754204 30.2719)",
      "poi_name": "24 Diner",
      "osm_id": 6578448862,
      "amenity": "cafe",
      "description": "Classical American Cuisine",
      "opening_hours": "Mo-Sa 12:00-12:00",
      "website": "https://www.24diner.com/",
      "phone": "+1-512-472-5400",
      "addr_street": "600 N Lamar Blvd",
      "addr_housenumber": "Ste 200",
      "angle": 185.51276777937073
    },
    {
      "id": 100507,
      "geometry": "POINT (-97.716717 30.425292)",
      "poi_name": "Kolache Factory",
      "osm_id": 6589921472,
      "amenity": "cafe",
      "website": "https://www.kolachefactory.com/",
      "outdoor_seating": "yes",
      "addr_state": "TX",
      "addr_city": "Austin",
      "addr_postcode": "78727",
      "addr_street": "West Parmer Lane",
      "addr_housenumber": "4101",
      "angle": 183.6469747822862
    },
    {
      "id": 100510,
      "geometry": "POINT (-97.715888 30.424914)",
      "poi_name": "It's a Grind Coffee House",
      "osm_id": 6589921477,
      "amenity": "cafe",
      "website": "https://www.itsagrind.com/",
      "addr_state": "TX",
      "addr_city": "Austin",
      "addr_postcode": "78727",
      "addr_street": "West Parmer Lane",
      "addr_housenumber": "4005",
      "angle": 183.56898968453882
    },
    {
      "id": 103641,
      "geometry": "POINT (-97.805104 30.476928)",
      "poi_name": "Starbucks",
      "osm_id": 8515742178,
      "amenity": "cafe",
      "cuisine": "coffee_shop",
      "wheelchair": "yes",
      "opening_hours": "Mo-Su 05:00-20:00",
      "internet_access": "wlan",
      "phone": "+1-512-249-0820",
      "takeaway": "yes",
      "official_name": "Starbucks Coffee",
      "outdoor_seating": "yes",
      "delivery": "yes",
      "addr_state": "TX",
      "addr_city": "Cedar Park",
      "addr_postcode": "78717",
      "addr_street": "183A Toll Road",
      "addr_housenumber": "14028",
      "angle": 192.75160021280342
    },
    {
      "id": 103443,
      "geometry": "POINT (-97.68796 30.509079)",
      "poi_name": "Corner Bakery Cafe",
      "osm_id": 8501649231,
      "amenity": "cafe",
      "cuisine": "sandwich;salad;pasta;soup;dessert",
      "wheelchair": "yes",
      "opening_hours": "Mo-Su 07:30-19:30",
      "website": "https://cornerbakerycafe.com/location/round-rock",
      "internet_access": "wlan",
      "phone": "+1-512-582-8938",
      "takeaway": "yes",
      "outdoor_seating": "yes",
      "delivery": "yes",
      "addr_state": "TX",
      "addr_city": "Round Rock",
      "addr_postcode": "78681",
      "addr_street": "North Interstate 35",
      "addr_housenumber": "110",
      "angle": 181.2063867870342
    },
    {
      "id": 103968,
      "geometry": "POINT (-97.800432 30.478409)",
      "poi_name": "Teapioca",
      "osm_id": 8534834263,
      "amenity": "cafe",
      "cuisine": "bubble_tea",
      "wheelchair": "yes",
      "opening_hours": "Mo-Su 10:00-22:00",
      "website": "https://www.teapiocalounge.com/",
      "phone": "+1-512-646-8970",
      "takeaway": "yes",
      "outdoor_seating": "yes",
      "delivery": "no",
      "addr_state": "TX",
      "addr_city": "Austin",
      "addr_postcode": "78717",
      "addr_street": "Lakeline Boulevard",
      "addr_housenumber": "11301",
      "angle": 192.33752263774645
    },
    {
      "id": 103973,
      "geometry": "POINT (-97.799892 30.479441)",
      "poi_name": "85\u00b0C",
      "osm_id": 8535263950,
      "amenity": "cafe",
      "cuisine": "coffee_shop;chinese",
      "opening_hours": "Mo-Su 09:00-20:00",
      "website": "https://www.85cbakerycafe.com/",
      "phone": "+1-512-614-1331",
      "takeaway": "yes",
      "outdoor_seating": "no",
      "addr_state": "TX",
      "addr_city": "Austin",
      "addr_postcode": "78717",
      "addr_street": "Lakeline Boulevard",
      "addr_housenumber": "11301",
      "angle": 192.31021181870673
    },
    {
      "id": 104147,
      "geometry": "POINT (-96.264654 30.55515)",
      "poi_name": "Starbucks",
      "osm_id": 8551477229,
      "amenity": "cafe",
      "cuisine": "coffee_shop",
      "opening_hours": "Mo-Th 04:30-19:30; Fr 04:30-20:00; Sa 05:00-20:00; Su 05:30-20:00",
      "internet_access": "wlan",
      "phone": "+1-979-446-1358",
      "takeaway": "yes",
      "official_name": "Starbucks Coffee",
      "outdoor_seating": "yes",
      "addr_state": "TX",
      "addr_city": "College Station",
      "addr_postcode": "77845",
      "addr_street": "William D. Fitch Parkway",
      "addr_housenumber": "895",
      "angle": 108.34312240140484
    },
    {
      "id": 104494,
      "geometry": "POINT (-97.676207 30.636084)",
      "poi_name": "Sweet Lemon Inn & Kitchen",
      "osm_id": 8571575498,
      "amenity": "cafe",
      "wheelchair": "yes",
      "opening_hours": "Tu-Th 07:00-14:30; Fr-Sa 07:00-20:30; Su 09:00-14:00",
      "website": "https://www.sweetlemonkitchen.com/",
      "internet_access": "wlan",
      "phone": "+1-512-270-0812",
      "takeaway": "yes",
      "outdoor_seating": "yes",
      "delivery": "yes",
      "addr_state": "TX",
      "addr_city": "Georgetown",
      "addr_postcode": "78626",
      "addr_street": "South Church Street",
      "addr_housenumber": "812",
      "angle": 179.91200660292532
    },
    {
      "id": 104250,
      "geometry": "POINT (-97.739051 30.300998)",
      "poi_name": "Civil Goat Coffee",
      "osm_id": 8558279977,
      "amenity": "cafe",
      "cuisine": "coffee_shop",
      "opening_hours": "Mo-Su 08:00-17:00",
      "website": "https://www.civilgoat.com/",
      "outdoor_seating": "yes",
      "addr_state": "TX",
      "addr_city": "Austin",
      "addr_postcode": "78705",
      "addr_street": "Guadalupe Street",
      "addr_housenumber": "3423",
      "angle": 184.62983357035094
    },
    {
      "id": 105403,
      "geometry": "POINT (-97.604145 30.824199)",
      "poi_name": "Corner Cafe",
      "osm_id": 8626179508,
      "amenity": "cafe",
      "cuisine": "breakfast;dessert;american",
      "wheelchair": "yes",
      "opening_hours": "Mo-Fr 07:00-14:00",
      "website": "https://www.facebook.com/homecookedinjarrelltx",
      "phone": "+1-512-746-4445",
      "takeaway": "yes",
      "outdoor_seating": "no",
      "addr_state": "TX",
      "addr_city": "Jarrell",
      "addr_postcode": "76537",
      "addr_street": "Interstate Highway 35 Service Road",
      "addr_housenumber": "12820",
      "angle": 156.44642118327457
    },
    {
      "id": 106041,
      "geometry": "POINT (-97.801567 30.563471)",
      "poi_name": "Whipped Bakery & Cafe",
      "osm_id": 8660640956,
      "amenity": "cafe",
      "wheelchair": "yes",
      "opening_hours": "Mo-Sa 10:00-19:00",
      "website": "https://www.whippedatx.com/",
      "internet_access": "wlan",
      "phone": "+1-512-986-7988",
      "takeaway": "yes",
      "outdoor_seating": "yes",
      "addr_state": "TX",
      "addr_city": "Leander",
      "addr_postcode": "78641",
      "addr_street": "Ronald W Reagan Boulevard",
      "addr_housenumber": "15609",
      "angle": 194.9443704984755
    },
    {
      "id": 105864,
      "geometry": "POINT (-97.985174 29.826872)",
      "poi_name": "J-Brews Coffeehouse",
      "osm_id": 8648254197,
      "amenity": "cafe",
      "opening_hours": "Mo-Sa 10:00-19:00, Su 11:00-19:00",
      "addr_state": "TX",
      "addr_city": "San Marcos",
      "addr_postcode": "78666",
      "addr_street": "I-35 Frontage",
      "angle": 193.2620172535835
    },
    {
      "id": 106745,
      "geometry": "POINT (-97.814445 30.526873)",
      "poi_name": "Starbucks",
      "osm_id": 3513739093,
      "amenity": "cafe",
      "cuisine": "coffee_shop",
      "wheelchair": "limited",
      "opening_hours": "Mo-Fr 05:30-20:00; Sa-Su 06:00-20:00",
      "website": "https://www.starbucks.com/store-locator/store/6892/whitestone-183-a-toll-1335-e-whitestone-blvd-cedar-park-tx-786137598-us",
      "phone": "+1-512-528-0425",
      "takeaway": "yes",
      "official_name": "Starbucks Coffee",
      "outdoor_seating": "yes",
      "addr_state": "TX",
      "addr_city": "Cedar Park",
      "addr_postcode": "78613",
      "addr_street": "East Whitestone Boulevard",
      "addr_housenumber": "1335",
      "angle": 195.11688770179813
    },
    {
      "id": 106749,
      "geometry": "POINT (-97.820444 30.525203)",
      "poi_name": "Kung Fu Tea",
      "osm_id": 3513739132,
      "amenity": "cafe",
      "cuisine": "bubble_tea",
      "website": "https://www.kungfutea.com/",
      "takeaway": "yes",
      "outdoor_seating": "no",
      "angle": 195.68779446712327
    },
    {
      "id": 109473,
      "geometry": "POINT (-97.677458 30.637617)",
      "poi_name": "Black Sugar Caffe",
      "osm_id": 3660951002,
      "amenity": "cafe",
      "cuisine": "coffee_shop",
      "opening_hours": "Mo-Th 06:00-20:00; Fr-Sa 08:00-20:00; Su 08:00-18:00",
      "website": "https://www.blacksugarcaffe.com/",
      "internet_access": "wlan",
      "phone": "+1-512-688-3035",
      "addr_state": "TX",
      "addr_city": "Georgetown",
      "addr_postcode": "78626",
      "addr_street": "West 7th Street",
      "addr_housenumber": "109",
      "angle": 180.0990903907266
    },
    {
      "id": 107058,
      "geometry": "POINT (-97.733041 30.264449)",
      "poi_name": "Wright Bros. Brew & Brew",
      "osm_id": 3533712652,
      "amenity": "cafe",
      "cuisine": "coffee_shop",
      "opening_hours": "08:00-24:00",
      "website": "https://www.thebrewandbrew.com/",
      "phone": "+1-512-493-0963",
      "addr_state": "TX",
      "addr_city": "Austin",
      "addr_postcode": "78702",
      "addr_street": "San Marcos Street",
      "addr_housenumber": "500",
      "angle": 183.96935715247741
    },
    {
      "id": 109017,
      "geometry": "POINT (-97.733706 30.260505)",
      "poi_name": "Cenote",
      "osm_id": 3646391293,
      "amenity": "cafe",
      "cuisine": "american",
      "website": "https://cenoteaustin.com/",
      "internet_access": "wlan",
      "phone": "+1-512-524-1311",
      "outdoor_seating": "yes",
      "addr_city": "Austin",
      "addr_postcode": "78702",
      "addr_street": "East Cesar Chavez Street",
      "addr_housenumber": "1010",
      "angle": 183.99395465201567
    },
    {
      "id": 109476,
      "geometry": "POINT (-97.715725 30.681489)",
      "poi_name": "Starbucks",
      "osm_id": 3661035025,
      "amenity": "cafe",
      "cuisine": "coffee_shop",
      "wheelchair": "yes",
      "opening_hours": "Mo-Fr 05:00-20:00; Sa-Su 05:30-20:00",
      "internet_access": "wlan",
      "phone": "+1-512-868-0284",
      "takeaway": "yes",
      "drive_through": "yes",
      "official_name": "Starbucks Coffee",
      "outdoor_seating": "yes",
      "delivery": "yes",
      "addr_state": "TX",
      "addr_city": "Georgetown",
      "addr_postcode": "78628",
      "addr_street": "Williams Drive",
      "addr_housenumber": "4410",
      "angle": 186.69657227905017
    },
    {
      "id": 109492,
      "geometry": "POINT (-97.815423 30.207946)",
      "poi_name": "Starbucks",
      "osm_id": 3661950162,
      "amenity": "cafe",
      "cuisine": "coffee_shop",
      "wheelchair": "limited",
      "opening_hours": "Mo-Fr 05:00-22:00, Sa-Su 05:30-22:00",
      "internet_access": "yes",
      "takeaway": "yes",
      "official_name": "Starbucks Coffee",
      "addr_state": "TX",
      "addr_city": "Austin",
      "addr_postcode": "78745",
      "addr_street": "West Gate Boulevard",
      "addr_housenumber": "6816",
      "angle": 189.00174844513336
    },
    {
      "id": 111395,
      "geometry": "POINT (-97.686572 30.508196)",
      "poi_name": "Starbucks",
      "osm_id": 3746122177,
      "amenity": "cafe",
      "cuisine": "coffee_shop",
      "opening_hours": "Mo-Su 06:00-21:00",
      "internet_access": "wlan",
      "phone": "+1-512-828-4212",
      "takeaway": "yes",
      "official_name": "Starbucks Coffee",
      "outdoor_seating": "yes",
      "delivery": "yes",
      "addr_state": "TX",
      "addr_city": "Round Rock",
      "addr_postcode": "78681",
      "addr_street": "North Interstate 35",
      "addr_housenumber": "110",
      "angle": 181.05440253215102
    },
    {
      "id": 111830,
      "geometry": "POINT (-97.744248 30.264819)",
      "poi_name": "Caff\u00e9 Medici",
      "osm_id": 3763984362,
      "amenity": "cafe",
      "angle": 184.75945754122594
    },
    {
      "id": 113833,
      "geometry": "POINT (-97.738972 30.318904)",
      "poi_name": "Picnik",
      "osm_id": 3849771106,
      "amenity": "cafe",
      "opening_hours": "Su-Th 07:00-21:00; Fr-Sa 07:00-22:00",
      "website": "https://picnikaustin.com/",
      "phone": "+1-737-226-0644",
      "addr_postcode": "78756",
      "addr_street": "Burnet Road",
      "addr_housenumber": "4801",
      "angle": 184.7500552561494
    },
    {
      "id": 113194,
      "geometry": "POINT (-97.717491 30.338992)",
      "poi_name": "Barrett's Coffee",
      "osm_id": 3824998515,
      "amenity": "cafe",
      "cuisine": "coffee_shop",
      "opening_hours": "Mo-Su 7:00-19:00",
      "website": "https://www.barrettscoffee.com/",
      "phone": "+1-512-677-7667",
      "addr_state": "TX",
      "addr_city": "Austin",
      "addr_postcode": "78752",
      "addr_street": "West Saint John's Avenue",
      "addr_housenumber": "713",
      "angle": 183.21152220654403
    },
    {
      "id": 113840,
      "geometry": "POINT (-97.742533 30.268134)",
      "poi_name": "Capital One Caf\u00e9",
      "osm_id": 3849778796,
      "amenity": "cafe",
      "cuisine": "coffee_shop",
      "addr_state": "TX",
      "addr_city": "Austin",
      "addr_postcode": "78701",
      "addr_street": "Congress Avenue",
      "addr_housenumber": "601",
      "angle": 184.6606660041141
    },
    {
      "id": 113841,
      "geometry": "POINT (-97.742287 30.270247)",
      "poi_name": "Caffe Medici",
      "osm_id": 3849779903,
      "amenity": "cafe",
      "addr_postcode": "78701",
      "addr_street": "Congress Avenue",
      "addr_housenumber": "802",
      "angle": 184.65718865655842
    },
    {
      "id": 115082,
      "geometry": "POINT (-97.75418 30.251009)",
      "poi_name": "Holy cacao",
      "osm_id": 3909530103,
      "amenity": "cafe",
      "angle": 185.35258599774494
    },
    {
      "id": 113913,
      "geometry": "POINT (-97.79637 30.217993)",
      "poi_name": "Captain quackenbush's coffeehouse",
      "osm_id": 3856650616,
      "amenity": "cafe",
      "cuisine": "coffee_shop",
      "addr_postcode": "78745",
      "addr_street": "Manchaca Road",
      "addr_housenumber": "5320",
      "angle": 187.882808020453
    },
    {
      "id": 113914,
      "geometry": "POINT (-97.796455 30.217862)",
      "poi_name": "Captain Quakenbush's Coffeehouse",
      "osm_id": 3856650618,
      "amenity": "cafe",
      "cuisine": "coffee_shop",
      "addr_postcode": "78745",
      "addr_street": "Manchaca Road",
      "addr_housenumber": "5324",
      "angle": 187.88699213774615
    },
    {
      "id": 113915,
      "geometry": "POINT (-97.796492 30.217802)",
      "poi_name": "Lazydaze",
      "osm_id": 3856650619,
      "amenity": "cafe",
      "addr_postcode": "78745",
      "addr_street": "Manchaca Road",
      "addr_housenumber": "5326",
      "angle": 187.88878231395555
    },
    {
      "id": 113916,
      "geometry": "POINT (-97.796552 30.217809)",
      "poi_name": "lazydazy",
      "osm_id": 3856650620,
      "amenity": "cafe",
      "addr_postcode": "78745",
      "addr_street": "Manchaca Road",
      "addr_housenumber": "5328",
      "angle": 187.89275760465787
    },
    {
      "id": 115269,
      "geometry": "POINT (-97.738886 30.260105)",
      "poi_name": "Caf\u00e9 605",
      "osm_id": 8883842087,
      "amenity": "cafe",
      "addr_state": "TX",
      "addr_city": "Austin",
      "addr_postcode": "78701",
      "addr_street": "Davis Street",
      "addr_housenumber": "605",
      "angle": 184.35376162833836
    },
    {
      "id": 116561,
      "geometry": "POINT (-97.791914 30.233279)",
      "poi_name": "Starbucks",
      "osm_id": 8947061125,
      "amenity": "cafe",
      "cuisine": "coffee_shop",
      "takeaway": "yes",
      "official_name": "Starbucks Coffee",
      "angle": 187.74734478207733
    },
    {
      "id": 116172,
      "geometry": "POINT (-97.752141 30.267566)",
      "poi_name": "Merit Coffee",
      "osm_id": 8931050056,
      "amenity": "cafe",
      "addr_state": "TX",
      "addr_city": "Austin",
      "addr_postcode": "78701",
      "addr_street": "West Avenue",
      "addr_housenumber": "222",
      "angle": 185.33394504633512
    },
    {
      "id": 116563,
      "geometry": "POINT (-97.793505 30.163101)",
      "poi_name": "Starbucks",
      "osm_id": 8947079259,
      "amenity": "cafe",
      "cuisine": "coffee_shop",
      "takeaway": "yes",
      "official_name": "Starbucks Coffee",
      "angle": 187.1810089121672
    },
    {
      "id": 116565,
      "geometry": "POINT (-97.828445 30.234039)",
      "poi_name": "Starbucks",
      "osm_id": 8947129819,
      "amenity": "cafe",
      "cuisine": "coffee_shop",
      "opening_hours": "08:00-20:00",
      "website": "https://www.starbucks.com/store-locator/store/9824/target-austin-1061-5300-s-mo-pac-expy-austin-tx-787491112-us",
      "phone": "+1-512-892-5535",
      "takeaway": "yes",
      "official_name": "Starbucks Coffee",
      "outdoor_seating": "no",
      "addr_state": "TX",
      "addr_city": "Austin",
      "addr_postcode": "78749",
      "addr_street": "South Mopac Expressway",
      "addr_housenumber": "5300",
      "angle": 190.1714340338083
    },
    {
      "id": 116568,
      "geometry": "POINT (-97.598488 30.467291)",
      "poi_name": "Starbucks",
      "osm_id": 8947238250,
      "amenity": "cafe",
      "cuisine": "coffee_shop",
      "takeaway": "yes",
      "official_name": "Starbucks Coffee",
      "angle": 172.28532687674857
    },
    {
      "id": 117600,
      "geometry": "POINT (-97.719101 30.334826)",
      "poi_name": "604 Coffee",
      "osm_id": 9001999513,
      "amenity": "cafe",
      "cuisine": "coffee_shop;coffee",
      "opening_hours": "Mo-Fr 07:00-15:00, Sa-Su 07:00-18:00",
      "website": "https://604coffee.com",
      "internet_access": "yes",
      "phone": "+1-512-351-4004",
      "outdoor_seating": "yes",
      "addr_state": "TX",
      "addr_city": "Austin",
      "addr_postcode": "78752",
      "addr_street": "Williams Street",
      "addr_housenumber": "604",
      "angle": 183.31652947224885
    },
    {
      "id": 122330,
      "geometry": "POINT (-97.741349 30.283403)",
      "poi_name": "Gong Cha",
      "osm_id": 6797146023,
      "amenity": "cafe",
      "cuisine": "bubble_tea",
      "takeaway": "yes",
      "outdoor_seating": "no",
      "addr_state": "TX",
      "addr_city": "Austin",
      "addr_postcode": "78705",
      "addr_street": "Guadalupe Street",
      "angle": 184.67799522558175
    },
    {
      "id": 120091,
      "geometry": "POINT (-97.679415 30.490302)",
      "poi_name": "Teapioca Lounge",
      "osm_id": 9139971187,
      "amenity": "cafe",
      "cuisine": "bubble_tea",
      "wheelchair": "yes",
      "opening_hours": "Mo-Su 10:00-22:00",
      "website": "https://teapiocalounge.com/",
      "phone": "+1-512-887-4883",
      "addr_state": "TX",
      "addr_city": "Round Rock",
      "addr_postcode": "78681",
      "addr_street": "South Interstate 35",
      "addr_housenumber": "2000",
      "angle": 180.27185971247653
    },
    {
      "id": 120937,
      "geometry": "POINT (-97.709846 30.388084)",
      "poi_name": "Kiefer's Cafe and Catering",
      "osm_id": 6735154773,
      "amenity": "cafe",
      "cuisine": "breakfast;lunch;dessert;sandwich;salad",
      "wheelchair": "yes",
      "opening_hours": "Mo-Fr 06:30-14:00",
      "phone": "+1-512-719-5550",
      "takeaway": "yes",
      "outdoor_seating": "yes",
      "addr_state": "TX",
      "addr_city": "Austin",
      "addr_postcode": "78758",
      "addr_street": "Kramer Lane",
      "addr_housenumber": "2007",
      "angle": 182.82818573309046
    },
    {
      "id": 124850,
      "geometry": "POINT (-97.152504 31.666754)",
      "poi_name": "(36) Cafe Homestead / Seminars",
      "osm_id": 6935846751,
      "amenity": "cafe",
      "description": "Cafe Homestead  Seminars",
      "angle": 32.653805769251406
    },
    {
      "id": 126530,
      "geometry": "POINT (-97.335023 30.108237)",
      "poi_name": "Starbucks",
      "osm_id": 7008638898,
      "amenity": "cafe",
      "cuisine": "coffee_shop",
      "wheelchair": "yes",
      "opening_hours": "05:00-21:30",
      "website": "https://www.starbucks.com",
      "internet_access": "wlan",
      "phone": "+1-512-321-8051",
      "takeaway": "yes",
      "drive_through": "yes",
      "official_name": "Starbucks Coffee",
      "outdoor_seating": "yes",
      "addr_state": "TX",
      "addr_city": "Bastrop",
      "addr_postcode": "78602",
      "addr_street": "State Highway 71 West",
      "addr_housenumber": "501",
      "angle": 160.92601046395086
    },
    {
      "id": 124892,
      "geometry": "POINT (-97.153428 31.66624)",
      "poi_name": "(24) Brazos Valley Cheese;Brazos valley cheese",
      "osm_id": 6938576769,
      "amenity": "cafe",
      "description": "Brazos Valley Cheese",
      "shop": "cheese",
      "angle": 32.62732636163799
    },
    {
      "id": 128078,
      "geometry": "POINT (-97.742235 30.28256)",
      "poi_name": "CoCo's Cafe",
      "osm_id": 8119665866,
      "amenity": "cafe",
      "cuisine": "taiwanese;cafe;drinks;bubble_tea",
      "opening_hours": "Mo-Th 11:00-21:00; Fr-Su 11:30-21:30",
      "website": "https://www.cocos-cafe.com/",
      "internet_access": "wlan",
      "phone": "+1-512-236-9398",
      "addr_state": "TX",
      "addr_city": "Austin",
      "addr_postcode": "78705",
      "addr_street": "Guadalupe Street",
      "addr_housenumber": "1910",
      "angle": 184.73615007257564
    },
    {
      "id": 127432,
      "geometry": "POINT (-97.813403 30.528489)",
      "poi_name": "Starbucks",
      "osm_id": 8064257642,
      "amenity": "cafe",
      "cuisine": "coffee_shop",
      "takeaway": "yes",
      "official_name": "Starbucks Coffee",
      "angle": 195.06010248325308
    },
    {
      "id": 127746,
      "geometry": "POINT (-97.748201 30.265297)",
      "poi_name": "Yummi Joy",
      "osm_id": 8090124769,
      "amenity": "cafe",
      "cuisine": "coffee_shop;ice_cream",
      "outdoor_seating": "yes",
      "angle": 185.04037745921082
    },
    {
      "id": 128095,
      "geometry": "POINT (-97.736432 30.295016)",
      "poi_name": "Square Peg Coffee",
      "osm_id": 8121330086,
      "amenity": "cafe",
      "opening_hours": "Mo-Sa 07:00-14:00",
      "addr_state": "TX",
      "addr_city": "Austin",
      "addr_postcode": "78705",
      "addr_street": "East 31st Street",
      "addr_housenumber": "104",
      "angle": 184.3968496523843
    },
    {
      "id": 129862,
      "geometry": "POINT (-97.668822 30.202119)",
      "poi_name": "Caribou Coffee",
      "osm_id": 9844659945,
      "amenity": "cafe",
      "cuisine": "coffee_shop",
      "takeaway": "yes",
      "angle": 179.48181576581135
    },
    {
      "id": 128898,
      "geometry": "POINT (-97.758729 30.262145)",
      "poi_name": "Hot L Coffee",
      "osm_id": 8195412272,
      "amenity": "cafe",
      "cuisine": "coffee_shop",
      "wheelchair": "yes",
      "website": "https://carpenterhotel.com/",
      "phone": "+1-512-682-5300",
      "takeaway": "yes",
      "outdoor_seating": "yes",
      "addr_state": "TX",
      "addr_city": "Austin",
      "addr_postcode": "78704",
      "addr_street": "Josephine Street",
      "addr_housenumber": "400",
      "angle": 185.75342254349445
    },
    {
      "id": 129405,
      "geometry": "POINT (-98.085866 30.191149)",
      "poi_name": "Starbucks",
      "osm_id": 8241776958,
      "amenity": "cafe",
      "cuisine": "coffee_shop",
      "takeaway": "yes",
      "official_name": "Starbucks Coffee",
      "addr_state": "TX",
      "addr_city": "Dripping Springs",
      "addr_postcode": "78620",
      "addr_street": "East US Highway 290",
      "addr_housenumber": "108",
      "angle": 204.5971311436174
    },
    {
      "id": 129654,
      "geometry": "POINT (-97.815111 30.550424)",
      "poi_name": "Red Horn Coffee House and Brewing Company",
      "osm_id": 9834754761,
      "amenity": "cafe",
      "angle": 195.99678804692684
    },
    {
      "id": 130417,
      "geometry": "POINT (-97.79264 30.454215)",
      "poi_name": "Cure Bakery & Coffee",
      "osm_id": 9871137225,
      "amenity": "cafe",
      "cuisine": "coffee_shop",
      "internet_access": "wlan",
      "outdoor_seating": "yes",
      "angle": 191.05249898230167
    },
    {
      "id": 132759,
      "geometry": "POINT (-97.784534 32.433743)",
      "poi_name": "Tea2Go TeaN\u2019ergy",
      "osm_id": 9966630844,
      "amenity": "cafe",
      "cuisine": "tea",
      "website": "https://tea2go.us/",
      "internet_access": "wlan",
      "phone": "(817) 964-3039",
      "drive_through": "yes",
      "addr_state": "TX",
      "addr_city": "Granbury",
      "addr_postcode": "76048",
      "addr_street": "East US Highway 377",
      "addr_housenumber": "331",
      "angle": 356.4322495970647
    },
    {
      "id": 133630,
      "geometry": "POINT (-97.940511 29.867071)",
      "poi_name": "Starbucks",
      "osm_id": 10000789266,
      "amenity": "cafe",
      "cuisine": "coffee_shop",
      "takeaway": "yes",
      "official_name": "Starbucks Coffee",
      "addr_state": "TX",
      "addr_city": "San Marcos",
      "addr_postcode": "78666",
      "addr_street": "South Interstate 35",
      "addr_housenumber": "1285",
      "angle": 191.79459530098396
    },
    {
      "id": 136031,
      "geometry": "POINT (-97.342874 31.095516)",
      "poi_name": "Fire Street Roasters",
      "osm_id": 11556797214,
      "amenity": "cafe",
      "cuisine": "coffee_shop",
      "website": "https://firststreetroasters.com/",
      "internet_access": "yes",
      "phone": "254-231-3040",
      "outdoor_seating": "yes",
      "addr_state": "TX",
      "addr_city": "Temple",
      "addr_postcode": "76501",
      "addr_street": "South 1st Street",
      "addr_housenumber": "110",
      "angle": 66.00690263983698
    },
    {
      "id": 134826,
      "geometry": "POINT (-97.75453 30.267287)",
      "poi_name": "Ma\u0148ana",
      "osm_id": 11492466913,
      "amenity": "cafe",
      "cuisine": "coffee_shop",
      "addr_state": "TX",
      "addr_city": "Austin",
      "addr_postcode": "78703",
      "addr_street": "Sandra Muraida Way",
      "addr_housenumber": "111",
      "angle": 185.49989182928107
    },
    {
      "id": 136124,
      "geometry": "POINT (-98.48123 29.64276)",
      "poi_name": "Starbucks",
      "osm_id": 11563313013,
      "amenity": "cafe",
      "angle": 207.97842773907416
    },
    {
      "id": 136838,
      "geometry": "POINT (-97.796658 30.217569)",
      "poi_name": "Austin Java",
      "osm_id": 6072235650,
      "amenity": "cafe",
      "angle": 187.897214863518
    },
    {
      "id": 137637,
      "geometry": "POINT (-96.464592 32.092968)",
      "poi_name": "Timbers",
      "osm_id": 6108173774,
      "amenity": "cafe",
      "cuisine": "coffee_shop",
      "internet_access": "wlan",
      "angle": 42.39146846326044
    },
    {
      "id": 137172,
      "geometry": "POINT (-97.741674 30.260507)",
      "poi_name": "Alta's Cafe",
      "osm_id": 6088701317,
      "amenity": "cafe",
      "opening_hours": "Mo-Su 08:00-20:00",
      "angle": 184.55099829327108
    },
    {
      "id": 137176,
      "geometry": "POINT (-97.697839 30.261137)",
      "poi_name": "Old Rail Coffee Pub",
      "osm_id": 6088759294,
      "amenity": "cafe",
      "angle": 181.48012179946957
    },
    {
      "id": 140067,
      "geometry": "POINT (-97.786941 32.442107)",
      "poi_name": "Paradise Bistro & Coffee Co.",
      "osm_id": 6229052436,
      "amenity": "cafe",
      "website": "https://www.paradisebistro.com/",
      "angle": 356.37370940942805
    },
    {
      "id": 139198,
      "geometry": "POINT (-97.687272 30.377405)",
      "poi_name": "Bambu",
      "osm_id": 6186533585,
      "amenity": "cafe",
      "cuisine": "vietnamese;bubble_tea",
      "wheelchair": "yes",
      "website": "https://www.drinkbambu.com/",
      "internet_access": "wlan",
      "phone": "+1-512-832-8886",
      "takeaway": "yes",
      "outdoor_seating": "no",
      "addr_state": "TX",
      "addr_city": "Austin",
      "addr_postcode": "78753",
      "addr_street": "North Lamar Boulevard",
      "addr_housenumber": "10901",
      "angle": 180.88094265078186
    },
    {
      "id": 139226,
      "geometry": "POINT (-97.727566 30.26845)",
      "poi_name": "Paperboy",
      "osm_id": 6187462596,
      "amenity": "cafe",
      "opening_hours": "Mo-We 08:00-14:00; Th-Su 08:00-15:00",
      "website": "https://www.paperboyaustin.com",
      "phone": "+1-512-910-3010",
      "addr_street": "East 11th Street",
      "addr_housenumber": "1203",
      "angle": 183.60427009360058
    },
    {
      "id": 140111,
      "geometry": "POINT (-97.731695 30.318766)",
      "poi_name": "SquareR\u00fct Kava Bar",
      "osm_id": 6231507087,
      "amenity": "cafe",
      "cuisine": "coffee_shop",
      "internet_access": "wlan",
      "angle": 184.1953268158218
    },
    {
      "id": 149467,
      "geometry": "POINT (-97.734673 30.359367)",
      "poi_name": "Epoch Coffee",
      "osm_id": 4011464284,
      "amenity": "cafe",
      "cuisine": "coffee_shop",
      "website": "https://epochcoffee.com/",
      "internet_access": "yes",
      "addr_state": "TX",
      "addr_city": "Austin",
      "addr_postcode": "78757",
      "addr_street": "West Anderson Lane",
      "addr_housenumber": "2700",
      "angle": 184.71375250729952
    },
    {
      "id": 143698,
      "geometry": "POINT (-97.556001 30.54288)",
      "poi_name": "baked'nsconed",
      "osm_id": 6347934278,
      "amenity": "cafe",
      "cuisine": "coffee_shop;bakery;scone",
      "outdoor_seating": "no",
      "addr_state": "TX",
      "addr_city": "Hutto",
      "addr_postcode": "78634",
      "addr_street": "Exchange Boulevard",
      "addr_housenumber": "143",
      "angle": 166.1828168050333
    },
    {
      "id": 143859,
      "geometry": "POINT (-97.761803 30.261977)",
      "poi_name": "Squarerut Kava Bar",
      "osm_id": 6353576985,
      "amenity": "cafe",
      "internet_access": "wlan",
      "angle": 185.9663317622162
    },
    {
      "id": 149162,
      "geometry": "POINT (-97.979148 29.829997)",
      "poi_name": "Starbucks",
      "osm_id": 3999094260,
      "amenity": "cafe",
      "cuisine": "coffee_shop",
      "internet_access": "wlan",
      "phone": "+1 512 392 6526",
      "takeaway": "yes",
      "official_name": "Starbucks Coffee",
      "addr_state": "TX",
      "addr_city": "San Marcos",
      "addr_postcode": "78666",
      "addr_street": "South Interstate 35",
      "angle": 193.0457518911113
    },
    {
      "id": 140878,
      "geometry": "POINT (-97.739394 30.289278)",
      "poi_name": "Littlefield Patio Cafe",
      "osm_id": 6264985893,
      "amenity": "cafe",
      "cuisine": "sandwich",
      "outdoor_seating": "yes",
      "addr_state": "TX",
      "addr_city": "Austin",
      "addr_postcode": "78712",
      "addr_street": "Whitis Avenue",
      "addr_housenumber": "2503",
      "angle": 184.57570575710128
    },
    {
      "id": 144287,
      "geometry": "POINT (-97.724537 30.371509)",
      "poi_name": "Emerald Tavern Games",
      "osm_id": 7255870318,
      "amenity": "cafe",
      "opening_hours": "Su 11:00-21:00; Mo off; Tu-Th 11:00-23:00; Fr,Sa 11:00-24:00",
      "website": "https://www.emeraldtaverngames.com/",
      "phone": "+1-512-994-4649",
      "outdoor_seating": "yes",
      "addr_state": "TX",
      "addr_city": "Austin",
      "addr_postcode": "78758",
      "addr_street": "Research Boulevard",
      "addr_housenumber": "9012",
      "angle": 183.96945588837295
    },
    {
      "id": 148445,
      "geometry": "POINT (-97.728418 30.2897)",
      "poi_name": "Red River Cafe",
      "osm_id": 3952991242,
      "amenity": "cafe",
      "angle": 183.77822663789485
    },
    {
      "id": 151510,
      "geometry": "POINT (-96.317445 30.617723)",
      "poi_name": "Sweet Eugene's Java House",
      "osm_id": 4102833558,
      "amenity": "cafe",
      "cuisine": "coffee_shop",
      "opening_hours": "Mo-Sa 06:00-24:00; Su 07:00-24:00",
      "internet_access": "yes",
      "outdoor_seating": "yes",
      "addr_state": "TX",
      "addr_city": "College Station",
      "addr_postcode": "77840",
      "addr_street": "George Bush Drive East",
      "addr_housenumber": "1702",
      "angle": 106.27298321803156
    },
    {
      "id": 151414,
      "geometry": "POINT (-96.316084 30.613423)",
      "poi_name": "Starbucks",
      "osm_id": 4098318270,
      "amenity": "cafe",
      "cuisine": "coffee_shop",
      "takeaway": "yes",
      "official_name": "Starbucks Coffee",
      "angle": 106.44901703677401
    },
    {
      "id": 151522,
      "geometry": "POINT (-96.34522 30.618838)",
      "poi_name": "Starbucks",
      "osm_id": 4103537953,
      "amenity": "cafe",
      "cuisine": "coffee_shop",
      "internet_access": "yes",
      "takeaway": "yes",
      "official_name": "Starbucks Coffee",
      "angle": 106.55636348365657
    },
    {
      "id": 157193,
      "geometry": "POINT (-97.699908 30.301612)",
      "poi_name": "Starbucks",
      "osm_id": 4692486090,
      "amenity": "cafe",
      "cuisine": "coffee_shop",
      "wheelchair": "yes",
      "opening_hours": "Mo-Su 05:30-22:00",
      "website": "https://www.starbucks.com/store-locator/store/1007741/berkman-51st-1801-e-51st-street-bldg-a-austin-tx-787233434-us",
      "phone": "+1-512-480-0684",
      "takeaway": "yes",
      "official_name": "Starbucks Coffee",
      "outdoor_seating": "yes",
      "delivery": "yes",
      "addr_state": "TX",
      "addr_city": "Austin",
      "addr_postcode": "78723",
      "addr_street": "East 51st Street",
      "addr_housenumber": "1801",
      "angle": 181.72355110786785
    },
    {
      "id": 152235,
      "geometry": "POINT (-96.31169 30.622412)",
      "poi_name": "Mugwalls",
      "osm_id": 4133914794,
      "amenity": "cafe",
      "angle": 105.99596458387381
    },
    {
      "id": 153136,
      "geometry": "POINT (-97.783565 30.53282)",
      "poi_name": "Starbucks",
      "osm_id": 4179629416,
      "amenity": "cafe",
      "cuisine": "coffee_shop",
      "opening_hours": "06:00-20:00",
      "website": "https://www.starbucks.com/store-locator/store/14328/hwy-1431-parmer-2800-e-whitestone-blvd-suite-140-cedar-park-tx-786",
      "phone": "+1-512-260-1627",
      "takeaway": "yes",
      "official_name": "Starbucks Coffee",
      "outdoor_seating": "yes",
      "addr_state": "TX",
      "addr_city": "Cedar Park",
      "addr_postcode": "78613",
      "addr_street": "East Whitestone Boulevard",
      "addr_housenumber": "2800",
      "angle": 191.98987534359406
    },
    {
      "id": 160185,
      "geometry": "POINT (-97.82983 30.482721)",
      "poi_name": "Starbucks",
      "osm_id": 4824303326,
      "amenity": "cafe",
      "cuisine": "coffee_shop",
      "takeaway": "yes",
      "official_name": "Starbucks Coffee",
      "addr_state": "TX",
      "addr_city": "Cedar Park",
      "addr_postcode": "78613",
      "addr_street": "Cypress Creek Road",
      "addr_housenumber": "1400",
      "angle": 195.27713780109576
    },
    {
      "id": 158435,
      "geometry": "POINT (-97.873648 30.185785)",
      "poi_name": "Wildflower Cafe",
      "osm_id": 4747353330,
      "amenity": "cafe",
      "outdoor_seating": "yes",
      "angle": 192.3336127409894
    },
    {
      "id": 159746,
      "geometry": "POINT (-97.671041 31.068463)",
      "poi_name": "Bahama Bucks",
      "osm_id": 4804831827,
      "amenity": "cafe",
      "cuisine": "snow_cone",
      "angle": 2.8247786706629356
    },
    {
      "id": 161900,
      "geometry": "POINT (-97.742689 30.267442)",
      "poi_name": "My Name Is Joe Coffee",
      "osm_id": 4906380121,
      "amenity": "cafe",
      "cuisine": "breakfast;coffee_shop",
      "opening_hours": "Mo-Fr 07:00-15:00",
      "website": "http://mynameisjoe.com",
      "addr_postcode": "78701",
      "addr_street": "Colorado Street",
      "addr_housenumber": "503",
      "angle": 184.66710867130817
    },
    {
      "id": 161901,
      "geometry": "POINT (-97.735614 30.231843)",
      "poi_name": "Caf\u00e9 Cr\u00e8me",
      "osm_id": 4906380122,
      "amenity": "cafe",
      "cuisine": "coffee_shop;breakfast;crepe",
      "opening_hours": "Mo-Fr 07:00-18:00; Sa-Su 08:00-18:00",
      "website": "https://cafecremeaustin.com/",
      "phone": "+1-512-710-9473",
      "addr_postcode": "78741",
      "angle": 183.96841537679344
    },
    {
      "id": 162586,
      "geometry": "POINT (-97.385028 31.057012)",
      "poi_name": "Daddy",
      "osm_id": 4936216222,
      "amenity": "cafe",
      "addr_postcode": "76502",
      "addr_street": "Buckskin Trail",
      "addr_housenumber": "4815",
      "angle": 70.43046078944451
    },
    {
      "id": 162499,
      "geometry": "POINT (-97.670025 30.202292)",
      "poi_name": "Annie's",
      "osm_id": 4933514976,
      "amenity": "cafe",
      "opening_hours": "Mo-Su 04:00-19:00",
      "outdoor_seating": "no",
      "angle": 179.55992145567015
    },
    {
      "id": 162617,
      "geometry": "POINT (-97.694312 30.510356)",
      "poi_name": "Lamppost Coffee",
      "osm_id": 4936465671,
      "amenity": "cafe",
      "opening_hours": "Mo-Fr 06:30-19:00; Sa,Su 08:00-19:00",
      "angle": 181.89776589018496
    },
    {
      "id": 163699,
      "geometry": "POINT (-97.717078 30.325972)",
      "poi_name": "Spokesman - Highland",
      "osm_id": 9431562138,
      "amenity": "cafe",
      "cuisine": "coffee_shop",
      "wheelchair": "yes",
      "opening_hours": "Mo-Fr 08:00-22:00; Sa-Su 09:00-16:00",
      "website": "https://www.spokesmancoffee.com/",
      "internet_access": "wlan",
      "phone": "+1-512-586-9657",
      "outdoor_seating": "yes",
      "addr_state": "TX",
      "addr_city": "Austin",
      "addr_postcode": "78752",
      "addr_street": "Dillard Circle",
      "addr_housenumber": "6015",
      "angle": 183.11510880505642
    },
    {
      "id": 166027,
      "geometry": "POINT (-97.747114 30.260684)",
      "poi_name": "Starbucks",
      "osm_id": 9571493096,
      "amenity": "cafe",
      "cuisine": "coffee_shop",
      "opening_hours": "Mo-Su 06:00-18:00",
      "takeaway": "yes",
      "official_name": "Starbucks Coffee",
      "outdoor_seating": "yes",
      "angle": 184.93201047624544
    },
    {
      "id": 163870,
      "geometry": "POINT (-97.385472 31.093257)",
      "poi_name": "Starbucks",
      "osm_id": 9439883965,
      "amenity": "cafe",
      "cuisine": "coffee_shop",
      "takeaway": "yes",
      "official_name": "Starbucks Coffee",
      "angle": 63.40147226411777
    },
    {
      "id": 164000,
      "geometry": "POINT (-96.315232 30.610439)",
      "poi_name": "Starbucks",
      "osm_id": 9446291091,
      "amenity": "cafe",
      "cuisine": "coffee_shop",
      "opening_hours": "Mo-Su 08:00-20:00",
      "takeaway": "yes",
      "official_name": "Starbucks Coffee",
      "angle": 106.57186619473042
    },
    {
      "id": 165396,
      "geometry": "POINT (-97.670491 30.539322)",
      "poi_name": "Sunrise Teahouse",
      "osm_id": 9533134251,
      "amenity": "cafe",
      "cuisine": "bubble_tea;tea;dessert",
      "angle": 179.27063711154042
    },
    {
      "id": 166317,
      "geometry": "POINT (-97.864906 30.544617)",
      "poi_name": "Starbucks",
      "osm_id": 9587302028,
      "amenity": "cafe",
      "cuisine": "coffee_shop",
      "opening_hours": "Mo-Su 05:00-21:00",
      "internet_access": "wlan",
      "takeaway": "yes",
      "drive_through": "yes",
      "official_name": "Starbucks Coffee",
      "outdoor_seating": "yes",
      "addr_state": "TX",
      "addr_city": "Leander",
      "addr_postcode": "78641",
      "addr_street": "Crystal Falls Parkway",
      "addr_housenumber": "1820",
      "angle": 201.03821807501635
    },
    {
      "id": 167112,
      "geometry": "POINT (-97.74297 30.268267)",
      "poi_name": "Starbucks",
      "osm_id": 338450997,
      "amenity": "cafe",
      "cuisine": "coffee_shop",
      "opening_hours": "Mo-Fr 05:30-21:00, Sa,Su 06:30-19:00",
      "takeaway": "yes",
      "official_name": "Starbucks Coffee",
      "angle": 184.69234776467056
    },
    {
      "id": 167113,
      "geometry": "POINT (-97.741178 30.271876)",
      "poi_name": "Starbucks",
      "osm_id": 338451013,
      "amenity": "cafe",
      "cuisine": "coffee_shop",
      "takeaway": "yes",
      "official_name": "Starbucks Coffee",
      "angle": 184.5892790555761
    },
    {
      "id": 170333,
      "geometry": "POINT (-97.740414 30.265449)",
      "poi_name": "Starbucks",
      "osm_id": 2332626939,
      "amenity": "cafe",
      "cuisine": "coffee_shop",
      "takeaway": "yes",
      "official_name": "Starbucks Coffee",
      "angle": 184.4939985081976
    },
    {
      "id": 172405,
      "geometry": "POINT (-97.788159 30.165602)",
      "poi_name": "Starbucks",
      "osm_id": 2401659412,
      "amenity": "cafe",
      "cuisine": "coffee_shop",
      "takeaway": "yes",
      "official_name": "Starbucks Coffee",
      "angle": 186.87621878045502
    },
    {
      "id": 170928,
      "geometry": "POINT (-97.756342 30.354672)",
      "poi_name": "Starbucks",
      "osm_id": 2352597263,
      "amenity": "cafe",
      "cuisine": "coffee_shop",
      "takeaway": "yes",
      "official_name": "Starbucks Coffee",
      "angle": 186.41697410195036
    },
    {
      "id": 174619,
      "geometry": "POINT (-97.800558 30.273146)",
      "poi_name": "Summer Moon Coffee",
      "osm_id": 2492922372,
      "amenity": "cafe",
      "cuisine": "coffee_shop",
      "wheelchair": "yes",
      "opening_hours": "Tu 08:00-20:00; We-Fr 06:00-20:00; Sa 07:00-20:00; Su 07:00-16:",
      "website": "https://summermooncoffee.com/",
      "internet_access": "wlan",
      "phone": "+1-512-582-0103",
      "takeaway": "yes",
      "outdoor_seating": "yes",
      "addr_state": "TX",
      "addr_city": "Austin",
      "addr_postcode": "78746",
      "addr_street": "Bee Caves Road",
      "addr_housenumber": "3201",
      "angle": 188.7879870040751
    },
    {
      "id": 175614,
      "geometry": "POINT (-97.721396 30.37013)",
      "poi_name": "Mikki's Replay Cafe",
      "osm_id": 2527535403,
      "amenity": "cafe",
      "angle": 183.7005713257899
    },
    {
      "id": 175172,
      "geometry": "POINT (-97.716053 30.293549)",
      "poi_name": "Cherrywood Coffee House",
      "osm_id": 2507491258,
      "amenity": "cafe",
      "cuisine": "burger;breakfast;sandwich;dessert;tacos",
      "wheelchair": "yes",
      "opening_hours": "Mo-Su 07:00-22:00",
      "website": "http://cherrywoodcoffeehouse.com/",
      "internet_access": "yes",
      "phone": "+1-512-538-1991",
      "takeaway": "yes",
      "outdoor_seating": "yes",
      "delivery": "yes",
      "addr_state": "TX",
      "addr_city": "Austin",
      "addr_postcode": "78722",
      "addr_street": "E 38th 1/2 St.",
      "addr_housenumber": "1400",
      "angle": 182.89122019483227
    },
    {
      "id": 179329,
      "geometry": "POINT (-97.923519 29.88369)",
      "poi_name": "Lazydaze",
      "osm_id": 10758124542,
      "amenity": "cafe",
      "cuisine": "coffee_shop",
      "opening_hours": "Mo-Su 09:00-21:00",
      "website": "https://www.lazydazeshop.com",
      "phone": "+1-737-213-4018",
      "outdoor_seating": "yes",
      "addr_state": "TX",
      "addr_city": "San Marcos",
      "addr_postcode": "78666",
      "addr_street": "East Hopkins Street",
      "addr_housenumber": "718",
      "angle": 191.21695242709427
    },
    {
      "id": 175697,
      "geometry": "POINT (-97.735698 30.35958)",
      "poi_name": "San Francisco Bakery & Cafe",
      "osm_id": 2533220664,
      "amenity": "cafe",
      "wheelchair": "yes",
      "opening_hours": "Mo-Fr 07:00-16:00; Sa 07:00-15:00",
      "website": "https://www.sanfranciscobakeryandcaf\u00e9.com/",
      "phone": "+1-512-302-3420",
      "takeaway": "only",
      "delivery": "yes",
      "addr_state": "TX",
      "addr_city": "Austin",
      "addr_postcode": "78757",
      "addr_street": "West Anderson Lane",
      "addr_housenumber": "2900",
      "angle": 184.79854499536887
    },
    {
      "id": 178406,
      "geometry": "POINT (-97.982666 30.203179)",
      "poi_name": "SquareR\u00fct Kava Bar",
      "osm_id": 10724731151,
      "amenity": "cafe",
      "cuisine": "coffee_shop",
      "wheelchair": "yes",
      "opening_hours": "Tu-Su 12:00-19:00",
      "website": "https://squarerut.com/",
      "phone": "+1-512-904-0204",
      "addr_state": "TX",
      "addr_city": "Austin",
      "addr_postcode": "78737",
      "addr_street": "Belterra Village Way",
      "addr_housenumber": "164",
      "angle": 199.16250596964318
    },
    {
      "id": 175654,
      "geometry": "POINT (-97.746977 30.401978)",
      "poi_name": "Signature Cafe",
      "osm_id": 2530278181,
      "amenity": "cafe",
      "angle": 186.13382619891473
    },
    {
      "id": 175655,
      "geometry": "POINT (-97.746874 30.401983)",
      "poi_name": "Starbucks",
      "osm_id": 2530278183,
      "amenity": "cafe",
      "cuisine": "coffee_shop",
      "takeaway": "yes",
      "official_name": "Starbucks Coffee",
      "angle": 186.12498632638537
    },
    {
      "id": 179338,
      "geometry": "POINT (-97.918973 29.892089)",
      "poi_name": "Teapioca Lounge",
      "osm_id": 10759368774,
      "amenity": "cafe",
      "cuisine": "bubble_tea",
      "opening_hours": "Su-Sa 11:00-21:00",
      "website": "https://www.teapiocalounge.com/TeapiocaAquarena/",
      "phone": "+1-512-355-7899",
      "addr_state": "TX",
      "addr_city": "San Marcos",
      "addr_postcode": "78666",
      "addr_street": "Aquarena Springs Drive",
      "addr_housenumber": "1504",
      "angle": 191.09826910071112
    },
    {
      "id": 180042,
      "geometry": "POINT (-97.672214 30.414705)",
      "poi_name": "Summer Moon Coffee",
      "osm_id": 10788783517,
      "amenity": "cafe",
      "cuisine": "coffee_shop",
      "opening_hours": "Mo-Fr 06:00-20:00; Sa 07:00-20:00",
      "website": "https://locations.summermooncoffee.com/locations/n-interstate-hwy-austin/",
      "internet_access": "yes",
      "phone": "+1-512-609-8038",
      "drive_through": "yes",
      "outdoor_seating": "no",
      "addr_state": "TX",
      "addr_city": "Austin",
      "addr_postcode": "78753",
      "addr_street": "North Interstate 35",
      "addr_housenumber": "12901",
      "angle": 179.58873658209527
    },
    {
      "id": 181287,
      "geometry": "POINT (-97.392778 30.351413)",
      "poi_name": "Starbucks",
      "osm_id": 10838309232,
      "amenity": "cafe",
      "cuisine": "coffee_shop",
      "wheelchair": "yes",
      "opening_hours": "Mo-Fr 05:00-21:00; Sa-Su 06:00-21:00",
      "internet_access": "wlan",
      "phone": "+1-737-537-2053",
      "takeaway": "yes",
      "drive_through": "yes",
      "official_name": "Starbucks Coffee",
      "addr_state": "TX",
      "addr_city": "Elgin",
      "addr_postcode": "78621",
      "addr_street": "West US Highway 290",
      "addr_housenumber": "1380",
      "angle": 158.21580442991166
    },
    {
      "id": 180155,
      "geometry": "POINT (-97.665466 30.202262)",
      "poi_name": "Starbucks",
      "osm_id": 10793558095,
      "amenity": "cafe",
      "cuisine": "coffee_shop",
      "opening_hours": "Mo-Su 04:00-20:00",
      "takeaway": "only",
      "official_name": "Starbucks Coffee",
      "outdoor_seating": "no",
      "angle": 179.263696096188
    },
    {
      "id": 182600,
      "geometry": "POINT (-97.371288 30.349242)",
      "poi_name": "Chemn Cafe",
      "osm_id": 10896608707,
      "amenity": "cafe",
      "wheelchair": "yes",
      "opening_hours": "Mo-We, Fr 08:00-16:00; Th 08:00-19:00; Sa 08:00-22:00; Su 08:00-13:00",
      "website": "https://www.chemncafe.com",
      "phone": "+1-512-827-9747",
      "takeaway": "yes",
      "delivery": "yes",
      "addr_state": "TX",
      "addr_city": "Elgin",
      "addr_postcode": "78621",
      "addr_street": "North Main Street",
      "addr_housenumber": "114",
      "angle": 156.8085516776531
    },
    {
      "id": 181810,
      "geometry": "POINT (-97.774682 30.247815)",
      "poi_name": "Purr-Fecto Cat Lounge",
      "osm_id": 10865943772,
      "amenity": "cafe",
      "fee": "yes",
      "website": "https://purrfectocatlounge.com/",
      "shop": "pet",
      "addr_state": "TX",
      "addr_city": "Austin",
      "addr_postcode": "78704",
      "addr_street": "South Lamar Boulevard",
      "addr_housenumber": "2300",
      "angle": 186.72963998755182
    },
    {
      "id": 183237,
      "geometry": "POINT (-97.709145 30.306381)",
      "poi_name": "La Madeleine",
      "osm_id": 10919929226,
      "amenity": "cafe",
      "cuisine": "french",
      "wheelchair": "yes",
      "opening_hours": "07:00-21:30",
      "website": "https://lamadeleine.com/",
      "internet_access": "wlan",
      "phone": "+1-512-366-3825",
      "takeaway": "yes",
      "outdoor_seating": "yes",
      "delivery": "yes",
      "addr_state": "TX",
      "addr_city": "Austin",
      "addr_postcode": "78723",
      "addr_street": "Barbara Jordan Boulevard",
      "addr_housenumber": "1201",
      "angle": 182.42894007006944
    },
    {
      "id": 189745,
      "geometry": "POINT (-97.749373 30.395218)",
      "poi_name": "FireBowlCafe",
      "osm_id": 1249186619,
      "amenity": "cafe",
      "angle": 186.26782035349632
    },
    {
      "id": 183974,
      "geometry": "POINT (-97.388737 32.461654)",
      "poi_name": "The Owls Nest Cafe",
      "osm_id": 10956441073,
      "amenity": "cafe",
      "opening_hours": "Mo-Fr 10:00-18:00",
      "website": "https://www.theowlsnestjoshua.com/",
      "addr_state": "TX",
      "addr_city": "Joshua",
      "addr_postcode": "76058",
      "addr_street": "North Main Street",
      "addr_housenumber": "101",
      "angle": 9.286307254050367
    },
    {
      "id": 183975,
      "geometry": "POINT (-97.388744 32.46179)",
      "poi_name": "Three Rivers Coffee",
      "osm_id": 10956441075,
      "amenity": "cafe",
      "cuisine": "coffee_shop",
      "website": "https://www.threeriverscoffee.com",
      "internet_access": "wlan",
      "addr_state": "TX",
      "addr_city": "Joshua",
      "addr_postcode": "76058",
      "addr_street": "North Main Street",
      "addr_housenumber": "107",
      "angle": 9.285238207187884
    },
    {
      "id": 183980,
      "geometry": "POINT (-97.387991 32.461558)",
      "poi_name": "Universe Tea",
      "osm_id": 10956487825,
      "amenity": "cafe",
      "cuisine": "bubble_tea",
      "phone": "+1-817-886-7347",
      "addr_state": "TX",
      "addr_city": "Joshua",
      "addr_postcode": "76058",
      "addr_street": "North Main Street",
      "addr_housenumber": "100",
      "angle": 9.310512923689036
    },
    {
      "id": 185615,
      "geometry": "POINT (-97.108524 31.602451)",
      "poi_name": "Starbucks",
      "osm_id": 7870835497,
      "amenity": "cafe",
      "cuisine": "coffee_shop",
      "takeaway": "yes",
      "official_name": "Starbucks Coffee",
      "addr_state": "TX",
      "addr_city": "Lacy-Lakeview",
      "addr_postcode": "76705",
      "addr_street": "North Interstate 35",
      "addr_housenumber": "4273",
      "angle": 37.4232013708561
    },
    {
      "id": 187830,
      "geometry": "POINT (-97.692949 30.632186)",
      "poi_name": "Starbucks",
      "osm_id": 1106881066,
      "amenity": "cafe",
      "cuisine": "coffee_shop",
      "wheelchair": "yes",
      "opening_hours": "Mo-Fr 05:00-21:00; Sa-Su 05:30-21:00",
      "internet_access": "wlan",
      "phone": "+1 512-868-6731",
      "takeaway": "yes",
      "drive_through": "yes",
      "official_name": "Starbucks Coffee",
      "addr_street": "West University Avenue",
      "addr_housenumber": "1003",
      "angle": 182.38135365942452
    },
    {
      "id": 185266,
      "geometry": "POINT (-97.687496 30.279312)",
      "poi_name": "Palamino Coffee",
      "osm_id": 7841474468,
      "amenity": "cafe",
      "cuisine": "coffee_shop",
      "opening_hours": "Mo-Su 08:00-14:00",
      "outdoor_seating": "yes",
      "addr_state": "TX",
      "addr_city": "Austin",
      "addr_postcode": "78721",
      "addr_street": "East 12th Street",
      "addr_housenumber": "4136",
      "angle": 180.77241739321323
    },
    {
      "id": 185465,
      "geometry": "POINT (-97.717669 30.336596)",
      "poi_name": "85\u00b0C",
      "osm_id": 7857825863,
      "amenity": "cafe",
      "cuisine": "coffee_shop;chinese",
      "opening_hours": "Mo-Su 09:00-19:00",
      "website": "https://www.85cbakerycafe.com/",
      "phone": "+1-512-436-8189",
      "takeaway": "yes",
      "addr_state": "TX",
      "addr_city": "Austin",
      "addr_postcode": "78752",
      "addr_street": "Airport Boulevard",
      "addr_housenumber": "6929",
      "angle": 183.2134066397386
    },
    {
      "id": 189310,
      "geometry": "POINT (-97.7275 30.395903)",
      "poi_name": "Yogurt Planet",
      "osm_id": 1226387342,
      "amenity": "cafe",
      "angle": 184.39289977271213
    },
    {
      "id": 189782,
      "geometry": "POINT (-97.704181 30.4001)",
      "poi_name": "Cafe Java",
      "osm_id": 1250747747,
      "amenity": "cafe",
      "cuisine": "american",
      "wheelchair": "yes",
      "phone": "+1-512-339-7677",
      "takeaway": "yes",
      "delivery": "yes",
      "addr_state": "TX",
      "addr_city": "Austin",
      "addr_postcode": "78758",
      "addr_street": "Metric Boulevard",
      "addr_housenumber": "11900",
      "angle": 182.3932237590112
    },
    {
      "id": 189812,
      "geometry": "POINT (-97.7134 30.407562)",
      "poi_name": "sodade",
      "osm_id": 1251977767,
      "amenity": "cafe",
      "angle": 183.23971491876537
    },
    {
      "id": 189752,
      "geometry": "POINT (-97.749103 30.398701)",
      "poi_name": "Yogertz",
      "osm_id": 1249567944,
      "amenity": "cafe",
      "angle": 186.2823193796001
    },
    {
      "id": 189889,
      "geometry": "POINT (-97.720244 30.394281)",
      "poi_name": "Summer Moon Coffee Bar",
      "osm_id": 1254086038,
      "amenity": "cafe",
      "wheelchair": "yes",
      "opening_hours": "Mo-Fr 06:00-20:00; Sa,Su 08:00-20:00",
      "angle": 183.75557111811068
    },
    {
      "id": 189755,
      "geometry": "POINT (-97.748365 30.399934)",
      "poi_name": "Great Harvest Bread Co.",
      "osm_id": 1249568695,
      "amenity": "cafe",
      "angle": 186.23204434016577
    },
    {
      "id": 192584,
      "geometry": "POINT (-97.357974 31.104162)",
      "poi_name": "Dutch Bros. Coffee",
      "osm_id": 1459399283,
      "amenity": "cafe",
      "cuisine": "coffee_shop",
      "website": "https://www.dutchbros.com/",
      "phone": "541-955-4700",
      "takeaway": "only",
      "addr_state": "TX",
      "addr_city": "Temple",
      "addr_postcode": "76504",
      "addr_street": "North General Bruce Drive",
      "addr_housenumber": "201",
      "angle": 63.54587840819467
    },
    {
      "id": 189951,
      "geometry": "POINT (-97.731603 30.391824)",
      "poi_name": "Tinos Greek Cafe",
      "osm_id": 1257587390,
      "amenity": "cafe",
      "angle": 184.713547836091
    },
    {
      "id": 192270,
      "geometry": "POINT (-97.719987 30.313834)",
      "poi_name": "Flightpath Coffee House",
      "osm_id": 1431494369,
      "amenity": "cafe",
      "cuisine": "coffee_shop",
      "website": "http://flightpathcoffeehouse.com/",
      "addr_street": "Duval Street",
      "addr_housenumber": "5011",
      "angle": 183.27815820816144
    },
    {
      "id": 192953,
      "geometry": "POINT (-97.371023 30.345866)",
      "poi_name": "Regulators Sports Bar & Grill",
      "osm_id": 1486255489,
      "amenity": "cafe",
      "angle": 156.90257128955568
    },
    {
      "id": 192866,
      "geometry": "POINT (-97.741362 30.264375)",
      "poi_name": "Revoluci\u00f3n Coffee + Juice",
      "osm_id": 1483653748,
      "amenity": "cafe",
      "cuisine": "coffee_shop",
      "website": "https://www.revolucionsa.com/",
      "addr_state": "TX",
      "addr_city": "Austin",
      "addr_postcode": "78701",
      "addr_street": "San Jacinto Boulevard",
      "addr_housenumber": "207",
      "angle": 184.55382671025458
    },
    {
      "id": 192870,
      "geometry": "POINT (-97.741897 30.263847)",
      "poi_name": "Le Caf\u00e9 Cr\u00eape",
      "osm_id": 1483653960,
      "amenity": "cafe",
      "cuisine": "crepe;french",
      "opening_hours": "Mo-Sa 07:00-15:00; Su 08:00-15:00",
      "website": "https://www.cafecrepeofaustin.com/",
      "phone": "+1-512-480-0084",
      "outdoor_seating": "yes",
      "addr_state": "TX",
      "addr_city": "Austin",
      "addr_postcode": "78701",
      "addr_street": "San Jacinto Boulevard",
      "addr_housenumber": "200",
      "angle": 184.58798896169037
    },
    {
      "id": 192876,
      "geometry": "POINT (-97.750779 30.276545)",
      "poi_name": "Fete Accompli",
      "osm_id": 1483931043,
      "amenity": "cafe",
      "angle": 185.30520769334402
    },
    {
      "id": 192881,
      "geometry": "POINT (-97.743289 30.270162)",
      "poi_name": "The Amsterdam",
      "osm_id": 1483931076,
      "amenity": "cafe",
      "angle": 184.7275356095145
    },
    {
      "id": 192891,
      "geometry": "POINT (-97.74529 30.302703)",
      "poi_name": "34th St Cafe",
      "osm_id": 1484100638,
      "amenity": "cafe",
      "angle": 185.10440233937447
    },
    {
      "id": 192831,
      "geometry": "POINT (-97.754018 30.269901)",
      "poi_name": "Starbucks",
      "osm_id": 1481721312,
      "amenity": "cafe",
      "cuisine": "coffee_shop",
      "wheelchair": "yes",
      "takeaway": "yes",
      "official_name": "Starbucks Coffee",
      "angle": 185.48410790504138
    },
    {
      "id": 192988,
      "geometry": "POINT (-97.744901 30.282939)",
      "poi_name": "Conscious Cravings",
      "osm_id": 1488693500,
      "amenity": "cafe",
      "opening_hours": "Mo-Sa 11:00-20:00",
      "website": "https://www.consciouscravingsaustin.com/",
      "phone": "+1-512-782-0546",
      "addr_state": "TX",
      "addr_city": "Austin",
      "addr_postcode": "78705",
      "addr_street": "Rio Grande",
      "addr_housenumber": "1901",
      "angle": 184.93081783062783
    },
    {
      "id": 193011,
      "geometry": "POINT (-97.745694 30.266973)",
      "poi_name": "Halcyon",
      "osm_id": 1489699385,
      "amenity": "cafe",
      "cuisine": "coffee_shop",
      "internet_access": "wlan",
      "angle": 184.8757242545815
    },
    {
      "id": 195847,
      "geometry": "POINT (-97.93999 29.88372)",
      "poi_name": "Babe's Doughnut and Coffee",
      "osm_id": 10542353167,
      "amenity": "cafe",
      "cuisine": "coffee_shop;donut",
      "opening_hours": "Mo off; Tu-Th 08:00-13:00; Fr-Su 08:00-15:00",
      "website": "https://babes-doughnut-and-coffee.business.site",
      "phone": "+1-512-216-6217",
      "addr_state": "TX",
      "addr_city": "San Marcos",
      "addr_postcode": "78666",
      "addr_street": "North LBJ Drive",
      "addr_housenumber": "214",
      "angle": 191.9456144456996
    },
    {
      "id": 194135,
      "geometry": "POINT (-96.399134 30.166346)",
      "poi_name": "Wired N\u2019 Inspired",
      "osm_id": 10261193396,
      "amenity": "cafe",
      "wheelchair": "yes",
      "opening_hours": "Mo-Fr 08:00-16:00; Sa 09:00-16:00; Su off",
      "angle": 125.62061026698318
    },
    {
      "id": 194692,
      "geometry": "POINT (-97.742194 30.268787)",
      "poi_name": "The Coffehouse at Caroline",
      "osm_id": 10281193549,
      "amenity": "cafe",
      "opening_hours": "Mo-Su 06:00-19:00",
      "website": "https://www.carolinerestaurant.com/the-coffeehouse-at-caroline",
      "addr_state": "TX",
      "addr_city": "Austin",
      "addr_postcode": "78701",
      "addr_street": "East 7th Street",
      "addr_housenumber": "109",
      "angle": 184.64097270930014
    },
    {
      "id": 195780,
      "geometry": "POINT (-97.742167 30.295748)",
      "poi_name": "Organic Coffee",
      "osm_id": 10538054909,
      "amenity": "cafe",
      "opening_hours": "Mo-Su 08:00-15:00",
      "angle": 184.82296738766996
    },
    {
      "id": 196115,
      "geometry": "POINT (-97.762374 30.25576)",
      "poi_name": "Medici Roasting",
      "osm_id": 10563618404,
      "amenity": "cafe",
      "cuisine": "coffee_shop",
      "website": "https://mediciroasting.com/",
      "addr_state": "TX",
      "addr_city": "Austin",
      "addr_postcode": "78704",
      "addr_street": "South Lamar Boulevard",
      "addr_housenumber": "1100",
      "angle": 185.95450229583844
    },
    {
      "id": 195963,
      "geometry": "POINT (-97.749778 30.247725)",
      "poi_name": "Ma\u00f1ana",
      "osm_id": 10555261227,
      "amenity": "cafe",
      "takeaway": "yes",
      "angle": 185.02696592126875
    },
    {
      "id": 196558,
      "geometry": "POINT (-97.857398 30.583993)",
      "poi_name": "Avenida",
      "osm_id": 10585987699,
      "amenity": "cafe",
      "cuisine": "coffee_shop;bubble_tea",
      "takeaway": "yes",
      "delivery": "yes",
      "addr_state": "TX",
      "addr_city": "Leander",
      "addr_postcode": "78641",
      "addr_street": "North Highway 183",
      "addr_housenumber": "651",
      "angle": 202.14502036485152
    },
    {
      "id": 196785,
      "geometry": "POINT (-97.64676 30.385458)",
      "poi_name": "Dutch Bros. Coffee",
      "osm_id": 10596546895,
      "amenity": "cafe",
      "cuisine": "coffee_shop",
      "takeaway": "only",
      "addr_state": "TX",
      "addr_city": "Austin",
      "addr_postcode": "78754",
      "addr_street": "East Parmer Lane",
      "addr_housenumber": "1801",
      "angle": 177.44068196365663
    },
    {
      "id": 198073,
      "geometry": "POINT (-97.915855 29.888517)",
      "poi_name": "Texas Bean and Brew",
      "osm_id": 10687372805,
      "amenity": "cafe",
      "cuisine": "breakfast;coffee_shop;mexican",
      "opening_hours": "Mo-Su 08:00-21:00",
      "website": "https://www.texasbeanandbrewhouse.com",
      "internet_access": "wlan",
      "phone": "512-214-8101",
      "addr_postcode": "78666",
      "addr_street": "North Interstate 35",
      "addr_housenumber": "1328",
      "angle": 190.92377426505044
    },
    {
      "id": 197695,
      "geometry": "POINT (-97.776302 30.283036)",
      "poi_name": "Lake Austin's Coffee Spot",
      "osm_id": 10665998559,
      "amenity": "cafe",
      "cuisine": "mexican;coffee_shop",
      "opening_hours": "Mo-Su 07:00-21:00",
      "addr_state": "TX",
      "addr_city": "Austin",
      "addr_postcode": "78703",
      "addr_street": "Lake Austin Boulevard",
      "addr_housenumber": "2652",
      "angle": 187.18552803395193
    },
    {
      "id": 197771,
      "geometry": "POINT (-96.340598 30.621391)",
      "poi_name": "Starbucks",
      "osm_id": 10674793340,
      "amenity": "cafe",
      "cuisine": "coffee_shop",
      "opening_hours": "Mo-Th 07:30-20:00; Fr 07:30-17:00",
      "website": "https://www.starbucks.com/store-locator/store/1022614/texas-a-m-school-of-engineerin-125-spence-street-college-station-tx-77840-us",
      "phone": "+1-979-458-8621",
      "takeaway": "yes",
      "official_name": "Starbucks Coffee",
      "outdoor_seating": "yes",
      "addr_state": "TX",
      "addr_city": "College Station",
      "addr_postcode": "77843",
      "addr_street": "Spence Street",
      "addr_housenumber": "125",
      "angle": 106.38401965820186
    },
    {
      "id": 198112,
      "geometry": "POINT (-96.33913 30.617176)",
      "poi_name": "Starbucks",
      "osm_id": 10689069818,
      "amenity": "cafe",
      "cuisine": "coffee_shop",
      "opening_hours": "Mo-Th 07:30-22:00; Fr 07:30-17:00; Su 12:00-19:00",
      "website": "https://www.starbucks.com/store-locator/store/1008711/texas-a-m-university-evans-li-4000-spence-st-college-station-tx-77840-us",
      "phone": "+1-979-458-4251",
      "takeaway": "yes",
      "official_name": "Starbucks Coffee",
      "addr_state": "TX",
      "addr_city": "College Station",
      "addr_postcode": "77840",
      "addr_street": "Spence Street",
      "addr_housenumber": "4000",
      "angle": 106.55761059844954
    },
    {
      "id": 198470,
      "geometry": "POINT (-97.753255 30.27049)",
      "poi_name": "La Colombe Coffee Roasters",
      "osm_id": 10706612991,
      "amenity": "cafe",
      "cuisine": "coffee_shop",
      "opening_hours": "Mo-Su 07:00-19:00",
      "takeaway": "yes",
      "angle": 185.434763626616
    },
    {
      "id": 200876,
      "geometry": "POINT (-97.752534 30.394918)",
      "poi_name": "Starbucks",
      "osm_id": 599493118,
      "amenity": "cafe",
      "cuisine": "coffee_shop",
      "takeaway": "yes",
      "official_name": "Starbucks Coffee",
      "angle": 186.53511513258272
    },
    {
      "id": 198789,
      "geometry": "POINT (-97.765758 30.25121)",
      "poi_name": "Picnik",
      "osm_id": 919327835,
      "amenity": "cafe",
      "angle": 186.14950018732694
    },
    {
      "id": 198797,
      "geometry": "POINT (-97.763593 30.252256)",
      "poi_name": "Starbucks",
      "osm_id": 919334307,
      "amenity": "cafe",
      "cuisine": "coffee_shop",
      "takeaway": "yes",
      "official_name": "Starbucks Coffee",
      "angle": 186.00952657275582
    },
    {
      "id": 198798,
      "geometry": "POINT (-97.746203 30.256106)",
      "poi_name": "Bennu Coffee Shop",
      "osm_id": 919335942,
      "amenity": "cafe",
      "wheelchair": "no",
      "opening_hours": "Mo-Su 06:00-01:00",
      "website": "https://bennucoffee.com/",
      "internet_access": "wlan",
      "phone": "+1-512-448-3919",
      "outdoor_seating": "yes",
      "addr_city": "Austin",
      "addr_postcode": "78704",
      "addr_street": "South Congress Avenue",
      "addr_housenumber": "515",
      "angle": 184.837473069077
    },
    {
      "id": 198801,
      "geometry": "POINT (-97.758364 30.243942)",
      "poi_name": "Fair Bean Coffee",
      "osm_id": 919339993,
      "amenity": "cafe",
      "angle": 185.58593839775665
    },
    {
      "id": 198806,
      "geometry": "POINT (-97.756629 30.246512)",
      "poi_name": "Bouldin Creek Coffee House",
      "osm_id": 919341613,
      "amenity": "cafe",
      "angle": 185.48701649754332
    },
    {
      "id": 198808,
      "geometry": "POINT (-97.75699 30.244809)",
      "poi_name": "Once Over Coffee Bar",
      "osm_id": 919343141,
      "amenity": "cafe",
      "wheelchair": "yes",
      "angle": 185.49887692131395
    },
    {
      "id": 198811,
      "geometry": "POINT (-97.764843 30.233209)",
      "poi_name": "Summermoon Coffee Bar",
      "osm_id": 919346675,
      "amenity": "cafe",
      "addr_street": "South 1st Street",
      "addr_housenumber": "3115",
      "angle": 185.93978086739887
    },
    {
      "id": 202423,
      "geometry": "POINT (-97.749895 30.266831)",
      "poi_name": "Intelligentsia",
      "osm_id": 7024063231,
      "amenity": "cafe",
      "cuisine": "coffee_shop",
      "addr_state": "TX",
      "addr_city": "Austin",
      "addr_postcode": "78701",
      "addr_street": "West 3rd Street",
      "addr_housenumber": "607",
      "angle": 185.17041578694688
    },
    {
      "id": 202136,
      "geometry": "POINT (-97.94109 29.891894)",
      "poi_name": "Mochas & Javas",
      "osm_id": 683446537,
      "amenity": "cafe",
      "cuisine": "coffee_shop",
      "angle": 192.08159604471373
    },
    {
      "id": 202137,
      "geometry": "POINT (-97.941036 29.891699)",
      "poi_name": "Dos Gatos Kolache Bakery",
      "osm_id": 683446544,
      "amenity": "cafe",
      "cuisine": "polish",
      "angle": 192.07711197244635
    },
    {
      "id": 203976,
      "geometry": "POINT (-97.786215 30.446115)",
      "poi_name": "Sharetea",
      "osm_id": 7108302880,
      "amenity": "cafe",
      "cuisine": "bubble_tea",
      "wheelchair": "yes",
      "internet_access": "wlan",
      "takeaway": "yes",
      "outdoor_seating": "no",
      "addr_state": "TX",
      "addr_city": "Austin",
      "addr_postcode": "78750",
      "addr_street": "North US Highway 183",
      "addr_housenumber": "13343",
      "angle": 190.29539249025999
    },
    {
      "id": 203941,
      "geometry": "POINT (-97.723285 30.400215)",
      "poi_name": "Gong Cha",
      "osm_id": 7106354505,
      "amenity": "cafe",
      "cuisine": "bubble_tea",
      "wheelchair": "yes",
      "opening_hours": "Su-Th 11:30-22:00; Fr,Sa 11:30-23:00",
      "website": "https://www.gongchausa.com/",
      "phone": "+1-512-243-8151",
      "takeaway": "yes",
      "addr_state": "TX",
      "addr_city": "Austin",
      "addr_postcode": "78758",
      "addr_street": "Esperanza Crossing",
      "addr_housenumber": "3210",
      "angle": 184.05928146014412
    },
    {
      "id": 203990,
      "geometry": "POINT (-97.134551 31.525712)",
      "poi_name": "Starbucks",
      "osm_id": 7108420651,
      "amenity": "cafe",
      "cuisine": "coffee_shop",
      "takeaway": "yes",
      "official_name": "Starbucks Coffee",
      "addr_state": "TX",
      "addr_city": "Waco",
      "addr_postcode": "76711",
      "addr_street": "South Jack Kultgen Freeway",
      "addr_housenumber": "2609",
      "angle": 39.73512159800894
    },
    {
      "id": 214131,
      "geometry": "POINT (-97.851248 30.405396)",
      "poi_name": "Starbucks",
      "osm_id": 5266058903,
      "amenity": "cafe",
      "cuisine": "coffee_shop",
      "takeaway": "yes",
      "official_name": "Starbucks Coffee",
      "angle": 195.04527793736384
    },
    {
      "id": 204087,
      "geometry": "POINT (-97.6939 30.267724)",
      "poi_name": "Caffe Medici",
      "osm_id": 7112908724,
      "amenity": "cafe",
      "cuisine": "coffee_shop",
      "angle": 181.21432766468874
    },
    {
      "id": 204090,
      "geometry": "POINT (-97.693112 30.267353)",
      "poi_name": "Zhi Tea",
      "osm_id": 7112908728,
      "amenity": "cafe",
      "website": "https://zhitea.com",
      "shop": "tea",
      "phone": "+1-512-220-3839",
      "addr_state": "TX",
      "addr_city": "Austin",
      "addr_postcode": "78721",
      "addr_street": "Springdale Road",
      "addr_housenumber": "1023",
      "angle": 181.15783948820078
    },
    {
      "id": 211863,
      "geometry": "POINT (-97.753658 30.272556)",
      "poi_name": "Counter Cafe",
      "osm_id": 5177475321,
      "amenity": "cafe",
      "angle": 185.47920537331737
    },
    {
      "id": 216408,
      "geometry": "POINT (-96.319747 30.615282)",
      "poi_name": "What's the Buzz Coffee",
      "osm_id": 9170481041,
      "amenity": "cafe",
      "cuisine": "coffee_shop",
      "opening_hours": "Mo-Fr 07:00-18:00",
      "website": "whatsthebuzzcoffee.com",
      "internet_access": "yes",
      "outdoor_seating": "no",
      "addr_state": "TX",
      "addr_city": "College Station",
      "addr_postcode": "77840",
      "addr_street": "Texas Avenue South",
      "addr_housenumber": "1600",
      "angle": 106.4095472153937
    },
    {
      "id": 214927,
      "geometry": "POINT (-97.726645 32.454204)",
      "poi_name": "Starbucks",
      "osm_id": 5283185112,
      "amenity": "cafe",
      "cuisine": "coffee_shop",
      "takeaway": "yes",
      "official_name": "Starbucks Coffee",
      "angle": 358.37063999411566
    },
    {
      "id": 214928,
      "geometry": "POINT (-97.726104 32.45689)",
      "poi_name": "Starbucks",
      "osm_id": 5283185113,
      "amenity": "cafe",
      "cuisine": "coffee_shop",
      "takeaway": "yes",
      "official_name": "Starbucks Coffee",
      "angle": 358.3912574496308
    },
    {
      "id": 219852,
      "geometry": "POINT (-98.227792 30.757479)",
      "poi_name": "Unshakeable Grounds Coffee Shop",
      "osm_id": 9349156017,
      "amenity": "cafe",
      "cuisine": "coffee_shop",
      "opening_hours": "Mo-Fr 07:00-15:00; Sa 09:00-14:00",
      "website": "https://www.unshakeablegrounds.com/",
      "phone": "5125886025",
      "addr_postcode": "78611",
      "addr_street": "South Main Street",
      "addr_housenumber": "134",
      "angle": 246.24788330052013
    },
    {
      "id": 218738,
      "geometry": "POINT (-97.476354 31.659938)",
      "poi_name": "Backroads Food & Fuel",
      "osm_id": 9292870869,
      "amenity": "cafe",
      "description": "Gas station with a grill.  Excellent burgers!!",
      "angle": 13.915290387177043
    },
    {
      "id": 222220,
      "geometry": "POINT (-98.86835 30.262529)",
      "poi_name": "Longhorn Street Cafe",
      "osm_id": 11010619382,
      "amenity": "cafe",
      "opening_hours": "Tu-We 08:00-15:30; Th 08:00-13:30",
      "phone": "+1-830-997-4305",
      "addr_state": "TX",
      "addr_city": "Fredericksburg",
      "addr_postcode": "78624",
      "addr_street": "Longhorn Street",
      "addr_housenumber": "621",
      "angle": 235.90945901889856
    },
    {
      "id": 221495,
      "geometry": "POINT (-98.605202 31.898185)",
      "poi_name": "City Center Cafe",
      "osm_id": 10979901109,
      "amenity": "cafe",
      "addr_state": "TX",
      "addr_city": "Comanche",
      "addr_postcode": "76442",
      "addr_street": "North Houston Street",
      "addr_housenumber": "127",
      "angle": 319.6829047291676
    },
    {
      "id": 220233,
      "geometry": "POINT (-97.765298 31.137452)",
      "poi_name": "Starbucks",
      "osm_id": 9366219456,
      "amenity": "cafe",
      "cuisine": "coffee_shop",
      "takeaway": "yes",
      "official_name": "Starbucks Coffee",
      "angle": 335.8057138242643
    },
    {
      "id": 221025,
      "geometry": "POINT (-97.384893 32.44674)",
      "poi_name": "Starbucks",
      "osm_id": 10965701419,
      "amenity": "cafe",
      "cuisine": "coffee_shop",
      "website": "https://www.starbucks.com",
      "internet_access": "yes",
      "phone": "+1-817-945-4059",
      "takeaway": "yes",
      "drive_through": "yes",
      "official_name": "Starbucks Coffee",
      "outdoor_seating": "yes",
      "addr_state": "TX",
      "addr_city": "Joshua",
      "addr_postcode": "76058",
      "addr_street": "South Broadway Street",
      "addr_housenumber": "1036",
      "angle": 9.502637718230178
    },
    {
      "id": 221391,
      "geometry": "POINT (-97.171278 31.462066)",
      "poi_name": "Starbucks",
      "osm_id": 10975268647,
      "amenity": "cafe",
      "cuisine": "coffee_shop",
      "takeaway": "yes",
      "official_name": "Starbucks Coffee",
      "angle": 41.19944974442874
    },
    {
      "id": 222290,
      "geometry": "POINT (-97.775845 30.247474)",
      "poi_name": "Maha Coffee",
      "osm_id": 11012760237,
      "amenity": "cafe",
      "cuisine": "coffee_shop",
      "angle": 186.80568313999234
    },
    {
      "id": 225117,
      "geometry": "POINT (-97.76642 30.478018)",
      "poi_name": "Cuppa Austin Coffee",
      "osm_id": 11111850805,
      "amenity": "cafe",
      "cuisine": "coffee_shop",
      "opening_hours": "Mo-Fr 06:30-21:00; Sa,Su 07:00-21:00",
      "website": "https://www.cuppaaustin.com/",
      "internet_access": "yes",
      "phone": "+1-512-382-6729",
      "drive_through": "yes",
      "addr_state": "TX",
      "addr_city": "Austin",
      "addr_postcode": "78717",
      "addr_street": "West Parmer Lane",
      "addr_housenumber": "9225",
      "angle": 189.00176435847058
    },
    {
      "id": 223147,
      "geometry": "POINT (-97.328116 30.106334)",
      "poi_name": "The Coffee Dog Roastery & Coffeehouse",
      "osm_id": 11047447729,
      "amenity": "cafe",
      "cuisine": "coffee_shop",
      "wheelchair": "yes",
      "opening_hours": "Mo-Fr 06:00-18:00; Sa 07:00-18:00; Su 08:00-16:00",
      "website": "https://coffeedoginc.com/",
      "internet_access": "wlan",
      "phone": "+1-512-303-2244",
      "outdoor_seating": "yes",
      "addr_state": "TX",
      "addr_city": "Bastrop",
      "addr_postcode": "78602",
      "addr_street": "Chestnut Street",
      "addr_housenumber": "49",
      "angle": 160.60812485422488
    },
    {
      "id": 224021,
      "geometry": "POINT (-97.742823 30.265392)",
      "poi_name": "Mirandas Cafe",
      "osm_id": 11071504905,
      "amenity": "cafe",
      "cuisine": "breakfast;mexican",
      "addr_housenumber": "105, 301",
      "angle": 184.6630772585683
    },
    {
      "id": 224042,
      "geometry": "POINT (-96.344769 30.620994)",
      "poi_name": "Holy Roastary Coffee Bar",
      "osm_id": 11072012959,
      "amenity": "cafe",
      "cuisine": "coffee_shop",
      "website": "https://www.aggiecatholic.org/holy-roastary",
      "addr_state": "TX",
      "addr_city": "College Station",
      "addr_postcode": "77840",
      "addr_street": "Church Avenue",
      "addr_housenumber": "603",
      "angle": 106.45264711346046
    },
    {
      "id": 225342,
      "geometry": "POINT (-97.894979 30.249631)",
      "poi_name": "Sunrise at Shore",
      "osm_id": 11123061239,
      "amenity": "cafe",
      "cuisine": "coffee_shop;mexican",
      "opening_hours": "Mo-Su 07:00-14:00",
      "outdoor_seating": "no",
      "angle": 194.77394158945603
    },
    {
      "id": 225203,
      "geometry": "POINT (-98.27678 30.570875)",
      "poi_name": "Bel\u00f3ved Caf\u00e9",
      "osm_id": 11114990005,
      "amenity": "cafe",
      "cuisine": "coffee_shop",
      "opening_hours": "Mo-Fr 08:00-17:00",
      "website": "https://www.belovedgallery.org",
      "phone": "+18302710114",
      "addr_postcode": "78654",
      "addr_street": "Avenue H",
      "addr_housenumber": "206",
      "angle": 232.6795132379024
    },
    {
      "id": 235866,
      "geometry": "POINT (-97.719949 30.266883)",
      "poi_name": "Figure 8 Coffee Purveyors",
      "osm_id": 5771559041,
      "amenity": "cafe",
      "addr_state": "TX",
      "addr_city": "Austin",
      "addr_postcode": "78702",
      "addr_street": "Chicon Street",
      "addr_housenumber": "1111",
      "angle": 183.057846126649
    },
    {
      "id": 227224,
      "geometry": "POINT (-97.742624 30.287962)",
      "poi_name": "Starbucks",
      "osm_id": 11183984021,
      "amenity": "cafe",
      "cuisine": "coffee_shop",
      "takeaway": "yes",
      "official_name": "Starbucks Coffee",
      "angle": 184.80151097148402
    },
    {
      "id": 229617,
      "geometry": "POINT (-97.687788 30.413078)",
      "poi_name": "Teapioca Lounge",
      "osm_id": 4388701189,
      "amenity": "cafe",
      "cuisine": "bubble_tea",
      "description": "Coffee & Tea, Bubble Tea, Juice Bars & Smoothies",
      "wheelchair": "yes",
      "opening_hours": "10:00-21:00",
      "website": "https://www.teapiocalounge.com/",
      "phone": "+1-512-833-7888",
      "addr_state": "TX",
      "addr_city": "Austin",
      "addr_postcode": "78727",
      "addr_street": "West Parmer Lane",
      "addr_housenumber": "1700",
      "angle": 180.98337137960496
    },
    {
      "id": 231704,
      "geometry": "POINT (-97.720324 30.402584)",
      "poi_name": "EBar",
      "osm_id": 4484663014,
      "amenity": "cafe",
      "opening_hours": "Mo-Sa 09:30-20:00; Su 11:00-18:00",
      "angle": 183.81722844518006
    },
    {
      "id": 225793,
      "geometry": "POINT (-96.372643 30.677237)",
      "poi_name": "Tavo Coffee Co",
      "osm_id": 11139811735,
      "amenity": "cafe",
      "cuisine": "coffee_shop",
      "opening_hours": "Mo-Sa 08:00-16:00; Su 10:00-16:00",
      "website": "https://tavocoffeeco.com/",
      "internet_access": "wlan",
      "phone": "979-488-9291",
      "outdoor_seating": "yes",
      "addr_state": "TX",
      "addr_city": "Bryan",
      "addr_postcode": "77803",
      "addr_street": "North Main Street",
      "addr_housenumber": "419",
      "angle": 104.15256715382638
    },
    {
      "id": 229547,
      "geometry": "POINT (-98.103596 29.730518)",
      "poi_name": "Kora Kora",
      "osm_id": 4386313460,
      "amenity": "cafe",
      "angle": 196.76071671047993
    },
    {
      "id": 231762,
      "geometry": "POINT (-97.726848 30.400726)",
      "poi_name": "The Yard Milkshake Bar",
      "osm_id": 4486035546,
      "amenity": "cafe",
      "wheelchair": "yes",
      "opening_hours": "Mo-Su 12:00-22:00",
      "website": "https://www.theyardmilkshakebar.com/",
      "outdoor_seating": "yes",
      "addr_state": "TX",
      "addr_city": "Austin",
      "addr_postcode": "78758",
      "addr_street": "Esperanza Crossing",
      "addr_housenumber": "3400",
      "angle": 184.3731225069593
    },
    {
      "id": 235876,
      "geometry": "POINT (-97.80631 30.205356)",
      "poi_name": "Summer Moon Coffee Bar",
      "osm_id": 5771770545,
      "amenity": "cafe",
      "opening_hours": "Mo-Fr 06:00-20:00, Sa-Su 08:00-20:00",
      "addr_state": "TX",
      "addr_city": "Austin",
      "addr_postcode": "78745",
      "addr_street": "Manchaca Road",
      "addr_housenumber": "6711",
      "angle": 188.39066944645768
    },
    {
      "id": 236861,
      "geometry": "POINT (-97.760577 30.357294)",
      "poi_name": "Epoch coffee",
      "osm_id": 5809504354,
      "amenity": "cafe",
      "cuisine": "coffee_shop",
      "internet_access": "wlan",
      "angle": 186.78415928359507
    },
    {
      "id": 241802,
      "geometry": "POINT (-97.758525 30.271278)",
      "poi_name": "Better Half Coffee & Cocktails",
      "osm_id": 6039911717,
      "amenity": "cafe",
      "restaurant": "cafe",
      "angle": 185.81336096347056
    },
    {
      "id": 241783,
      "geometry": "POINT (-97.75642 30.272693)",
      "poi_name": "Sweetish Hill Bakery & Cafe",
      "osm_id": 6038246684,
      "amenity": "cafe",
      "addr_state": "TX",
      "addr_city": "Austin",
      "addr_postcode": "78703",
      "addr_street": "West 6th Street",
      "addr_housenumber": "1120",
      "angle": 185.67599396204523
    }
  ],
  "answer_type": "angle",
  "question_entities": {
    "[1]": {
      "main_category": "amenity",
      "sub_category": "cafe"
    },
    "[2]": {
      "distance": 170000,
      "text": "170 kilometers"
    },
    "[3]": {
      "main_category": "leisure",
      "sub_category": "park",
      "display_name": "CTOR, Killeen, TX",
      "geo_wkt": "POINT (-97.676797 30.96805)",
      "poi": {
        "id": 246432,
        "geometry": "POINT (-97.676797 30.96805)",
        "poi_name": "CTOR",
        "osm_id": 9642209730,
        "leisure": "park",
        "description": "Central Texas Off-Roaders Dirt Bike Adventure Park",
        "phone": "+1 (254) 217-3178",
        "addr_state": "TX",
        "addr_city": "Killeen",
        "addr_postcode": "76549",
        "addr_street": "Texas 195",
        "addr_housenumber": "23500-23360"
      }
    }
  },
  "id": 1001,
  "type": "range+angle"
}