{
  "question": "Do you know of any fast food restaurant within 30 kilometers from TMC Geropsychiatric Center At Handmaker, Tucson, AZ?",
  "sql": "SELECT * FROM pois\nWHERE ST_DWithin(pois.geometry, ST_GeomFromText('POINT (-110.884497 32.248784)',4326)::geography, 30000)\nAND amenity = 'fast_food';\n",
  "answers": [
    {
      "id": 27237,
      "geometry": "POINT (-110.9718 32.221958)",
      "poi_name": "Subway",
      "osm_id": 402333784,
      "amenity": "fast_food",
      "cuisine": "sandwich",
      "takeaway": "yes",
      "addr_state": "AZ",
      "addr_city": "Tucson",
      "addr_postcode": "85701",
      "addr_street": "West Congress Street",
      "addr_housenumber": "46"
    },
    {
      "id": 27265,
      "geometry": "POINT (-110.957578 32.231862)",
      "poi_name": "Chipotle",
      "osm_id": 407818910,
      "amenity": "fast_food",
      "cuisine": "mexican",
      "opening_hours": "Mo-Su 10:45-22:00",
      "takeaway": "yes",
      "drive_through": "no",
      "official_name": "Chipotle Mexican Grill",
      "outdoor_seating": "yes",
      "delivery": "no",
      "addr_state": "AZ",
      "addr_city": "Tuscon",
      "addr_postcode": "85719",
      "addr_street": "East University Boulevard",
      "addr_housenumber": "905"
    },
    {
      "id": 27277,
      "geometry": "POINT (-110.956933 32.232499)",
      "poi_name": "Panera Bread",
      "osm_id": 408659824,
      "amenity": "fast_food",
      "cuisine": "sandwich;bakery",
      "internet_access": "wlan",
      "takeaway": "yes",
      "drive_through": "no",
      "addr_street": "North Park Avenue"
    },
    {
      "id": 32142,
      "geometry": "POINT (-111.009607 32.305831)",
      "poi_name": "Subway",
      "osm_id": 2622731706,
      "amenity": "fast_food",
      "cuisine": "sandwich",
      "takeaway": "yes",
      "addr_city": "Tucson",
      "addr_postcode": "85704",
      "addr_street": "West River Road",
      "addr_housenumber": "1980"
    },
    {
      "id": 36082,
      "geometry": "POINT (-110.800641 32.102466)",
      "poi_name": "Papa Locos",
      "osm_id": 2748975554,
      "amenity": "fast_food",
      "cuisine": "mexican",
      "website": "https://papalocos.com/",
      "phone": "+1-520 663-3333",
      "takeaway": "yes",
      "drive_through": "no",
      "addr_state": "AZ",
      "addr_city": "Tucson",
      "addr_postcode": "85747",
      "addr_street": "South Rita Road",
      "addr_housenumber": "8201"
    },
    {
      "id": 44689,
      "geometry": "POINT (-110.976314 32.335357)",
      "poi_name": "Honey Baked Ham",
      "osm_id": 3171090227,
      "amenity": "fast_food",
      "cuisine": "american",
      "takeaway": "yes",
      "official_name": "The Honey Baked Ham Company",
      "addr_city": "Tucson",
      "addr_postcode": "85704",
      "addr_street": "North Oracle Road",
      "addr_housenumber": "7090"
    },
    {
      "id": 54244,
      "geometry": "POINT (-110.990694 32.163969)",
      "poi_name": "MOD Pizza",
      "osm_id": 10122770164,
      "amenity": "fast_food",
      "cuisine": "pizza",
      "takeaway": "yes"
    },
    {
      "id": 53606,
      "geometry": "POINT (-110.956957 32.235752)",
      "poi_name": "Jack in the Box",
      "osm_id": 10087861603,
      "amenity": "fast_food",
      "cuisine": "burger",
      "takeaway": "yes",
      "drive_through": "no"
    },
    {
      "id": 54245,
      "geometry": "POINT (-110.989377 32.164695)",
      "poi_name": "Jersey Mike's Subs",
      "osm_id": 10122770167,
      "amenity": "fast_food",
      "cuisine": "sandwich",
      "takeaway": "yes"
    },
    {
      "id": 54246,
      "geometry": "POINT (-110.989616 32.164697)",
      "poi_name": "The Habit Burger Grill",
      "osm_id": 10122770169,
      "amenity": "fast_food",
      "cuisine": "burger",
      "takeaway": "yes"
    },
    {
      "id": 54247,
      "geometry": "POINT (-110.990725 32.165009)",
      "poi_name": "One Stop Nutritian",
      "osm_id": 10122770175,
      "amenity": "fast_food",
      "cuisine": "juice",
      "shop": "nutrition_supplements"
    },
    {
      "id": 55686,
      "geometry": "POINT (-110.974186 32.289322)",
      "poi_name": "Sbarro",
      "osm_id": 10203163309,
      "amenity": "fast_food",
      "cuisine": "pizza",
      "website": "https://sbarro.com/locations/arizona/tucson/tucson-mall",
      "phone": "+1-951-317-0929",
      "takeaway": "yes",
      "drive_through": "no",
      "addr_state": "AZ",
      "addr_city": "Tucson",
      "addr_postcode": "85705",
      "addr_street": "North Oracle Road",
      "addr_housenumber": "4500"
    },
    {
      "id": 68072,
      "geometry": "POINT (-110.960874 32.397902)",
      "poi_name": "Nautical Bowls",
      "osm_id": 11258977809,
      "amenity": "fast_food",
      "cuisine": "a\u00e7a\u00ed",
      "takeaway": "yes",
      "drive_through": "no"
    },
    {
      "id": 57021,
      "geometry": "POINT (-111.046366 32.338883)",
      "poi_name": "MOD Pizza",
      "osm_id": 5321096611,
      "amenity": "fast_food",
      "cuisine": "pizza",
      "opening_hours": "Su-Th 10:30-22:00, Fr-Sa 10:30-23:00",
      "takeaway": "yes",
      "addr_state": "AZ",
      "addr_city": "Tucson",
      "addr_postcode": "85741",
      "addr_street": "West Ina Road",
      "addr_housenumber": "3780"
    },
    {
      "id": 73297,
      "geometry": "POINT (-110.867612 32.221176)",
      "poi_name": "Chipotle",
      "osm_id": 9625185417,
      "amenity": "fast_food",
      "cuisine": "mexican",
      "wheelchair": "yes",
      "takeaway": "yes",
      "official_name": "Chipotle Mexican Grill",
      "outdoor_seating": "yes"
    },
    {
      "id": 70254,
      "geometry": "POINT (-111.013788 32.304731)",
      "poi_name": "Dunkin'",
      "osm_id": 11353395880,
      "amenity": "fast_food",
      "cuisine": "donut;coffee_shop",
      "takeaway": "yes"
    },
    {
      "id": 73350,
      "geometry": "POINT (-110.943451 32.236506)",
      "poi_name": "Chipotle",
      "osm_id": 9627858817,
      "amenity": "fast_food",
      "cuisine": "mexican",
      "takeaway": "yes",
      "official_name": "Chipotle Mexican Grill",
      "addr_street": "East Speedway Boulevard",
      "addr_housenumber": "1903"
    },
    {
      "id": 73249,
      "geometry": "POINT (-110.908834 32.244043)",
      "poi_name": "La Mesa Tortilla",
      "osm_id": 9622066918,
      "amenity": "fast_food",
      "cuisine": "mexican",
      "wheelchair": "yes"
    },
    {
      "id": 73299,
      "geometry": "POINT (-110.910021 32.221829)",
      "poi_name": "Bruegger's Bagels",
      "osm_id": 9625237718,
      "amenity": "fast_food",
      "cuisine": "bagel",
      "opening_hours": "Su-Fr 05:30-15:00; Sa 05:30-16:00",
      "takeaway": "yes"
    },
    {
      "id": 73266,
      "geometry": "POINT (-110.938526 32.120711)",
      "poi_name": "Dunkin'",
      "osm_id": 9622558074,
      "amenity": "fast_food",
      "cuisine": "donut;coffee_shop",
      "takeaway": "yes"
    },
    {
      "id": 73300,
      "geometry": "POINT (-110.910186 32.22184)",
      "poi_name": "Smashburger",
      "osm_id": 9625237917,
      "amenity": "fast_food",
      "cuisine": "burger",
      "takeaway": "yes"
    },
    {
      "id": 73496,
      "geometry": "POINT (-110.935024 32.131584)",
      "poi_name": "Subway",
      "osm_id": 9641350617,
      "amenity": "fast_food",
      "cuisine": "sandwich",
      "takeaway": "yes"
    },
    {
      "id": 73592,
      "geometry": "POINT (-110.943611 32.235224)",
      "poi_name": "Bruegger's Bagels",
      "osm_id": 9645044181,
      "amenity": "fast_food",
      "cuisine": "bagel",
      "opening_hours": "Su-Fr 05:30-15:00, Sa 05:30-16:00",
      "phone": "+1-520-204-5050",
      "takeaway": "yes",
      "official_name": "Bruegger\u2019s Bagels Store #4101",
      "addr_state": "AZ",
      "addr_city": "Tucson",
      "addr_street": "North Campbell Avenue",
      "addr_housenumber": "1064"
    },
    {
      "id": 73562,
      "geometry": "POINT (-110.984041 32.218047)",
      "poi_name": "Beaut Burger",
      "osm_id": 9644491690,
      "amenity": "fast_food",
      "cuisine": "burger",
      "opening_hours": "11:30-20:30"
    },
    {
      "id": 79502,
      "geometry": "POINT (-111.013537 32.345428)",
      "poi_name": "Wendy's",
      "osm_id": 809106335,
      "amenity": "fast_food",
      "cuisine": "burger",
      "takeaway": "yes",
      "drive_through": "yes"
    },
    {
      "id": 74245,
      "geometry": "POINT (-110.80331 32.084339)",
      "poi_name": "Subway",
      "osm_id": 9671499772,
      "amenity": "fast_food",
      "cuisine": "sandwich",
      "takeaway": "yes",
      "addr_state": "AZ",
      "addr_city": "Tucson",
      "addr_postcode": "85747",
      "addr_street": "South Rita Road",
      "addr_housenumber": "9255"
    },
    {
      "id": 76972,
      "geometry": "POINT (-111.046451 32.33644)",
      "poi_name": "Taco Bell",
      "osm_id": 9799703364,
      "amenity": "fast_food",
      "cuisine": "mexican",
      "website": "https://locations.tacobell.com/az/tucson/7140-n--thornydale-rd-.html",
      "takeaway": "yes",
      "drive_through": "yes"
    },
    {
      "id": 76974,
      "geometry": "POINT (-110.892137 32.309459)",
      "poi_name": "McDonald's",
      "osm_id": 9799703371,
      "amenity": "fast_food",
      "cuisine": "burger",
      "building": "commercial",
      "website": "https://www.mcdonalds.com/us/en-us/location/az/tucson/5640-n-swan/6260.html",
      "phone": "5202995953",
      "takeaway": "yes",
      "addr_postcode": "85718-4525",
      "addr_street": "North Swan Road",
      "addr_housenumber": "5640"
    },
    {
      "id": 103113,
      "geometry": "POINT (-110.955717 32.398824)",
      "poi_name": "Panera Bread",
      "osm_id": 8483374221,
      "amenity": "fast_food",
      "cuisine": "sandwich;bakery",
      "takeaway": "yes",
      "drive_through": "yes"
    },
    {
      "id": 81616,
      "geometry": "POINT (-111.011536 32.306423)",
      "poi_name": "Viva Burrito",
      "osm_id": 1651994666,
      "amenity": "fast_food",
      "phone": "520-887-2382",
      "addr_street": "West River Road",
      "addr_housenumber": "2060"
    },
    {
      "id": 81617,
      "geometry": "POINT (-111.00977 32.305831)",
      "poi_name": "Panda Express",
      "osm_id": 1651994723,
      "amenity": "fast_food",
      "cuisine": "chinese",
      "takeaway": "yes",
      "addr_street": "West River Road",
      "addr_housenumber": "1990"
    },
    {
      "id": 81629,
      "geometry": "POINT (-111.046552 32.324983)",
      "poi_name": "Subway",
      "osm_id": 1653197070,
      "amenity": "fast_food",
      "cuisine": "sandwich",
      "takeaway": "yes"
    },
    {
      "id": 85727,
      "geometry": "POINT (-110.965672 32.287053)",
      "poi_name": "Subway",
      "osm_id": 1890136431,
      "amenity": "fast_food",
      "cuisine": "sandwich",
      "takeaway": "yes"
    },
    {
      "id": 100533,
      "geometry": "POINT (-110.99636 32.409331)",
      "poi_name": "Bruegger's Bagels",
      "osm_id": 6591585836,
      "amenity": "fast_food",
      "cuisine": "bagel",
      "website": "https://www.brueggers.com/",
      "capacity": "47",
      "internet_access": "wlan",
      "phone": "(520) 575-0651",
      "takeaway": "yes",
      "drive_through": "no",
      "addr_state": "AZ",
      "addr_city": "Tucson",
      "addr_postcode": "85737",
      "addr_street": "North la Ca\u00f1ada Drive",
      "addr_housenumber": "11165"
    },
    {
      "id": 100634,
      "geometry": "POINT (-110.994312 32.397865)",
      "poi_name": "Marco's Pizza",
      "osm_id": 6594624473,
      "amenity": "fast_food",
      "cuisine": "pizza",
      "website": "https://www.marcos.com/locations/",
      "phone": "+1-520-297-6500",
      "takeaway": "yes",
      "drive_through": "no",
      "addr_state": "AZ",
      "addr_city": "Oro Valley",
      "addr_postcode": "85737",
      "addr_street": "North la Ca\u00f1ada Drive",
      "addr_housenumber": "10550"
    },
    {
      "id": 95391,
      "geometry": "POINT (-110.970018 32.222062)",
      "poi_name": "Jimmy John's",
      "osm_id": 6394782835,
      "amenity": "fast_food",
      "cuisine": "sandwich",
      "takeaway": "yes",
      "official_name": "Jimmy John's Gourmet Sandwiches",
      "outdoor_seating": "no"
    },
    {
      "id": 97587,
      "geometry": "POINT (-111.013406 32.34356)",
      "poi_name": "Chipotle",
      "osm_id": 6484439511,
      "amenity": "fast_food",
      "cuisine": "mexican",
      "takeaway": "yes",
      "drive_through": "no",
      "official_name": "Chipotle Mexican Grill",
      "addr_state": "AZ",
      "addr_city": "Tucson",
      "addr_postcode": "85741",
      "addr_street": "North la Cholla Boulevard",
      "addr_housenumber": "7555"
    },
    {
      "id": 103114,
      "geometry": "POINT (-110.95585 32.398719)",
      "poi_name": "Chipotle",
      "osm_id": 8483374222,
      "amenity": "fast_food",
      "cuisine": "mexican",
      "takeaway": "yes",
      "official_name": "Chipotle Mexican Grill"
    },
    {
      "id": 103115,
      "geometry": "POINT (-110.956217 32.39836)",
      "poi_name": "Jersey Mike's Subs",
      "osm_id": 8483374225,
      "amenity": "fast_food",
      "cuisine": "sandwich",
      "takeaway": "yes"
    },
    {
      "id": 103116,
      "geometry": "POINT (-110.956357 32.398227)",
      "poi_name": "MOD Pizza",
      "osm_id": 8483374226,
      "amenity": "fast_food",
      "cuisine": "pizza",
      "takeaway": "yes",
      "drive_through": "no"
    },
    {
      "id": 104374,
      "geometry": "POINT (-111.013347 32.34351)",
      "poi_name": "Subway",
      "osm_id": 8567899272,
      "amenity": "fast_food",
      "cuisine": "sandwich",
      "takeaway": "yes"
    },
    {
      "id": 104312,
      "geometry": "POINT (-110.995173 32.394107)",
      "poi_name": "Papa Murphy's",
      "osm_id": 8562590758,
      "amenity": "fast_food",
      "cuisine": "pizza",
      "takeaway": "only",
      "official_name": "Papa Murphy's Take 'N' Bake Pizza"
    },
    {
      "id": 112387,
      "geometry": "POINT (-111.043989 32.425124)",
      "poi_name": "Subway",
      "osm_id": 3789379508,
      "amenity": "fast_food",
      "cuisine": "sandwich",
      "takeaway": "yes"
    },
    {
      "id": 112388,
      "geometry": "POINT (-111.043006 32.424565)",
      "poi_name": "McDonald's",
      "osm_id": 3789379511,
      "amenity": "fast_food",
      "cuisine": "burger",
      "website": "https://www.mcdonalds.com/us/en-us/location/az/marana/3640-w-tangerine-road/32673.html",
      "takeaway": "yes"
    },
    {
      "id": 112389,
      "geometry": "POINT (-111.046105 32.425729)",
      "poi_name": "Domino's",
      "osm_id": 3789379931,
      "amenity": "fast_food",
      "cuisine": "pizza",
      "takeaway": "yes"
    },
    {
      "id": 113010,
      "geometry": "POINT (-111.090792 32.354201)",
      "poi_name": "Subway",
      "osm_id": 3814325834,
      "amenity": "fast_food",
      "cuisine": "sandwich",
      "takeaway": "yes"
    },
    {
      "id": 112640,
      "geometry": "POINT (-111.13615 32.372943)",
      "poi_name": "Subway",
      "osm_id": 3798770799,
      "amenity": "fast_food",
      "cuisine": "sandwich",
      "takeaway": "yes"
    },
    {
      "id": 112644,
      "geometry": "POINT (-111.1262 32.374346)",
      "poi_name": "Hungry Howie's",
      "osm_id": 3798795623,
      "amenity": "fast_food",
      "cuisine": "pizza",
      "takeaway": "yes"
    },
    {
      "id": 113115,
      "geometry": "POINT (-110.920605 32.484037)",
      "poi_name": "Domino's",
      "osm_id": 3819628377,
      "amenity": "fast_food",
      "cuisine": "pizza",
      "takeaway": "yes"
    },
    {
      "id": 113011,
      "geometry": "POINT (-111.091733 32.35487)",
      "poi_name": "Chipotle",
      "osm_id": 3814325837,
      "amenity": "fast_food",
      "cuisine": "mexican",
      "takeaway": "yes",
      "official_name": "Chipotle Mexican Grill"
    },
    {
      "id": 113012,
      "geometry": "POINT (-111.091575 32.353745)",
      "poi_name": "Baggin's",
      "osm_id": 3814325838,
      "amenity": "fast_food",
      "cuisine": "sandwich"
    },
    {
      "id": 113015,
      "geometry": "POINT (-111.0926 32.357375)",
      "poi_name": "Nico's Taco Shop",
      "osm_id": 3814363287,
      "amenity": "fast_food",
      "cuisine": "mexican"
    },
    {
      "id": 113018,
      "geometry": "POINT (-111.099533 32.347056)",
      "poi_name": "Domino's",
      "osm_id": 3814424827,
      "amenity": "fast_food",
      "cuisine": "pizza",
      "takeaway": "yes"
    },
    {
      "id": 136419,
      "geometry": "POINT (-111.136098 32.374159)",
      "poi_name": "Filiberto's",
      "osm_id": 11583408036,
      "amenity": "fast_food",
      "cuisine": "mexican",
      "building": "retail",
      "website": "https://filibertos.com/",
      "drive_through": "yes"
    },
    {
      "id": 127293,
      "geometry": "POINT (-111.04742 32.38188)",
      "poi_name": "Nico's Taco Shop",
      "osm_id": 8050701936,
      "amenity": "fast_food",
      "cuisine": "mexican"
    },
    {
      "id": 127294,
      "geometry": "POINT (-111.047774 32.382647)",
      "poi_name": "Subway",
      "osm_id": 8050701956,
      "amenity": "fast_food",
      "cuisine": "sandwich",
      "takeaway": "yes"
    },
    {
      "id": 127295,
      "geometry": "POINT (-111.085968 32.36)",
      "poi_name": "Arby's",
      "osm_id": 8050767941,
      "amenity": "fast_food",
      "cuisine": "sandwich",
      "takeaway": "yes",
      "drive_through": "yes",
      "addr_state": "AZ",
      "addr_city": "Tucson",
      "addr_postcode": "85742",
      "addr_street": "West Cortaro Farms Road",
      "addr_housenumber": "5660"
    },
    {
      "id": 127296,
      "geometry": "POINT (-111.085546 32.359892)",
      "poi_name": "Serial Grillers Express",
      "osm_id": 8050767942,
      "amenity": "fast_food",
      "cuisine": "sandwich;burger;beer",
      "website": "https://www.serialgrillersaz.com/",
      "phone": "+1-520-546-2160",
      "drive_through": "no",
      "addr_state": "AZ",
      "addr_city": "Tucson",
      "addr_postcode": "85742",
      "addr_street": "West Cortaro Farms Road",
      "addr_housenumber": "5660"
    },
    {
      "id": 127302,
      "geometry": "POINT (-111.046768 32.328855)",
      "poi_name": "Taco Apson",
      "osm_id": 8051304960,
      "amenity": "fast_food",
      "cuisine": "mexican",
      "opening_hours": "Mo,Tu 10:00-20:00; We-Sa 10:00-21:00; Su 11:00-17:00",
      "website": "https://www.tacosapson.com/",
      "addr_city": "Tucson",
      "addr_postcode": "85741",
      "addr_street": "North Thornydale Road",
      "addr_housenumber": "6741"
    },
    {
      "id": 127303,
      "geometry": "POINT (-111.046777 32.329153)",
      "poi_name": "Little Caesars",
      "osm_id": 8051304961,
      "amenity": "fast_food",
      "cuisine": "pizza",
      "website": "https://littlecaesars.com/en-us/store/6782/",
      "takeaway": "yes"
    },
    {
      "id": 127304,
      "geometry": "POINT (-111.046785 32.329359)",
      "poi_name": "Luke's",
      "osm_id": 8051304963,
      "amenity": "fast_food",
      "cuisine": "sandwich"
    },
    {
      "id": 127312,
      "geometry": "POINT (-111.136777 32.373721)",
      "poi_name": "Sodalicious",
      "osm_id": 8051578794,
      "amenity": "fast_food",
      "cuisine": "soda",
      "takeaway": "yes",
      "drive_through": "yes"
    },
    {
      "id": 127313,
      "geometry": "POINT (-111.101718 32.375171)",
      "poi_name": "Wetzel's Pretzels",
      "osm_id": 8051578821,
      "amenity": "fast_food",
      "cuisine": "pretzel",
      "takeaway": "yes"
    },
    {
      "id": 127314,
      "geometry": "POINT (-111.101072 32.374972)",
      "poi_name": "Dairy Queen",
      "osm_id": 8051578827,
      "amenity": "fast_food",
      "cuisine": "ice_cream;burger",
      "takeaway": "yes"
    },
    {
      "id": 127315,
      "geometry": "POINT (-111.101076 32.37492)",
      "poi_name": "Orange Julius",
      "osm_id": 8051578828,
      "amenity": "fast_food",
      "cuisine": "juice",
      "takeaway": "yes"
    },
    {
      "id": 127317,
      "geometry": "POINT (-111.101817 32.374577)",
      "poi_name": "Charleys Philly Steaks",
      "osm_id": 8051578836,
      "amenity": "fast_food",
      "cuisine": "sandwich",
      "takeaway": "yes"
    },
    {
      "id": 127318,
      "geometry": "POINT (-111.10174 32.374548)",
      "poi_name": "Sbarro",
      "osm_id": 8051578837,
      "amenity": "fast_food",
      "cuisine": "pizza",
      "takeaway": "yes"
    },
    {
      "id": 129763,
      "geometry": "POINT (-110.948753 32.406162)",
      "poi_name": "Baggin's",
      "osm_id": 9839697019,
      "amenity": "fast_food",
      "cuisine": "sandwich",
      "opening_hours": "Mo-Sa 10:00-19:00; Su 11:00-16:00",
      "website": "https://www.bagginsgourmet.com/locations/oro-valley/",
      "phone": "+1-520-547-2839",
      "drive_through": "no",
      "delivery": "yes",
      "addr_state": "AZ",
      "addr_city": "Oro Valley",
      "addr_postcode": "85737",
      "addr_street": "North Oracle Road",
      "addr_housenumber": "11015"
    },
    {
      "id": 134893,
      "geometry": "POINT (-110.774406 32.087902)",
      "poi_name": "Tropical Smoothie Cafe",
      "osm_id": 11495032599,
      "amenity": "fast_food",
      "cuisine": "juice",
      "takeaway": "yes"
    },
    {
      "id": 126822,
      "geometry": "POINT (-110.876547 32.183396)",
      "poi_name": "Qdoba",
      "osm_id": 8001434385,
      "amenity": "fast_food",
      "cuisine": "mexican",
      "opening_hours": "Mo-Fr 10:30-20:00; Sa 11:00-18:00; Su 11:00-17:00",
      "website": "https://locations.qdoba.com/us/az/davis-monthan-afb/5405-e-granite-st.html",
      "phone": "+15207472728",
      "takeaway": "yes",
      "official_name": "Qdoba Mexican Grill"
    },
    {
      "id": 144095,
      "geometry": "POINT (-110.956903 32.23208)",
      "poi_name": "Jamba Juice",
      "osm_id": 6363661829,
      "amenity": "fast_food",
      "cuisine": "juice",
      "opening_hours": "Mo-Fr 08:00-15:00, Sa-Su 10:00-16:00",
      "website": "https://locations.jambajuice.com/ll/US/AZ/Tucson/943-E_-University-Blvd_*-",
      "takeaway": "yes",
      "drive_through": "no",
      "outdoor_seating": "yes",
      "addr_state": "AZ",
      "addr_city": "Tucson",
      "addr_postcode": "85719",
      "addr_street": "East University Boulevard",
      "addr_housenumber": "943"
    },
    {
      "id": 139661,
      "geometry": "POINT (-110.95843 32.231886)",
      "poi_name": "Eat-a-Pita",
      "osm_id": 6208425085,
      "amenity": "fast_food"
    },
    {
      "id": 160303,
      "geometry": "POINT (-110.977725 32.279709)",
      "poi_name": "Potbelly",
      "osm_id": 4829711876,
      "amenity": "fast_food",
      "cuisine": "sandwich",
      "takeaway": "yes",
      "official_name": "Potbelly Sandwich Works"
    },
    {
      "id": 152173,
      "geometry": "POINT (-110.71294 32.04475)",
      "poi_name": "AZ Pizza Co",
      "osm_id": 4130654821,
      "amenity": "fast_food"
    },
    {
      "id": 152819,
      "geometry": "POINT (-111.092694 32.35731)",
      "poi_name": "Little Caesars",
      "osm_id": 4162002885,
      "amenity": "fast_food",
      "cuisine": "pizza",
      "website": "https://littlecaesars.com/en-us/store/9400/",
      "takeaway": "yes"
    },
    {
      "id": 160623,
      "geometry": "POINT (-110.845817 32.309351)",
      "poi_name": "Domino's",
      "osm_id": 4840545639,
      "amenity": "fast_food",
      "cuisine": "pizza",
      "takeaway": "yes"
    },
    {
      "id": 166100,
      "geometry": "POINT (-111.087291 32.360261)",
      "poi_name": "Filiberto's",
      "osm_id": 9573981979,
      "amenity": "fast_food",
      "cuisine": "mexican",
      "building": "retail",
      "website": "https://filibertos.com/"
    },
    {
      "id": 163524,
      "geometry": "POINT (-110.893188 32.25028)",
      "poi_name": "Dunkin'",
      "osm_id": 9421721957,
      "amenity": "fast_food",
      "cuisine": "donut;coffee_shop",
      "wheelchair": "yes",
      "takeaway": "yes",
      "addr_postcode": "85712",
      "addr_street": "East Grant Road",
      "addr_housenumber": "4676"
    },
    {
      "id": 165815,
      "geometry": "POINT (-111.029939 32.337777)",
      "poi_name": "Einstein Bros. Bagels",
      "osm_id": 9557109574,
      "amenity": "fast_food",
      "cuisine": "bagel",
      "opening_hours": "Mo-Fr 05:00-14:00; Sa,Su 06:00-14:00",
      "website": "https://locations.einsteinbros.com/us/az/tucson/2912-w-ina-rd",
      "takeaway": "yes",
      "drive_through": "yes",
      "addr_state": "AZ",
      "addr_city": "Tucson",
      "addr_postcode": "85741",
      "addr_street": "West Ina Road",
      "addr_housenumber": "2912"
    },
    {
      "id": 166101,
      "geometry": "POINT (-111.047678 32.381398)",
      "poi_name": "McDonald's",
      "osm_id": 9574022265,
      "amenity": "fast_food",
      "cuisine": "burger",
      "opening_hours": "5:00-23:00",
      "website": "https://www.mcdonalds.com/us/en-us/location/AZ/TUCSON/3800-W-LINDAVISTA-BLVD/19195.html",
      "phone": "+1-520-744-5370",
      "takeaway": "yes",
      "drive_through": "yes",
      "addr_state": "AZ",
      "addr_city": "Tucson",
      "addr_postcode": "85742",
      "addr_street": "West Linda Vista Boulevard",
      "addr_housenumber": "3800"
    },
    {
      "id": 168307,
      "geometry": "POINT (-110.956874 32.231391)",
      "poi_name": "Jimmy John's",
      "osm_id": 376366860,
      "amenity": "fast_food",
      "cuisine": "sandwich",
      "takeaway": "yes",
      "official_name": "Jimmy John's Gourmet Sandwiches"
    },
    {
      "id": 166860,
      "geometry": "POINT (-110.713728 32.04464)",
      "poi_name": "Quiznos",
      "osm_id": 317067918,
      "amenity": "fast_food",
      "cuisine": "sandwich"
    },
    {
      "id": 166861,
      "geometry": "POINT (-110.713659 32.044705)",
      "poi_name": "Dairy Queen",
      "osm_id": 317067921,
      "amenity": "fast_food",
      "cuisine": "ice_cream;burger",
      "takeaway": "yes"
    },
    {
      "id": 179761,
      "geometry": "POINT (-110.996379 32.393693)",
      "poi_name": "Subway",
      "osm_id": 10777189625,
      "amenity": "fast_food",
      "cuisine": "sandwich",
      "opening_hours": "8:00-21:00",
      "phone": "+1-520-229-3387",
      "takeaway": "yes",
      "drive_through": "no",
      "outdoor_seating": "yes",
      "addr_state": "AZ",
      "addr_city": "Oro Valley",
      "addr_postcode": "85737",
      "addr_street": "North la Ca\u00f1ada Drive",
      "addr_housenumber": "10325"
    },
    {
      "id": 168412,
      "geometry": "POINT (-110.957792 32.231531)",
      "poi_name": "Dunkin Donuts/Baskin Robbins",
      "osm_id": 398252731,
      "amenity": "fast_food"
    },
    {
      "id": 168413,
      "geometry": "POINT (-110.957814 32.23138)",
      "poi_name": "Silver Mine Subs",
      "osm_id": 398253161,
      "amenity": "fast_food"
    },
    {
      "id": 168356,
      "geometry": "POINT (-110.943593 32.227562)",
      "poi_name": "Cheba Hut",
      "osm_id": 391779729,
      "amenity": "fast_food",
      "cuisine": "sandwich"
    },
    {
      "id": 181145,
      "geometry": "POINT (-110.857574 32.207502)",
      "poi_name": "Taco Bell",
      "osm_id": 10834010243,
      "amenity": "fast_food",
      "cuisine": "mexican",
      "opening_hours": "Mo-Su 09:00-21:00",
      "website": "https://locations.tacobell.com/az/tucson/1111-s-wilmot-rd.html",
      "takeaway": "yes",
      "addr_state": "AZ",
      "addr_city": "Tucson",
      "addr_postcode": "85710",
      "addr_street": "South Wilmot Road",
      "addr_housenumber": "1111"
    },
    {
      "id": 208139,
      "geometry": "POINT (-110.865466 32.219062)",
      "poi_name": "Jamba",
      "osm_id": 4975009543,
      "amenity": "fast_food",
      "cuisine": "juice",
      "opening_hours": "Mo-Sa 09:30-21:00, Su 10:30-18:00",
      "takeaway": "yes",
      "addr_state": "AZ",
      "addr_city": "Tucson",
      "addr_postcode": "85711",
      "addr_street": "East Broadway Boulevard",
      "addr_housenumber": "5870"
    },
    {
      "id": 183723,
      "geometry": "POINT (-110.956189 32.401881)",
      "poi_name": "Fruit Shack Smoothies & Yogurt",
      "osm_id": 10942935503,
      "amenity": "fast_food",
      "cuisine": "juice"
    },
    {
      "id": 183724,
      "geometry": "POINT (-110.956236 32.401931)",
      "poi_name": "Papa John's",
      "osm_id": 10942935504,
      "amenity": "fast_food",
      "cuisine": "pizza",
      "takeaway": "yes"
    },
    {
      "id": 190760,
      "geometry": "POINT (-110.951441 32.232759)",
      "poi_name": "Steak 'n Shake",
      "osm_id": 1314734983,
      "amenity": "fast_food",
      "cuisine": "burger",
      "takeaway": "yes"
    },
    {
      "id": 190761,
      "geometry": "POINT (-110.951454 32.232476)",
      "poi_name": "Panda Express",
      "osm_id": 1314734992,
      "amenity": "fast_food",
      "cuisine": "chinese",
      "takeaway": "yes"
    },
    {
      "id": 190762,
      "geometry": "POINT (-110.951732 32.23277)",
      "poi_name": "IQ",
      "osm_id": 1314734994,
      "amenity": "fast_food"
    },
    {
      "id": 190763,
      "geometry": "POINT (-110.951578 32.232769)",
      "poi_name": "Papa John's",
      "osm_id": 1314734996,
      "amenity": "fast_food",
      "cuisine": "pizza",
      "takeaway": "yes"
    },
    {
      "id": 190764,
      "geometry": "POINT (-110.951759 32.23249)",
      "poi_name": "Chick-fil-A",
      "osm_id": 1314735000,
      "amenity": "fast_food",
      "cuisine": "chicken",
      "website": "https://www.chick-fil-a.com/",
      "takeaway": "yes"
    },
    {
      "id": 190765,
      "geometry": "POINT (-110.951572 32.232484)",
      "poi_name": "On Deck",
      "osm_id": 1314735004,
      "amenity": "fast_food",
      "cuisine": "sandwich"
    },
    {
      "id": 208141,
      "geometry": "POINT (-110.865395 32.218252)",
      "poi_name": "Panda Express",
      "osm_id": 4975009545,
      "amenity": "fast_food",
      "cuisine": "chinese",
      "opening_hours": "Mo-Sa 10:30-21:00, Su 11:00-18:00",
      "takeaway": "yes",
      "addr_state": "AZ",
      "addr_city": "Tucson",
      "addr_postcode": "85711",
      "addr_street": "East Broadway Boulevard",
      "addr_housenumber": "5870"
    },
    {
      "id": 229648,
      "geometry": "POINT (-110.960639 32.286266)",
      "poi_name": "Domino's",
      "osm_id": 4392853163,
      "amenity": "fast_food",
      "cuisine": "pizza",
      "website": "https://www.dominos.com/",
      "takeaway": "yes",
      "addr_state": "AZ",
      "addr_city": "Tucson",
      "addr_postcode": "85719",
      "addr_street": "North 1st Avenue",
      "addr_housenumber": "4390"
    },
    {
      "id": 225387,
      "geometry": "POINT (-110.826908 32.171185)",
      "poi_name": "WAFT Tucson [a plant-based experiment]",
      "osm_id": 11124275605,
      "amenity": "fast_food",
      "opening_hours": "24/7",
      "website": "http://www.wafttucson.com",
      "addr_postcode": "85730"
    },
    {
      "id": 209506,
      "geometry": "POINT (-111.09163 32.354983)",
      "poi_name": "Jersey Mike's Subs",
      "osm_id": 5041549077,
      "amenity": "fast_food",
      "cuisine": "sandwich",
      "takeaway": "yes"
    },
    {
      "id": 209507,
      "geometry": "POINT (-111.089295 32.355658)",
      "poi_name": "McDonald's",
      "osm_id": 5041582847,
      "amenity": "fast_food",
      "cuisine": "burger",
      "takeaway": "yes"
    },
    {
      "id": 209508,
      "geometry": "POINT (-111.099102 32.349684)",
      "poi_name": "Papa Murphy's",
      "osm_id": 5041582856,
      "amenity": "fast_food",
      "cuisine": "pizza",
      "takeaway": "only",
      "drive_through": "no",
      "official_name": "Papa Murphy's Take 'N' Bake Pizza",
      "outdoor_seating": "no",
      "delivery": "no"
    },
    {
      "id": 209515,
      "geometry": "POINT (-111.055758 32.337194)",
      "poi_name": "Nico's Taco Shop",
      "osm_id": 5041685797,
      "amenity": "fast_food"
    },
    {
      "id": 209516,
      "geometry": "POINT (-111.044177 32.33717)",
      "poi_name": "Subway",
      "osm_id": 5041685801,
      "amenity": "fast_food",
      "cuisine": "sandwich",
      "takeaway": "yes"
    },
    {
      "id": 209519,
      "geometry": "POINT (-111.043736 32.337982)",
      "poi_name": "Wingstop",
      "osm_id": 5041685817,
      "amenity": "fast_food",
      "cuisine": "wings",
      "takeaway": "yes",
      "outdoor_seating": "no",
      "delivery": "no"
    },
    {
      "id": 209520,
      "geometry": "POINT (-111.04834 32.338047)",
      "poi_name": "McDonald's",
      "osm_id": 5041686224,
      "amenity": "fast_food",
      "cuisine": "burger",
      "website": "https://www.mcdonalds.com/us/en-us/location/az/marana/3830-w-ina-rd/6044.html",
      "takeaway": "yes",
      "drive_through": "yes"
    },
    {
      "id": 209522,
      "geometry": "POINT (-111.044365 32.358553)",
      "poi_name": "Subway",
      "osm_id": 5041686240,
      "amenity": "fast_food",
      "cuisine": "sandwich",
      "website": "https://www.subway.com"
    },
    {
      "id": 216415,
      "geometry": "POINT (-110.91638 32.222003)",
      "poi_name": "Panda Express",
      "osm_id": 9170724811,
      "amenity": "fast_food",
      "cuisine": "chinese",
      "takeaway": "yes",
      "drive_through": "yes"
    },
    {
      "id": 239224,
      "geometry": "POINT (-110.938681 32.120777)",
      "poi_name": "Bruegger's Bagels",
      "osm_id": 5911509788,
      "amenity": "fast_food",
      "cuisine": "bagel",
      "takeaway": "yes"
    },
    {
      "id": 231129,
      "geometry": "POINT (-110.95693 32.235322)",
      "poi_name": "Potbelly",
      "osm_id": 4457045940,
      "amenity": "fast_food",
      "cuisine": "sandwich",
      "website": "https://www.potbelly.com/",
      "takeaway": "yes",
      "official_name": "Potbelly Sandwich Works",
      "addr_state": "AZ",
      "addr_city": "Tucson",
      "addr_postcode": "85719",
      "addr_street": "North Tyndall Avenue",
      "addr_housenumber": "1031"
    },
    {
      "id": 231130,
      "geometry": "POINT (-110.956925 32.234991)",
      "poi_name": "Smoothie Factory",
      "osm_id": 4457045961,
      "amenity": "fast_food",
      "cuisine": "juice",
      "addr_state": "AZ",
      "addr_city": "Tucson",
      "addr_postcode": "85719",
      "addr_street": "North Park Avenue",
      "addr_housenumber": "1031"
    },
    {
      "id": 240325,
      "geometry": "POINT (-111.046144 32.425287)",
      "poi_name": "Dairy Queen",
      "osm_id": 5967870749,
      "amenity": "fast_food",
      "cuisine": "ice_cream;burger",
      "takeaway": "yes"
    }
  ],
  "answer_type": "name",
  "question_entities": {
    "[1]": {
      "main_category": "amenity",
      "sub_category": "fast food restaurant"
    },
    "[2]": {
      "distance": 30000,
      "text": "30 kilometers"
    },
    "[3]": {
      "main_category": "amenity",
      "sub_category": "hospital",
      "display_name": "TMC Geropsychiatric Center At Handmaker, Tucson, AZ",
      "geo_wkt": "POINT (-110.884497 32.248784)",
      "poi": {
        "id": 181753,
        "geometry": "POINT (-110.884497 32.248784)",
        "poi_name": "TMC Geropsychiatric Center At Handmaker",
        "osm_id": 10863657554,
        "amenity": "hospital",
        "website": "https://www.tmcaz.com",
        "phone": "+1 520 324 4600",
        "healthcare": "hospital",
        "addr_state": "AZ",
        "addr_city": "Tucson",
        "addr_postcode": "85712",
        "addr_street": "North Rosemont Boulevard",
        "addr_housenumber": "2221"
      }
    }
  },
  "id": 821,
  "type": "range+name"
}