{
  "question": "What's the route to a museum from Inn at Baldwin Creek, Bristol, VT within 90 kilometers?",
  "sql": "SELECT *, degrees(ST_Azimuth(ST_GeomFromText('POINT (-73.045795 44.154739)',4326)::geography, pois.geometry)) AS angle FROM pois\nWHERE ST_DWithin(pois.geometry, ST_GeomFromText('POINT (-73.045795 44.154739)',4326)::geography, 90000)\nAND tourism = 'museum';\n",
  "answers": [
    {
      "id": 1259,
      "geometry": "POINT (-73.427611 44.029677)",
      "poi_name": "Crown Point Historic Site",
      "osm_id": 2919645418,
      "tourism": "museum",
      "fee": "no",
      "website": "https://parks.ny.gov/historic-sites/crownpoint/maps.aspx",
      "angle": 245.69255183434018
    },
    {
      "id": 1298,
      "geometry": "POINT (-73.46605 44.69376)",
      "poi_name": "Plattsburgh State Art Museum",
      "osm_id": 2930160234,
      "tourism": "museum",
      "website": "https://www.plattsburgh.edu/plattslife/arts/art-museum/index.html",
      "angle": 330.9534522375173
    },
    {
      "id": 2206,
      "geometry": "POINT (-72.52115 44.211703)",
      "poi_name": "Vermont Granite Museum",
      "osm_id": 3328904277,
      "description": "The Museum has exhibits about the heritage of Vermont's granite industry as well as walking trails.",
      "tourism": "museum",
      "wheelchair": "yes",
      "opening_hours": "Tu-Sa 10:00-16:00",
      "website": "https://www.vtgranitemuseum.org/",
      "phone": "+1-802-476-4605",
      "museum": "history",
      "wikidata": "Q28123745",
      "addr_state": "VT",
      "addr_city": "Barre",
      "addr_postcode": "05641",
      "addr_street": "Jones Brothers Way",
      "addr_housenumber": "7",
      "angle": 81.23697906576368
    },
    {
      "id": 2279,
      "geometry": "POINT (-73.035367 43.663968)",
      "poi_name": "Vermont Marble Museum",
      "osm_id": 3363158884,
      "tourism": "museum",
      "wikidata": "Q7921742",
      "angle": 179.1162816808853
    },
    {
      "id": 3198,
      "geometry": "POINT (-73.343855 44.851886)",
      "poi_name": "Isle La Motte Historical Society",
      "osm_id": 10232386341,
      "tourism": "museum",
      "website": "https://islelamotte.us/services/historical-society/",
      "museum": "history",
      "angle": 343.09167119827987
    },
    {
      "id": 4370,
      "geometry": "POINT (-73.384632 43.818491)",
      "poi_name": "Mount Independence State Historic Site Museum",
      "osm_id": 11238318013,
      "description": "Mount Independence State Historic Site Museum is open seasonally May through October (check website for exact dates). During the season admissison fees are charged for trails and museum. During the off-season, the museum is closed and the trails are free.",
      "tourism": "museum",
      "opening_hours": "10:00-17:00",
      "website": "https://historicsites.vermont.gov/mount-independence/hours-admissions-directions",
      "phone": "+1 802-948-2000",
      "museum": "history",
      "addr_state": "VT",
      "addr_city": "Orwell",
      "addr_postcode": "05760",
      "addr_street": "Mount Independence Road",
      "addr_housenumber": "497",
      "angle": 216.156366012634
    },
    {
      "id": 6083,
      "geometry": "POINT (-73.445042 44.683179)",
      "poi_name": "Champlain Valley Transportation Museum",
      "osm_id": 1741679484,
      "tourism": "museum",
      "website": "https://cvtmuseum.wixsite.com/cvtm",
      "angle": 331.7049401137536
    },
    {
      "id": 9825,
      "geometry": "POINT (-72.720633 43.535051)",
      "poi_name": "President Calvin Coolidge Museum and Educational Center",
      "osm_id": 9008669319,
      "tourism": "museum",
      "website": "https://historicsites.vermont.gov/calvin-coolidge",
      "internet_access": "wlan",
      "angle": 159.09229981498223
    },
    {
      "id": 10832,
      "geometry": "POINT (-72.397652 43.63812)",
      "poi_name": "Vermont Toy Museum",
      "osm_id": 8072183884,
      "tourism": "museum",
      "opening_hours": "Mo-Su 10:00-17:00",
      "website": "http://vermonttoymuseum.com/index.html",
      "phone": "+1-802-281-6394",
      "addr_state": "VT",
      "addr_city": "Quechee",
      "addr_postcode": "05059",
      "addr_street": "Woodstock Road",
      "addr_housenumber": "5573",
      "angle": 137.56025526408325
    },
    {
      "id": 13047,
      "geometry": "POINT (-73.984683 44.284343)",
      "poi_name": "Lake Placid Olympic Museum",
      "osm_id": 4030265814,
      "tourism": "museum",
      "wheelchair": "yes",
      "fee": "yes",
      "opening_hours": "Mo-Su 10:00-17:00",
      "website": "https://lakeplacidolympicmuseum.org/",
      "phone": "+1 (518) 302-5310",
      "wikidata": "Q4306269",
      "addr_state": "NY",
      "addr_city": "Lake Placid",
      "addr_street": "Main Street",
      "addr_housenumber": "2634",
      "angle": 281.19278936688664
    },
    {
      "id": 14286,
      "geometry": "POINT (-72.999582 44.504611)",
      "poi_name": "The Old Red Mill",
      "osm_id": 4266795636,
      "tourism": "museum",
      "website": "https://www.jerichohistoricalsociety.org/the-old-red-mill.html",
      "shop": "gift",
      "phone": "+1 802 8993225",
      "addr_state": "VT",
      "addr_city": "Jericho",
      "addr_street": "Red Mill Drive",
      "angle": 5.399963640199665
    },
    {
      "id": 15595,
      "geometry": "POINT (-73.46165 44.525496)",
      "poi_name": "North Star Underground Railroad Museum",
      "osm_id": 9396011398,
      "tourism": "museum",
      "website": "https://northcountryundergroundrailroad.com/museum.php",
      "angle": 321.31235599450343
    },
    {
      "id": 15780,
      "geometry": "POINT (-72.827614 44.645531)",
      "poi_name": "Cambridge Historical Society",
      "osm_id": 9517920225,
      "tourism": "museum",
      "website": "https://www.cambridgehistoricalsociety.org/index.html",
      "museum": "history",
      "addr_state": "VT",
      "addr_city": "Jeffersonville",
      "addr_postcode": "05464",
      "addr_street": "School Street",
      "addr_housenumber": "49",
      "angle": 17.60134262353574
    },
    {
      "id": 15854,
      "geometry": "POINT (-73.445771 44.682953)",
      "poi_name": "Clinton County Historical Museum",
      "osm_id": 9567284514,
      "tourism": "museum",
      "website": "http://www.clintoncountyhistorical.org/",
      "museum": "local",
      "angle": 331.65109723103495
    },
    {
      "id": 16158,
      "geometry": "POINT (-72.699211 43.397638)",
      "poi_name": "Black River Academy Museum",
      "osm_id": 356558127,
      "tourism": "museum",
      "website": "https://bramvt.org/",
      "addr_state": "VT",
      "addr_city": "Ludlow",
      "addr_postcode": "05149",
      "addr_street": "High Street",
      "addr_housenumber": "14",
      "angle": 161.5293150947208
    },
    {
      "id": 16846,
      "geometry": "POINT (-72.803743 44.831714)",
      "poi_name": "President Arthur Birthplace Museum",
      "osm_id": 366668018,
      "tourism": "museum",
      "addr_state": "VT",
      "angle": 14.27064437379932
    },
    {
      "id": 16834,
      "geometry": "POINT (-72.579513 44.261139)",
      "poi_name": "Vermont Historical Society Museum and Pavilion",
      "osm_id": 366667941,
      "tourism": "museum",
      "fee": "yes",
      "opening_hours": "Tu-Sa 10:00-16:00",
      "website": "https://vermonthistory.org/museum/",
      "addr_state": "VT",
      "angle": 72.2364916325754
    },
    {
      "id": 16835,
      "geometry": "POINT (-72.660743 44.137085)",
      "poi_name": "Norwich University Museum",
      "osm_id": 366667949,
      "tourism": "museum",
      "website": "https://www.norwich.edu/museum",
      "wikidata": "Q20657470",
      "addr_state": "VT",
      "angle": 93.50913789276304
    },
    {
      "id": 16836,
      "geometry": "POINT (-72.485009 44.368591)",
      "poi_name": "Kents Museum",
      "osm_id": 366667952,
      "tourism": "museum",
      "website": "https://www.kentscorner.org",
      "addr_state": "VT",
      "angle": 61.851909356567724
    },
    {
      "id": 16837,
      "geometry": "POINT (-71.995094 44.421447)",
      "poi_name": "Maple Grove Museum",
      "osm_id": 366667961,
      "tourism": "museum",
      "addr_state": "VT",
      "angle": 70.1711518397699
    },
    {
      "id": 16839,
      "geometry": "POINT (-73.30419 44.645482)",
      "poi_name": "South Hero Bicentennial Museum",
      "osm_id": 366667977,
      "tourism": "museum",
      "website": "https://sites.google.com/view/shbimuseum/home",
      "addr_state": "VT",
      "angle": 339.4092196672322
    },
    {
      "id": 16840,
      "geometry": "POINT (-72.68429 44.463928)",
      "poi_name": "Stowe Historical Society Museum",
      "osm_id": 366667979,
      "tourism": "museum",
      "opening_hours": "Th-Sa 13:00-16:00",
      "website": "https://www.stowehistoricalsociety.org/",
      "addr_state": "VT",
      "addr_city": "Stowe",
      "addr_postcode": "05672",
      "addr_street": "School Street",
      "addr_housenumber": "90",
      "angle": 39.888913693976534
    },
    {
      "id": 16847,
      "geometry": "POINT (-73.081827 44.810799)",
      "poi_name": "Saint Albans Historical Museum",
      "osm_id": 366668021,
      "tourism": "museum",
      "website": "https://www.stamuseum.org/",
      "addr_state": "VT",
      "angle": 357.76098299438996
    },
    {
      "id": 16851,
      "geometry": "POINT (-72.974829 43.606735)",
      "poi_name": "Lawrence Recreation Center;Rutland Historical Society Museum",
      "osm_id": 366668142,
      "leisure": "sports_centre",
      "tourism": "museum",
      "website": "https://rutlandhistory.com/",
      "addr_state": "VT",
      "angle": 174.624212188379
    },
    {
      "id": 16852,
      "geometry": "POINT (-73.237288 44.222637)",
      "poi_name": "Robeby Museum",
      "osm_id": 366668192,
      "tourism": "museum",
      "opening_hours": "Mo-Su 10:00-17:00",
      "website": "https://rokeby.org/",
      "addr_state": "VT",
      "addr_city": "Ferrisburgh",
      "addr_postcode": "05456",
      "addr_street": "Route 7",
      "addr_housenumber": "4334",
      "angle": 296.2998864504553
    },
    {
      "id": 16853,
      "geometry": "POINT (-73.237456 44.22289)",
      "poi_name": "Rokeby Museum Special Collections Library",
      "osm_id": 366668198,
      "tourism": "museum",
      "website": "https://rokeby.org/collection/archives/",
      "addr_state": "VT",
      "angle": 296.36446565856033
    },
    {
      "id": 16855,
      "geometry": "POINT (-72.946976 43.627854)",
      "poi_name": "Norman Rockwell Museum",
      "osm_id": 366668261,
      "tourism": "museum",
      "website": "http://www.normanrockwellvt.com/",
      "addr_state": "VT",
      "addr_city": "Rutland",
      "addr_postcode": "05701",
      "addr_street": "US 4",
      "addr_housenumber": "654",
      "angle": 172.241521087483
    },
    {
      "id": 16858,
      "geometry": "POINT (-72.52065 43.623125)",
      "poi_name": "Daughters of the American Revolution Historic House and Museum",
      "osm_id": 366668324,
      "tourism": "museum",
      "website": "https://www.dar.org/museum",
      "addr_state": "VT",
      "angle": 144.27537032448654
    },
    {
      "id": 19172,
      "geometry": "POINT (-72.383772 44.653931)",
      "poi_name": "Craftsbury Historical Socity",
      "osm_id": 2538812893,
      "tourism": "museum",
      "opening_hours": "We,Sa 10:00-12:00",
      "website": "https://www.craftsburyhistoricalsociety.org/",
      "phone": "1 802 755 6178",
      "museum": "history",
      "addr_state": "VT",
      "addr_city": "Craftsbury Common",
      "addr_postcode": "05827",
      "angle": 43.321537130782616
    },
    {
      "id": 20964,
      "geometry": "POINT (-73.2196 44.447284)",
      "poi_name": "Craig's",
      "osm_id": 1324772033,
      "tourism": "museum",
      "addr_city": "Burlington",
      "addr_street": "Queen City Park Road",
      "addr_housenumber": "266",
      "angle": 336.9545173631725
    },
    {
      "id": 21410,
      "geometry": "POINT (-73.467653 44.693938)",
      "poi_name": "Rockwell Kent Collection",
      "osm_id": 1562109693,
      "tourism": "museum",
      "website": "https://www.plattsburgh.edu/plattslife/arts/art-museum/rockwell-kent-collection.html",
      "museum": "art",
      "angle": 330.86912719020364
    },
    {
      "id": 21411,
      "geometry": "POINT (-73.465529 44.69334)",
      "poi_name": "Nina Winkel Sculpture Gallery",
      "osm_id": 1562109696,
      "tourism": "museum",
      "website": "https://www.plattsburgh.edu/plattslife/arts/art-museum/winkel-sculpture-courtyard.html",
      "angle": 330.96439280820675
    },
    {
      "id": 21622,
      "geometry": "POINT (-72.340033 43.661158)",
      "poi_name": "Hartford Historical Society",
      "osm_id": 10579718941,
      "description": "The Garipay House - This historic home was bequeathed to the Society in 1994 by the late Loretta Michota Garipay. The house contains the society\u2019s archives and museum. The Garipay House is open to the public by appointment.",
      "tourism": "museum",
      "website": "https://hartfordvthistory.com/",
      "museum": "history",
      "addr_state": "VT",
      "addr_city": "Hartford",
      "addr_street": "Maple Street",
      "addr_housenumber": "1461",
      "angle": 133.8035962285659
    },
    {
      "id": 22412,
      "geometry": "POINT (-73.984651 44.284149)",
      "poi_name": "Lake Placid Hall of Fame",
      "osm_id": 7025202824,
      "tourism": "museum",
      "website": "https://www.lphalloffame.com/",
      "angle": 281.1772690108354
    },
    {
      "id": 23078,
      "geometry": "POINT (-73.591235 44.216838)",
      "poi_name": "Adirondack history center museum",
      "osm_id": 5027444121,
      "tourism": "museum",
      "website": "https://www.adkhistorycenter.org/",
      "addr_street": "Adirondack Park",
      "angle": 279.1808991477003
    },
    {
      "id": 25391,
      "geometry": "POINT (-73.17602 44.00489)",
      "poi_name": "Middlebury College Museum of Art",
      "osm_id": 4479540036,
      "tourism": "museum",
      "opening_hours": "Tu-Fr 10:00-17:00, Sa-Su 12:00-17:00, \"closed for college holidays\"",
      "operator": "Middlebury College",
      "website": "http://middlebury.edu/museum",
      "phone": "+1 802-443-5007",
      "museum": "art",
      "wikidata": "Q18591023",
      "addr_state": "VT",
      "addr_city": "Middlebury",
      "addr_postcode": "05753",
      "addr_street": "Porter Field Road",
      "addr_housenumber": "72",
      "angle": 212.11109961219387
    },
    {
      "id": 26018,
      "geometry": "POINT (-73.309678 43.708925)",
      "poi_name": "Benson Museum",
      "osm_id": 5761771163,
      "tourism": "museum",
      "angle": 203.25123179544065
    },
    {
      "id": 26165,
      "geometry": "POINT (-73.20925 43.96132)",
      "poi_name": "Cornwall Historical Society",
      "osm_id": 5797349056,
      "tourism": "museum",
      "angle": 211.4159363878728
    }
  ],
  "answer_type": "angle",
  "question_entities": {
    "[1]": {
      "main_category": "tourism",
      "sub_category": "museum"
    },
    "[2]": {
      "distance": 90000,
      "text": "90 kilometers"
    },
    "[3]": {
      "main_category": "tourism",
      "sub_category": "hotel",
      "display_name": "Inn at Baldwin Creek, Bristol, VT",
      "geo_wkt": "POINT (-73.045795 44.154739)",
      "poi": {
        "id": 22667,
        "geometry": "POINT (-73.045795 44.154739)",
        "poi_name": "Inn at Baldwin Creek",
        "osm_id": 7206932341,
        "tourism": "hotel",
        "website": "http://www.baldwincreek.net/",
        "phone": "+1 802 453 2432",
        "addr_state": "VT",
        "addr_city": "Bristol",
        "addr_postcode": "05443",
        "addr_street": "North 116 Road",
        "addr_housenumber": "1868"
      }
    }
  },
  "id": 1097,
  "type": "range+angle"
}