{
  "question": "Where can I find restaurant located en route to Texas knife makers supply, TX from Downtown Gazebo, Lake Jackson, TX, within a radius of 120 kilometers?",
  "sql": "WITH\n    angle AS (SELECT degrees(ST_Azimuth(ST_GeomFromText('POINT (-95.450044 29.041946)',4326)::geography, ST_GeomFromText('POINT (-95.561614 29.798748)',4326)::geography)) AS value)\nSELECT * FROM pois,angle\nWHERE amenity = 'restaurant'\nAND ST_DWithin(pois.geometry, ST_GeomFromText('POINT (-95.450044 29.041946)',4326)::geography, 120000)\nAND (degrees(ST_Azimuth(ST_GeomFromText('POINT (-95.450044 29.041946)',4326)::geography, pois.geometry)) BETWEEN angle.value - 22.5 AND angle.value + 22.5);\n",
  "answers": [
    {
      "id": 28294,
      "geometry": "POINT (-95.476267 29.730856)",
      "poi_name": "La Tapatia",
      "osm_id": 473638923,
      "amenity": "restaurant",
      "cuisine": "mexican",
      "addr_city": "Houston",
      "addr_postcode": "77056",
      "addr_street": "Richmond Avenue",
      "addr_housenumber": "5551",
      "value": 352.6729653198274
    },
    {
      "id": 29290,
      "geometry": "POINT (-95.55382 29.640395)",
      "poi_name": "Water Drop Teahouse",
      "osm_id": 8294028270,
      "amenity": "restaurant",
      "cuisine": "chinese",
      "wheelchair": "yes",
      "opening_hours": "Tu-Su 11:30-15:30",
      "website": "https://www.houstonbuddhism.org/tea-house/",
      "phone": "+1 281 495 3100",
      "addr_state": "TX",
      "addr_city": "Stafford",
      "addr_postcode": "77477",
      "addr_street": "Jebbia Lane",
      "addr_housenumber": "12550",
      "value": 352.6729653198274
    },
    {
      "id": 31956,
      "geometry": "POINT (-95.590316 30.009721)",
      "poi_name": "Cicis",
      "osm_id": 2615169193,
      "amenity": "restaurant",
      "cuisine": "pizza;buffet",
      "addr_state": "TX",
      "addr_city": "Houston",
      "addr_street": "Tomball Parkway",
      "addr_housenumber": "22513",
      "value": 352.6729653198274
    },
    {
      "id": 33029,
      "geometry": "POINT (-95.464317 29.689567)",
      "poi_name": "The Egg and I",
      "osm_id": 2647696381,
      "amenity": "restaurant",
      "cuisine": "breakfast",
      "addr_state": "TX",
      "addr_city": "Houston",
      "addr_street": "Beechnut Street",
      "addr_housenumber": "4938",
      "value": 352.6729653198274
    },
    {
      "id": 35171,
      "geometry": "POINT (-95.62464 29.763778)",
      "poi_name": "BB's Tex-Orleans Cooking",
      "osm_id": 2711958646,
      "amenity": "restaurant",
      "addr_state": "TX",
      "addr_city": "Houston",
      "addr_street": "Eldridge Parkway",
      "addr_housenumber": "1275",
      "value": 352.6729653198274
    },
    {
      "id": 35172,
      "geometry": "POINT (-95.62464 29.763191)",
      "poi_name": "Minuti Coffee",
      "osm_id": 2711958652,
      "amenity": "restaurant",
      "addr_state": "TX",
      "addr_city": "Houston",
      "addr_street": "Eldridge Parkway",
      "addr_housenumber": "1275",
      "value": 352.6729653198274
    },
    {
      "id": 41348,
      "geometry": "POINT (-95.553053 29.706659)",
      "poi_name": "Yu Garden",
      "osm_id": 3011080797,
      "amenity": "restaurant",
      "cuisine": "chinese",
      "addr_city": "Houston",
      "addr_postcode": "77036",
      "addr_street": "Bellaire Boulevard",
      "addr_housenumber": "9888",
      "value": 352.6729653198274
    },
    {
      "id": 44808,
      "geometry": "POINT (-95.546926 29.959501)",
      "poi_name": "Raj Bhavan Vegetarian Restaurant",
      "osm_id": 3178061477,
      "amenity": "restaurant",
      "cuisine": "indian",
      "wheelchair": "yes",
      "opening_hours": "Mo,We-Su 11:00-21:00; Tu off",
      "outdoor_seating": "no",
      "toilets": "yes",
      "addr_state": "TX",
      "addr_city": "Houston",
      "addr_postcode": "77064",
      "addr_street": "Tomball Parkway",
      "addr_housenumber": "17747",
      "value": 352.6729653198274
    },
    {
      "id": 44499,
      "geometry": "POINT (-95.621763 29.596639)",
      "poi_name": "Fish City Grill",
      "osm_id": 3161120728,
      "amenity": "restaurant",
      "cuisine": "seafood",
      "opening_hours": "Mo-Th 11:00-21:00; Fr,Sa 11:00-22:00; Su 11:00-21:00",
      "addr_state": "TX",
      "addr_city": "Sugar Land",
      "addr_postcode": "77479",
      "addr_street": "City Walk",
      "addr_housenumber": "15980",
      "value": 352.6729653198274
    },
    {
      "id": 47315,
      "geometry": "POINT (-95.639797 30.088844)",
      "poi_name": "Harris County Smokehouse",
      "osm_id": 3321060314,
      "amenity": "restaurant",
      "addr_state": "TX",
      "addr_city": "Tomball",
      "value": 352.6729653198274
    },
    {
      "id": 52599,
      "geometry": "POINT (-95.487728 29.69678)",
      "poi_name": "Parrilla Colombiana",
      "osm_id": 10038226598,
      "amenity": "restaurant",
      "cuisine": "colombian",
      "opening_hours": "Mo-Su 09:00-18:00",
      "website": "https://parrilla-colombiana.business.site",
      "phone": "+1-713-666-0330",
      "addr_state": "TX",
      "addr_city": "Houston",
      "addr_postcode": "77081",
      "addr_street": "Bissonnet Street",
      "addr_housenumber": "6053",
      "value": 352.6729653198274
    },
    {
      "id": 47838,
      "geometry": "POINT (-95.63313 29.601696)",
      "poi_name": "Denny's",
      "osm_id": 3353142754,
      "amenity": "restaurant",
      "cuisine": "american",
      "wheelchair": "yes",
      "opening_hours": "24/7",
      "website": "https://locations.dennys.com/TX/SUGAR-LAND/247689",
      "phone": "+1 281 240 0327",
      "addr_city": "Sugar Land",
      "addr_postcode": "77478",
      "addr_street": "State Highway 6",
      "addr_housenumber": "1422",
      "value": 352.6729653198274
    },
    {
      "id": 52600,
      "geometry": "POINT (-95.487726 29.697134)",
      "poi_name": "La Sultana Panaderia y Pupuseria",
      "osm_id": 10038226601,
      "amenity": "restaurant",
      "cuisine": "salvadoran",
      "opening_hours": "Mo-Su 07:30-21:00",
      "website": "https://la-sultana.com/",
      "phone": "+1-713-271-4703",
      "addr_state": "TX",
      "addr_city": "Houston",
      "addr_postcode": "77081",
      "addr_street": "Bissonnet Street",
      "addr_housenumber": "6055",
      "value": 352.6729653198274
    },
    {
      "id": 52604,
      "geometry": "POINT (-95.494273 29.71316)",
      "poi_name": "The Afghan Village Resturant",
      "osm_id": 10038303817,
      "amenity": "restaurant",
      "cuisine": "afghan",
      "opening_hours": "Mo-Su 11:00-22:00",
      "website": "https://www.theafghanvillage.com",
      "phone": "+1-713-808-9005",
      "addr_state": "TX",
      "addr_city": "Houston",
      "addr_postcode": "77081",
      "addr_street": "Hillcroft Avenue",
      "addr_housenumber": "6413",
      "value": 352.6729653198274
    },
    {
      "id": 52605,
      "geometry": "POINT (-95.49418 29.7131)",
      "poi_name": "Buffet de Pupusas",
      "osm_id": 10038303818,
      "amenity": "restaurant",
      "cuisine": "salvadoran",
      "website": "http://salvadoreankitchentx.com",
      "phone": "+1-346-980-7679",
      "addr_state": "TX",
      "addr_city": "Houston",
      "addr_postcode": "77081",
      "addr_street": "Hillcroft Avenue",
      "addr_housenumber": "6451",
      "value": 352.6729653198274
    },
    {
      "id": 52606,
      "geometry": "POINT (-95.495242 29.713905)",
      "poi_name": "Chatt 'N Paan",
      "osm_id": 10038303837,
      "amenity": "restaurant",
      "cuisine": "indian",
      "opening_hours": "Mo-Su 08:00-02:00",
      "addr_state": "TX",
      "addr_city": "Houston",
      "addr_postcode": "77081",
      "addr_street": "Hillcroft Avenue",
      "addr_housenumber": "6121",
      "value": 352.6729653198274
    },
    {
      "id": 52607,
      "geometry": "POINT (-95.495116 29.714001)",
      "poi_name": "Momo House",
      "osm_id": 10038303838,
      "amenity": "restaurant",
      "cuisine": "nepalese",
      "opening_hours": "Tu-Su 11:00-22:00",
      "website": "https://website-4802499066946929553169-nepaleserestaurant.business.site",
      "phone": "+1-713-505-1300",
      "addr_state": "TX",
      "addr_city": "Houston",
      "addr_postcode": "77081",
      "addr_street": "Hillcroft Street",
      "addr_housenumber": "6121",
      "value": 352.6729653198274
    },
    {
      "id": 54673,
      "geometry": "POINT (-95.499657 29.751459)",
      "poi_name": "Piola",
      "osm_id": 10146757575,
      "amenity": "restaurant",
      "cuisine": "pizza",
      "opening_hours": "Mo-We 16:30-20:30,Th 16:30-21:00,Fr-Sa 11:30-22:00,Su 12:00-21:00",
      "website": "https://piolausa.com/locations-houston-memorial-tx/",
      "phone": "+1-832-668-5436",
      "addr_state": "TX",
      "addr_city": "Houston",
      "addr_postcode": "77057",
      "addr_street": "South Voss Road",
      "addr_housenumber": "1415",
      "value": 352.6729653198274
    },
    {
      "id": 54164,
      "geometry": "POINT (-95.505467 29.707043)",
      "poi_name": "Cafe Hababi",
      "osm_id": 10119610673,
      "amenity": "restaurant",
      "cuisine": "pakistani",
      "opening_hours": "Mo-Sa 10:00-14:00",
      "website": "http://www.cafehabibi.com",
      "phone": "+1-832-366-6645",
      "addr_state": "TX",
      "addr_city": "Houston",
      "addr_postcode": "77074",
      "addr_street": "Bintliff Drive",
      "addr_housenumber": "6802",
      "value": 352.6729653198274
    },
    {
      "id": 52843,
      "geometry": "POINT (-95.462828 29.66659)",
      "poi_name": "168 Szechuan",
      "osm_id": 10050018053,
      "amenity": "restaurant",
      "cuisine": "chinese",
      "opening_hours": "Tu-Th 10:30-21:00; Fr-Sa 10:30-22:00; Su 12:00-21:00",
      "website": "https://www.168szechuanrestaurant.com",
      "phone": "+1-712-283-1688",
      "takeaway": "yes",
      "addr_state": "TX",
      "addr_city": "Houston",
      "addr_postcode": "77035",
      "addr_street": "South Post Oak Road",
      "addr_housenumber": "10535",
      "value": 352.6729653198274
    },
    {
      "id": 53785,
      "geometry": "POINT (-95.463989 29.732713)",
      "poi_name": "H.S. Green",
      "osm_id": 10096281223,
      "amenity": "restaurant",
      "opening_hours": "Mo-Fr 11:00-21:00; Sa 11:00-19:30; Su off",
      "website": "https://hsgreen.menu/menus",
      "phone": "+1-713-904-3547",
      "addr_state": "TX",
      "addr_city": "Houston",
      "addr_postcode": "77056",
      "addr_street": "Richmond Avenue",
      "addr_housenumber": "5092",
      "value": 352.6729653198274
    },
    {
      "id": 58304,
      "geometry": "POINT (-95.558799 29.783386)",
      "poi_name": "Antony's Deli",
      "osm_id": 5370490567,
      "amenity": "restaurant",
      "phone": "+1-713-365-0500",
      "addr_state": "TX",
      "addr_city": "Houston",
      "addr_postcode": "77024",
      "addr_street": "Katy Freeway Frontage Road",
      "addr_housenumber": "10523",
      "value": 352.6729653198274
    },
    {
      "id": 58306,
      "geometry": "POINT (-95.534658 29.783418)",
      "poi_name": "Guadalajara Hacienda",
      "osm_id": 5370490581,
      "amenity": "restaurant",
      "cuisine": "mexican",
      "website": "https://guadalajarahacienda.com/",
      "phone": "+1-713-461-5300",
      "addr_state": "TX",
      "addr_city": "Houston",
      "addr_postcode": "77024",
      "addr_street": "Katy Freeway",
      "addr_housenumber": "9799",
      "value": 352.6729653198274
    },
    {
      "id": 58310,
      "geometry": "POINT (-95.53708 29.785492)",
      "poi_name": "The Egg & I",
      "osm_id": 5370659673,
      "amenity": "restaurant",
      "addr_state": "TX",
      "addr_city": "Houston",
      "addr_street": "Katy Freeway",
      "addr_housenumber": "9778",
      "value": 352.6729653198274
    },
    {
      "id": 58378,
      "geometry": "POINT (-95.635665 29.902333)",
      "poi_name": "China Inn Caf\u00e9",
      "osm_id": 5372649212,
      "amenity": "restaurant",
      "cuisine": "chinese",
      "opening_hours": "Mo-Su 10:30-21:30; Fr,Sa 10:30-22:00",
      "website": "https://www.chinainncafehoustontx.com/",
      "addr_city": "Houston",
      "addr_postcode": "77095",
      "addr_street": "North Highway 6",
      "addr_housenumber": "8475",
      "value": 352.6729653198274
    },
    {
      "id": 60401,
      "geometry": "POINT (-95.504677 29.928664)",
      "poi_name": "Rosa's Pupuseria & Taqueria",
      "osm_id": 5462330387,
      "amenity": "restaurant",
      "addr_state": "TX",
      "addr_city": "Houston",
      "addr_street": "Tomball Parkway",
      "addr_housenumber": "14750",
      "value": 352.6729653198274
    },
    {
      "id": 60402,
      "geometry": "POINT (-95.50485 29.92878)",
      "poi_name": "Pho Bien Hoa",
      "osm_id": 5462330388,
      "amenity": "restaurant",
      "cuisine": "vietnamese",
      "addr_state": "TX",
      "addr_city": "Houston",
      "addr_street": "Tomball Parkway",
      "addr_housenumber": "14760",
      "value": 352.6729653198274
    },
    {
      "id": 62779,
      "geometry": "POINT (-95.53126 29.689365)",
      "poi_name": "Peking Cuisine Chinese Restaurant",
      "osm_id": 5586585870,
      "amenity": "restaurant",
      "cuisine": "chinese;peking",
      "opening_hours": "Mo-Sa 11:00-21:00; Su 11:00-15:00,16:30-21:00",
      "outdoor_seating": "no",
      "delivery": "no",
      "addr_state": "TX",
      "addr_city": "Houston",
      "addr_postcode": "77074",
      "addr_street": "Southwest Freeway Frontage Road",
      "addr_housenumber": "8332",
      "value": 352.6729653198274
    },
    {
      "id": 62780,
      "geometry": "POINT (-95.531319 29.689292)",
      "poi_name": "Pho Binh 59 South",
      "osm_id": 5586606465,
      "amenity": "restaurant",
      "cuisine": "vietnamese;pho",
      "opening_hours": "Mo-Sa 10:00-20:00; Su 10:00-16:00",
      "addr_state": "TX",
      "addr_city": "Houston",
      "addr_postcode": "77054",
      "addr_street": "Southwest Freeway Frontage Road",
      "addr_housenumber": "8336",
      "value": 352.6729653198274
    },
    {
      "id": 62781,
      "geometry": "POINT (-95.531396 29.689191)",
      "poi_name": "Maharaja Bhog",
      "osm_id": 5586606466,
      "amenity": "restaurant",
      "cuisine": "indian",
      "opening_hours": "We-Su 11:30-15:00, 18:00-21:30; Tu off",
      "addr_state": "TX",
      "addr_city": "Houston",
      "addr_postcode": "77074",
      "addr_street": "Southwest Freeway Frontage Road",
      "addr_housenumber": "8338",
      "value": 352.6729653198274
    },
    {
      "id": 66491,
      "geometry": "POINT (-95.544845 29.957092)",
      "poi_name": "Boudreaux's Cajun Kitchen",
      "osm_id": 11196586172,
      "amenity": "restaurant",
      "cuisine": "cajun",
      "addr_state": "TX",
      "addr_city": "Houston",
      "addr_street": "Tomball Parkway",
      "addr_housenumber": "17595",
      "value": 352.6729653198274
    },
    {
      "id": 67066,
      "geometry": "POINT (-95.48554 29.833693)",
      "poi_name": "Torogoz Salvadorian Kitchen",
      "osm_id": 11221713156,
      "amenity": "restaurant",
      "cuisine": "salvadoran",
      "opening_hours": "Mo-Su 08:00-20:00",
      "website": "https://torogozsalvadoriankitchen.com",
      "phone": "+1-713-688-5993",
      "addr_state": "TX",
      "addr_city": "Houston",
      "addr_postcode": "77092",
      "addr_street": "West 43rd Street",
      "addr_housenumber": "6440",
      "value": 352.6729653198274
    },
    {
      "id": 67252,
      "geometry": "POINT (-95.612628 29.704228)",
      "poi_name": "Clay Pot Kitchen - C\u01a1m Ni\u00eau Houston",
      "osm_id": 11230243830,
      "amenity": "restaurant",
      "cuisine": "vietnamese",
      "phone": "+1 979 709 4599",
      "addr_state": "TX",
      "addr_city": "Houston",
      "addr_postcode": "77072",
      "addr_street": "Bellaire Blvd",
      "addr_housenumber": "13080",
      "value": 352.6729653198274
    },
    {
      "id": 72527,
      "geometry": "POINT (-95.626039 29.755671)",
      "poi_name": "Salata",
      "osm_id": 11430373595,
      "amenity": "restaurant",
      "cuisine": "salad",
      "opening_hours": "Mo-Sa 11:00-21:00; Su 11:00-17:00",
      "website": "https://www.salata.com",
      "phone": "+1-713-766-2480",
      "addr_state": "TX",
      "addr_city": "Houston",
      "addr_postcode": "77077",
      "addr_street": "Briar Forest Drive",
      "addr_housenumber": "13410",
      "value": 352.6729653198274
    },
    {
      "id": 72528,
      "geometry": "POINT (-95.626048 29.756021)",
      "poi_name": "Teriyaki Madness",
      "osm_id": 11430373598,
      "amenity": "restaurant",
      "opening_hours": "Mo-Su 11:00-21:00",
      "website": "https://teriyakimadness.com/locations/parkway-village/",
      "phone": "+1-832-877-3377",
      "addr_state": "TX",
      "addr_city": "Houston",
      "addr_postcode": "77077",
      "addr_street": "Briar Forest Drive",
      "addr_housenumber": "13410",
      "value": 352.6729653198274
    },
    {
      "id": 73170,
      "geometry": "POINT (-95.536176 29.738515)",
      "poi_name": "Blaze Pizza",
      "osm_id": 9611895943,
      "amenity": "restaurant",
      "cuisine": "pizza",
      "opening_hours": "Su-We 11:00-21:00, Th-Sa 11:00-22:00",
      "website": "http://www.blazepizza.com/locations/houston-woodlake-square/",
      "phone": "+1-713-893-1314",
      "addr_state": "TX",
      "addr_city": "Houston",
      "addr_postcode": "77063",
      "addr_street": "Westheimer Road",
      "addr_housenumber": "9650",
      "value": 352.6729653198274
    },
    {
      "id": 74232,
      "geometry": "POINT (-95.55623 29.707054)",
      "poi_name": "Yantze Restaurant",
      "osm_id": 9671176434,
      "amenity": "restaurant",
      "cuisine": "chinese",
      "opening_hours": "We-Mo 10:30-21:00",
      "website": "http://yantzerestaurant.com/",
      "phone": "+1-713-771-7731",
      "addr_state": "TX",
      "addr_city": "Houston",
      "addr_postcode": "77072",
      "addr_street": "West Sam Houston Parkway South",
      "addr_housenumber": "6601",
      "value": 352.6729653198274
    },
    {
      "id": 74233,
      "geometry": "POINT (-95.556247 29.706826)",
      "poi_name": "Handam BBQ",
      "osm_id": 9671179415,
      "amenity": "restaurant",
      "cuisine": "korean",
      "opening_hours": "Tu-Fr 11:30-15:00, 16:00-22:00; Sa 12:00-23:00; Su 12:00-22:00",
      "website": "http://www.handambbq.com/",
      "phone": "+1-346-261-1500",
      "addr_state": "TX",
      "addr_city": "Houston",
      "addr_postcode": "77072",
      "addr_street": "West Sam Houston Parkway South",
      "addr_housenumber": "6609",
      "value": 352.6729653198274
    },
    {
      "id": 73448,
      "geometry": "POINT (-95.523432 29.807236)",
      "poi_name": "Simply Greek",
      "osm_id": 9634052050,
      "amenity": "restaurant",
      "cuisine": "greek",
      "opening_hours": "Mo-We 10:30-20:00, Th-Sa 10:30-21:00, Su 11:00-20:00",
      "addr_state": "TX",
      "addr_city": "Houston",
      "addr_postcode": "77080",
      "addr_street": "Blalock Road",
      "addr_housenumber": "1900",
      "value": 352.6729653198274
    },
    {
      "id": 74694,
      "geometry": "POINT (-95.531577 29.728541)",
      "poi_name": "Dodo's Chicken",
      "osm_id": 9692061467,
      "amenity": "restaurant",
      "cuisine": "colombian",
      "opening_hours": "Mo-Th 11:00-21:00; Fr-Sa 11:00-22:00; Su 11:00-21:00",
      "website": "https://dodoschicken.net",
      "phone": "+1-713-789-3636",
      "addr_state": "TX",
      "addr_city": "Houston",
      "addr_postcode": "77063",
      "addr_street": "Richmond Avenue",
      "addr_housenumber": "9431",
      "value": 352.6729653198274
    },
    {
      "id": 75657,
      "geometry": "POINT (-95.61588 30.096535)",
      "poi_name": "Market Street Cafe",
      "osm_id": 9739904147,
      "amenity": "restaurant",
      "cuisine": "american;sandwich;tex-mex",
      "wheelchair": "yes",
      "opening_hours": "Mo-Tu 11:00-16:00; Th-Sa 11:00-20:00; Su 11:00-15:30; PH closed",
      "takeaway": "yes",
      "outdoor_seating": "yes",
      "toilets": "yes",
      "addr_state": "TX",
      "addr_city": "Tomball",
      "addr_street": "Market Street",
      "addr_housenumber": "302",
      "value": 352.6729653198274
    },
    {
      "id": 76193,
      "geometry": "POINT (-95.492973 29.802259)",
      "poi_name": "Feges Barbecue",
      "osm_id": 9764475658,
      "amenity": "restaurant",
      "addr_state": "TX",
      "addr_city": "Houston",
      "addr_street": "Long Point Road",
      "addr_housenumber": "8217",
      "value": 352.6729653198274
    },
    {
      "id": 75643,
      "geometry": "POINT (-95.500502 29.718514)",
      "poi_name": "Bijan Persian Grill",
      "osm_id": 9738878877,
      "amenity": "restaurant",
      "cuisine": "persian",
      "opening_hours": "Su-Th 11:00-22:00; Fr,Sa 11:00-23:00",
      "website": "http://restaurantbijan.com",
      "phone": "+1-832-242-1500",
      "addr_state": "TX",
      "addr_city": "Houston",
      "addr_postcode": "77036",
      "addr_street": "Hillcroft Avenue",
      "addr_housenumber": "5922",
      "value": 352.6729653198274
    },
    {
      "id": 76194,
      "geometry": "POINT (-95.492131 29.802262)",
      "poi_name": "Shoot The Moon",
      "osm_id": 9764475660,
      "amenity": "restaurant",
      "addr_state": "TX",
      "addr_city": "Houston",
      "addr_street": "Long Point Road",
      "addr_housenumber": "8155",
      "value": 352.6729653198274
    },
    {
      "id": 89256,
      "geometry": "POINT (-95.501622 29.721488)",
      "poi_name": "Bismillah Restaurant & Cafe",
      "osm_id": 8833927184,
      "amenity": "restaurant",
      "cuisine": "american;pakistani",
      "opening_hours": "Tu-Su 11:00-21:00",
      "website": "https://www.bismillahrestaurant.com/",
      "phone": "+1-713-587-9300",
      "addr_state": "TX",
      "addr_city": "Houston",
      "addr_postcode": "77036",
      "addr_street": "Hillcroft Avenue",
      "addr_housenumber": "5696",
      "value": 352.6729653198274
    },
    {
      "id": 89266,
      "geometry": "POINT (-95.50142 29.720563)",
      "poi_name": "Busy Boy",
      "osm_id": 8834097339,
      "amenity": "restaurant",
      "cuisine": "mediterranean",
      "opening_hours": "Mo-Th 10:00-21:30; Fr 10:00-22:30; Sa 11:30-22:30; Su 11:30-21:30",
      "website": "http://www.busyboysubs.com/",
      "phone": "+1-713-783-1188",
      "addr_state": "TX",
      "addr_city": "Houston",
      "addr_postcode": "77036",
      "addr_street": "Hillcroft Avenue",
      "addr_housenumber": "5722",
      "value": 352.6729653198274
    },
    {
      "id": 89267,
      "geometry": "POINT (-95.501619 29.720732)",
      "poi_name": "Reza Persian Grill",
      "osm_id": 8834097340,
      "amenity": "restaurant",
      "cuisine": "persian",
      "opening_hours": "Mo-Th 11:00-22:00; Fr-Sa 11:00-23:00; Sa 12:00-22:00",
      "website": "https://rezagrill.com/",
      "phone": "+1-832-804-6160",
      "addr_state": "TX",
      "addr_city": "Houston",
      "addr_postcode": "77036",
      "addr_street": "Hillcroft Avenue",
      "addr_housenumber": "5714",
      "value": 352.6729653198274
    },
    {
      "id": 89279,
      "geometry": "POINT (-95.501621 29.721434)",
      "poi_name": "Halal Wok",
      "osm_id": 8836347089,
      "amenity": "restaurant",
      "cuisine": "chinese;american",
      "opening_hours": "Mo-Su 11:00-22:00",
      "website": "https://halalwok.net/",
      "phone": "+1-713-954-9595",
      "addr_state": "TX",
      "addr_city": "Houston",
      "addr_postcode": "77036",
      "addr_street": "Hillcroft Avenue",
      "addr_housenumber": "5680",
      "value": 352.6729653198274
    },
    {
      "id": 89280,
      "geometry": "POINT (-95.501624 29.721794)",
      "poi_name": "Kandahari",
      "osm_id": 8836347091,
      "amenity": "restaurant",
      "cuisine": "afghan",
      "opening_hours": "Mo-Th 11:00-22:00; Su 11:00-22:00; Fr-Sa 11:00-23:00",
      "website": "https://kandahari-karahi-n-kababs.business.site/",
      "phone": "+1-281-501-2883",
      "addr_state": "TX",
      "addr_city": "Houston",
      "addr_postcode": "77036",
      "addr_street": "Hillcroft Avenue",
      "addr_housenumber": "5626",
      "value": 352.6729653198274
    },
    {
      "id": 89281,
      "geometry": "POINT (-95.501688 29.721906)",
      "poi_name": "Darband Shishkabob",
      "osm_id": 8836347092,
      "amenity": "restaurant",
      "cuisine": "persian",
      "opening_hours": "Mo-Fr 11:00-22:00; Sa-Su 9:00-22:00",
      "website": "https://www.darbandshishkabob.com/",
      "phone": "+1-713-975-8350",
      "addr_state": "TX",
      "addr_city": "Houston",
      "addr_postcode": "77036",
      "addr_street": "Hillcroft Avenue",
      "addr_housenumber": "5670",
      "value": 352.6729653198274
    },
    {
      "id": 89282,
      "geometry": "POINT (-95.501341 29.721951)",
      "poi_name": "Kabul Cuisine",
      "osm_id": 8836347093,
      "amenity": "restaurant",
      "cuisine": "afghan",
      "opening_hours": "Mo-Th 11:00-22:00; Fr-Sa 11:00-23:00; Su 11:00-22:00",
      "website": "https://www.kabulcuisinehtx.com/",
      "phone": "+1-346-718-2925",
      "addr_state": "TX",
      "addr_city": "Houston",
      "addr_postcode": "77036",
      "addr_street": "Hillcroft Avenue",
      "addr_housenumber": "5600",
      "value": 352.6729653198274
    },
    {
      "id": 91620,
      "geometry": "POINT (-95.581884 29.997097)",
      "poi_name": "First Watch",
      "osm_id": 2078313881,
      "amenity": "restaurant",
      "cuisine": "american;breakfast",
      "opening_hours": "Mo-Su 07:00-14:30",
      "website": "https://www.firstwatch.com/locations/lakewood-forest",
      "official_name": "First Watch The Daytime Cafe",
      "addr_state": "TX",
      "addr_postcode": "77070",
      "addr_street": "Tomball Parkway",
      "addr_housenumber": "21143",
      "value": 352.6729653198274
    },
    {
      "id": 89720,
      "geometry": "POINT (-95.500648 29.721302)",
      "poi_name": "Shri Balaji Bhavan",
      "osm_id": 8857472527,
      "amenity": "restaurant",
      "cuisine": "indian",
      "opening_hours": "Mo 11:00-21:00; We-Su 11:00-21:00",
      "website": "https://www.grubhub.com/restaurant/shri-balaji-bhavan-5655-hillcroft-st-houston/2035306",
      "phone": "+1-713-783-1126",
      "addr_state": "TX",
      "addr_city": "Houston",
      "addr_postcode": "77036",
      "addr_street": "Hillcroft Avenue",
      "addr_housenumber": "5655",
      "value": 352.6729653198274
    },
    {
      "id": 94883,
      "geometry": "POINT (-95.526805 29.782125)",
      "poi_name": "La Fiesta Restaurant & Cantina",
      "osm_id": 6378197935,
      "amenity": "restaurant",
      "cuisine": "tex-mex",
      "website": "https://lafiestahouston.com/",
      "phone": "+1-713-468-5900",
      "addr_state": "TX",
      "addr_city": "Houston",
      "addr_postcode": "77024",
      "addr_street": "Katy Freeway",
      "addr_housenumber": "9427",
      "value": 352.6729653198274
    },
    {
      "id": 102092,
      "geometry": "POINT (-95.582683 29.549863)",
      "poi_name": "Sake Asian Fusion",
      "osm_id": 6655586323,
      "amenity": "restaurant",
      "cuisine": "asian",
      "addr_state": "TX",
      "addr_city": "Sugar Land",
      "addr_postcode": "77479",
      "addr_street": "University Boulevard",
      "addr_housenumber": "18921",
      "value": 352.6729653198274
    },
    {
      "id": 96930,
      "geometry": "POINT (-95.77893 29.776386)",
      "poi_name": "Sanskar Maharashtrian Veg Cuisine",
      "osm_id": 6452485727,
      "amenity": "restaurant",
      "cuisine": "indian;marathi;maharashtrian;thali",
      "opening_hours": "We-Mo 12:00-15:00, 17:30-21:00",
      "website": "http://www.sanskarllc.com/",
      "takeaway": "yes",
      "outdoor_seating": "no",
      "addr_state": "TX",
      "addr_city": "Katy",
      "addr_postcode": "77494",
      "addr_street": "West Grand Parkway South Frontage Road",
      "addr_housenumber": "406",
      "value": 352.6729653198274
    },
    {
      "id": 97050,
      "geometry": "POINT (-95.455069 29.747776)",
      "poi_name": "Antone's",
      "osm_id": 6458612618,
      "amenity": "restaurant",
      "cuisine": "sandwich",
      "addr_state": "TX",
      "addr_city": "Houston",
      "addr_postcode": "77027",
      "addr_street": "San Felipe Street",
      "addr_housenumber": "4520",
      "value": 352.6729653198274
    },
    {
      "id": 102051,
      "geometry": "POINT (-95.486506 29.747453)",
      "poi_name": "Craft Pita",
      "osm_id": 6654320566,
      "amenity": "restaurant",
      "phone": "+1-832-804-9056",
      "addr_state": "TX",
      "addr_city": "Houston",
      "addr_postcode": "77057",
      "addr_street": "Fountain View Drive",
      "addr_housenumber": "1920",
      "value": 352.6729653198274
    },
    {
      "id": 102377,
      "geometry": "POINT (-95.453776 29.741707)",
      "poi_name": "Bisou",
      "osm_id": 6680417816,
      "amenity": "restaurant",
      "website": "https://bisourestaurant.com/",
      "addr_state": "TX",
      "addr_city": "Houston",
      "addr_postcode": "77027",
      "addr_street": "Westheimer Road",
      "addr_housenumber": "4444",
      "value": 352.6729653198274
    },
    {
      "id": 103318,
      "geometry": "POINT (-95.564595 29.947112)",
      "poi_name": "Celaya's Mexican Restaurant",
      "osm_id": 8495282812,
      "amenity": "restaurant",
      "cuisine": "mexican",
      "addr_state": "TX",
      "addr_city": "Houston",
      "addr_street": "Perry Road",
      "addr_housenumber": "12015",
      "value": 352.6729653198274
    },
    {
      "id": 105010,
      "geometry": "POINT (-95.585829 29.91209)",
      "poi_name": "Grand Hunan Chinese",
      "osm_id": 8596055634,
      "amenity": "restaurant",
      "cuisine": "chinese",
      "addr_state": "TX",
      "addr_city": "Houston",
      "addr_postcode": "77065",
      "addr_street": "Jones Road",
      "addr_housenumber": "9579",
      "value": 352.6729653198274
    },
    {
      "id": 115007,
      "geometry": "POINT (-95.720187 29.78224)",
      "poi_name": "Orient Express",
      "osm_id": 3905564364,
      "amenity": "restaurant",
      "cuisine": "chinese",
      "addr_state": "TX",
      "addr_city": "Katy",
      "addr_street": "Katy Freeway",
      "addr_housenumber": "20039",
      "value": 352.6729653198274
    },
    {
      "id": 115029,
      "geometry": "POINT (-95.723631 29.783438)",
      "poi_name": "E Star Chinese Buffet",
      "osm_id": 3906892037,
      "amenity": "restaurant",
      "addr_state": "TX",
      "addr_city": "Katy",
      "addr_street": "Katy Freeway",
      "addr_housenumber": "20235",
      "value": 352.6729653198274
    },
    {
      "id": 115032,
      "geometry": "POINT (-95.46593 29.73278)",
      "poi_name": "Dimassi's Mediterranean Buffet",
      "osm_id": 3907087151,
      "amenity": "restaurant",
      "cuisine": "greek;buffet",
      "wheelchair": "yes",
      "opening_hours": "Su-Th 11:00-21:00; Fr-Sa 11:00-22:00",
      "website": "https://dimassis.com",
      "phone": "+1-713-439-7481",
      "takeaway": "yes",
      "outdoor_seating": "yes",
      "delivery": "yes",
      "addr_state": "TX",
      "addr_city": "Houston",
      "addr_postcode": "77056",
      "addr_street": "Richmond Avenue",
      "addr_housenumber": "5160",
      "value": 352.6729653198274
    },
    {
      "id": 115343,
      "geometry": "POINT (-95.47457 29.812415)",
      "poi_name": "Jalisco Taqueria",
      "osm_id": 8890038948,
      "amenity": "restaurant",
      "cuisine": "mexican",
      "addr_state": "TX",
      "addr_city": "Houston",
      "addr_street": "Hempstead Road",
      "addr_housenumber": "11208",
      "value": 352.6729653198274
    },
    {
      "id": 117672,
      "geometry": "POINT (-95.494941 29.886339)",
      "poi_name": "Antojitos Mexican Restaurant",
      "osm_id": 9005411136,
      "amenity": "restaurant",
      "opening_hours": "Mo,We 09:00-18:00; Tu-Fr 09:00-21:00; Sa 08:00-21:00; Su 08:00-19:00; PH closed",
      "takeaway": "yes",
      "addr_state": "TX",
      "addr_city": "Houston",
      "addr_postcode": "77040",
      "addr_street": "North Houston Rosslyn Road",
      "addr_housenumber": "9907",
      "value": 352.6729653198274
    },
    {
      "id": 117624,
      "geometry": "POINT (-95.46781 29.82059)",
      "poi_name": "Red Crab Juicy Seafood and Bar",
      "osm_id": 9002676453,
      "amenity": "restaurant",
      "cuisine": "seafood",
      "opening_hours": "Su-Th 12:00-22:00; Fr,Sa 12:00-23:00",
      "addr_state": "TX",
      "addr_city": "Houston",
      "addr_street": "West 34th Street",
      "addr_housenumber": "5370",
      "value": 352.6729653198274
    },
    {
      "id": 117709,
      "geometry": "POINT (-95.485429 29.73699)",
      "poi_name": "Pho Binh",
      "osm_id": 9007346044,
      "amenity": "restaurant",
      "cuisine": "vietnamese",
      "addr_state": "TX",
      "addr_city": "Houston",
      "addr_street": "Westheimer Road",
      "addr_housenumber": "5901",
      "value": 352.6729653198274
    },
    {
      "id": 117710,
      "geometry": "POINT (-95.485001 29.736929)",
      "poi_name": "Zabak's Mediterranean Cafe",
      "osm_id": 9007346047,
      "amenity": "restaurant",
      "cuisine": "mediterranean",
      "addr_state": "TX",
      "addr_city": "Houston",
      "addr_street": "Westheimer Road",
      "addr_housenumber": "5901",
      "value": 352.6729653198274
    },
    {
      "id": 117711,
      "geometry": "POINT (-95.484527 29.736941)",
      "poi_name": "Happy Lamb Hot Pot",
      "osm_id": 9007346048,
      "amenity": "restaurant",
      "cuisine": "asian",
      "addr_state": "TX",
      "addr_city": "Houston",
      "addr_street": "Westheimer Road",
      "addr_housenumber": "5901",
      "value": 352.6729653198274
    },
    {
      "id": 117712,
      "geometry": "POINT (-95.48543 29.737274)",
      "poi_name": "The French House",
      "osm_id": 9007346049,
      "amenity": "restaurant",
      "cuisine": "french",
      "addr_state": "TX",
      "addr_city": "Houston",
      "addr_street": "Westheimer Road",
      "addr_housenumber": "5901",
      "value": 352.6729653198274
    },
    {
      "id": 117714,
      "geometry": "POINT (-95.485323 29.736922)",
      "poi_name": "Fat Crab",
      "osm_id": 9007346057,
      "amenity": "restaurant",
      "cuisine": "seafood",
      "addr_state": "TX",
      "addr_city": "Houston",
      "addr_street": "Westheimer Road",
      "addr_housenumber": "5901",
      "value": 352.6729653198274
    },
    {
      "id": 117715,
      "geometry": "POINT (-95.485096 29.736927)",
      "poi_name": "Takumi-Ichi Ramen",
      "osm_id": 9007346058,
      "amenity": "restaurant",
      "cuisine": "ramen",
      "addr_state": "TX",
      "addr_city": "Houston",
      "addr_street": "Westheimer Road",
      "addr_housenumber": "5901",
      "value": 352.6729653198274
    },
    {
      "id": 117973,
      "geometry": "POINT (-95.587343 29.552782)",
      "poi_name": "V Lotus",
      "osm_id": 9021372879,
      "amenity": "restaurant",
      "cuisine": "vietnamese;noodle",
      "addr_state": "TX",
      "addr_city": "Sugar Land",
      "addr_street": "LJ Parkway",
      "addr_housenumber": "4821",
      "value": 352.6729653198274
    },
    {
      "id": 122098,
      "geometry": "POINT (-95.518113 29.698634)",
      "poi_name": "Salata",
      "osm_id": 6788885215,
      "amenity": "restaurant",
      "cuisine": "salad",
      "addr_state": "TX",
      "addr_city": "Houston",
      "addr_street": "Southwest Freeway",
      "addr_housenumber": "7457",
      "value": 352.6729653198274
    },
    {
      "id": 126432,
      "geometry": "POINT (-95.763992 29.816632)",
      "poi_name": "5 O'Clock Spot Grille",
      "osm_id": 7001535561,
      "amenity": "restaurant",
      "addr_state": "TX",
      "addr_city": "Katy",
      "addr_street": "Morton Ranch Road",
      "addr_housenumber": "22635",
      "value": 352.6729653198274
    },
    {
      "id": 128592,
      "geometry": "POINT (-95.453698 29.743486)",
      "poi_name": "Hopdoddy Burger Bar",
      "osm_id": 8172494955,
      "amenity": "restaurant",
      "cuisine": "burger",
      "website": "https://www.hopdoddy.com/locations/riveroaks",
      "addr_state": "TX",
      "addr_city": "Houston",
      "addr_postcode": "77027",
      "addr_street": "Westheimer Road",
      "addr_housenumber": "4444",
      "value": 352.6729653198274
    },
    {
      "id": 128595,
      "geometry": "POINT (-95.453223 29.741905)",
      "poi_name": "Le Colonial",
      "osm_id": 8172494976,
      "amenity": "restaurant",
      "cuisine": "vietnamese",
      "description": "Le Colonial Houston is a celebration of the seductive spirit and vivid flavors reminiscent of Saigon in the 1920's.",
      "website": "https://www.lecolonialhouston.com/",
      "phone": "+1 713-629-4444",
      "outdoor_seating": "yes",
      "addr_state": "TX",
      "addr_city": "Houston",
      "addr_postcode": "77027",
      "addr_street": "Westheimer Road",
      "addr_housenumber": "4444",
      "value": 352.6729653198274
    },
    {
      "id": 129204,
      "geometry": "POINT (-95.546504 29.82119)",
      "poi_name": "Thai Jin",
      "osm_id": 8223418897,
      "amenity": "restaurant",
      "cuisine": "thai",
      "opening_hours": "Mo-Fr 11:00-20:00; Sa,Su 12:30-20:00",
      "addr_state": "TX",
      "addr_city": "Houston",
      "addr_postcode": "77080",
      "addr_street": "Gessner Road",
      "addr_housenumber": "2753",
      "value": 352.6729653198274
    },
    {
      "id": 132139,
      "geometry": "POINT (-95.506974 29.737153)",
      "poi_name": "Barbar Mediterranean Grill",
      "osm_id": 9943292992,
      "amenity": "restaurant",
      "cuisine": "mediterranean",
      "addr_state": "TX",
      "addr_city": "Houston",
      "addr_postcode": "77063",
      "addr_street": "Westheimer Road",
      "addr_housenumber": "7917",
      "value": 352.6729653198274
    },
    {
      "id": 131790,
      "geometry": "POINT (-95.457137 29.756322)",
      "poi_name": "Urbe",
      "osm_id": 9928422049,
      "amenity": "restaurant",
      "cuisine": "mexican",
      "addr_state": "TX",
      "addr_city": "Houston",
      "addr_postcode": "77056",
      "addr_street": "Uptown Park Boulevard",
      "addr_housenumber": "1101",
      "value": 352.6729653198274
    },
    {
      "id": 132746,
      "geometry": "POINT (-95.522788 30.084905)",
      "poi_name": "Crave",
      "osm_id": 9966524641,
      "amenity": "restaurant",
      "website": "https://iwantcrave.com",
      "phone": "+1-832-698-4932",
      "drive_through": "yes",
      "addr_state": "TX",
      "addr_city": "Spring",
      "addr_postcode": "77389",
      "addr_street": "Spring Stuebner Road",
      "addr_housenumber": "6633",
      "value": 352.6729653198274
    },
    {
      "id": 132367,
      "geometry": "POINT (-95.46476 29.663348)",
      "poi_name": "Per\u00fa Gourmet",
      "osm_id": 9952069488,
      "amenity": "restaurant",
      "cuisine": "peruvian",
      "website": "https://www.peru-gourmet.com/",
      "phone": "+1-281-888-3931",
      "addr_state": "TX",
      "addr_city": "Houston",
      "addr_postcode": "77035",
      "addr_street": "South Post Oak Road",
      "addr_housenumber": "10804",
      "value": 352.6729653198274
    },
    {
      "id": 132747,
      "geometry": "POINT (-95.522857 30.084916)",
      "poi_name": "Ichigo Curry and Ramen",
      "osm_id": 9966524642,
      "amenity": "restaurant",
      "website": "https://ichigocurryramen.kwickmenu.com/index.php",
      "phone": "+1-346-236-6988",
      "addr_state": "TX",
      "addr_city": "Spring",
      "addr_postcode": "77389",
      "addr_street": "Spring Stuebner Road",
      "addr_housenumber": "6633",
      "value": 352.6729653198274
    },
    {
      "id": 132748,
      "geometry": "POINT (-95.523342 30.084959)",
      "poi_name": "Russo's New York Pizzaria",
      "osm_id": 9966524647,
      "amenity": "restaurant",
      "cuisine": "pizza",
      "website": "https://www.nypizzeria.com/locations/grand-parkway-marketplace",
      "phone": "+1-832-761-9900",
      "addr_state": "TX",
      "addr_city": "Spring",
      "addr_postcode": "77389",
      "addr_street": "Spring Stuebner Road",
      "addr_housenumber": "6633",
      "value": 352.6729653198274
    },
    {
      "id": 132902,
      "geometry": "POINT (-95.554986 29.65231)",
      "poi_name": "Star Pizzeria",
      "osm_id": 9970965717,
      "amenity": "restaurant",
      "cuisine": "turkish;pizza",
      "opening_hours": "Mo-Sa 11:00-20:00",
      "website": "https://www.starpizzeriamenu.com/",
      "phone": "+1-281-205-8777",
      "takeaway": "yes",
      "addr_state": "TX",
      "addr_city": "Houston",
      "addr_postcode": "77031",
      "addr_street": "West Bellfort Avenue",
      "addr_housenumber": "10001",
      "value": 352.6729653198274
    },
    {
      "id": 133491,
      "geometry": "POINT (-95.523466 30.087328)",
      "poi_name": "La Madeleine",
      "osm_id": 9995949575,
      "amenity": "restaurant",
      "cuisine": "french",
      "website": "https://lamadeleine.com/locations/spring",
      "phone": "+1-346-298-6390",
      "addr_state": "TX",
      "addr_city": "Spring",
      "addr_postcode": "77389",
      "addr_street": "North Grand Parkway West",
      "addr_housenumber": "6805",
      "value": 352.6729653198274
    },
    {
      "id": 133256,
      "geometry": "POINT (-95.514399 29.72892)",
      "poi_name": "Al Aseel Grill and Cafe",
      "osm_id": 9984226043,
      "amenity": "restaurant",
      "cuisine": "arab",
      "opening_hours": "Mo-Su 10:30-21:30",
      "website": "https://www.alaseelhouston.com/",
      "phone": "+1-713-787-0400",
      "addr_state": "TX",
      "addr_city": "Houston",
      "addr_postcode": "77063",
      "addr_street": "Richmond Avenue",
      "addr_housenumber": "8619",
      "value": 352.6729653198274
    },
    {
      "id": 133492,
      "geometry": "POINT (-95.523181 30.087295)",
      "poi_name": "Outback Steakhouse",
      "osm_id": 9995949576,
      "amenity": "restaurant",
      "cuisine": "american;steak",
      "opening_hours": "Mo-Th 11:00-22:00; Fr-Sa 11:00-24:00; Su 11:00-21:00",
      "website": "https://locations.outback.com/texas/spring/6805-n-grand-parkway",
      "phone": "+1-281-378-2556",
      "addr_state": "TX",
      "addr_city": "Spring",
      "addr_postcode": "77389",
      "addr_street": "North Grand Parkway",
      "addr_housenumber": "6805",
      "value": 352.6729653198274
    },
    {
      "id": 133495,
      "geometry": "POINT (-95.521506 30.088738)",
      "poi_name": "Pho Viet & Grill",
      "osm_id": 9995988644,
      "amenity": "restaurant",
      "cuisine": "vietnamese",
      "phone": "+1-281-547-8285",
      "addr_state": "TX",
      "addr_city": "Spring",
      "addr_postcode": "77389",
      "addr_street": "North Grand Parkway West",
      "addr_housenumber": "6615",
      "value": 352.6729653198274
    },
    {
      "id": 133496,
      "geometry": "POINT (-95.521054 30.088545)",
      "poi_name": "Bloofin Sushi",
      "osm_id": 9995988648,
      "amenity": "restaurant",
      "cuisine": "sushi",
      "website": "https://bloofinsushi.com",
      "phone": "+1-281-651-2573",
      "addr_state": "TX",
      "addr_city": "Spring",
      "addr_postcode": "77389",
      "addr_street": "North Grand Parkway West",
      "addr_housenumber": "6615",
      "value": 352.6729653198274
    },
    {
      "id": 133820,
      "geometry": "POINT (-95.467272 29.737331)",
      "poi_name": "Casa do Brasil",
      "osm_id": 10011652035,
      "amenity": "restaurant",
      "cuisine": "steak_house;brazilian",
      "website": "https://casadobrasil.com/houston/",
      "phone": "+1-713-485-4575",
      "addr_state": "TX",
      "addr_city": "Houston",
      "addr_postcode": "77056",
      "addr_street": "Sage Road",
      "addr_housenumber": "2800",
      "value": 352.6729653198274
    },
    {
      "id": 135196,
      "geometry": "POINT (-95.703556 29.784321)",
      "poi_name": "Dimassi's Mediterranean Buffet",
      "osm_id": 11506982918,
      "amenity": "restaurant",
      "cuisine": "mediterranean",
      "opening_hours": "Su-Th 11:00-21:00; Fr-Sa 11:00-22:00",
      "outdoor_seating": "yes",
      "addr_state": "TX",
      "addr_city": "Houston",
      "addr_postcode": "77094",
      "addr_street": "Katy Freeway",
      "addr_housenumber": "19143",
      "value": 352.6729653198274
    },
    {
      "id": 135714,
      "geometry": "POINT (-95.80081 29.786672)",
      "poi_name": "Michys Chino Boricua",
      "osm_id": 11531747744,
      "amenity": "restaurant",
      "cuisine": "puerto_rican;asian",
      "opening_hours": "Mo-Su 11:00-21:00",
      "website": "https://www.michys.co/",
      "phone": "1-346-387-9571",
      "addr_state": "TX",
      "addr_city": "Katy",
      "addr_street": "Katy Fort Bend Road",
      "addr_housenumber": "806",
      "value": 352.6729653198274
    },
    {
      "id": 135716,
      "geometry": "POINT (-95.703416 29.797954)",
      "poi_name": "Michys Chino Boricua",
      "osm_id": 11531781942,
      "amenity": "restaurant",
      "cuisine": "asian;puerto_rican",
      "opening_hours": "Mo-Su 11:00-21:00",
      "website": "https://www.michys.co/",
      "phone": "1-832-743-1950",
      "addr_state": "TX",
      "addr_city": "Houston",
      "addr_street": "Greenhouse Road",
      "addr_housenumber": "2424",
      "value": 352.6729653198274
    },
    {
      "id": 138455,
      "geometry": "POINT (-95.542902 29.781579)",
      "poi_name": "The Cheesecake Factory",
      "osm_id": 6150443141,
      "amenity": "restaurant",
      "cuisine": "american",
      "opening_hours": "Mo-Th 11:00-23:00; Fr 11:00-24:00; Sa 10:00-24:00; Su 10:00-23:00",
      "website": "https://locations.thecheesecakefactory.com/tx/memorial-city-153.html",
      "phone": "+1-713-932-6344",
      "addr_state": "TX",
      "addr_city": "Houston",
      "addr_postcode": "77024",
      "addr_street": "Memorial City Way",
      "addr_housenumber": "303",
      "value": 352.6729653198274
    },
    {
      "id": 140943,
      "geometry": "POINT (-95.536345 29.965969)",
      "poi_name": "E-Star Buffet",
      "osm_id": 6268243535,
      "amenity": "restaurant",
      "cuisine": "chinese",
      "addr_state": "TX",
      "addr_city": "Houston",
      "addr_street": "Cypress Creek Parkway",
      "addr_housenumber": "7323",
      "value": 352.6729653198274
    },
    {
      "id": 141392,
      "geometry": "POINT (-95.54234 29.964939)",
      "poi_name": "The Catch",
      "osm_id": 6283509795,
      "amenity": "restaurant",
      "cuisine": "seafood",
      "addr_state": "TX",
      "addr_city": "Houston",
      "addr_postcode": "77070",
      "addr_street": "Cypress Creek Parkway",
      "addr_housenumber": "7608B",
      "value": 352.6729653198274
    },
    {
      "id": 141891,
      "geometry": "POINT (-95.513631 29.785255)",
      "poi_name": "Peli Peli Kitchen",
      "osm_id": 6299373587,
      "amenity": "restaurant",
      "cuisine": "south_african",
      "takeaway": "yes",
      "outdoor_seating": "yes",
      "delivery": "yes",
      "addr_state": "TX",
      "addr_city": "Houston",
      "addr_postcode": "77055",
      "addr_street": "Katy Freeway Frontage Road",
      "addr_housenumber": "9090",
      "value": 352.6729653198274
    },
    {
      "id": 146442,
      "geometry": "POINT (-95.813809 29.693744)",
      "poi_name": "Rosati's Pizza",
      "osm_id": 7443443420,
      "amenity": "restaurant",
      "cuisine": "pizza;chicago",
      "opening_hours": "Mo-Su 11:00-22:00",
      "website": "rosatispizza.com",
      "phone": "281-239-7924",
      "addr_state": "TX",
      "addr_city": "Richmond",
      "addr_postcode": "77406",
      "addr_street": "Farm to Market Rd 723",
      "addr_housenumber": "9111",
      "value": 352.6729653198274
    },
    {
      "id": 143143,
      "geometry": "POINT (-95.555869 29.554901)",
      "poi_name": "Billy's Donuts",
      "osm_id": 6329805051,
      "amenity": "restaurant",
      "cuisine": "donut;pastry",
      "opening_hours": "Mo-Fr 04:30-12:00; Sa-Su 04:30-13:00",
      "addr_state": "TX",
      "addr_city": "Missouri City",
      "addr_postcode": "77459",
      "addr_street": "Highway 6",
      "addr_housenumber": "7022",
      "value": 352.6729653198274
    },
    {
      "id": 150464,
      "geometry": "POINT (-95.561257 29.779916)",
      "poi_name": "Yard House",
      "osm_id": 4055619511,
      "amenity": "restaurant",
      "cuisine": "american",
      "opening_hours": "Su-We 11:00-24:00, Th 11:00-01:00, Fr-Sa 11:00-01:30",
      "website": "https://www.yardhouse.com/",
      "phone": "+1-713-461-9273",
      "addr_state": "TX",
      "addr_city": "Houston",
      "addr_postcode": "77024",
      "addr_street": "Sorella Court",
      "addr_housenumber": "800",
      "value": 352.6729653198274
    },
    {
      "id": 154199,
      "geometry": "POINT (-95.542456 29.582896)",
      "poi_name": "Fu Lu Su",
      "osm_id": 4227549153,
      "amenity": "restaurant",
      "cuisine": "thai",
      "addr_state": "TX",
      "addr_city": "Missouri City",
      "addr_postcode": "77459",
      "addr_street": "Cartwright Road",
      "addr_housenumber": "2487",
      "value": 352.6729653198274
    },
    {
      "id": 154202,
      "geometry": "POINT (-95.564554 29.571253)",
      "poi_name": "Old Hickory Inn BBQ",
      "osm_id": 4227549166,
      "amenity": "restaurant",
      "cuisine": "barbecue",
      "addr_state": "TX",
      "addr_city": "Missouri City",
      "addr_postcode": "77459",
      "addr_street": "Murphy Road",
      "addr_housenumber": "3334-400",
      "value": 352.6729653198274
    },
    {
      "id": 154204,
      "geometry": "POINT (-95.579674 29.579177)",
      "poi_name": "Spring Creek Barbeque",
      "osm_id": 4227549179,
      "amenity": "restaurant",
      "cuisine": "barbecue",
      "addr_state": "TX",
      "addr_city": "Missouri City",
      "addr_postcode": "77459",
      "addr_street": "State Highway 6",
      "addr_housenumber": "4895",
      "value": 352.6729653198274
    },
    {
      "id": 154205,
      "geometry": "POINT (-95.580516 29.579732)",
      "poi_name": "Fuzzy's Taco Shop",
      "osm_id": 4227549180,
      "amenity": "restaurant",
      "addr_state": "TX",
      "addr_city": "Missouri City",
      "addr_postcode": "77459",
      "addr_street": "State Highway 6",
      "addr_housenumber": "4875",
      "value": 352.6729653198274
    },
    {
      "id": 154206,
      "geometry": "POINT (-95.582426 29.581953)",
      "poi_name": "Cafe East Chinese Restaurant and Buffet",
      "osm_id": 4227549182,
      "amenity": "restaurant",
      "cuisine": "chinese",
      "addr_state": "TX",
      "addr_city": "Sugar Land",
      "addr_postcode": "77478",
      "addr_street": "State Highway 6",
      "addr_housenumber": "4645",
      "value": 352.6729653198274
    },
    {
      "id": 154207,
      "geometry": "POINT (-95.582667 29.582058)",
      "poi_name": "Saigon Pho & Grill Vietnamese Noodle House",
      "osm_id": 4227549183,
      "amenity": "restaurant",
      "cuisine": "vietnamese",
      "addr_state": "TX",
      "addr_city": "Sugar Land",
      "addr_postcode": "77478",
      "addr_street": "State Highway 6",
      "addr_housenumber": "4645",
      "value": 352.6729653198274
    },
    {
      "id": 154208,
      "geometry": "POINT (-95.586181 29.581141)",
      "poi_name": "Dumar's Mediterranean Grill",
      "osm_id": 4227549186,
      "amenity": "restaurant",
      "cuisine": "mediterranean",
      "addr_state": "TX",
      "addr_city": "Sugar Land",
      "addr_postcode": "77479",
      "addr_street": "State Highway 6",
      "addr_housenumber": "4815",
      "value": 352.6729653198274
    },
    {
      "id": 154209,
      "geometry": "POINT (-95.586382 29.581249)",
      "poi_name": "Casa de Bravos",
      "osm_id": 4227549187,
      "amenity": "restaurant",
      "cuisine": "mexican",
      "addr_state": "TX",
      "addr_city": "Sugar Land",
      "addr_postcode": "77478",
      "addr_street": "State Highway 6",
      "addr_housenumber": "4514",
      "value": 352.6729653198274
    },
    {
      "id": 154214,
      "geometry": "POINT (-95.599061 29.588482)",
      "poi_name": "Luby's",
      "osm_id": 4227595091,
      "amenity": "restaurant",
      "cuisine": "american",
      "addr_state": "TX",
      "addr_city": "Sugar Land",
      "addr_postcode": "77478",
      "addr_street": "State Highway 6",
      "addr_housenumber": "3434",
      "value": 352.6729653198274
    },
    {
      "id": 154216,
      "geometry": "POINT (-95.598302 29.590833)",
      "poi_name": "Pho Ben Noodle House",
      "osm_id": 4227595094,
      "amenity": "restaurant",
      "cuisine": "vietnamese",
      "addr_state": "TX",
      "addr_city": "Sugar Land",
      "addr_postcode": "77478",
      "addr_street": "State Highway 6",
      "addr_housenumber": "3616",
      "value": 352.6729653198274
    },
    {
      "id": 153971,
      "geometry": "POINT (-95.570905 29.653037)",
      "poi_name": "Lopez",
      "osm_id": 4217908307,
      "amenity": "restaurant",
      "cuisine": "mexican",
      "website": "https://vivalopez.com/",
      "phone": "+1-281-495-2436",
      "delivery": "no",
      "addr_state": "TX",
      "addr_city": "Houston",
      "addr_postcode": "77099",
      "addr_street": "S Wilcrest Dr",
      "addr_housenumber": "11606",
      "value": 352.6729653198274
    },
    {
      "id": 154994,
      "geometry": "POINT (-95.598424 29.622778)",
      "poi_name": "Berryhill Tacos Sugarland",
      "osm_id": 4265057550,
      "amenity": "restaurant",
      "cuisine": "mexican",
      "opening_hours": "Mo-Su 09:00-02:00",
      "website": "https://www.berryhillsugarland.com/",
      "phone": "+1 281 313-8226",
      "addr_state": "TX",
      "addr_city": "Sugar Land",
      "addr_postcode": "77478",
      "addr_street": "Southwest Freeway",
      "addr_housenumber": "13703",
      "value": 352.6729653198274
    },
    {
      "id": 155332,
      "geometry": "POINT (-95.683726 29.87882)",
      "poi_name": "Thai Chefs",
      "osm_id": 4281540913,
      "amenity": "restaurant",
      "cuisine": "thai",
      "capacity": "30",
      "takeaway": "yes",
      "delivery": "no",
      "addr_state": "TX",
      "addr_city": "Houston",
      "addr_postcode": "77084",
      "addr_street": "Barker Cypress Road",
      "addr_housenumber": "6965",
      "value": 352.6729653198274
    },
    {
      "id": 155277,
      "geometry": "POINT (-95.720707 29.790644)",
      "poi_name": "Green Garden",
      "osm_id": 4279072991,
      "amenity": "restaurant",
      "cuisine": "asian",
      "capacity": "30",
      "takeaway": "yes",
      "addr_state": "TX",
      "addr_city": "Katy",
      "addr_postcode": "77449",
      "addr_street": "Park Row",
      "addr_housenumber": "19922",
      "value": 352.6729653198274
    },
    {
      "id": 158192,
      "geometry": "POINT (-95.460207 29.74325)",
      "poi_name": "The Honey Hole",
      "osm_id": 4738874886,
      "amenity": "restaurant",
      "addr_state": "TX",
      "addr_city": "Houston",
      "addr_postcode": "77056",
      "addr_street": "Post Oak Boulevard",
      "addr_housenumber": "2327",
      "value": 352.6729653198274
    },
    {
      "id": 158193,
      "geometry": "POINT (-95.462946 29.74112)",
      "poi_name": "Grand Lux Cafe",
      "osm_id": 4738874889,
      "amenity": "restaurant",
      "opening_hours": "Mo-Th 11:00-23:00; Fr 11:00-24:00; Sa 10:00-24:00; Su 10:00-23:00",
      "website": "https://locations.grandluxcafe.com/tx/houston/5",
      "phone": "+1-713-626-1700",
      "outdoor_seating": "yes",
      "addr_state": "TX",
      "addr_city": "Houston",
      "addr_postcode": "77056",
      "addr_street": "Westheimer Road",
      "addr_housenumber": "5000",
      "value": 352.6729653198274
    },
    {
      "id": 164187,
      "geometry": "POINT (-95.812528 29.736705)",
      "poi_name": "Jax Grill",
      "osm_id": 9453939636,
      "amenity": "restaurant",
      "cuisine": "american",
      "website": "https://jaxgrillhouston.com/",
      "phone": "(346) 257-4220",
      "addr_state": "TX",
      "addr_city": "Katy",
      "addr_postcode": "77494",
      "addr_street": "Gaston Road",
      "addr_housenumber": "9910",
      "value": 352.6729653198274
    },
    {
      "id": 160837,
      "geometry": "POINT (-95.462516 29.749858)",
      "poi_name": "True Food Kitchen",
      "osm_id": 4849820121,
      "amenity": "restaurant",
      "cuisine": "american",
      "addr_state": "TX",
      "addr_city": "Houston",
      "addr_postcode": "77056",
      "addr_street": "Post Oak Boulevard",
      "addr_housenumber": "1700",
      "value": 352.6729653198274
    },
    {
      "id": 161302,
      "geometry": "POINT (-95.471557 29.738334)",
      "poi_name": "Ruth's Chris Steak House",
      "osm_id": 4874850024,
      "amenity": "restaurant",
      "cuisine": "american",
      "addr_state": "TX",
      "addr_city": "Houston",
      "addr_postcode": "77056",
      "addr_street": "Westheimer Road",
      "addr_housenumber": "5433",
      "value": 352.6729653198274
    },
    {
      "id": 162406,
      "geometry": "POINT (-95.684476 29.892151)",
      "poi_name": "Hotspot Cajun Seafood House",
      "osm_id": 4930501043,
      "amenity": "restaurant",
      "opening_hours": "Mo-Th 15:00-22:00; Fr-Su 12:00-22:00",
      "website": "https://hotspot-cajun-seafood-house.site123.me/",
      "addr_city": "Cypress",
      "addr_postcode": "77433",
      "addr_street": "Barker Cypress Road",
      "addr_housenumber": "7955",
      "value": 352.6729653198274
    },
    {
      "id": 162408,
      "geometry": "POINT (-95.684246 29.891272)",
      "poi_name": "MaTu Chinese Restaurant",
      "osm_id": 4930501058,
      "amenity": "restaurant",
      "cuisine": "chinese",
      "opening_hours": "Mo-Th 11:00-21:30, Fr-Su 11:00-22:00",
      "phone": "+1-281-225-1166",
      "addr_state": "TX",
      "addr_city": "Cypress",
      "addr_postcode": "77433",
      "addr_street": "Barker Cypress Road",
      "addr_housenumber": "7751",
      "value": 352.6729653198274
    },
    {
      "id": 162409,
      "geometry": "POINT (-95.684238 29.891038)",
      "poi_name": "Top Sushi",
      "osm_id": 4930501060,
      "amenity": "restaurant",
      "cuisine": "sushi",
      "website": "https://topsushibar.com",
      "addr_city": "Cypress",
      "addr_postcode": "77433",
      "addr_street": "Barker Cypress Road",
      "addr_housenumber": "7753",
      "value": 352.6729653198274
    },
    {
      "id": 163952,
      "geometry": "POINT (-95.629234 29.601416)",
      "poi_name": "The Roof",
      "osm_id": 9443601453,
      "amenity": "restaurant",
      "cuisine": "chicken;italian;seafood;steak_house",
      "opening_hours": "We-Th 17:00-22:00; Fr-Sa 17:00-24:00; Su 11:00-16:00",
      "website": "https://theroofonthelake.com/",
      "phone": "+1 281 302 5437",
      "addr_state": "TX",
      "addr_city": "Sugar Land",
      "addr_street": "State Highway 6",
      "addr_housenumber": "1531",
      "value": 352.6729653198274
    },
    {
      "id": 164172,
      "geometry": "POINT (-95.772652 29.78853)",
      "poi_name": "Haidilao Hot Pot",
      "osm_id": 9453905016,
      "amenity": "restaurant",
      "cuisine": "chinese;hotpot",
      "phone": "(832) 802-6666",
      "addr_state": "TX",
      "addr_city": "Katy",
      "addr_postcode": "77449",
      "addr_street": "Grand Circle Boulevard",
      "addr_housenumber": "23220",
      "value": 352.6729653198274
    },
    {
      "id": 164174,
      "geometry": "POINT (-95.773398 29.79254)",
      "poi_name": "Squares Hot Pot",
      "osm_id": 9453939619,
      "amenity": "restaurant",
      "cuisine": "asian",
      "phone": "(281) 665-8297",
      "addr_state": "TX",
      "addr_city": "Katy",
      "addr_postcode": "77449",
      "addr_street": "Colonial Parkway",
      "addr_housenumber": "23119",
      "value": 352.6729653198274
    },
    {
      "id": 169762,
      "geometry": "POINT (-95.469253 29.705123)",
      "poi_name": "Lemongrass Cafe",
      "osm_id": 2318462052,
      "amenity": "restaurant",
      "cuisine": "thai",
      "addr_state": "TX",
      "addr_city": "Bellaire",
      "addr_postcode": "77401",
      "addr_street": "Bellaire Boulevard",
      "addr_housenumber": "5109",
      "value": 352.6729653198274
    },
    {
      "id": 164176,
      "geometry": "POINT (-95.809246 29.773133)",
      "poi_name": "Ferso's Tacos & More",
      "osm_id": 9453939621,
      "amenity": "restaurant",
      "cuisine": "mexican",
      "website": "https://order.fersos.com/",
      "phone": "+1-713-205-1407",
      "addr_state": "TX",
      "addr_city": "Katy",
      "addr_postcode": "77494",
      "addr_street": "Katy Mills Circle",
      "addr_housenumber": "5000",
      "value": 352.6729653198274
    },
    {
      "id": 164185,
      "geometry": "POINT (-95.813149 29.736685)",
      "poi_name": "Crust Pizza Co.",
      "osm_id": 9453939634,
      "amenity": "restaurant",
      "cuisine": "pizza",
      "website": "https://crustpizzaco.com/",
      "phone": "+1-281-769-9920",
      "addr_state": "TX",
      "addr_city": "Katy",
      "addr_postcode": "77494",
      "addr_street": "Gaston Road",
      "addr_housenumber": "9920",
      "value": 352.6729653198274
    },
    {
      "id": 164186,
      "geometry": "POINT (-95.812988 29.737111)",
      "poi_name": "Union Kitchen",
      "osm_id": 9453939635,
      "amenity": "restaurant",
      "cuisine": "regional",
      "website": "https://theunionkitchen.com/",
      "phone": "(281) 665-3007",
      "addr_state": "TX",
      "addr_city": "Katy",
      "addr_postcode": "77494",
      "addr_street": "Gaston Road",
      "addr_housenumber": "9920",
      "value": 352.6729653198274
    },
    {
      "id": 165053,
      "geometry": "POINT (-95.530063 29.729489)",
      "poi_name": "The Castle Lounge",
      "osm_id": 9515200115,
      "amenity": "restaurant",
      "cuisine": "american;creole",
      "opening_hours": "Mo-Su 18:00-26:00",
      "website": "https://thecastlelounge.com/",
      "phone": "+1-832-773-1797",
      "addr_state": "TX",
      "addr_city": "Houston",
      "addr_postcode": "77063",
      "addr_street": "Richmond Avenue",
      "addr_housenumber": "9344",
      "value": 352.6729653198274
    },
    {
      "id": 166444,
      "geometry": "POINT (-95.545829 29.706026)",
      "poi_name": "Tan Tan Restaurant",
      "osm_id": 9593097617,
      "amenity": "restaurant",
      "cuisine": "chinese",
      "website": "https://www.tantanrestaurant.com/",
      "addr_city": "Houston",
      "addr_postcode": "77036",
      "addr_street": "Ranchester Drive",
      "addr_housenumber": "6816",
      "value": 352.6729653198274
    },
    {
      "id": 166367,
      "geometry": "POINT (-95.521769 29.785833)",
      "poi_name": "Pho I-10",
      "osm_id": 9590257017,
      "amenity": "restaurant",
      "cuisine": "vietnamese",
      "addr_state": "TX",
      "addr_city": "Houston",
      "addr_postcode": "77055",
      "addr_street": "Blalock Road",
      "addr_housenumber": "1045",
      "value": 352.6729653198274
    },
    {
      "id": 167404,
      "geometry": "POINT (-95.600417 29.623829)",
      "poi_name": "Pappasito's Cantina",
      "osm_id": 356825930,
      "amenity": "restaurant",
      "cuisine": "tex-mex",
      "addr_state": "TX",
      "addr_city": "Sugar Land",
      "addr_postcode": "77478",
      "addr_street": "Southwest Freeway",
      "addr_housenumber": "13750",
      "value": 352.6729653198274
    },
    {
      "id": 168308,
      "geometry": "POINT (-95.644445 29.933502)",
      "poi_name": "Carl's BBQ",
      "osm_id": 376639923,
      "amenity": "restaurant",
      "cuisine": "barbecue",
      "addr_state": "TX",
      "addr_city": "Cypress",
      "addr_postcode": "77429",
      "addr_street": "Hwy 290 West",
      "addr_housenumber": "21920",
      "value": 352.6729653198274
    },
    {
      "id": 170439,
      "geometry": "POINT (-95.456784 29.740553)",
      "poi_name": "The Grotto",
      "osm_id": 2337129391,
      "amenity": "restaurant",
      "cuisine": "italian",
      "addr_state": "TX",
      "addr_city": "Houston",
      "addr_street": "Westheimer Road",
      "addr_housenumber": "4715",
      "value": 352.6729653198274
    },
    {
      "id": 170694,
      "geometry": "POINT (-95.45989 29.688858)",
      "poi_name": "Escalante's Mexican Grille",
      "osm_id": 2345832882,
      "amenity": "restaurant",
      "cuisine": "mexican",
      "takeaway": "yes",
      "outdoor_seating": "yes",
      "addr_state": "TX",
      "addr_city": "Houston",
      "addr_housenumber": "590",
      "value": 352.6729653198274
    },
    {
      "id": 170695,
      "geometry": "POINT (-95.46056 29.685633)",
      "poi_name": "Caf\u00e9 Express",
      "osm_id": 2345863635,
      "amenity": "restaurant",
      "cuisine": "american",
      "takeaway": "yes",
      "outdoor_seating": "yes",
      "addr_state": "TX",
      "addr_city": "Houston",
      "addr_housenumber": "210",
      "value": 352.6729653198274
    },
    {
      "id": 170696,
      "geometry": "POINT (-95.460311 29.689606)",
      "poi_name": "Fadi's Mediterranean Grill",
      "osm_id": 2345893539,
      "amenity": "restaurant",
      "cuisine": "mediterranean",
      "takeaway": "yes",
      "outdoor_seating": "no",
      "addr_state": "TX",
      "addr_city": "Houston",
      "addr_street": "Beechnut Street",
      "addr_housenumber": "4738",
      "value": 352.6729653198274
    },
    {
      "id": 170785,
      "geometry": "POINT (-95.460173 29.688799)",
      "poi_name": "La Madeline",
      "osm_id": 2349341848,
      "amenity": "restaurant",
      "cuisine": "french",
      "addr_state": "TX",
      "addr_city": "Houston",
      "addr_housenumber": "620",
      "value": 352.6729653198274
    },
    {
      "id": 177750,
      "geometry": "POINT (-95.589476 30.009564)",
      "poi_name": "BreWingz",
      "osm_id": 2604137731,
      "amenity": "restaurant",
      "cuisine": "wings",
      "addr_state": "TX",
      "addr_city": "Houston",
      "addr_street": "Tomball Parkway",
      "addr_housenumber": "22503",
      "value": 352.6729653198274
    },
    {
      "id": 171009,
      "geometry": "POINT (-95.463765 29.663227)",
      "poi_name": "Annie's Hamburgers",
      "osm_id": 2356444426,
      "amenity": "restaurant",
      "cuisine": "burger",
      "takeaway": "yes",
      "outdoor_seating": "no",
      "delivery": "no",
      "addr_state": "TX",
      "addr_city": "Houston",
      "addr_street": "South Post Oak Road",
      "addr_housenumber": "10821",
      "value": 352.6729653198274
    },
    {
      "id": 171012,
      "geometry": "POINT (-95.46519 29.689558)",
      "poi_name": "Gugliani's",
      "osm_id": 2356462301,
      "amenity": "restaurant",
      "cuisine": "italian",
      "addr_state": "TX",
      "addr_city": "Houston",
      "addr_street": "Beechnut Street",
      "addr_housenumber": "4990",
      "value": 352.6729653198274
    },
    {
      "id": 172526,
      "geometry": "POINT (-95.469469 29.705118)",
      "poi_name": "Costa Brava Bistro",
      "osm_id": 2405398627,
      "amenity": "restaurant",
      "addr_state": "TX",
      "addr_city": "Bellaire",
      "addr_postcode": "77401",
      "addr_street": "Bellaire Boulevard",
      "addr_housenumber": "5115",
      "value": 352.6729653198274
    },
    {
      "id": 177752,
      "geometry": "POINT (-95.573264 29.995486)",
      "poi_name": "Salata",
      "osm_id": 2604137936,
      "amenity": "restaurant",
      "addr_state": "TX",
      "addr_city": "Houston",
      "addr_street": "Vintage Park Boulevard",
      "addr_housenumber": "130",
      "value": 352.6729653198274
    },
    {
      "id": 178630,
      "geometry": "POINT (-95.585817 29.704939)",
      "poi_name": "H\u1ea3i C\u1ea3ng",
      "osm_id": 10733242828,
      "amenity": "restaurant",
      "cuisine": "seafood",
      "opening_hours": "Mo-Su 11:00-22:00",
      "internet_access": "no",
      "outdoor_seating": "no",
      "addr_state": "TX",
      "addr_city": "Houston",
      "addr_postcode": "77072",
      "addr_street": "Bellaire Boulevard;\u0110\u1ea1i L\u1ed9 S\u00e0ig\u00f2n",
      "addr_housenumber": "11768",
      "value": 352.6729653198274
    },
    {
      "id": 181562,
      "geometry": "POINT (-95.544963 29.95719)",
      "poi_name": "Hooters",
      "osm_id": 10856202693,
      "amenity": "restaurant",
      "cuisine": "burger",
      "addr_state": "TX",
      "addr_city": "Houston",
      "addr_street": "Tomball Parkway",
      "addr_housenumber": "17599",
      "value": 352.6729653198274
    },
    {
      "id": 182833,
      "geometry": "POINT (-95.767967 29.789046)",
      "poi_name": "Home Run Dugout",
      "osm_id": 10905829940,
      "amenity": "restaurant",
      "cuisine": "american",
      "website": "https://www.homerundugout.com/",
      "phone": "+1-833-384-6881",
      "addr_state": "TX",
      "addr_city": "Katy",
      "addr_postcode": "77449",
      "addr_street": "Grand Boulevard West",
      "addr_housenumber": "1220",
      "value": 352.6729653198274
    },
    {
      "id": 183306,
      "geometry": "POINT (-95.470736 30.07098)",
      "poi_name": "Tic Tac Thai",
      "osm_id": 10924086403,
      "amenity": "restaurant",
      "cuisine": "thai;asian",
      "opening_hours": "Mo-Su 11:00-21:00",
      "website": "https://www.tic-tac-thai.com/",
      "phone": "+1 281-651-2557",
      "addr_state": "TX",
      "addr_city": "Spring",
      "addr_postcode": "77388",
      "addr_street": "FM 2920",
      "addr_housenumber": "3416",
      "value": 352.6729653198274
    },
    {
      "id": 183934,
      "geometry": "POINT (-95.522523 29.737791)",
      "poi_name": "Fuzzy's Pizza",
      "osm_id": 10951172250,
      "amenity": "restaurant",
      "cuisine": "italian",
      "wheelchair": "yes",
      "opening_hours": "Mo,We-Th,Su 11:00-22:00; Tu off; Fr-Sa 11:00-23:00",
      "internet_access": "no",
      "addr_state": "TX",
      "addr_city": "Houston",
      "addr_street": "Westheimer Road",
      "addr_housenumber": "8914",
      "value": 352.6729653198274
    },
    {
      "id": 185679,
      "geometry": "POINT (-95.504185 29.8493)",
      "poi_name": "Crazy Cajun Seafood & Sports",
      "osm_id": 7874722881,
      "amenity": "restaurant",
      "cuisine": "seafood",
      "wheelchair": "yes",
      "opening_hours": "Mo-Fr 11:00-22:00; Sa-Su 12:00-22:00",
      "addr_state": "TX",
      "addr_city": "Houston",
      "addr_street": "Northwest Freeway",
      "addr_housenumber": "13280",
      "value": 352.6729653198274
    },
    {
      "id": 185777,
      "geometry": "POINT (-95.507224 29.866178)",
      "poi_name": "Lime\u00f1os Restaurant",
      "osm_id": 7882728010,
      "amenity": "restaurant",
      "cuisine": "mexican",
      "addr_state": "TX",
      "addr_city": "Houston",
      "addr_street": "West Little York Road",
      "addr_housenumber": "7718",
      "value": 352.6729653198274
    },
    {
      "id": 185877,
      "geometry": "POINT (-95.483863 29.938678)",
      "poi_name": "Com g\u00e1 Thoung Hai Chicken Noodle Soup",
      "osm_id": 7888535415,
      "amenity": "restaurant",
      "cuisine": "vietnamese",
      "addr_state": "TX",
      "addr_city": "Houston",
      "addr_street": "North Sam Houston Parkway West",
      "addr_housenumber": "4010",
      "value": 352.6729653198274
    },
    {
      "id": 186734,
      "geometry": "POINT (-95.473931 29.839503)",
      "poi_name": "Little Casita Mexican Restaurant",
      "osm_id": 7946246340,
      "amenity": "restaurant",
      "cuisine": "mexican",
      "addr_state": "TX",
      "addr_city": "Houston",
      "addr_street": "Antoine Drive",
      "addr_housenumber": "5137",
      "value": 352.6729653198274
    },
    {
      "id": 186305,
      "geometry": "POINT (-95.606584 29.754314)",
      "poi_name": "Ashiana Indian Restaruant",
      "osm_id": 7925067448,
      "amenity": "restaurant",
      "cuisine": "indian",
      "addr_state": "TX",
      "addr_city": "Houston",
      "addr_street": "Briar Forest Drive",
      "addr_housenumber": "12610",
      "value": 352.6729653198274
    },
    {
      "id": 186309,
      "geometry": "POINT (-95.535185 29.785614)",
      "poi_name": "Denny's",
      "osm_id": 7925146572,
      "amenity": "restaurant",
      "cuisine": "american",
      "opening_hours": "24/7",
      "website": "https://locations.dennys.com/TX/HOUSTON/247917?utm_source=yext&utm_medium=local-listing&utm_campaign=yext-listing",
      "phone": "+1-713-722-9264",
      "addr_state": "TX",
      "addr_city": "Houston",
      "addr_street": "Katy Freeway",
      "addr_housenumber": "9766",
      "value": 352.6729653198274
    },
    {
      "id": 190587,
      "geometry": "POINT (-95.475166 29.731196)",
      "poi_name": "Roostar Vietnamese Grill",
      "osm_id": 1305832088,
      "amenity": "restaurant",
      "cuisine": "vietnamese",
      "addr_state": "TX",
      "addr_city": "Houston",
      "addr_street": "Richmond Avenue",
      "addr_housenumber": "5551",
      "value": 352.6729653198274
    },
    {
      "id": 190535,
      "geometry": "POINT (-95.549111 29.766685)",
      "poi_name": "Empire Turkish Grill",
      "osm_id": 1301295031,
      "amenity": "restaurant",
      "cuisine": "turkish",
      "opening_hours": "Mo-Th 11:00-21:00; Fr 11:00-22:00; Sa 12:00-22:00",
      "website": "http://www.empireturkishgrill.com/",
      "phone": "+1-713-827-7475",
      "addr_state": "TX",
      "addr_city": "Houston",
      "addr_postcode": "77024",
      "addr_street": "Memorial Drive",
      "addr_housenumber": "12448",
      "value": 352.6729653198274
    },
    {
      "id": 195313,
      "geometry": "POINT (-95.582894 29.58234)",
      "poi_name": "Saigon Pho and Grill",
      "osm_id": 10300141036,
      "amenity": "restaurant",
      "opening_hours": "Mo-Su 10:00-21:00",
      "website": "https://saigonphongrillvnh.com",
      "phone": "+1-281-491-2988",
      "addr_state": "TX",
      "addr_city": "Sugar Land",
      "addr_postcode": "77478",
      "addr_street": "State Highway 6",
      "addr_housenumber": "4645",
      "value": 352.6729653198274
    },
    {
      "id": 196500,
      "geometry": "POINT (-95.569397 29.702649)",
      "poi_name": "Tony Thai Restaurant",
      "osm_id": 10582824876,
      "amenity": "restaurant",
      "cuisine": "thai",
      "opening_hours": "Mo-Su 11:00-22:00",
      "website": "https://ordertonythai.com/",
      "phone": "+12814951711",
      "addr_state": "TX",
      "addr_city": "Houston",
      "addr_postcode": "77072",
      "addr_street": "Bellaire Boulevard;\u0110\u1ea1i L\u1ed9 S\u00e0ig\u00f2n",
      "addr_housenumber": "10613",
      "value": 352.6729653198274
    },
    {
      "id": 196502,
      "geometry": "POINT (-95.569701 29.703149)",
      "poi_name": "Pho 54",
      "osm_id": 10582824879,
      "amenity": "restaurant",
      "cuisine": "vietnamese",
      "opening_hours": "Mo-Su 09:00-21:00",
      "website": "https://www.pho54houston.com/order/",
      "phone": "+12814951000",
      "addr_state": "TX",
      "addr_city": "Houston",
      "addr_postcode": "77072",
      "addr_street": "Bellaire Boulevard;\u0110\u1ea1i L\u1ed9 S\u00e0ig\u00f2n",
      "addr_housenumber": "10623",
      "value": 352.6729653198274
    },
    {
      "id": 196503,
      "geometry": "POINT (-95.570234 29.703525)",
      "poi_name": "Pho Binh",
      "osm_id": 10582824881,
      "amenity": "restaurant",
      "cuisine": "vietnamese",
      "opening_hours": "Tu-Su 07:30-15:00",
      "website": "https://www.phobinh.com/",
      "phone": "+12815687333",
      "addr_state": "TX",
      "addr_city": "Houston",
      "addr_postcode": "77072",
      "addr_street": "Bellaire Boulevard;\u0110\u1ea1i L\u1ed9 S\u00e0ig\u00f2n",
      "addr_housenumber": "10827",
      "value": 352.6729653198274
    },
    {
      "id": 196505,
      "geometry": "POINT (-95.569055 29.702674)",
      "poi_name": "Nem Houston",
      "osm_id": 10582824883,
      "amenity": "restaurant",
      "cuisine": "vietnamese",
      "opening_hours": "Mo-Su 09:00-19:00",
      "website": "https://nemhouston.com/",
      "phone": "+18322882719",
      "addr_state": "TX",
      "addr_city": "Houston",
      "addr_postcode": "77072",
      "addr_street": "Bellaire Boulevard;\u0110\u1ea1i L\u1ed9 S\u00e0ig\u00f2n",
      "addr_housenumber": "10613",
      "value": 352.6729653198274
    },
    {
      "id": 196506,
      "geometry": "POINT (-95.568763 29.702614)",
      "poi_name": "Kh\u00f4 B\u00f2 S\u1ed1 1 ( Number 1 Beef Jerky)",
      "osm_id": 10582824884,
      "amenity": "restaurant",
      "cuisine": "vietnamese",
      "website": "https://www.number1beefjerky.com/",
      "phone": "+12815307770",
      "addr_state": "TX",
      "addr_city": "Houston",
      "addr_postcode": "77072",
      "addr_street": "Bellaire Boulevard;\u0110\u1ea1i L\u1ed9 S\u00e0ig\u00f2n",
      "addr_housenumber": "10613",
      "value": 352.6729653198274
    },
    {
      "id": 196507,
      "geometry": "POINT (-95.568712 29.702672)",
      "poi_name": "My Baguettes",
      "osm_id": 10582824885,
      "amenity": "restaurant",
      "cuisine": "vietnamese",
      "website": "http://ordermybaguettes.com/",
      "phone": "+18326191193",
      "addr_state": "TX",
      "addr_city": "Houston",
      "addr_postcode": "77072",
      "addr_street": "Bellaire Boulevard;\u0110\u1ea1i L\u1ed9 S\u00e0ig\u00f2n",
      "addr_housenumber": "10613",
      "value": 352.6729653198274
    },
    {
      "id": 196510,
      "geometry": "POINT (-95.568152 29.702878)",
      "poi_name": "Ramen Okidoki & Lims Chicken",
      "osm_id": 10582824888,
      "amenity": "restaurant",
      "cuisine": "japanese;ramen;chicken",
      "website": "http://places.singleplatform.com/ramen-okidoki-0/menu?ref=google",
      "phone": "+12815758077",
      "addr_state": "TX",
      "addr_city": "Houston",
      "addr_postcode": "77072",
      "addr_street": "Bellaire Boulevard;\u0110\u1ea1i L\u1ed9 S\u00e0ig\u00f2n",
      "addr_housenumber": "10603",
      "value": 352.6729653198274
    },
    {
      "id": 196511,
      "geometry": "POINT (-95.568143 29.703095)",
      "poi_name": "Kim Son",
      "osm_id": 10582824889,
      "amenity": "restaurant",
      "cuisine": "vietnamese",
      "website": "https://kimson.com/",
      "phone": "+12815981777",
      "addr_state": "TX",
      "addr_city": "Houston",
      "addr_postcode": "77072",
      "addr_street": "Bellaire Boulevard;\u0110\u1ea1i L\u1ed9 S\u00e0ig\u00f2n",
      "addr_housenumber": "10613",
      "value": 352.6729653198274
    },
    {
      "id": 196512,
      "geometry": "POINT (-95.568156 29.703254)",
      "poi_name": "Mango Mango",
      "osm_id": 10582824890,
      "amenity": "restaurant",
      "cuisine": "dessert",
      "website": "https://order.mealkeyway.com/merchant/514b666543433167317765544941594761634f4754673d3d/main",
      "phone": "+12818093723",
      "addr_state": "TX",
      "addr_city": "Houston",
      "addr_postcode": "77072",
      "addr_street": "Bellaire Boulevard;\u0110\u1ea1i L\u1ed9 S\u00e0ig\u00f2n",
      "addr_housenumber": "10603",
      "value": 352.6729653198274
    },
    {
      "id": 194497,
      "geometry": "POINT (-95.456901 29.80986)",
      "poi_name": "E-Star Asian Buffet",
      "osm_id": 10276554534,
      "amenity": "restaurant",
      "cuisine": "chinese",
      "addr_state": "TX",
      "addr_city": "Houston",
      "addr_street": "Dacoma Street",
      "addr_housenumber": "4526",
      "value": 352.6729653198274
    },
    {
      "id": 196228,
      "geometry": "POINT (-95.502019 29.986117)",
      "poi_name": "Victor's Deli & Restaurant",
      "osm_id": 10569704814,
      "amenity": "restaurant",
      "cuisine": "breakfast",
      "opening_hours": "Mo-Su 07:00-20:00",
      "website": "https://victorsdelihouston.com",
      "phone": "281-586-0570",
      "addr_state": "TX",
      "addr_city": "Houston",
      "addr_postcode": "77069",
      "addr_street": "4710 Farm to Market 1960 Rd W",
      "value": 352.6729653198274
    },
    {
      "id": 203136,
      "geometry": "POINT (-95.461873 29.741869)",
      "poi_name": "Snooze AM",
      "osm_id": 7065167085,
      "amenity": "restaurant",
      "cuisine": "american;breakfast",
      "opening_hours": "Mo-Fr 06:30-14:30; Sa-Su 06:30-16:00; PH closed",
      "internet_access": "wlan",
      "addr_state": "TX",
      "addr_city": "Houston",
      "addr_street": "Westheimer Road",
      "addr_housenumber": "5000",
      "value": 352.6729653198274
    },
    {
      "id": 203280,
      "geometry": "POINT (-95.586931 29.549696)",
      "poi_name": "The Pizza Shack",
      "osm_id": 7075774368,
      "amenity": "restaurant",
      "cuisine": "pizza;italian;mediterranean",
      "addr_state": "TX",
      "addr_city": "Sugar Land",
      "addr_street": "University Boulevard",
      "addr_housenumber": "18721",
      "value": 352.6729653198274
    },
    {
      "id": 203521,
      "geometry": "POINT (-95.462456 29.74336)",
      "poi_name": "Caracol",
      "osm_id": 7090098564,
      "amenity": "restaurant",
      "cuisine": "mexican;seafood",
      "website": "https://www.caracol.net/",
      "phone": "+1-713-622-9996",
      "outdoor_seating": "yes",
      "addr_state": "TX",
      "addr_city": "Houston",
      "addr_postcode": "77056",
      "addr_street": "Post Oak Boulevard",
      "addr_housenumber": "2200",
      "value": 352.6729653198274
    },
    {
      "id": 203522,
      "geometry": "POINT (-95.462282 29.743369)",
      "poi_name": "Cafe Ginger",
      "osm_id": 7090098566,
      "amenity": "restaurant",
      "cuisine": "asian;sushi",
      "website": "https://cafegingeruptown.com/",
      "outdoor_seating": "yes",
      "addr_state": "TX",
      "addr_city": "Houston",
      "addr_postcode": "77056",
      "addr_street": "Post Oak Boulevard",
      "addr_housenumber": "2200",
      "value": 352.6729653198274
    },
    {
      "id": 203523,
      "geometry": "POINT (-95.461461 29.742824)",
      "poi_name": "Moxie's",
      "osm_id": 7090098567,
      "amenity": "restaurant",
      "website": "https://us.moxies.com/restaurant-locations/tx/uptown-houston-post-oak",
      "addr_state": "TX",
      "addr_city": "Houston",
      "addr_street": "Westheimer Road",
      "addr_housenumber": "5000",
      "value": 352.6729653198274
    },
    {
      "id": 209944,
      "geometry": "POINT (-95.646493 29.788534)",
      "poi_name": "Hyderabad House",
      "osm_id": 5067476674,
      "amenity": "restaurant",
      "cuisine": "indian;hyderabadi;biryani",
      "opening_hours": "Tu-Th 11:00-22:00,Fr-Sa 11:00-22:30, Su 09:30-22:00",
      "takeaway": "yes",
      "outdoor_seating": "no",
      "delivery": "no",
      "addr_state": "TX",
      "addr_city": "Houston",
      "addr_postcode": "77084",
      "addr_street": "Park Row",
      "addr_housenumber": "14838",
      "value": 352.6729653198274
    },
    {
      "id": 212168,
      "geometry": "POINT (-95.644985 29.702372)",
      "poi_name": "La Pupusa Loca",
      "osm_id": 5194678936,
      "amenity": "restaurant",
      "cuisine": "latin_american",
      "opening_hours": "Su-Th 09:00-21:30, Fr-Sa 09:00-22:30",
      "website": "https://lapupusaloca.com/",
      "phone": "+1-281-498-0088",
      "addr_state": "TX",
      "addr_city": "Houston",
      "addr_postcode": "77083",
      "addr_street": "HWY6",
      "addr_housenumber": "6810",
      "value": 352.6729653198274
    },
    {
      "id": 210187,
      "geometry": "POINT (-95.562283 30.026378)",
      "poi_name": "Vito's Famous",
      "osm_id": 5084088607,
      "amenity": "restaurant",
      "cuisine": "pizza",
      "addr_state": "TX",
      "addr_city": "Spring",
      "addr_postcode": "77379",
      "addr_street": "Spring Cypress Road",
      "addr_housenumber": "9305",
      "value": 352.6729653198274
    },
    {
      "id": 212169,
      "geometry": "POINT (-95.541565 29.81297)",
      "poi_name": "La Pupusa Loca",
      "osm_id": 5194678937,
      "amenity": "restaurant",
      "cuisine": "latin_american",
      "opening_hours": "Mo-Su 09:00-22:30",
      "website": "https://lapupusaloca.com/",
      "phone": "+1-713-722-0044",
      "addr_state": "TX",
      "addr_city": "Houston",
      "addr_postcode": "77080",
      "addr_street": "Hammerly Boulevard",
      "addr_housenumber": "10112",
      "value": 352.6729653198274
    },
    {
      "id": 212170,
      "geometry": "POINT (-95.528122 29.680357)",
      "poi_name": "La Pupusa Rica",
      "osm_id": 5194678938,
      "amenity": "restaurant",
      "cuisine": "latin_american",
      "opening_hours": "Mo-Th 10:00-21:00, Fr-Sa 09:00-22:00, Su 09:00-21:00",
      "phone": "+1-713-779-0696",
      "addr_state": "TX",
      "addr_city": "Houston",
      "addr_postcode": "77074",
      "addr_street": "South Gessner Drive",
      "addr_housenumber": "9399",
      "value": 352.6729653198274
    },
    {
      "id": 212171,
      "geometry": "POINT (-95.485281 29.803456)",
      "poi_name": "Cocina Latina Pupusa Buffet",
      "osm_id": 5194678940,
      "amenity": "restaurant",
      "cuisine": "latin_american;buffet",
      "opening_hours": "Mo-Su 10:00-21:00",
      "phone": "+1-713-463-4477",
      "addr_state": "TX",
      "addr_city": "Houston",
      "addr_postcode": "77055",
      "addr_street": "Wirt Road",
      "addr_housenumber": "1811",
      "value": 352.6729653198274
    },
    {
      "id": 212481,
      "geometry": "POINT (-95.584076 29.891931)",
      "poi_name": "Willie's Grill and Ice House",
      "osm_id": 5209021464,
      "amenity": "restaurant",
      "opening_hours": "Mo-Th 11:00-22:00; Fr 11:00-23:00; Sa 11:00-23:30; Su 11:00-21:30",
      "website": "https://williesgrillandicehouse.com/",
      "phone": "+1 713 937 0456",
      "outdoor_seating": "yes",
      "addr_state": "TX",
      "addr_city": "Houston",
      "addr_postcode": "77040",
      "addr_street": "Northwest Freeway Frontage Road",
      "addr_housenumber": "17492",
      "value": 352.6729653198274
    },
    {
      "id": 213042,
      "geometry": "POINT (-95.498773 29.987153)",
      "poi_name": "The Crab Station Oyster Bar",
      "osm_id": 5232857921,
      "amenity": "restaurant",
      "cuisine": "seafood",
      "takeaway": "yes",
      "outdoor_seating": "yes",
      "addr_state": "TX",
      "addr_city": "Houston",
      "addr_postcode": "77068",
      "addr_street": "Cypress Creek Parkway",
      "addr_housenumber": "4505",
      "value": 352.6729653198274
    },
    {
      "id": 213047,
      "geometry": "POINT (-95.621754 29.734996)",
      "poi_name": "Gourmet India",
      "osm_id": 5233361457,
      "amenity": "restaurant",
      "cuisine": "indian",
      "opening_hours": "Tu-Th,Su 11:00-14:30,17:30-22:00, Fr-Sa 11:00-15:00,17:30-23:00, Mo 11:00-15:00,17:30-22:00",
      "website": "gourmetindiahoustontx.com",
      "phone": "+1-281-493-5435",
      "addr_state": "TX",
      "addr_city": "Houston",
      "addr_postcode": "77077",
      "addr_street": "Westheimer Road",
      "addr_housenumber": "13155",
      "value": 352.6729653198274
    },
    {
      "id": 213048,
      "geometry": "POINT (-95.500378 29.719035)",
      "poi_name": "Bombay Sweets Inc.",
      "osm_id": 5233433183,
      "amenity": "restaurant",
      "cuisine": "indian",
      "opening_hours": "Mo-Su 10:00-21:30",
      "phone": "+1-713-780-4453",
      "addr_state": "TX",
      "addr_city": "Houston",
      "addr_postcode": "77036",
      "addr_street": "Hillcroft Avenue",
      "addr_housenumber": "5827",
      "value": 352.6729653198274
    },
    {
      "id": 213393,
      "geometry": "POINT (-95.668635 29.86539)",
      "poi_name": "Famous Princess Kitchen \u2013 West African Restaurant",
      "osm_id": 5248219008,
      "amenity": "restaurant",
      "phone": "+1-832-419-5670",
      "addr_state": "TX",
      "addr_city": "Houston",
      "addr_postcode": "77084",
      "addr_street": "West Little York Road",
      "addr_housenumber": "17036",
      "value": 352.6729653198274
    },
    {
      "id": 213348,
      "geometry": "POINT (-95.470934 29.802634)",
      "poi_name": "Vieng Thai",
      "osm_id": 5246605938,
      "amenity": "restaurant",
      "cuisine": "thai",
      "addr_state": "TX",
      "addr_city": "Houston",
      "addr_street": "Long Point Road",
      "addr_housenumber": "6929",
      "value": 352.6729653198274
    },
    {
      "id": 213297,
      "geometry": "POINT (-95.681215 29.935381)",
      "poi_name": "Crazy Cajun Seafood Shoppe",
      "osm_id": 5245838359,
      "amenity": "restaurant",
      "cuisine": "cajun",
      "phone": "+1-832-220-6241",
      "addr_state": "TX",
      "addr_city": "Cypress",
      "addr_postcode": "77433",
      "addr_street": "Barker Cypress Road",
      "addr_housenumber": "10730",
      "value": 352.6729653198274
    },
    {
      "id": 213459,
      "geometry": "POINT (-95.722475 29.982211)",
      "poi_name": "Yokohamaya",
      "osm_id": 5250957935,
      "amenity": "restaurant",
      "cuisine": "japanese",
      "opening_hours": "Tu-Th 11:00-22:00; Fr,Sa 11:00-22:30; Su 10:45-21:30",
      "addr_city": "Cypress",
      "addr_postcode": "77433",
      "addr_street": "Northwest Freeway",
      "addr_housenumber": "27200",
      "value": 352.6729653198274
    },
    {
      "id": 213670,
      "geometry": "POINT (-95.683727 29.878777)",
      "poi_name": "Le Teahouse",
      "osm_id": 5256934994,
      "amenity": "restaurant",
      "addr_state": "TX",
      "addr_city": "Houston",
      "addr_postcode": "77084",
      "addr_street": "Barker Cypress Road",
      "addr_housenumber": "6965",
      "value": 352.6729653198274
    },
    {
      "id": 213606,
      "geometry": "POINT (-95.851024 29.753851)",
      "poi_name": "Fajita Petes",
      "osm_id": 5256066587,
      "amenity": "restaurant",
      "cuisine": "mexican;tex-mex",
      "website": "https://fajitapetes.com/stores/firethorne/",
      "phone": "281-396-4441",
      "addr_state": "TX",
      "addr_city": "Katy",
      "addr_postcode": "77494",
      "addr_street": "FM 1463",
      "addr_housenumber": "2611",
      "value": 352.6729653198274
    },
    {
      "id": 213614,
      "geometry": "POINT (-95.845834 29.732278)",
      "poi_name": "Little V Vietnamese Bistro",
      "osm_id": 5256216633,
      "amenity": "restaurant",
      "opening_hours": "Tu-Th 11:00-21:30, Fr-Sa 11:00-22:00",
      "outdoor_seating": "no",
      "delivery": "no",
      "addr_state": "TX",
      "addr_city": "Katy",
      "addr_postcode": "77494",
      "addr_street": "FM 1463",
      "addr_housenumber": "4031",
      "value": 352.6729653198274
    },
    {
      "id": 213616,
      "geometry": "POINT (-95.845696 29.726217)",
      "poi_name": "Ling's Restaurant",
      "osm_id": 5256216648,
      "amenity": "restaurant",
      "cuisine": "chinese",
      "opening_hours": "Mo-Su 11:00-22:00",
      "takeaway": "yes",
      "outdoor_seating": "no",
      "delivery": "yes",
      "addr_state": "TX",
      "addr_city": "Katy",
      "addr_postcode": "77494",
      "addr_street": "FM 1463",
      "addr_housenumber": "4603",
      "value": 352.6729653198274
    },
    {
      "id": 213636,
      "geometry": "POINT (-95.524045 29.805937)",
      "poi_name": "Polonia",
      "osm_id": 5256539700,
      "amenity": "restaurant",
      "cuisine": "polish",
      "opening_hours": "Tu-Sa 11:00-21:00, Su 11:00-20:00",
      "website": "http://www.poloniarestaurant.com/",
      "phone": "+1-713-464-9900",
      "addr_state": "TX",
      "addr_city": "Houston",
      "addr_postcode": "77080",
      "addr_street": "Blalock Road",
      "addr_housenumber": "1780",
      "value": 352.6729653198274
    },
    {
      "id": 213671,
      "geometry": "POINT (-95.683724 29.878959)",
      "poi_name": "Ph\u1edf T\u00e0u Bay",
      "osm_id": 5256934995,
      "amenity": "restaurant",
      "cuisine": "vietnamese",
      "addr_state": "TX",
      "addr_city": "Houston",
      "addr_postcode": "77084",
      "addr_street": "Barker Cypress Road",
      "addr_housenumber": "6965",
      "value": 352.6729653198274
    },
    {
      "id": 213806,
      "geometry": "POINT (-95.573767 29.995964)",
      "poi_name": "Hopdoddy",
      "osm_id": 5260556205,
      "amenity": "restaurant",
      "addr_state": "TX",
      "addr_city": "Houston",
      "addr_postcode": "77070",
      "addr_street": "Vintage Park Boulevard",
      "addr_housenumber": "142",
      "value": 352.6729653198274
    },
    {
      "id": 213809,
      "geometry": "POINT (-95.572169 29.994296)",
      "poi_name": "Peli Peli",
      "osm_id": 5260570956,
      "amenity": "restaurant",
      "addr_state": "TX",
      "addr_city": "Houston",
      "addr_street": "Vintage Park Boulevard",
      "addr_housenumber": "110",
      "value": 352.6729653198274
    },
    {
      "id": 213810,
      "geometry": "POINT (-95.57246 29.994386)",
      "poi_name": "Shogun Grill",
      "osm_id": 5260570957,
      "amenity": "restaurant",
      "addr_state": "TX",
      "addr_city": "Houston",
      "addr_street": "Vintage Park Boulevard",
      "addr_housenumber": "114",
      "value": 352.6729653198274
    },
    {
      "id": 213811,
      "geometry": "POINT (-95.57253 29.994855)",
      "poi_name": "El Tiempo",
      "osm_id": 5260570958,
      "amenity": "restaurant",
      "addr_state": "TX",
      "addr_city": "Houston",
      "addr_street": "Vintage Park Boulevard",
      "addr_housenumber": "114",
      "value": 352.6729653198274
    },
    {
      "id": 213813,
      "geometry": "POINT (-95.574015 29.994885)",
      "poi_name": "Another Broken Egg",
      "osm_id": 5260570960,
      "amenity": "restaurant",
      "addr_state": "TX",
      "addr_city": "Houston",
      "addr_postcode": "77070",
      "addr_street": "Vintage Park Boulevard",
      "addr_housenumber": "118",
      "value": 352.6729653198274
    },
    {
      "id": 213906,
      "geometry": "POINT (-95.654002 29.878713)",
      "poi_name": "Herradura Mexican Grill",
      "osm_id": 5261471875,
      "amenity": "restaurant",
      "cuisine": "mexican",
      "website": "https://www.herraduramexicangrill.net/",
      "addr_city": "Houston",
      "addr_postcode": "77095",
      "addr_street": "Farm To Market Rd 529",
      "addr_housenumber": "16245",
      "value": 352.6729653198274
    },
    {
      "id": 213909,
      "geometry": "POINT (-95.661279 29.879596)",
      "poi_name": "Lucky Star Asian Buffet",
      "osm_id": 5261471884,
      "amenity": "restaurant",
      "addr_city": "Houston",
      "addr_postcode": "77095",
      "addr_street": "Farm To Market Rd 529",
      "addr_housenumber": "16510",
      "value": 352.6729653198274
    },
    {
      "id": 213910,
      "geometry": "POINT (-95.665879 29.878474)",
      "poi_name": "China Bistro",
      "osm_id": 5261521541,
      "amenity": "restaurant",
      "addr_city": "Houston",
      "addr_postcode": "77095",
      "addr_street": "Farm To Market Rd 529",
      "addr_housenumber": "17001",
      "value": 352.6729653198274
    },
    {
      "id": 215223,
      "geometry": "POINT (-95.750535 29.992811)",
      "poi_name": "Pei Wei",
      "osm_id": 5292408430,
      "amenity": "restaurant",
      "cuisine": "asian",
      "opening_hours": "Mo-Su 11:00-20:00; Fr,Sa 11:00-21:00",
      "addr_city": "Cypress",
      "addr_postcode": "77433",
      "addr_street": "Northwest Freeway",
      "addr_housenumber": "28902",
      "value": 352.6729653198274
    },
    {
      "id": 215299,
      "geometry": "POINT (-95.5614 29.778903)",
      "poi_name": "Grimaldi\u2019s",
      "osm_id": 5294736831,
      "amenity": "restaurant",
      "addr_state": "TX",
      "addr_city": "Houston",
      "addr_postcode": "77079",
      "addr_street": "Queensbury Lane",
      "addr_housenumber": "12848",
      "value": 352.6729653198274
    },
    {
      "id": 215440,
      "geometry": "POINT (-95.561873 29.780017)",
      "poi_name": "Capital Grille",
      "osm_id": 5300115224,
      "amenity": "restaurant",
      "addr_state": "TX",
      "addr_city": "Houston",
      "addr_postcode": "77079",
      "addr_street": "West Sam Houston Parkway North",
      "addr_housenumber": "840",
      "value": 352.6729653198274
    },
    {
      "id": 215442,
      "geometry": "POINT (-95.560838 29.778904)",
      "poi_name": "Eddie V\u2019s",
      "osm_id": 5300115723,
      "amenity": "restaurant",
      "addr_state": "TX",
      "addr_city": "Houston",
      "addr_postcode": "77079",
      "addr_street": "Queensbury Lane",
      "addr_housenumber": "12848",
      "value": 352.6729653198274
    },
    {
      "id": 215443,
      "geometry": "POINT (-95.561906 29.780464)",
      "poi_name": "Seasons 52",
      "osm_id": 5300116121,
      "amenity": "restaurant",
      "addr_state": "TX",
      "addr_city": "Houston",
      "addr_postcode": "77079",
      "addr_street": "West Sam Houston Parkway North",
      "addr_housenumber": "842",
      "value": 352.6729653198274
    },
    {
      "id": 219364,
      "geometry": "POINT (-95.561556 29.563203)",
      "poi_name": "Bakers House",
      "osm_id": 9327686742,
      "amenity": "restaurant",
      "cuisine": "donut;bakery",
      "addr_state": "TX",
      "addr_city": "Missouri City",
      "addr_postcode": "77459",
      "addr_street": "Hwy 6",
      "addr_housenumber": "6311",
      "value": 352.6729653198274
    },
    {
      "id": 219965,
      "geometry": "POINT (-95.556147 29.903485)",
      "poi_name": "Buffalo Wild Wings",
      "osm_id": 9351814486,
      "amenity": "restaurant",
      "cuisine": "wings",
      "website": "https://www.buffalowildwings.com/",
      "addr_state": "TX",
      "addr_city": "Houston",
      "addr_postcode": "77064",
      "addr_street": "West Sam Houston Parkway North",
      "addr_housenumber": "9105",
      "value": 352.6729653198274
    },
    {
      "id": 222101,
      "geometry": "POINT (-95.788882 29.874682)",
      "poi_name": "Pizza Hut",
      "osm_id": 11006027246,
      "amenity": "restaurant",
      "cuisine": "pizza",
      "website": "https://locations.pizzahut.com/tx/katy/2721-fm-1463-road",
      "drive_through": "yes",
      "addr_state": "TX",
      "addr_city": "Katy",
      "addr_postcode": "77493",
      "addr_street": "FM 529",
      "addr_housenumber": "23927",
      "value": 352.6729653198274
    },
    {
      "id": 224531,
      "geometry": "POINT (-95.711139 29.655087)",
      "poi_name": "Olive Garden Italian Restaurant",
      "osm_id": 11085934268,
      "amenity": "restaurant",
      "cuisine": "italian;salad;soup",
      "addr_state": "TX",
      "addr_city": "Richmond",
      "addr_postcode": "77407",
      "addr_street": "W GRAND PKWY",
      "addr_housenumber": "10405",
      "value": 352.6729653198274
    },
    {
      "id": 223950,
      "geometry": "POINT (-95.512115 30.073353)",
      "poi_name": "Shogun Japanese Grill & Sushi",
      "osm_id": 11069325338,
      "amenity": "restaurant",
      "cuisine": "japanese",
      "addr_state": "TX",
      "addr_city": "Spring",
      "addr_street": "FM 2920",
      "addr_housenumber": "5941",
      "value": 352.6729653198274
    },
    {
      "id": 223951,
      "geometry": "POINT (-95.511816 30.073636)",
      "poi_name": "Kolache Factory",
      "osm_id": 11069325339,
      "amenity": "restaurant",
      "addr_state": "TX",
      "addr_city": "Spring",
      "addr_street": "FM 2920",
      "addr_housenumber": "5941",
      "value": 352.6729653198274
    },
    {
      "id": 223952,
      "geometry": "POINT (-95.510629 30.073644)",
      "poi_name": "Nadia's Mediterranean Grill",
      "osm_id": 11069331892,
      "amenity": "restaurant",
      "addr_state": "TX",
      "addr_city": "Spring",
      "addr_street": "FM 2920",
      "addr_housenumber": "5921",
      "value": 352.6729653198274
    },
    {
      "id": 227714,
      "geometry": "POINT (-95.517021 29.702667)",
      "poi_name": "Fung's kitchen",
      "osm_id": 4316526889,
      "amenity": "restaurant",
      "addr_state": "TX",
      "addr_city": "Houston",
      "addr_street": "Southwest Freeway",
      "addr_housenumber": "7320",
      "value": 352.6729653198274
    },
    {
      "id": 228643,
      "geometry": "POINT (-95.47051 29.802571)",
      "poi_name": "El Hidalguense",
      "osm_id": 4350165892,
      "amenity": "restaurant",
      "addr_state": "TX",
      "addr_city": "Houston",
      "addr_street": "Long Point Road",
      "addr_housenumber": "6917",
      "value": 352.6729653198274
    },
    {
      "id": 232225,
      "geometry": "POINT (-95.597821 29.622248)",
      "poi_name": "Mai Colachi BBQ & Grill",
      "osm_id": 4515613745,
      "amenity": "restaurant",
      "addr_state": "TX",
      "addr_city": "Sugar Land",
      "addr_postcode": "77478",
      "addr_street": "Southwest Freeway",
      "addr_housenumber": "13849",
      "value": 352.6729653198274
    },
    {
      "id": 229626,
      "geometry": "POINT (-95.818282 29.77094)",
      "poi_name": "Pizza Bella",
      "osm_id": 4389799899,
      "amenity": "restaurant",
      "cuisine": "pizza",
      "capacity": "25",
      "takeaway": "yes",
      "delivery": "no",
      "addr_state": "TX",
      "addr_city": "Katy",
      "addr_postcode": "77494",
      "addr_street": "Pin Oak Road",
      "addr_housenumber": "1306",
      "value": 352.6729653198274
    },
    {
      "id": 235478,
      "geometry": "POINT (-95.46046 29.745192)",
      "poi_name": "Maggiano's Little Italy",
      "osm_id": 5757264922,
      "amenity": "restaurant",
      "cuisine": "italian",
      "opening_hours": "Mo-Th 11:00-22:00; Fr 11:00-23:00; Sa 10:30-23:00; Su 10:30-21:00",
      "website": "https://locations.maggianos.com/texas/houston/2019-post-oak-blvd.",
      "phone": "+1-713-961-2700",
      "addr_state": "TX",
      "addr_city": "Houston",
      "addr_postcode": "77056",
      "addr_street": "Post Oak Boulevard",
      "addr_housenumber": "2019",
      "value": 352.6729653198274
    },
    {
      "id": 235490,
      "geometry": "POINT (-95.74307 29.618706)",
      "poi_name": "49ers Grill",
      "osm_id": 5757418941,
      "amenity": "restaurant",
      "takeaway": "yes",
      "outdoor_seating": "yes",
      "delivery": "no",
      "addr_state": "TX",
      "addr_city": "Richmond",
      "addr_postcode": "77469",
      "addr_street": "Farm to market 359",
      "addr_housenumber": "1800",
      "value": 352.6729653198274
    },
    {
      "id": 235491,
      "geometry": "POINT (-95.742574 29.618676)",
      "poi_name": "Ninja Japanese Cuisine",
      "osm_id": 5757418942,
      "amenity": "restaurant",
      "cuisine": "japanese",
      "takeaway": "yes",
      "outdoor_seating": "no",
      "addr_state": "TX",
      "addr_city": "Richmond",
      "addr_postcode": "77469",
      "addr_street": "Farm to Market 359",
      "addr_housenumber": "1800",
      "value": 352.6729653198274
    },
    {
      "id": 235492,
      "geometry": "POINT (-95.742751 29.618716)",
      "poi_name": "Pepperonis Pizzeria",
      "osm_id": 5757418944,
      "amenity": "restaurant",
      "cuisine": "pizza",
      "addr_state": "TX",
      "addr_city": "Richmond",
      "addr_postcode": "77469",
      "addr_street": "Fm 359",
      "addr_housenumber": "1800",
      "value": 352.6729653198274
    },
    {
      "id": 236324,
      "geometry": "POINT (-95.590362 29.772556)",
      "poi_name": "Los Tios Mexican Restaurant",
      "osm_id": 5790104999,
      "amenity": "restaurant",
      "cuisine": "mexican;tex-mex",
      "addr_state": "TX",
      "addr_city": "Houston",
      "addr_postcode": "77079",
      "addr_street": "Memorial Drive",
      "addr_housenumber": "14006",
      "value": 352.6729653198274
    },
    {
      "id": 235622,
      "geometry": "POINT (-95.743404 29.601763)",
      "poi_name": "Clancy's Public House",
      "osm_id": 5760943323,
      "amenity": "restaurant",
      "addr_state": "TX",
      "addr_city": "Richmond",
      "addr_postcode": "77406",
      "addr_street": "Fm 359",
      "addr_housenumber": "503",
      "value": 352.6729653198274
    },
    {
      "id": 235624,
      "geometry": "POINT (-95.739072 29.594939)",
      "poi_name": "Pier 36 Seafood & Oyster bar",
      "osm_id": 5760969896,
      "amenity": "restaurant",
      "addr_state": "TX",
      "addr_city": "Richmond",
      "addr_postcode": "77406",
      "addr_street": "East US Highway 90 Alternate",
      "addr_housenumber": "1410",
      "value": 352.6729653198274
    },
    {
      "id": 236325,
      "geometry": "POINT (-95.590599 29.772566)",
      "poi_name": "Pizaro's Pizza",
      "osm_id": 5790105000,
      "amenity": "restaurant",
      "cuisine": "pizza;italian",
      "addr_state": "TX",
      "addr_city": "Houston",
      "addr_postcode": "77079",
      "addr_street": "Memorial Drive",
      "addr_housenumber": "14028",
      "value": 352.6729653198274
    },
    {
      "id": 236327,
      "geometry": "POINT (-95.590126 29.770437)",
      "poi_name": "Luchi & Joey's",
      "osm_id": 5790105015,
      "amenity": "restaurant",
      "cuisine": "tacos;mexican",
      "website": "https://luchiandjoeys.com/",
      "takeaway": "yes",
      "addr_state": "TX",
      "addr_city": "Houston",
      "addr_postcode": "77079",
      "addr_street": "Memorial Drive",
      "addr_housenumber": "14005",
      "value": 352.6729653198274
    },
    {
      "id": 236328,
      "geometry": "POINT (-95.590162 29.769959)",
      "poi_name": "The Devine Affair",
      "osm_id": 5790105016,
      "amenity": "restaurant",
      "cuisine": "fine_dining;wine;steak_house",
      "description": "Restaurant and Wine Bar",
      "outdoor_seating": "yes",
      "addr_state": "TX",
      "addr_city": "Houston",
      "addr_postcode": "77079",
      "addr_street": "Memorial Drive",
      "addr_housenumber": "14021",
      "value": 352.6729653198274
    },
    {
      "id": 236330,
      "geometry": "POINT (-95.59021 29.771671)",
      "poi_name": "Pei Wei",
      "osm_id": 5790207643,
      "amenity": "restaurant",
      "cuisine": "asian",
      "addr_state": "TX",
      "addr_city": "Houston",
      "addr_postcode": "77079",
      "addr_street": "Memorial Drive",
      "addr_housenumber": "14008",
      "value": 352.6729653198274
    },
    {
      "id": 236331,
      "geometry": "POINT (-95.590728 29.771462)",
      "poi_name": "Urban American Kitchen",
      "osm_id": 5790207644,
      "amenity": "restaurant",
      "cuisine": "american",
      "addr_state": "TX",
      "addr_city": "Houston",
      "addr_postcode": "77079",
      "addr_street": "Memorial Drive",
      "addr_housenumber": "14008",
      "value": 352.6729653198274
    },
    {
      "id": 237067,
      "geometry": "POINT (-95.475156 29.703519)",
      "poi_name": "Saltillo Mexican Kitchen",
      "osm_id": 5817829426,
      "amenity": "restaurant",
      "cuisine": "mexican",
      "opening_hours": "Mo-Sa 12:00-21:00; Su off",
      "outdoor_seating": "no",
      "addr_state": "TX",
      "addr_city": "Houston",
      "addr_postcode": "77081",
      "addr_street": "Bissonnet Street",
      "addr_housenumber": "5427",
      "value": 352.6729653198274
    },
    {
      "id": 238297,
      "geometry": "POINT (-95.459968 29.745113)",
      "poi_name": "Sushi on Post Oak",
      "osm_id": 5872581869,
      "amenity": "restaurant",
      "cuisine": "sushi",
      "opening_hours": "Mo 11:00-22:00; Tu-We 11:00-23:00; Th-Fr 11:00-24:00",
      "addr_state": "TX",
      "addr_city": "Houston",
      "addr_postcode": "77056",
      "addr_street": "Post Oak Boulevard",
      "addr_housenumber": "2027",
      "value": 352.6729653198274
    },
    {
      "id": 240916,
      "geometry": "POINT (-95.594598 29.736657)",
      "poi_name": "Mascalzone",
      "osm_id": 5998967408,
      "amenity": "restaurant",
      "cuisine": "italian",
      "opening_hours": "Mo-Th 11:00-14:30, 16:30-22:00; Fr-Sa 11:00-23:00; Su 11:00-22:00",
      "website": "https://www.mascalzonerestaurant.com/",
      "phone": "+1-832-328-5151",
      "addr_state": "TX",
      "addr_city": "Houston",
      "addr_postcode": "77077",
      "addr_street": "Westheimer Road",
      "addr_housenumber": "12126",
      "value": 352.6729653198274
    },
    {
      "id": 241225,
      "geometry": "POINT (-95.597218 29.737454)",
      "poi_name": "Emporio Brazilian Grill",
      "osm_id": 6013902291,
      "amenity": "restaurant",
      "cuisine": "brazilian",
      "opening_hours": "Mo 11:00-15:00; Tu-Th 11:00-21:30; Fr-Sa 11:00-22:30; Su 12:00-18:00",
      "website": "https://www.emporiobraziliangrill.com/",
      "phone": "+1-281-293-7442",
      "addr_state": "TX",
      "addr_city": "Houston",
      "addr_postcode": "77077",
      "addr_street": "Westheimer Road",
      "addr_housenumber": "12288",
      "value": 352.6729653198274
    }
  ],
  "answer_type": "loc",
  "question_entities": {
    "[2]": {
      "distance": 120000,
      "text": "120 kilometers"
    },
    "[3]": {
      "main_category": "leisure",
      "sub_category": "garden",
      "display_name": "Downtown Gazebo, Lake Jackson, TX",
      "geo_wkt": "POINT (-95.450044 29.041946)",
      "poi": {
        "id": 248644,
        "geometry": "POINT (-95.450044 29.041946)",
        "poi_name": "Downtown Gazebo",
        "osm_id": 4714526068,
        "leisure": "garden",
        "addr_state": "TX",
        "addr_city": "Lake Jackson",
        "addr_postcode": "77566",
        "addr_street": "Parking Way"
      }
    },
    "[4]": {
      "main_category": "tourism",
      "sub_category": "attraction",
      "display_name": "Texas knife makers supply, TX",
      "geo_wkt": "POINT (-95.561614 29.798748)",
      "poi": {
        "id": 14598,
        "geometry": "POINT (-95.561614 29.798748)",
        "poi_name": "Texas knife makers supply",
        "osm_id": 4666287189,
        "tourism": "attraction",
        "website": "https://www.texasknife.com/",
        "addr_state": "TX",
        "addr_postcode": "77043",
        "addr_street": "Haddington Drive",
        "addr_housenumber": "10649"
      }
    },
    "[1]": {
      "main_category": "amenity",
      "sub_category": "restaurant"
    }
  },
  "id": 1235,
  "type": "range:towards+loc"
}