{
  "question": "Within a radius of 150 kilometers, where can I find  a fast food restaurant along the way to the Contemporary Austin - Jones Center, Austin, TX from Five Wells Roping Rodeo Arena, TX?",
  "sql": "WITH\n    angle AS (SELECT degrees(ST_Azimuth(ST_GeomFromText('POINT (-97.402227 30.995182)',4326)::geography, ST_GeomFromText('POINT (-97.742825 30.26925)',4326)::geography)) AS value)\nSELECT * FROM pois,angle\nWHERE amenity = 'fast_food'\nAND ST_DWithin(pois.geometry, ST_GeomFromText('POINT (-97.402227 30.995182)',4326)::geography, 150000)\nAND (degrees(ST_Azimuth(ST_GeomFromText('POINT (-97.402227 30.995182)',4326)::geography, pois.geometry)) BETWEEN angle.value - 22.5 AND angle.value + 22.5);\n",
  "answers": [
    {
      "id": 28648,
      "geometry": "POINT (-97.966043 29.846477)",
      "poi_name": "Firehouse Subs",
      "osm_id": 8246589451,
      "amenity": "fast_food",
      "cuisine": "sandwich",
      "opening_hours": "Su-Sa 10:30-21:00",
      "website": "https://www.firehousesubs.com/locations/tx/stone-creek-crossing/",
      "phone": "+1-512-353-3473",
      "takeaway": "yes",
      "addr_state": "TX",
      "addr_city": "San Marcos",
      "addr_postcode": "78666",
      "addr_street": "South Interstate 35",
      "addr_housenumber": "2586",
      "value": 202.17079541099602
    },
    {
      "id": 28651,
      "geometry": "POINT (-97.923399 29.883044)",
      "poi_name": "Five Guys",
      "osm_id": 8246755655,
      "amenity": "fast_food",
      "cuisine": "burger",
      "takeaway": "yes",
      "official_name": "Five Guys Burgers and Fries",
      "addr_state": "TX",
      "addr_city": "San Marcos",
      "addr_postcode": "78666",
      "addr_street": "East Hopkins Street",
      "addr_housenumber": "730",
      "value": 202.17079541099602
    },
    {
      "id": 29180,
      "geometry": "POINT (-97.731733 30.354059)",
      "poi_name": "Subway",
      "osm_id": 8285756548,
      "amenity": "fast_food",
      "cuisine": "sandwich",
      "description": "Curbside pickup is available.",
      "wheelchair": "yes",
      "opening_hours": "Mo-Su 09:00-22:00",
      "website": "https://order.subway.com",
      "phone": "+1-512-906-0192",
      "takeaway": "yes",
      "drive_through": "no",
      "outdoor_seating": "yes",
      "delivery": "yes",
      "addr_state": "TX",
      "addr_city": "Austin",
      "addr_postcode": "78757",
      "addr_street": "Burnet Road",
      "addr_housenumber": "7711",
      "value": 202.17079541099602
    },
    {
      "id": 29257,
      "geometry": "POINT (-97.687938 30.556408)",
      "poi_name": "Chipotle",
      "osm_id": 8291734208,
      "amenity": "fast_food",
      "cuisine": "mexican",
      "wheelchair": "yes",
      "website": "https://locations.chipotle.com/tx/round-rock/201-university-oaks",
      "phone": "+1-512-590-8970",
      "takeaway": "yes",
      "drive_through": "no",
      "official_name": "Chipotle Mexican Grill",
      "delivery": "yes",
      "addr_state": "TX",
      "addr_city": "Round Rock",
      "addr_postcode": "78665",
      "addr_street": "University Oaks Boulevard",
      "addr_housenumber": "201",
      "value": 202.17079541099602
    },
    {
      "id": 29265,
      "geometry": "POINT (-97.687043 30.556635)",
      "poi_name": "Clean Eatz",
      "osm_id": 8291886309,
      "amenity": "fast_food",
      "website": "https://locations.cleaneatz.com/tx/roundrock/meal-prep-123.html",
      "addr_state": "TX",
      "addr_city": "Round Rock",
      "addr_postcode": "78665",
      "addr_street": "University Oaks Boulevard",
      "addr_housenumber": "201",
      "value": 202.17079541099602
    },
    {
      "id": 29267,
      "geometry": "POINT (-97.68711 30.558366)",
      "poi_name": "Papa John's",
      "osm_id": 8291899517,
      "amenity": "fast_food",
      "cuisine": "pizza",
      "wheelchair": "yes",
      "opening_hours": "Mo-Th 09:45-00:30; Fr-Sa 09:45-13:30; Su 09:45-24:00",
      "website": "https://locations.papajohns.com/united-states/tx/78665/round-rock/201-university-oaks-blvd",
      "phone": "+1-512-872-7171",
      "takeaway": "only",
      "drive_through": "no",
      "delivery": "yes",
      "addr_state": "TX",
      "addr_city": "Round Rock",
      "addr_postcode": "78665",
      "addr_street": "University Boulevard",
      "addr_housenumber": "201",
      "value": 202.17079541099602
    },
    {
      "id": 29270,
      "geometry": "POINT (-97.683778 30.560196)",
      "poi_name": "Popeyes",
      "osm_id": 8292014791,
      "amenity": "fast_food",
      "cuisine": "chicken",
      "wheelchair": "yes",
      "opening_hours": "Mo-Su 10:00-22:00",
      "website": "https://www.popeyes.com/store-locator/store/restaurant_85581",
      "phone": "+1-512-310-8824",
      "takeaway": "yes",
      "drive_through": "yes",
      "official_name": "Popeyes Louisiana Kitchen",
      "delivery": "yes",
      "addr_state": "TX",
      "addr_city": "Round Rock",
      "addr_postcode": "78665",
      "addr_street": "University Boulevard",
      "addr_housenumber": "325",
      "value": 202.17079541099602
    },
    {
      "id": 29276,
      "geometry": "POINT (-97.681007 30.560965)",
      "poi_name": "Smoothie King",
      "osm_id": 8292116210,
      "amenity": "fast_food",
      "cuisine": "juice",
      "wheelchair": "yes",
      "opening_hours": "Mo-Fr 06:30-21:00; Sa 08:00-21:00; Su 09:00-20:00",
      "website": "https://www.smoothieking.com/",
      "phone": "+1-512-215-8249",
      "takeaway": "yes",
      "drive_through": "no",
      "delivery": "yes",
      "addr_state": "TX",
      "addr_city": "Round Rock",
      "addr_postcode": "78665",
      "addr_street": "University Boulevard",
      "addr_housenumber": "455",
      "value": 202.17079541099602
    },
    {
      "id": 29278,
      "geometry": "POINT (-97.678756 30.561425)",
      "poi_name": "Subway",
      "osm_id": 8292180717,
      "amenity": "fast_food",
      "cuisine": "sandwich",
      "opening_hours": "24/7",
      "website": "https://order.subway.com/en-us/restaurant/44480/menu/",
      "phone": "+1-512-310-2800",
      "takeaway": "yes",
      "drive_through": "no",
      "addr_state": "TX",
      "addr_city": "Round Rock",
      "addr_postcode": "78665",
      "addr_street": "University Boulevard",
      "addr_housenumber": "551",
      "value": 202.17079541099602
    },
    {
      "id": 29291,
      "geometry": "POINT (-97.681224 30.561965)",
      "poi_name": "Burger King",
      "osm_id": 8294336240,
      "amenity": "fast_food",
      "cuisine": "burger",
      "wheelchair": "yes",
      "opening_hours": "Mo-Sa 06:00-22:00; Su 07:00-22:00",
      "website": "https://www.bk.com/store-locator/store/restaurant_10387",
      "phone": "+1-512-388-9579",
      "takeaway": "yes",
      "drive_through": "yes",
      "delivery": "yes",
      "addr_state": "TX",
      "addr_city": "Round Rock",
      "addr_postcode": "78665",
      "addr_street": "Sunrise Road",
      "addr_housenumber": "4410",
      "value": 202.17079541099602
    },
    {
      "id": 29307,
      "geometry": "POINT (-97.690205 30.561444)",
      "poi_name": "Zo\u00ebs Kitchen",
      "osm_id": 8295162187,
      "amenity": "fast_food",
      "cuisine": "mediterranean",
      "wheelchair": "yes",
      "opening_hours": "Mo-Su 11:00-20:00",
      "website": "https://zoeskitchen.com/locations/store/tx/round-rock",
      "phone": "+1-512-868-1363",
      "takeaway": "yes",
      "drive_through": "no",
      "outdoor_seating": "yes",
      "delivery": "yes",
      "addr_state": "TX",
      "addr_city": "Round Rock",
      "addr_postcode": "78665",
      "addr_street": "University Boulevard",
      "addr_housenumber": "200",
      "value": 202.17079541099602
    },
    {
      "id": 29599,
      "geometry": "POINT (-97.682761 30.435167)",
      "poi_name": "Domino's",
      "osm_id": 8317007843,
      "amenity": "fast_food",
      "cuisine": "pizza",
      "wheelchair": "yes",
      "opening_hours": "Su-Th 10:00-24:00; Fr-Sa 10:00-01:00",
      "website": "https://www.dominos.com/",
      "phone": "+1-512-992-1375",
      "takeaway": "yes",
      "drive_through": "no",
      "delivery": "yes",
      "addr_state": "TX",
      "addr_city": "Austin",
      "addr_postcode": "78728",
      "addr_street": "Wells Branch Parkway",
      "addr_housenumber": "2013",
      "value": 202.17079541099602
    },
    {
      "id": 29694,
      "geometry": "POINT (-97.672113 30.413725)",
      "poi_name": "Jersey Mike's Subs",
      "osm_id": 8319879627,
      "amenity": "fast_food",
      "cuisine": "sandwich",
      "wheelchair": "yes",
      "opening_hours": "Mo-Su 10:00-21:00",
      "website": "https://www.jerseymikes.com/15070/austin-tx",
      "phone": "+1-512-251-3701",
      "takeaway": "yes",
      "drive_through": "no",
      "addr_state": "TX",
      "addr_city": "Austin",
      "addr_postcode": "78753",
      "addr_street": "North Interstate 35",
      "addr_housenumber": "12901",
      "value": 202.17079541099602
    },
    {
      "id": 29749,
      "geometry": "POINT (-97.684642 30.436347)",
      "poi_name": "Papa John's",
      "osm_id": 8322907430,
      "amenity": "fast_food",
      "cuisine": "pizza",
      "wheelchair": "yes",
      "opening_hours": "Mo-Su 09:45-22:25",
      "website": "https://locations.papajohns.com/united-states/tx/78728-6970/austin/2113-wells-branch-pkwy",
      "phone": "+1-512-251-7272",
      "takeaway": "only",
      "drive_through": "no",
      "delivery": "yes",
      "addr_state": "TX",
      "addr_city": "Austin",
      "addr_postcode": "78728",
      "addr_street": "Wells Branch Parkway",
      "addr_housenumber": "2113",
      "value": 202.17079541099602
    },
    {
      "id": 30148,
      "geometry": "POINT (-97.67507 30.400424)",
      "poi_name": "Smoothie King",
      "osm_id": 8335093719,
      "amenity": "fast_food",
      "cuisine": "juice",
      "wheelchair": "yes",
      "opening_hours": "Mo-Fr 07:00-22:00; Sa 08:00-22:00; Su 10:00-20:00",
      "website": "https://locations.smoothieking.com/ll/US/TX/Austin/12314-N_-I~35-SVRD",
      "phone": "+1-512-904-0924",
      "takeaway": "yes",
      "drive_through": "yes",
      "delivery": "yes",
      "addr_state": "TX",
      "addr_city": "Austin",
      "addr_postcode": "78753",
      "addr_street": "North Interstate 35",
      "addr_housenumber": "12314",
      "value": 202.17079541099602
    },
    {
      "id": 30327,
      "geometry": "POINT (-97.782561 30.5361)",
      "poi_name": "Schlotzsky's",
      "osm_id": 8349687345,
      "amenity": "fast_food",
      "cuisine": "sandwich",
      "wheelchair": "yes",
      "opening_hours": "Mo-Fr 10:00-22:00; Sa-Su 10:00-21:00",
      "website": "https://www.schlotzskys.com/",
      "phone": "+1-512-456-7878",
      "takeaway": "yes",
      "drive_through": "yes",
      "outdoor_seating": "yes",
      "delivery": "yes",
      "addr_state": "TX",
      "addr_city": "Cedar Park",
      "addr_postcode": "78613",
      "addr_street": "East Whitestone Boulevard",
      "addr_housenumber": "3101",
      "value": 202.17079541099602
    },
    {
      "id": 30484,
      "geometry": "POINT (-97.721114 30.29994)",
      "poi_name": "Jersey Mike's Subs",
      "osm_id": 8362751947,
      "amenity": "fast_food",
      "cuisine": "sandwich",
      "opening_hours": "Mo-Su 10:00-21:00",
      "website": "https://www.jerseymikes.com/15069/austin-tx",
      "phone": "+1-512-459-1555",
      "takeaway": "yes",
      "drive_through": "no",
      "addr_state": "TX",
      "addr_city": "Austin",
      "addr_postcode": "78751",
      "addr_street": "East 41st Street",
      "addr_housenumber": "1000",
      "value": 202.17079541099602
    },
    {
      "id": 30670,
      "geometry": "POINT (-97.699676 30.301542)",
      "poi_name": "Juiceland",
      "osm_id": 8373507401,
      "amenity": "fast_food",
      "cuisine": "juice",
      "wheelchair": "yes",
      "opening_hours": "Mo-Su 07:00-20:00",
      "website": "https://www.juiceland.com/locations/mueller/",
      "phone": "+1-512-494-5899",
      "takeaway": "only",
      "drive_through": "no",
      "delivery": "yes",
      "addr_state": "TX",
      "addr_city": "Austin",
      "addr_postcode": "78723",
      "addr_street": "East 51st Street",
      "addr_housenumber": "1801",
      "value": 202.17079541099602
    },
    {
      "id": 31201,
      "geometry": "POINT (-97.795743 30.137123)",
      "poi_name": "Subway",
      "osm_id": 8410344623,
      "amenity": "fast_food",
      "cuisine": "sandwich",
      "wheelchair": "yes",
      "opening_hours": "Mo-Su 11:00-19:00",
      "website": "https://order.subway.com/en-us/restaurant/44843/menu",
      "phone": "+1-512-282-8884",
      "takeaway": "yes",
      "drive_through": "no",
      "addr_state": "TX",
      "addr_city": "Austin",
      "addr_postcode": "78747",
      "addr_street": "South Interstate 35",
      "addr_housenumber": "11215",
      "value": 202.17079541099602
    },
    {
      "id": 31372,
      "geometry": "POINT (-97.728242 30.243824)",
      "poi_name": "Chi'Lantro BBQ",
      "osm_id": 8421267410,
      "amenity": "fast_food",
      "cuisine": "korean;mexican",
      "description": "Korean BBQ inspired",
      "opening_hours": "Mo-Su 10:30-22:00",
      "website": "https://www.chilantrobbq.com/",
      "phone": "+1-512-382-9653",
      "takeaway": "yes",
      "drive_through": "no",
      "addr_state": "TX",
      "addr_city": "Austin",
      "addr_postcode": "78741",
      "addr_street": "Shore District Drive",
      "addr_housenumber": "1414",
      "value": 202.17079541099602
    },
    {
      "id": 31388,
      "geometry": "POINT (-97.728273 30.243325)",
      "poi_name": "MOD Pizza",
      "osm_id": 8421640648,
      "amenity": "fast_food",
      "cuisine": "pizza",
      "wheelchair": "yes",
      "opening_hours": "Su-Th 10:30-22:00; Fr-Sa 10:30-23:00",
      "website": "https://modpizza.com/locations/south-shore/",
      "phone": "+1-512-792-5554",
      "takeaway": "yes",
      "drive_through": "no",
      "addr_state": "TX",
      "addr_city": "Austin",
      "addr_postcode": "78741",
      "addr_street": "East Riverside Drive",
      "addr_housenumber": "1920",
      "value": 202.17079541099602
    },
    {
      "id": 31393,
      "geometry": "POINT (-97.727302 30.242099)",
      "poi_name": "Chipotle",
      "osm_id": 8421705338,
      "amenity": "fast_food",
      "cuisine": "mexican",
      "wheelchair": "yes",
      "opening_hours": "Mo-Su 10:45-22:00",
      "website": "https://locations.chipotle.com/tx/austin/1920-e-riverside-dr",
      "phone": "+1-512-326-1975",
      "takeaway": "yes",
      "drive_through": "no",
      "official_name": "Chipotle Mexican Grill",
      "outdoor_seating": "yes",
      "delivery": "yes",
      "addr_state": "TX",
      "addr_city": "Austin",
      "addr_postcode": "78741",
      "addr_street": "East Riverside Drive",
      "addr_housenumber": "1920",
      "value": 202.17079541099602
    },
    {
      "id": 31612,
      "geometry": "POINT (-97.721067 30.233794)",
      "poi_name": "Subway",
      "osm_id": 8436308409,
      "amenity": "fast_food",
      "cuisine": "sandwich",
      "website": "https://order.subway.com/en-us/restaurant/23395/menu/",
      "phone": "+1-512-389-2228",
      "takeaway": "yes",
      "drive_through": "no",
      "addr_state": "TX",
      "addr_city": "Austin",
      "addr_postcode": "78741",
      "addr_street": "East Riverside Drive",
      "addr_housenumber": "4410",
      "value": 202.17079541099602
    },
    {
      "id": 32165,
      "geometry": "POINT (-97.772201 30.434003)",
      "poi_name": "Papa Murphy's",
      "osm_id": 2622855261,
      "amenity": "fast_food",
      "cuisine": "pizza",
      "opening_hours": "11:00-20:00",
      "phone": "+1-512-335-0770",
      "takeaway": "only",
      "official_name": "Papa Murphy's Take 'N' Bake Pizza",
      "addr_city": "Austin",
      "addr_postcode": "78750",
      "addr_street": "North Research Blvd",
      "addr_housenumber": "12856",
      "value": 202.17079541099602
    },
    {
      "id": 32455,
      "geometry": "POINT (-97.730926 30.357773)",
      "poi_name": "Donut Crown",
      "osm_id": 2626566655,
      "amenity": "fast_food",
      "cuisine": "donut",
      "wheelchair": "yes",
      "opening_hours": "Mo-Th 05:00-12:30; Fr-Su 05:00-13:00",
      "phone": "+1-512-458-1177",
      "takeaway": "yes",
      "drive_through": "no",
      "addr_state": "TX",
      "addr_city": "Austin",
      "addr_postcode": "78757",
      "addr_street": "Burnet Road",
      "addr_housenumber": "7940",
      "value": 202.17079541099602
    },
    {
      "id": 33373,
      "geometry": "POINT (-97.744086 30.445707)",
      "poi_name": "Chipotle",
      "osm_id": 2663832705,
      "amenity": "fast_food",
      "cuisine": "mexican",
      "wheelchair": "yes",
      "takeaway": "yes",
      "drive_through": "no",
      "official_name": "Chipotle Mexican Grill",
      "addr_state": "TX",
      "addr_city": "Austin",
      "addr_postcode": "78729",
      "addr_street": "West Parmer Lane",
      "addr_housenumber": "6301",
      "value": 202.17079541099602
    },
    {
      "id": 33374,
      "geometry": "POINT (-97.74405 30.445657)",
      "poi_name": "Eggroll Express",
      "osm_id": 2663832706,
      "amenity": "fast_food",
      "cuisine": "chinese",
      "opening_hours": "Mo-Th,Su 11:00-21:30; Fr-Sa 11:00-22:00",
      "website": "http://eggrollexpressaustin.com/",
      "phone": "+1-512-258-8881",
      "drive_through": "no",
      "addr_state": "TX",
      "addr_city": "Austin",
      "addr_postcode": "78729",
      "addr_street": "West Parmer Lane",
      "addr_housenumber": "6301",
      "value": 202.17079541099602
    },
    {
      "id": 35513,
      "geometry": "POINT (-97.763131 30.25409)",
      "poi_name": "Southside Flying Pizza",
      "osm_id": 2724014428,
      "amenity": "fast_food",
      "cuisine": "pizza",
      "opening_hours": "Mo-Su 11:00-22:00; Fr,Sa 11:00-23:00",
      "website": "https://www.southsideflyingpizza.com/south-lamar",
      "phone": "+1-512-433-6695",
      "addr_state": "TX",
      "addr_city": "Austin",
      "addr_postcode": "78704",
      "addr_street": "South Lamar Boulevard",
      "addr_housenumber": "1224",
      "value": 202.17079541099602
    },
    {
      "id": 36693,
      "geometry": "POINT (-97.85179 30.028044)",
      "poi_name": "Schlotzsky's",
      "osm_id": 2779930952,
      "amenity": "fast_food",
      "cuisine": "sandwich",
      "phone": "+1-512-262-7267",
      "takeaway": "yes",
      "addr_state": "TX",
      "addr_city": "Kyle",
      "addr_postcode": "78640",
      "addr_street": "I-35 Southbound Frontage Road",
      "addr_housenumber": "19350",
      "value": 202.17079541099602
    },
    {
      "id": 36692,
      "geometry": "POINT (-97.863476 30.017072)",
      "poi_name": "Subway",
      "osm_id": 2779924148,
      "amenity": "fast_food",
      "cuisine": "sandwich",
      "phone": "+1-512-268-6400",
      "takeaway": "yes",
      "addr_city": "Kyle",
      "addr_postcode": "78640",
      "addr_street": "Farm-to-Market Road 1626",
      "addr_housenumber": "5401",
      "value": 202.17079541099602
    },
    {
      "id": 37033,
      "geometry": "POINT (-97.821433 30.08708)",
      "poi_name": "Subway",
      "osm_id": 2794863921,
      "amenity": "fast_food",
      "cuisine": "sandwich",
      "phone": "+1-512-295-8166",
      "takeaway": "yes",
      "addr_state": "TX",
      "addr_city": "Buda",
      "addr_postcode": "78610",
      "addr_street": "South Interstate 35",
      "addr_housenumber": "15300",
      "value": 202.17079541099602
    },
    {
      "id": 36989,
      "geometry": "POINT (-97.869942 30.200477)",
      "poi_name": "Domino's",
      "osm_id": 2793721027,
      "amenity": "fast_food",
      "cuisine": "pizza",
      "takeaway": "yes",
      "addr_city": "Austin",
      "addr_postcode": "78749",
      "addr_street": "West Slaughter Lane",
      "addr_housenumber": "5701",
      "value": 202.17079541099602
    },
    {
      "id": 36991,
      "geometry": "POINT (-97.86897 30.200649)",
      "poi_name": "Tacodeli",
      "osm_id": 2793746560,
      "amenity": "fast_food",
      "opening_hours": "Mo-Fr 07:00-21:00; Sa-Su 08:00-21:00",
      "website": "https://locations.tacodeli.com/tacodeli-9b3d17ca4231",
      "phone": "+1-512-535-2924",
      "addr_state": "TX",
      "addr_city": "Austin",
      "addr_postcode": "78749",
      "addr_street": "West Slaughter Lane",
      "addr_housenumber": "5701",
      "value": 202.17079541099602
    },
    {
      "id": 37845,
      "geometry": "POINT (-97.875754 30.098099)",
      "poi_name": "Schlotzsky's",
      "osm_id": 2833689326,
      "amenity": "fast_food",
      "cuisine": "sandwich",
      "phone": "+1-512-295-0247",
      "takeaway": "yes",
      "addr_state": "TX",
      "addr_city": "Buda",
      "addr_postcode": "78610",
      "addr_street": "Farm-to-Market Road 1626",
      "addr_housenumber": "125",
      "value": 202.17079541099602
    },
    {
      "id": 39421,
      "geometry": "POINT (-97.721335 30.299591)",
      "poi_name": "Freebirds",
      "osm_id": 2920762432,
      "amenity": "fast_food",
      "cuisine": "mexican",
      "wheelchair": "yes",
      "opening_hours": "Mo-Su 10:30-21:30",
      "website": "https://freebirds.com/",
      "phone": "+1-512-451-5514",
      "takeaway": "yes",
      "delivery": "yes",
      "addr_state": "TX",
      "addr_city": "Austin",
      "addr_postcode": "78751",
      "addr_street": "East 41st Street",
      "addr_housenumber": "1000",
      "value": 202.17079541099602
    },
    {
      "id": 39584,
      "geometry": "POINT (-97.821393 30.087185)",
      "poi_name": "Domino's",
      "osm_id": 2929905819,
      "amenity": "fast_food",
      "cuisine": "pizza",
      "takeaway": "yes",
      "addr_state": "TX",
      "addr_city": "Buda",
      "addr_postcode": "78610",
      "addr_street": "South Interstate 35",
      "addr_housenumber": "15300",
      "value": 202.17079541099602
    },
    {
      "id": 40515,
      "geometry": "POINT (-97.81733 30.089089)",
      "poi_name": "McDonald's",
      "osm_id": 2972305641,
      "amenity": "fast_food",
      "cuisine": "burger",
      "opening_hours": "Mo-Fr unknown",
      "website": "https://www.mcdonalds.com/us/en-us/location/tx/buda/15359-i-35/23674.html",
      "phone": "+1-512-312-2383",
      "takeaway": "yes",
      "drive_through": "yes",
      "delivery": "no",
      "addr_state": "TX",
      "addr_city": "Buda",
      "addr_postcode": "78610",
      "addr_street": "Interstate 35 Frontage Road",
      "addr_housenumber": "15359",
      "value": 202.17079541099602
    },
    {
      "id": 40440,
      "geometry": "POINT (-97.70848 30.306031)",
      "poi_name": "Jamba",
      "osm_id": 2970345587,
      "amenity": "fast_food",
      "cuisine": "juice",
      "wheelchair": "yes",
      "opening_hours": "Mo-Fr 07:00-20:00; Sa 08:00-20:00; Su 09:00-20:00",
      "website": "https://www.jamba.com/",
      "phone": "+1-512-482-9722",
      "takeaway": "yes",
      "drive_through": "no",
      "outdoor_seating": "yes",
      "delivery": "yes",
      "addr_state": "TX",
      "addr_city": "Austin",
      "addr_postcode": "78723",
      "addr_street": "Barbara Jordan Boulevard",
      "addr_housenumber": "1201",
      "value": 202.17079541099602
    },
    {
      "id": 40441,
      "geometry": "POINT (-97.708084 30.305837)",
      "poi_name": "Ike's Love and Sandwiches",
      "osm_id": 2970345589,
      "amenity": "fast_food",
      "cuisine": "sandwich",
      "wheelchair": "yes",
      "opening_hours": "10:00-21:00",
      "website": "https://ikessandwich.com/",
      "phone": "+1-737-304-7277",
      "takeaway": "yes",
      "drive_through": "no",
      "outdoor_seating": "yes",
      "delivery": "yes",
      "addr_state": "TX",
      "addr_city": "Austin",
      "addr_postcode": "78723",
      "addr_street": "Barbara Jordan Boulevard",
      "addr_housenumber": "1201",
      "value": 202.17079541099602
    },
    {
      "id": 40444,
      "geometry": "POINT (-97.707988 30.305651)",
      "poi_name": "Chipotle",
      "osm_id": 2970346647,
      "amenity": "fast_food",
      "cuisine": "mexican",
      "wheelchair": "yes",
      "opening_hours": "10:45-23:00",
      "website": "https://www.chipotle.com",
      "phone": "+1-512-495-9083",
      "takeaway": "yes",
      "drive_through": "no",
      "official_name": "Chipotle Mexican Grill",
      "outdoor_seating": "yes",
      "delivery": "yes",
      "addr_state": "TX",
      "addr_city": "Austin",
      "addr_postcode": "78723",
      "addr_street": "Barbara Jordan Boulevard",
      "addr_housenumber": "1201",
      "value": 202.17079541099602
    },
    {
      "id": 41823,
      "geometry": "POINT (-97.858257 30.012752)",
      "poi_name": "Firehouse Subs",
      "osm_id": 3026060160,
      "amenity": "fast_food",
      "cuisine": "sandwich",
      "phone": "+1-512-268-7400",
      "takeaway": "yes",
      "addr_city": "Kyle",
      "addr_postcode": "78640",
      "addr_street": "Kyle Parkway",
      "addr_housenumber": "5695",
      "value": 202.17079541099602
    },
    {
      "id": 43379,
      "geometry": "POINT (-97.835552 30.219854)",
      "poi_name": "Taco Cabana",
      "osm_id": 3107998523,
      "amenity": "fast_food",
      "cuisine": "mexican",
      "website": "https://www.tacocabana.com",
      "phone": "+1-512-358-0726",
      "takeaway": "only",
      "drive_through": "yes",
      "outdoor_seating": "yes",
      "addr_state": "TX",
      "addr_city": "Austin",
      "addr_postcode": "78749",
      "addr_street": "South Mopac Service Road",
      "addr_housenumber": "6611",
      "value": 202.17079541099602
    },
    {
      "id": 41867,
      "geometry": "POINT (-97.84058 30.222492)",
      "poi_name": "Panda Express",
      "osm_id": 3027577466,
      "amenity": "fast_food",
      "cuisine": "chinese",
      "phone": "+1-512-891-8889",
      "takeaway": "yes",
      "addr_state": "TX",
      "addr_city": "Austin",
      "addr_postcode": "78749",
      "addr_street": "West William Cannon Drive",
      "value": 202.17079541099602
    },
    {
      "id": 41869,
      "geometry": "POINT (-97.839049 30.223789)",
      "poi_name": "Jersey Mike's Subs",
      "osm_id": 3027588850,
      "amenity": "fast_food",
      "cuisine": "sandwich",
      "phone": "+1-512-891-0222",
      "takeaway": "yes",
      "addr_state": "TX",
      "addr_city": "Austin",
      "addr_postcode": "78749",
      "addr_street": "West William Cannon Drive",
      "addr_housenumber": "4404",
      "value": 202.17079541099602
    },
    {
      "id": 45139,
      "geometry": "POINT (-97.741498 30.270529)",
      "poi_name": "Chi'Lantro",
      "osm_id": 3190873008,
      "amenity": "fast_food",
      "cuisine": "korean",
      "website": "https://www.chilantrobbq.com/index",
      "addr_state": "TX",
      "addr_city": "Austin",
      "addr_postcode": "78701",
      "addr_street": "Congress Avenue",
      "addr_housenumber": "823",
      "value": 202.17079541099602
    },
    {
      "id": 47567,
      "geometry": "POINT (-97.72759 30.367022)",
      "poi_name": "P. Terry's",
      "osm_id": 3333278784,
      "amenity": "fast_food",
      "cuisine": "burger",
      "phone": "+1-512-420-9242",
      "takeaway": "yes",
      "official_name": "P. Terry's Burger Stand",
      "addr_state": "TX",
      "addr_city": "Austin",
      "addr_postcode": "78757",
      "addr_street": "Burnet Road",
      "addr_housenumber": "8515",
      "value": 202.17079541099602
    },
    {
      "id": 46080,
      "geometry": "POINT (-97.746019 30.265719)",
      "poi_name": "Which Wich?",
      "osm_id": 3245051653,
      "amenity": "fast_food",
      "cuisine": "sandwich",
      "opening_hours": "Mo-Sa 10:00-22:00; Su 11:00-18:00",
      "takeaway": "yes",
      "drive_through": "yes",
      "addr_state": "TX",
      "addr_city": "Austin",
      "addr_postcode": "78701",
      "addr_street": "West 3rd Street",
      "addr_housenumber": "247",
      "value": 202.17079541099602
    },
    {
      "id": 47479,
      "geometry": "POINT (-97.689724 30.217749)",
      "poi_name": "Subway",
      "osm_id": 3329171693,
      "amenity": "fast_food",
      "cuisine": "sandwich",
      "takeaway": "yes",
      "addr_state": "TX",
      "addr_city": "Austin",
      "addr_postcode": "78741",
      "addr_street": "East Ben White Boulevard",
      "addr_housenumber": "7709",
      "value": 202.17079541099602
    },
    {
      "id": 45126,
      "geometry": "POINT (-97.69887 30.303351)",
      "poi_name": "Torchy's Tacos",
      "osm_id": 3190703051,
      "amenity": "fast_food",
      "cuisine": "mexican;breakfast;dessert",
      "wheelchair": "yes",
      "opening_hours": "Mo-Th 10:00-21:00; Fr 10:00-22:00; Sa 08:00-22:00; Su 08:00-21:00",
      "website": "https://torchystacos.com/",
      "phone": "+1-512-322-2411",
      "takeaway": "yes",
      "drive_through": "no",
      "delivery": "yes",
      "addr_state": "TX",
      "addr_city": "Austin",
      "addr_postcode": "78723",
      "addr_street": "East 51st Street",
      "addr_housenumber": "1801",
      "value": 202.17079541099602
    },
    {
      "id": 45131,
      "geometry": "POINT (-97.787687 30.258417)",
      "poi_name": "Tacodeli",
      "osm_id": 3190748964,
      "amenity": "fast_food",
      "cuisine": "mexican",
      "opening_hours": "Mo-Fr 07:00-21:00; Sa-Su 08:00-21:00",
      "website": "https://www.tacodeli.com/",
      "takeaway": "yes",
      "outdoor_seating": "yes",
      "addr_state": "TX",
      "addr_city": "Austin",
      "addr_postcode": "78746",
      "addr_street": "Spyglass Drive",
      "addr_housenumber": "1500",
      "value": 202.17079541099602
    },
    {
      "id": 47662,
      "geometry": "POINT (-97.791911 30.161285)",
      "poi_name": "MOD Pizza",
      "osm_id": 3340890293,
      "amenity": "fast_food",
      "cuisine": "pizza",
      "wheelchair": "yes",
      "phone": "+1-512-291-5050",
      "takeaway": "yes",
      "addr_state": "TX",
      "addr_city": "Austin",
      "addr_postcode": "78748",
      "addr_street": "9600 IH 35 C-200",
      "value": 202.17079541099602
    },
    {
      "id": 49059,
      "geometry": "POINT (-97.862372 30.012832)",
      "poi_name": "Jersey Mike's Subs",
      "osm_id": 3413266287,
      "amenity": "fast_food",
      "cuisine": "sandwich",
      "website": "https://www.jerseymikes.com/",
      "takeaway": "yes",
      "addr_state": "TX",
      "addr_city": "Kyle",
      "addr_postcode": "78640",
      "addr_street": "Evans Drive",
      "addr_housenumber": "151",
      "value": 202.17079541099602
    },
    {
      "id": 51330,
      "geometry": "POINT (-97.740307 30.332143)",
      "poi_name": "Phil's Icehouse",
      "osm_id": 530782913,
      "amenity": "fast_food",
      "cuisine": "burger",
      "wheelchair": "yes",
      "opening_hours": "Su-Th 11:00-21:00; Fr-Sa 11:00-22:00",
      "website": "https://www.philsicehouse.com/phils-on-burnet-road/",
      "phone": "+1-512-524-1212",
      "takeaway": "yes",
      "drive_through": "no",
      "outdoor_seating": "yes",
      "delivery": "yes",
      "addr_state": "TX",
      "addr_city": "Austin",
      "addr_postcode": "78756",
      "addr_street": "Burnet Road",
      "addr_housenumber": "5620",
      "value": 202.17079541099602
    },
    {
      "id": 51335,
      "geometry": "POINT (-97.730953 30.357726)",
      "poi_name": "Thundercloud Subs",
      "osm_id": 530787544,
      "amenity": "fast_food",
      "cuisine": "sandwich",
      "wheelchair": "yes",
      "opening_hours": "Mo-Sa 10:30-20:00; Su 11:00-20:00",
      "website": "https://thundercloud.com/",
      "phone": "+1-512-451-0027",
      "takeaway": "yes",
      "drive_through": "no",
      "outdoor_seating": "yes",
      "addr_state": "TX",
      "addr_city": "Austin",
      "addr_postcode": "78757",
      "addr_street": "Burnet Road",
      "addr_housenumber": "7930",
      "value": 202.17079541099602
    },
    {
      "id": 51336,
      "geometry": "POINT (-97.731114 30.357496)",
      "poi_name": "Conan's Pizza",
      "osm_id": 530787550,
      "amenity": "fast_food",
      "cuisine": "pizza",
      "wheelchair": "yes",
      "opening_hours": "Su-Th 11:00-21:30; Fr-Sa 11:00-22:30",
      "website": "https://conanspizza.com/north",
      "phone": "+1-512-459-3221",
      "takeaway": "yes",
      "drive_through": "no",
      "delivery": "yes",
      "addr_state": "TX",
      "addr_city": "Austin",
      "addr_postcode": "78757",
      "addr_street": "West Anderson Lane",
      "addr_housenumber": "2438",
      "value": 202.17079541099602
    },
    {
      "id": 51429,
      "geometry": "POINT (-97.744986 30.301824)",
      "poi_name": "P. Terry's",
      "osm_id": 534450402,
      "amenity": "fast_food",
      "cuisine": "burger",
      "opening_hours": "Su 09:00-24:00; Mo-Th 07:00-24:00; Fr 07:00-01:00; Sa 08:00-01:00",
      "website": "https://pterrys.com/",
      "phone": "+1-512-371-9975",
      "takeaway": "yes",
      "drive_through": "yes",
      "official_name": "P. Terry's Burger Stand",
      "addr_state": "TX",
      "addr_city": "Austin",
      "addr_postcode": "78705",
      "addr_street": "North Lamar Boulevard",
      "addr_housenumber": "3303",
      "value": 202.17079541099602
    },
    {
      "id": 56758,
      "geometry": "POINT (-97.718085 30.338305)",
      "poi_name": "Domino's",
      "osm_id": 10247749359,
      "amenity": "fast_food",
      "cuisine": "pizza",
      "opening_hours": "Su-Th 10:30-24:00, Fr-Sa 10:30-25:00",
      "website": "https://www.dominos.com",
      "phone": "+1-512-599-4444",
      "takeaway": "yes",
      "drive_through": "no",
      "addr_state": "TX",
      "addr_city": "Austin",
      "addr_postcode": "78752",
      "addr_street": "Airport Boulevard",
      "addr_housenumber": "6929",
      "value": 202.17079541099602
    },
    {
      "id": 53587,
      "geometry": "POINT (-97.967362 30.340443)",
      "poi_name": "Papa Murphy's",
      "osm_id": 10087262676,
      "amenity": "fast_food",
      "cuisine": "pizza",
      "wheelchair": "yes",
      "opening_hours": "Mo-Th 10:00-19:00; Fr-Sa 10:00-20:00; Su 12:00-19:00",
      "website": "https://www.papamurphys.com/",
      "phone": "+1-512-906-0098",
      "takeaway": "only",
      "drive_through": "no",
      "official_name": "Papa Murphy's Take 'N' Bake Pizza",
      "delivery": "yes",
      "addr_state": "TX",
      "addr_city": "Lakeway",
      "addr_postcode": "78734",
      "addr_street": "Ranch Road 620 South",
      "addr_housenumber": "2303",
      "value": 202.17079541099602
    },
    {
      "id": 62506,
      "geometry": "POINT (-97.741722 30.287961)",
      "poi_name": "Einstein Bros. Bagels",
      "osm_id": 5571859444,
      "amenity": "fast_food",
      "cuisine": "bagel",
      "takeaway": "yes",
      "addr_state": "TX",
      "addr_city": "Austin",
      "addr_postcode": "78705",
      "addr_street": "Guadalupe Street",
      "addr_housenumber": "2404",
      "value": 202.17079541099602
    },
    {
      "id": 60444,
      "geometry": "POINT (-97.826167 30.290523)",
      "poi_name": "JuiceLand",
      "osm_id": 5465264412,
      "amenity": "fast_food",
      "cuisine": "juice",
      "opening_hours": "Mo-Sa 07:00-21:00; Su 08:00-21:00",
      "website": "https://www.juiceland.com/locations/westlake/",
      "phone": "+1-512-243-5719",
      "addr_state": "TX",
      "addr_city": "Austin",
      "addr_postcode": "78746",
      "addr_street": "South Capital of Texas Highway",
      "addr_housenumber": "701",
      "value": 202.17079541099602
    },
    {
      "id": 62761,
      "geometry": "POINT (-97.942853 29.882697)",
      "poi_name": "Schlotzsky's",
      "osm_id": 5585319248,
      "amenity": "fast_food",
      "cuisine": "sandwich",
      "phone": "+1-512-667-9565",
      "takeaway": "yes",
      "addr_state": "TX",
      "addr_city": "San Marcos",
      "addr_postcode": "78666",
      "addr_street": "West Hopkins Street",
      "addr_housenumber": "205",
      "value": 202.17079541099602
    },
    {
      "id": 64532,
      "geometry": "POINT (-97.676465 30.346634)",
      "poi_name": "Domino's",
      "osm_id": 5657313245,
      "amenity": "fast_food",
      "cuisine": "pizza",
      "takeaway": "yes",
      "addr_state": "TX",
      "addr_city": "Austin",
      "addr_postcode": "78754",
      "addr_street": "Cameron Road",
      "addr_housenumber": "9001",
      "value": 202.17079541099602
    },
    {
      "id": 63002,
      "geometry": "POINT (-97.842405 30.550266)",
      "poi_name": "Papa John's",
      "osm_id": 5597416746,
      "amenity": "fast_food",
      "cuisine": "pizza",
      "takeaway": "yes",
      "drive_through": "no",
      "addr_state": "TX",
      "addr_city": "Leander",
      "addr_postcode": "78641",
      "addr_street": "South Highway 183",
      "addr_housenumber": "2091",
      "value": 202.17079541099602
    },
    {
      "id": 72636,
      "geometry": "POINT (-97.832553 30.48021)",
      "poi_name": "Sonic",
      "osm_id": 11439706982,
      "amenity": "fast_food",
      "cuisine": "burger",
      "takeaway": "yes",
      "addr_state": "TX",
      "addr_city": "Cedar Park",
      "addr_street": "Cypress Creek Road",
      "value": 202.17079541099602
    },
    {
      "id": 71434,
      "geometry": "POINT (-97.737892 30.261013)",
      "poi_name": "Ziki",
      "osm_id": 11390659811,
      "amenity": "fast_food",
      "cuisine": "greek",
      "opening_hours": "Mo-We 10:00-24:00; Th-Su 10:00-03:00",
      "website": "https://ziki.kitchen/",
      "phone": "+1-309-300-9830",
      "takeaway": "yes",
      "delivery": "yes",
      "addr_state": "TX",
      "addr_city": "Austin",
      "addr_postcode": "78701",
      "addr_street": "Driskill Street",
      "addr_housenumber": "604",
      "value": 202.17079541099602
    },
    {
      "id": 64981,
      "geometry": "POINT (-97.94683 30.311106)",
      "poi_name": "Schlotzsky's",
      "osm_id": 5680385934,
      "amenity": "fast_food",
      "cuisine": "sandwich",
      "phone": "+1-737-209-0123",
      "takeaway": "yes",
      "addr_state": "TX",
      "addr_city": "Bee Cave",
      "addr_postcode": "78738",
      "addr_street": "Ranch Rd 620 South",
      "addr_housenumber": "3944",
      "value": 202.17079541099602
    },
    {
      "id": 70785,
      "geometry": "POINT (-97.852097 30.409303)",
      "poi_name": "Dairy Queen",
      "osm_id": 11374397200,
      "amenity": "fast_food",
      "cuisine": "ice_cream;burger",
      "opening_hours": "Su-Th 10:00-22:00; Fr-Sa 10:00-23:00",
      "takeaway": "yes",
      "addr_state": "TX",
      "addr_city": "Austin",
      "addr_postcode": "78726",
      "addr_street": "Ranch Road 620 North",
      "addr_housenumber": "7710",
      "value": 202.17079541099602
    },
    {
      "id": 71431,
      "geometry": "POINT (-97.738173 30.260715)",
      "poi_name": "Via 313 Pizza",
      "osm_id": 11390573667,
      "amenity": "fast_food",
      "cuisine": "pizza",
      "description": "Food trailer",
      "opening_hours": "Mo-Th 16:00-24; 00; Fr 16:00-01:00; Sa 12:00-01:00; Su 12:00-22:00",
      "website": "https://www.via313.com/",
      "phone": "+1 512-609-9405",
      "takeaway": "yes",
      "drive_through": "no",
      "outdoor_seating": "yes",
      "delivery": "yes",
      "addr_state": "TX",
      "addr_city": "Austin",
      "addr_postcode": "78701",
      "addr_street": "Rainey Street",
      "addr_housenumber": "96",
      "value": 202.17079541099602
    },
    {
      "id": 72773,
      "geometry": "POINT (-97.79938 30.274356)",
      "poi_name": "Jersey Mike's Subs",
      "osm_id": 11447372772,
      "amenity": "fast_food",
      "cuisine": "sandwich",
      "wheelchair": "yes",
      "opening_hours": "Mo-Su 07:00-21:00",
      "website": "https://www.jerseymikes.com/",
      "phone": "+1-512-494-5477",
      "takeaway": "yes",
      "addr_state": "TX",
      "addr_city": "Austin",
      "addr_postcode": "78746",
      "addr_street": "Bee Caves Road",
      "addr_housenumber": "3300",
      "value": 202.17079541099602
    },
    {
      "id": 74743,
      "geometry": "POINT (-97.870047 30.577784)",
      "poi_name": "Leander Nutrition",
      "osm_id": 9694255250,
      "amenity": "fast_food",
      "cuisine": "juice",
      "drive_through": "no",
      "addr_state": "TX",
      "addr_city": "Leander",
      "addr_postcode": "78641",
      "addr_street": "West Hero Way",
      "addr_housenumber": "11880",
      "value": 202.17079541099602
    },
    {
      "id": 72976,
      "geometry": "POINT (-97.848873 30.540511)",
      "poi_name": "Grand Donut",
      "osm_id": 9598847008,
      "amenity": "fast_food",
      "cuisine": "donut",
      "opening_hours": "Mo-Sa 05:00-13:00; Su 06:00-13:00",
      "drive_through": "no",
      "addr_state": "TX",
      "addr_city": "Leander",
      "addr_postcode": "78641",
      "addr_street": "South Bagdad Road",
      "addr_housenumber": "2800",
      "value": 202.17079541099602
    },
    {
      "id": 72977,
      "geometry": "POINT (-97.848356 30.539115)",
      "poi_name": "Domino's",
      "osm_id": 9598847016,
      "amenity": "fast_food",
      "cuisine": "pizza",
      "operator": "B4 Pizza, LLC",
      "takeaway": "yes",
      "drive_through": "no",
      "delivery": "yes",
      "addr_state": "TX",
      "addr_city": "Leander",
      "addr_postcode": "78641",
      "addr_street": "South Bagdad Road",
      "addr_housenumber": "2906",
      "value": 202.17079541099602
    },
    {
      "id": 73066,
      "geometry": "POINT (-97.732181 30.263771)",
      "poi_name": "Hopdoddy Burger Bar",
      "osm_id": 9604372018,
      "amenity": "fast_food",
      "cuisine": "burger",
      "drive_through": "no",
      "addr_state": "TX",
      "addr_city": "Austin",
      "addr_postcode": "78702",
      "addr_street": "East 5th Street",
      "addr_housenumber": "1011",
      "value": 202.17079541099602
    },
    {
      "id": 73067,
      "geometry": "POINT (-97.732405 30.26385)",
      "poi_name": "The Kebab Shop",
      "osm_id": 9604372020,
      "amenity": "fast_food",
      "cuisine": "kebab",
      "website": "https://thekebabshop.com/locations/tx/austin/east-austin/",
      "drive_through": "no",
      "addr_state": "TX",
      "addr_city": "Austin",
      "addr_postcode": "78702",
      "addr_street": "East 5th Street",
      "addr_housenumber": "1011",
      "value": 202.17079541099602
    },
    {
      "id": 74744,
      "geometry": "POINT (-97.869633 30.577912)",
      "poi_name": "Grand Donut",
      "osm_id": 9694255254,
      "amenity": "fast_food",
      "cuisine": "donut",
      "opening_hours": "Mo-Sa 05:00-13:00; Su 06:00-13:00",
      "drive_through": "no",
      "addr_state": "TX",
      "addr_city": "Leander",
      "addr_postcode": "78641",
      "addr_street": "West Hero Way",
      "addr_housenumber": "11880",
      "value": 202.17079541099602
    },
    {
      "id": 75903,
      "geometry": "POINT (-97.742332 30.26776)",
      "poi_name": "Jimmy John's",
      "osm_id": 9752268071,
      "amenity": "fast_food",
      "cuisine": "sandwich",
      "opening_hours": "Mo-Sa 11:00-16:00",
      "website": "https://locations.jimmyjohns.com/tx/austin/sandwiches-491.html",
      "phone": "+1-512-457-4900",
      "takeaway": "yes",
      "drive_through": "no",
      "official_name": "Jimmy John's Gourmet Sandwiches",
      "outdoor_seating": "no",
      "delivery": "yes",
      "toilets": "yes",
      "addr_state": "TX",
      "addr_city": "Austin",
      "addr_postcode": "78701",
      "addr_street": "Congress Avenue",
      "addr_housenumber": "515",
      "value": 202.17079541099602
    },
    {
      "id": 75571,
      "geometry": "POINT (-97.582018 30.503926)",
      "poi_name": "Little Caesars",
      "osm_id": 9736049144,
      "amenity": "fast_food",
      "cuisine": "pizza",
      "website": "https://littlecaesars.com/en-us/store/11700/",
      "takeaway": "yes",
      "addr_state": "TX",
      "addr_city": "Hutto",
      "addr_postcode": "78634",
      "addr_street": "Gattis School Rd",
      "addr_housenumber": "5004",
      "value": 202.17079541099602
    },
    {
      "id": 79005,
      "geometry": "POINT (-97.526188 30.175779)",
      "poi_name": "McDonald's",
      "osm_id": 768247499,
      "amenity": "fast_food",
      "cuisine": "burger",
      "website": "https://www.mcdonalds.com/us/en-us/location/tx/cedar-creek/2850-highway-71-west/31116.html",
      "takeaway": "yes",
      "addr_state": "TX",
      "addr_city": "Cedar Creek",
      "addr_postcode": "78612",
      "addr_street": "State Highway 71",
      "addr_housenumber": "2850",
      "value": 202.17079541099602
    },
    {
      "id": 81283,
      "geometry": "POINT (-97.413254 30.594393)",
      "poi_name": "Jack in the Box",
      "osm_id": 1619460940,
      "amenity": "fast_food",
      "cuisine": "burger",
      "takeaway": "yes",
      "addr_state": "TX",
      "addr_city": "Taylor",
      "addr_street": "North Main Street",
      "value": 202.17079541099602
    },
    {
      "id": 82612,
      "geometry": "POINT (-97.689152 30.41432)",
      "poi_name": "Domino's",
      "osm_id": 1706120127,
      "amenity": "fast_food",
      "cuisine": "pizza",
      "wheelchair": "yes",
      "opening_hours": "Su-Th 10:00-24:00; Fr-Sa 10:00-13:00",
      "website": "https://www.dominos.com/",
      "phone": "+1-512-834-1122",
      "takeaway": "yes",
      "drive_through": "no",
      "delivery": "yes",
      "addr_state": "TX",
      "addr_city": "Austin",
      "addr_postcode": "78727",
      "addr_street": "West Parmer Lane",
      "addr_housenumber": "1700",
      "value": 202.17079541099602
    },
    {
      "id": 82614,
      "geometry": "POINT (-97.702382 30.422008)",
      "poi_name": "Thundercloud Subs",
      "osm_id": 1706120129,
      "amenity": "fast_food",
      "cuisine": "sandwich",
      "wheelchair": "yes",
      "opening_hours": "Mo-Sa 10:30-21:00; Su 11:00-21:00",
      "website": "https://thundercloud.com/",
      "phone": "+1-512-255-2013",
      "takeaway": "only",
      "drive_through": "no",
      "delivery": "no",
      "addr_state": "TX",
      "addr_city": "Austin",
      "addr_postcode": "78727",
      "addr_street": "West Parmer Lane",
      "addr_housenumber": "2500",
      "value": 202.17079541099602
    },
    {
      "id": 82615,
      "geometry": "POINT (-97.689735 30.41205)",
      "poi_name": "Which Wich?",
      "osm_id": 1706120134,
      "amenity": "fast_food",
      "cuisine": "sandwich",
      "wheelchair": "yes",
      "opening_hours": "Mo-Sa 10:00-21:30; Su 11:00-21:00",
      "website": "https://order.whichwich.com/",
      "phone": "+1-512-339-9424",
      "takeaway": "yes",
      "drive_through": "no",
      "delivery": "yes",
      "addr_state": "TX",
      "addr_city": "Austin",
      "addr_postcode": "78727",
      "addr_street": "West Parmer Lane",
      "addr_housenumber": "1701",
      "value": 202.17079541099602
    },
    {
      "id": 82616,
      "geometry": "POINT (-97.687715 30.413048)",
      "poi_name": "Chipotle",
      "osm_id": 1706120136,
      "amenity": "fast_food",
      "cuisine": "mexican",
      "wheelchair": "yes",
      "opening_hours": "10:45-23:00",
      "website": "https://www.chipotle.com",
      "phone": "+1-512-837-0114",
      "takeaway": "yes",
      "drive_through": "no",
      "official_name": "Chipotle Mexican Grill",
      "outdoor_seating": "yes",
      "delivery": "yes",
      "addr_state": "TX",
      "addr_city": "Austin",
      "addr_postcode": "78727",
      "addr_street": "West Parmer Lane",
      "addr_housenumber": "1700",
      "value": 202.17079541099602
    },
    {
      "id": 84442,
      "geometry": "POINT (-97.670436 30.417859)",
      "poi_name": "Freebirds",
      "osm_id": 1792565686,
      "amenity": "fast_food",
      "cuisine": "mexican",
      "wheelchair": "yes",
      "opening_hours": "Mo-Su 10:30-21:30",
      "website": "https://freebirds.com/",
      "phone": "+1-512-251-9701",
      "takeaway": "yes",
      "drive_through": "no",
      "outdoor_seating": "yes",
      "delivery": "yes",
      "addr_state": "TX",
      "addr_city": "Austin",
      "addr_postcode": "78753",
      "addr_street": "Center Ridge Drive",
      "addr_housenumber": "1100",
      "value": 202.17079541099602
    },
    {
      "id": 88145,
      "geometry": "POINT (-97.676778 30.633446)",
      "poi_name": "Little Caesars",
      "osm_id": 8766932157,
      "amenity": "fast_food",
      "cuisine": "pizza",
      "wheelchair": "yes",
      "opening_hours": "Mo-Sa 11:00-22:00; Su 11:00-20:00",
      "website": "https://littlecaesars.com/en-us/store/10643/",
      "phone": "+1-512-869-2980",
      "takeaway": "yes",
      "drive_through": "yes",
      "delivery": "yes",
      "addr_state": "TX",
      "addr_city": "Georgetown",
      "addr_postcode": "78626",
      "addr_street": "East University Avenue",
      "addr_housenumber": "101",
      "value": 202.17079541099602
    },
    {
      "id": 93748,
      "geometry": "POINT (-97.6879 30.556276)",
      "poi_name": "Mighty Fine Burgers",
      "osm_id": 2184394036,
      "amenity": "fast_food",
      "cuisine": "burger",
      "wheelchair": "yes",
      "opening_hours": "Su-Th 11:00-21:00; Fr-Sa 11:00-21:30",
      "website": "https://mightyfineburgers.com/",
      "phone": "+1-512-381-3310",
      "takeaway": "yes",
      "drive_through": "no",
      "outdoor_seating": "yes",
      "delivery": "yes",
      "addr_state": "TX",
      "addr_city": "Round Rock",
      "addr_postcode": "78665",
      "addr_street": "University Oaks Boulevard",
      "addr_housenumber": "201",
      "value": 202.17079541099602
    },
    {
      "id": 93750,
      "geometry": "POINT (-97.687959 30.556489)",
      "poi_name": "Ike's Love & Sandwiches",
      "osm_id": 2184400842,
      "amenity": "fast_food",
      "cuisine": "sandwich",
      "wheelchair": "yes",
      "opening_hours": "Su-Sa 10:00-19:00",
      "website": "http://www.loveandsandwiches.com/",
      "phone": "+1-512-502-5783",
      "takeaway": "yes",
      "drive_through": "no",
      "delivery": "yes",
      "addr_state": "TX",
      "addr_city": "Round Rock",
      "addr_postcode": "78665",
      "addr_street": "University Oaks Boulevard",
      "addr_housenumber": "201",
      "value": 202.17079541099602
    },
    {
      "id": 88348,
      "geometry": "POINT (-97.784563 30.443841)",
      "poi_name": "East Side Pies",
      "osm_id": 8780068895,
      "amenity": "fast_food",
      "cuisine": "pizza",
      "description": "Beer and wine available at this location.",
      "wheelchair": "yes",
      "opening_hours": "Mo-Su 10:00-21:00",
      "website": "https://eastsidepies.com/",
      "phone": "+1-512-488-9585",
      "takeaway": "yes",
      "drive_through": "no",
      "outdoor_seating": "yes",
      "delivery": "yes",
      "addr_state": "TX",
      "addr_city": "Austin",
      "addr_postcode": "78750",
      "addr_street": "Research Boulevard",
      "addr_housenumber": "13265",
      "value": 202.17079541099602
    },
    {
      "id": 95402,
      "geometry": "POINT (-97.744292 30.446029)",
      "poi_name": "JuiceLand",
      "osm_id": 6394954079,
      "amenity": "fast_food",
      "cuisine": "juice;smoothie",
      "opening_hours": "Mo-Sa 07:00-21:00; Su 08:00-21:00",
      "website": "https://www.juiceland.com/locations/parmer-mcneil/",
      "phone": "+1-512-249-0956",
      "takeaway": "yes",
      "drive_through": "no",
      "addr_state": "TX",
      "addr_city": "Austin",
      "addr_postcode": "78729",
      "addr_street": "West Parmer Lane",
      "addr_housenumber": "6301",
      "value": 202.17079541099602
    },
    {
      "id": 95737,
      "geometry": "POINT (-97.677726 30.481387)",
      "poi_name": "Jersey Mike's Subs",
      "osm_id": 6410132521,
      "amenity": "fast_food",
      "cuisine": "sandwich",
      "wheelchair": "yes",
      "takeaway": "yes",
      "addr_state": "TX",
      "addr_city": "Round Rock",
      "addr_postcode": "78681",
      "addr_street": "Interstate Highway 35 Service Road",
      "addr_housenumber": "2800",
      "value": 202.17079541099602
    },
    {
      "id": 95738,
      "geometry": "POINT (-97.677737 30.481559)",
      "poi_name": "Teriyaki Madness",
      "osm_id": 6410132522,
      "amenity": "fast_food",
      "cuisine": "japanese",
      "wheelchair": "yes",
      "takeaway": "yes",
      "addr_state": "TX",
      "addr_city": "Round Rock",
      "addr_postcode": "78681",
      "addr_street": "Interstate Highway 35 Service Road",
      "addr_housenumber": "2800",
      "value": 202.17079541099602
    },
    {
      "id": 97510,
      "geometry": "POINT (-97.697976 30.437811)",
      "poi_name": "The Rolling Rooster",
      "osm_id": 6482507694,
      "amenity": "fast_food",
      "cuisine": "chicken;soul_food;southern;fried_chicken;waffle;wings",
      "takeaway": "yes",
      "delivery": "yes",
      "addr_state": "TX",
      "addr_city": "Austin",
      "addr_postcode": "78728",
      "addr_street": "Mopac Expressway",
      "addr_housenumber": "13717",
      "value": 202.17079541099602
    },
    {
      "id": 102777,
      "geometry": "POINT (-97.976509 30.206274)",
      "poi_name": "Jersey Mike's Subs",
      "osm_id": 8457693861,
      "amenity": "fast_food",
      "cuisine": "sandwich",
      "phone": "+1-512-291-7369",
      "takeaway": "yes",
      "addr_state": "TX",
      "addr_city": "Austin",
      "addr_postcode": "78737",
      "addr_street": "Hargraves Drive",
      "addr_housenumber": "165",
      "value": 202.17079541099602
    },
    {
      "id": 102820,
      "geometry": "POINT (-97.734764 30.358572)",
      "poi_name": "Jersey Mike's Subs",
      "osm_id": 8459784810,
      "amenity": "fast_food",
      "cuisine": "sandwich",
      "website": "+1-512-419-9535",
      "takeaway": "yes",
      "addr_state": "TX",
      "addr_city": "Austin",
      "addr_postcode": "78757",
      "addr_street": "West Anderson Lane",
      "addr_housenumber": "2700",
      "value": 202.17079541099602
    },
    {
      "id": 102829,
      "geometry": "POINT (-97.735518 30.315018)",
      "poi_name": "Jersey Mike's Subs",
      "osm_id": 8461267054,
      "amenity": "fast_food",
      "cuisine": "sandwich",
      "phone": "+1-512-467-7827-",
      "takeaway": "yes",
      "addr_state": "TX",
      "addr_city": "Austin",
      "addr_postcode": "78751",
      "addr_street": "North Lamar Boulevard",
      "addr_housenumber": "4601",
      "value": 202.17079541099602
    },
    {
      "id": 102830,
      "geometry": "POINT (-97.756112 30.219699)",
      "poi_name": "Jersey Mike's Subs",
      "osm_id": 8461290833,
      "amenity": "fast_food",
      "cuisine": "sandwich",
      "phone": "+1-512-326-3500",
      "takeaway": "yes",
      "addr_state": "TX",
      "addr_city": "Austin",
      "addr_postcode": "78704",
      "addr_street": "East Ben White Boulevard",
      "addr_housenumber": "600",
      "value": 202.17079541099602
    },
    {
      "id": 102831,
      "geometry": "POINT (-97.792922 30.165988)",
      "poi_name": "Jersey Mike's Subs",
      "osm_id": 8461331931,
      "amenity": "fast_food",
      "cuisine": "sandwich",
      "phone": "+1-512-233-6333",
      "takeaway": "yes",
      "addr_state": "TX",
      "addr_city": "Austin",
      "addr_postcode": "78748",
      "addr_street": "South IH-35",
      "addr_housenumber": "9500",
      "value": 202.17079541099602
    },
    {
      "id": 103190,
      "geometry": "POINT (-97.73601 30.285111)",
      "poi_name": "Chick-fil-A",
      "osm_id": 8489558781,
      "amenity": "fast_food",
      "cuisine": "chicken",
      "description": "Student Activities Center",
      "phone": "+1-512-485-6508",
      "takeaway": "yes",
      "addr_state": "TX",
      "addr_city": "Austin",
      "addr_postcode": "78712",
      "addr_street": "Speedway",
      "addr_housenumber": "2201",
      "value": 202.17079541099602
    },
    {
      "id": 103085,
      "geometry": "POINT (-97.688726 30.632803)",
      "poi_name": "Jimmy John's",
      "osm_id": 8481147700,
      "amenity": "fast_food",
      "cuisine": "sandwich",
      "wheelchair": "yes",
      "opening_hours": "Mo-Su 11:00-20:00",
      "website": "https://locations.jimmyjohns.com/tx/georgetown/sandwiches-1848.html",
      "phone": "+1-512-869-3604",
      "takeaway": "yes",
      "drive_through": "no",
      "official_name": "Jimmy John's Gourmet Sandwiches",
      "outdoor_seating": "yes",
      "delivery": "yes",
      "addr_state": "TX",
      "addr_city": "Georgetown",
      "addr_postcode": "78626",
      "addr_street": "West University Avenue",
      "addr_housenumber": "950",
      "value": 202.17079541099602
    },
    {
      "id": 103088,
      "geometry": "POINT (-97.685722 30.632717)",
      "poi_name": "Jersey Mike's Subs",
      "osm_id": 8481285783,
      "amenity": "fast_food",
      "cuisine": "sandwich",
      "wheelchair": "yes",
      "opening_hours": "Mo-Su 10:00-21:00",
      "website": "https://www.jerseymikes.com/15108/georgetown-tx",
      "phone": "+1-737-356-0444",
      "takeaway": "yes",
      "drive_through": "no",
      "delivery": "yes",
      "addr_state": "TX",
      "addr_city": "Georgetown",
      "addr_postcode": "78626",
      "addr_street": "West University Avenue",
      "addr_housenumber": "904",
      "value": 202.17079541099602
    },
    {
      "id": 103209,
      "geometry": "POINT (-97.850193 30.412048)",
      "poi_name": "Chick-fil-A",
      "osm_id": 8490693085,
      "amenity": "fast_food",
      "cuisine": "chicken",
      "phone": "+1-512-219-9082",
      "takeaway": "yes",
      "addr_state": "TX",
      "addr_city": "Austin",
      "addr_postcode": "78726",
      "addr_street": "N FM 620 Rd",
      "addr_housenumber": "7710",
      "value": 202.17079541099602
    },
    {
      "id": 103171,
      "geometry": "POINT (-97.596055 30.466513)",
      "poi_name": "Domino's",
      "osm_id": 8487648218,
      "amenity": "fast_food",
      "cuisine": "pizza",
      "takeaway": "yes",
      "addr_state": "TX",
      "addr_city": "Pflugerville",
      "addr_postcode": "78660",
      "addr_street": "Limestone Commercial Drive",
      "addr_housenumber": "18701",
      "value": 202.17079541099602
    },
    {
      "id": 103172,
      "geometry": "POINT (-97.596075 30.466454)",
      "poi_name": "Smoothie King",
      "osm_id": 8487648219,
      "amenity": "fast_food",
      "cuisine": "juice",
      "takeaway": "yes",
      "addr_state": "TX",
      "addr_city": "Pflugerville",
      "addr_postcode": "78660",
      "addr_street": "Limestone Commercial Drive",
      "addr_housenumber": "18701",
      "value": 202.17079541099602
    },
    {
      "id": 103173,
      "geometry": "POINT (-97.596168 30.466351)",
      "poi_name": "Panera Bread",
      "osm_id": 8487648220,
      "amenity": "fast_food",
      "cuisine": "sandwich;bakery",
      "takeaway": "yes",
      "drive_through": "yes",
      "addr_state": "TX",
      "addr_city": "Pflugerville",
      "addr_postcode": "78660",
      "addr_street": "Limestone Commercial Drive",
      "addr_housenumber": "18701",
      "value": 202.17079541099602
    },
    {
      "id": 104755,
      "geometry": "POINT (-97.677199 30.636076)",
      "poi_name": "Thundercloud Subs",
      "osm_id": 8584701790,
      "amenity": "fast_food",
      "cuisine": "sandwich",
      "opening_hours": "Mo-Sa 10:30-20:00; Su 11:00-19:30",
      "website": "https://thundercloud.com/",
      "phone": "+1-512-869-8806",
      "drive_through": "no",
      "addr_state": "TX",
      "addr_city": "Georgetown",
      "addr_postcode": "78626",
      "addr_street": "South Main Street",
      "addr_housenumber": "814",
      "value": 202.17079541099602
    },
    {
      "id": 103962,
      "geometry": "POINT (-97.794895 30.476692)",
      "poi_name": "Subway",
      "osm_id": 8534622948,
      "amenity": "fast_food",
      "cuisine": "sandwich",
      "opening_hours": "Mo-Su 10:00-21:00",
      "website": "https://www.subway.com/en-us",
      "phone": "+1-512-331-2025",
      "takeaway": "yes",
      "drive_through": "no",
      "addr_state": "TX",
      "addr_city": "Austin",
      "addr_postcode": "78717",
      "addr_street": "Lakeline Mall Drive",
      "addr_housenumber": "10900",
      "value": 202.17079541099602
    },
    {
      "id": 103967,
      "geometry": "POINT (-97.800354 30.478444)",
      "poi_name": "Mooyah",
      "osm_id": 8534834262,
      "amenity": "fast_food",
      "cuisine": "burger",
      "wheelchair": "yes",
      "opening_hours": "Mo-Su 11:00-20:00",
      "website": "https://www.mooyah.com/",
      "phone": "+1-512-219-1600",
      "takeaway": "yes",
      "drive_through": "no",
      "delivery": "yes",
      "addr_state": "TX",
      "addr_city": "Austin",
      "addr_postcode": "78717",
      "addr_street": "Lakeline Boulevard",
      "addr_housenumber": "11301",
      "value": 202.17079541099602
    },
    {
      "id": 103515,
      "geometry": "POINT (-97.944129 29.889214)",
      "poi_name": "Chick-fil-A",
      "osm_id": 8507378594,
      "amenity": "fast_food",
      "cuisine": "chicken",
      "phone": "+1-512-245-9930",
      "takeaway": "yes",
      "addr_state": "TX",
      "addr_city": "San Marcos",
      "value": 202.17079541099602
    },
    {
      "id": 103912,
      "geometry": "POINT (-97.798962 30.47579)",
      "poi_name": "Potbelly",
      "osm_id": 8533156737,
      "amenity": "fast_food",
      "cuisine": "sandwich",
      "wheelchair": "yes",
      "opening_hours": "Mo-Su 10:00-21:00",
      "website": "https://www.potbelly.com/stores/23229",
      "phone": "+1-512-872-7176",
      "takeaway": "yes",
      "drive_through": "yes",
      "official_name": "Potbelly Sandwich Works",
      "outdoor_seating": "yes",
      "delivery": "yes",
      "addr_state": "TX",
      "addr_city": "Austin",
      "addr_postcode": "78717",
      "addr_street": "183A Toll Road",
      "addr_housenumber": "14009",
      "value": 202.17079541099602
    },
    {
      "id": 104757,
      "geometry": "POINT (-97.677505 30.636457)",
      "poi_name": "Mikey V's Tacos On The Square and Hot Sauce Shop",
      "osm_id": 8584701800,
      "amenity": "fast_food",
      "cuisine": "tacos",
      "description": "They also sell bottled hot sauce.",
      "opening_hours": "Tu-Th 09:00-20:00; Fr-Sa 09:00-22:00; Su 10:00-18:00",
      "website": "https://www.mikeyvstacosonthesquare.com/",
      "phone": "+1-512-688-1249",
      "drive_through": "no",
      "addr_state": "TX",
      "addr_city": "Georgetown",
      "addr_postcode": "78626",
      "addr_street": "West 8th Street",
      "addr_housenumber": "112",
      "value": 202.17079541099602
    },
    {
      "id": 105477,
      "geometry": "POINT (-97.610969 30.812694)",
      "poi_name": "Papa John's",
      "osm_id": 8630476811,
      "amenity": "fast_food",
      "cuisine": "pizza",
      "opening_hours": "Su-Th 11:00-21:40; Fr-Sa 11:00-22:40",
      "website": "https://www.papajohns.com/",
      "phone": "+1-512-598-3333",
      "takeaway": "only",
      "drive_through": "no",
      "delivery": "yes",
      "addr_state": "TX",
      "addr_city": "Jarrell",
      "addr_postcode": "76537",
      "addr_street": "Interstate Highway 35 Service Road",
      "addr_housenumber": "11720",
      "value": 202.17079541099602
    },
    {
      "id": 105865,
      "geometry": "POINT (-97.985268 29.826947)",
      "poi_name": "Chipotle",
      "osm_id": 8648254198,
      "amenity": "fast_food",
      "cuisine": "mexican",
      "opening_hours": "Mo-Sa 10:00-19:00, Su 11:00-19:00",
      "phone": "+1 512 396 0264",
      "takeaway": "yes",
      "official_name": "Chipotle Mexican Grill",
      "addr_state": "TX",
      "addr_city": "San Marcos",
      "addr_postcode": "78666",
      "addr_street": "I-35 Frontage",
      "value": 202.17079541099602
    },
    {
      "id": 105883,
      "geometry": "POINT (-97.984979 29.824578)",
      "poi_name": "The Fudgery",
      "osm_id": 8649163920,
      "amenity": "fast_food",
      "opening_hours": "Mo-Sa 10:00-19:00, Su 11:00-19:00",
      "phone": "+1 512 754 0655",
      "drive_through": "no",
      "addr_state": "TX",
      "addr_city": "San Marcos",
      "addr_postcode": "78666",
      "addr_street": "I-35 Frontage",
      "value": 202.17079541099602
    },
    {
      "id": 105866,
      "geometry": "POINT (-97.986117 29.823572)",
      "poi_name": "Subway",
      "osm_id": 8648254205,
      "amenity": "fast_food",
      "cuisine": "sandwich",
      "opening_hours": "Mo-Sa 10:00-19:00, Su 11:00-19:00",
      "phone": "+1 512 392 3200",
      "takeaway": "yes",
      "drive_through": "no",
      "addr_state": "TX",
      "addr_city": "San Marcos",
      "addr_postcode": "78666",
      "addr_street": "I-35 Frontage",
      "value": 202.17079541099602
    },
    {
      "id": 105874,
      "geometry": "POINT (-97.62826 30.775011)",
      "poi_name": "Taqueria El Sazon De Mam\u00e1",
      "osm_id": 8648913881,
      "amenity": "fast_food",
      "cuisine": "mexican",
      "description": "Food truck",
      "website": "https://www.facebook.com/TaqueriaESDM",
      "phone": "+1-737-215-6815",
      "drive_through": "no",
      "addr_state": "TX",
      "addr_city": "Jarrell",
      "addr_postcode": "76537",
      "addr_street": "Ronald Reagan Boulevard",
      "addr_housenumber": "100",
      "value": 202.17079541099602
    },
    {
      "id": 105875,
      "geometry": "POINT (-97.627418 30.774949)",
      "poi_name": "Subway",
      "osm_id": 8648913882,
      "amenity": "fast_food",
      "cuisine": "sandwich",
      "description": "Located inside Circle K.",
      "wheelchair": "yes",
      "opening_hours": "Mo-Th 09:00-20:00; Fr 09:00-21:00; Sa-Su 10:00-20:00",
      "website": "https://www.subway.com/en-us",
      "phone": "+1-512-746-5047",
      "takeaway": "yes",
      "drive_through": "no",
      "delivery": "no",
      "addr_state": "TX",
      "addr_city": "Jarrell",
      "addr_postcode": "76537",
      "addr_street": "Interstate Highway 35 Service Road",
      "addr_housenumber": "91111",
      "value": 202.17079541099602
    },
    {
      "id": 105880,
      "geometry": "POINT (-97.988316 29.824053)",
      "poi_name": "Great American Cookies",
      "osm_id": 8649145438,
      "amenity": "fast_food",
      "cuisine": "cookie",
      "opening_hours": "Mo-Sa 10:00-19:00, Su 11:00-19:00",
      "phone": "+1 512 392 6989",
      "takeaway": "yes",
      "addr_state": "TX",
      "addr_city": "San Marcos",
      "addr_postcode": "78666",
      "addr_street": "I-35 Frontage",
      "value": 202.17079541099602
    },
    {
      "id": 106582,
      "geometry": "POINT (-97.981138 29.82685)",
      "poi_name": "Dragon Breath",
      "osm_id": 8690780465,
      "amenity": "fast_food",
      "cuisine": "juice",
      "drive_through": "no",
      "addr_state": "TX",
      "addr_city": "San Marcos",
      "addr_postcode": "78666",
      "addr_street": "South Interstate 35",
      "value": 202.17079541099602
    },
    {
      "id": 106029,
      "geometry": "POINT (-97.801691 30.564287)",
      "poi_name": "Super Donut 8",
      "osm_id": 8660519169,
      "amenity": "fast_food",
      "cuisine": "donut",
      "wheelchair": "yes",
      "internet_access": "wlan",
      "phone": "+1-512-986-4471",
      "takeaway": "yes",
      "drive_through": "yes",
      "outdoor_seating": "yes",
      "delivery": "no",
      "addr_state": "TX",
      "addr_city": "Leander",
      "addr_postcode": "78641",
      "addr_street": "Ronald W Reagan Boulevard",
      "addr_housenumber": "15609",
      "value": 202.17079541099602
    },
    {
      "id": 106030,
      "geometry": "POINT (-97.801984 30.564266)",
      "poi_name": "Sharks Burger",
      "osm_id": 8660519193,
      "amenity": "fast_food",
      "description": "Closed for Easter, Thanksgiving, Christmas Eve, and Christmas Day.",
      "wheelchair": "yes",
      "opening_hours": "Mo-Th 11:00-20:00; Fr-Sa 11:00-21:00; Su 11:00-19:00",
      "phone": "+1-512-986-7799",
      "takeaway": "yes",
      "drive_through": "no",
      "addr_state": "TX",
      "addr_city": "Leander",
      "addr_postcode": "78641",
      "addr_street": "Ronald W Reagan Boulevard",
      "addr_housenumber": "15609",
      "value": 202.17079541099602
    },
    {
      "id": 106583,
      "geometry": "POINT (-97.981171 29.826927)",
      "poi_name": "Phil's Philly Grill",
      "osm_id": 8690780466,
      "amenity": "fast_food",
      "cuisine": "burger",
      "website": "https://www.premiumoutlets.com/outlet/san-marcos/stores/phils-philly-grill",
      "phone": "+1 512 392 7445",
      "addr_state": "TX",
      "addr_city": "San Marcos",
      "addr_postcode": "78666",
      "addr_street": "South Interstate 35",
      "value": 202.17079541099602
    },
    {
      "id": 111394,
      "geometry": "POINT (-97.686702 30.508188)",
      "poi_name": "Jimmy John's",
      "osm_id": 3746122176,
      "amenity": "fast_food",
      "cuisine": "sandwich",
      "opening_hours": "Mo-Su 11:00-21:00",
      "website": "https://locations.jimmyjohns.com/tx/roundrock/sandwiches-2040.html",
      "phone": "+1-512-255-5000",
      "takeaway": "yes",
      "drive_through": "no",
      "official_name": "Jimmy John's Gourmet Sandwiches",
      "delivery": "yes",
      "addr_state": "TX",
      "addr_city": "Round Rock",
      "addr_postcode": "78681",
      "addr_street": "North Interstate 35",
      "addr_housenumber": "110",
      "value": 202.17079541099602
    },
    {
      "id": 112518,
      "geometry": "POINT (-97.689979 30.560424)",
      "poi_name": "Jimmy John's",
      "osm_id": 3794510531,
      "amenity": "fast_food",
      "cuisine": "sandwich",
      "wheelchair": "yes",
      "opening_hours": "Mo-Su 11:00-21:00",
      "website": "https://locations.jimmyjohns.com/tx/roundrock/sandwiches-1007.html",
      "phone": "+1-512-868-4419",
      "takeaway": "yes",
      "drive_through": "no",
      "official_name": "Jimmy John's Gourmet Sandwiches",
      "delivery": "yes",
      "addr_state": "TX",
      "addr_city": "Round Rock",
      "addr_postcode": "78665",
      "addr_street": "University Boulevard",
      "addr_housenumber": "200",
      "value": 202.17079541099602
    },
    {
      "id": 112869,
      "geometry": "POINT (-98.082164 30.192129)",
      "poi_name": "Schlotzsky's",
      "osm_id": 3808346678,
      "amenity": "fast_food",
      "cuisine": "sandwich",
      "phone": "+1-512-894-2043",
      "takeaway": "yes",
      "addr_state": "TX",
      "addr_city": "Dripping Springs",
      "addr_postcode": "78620",
      "addr_street": "Cannon Drive",
      "addr_housenumber": "1025",
      "value": 202.17079541099602
    },
    {
      "id": 115043,
      "geometry": "POINT (-97.84039 30.222405)",
      "poi_name": "Torchy's Tacos",
      "osm_id": 3907546355,
      "amenity": "fast_food",
      "cuisine": "mexican",
      "wheelchair": "yes",
      "phone": "+1-512-514-0767",
      "takeaway": "yes",
      "drive_through": "no",
      "outdoor_seating": "yes",
      "addr_state": "TX",
      "addr_city": "Austin",
      "addr_postcode": "78749",
      "addr_street": "West William Cannon Drive",
      "addr_housenumber": "4301",
      "value": 202.17079541099602
    },
    {
      "id": 114946,
      "geometry": "POINT (-97.851572 30.028296)",
      "poi_name": "Laredo Taco Company",
      "osm_id": 3903415404,
      "amenity": "fast_food",
      "cuisine": "regional",
      "operator": "Stripes",
      "addr_state": "TX",
      "addr_city": "Kyle",
      "addr_postcode": "78640",
      "addr_street": "I-35 Southbound Frontage Road",
      "addr_housenumber": "19350",
      "value": 202.17079541099602
    },
    {
      "id": 122034,
      "geometry": "POINT (-97.744601 30.441861)",
      "poi_name": "Subway",
      "osm_id": 6784232960,
      "amenity": "fast_food",
      "cuisine": "sandwich",
      "takeaway": "yes",
      "drive_through": "no",
      "addr_state": "TX",
      "addr_city": "Austin",
      "addr_postcode": "78727",
      "addr_street": "West Parmer Lane",
      "addr_housenumber": "6001",
      "value": 202.17079541099602
    },
    {
      "id": 115112,
      "geometry": "POINT (-97.824476 30.086228)",
      "poi_name": "McDonald's",
      "osm_id": 3911464984,
      "amenity": "fast_food",
      "cuisine": "burger",
      "takeaway": "yes",
      "drive_through": "no",
      "delivery": "no",
      "addr_state": "TX",
      "addr_city": "Buda",
      "addr_postcode": "78610",
      "addr_street": "Old San Antonio Road",
      "addr_housenumber": "690",
      "value": 202.17079541099602
    },
    {
      "id": 116173,
      "geometry": "POINT (-97.75223 30.267342)",
      "poi_name": "N\u00e9kter Juice Bar",
      "osm_id": 8931050057,
      "amenity": "fast_food",
      "cuisine": "juice",
      "drive_through": "no",
      "addr_state": "TX",
      "addr_city": "Austin",
      "addr_postcode": "78701",
      "addr_street": "West Avenue",
      "addr_housenumber": "222",
      "value": 202.17079541099602
    },
    {
      "id": 124023,
      "geometry": "POINT (-97.670422 30.41793)",
      "poi_name": "Jimmy John's",
      "osm_id": 6896978068,
      "amenity": "fast_food",
      "cuisine": "sandwich",
      "wheelchair": "yes",
      "opening_hours": "Mo-Su 11:00-21:00",
      "website": "https://locations.jimmyjohns.com/tx/austin/sandwiches-1293.html",
      "phone": "+1-512-670-3600",
      "takeaway": "yes",
      "drive_through": "no",
      "official_name": "Jimmy John's Gourmet Sandwiches",
      "delivery": "yes",
      "addr_state": "TX",
      "addr_city": "Austin",
      "addr_postcode": "78753",
      "addr_street": "Center Ridge Drive",
      "addr_housenumber": "1100",
      "value": 202.17079541099602
    },
    {
      "id": 127251,
      "geometry": "POINT (-97.67635 30.650336)",
      "poi_name": "Subway",
      "osm_id": 8046626593,
      "amenity": "fast_food",
      "cuisine": "sandwich",
      "description": "Open all day Sunday (12am to 12am).",
      "opening_hours": "Mo-Sa 09:30-21:30",
      "website": "https://www.subway.com/en-us",
      "phone": "+1-512-869-7827",
      "takeaway": "yes",
      "drive_through": "no",
      "delivery": "yes",
      "addr_state": "TX",
      "addr_city": "Georgetown",
      "addr_postcode": "78626",
      "addr_street": "N Austin Avenue",
      "addr_housenumber": "900",
      "value": 202.17079541099602
    },
    {
      "id": 127254,
      "geometry": "POINT (-97.69397 30.66328)",
      "poi_name": "Mr. Gatti's Pizza",
      "osm_id": 8046626702,
      "amenity": "fast_food",
      "cuisine": "pizza",
      "wheelchair": "yes",
      "opening_hours": "10:30-22:00",
      "website": "https://mrgattispizza.com",
      "phone": "+1-512-930-2222",
      "takeaway": "only",
      "drive_through": "no",
      "delivery": "yes",
      "addr_state": "TX",
      "addr_city": "Georgetown",
      "addr_postcode": "78628",
      "addr_street": "Williams Drive",
      "addr_housenumber": "3010",
      "value": 202.17079541099602
    },
    {
      "id": 127380,
      "geometry": "POINT (-97.7079 30.67662)",
      "poi_name": "Georgetown Donuts",
      "osm_id": 8061248539,
      "amenity": "fast_food",
      "cuisine": "donut",
      "opening_hours": "Su-Sa 05:00-13:00",
      "phone": "+1-512-863-4882",
      "drive_through": "yes",
      "addr_state": "TX",
      "addr_city": "Georgetown",
      "addr_postcode": "78628",
      "addr_street": "Williams Drive",
      "addr_housenumber": "4106",
      "value": 202.17079541099602
    },
    {
      "id": 127430,
      "geometry": "POINT (-97.815723 30.52677)",
      "poi_name": "Mighty Fine",
      "osm_id": 8064257632,
      "amenity": "fast_food",
      "cuisine": "burger",
      "drive_through": "no",
      "addr_state": "TX",
      "addr_city": "Cedar Park",
      "addr_postcode": "78613",
      "addr_street": "East Whitestone Boulevard",
      "value": 202.17079541099602
    },
    {
      "id": 129411,
      "geometry": "POINT (-97.981048 30.204108)",
      "poi_name": "Dunkin'",
      "osm_id": 8241988099,
      "amenity": "fast_food",
      "cuisine": "donut;coffee_shop",
      "takeaway": "yes",
      "addr_state": "TX",
      "addr_city": "Austin",
      "addr_postcode": "78737",
      "addr_street": "Hargraves Drive",
      "addr_housenumber": "166",
      "value": 202.17079541099602
    },
    {
      "id": 129714,
      "geometry": "POINT (-97.645614 30.466088)",
      "poi_name": "Smiling Donuts",
      "osm_id": 9836575825,
      "amenity": "fast_food",
      "cuisine": "donut;coffee_shop",
      "opening_hours": "Mo-Su 4:00 - 14:00",
      "phone": "512-919-4334",
      "drive_through": "no",
      "addr_state": "TX",
      "addr_city": "Pflugerville",
      "addr_postcode": "78660",
      "addr_street": "Grand Avenue Parkway",
      "addr_housenumber": "428",
      "value": 202.17079541099602
    },
    {
      "id": 131800,
      "geometry": "POINT (-97.800572 30.273714)",
      "poi_name": "Raising Cane's",
      "osm_id": 9929973522,
      "amenity": "fast_food",
      "cuisine": "chicken",
      "building": "yes",
      "website": "https://raisingcanes.com/location/161",
      "phone": "+1-512-732-2992",
      "takeaway": "yes",
      "official_name": "Raising Cane's Chicken Fingers",
      "addr_state": "TX",
      "addr_city": "Austin",
      "addr_postcode": "78746",
      "addr_street": "Bee Caves Road",
      "addr_housenumber": "3201",
      "value": 202.17079541099602
    },
    {
      "id": 134328,
      "geometry": "POINT (-97.78236 30.536214)",
      "poi_name": "King and Cardinal",
      "osm_id": 11464477194,
      "amenity": "fast_food",
      "cuisine": "burger",
      "wheelchair": "yes",
      "opening_hours": "Su-Th 11:00-21:45; Fr-Sa 11:00-22:15",
      "website": "https://order.toasttab.com/online/king-cardinal-cedar-park",
      "phone": "+1-512-986-7768",
      "takeaway": "yes",
      "drive_through": "no",
      "delivery": "yes",
      "addr_state": "TX",
      "addr_city": "Cedar Park",
      "addr_postcode": "78613",
      "addr_street": "East Whitestone Boulevard",
      "addr_housenumber": "3101",
      "value": 202.17079541099602
    },
    {
      "id": 135012,
      "geometry": "POINT (-97.61944 30.388663)",
      "poi_name": "Countryside Donuts",
      "osm_id": 11500825596,
      "amenity": "fast_food",
      "cuisine": "donut",
      "opening_hours": "Mo-Su 05:00-13:00",
      "addr_state": "TX",
      "addr_city": "Pflugerville",
      "addr_postcode": "78660",
      "addr_street": "East Howard Lane",
      "addr_housenumber": "3400",
      "value": 202.17079541099602
    },
    {
      "id": 134751,
      "geometry": "POINT (-97.867128 30.545167)",
      "poi_name": "Domino's",
      "osm_id": 11484501002,
      "amenity": "fast_food",
      "cuisine": "pizza",
      "wheelchair": "yes",
      "opening_hours": "Su-Th 10:30-23:00 open \"Carryout or Delivery\", Fr-Sa 10:00-23:00 open \"Carryout or Delivery\" || Su-Th 10:30-24:00 open \"Delivery\" || Fr-Sa 10:00-25:00 open \"Delivery\"",
      "operator": "B4 Pizza LLC",
      "phone": "+1-737-757-0045",
      "takeaway": "yes",
      "drive_through": "no",
      "outdoor_seating": "no",
      "delivery": "yes",
      "toilets": "no",
      "addr_state": "TX",
      "addr_city": "Leander",
      "addr_postcode": "78641",
      "addr_street": "Crystal Falls Parkway",
      "addr_housenumber": "1880",
      "value": 202.17079541099602
    },
    {
      "id": 140150,
      "geometry": "POINT (-97.555575 30.34827)",
      "poi_name": "Domino's",
      "osm_id": 6233663530,
      "amenity": "fast_food",
      "cuisine": "pizza",
      "takeaway": "yes",
      "drive_through": "yes",
      "addr_state": "TX",
      "addr_city": "manor",
      "addr_postcode": "78653",
      "addr_street": "US Highway 290",
      "addr_housenumber": "11211",
      "value": 202.17079541099602
    },
    {
      "id": 135753,
      "geometry": "POINT (-97.718704 30.338783)",
      "poi_name": "Shishman Mediterranean",
      "osm_id": 11534850749,
      "amenity": "fast_food",
      "cuisine": "kebab",
      "website": "http://www.shishmangrill.com/",
      "drive_through": "no",
      "addr_state": "TX",
      "addr_city": "Austin",
      "addr_postcode": "78752",
      "addr_street": "Easy Wind Drive",
      "addr_housenumber": "7020",
      "value": 202.17079541099602
    },
    {
      "id": 139090,
      "geometry": "POINT (-97.985704 30.318105)",
      "poi_name": "Domino's",
      "osm_id": 6180593862,
      "amenity": "fast_food",
      "cuisine": "pizza",
      "takeaway": "yes",
      "drive_through": "no",
      "outdoor_seating": "no",
      "delivery": "yes",
      "addr_state": "TX",
      "addr_city": "Bee Cave",
      "addr_postcode": "78738",
      "addr_street": "State Highway 71 W",
      "addr_housenumber": "15500",
      "value": 202.17079541099602
    },
    {
      "id": 152013,
      "geometry": "POINT (-97.698954 30.303222)",
      "poi_name": "MOD Pizza",
      "osm_id": 4122148289,
      "amenity": "fast_food",
      "cuisine": "pizza",
      "wheelchair": "yes",
      "opening_hours": "Su-Th 10:30-22:00; Fr-Sa 10:30-23:00",
      "website": "https://modpizza.com/locations/mueller-market/",
      "phone": "+1-512-687-2670",
      "takeaway": "yes",
      "drive_through": "no",
      "outdoor_seating": "yes",
      "delivery": "yes",
      "addr_state": "TX",
      "addr_city": "Austin",
      "addr_postcode": "78723",
      "addr_street": "East 51st Street",
      "addr_housenumber": "1801",
      "value": 202.17079541099602
    },
    {
      "id": 144801,
      "geometry": "POINT (-97.704164 30.417269)",
      "poi_name": "Papa Murphy's",
      "osm_id": 7287247421,
      "amenity": "fast_food",
      "cuisine": "pizza",
      "opening_hours": "Su-Th 10:00-21:00; Fr-Sa 10:00-22:00",
      "phone": "+1-512-491-9200",
      "takeaway": "only",
      "drive_through": "no",
      "official_name": "Papa Murphy's Take 'N' Bake Pizza",
      "addr_state": "TX",
      "addr_city": "Austin",
      "addr_postcode": "78758",
      "addr_street": "North MoPac Expressway",
      "addr_housenumber": "12407",
      "value": 202.17079541099602
    },
    {
      "id": 143693,
      "geometry": "POINT (-97.713251 30.37892)",
      "poi_name": "Papa John's",
      "osm_id": 6347873644,
      "amenity": "fast_food",
      "cuisine": "pizza",
      "takeaway": "yes",
      "addr_state": "TX",
      "addr_city": "Austin",
      "addr_postcode": "78758",
      "addr_street": "Rutland Drive",
      "addr_housenumber": "1925",
      "value": 202.17079541099602
    },
    {
      "id": 143702,
      "geometry": "POINT (-97.564191 30.541433)",
      "poi_name": "Papa John's",
      "osm_id": 6347985555,
      "amenity": "fast_food",
      "cuisine": "pizza",
      "takeaway": "yes",
      "addr_state": "TX",
      "addr_city": "Hutto",
      "addr_postcode": "78634",
      "addr_street": "Ed Schmidt Blvd.",
      "addr_housenumber": "125",
      "value": 202.17079541099602
    },
    {
      "id": 143715,
      "geometry": "POINT (-97.690524 30.560144)",
      "poi_name": "Freebirds",
      "osm_id": 6348279475,
      "amenity": "fast_food",
      "cuisine": "mexican",
      "wheelchair": "yes",
      "opening_hours": "Mo-Su 10:30-21:30",
      "website": "https://freebirds.com/",
      "phone": "+1-512-904-0070",
      "takeaway": "yes",
      "drive_through": "no",
      "outdoor_seating": "yes",
      "delivery": "yes",
      "addr_state": "TX",
      "addr_city": "Round Rock",
      "addr_postcode": "78665",
      "addr_street": "University Boulevard",
      "addr_housenumber": "200",
      "value": 202.17079541099602
    },
    {
      "id": 148045,
      "geometry": "POINT (-97.824286 30.084424)",
      "poi_name": "Zaxby's",
      "osm_id": 3926242220,
      "amenity": "fast_food",
      "cuisine": "chicken",
      "takeaway": "yes",
      "official_name": "Zaxby's Chicken Fingers & Buffalo Wings",
      "addr_state": "TX",
      "addr_city": "Buda",
      "addr_postcode": "78610",
      "addr_street": "Old San Antonio Road",
      "addr_housenumber": "381",
      "value": 202.17079541099602
    },
    {
      "id": 153361,
      "geometry": "POINT (-97.826487 30.290429)",
      "poi_name": "MOD Pizza",
      "osm_id": 4193610905,
      "amenity": "fast_food",
      "cuisine": "pizza",
      "takeaway": "yes",
      "addr_state": "TX",
      "addr_city": "West Lake Hills",
      "addr_postcode": "78746",
      "addr_street": "Capital of Texas Highway",
      "addr_housenumber": "701",
      "value": 202.17079541099602
    },
    {
      "id": 152830,
      "geometry": "POINT (-97.784272 30.24161)",
      "poi_name": "Torchy's Tacos",
      "osm_id": 4162237425,
      "amenity": "fast_food",
      "cuisine": "mexican;tacos",
      "wheelchair": "yes",
      "opening_hours": "Mo-Th 7:00-22:00; Fr 7:00-23:00; Sa 8:00-23:00; Su 8:00-22:00",
      "website": "https://torchystacos.com/location/south-lamar/",
      "phone": "+1-512-614-1832",
      "takeaway": "yes",
      "drive_through": "no",
      "outdoor_seating": "yes",
      "delivery": "no",
      "addr_state": "TX",
      "addr_city": "Austin",
      "addr_postcode": "78704",
      "addr_street": "South Lamar Boulevard",
      "addr_housenumber": "3005",
      "value": 202.17079541099602
    },
    {
      "id": 154623,
      "geometry": "POINT (-97.792757 30.157142)",
      "poi_name": "Gattitown",
      "osm_id": 4247288369,
      "amenity": "fast_food",
      "cuisine": "pizza",
      "addr_state": "TX",
      "addr_city": "Austin",
      "addr_postcode": "78748",
      "addr_street": "South I 35",
      "addr_housenumber": "9900",
      "value": 202.17079541099602
    },
    {
      "id": 157199,
      "geometry": "POINT (-97.985075 29.826794)",
      "poi_name": "Schlotzsky's",
      "osm_id": 4692852981,
      "amenity": "fast_food",
      "cuisine": "sandwich",
      "phone": "+1-512-392-5230",
      "takeaway": "yes",
      "addr_state": "TX",
      "addr_city": "San Marcos",
      "addr_postcode": "78666",
      "addr_street": "Centerpoint Road",
      "addr_housenumber": "1020",
      "value": 202.17079541099602
    },
    {
      "id": 163275,
      "geometry": "POINT (-97.856899 30.585226)",
      "poi_name": "Domino's",
      "osm_id": 9409250178,
      "amenity": "fast_food",
      "cuisine": "pizza",
      "wheelchair": "yes",
      "opening_hours": "10:30-22:00, Su-Th 22:00-24:00 open \"Delivery only\", Fr-Sa 22:00-25:00 open \"Delivery only\"",
      "operator": "B4 Pizza LLC",
      "phone": "+1-512-260-7111",
      "takeaway": "yes",
      "delivery": "yes",
      "toilets": "no",
      "addr_state": "TX",
      "addr_city": "Leander",
      "addr_postcode": "78641",
      "addr_street": "North Highway 183",
      "addr_housenumber": "651",
      "value": 202.17079541099602
    },
    {
      "id": 163276,
      "geometry": "POINT (-97.856911 30.584735)",
      "poi_name": "Subway",
      "osm_id": 9409250189,
      "amenity": "fast_food",
      "cuisine": "sandwich",
      "wheelchair": "yes",
      "opening_hours": "08:00-21:00",
      "phone": "+1-512-260-4133",
      "takeaway": "yes",
      "drive_through": "no",
      "addr_state": "TX",
      "addr_city": "Leander",
      "addr_postcode": "78641",
      "addr_street": "North Highway 183",
      "addr_housenumber": "651",
      "value": 202.17079541099602
    },
    {
      "id": 163277,
      "geometry": "POINT (-97.856948 30.584681)",
      "poi_name": "Papa Murphy's",
      "osm_id": 9409250190,
      "amenity": "fast_food",
      "cuisine": "pizza",
      "opening_hours": "Su-Th 10:00-20:00; Fr-Sa 10:00-21:00",
      "takeaway": "only",
      "drive_through": "no",
      "official_name": "Papa Murphy's Take 'N' Bake Pizza",
      "addr_state": "TX",
      "addr_city": "Leander",
      "addr_postcode": "78641",
      "addr_street": "North Highway 183",
      "addr_housenumber": "651",
      "value": 202.17079541099602
    },
    {
      "id": 167330,
      "geometry": "POINT (-97.792641 30.167007)",
      "poi_name": "Chick-fil-A",
      "osm_id": 354680878,
      "amenity": "fast_food",
      "cuisine": "chicken",
      "phone": "+1-512-282-4200",
      "takeaway": "yes",
      "drive_through": "yes",
      "delivery": "no",
      "addr_state": "TX",
      "addr_city": "Austin",
      "addr_postcode": "78748",
      "addr_street": "West Slaughter Lane",
      "addr_housenumber": "161",
      "value": 202.17079541099602
    },
    {
      "id": 165725,
      "geometry": "POINT (-97.846126 30.561078)",
      "poi_name": "Grand Donut",
      "osm_id": 9553539142,
      "amenity": "fast_food",
      "cuisine": "donut",
      "opening_hours": "Mo-Sa 05:00-13:00; Su 06:00-13:00",
      "addr_state": "TX",
      "addr_city": "Leander",
      "addr_postcode": "78641",
      "addr_street": "South Highway 183",
      "addr_housenumber": "1395",
      "value": 202.17079541099602
    },
    {
      "id": 165726,
      "geometry": "POINT (-97.846148 30.561135)",
      "poi_name": "Subway",
      "osm_id": 9553539143,
      "amenity": "fast_food",
      "cuisine": "sandwich",
      "opening_hours": "Mo-Su 09:00-23:00",
      "phone": "+1-512-259-1380",
      "takeaway": "yes",
      "addr_state": "TX",
      "addr_city": "Leander",
      "addr_postcode": "78641",
      "addr_street": "South Highway 183",
      "addr_housenumber": "1395",
      "value": 202.17079541099602
    },
    {
      "id": 166318,
      "geometry": "POINT (-97.865916 30.546834)",
      "poi_name": "Romeo's Pizza",
      "osm_id": 9587309495,
      "amenity": "fast_food",
      "cuisine": "pizza",
      "phone": "+1-737-757-8700",
      "drive_through": "no",
      "addr_state": "TX",
      "addr_city": "Leander",
      "addr_postcode": "78641",
      "addr_street": "North Lakeline Boulevard",
      "addr_housenumber": "3725",
      "value": 202.17079541099602
    },
    {
      "id": 166319,
      "geometry": "POINT (-97.863319 30.544776)",
      "poi_name": "Great American Cookies",
      "osm_id": 9587309740,
      "amenity": "fast_food",
      "cuisine": "cookies",
      "takeaway": "yes",
      "drive_through": "no",
      "outdoor_seating": "no",
      "addr_state": "TX",
      "addr_city": "Leander",
      "addr_postcode": "78641",
      "addr_street": "North Lakeline Boulevard",
      "addr_housenumber": "3550",
      "value": 202.17079541099602
    },
    {
      "id": 165687,
      "geometry": "POINT (-97.744828 30.266099)",
      "poi_name": "Chi'Lantro BBQ",
      "osm_id": 9552382096,
      "amenity": "fast_food",
      "cuisine": "korean;mexican",
      "opening_hours": "Mo-Fr 10:30-14:00",
      "website": "https://chilantrobbq.com/",
      "phone": "+1-512-580-4459",
      "takeaway": "yes",
      "drive_through": "no",
      "addr_state": "TX",
      "addr_city": "Austin",
      "addr_postcode": "78701",
      "addr_street": "Colorado Street",
      "addr_housenumber": "303",
      "value": 202.17079541099602
    },
    {
      "id": 166243,
      "geometry": "POINT (-97.865351 30.545757)",
      "poi_name": "Monster Donuts",
      "osm_id": 9582071407,
      "amenity": "fast_food",
      "cuisine": "donut",
      "opening_hours": "Tu-Su 06:00-13:00",
      "phone": "+1-512-337-5396",
      "addr_state": "TX",
      "addr_city": "Leander",
      "addr_postcode": "78641",
      "addr_street": "Crystal Falls Parkway",
      "addr_housenumber": "1825",
      "value": 202.17079541099602
    },
    {
      "id": 172402,
      "geometry": "POINT (-97.79141 30.166924)",
      "poi_name": "Sonic",
      "osm_id": 2401641509,
      "amenity": "fast_food",
      "cuisine": "burger",
      "takeaway": "yes",
      "addr_state": "TX",
      "addr_city": "Austin",
      "addr_postcode": "78748",
      "value": 202.17079541099602
    },
    {
      "id": 172403,
      "geometry": "POINT (-97.791603 30.166066)",
      "poi_name": "Taco Bell",
      "osm_id": 2401650722,
      "amenity": "fast_food",
      "cuisine": "tex-mex",
      "website": "https://locations.tacobell.com/tx/austin/161-w-slaughter-ln.html",
      "takeaway": "yes",
      "addr_state": "TX",
      "addr_city": "Austin",
      "addr_postcode": "78748",
      "value": 202.17079541099602
    },
    {
      "id": 175698,
      "geometry": "POINT (-97.744002 30.444231)",
      "poi_name": "Schlotzsky's",
      "osm_id": 2533220667,
      "amenity": "fast_food",
      "cuisine": "sandwich",
      "phone": "+1-512-918-2867",
      "takeaway": "yes",
      "drive_through": "yes",
      "addr_state": "TX",
      "addr_city": "Austin",
      "addr_postcode": "78729",
      "addr_street": "West Parmer Lane",
      "addr_housenumber": "6301",
      "value": 202.17079541099602
    },
    {
      "id": 175678,
      "geometry": "POINT (-97.821015 30.227121)",
      "poi_name": "Mighty Fine Burgers",
      "osm_id": 2531722206,
      "amenity": "fast_food",
      "cuisine": "burger",
      "wheelchair": "yes",
      "opening_hours": "Mo-Th, Su 11:00-21:00; Fr, Sa 11:00-21:30",
      "website": "https://www.mightyfineburgers.com/austin-brodie",
      "internet_access": "wlan",
      "phone": "+1-512-735-2800",
      "takeaway": "yes",
      "drive_through": "no",
      "outdoor_seating": "yes",
      "addr_state": "TX",
      "addr_city": "Sunset Valley",
      "addr_postcode": "78745",
      "addr_street": "Brodie Lane",
      "addr_housenumber": "5601",
      "value": 202.17079541099602
    },
    {
      "id": 178268,
      "geometry": "POINT (-97.790096 30.469389)",
      "poi_name": "Arby's",
      "osm_id": 10718643603,
      "amenity": "fast_food",
      "cuisine": "sandwich",
      "takeaway": "yes",
      "drive_through": "yes",
      "addr_state": "TX",
      "addr_city": "Austin",
      "value": 202.17079541099602
    },
    {
      "id": 175945,
      "geometry": "POINT (-97.758843 30.438262)",
      "poi_name": "Sonic",
      "osm_id": 2548094810,
      "amenity": "fast_food",
      "cuisine": "burger",
      "website": "https://www.sonicdrivein.com/",
      "takeaway": "yes",
      "addr_city": "Austin",
      "addr_postcode": "78729",
      "addr_street": "McNeil Drive",
      "addr_housenumber": "6816",
      "value": 202.17079541099602
    },
    {
      "id": 178072,
      "geometry": "POINT (-97.705232 30.29844)",
      "poi_name": "Sweetgreen",
      "osm_id": 10710907611,
      "amenity": "fast_food",
      "cuisine": "salad",
      "opening_hours": "Mo-Su 10:30-22:00",
      "website": "https://www.sweetgreen.com/",
      "capacity": "32",
      "phone": "+1-737-377-3825",
      "takeaway": "yes",
      "outdoor_seating": "yes",
      "addr_state": "TX",
      "addr_city": "Austin",
      "addr_postcode": "78723",
      "addr_street": "Aldrich Street",
      "addr_housenumber": "1900",
      "value": 202.17079541099602
    },
    {
      "id": 175811,
      "geometry": "POINT (-98.082095 30.189756)",
      "poi_name": "Thundercloud Subs",
      "osm_id": 2542351247,
      "amenity": "fast_food",
      "addr_state": "TX",
      "addr_city": "Dripping Springs",
      "addr_postcode": "78620",
      "addr_street": "East US Highway 290",
      "value": 202.17079541099602
    },
    {
      "id": 178448,
      "geometry": "POINT (-97.799338 30.274708)",
      "poi_name": "Chipotle",
      "osm_id": 10726988305,
      "amenity": "fast_food",
      "cuisine": "mexican",
      "wheelchair": "yes",
      "opening_hours": "Mo-Sa 10:45-22:00; Su 10:45-15:00",
      "website": "https://chipotle.com/",
      "phone": "+1-512-329-8600",
      "takeaway": "yes",
      "drive_through": "no",
      "official_name": "Chipotle Mexican Grill",
      "delivery": "yes",
      "addr_state": "TX",
      "addr_city": "West Lake Hills",
      "addr_postcode": "78746",
      "addr_street": "Bee Caves Road",
      "addr_housenumber": "3300",
      "value": 202.17079541099602
    },
    {
      "id": 179858,
      "geometry": "POINT (-97.699304 30.632446)",
      "poi_name": "Five Guys",
      "osm_id": 10779945730,
      "amenity": "fast_food",
      "cuisine": "burger",
      "wheelchair": "yes",
      "building": "yes",
      "opening_hours": "11:00-22:00",
      "website": "https://www.fiveguys.com/",
      "phone": "+1 737-738-5802",
      "takeaway": "yes",
      "drive_through": "no",
      "official_name": "Five Guys Burgers and Fries",
      "outdoor_seating": "yes",
      "delivery": "yes",
      "addr_state": "TX",
      "addr_city": "Georgetown",
      "addr_postcode": "78628",
      "addr_street": "West University Avenue",
      "addr_housenumber": "1201",
      "value": 202.17079541099602
    },
    {
      "id": 186313,
      "geometry": "POINT (-97.749813 30.267098)",
      "poi_name": "Meat & Bread",
      "osm_id": 7925574095,
      "amenity": "fast_food",
      "cuisine": "sandwich",
      "opening_hours": "Mo-Sa 11:00-16:00",
      "website": "https://www.meatandbread.com/",
      "phone": "+1-512-947-7320",
      "takeaway": "yes",
      "drive_through": "no",
      "addr_state": "TX",
      "addr_city": "Austin",
      "addr_postcode": "78701",
      "addr_street": "Nueces Street",
      "addr_housenumber": "360",
      "value": 202.17079541099602
    },
    {
      "id": 181279,
      "geometry": "POINT (-97.415433 30.351348)",
      "poi_name": "KFC",
      "osm_id": 10838079942,
      "amenity": "fast_food",
      "cuisine": "chicken",
      "wheelchair": "yes",
      "opening_hours": "Mo-Su 10:30-22:00",
      "website": "https://locations.kfc.com/tx/elgin/18619-highway-290",
      "internet_access": "wlan",
      "phone": "+1-512-285-4165",
      "takeaway": "yes",
      "drive_through": "yes",
      "addr_state": "TX",
      "addr_city": "Elgin",
      "addr_postcode": "78621",
      "addr_street": "Highway 290",
      "addr_housenumber": "18709",
      "value": 202.17079541099602
    },
    {
      "id": 181280,
      "geometry": "POINT (-97.415496 30.351355)",
      "poi_name": "Long John Silver's",
      "osm_id": 10838079946,
      "amenity": "fast_food",
      "cuisine": "seafood",
      "wheelchair": "yes",
      "opening_hours": "Mo-Su 10:30-22:00",
      "website": "https://www.ljsilvers.com/",
      "phone": "+-512-285-4165",
      "takeaway": "yes",
      "drive_through": "no",
      "addr_state": "TX",
      "addr_city": "Elgin",
      "addr_postcode": "78621",
      "addr_street": "Highway 290",
      "addr_housenumber": "18709",
      "value": 202.17079541099602
    },
    {
      "id": 182482,
      "geometry": "POINT (-97.820796 30.227938)",
      "poi_name": "CAVA",
      "osm_id": 10893604421,
      "amenity": "fast_food",
      "cuisine": "Mediterranean",
      "opening_hours": "Mo-Su 10:45-22:00",
      "operator": "Cava, Inc.",
      "website": "https://cava.com/",
      "phone": "+1 512-222-5609",
      "takeaway": "yes",
      "drive_through": "no",
      "addr_state": "TX",
      "addr_postcode": "78745",
      "addr_street": "Brodie Lane",
      "addr_housenumber": "5601",
      "value": 202.17079541099602
    },
    {
      "id": 189363,
      "geometry": "POINT (-97.745102 30.39242)",
      "poi_name": "Jersey Mike's Subs",
      "osm_id": 1230067055,
      "amenity": "fast_food",
      "cuisine": "sandwich",
      "phone": "+1-512-338-4200",
      "takeaway": "yes",
      "addr_state": "TX",
      "addr_city": "Austin",
      "addr_postcode": "78759",
      "addr_street": "Research Boulevard",
      "addr_housenumber": "10001",
      "value": 202.17079541099602
    },
    {
      "id": 187432,
      "geometry": "POINT (-97.556595 30.54257)",
      "poi_name": "Subway",
      "osm_id": 1068330572,
      "amenity": "fast_food",
      "cuisine": "sandwich",
      "takeaway": "yes",
      "drive_through": "no",
      "addr_state": "TX",
      "addr_city": "Hutto",
      "addr_postcode": "78634",
      "addr_street": "US-79",
      "addr_housenumber": "560",
      "value": 202.17079541099602
    },
    {
      "id": 189783,
      "geometry": "POINT (-97.703996 30.400413)",
      "poi_name": "Double Dave's Pizza",
      "osm_id": 1250747863,
      "amenity": "fast_food",
      "cuisine": "pizza",
      "wheelchair": "yes",
      "opening_hours": "Mo-Su 11:00-23:00",
      "website": "https://www.doubledaves.com/locations/tx/austin-area/metric",
      "phone": "+1-512-719-3283",
      "takeaway": "yes",
      "drive_through": "no",
      "delivery": "yes",
      "addr_state": "TX",
      "addr_city": "Austin",
      "addr_postcode": "78758",
      "addr_street": "Metric Boulevard",
      "addr_housenumber": "11900",
      "value": 202.17079541099602
    },
    {
      "id": 189784,
      "geometry": "POINT (-97.703827 30.400695)",
      "poi_name": "River City Donut",
      "osm_id": 1250747890,
      "amenity": "fast_food",
      "cuisine": "donut",
      "wheelchair": "yes",
      "opening_hours": "Mo-Su 06:00-13:00",
      "phone": "+1-512-832-0425",
      "takeaway": "yes",
      "drive_through": "yes",
      "addr_state": "TX",
      "addr_city": "Austin",
      "addr_postcode": "78758",
      "addr_street": "Metric Boulevard",
      "addr_housenumber": "11900",
      "value": 202.17079541099602
    },
    {
      "id": 192718,
      "geometry": "POINT (-97.611451 30.811752)",
      "poi_name": "Burger King",
      "osm_id": 1475231747,
      "amenity": "fast_food",
      "cuisine": "burger",
      "wheelchair": "yes",
      "opening_hours": "Mo-Sa 06:00-22:00; Su 07:00-22:00",
      "website": "https://www.bk.com/menu",
      "internet_access": "wlan",
      "phone": "+1-512-746-2484",
      "takeaway": "only",
      "drive_through": "yes",
      "delivery": "no",
      "addr_state": "TX",
      "addr_city": "Jarrell",
      "addr_postcode": "76537",
      "addr_street": "Interstate Highway 35 Service Road",
      "addr_housenumber": "11710",
      "value": 202.17079541099602
    },
    {
      "id": 192889,
      "geometry": "POINT (-97.738671 30.312502)",
      "poi_name": "Chipotle",
      "osm_id": 1484100634,
      "amenity": "fast_food",
      "cuisine": "mexican",
      "opening_hours": "Mo-Su 10:45-22:00",
      "website": "https://locations.chipotle.com",
      "phone": "+1-512-419-9898",
      "takeaway": "yes",
      "official_name": "Chipotle Mexican Grill",
      "addr_state": "TX",
      "addr_city": "Austin",
      "addr_postcode": "78756",
      "addr_street": "North Lamar Boulevard",
      "addr_housenumber": "4400",
      "value": 202.17079541099602
    },
    {
      "id": 192912,
      "geometry": "POINT (-97.702017 30.418322)",
      "poi_name": "Panda Express",
      "osm_id": 1484805166,
      "amenity": "fast_food",
      "cuisine": "chinese",
      "opening_hours": "Mo-Su 10:30-22:00",
      "website": "https://www.pandaexpress.com/userlocation/1289/tx/austin/2501-west-parmer-lane",
      "phone": "+1-512-821-2307",
      "takeaway": "yes",
      "drive_through": "no",
      "addr_state": "TX",
      "addr_city": "Austin",
      "addr_street": "West Parmer Lane",
      "addr_housenumber": "2501",
      "value": 202.17079541099602
    },
    {
      "id": 192914,
      "geometry": "POINT (-97.800548 30.478357)",
      "poi_name": "Chipotle",
      "osm_id": 1485008804,
      "amenity": "fast_food",
      "cuisine": "mexican",
      "wheelchair": "yes",
      "opening_hours": "Mo-Su 10:45-22:00",
      "website": "https://locations.chipotle.com/tx/austin/11301-lakeline-blvd",
      "phone": "+1-512-331-8700",
      "takeaway": "yes",
      "drive_through": "no",
      "official_name": "Chipotle Mexican Grill",
      "outdoor_seating": "yes",
      "delivery": "yes",
      "addr_state": "TX",
      "addr_city": "Austin",
      "addr_postcode": "78717",
      "addr_street": "Lakeline Boulevard",
      "addr_housenumber": "11301",
      "value": 202.17079541099602
    },
    {
      "id": 194431,
      "geometry": "POINT (-97.843091 30.195281)",
      "poi_name": "Subway",
      "osm_id": 10272301033,
      "amenity": "fast_food",
      "cuisine": "sandwich",
      "opening_hours": "Mo-Fr 08:00-21:00; Sa 08:00-18:00; Su 08:00-21:00",
      "website": "https://restaurants.subway.com/united-states/tx/austin/8906-brodie-lane",
      "phone": "+1-512-840-0252",
      "takeaway": "yes",
      "drive_through": "no",
      "addr_state": "TX",
      "addr_city": "Austin",
      "addr_postcode": "78749",
      "addr_street": "Brodie Lane",
      "addr_housenumber": "8906",
      "value": 202.17079541099602
    },
    {
      "id": 196108,
      "geometry": "POINT (-97.833986 30.215567)",
      "poi_name": "Thundercloud Subs",
      "osm_id": 10563448543,
      "amenity": "fast_food",
      "cuisine": "sandwich",
      "addr_state": "TX",
      "addr_city": "Austin",
      "addr_postcode": "78749",
      "addr_street": "West William Cannon Drive",
      "addr_housenumber": "3601",
      "value": 202.17079541099602
    },
    {
      "id": 195482,
      "geometry": "POINT (-97.67391 30.41673)",
      "poi_name": "Burger King",
      "osm_id": 10309234519,
      "amenity": "fast_food",
      "cuisine": "burger",
      "wheelchair": "yes",
      "opening_hours": "Mo-Sa 06:00-22:00; Su 07:00-22:00",
      "website": "https://www.bk.com/",
      "takeaway": "yes",
      "drive_through": "yes",
      "delivery": "yes",
      "addr_state": "TX",
      "addr_city": "Austin",
      "addr_postcode": "78753",
      "addr_street": "North Interstate Highway 35 Service Road",
      "addr_housenumber": "13200",
      "value": 202.17079541099602
    },
    {
      "id": 200470,
      "geometry": "POINT (-97.848895 30.540565)",
      "poi_name": "Subway",
      "osm_id": 588072159,
      "amenity": "fast_food",
      "cuisine": "sandwich",
      "opening_hours": "Mo-Su 08:00-21:00",
      "takeaway": "yes",
      "drive_through": "no",
      "addr_state": "TX",
      "addr_city": "Leander",
      "addr_postcode": "78641",
      "addr_street": "South Bagdad Road",
      "addr_housenumber": "2800",
      "value": 202.17079541099602
    },
    {
      "id": 197982,
      "geometry": "POINT (-97.857084 30.58646)",
      "poi_name": "Chipotle",
      "osm_id": 10683846312,
      "amenity": "fast_food",
      "cuisine": "mexican",
      "opening_hours": "Mo-Su 10:45-22:00",
      "website": "https://locations.chipotle.com/tx/leander/821-n-us-183",
      "phone": "+1-512-690-7006",
      "takeaway": "yes",
      "drive_through": "yes",
      "official_name": "Chipotle Mexican Grill",
      "outdoor_seating": "yes",
      "addr_state": "TX",
      "addr_city": "Leander",
      "addr_postcode": "78641",
      "addr_street": "North Highway 183",
      "addr_housenumber": "821",
      "value": 202.17079541099602
    },
    {
      "id": 199051,
      "geometry": "POINT (-97.848826 30.540395)",
      "poi_name": "Marco's Pizza",
      "osm_id": 935589619,
      "amenity": "fast_food",
      "cuisine": "pizza",
      "takeaway": "yes",
      "drive_through": "no",
      "delivery": "yes",
      "addr_state": "TX",
      "addr_city": "Leander",
      "addr_postcode": "78641",
      "addr_street": "South Bagdad Road",
      "addr_housenumber": "2800",
      "value": 202.17079541099602
    },
    {
      "id": 202672,
      "geometry": "POINT (-97.78444 30.443874)",
      "poi_name": "Phil's Icehouse",
      "osm_id": 7042008303,
      "amenity": "fast_food",
      "cuisine": "burger",
      "wheelchair": "yes",
      "opening_hours": "Su-Th 11:00-21:00; Fr-Sa 11:00-22:00",
      "website": "https://www.philsicehouse.com/phils-in-north-austinville/",
      "phone": "+1-512-257-8750",
      "takeaway": "yes",
      "drive_through": "no",
      "outdoor_seating": "yes",
      "delivery": "yes",
      "addr_state": "TX",
      "addr_city": "Austin",
      "addr_postcode": "78750",
      "addr_street": "Research Boulevard",
      "addr_housenumber": "13265",
      "value": 202.17079541099602
    },
    {
      "id": 202422,
      "geometry": "POINT (-97.749778 30.2668)",
      "poi_name": "JuiceLand",
      "osm_id": 7024063230,
      "amenity": "fast_food",
      "cuisine": "juice;smoothie",
      "opening_hours": "Mo-Sa 07:00-21:00, Su 08:00-21:00",
      "website": "https://www.juiceland.com/locations/third-shoal/",
      "takeaway": "yes",
      "addr_state": "TX",
      "addr_city": "Austin",
      "addr_postcode": "78701",
      "addr_street": "West 3rd Street",
      "addr_housenumber": "607",
      "value": 202.17079541099602
    },
    {
      "id": 207899,
      "geometry": "POINT (-97.721216 30.233412)",
      "poi_name": "S H Donuts",
      "osm_id": 4966513043,
      "amenity": "fast_food",
      "cuisine": "donut",
      "opening_hours": "Mo-Sa 05:00-14:00; Su 06:00-14:00",
      "phone": "+1-512-433-6104",
      "drive_through": "no",
      "addr_state": "TX",
      "addr_city": "Austin",
      "addr_postcode": "78741",
      "addr_street": "East Riverside Drive",
      "addr_housenumber": "4410",
      "value": 202.17079541099602
    },
    {
      "id": 203768,
      "geometry": "POINT (-97.814051 30.525102)",
      "poi_name": "HopDoddy Burger Bar",
      "osm_id": 7099635338,
      "amenity": "fast_food",
      "cuisine": "burger",
      "wheelchair": "yes",
      "takeaway": "yes",
      "addr_state": "TX",
      "addr_city": "Cedar Park",
      "addr_postcode": "78613",
      "addr_street": "East Whitestone Boulevard",
      "addr_housenumber": "1320",
      "value": 202.17079541099602
    },
    {
      "id": 204032,
      "geometry": "POINT (-97.73159 30.263556)",
      "poi_name": "Chipotle",
      "osm_id": 7111057072,
      "amenity": "fast_food",
      "cuisine": "mexican",
      "takeaway": "yes",
      "official_name": "Chipotle Mexican Grill",
      "addr_state": "TX",
      "addr_city": "Austin",
      "addr_postcode": "78702",
      "addr_street": "East 5th Street",
      "addr_housenumber": "1109",
      "value": 202.17079541099602
    },
    {
      "id": 215239,
      "geometry": "POINT (-97.677585 30.649173)",
      "poi_name": "Chipotle",
      "osm_id": 5292514237,
      "amenity": "fast_food",
      "cuisine": "mexican",
      "wheelchair": "yes",
      "opening_hours": "Mo-Su 10:45-22:00",
      "website": "https://www.chipotle.com/home",
      "phone": "+1-512-868-0941",
      "takeaway": "yes",
      "drive_through": "no",
      "official_name": "Chipotle Mexican Grill",
      "outdoor_seating": "yes",
      "delivery": "yes",
      "addr_state": "TX",
      "addr_city": "Georgetown",
      "addr_postcode": "78626",
      "addr_street": "N Austin Avenue",
      "addr_housenumber": "900",
      "value": 202.17079541099602
    },
    {
      "id": 211167,
      "geometry": "POINT (-97.807141 30.257464)",
      "poi_name": "Chick-fil-A",
      "osm_id": 5143483728,
      "amenity": "fast_food",
      "cuisine": "chicken",
      "operator": "David Snow",
      "phone": "+1-512-327-3699",
      "takeaway": "yes",
      "outdoor_seating": "no",
      "addr_state": "TX",
      "addr_city": "Austin",
      "addr_street": "Barton Creek Square Mall",
      "value": 202.17079541099602
    },
    {
      "id": 209840,
      "geometry": "POINT (-97.657114 30.497321)",
      "poi_name": "Dunkin' Donuts",
      "osm_id": 5061263396,
      "amenity": "fast_food",
      "cuisine": "donut",
      "outdoor_seating": "yes",
      "addr_state": "TX",
      "addr_city": "Round Rock",
      "addr_postcode": "78664",
      "addr_street": "South A W Grimes Boulevard",
      "addr_housenumber": "1500",
      "value": 202.17079541099602
    },
    {
      "id": 223509,
      "geometry": "POINT (-97.588724 30.467851)",
      "poi_name": "Tropical Smoothie Cafe",
      "osm_id": 11055687687,
      "amenity": "fast_food",
      "cuisine": "juice",
      "wheelchair": "yes",
      "opening_hours": "Mo-Fr 07:00-21:00; Sa 08:00-21:00; Su 10:00-20:00",
      "website": "https://www.tropicalsmoothiecafe.com/",
      "internet_access": "wlan",
      "phone": "+1-512-551-9800",
      "takeaway": "yes",
      "drive_through": "no",
      "addr_state": "TX",
      "addr_city": "Pflugerville",
      "addr_postcode": "78660",
      "addr_street": "Autumn Slate Drive",
      "addr_housenumber": "2100",
      "value": 202.17079541099602
    },
    {
      "id": 222397,
      "geometry": "POINT (-97.692172 30.164112)",
      "poi_name": "Taqueria Monarca",
      "osm_id": 11016975003,
      "amenity": "fast_food",
      "cuisine": "tacos;burger",
      "opening_hours": "Tu-Th 07:00-23:00; Fr 07:00-24:00; Sa 11:00-24:00; Su 05:30-23:30",
      "website": "http://ordertaqueriamonarca.com/",
      "phone": "+1-512-712-3436",
      "takeaway": "yes",
      "drive_through": "no",
      "outdoor_seating": "yes",
      "delivery": "yes",
      "addr_state": "TX",
      "addr_city": "Austin",
      "addr_postcode": "78719",
      "addr_street": "FM 812",
      "addr_housenumber": "9110",
      "value": 202.17079541099602
    },
    {
      "id": 222398,
      "geometry": "POINT (-97.692306 30.164319)",
      "poi_name": "Barbacoa Santa Rosa",
      "osm_id": 11016975004,
      "amenity": "fast_food",
      "cuisine": "tacos",
      "drive_through": "no",
      "outdoor_seating": "yes",
      "addr_state": "TX",
      "addr_city": "Austin",
      "addr_postcode": "78744",
      "addr_street": "FM 812",
      "addr_housenumber": "8624",
      "value": 202.17079541099602
    },
    {
      "id": 224533,
      "geometry": "POINT (-97.716247 30.333866)",
      "poi_name": "Brazas Taco House",
      "osm_id": 11086026127,
      "amenity": "fast_food",
      "cuisine": "mexican",
      "website": "https://www.brazastacohouseaustin.com/",
      "phone": "+1-512-953-5999",
      "addr_state": "TX",
      "addr_city": "Austin",
      "addr_postcode": "78752",
      "addr_street": "Airport Boulevard",
      "addr_housenumber": "6801",
      "value": 202.17079541099602
    },
    {
      "id": 228715,
      "geometry": "POINT (-97.718133 30.298556)",
      "poi_name": "Wendy's",
      "osm_id": 4352578096,
      "amenity": "fast_food",
      "cuisine": "burger",
      "wheelchair": "yes",
      "opening_hours": "Mo-Sa 06:30-14:00; Su 07:00-13:00",
      "website": "https://locations.wendys.com/united-states/tx/austin/1000-east-41st-street",
      "phone": "+1-512-596-3182",
      "takeaway": "yes",
      "drive_through": "yes",
      "delivery": "yes",
      "addr_state": "TX",
      "addr_city": "Austin",
      "addr_postcode": "78751",
      "addr_street": "East 41st Street",
      "addr_housenumber": "1000",
      "value": 202.17079541099602
    },
    {
      "id": 228716,
      "geometry": "POINT (-97.720172 30.299053)",
      "poi_name": "Jack in the Box",
      "osm_id": 4352630290,
      "amenity": "fast_food",
      "cuisine": "burger",
      "wheelchair": "yes",
      "opening_hours": "24/7",
      "website": "https://locations.jackinthebox.com/us/tx/austin/1000-e-41st-st-unit-k",
      "phone": "+1-512-458-6252",
      "takeaway": "yes",
      "drive_through": "yes",
      "delivery": "yes",
      "addr_state": "TX",
      "addr_city": "Austin",
      "addr_postcode": "78751",
      "addr_street": "East 41st Street",
      "addr_housenumber": "1000",
      "value": 202.17079541099602
    },
    {
      "id": 232116,
      "geometry": "POINT (-97.742362 30.267796)",
      "poi_name": "P. Terry's",
      "osm_id": 4511193389,
      "amenity": "fast_food",
      "cuisine": "burger",
      "phone": "+1-512-473-8722",
      "takeaway": "yes",
      "official_name": "P. Terry's Burger Stand",
      "addr_state": "TX",
      "addr_city": "Austin",
      "addr_postcode": "78701",
      "addr_street": "Congress Avenue",
      "addr_housenumber": "515",
      "value": 202.17079541099602
    },
    {
      "id": 231452,
      "geometry": "POINT (-97.862176 30.012739)",
      "poi_name": "MOD Pizza",
      "osm_id": 4469024463,
      "amenity": "fast_food",
      "cuisine": "pizza",
      "website": "http://www.mobiledestination.com",
      "phone": "+1-877-929-2355",
      "takeaway": "yes",
      "addr_state": "TX",
      "addr_city": "Kyle",
      "addr_postcode": "78640",
      "addr_street": "Evans Drive",
      "addr_housenumber": "151",
      "value": 202.17079541099602
    },
    {
      "id": 235857,
      "geometry": "POINT (-97.800939 30.23119)",
      "poi_name": "Juiceland",
      "osm_id": 5771447969,
      "amenity": "fast_food",
      "cuisine": "juice",
      "website": "https://www.juiceland.com/locations/westgate-blvd/",
      "phone": "+1-512-358-0009",
      "takeaway": "yes",
      "drive_through": "yes",
      "outdoor_seating": "yes",
      "addr_state": "TX",
      "addr_city": "Austin",
      "addr_postcode": "78745",
      "addr_street": "West Gate Boulevard",
      "addr_housenumber": "4526",
      "value": 202.17079541099602
    },
    {
      "id": 235271,
      "geometry": "POINT (-97.690151 30.560969)",
      "poi_name": "MOOYAH Burgers, Fries & Shakes",
      "osm_id": 5749972191,
      "amenity": "fast_food",
      "cuisine": "burger",
      "wheelchair": "yes",
      "opening_hours": "Mo-Su 11:00-20:00",
      "operator": "MOOYAH Burgers",
      "website": "https://www.mooyah.com/locations/round-rock-tx-201/",
      "phone": "+1-512-868-0777",
      "takeaway": "yes",
      "drive_through": "no",
      "outdoor_seating": "yes",
      "delivery": "yes",
      "addr_state": "TX",
      "addr_city": "Round Rock",
      "addr_postcode": "78665",
      "addr_street": "University Boulevard",
      "addr_housenumber": "200",
      "value": 202.17079541099602
    },
    {
      "id": 235883,
      "geometry": "POINT (-97.796019 30.218014)",
      "poi_name": "South Austin Sno",
      "osm_id": 5771820039,
      "amenity": "fast_food",
      "cuisine": "dessert",
      "addr_state": "TX",
      "addr_city": "Austin",
      "addr_postcode": "78745",
      "addr_street": "Manchaca Road",
      "addr_housenumber": "5300",
      "value": 202.17079541099602
    },
    {
      "id": 235892,
      "geometry": "POINT (-97.781618 30.243803)",
      "poi_name": "Soup Peddler",
      "osm_id": 5771933655,
      "amenity": "fast_food",
      "addr_state": "TX",
      "addr_city": "Austin",
      "addr_postcode": "78704",
      "value": 202.17079541099602
    },
    {
      "id": 241797,
      "geometry": "POINT (-97.761758 30.256009)",
      "poi_name": "Shake Shack",
      "osm_id": 6039859211,
      "amenity": "fast_food",
      "cuisine": "burger",
      "takeaway": "yes",
      "addr_state": "TX",
      "addr_city": "Austin",
      "addr_postcode": "78704",
      "addr_street": "South Lamar Boulevard",
      "addr_housenumber": "1100",
      "value": 202.17079541099602
    }
  ],
  "answer_type": "loc",
  "question_entities": {
    "[2]": {
      "distance": 150000,
      "text": "150 kilometers"
    },
    "[3]": {
      "main_category": "leisure",
      "sub_category": "stadium",
      "display_name": "Five Wells Roping Rodeo Arena, TX",
      "geo_wkt": "POINT (-97.402227 30.995182)",
      "poi": {
        "id": 265394,
        "geometry": "POINT (-97.402227 30.995182)",
        "poi_name": "Five Wells Roping Rodeo Arena",
        "osm_id": 368165371,
        "leisure": "stadium",
        "addr_state": "TX"
      }
    },
    "[4]": {
      "main_category": "tourism",
      "sub_category": "gallery",
      "display_name": "The Contemporary Austin - Jones Center, Austin, TX",
      "geo_wkt": "POINT (-97.742825 30.26925)",
      "poi": {
        "id": 15038,
        "geometry": "POINT (-97.742825 30.26925)",
        "poi_name": "The Contemporary Austin - Jones Center",
        "osm_id": 4788360447,
        "tourism": "gallery",
        "website": "https://thecontemporaryaustin.org/",
        "addr_state": "TX",
        "addr_city": "Austin",
        "addr_postcode": "78701",
        "addr_street": "Congress Avenue",
        "addr_housenumber": "700"
      }
    },
    "[1]": {
      "main_category": "amenity",
      "sub_category": "fast_food"
    }
  },
  "id": 1264,
  "type": "range:towards+loc"
}