{
  "question": "Where can I find caf\u00e9 as you progress towards JW Marriott Indianapolis, Indianapolis, IN within 190 kilometers from Virginia B Ball Center for Creative Inquiry, Muncie, IN?",
  "sql": "WITH\n    angle AS (SELECT degrees(ST_Azimuth(ST_GeomFromText('POINT (-85.426059 40.197552)',4326)::geography, ST_GeomFromText('POINT (-86.167694 39.766585)',4326)::geography)) AS value)\nSELECT * FROM pois,angle\nWHERE amenity = 'cafe'\nAND ST_DWithin(pois.geometry, ST_GeomFromText('POINT (-85.426059 40.197552)',4326)::geography, 190000)\nAND (degrees(ST_Azimuth(ST_GeomFromText('POINT (-85.426059 40.197552)',4326)::geography, pois.geometry)) BETWEEN angle.value - 22.5 AND angle.value + 22.5);\n",
  "answers": [
    {
      "id": 34295,
      "geometry": "POINT (-86.530272 39.166415)",
      "poi_name": "The Pour House",
      "osm_id": 2698930597,
      "amenity": "cafe",
      "cuisine": "coffee_shop",
      "internet_access": "wlan",
      "addr_city": "Bloomington",
      "addr_postcode": "47408",
      "addr_street": "East Kirkwood Avenue",
      "addr_housenumber": "314",
      "value": 233.1717183341841
    },
    {
      "id": 35207,
      "geometry": "POINT (-86.146056 39.757781)",
      "poi_name": "Calvin Fletcher Coffee",
      "osm_id": 2713461630,
      "amenity": "cafe",
      "cuisine": "coffee_shop",
      "wheelchair": "yes",
      "internet_access": "yes",
      "addr_state": "IN",
      "addr_city": "Indianapolis",
      "addr_postcode": "46203",
      "addr_street": "Virginia Avenue",
      "addr_housenumber": "647",
      "value": 233.1717183341841
    },
    {
      "id": 38497,
      "geometry": "POINT (-86.139267 39.913574)",
      "poi_name": "Starbucks",
      "osm_id": 2868696481,
      "amenity": "cafe",
      "cuisine": "coffee_shop",
      "wheelchair": "yes",
      "opening_hours": "Mo-Fr 05:30-22:00, Sa-Su 06:30-22:00",
      "internet_access": "yes",
      "phone": "+1-317-569-1330",
      "takeaway": "yes",
      "official_name": "Starbucks Coffee",
      "addr_city": "Indianapolis",
      "addr_postcode": "46240",
      "addr_street": "East 86th Street",
      "addr_housenumber": "1250",
      "value": 233.1717183341841
    },
    {
      "id": 41171,
      "geometry": "POINT (-86.124269 39.78119)",
      "poi_name": "Rabble Coffee",
      "osm_id": 3003831925,
      "amenity": "cafe",
      "cuisine": "coffee_shop",
      "wheelchair": "yes",
      "opening_hours": "Mo-Fr 07:00-18:00; Sa 08:00-18:00; Su 08:00-15:00",
      "website": "http://www.rabblecoffee.com/",
      "internet_access": "wlan",
      "addr_state": "IN",
      "addr_city": "Indianapolis",
      "addr_postcode": "46201",
      "addr_street": "East 10th Street",
      "addr_housenumber": "2119",
      "value": 233.1717183341841
    },
    {
      "id": 44715,
      "geometry": "POINT (-86.155851 39.773799)",
      "poi_name": "City Cafe",
      "osm_id": 3172291061,
      "amenity": "cafe",
      "cuisine": "american",
      "addr_city": "Indianapolis",
      "addr_street": "North Pennsylvania Street",
      "addr_housenumber": "443",
      "value": 233.1717183341841
    },
    {
      "id": 53559,
      "geometry": "POINT (-86.128989 39.975335)",
      "poi_name": "Java House",
      "osm_id": 10085774349,
      "amenity": "cafe",
      "cuisine": "coffee_shop",
      "wheelchair": "yes",
      "opening_hours": "Mo-Th 07:00-18:00; Fr-Sa 07:00-19:00; Su 08:00-18:00",
      "website": "https://javahouse.com/pages/coffee-bar-menu",
      "internet_access": "wlan",
      "outdoor_seating": "yes",
      "addr_state": "IN",
      "addr_city": "Carmel",
      "addr_postcode": "46032",
      "addr_street": "West Elm Street",
      "addr_housenumber": "145",
      "value": 233.1717183341841
    },
    {
      "id": 49079,
      "geometry": "POINT (-86.1519 39.773237)",
      "poi_name": "Starbucks",
      "osm_id": 3414436965,
      "amenity": "cafe",
      "cuisine": "coffee_shop",
      "wheelchair": "yes",
      "takeaway": "yes",
      "official_name": "Starbucks Coffee",
      "delivery": "no",
      "addr_state": "IN",
      "addr_city": "Indianapolis",
      "addr_postcode": "46204",
      "addr_street": "Massachusetts Avenue",
      "addr_housenumber": "430",
      "value": 233.1717183341841
    },
    {
      "id": 53572,
      "geometry": "POINT (-86.128242 39.978284)",
      "poi_name": "South Bend Chocolate",
      "osm_id": 10086013703,
      "amenity": "cafe",
      "cuisine": "chocolate;coffee_shop",
      "website": "https://sbchocolate.com",
      "addr_state": "IN",
      "addr_city": "Carmel",
      "addr_postcode": "46032",
      "addr_street": "West Main Street",
      "addr_housenumber": "45",
      "value": 233.1717183341841
    },
    {
      "id": 71643,
      "geometry": "POINT (-86.353702 39.716447)",
      "poi_name": "Kung Fu Tea",
      "osm_id": 11396234000,
      "amenity": "cafe",
      "cuisine": "bubble_tea",
      "takeaway": "yes",
      "addr_state": "IN",
      "addr_city": "Plainfield",
      "addr_postcode": "46168",
      "addr_street": "East Main Street",
      "addr_housenumber": "2683",
      "value": 233.1717183341841
    },
    {
      "id": 65218,
      "geometry": "POINT (-86.762809 39.286169)",
      "poi_name": "Main Street Coffee",
      "osm_id": 5691057573,
      "amenity": "cafe",
      "cuisine": "coffee_shop",
      "addr_state": "IN",
      "addr_city": "Spencer",
      "addr_postcode": "47460",
      "value": 233.1717183341841
    },
    {
      "id": 70629,
      "geometry": "POINT (-85.975596 39.896944)",
      "poi_name": "Biggby Coffee",
      "osm_id": 11369024113,
      "amenity": "cafe",
      "cuisine": "coffee_shop",
      "opening_hours": "Mo-Sa 06:00-21:00; Su 07:00-21:00",
      "website": "https://www.biggby.com/",
      "internet_access": "no",
      "phone": "+1-317-855-7730",
      "takeaway": "yes",
      "drive_through": "yes",
      "outdoor_seating": "yes",
      "addr_state": "IN",
      "addr_city": "Indianapolis",
      "addr_postcode": "46236",
      "addr_street": "Sunnyside Road",
      "addr_housenumber": "7829",
      "value": 233.1717183341841
    },
    {
      "id": 65065,
      "geometry": "POINT (-86.022961 39.941168)",
      "poi_name": "Della Leva Espresso Bar",
      "osm_id": 5683654105,
      "amenity": "cafe",
      "cuisine": "coffee_shop",
      "addr_state": "IN",
      "addr_city": "Fishers",
      "addr_postcode": "46256",
      "addr_street": "East 106th Street",
      "addr_housenumber": "8220",
      "value": 233.1717183341841
    },
    {
      "id": 67531,
      "geometry": "POINT (-87.332339 39.441589)",
      "poi_name": "Starbucks",
      "osm_id": 11238552192,
      "amenity": "cafe",
      "cuisine": "coffee_shop",
      "building": "yes",
      "opening_hours": "Fr-Sa 05:30-22:30; Mo-Th 05:30-22:00; Su 06:00-21:30",
      "website": "https://www.starbucks.com/store-locator/store/1025833/sr-46-new-margaret-5510-east-new-margaret-drive-terre-haute-in-47803-",
      "internet_access": "wlan",
      "phone": "+1-812-872-2284",
      "takeaway": "yes",
      "official_name": "Starbucks Coffee",
      "addr_state": "IN",
      "addr_city": "Terre Haute",
      "addr_postcode": "47803",
      "addr_street": "New Margaret Drive",
      "addr_housenumber": "5510",
      "value": 233.1717183341841
    },
    {
      "id": 72239,
      "geometry": "POINT (-86.151004 39.768549)",
      "poi_name": "Tinker Coffee",
      "osm_id": 11418152969,
      "amenity": "cafe",
      "cuisine": "coffee_shop",
      "wheelchair": "yes",
      "opening_hours": "Mo-Fr 06:00-16:00; Sa-Su 08:00-15:00",
      "website": "https://www.tinkercoffee.com/",
      "phone": "+1-317-438-5728",
      "takeaway": "yes",
      "drive_through": "no",
      "outdoor_seating": "yes",
      "addr_state": "IN",
      "addr_city": "Indianapolis",
      "addr_postcode": "46204",
      "addr_street": "East Market Street",
      "addr_housenumber": "380",
      "value": 233.1717183341841
    },
    {
      "id": 85626,
      "geometry": "POINT (-86.516241 39.163836)",
      "poi_name": "Soma Coffee House and Juice Bar",
      "osm_id": 1885605541,
      "amenity": "cafe",
      "cuisine": "coffee_shop",
      "internet_access": "wlan",
      "addr_city": "Bloomington",
      "addr_postcode": "47401",
      "addr_street": "East 3rd Street",
      "addr_housenumber": "1400",
      "value": 233.1717183341841
    },
    {
      "id": 93118,
      "geometry": "POINT (-86.121297 39.889131)",
      "poi_name": "Starbucks",
      "osm_id": 2150624472,
      "amenity": "cafe",
      "cuisine": "coffee_shop",
      "takeaway": "yes",
      "official_name": "Starbucks Coffee",
      "addr_state": "IN",
      "addr_city": "Indianapolis",
      "addr_postcode": "46240",
      "addr_street": "North Keystone Avenue",
      "addr_housenumber": "7425",
      "value": 233.1717183341841
    },
    {
      "id": 100770,
      "geometry": "POINT (-86.145511 39.874314)",
      "poi_name": "Northside Kitchenette",
      "osm_id": 6597476265,
      "amenity": "cafe",
      "description": "American caf\u00e9 serving breakfast & lunch.",
      "phone": "+1-317-253-1022",
      "outdoor_seating": "yes",
      "addr_state": "IN",
      "addr_city": "Indianapolis",
      "addr_postcode": "46220",
      "addr_street": "North College Avenue",
      "addr_housenumber": "6515",
      "value": 233.1717183341841
    },
    {
      "id": 97989,
      "geometry": "POINT (-86.108605 39.913671)",
      "poi_name": "Starbucks",
      "osm_id": 6504424258,
      "amenity": "cafe",
      "cuisine": "coffee_shop",
      "opening_hours": "Mo-Th 6:00-21:00; Fr-Sa 6:00-22:00; Su 6:00-19:00",
      "phone": "+1-317-575-9053",
      "takeaway": "yes",
      "official_name": "Starbucks Coffee",
      "addr_state": "IN",
      "addr_city": "Indianapolis",
      "addr_postcode": "46240",
      "addr_street": "Keystone Crossing Boulevard",
      "addr_housenumber": "8702",
      "value": 233.1717183341841
    },
    {
      "id": 100547,
      "geometry": "POINT (-86.145885 39.869395)",
      "poi_name": "HoiTea ToiTea Indianapolis",
      "osm_id": 6592103232,
      "amenity": "cafe",
      "cuisine": "tea;breakfast;comfort_food",
      "phone": "+1-317-910-9977",
      "addr_state": "IN",
      "addr_city": "Indianapolis",
      "addr_postcode": "46220",
      "addr_street": "North College Avenue",
      "addr_housenumber": "6283",
      "value": 233.1717183341841
    },
    {
      "id": 116111,
      "geometry": "POINT (-86.589828 39.213426)",
      "poi_name": "Starbucks",
      "osm_id": 8929406509,
      "amenity": "cafe",
      "cuisine": "coffee_shop",
      "takeaway": "yes",
      "drive_through": "yes",
      "official_name": "Starbucks Coffee",
      "addr_state": "IN",
      "value": 233.1717183341841
    },
    {
      "id": 115662,
      "geometry": "POINT (-86.605077 39.221169)",
      "poi_name": "Americano",
      "osm_id": 8909699153,
      "amenity": "cafe",
      "cuisine": "coffee_shop",
      "takeaway": "only",
      "drive_through": "only",
      "addr_state": "IN",
      "addr_street": "State Road 46",
      "value": 233.1717183341841
    },
    {
      "id": 107775,
      "geometry": "POINT (-86.151361 39.773574)",
      "poi_name": "Hoaglin To Go",
      "osm_id": 3577643493,
      "amenity": "cafe",
      "wheelchair": "yes",
      "addr_state": "IN",
      "addr_city": "Indianapolis",
      "addr_postcode": "46204",
      "addr_street": "Massachusetts Avenue",
      "addr_housenumber": "448",
      "value": 233.1717183341841
    },
    {
      "id": 113086,
      "geometry": "POINT (-86.119441 39.980431)",
      "poi_name": "Carmel Cafe",
      "osm_id": 3817471944,
      "amenity": "cafe",
      "cuisine": "coffee_shop",
      "wheelchair": "yes",
      "internet_access": "yes",
      "addr_state": "IN",
      "addr_city": "Carmel",
      "addr_street": "East Main Street",
      "addr_housenumber": "520",
      "value": 233.1717183341841
    },
    {
      "id": 115120,
      "geometry": "POINT (-86.157404 39.925864)",
      "poi_name": "Starbucks",
      "osm_id": 3911758088,
      "amenity": "cafe",
      "cuisine": "coffee_shop",
      "takeaway": "yes",
      "official_name": "Starbucks Coffee",
      "addr_state": "IN",
      "addr_city": "Indianapolis",
      "addr_postcode": "46240",
      "addr_street": "North Meridian Street",
      "addr_housenumber": "9545",
      "value": 233.1717183341841
    },
    {
      "id": 118206,
      "geometry": "POINT (-85.996056 40.035586)",
      "poi_name": "Starbucks",
      "osm_id": 9033084762,
      "amenity": "cafe",
      "cuisine": "coffee_shop",
      "takeaway": "yes",
      "official_name": "Starbucks Coffee",
      "addr_state": "IN",
      "addr_city": "Noblesville",
      "addr_postcode": "46060",
      "addr_street": "Clover Road",
      "addr_housenumber": "16978",
      "value": 233.1717183341841
    },
    {
      "id": 118484,
      "geometry": "POINT (-85.935553 39.99587)",
      "poi_name": "Starbucks",
      "osm_id": 9048412565,
      "amenity": "cafe",
      "cuisine": "coffee_shop",
      "takeaway": "yes",
      "official_name": "Starbucks Coffee",
      "addr_state": "IN",
      "addr_city": "Noblesville",
      "addr_postcode": "46060",
      "addr_street": "Campus Parkway",
      "addr_housenumber": "12919",
      "value": 233.1717183341841
    },
    {
      "id": 122266,
      "geometry": "POINT (-87.359728 39.473598)",
      "poi_name": "Java Haute",
      "osm_id": 6794327961,
      "amenity": "cafe",
      "opening_hours": "Mo-Su 06:00-22:00",
      "website": "https://javahaute.com/",
      "phone": "+1-812-234-5282",
      "addr_state": "IN",
      "addr_city": "Terre Haute",
      "addr_postcode": "47803",
      "addr_street": "Wabash Avenue",
      "addr_housenumber": "3805",
      "value": 233.1717183341841
    },
    {
      "id": 123973,
      "geometry": "POINT (-86.762391 39.286196)",
      "poi_name": "Spencer Coffee House",
      "osm_id": 6893553432,
      "amenity": "cafe",
      "cuisine": "coffee_shop",
      "addr_state": "IN",
      "addr_city": "Spencer",
      "addr_postcode": "47460",
      "addr_street": "North Main Street",
      "addr_housenumber": "10",
      "value": 233.1717183341841
    },
    {
      "id": 128827,
      "geometry": "POINT (-86.072076 39.770513)",
      "poi_name": "Percolate Irvington",
      "osm_id": 8189125223,
      "amenity": "cafe",
      "cuisine": "coffee_shop;wine",
      "opening_hours": "Tu-Fr 07:30-20:00",
      "website": "https://www.percolateirv.com",
      "internet_access": "yes",
      "phone": "+1-317-986-6102",
      "outdoor_seating": "no",
      "addr_state": "IN",
      "addr_city": "Indianapolis",
      "addr_postcode": "46219",
      "addr_street": "East Washington Street",
      "addr_housenumber": "5543",
      "value": 233.1717183341841
    },
    {
      "id": 130073,
      "geometry": "POINT (-86.153411 39.768914)",
      "poi_name": "Cath Coffee and Tea House",
      "osm_id": 9853805686,
      "amenity": "cafe",
      "cuisine": "coffee_shop",
      "addr_state": "IN",
      "addr_city": "Indianapolis",
      "addr_postcode": "46204",
      "addr_street": "East Market Street",
      "addr_housenumber": "222",
      "value": 233.1717183341841
    },
    {
      "id": 129895,
      "geometry": "POINT (-86.389651 39.856076)",
      "poi_name": "Starbucks",
      "osm_id": 9845594072,
      "amenity": "cafe",
      "cuisine": "coffee_shop",
      "description": "Starbcuks inside of Kroger",
      "takeaway": "yes",
      "official_name": "Starbucks Coffee",
      "outdoor_seating": "no",
      "addr_state": "IN",
      "addr_city": "Brownsburg",
      "addr_postcode": "46112",
      "addr_street": "N Green Street",
      "addr_housenumber": "975",
      "value": 233.1717183341841
    },
    {
      "id": 131046,
      "geometry": "POINT (-86.160906 39.766558)",
      "poi_name": "Starbucks",
      "osm_id": 9900509143,
      "amenity": "cafe",
      "cuisine": "coffee_shop",
      "takeaway": "yes",
      "official_name": "Starbucks Coffee",
      "outdoor_seating": "no",
      "addr_state": "IN",
      "addr_city": "Indianapolis",
      "addr_postcode": "46204",
      "addr_street": "South Capitol Avenue",
      "addr_housenumber": "1",
      "value": 233.1717183341841
    },
    {
      "id": 136366,
      "geometry": "POINT (-86.133267 39.911266)",
      "poi_name": "Illumine Coffee Co.",
      "osm_id": 11581956574,
      "amenity": "cafe",
      "cuisine": "coffee_shop",
      "website": "http://www.illuminecoffee.com/",
      "addr_state": "IN",
      "addr_city": "Indianapolis",
      "addr_postcode": "46240",
      "addr_street": "8517 Westfield Rd",
      "addr_housenumber": "8517",
      "value": 233.1717183341841
    },
    {
      "id": 162677,
      "geometry": "POINT (-86.127288 39.97897)",
      "poi_name": "Tina's Traditional Tea Room",
      "osm_id": 4938466693,
      "amenity": "cafe",
      "cuisine": "british",
      "addr_state": "IN",
      "addr_city": "Carmel",
      "addr_postcode": "46032",
      "addr_street": "North Range Line Road",
      "addr_housenumber": "30",
      "value": 233.1717183341841
    },
    {
      "id": 146059,
      "geometry": "POINT (-86.534607 39.171469)",
      "poi_name": "Crumble Coffee and Bakery",
      "osm_id": 7409370068,
      "amenity": "cafe",
      "cuisine": "coffee_shop;bakery",
      "internet_access": "wlan",
      "outdoor_seating": "yes",
      "addr_state": "IN",
      "addr_city": "Bloomington",
      "addr_postcode": "47404",
      "addr_street": "North College Avenue",
      "addr_housenumber": "532",
      "value": 233.1717183341841
    },
    {
      "id": 162415,
      "geometry": "POINT (-86.013024 39.957332)",
      "poi_name": "The Well Coffeehouse",
      "osm_id": 4930808229,
      "amenity": "cafe",
      "cuisine": "coffee_shop",
      "website": "https://wellcoffeehouse.com/",
      "internet_access": "yes",
      "outdoor_seating": "yes",
      "addr_state": "IN",
      "addr_city": "Fishers",
      "addr_postcode": "46038",
      "addr_street": "East 116th Street",
      "addr_housenumber": "8890",
      "value": 233.1717183341841
    },
    {
      "id": 162687,
      "geometry": "POINT (-86.071179 39.979633)",
      "poi_name": "Starbucks",
      "osm_id": 4938620845,
      "amenity": "cafe",
      "cuisine": "coffee_shop",
      "takeaway": "yes",
      "official_name": "Starbucks Coffee",
      "addr_state": "IN",
      "addr_city": "Carmel",
      "addr_postcode": "46033",
      "addr_street": "Hazel Dell Parkway",
      "addr_housenumber": "13170",
      "value": 233.1717183341841
    },
    {
      "id": 181285,
      "geometry": "POINT (-86.176407 39.773703)",
      "poi_name": "Caribou Coffee",
      "osm_id": 10838177362,
      "amenity": "cafe",
      "cuisine": "coffee_shop",
      "opening_hours": "Mo-Th 07:00-18:00; Fr 07:00-15:00",
      "website": "https://locations.cariboucoffee.com/us/in/indianapolis/420-university-boulevard",
      "internet_access": "wlan",
      "phone": "+1-317-274-5157",
      "takeaway": "yes",
      "addr_state": "IN",
      "addr_city": "Indianapolis",
      "addr_postcode": "46202",
      "addr_street": "University Boulevard",
      "addr_housenumber": "420",
      "value": 233.1717183341841
    },
    {
      "id": 179607,
      "geometry": "POINT (-86.157386 39.780287)",
      "poi_name": "Quill's Coffee",
      "osm_id": 10771204968,
      "amenity": "cafe",
      "opening_hours": "Mo-Fr 06:00-18:00; Sa-Su 07:00-19:00",
      "website": "https://quillscoffee.com/",
      "internet_access": "yes",
      "outdoor_seating": "no",
      "addr_state": "IN",
      "addr_city": "Indianapolis",
      "addr_postcode": "46204",
      "addr_street": "North Meridian Street",
      "addr_housenumber": "941",
      "value": 233.1717183341841
    },
    {
      "id": 189075,
      "geometry": "POINT (-86.522465 39.163004)",
      "poi_name": "The Inkwell Bakery & Cafe",
      "osm_id": 1209468893,
      "amenity": "cafe",
      "wheelchair": "no",
      "opening_hours": "Mo-Fr 07:30-17:00; Sa-Su 09:00-15:00",
      "website": "https://www.inkwellbtown.com/",
      "phone": "+1-812-287-8354",
      "addr_state": "IN",
      "addr_city": "Bloomington",
      "addr_postcode": "47401",
      "addr_street": "South Woodlawn Avenue",
      "addr_housenumber": "401",
      "value": 233.1717183341841
    },
    {
      "id": 184352,
      "geometry": "POINT (-86.15443 39.842802)",
      "poi_name": "Cafe Patachou",
      "osm_id": 7784439760,
      "amenity": "cafe",
      "cuisine": "sandwich",
      "phone": "+1-317-925-2823",
      "outdoor_seating": "yes",
      "addr_state": "IN",
      "addr_city": "Indianapolis",
      "addr_postcode": "46205",
      "addr_street": "North Pennsylvania Street",
      "addr_housenumber": "4901",
      "value": 233.1717183341841
    },
    {
      "id": 185411,
      "geometry": "POINT (-86.139532 39.788229)",
      "poi_name": "Provider",
      "osm_id": 7854970787,
      "amenity": "cafe",
      "cuisine": "coffee_shop",
      "opening_hours": "Mo-Su 08:00-14:00",
      "internet_access": "yes",
      "outdoor_seating": "yes",
      "addr_state": "IN",
      "addr_city": "Indianapolis",
      "addr_postcode": "46202",
      "addr_street": "E 16th St",
      "addr_housenumber": "1101",
      "value": 233.1717183341841
    },
    {
      "id": 187371,
      "geometry": "POINT (-86.573142 39.168503)",
      "poi_name": "Starbucks",
      "osm_id": 1059468834,
      "amenity": "cafe",
      "cuisine": "coffee_shop",
      "phone": "+1-812-323-8740",
      "takeaway": "yes",
      "official_name": "Starbucks Coffee",
      "addr_state": "IN",
      "addr_city": "Bloomington",
      "addr_postcode": "47404",
      "addr_street": "North Jacob Drive",
      "addr_housenumber": "284",
      "value": 233.1717183341841
    },
    {
      "id": 207925,
      "geometry": "POINT (-86.232022 39.929857)",
      "poi_name": "Jacquie's Gourmet Cafe",
      "osm_id": 4968693773,
      "amenity": "cafe",
      "cuisine": "coffee_shop",
      "addr_state": "IN",
      "addr_city": "Carmel",
      "addr_postcode": "46032",
      "addr_street": "North Michigan Road",
      "addr_housenumber": "9840",
      "value": 233.1717183341841
    },
    {
      "id": 198101,
      "geometry": "POINT (-86.134143 39.785177)",
      "poi_name": "Top Out Cafe",
      "osm_id": 10688533982,
      "amenity": "cafe",
      "cuisine": "juice;smoothie;soup;salad;coffee;beer",
      "opening_hours": "Mo-Su 07:00-23:00",
      "website": "https://topoutcafe.com/",
      "phone": "+1-317-953-6669",
      "outdoor_seating": "no",
      "addr_state": "IN",
      "addr_city": "Indianapolis",
      "addr_postcode": "46201",
      "addr_street": "Roosevelt Avenue",
      "addr_housenumber": "1411",
      "value": 233.1717183341841
    },
    {
      "id": 202378,
      "geometry": "POINT (-86.125251 39.767833)",
      "poi_name": "Neidhammer Coffee Co.",
      "osm_id": 7022403826,
      "amenity": "cafe",
      "cuisine": "coffee_shop",
      "internet_access": "yes",
      "outdoor_seating": "yes",
      "addr_state": "IN",
      "addr_city": "Indianapolis",
      "addr_postcode": "46201",
      "addr_street": "East Washington Street",
      "addr_housenumber": "2102",
      "value": 233.1717183341841
    },
    {
      "id": 211261,
      "geometry": "POINT (-86.128352 39.970117)",
      "poi_name": "Hubbard & Cravens",
      "osm_id": 5149610602,
      "amenity": "cafe",
      "opening_hours": "Mo-Su 07:30-16:30",
      "website": "https://www.hubbardandcravens.com/locations/carmel/",
      "internet_access": "wlan",
      "phone": "+1-317-805-1888",
      "outdoor_seating": "yes",
      "addr_state": "IN",
      "addr_city": "Carmel",
      "addr_postcode": "46032",
      "addr_street": "Veteran's Way",
      "addr_housenumber": "703",
      "value": 233.1717183341841
    },
    {
      "id": 212737,
      "geometry": "POINT (-86.150339 39.773702)",
      "poi_name": "Coat Check Coffee",
      "osm_id": 5218917822,
      "amenity": "cafe",
      "wheelchair": "yes",
      "addr_state": "IN",
      "addr_city": "Indianapolis",
      "addr_postcode": "46204",
      "addr_street": "East Michigan Street",
      "addr_housenumber": "401",
      "value": 233.1717183341841
    },
    {
      "id": 214507,
      "geometry": "POINT (-86.051656 39.905487)",
      "poi_name": "Starbucks",
      "osm_id": 5273865464,
      "amenity": "cafe",
      "cuisine": "coffee_shop",
      "takeaway": "yes",
      "official_name": "Starbucks Coffee",
      "addr_state": "IN",
      "addr_city": "Indianapolis",
      "addr_postcode": "46250",
      "addr_street": "East 82nd Street",
      "addr_housenumber": "6714",
      "value": 233.1717183341841
    },
    {
      "id": 215077,
      "geometry": "POINT (-86.154461 39.978878)",
      "poi_name": "Starbucks",
      "osm_id": 5286895150,
      "amenity": "cafe",
      "cuisine": "coffee_shop",
      "takeaway": "yes",
      "official_name": "Starbucks Coffee",
      "addr_state": "IN",
      "addr_city": "Carmel",
      "addr_postcode": "46032",
      "addr_street": "West Main Street",
      "addr_housenumber": "1420",
      "value": 233.1717183341841
    },
    {
      "id": 215870,
      "geometry": "POINT (-86.125653 39.962907)",
      "poi_name": "Starbucks",
      "osm_id": 5316792490,
      "amenity": "cafe",
      "cuisine": "coffee_shop",
      "wheelchair": "yes",
      "takeaway": "yes",
      "official_name": "Starbucks Coffee",
      "addr_state": "IN",
      "addr_city": "Carmel",
      "addr_postcode": "46032",
      "addr_street": "South Range Line Road",
      "addr_housenumber": "1217",
      "value": 233.1717183341841
    },
    {
      "id": 215871,
      "geometry": "POINT (-86.151883 39.973096)",
      "poi_name": "Starbucks",
      "osm_id": 5316797685,
      "amenity": "cafe",
      "cuisine": "coffee_shop",
      "takeaway": "yes",
      "official_name": "Starbucks Coffee",
      "addr_state": "IN",
      "addr_city": "Carmel",
      "addr_postcode": "46032",
      "addr_street": "West Carmel Drive",
      "addr_housenumber": "1425",
      "value": 233.1717183341841
    },
    {
      "id": 215872,
      "geometry": "POINT (-86.16378 39.954041)",
      "poi_name": "Starbucks",
      "osm_id": 5316798912,
      "amenity": "cafe",
      "cuisine": "coffee_shop",
      "takeaway": "yes",
      "official_name": "Starbucks Coffee",
      "addr_state": "IN",
      "addr_city": "Carmel",
      "addr_postcode": "46032",
      "addr_street": "Springmill Road",
      "addr_housenumber": "11435",
      "value": 233.1717183341841
    },
    {
      "id": 225306,
      "geometry": "POINT (-86.129026 39.664535)",
      "poi_name": "The Moca Nut Coffee Shop",
      "osm_id": 11120351658,
      "amenity": "cafe",
      "cuisine": "coffee_shop",
      "addr_state": "IN",
      "addr_city": "Indianapolis",
      "addr_street": "East Southport Road",
      "addr_housenumber": "1625",
      "value": 233.1717183341841
    },
    {
      "id": 225672,
      "geometry": "POINT (-86.016679 39.957295)",
      "poi_name": "Another Broken Egg Cafe",
      "osm_id": 11136819582,
      "amenity": "cafe",
      "cuisine": "breakfast",
      "website": "https://www.anotherbrokenegg.com/locations/fishers-in/",
      "internet_access": "yes",
      "phone": "(317) 570-1002",
      "outdoor_seating": "yes",
      "addr_state": "IN",
      "addr_city": "Fishers",
      "addr_postcode": "46038",
      "addr_street": "East 116th Street",
      "addr_housenumber": "8626",
      "value": 233.1717183341841
    },
    {
      "id": 226743,
      "geometry": "POINT (-86.024163 39.928223)",
      "poi_name": "Smitten Kitten Cat Cafe",
      "osm_id": 11167174237,
      "amenity": "cafe",
      "website": "https://www.smittenkittencatcafe.com/",
      "addr_state": "IN",
      "addr_city": "Fishers",
      "addr_postcode": "46037",
      "addr_street": "East 96th Street",
      "addr_housenumber": "7852",
      "value": 233.1717183341841
    },
    {
      "id": 229409,
      "geometry": "POINT (-87.38158 39.506536)",
      "poi_name": "Square Donuts",
      "osm_id": 4381096308,
      "amenity": "cafe",
      "addr_state": "IN",
      "addr_city": "Terre Haute",
      "addr_postcode": "47804",
      "addr_street": "Fort Harrison Road",
      "addr_housenumber": "2417",
      "value": 233.1717183341841
    },
    {
      "id": 230923,
      "geometry": "POINT (-86.073092 39.770324)",
      "poi_name": "10 Johnson",
      "osm_id": 4447080292,
      "amenity": "cafe",
      "addr_city": "Indianapolis",
      "addr_postcode": "46219",
      "addr_street": "Johnson Avenue",
      "value": 233.1717183341841
    },
    {
      "id": 230334,
      "geometry": "POINT (-86.1303 39.998393)",
      "poi_name": "Harmony Tea Shoppe",
      "osm_id": 4422488910,
      "amenity": "cafe",
      "cuisine": "bubble_tea;poke",
      "takeaway": "yes",
      "addr_state": "IN",
      "addr_city": "Carmel",
      "addr_postcode": "46032",
      "addr_street": "Clay Terrace Boulevard",
      "addr_housenumber": "14490",
      "value": 233.1717183341841
    }
  ],
  "answer_type": "loc",
  "question_entities": {
    "[2]": {
      "distance": 190000,
      "text": "190 kilometers"
    },
    "[3]": {
      "main_category": "amenity",
      "sub_category": "university",
      "display_name": "Virginia B Ball Center for Creative Inquiry, Muncie, IN",
      "geo_wkt": "POINT (-85.426059 40.197552)",
      "poi": {
        "id": 144604,
        "geometry": "POINT (-85.426059 40.197552)",
        "poi_name": "Virginia B Ball Center for Creative Inquiry",
        "osm_id": 7277052440,
        "amenity": "university",
        "operator": "Ball State University",
        "website": "https://www.bsu.edu/academics/centersandinstitutes/virginiaballcenter",
        "phone": "+1-765-287-0117",
        "addr_state": "IN",
        "addr_city": "Muncie",
        "addr_postcode": "47304",
        "addr_street": "West University Avenue",
        "addr_housenumber": "3401"
      }
    },
    "[4]": {
      "main_category": "tourism",
      "sub_category": "hotel",
      "display_name": "JW Marriott Indianapolis, Indianapolis, IN",
      "geo_wkt": "POINT (-86.167694 39.766585)",
      "poi": {
        "id": 3625,
        "geometry": "POINT (-86.167694 39.766585)",
        "poi_name": "JW Marriott Indianapolis",
        "osm_id": 5504151848,
        "tourism": "hotel",
        "wheelchair": "yes",
        "internet_access": "wlan",
        "addr_state": "IN",
        "addr_city": "Indianapolis",
        "addr_postcode": "46204",
        "addr_street": "South West Street",
        "addr_housenumber": "10"
      }
    },
    "[1]": {
      "main_category": "amenity",
      "sub_category": "cafe"
    }
  },
  "id": 1258,
  "type": "range:towards+loc"
}