{
  "question": "What caf\u00e9 is available on the route to SEA LIFE Minnesota Aquarium, Bloomington, MN within a 120 kilometers radius from Water Street Inn, Stillwater, MN?",
  "sql": "WITH\n    angle AS (SELECT degrees(ST_Azimuth(ST_GeomFromText('POINT (-92.805004 45.056347)',4326)::geography, ST_GeomFromText('POINT (-93.240076 44.854752)',4326)::geography)) AS value)\nSELECT * FROM pois,angle\nWHERE amenity = 'cafe'\nAND ST_DWithin(pois.geometry, ST_GeomFromText('POINT (-92.805004 45.056347)',4326)::geography, 120000)\nAND (degrees(ST_Azimuth(ST_GeomFromText('POINT (-92.805004 45.056347)',4326)::geography, pois.geometry)) BETWEEN angle.value - 22.5 AND angle.value + 22.5);\n",
  "answers": [
    {
      "id": 28404,
      "geometry": "POINT (-93.216746 44.948538)",
      "poi_name": "Milkweed Cafe",
      "osm_id": 478479503,
      "amenity": "cafe",
      "cuisine": "coffee_shop",
      "opening_hours": "Mo-Su 08:00-18:00",
      "phone": "+1-612-353-4752",
      "addr_state": "MN",
      "addr_city": "Minneapolis",
      "addr_postcode": "55406",
      "addr_street": "East Lake Street",
      "addr_housenumber": "3822",
      "value": 237.02618320999238
    },
    {
      "id": 33911,
      "geometry": "POINT (-93.056046 44.865832)",
      "poi_name": "Caribou Coffee",
      "osm_id": 2686935981,
      "amenity": "cafe",
      "cuisine": "coffee_shop",
      "takeaway": "yes",
      "value": 237.02618320999238
    },
    {
      "id": 34288,
      "geometry": "POINT (-93.327982 44.874409)",
      "poi_name": "Caribou Coffee",
      "osm_id": 2698857961,
      "amenity": "cafe",
      "cuisine": "coffee_shop",
      "website": "https://www.cariboucoffee.com",
      "phone": "+1 952 915 1108",
      "value": 237.02618320999238
    },
    {
      "id": 34447,
      "geometry": "POINT (-93.326524 44.877291)",
      "poi_name": "People's Organic",
      "osm_id": 2700282728,
      "amenity": "cafe",
      "cuisine": "american",
      "website": "https://www.peoplesorganic.com/",
      "phone": "+1 952 426 1856",
      "addr_city": "Edina",
      "addr_postcode": "55435",
      "value": 237.02618320999238
    },
    {
      "id": 34465,
      "geometry": "POINT (-93.320566 44.879276)",
      "poi_name": "Caribou Coffee",
      "osm_id": 2700334564,
      "amenity": "cafe",
      "cuisine": "coffee_shop",
      "website": "https://www.cariboucoffee.com",
      "phone": "+1 952 929 4734",
      "takeaway": "yes",
      "addr_city": "Edina",
      "addr_postcode": "55435",
      "addr_street": "York Avenue South",
      "addr_housenumber": "6805",
      "value": 237.02618320999238
    },
    {
      "id": 34467,
      "geometry": "POINT (-93.323341 44.877235)",
      "poi_name": "Starbucks",
      "osm_id": 2700342780,
      "amenity": "cafe",
      "cuisine": "coffee_shop",
      "website": "https://www.starbucks.com/",
      "phone": "+1 952 924 0344",
      "takeaway": "yes",
      "official_name": "Starbucks Coffee",
      "addr_city": "Edina",
      "addr_postcode": "55435",
      "value": 237.02618320999238
    },
    {
      "id": 43492,
      "geometry": "POINT (-93.308159 44.860972)",
      "poi_name": "Starbucks",
      "osm_id": 3115438497,
      "amenity": "cafe",
      "cuisine": "coffee_shop",
      "opening_hours": "Mo-Fr 05:30-21:00, Sa 06:00-21:00, Su 06:00-20:00",
      "phone": "+1 952 885 9985",
      "takeaway": "yes",
      "official_name": "Starbucks Coffee",
      "addr_city": "Bloomington",
      "addr_postcode": "55431",
      "addr_street": "Southtown Center",
      "addr_housenumber": "7805",
      "value": 237.02618320999238
    },
    {
      "id": 37456,
      "geometry": "POINT (-92.935088 44.95183)",
      "poi_name": "Caribou Coffee",
      "osm_id": 2812537767,
      "amenity": "cafe",
      "cuisine": "coffee_shop",
      "internet_access": "wlan",
      "takeaway": "yes",
      "value": 237.02618320999238
    },
    {
      "id": 38128,
      "geometry": "POINT (-93.095212 44.951561)",
      "poi_name": "Caribou Coffee",
      "osm_id": 2846157452,
      "amenity": "cafe",
      "cuisine": "coffee_shop",
      "takeaway": "yes",
      "value": 237.02618320999238
    },
    {
      "id": 40684,
      "geometry": "POINT (-93.24469 44.969829)",
      "poi_name": "Caribou Coffee",
      "osm_id": 2978085124,
      "amenity": "cafe",
      "cuisine": "coffee_shop",
      "opening_hours": "Mo-Th 07:00-20:00; Fr 07:00-16:00; Sa 07:00-14:00",
      "website": "https://www.cariboucoffee.com/",
      "phone": "+1-612-625-8585",
      "takeaway": "yes",
      "addr_state": "MN",
      "addr_city": "Minneapolis",
      "addr_postcode": "55455",
      "addr_street": "South 4th Street",
      "addr_housenumber": "1925",
      "value": 237.02618320999238
    },
    {
      "id": 43019,
      "geometry": "POINT (-93.317399 44.884881)",
      "poi_name": "Patrick's Bakery & Cafe",
      "osm_id": 3092875788,
      "amenity": "cafe",
      "cuisine": "french",
      "website": "https://patricksbakerycafe.com/",
      "phone": "+1 612 861 7570",
      "addr_city": "Edina",
      "addr_postcode": "55435",
      "addr_street": "West 66th Street",
      "addr_housenumber": "2928",
      "value": 237.02618320999238
    },
    {
      "id": 43126,
      "geometry": "POINT (-93.126362 44.92816)",
      "poi_name": "Burn Unit Coffee Ward",
      "osm_id": 3095001935,
      "amenity": "cafe",
      "value": 237.02618320999238
    },
    {
      "id": 43127,
      "geometry": "POINT (-93.137085 44.92053)",
      "poi_name": "Fresh Grounds",
      "osm_id": 3095001939,
      "amenity": "cafe",
      "value": 237.02618320999238
    },
    {
      "id": 43045,
      "geometry": "POINT (-93.328301 44.873269)",
      "poi_name": "Caribou Coffee",
      "osm_id": 3093012422,
      "amenity": "cafe",
      "cuisine": "coffee_shop",
      "website": "https://www.cariboucoffee.com",
      "phone": "+1 952 831 0288",
      "value": 237.02618320999238
    },
    {
      "id": 46353,
      "geometry": "POINT (-93.308524 44.912241)",
      "poi_name": "Sparrow Cafe",
      "osm_id": 3260112134,
      "amenity": "cafe",
      "cuisine": "coffee_shop",
      "wheelchair": "yes",
      "opening_hours": "Mo-Fr 06:00-17:00, Sa 07:00-17:00, Su 08:00-17:00",
      "website": "https://sparrowcafe.com/",
      "internet_access": "wlan",
      "addr_state": "MN",
      "addr_city": "Minneapolis",
      "addr_postcode": "55419",
      "addr_street": "Penn Avenue South",
      "addr_housenumber": "5001",
      "value": 237.02618320999238
    },
    {
      "id": 43599,
      "geometry": "POINT (-93.443083 44.966323)",
      "poi_name": "Caribou Coffee",
      "osm_id": 3121358335,
      "amenity": "cafe",
      "cuisine": "coffee_shop",
      "takeaway": "yes",
      "value": 237.02618320999238
    },
    {
      "id": 43602,
      "geometry": "POINT (-93.309359 44.859269)",
      "poi_name": "Caribou Coffee",
      "osm_id": 3121514751,
      "amenity": "cafe",
      "cuisine": "coffee_shop",
      "website": "https://www.cariboucoffee.com",
      "phone": "+1 952 888 1504",
      "takeaway": "yes",
      "addr_city": "Bloomington",
      "addr_postcode": "55431",
      "addr_street": "Penn Avenue S",
      "addr_housenumber": "7950",
      "value": 237.02618320999238
    },
    {
      "id": 45792,
      "geometry": "POINT (-93.298001 44.951535)",
      "poi_name": "Uncommon Grounds Coffeehouse",
      "osm_id": 3230167861,
      "amenity": "cafe",
      "cuisine": "coffee_shop",
      "opening_hours": "Mo-Fr 14:00-23:00; Sa-Su 11:00-23:00; PH closed",
      "website": "http://www.uncommongroundscoffeehouse.com",
      "addr_state": "MN",
      "addr_city": "Minneapolis",
      "addr_postcode": "55408",
      "addr_street": "Hennepin Avenue South",
      "addr_housenumber": "2809",
      "value": 237.02618320999238
    },
    {
      "id": 46022,
      "geometry": "POINT (-93.277675 44.955173)",
      "poi_name": "Glam Doll Donuts",
      "osm_id": 3241770952,
      "amenity": "cafe",
      "cuisine": "donut",
      "opening_hours": "Mo-Th 07:00-21:00, Fr 07:00-23:59, Sa 00:00-01:00,07:00-23:59, Su 00:00-01:00,07:00-15:00",
      "website": "http://www.glamdolldonuts.com",
      "addr_state": "MN",
      "addr_city": "Minneapolis",
      "addr_postcode": "55408",
      "addr_street": "Nicollet Avenue South",
      "addr_housenumber": "2605",
      "value": 237.02618320999238
    },
    {
      "id": 43837,
      "geometry": "POINT (-93.122207 44.946474)",
      "poi_name": "French Hen Cafe",
      "osm_id": 3134015336,
      "amenity": "cafe",
      "opening_hours": "08:00-14:30",
      "website": "http://frenchhencafe.com/",
      "addr_city": "Saint Paul",
      "addr_postcode": "55102",
      "addr_street": "Selby Avenue",
      "addr_housenumber": "518",
      "value": 237.02618320999238
    },
    {
      "id": 45231,
      "geometry": "POINT (-93.106743 45.014563)",
      "poi_name": "J Arthurs",
      "osm_id": 3196073157,
      "amenity": "cafe",
      "cuisine": "coffee_shop",
      "value": 237.02618320999238
    },
    {
      "id": 45901,
      "geometry": "POINT (-93.260997 44.978489)",
      "poi_name": "Caribou Coffee",
      "osm_id": 3235588408,
      "amenity": "cafe",
      "cuisine": "coffee_shop",
      "website": "https://www.cariboucoffee.com/",
      "internet_access": "wlan",
      "takeaway": "yes",
      "value": 237.02618320999238
    },
    {
      "id": 46850,
      "geometry": "POINT (-93.14615 45.00623)",
      "poi_name": "Mudslingers Drive-Thru Coffee",
      "osm_id": 3296766763,
      "amenity": "cafe",
      "cuisine": "coffee_shop",
      "website": "https://www.mudslingersmn.com/",
      "addr_city": "Roseville",
      "addr_postcode": "55113",
      "addr_street": "Lexington Avenue North",
      "addr_housenumber": "2154",
      "value": 237.02618320999238
    },
    {
      "id": 50661,
      "geometry": "POINT (-93.172039 44.939962)",
      "poi_name": "Sencha Tea Bar",
      "osm_id": 3497689939,
      "amenity": "cafe",
      "cuisine": "tea",
      "website": "https://senchateabar.com/",
      "phone": "+1-651-690-3495",
      "addr_state": "MN",
      "addr_city": "Saint Paul",
      "addr_postcode": "55105",
      "addr_street": "Grand Avenue",
      "addr_housenumber": "1692",
      "value": 237.02618320999238
    },
    {
      "id": 49590,
      "geometry": "POINT (-92.963669 44.96285)",
      "poi_name": "Caribou Coffee",
      "osm_id": 3442832664,
      "amenity": "cafe",
      "cuisine": "coffee_shop",
      "takeaway": "yes",
      "value": 237.02618320999238
    },
    {
      "id": 49253,
      "geometry": "POINT (-93.23175 44.973346)",
      "poi_name": "Caribou Coffee",
      "osm_id": 3421934941,
      "amenity": "cafe",
      "cuisine": "coffee_shop",
      "opening_hours": "Mo-Th 07:00-21:00; Fr 07:00-16:00; Sa 09:00-16:00",
      "takeaway": "yes",
      "value": 237.02618320999238
    },
    {
      "id": 49254,
      "geometry": "POINT (-93.224734 44.97413)",
      "poi_name": "Caribou Coffee",
      "osm_id": 3421934942,
      "amenity": "cafe",
      "cuisine": "coffee_shop",
      "phone": "+1-612-331-4121",
      "takeaway": "yes",
      "addr_state": "MN",
      "addr_city": "Minneapolis",
      "addr_postcode": "55414",
      "addr_street": "Southeast Washington Avenue",
      "addr_housenumber": "917",
      "value": 237.02618320999238
    },
    {
      "id": 50062,
      "geometry": "POINT (-93.223075 44.932601)",
      "poi_name": "Selam Coffee",
      "osm_id": 3464555424,
      "amenity": "cafe",
      "cuisine": "coffee_shop",
      "website": "https://selamcoffee.com/",
      "addr_city": "Minneapolis",
      "addr_postcode": "55406",
      "addr_street": "Minnehaha Avenue",
      "addr_housenumber": "3860",
      "value": 237.02618320999238
    },
    {
      "id": 51644,
      "geometry": "POINT (-93.16729 44.963029)",
      "poi_name": "Ginkgo Coffeehouse",
      "osm_id": 544532876,
      "amenity": "cafe",
      "cuisine": "tea;sandwich;coffee_shop",
      "opening_hours": "Mo-Fr 06:15-20:00; Sa-Su 06:45-20:00",
      "website": "https://www.ginkgocoffee.com/",
      "internet_access": "wlan",
      "phone": "+1 651-645-2647",
      "addr_postcode": "55104",
      "addr_street": "Snelling Avenue",
      "addr_housenumber": "721",
      "value": 237.02618320999238
    },
    {
      "id": 51034,
      "geometry": "POINT (-93.166327 44.94022)",
      "poi_name": "Dunn Brothers",
      "osm_id": 503546405,
      "amenity": "cafe",
      "wheelchair": "limited",
      "opening_hours": "Mo-Su 06:30-21:00",
      "internet_access": "wlan",
      "phone": "+1-651-698-0618",
      "outdoor_seating": "veranda",
      "addr_state": "MN",
      "addr_city": "Saint Paul",
      "addr_postcode": "55105",
      "addr_street": "Grand Avenue",
      "addr_housenumber": "1569",
      "value": 237.02618320999238
    },
    {
      "id": 51810,
      "geometry": "POINT (-93.349932 44.966225)",
      "poi_name": "Caribou Coffee",
      "osm_id": 561234341,
      "amenity": "cafe",
      "cuisine": "coffee_shop",
      "website": "https://locations.cariboucoffee.com/us/mn/st-louis-park/1650-park-place-boulevard",
      "phone": "+19525939694",
      "takeaway": "yes",
      "addr_state": "MN",
      "addr_city": "Saint Louis Park",
      "addr_postcode": "55416",
      "addr_street": "Park Place Boulevard",
      "addr_housenumber": "1650",
      "value": 237.02618320999238
    },
    {
      "id": 51738,
      "geometry": "POINT (-93.094825 44.94572)",
      "poi_name": "Dunn Bros. Coffee",
      "osm_id": 558523704,
      "amenity": "cafe",
      "value": 237.02618320999238
    },
    {
      "id": 51821,
      "geometry": "POINT (-93.252645 44.939885)",
      "poi_name": "May Day Cafe",
      "osm_id": 562529853,
      "amenity": "cafe",
      "addr_street": "Bloomington Avenue South",
      "addr_housenumber": "3440",
      "value": 237.02618320999238
    },
    {
      "id": 51650,
      "geometry": "POINT (-93.092341 44.948603)",
      "poi_name": "Caribou Coffee",
      "osm_id": 546630646,
      "amenity": "cafe",
      "cuisine": "coffee_shop",
      "takeaway": "yes",
      "value": 237.02618320999238
    },
    {
      "id": 51652,
      "geometry": "POINT (-93.415523 44.774977)",
      "poi_name": "Caribou Coffee",
      "osm_id": 547074024,
      "amenity": "cafe",
      "cuisine": "coffee_shop",
      "takeaway": "yes",
      "addr_street": "Old Carriage Court",
      "addr_housenumber": "8048",
      "value": 237.02618320999238
    },
    {
      "id": 51662,
      "geometry": "POINT (-93.157071 44.959196)",
      "poi_name": "Groundswell Coffee",
      "osm_id": 547768185,
      "amenity": "cafe",
      "addr_postcode": "55104",
      "addr_street": "Thomas Avenue",
      "addr_housenumber": "1342",
      "value": 237.02618320999238
    },
    {
      "id": 51982,
      "geometry": "POINT (-93.094121 44.951146)",
      "poi_name": "Keys Cafe",
      "osm_id": 566760230,
      "amenity": "cafe",
      "cuisine": "american",
      "opening_hours": "Mo-Fr 06:00-21:00; Sa-Su 07:00-21:00",
      "website": "https://keyscafe.com/restaurants/st-paul-robert/",
      "phone": "+1-651-222-4083",
      "value": 237.02618320999238
    },
    {
      "id": 52318,
      "geometry": "POINT (-93.314676 44.923833)",
      "poi_name": "Sebastian Joe's Ice Cream",
      "osm_id": 577363018,
      "amenity": "cafe",
      "cuisine": "ice_cream",
      "phone": "+1-612-926-7916",
      "value": 237.02618320999238
    },
    {
      "id": 52295,
      "geometry": "POINT (-93.083954 44.949154)",
      "poi_name": "Black Dog Restaurant (CLOSED PERMANENTLY)",
      "osm_id": 576873513,
      "amenity": "cafe",
      "description": "Black Dog has closed permanently.",
      "website": "https://www.blackdogstpaul.com/",
      "addr_street": "Prince Street",
      "addr_housenumber": "308",
      "value": 237.02618320999238
    },
    {
      "id": 52319,
      "geometry": "POINT (-93.3153 44.924851)",
      "poi_name": "Dunn Bros Coffee",
      "osm_id": 577363022,
      "amenity": "cafe",
      "cuisine": "coffee_shop",
      "website": "http://lindenhills.dunnbros.com",
      "addr_city": "Minneapolis",
      "addr_postcode": "55410",
      "addr_street": "West 43rd Street",
      "addr_housenumber": "2814",
      "value": 237.02618320999238
    },
    {
      "id": 52367,
      "geometry": "POINT (-93.187915 44.917555)",
      "poi_name": "Starbucks",
      "osm_id": 580367730,
      "amenity": "cafe",
      "cuisine": "coffee_shop",
      "takeaway": "yes",
      "official_name": "Starbucks Coffee",
      "value": 237.02618320999238
    },
    {
      "id": 52378,
      "geometry": "POINT (-93.296643 44.955411)",
      "poi_name": "Sencha Tea Bar",
      "osm_id": 581241431,
      "amenity": "cafe",
      "description": "Hot & ice tea; bubble tea; a few sandwiches & pastries.",
      "opening_hours": "Su-Th 09:00-22:00; Fr,Sa 09:00-23:00",
      "website": "https://www.senchateabar.com",
      "value": 237.02618320999238
    },
    {
      "id": 52331,
      "geometry": "POINT (-93.186559 44.948221)",
      "poi_name": "Kopplin's Coffee",
      "osm_id": 577460538,
      "amenity": "cafe",
      "opening_hours": "Mo-Fr 06:00-20:00; Sa-Su 07:00-20:00",
      "website": "https://www.kopplinscoffee.com/",
      "addr_postcode": "55104",
      "addr_street": "Marshall Avenue",
      "addr_housenumber": "2038",
      "value": 237.02618320999238
    },
    {
      "id": 52333,
      "geometry": "POINT (-93.292145 44.962574)",
      "poi_name": "Sebastian Joe's Ice Cream",
      "osm_id": 577470717,
      "amenity": "cafe",
      "wheelchair": "yes",
      "opening_hours": "PH off; Su-Th 07:00-22:00; Fr,Sa 07:00-23:00",
      "addr_street": "West Franklin Avenue",
      "addr_housenumber": "1007",
      "value": 237.02618320999238
    },
    {
      "id": 52335,
      "geometry": "POINT (-93.287828 44.959018)",
      "poi_name": "Misfit Coffee",
      "osm_id": 577471645,
      "amenity": "cafe",
      "cuisine": "coffee_shop",
      "opening_hours": "Mo-Fr 07:00-22:00, Sa-Su 08:00-22:00",
      "website": "https://www.misfitcoffee.com/",
      "internet_access": "wlan",
      "phone": "+1-414-839-5565",
      "takeaway": "yes",
      "drive_through": "no",
      "outdoor_seating": "yes",
      "addr_state": "MN",
      "addr_city": "Minneapolis",
      "addr_postcode": "55405",
      "addr_street": "Lyndale Avenue South",
      "addr_housenumber": "2401",
      "value": 237.02618320999238
    },
    {
      "id": 57018,
      "geometry": "POINT (-93.166833 44.928965)",
      "poi_name": "Spyhouse Coffee",
      "osm_id": 5321064994,
      "amenity": "cafe",
      "cuisine": "coffee_shop",
      "addr_city": "Saint Paul",
      "addr_postcode": "55105",
      "addr_street": "Snelling Avenue South",
      "addr_housenumber": "420",
      "value": 237.02618320999238
    },
    {
      "id": 55188,
      "geometry": "POINT (-93.253559 44.78564)",
      "poi_name": "Indigo Tea Company",
      "osm_id": 10176611305,
      "amenity": "cafe",
      "cuisine": "coffee_shop",
      "wheelchair": "yes",
      "opening_hours": "Mo-Su 09:00-18:00",
      "website": "https://www.indigo-tea.com/",
      "internet_access": "wlan",
      "phone": "+19527367744",
      "outdoor_seating": "no",
      "addr_state": "MN",
      "addr_city": "Burnsville",
      "addr_postcode": "55337",
      "addr_street": "Riverwood Drive",
      "addr_housenumber": "1501",
      "value": 237.02618320999238
    },
    {
      "id": 56632,
      "geometry": "POINT (-93.288326 44.949012)",
      "poi_name": "Third Space Cafe",
      "osm_id": 10245351143,
      "amenity": "cafe",
      "opening_hours": "Tu-Su 08:00-17:00",
      "website": "https://thirdspacempls.com",
      "phone": "+1 612 353 5667",
      "value": 237.02618320999238
    },
    {
      "id": 57019,
      "geometry": "POINT (-93.26096 44.948909)",
      "poi_name": "Mapps Coffee and Tea",
      "osm_id": 5321070621,
      "amenity": "cafe",
      "cuisine": "coffee_shop",
      "addr_street": "East Lake Street",
      "value": 237.02618320999238
    },
    {
      "id": 57911,
      "geometry": "POINT (-93.270831 44.975881)",
      "poi_name": "Caribou Coffee",
      "osm_id": 5355792469,
      "amenity": "cafe",
      "cuisine": "coffee_shop",
      "takeaway": "yes",
      "value": 237.02618320999238
    },
    {
      "id": 57496,
      "geometry": "POINT (-93.300133 44.948843)",
      "poi_name": "Caribou Coffee",
      "osm_id": 5338309423,
      "amenity": "cafe",
      "cuisine": "coffee_shop",
      "opening_hours": "Mo-Su 06:00-19:00",
      "shop": "coffee",
      "takeaway": "yes",
      "addr_state": "MN",
      "addr_city": "Minneapolis",
      "addr_postcode": "55408",
      "addr_street": "West Lake Street",
      "addr_housenumber": "1450",
      "value": 237.02618320999238
    },
    {
      "id": 57355,
      "geometry": "POINT (-93.291477 44.948245)",
      "poi_name": "The Shoppe",
      "osm_id": 5334193684,
      "amenity": "cafe",
      "website": "https://www.theshoppeuptown.com",
      "addr_state": "MN",
      "addr_city": "Minneapolis",
      "addr_postcode": "55408",
      "addr_street": "West Lake Street",
      "addr_housenumber": "915",
      "value": 237.02618320999238
    },
    {
      "id": 57912,
      "geometry": "POINT (-93.271564 44.976251)",
      "poi_name": "Starbucks",
      "osm_id": 5355792484,
      "amenity": "cafe",
      "cuisine": "coffee_shop",
      "takeaway": "yes",
      "official_name": "Starbucks Coffee",
      "value": 237.02618320999238
    },
    {
      "id": 59746,
      "geometry": "POINT (-93.353004 44.864546)",
      "poi_name": "Starbucks",
      "osm_id": 5440840984,
      "amenity": "cafe",
      "cuisine": "coffee_shop",
      "takeaway": "yes",
      "official_name": "Starbucks Coffee",
      "value": 237.02618320999238
    },
    {
      "id": 58531,
      "geometry": "POINT (-93.267156 44.983804)",
      "poi_name": "Starbucks",
      "osm_id": 5380939643,
      "amenity": "cafe",
      "cuisine": "coffee_shop",
      "opening_hours": "Mo-Su 05:30-19:00",
      "takeaway": "yes",
      "official_name": "Starbucks Coffee",
      "value": 237.02618320999238
    },
    {
      "id": 58990,
      "geometry": "POINT (-93.099797 44.940065)",
      "poi_name": "Caribou Coffee",
      "osm_id": 5405662903,
      "amenity": "cafe",
      "website": "https://locations.cariboucoffee.com/ll/US/MN/St_-Paul/230-Spring-Street",
      "addr_city": "Saint Paul",
      "addr_street": "Spring Street",
      "addr_housenumber": "230",
      "value": 237.02618320999238
    },
    {
      "id": 59582,
      "geometry": "POINT (-93.236871 44.951798)",
      "poi_name": "1st Cup Cafe",
      "osm_id": 5433374422,
      "amenity": "cafe",
      "cuisine": "african;tea;coffee_shop",
      "value": 237.02618320999238
    },
    {
      "id": 60563,
      "geometry": "POINT (-93.213442 44.885646)",
      "poi_name": "Roasting Plant Coffee",
      "osm_id": 5470933860,
      "amenity": "cafe",
      "value": 237.02618320999238
    },
    {
      "id": 67102,
      "geometry": "POINT (-93.21068 44.884588)",
      "poi_name": "Caribou Coffee",
      "osm_id": 11223168100,
      "amenity": "cafe",
      "cuisine": "coffee_shop",
      "takeaway": "yes",
      "value": 237.02618320999238
    },
    {
      "id": 63530,
      "geometry": "POINT (-93.262767 44.976632)",
      "poi_name": "Starbucks",
      "osm_id": 5620131612,
      "amenity": "cafe",
      "cuisine": "coffee_shop",
      "internet_access": "yes",
      "phone": "+1-612-357-6344",
      "takeaway": "yes",
      "official_name": "Starbucks Coffee",
      "outdoor_seating": "yes",
      "addr_state": "MN",
      "addr_city": "Minneapolis",
      "addr_postcode": "55415",
      "addr_street": "South 4th Street",
      "addr_housenumber": "515",
      "value": 237.02618320999238
    },
    {
      "id": 66747,
      "geometry": "POINT (-93.258218 44.987198)",
      "poi_name": "Silver Fern cafe bakery wine",
      "osm_id": 11209194954,
      "amenity": "cafe",
      "value": 237.02618320999238
    },
    {
      "id": 67605,
      "geometry": "POINT (-93.170656 44.835316)",
      "poi_name": "Starbucks",
      "osm_id": 11242363612,
      "amenity": "cafe",
      "cuisine": "coffee_shop",
      "takeaway": "yes",
      "official_name": "Starbucks Coffee",
      "value": 237.02618320999238
    },
    {
      "id": 67309,
      "geometry": "POINT (-93.258374 44.986145)",
      "poi_name": "FRGMNT",
      "osm_id": 11232656337,
      "amenity": "cafe",
      "cuisine": "coffee_shop",
      "opening_hours": "Mo-Fr 06:30-18:00; Sa-Su 07:00-18:00",
      "website": "https://frgmntcoffee.com/",
      "internet_access": "wlan",
      "addr_postcode": "55414",
      "addr_street": "Southeast Main Street",
      "addr_housenumber": "43",
      "value": 237.02618320999238
    },
    {
      "id": 69689,
      "geometry": "POINT (-93.271001 44.985778)",
      "poi_name": "Fairgrounds Craft Coffe and Tea",
      "osm_id": 11328332531,
      "amenity": "cafe",
      "cuisine": "coffee_shop",
      "website": "https://www.fairgrounds.cafe/cafe-minneapolis-north-loop/",
      "phone": "+1 612 333 9165",
      "addr_city": "Minneapolis",
      "addr_postcode": "55401",
      "addr_street": "3rd Avenue North",
      "addr_housenumber": "116",
      "value": 237.02618320999238
    },
    {
      "id": 68074,
      "geometry": "POINT (-93.214807 44.916849)",
      "poi_name": "Falls Coffee",
      "osm_id": 11259019054,
      "amenity": "cafe",
      "cuisine": "coffee_shop",
      "addr_state": "MN",
      "addr_city": "Minneapolis",
      "addr_postcode": "55406",
      "addr_street": "Hiawatha Avenue",
      "addr_housenumber": "4757",
      "value": 237.02618320999238
    },
    {
      "id": 73154,
      "geometry": "POINT (-93.347951 44.963031)",
      "poi_name": "Caribou Coffee",
      "osm_id": 9610330951,
      "amenity": "cafe",
      "cuisine": "coffee_shop",
      "website": "https://locations.cariboucoffee.com/us/mn/st-louis-park/5330-cedar-lake-road",
      "phone": "+19525456281",
      "takeaway": "yes",
      "addr_state": "MN",
      "addr_city": "Saint Louis Park",
      "addr_postcode": "55416",
      "addr_street": "Cedar Lake Road",
      "addr_housenumber": "5330",
      "value": 237.02618320999238
    },
    {
      "id": 71412,
      "geometry": "POINT (-93.418963 44.479777)",
      "poi_name": "The Coffee Fool of Lonsdale",
      "osm_id": 11388861486,
      "amenity": "cafe",
      "cuisine": "coffee_shop",
      "value": 237.02618320999238
    },
    {
      "id": 71563,
      "geometry": "POINT (-93.283275 44.692496)",
      "poi_name": "Starbucks",
      "osm_id": 11394051901,
      "amenity": "cafe",
      "cuisine": "coffee_shop",
      "takeaway": "yes",
      "official_name": "Starbucks Coffee",
      "value": 237.02618320999238
    },
    {
      "id": 77703,
      "geometry": "POINT (-93.349957 44.948298)",
      "poi_name": "Caribou Coffee",
      "osm_id": 708094605,
      "amenity": "cafe",
      "cuisine": "coffee_shop",
      "website": "https://locations.cariboucoffee.com/us/mn/st-louis-park/5551-west-lake-street",
      "phone": "+19529299536",
      "takeaway": "yes",
      "addr_state": "MN",
      "addr_city": "Saint Louis Park",
      "addr_postcode": "55416",
      "addr_street": "Lake Street West",
      "addr_housenumber": "5551",
      "value": 237.02618320999238
    },
    {
      "id": 73405,
      "geometry": "POINT (-93.384973 44.8085)",
      "poi_name": "West Side Perk",
      "osm_id": 9631387757,
      "amenity": "cafe",
      "cuisine": "coffee_shop",
      "website": "https://www.westsideperk.com",
      "outdoor_seating": "yes",
      "addr_state": "MN",
      "addr_city": "Bloomington",
      "addr_postcode": "55438",
      "addr_street": "West Old Shakopee Road",
      "addr_housenumber": "7700",
      "value": 237.02618320999238
    },
    {
      "id": 75166,
      "geometry": "POINT (-93.221444 44.930379)",
      "poi_name": "The Dripping Root",
      "osm_id": 9716870969,
      "amenity": "cafe",
      "cuisine": "juice",
      "opening_hours": "Th-Su 09:00-13:00",
      "website": "https://www.thedrippingroot.com/",
      "addr_state": "MN",
      "addr_city": "Minneapolis",
      "addr_postcode": "55406",
      "addr_street": "Minnehaha Avenue",
      "addr_housenumber": "4002",
      "value": 237.02618320999238
    },
    {
      "id": 77932,
      "geometry": "POINT (-93.18756 44.918284)",
      "poi_name": "Quixotic Coffee",
      "osm_id": 728154093,
      "amenity": "cafe",
      "cuisine": "coffee_shop",
      "opening_hours": "Mo-Sa 06:30-21:00; Su 07:00-19:00",
      "value": 237.02618320999238
    },
    {
      "id": 77862,
      "geometry": "POINT (-93.294544 44.958934)",
      "poi_name": "Spyhouse Coffee Shop",
      "osm_id": 721642520,
      "amenity": "cafe",
      "cuisine": "coffee_shop",
      "wheelchair": "yes",
      "opening_hours": "PH off; Mo-Fr 06:00-20:00; Sa,Su 07:00-20:00",
      "website": "https://spyhousecoffee.com/",
      "internet_access": "yes",
      "phone": "+1 612 377 2278",
      "addr_city": "Minneapolis",
      "addr_postcode": "55405",
      "addr_street": "Hennepin Avenue South",
      "addr_housenumber": "2404",
      "value": 237.02618320999238
    },
    {
      "id": 77863,
      "geometry": "POINT (-93.297676 44.952095)",
      "poi_name": "Corner Coffee - Uptown",
      "osm_id": 721643865,
      "amenity": "cafe",
      "opening_hours": "Mo-Fr 07:00-17:00; Sa 08:00-17:00",
      "website": "https://www.corner.coffee/",
      "internet_access": "wlan",
      "phone": "6123674743",
      "addr_postcode": "55408",
      "addr_street": "West 28th Street",
      "addr_housenumber": "1414",
      "value": 237.02618320999238
    },
    {
      "id": 77867,
      "geometry": "POINT (-93.287837 44.953838)",
      "poi_name": "Bob's Java Hut",
      "osm_id": 721661488,
      "amenity": "cafe",
      "cuisine": "coffee",
      "description": "Coffee shop serving espresso drinks & light bites in a colorful retro-diner-meets-biker-bar space.",
      "opening_hours": "Mo-Fr 07:00-18:00; Sa-Su 08:00-18:00",
      "website": "https://www.bobsjavahut.com/",
      "phone": "+1 612-871-4485",
      "addr_state": "MN",
      "addr_city": "Minneapolis",
      "addr_postcode": "55405",
      "addr_street": "Lyndale Avenue South",
      "addr_housenumber": "2651",
      "value": 237.02618320999238
    },
    {
      "id": 77937,
      "geometry": "POINT (-93.176866 44.927319)",
      "poi_name": "Caribou Coffee",
      "osm_id": 729418074,
      "amenity": "cafe",
      "cuisine": "coffee_shop",
      "opening_hours": "Mo,We-Fr 05:30-20:00; Tu,Su 06:00-19:00; Sa 06:00-20:00",
      "takeaway": "yes",
      "value": 237.02618320999238
    },
    {
      "id": 78418,
      "geometry": "POINT (-93.120495 44.884476)",
      "poi_name": "Caribou Coffee",
      "osm_id": 741857421,
      "amenity": "cafe",
      "cuisine": "coffee_shop",
      "takeaway": "yes",
      "value": 237.02618320999238
    },
    {
      "id": 78879,
      "geometry": "POINT (-93.544737 44.86364)",
      "poi_name": "Caribou Coffee",
      "osm_id": 765261093,
      "amenity": "cafe",
      "cuisine": "coffee_shop",
      "takeaway": "yes",
      "addr_state": "MN",
      "addr_city": "Chanhassen",
      "addr_postcode": "55317",
      "addr_street": "West 78th Street",
      "addr_housenumber": "920",
      "value": 237.02618320999238
    },
    {
      "id": 78542,
      "geometry": "POINT (-93.239704 44.962627)",
      "poi_name": "Precision Grind Coffee",
      "osm_id": 751463324,
      "amenity": "cafe",
      "value": 237.02618320999238
    },
    {
      "id": 78543,
      "geometry": "POINT (-93.233452 44.962917)",
      "poi_name": "Code Blu Coffee",
      "osm_id": 751546687,
      "amenity": "cafe",
      "cuisine": "coffee",
      "website": "https://www.facebook.com/codeblucoffee/",
      "outdoor_seating": "yes",
      "addr_state": "MN",
      "addr_city": "Minneapolis",
      "addr_postcode": "55406",
      "addr_street": "East Franklin Avenue",
      "addr_housenumber": "2620",
      "value": 237.02618320999238
    },
    {
      "id": 78545,
      "geometry": "POINT (-93.278061 44.962411)",
      "poi_name": "Starbucks",
      "osm_id": 751570603,
      "amenity": "cafe",
      "cuisine": "coffee_shop",
      "wheelchair": "yes",
      "takeaway": "yes",
      "official_name": "Starbucks Coffee",
      "value": 237.02618320999238
    },
    {
      "id": 78547,
      "geometry": "POINT (-93.277659 44.957446)",
      "poi_name": "Spyhouse Coffee",
      "osm_id": 751590997,
      "amenity": "cafe",
      "cuisine": "coffee_shop",
      "description": "Bustling coffee shop serves up house-roasted espresso drinks & baked goods in a sleek, modern venue.",
      "wheelchair": "limited",
      "opening_hours": "07:00-19:00",
      "website": "https://spyhousecoffee.com/",
      "internet_access": "yes",
      "phone": "+1-612-871-3177",
      "takeaway": "yes",
      "addr_state": "MN",
      "addr_city": "Minneapolis",
      "addr_postcode": "55404",
      "addr_street": "Nicollet Avenue South",
      "addr_housenumber": "2451",
      "value": 237.02618320999238
    },
    {
      "id": 78411,
      "geometry": "POINT (-93.087967 44.931499)",
      "poi_name": "Jerabek's",
      "osm_id": 741125183,
      "amenity": "cafe",
      "value": 237.02618320999238
    },
    {
      "id": 78412,
      "geometry": "POINT (-93.424182 44.714739)",
      "poi_name": "Edelweiss Bakery",
      "osm_id": 741128392,
      "amenity": "cafe",
      "website": "https://edelweissbakerypl.square.site/",
      "internet_access": "wlan",
      "phone": "+19524402773",
      "outdoor_seating": "yes",
      "addr_state": "MN",
      "addr_city": "Prior Lake",
      "addr_postcode": "55372",
      "addr_street": "Main Ave SE",
      "addr_housenumber": "16186",
      "value": 237.02618320999238
    },
    {
      "id": 78936,
      "geometry": "POINT (-93.465794 44.862367)",
      "poi_name": "Berry Coffee Company",
      "osm_id": 766180251,
      "amenity": "cafe",
      "addr_housenumber": "14825",
      "value": 237.02618320999238
    },
    {
      "id": 78882,
      "geometry": "POINT (-93.785949 44.849046)",
      "poi_name": "Mocha Monkey",
      "osm_id": 765264781,
      "amenity": "cafe",
      "value": 237.02618320999238
    },
    {
      "id": 79063,
      "geometry": "POINT (-93.298722 44.952155)",
      "poi_name": "Isles Bun & Coffee",
      "osm_id": 771625073,
      "amenity": "cafe",
      "cuisine": "coffee_shop",
      "opening_hours": "Mo-Sa 06:30-18:00; Su 07:00-18:00; PH closed",
      "website": "http://www.islesbun.com",
      "internet_access": "yes",
      "phone": "+1 612 870 4466",
      "addr_state": "MN",
      "addr_city": "Minneapolis",
      "addr_postcode": "55408",
      "addr_street": "West 28th Street",
      "addr_housenumber": "1424",
      "value": 237.02618320999238
    },
    {
      "id": 79087,
      "geometry": "POINT (-93.171758 44.901487)",
      "poi_name": "Starbucks",
      "osm_id": 773366969,
      "amenity": "cafe",
      "cuisine": "coffee_shop",
      "takeaway": "yes",
      "drive_through": "yes",
      "official_name": "Starbucks Coffee",
      "addr_state": "MN",
      "addr_city": "Saint Paul",
      "addr_postcode": "55116",
      "addr_street": "7th Street West",
      "addr_housenumber": "2525",
      "value": 237.02618320999238
    },
    {
      "id": 78883,
      "geometry": "POINT (-93.788524 44.85056)",
      "poi_name": "Frost and Steam",
      "osm_id": 765264801,
      "amenity": "cafe",
      "value": 237.02618320999238
    },
    {
      "id": 79799,
      "geometry": "POINT (-93.331125 44.911809)",
      "poi_name": "Caribou Coffee",
      "osm_id": 829657628,
      "amenity": "cafe",
      "cuisine": "coffee_shop",
      "takeaway": "yes",
      "value": 237.02618320999238
    },
    {
      "id": 79548,
      "geometry": "POINT (-93.262897 44.916239)",
      "poi_name": "Turtle Bread",
      "osm_id": 811424989,
      "amenity": "cafe",
      "cuisine": "sandwich;bakery;coffee_shop",
      "opening_hours": "06:00-21:00",
      "website": "http://turtlebread.com",
      "internet_access": "yes",
      "phone": "+1-612-823-7333",
      "outdoor_seating": "yes",
      "addr_state": "MN",
      "addr_city": "Minneapolis",
      "addr_postcode": "55417",
      "addr_street": "Chicago Avenue South",
      "addr_housenumber": "4762",
      "value": 237.02618320999238
    },
    {
      "id": 79209,
      "geometry": "POINT (-93.116313 44.946456)",
      "poi_name": "Nina's Coffee Cafe",
      "osm_id": 784647433,
      "amenity": "cafe",
      "addr_street": "Western Avenue North",
      "addr_housenumber": "165",
      "value": 237.02618320999238
    },
    {
      "id": 79507,
      "geometry": "POINT (-93.262335 44.941073)",
      "poi_name": "South City Cafe",
      "osm_id": 809362184,
      "amenity": "cafe",
      "value": 237.02618320999238
    },
    {
      "id": 79800,
      "geometry": "POINT (-93.328875 44.913378)",
      "poi_name": "Caribou Coffee",
      "osm_id": 829659559,
      "amenity": "cafe",
      "cuisine": "coffee_shop",
      "takeaway": "yes",
      "addr_street": "France Avenue South",
      "addr_housenumber": "4999",
      "value": 237.02618320999238
    },
    {
      "id": 80879,
      "geometry": "POINT (-93.289346 44.827123)",
      "poi_name": "Starbucks",
      "osm_id": 1584945878,
      "amenity": "cafe",
      "cuisine": "coffee_shop",
      "takeaway": "yes",
      "official_name": "Starbucks Coffee",
      "value": 237.02618320999238
    },
    {
      "id": 82982,
      "geometry": "POINT (-93.131662 44.906124)",
      "poi_name": "TK's",
      "osm_id": 1724189691,
      "amenity": "cafe",
      "value": 237.02618320999238
    },
    {
      "id": 80914,
      "geometry": "POINT (-93.354398 44.863304)",
      "poi_name": "Caribou Coffee",
      "osm_id": 1587196024,
      "amenity": "cafe",
      "cuisine": "coffee_shop",
      "takeaway": "yes",
      "value": 237.02618320999238
    },
    {
      "id": 82329,
      "geometry": "POINT (-93.308311 44.882378)",
      "poi_name": "Cone Brothers",
      "osm_id": 1694132143,
      "amenity": "cafe",
      "cuisine": "ice_cream",
      "website": "http://conebrothers.com",
      "phone": "+1 612 455 0452",
      "addr_state": "MN",
      "addr_city": "Richfield",
      "addr_postcode": "55423",
      "addr_street": "Penn Avenue South",
      "addr_housenumber": "6633",
      "value": 237.02618320999238
    },
    {
      "id": 82906,
      "geometry": "POINT (-93.165689 44.826924)",
      "poi_name": "Caribou Coffee",
      "osm_id": 1719957647,
      "amenity": "cafe",
      "cuisine": "coffee_shop",
      "takeaway": "yes",
      "value": 237.02618320999238
    },
    {
      "id": 82608,
      "geometry": "POINT (-93.272926 44.964446)",
      "poi_name": "Boiler Room",
      "osm_id": 1705783945,
      "amenity": "cafe",
      "cuisine": "coffee_shop",
      "website": "http://boilerroommpls.com/",
      "addr_city": "Minneapolis",
      "addr_postcode": "55404",
      "addr_street": "3rd Avenue South",
      "addr_housenumber": "1830",
      "value": 237.02618320999238
    },
    {
      "id": 86061,
      "geometry": "POINT (-93.147634 44.9926)",
      "poi_name": "Caribou Coffee",
      "osm_id": 1914627255,
      "amenity": "cafe",
      "cuisine": "coffee_shop",
      "wheelchair": "limited",
      "opening_hours": "Mo-Th 05:30-20:30; Fr 05:30-21:00; Sa 06:00-20:00; Su 06:00-20:30",
      "website": "https://locations.cariboucoffee.com/us/mn/roseville/1127-larpenteur-avenue-w",
      "phone": "+1-651-487-5502",
      "takeaway": "yes",
      "outdoor_seating": "no",
      "addr_state": "MN",
      "addr_city": "Roseville",
      "addr_postcode": "55113",
      "addr_street": "Larpenteur Avenue West",
      "addr_housenumber": "1127",
      "value": 237.02618320999238
    },
    {
      "id": 85889,
      "geometry": "POINT (-93.329261 44.922091)",
      "poi_name": "Caribou Coffee",
      "osm_id": 1907434743,
      "amenity": "cafe",
      "cuisine": "coffee_shop",
      "takeaway": "yes",
      "value": 237.02618320999238
    },
    {
      "id": 85794,
      "geometry": "POINT (-93.155757 45.007259)",
      "poi_name": "Dunn Brothers",
      "osm_id": 1896780158,
      "amenity": "cafe",
      "wheelchair": "limited",
      "value": 237.02618320999238
    },
    {
      "id": 88378,
      "geometry": "POINT (-93.153549 44.940366)",
      "poi_name": "Starbucks",
      "osm_id": 8781232567,
      "amenity": "cafe",
      "cuisine": "coffee_shop",
      "takeaway": "yes",
      "official_name": "Starbucks Coffee",
      "value": 237.02618320999238
    },
    {
      "id": 87101,
      "geometry": "POINT (-93.236245 44.975112)",
      "poi_name": "Wise Owl Cafe",
      "osm_id": 1972365782,
      "amenity": "cafe",
      "cuisine": "coffee_shop",
      "wheelchair": "yes",
      "opening_hours": "Mo-Th 07:00-20:00; Fr 07:00-16:15",
      "operator": "University Dining Services",
      "website": "https://www.dining.umn.edu/CampusRestaurants/CoffeeCafes.aspx",
      "internet_access": "wlan",
      "drive_through": "no",
      "value": 237.02618320999238
    },
    {
      "id": 91526,
      "geometry": "POINT (-93.287988 44.905213)",
      "poi_name": "Starbucks",
      "osm_id": 2071744385,
      "amenity": "cafe",
      "cuisine": "coffee_shop",
      "takeaway": "yes",
      "official_name": "Starbucks Coffee",
      "addr_street": "Lyndale Avenue South",
      "addr_housenumber": "5351",
      "value": 237.02618320999238
    },
    {
      "id": 90246,
      "geometry": "POINT (-93.127883 44.732629)",
      "poi_name": "Starbucks",
      "osm_id": 1987263626,
      "amenity": "cafe",
      "cuisine": "coffee_shop",
      "wheelchair": "yes",
      "internet_access": "wlan",
      "takeaway": "yes",
      "official_name": "Starbucks Coffee",
      "outdoor_seating": "yes",
      "addr_state": "MN",
      "addr_city": "Rosemount",
      "value": 237.02618320999238
    },
    {
      "id": 90884,
      "geometry": "POINT (-93.353387 44.911505)",
      "poi_name": "Starbucks",
      "osm_id": 2024998431,
      "amenity": "cafe",
      "cuisine": "coffee_shop",
      "takeaway": "yes",
      "official_name": "Starbucks Coffee",
      "value": 237.02618320999238
    },
    {
      "id": 89464,
      "geometry": "POINT (-93.154918 44.953364)",
      "poi_name": "Starbucks",
      "osm_id": 8847014125,
      "amenity": "cafe",
      "cuisine": "coffee_shop",
      "takeaway": "yes",
      "official_name": "Starbucks Coffee",
      "value": 237.02618320999238
    },
    {
      "id": 90061,
      "geometry": "POINT (-93.224325 44.935072)",
      "poi_name": "The Fix Cafe",
      "osm_id": 8881094342,
      "amenity": "cafe",
      "cuisine": "coffee_shop",
      "website": "https://www.thefixstudio.com/cafe/",
      "phone": "+1-612-220-0215",
      "outdoor_seating": "seasonal",
      "addr_state": "MN",
      "addr_city": "Minneapolis",
      "addr_postcode": "55406",
      "addr_street": "Minnehaha Avenue",
      "addr_housenumber": "3725",
      "value": 237.02618320999238
    },
    {
      "id": 91791,
      "geometry": "POINT (-93.14356 44.731222)",
      "poi_name": "Caribou Coffee",
      "osm_id": 2089326482,
      "amenity": "cafe",
      "cuisine": "coffee_shop",
      "wheelchair": "yes",
      "internet_access": "wlan",
      "takeaway": "yes",
      "outdoor_seating": "yes",
      "value": 237.02618320999238
    },
    {
      "id": 91905,
      "geometry": "POINT (-93.088747 44.94756)",
      "poi_name": "p\u00e9r-ke-l\u0101t",
      "osm_id": 2094277661,
      "amenity": "cafe",
      "cuisine": "coffee_shop",
      "value": 237.02618320999238
    },
    {
      "id": 91880,
      "geometry": "POINT (-93.086582 44.947657)",
      "poi_name": "The Java Express",
      "osm_id": 2092940284,
      "amenity": "cafe",
      "cuisine": "coffee_shop",
      "phone": "+1-+1-651-300-9503",
      "addr_state": "MN",
      "addr_city": "Saint Paul",
      "addr_postcode": "55101",
      "addr_street": "4th Street East, #120",
      "addr_housenumber": "214",
      "value": 237.02618320999238
    },
    {
      "id": 91882,
      "geometry": "POINT (-93.09282 44.947056)",
      "poi_name": "Caribou Coffee",
      "osm_id": 2092944837,
      "amenity": "cafe",
      "cuisine": "coffee_shop",
      "takeaway": "yes",
      "addr_city": "Saint Paul",
      "addr_postcode": "55101",
      "addr_street": "East 6th Street",
      "addr_housenumber": "56",
      "value": 237.02618320999238
    },
    {
      "id": 93871,
      "geometry": "POINT (-93.222641 44.716959)",
      "poi_name": "Joy's Thai Cuisine",
      "osm_id": 2190327044,
      "amenity": "cafe",
      "cuisine": "thai",
      "opening_hours": "Su-Th 10:30-21:00; Fr-Sa 10:30-22:00",
      "website": "https://www.joysthaicuisine.com",
      "phone": "+1-952-997-7423",
      "addr_state": "MN",
      "addr_city": "Lakeville",
      "addr_postcode": "55044",
      "addr_street": "160th Street West",
      "addr_housenumber": "7704",
      "value": 237.02618320999238
    },
    {
      "id": 92190,
      "geometry": "POINT (-93.284112 44.74235)",
      "poi_name": "Blue Ox Sandwiches",
      "osm_id": 2105117887,
      "amenity": "cafe",
      "cuisine": "sandwich",
      "value": 237.02618320999238
    },
    {
      "id": 92401,
      "geometry": "POINT (-93.28892 44.748785)",
      "poi_name": "Starbucks",
      "osm_id": 2119799428,
      "amenity": "cafe",
      "cuisine": "coffee_shop",
      "takeaway": "yes",
      "official_name": "Starbucks Coffee",
      "value": 237.02618320999238
    },
    {
      "id": 93081,
      "geometry": "POINT (-93.340321 44.933427)",
      "poi_name": "Starbucks",
      "osm_id": 2148481707,
      "amenity": "cafe",
      "cuisine": "coffee_shop",
      "opening_hours": "Mo-Fr 05:00-20:00; Sa 06:00-19:30; Su 05:30-19:00; PH closed",
      "phone": "+19529208531",
      "takeaway": "yes",
      "official_name": "Starbucks Coffee",
      "addr_state": "MN",
      "addr_city": "Saint Louis Park",
      "addr_postcode": "55416",
      "addr_street": "Grand Way",
      "addr_housenumber": "3850",
      "value": 237.02618320999238
    },
    {
      "id": 92363,
      "geometry": "POINT (-93.210314 44.789614)",
      "poi_name": "Starbucks",
      "osm_id": 2116592209,
      "amenity": "cafe",
      "cuisine": "coffee_shop",
      "takeaway": "yes",
      "official_name": "Starbucks Coffee",
      "value": 237.02618320999238
    },
    {
      "id": 95023,
      "geometry": "POINT (-93.569496 44.900669)",
      "poi_name": "Starbucks",
      "osm_id": 6384108628,
      "amenity": "cafe",
      "cuisine": "coffee_shop",
      "description": "Inside Kowalski's Market",
      "opening_hours": "Mo-Su 06:00-20:00",
      "phone": "+1-952-229-8300",
      "takeaway": "yes",
      "official_name": "Starbucks Coffee",
      "addr_state": "MN",
      "addr_city": "Excelsior",
      "addr_postcode": "55331",
      "addr_street": "Water Street",
      "addr_housenumber": "440",
      "value": 237.02618320999238
    },
    {
      "id": 94491,
      "geometry": "POINT (-93.383444 44.936839)",
      "poi_name": "Tii Cup",
      "osm_id": 2249045446,
      "amenity": "cafe",
      "cuisine": "bubble_tea",
      "website": "https://www.tiicup.com/",
      "phone": "+16124717885",
      "addr_state": "MN",
      "addr_city": "Saint Louis Park",
      "addr_postcode": "55426",
      "addr_street": "Minnesota State Highway 7",
      "addr_housenumber": "8140",
      "value": 237.02618320999238
    },
    {
      "id": 94492,
      "geometry": "POINT (-93.383667 44.936842)",
      "poi_name": "Caribou Coffee",
      "osm_id": 2249045449,
      "amenity": "cafe",
      "cuisine": "coffee_shop",
      "website": "https://locations.cariboucoffee.com/us/mn/st-louis-park/8208-highway-7",
      "phone": "+19529334592",
      "takeaway": "yes",
      "addr_state": "MN",
      "addr_city": "Saint Louis Park",
      "addr_postcode": "55426",
      "addr_street": "Minnesota State Highway 7",
      "addr_housenumber": "8208",
      "value": 237.02618320999238
    },
    {
      "id": 96006,
      "geometry": "POINT (-93.443806 44.941748)",
      "poi_name": "Peoples Organic",
      "osm_id": 6417869999,
      "amenity": "cafe",
      "cuisine": "coffee_shop",
      "value": 237.02618320999238
    },
    {
      "id": 95109,
      "geometry": "POINT (-93.198022 44.879208)",
      "poi_name": "Skol Cafe & Bar",
      "osm_id": 6387427886,
      "amenity": "cafe",
      "value": 237.02618320999238
    },
    {
      "id": 95111,
      "geometry": "POINT (-93.206623 44.879678)",
      "poi_name": "World Bean",
      "osm_id": 6387428187,
      "amenity": "cafe",
      "value": 237.02618320999238
    },
    {
      "id": 95117,
      "geometry": "POINT (-93.211854 44.883196)",
      "poi_name": "Starbucks",
      "osm_id": 6387478934,
      "amenity": "cafe",
      "cuisine": "coffee_shop",
      "takeaway": "yes",
      "official_name": "Starbucks Coffee",
      "value": 237.02618320999238
    },
    {
      "id": 95126,
      "geometry": "POINT (-93.212677 44.885018)",
      "poi_name": "Angel Food Bakery & Donut Bar",
      "osm_id": 6387495085,
      "amenity": "cafe",
      "value": 237.02618320999238
    },
    {
      "id": 95130,
      "geometry": "POINT (-93.213208 44.883254)",
      "poi_name": "Caribou Coffee",
      "osm_id": 6387502586,
      "amenity": "cafe",
      "cuisine": "coffee_shop",
      "takeaway": "yes",
      "value": 237.02618320999238
    },
    {
      "id": 95754,
      "geometry": "POINT (-93.236147 44.97336)",
      "poi_name": "Starbucks",
      "osm_id": 6410470520,
      "amenity": "cafe",
      "cuisine": "coffee_shop",
      "takeaway": "yes",
      "official_name": "Starbucks Coffee",
      "addr_state": "MN",
      "addr_city": "Minneapolis",
      "addr_postcode": "55414",
      "addr_street": "Southeast Como Avenue",
      "addr_housenumber": "218",
      "value": 237.02618320999238
    },
    {
      "id": 95835,
      "geometry": "POINT (-93.324488 44.923029)",
      "poi_name": "Caf\u00e9 Cer\u00e9s",
      "osm_id": 6412847185,
      "amenity": "cafe",
      "opening_hours": "Mo-Su 07:00-15:00",
      "website": "https://www.cafeceresmpls.com",
      "internet_access": "wlan",
      "phone": "+1 612 345 4866",
      "addr_state": "MN",
      "addr_city": "Minneapolis",
      "addr_postcode": "55410",
      "addr_street": "West 44th Street",
      "addr_housenumber": "3509",
      "value": 237.02618320999238
    },
    {
      "id": 95297,
      "geometry": "POINT (-93.542894 44.861575)",
      "poi_name": "Starbucks",
      "osm_id": 6391789750,
      "amenity": "cafe",
      "cuisine": "coffee_shop",
      "addr_state": "MN",
      "addr_city": "Chanhassen",
      "addr_postcode": "55317",
      "addr_street": "West 78th Street",
      "addr_housenumber": "851",
      "value": 237.02618320999238
    },
    {
      "id": 97503,
      "geometry": "POINT (-93.288811 44.8648)",
      "poi_name": "Starbucks",
      "osm_id": 6482287655,
      "amenity": "cafe",
      "cuisine": "coffee_shop",
      "takeaway": "yes",
      "official_name": "Starbucks Coffee",
      "value": 237.02618320999238
    },
    {
      "id": 96306,
      "geometry": "POINT (-93.236271 44.980186)",
      "poi_name": "Chatime",
      "osm_id": 6426986849,
      "amenity": "cafe",
      "cuisine": "bubble_tea",
      "opening_hours": "Mo-Fr 10:00-23:00; Sa-Su 11:00-23:00",
      "website": "https://www.chatimemn.com",
      "phone": "+1-612-354-3727",
      "takeaway": "yes",
      "addr_state": "MN",
      "addr_city": "Minneapolis",
      "addr_postcode": "55414",
      "addr_street": "Southeast 14th Avenue",
      "addr_housenumber": "321",
      "value": 237.02618320999238
    },
    {
      "id": 96432,
      "geometry": "POINT (-93.237072 44.966832)",
      "poi_name": "Bambini's Coffee",
      "osm_id": 6433194769,
      "amenity": "cafe",
      "cuisine": "coffee_shop;tea;cafe",
      "opening_hours": "Mo-Fr 06:30-19:00; Sa-Su 07:00-14:00",
      "outdoor_seating": "no",
      "addr_state": "MN",
      "addr_city": "Minneapolis",
      "addr_postcode": "55454",
      "addr_street": "Riverside Avenue",
      "addr_housenumber": "2450",
      "value": 237.02618320999238
    },
    {
      "id": 96218,
      "geometry": "POINT (-93.266079 44.981243)",
      "poi_name": "Penny's Coffee",
      "osm_id": 6423586980,
      "amenity": "cafe",
      "cuisine": "coffee;coffee_shop",
      "opening_hours": "Mo-Su 07:00-17:00",
      "operator": "Penny's Coffee",
      "outdoor_seating": "yes",
      "addr_state": "MN",
      "addr_city": "Minneapolis",
      "addr_postcode": "55401",
      "addr_street": "Washington Avenue South",
      "addr_housenumber": "100",
      "value": 237.02618320999238
    },
    {
      "id": 96347,
      "geometry": "POINT (-93.234891 44.981943)",
      "poi_name": "Kung Fu Tea",
      "osm_id": 6429470586,
      "amenity": "cafe",
      "cuisine": "bubble_tea",
      "opening_hours": "Mo-Th 11:00-22:00; Fr-Sa 11:00-23:00; Su 11:00-22:00",
      "website": "https://www.kungfutea.com/",
      "phone": "+1-612-353-5088",
      "takeaway": "yes",
      "outdoor_seating": "no",
      "addr_state": "MN",
      "addr_city": "Minneapolis",
      "addr_postcode": "55414",
      "addr_street": "Southeast 14th Avenue",
      "addr_housenumber": "507",
      "value": 237.02618320999238
    },
    {
      "id": 97763,
      "geometry": "POINT (-93.298489 44.944877)",
      "poi_name": "impulse Juice Company",
      "osm_id": 6493297496,
      "amenity": "cafe",
      "opening_hours": "Mo,We-Su 08:00-15:00; PH closed",
      "website": "https://www.impulsejuice.com/",
      "takeaway": "yes",
      "addr_state": "MN",
      "addr_city": "Minneapolis",
      "addr_street": "32nd Street West",
      "addr_housenumber": "1428",
      "value": 237.02618320999238
    },
    {
      "id": 106365,
      "geometry": "POINT (-93.216363 44.919042)",
      "poi_name": "Caribou Coffee",
      "osm_id": 8677144771,
      "amenity": "cafe",
      "takeaway": "yes",
      "outdoor_seating": "yes",
      "value": 237.02618320999238
    },
    {
      "id": 99838,
      "geometry": "POINT (-93.340787 44.933286)",
      "poi_name": "Vibe Organic Juice Bar",
      "osm_id": 6566621915,
      "amenity": "cafe",
      "opening_hours": "Mo-Fr 08:00-18:00; Sa 09:45-16:00; PH closed",
      "website": "https://www.vibeorganicjuicebar.com/",
      "phone": "+1-952-583-3159",
      "takeaway": "yes",
      "addr_state": "MN",
      "addr_city": "Saint Louis Park",
      "addr_postcode": "55416",
      "addr_street": "Excelsior Boulevard",
      "addr_housenumber": "4720",
      "value": 237.02618320999238
    },
    {
      "id": 104355,
      "geometry": "POINT (-93.442047 44.859272)",
      "poi_name": "Cafe Zupas",
      "osm_id": 8566324459,
      "amenity": "cafe",
      "cuisine": "sandwich;salad;soup",
      "value": 237.02618320999238
    },
    {
      "id": 101512,
      "geometry": "POINT (-92.945794 44.99661)",
      "poi_name": "Starbucks",
      "osm_id": 6632464851,
      "amenity": "cafe",
      "cuisine": "coffee_shop",
      "opening_hours": "Mo-Su 07:00-20:00",
      "takeaway": "yes",
      "official_name": "Starbucks Coffee",
      "addr_state": "MN",
      "addr_city": "Oakdale",
      "addr_postcode": "55128",
      "addr_street": "32nd Street N",
      "addr_housenumber": "7900",
      "value": 237.02618320999238
    },
    {
      "id": 104513,
      "geometry": "POINT (-93.420182 44.895176)",
      "poi_name": "yum! kitchen and bakery",
      "osm_id": 8572677729,
      "amenity": "cafe",
      "cuisine": "bakery;sandwich;salad;american",
      "website": "http://www.yumkitchen.com/",
      "outdoor_seating": "yes",
      "addr_state": "MN",
      "addr_city": "Minnetonka",
      "addr_postcode": "55343",
      "addr_street": "Shady Oak Road",
      "addr_housenumber": "6001",
      "value": 237.02618320999238
    },
    {
      "id": 106091,
      "geometry": "POINT (-93.166789 44.932573)",
      "poi_name": "Starbucks",
      "osm_id": 8663748456,
      "amenity": "cafe",
      "cuisine": "coffee_shop",
      "takeaway": "yes",
      "official_name": "Starbucks Coffee",
      "addr_state": "MN",
      "addr_city": "Saint Paul",
      "addr_postcode": "55105",
      "addr_street": "Snelling Avenue South",
      "addr_housenumber": "300",
      "value": 237.02618320999238
    },
    {
      "id": 110000,
      "geometry": "POINT (-93.196709 44.963346)",
      "poi_name": "Caffe Biaggio",
      "osm_id": 3682587069,
      "amenity": "cafe",
      "cuisine": "italian",
      "opening_hours": "Mo-Th 11:00-21:00; Fr 11:00-22:00; Sa 16:30-22:00; Su closed",
      "website": "https://www.caffebiaggio.com/",
      "phone": "+1-651-917-7997",
      "addr_state": "MN",
      "addr_city": "Saint Paul",
      "addr_postcode": "55114",
      "addr_street": "University Avenue West",
      "addr_housenumber": "2356",
      "value": 237.02618320999238
    },
    {
      "id": 109095,
      "geometry": "POINT (-93.08701 44.948296)",
      "poi_name": "Lost Fox",
      "osm_id": 3649475707,
      "amenity": "cafe",
      "cuisine": "coffee",
      "takeaway": "yes",
      "outdoor_seating": "yes",
      "value": 237.02618320999238
    },
    {
      "id": 107042,
      "geometry": "POINT (-93.294148 44.959833)",
      "poi_name": "Caribou Coffee",
      "osm_id": 3531566625,
      "amenity": "cafe",
      "cuisine": "coffee_shop",
      "opening_hours": "Mo-Fr 05:30-20:00; Sa-Su 06:00-20:00; PH closed",
      "takeaway": "yes",
      "value": 237.02618320999238
    },
    {
      "id": 107190,
      "geometry": "POINT (-93.198023 44.964336)",
      "poi_name": "Workhorse Coffee Bar",
      "osm_id": 3540630212,
      "amenity": "cafe",
      "cuisine": "coffee_shop",
      "opening_hours": "Mo-Fr 06:00-18:00; Sa 07:00-17:00; Su 08:00-16:00",
      "website": "https://www.workhorsecoffee.com/",
      "phone": "+1-651-348-7561",
      "addr_state": "MN",
      "addr_city": "Saint Paul",
      "addr_postcode": "55114",
      "addr_street": "University Avenue",
      "addr_housenumber": "2399",
      "value": 237.02618320999238
    },
    {
      "id": 107578,
      "geometry": "POINT (-93.440275 44.96464)",
      "poi_name": "Dunn Bros Coffee",
      "osm_id": 3567737168,
      "amenity": "cafe",
      "cuisine": "coffee_shop",
      "website": "http://dunnbrothers-ridgedalelibrary.com",
      "value": 237.02618320999238
    },
    {
      "id": 109098,
      "geometry": "POINT (-93.288555 44.961041)",
      "poi_name": "Caffetto",
      "osm_id": 3649638622,
      "amenity": "cafe",
      "cuisine": "coffee_shop",
      "description": "Chill coffee house with pinball machines and arcade games in the basement.",
      "wheelchair": "yes",
      "opening_hours": "Mo-Su 06:30-12:00",
      "internet_access": "wlan",
      "outdoor_seating": "yes",
      "delivery": "no",
      "addr_state": "MN",
      "addr_city": "Minneapolis",
      "addr_postcode": "55405",
      "addr_street": "West 22nd Street",
      "addr_housenumber": "708",
      "value": 237.02618320999238
    },
    {
      "id": 112757,
      "geometry": "POINT (-93.428798 44.706468)",
      "poi_name": "Caribou Coffee",
      "osm_id": 3803729233,
      "amenity": "cafe",
      "cuisine": "coffee_shop",
      "opening_hours": "Mo-Sa 06:30-19:00; Su 06:30-18:00",
      "takeaway": "yes",
      "addr_state": "MN",
      "addr_city": "Prior Lake",
      "addr_postcode": "55372",
      "addr_street": "Highway 13 S",
      "addr_housenumber": "16731",
      "value": 237.02618320999238
    },
    {
      "id": 110542,
      "geometry": "POINT (-93.290483 44.948512)",
      "poi_name": "Wuollet Bakery & Coffee",
      "osm_id": 3707489385,
      "amenity": "cafe",
      "cuisine": "coffee_shop",
      "opening_hours": "Mo-Fr 07:00-18:00; Sa-Su 07:00-17:00",
      "website": "https://wuollet.com",
      "internet_access": "wlan",
      "phone": "+1-612-886-1907",
      "outdoor_seating": "no",
      "addr_state": "MN",
      "addr_city": "Minneapolis",
      "addr_postcode": "55408",
      "addr_street": "West Lake Street",
      "addr_housenumber": "822",
      "value": 237.02618320999238
    },
    {
      "id": 110725,
      "geometry": "POINT (-93.321332 44.947522)",
      "poi_name": "Caribou Coffee",
      "osm_id": 3714593365,
      "amenity": "cafe",
      "cuisine": "coffee_shop",
      "website": "https://locations.cariboucoffee.com/us/mn/minneapolis/3044-excelsior-boulevard",
      "phone": "+16122859650",
      "takeaway": "yes",
      "addr_state": "MN",
      "addr_city": "Minneapolis",
      "addr_postcode": "55416",
      "addr_street": "Excelsior Boulevard",
      "addr_housenumber": "3040",
      "value": 237.02618320999238
    },
    {
      "id": 120566,
      "geometry": "POINT (-93.153551 44.832974)",
      "poi_name": "Caribou Coffee and Einstein Brother's Bagels",
      "osm_id": 6711068708,
      "amenity": "cafe",
      "value": 237.02618320999238
    },
    {
      "id": 113067,
      "geometry": "POINT (-93.330668 44.912131)",
      "poi_name": "Starbucks",
      "osm_id": 3815898018,
      "amenity": "cafe",
      "cuisine": "coffee_shop",
      "internet_access": "yes",
      "takeaway": "yes",
      "official_name": "Starbucks Coffee",
      "value": 237.02618320999238
    },
    {
      "id": 113361,
      "geometry": "POINT (-93.252621 44.955363)",
      "poi_name": "Fabulous Restaurant & Coffee",
      "osm_id": 3832777391,
      "amenity": "cafe",
      "value": 237.02618320999238
    },
    {
      "id": 113590,
      "geometry": "POINT (-93.36246 44.875348)",
      "poi_name": "Little Pete's",
      "osm_id": 3840269111,
      "amenity": "cafe",
      "shop": "bakery",
      "value": 237.02618320999238
    },
    {
      "id": 116658,
      "geometry": "POINT (-93.13973 44.946468)",
      "poi_name": "Golden Thyme Coffee & Cafe",
      "osm_id": 8952454203,
      "amenity": "cafe",
      "website": "https://www.goldenthymeonselby.com",
      "addr_state": "MN",
      "addr_city": "Saint Paul",
      "addr_postcode": "55104",
      "addr_street": "Selby Avenue",
      "addr_housenumber": "934",
      "value": 237.02618320999238
    },
    {
      "id": 121228,
      "geometry": "POINT (-93.214779 44.815425)",
      "poi_name": "Starbucks",
      "osm_id": 6747290024,
      "amenity": "cafe",
      "cuisine": "coffee_shop",
      "takeaway": "yes",
      "official_name": "Starbucks Coffee",
      "value": 237.02618320999238
    },
    {
      "id": 121234,
      "geometry": "POINT (-93.215258 44.815709)",
      "poi_name": "Tii Cup",
      "osm_id": 6747290032,
      "amenity": "cafe",
      "value": 237.02618320999238
    },
    {
      "id": 125806,
      "geometry": "POINT (-93.243736 44.991722)",
      "poi_name": "Five Watt",
      "osm_id": 6977367586,
      "amenity": "cafe",
      "cuisine": "coffee_shop",
      "website": "https://fivewattcoffee.com/e-hennepin/",
      "value": 237.02618320999238
    },
    {
      "id": 124952,
      "geometry": "POINT (-93.311337 44.859756)",
      "poi_name": "Starbucks",
      "osm_id": 6943174359,
      "amenity": "cafe",
      "cuisine": "coffee_shop",
      "takeaway": "yes",
      "official_name": "Starbucks Coffee",
      "value": 237.02618320999238
    },
    {
      "id": 122247,
      "geometry": "POINT (-93.085315 44.950196)",
      "poi_name": "True Stone Coffee Roasters",
      "osm_id": 6794023529,
      "amenity": "cafe",
      "opening_hours": "Mo-Fr 07:00-16:00; Sa-Su 08:00-16:00",
      "website": "https://truestonecoffee.com/",
      "phone": "+1 651 528 6215",
      "addr_state": "MN",
      "addr_city": "Saint Paul",
      "addr_postcode": "55101",
      "addr_street": "East 5th Street",
      "addr_housenumber": "289",
      "value": 237.02618320999238
    },
    {
      "id": 123139,
      "geometry": "POINT (-93.296029 44.958202)",
      "poi_name": "Starbucks",
      "osm_id": 6835960215,
      "amenity": "cafe",
      "cuisine": "coffee_shop",
      "opening_hours": "06:00-21:00; PH closed",
      "takeaway": "yes",
      "official_name": "Starbucks Coffee",
      "value": 237.02618320999238
    },
    {
      "id": 123143,
      "geometry": "POINT (-93.293449 44.960306)",
      "poi_name": "Starbucks",
      "osm_id": 6835960249,
      "amenity": "cafe",
      "cuisine": "coffee_shop",
      "takeaway": "yes",
      "official_name": "Starbucks Coffee",
      "addr_street": "Hennepin Avenue South",
      "addr_housenumber": "2212",
      "value": 237.02618320999238
    },
    {
      "id": 123144,
      "geometry": "POINT (-93.293577 44.959448)",
      "poi_name": "The Cafe Meow",
      "osm_id": 6835960254,
      "amenity": "cafe",
      "cuisine": "coffee_shop",
      "opening_hours": "Tu-Th 11:00-21:00; Fr-Sa 09:00-21:00; Su 10:00-16:00; PH closed",
      "addr_street": "Hennepin Avenue South",
      "addr_housenumber": "2323",
      "value": 237.02618320999238
    },
    {
      "id": 125629,
      "geometry": "POINT (-93.10192 44.919569)",
      "poi_name": "Amore Coffee",
      "osm_id": 6967635050,
      "amenity": "cafe",
      "cuisine": "coffee_shop;tea",
      "building": "commercial",
      "phone": "+1-651-330-0570",
      "addr_state": "MN",
      "addr_city": "West Saint Paul",
      "addr_postcode": "55118",
      "addr_street": "Smith Avenue South",
      "addr_housenumber": "879",
      "value": 237.02618320999238
    },
    {
      "id": 141537,
      "geometry": "POINT (-93.230085 44.973523)",
      "poi_name": "Caribou Coffee",
      "osm_id": 6289179535,
      "amenity": "cafe",
      "cuisine": "coffee_shop",
      "takeaway": "yes",
      "addr_state": "MN",
      "addr_city": "Minneapolis",
      "addr_postcode": "55414",
      "addr_street": "Southeast Washington Avenue",
      "addr_housenumber": "604",
      "value": 237.02618320999238
    },
    {
      "id": 136028,
      "geometry": "POINT (-93.177986 44.723746)",
      "poi_name": "Caribou Coffee",
      "osm_id": 11556052743,
      "amenity": "cafe",
      "cuisine": "coffee_shop",
      "internet_access": "wlan",
      "takeaway": "yes",
      "value": 237.02618320999238
    },
    {
      "id": 136032,
      "geometry": "POINT (-93.206114 44.948574)",
      "poi_name": "Loons Coffee",
      "osm_id": 11556849296,
      "amenity": "cafe",
      "cuisine": "coffee_shop",
      "website": "https://loonscoffee.com/",
      "phone": "+1-612-999-5490",
      "addr_state": "MN",
      "addr_city": "Minneapolis",
      "addr_postcode": "55406",
      "addr_street": "East Lake Street",
      "addr_housenumber": "4648",
      "value": 237.02618320999238
    },
    {
      "id": 140392,
      "geometry": "POINT (-93.233454 44.974714)",
      "poi_name": "Starbucks",
      "osm_id": 6245488272,
      "amenity": "cafe",
      "cuisine": "coffee_shop",
      "takeaway": "yes",
      "official_name": "Starbucks Coffee",
      "outdoor_seating": "no",
      "value": 237.02618320999238
    },
    {
      "id": 127629,
      "geometry": "POINT (-93.454154 44.798619)",
      "poi_name": "Caribou Coffee",
      "osm_id": 8076136531,
      "amenity": "cafe",
      "cuisine": "coffee_shop",
      "takeaway": "yes",
      "value": 237.02618320999238
    },
    {
      "id": 129584,
      "geometry": "POINT (-93.107553 44.941196)",
      "poi_name": "Cafe Astoria",
      "osm_id": 9831109617,
      "amenity": "cafe",
      "cuisine": "bagel;coffee_shop;crepe",
      "opening_hours": "Tu-Su 07:00-15:00",
      "website": "https://cafeastoria-stpaul.com/",
      "internet_access": "wlan",
      "phone": "6123409471",
      "addr_postcode": "55102",
      "addr_street": "Grand Avenue",
      "addr_housenumber": "170",
      "value": 237.02618320999238
    },
    {
      "id": 131954,
      "geometry": "POINT (-94.151568 44.770404)",
      "poi_name": "Rhema Coffee Shop",
      "osm_id": 9935984895,
      "amenity": "cafe",
      "opening_hours": "Tu-Sa 07:00-14:00",
      "internet_access": "wlan",
      "phone": "+1-320-854-0088",
      "addr_state": "MN",
      "addr_city": "Glencoe",
      "addr_postcode": "55336",
      "addr_street": "Hennepin Avenue North",
      "addr_housenumber": "1110",
      "value": 237.02618320999238
    },
    {
      "id": 133689,
      "geometry": "POINT (-93.17772 44.722776)",
      "poi_name": "Starbucks",
      "osm_id": 10004439195,
      "amenity": "cafe",
      "cuisine": "coffee_shop",
      "takeaway": "yes",
      "official_name": "Starbucks Coffee",
      "value": 237.02618320999238
    },
    {
      "id": 143223,
      "geometry": "POINT (-93.22336 44.973277)",
      "poi_name": "Mu Mu Tea",
      "osm_id": 6332252021,
      "amenity": "cafe",
      "opening_hours": "Su-Th 12:00-21:30; Fr-Sa 12:00-22:00",
      "website": "https://www.mumuteausa.com",
      "phone": "+1-612-345-5286",
      "addr_state": "MN",
      "addr_city": "Minneapolis",
      "addr_postcode": "55414",
      "addr_street": "Southeast Huron Boulevard",
      "addr_housenumber": "313",
      "value": 237.02618320999238
    },
    {
      "id": 146509,
      "geometry": "POINT (-92.841851 45.040214)",
      "poi_name": "Dunn Brothers Coffee",
      "osm_id": 7449070912,
      "amenity": "cafe",
      "cuisine": "coffee_shop",
      "value": 237.02618320999238
    },
    {
      "id": 143345,
      "geometry": "POINT (-93.224953 44.970657)",
      "poi_name": "Fulton Street Cafe",
      "osm_id": 6336944135,
      "amenity": "cafe",
      "wheelchair": "yes",
      "addr_state": "MN",
      "addr_city": "Minneapolis",
      "addr_postcode": "55455",
      "addr_street": "Southeast Fulton Street",
      "addr_housenumber": "909",
      "value": 237.02618320999238
    },
    {
      "id": 143554,
      "geometry": "POINT (-93.231166 44.970968)",
      "poi_name": "Bridges Cafe",
      "osm_id": 6344104159,
      "amenity": "cafe",
      "outdoor_seating": "no",
      "addr_state": "MN",
      "addr_city": "Minneapolis",
      "addr_postcode": "55455",
      "addr_street": "Southeast Harvard Street",
      "addr_housenumber": "500",
      "value": 237.02618320999238
    },
    {
      "id": 145864,
      "geometry": "POINT (-93.236933 44.95007)",
      "poi_name": "Starbucks",
      "osm_id": 7393244787,
      "amenity": "cafe",
      "cuisine": "coffee_shop",
      "takeaway": "yes",
      "official_name": "Starbucks Coffee",
      "addr_state": "MN",
      "addr_city": "Minneapolis",
      "addr_postcode": "55406",
      "addr_street": "East Lake Street",
      "addr_housenumber": "2500",
      "value": 237.02618320999238
    },
    {
      "id": 144670,
      "geometry": "POINT (-93.209849 44.884662)",
      "poi_name": "Joe & The Juice",
      "osm_id": 7280120024,
      "amenity": "cafe",
      "cuisine": "coffee_shop",
      "takeaway": "yes",
      "value": 237.02618320999238
    },
    {
      "id": 145803,
      "geometry": "POINT (-93.024647 45.006151)",
      "poi_name": "Starbucks",
      "osm_id": 7390029324,
      "amenity": "cafe",
      "cuisine": "coffee_shop",
      "takeaway": "yes",
      "official_name": "Starbucks Coffee",
      "value": 237.02618320999238
    },
    {
      "id": 148991,
      "geometry": "POINT (-93.416416 44.953514)",
      "poi_name": "Lodestone Coffee and Games",
      "osm_id": 3992911691,
      "amenity": "cafe",
      "opening_hours": "Mo-Fr 07:00-22:00; Sa-Su 08:00-22:00",
      "website": "http://www.lodestonecoffeeandgames.com/",
      "shop": "games",
      "phone": "+1 952 657 5226",
      "addr_street": "Cedar Lake Road",
      "addr_housenumber": "10982",
      "value": 237.02618320999238
    },
    {
      "id": 156266,
      "geometry": "POINT (-93.506799 44.782507)",
      "poi_name": "Caribou Coffee",
      "osm_id": 4645441916,
      "amenity": "cafe",
      "value": 237.02618320999238
    },
    {
      "id": 150454,
      "geometry": "POINT (-93.195335 44.964802)",
      "poi_name": "Dogwood Coffee",
      "osm_id": 4054971392,
      "amenity": "cafe",
      "cuisine": "coffee_shop",
      "opening_hours": "Mo-Fr 07:00-18:00; Sa 08:00-18:00; Su 08:00-17:00",
      "website": "https://dogwoodcoffee.com/",
      "internet_access": "yes",
      "phone": "+1-651-340-9248",
      "outdoor_seating": "no",
      "addr_state": "MN",
      "addr_city": "Saint Paul",
      "addr_postcode": "55114",
      "addr_street": "Carleton Street",
      "addr_housenumber": "825",
      "value": 237.02618320999238
    },
    {
      "id": 151345,
      "geometry": "POINT (-93.378996 44.75061)",
      "poi_name": "Starbucks",
      "osm_id": 4094847584,
      "amenity": "cafe",
      "cuisine": "coffee_shop",
      "opening_hours": "05:30-21:00",
      "takeaway": "yes",
      "official_name": "Starbucks Coffee",
      "addr_state": "MN",
      "addr_city": "Savage",
      "addr_postcode": "55378",
      "addr_street": "Highway 13 S",
      "addr_housenumber": "13945",
      "value": 237.02618320999238
    },
    {
      "id": 151346,
      "geometry": "POINT (-93.378893 44.745182)",
      "poi_name": "Caribou Coffee",
      "osm_id": 4094847585,
      "amenity": "cafe",
      "cuisine": "coffee_shop",
      "internet_access": "wlan",
      "takeaway": "yes",
      "value": 237.02618320999238
    },
    {
      "id": 151353,
      "geometry": "POINT (-93.353478 44.746211)",
      "poi_name": "Dunn Brothers",
      "osm_id": 4094957132,
      "amenity": "cafe",
      "value": 237.02618320999238
    },
    {
      "id": 156175,
      "geometry": "POINT (-93.277174 44.773409)",
      "poi_name": "Caribou Coffee",
      "osm_id": 4642330728,
      "amenity": "cafe",
      "value": 237.02618320999238
    },
    {
      "id": 149311,
      "geometry": "POINT (-92.96281 44.963646)",
      "poi_name": "Starbucks",
      "osm_id": 4003060487,
      "amenity": "cafe",
      "cuisine": "coffee_shop",
      "internet_access": "wlan",
      "takeaway": "yes",
      "official_name": "Starbucks Coffee",
      "value": 237.02618320999238
    },
    {
      "id": 157375,
      "geometry": "POINT (-93.104538 44.942832)",
      "poi_name": "Dunn Bros",
      "osm_id": 4705301436,
      "amenity": "cafe",
      "cuisine": "coffee_shop",
      "internet_access": "wlan",
      "outdoor_seating": "no",
      "addr_state": "MN",
      "addr_city": "Saint Paul",
      "addr_street": "7th Street West",
      "value": 237.02618320999238
    },
    {
      "id": 156322,
      "geometry": "POINT (-93.478514 44.835206)",
      "poi_name": "Grace Cafe",
      "osm_id": 4649032461,
      "amenity": "cafe",
      "cuisine": "breakfast",
      "internet_access": "yes",
      "value": 237.02618320999238
    },
    {
      "id": 156885,
      "geometry": "POINT (-93.240677 44.854617)",
      "poi_name": "Starbucks",
      "osm_id": 4676130605,
      "amenity": "cafe",
      "cuisine": "coffee_shop",
      "opening_hours": "Mo-Th 06:00-21:30; Fr-Sa 06:00-22:00; Su 11:00-19:00",
      "phone": "+1-952-854-1922",
      "takeaway": "yes",
      "official_name": "Starbucks Coffee",
      "addr_street": "East Broadway",
      "addr_housenumber": "164",
      "value": 237.02618320999238
    },
    {
      "id": 156886,
      "geometry": "POINT (-93.241539 44.85661)",
      "poi_name": "Starbucks",
      "osm_id": 4676130607,
      "amenity": "cafe",
      "cuisine": "coffee_shop",
      "takeaway": "yes",
      "official_name": "Starbucks Coffee",
      "value": 237.02618320999238
    },
    {
      "id": 158523,
      "geometry": "POINT (-93.212394 44.882184)",
      "poi_name": "Caribou Coffee",
      "osm_id": 4751795928,
      "amenity": "cafe",
      "cuisine": "coffee_shop",
      "takeaway": "yes",
      "value": 237.02618320999238
    },
    {
      "id": 158757,
      "geometry": "POINT (-93.125897 44.946476)",
      "poi_name": "Claddagh Coffee",
      "osm_id": 4762064642,
      "amenity": "cafe",
      "website": "http://www.claddaghcoffeecafe.com/wee-shop-on-selby.html",
      "phone": "+1-651-493-7455",
      "addr_city": "Saint Paul",
      "addr_postcode": "55102",
      "addr_street": "Selby Avenue",
      "addr_housenumber": "612",
      "value": 237.02618320999238
    },
    {
      "id": 158504,
      "geometry": "POINT (-93.429241 44.853256)",
      "poi_name": "Starbucks",
      "osm_id": 4751256646,
      "amenity": "cafe",
      "cuisine": "coffee_shop",
      "takeaway": "yes",
      "official_name": "Starbucks Coffee",
      "value": 237.02618320999238
    },
    {
      "id": 159152,
      "geometry": "POINT (-93.204933 44.882575)",
      "poi_name": "Starbucks",
      "osm_id": 4780171531,
      "amenity": "cafe",
      "cuisine": "coffee_shop",
      "takeaway": "yes",
      "official_name": "Starbucks Coffee",
      "value": 237.02618320999238
    },
    {
      "id": 159503,
      "geometry": "POINT (-93.278405 44.919499)",
      "poi_name": "Caribou Coffee",
      "osm_id": 4795800509,
      "amenity": "cafe",
      "cuisine": "coffee_shop",
      "website": "https://www.cariboucoffee.com/",
      "internet_access": "wlan",
      "phone": "+1-612-825-6361",
      "takeaway": "yes",
      "addr_state": "MN",
      "addr_city": "Minneapolis",
      "addr_postcode": "55409",
      "addr_street": "Nicollet Avenue South",
      "addr_housenumber": "4606",
      "value": 237.02618320999238
    },
    {
      "id": 159965,
      "geometry": "POINT (-93.527576 44.798258)",
      "poi_name": "Wampach's Restaurant",
      "osm_id": 4812499873,
      "amenity": "cafe",
      "cuisine": "american",
      "website": "http://wampachs.com/",
      "phone": "+1 952 4452721",
      "addr_state": "MN",
      "addr_city": "Shakopee",
      "addr_street": "1st Avenue East",
      "addr_housenumber": "126",
      "value": 237.02618320999238
    },
    {
      "id": 159774,
      "geometry": "POINT (-93.290508 44.943042)",
      "poi_name": "Canteen",
      "osm_id": 4806273392,
      "amenity": "cafe",
      "cuisine": "coffee_shop",
      "internet_access": "yes",
      "outdoor_seating": "yes",
      "addr_state": "MN",
      "addr_city": "Minneapolis",
      "addr_postcode": "55408",
      "addr_street": "Bryant Avenue South",
      "addr_housenumber": "3255",
      "value": 237.02618320999238
    },
    {
      "id": 166915,
      "geometry": "POINT (-93.276264 44.985758)",
      "poi_name": "Corner Coffee",
      "osm_id": 319434041,
      "amenity": "cafe",
      "cuisine": "coffee_shop",
      "opening_hours": "Mo-Fr 07:00-17:00; Sa 08:00-17:00",
      "website": "https://corner.coffee",
      "internet_access": "wlan",
      "phone": "(612) 338-2002",
      "addr_state": "MN",
      "addr_city": "Minneapolis",
      "addr_postcode": "55401",
      "addr_street": "3rd Street North",
      "addr_housenumber": "514",
      "value": 237.02618320999238
    },
    {
      "id": 164328,
      "geometry": "POINT (-93.13843 44.8038)",
      "poi_name": "Dunn Brothers Coffee",
      "osm_id": 9464286596,
      "amenity": "cafe",
      "addr_state": "MN",
      "addr_city": "Eagan",
      "addr_postcode": "55123",
      "addr_street": "Trillium Court",
      "addr_housenumber": "1012",
      "value": 237.02618320999238
    },
    {
      "id": 164820,
      "geometry": "POINT (-93.208158 44.727506)",
      "poi_name": "Dunn Brothers Coffee",
      "osm_id": 9501992053,
      "amenity": "cafe",
      "cuisine": "coffee_shop",
      "website": "https://locations.dunnbrothers.com/",
      "phone": "+1 (952) 388-1677",
      "addr_state": "MN",
      "addr_city": "Apple Valley",
      "addr_postcode": "55124",
      "addr_street": "Galaxie Avenue",
      "addr_housenumber": "15265",
      "value": 237.02618320999238
    },
    {
      "id": 164285,
      "geometry": "POINT (-93.184392 44.924896)",
      "poi_name": "Starbucks",
      "osm_id": 9461036662,
      "amenity": "cafe",
      "cuisine": "coffee_shop",
      "takeaway": "yes",
      "official_name": "Starbucks Coffee",
      "outdoor_seating": "yes",
      "value": 237.02618320999238
    },
    {
      "id": 178344,
      "geometry": "POINT (-93.166817 44.926577)",
      "poi_name": "Hype Nutrition",
      "osm_id": 10722230532,
      "amenity": "cafe",
      "cuisine": "healthy;smoothies;herbalife",
      "opening_hours": "Mo-Fr 07:00-16:00; Sa 09:00-13:00",
      "website": "www.facebook.com/hypenutritionmn",
      "internet_access": "wlan",
      "phone": "651-621-0155",
      "addr_state": "MN",
      "addr_city": "Saint Paul",
      "addr_postcode": "55116",
      "addr_street": "Snelling Avenue South",
      "addr_housenumber": "496",
      "value": 237.02618320999238
    },
    {
      "id": 167155,
      "geometry": "POINT (-93.237553 44.980142)",
      "poi_name": "Purple Onion Caf\u00e9",
      "osm_id": 343298976,
      "amenity": "cafe",
      "cuisine": "coffee_shop;cafe",
      "opening_hours": "Mo-Su 06:30-22:00",
      "website": "https://www.thepurpleonioncafe.com",
      "internet_access": "wlan",
      "phone": "+1-612-315-2629",
      "drive_through": "no",
      "outdoor_seating": "yes",
      "addr_state": "MN",
      "addr_city": "Minneapolis",
      "addr_postcode": "55414",
      "addr_street": "Southeast University Avenue",
      "addr_housenumber": "1301",
      "value": 237.02618320999238
    },
    {
      "id": 171112,
      "geometry": "POINT (-93.288427 44.941456)",
      "poi_name": "Five Watt Coffee",
      "osm_id": 2360978320,
      "amenity": "cafe",
      "cuisine": "coffee_shop",
      "description": "Locally roasted coffee & creative espresso drinks, plus pastries, served in cool, industrial digs.",
      "opening_hours": "Mo-Su 07:00-18:00",
      "website": "https://vicinitycoffee.com/",
      "internet_access": "wlan",
      "phone": "+1-612-545-5972",
      "outdoor_seating": "yes",
      "addr_state": "MN",
      "addr_city": "Minneapolis",
      "addr_postcode": "55408",
      "addr_street": "Lyndale Avenue South",
      "addr_housenumber": "3350",
      "value": 237.02618320999238
    },
    {
      "id": 171237,
      "geometry": "POINT (-93.288321 44.954919)",
      "poi_name": "Bluestem Bar and Table",
      "osm_id": 2366679437,
      "amenity": "cafe",
      "description": "Chic eatery/bar featuring farm-fresh fare & specialty cocktails in warm, contemporary surrounds.",
      "opening_hours": "Su-Th 08:00-22:00; Fr,Sa 08:00-23:00",
      "website": "https://www.bluestembarminneapolis.com",
      "addr_state": "MN",
      "addr_city": "Minneapolis",
      "addr_postcode": "55405",
      "addr_street": "Lyndale Avenue South",
      "addr_housenumber": "2610",
      "value": 237.02618320999238
    },
    {
      "id": 175102,
      "geometry": "POINT (-93.092202 44.947302)",
      "poi_name": "Saint Paul Coffee Shop",
      "osm_id": 2505496158,
      "amenity": "cafe",
      "value": 237.02618320999238
    },
    {
      "id": 177678,
      "geometry": "POINT (-93.420212 44.933658)",
      "poi_name": "Caribou Coffee",
      "osm_id": 2601361545,
      "amenity": "cafe",
      "cuisine": "coffee_shop",
      "internet_access": "yes",
      "takeaway": "yes",
      "value": 237.02618320999238
    },
    {
      "id": 173228,
      "geometry": "POINT (-93.071788 44.959234)",
      "poi_name": "Swede Hollow Cafe",
      "osm_id": 2431421228,
      "amenity": "cafe",
      "addr_state": "MN",
      "addr_city": "Saint Paul",
      "addr_postcode": "55106",
      "addr_street": "7th Street East",
      "addr_housenumber": "725",
      "value": 237.02618320999238
    },
    {
      "id": 173235,
      "geometry": "POINT (-93.298059 44.94737)",
      "poi_name": "Curioso Coffee Bar",
      "osm_id": 2431632130,
      "amenity": "cafe",
      "opening_hours": "Mo-Fr 07:00-15:00; Sa-Su 08:00-16:00; PH closed",
      "website": "https://www.curiosocrafts.com/",
      "internet_access": "wlan",
      "phone": "+1 (612) 208-9794",
      "addr_state": "MN",
      "addr_city": "Minneapolis",
      "addr_postcode": "55408",
      "addr_street": "Hennepin Avenue South",
      "addr_housenumber": "3001",
      "value": 237.02618320999238
    },
    {
      "id": 173831,
      "geometry": "POINT (-93.095327 44.945483)",
      "poi_name": "Starbucks",
      "osm_id": 2458087332,
      "amenity": "cafe",
      "cuisine": "coffee_shop",
      "takeaway": "yes",
      "official_name": "Starbucks Coffee",
      "value": 237.02618320999238
    },
    {
      "id": 173907,
      "geometry": "POINT (-93.278078 44.95577)",
      "poi_name": "Starbucks",
      "osm_id": 2458844521,
      "amenity": "cafe",
      "cuisine": "coffee_shop",
      "opening_hours": "Mo-Fr 05:30-20:00; Sa-Su 06:00-20:00",
      "takeaway": "yes",
      "official_name": "Starbucks Coffee",
      "value": 237.02618320999238
    },
    {
      "id": 174572,
      "geometry": "POINT (-93.233684 44.979052)",
      "poi_name": "Bordertown Coffee",
      "osm_id": 2489685422,
      "amenity": "cafe",
      "cuisine": "coffee_shop",
      "wheelchair": "no",
      "opening_hours": "Mo-Fr 07:00-17:00",
      "website": "http://bordertowncoffee.com/",
      "addr_state": "MN",
      "addr_city": "Minneapolis",
      "addr_postcode": "55414",
      "addr_street": "Southeast 16th Avenue",
      "addr_housenumber": "315",
      "value": 237.02618320999238
    },
    {
      "id": 184849,
      "geometry": "POINT (-93.421712 44.973548)",
      "poi_name": "Caribou Coffee",
      "osm_id": 7818080093,
      "amenity": "cafe",
      "cuisine": "coffee_shop",
      "phone": "+1-952-545-2140",
      "takeaway": "yes",
      "outdoor_seating": "yes",
      "value": 237.02618320999238
    },
    {
      "id": 180888,
      "geometry": "POINT (-93.089506 44.939937)",
      "poi_name": "Starbucks",
      "osm_id": 10822825945,
      "amenity": "cafe",
      "cuisine": "coffee_shop",
      "opening_hours": "Mo-Fr 06:00-19:00; Sa-Su 06:30-19:00",
      "internet_access": "yes",
      "takeaway": "yes",
      "official_name": "Starbucks Coffee",
      "outdoor_seating": "yes",
      "addr_state": "MN",
      "addr_city": "Saint Paul",
      "addr_postcode": "55107",
      "addr_street": "Wabasha Street South",
      "addr_housenumber": "84",
      "value": 237.02618320999238
    },
    {
      "id": 184769,
      "geometry": "POINT (-93.308527 44.973519)",
      "poi_name": "Cuppa Java",
      "osm_id": 7813340572,
      "amenity": "cafe",
      "cuisine": "american;coffee_shop",
      "website": "http://www.cuppajava.com/",
      "phone": "+1 612-374-4806",
      "addr_state": "MN",
      "addr_city": "Minneapolis",
      "addr_postcode": "55405",
      "addr_street": "Penn Avenue South",
      "addr_housenumber": "400",
      "value": 237.02618320999238
    },
    {
      "id": 183305,
      "geometry": "POINT (-93.21829 44.73561)",
      "poi_name": "Starbucks",
      "osm_id": 10924040393,
      "amenity": "cafe",
      "cuisine": "coffee_shop",
      "takeaway": "yes",
      "official_name": "Starbucks Coffee",
      "value": 237.02618320999238
    },
    {
      "id": 186614,
      "geometry": "POINT (-93.90677 44.528156)",
      "poi_name": "Toody's Sweet Treats",
      "osm_id": 7937398513,
      "amenity": "cafe",
      "value": 237.02618320999238
    },
    {
      "id": 187510,
      "geometry": "POINT (-93.166235 44.946426)",
      "poi_name": "Cahoots Coffee Bar",
      "osm_id": 1074598060,
      "amenity": "cafe",
      "website": "https://www.cahootscoffeebar.com/",
      "phone": "+1 651 644 6778",
      "addr_state": "MN",
      "addr_city": "Saint Paul",
      "addr_postcode": "55104",
      "addr_street": "Selby Avenue",
      "addr_housenumber": "1562",
      "value": 237.02618320999238
    },
    {
      "id": 187544,
      "geometry": "POINT (-93.255064 44.984495)",
      "poi_name": "Aster Cafe",
      "osm_id": 1077152668,
      "amenity": "cafe",
      "value": 237.02618320999238
    },
    {
      "id": 187610,
      "geometry": "POINT (-93.283775 44.967811)",
      "poi_name": "Dunn Bros",
      "osm_id": 1083701824,
      "amenity": "cafe",
      "cuisine": "coffee_shop",
      "website": "http://loringpark.dunnbros.com/",
      "internet_access": "yes",
      "addr_city": "Minneapolis",
      "addr_postcode": "55403",
      "addr_street": "West 15th Street",
      "addr_housenumber": "329",
      "value": 237.02618320999238
    },
    {
      "id": 191352,
      "geometry": "POINT (-93.399249 44.923747)",
      "poi_name": "The Depot Coffee House",
      "osm_id": 1359849893,
      "amenity": "cafe",
      "cuisine": "coffee_shop",
      "website": "http://www.thedepotcoffeehouse.com",
      "addr_city": "Hopkins",
      "addr_street": "Excelsior Boulevard",
      "addr_housenumber": "9451",
      "value": 237.02618320999238
    },
    {
      "id": 187691,
      "geometry": "POINT (-93.217026 44.736438)",
      "poi_name": "Caribou Coffee",
      "osm_id": 1097641459,
      "amenity": "cafe",
      "cuisine": "coffee_shop",
      "takeaway": "yes",
      "value": 237.02618320999238
    },
    {
      "id": 190758,
      "geometry": "POINT (-93.247442 44.970594)",
      "poi_name": "Kilimanjaro Cafe",
      "osm_id": 1314717597,
      "amenity": "cafe",
      "value": 237.02618320999238
    },
    {
      "id": 187674,
      "geometry": "POINT (-93.230708 44.943109)",
      "poi_name": "Wildflyer Coffee",
      "osm_id": 1093415773,
      "amenity": "cafe",
      "website": "https://wildflyercoffee.com/",
      "internet_access": "wlan",
      "addr_city": "Minneapolis",
      "addr_postcode": "55406",
      "addr_street": "Minnehaha Avenue",
      "addr_housenumber": "3262",
      "value": 237.02618320999238
    },
    {
      "id": 188854,
      "geometry": "POINT (-93.400401 44.836167)",
      "poi_name": "Starbucks",
      "osm_id": 1188081608,
      "amenity": "cafe",
      "cuisine": "coffee_shop",
      "phone": "+1 952 944 8646",
      "addr_state": "MN",
      "addr_city": "Eden Prairie",
      "addr_postcode": "55344",
      "addr_street": "Anderson Lakes Parkway",
      "addr_housenumber": "9639",
      "value": 237.02618320999238
    },
    {
      "id": 188856,
      "geometry": "POINT (-93.400403 44.836227)",
      "poi_name": "Brugger's Bagels",
      "osm_id": 1188081631,
      "amenity": "cafe",
      "cuisine": "sandwich",
      "website": "https://www.brueggers.com",
      "phone": "+1 952 829 9532",
      "addr_state": "MN",
      "addr_city": "Eden Prairie",
      "addr_postcode": "55344",
      "addr_street": "Anderson Lakes Parkway",
      "addr_housenumber": "9641",
      "value": 237.02618320999238
    },
    {
      "id": 190732,
      "geometry": "POINT (-93.147039 44.939882)",
      "poi_name": "Bravo! Caf\u00e9 & Bakery",
      "osm_id": 1313773955,
      "amenity": "cafe",
      "website": "http://www.bravobakery.net/",
      "shop": "pastry",
      "phone": "+16512879118",
      "addr_state": "MN",
      "addr_city": "Saint Paul",
      "addr_postcode": "55105",
      "addr_street": "Grand Avenue",
      "addr_housenumber": "1106",
      "value": 237.02618320999238
    },
    {
      "id": 190733,
      "geometry": "POINT (-93.144435 44.940124)",
      "poi_name": "Caribou Coffee",
      "osm_id": 1313773961,
      "amenity": "cafe",
      "cuisine": "coffee_shop",
      "takeaway": "yes",
      "addr_state": "MN",
      "addr_city": "Saint Paul",
      "addr_postcode": "55105",
      "addr_street": "Grand Avenue",
      "addr_housenumber": "1055",
      "value": 237.02618320999238
    },
    {
      "id": 190738,
      "geometry": "POINT (-93.144766 44.93985)",
      "poi_name": "Starbucks",
      "osm_id": 1313774021,
      "amenity": "cafe",
      "cuisine": "coffee_shop",
      "takeaway": "yes",
      "official_name": "Starbucks Coffee",
      "addr_state": "MN",
      "addr_city": "Saint Paul",
      "addr_postcode": "55105",
      "addr_street": "Grand Avenue",
      "addr_housenumber": "1062",
      "value": 237.02618320999238
    },
    {
      "id": 191278,
      "geometry": "POINT (-93.257718 44.985709)",
      "poi_name": "Wilde Cafe & Spirits",
      "osm_id": 1352105236,
      "amenity": "cafe",
      "wheelchair": "limited",
      "opening_hours": "Su 07:00-21:00; Mo-Th 07:00-22:00; Fr-Sa 07:00-23:00",
      "website": "https://wildecafe.com/",
      "internet_access": "wlan",
      "phone": "+1-612-331-4544",
      "addr_postcode": "55414",
      "addr_street": "Main Street Southeast",
      "addr_housenumber": "65",
      "value": 237.02618320999238
    },
    {
      "id": 191389,
      "geometry": "POINT (-93.427702 44.923818)",
      "poi_name": "Dunn Brothers Coffee",
      "osm_id": 1363681672,
      "amenity": "cafe",
      "cuisine": "coffee_shop",
      "takeaway": "yes",
      "value": 237.02618320999238
    },
    {
      "id": 192009,
      "geometry": "POINT (-92.960605 44.924999)",
      "poi_name": "Starbucks",
      "osm_id": 1413587863,
      "amenity": "cafe",
      "cuisine": "coffee_shop",
      "takeaway": "yes",
      "official_name": "Starbucks Coffee",
      "value": 237.02618320999238
    },
    {
      "id": 191754,
      "geometry": "POINT (-93.262754 44.934604)",
      "poi_name": "Forreal Coffeehouse",
      "osm_id": 1391100190,
      "amenity": "cafe",
      "cuisine": "coffee_shop",
      "website": "https://www.forrealcoffeehouse.com/",
      "addr_postcode": "55407",
      "addr_street": "Chicago Avenue South",
      "addr_housenumber": "3740",
      "value": 237.02618320999238
    },
    {
      "id": 193249,
      "geometry": "POINT (-93.254452 44.962905)",
      "poi_name": "Pow Wow Grounds",
      "osm_id": 1513738066,
      "amenity": "cafe",
      "addr_street": "Franklin Avenue",
      "addr_housenumber": "1414",
      "value": 237.02618320999238
    },
    {
      "id": 193087,
      "geometry": "POINT (-93.26286 44.9446)",
      "poi_name": "Modern Times Cafe",
      "osm_id": 1494880574,
      "amenity": "cafe",
      "cuisine": "breakfast;diner;cafe;brunch;lunch",
      "description": "Hearty breakfasts, sandwiches & salads, with vegetarian, vegan, fair-trade, carnivore & organic choices, in a colorful family cafe.",
      "wheelchair": "yes",
      "opening_hours": "Mo-Su 09:00-15:00",
      "website": "moderntimesmpls.com",
      "internet_access": "wlan",
      "phone": "6128863882",
      "takeaway": "yes",
      "drive_through": "no",
      "outdoor_seating": "yes",
      "delivery": "no",
      "toilets": "yes",
      "addr_state": "MN",
      "addr_city": "Minneapolis",
      "addr_postcode": "55407",
      "addr_street": "Chicago Avenue South",
      "addr_housenumber": "3200",
      "value": 237.02618320999238
    },
    {
      "id": 193706,
      "geometry": "POINT (-93.257917 44.968948)",
      "poi_name": "Segue",
      "osm_id": 1557254318,
      "amenity": "cafe",
      "internet_access": "wlan",
      "addr_street": "11th Avenue South",
      "addr_housenumber": "811",
      "value": 237.02618320999238
    },
    {
      "id": 193520,
      "geometry": "POINT (-93.255392 44.987492)",
      "poi_name": "Caribou Coffee",
      "osm_id": 1542603231,
      "amenity": "cafe",
      "cuisine": "coffee_shop",
      "takeaway": "yes",
      "value": 237.02618320999238
    },
    {
      "id": 193380,
      "geometry": "POINT (-93.328867 44.910862)",
      "poi_name": "Edina Creamery",
      "osm_id": 1530467493,
      "amenity": "cafe",
      "cuisine": "ice_cream",
      "addr_street": "France Avenue South",
      "addr_housenumber": "5055",
      "value": 237.02618320999238
    },
    {
      "id": 193618,
      "geometry": "POINT (-93.232465 44.912806)",
      "poi_name": "Nokomis Beach Coffee Cafe",
      "osm_id": 1549185241,
      "amenity": "cafe",
      "cuisine": "coffee_shop",
      "internet_access": "yes",
      "addr_state": "MN",
      "addr_city": "Minneapolis",
      "addr_postcode": "55417",
      "addr_street": "28th Avenue South",
      "addr_housenumber": "4956",
      "value": 237.02618320999238
    },
    {
      "id": 194128,
      "geometry": "POINT (-93.226255 44.994742)",
      "poi_name": "Honour",
      "osm_id": 10260863526,
      "amenity": "cafe",
      "cuisine": "coffee_shop;juice;breakfast",
      "wheelchair": "yes",
      "opening_hours": "Mo-Fr 06:30-18:00, Sa-Su 07:00-18:00",
      "website": "https://www.honourcoffee.com/",
      "internet_access": "yes",
      "phone": "(612) 758-0331",
      "toilets": "yes",
      "addr_state": "MN",
      "addr_city": "Minneapolis",
      "addr_postcode": "55413",
      "addr_street": "Northeast Stinson Boulevard",
      "addr_housenumber": "451",
      "value": 237.02618320999238
    },
    {
      "id": 194132,
      "geometry": "POINT (-93.27541 44.986883)",
      "poi_name": "Backstory Coffee",
      "osm_id": 10261058580,
      "amenity": "cafe",
      "cuisine": "coffee_shop",
      "opening_hours": "Mo-Su 07:00-15:00",
      "website": "https://backstory.coffee/",
      "internet_access": "yes",
      "outdoor_seating": "no",
      "addr_state": "MN",
      "addr_city": "Minneapolis",
      "addr_postcode": "55401",
      "addr_street": "North Washington Avenue",
      "addr_housenumber": "528",
      "value": 237.02618320999238
    },
    {
      "id": 194137,
      "geometry": "POINT (-93.277864 44.987871)",
      "poi_name": "FRGMNT COFFE",
      "osm_id": 10261213762,
      "amenity": "cafe",
      "cuisine": "coffee_shop",
      "wheelchair": "yes",
      "opening_hours": "Mo-Fr 06:30-18:00",
      "website": "https://frgmntcoffee.com/",
      "internet_access": "yes",
      "addr_state": "MN",
      "addr_city": "Minneapolis",
      "addr_postcode": "55401",
      "addr_street": "North Washington Avenue",
      "addr_housenumber": "729",
      "value": 237.02618320999238
    },
    {
      "id": 198881,
      "geometry": "POINT (-93.502799 44.941068)",
      "poi_name": "Caribou Coffee",
      "osm_id": 923857553,
      "amenity": "cafe",
      "cuisine": "coffee_shop",
      "takeaway": "yes",
      "value": 237.02618320999238
    },
    {
      "id": 196782,
      "geometry": "POINT (-93.21631 44.697631)",
      "poi_name": "Starbucks",
      "osm_id": 10596302820,
      "amenity": "cafe",
      "cuisine": "coffee_shop",
      "takeaway": "yes",
      "official_name": "Starbucks Coffee",
      "value": 237.02618320999238
    },
    {
      "id": 196914,
      "geometry": "POINT (-93.215218 44.694246)",
      "poi_name": "Caribou Coffee",
      "osm_id": 10604156998,
      "amenity": "cafe",
      "cuisine": "coffee_shop",
      "takeaway": "yes",
      "value": 237.02618320999238
    },
    {
      "id": 197925,
      "geometry": "POINT (-93.17609 44.715476)",
      "poi_name": "Dunn Brothers Coffee",
      "osm_id": 10681831526,
      "amenity": "cafe",
      "cuisine": "coffee_shop",
      "takeaway": "yes",
      "value": 237.02618320999238
    },
    {
      "id": 199105,
      "geometry": "POINT (-93.136626 44.940107)",
      "poi_name": "Bread & Chocolate",
      "osm_id": 937197716,
      "amenity": "cafe",
      "website": "https://www.breadandchocolatebakery.com/",
      "phone": "+1 651 2281017",
      "value": 237.02618320999238
    },
    {
      "id": 199008,
      "geometry": "POINT (-93.419682 44.894773)",
      "poi_name": "Caribou Coffee",
      "osm_id": 930367165,
      "amenity": "cafe",
      "cuisine": "coffee_shop",
      "takeaway": "yes",
      "value": 237.02618320999238
    },
    {
      "id": 199847,
      "geometry": "POINT (-93.092679 44.948195)",
      "poi_name": "Maison Darras",
      "osm_id": 993402537,
      "amenity": "cafe",
      "cuisine": "french",
      "value": 237.02618320999238
    },
    {
      "id": 199213,
      "geometry": "POINT (-93.229873 44.973964)",
      "poi_name": "Starbucks",
      "osm_id": 945574896,
      "amenity": "cafe",
      "cuisine": "coffee_shop",
      "takeaway": "yes",
      "official_name": "Starbucks Coffee",
      "outdoor_seating": "yes",
      "addr_state": "MN",
      "addr_city": "Minneapolis",
      "addr_postcode": "55414",
      "addr_street": "Southeast Washington Avenue",
      "addr_housenumber": "615",
      "value": 237.02618320999238
    },
    {
      "id": 205428,
      "geometry": "POINT (-93.249789 44.883872)",
      "poi_name": "Caribou Coffee",
      "osm_id": 7168433512,
      "amenity": "cafe",
      "cuisine": "coffee_shop",
      "takeaway": "yes",
      "addr_state": "MN",
      "addr_city": "Richfield",
      "addr_postcode": "55423",
      "addr_street": "East 66th Street",
      "addr_housenumber": "1700",
      "value": 237.02618320999238
    },
    {
      "id": 200829,
      "geometry": "POINT (-93.277676 44.924926)",
      "poi_name": "Vicinity Coffee",
      "osm_id": 598691583,
      "amenity": "cafe",
      "cuisine": "coffee_shop",
      "value": 237.02618320999238
    },
    {
      "id": 201813,
      "geometry": "POINT (-93.190884 44.917451)",
      "poi_name": "Caribou Coffee",
      "osm_id": 660909435,
      "amenity": "cafe",
      "cuisine": "coffee_shop",
      "internet_access": "wlan",
      "takeaway": "yes",
      "value": 237.02618320999238
    },
    {
      "id": 201817,
      "geometry": "POINT (-93.185252 44.917598)",
      "poi_name": "Highland Cafe and Bakery",
      "osm_id": 660909480,
      "amenity": "cafe",
      "shop": "bakery",
      "value": 237.02618320999238
    },
    {
      "id": 201840,
      "geometry": "POINT (-93.42224 44.900284)",
      "poi_name": "YoYo Donuts & Coffee Bar",
      "osm_id": 661970790,
      "amenity": "cafe",
      "value": 237.02618320999238
    },
    {
      "id": 201982,
      "geometry": "POINT (-93.463633 44.906022)",
      "poi_name": "Caribou Coffee",
      "osm_id": 670883088,
      "amenity": "cafe",
      "cuisine": "coffee_shop",
      "takeaway": "yes",
      "value": 237.02618320999238
    },
    {
      "id": 202038,
      "geometry": "POINT (-93.258711 44.737932)",
      "poi_name": "Caribou Coffee",
      "osm_id": 673851372,
      "amenity": "cafe",
      "cuisine": "coffee_shop",
      "wheelchair": "yes",
      "website": "http://www.CaribouCoffee.com",
      "internet_access": "wlan",
      "phone": "+1 952 9536459",
      "takeaway": "yes",
      "outdoor_seating": "yes",
      "addr_state": "MN",
      "addr_city": "Burnsville",
      "addr_postcode": "55337",
      "addr_street": "County Road 42 East",
      "addr_housenumber": "1100",
      "value": 237.02618320999238
    },
    {
      "id": 205438,
      "geometry": "POINT (-93.248685 44.885984)",
      "poi_name": "Starbucks",
      "osm_id": 7168433604,
      "amenity": "cafe",
      "cuisine": "coffee_shop",
      "takeaway": "yes",
      "official_name": "Starbucks Coffee",
      "addr_state": "MN",
      "addr_city": "Richfield",
      "addr_postcode": "55423",
      "addr_street": "Richfield Parkway",
      "addr_housenumber": "6445",
      "value": 237.02618320999238
    },
    {
      "id": 205808,
      "geometry": "POINT (-93.230161 44.987722)",
      "poi_name": "Black Coffee and Waffle Bar",
      "osm_id": 7182279853,
      "amenity": "cafe",
      "cuisine": "coffee_shop",
      "opening_hours": "Mo-Su 07:00-21:00",
      "website": "https://www.blackcoffeeandwaffle.com/",
      "phone": "+16124360719",
      "outdoor_seating": "yes",
      "addr_state": "MN",
      "addr_city": "Minneapolis",
      "addr_postcode": "55414",
      "addr_street": "Southeast Como Avenue",
      "addr_housenumber": "1500",
      "value": 237.02618320999238
    },
    {
      "id": 206264,
      "geometry": "POINT (-93.176682 44.957314)",
      "poi_name": "SnackChat Networking Lounge and Deli",
      "osm_id": 7202339946,
      "amenity": "cafe",
      "cuisine": "sandwich",
      "opening_hours": "Mo-Fr 07:30-16:30",
      "phone": "+1-952-454-1996",
      "addr_state": "MN",
      "addr_city": "Saint Paul",
      "addr_postcode": "55104",
      "addr_street": "Fairview Avenue North",
      "addr_housenumber": "540",
      "value": 237.02618320999238
    },
    {
      "id": 208391,
      "geometry": "POINT (-93.297586 44.95311)",
      "poi_name": "Twin Cities Leather and Latte",
      "osm_id": 4989031438,
      "amenity": "cafe",
      "addr_street": "Hennepin Avenue South",
      "addr_housenumber": "2717",
      "value": 237.02618320999238
    },
    {
      "id": 209810,
      "geometry": "POINT (-93.197815 44.965452)",
      "poi_name": "Roundtable Coffee Works",
      "osm_id": 5060602392,
      "amenity": "cafe",
      "cuisine": "coffee_shop;pastry",
      "opening_hours": "Mo-Sa 07:00-15:00",
      "website": "https://roundtablecw.com/",
      "outdoor_seating": "no",
      "addr_state": "MN",
      "addr_city": "Saint Paul",
      "addr_postcode": "55114",
      "addr_street": "West Territorial Road",
      "addr_housenumber": "2386",
      "value": 237.02618320999238
    },
    {
      "id": 209450,
      "geometry": "POINT (-93.173794 44.715156)",
      "poi_name": "Starbucks",
      "osm_id": 5038684187,
      "amenity": "cafe",
      "cuisine": "coffee_shop",
      "opening_hours": "06:00-20:00",
      "phone": "+1-952-423-9340",
      "takeaway": "yes",
      "official_name": "Starbucks Coffee",
      "addr_state": "MN",
      "addr_city": "Lakeville",
      "addr_postcode": "55044",
      "addr_street": "Pilot Knob Road",
      "addr_housenumber": "16150",
      "value": 237.02618320999238
    },
    {
      "id": 209690,
      "geometry": "POINT (-93.239099 44.934269)",
      "poi_name": "Sisters' Sludge Coffee Cafe and Wine Bar",
      "osm_id": 5052091686,
      "amenity": "cafe",
      "website": "https://sistersludgecoffeecafe.com/",
      "addr_street": "23rd Avenue South",
      "addr_housenumber": "3746",
      "value": 237.02618320999238
    },
    {
      "id": 213375,
      "geometry": "POINT (-93.297577 44.748321)",
      "poi_name": "Tii Cup",
      "osm_id": 5247886867,
      "amenity": "cafe",
      "description": "Great place to grab a nice drink whether it is hot or cold tea. Milk tea is also an option. if you have never tried. i recommend the golden milk tea.",
      "internet_access": "yes",
      "outdoor_seating": "no",
      "addr_state": "MN",
      "addr_city": "Burnsville",
      "addr_postcode": "55337",
      "addr_street": "Irving Avenue South",
      "addr_housenumber": "14115",
      "value": 237.02618320999238
    },
    {
      "id": 209965,
      "geometry": "POINT (-93.412163 44.77663)",
      "poi_name": "Caribou Coffee & Einstein Bros. Bagels",
      "osm_id": 5069793221,
      "amenity": "cafe",
      "addr_postcode": "55379",
      "addr_street": "Hansen Avenue",
      "addr_housenumber": "8360",
      "value": 237.02618320999238
    },
    {
      "id": 211372,
      "geometry": "POINT (-93.242575 44.648403)",
      "poi_name": "Mainstreet Coffee & Wine Bar",
      "osm_id": 5155493046,
      "amenity": "cafe",
      "cuisine": "sandwich;coffee;wine",
      "opening_hours": "Mo 06:00-22:00; Tu-We 06:00-23:00; Th-Fr 06:00-00:00, Sa 07:00-00:00",
      "website": "http://mainstreetcoffeeandwinebar.com",
      "phone": "+1-952-985-7650",
      "addr_state": "MN",
      "addr_city": "Lakeville",
      "addr_postcode": "55044",
      "addr_street": "Holyoke Avenue",
      "addr_housenumber": "20790",
      "value": 237.02618320999238
    },
    {
      "id": 214383,
      "geometry": "POINT (-93.246942 44.93422)",
      "poi_name": "Duck Duck Coffee",
      "osm_id": 5270931840,
      "amenity": "cafe",
      "cuisine": "coffee_shop",
      "opening_hours": "Mo 07:00-17:00; Tu off; We-Fr 07:00-17:00; Sa 08:00-14:00; Su 10:00-14:00",
      "website": "https://www.duckduckmpls.com/",
      "phone": "+1 612 234 5802",
      "outdoor_seating": "yes",
      "addr_state": "MN",
      "addr_city": "Minneapolis",
      "addr_postcode": "55407",
      "addr_street": "East 38th Street",
      "addr_housenumber": "1830",
      "value": 237.02618320999238
    },
    {
      "id": 214017,
      "geometry": "POINT (-93.304198 44.86342)",
      "poi_name": "Caribou Coffee",
      "osm_id": 5264283906,
      "amenity": "cafe",
      "cuisine": "coffee_shop",
      "opening_hours": "Mo-Fr 06:00-17:00",
      "takeaway": "yes",
      "value": 237.02618320999238
    },
    {
      "id": 214144,
      "geometry": "POINT (-93.236319 44.980123)",
      "poi_name": "Tim Hortons",
      "osm_id": 5266244889,
      "amenity": "cafe",
      "cuisine": "coffee_shop",
      "opening_hours": "Mo-Su 06:00-20:00",
      "website": "https://timhortons.com/",
      "takeaway": "yes",
      "addr_state": "MN",
      "addr_city": "Minneapolis",
      "addr_postcode": "55414",
      "addr_street": "Southeast 14th Avenue",
      "addr_housenumber": "317",
      "value": 237.02618320999238
    },
    {
      "id": 215146,
      "geometry": "POINT (-93.288907 44.955434)",
      "poi_name": "Disco Death Records",
      "osm_id": 5288464640,
      "amenity": "cafe",
      "cuisine": "coffee_shop",
      "description": "Coffee and music(vinyl, CD, etc)",
      "opening_hours": "Mo-Su 07:00-19:00",
      "website": "https://discodeathrecords.com/",
      "internet_access": "yes",
      "phone": "(612) 354-3533",
      "outdoor_seating": "yes",
      "addr_state": "MN",
      "addr_city": "Minneapolis",
      "addr_postcode": "55405",
      "addr_street": "West 26th Street",
      "addr_housenumber": "721",
      "value": 237.02618320999238
    },
    {
      "id": 215147,
      "geometry": "POINT (-93.288288 44.954988)",
      "poi_name": "French Meadow Bakery & Cafe",
      "osm_id": 5288464645,
      "amenity": "cafe",
      "description": "Fresh-baked goods & an all-day American menu with an emphasis on organic, sustainable ingredients.",
      "opening_hours": "Mo-Tu 08:00-15:00; We-Su 08:00-21:00",
      "website": "https://www.frenchmeadowcafe.com/",
      "phone": "+1-612-870-7855",
      "addr_state": "MN",
      "addr_city": "Minneapolis",
      "addr_postcode": "55405",
      "addr_street": "Lyndale Avenue South",
      "addr_housenumber": "2610",
      "value": 237.02618320999238
    },
    {
      "id": 227985,
      "geometry": "POINT (-93.27774 44.93444)",
      "poi_name": "Five Watt Coffee",
      "osm_id": 4326248390,
      "amenity": "cafe",
      "cuisine": "coffee_shop",
      "opening_hours": "Mo-Su 6:00-22:00",
      "website": "http://fivewattcoffee.com",
      "internet_access": "wlan",
      "phone": "+1-612-259-7519",
      "addr_state": "MN",
      "addr_city": "Minneapolis",
      "addr_postcode": "55409",
      "addr_street": "Nicollet Avenue South",
      "addr_housenumber": "3754",
      "value": 237.02618320999238
    },
    {
      "id": 217634,
      "geometry": "POINT (-93.205694 44.82008)",
      "poi_name": "Mint Tea Bubble Tea and Coffee",
      "osm_id": 9234733598,
      "amenity": "cafe",
      "cuisine": "bubble_tea",
      "value": 237.02618320999238
    },
    {
      "id": 222817,
      "geometry": "POINT (-93.273813 44.974715)",
      "poi_name": "Coconut Whisk Cafe & Boba Shop",
      "osm_id": 11036306005,
      "amenity": "cafe",
      "cuisine": "vegan",
      "opening_hours": "Th-Fr 09:00-15:00; Sa-Su 09:00-16:00",
      "website": "https://coconutwhisk.com/pages/coconut-whisk-cafe-retail-shop",
      "addr_postcode": "55402",
      "addr_street": "Nicollet Mall",
      "addr_housenumber": "905",
      "value": 237.02618320999238
    },
    {
      "id": 217807,
      "geometry": "POINT (-93.235355 44.980756)",
      "poi_name": "Mango Mango Dessert",
      "osm_id": 9243584407,
      "amenity": "cafe",
      "cuisine": "asian;dessert",
      "takeaway": "yes",
      "value": 237.02618320999238
    },
    {
      "id": 220169,
      "geometry": "POINT (-93.164558 45.004128)",
      "poi_name": "Starbucks",
      "osm_id": 9362989526,
      "amenity": "cafe",
      "cuisine": "coffee_shop",
      "takeaway": "yes",
      "official_name": "Starbucks Coffee",
      "value": 237.02618320999238
    },
    {
      "id": 222219,
      "geometry": "POINT (-93.308447 44.905004)",
      "poi_name": "Cafe Ceres",
      "osm_id": 11010618883,
      "amenity": "cafe",
      "cuisine": "coffee_shop",
      "wheelchair": "yes",
      "takeaway": "yes",
      "drive_through": "no",
      "outdoor_seating": "yes",
      "delivery": "no",
      "toilets": "yes",
      "value": 237.02618320999238
    },
    {
      "id": 222944,
      "geometry": "POINT (-93.288098 44.68175)",
      "poi_name": "Caribou Coffee",
      "osm_id": 11040515800,
      "amenity": "cafe",
      "cuisine": "coffee_shop",
      "opening_hours": "Mo-Su 06:00-19:00",
      "website": "https://locations.cariboucoffee.com/us/mn/lakeville/18444-kenrick-avenue",
      "internet_access": "yes",
      "phone": "+19528981550",
      "takeaway": "yes",
      "addr_state": "MN",
      "addr_city": "Lakeville",
      "addr_postcode": "55044",
      "addr_street": "Kenrick Avenue",
      "addr_housenumber": "184444",
      "value": 237.02618320999238
    },
    {
      "id": 224757,
      "geometry": "POINT (-93.503939 44.917869)",
      "poi_name": "Caribou Coffee",
      "osm_id": 11098487965,
      "amenity": "cafe",
      "cuisine": "coffee_shop",
      "takeaway": "yes",
      "value": 237.02618320999238
    },
    {
      "id": 227769,
      "geometry": "POINT (-93.224728 44.973879)",
      "poi_name": "Kung Fa Tea",
      "osm_id": 4317690365,
      "amenity": "cafe",
      "website": "https://www.kungfutea.com/",
      "phone": "+1-612-379-8886",
      "addr_state": "MN",
      "addr_city": "Minneapolis",
      "addr_postcode": "55414",
      "addr_street": "Southeast Washington Avenue",
      "addr_housenumber": "923",
      "value": 237.02618320999238
    },
    {
      "id": 228499,
      "geometry": "POINT (-93.07311 44.958943)",
      "poi_name": "The Goat Coffeehouse",
      "osm_id": 4346218649,
      "amenity": "cafe",
      "addr_state": "MN",
      "addr_city": "Saint Paul",
      "addr_postcode": "55106",
      "addr_street": "7th Street East",
      "addr_housenumber": "699",
      "value": 237.02618320999238
    },
    {
      "id": 228450,
      "geometry": "POINT (-93.235342 44.981344)",
      "poi_name": "Starbucks",
      "osm_id": 4343817372,
      "amenity": "cafe",
      "cuisine": "coffee_shop",
      "opening_hours": "Mo-Th 06:00-22:00; Fr-Sa 06:00-22:30; Su 06:00-22:00",
      "phone": "+1-612-331-0167",
      "takeaway": "yes",
      "official_name": "Starbucks Coffee",
      "addr_state": "MN",
      "addr_city": "Minneapolis",
      "addr_postcode": "55414",
      "addr_street": "Southeast 14th Avenue",
      "addr_housenumber": "425",
      "value": 237.02618320999238
    },
    {
      "id": 229743,
      "geometry": "POINT (-93.298488 44.945017)",
      "poi_name": "La La Homemade Ice Cream & Luncheonette",
      "osm_id": 4397966089,
      "amenity": "cafe",
      "cuisine": "ice_cream",
      "wheelchair": "yes",
      "opening_hours": "Tu-Su 11:00-20:00; PH closed",
      "website": "https://www.lalaicecream.com",
      "phone": "+1 612 8245252",
      "drive_through": "no",
      "outdoor_seating": "yes",
      "delivery": "no",
      "addr_state": "MN",
      "addr_city": "Minneapolis",
      "addr_postcode": "55408",
      "addr_street": "Hennepin Avenue South",
      "addr_housenumber": "3146",
      "value": 237.02618320999238
    },
    {
      "id": 234391,
      "geometry": "POINT (-93.276082 44.9554)",
      "poi_name": "Wesley Andrews",
      "osm_id": 4619562331,
      "amenity": "cafe",
      "cuisine": "coffee_shop",
      "opening_hours": "08:30-18:00",
      "website": "https://www.wesleyandrews.cc/",
      "internet_access": "wlan",
      "phone": "+1 612-460-7739",
      "addr_state": "MN",
      "addr_city": "Minneapolis",
      "addr_postcode": "55404",
      "addr_street": "East 26th Street",
      "addr_housenumber": "111",
      "value": 237.02618320999238
    },
    {
      "id": 230831,
      "geometry": "POINT (-93.424868 44.859033)",
      "poi_name": "Caribou Coffee",
      "osm_id": 4441446707,
      "amenity": "cafe",
      "cuisine": "coffee_shop",
      "takeaway": "yes",
      "value": 237.02618320999238
    },
    {
      "id": 234529,
      "geometry": "POINT (-93.277726 44.952281)",
      "poi_name": "Bambu",
      "osm_id": 4627115925,
      "amenity": "cafe",
      "cuisine": "vietnamese;bubble_tea",
      "website": "https://www.drinkbambu.com/",
      "phone": "+1-612-787-6166",
      "takeaway": "yes",
      "addr_state": "MN",
      "addr_city": "Minneapolis",
      "addr_postcode": "55408",
      "addr_street": "Nicollet Avenue South",
      "addr_housenumber": "2745",
      "value": 237.02618320999238
    },
    {
      "id": 240080,
      "geometry": "POINT (-93.164825 45.007759)",
      "poi_name": "Starbucks",
      "osm_id": 5954629464,
      "amenity": "cafe",
      "cuisine": "coffee_shop",
      "takeaway": "yes",
      "official_name": "Starbucks Coffee",
      "addr_state": "MN",
      "addr_city": "Roseville",
      "addr_postcode": "55113",
      "addr_street": "County Road B West",
      "addr_housenumber": "1515",
      "value": 237.02618320999238
    },
    {
      "id": 234908,
      "geometry": "POINT (-93.243382 44.855006)",
      "poi_name": "Starbucks",
      "osm_id": 5739829710,
      "amenity": "cafe",
      "cuisine": "coffee_shop",
      "opening_hours": "Mo-Th 07:00-21:30; Fr-Sa 07:00-22:00; Su 08:30-20:00",
      "phone": "+1-952-853-1274",
      "takeaway": "yes",
      "official_name": "Starbucks Coffee",
      "addr_street": "West Market",
      "addr_housenumber": "276",
      "value": 237.02618320999238
    },
    {
      "id": 234910,
      "geometry": "POINT (-93.242199 44.853556)",
      "poi_name": "Caribou Coffee",
      "osm_id": 5739830048,
      "amenity": "cafe",
      "cuisine": "coffee_shop",
      "opening_hours": "Mo-Th 06:30-21:00; Fr-Sa 06:30-21:30; Su 06:30-18:30",
      "phone": "+1-952-854-1031",
      "takeaway": "yes",
      "addr_street": "South Avenue",
      "addr_housenumber": "226",
      "value": 237.02618320999238
    },
    {
      "id": 234911,
      "geometry": "POINT (-93.242118 44.855678)",
      "poi_name": "Caribou Coffee",
      "osm_id": 5739830075,
      "amenity": "cafe",
      "cuisine": "coffee_shop",
      "opening_hours": "Mo-Th 07:30-21:30; Fr 07:30-22:00; Sa 09:30-21:30; Su 08:30-19:00",
      "phone": "+1-952-858-8360",
      "takeaway": "yes",
      "addr_street": "North Garden",
      "addr_housenumber": "224",
      "value": 237.02618320999238
    },
    {
      "id": 234916,
      "geometry": "POINT (-93.243285 44.855386)",
      "poi_name": "Caribou Coffee",
      "osm_id": 5739830184,
      "amenity": "cafe",
      "cuisine": "coffee_shop",
      "opening_hours": "Mo-Fr 07:30-21:30; Sa 07:30-22:00; Su 08:30-19:00",
      "phone": "+1-952-854-2501",
      "takeaway": "yes",
      "addr_street": "North Garden",
      "addr_housenumber": "194",
      "value": 237.02618320999238
    },
    {
      "id": 235063,
      "geometry": "POINT (-93.200811 44.880545)",
      "poi_name": "Caribou Coffee",
      "osm_id": 5744547221,
      "amenity": "cafe",
      "cuisine": "coffee_shop",
      "takeaway": "yes",
      "value": 237.02618320999238
    },
    {
      "id": 236533,
      "geometry": "POINT (-93.40375 44.896878)",
      "poi_name": "UHG Cafe",
      "osm_id": 5796487501,
      "amenity": "cafe",
      "value": 237.02618320999238
    },
    {
      "id": 240093,
      "geometry": "POINT (-93.271631 44.977288)",
      "poi_name": "Caribou Coffee",
      "osm_id": 5955554293,
      "amenity": "cafe",
      "cuisine": "coffee_shop",
      "takeaway": "yes",
      "value": 237.02618320999238
    },
    {
      "id": 240102,
      "geometry": "POINT (-93.273483 44.975983)",
      "poi_name": "Caribou Coffee",
      "osm_id": 5955554306,
      "amenity": "cafe",
      "cuisine": "coffee_shop",
      "takeaway": "yes",
      "value": 237.02618320999238
    },
    {
      "id": 240107,
      "geometry": "POINT (-93.274235 44.974865)",
      "poi_name": "Starbucks",
      "osm_id": 5955586644,
      "amenity": "cafe",
      "cuisine": "coffee_shop",
      "takeaway": "yes",
      "official_name": "Starbucks Coffee",
      "value": 237.02618320999238
    },
    {
      "id": 240108,
      "geometry": "POINT (-93.27487 44.979046)",
      "poi_name": "Starbucks",
      "osm_id": 5955586677,
      "amenity": "cafe",
      "cuisine": "coffee_shop",
      "takeaway": "yes",
      "official_name": "Starbucks Coffee",
      "value": 237.02618320999238
    },
    {
      "id": 240110,
      "geometry": "POINT (-93.272545 44.978144)",
      "poi_name": "Starbucks",
      "osm_id": 5955612516,
      "amenity": "cafe",
      "cuisine": "coffee_shop",
      "takeaway": "yes",
      "official_name": "Starbucks Coffee",
      "value": 237.02618320999238
    },
    {
      "id": 241455,
      "geometry": "POINT (-93.233945 44.947236)",
      "poi_name": "Geek Love Cafe",
      "osm_id": 6025802008,
      "amenity": "cafe",
      "website": "https://www.moonpalacebooks.com/?q=p.geek_love_cafe_1",
      "value": 237.02618320999238
    },
    {
      "id": 241564,
      "geometry": "POINT (-93.275051 44.989814)",
      "poi_name": "In the Loop Coffee Co.",
      "osm_id": 6029984891,
      "amenity": "cafe",
      "cuisine": "coffee_shop",
      "website": "http://www.intheloopcoffee.com",
      "outdoor_seating": "yes",
      "addr_state": "MN",
      "addr_city": "Minneapolis",
      "addr_postcode": "55401",
      "addr_street": "North 1st Street",
      "addr_housenumber": "708",
      "value": 237.02618320999238
    }
  ],
  "answer_type": "name",
  "question_entities": {
    "[2]": {
      "distance": 120000,
      "text": "120 kilometers"
    },
    "[3]": {
      "main_category": "tourism",
      "sub_category": "hotel",
      "display_name": "Water Street Inn, Stillwater, MN",
      "geo_wkt": "POINT (-92.805004 45.056347)",
      "poi": {
        "id": 26363,
        "geometry": "POINT (-92.805004 45.056347)",
        "poi_name": "Water Street Inn",
        "osm_id": 5863448089,
        "tourism": "hotel",
        "website": "https://waterstreetinn.us/",
        "phone": "+1-612-445-3709",
        "addr_state": "MN",
        "addr_city": "Stillwater",
        "addr_postcode": "55082",
        "addr_street": "Water Street South",
        "addr_housenumber": "101"
      }
    },
    "[4]": {
      "main_category": "tourism",
      "sub_category": "aquarium",
      "display_name": "SEA LIFE Minnesota Aquarium, Bloomington, MN",
      "geo_wkt": "POINT (-93.240076 44.854752)",
      "poi": {
        "id": 25908,
        "geometry": "POINT (-93.240076 44.854752)",
        "poi_name": "SEA LIFE Minnesota Aquarium",
        "osm_id": 5739830095,
        "description": "Sea Life at Mall of America is a public aquarium located in the Mall of America in Bloomington, Minnesota, United States. The 1.3 million-US-gallon aquarium contains thousands of aquatic creatures, including sea turtles, sharks, sawfish, stingrays, jellyf",
        "tourism": "aquarium",
        "fee": "yes",
        "opening_hours": "Mo-Th 11:00-18:00; Fr-Sa 10:00-20:00; Su 11:00-18:00",
        "operator": "Merlin Entertainments'",
        "website": "https://www.visitsealife.com/minnesota/",
        "phone": "+1-952-883-0202",
        "addr_state": "MN",
        "addr_city": "Bloomington",
        "addr_postcode": "55425",
        "addr_street": "East Broadway",
        "addr_housenumber": "120"
      }
    },
    "[1]": {
      "main_category": "amenity",
      "sub_category": "cafe"
    }
  },
  "id": 1634,
  "type": "range:towards+name"
}