{
  "question": "Where can I find a restaurant towards the southwest of New York Institute of Technology, New York, NY within 50 kilometers?",
  "sql": "\nWITH origin AS  (SELECT ST_GeomFromText('POINT (-73.983176 40.770074)',4326)::geography AS geometry)\nSELECT * FROM pois, origin\nWHERE ST_DWithin(pois.geometry, ST_GeomFromText('POINT (-73.983176 40.770074)',4326)::geography, 50000)\nAND amenity = 'restaurant'\nAND degrees(ST_Azimuth(origin.geometry, pois.geometry)) BETWEEN 202.5 AND 247.5;\n",
  "answers": [
    {
      "id": 17,
      "geometry": "POINT (-73.983176 40.770074)",
      "poi_name": "Angelina's",
      "osm_id": 411504676,
      "amenity": "restaurant",
      "cuisine": "italian",
      "tourism": "viewpoint",
      "wheelchair": "no",
      "website": "https://www.angelinasristorante.com/",
      "phone": "+1 718 227-2900",
      "addr_city": "Staten Island",
      "addr_postcode": "10312",
      "addr_street": "Ellis Street",
      "addr_housenumber": "399"
    },
    {
      "id": 27321,
      "geometry": "POINT (-73.983176 40.770074)",
      "poi_name": "Angelina's",
      "osm_id": 411504676,
      "amenity": "restaurant",
      "cuisine": "italian",
      "tourism": "viewpoint",
      "wheelchair": "no",
      "website": "https://www.angelinasristorante.com/",
      "phone": "+1 718 227-2900",
      "addr_city": "Staten Island",
      "addr_postcode": "10312",
      "addr_street": "Ellis Street",
      "addr_housenumber": "399"
    },
    {
      "id": 30154,
      "geometry": "POINT (-73.983176 40.770074)",
      "poi_name": "Tao Downtown",
      "osm_id": 8335747734,
      "amenity": "restaurant",
      "cuisine": "asian",
      "opening_hours": "17:00-22:00",
      "website": "https://taogroup.com/venues/tao-downtown-new-york/",
      "phone": "+1-212-888-2724",
      "addr_state": "NY",
      "addr_city": "New York",
      "addr_postcode": "10011",
      "addr_street": "9th Avenue",
      "addr_housenumber": "92"
    },
    {
      "id": 28846,
      "geometry": "POINT (-73.983176 40.770074)",
      "poi_name": "Pho Da Nang",
      "osm_id": 8263089701,
      "amenity": "restaurant",
      "cuisine": "vietnamese",
      "opening_hours": "Su, Tu-Th 11:00-20:30; Fr 11:00-21:00",
      "website": "http://phodanang.blogspot.com/2012/11/one-of-best-vietnamese-food-in-town.html",
      "phone": "732-727-2000",
      "addr_state": "NJ",
      "addr_city": "South Amboy",
      "addr_postcode": "08879",
      "addr_street": "U.S. Route 9 South",
      "addr_housenumber": "960"
    },
    {
      "id": 28847,
      "geometry": "POINT (-73.983176 40.770074)",
      "poi_name": "Pronto Pizza",
      "osm_id": 8263089704,
      "amenity": "restaurant",
      "cuisine": "pizza",
      "opening_hours": "Su-Fr 11:00-21:30; Sa 12:00-20:30",
      "website": "https://slicelife.com/restaurants/nj/south-amboy/08879/pronto-pizza-restaurant/menu",
      "phone": "732-316-1000",
      "addr_state": "NJ",
      "addr_city": "South Amboy",
      "addr_postcode": "08879",
      "addr_street": "U.S. Route 9 South",
      "addr_housenumber": "960"
    },
    {
      "id": 34223,
      "geometry": "POINT (-73.983176 40.770074)",
      "poi_name": "Queen of Sheba",
      "osm_id": 2698158448,
      "amenity": "restaurant",
      "cuisine": "ethiopian",
      "opening_hours": "11:30 - 23:30",
      "website": "http://shebanyc.com",
      "addr_city": "New York",
      "addr_postcode": "10036",
      "addr_street": "10th Avenue",
      "addr_housenumber": "650"
    },
    {
      "id": 32294,
      "geometry": "POINT (-73.983176 40.770074)",
      "poi_name": "44 & X",
      "osm_id": 2623550902,
      "amenity": "restaurant",
      "cuisine": "american",
      "wheelchair": "no",
      "website": "https://44andx.com/",
      "phone": "212-977-1170",
      "addr_city": "New York",
      "addr_postcode": "10036",
      "addr_street": "10th Avenue",
      "addr_housenumber": "622"
    },
    {
      "id": 32295,
      "geometry": "POINT (-73.983176 40.770074)",
      "poi_name": "The Marshal",
      "osm_id": 2623550909,
      "amenity": "restaurant",
      "cuisine": "american",
      "opening_hours": "Mo-Su 11:00-22:00",
      "website": "https://www.the-marshal.com/",
      "phone": "212-582-6300",
      "addr_city": "New York",
      "addr_postcode": "10036",
      "addr_street": "10th Avenue",
      "addr_housenumber": "628"
    },
    {
      "id": 35101,
      "geometry": "POINT (-73.983176 40.770074)",
      "poi_name": "Masseria dei Vini",
      "osm_id": 2710196317,
      "amenity": "restaurant",
      "cuisine": "italian",
      "opening_hours": "Tu-Sa 12:00-23:00; Su-Mo 12:00-22:00",
      "website": "https://masseriadeivini.com/",
      "phone": "+1-212-315-2888",
      "takeaway": "yes",
      "outdoor_seating": "yes",
      "delivery": "yes",
      "addr_state": "NY",
      "addr_city": "New York",
      "addr_postcode": "10019",
      "addr_street": "9th Avenue",
      "addr_housenumber": "887"
    },
    {
      "id": 34274,
      "geometry": "POINT (-73.983176 40.770074)",
      "poi_name": "The Flame",
      "osm_id": 2698702585,
      "amenity": "restaurant",
      "cuisine": "greek;diner",
      "wheelchair": "yes",
      "opening_hours": "24/7",
      "website": "https://www.theflamediner.com/",
      "internet_access": "no",
      "phone": "+1 212-765-7962",
      "takeaway": "yes",
      "outdoor_seating": "yes",
      "delivery": "06:00-24:00",
      "addr_state": "NY",
      "addr_city": "New York",
      "addr_postcode": "10019",
      "addr_street": "9th Avenue",
      "addr_housenumber": "893"
    },
    {
      "id": 34656,
      "geometry": "POINT (-73.983176 40.770074)",
      "poi_name": "Artichoke Basille's Pizza",
      "osm_id": 2702857188,
      "amenity": "restaurant",
      "cuisine": "italian",
      "website": "https://www.artichokepizza.com/",
      "addr_city": "New York",
      "addr_postcode": "10011",
      "addr_street": "10th Avenue",
      "addr_housenumber": "114"
    },
    {
      "id": 34845,
      "geometry": "POINT (-73.983176 40.770074)",
      "poi_name": "Mee Noodle Shop",
      "osm_id": 2705031347,
      "amenity": "restaurant",
      "cuisine": "chinese",
      "wheelchair": "yes",
      "website": "https://www.meenoodle795.com/",
      "phone": "+1-212-765-2929",
      "takeaway": "yes",
      "delivery": "yes",
      "addr_state": "NY",
      "addr_city": "New York",
      "addr_postcode": "10019",
      "addr_street": "9th Avenue",
      "addr_housenumber": "795"
    },
    {
      "id": 34846,
      "geometry": "POINT (-73.983176 40.770074)",
      "poi_name": "Norma",
      "osm_id": 2705031348,
      "amenity": "restaurant",
      "cuisine": "italian",
      "opening_hours": "Su-Th 12:00-22:00; Fr-Sa 12:00-22:30",
      "website": "https://www.normarestaurant.com/",
      "phone": "+1-212-246-6000",
      "takeaway": "yes",
      "delivery": "yes",
      "addr_state": "NY",
      "addr_city": "New York",
      "addr_postcode": "10019",
      "addr_street": "9th Avenue",
      "addr_housenumber": "801"
    },
    {
      "id": 35062,
      "geometry": "POINT (-73.983176 40.770074)",
      "poi_name": "Kochi",
      "osm_id": 2709897877,
      "amenity": "restaurant",
      "cuisine": "korean",
      "opening_hours": "17:00-24:00",
      "website": "https://kochinyc.com",
      "phone": "+1 646-478-7308",
      "addr_state": "NY",
      "addr_city": "New York",
      "addr_postcode": "10036",
      "addr_street": "10th Avenue",
      "addr_housenumber": "652"
    },
    {
      "id": 35065,
      "geometry": "POINT (-73.983176 40.770074)",
      "poi_name": "The Meatball Shop",
      "osm_id": 2709967734,
      "amenity": "restaurant",
      "cuisine": "regional",
      "wheelchair": "yes",
      "opening_hours": "Su-Th 12:00-22:00; Fr-Sa 12:00-23:00",
      "website": "https://www.themeatballshop.com/location/the-meatball-shop-hells-kitchen/",
      "phone": "+1-212-230-5860",
      "takeaway": "yes",
      "outdoor_seating": "yes",
      "delivery": "yes",
      "addr_state": "NY",
      "addr_city": "New York",
      "addr_postcode": "10019",
      "addr_street": "9th Avenue",
      "addr_housenumber": "798"
    },
    {
      "id": 35318,
      "geometry": "POINT (-73.983176 40.770074)",
      "poi_name": "Frankie and Johnie's Steakhouse",
      "osm_id": 2717293865,
      "amenity": "restaurant",
      "cuisine": "steak_house",
      "opening_hours": "Su 15:30-21:30; Tu 16:30-23:30; We-Sa 12:00-22:30, 16:30-23:30",
      "website": "https://frankieandjohnnies.com/",
      "phone": "+1 212-997-9494",
      "delivery": "no",
      "addr_city": "New York",
      "addr_postcode": "10036",
      "addr_street": "West 46th Street",
      "addr_housenumber": "320"
    },
    {
      "id": 35176,
      "geometry": "POINT (-73.983176 40.770074)",
      "poi_name": "Halifax",
      "osm_id": 2712074698,
      "amenity": "restaurant",
      "cuisine": "american",
      "addr_state": "NJ",
      "addr_city": "Hoboken",
      "addr_postcode": "07030",
      "addr_street": "River Street",
      "addr_housenumber": "225"
    },
    {
      "id": 35255,
      "geometry": "POINT (-73.983176 40.770074)",
      "poi_name": "Yakitori Torishin",
      "osm_id": 2714986490,
      "amenity": "restaurant",
      "cuisine": "japanese",
      "wheelchair": "limited",
      "opening_hours": "Tu-Su 17:00-22:00",
      "website": "https://torishinny.com",
      "phone": "+1 212-757-0108",
      "addr_city": "New York",
      "addr_postcode": "10019",
      "addr_street": "West 53rd Street",
      "addr_housenumber": "362"
    },
    {
      "id": 35256,
      "geometry": "POINT (-73.983176 40.770074)",
      "poi_name": "Alfie's",
      "osm_id": 2714986493,
      "amenity": "restaurant",
      "cuisine": "regional",
      "wheelchair": "yes",
      "phone": "+1-212-757-2390",
      "addr_state": "NY",
      "addr_city": "New York",
      "addr_postcode": "10019",
      "addr_street": "9th Avenue",
      "addr_housenumber": "800"
    },
    {
      "id": 39726,
      "geometry": "POINT (-73.983176 40.770074)",
      "poi_name": "Combos Diner",
      "osm_id": 2937656507,
      "amenity": "restaurant",
      "cuisine": "diner",
      "phone": "+1-732-661-1333",
      "addr_state": "NJ",
      "addr_city": "Edison",
      "addr_postcode": "08837",
      "addr_street": "Woodbridge Avenue",
      "addr_housenumber": "3126"
    },
    {
      "id": 40676,
      "geometry": "POINT (-73.983176 40.770074)",
      "poi_name": "Dos Caminos",
      "osm_id": 2977405748,
      "amenity": "restaurant",
      "cuisine": "mexican",
      "website": "https://www.doscaminos.com/mexican-restaurant-locations/new-york-city",
      "addr_city": "New York",
      "addr_postcode": "10014",
      "addr_street": "Hudson Street",
      "addr_housenumber": "675"
    },
    {
      "id": 40618,
      "geometry": "POINT (-73.983176 40.770074)",
      "poi_name": "Diesel & Duke",
      "osm_id": 2974468973,
      "amenity": "restaurant",
      "cuisine": "burger",
      "website": "http://www.dieselandduke.com/",
      "phone": "732-246-1001",
      "addr_city": "New Brunswick",
      "addr_postcode": "08901-1111",
      "addr_street": "Easton Avenue",
      "addr_housenumber": "139"
    },
    {
      "id": 40891,
      "geometry": "POINT (-73.983176 40.770074)",
      "poi_name": "Old Homestead Steakhouse",
      "osm_id": 2985573624,
      "amenity": "restaurant",
      "website": "https://www.theoldhomesteadsteakhouse.com/",
      "wikidata": "Q59811347",
      "addr_city": "New York",
      "addr_postcode": "10011",
      "addr_street": "9th Avenue",
      "addr_housenumber": "56"
    },
    {
      "id": 40894,
      "geometry": "POINT (-73.983176 40.770074)",
      "poi_name": "Shorty Tang Noodles",
      "osm_id": 2985673610,
      "amenity": "restaurant",
      "addr_state": "NY",
      "addr_city": "New York",
      "addr_postcode": "10011",
      "addr_street": "8th Avenue",
      "addr_housenumber": "98"
    },
    {
      "id": 40895,
      "geometry": "POINT (-73.983176 40.770074)",
      "poi_name": "Paradou",
      "osm_id": 2985849341,
      "amenity": "restaurant",
      "website": "https://www.paradounyc.com/",
      "addr_city": "New York",
      "addr_postcode": "10014",
      "addr_street": "Little West 12th Street",
      "addr_housenumber": "8"
    },
    {
      "id": 40896,
      "geometry": "POINT (-73.983176 40.770074)",
      "poi_name": "RH Rooftop Restaurant",
      "osm_id": 2985849342,
      "amenity": "restaurant",
      "cuisine": "american",
      "wheelchair": "yes",
      "opening_hours": "Mo-Sa 10:00-21:00; Su 11:00-20:00",
      "website": "https://www.restorationhardware.com",
      "phone": "+1-212-217-2210",
      "outdoor_seating": "yes",
      "addr_state": "NY",
      "addr_city": "New York",
      "addr_postcode": "10014",
      "addr_street": "9th Avenue",
      "addr_housenumber": "9"
    },
    {
      "id": 40897,
      "geometry": "POINT (-73.983176 40.770074)",
      "poi_name": "Revel",
      "osm_id": 2985849346,
      "amenity": "restaurant",
      "cuisine": "italian",
      "website": "http://www.revelnyc.com/",
      "addr_state": "NY",
      "addr_city": "New York",
      "addr_postcode": "10014",
      "addr_street": "Little West 12th Street",
      "addr_housenumber": "10"
    },
    {
      "id": 41324,
      "geometry": "POINT (-73.983176 40.770074)",
      "poi_name": "Spice Palace",
      "osm_id": 3010510185,
      "amenity": "restaurant",
      "cuisine": "indian",
      "opening_hours": "Mo-Su 11:00-22:00",
      "capacity": "50",
      "addr_city": "south plainfield",
      "addr_postcode": "07080",
      "addr_street": "Durham Avenue",
      "addr_housenumber": "112"
    },
    {
      "id": 44755,
      "geometry": "POINT (-73.983176 40.770074)",
      "poi_name": "Mulberry House Restaurant",
      "osm_id": 3174502461,
      "amenity": "restaurant",
      "cuisine": "tea",
      "website": "https://www.mulberryhouserestaurant.com/",
      "phone": "9082333562",
      "addr_city": "Westfield",
      "addr_postcode": "07090",
      "addr_street": "Westfield Avenue",
      "addr_housenumber": "415"
    },
    {
      "id": 43630,
      "geometry": "POINT (-73.983176 40.770074)",
      "poi_name": "Keyport Pizza",
      "osm_id": 3124449044,
      "amenity": "restaurant",
      "cuisine": "italian",
      "phone": "(732) 264-2667",
      "addr_city": "Keyport",
      "addr_postcode": "07735",
      "addr_street": "West Front Street",
      "addr_housenumber": "42"
    },
    {
      "id": 43631,
      "geometry": "POINT (-73.983176 40.770074)",
      "poi_name": "Uncle Louie G - Italian Ice & Ice Cream",
      "osm_id": 3124449045,
      "amenity": "restaurant",
      "cuisine": "ice_cream",
      "website": "https://www.facebook.com/pages/Uncle-Louie-G-Keyport/178700198926231",
      "phone": "(732) 497-0430",
      "addr_city": "Keyport",
      "addr_postcode": "07735",
      "addr_street": "West Front Street",
      "addr_housenumber": "46"
    },
    {
      "id": 43633,
      "geometry": "POINT (-73.983176 40.770074)",
      "poi_name": "Keyport Fishery",
      "osm_id": 3124449088,
      "amenity": "restaurant",
      "cuisine": "seafood",
      "addr_city": "Keyport",
      "addr_postcode": "07735",
      "addr_street": "West Front Street",
      "addr_housenumber": "150"
    },
    {
      "id": 43634,
      "geometry": "POINT (-73.983176 40.770074)",
      "poi_name": "Yellow Rose Diner",
      "osm_id": 3124449104,
      "amenity": "restaurant",
      "website": "https://www.yellowrosediner.com/",
      "phone": "(732) 739-2828",
      "addr_city": "Keyport",
      "addr_postcode": "07735",
      "addr_street": "NJ Route 36",
      "addr_housenumber": "41"
    },
    {
      "id": 43635,
      "geometry": "POINT (-73.983176 40.770074)",
      "poi_name": "Town & Country Inn",
      "osm_id": 3124474936,
      "amenity": "restaurant",
      "website": "http://www.townandcountryinn-nj.com/",
      "phone": "(732) 264-6820",
      "addr_city": "Keyport",
      "addr_postcode": "07735",
      "addr_street": "Route 35",
      "addr_housenumber": "48"
    },
    {
      "id": 43638,
      "geometry": "POINT (-73.983176 40.770074)",
      "poi_name": "El Pollo Y La Oaxaquena Retaurant",
      "osm_id": 3124657880,
      "amenity": "restaurant",
      "cuisine": "mexican",
      "phone": "(732) 888-0042",
      "addr_city": "Keyport",
      "addr_postcode": "07735",
      "addr_street": "Maple Place",
      "addr_housenumber": "649C"
    },
    {
      "id": 43660,
      "geometry": "POINT (-73.983176 40.770074)",
      "poi_name": "Drew's Bayshore Bistro",
      "osm_id": 3125909374,
      "amenity": "restaurant",
      "website": "http://www.bayshorebistro.com/",
      "phone": "732-739-9219",
      "addr_city": "Keyport",
      "addr_postcode": "07735",
      "addr_street": "Church Street",
      "addr_housenumber": "25"
    },
    {
      "id": 43805,
      "geometry": "POINT (-73.983176 40.770074)",
      "poi_name": "Garibaldi Mexican Restaurant",
      "osm_id": 3132331322,
      "amenity": "restaurant",
      "cuisine": "mexican",
      "phone": "(732) 335-8338",
      "addr_city": "Keyport",
      "addr_postcode": "07735",
      "addr_street": "East Front Street",
      "addr_housenumber": "34"
    },
    {
      "id": 44756,
      "geometry": "POINT (-73.983176 40.770074)",
      "poi_name": "Ahrre's Coffee Roastery",
      "osm_id": 3174502462,
      "amenity": "restaurant",
      "cuisine": "coffee",
      "addr_city": "Westfield",
      "addr_street": "Elm Street",
      "addr_housenumber": "104"
    },
    {
      "id": 50401,
      "geometry": "POINT (-73.983176 40.770074)",
      "poi_name": "China Star",
      "osm_id": 3482647730,
      "amenity": "restaurant",
      "cuisine": "chinese",
      "opening_hours": "10:00-22:00",
      "addr_state": "NJ",
      "addr_city": "Edison",
      "addr_postcode": "08817",
      "addr_street": "U.S. 1",
      "addr_housenumber": "561"
    },
    {
      "id": 50402,
      "geometry": "POINT (-73.983176 40.770074)",
      "poi_name": "Bubble Yogurt",
      "osm_id": 3482647731,
      "amenity": "restaurant",
      "cuisine": "frozen_yogurt",
      "opening_hours": "11:30-22:00",
      "takeaway": "yes",
      "delivery": "no",
      "addr_state": "NJ",
      "addr_city": "Edison",
      "addr_postcode": "08817",
      "addr_street": "U.S. 1",
      "addr_housenumber": "561"
    },
    {
      "id": 50403,
      "geometry": "POINT (-73.983176 40.770074)",
      "poi_name": "Attilio's Pizza & Restaurant",
      "osm_id": 3482647732,
      "amenity": "restaurant",
      "cuisine": "pizza",
      "opening_hours": "11:00-22:00",
      "takeaway": "yes",
      "delivery": "yes",
      "addr_state": "NJ",
      "addr_city": "Edison",
      "addr_postcode": "08817",
      "addr_street": "U.S. 1",
      "addr_housenumber": "561"
    },
    {
      "id": 50404,
      "geometry": "POINT (-73.983176 40.770074)",
      "poi_name": "Le Peep",
      "osm_id": 3482647733,
      "amenity": "restaurant",
      "cuisine": "breakfast",
      "opening_hours": "07:00-14:30",
      "addr_state": "NJ",
      "addr_city": "Edison",
      "addr_postcode": "08817",
      "addr_street": "U.S. 1",
      "addr_housenumber": "561"
    },
    {
      "id": 52799,
      "geometry": "POINT (-73.983176 40.770074)",
      "poi_name": "Famiglia Bistro Pizzeria",
      "osm_id": 10048569718,
      "amenity": "restaurant",
      "cuisine": "pizza",
      "opening_hours": "Mo-Su 11:00-22:00",
      "website": "https://famigliabistropizzeria.com/",
      "phone": "7329706900",
      "delivery": "yes",
      "addr_state": "NJ",
      "addr_city": "Matawan",
      "addr_postcode": "07747",
      "addr_street": "Morristown Rd",
      "addr_housenumber": "4"
    },
    {
      "id": 53152,
      "geometry": "POINT (-73.983176 40.770074)",
      "poi_name": "China Star",
      "osm_id": 10067106609,
      "amenity": "restaurant",
      "cuisine": "chinese",
      "phone": "732-828-2988",
      "addr_state": "NJ",
      "addr_city": "Highland Park",
      "addr_postcode": "08904",
      "addr_street": "Raritan Avenue",
      "addr_housenumber": "75"
    },
    {
      "id": 53155,
      "geometry": "POINT (-73.983176 40.770074)",
      "poi_name": "Dish Cafe",
      "osm_id": 10067195409,
      "amenity": "restaurant",
      "phone": "732-828-8804",
      "addr_state": "NJ",
      "addr_city": "Highland Park",
      "addr_postcode": "08904",
      "addr_street": "Raritan Avenue",
      "addr_housenumber": "327"
    },
    {
      "id": 53156,
      "geometry": "POINT (-73.983176 40.770074)",
      "poi_name": "Coco Malaysian & Thai Cuisine",
      "osm_id": 10067360818,
      "amenity": "restaurant",
      "cuisine": "asian;malaysian;thai",
      "opening_hours": "Mo-Su 11:00-21:00",
      "website": "https://www.cocoasiancuisine.com/",
      "phone": "732-777-1300",
      "addr_state": "NJ",
      "addr_city": "Edison",
      "addr_postcode": "08817",
      "addr_street": "Lincoln Highway",
      "addr_housenumber": "1803"
    },
    {
      "id": 53157,
      "geometry": "POINT (-73.983176 40.770074)",
      "poi_name": "La Bagel",
      "osm_id": 10067360819,
      "amenity": "restaurant",
      "cuisine": "bagel",
      "website": "https://www.labagel.net/",
      "phone": "732-339-1333",
      "addr_state": "NJ",
      "addr_city": "Edison",
      "addr_postcode": "08817",
      "addr_street": "Lincoln Highway",
      "addr_housenumber": "1791"
    },
    {
      "id": 53158,
      "geometry": "POINT (-73.983176 40.770074)",
      "poi_name": "Dun Huang",
      "osm_id": 10067372169,
      "amenity": "restaurant",
      "cuisine": "noodle;chinese",
      "website": "https://www.dunhuangfood.com/",
      "addr_state": "NJ",
      "addr_city": "Edison",
      "addr_postcode": "08817",
      "addr_street": "NJ-27",
      "addr_housenumber": "1717"
    },
    {
      "id": 53159,
      "geometry": "POINT (-73.983176 40.770074)",
      "poi_name": "Tasty Moment",
      "osm_id": 10067372170,
      "amenity": "restaurant",
      "cuisine": "chinese",
      "website": "http://www.tastymoment1711.com/",
      "phone": "732-650-0888",
      "addr_state": "NJ",
      "addr_city": "Edison",
      "addr_postcode": "08817",
      "addr_street": "Route 27",
      "addr_housenumber": "1711"
    },
    {
      "id": 53160,
      "geometry": "POINT (-73.983176 40.770074)",
      "poi_name": "Meet Fresh",
      "osm_id": 10067372172,
      "amenity": "restaurant",
      "cuisine": "taiwanese",
      "website": "https://meetfresh.us/",
      "phone": "732-339-8001",
      "addr_state": "NJ",
      "addr_city": "Edison",
      "addr_postcode": "08817",
      "addr_street": "Route 27",
      "addr_housenumber": "1727"
    },
    {
      "id": 53404,
      "geometry": "POINT (-73.983176 40.770074)",
      "poi_name": "Skinner's Loft",
      "osm_id": 10078963998,
      "amenity": "restaurant",
      "addr_city": "Jersey City",
      "addr_postcode": "07302",
      "addr_street": "Newark Avenue",
      "addr_housenumber": "146"
    },
    {
      "id": 53405,
      "geometry": "POINT (-73.983176 40.770074)",
      "poi_name": "Little Sandwich Shop",
      "osm_id": 10078964003,
      "amenity": "restaurant",
      "cuisine": "sandwich",
      "website": "http://littlesandwichshopjerseycity.com/",
      "capacity": "10",
      "phone": "+1-201-435-1919",
      "addr_city": "Jersey City",
      "addr_postcode": "07302",
      "addr_street": "Grove Street",
      "addr_housenumber": "333"
    },
    {
      "id": 53407,
      "geometry": "POINT (-73.983176 40.770074)",
      "poi_name": "Roman Nose",
      "osm_id": 10078964006,
      "amenity": "restaurant",
      "cuisine": "italian",
      "wheelchair": "yes",
      "opening_hours": "Tu-Fr 12:00-22:00",
      "website": "https://www.romannosejc.com/",
      "phone": "+1 201 3602176",
      "outdoor_seating": "yes",
      "addr_state": "NJ",
      "addr_city": "Jersey City",
      "addr_postcode": "07302",
      "addr_street": "Newark Avenue",
      "addr_housenumber": "125"
    },
    {
      "id": 53408,
      "geometry": "POINT (-73.983176 40.770074)",
      "poi_name": "Two Boots Pizza",
      "osm_id": 10078964009,
      "amenity": "restaurant",
      "cuisine": "pizza",
      "wheelchair": "yes",
      "opening_hours": "Fr-Sa 11:30-03:30; Su-Th 11:30-00:00",
      "internet_access": "wlan",
      "phone": "+1-201-209-1250",
      "toilets": "yes",
      "addr_state": "NJ",
      "addr_city": "Jersey City",
      "addr_postcode": "07302",
      "addr_street": "Newark Avenue",
      "addr_housenumber": "133"
    },
    {
      "id": 53409,
      "geometry": "POINT (-73.983176 40.770074)",
      "poi_name": "One Dee Siam",
      "osm_id": 10078964011,
      "amenity": "restaurant",
      "cuisine": "thai",
      "opening_hours": "11:30-15:00,16:00-22:00; Fr,Sa 11:30-15:00,16:00-22:30",
      "website": "https://www.onedeesiam.com",
      "phone": "+1-201-685-7268;+1-201-706-3165",
      "addr_state": "NJ",
      "addr_city": "Jersey City",
      "addr_postcode": "07302",
      "addr_street": "Newark Avenue",
      "addr_housenumber": "137"
    },
    {
      "id": 53410,
      "geometry": "POINT (-73.983176 40.770074)",
      "poi_name": "The Ashford",
      "osm_id": 10078964012,
      "amenity": "restaurant",
      "website": "https://www.theashfordjc.com/",
      "outdoor_seating": "yes",
      "addr_state": "NJ",
      "addr_city": "Jersey City",
      "addr_postcode": "07302",
      "addr_street": "Newark Avenue",
      "addr_housenumber": "145"
    },
    {
      "id": 53411,
      "geometry": "POINT (-73.983176 40.770074)",
      "poi_name": "South House",
      "osm_id": 10078964013,
      "amenity": "restaurant",
      "cuisine": "american",
      "addr_state": "NJ",
      "addr_city": "Jersey City",
      "addr_postcode": "07302",
      "addr_street": "Newark Avenue"
    },
    {
      "id": 53852,
      "geometry": "POINT (-73.983176 40.770074)",
      "poi_name": "Pizza Pie La Cantina Italiana",
      "osm_id": 10101217081,
      "amenity": "restaurant",
      "cuisine": "pizza",
      "addr_state": "NJ",
      "addr_city": "Jersey City",
      "addr_postcode": "07302",
      "addr_street": "Greene Street",
      "addr_housenumber": "101"
    },
    {
      "id": 53697,
      "geometry": "POINT (-73.983176 40.770074)",
      "poi_name": "The Crab General",
      "osm_id": 10091105066,
      "amenity": "restaurant",
      "cuisine": "seafood",
      "website": "http://www.thecrabgeneral.com/",
      "phone": "+1 (732) 366-4035",
      "addr_state": "NJ",
      "addr_city": "Carteret",
      "addr_postcode": "07008",
      "addr_street": "Roosevelt Avenue",
      "addr_housenumber": "795"
    },
    {
      "id": 53698,
      "geometry": "POINT (-73.983176 40.770074)",
      "poi_name": "Bus Stop Diner",
      "osm_id": 10091105067,
      "amenity": "restaurant",
      "addr_state": "NJ",
      "addr_city": "Carteret",
      "addr_postcode": "07008",
      "addr_street": "Roosevelt Avenue",
      "addr_housenumber": "793"
    },
    {
      "id": 53699,
      "geometry": "POINT (-73.983176 40.770074)",
      "poi_name": "Khalsa Sweet House",
      "osm_id": 10091105069,
      "amenity": "restaurant",
      "cuisine": "indian",
      "addr_state": "NJ",
      "addr_city": "Carteret",
      "addr_postcode": "07008",
      "addr_street": "Roosevelt Avenue",
      "addr_housenumber": "783"
    },
    {
      "id": 54731,
      "geometry": "POINT (-73.983176 40.770074)",
      "poi_name": "Alessio's Cafe",
      "osm_id": 10151684347,
      "amenity": "restaurant",
      "cuisine": "pizza;coffee_shop",
      "addr_state": "NJ",
      "addr_city": "Hoboken",
      "addr_postcode": "07030",
      "addr_street": "Park Avenue",
      "addr_housenumber": "539"
    },
    {
      "id": 55558,
      "geometry": "POINT (-73.983176 40.770074)",
      "poi_name": "Pacific Pizza",
      "osm_id": 10197980963,
      "amenity": "restaurant",
      "cuisine": "pizza",
      "addr_state": "NJ",
      "addr_city": "Jersey City",
      "addr_street": "Pacific Avenue",
      "addr_housenumber": "303"
    },
    {
      "id": 56081,
      "geometry": "POINT (-73.983176 40.770074)",
      "poi_name": "Tim Ho Wan",
      "osm_id": 10224009800,
      "amenity": "restaurant",
      "cuisine": "cantonese;dumplings",
      "opening_hours": "Mo,Tu 11:00-19:30; We-Fr 11:00-20:00; Sa 10:00-20:00; Su 10:00-19:30",
      "website": "https://timhowanusa.com/locations/#hells-kitchen",
      "phone": "+1-212-228-2802",
      "addr_state": "NY",
      "addr_city": "New York",
      "addr_postcode": "10036",
      "addr_street": "9th Avenue",
      "addr_housenumber": "610"
    },
    {
      "id": 55867,
      "geometry": "POINT (-73.983176 40.770074)",
      "poi_name": "Gabriele's Bar & Grill",
      "osm_id": 10211543046,
      "amenity": "restaurant",
      "opening_hours": "Tu-We 15:00-23:00, Th-Sa 12:00-00:00, Su 12:00-22:00",
      "website": "https://gabrielesbarandgrill.com",
      "phone": "+1-732-981-1234",
      "addr_state": "NJ",
      "addr_city": "Piscataway",
      "addr_postcode": "08854",
      "addr_street": "Centennial Avenue",
      "addr_housenumber": "1351"
    },
    {
      "id": 56543,
      "geometry": "POINT (-73.983176 40.770074)",
      "poi_name": "IHOP",
      "osm_id": 10240451983,
      "amenity": "restaurant",
      "cuisine": "breakfast;pancake",
      "addr_state": "NJ",
      "addr_city": "North Plainfield",
      "addr_postcode": "07060",
      "addr_street": "Route 22",
      "addr_housenumber": "1120"
    },
    {
      "id": 56544,
      "geometry": "POINT (-73.983176 40.770074)",
      "poi_name": "Texas Roadhouse",
      "osm_id": 10240451990,
      "amenity": "restaurant",
      "cuisine": "steak_house",
      "addr_state": "NJ",
      "addr_city": "North Plainfield",
      "addr_postcode": "07060",
      "addr_street": "Route 22",
      "addr_housenumber": "1258"
    },
    {
      "id": 56914,
      "geometry": "POINT (-73.983176 40.770074)",
      "poi_name": "Lorenzo's Restaurant, Bar & Cabaret",
      "osm_id": 10252473109,
      "amenity": "restaurant",
      "cuisine": "italian",
      "website": "https://lorenzosdining.com",
      "addr_state": "NY",
      "addr_city": "Staten Island",
      "addr_postcode": "10314",
      "addr_street": "South Avenue",
      "addr_housenumber": "1100"
    },
    {
      "id": 57887,
      "geometry": "POINT (-73.983176 40.770074)",
      "poi_name": "The Kitchen Step",
      "osm_id": 5355100449,
      "amenity": "restaurant",
      "website": "https://www.kitchenstepjc.com/",
      "phone": "+1 2017216115",
      "takeaway": "yes",
      "outdoor_seating": "yes",
      "addr_state": "NJ",
      "addr_city": "Jersey City",
      "addr_postcode": "07302",
      "addr_street": "Jersey Avenue",
      "addr_housenumber": "500"
    },
    {
      "id": 57789,
      "geometry": "POINT (-73.983176 40.770074)",
      "poi_name": "La Isla",
      "osm_id": 5351840832,
      "amenity": "restaurant",
      "cuisine": "cuban",
      "opening_hours": "Mo 17:00-22:00; Tu-Sa 08:00-16:00,17:00-22:00; Su 10:00-16:00,17:00-21:00",
      "website": "https://newamericanrestauranthoboken.com/",
      "phone": "+1-201-659-6090",
      "takeaway": "yes",
      "outdoor_seating": "no",
      "delivery": "yes",
      "addr_state": "NJ",
      "addr_city": "Hoboken",
      "addr_postcode": "07030",
      "addr_street": "12th Street",
      "addr_housenumber": "25"
    },
    {
      "id": 58295,
      "geometry": "POINT (-73.983176 40.770074)",
      "poi_name": "UFC Chicken",
      "osm_id": 5369797599,
      "amenity": "restaurant",
      "cuisine": "chicken;korean;fried_chicken",
      "description": "Korean Fried Chicken & Craft Beer",
      "opening_hours": "Mo-Sa 12:00-23:00; Su 12:00-22:00",
      "website": "https://www.ufchicken.com/",
      "phone": "+1 646-422-7451",
      "takeaway": "yes",
      "delivery": "yes",
      "addr_state": "NY",
      "addr_city": "New York",
      "addr_postcode": "10018",
      "addr_street": "9th Avenue",
      "addr_housenumber": "528"
    },
    {
      "id": 61820,
      "geometry": "POINT (-73.983176 40.770074)",
      "poi_name": "Del Posto",
      "osm_id": 5538175004,
      "amenity": "restaurant",
      "cuisine": "italian",
      "website": "https://delposto.com",
      "phone": "+1-212-497-8090",
      "outdoor_seating": "no",
      "addr_state": "NY",
      "addr_city": "New York",
      "addr_postcode": "10011",
      "addr_street": "10th Avenue",
      "addr_housenumber": "85"
    },
    {
      "id": 61621,
      "geometry": "POINT (-73.983176 40.770074)",
      "poi_name": "City Vineyard",
      "osm_id": 5527575303,
      "amenity": "restaurant",
      "wheelchair": "yes",
      "addr_city": "New York"
    },
    {
      "id": 63758,
      "geometry": "POINT (-73.983176 40.770074)",
      "poi_name": "Westville",
      "osm_id": 5628928424,
      "amenity": "restaurant",
      "cuisine": "american",
      "opening_hours": "Mo-Fr 11:30-15:00, 17:00-21:30; Sa-Su 10:00-16:00, 17:00-21:30",
      "website": "https://westvillenyc.com/locations/westville-hudson/",
      "phone": "+1-212-776-1404",
      "addr_state": "NY",
      "addr_city": "New York",
      "addr_postcode": "10013",
      "addr_street": "Hudson Street",
      "addr_housenumber": "333"
    },
    {
      "id": 65547,
      "geometry": "POINT (-73.983176 40.770074)",
      "poi_name": "Napoli's",
      "osm_id": 5701113243,
      "amenity": "restaurant",
      "cuisine": "pizza",
      "opening_hours": "11:30-23:00; Fr,Sa 11:30-00:00",
      "website": "https://napolishobokenpizza.com/",
      "phone": "+1 (201) 216-0900",
      "takeaway": "yes",
      "addr_state": "NJ",
      "addr_city": "Hoboken",
      "addr_postcode": "07030",
      "addr_street": "Washington Street",
      "addr_housenumber": "1118"
    },
    {
      "id": 64170,
      "geometry": "POINT (-73.983176 40.770074)",
      "poi_name": "Marie's Gourmet",
      "osm_id": 5642860018,
      "amenity": "restaurant",
      "cuisine": "italian",
      "opening_hours": "Mo-Fr 09:00-20:00; Sa 10:00-22:00, Su 10:00-18:00",
      "website": "https://mariesgourmet.com",
      "phone": "718-981-4664",
      "addr_state": "NY",
      "addr_city": "Staten Island",
      "addr_postcode": "10301",
      "addr_street": "Hyatt Street",
      "addr_housenumber": "5"
    },
    {
      "id": 65549,
      "geometry": "POINT (-73.983176 40.770074)",
      "poi_name": "Margherita's Pizza & Cafe",
      "osm_id": 5701113246,
      "amenity": "restaurant",
      "cuisine": "italian_pizza;italian",
      "opening_hours": "Tu-Sa 11:30-22:00; Su 12:00-22:00",
      "website": "https://margheritasrestauranthoboken.com/",
      "phone": "+1-201-222-2400",
      "outdoor_seating": "yes",
      "addr_state": "NJ",
      "addr_city": "Hoboken",
      "addr_postcode": "07030",
      "addr_street": "Washington Street",
      "addr_housenumber": "740"
    },
    {
      "id": 66380,
      "geometry": "POINT (-73.983176 40.770074)",
      "poi_name": "Taqueria on Tenth",
      "osm_id": 11191819310,
      "amenity": "restaurant",
      "cuisine": "mexican",
      "opening_hours": "Mo-Tu 15:00-22:00; We-Fr 15:00-23:00; Sa 12:00-23:00; Su 12:00-20:00",
      "website": "https://www.taqueriaontenth.com/",
      "phone": "+1-646-370-5772",
      "outdoor_seating": "yes",
      "toilets": "yes",
      "addr_state": "NY",
      "addr_city": "New York",
      "addr_postcode": "10001",
      "addr_street": "10th Avenue",
      "addr_housenumber": "313"
    },
    {
      "id": 66418,
      "geometry": "POINT (-73.983176 40.770074)",
      "poi_name": "Creamline",
      "osm_id": 11194260847,
      "amenity": "restaurant",
      "cuisine": "american;burger",
      "opening_hours": "Mo-Su 11:00-19:00",
      "website": "https://www.creamlinenyc.com/gotham-west-market",
      "internet_access": "wlan",
      "phone": "+1-607-566-7691",
      "addr_state": "NY",
      "addr_city": "New York",
      "addr_postcode": "10011",
      "addr_street": "11th Avenue",
      "addr_housenumber": "600"
    },
    {
      "id": 68697,
      "geometry": "POINT (-73.983176 40.770074)",
      "poi_name": "Two Son's Pizzeria",
      "osm_id": 11281880369,
      "amenity": "restaurant",
      "cuisine": "pizza",
      "addr_state": "NJ",
      "addr_city": "Bayonne",
      "addr_street": "Broadway",
      "addr_housenumber": "582"
    },
    {
      "id": 66739,
      "geometry": "POINT (-73.983176 40.770074)",
      "poi_name": "Gilda Nutrition",
      "osm_id": 11209075411,
      "amenity": "restaurant",
      "opening_hours": "Mo-Fr 06:30-20:00; Sa 08:00-20:00; Su closed",
      "website": "https://linktr.ee/gildanutritionnj",
      "phone": "+1 908-344-6087",
      "addr_state": "NJ",
      "addr_city": "Elizabeth",
      "addr_postcode": "07202",
      "addr_street": "Summer Street",
      "addr_housenumber": "715"
    },
    {
      "id": 67159,
      "geometry": "POINT (-73.983176 40.770074)",
      "poi_name": "Tasty Hand-pulled Noodles II",
      "osm_id": 11225778137,
      "amenity": "restaurant",
      "cuisine": "chinese",
      "opening_hours": "Mo-Su 11:30-22:30",
      "website": "https://order.tastyhand-pullednoodles2food.com/",
      "phone": "+1-917-388-2351",
      "addr_state": "NY",
      "addr_city": "New York",
      "addr_postcode": "10036",
      "addr_street": "9th Avenue",
      "addr_housenumber": "648"
    },
    {
      "id": 69720,
      "geometry": "POINT (-73.983176 40.770074)",
      "poi_name": "Orale Mexican Kitchen",
      "osm_id": 11329460345,
      "amenity": "restaurant",
      "cuisine": "mexican",
      "opening_hours": "Tu-Fr 15:00-22:00; Sa 12:00-22:00; Su 12:00-21:00",
      "website": "https://oralemk.com/hoboken-nj-mexican-restaurant/",
      "phone": "+1-201-942-3937",
      "takeaway": "yes",
      "outdoor_seating": "no",
      "delivery": "yes",
      "toilets": "customers",
      "addr_state": "NJ",
      "addr_city": "Hoboken",
      "addr_postcode": "07030",
      "addr_street": "Willow Avenue",
      "addr_housenumber": "1426"
    },
    {
      "id": 73715,
      "geometry": "POINT (-73.983176 40.770074)",
      "poi_name": "Sip Pizza",
      "osm_id": 9651965537,
      "amenity": "restaurant",
      "cuisine": "pizza",
      "addr_state": "NJ",
      "addr_city": "Jersey City",
      "addr_postcode": "07306",
      "addr_street": "Sip Avenue",
      "addr_housenumber": "60"
    },
    {
      "id": 73505,
      "geometry": "POINT (-73.983176 40.770074)",
      "poi_name": "Elzaeem",
      "osm_id": 9641761322,
      "amenity": "restaurant",
      "cuisine": "pizza",
      "addr_state": "NJ",
      "addr_city": "Jersey City",
      "addr_postcode": "07306",
      "addr_street": "Bergen Avenue",
      "addr_housenumber": "905"
    },
    {
      "id": 73784,
      "geometry": "POINT (-73.983176 40.770074)",
      "poi_name": "Krispy Pizza",
      "osm_id": 9654087803,
      "amenity": "restaurant",
      "cuisine": "pizza",
      "opening_hours": "Mo-Th 10:30-21:00; Fr 10:30-22:00; Sa,Su 11:30-21:00",
      "website": "https://krispypizza.com/",
      "phone": "+1-201-685-7313",
      "drive_through": "no",
      "addr_state": "NJ",
      "addr_city": "Jersey City",
      "addr_postcode": "07302",
      "addr_street": "Hudson Street",
      "addr_housenumber": "33"
    },
    {
      "id": 73785,
      "geometry": "POINT (-73.983176 40.770074)",
      "poi_name": "Yaso",
      "osm_id": 9654087804,
      "amenity": "restaurant",
      "cuisine": "asian",
      "opening_hours": "11:00-21:00",
      "website": "https://www.yasotangbao.com/",
      "phone": "+1-201-360-2115",
      "addr_state": "NJ",
      "addr_city": "Jersey City",
      "addr_postcode": "07302",
      "addr_street": "Hudson Street",
      "addr_housenumber": "30"
    },
    {
      "id": 73202,
      "geometry": "POINT (-73.983176 40.770074)",
      "poi_name": "Fresh 99 cents pizza",
      "osm_id": 9615063330,
      "amenity": "restaurant",
      "cuisine": "pizza",
      "addr_state": "NY",
      "addr_city": "New York",
      "addr_postcode": "10011",
      "addr_street": "West 14th Street"
    },
    {
      "id": 73203,
      "geometry": "POINT (-73.983176 40.770074)",
      "poi_name": "Rizzo Bakery & Pizzeria",
      "osm_id": 9615087389,
      "amenity": "restaurant",
      "cuisine": "pizza",
      "addr_state": "NJ",
      "addr_city": "Jersey City",
      "addr_postcode": "07307",
      "addr_street": "Central Avenue"
    },
    {
      "id": 73204,
      "geometry": "POINT (-73.983176 40.770074)",
      "poi_name": "Zazzy's Pizza",
      "osm_id": 9615093450,
      "amenity": "restaurant",
      "cuisine": "pizza",
      "addr_state": "NY",
      "addr_city": "New York",
      "addr_postcode": "10014",
      "addr_street": "Greenwich Avenue",
      "addr_housenumber": "73"
    },
    {
      "id": 74220,
      "geometry": "POINT (-73.983176 40.770074)",
      "poi_name": "Claudio\u2019s Pizza & Pasta",
      "osm_id": 9670997117,
      "amenity": "restaurant",
      "cuisine": "pizza",
      "opening_hours": "Mo-Su 10:45-22:30",
      "website": "https://claudiospizza10thave.com/",
      "phone": "+1-212-586-3145",
      "takeaway": "yes",
      "delivery": "yes",
      "addr_state": "NY",
      "addr_city": "New York",
      "addr_postcode": "10036",
      "addr_street": "10th Avenue",
      "addr_housenumber": "598"
    },
    {
      "id": 76448,
      "geometry": "POINT (-73.983176 40.770074)",
      "poi_name": "Sacco Pizza",
      "osm_id": 9777569218,
      "amenity": "restaurant",
      "cuisine": "pizza",
      "opening_hours": "Mo-Sa 11:00-23:00; Su 11:00-22:00",
      "website": "http://www.saccopizza.com/",
      "phone": "+1-210-899-7272",
      "addr_state": "NY",
      "addr_city": "New York",
      "addr_postcode": "10019",
      "addr_street": "9th Avenue",
      "addr_housenumber": "819"
    },
    {
      "id": 77176,
      "geometry": "POINT (-73.983176 40.770074)",
      "poi_name": "Nagoya",
      "osm_id": 9809974391,
      "amenity": "restaurant",
      "cuisine": "japanese",
      "addr_state": "NJ",
      "addr_city": "Westfield",
      "addr_postcode": "07090",
      "addr_street": "North Avenue East",
      "addr_housenumber": "278"
    },
    {
      "id": 77307,
      "geometry": "POINT (-73.983176 40.770074)",
      "poi_name": "Pompei Pizza",
      "osm_id": 9815626469,
      "amenity": "restaurant",
      "cuisine": "pizza",
      "addr_state": "NJ",
      "addr_city": "Jersey City",
      "addr_street": "West Side Avenue",
      "addr_housenumber": "722"
    },
    {
      "id": 77605,
      "geometry": "POINT (-73.983176 40.770074)",
      "poi_name": "Blue",
      "osm_id": 702331964,
      "amenity": "restaurant",
      "cuisine": "mediterranean;american",
      "opening_hours": "Su 12:00-21:00, Mo closed, Tu-Th 12:00-22:00, Fr-Sa 12:00-23:00",
      "website": "https://www.bluerestaurantnyc.com/",
      "phone": "(718) 273-7777",
      "addr_state": "NY",
      "addr_city": "Staten Island",
      "addr_postcode": "10310",
      "addr_street": "Richmond Terrace",
      "addr_housenumber": "1115"
    },
    {
      "id": 79204,
      "geometry": "POINT (-73.983176 40.770074)",
      "poi_name": "Applebee's",
      "osm_id": 782913506,
      "amenity": "restaurant",
      "cuisine": "american",
      "official_name": "Applebee's Neighborhood Grill & Bar",
      "addr_state": "NJ",
      "addr_street": "Centennial Ave",
      "addr_housenumber": "1282"
    },
    {
      "id": 82282,
      "geometry": "POINT (-73.983176 40.770074)",
      "poi_name": "Little Ruby\u2019s Cafe",
      "osm_id": 1691452282,
      "amenity": "restaurant",
      "website": "https://www.rubyscafe.com/location/west-village/",
      "addr_state": "NY",
      "addr_city": "New York",
      "addr_postcode": "10014",
      "addr_street": "West 4th Street",
      "addr_housenumber": "225"
    },
    {
      "id": 85511,
      "geometry": "POINT (-73.983176 40.770074)",
      "poi_name": "5 Napkin Burger",
      "osm_id": 1873813860,
      "amenity": "restaurant",
      "cuisine": "burger",
      "opening_hours": "Mo-Fr 11:30-24:00; Sa-Su 11:00-24:00",
      "website": "https://5napkinburger.com/locations/hells-kitchen/",
      "phone": "+1 212 757 2277",
      "addr_state": "NY",
      "addr_city": "New York",
      "addr_postcode": "10036",
      "addr_street": "9th Avenue",
      "addr_housenumber": "630"
    },
    {
      "id": 85512,
      "geometry": "POINT (-73.983176 40.770074)",
      "poi_name": "Gallo Nero",
      "osm_id": 1873813883,
      "amenity": "restaurant",
      "cuisine": "italian",
      "addr_state": "NY",
      "addr_city": "New York",
      "addr_postcode": "10036",
      "addr_street": "9th Avenue",
      "addr_housenumber": "623"
    },
    {
      "id": 86115,
      "geometry": "POINT (-73.983176 40.770074)",
      "poi_name": "Mercato",
      "osm_id": 1916532788,
      "amenity": "restaurant",
      "cuisine": "italian",
      "opening_hours": "Mo-Su 11:30-00:00",
      "website": "https://mercatonyc.com/",
      "phone": "+1-212-643-2000",
      "takeaway": "yes",
      "addr_city": "New York",
      "addr_postcode": "10018",
      "addr_street": "West 39th Street",
      "addr_housenumber": "352"
    },
    {
      "id": 90195,
      "geometry": "POINT (-73.983176 40.770074)",
      "poi_name": "Salt Seafood & Oyster Bar",
      "osm_id": 1982192262,
      "amenity": "restaurant",
      "cuisine": "italian",
      "website": "https://panicosrestaurant.com/restaurant/",
      "phone": "+1-732-545-6100",
      "addr_state": "NJ",
      "addr_city": "New Brunswick",
      "addr_postcode": "08901",
      "addr_street": "Church Street",
      "addr_housenumber": "103"
    },
    {
      "id": 89497,
      "geometry": "POINT (-73.983176 40.770074)",
      "poi_name": "Efe's Mediterranean Grill",
      "osm_id": 8849017763,
      "amenity": "restaurant",
      "cuisine": "mediterranean",
      "opening_hours": "Mo-Su 11:00-22:00",
      "website": "https://efesgrill.com/",
      "phone": "732 249 4100",
      "addr_state": "NJ",
      "addr_city": "New Brunswick",
      "addr_postcode": "08901-1282",
      "addr_street": "Easton Avenue",
      "addr_housenumber": "32"
    },
    {
      "id": 89498,
      "geometry": "POINT (-73.983176 40.770074)",
      "poi_name": "East Hana",
      "osm_id": 8849017764,
      "amenity": "restaurant",
      "cuisine": "japanese",
      "opening_hours": "Mo-Th 11:00-15:00,16:00-21:30; Fr-Sa 11:00-15:00, 16:00-22:00; Su 12:00-21:30",
      "website": "http://www.easthana.com",
      "phone": "732-257-1088",
      "addr_state": "NJ",
      "addr_city": "East Brunswick",
      "addr_postcode": "08816",
      "addr_street": "NJ 18 North",
      "addr_housenumber": "300"
    },
    {
      "id": 90126,
      "geometry": "POINT (-73.983176 40.770074)",
      "poi_name": "Spice Bazaar",
      "osm_id": 1978400612,
      "amenity": "restaurant",
      "cuisine": "asian",
      "website": "https://www.spicebazaarnj.com/",
      "addr_state": "NJ",
      "addr_city": "Westfield",
      "addr_street": "Quimby Street",
      "addr_housenumber": "114"
    },
    {
      "id": 89342,
      "geometry": "POINT (-73.983176 40.770074)",
      "poi_name": "Quisqueya Luncheonette Restaurant",
      "osm_id": 8839959273,
      "amenity": "restaurant",
      "addr_state": "NJ",
      "addr_city": "Perth Amboy",
      "addr_street": "Madison Avenue",
      "addr_housenumber": "259"
    },
    {
      "id": 90197,
      "geometry": "POINT (-73.983176 40.770074)",
      "poi_name": "Steakhouse 85",
      "osm_id": 1982193491,
      "amenity": "restaurant",
      "cuisine": "steak_house",
      "description": "Steakhouse with a surf 'n' turf menu in an upscale space with live jazz on some nights.",
      "website": "https://www.steakhouse85.com/",
      "phone": "+1-732-247-8585",
      "outdoor_seating": "no",
      "addr_state": "NJ",
      "addr_city": "New Brunswick",
      "addr_postcode": "08901",
      "addr_street": "Church Street",
      "addr_housenumber": "85"
    },
    {
      "id": 90386,
      "geometry": "POINT (-73.983176 40.770074)",
      "poi_name": "Teaspoon Cafe",
      "osm_id": 1993610701,
      "amenity": "restaurant",
      "addr_state": "NJ",
      "addr_city": "Cranford",
      "addr_postcode": "07016",
      "addr_street": "North Union Avenue",
      "addr_housenumber": "21"
    },
    {
      "id": 91509,
      "geometry": "POINT (-73.983176 40.770074)",
      "poi_name": "P.J. Clarke's",
      "osm_id": 2070982507,
      "amenity": "restaurant",
      "cuisine": "american",
      "wheelchair": "yes",
      "opening_hours": "Mo-Fr 11:30-22:00; Sa-Su 11:30-21:00",
      "website": "https://pjclarkes.com/location/on-the-hudson/",
      "phone": "+12122851500",
      "delivery": "yes",
      "addr_state": "NY",
      "addr_city": "New York",
      "addr_postcode": "10281",
      "addr_street": "Vesey Street",
      "addr_housenumber": "250"
    },
    {
      "id": 91536,
      "geometry": "POINT (-73.983176 40.770074)",
      "poi_name": "Justino\u2019s Pizzeria",
      "osm_id": 2071906276,
      "amenity": "restaurant",
      "cuisine": "pizza",
      "wheelchair": "limited",
      "opening_hours": "Mo-We 10:00-01:30; Th-Sa 10:00-3:30; Su 11:00-22:30",
      "phone": "+1-212-406-2020",
      "takeaway": "yes",
      "drive_through": "no",
      "outdoor_seating": "no",
      "delivery": "yes",
      "addr_state": "NY",
      "addr_city": "New York",
      "addr_street": "9th Avenue",
      "addr_housenumber": "879"
    },
    {
      "id": 92094,
      "geometry": "POINT (-73.983176 40.770074)",
      "poi_name": "Bonefish Grill",
      "osm_id": 2104410791,
      "amenity": "restaurant",
      "cuisine": "seafood",
      "opening_hours": "Mo-Th 11:00-22:00; Fr-Sa 11:00-23:00; Su 11:00-21:00",
      "operator": "Tina Ikola",
      "website": "https://locations.bonefishgrill.com/new-jersey/e.-brunswick/335-route-18",
      "internet_access": "wlan",
      "phone": "732-390-0838",
      "addr_state": "NJ",
      "addr_city": "East Brunswick",
      "addr_postcode": "08816",
      "addr_street": "NJ 18 South",
      "addr_housenumber": "335"
    },
    {
      "id": 92095,
      "geometry": "POINT (-73.983176 40.770074)",
      "poi_name": "Carrabba's Italian Grill",
      "osm_id": 2104411500,
      "amenity": "restaurant",
      "cuisine": "italian",
      "opening_hours": "Mo-Th 11:00-22:00; Fr-Sa 11:00-23:00; Su 11:00-21:00",
      "operator": "Sally Kobuta",
      "website": "https://locations.carrabbas.com/new-jersey/e.-brunswick/335-hwy-nj-18",
      "phone": "732-432-8054",
      "addr_state": "NJ",
      "addr_city": "East Brunswick",
      "addr_postcode": "08816",
      "addr_street": "NJ 18 Souh",
      "addr_housenumber": "335"
    },
    {
      "id": 93028,
      "geometry": "POINT (-73.983176 40.770074)",
      "poi_name": "The Shannon Rose Irish Pub ",
      "osm_id": 2145877981,
      "amenity": "restaurant",
      "addr_city": "Woodbridge",
      "addr_postcode": "07095",
      "addr_street": "St. Georges Avenue "
    },
    {
      "id": 94428,
      "geometry": "POINT (-73.983176 40.770074)",
      "poi_name": "The Park",
      "osm_id": 2244725128,
      "amenity": "restaurant",
      "website": "https://www.theparknyc.com/",
      "addr_state": "NY",
      "addr_city": "New York",
      "addr_postcode": "10011",
      "addr_street": "10th Avenue",
      "addr_housenumber": "118"
    },
    {
      "id": 94375,
      "geometry": "POINT (-73.983176 40.770074)",
      "poi_name": "Tavern on Jane",
      "osm_id": 2237276258,
      "amenity": "restaurant",
      "cuisine": "american",
      "website": "https://tavernonjane.com/",
      "addr_state": "NY",
      "addr_city": "New York",
      "addr_postcode": "10014",
      "addr_street": "8th Avenue",
      "addr_housenumber": "31"
    },
    {
      "id": 96019,
      "geometry": "POINT (-73.983176 40.770074)",
      "poi_name": "Fig & Olive",
      "osm_id": 6418362084,
      "amenity": "restaurant",
      "cuisine": "fine_dining",
      "opening_hours": "Mo 12:00-22:00; Tu-Th12:00-23:00; Fr 12:00-00:00; Sa 11:00-12:00; Su 11:00-22:00",
      "website": "https://www.figandolive.com/location/fig-and-olive-nyc-meatpacking/",
      "phone": "+1-212-924-1200",
      "outdoor_seating": "no",
      "addr_state": "NY",
      "addr_city": "New York",
      "addr_postcode": "10014",
      "addr_street": "West 13th Street",
      "addr_housenumber": "420"
    },
    {
      "id": 95412,
      "geometry": "POINT (-73.983176 40.770074)",
      "poi_name": "Cargo Cafe",
      "osm_id": 6395035075,
      "amenity": "restaurant",
      "addr_state": "NY",
      "addr_city": "Staten Island",
      "addr_postcode": "10301",
      "addr_street": "Bay Street",
      "addr_housenumber": "120"
    },
    {
      "id": 97537,
      "geometry": "POINT (-73.983176 40.770074)",
      "poi_name": "Nizza",
      "osm_id": 6483237643,
      "amenity": "restaurant",
      "cuisine": "italian",
      "addr_state": "NY",
      "addr_city": "New York",
      "addr_postcode": "10036",
      "addr_street": "9th Avenue",
      "addr_housenumber": "630"
    },
    {
      "id": 97651,
      "geometry": "POINT (-73.983176 40.770074)",
      "poi_name": "Giusseppe's Pizza",
      "osm_id": 6487033584,
      "amenity": "restaurant",
      "cuisine": "pizza;italian",
      "addr_state": "NJ",
      "addr_city": "Old Bridge",
      "addr_postcode": "08857",
      "addr_street": "Old Bridge Matawan Road",
      "addr_housenumber": "2581"
    },
    {
      "id": 97653,
      "geometry": "POINT (-73.983176 40.770074)",
      "poi_name": "Doughlicious",
      "osm_id": 6487034710,
      "amenity": "restaurant",
      "cuisine": "breakfast;donut;bagel;deli",
      "opening_hours": "Mo-Su 07:00-15:00",
      "website": "https://doughliciousbagelsanddonuts.com/",
      "phone": "732-979-2163",
      "addr_state": "NJ",
      "addr_city": "Old Bridge",
      "addr_postcode": "08857",
      "addr_street": "Old Bridge Matawan Road",
      "addr_housenumber": "2591"
    },
    {
      "id": 100133,
      "geometry": "POINT (-73.983176 40.770074)",
      "poi_name": "Pastis",
      "osm_id": 6575701885,
      "amenity": "restaurant",
      "cuisine": "french",
      "website": "https://pastisnyc.com/",
      "phone": "(212) 929-4844",
      "addr_state": "NY",
      "addr_city": "New York",
      "addr_postcode": "10014",
      "addr_street": "Gansevoort Street",
      "addr_housenumber": "52"
    },
    {
      "id": 102328,
      "geometry": "POINT (-73.983176 40.770074)",
      "poi_name": "Campania",
      "osm_id": 6678050878,
      "amenity": "restaurant",
      "cuisine": "pizza",
      "addr_state": "NY",
      "addr_city": "Staten Island",
      "addr_postcode": "10312",
      "addr_street": "Richmond Avenue",
      "addr_housenumber": "3900"
    },
    {
      "id": 102299,
      "geometry": "POINT (-73.983176 40.770074)",
      "poi_name": "Empire Szechuan",
      "osm_id": 6672978329,
      "amenity": "restaurant",
      "cuisine": "chinese",
      "phone": "+1-718-227-2888",
      "addr_state": "NY",
      "addr_city": "Staten Island",
      "addr_postcode": "10312",
      "addr_street": "Amboy Road",
      "addr_housenumber": "4373"
    },
    {
      "id": 102300,
      "geometry": "POINT (-73.983176 40.770074)",
      "poi_name": "East Sushi",
      "osm_id": 6672978331,
      "amenity": "restaurant",
      "cuisine": "sushi",
      "addr_state": "NY",
      "addr_city": "Staten Island",
      "addr_postcode": "10312",
      "addr_street": "Amboy Road",
      "addr_housenumber": "4371"
    },
    {
      "id": 102301,
      "geometry": "POINT (-73.983176 40.770074)",
      "poi_name": "Frank & Danny's",
      "osm_id": 6672978332,
      "amenity": "restaurant",
      "cuisine": "pizza",
      "phone": "+1-718-317-1100",
      "addr_state": "NY",
      "addr_city": "Staten Island",
      "addr_postcode": "10312",
      "addr_street": "Amboy Road",
      "addr_housenumber": "4369"
    },
    {
      "id": 102320,
      "geometry": "POINT (-73.983176 40.770074)",
      "poi_name": "Sukh Sagar Cuisine",
      "osm_id": 6677367015,
      "amenity": "restaurant",
      "cuisine": "indian",
      "phone": "+1 732 777-9595",
      "addr_state": "NJ",
      "addr_city": "Piscataway",
      "addr_postcode": "08854",
      "addr_street": "Stelton Road",
      "addr_housenumber": "1347"
    },
    {
      "id": 104402,
      "geometry": "POINT (-73.983176 40.770074)",
      "poi_name": "Riffy's Kitchen",
      "osm_id": 8568296288,
      "amenity": "restaurant",
      "cuisine": "mediterranean;middle_eastern;american",
      "opening_hours": "Mo-Su 11:00-20:30",
      "phone": "+1 732-967-6888",
      "delivery": "yes",
      "addr_state": "NJ",
      "addr_city": "Parlin",
      "addr_postcode": "08859",
      "addr_street": "Washington Road",
      "addr_housenumber": "777"
    },
    {
      "id": 104404,
      "geometry": "POINT (-73.983176 40.770074)",
      "poi_name": "Pizza Haven",
      "osm_id": 8568296290,
      "amenity": "restaurant",
      "cuisine": "pizza",
      "opening_hours": "Mo-Th 11:00-22:30; Fr-Sa 11:00-23:00; Su 11:00-22:30",
      "website": "http://orderpizzaheaven.com/",
      "phone": "732-390-3311",
      "addr_state": "NJ",
      "addr_city": "Parlin",
      "addr_postcode": "08859",
      "addr_street": "Washington Road",
      "addr_housenumber": "777"
    },
    {
      "id": 104401,
      "geometry": "POINT (-73.983176 40.770074)",
      "poi_name": "No.1 Chineese Restaurant",
      "osm_id": 8568296286,
      "amenity": "restaurant",
      "cuisine": "chinese",
      "opening_hours": "Mo 11:00-22:30; We-Th 11:00-22:30; Fr-Sa 11:00-23:00; Su 12:00-22:00",
      "website": "https://number1parlin.com/",
      "phone": "732-238-5532",
      "addr_state": "NJ",
      "addr_city": "Parlin",
      "addr_postcode": "08859",
      "addr_street": "Washington Road",
      "addr_housenumber": "777"
    },
    {
      "id": 106433,
      "geometry": "POINT (-73.983176 40.770074)",
      "poi_name": "Blackthorn Restaurant & Irish Pub",
      "osm_id": 8679935275,
      "amenity": "restaurant",
      "cuisine": "irish;pub",
      "addr_state": "NJ",
      "addr_city": "New Brunswick",
      "addr_postcode": "08901",
      "addr_street": "Church Street",
      "addr_housenumber": "61"
    },
    {
      "id": 106434,
      "geometry": "POINT (-73.983176 40.770074)",
      "poi_name": "Sultan Wok",
      "osm_id": 8679991554,
      "amenity": "restaurant",
      "cuisine": "chinese;japanese;sushi;thai",
      "phone": "732-393-9656",
      "addr_state": "NJ",
      "addr_city": "Highland Park",
      "addr_postcode": "08904",
      "addr_street": "Raritan Avenue",
      "addr_housenumber": "517"
    },
    {
      "id": 108687,
      "geometry": "POINT (-73.983176 40.770074)",
      "poi_name": "Bill's Bar & Burger",
      "osm_id": 3632857383,
      "amenity": "restaurant",
      "cuisine": "burger",
      "website": "https://www.billsbarandburger.com/",
      "phone": "+1 212-414-3003",
      "addr_city": "New York",
      "addr_street": "9th Avenue",
      "addr_housenumber": "22"
    },
    {
      "id": 107785,
      "geometry": "POINT (-73.983176 40.770074)",
      "poi_name": "Noodlefan",
      "osm_id": 3577880569,
      "amenity": "restaurant",
      "cuisine": "thai",
      "addr_state": "NJ",
      "addr_city": "Jersey City",
      "addr_postcode": "07306",
      "addr_street": "John F. Kennedy Boulevard",
      "addr_housenumber": "2814"
    },
    {
      "id": 113995,
      "geometry": "POINT (-73.983176 40.770074)",
      "poi_name": "Samakmak Seafood",
      "osm_id": 3860850303,
      "amenity": "restaurant",
      "cuisine": "seafood",
      "wheelchair": "yes",
      "opening_hours": "11:30-23:00",
      "website": "https://www.samakmakseafood.com/",
      "phone": "+1-201-333-3474",
      "takeaway": "yes",
      "outdoor_seating": "no",
      "delivery": "yes",
      "addr_city": "Jersey City",
      "addr_street": "West Side Avenue",
      "addr_housenumber": "772"
    },
    {
      "id": 112208,
      "geometry": "POINT (-73.983176 40.770074)",
      "poi_name": "Los Corrales",
      "osm_id": 3783384203,
      "amenity": "restaurant",
      "cuisine": "mexican",
      "addr_state": "NJ",
      "addr_city": "Keyport",
      "addr_postcode": "07735",
      "addr_street": "Broad Street",
      "addr_housenumber": "204"
    },
    {
      "id": 112209,
      "geometry": "POINT (-73.983176 40.770074)",
      "poi_name": "Broad Street Diner",
      "osm_id": 3783405270,
      "amenity": "restaurant",
      "cuisine": "american",
      "addr_state": "NJ",
      "addr_city": "Keyport",
      "addr_postcode": "07735",
      "addr_street": "Broad Street",
      "addr_housenumber": "83"
    },
    {
      "id": 112245,
      "geometry": "POINT (-73.983176 40.770074)",
      "poi_name": "TGI Fridays",
      "osm_id": 3784689708,
      "amenity": "restaurant",
      "cuisine": "american",
      "opening_hours": "Su-Th 11:00-01:00; Fr-Sa 11:00-02:00",
      "outdoor_seating": "no",
      "delivery": "no",
      "addr_state": "NJ",
      "addr_city": "Hazlet Township",
      "addr_postcode": "07730",
      "addr_street": "NJ 35",
      "addr_housenumber": "3054"
    },
    {
      "id": 113864,
      "geometry": "POINT (-73.983176 40.770074)",
      "poi_name": "sam a.m.",
      "osm_id": 3852960091,
      "amenity": "restaurant",
      "cuisine": "american",
      "addr_state": "NJ",
      "addr_city": "Jersey City",
      "addr_postcode": "07302",
      "addr_street": "Morris Street",
      "addr_housenumber": "112"
    },
    {
      "id": 113865,
      "geometry": "POINT (-73.983176 40.770074)",
      "poi_name": "Satis Bistro",
      "osm_id": 3853008312,
      "amenity": "restaurant",
      "cuisine": "mediterranean",
      "addr_state": "NJ",
      "addr_city": "Jersey City",
      "addr_postcode": "07302",
      "addr_street": "Washington Street",
      "addr_housenumber": "212"
    },
    {
      "id": 114047,
      "geometry": "POINT (-73.983176 40.770074)",
      "poi_name": "Bagatelle",
      "osm_id": 3863328959,
      "amenity": "restaurant",
      "cuisine": "french",
      "website": "http://bagatellenyc.com",
      "phone": "+1-212-488-2110",
      "addr_state": "NY",
      "addr_city": "New York",
      "addr_postcode": "10014",
      "addr_street": "Little West 12th Street",
      "addr_housenumber": "1"
    },
    {
      "id": 116726,
      "geometry": "POINT (-73.983176 40.770074)",
      "poi_name": "Xing Wok",
      "osm_id": 8957618496,
      "amenity": "restaurant",
      "cuisine": "chinese",
      "takeaway": "yes",
      "addr_state": "NJ",
      "addr_city": "Hazlet Township",
      "addr_postcode": "07730",
      "addr_street": "NJ 35",
      "addr_housenumber": "3040"
    },
    {
      "id": 116727,
      "geometry": "POINT (-73.983176 40.770074)",
      "poi_name": "Ae's Thai & BBQ",
      "osm_id": 8957618498,
      "amenity": "restaurant",
      "cuisine": "thai",
      "addr_state": "NJ",
      "addr_city": "Hazlet Township",
      "addr_postcode": "07730",
      "addr_street": "NJ 35",
      "addr_housenumber": "3046"
    },
    {
      "id": 117678,
      "geometry": "POINT (-73.983176 40.770074)",
      "poi_name": "Perkins",
      "osm_id": 9005850756,
      "amenity": "restaurant",
      "cuisine": "american",
      "wheelchair": "yes",
      "opening_hours": "Su 8:00-17:00; Mo-Th 9:00-18:00; Fr-Sa 8:00-18:00",
      "website": "https://www.perkinsrestaurants.com/locations/us/nj/colonia/1009-st--georges-avenue/",
      "internet_access": "wlan",
      "phone": "732634-7112",
      "official_name": "Perkins Restaurant and Bakery",
      "addr_state": "NJ",
      "addr_city": "Colonia",
      "addr_postcode": "07067",
      "addr_street": "Saint George's Avenue",
      "addr_housenumber": "1009"
    },
    {
      "id": 120304,
      "geometry": "POINT (-73.983176 40.770074)",
      "poi_name": "The Square on Annadale",
      "osm_id": 6699139859,
      "amenity": "restaurant",
      "cuisine": "pizza",
      "phone": "+1-718-967-9999",
      "addr_state": "NY",
      "addr_city": "Staten Island",
      "addr_street": "Annadale Road",
      "addr_housenumber": "833"
    },
    {
      "id": 118503,
      "geometry": "POINT (-73.983176 40.770074)",
      "poi_name": "Jerusalem Pizza",
      "osm_id": 9048929061,
      "amenity": "restaurant",
      "cuisine": "pizza;falafel",
      "website": "https://www.jerusalempizzamenu.com/",
      "phone": "732-844-8207",
      "addr_state": "NJ",
      "addr_city": "Highland Park",
      "addr_postcode": "08904",
      "addr_street": "Raritan Avenue",
      "addr_housenumber": "231"
    },
    {
      "id": 120205,
      "geometry": "POINT (-73.983176 40.770074)",
      "poi_name": "Ungaro Coal Fired Pizza Cafe",
      "osm_id": 6696044175,
      "amenity": "restaurant",
      "wheelchair": "yes",
      "opening_hours": "Tu-Su 17:00-22:00",
      "website": "https://www.ungarocoalfiredpizzacafe.com",
      "addr_state": "NY",
      "addr_city": "Staten Island",
      "addr_postcode": "10302",
      "addr_street": "Forest Avenue",
      "addr_housenumber": "1298"
    },
    {
      "id": 120345,
      "geometry": "POINT (-73.983176 40.770074)",
      "poi_name": "Ocean Sushi",
      "osm_id": 6699676996,
      "amenity": "restaurant",
      "cuisine": "sushi",
      "addr_state": "NY",
      "addr_city": "Staten Island",
      "addr_street": "Jefferson Boulevard",
      "addr_housenumber": "20"
    },
    {
      "id": 119759,
      "geometry": "POINT (-73.983176 40.770074)",
      "poi_name": "Stella's 24 Hour Eatery",
      "osm_id": 9121144610,
      "amenity": "restaurant",
      "cuisine": "pizza",
      "addr_state": "NJ",
      "addr_city": "Jersey City",
      "addr_postcode": "07302",
      "addr_street": "Grove Street",
      "addr_housenumber": "315"
    },
    {
      "id": 120305,
      "geometry": "POINT (-73.983176 40.770074)",
      "poi_name": "Mona Lisa Pizzeria & Ristorante",
      "osm_id": 6699139861,
      "amenity": "restaurant",
      "cuisine": "pizza",
      "addr_state": "NY",
      "addr_city": "Staten Island",
      "addr_street": "Annadale Road",
      "addr_housenumber": "839"
    },
    {
      "id": 120413,
      "geometry": "POINT (-73.983176 40.770074)",
      "poi_name": "Kiku",
      "osm_id": 6702152660,
      "amenity": "restaurant",
      "cuisine": "sushi",
      "opening_hours": "Mo-Th 11:30-22:30; Fr 11:30-23:00; Sa 12:00-23:00; Su 12:00-22:00",
      "phone": "7186088589",
      "addr_state": "NY",
      "addr_city": "Staten Island",
      "addr_postcode": "10312",
      "addr_street": "Richmond Avenue",
      "addr_housenumber": "3838"
    },
    {
      "id": 120904,
      "geometry": "POINT (-73.983176 40.770074)",
      "poi_name": "Calabria",
      "osm_id": 6728544491,
      "amenity": "restaurant",
      "cuisine": "pizza",
      "phone": "908-272-8080",
      "addr_state": "NJ",
      "addr_city": "Cranford",
      "addr_postcode": "07016",
      "addr_street": "Centennial Avenue",
      "addr_housenumber": "209"
    },
    {
      "id": 121212,
      "geometry": "POINT (-73.983176 40.770074)",
      "poi_name": "Pairings Palate & Plate",
      "osm_id": 6747068552,
      "amenity": "restaurant",
      "addr_state": "NJ",
      "addr_city": "Cranford",
      "addr_postcode": "07016",
      "addr_street": "Walnut Avenue",
      "addr_housenumber": "10"
    },
    {
      "id": 120469,
      "geometry": "POINT (-73.983176 40.770074)",
      "poi_name": "Mike Jr.'s Diner",
      "osm_id": 6704927960,
      "amenity": "restaurant",
      "addr_state": "NY",
      "addr_city": "Staten Island",
      "addr_postcode": "10312",
      "addr_street": "Richmond Avenue",
      "addr_housenumber": "3954"
    },
    {
      "id": 121713,
      "geometry": "POINT (-73.983176 40.770074)",
      "poi_name": "Tomo Japanese Cuisine & Bar",
      "osm_id": 6776135932,
      "amenity": "restaurant",
      "cuisine": "japanese",
      "addr_state": "NY",
      "addr_city": "Staten Island",
      "addr_postcode": "10312",
      "addr_street": "Amboy Road",
      "addr_housenumber": "4561A"
    },
    {
      "id": 121686,
      "geometry": "POINT (-73.983176 40.770074)",
      "poi_name": "Ho Wok",
      "osm_id": 6775260769,
      "amenity": "restaurant",
      "cuisine": "chinese",
      "addr_state": "NY",
      "addr_city": "Staten Island",
      "addr_postcode": "10308",
      "addr_street": "Arthur Kill Road",
      "addr_housenumber": "692"
    },
    {
      "id": 121695,
      "geometry": "POINT (-73.983176 40.770074)",
      "poi_name": "Euro Pizza",
      "osm_id": 6775487652,
      "amenity": "restaurant",
      "cuisine": "pizza",
      "drive_through": "no",
      "addr_state": "NY",
      "addr_city": "Staten Island",
      "addr_postcode": "10312",
      "addr_street": "Richmond Avenue",
      "addr_housenumber": "3271"
    },
    {
      "id": 121802,
      "geometry": "POINT (-73.983176 40.770074)",
      "poi_name": "Lemongrass",
      "osm_id": 6779685172,
      "amenity": "restaurant",
      "cuisine": "vietnamese",
      "website": "https://www.lemongrasshoboken.com/",
      "phone": "+1 201-710-5333",
      "takeaway": "yes",
      "addr_state": "NJ",
      "addr_city": "Hoboken",
      "addr_postcode": "07030",
      "addr_street": "Washington Street",
      "addr_housenumber": "732"
    },
    {
      "id": 122109,
      "geometry": "POINT (-73.983176 40.770074)",
      "poi_name": "Fat Taco",
      "osm_id": 6789145017,
      "amenity": "restaurant",
      "cuisine": "mexican",
      "website": "https://www.fattacohoboken.com/",
      "phone": "+1 201-253-0401",
      "addr_state": "NJ",
      "addr_city": "Hoboken",
      "addr_postcode": "07030",
      "addr_street": "Newark Street",
      "addr_housenumber": "32"
    },
    {
      "id": 122113,
      "geometry": "POINT (-73.983176 40.770074)",
      "poi_name": "La Casa Restaurante",
      "osm_id": 6789145024,
      "amenity": "restaurant",
      "cuisine": "latin_american",
      "wheelchair": "no",
      "addr_state": "NJ",
      "addr_city": "Hoboken",
      "addr_postcode": "07030",
      "addr_street": "Newark Street",
      "addr_housenumber": "54"
    },
    {
      "id": 122115,
      "geometry": "POINT (-73.983176 40.770074)",
      "poi_name": "Basile's Pizza",
      "osm_id": 6789145031,
      "amenity": "restaurant",
      "cuisine": "pizza",
      "addr_state": "NJ",
      "addr_city": "Hoboken",
      "addr_postcode": "07030",
      "addr_street": "Washington Street",
      "addr_housenumber": "89"
    },
    {
      "id": 122119,
      "geometry": "POINT (-73.983176 40.770074)",
      "poi_name": "Honeygrow",
      "osm_id": 6789145048,
      "amenity": "restaurant",
      "opening_hours": "Mo-Su 10:30-22:30",
      "website": "https://www.honeygrow.com/",
      "phone": "+1 201-533-8089",
      "takeaway": "yes",
      "addr_state": "NJ",
      "addr_city": "Hoboken",
      "addr_postcode": "07030",
      "addr_street": "Washington Street",
      "addr_housenumber": "120"
    },
    {
      "id": 122125,
      "geometry": "POINT (-73.983176 40.770074)",
      "poi_name": "Sushi House",
      "osm_id": 6789145077,
      "amenity": "restaurant",
      "cuisine": "sushi",
      "addr_state": "NJ",
      "addr_city": "Hoboken",
      "addr_postcode": "07030",
      "addr_street": "1st Street",
      "addr_housenumber": "155"
    },
    {
      "id": 122134,
      "geometry": "POINT (-73.983176 40.770074)",
      "poi_name": "Empyrean Indian Kitchen",
      "osm_id": 6789381754,
      "amenity": "restaurant",
      "cuisine": "indian",
      "website": "https://www.empyreankitchen.com/",
      "phone": "+1 201-683-4160",
      "drive_through": "no",
      "addr_state": "NJ",
      "addr_city": "Hoboken",
      "addr_postcode": "07030",
      "addr_street": "Hudson Place",
      "addr_housenumber": "20"
    },
    {
      "id": 122376,
      "geometry": "POINT (-73.983176 40.770074)",
      "poi_name": "Artichoke Basile's Pizza",
      "osm_id": 6799740798,
      "amenity": "restaurant",
      "cuisine": "pizza",
      "addr_state": "NJ",
      "addr_city": "Hoboken",
      "addr_postcode": "07030",
      "addr_street": "Hudson Street",
      "addr_housenumber": "96"
    },
    {
      "id": 124381,
      "geometry": "POINT (-73.983176 40.770074)",
      "poi_name": "Shanghai Dumpling",
      "osm_id": 6914370351,
      "amenity": "restaurant",
      "cuisine": "chinese",
      "opening_hours": "Mo off, Tu-Su 11:30-23:00",
      "website": "https://shanghai-dumplings.com/",
      "phone": "+1-732-543-1771",
      "addr_state": "NJ",
      "addr_city": "Edison",
      "addr_postcode": "08817",
      "addr_street": "Lincoln Highway",
      "addr_housenumber": "1581"
    },
    {
      "id": 129328,
      "geometry": "POINT (-73.983176 40.770074)",
      "poi_name": "Rustoni's Pizza",
      "osm_id": 8235862658,
      "amenity": "restaurant",
      "cuisine": "pizza",
      "opening_hours": "Mo-Sa 11:00-21:30; Su 12:00-21:30",
      "website": "https://rustonis.com/",
      "phone": "732-651-2330",
      "delivery": "yes",
      "addr_state": "NJ",
      "addr_city": "Sayreville",
      "addr_postcode": "08872",
      "addr_street": "Main Street",
      "addr_housenumber": "309"
    },
    {
      "id": 127507,
      "geometry": "POINT (-73.983176 40.770074)",
      "poi_name": "Shanghai Bun - Matawan",
      "osm_id": 8068799786,
      "amenity": "restaurant",
      "opening_hours": "Mo,We,Th,Fr,Sa,Su 11:00-22:00; Tu off",
      "website": "http://www.shanghaibunmatawan.com/",
      "phone": "1-732-765-8388",
      "addr_city": "Matawan",
      "addr_postcode": "07747-3258",
      "addr_street": "State Route 34 Ste 6",
      "addr_housenumber": "952"
    },
    {
      "id": 127509,
      "geometry": "POINT (-73.983176 40.770074)",
      "poi_name": "West Lake Plum House",
      "osm_id": 8068841185,
      "amenity": "restaurant",
      "opening_hours": "Mo,Tu,We,Th,Su 11:30-21:30; Fr,Sa 11:30-22:00",
      "phone": "1-732-290-2988",
      "addr_city": "Matawan",
      "addr_postcode": "07747-3466",
      "addr_street": "State Route 34 Ste 2",
      "addr_housenumber": "1016"
    },
    {
      "id": 129329,
      "geometry": "POINT (-73.983176 40.770074)",
      "poi_name": "Kendy's Sushi and Peking Garden",
      "osm_id": 8235862681,
      "amenity": "restaurant",
      "cuisine": "sushi",
      "opening_hours": "Mo 15:00-22:00; Tu-We 12:00-22:00; Fr-Sa 11:00-23:00; Su 12:00-22:00",
      "website": "https://www.zmenu.com/kendys-sushi-and-peking-garden-sayreville-online-menu/",
      "phone": "732-525-0707",
      "addr_state": "NJ",
      "addr_city": "Sayreville",
      "addr_postcode": "08872",
      "addr_street": "Main Street",
      "addr_housenumber": "881"
    },
    {
      "id": 129331,
      "geometry": "POINT (-73.983176 40.770074)",
      "poi_name": "Angelo's Pizza & Restaurant",
      "osm_id": 8235862738,
      "amenity": "restaurant",
      "cuisine": "pizza",
      "opening_hours": "Mo-Sa 11:00-21:00; Su 01:00-21:00",
      "website": "https://angelospizza732.com/",
      "phone": "732-651-6155",
      "addr_state": "NJ",
      "addr_city": "Sayreville",
      "addr_postcode": "08872",
      "addr_street": "Main Street",
      "addr_housenumber": "80"
    },
    {
      "id": 129369,
      "geometry": "POINT (-73.983176 40.770074)",
      "poi_name": "Primo's Pizza and Restaurant",
      "osm_id": 8241083361,
      "amenity": "restaurant",
      "cuisine": "pizza",
      "opening_hours": "Mo-Th 11:00-21:15; Fr-Sa 11:00-21:45; Su 12:00-20:45",
      "website": "https://www.ordernanaspizza.com/",
      "phone": "732-838-6278",
      "addr_state": "NJ",
      "addr_city": "Parlin",
      "addr_postcode": "08859",
      "addr_street": "Washington Road",
      "addr_housenumber": "2909"
    },
    {
      "id": 129327,
      "geometry": "POINT (-73.983176 40.770074)",
      "poi_name": "New Lamb's Garden",
      "osm_id": 8235862657,
      "amenity": "restaurant",
      "cuisine": "chinese",
      "opening_hours": "Mo-Th 11:00-22:30; Fr-Sa 11:00-23:00; Su 12:00-22:30",
      "website": "https://www.lamsgardensayreville.chinesenj.net/",
      "phone": "732-698-0111;732-698-0110",
      "delivery": "yes",
      "addr_state": "NJ",
      "addr_city": "Sayreville",
      "addr_postcode": "08872",
      "addr_street": "Main Street",
      "addr_housenumber": "309"
    },
    {
      "id": 129375,
      "geometry": "POINT (-73.983176 40.770074)",
      "poi_name": "Yong Hing Garden",
      "osm_id": 8241292342,
      "amenity": "restaurant",
      "cuisine": "chinese",
      "opening_hours": "Mo 11:00-21:30; Tu closed; We-Sa 11:00-21:30; Su 12:00-21:30,12:00-21:30",
      "website": "https://yonghinggardensayreville.com/",
      "phone": "732.651.8833;732.651.8585;732.651.0222",
      "addr_state": "NJ",
      "addr_city": "Sayreville",
      "addr_postcode": "08872",
      "addr_street": "Bordentown Avenue",
      "addr_housenumber": "4500"
    },
    {
      "id": 129376,
      "geometry": "POINT (-73.983176 40.770074)",
      "poi_name": "Mia's Pizza Restaurant",
      "osm_id": 8241292343,
      "amenity": "restaurant",
      "cuisine": "pizza;sandwich;wings;wrap;burger;american;italian;hispanic",
      "opening_hours": "Mo-Sa 10:30-22:30; Su 13:00-21:30",
      "website": "https://miaspizzeria.net/",
      "phone": "732-651-9888",
      "takeaway": "yes",
      "delivery": "yes",
      "addr_state": "NJ",
      "addr_city": "Sayreville",
      "addr_postcode": "08872",
      "addr_street": "Bordentown Avenue",
      "addr_housenumber": "4500"
    },
    {
      "id": 129377,
      "geometry": "POINT (-73.983176 40.770074)",
      "poi_name": "Nagoya Japanese Cuisine",
      "osm_id": 8241292345,
      "amenity": "restaurant",
      "cuisine": "japanese",
      "opening_hours": "Tu-Th 11:00-22:00; Fr 11:00-23:00; Sa 12:00-23:00; Su 12:00-22:00",
      "website": "http://www.nagoyasayreville.com/",
      "phone": "732-967-8626",
      "addr_state": "NJ",
      "addr_city": "Sayreville",
      "addr_postcode": "08872",
      "addr_street": "Bordentown Avenue",
      "addr_housenumber": "4500"
    },
    {
      "id": 129383,
      "geometry": "POINT (-73.983176 40.770074)",
      "poi_name": "Kathiyawadi Kitchen",
      "osm_id": 8241429606,
      "amenity": "restaurant",
      "cuisine": "indian",
      "opening_hours": "Tu-Su 12:00-15:00, 17:00-21:00",
      "website": "https://kathiyawadikitchen.business.site/",
      "phone": "732-514-7639",
      "addr_state": "NJ",
      "addr_city": "Sayreville",
      "addr_postcode": "08872",
      "addr_street": "Jernee Mill Road",
      "addr_housenumber": "20"
    },
    {
      "id": 129384,
      "geometry": "POINT (-73.983176 40.770074)",
      "poi_name": "Lala's BBQ",
      "osm_id": 8241429609,
      "amenity": "restaurant",
      "cuisine": "argentinian;barbecue",
      "description": "Authentic Argentinian Charcoal Grill",
      "opening_hours": "Tu-Th 10:00-21:00; Fr-Sa 11:00-22:00; Su 11:00-21:00",
      "website": "http://www.lalabbq.com/",
      "phone": "732-416-8030",
      "addr_state": "NJ",
      "addr_city": "Sayreville",
      "addr_postcode": "08872",
      "addr_street": "Jernee Mill Road",
      "addr_housenumber": "20"
    },
    {
      "id": 129385,
      "geometry": "POINT (-73.983176 40.770074)",
      "poi_name": "Romeo's Ristorante & Pizza",
      "osm_id": 8241429610,
      "amenity": "restaurant",
      "cuisine": "american;breakfast;pizza",
      "opening_hours": "Tu-Su 08:00-15:00",
      "website": "https://www.brunchboxeatery.com/",
      "phone": "732-254-6252",
      "takeaway": "yes",
      "delivery": "yes",
      "addr_state": "NJ",
      "addr_city": "Sayreville",
      "addr_postcode": "08872",
      "addr_street": "Jernee Mill Road",
      "addr_housenumber": "20"
    },
    {
      "id": 129370,
      "geometry": "POINT (-73.983176 40.770074)",
      "poi_name": "Royal Indian Restaraunt",
      "osm_id": 8241083367,
      "amenity": "restaurant",
      "cuisine": "indian",
      "phone": "732-401-0900",
      "addr_state": "NJ",
      "addr_city": "Parlin",
      "addr_postcode": "08859",
      "addr_street": "Washington Road",
      "addr_housenumber": "2909"
    },
    {
      "id": 129371,
      "geometry": "POINT (-73.983176 40.770074)",
      "poi_name": "MiLina Cuisine",
      "osm_id": 8241083368,
      "amenity": "restaurant",
      "cuisine": "colombian",
      "opening_hours": "Mo-Th 11:00-21:00; Fr-Sa 10:00-21:00; Su 10:00-20:00",
      "website": "https://www.milinacuisine.com/",
      "phone": "732-952-8226",
      "addr_state": "NJ",
      "addr_city": "Parlin",
      "addr_postcode": "08859",
      "addr_street": "Washington Road",
      "addr_housenumber": "2909"
    },
    {
      "id": 129374,
      "geometry": "POINT (-73.983176 40.770074)",
      "poi_name": "Pilipino Grill & BBQ",
      "osm_id": 8241292340,
      "amenity": "restaurant",
      "cuisine": "grill;barbecue",
      "description": "House of the Real Pilipino Barbeque",
      "phone": "732-651-8556",
      "addr_state": "NJ",
      "addr_city": "Sayreville",
      "addr_postcode": "08872",
      "addr_street": "Bordentown Avenue",
      "addr_housenumber": "4500"
    },
    {
      "id": 129712,
      "geometry": "POINT (-73.983176 40.770074)",
      "poi_name": "Jalape\u00f1o de Fuego",
      "osm_id": 9836543446,
      "amenity": "restaurant",
      "cuisine": "mexican",
      "opening_hours": "Tu-Sa 10:00-20:00 Su 10:00-18:00 Mo CLOSED",
      "phone": "+1 908-441-7494",
      "addr_state": "NJ",
      "addr_city": "Elizabeth",
      "addr_postcode": "07202",
      "addr_street": "Murray Street",
      "addr_housenumber": "334"
    },
    {
      "id": 129891,
      "geometry": "POINT (-73.983176 40.770074)",
      "poi_name": "Willow",
      "osm_id": 9845565310,
      "amenity": "restaurant",
      "cuisine": "bistro",
      "opening_hours": "Mo-Th 11:30-21:30; Fr-Sa 11:30-22:30; Su 11:30-21:30",
      "website": "https://willownewyork.com/",
      "phone": "+1-212-929-2889",
      "addr_state": "NY",
      "addr_city": "New York",
      "addr_postcode": "10011",
      "addr_street": "8th Avenue",
      "addr_housenumber": "199"
    },
    {
      "id": 131431,
      "geometry": "POINT (-73.983176 40.770074)",
      "poi_name": "Joey D's Pizza",
      "osm_id": 9916158219,
      "amenity": "restaurant",
      "cuisine": "pizza",
      "website": "https://joeydspizza.com/",
      "addr_state": "NJ",
      "addr_city": "Metuchen",
      "addr_postcode": "08840",
      "addr_street": "Central Avenue",
      "addr_housenumber": "279"
    },
    {
      "id": 131326,
      "geometry": "POINT (-73.983176 40.770074)",
      "poi_name": "Hidden Leaf",
      "osm_id": 9910104398,
      "amenity": "restaurant",
      "cuisine": "asian",
      "wheelchair": "yes",
      "website": "https://www.hiddenleafnyc.com/",
      "phone": "+1-212-715-8686",
      "outdoor_seating": "no",
      "addr_state": "NY",
      "addr_city": "New York",
      "addr_postcode": "10001",
      "addr_street": "Manhattan West Plaza",
      "addr_housenumber": "75"
    },
    {
      "id": 131432,
      "geometry": "POINT (-73.983176 40.770074)",
      "poi_name": "Rio of Japan",
      "osm_id": 9916158220,
      "amenity": "restaurant",
      "cuisine": "japanese",
      "addr_state": "NJ",
      "addr_city": "Metuchen",
      "addr_postcode": "08840",
      "addr_street": "Central Avenue",
      "addr_housenumber": "257"
    },
    {
      "id": 132278,
      "geometry": "POINT (-73.983176 40.770074)",
      "poi_name": "Romano's 24 Inch Pizzeria",
      "osm_id": 9949351945,
      "amenity": "restaurant",
      "cuisine": "pizza",
      "addr_state": "NJ",
      "addr_city": "Jersey City",
      "addr_postcode": "07304",
      "addr_street": "West Side Avenue",
      "addr_housenumber": "508"
    },
    {
      "id": 131716,
      "geometry": "POINT (-73.983176 40.770074)",
      "poi_name": "Taco Drive",
      "osm_id": 9923786494,
      "amenity": "restaurant",
      "cuisine": "mexican",
      "opening_hours": "Mo-We 11:30-23:00; Th 11:30-24:00; Fr 11:30-02:30; Sa 12:00-02:30; Su 13:00-22:00",
      "website": "https://taco-drive.com/",
      "phone": "+1-201-402-9555",
      "addr_state": "NJ",
      "addr_city": "Jersey City",
      "addr_postcode": "07302",
      "addr_street": "Newark Avenue",
      "addr_housenumber": "195"
    },
    {
      "id": 132877,
      "geometry": "POINT (-73.983176 40.770074)",
      "poi_name": "Quintana's Mexican Restaurant & Bakery",
      "osm_id": 9969922575,
      "amenity": "restaurant",
      "cuisine": "mexican;tex-mex",
      "opening_hours": "Tu-Sa 10:00-22:00; Su 09:00-22:00",
      "website": "https://www.quintanasmexicanrestaurant.com",
      "phone": "+1-732-293-0074",
      "addr_state": "NJ",
      "addr_city": "Perth Amboy",
      "addr_postcode": "08861",
      "addr_street": "Smith Street",
      "addr_housenumber": "334"
    },
    {
      "id": 132461,
      "geometry": "POINT (-73.983176 40.770074)",
      "poi_name": "Tony Boloney's Jersey City",
      "osm_id": 9955247789,
      "amenity": "restaurant",
      "cuisine": "pizza",
      "addr_state": "NJ",
      "addr_city": "Jersey City",
      "addr_postcode": "07302",
      "addr_street": "Grove Street",
      "addr_housenumber": "363"
    },
    {
      "id": 133958,
      "geometry": "POINT (-73.983176 40.770074)",
      "poi_name": "Century One Pizza",
      "osm_id": 10019482966,
      "amenity": "restaurant",
      "cuisine": "pizza",
      "addr_state": "NJ",
      "addr_city": "Jersey City",
      "addr_postcode": "07306",
      "addr_street": "Bergen Avenue",
      "addr_housenumber": "713"
    },
    {
      "id": 135119,
      "geometry": "POINT (-73.983176 40.770074)",
      "poi_name": "Friedmans",
      "osm_id": 11505171170,
      "amenity": "restaurant",
      "opening_hours": "Mo-Th 09:00-16:00; Fr-Su 09:00-18:00",
      "website": "https://www.friedmansrestaurant.com/location/chelsea-friedmans-restaurant/",
      "phone": "+1-212-929-7100",
      "takeaway": "yes",
      "delivery": "yes",
      "addr_state": "NY",
      "addr_city": "New York",
      "addr_postcode": "10011",
      "addr_street": "9th Avenue",
      "addr_housenumber": "75"
    },
    {
      "id": 136497,
      "geometry": "POINT (-73.983176 40.770074)",
      "poi_name": "Shahzad Halal Food",
      "osm_id": 11586667739,
      "amenity": "restaurant",
      "cuisine": "gyros;falafel",
      "opening_hours": "Mo-Su 11:00-23:55",
      "website": "https://www.shahzadshalalfood.com/",
      "phone": "+1-609-527-9480",
      "addr_state": "NJ",
      "addr_city": "Parlin",
      "addr_postcode": "08859",
      "addr_street": "US Highway 9",
      "addr_housenumber": "993"
    },
    {
      "id": 138528,
      "geometry": "POINT (-73.983176 40.770074)",
      "poi_name": "Lo Fatt Chow",
      "osm_id": 6154328369,
      "amenity": "restaurant",
      "cuisine": "chinese",
      "opening_hours": "Mo-Su 11:00-22:00",
      "phone": "+1-201-798-5050",
      "takeaway": "yes",
      "outdoor_seating": "no",
      "delivery": "yes",
      "addr_state": "NJ",
      "addr_city": "Hoboken",
      "addr_postcode": "07030",
      "addr_street": "Monroe Street"
    },
    {
      "id": 138543,
      "geometry": "POINT (-73.983176 40.770074)",
      "poi_name": "Cranford's Best Bagels and Deli",
      "osm_id": 6154564491,
      "amenity": "restaurant",
      "cuisine": "bagel;breakfast",
      "addr_state": "NJ",
      "addr_city": "Cranford",
      "addr_postcode": "07016",
      "addr_street": "South Avenue East",
      "addr_housenumber": "107"
    },
    {
      "id": 138544,
      "geometry": "POINT (-73.983176 40.770074)",
      "poi_name": "Big Apple Pizza",
      "osm_id": 6154564492,
      "amenity": "restaurant",
      "cuisine": "pizza",
      "addr_state": "NJ",
      "addr_city": "Cranford",
      "addr_postcode": "07016",
      "addr_street": "Walnut Avenue",
      "addr_housenumber": "13"
    },
    {
      "id": 138529,
      "geometry": "POINT (-73.983176 40.770074)",
      "poi_name": "#1 Fine Chinese Cuisine",
      "osm_id": 6154333708,
      "amenity": "restaurant",
      "cuisine": "chinese",
      "opening_hours": "Mo-Th 11:00-23:00; Fr-Sa 11:00-23:30; Su 11:30-23:00",
      "website": "https://www.no1hoboken.com/",
      "phone": "+1-201-963-4201",
      "takeaway": "yes",
      "outdoor_seating": "no",
      "delivery": "yes",
      "addr_state": "NJ",
      "addr_city": "Hoboken",
      "addr_postcode": "07030",
      "addr_street": "Washington Street",
      "addr_housenumber": "642"
    },
    {
      "id": 144296,
      "geometry": "POINT (-73.983176 40.770074)",
      "poi_name": "Komegashi Too",
      "osm_id": 7256449851,
      "amenity": "restaurant",
      "cuisine": "japanese",
      "opening_hours": "Tu-Su 12:00-15:00,16:30-21:00",
      "website": "https://komegashi.m988.com/",
      "addr_state": "NJ",
      "addr_city": "Jersey City",
      "addr_postcode": "07310",
      "addr_street": "Town Square Pl",
      "addr_housenumber": "99"
    },
    {
      "id": 141548,
      "geometry": "POINT (-73.983176 40.770074)",
      "poi_name": "Kpot Korean BBQ & Hot Pot",
      "osm_id": 6289520381,
      "amenity": "restaurant",
      "cuisine": "barbecue;korean",
      "opening_hours": "Su-Th 11:30-23:30; Fr-Sa 11:30-24:00",
      "website": "https://thekpot.com/location/east-brunswick/",
      "phone": "732-210-2704",
      "addr_state": "NJ",
      "addr_city": "East Brunswick",
      "addr_postcode": "08816",
      "addr_street": "State Route 18",
      "addr_housenumber": "300"
    },
    {
      "id": 144638,
      "geometry": "POINT (-73.983176 40.770074)",
      "poi_name": "Ho'Brah",
      "osm_id": 7278424832,
      "amenity": "restaurant",
      "cuisine": "tacos;mexican",
      "opening_hours": "Su-Th 011:30-22:00, Fr-Sa 11:30-23:00",
      "website": "https://www.hobrahtacos.com/",
      "phone": "+1-718-442-8226",
      "addr_state": "NY",
      "addr_city": "Staten Island",
      "addr_street": "Forest Avenue",
      "addr_housenumber": "412"
    },
    {
      "id": 146446,
      "geometry": "POINT (-73.983176 40.770074)",
      "poi_name": "Frutta Bowls",
      "osm_id": 7443540096,
      "amenity": "restaurant",
      "opening_hours": "Mo-Fr 08:00-20:00; Sa 09:00-20:00; Su 09:00-19:00",
      "website": "https://fruttabowls.com/",
      "phone": "(201) 683-2066",
      "addr_state": "NJ",
      "addr_city": "Jersey City",
      "addr_postcode": "07310",
      "addr_street": "Town Square Place",
      "addr_housenumber": "100"
    },
    {
      "id": 146324,
      "geometry": "POINT (-73.983176 40.770074)",
      "poi_name": "Loradella's Pizzeria & Restaurant",
      "osm_id": 7432073154,
      "amenity": "restaurant",
      "website": "loradellasfamilypizzeria.com",
      "phone": "(201) 963-4900",
      "addr_state": "NJ",
      "addr_city": "Jersey City",
      "addr_postcode": "07310",
      "addr_street": "River Drive South",
      "addr_housenumber": "126"
    },
    {
      "id": 145276,
      "geometry": "POINT (-73.983176 40.770074)",
      "poi_name": "Razza",
      "osm_id": 7330680517,
      "amenity": "restaurant",
      "website": "https://razzanj.com/",
      "phone": "+1-201-356-9348",
      "addr_state": "NJ",
      "addr_city": "Jersey City",
      "addr_postcode": "07302",
      "addr_street": "Grove Street",
      "addr_housenumber": "275"
    },
    {
      "id": 146213,
      "geometry": "POINT (-73.983176 40.770074)",
      "poi_name": "Just BeClaws",
      "osm_id": 7418358951,
      "amenity": "restaurant",
      "cuisine": "seafood;cajun",
      "website": "justbeclaws.com",
      "phone": "(201) 459-9100",
      "addr_state": "NJ",
      "addr_city": "Jersey City",
      "addr_postcode": "07302",
      "addr_street": "1st Street",
      "addr_housenumber": "280"
    },
    {
      "id": 146812,
      "geometry": "POINT (-73.983176 40.770074)",
      "poi_name": "Fire & Oak",
      "osm_id": 7474917759,
      "amenity": "restaurant",
      "cuisine": "american",
      "website": "fireandoak.com",
      "phone": "(201) 610-9610",
      "addr_state": "NJ",
      "addr_city": "Jersey City",
      "addr_postcode": "07310",
      "addr_street": "Washington Boulevard",
      "addr_housenumber": "479"
    },
    {
      "id": 146627,
      "geometry": "POINT (-73.983176 40.770074)",
      "poi_name": "Chef Tan",
      "osm_id": 7465316486,
      "amenity": "restaurant",
      "cuisine": "chinese",
      "phone": "(201) 987-7070",
      "addr_state": "NJ",
      "addr_city": "Jersey City",
      "addr_postcode": "07310",
      "addr_street": "Washington Boulevard",
      "addr_housenumber": "558"
    },
    {
      "id": 146659,
      "geometry": "POINT (-73.983176 40.770074)",
      "poi_name": "Ruth's Chris Steak House",
      "osm_id": 7468549776,
      "amenity": "restaurant",
      "cuisine": "american",
      "website": "https://ruthschris.com/",
      "phone": "(201) 448-8664",
      "addr_state": "NJ",
      "addr_city": "Jersey City",
      "addr_postcode": "07310",
      "addr_street": "Washington Boulevard",
      "addr_housenumber": "499"
    },
    {
      "id": 149436,
      "geometry": "POINT (-73.983176 40.770074)",
      "poi_name": "The Grey Dog",
      "osm_id": 4009714818,
      "amenity": "restaurant",
      "cuisine": "american",
      "opening_hours": "Su, Mo 07:00-22:30; Tu-Fr 07:00-23:30; Sa 07:30-23:30",
      "takeaway": "yes",
      "delivery": "no",
      "addr_state": "NY",
      "addr_city": "New York",
      "addr_postcode": "10011",
      "addr_street": "West 16th Street",
      "addr_housenumber": "242"
    },
    {
      "id": 150186,
      "geometry": "POINT (-73.983176 40.770074)",
      "poi_name": "The Waverly Inn",
      "osm_id": 4045599201,
      "amenity": "restaurant",
      "cuisine": "american",
      "opening_hours": "Mo-Th 18:00-00:00; Fr 18:00-01:00; Sa 11:00-01:00; Su 11:00-00:00",
      "website": "http://www.waverlynyc.com",
      "phone": "+19178281154",
      "takeaway": "no",
      "outdoor_seating": "yes",
      "addr_state": "NY",
      "addr_city": "New York",
      "addr_postcode": "10014",
      "addr_street": "Bank Street",
      "addr_housenumber": "16"
    },
    {
      "id": 150527,
      "geometry": "POINT (-73.983176 40.770074)",
      "poi_name": "Cafe Cluny",
      "osm_id": 4058593203,
      "amenity": "restaurant",
      "website": "https://www.cafecluny.com/",
      "phone": "+1 212 255 6900",
      "addr_city": "New York",
      "addr_street": "West 12th Street",
      "addr_housenumber": "284"
    },
    {
      "id": 151291,
      "geometry": "POINT (-73.983176 40.770074)",
      "poi_name": "Bocca di Bacco",
      "osm_id": 4092436131,
      "amenity": "restaurant",
      "cuisine": "italian",
      "opening_hours": "12:00-24:00",
      "website": "https://www.boccadibacconyc.com/location/bocca-di-bacco-chelsea/",
      "phone": "+1 212 989 8400",
      "outdoor_seating": "yes",
      "addr_city": "New York",
      "addr_postcode": "10011",
      "addr_street": "9th Avenue",
      "addr_housenumber": "169"
    },
    {
      "id": 152413,
      "geometry": "POINT (-73.983176 40.770074)",
      "poi_name": "Al Dente Risorante",
      "osm_id": 4143764260,
      "amenity": "restaurant",
      "cuisine": "italian",
      "addr_state": "NJ",
      "addr_city": "Piscataway",
      "addr_postcode": "08854",
      "addr_street": "Stelton Road",
      "addr_housenumber": "1665"
    },
    {
      "id": 150831,
      "geometry": "POINT (-73.983176 40.770074)",
      "poi_name": "Blossom- Chelsea",
      "osm_id": 4070145531,
      "amenity": "restaurant",
      "opening_hours": "Su-Th 12:00-14:45; Fr-Sa 17:00-22:00",
      "website": "https://www.blossomnyc.com/",
      "phone": "+1 212 627 1144",
      "addr_city": "New York",
      "addr_street": "9th Avenue",
      "addr_housenumber": "187"
    },
    {
      "id": 153687,
      "geometry": "POINT (-73.983176 40.770074)",
      "poi_name": "Andrew's Healthy Eating",
      "osm_id": 4208091189,
      "amenity": "restaurant",
      "opening_hours": "Mo-Sa 11:00-21:00; Su 11:00-16:00",
      "website": "http://www.andrewshealthyfoods.com/",
      "phone": "+1 201 339 0033",
      "addr_state": "NJ",
      "addr_city": "Bayonne",
      "addr_postcode": "07002",
      "addr_street": "Broadway",
      "addr_housenumber": "737"
    },
    {
      "id": 153113,
      "geometry": "POINT (-73.983176 40.770074)",
      "poi_name": "Spice Market",
      "osm_id": 4177039064,
      "amenity": "restaurant",
      "cuisine": "asian",
      "website": "https://www.spicemarketnewyork.com",
      "addr_city": "New York",
      "addr_postcode": "10014",
      "addr_street": "13th St.",
      "addr_housenumber": "403 W"
    },
    {
      "id": 153586,
      "geometry": "POINT (-73.983176 40.770074)",
      "poi_name": "La Famiglia Sorrento",
      "osm_id": 4203550193,
      "amenity": "restaurant",
      "takeaway": "yes",
      "addr_state": "NJ",
      "addr_city": "Westfield",
      "addr_postcode": "07090",
      "addr_street": "Central Avenue",
      "addr_housenumber": "631"
    },
    {
      "id": 159082,
      "geometry": "POINT (-73.983176 40.770074)",
      "poi_name": "Totto Ramen",
      "osm_id": 4775572069,
      "amenity": "restaurant",
      "cuisine": "ramen",
      "opening_hours": "12:00-22:00",
      "website": "https://tottoramen.com/",
      "phone": "+1-646-596-9056",
      "addr_state": "NY",
      "addr_city": "New York",
      "addr_postcode": "10019",
      "addr_street": "West 51st Street",
      "addr_housenumber": "464"
    },
    {
      "id": 160681,
      "geometry": "POINT (-73.983176 40.770074)",
      "poi_name": "Roast Kitchen",
      "osm_id": 4842467840,
      "amenity": "restaurant",
      "cuisine": "international",
      "description": "Counter for hot and cold healthy fresh salads and grains with various meat add-ons available.",
      "opening_hours": "Mo-Fr 11:00-22:00; Sa-Su 11:00-20:00",
      "website": "http://www.roast-kitchen.com/",
      "takeaway": "yes",
      "addr_state": "NY",
      "addr_city": "New York",
      "addr_postcode": "10018",
      "addr_street": "8th Avenue",
      "addr_housenumber": "820"
    },
    {
      "id": 165080,
      "geometry": "POINT (-73.983176 40.770074)",
      "poi_name": "Manhattan Bagel",
      "osm_id": 9517111410,
      "amenity": "restaurant",
      "cuisine": "bagel;sandwich;breakfast;lunch;coffee",
      "opening_hours": "Mo-Su 06:00-15:00",
      "website": "WestfieldUnionMB.com",
      "phone": "(908) 687-4900",
      "addr_state": "NJ",
      "addr_city": "Union",
      "addr_postcode": "07083",
      "addr_street": "Galloping Hill Road",
      "addr_housenumber": "1350"
    },
    {
      "id": 164626,
      "geometry": "POINT (-73.983176 40.770074)",
      "poi_name": "Kings of Kobe",
      "osm_id": 9490050218,
      "amenity": "restaurant",
      "cuisine": "burger;american",
      "opening_hours": "Tu-Su 12:00-21:00; Fr,Sa 12:00-22:00",
      "website": "https://www.kingsofkobe.com/",
      "phone": "+1-646-370-5121",
      "addr_state": "NY",
      "addr_city": "New York",
      "addr_postcode": "10036",
      "addr_street": "West 42nd Street",
      "addr_housenumber": "650"
    },
    {
      "id": 165342,
      "geometry": "POINT (-73.983176 40.770074)",
      "poi_name": "Village Square Pizza",
      "osm_id": 9530084241,
      "amenity": "restaurant",
      "cuisine": "pizza",
      "addr_state": "NY",
      "addr_city": "New York",
      "addr_postcode": "10014",
      "addr_street": "Christopher Street",
      "addr_housenumber": "118"
    },
    {
      "id": 166675,
      "geometry": "POINT (-73.983176 40.770074)",
      "poi_name": "Court Street",
      "osm_id": 305499273,
      "amenity": "restaurant",
      "opening_hours": "Mo-Sa 16:30-23:00; Su 11:00-15:00,16:30-22:00",
      "website": "https://www.courtstreet.com/",
      "phone": "+1-201-795-4515",
      "addr_city": "Hoboken",
      "addr_street": "6th St",
      "addr_housenumber": "61"
    },
    {
      "id": 165832,
      "geometry": "POINT (-73.983176 40.770074)",
      "poi_name": "East New Sing Bo",
      "osm_id": 9558849443,
      "amenity": "restaurant",
      "cuisine": "chinese;asian",
      "website": "https://singbosi.com/",
      "addr_state": "NY",
      "addr_city": "Staten Island",
      "addr_street": "Victory Boulevard",
      "addr_housenumber": "1745"
    },
    {
      "id": 165985,
      "geometry": "POINT (-73.983176 40.770074)",
      "poi_name": "Max's Restaurant",
      "osm_id": 9569499611,
      "amenity": "restaurant",
      "cuisine": "asian;filipino",
      "opening_hours": "Mo-Th 11:00-19:00; Fr-Su 11:00-20:00",
      "website": "https://www.maxsrestaurantna.com/jersey-city",
      "phone": "+1-201-798-2700",
      "takeaway": "yes",
      "addr_state": "NJ",
      "addr_city": "Jersey City",
      "addr_postcode": "07306",
      "addr_street": "Newark Avenue",
      "addr_housenumber": "687"
    },
    {
      "id": 165494,
      "geometry": "POINT (-73.983176 40.770074)",
      "poi_name": "Churrasqueria JC",
      "osm_id": 9538728525,
      "amenity": "restaurant",
      "opening_hours": "Mo-Su 11:00-22:00",
      "phone": "+1-201-942-2620",
      "takeaway": "yes",
      "addr_state": "NJ",
      "addr_city": "Jersey City",
      "addr_postcode": "07306",
      "addr_street": "Newark Avenue",
      "addr_housenumber": "542"
    },
    {
      "id": 165495,
      "geometry": "POINT (-73.983176 40.770074)",
      "poi_name": "Little Quiapo",
      "osm_id": 9538728535,
      "amenity": "restaurant",
      "cuisine": "asian;filipino",
      "opening_hours": "Mo-Su 08:00-16:00",
      "phone": "+1-201-656-0384",
      "takeaway": "only",
      "outdoor_seating": "yes",
      "addr_state": "NJ",
      "addr_city": "Jersey City",
      "addr_postcode": "07306",
      "addr_street": "Newark Avenue",
      "addr_housenumber": "530C"
    },
    {
      "id": 165497,
      "geometry": "POINT (-73.983176 40.770074)",
      "poi_name": "KTR Biryani & Curry",
      "osm_id": 9538728539,
      "amenity": "restaurant",
      "cuisine": "indian",
      "opening_hours": "We-Mo 11:30-24:00 \"dine in\"; Mo-Su 11:30-24:00 \"takeout\"",
      "website": "https://ktrbc.com/",
      "phone": "(201) 918-5792",
      "takeaway": "yes",
      "delivery": "yes",
      "addr_state": "NJ",
      "addr_city": "Jersey City",
      "addr_postcode": "07306",
      "addr_street": "Newark Avenue",
      "addr_housenumber": "515"
    },
    {
      "id": 165498,
      "geometry": "POINT (-73.983176 40.770074)",
      "poi_name": "John's",
      "osm_id": 9538728541,
      "amenity": "restaurant",
      "cuisine": "sandwich;american;burger;breakfast;bagel;salad",
      "opening_hours": "Mo-Fr 07:30-16:00; Sa-Su 07:30-15:30",
      "phone": "(201) 420-6661",
      "addr_state": "NJ",
      "addr_city": "Jersey City",
      "addr_postcode": "07306",
      "addr_street": "Newark Avenue",
      "addr_housenumber": "553 1/2"
    },
    {
      "id": 165508,
      "geometry": "POINT (-73.983176 40.770074)",
      "poi_name": "Ling Long Xuan",
      "osm_id": 9538839142,
      "amenity": "restaurant",
      "cuisine": "chinese",
      "opening_hours": "Mo-Th 11:00-22:00; Fr-Su 10:30-22:30",
      "website": "http://www.linglongxuannj.com/",
      "phone": "+1-201-763-6635",
      "addr_state": "NJ",
      "addr_city": "Jersey City",
      "addr_postcode": "07306",
      "addr_street": "Newark Avenue",
      "addr_housenumber": "586"
    },
    {
      "id": 165513,
      "geometry": "POINT (-73.983176 40.770074)",
      "poi_name": "Freetown Road Project",
      "osm_id": 9538992245,
      "amenity": "restaurant",
      "cuisine": "caribbean",
      "opening_hours": "We-Fr 15:00-22:00; Sa 12:00-22:00; Su 12:00-18:00",
      "website": "http://www.freetownroadprojectnj.com/",
      "phone": "(201) 653-6533",
      "takeaway": "yes",
      "delivery": "yes",
      "addr_state": "NJ",
      "addr_city": "Jersey City",
      "addr_postcode": "07306",
      "addr_street": "Newark Avenue",
      "addr_housenumber": "640"
    },
    {
      "id": 165514,
      "geometry": "POINT (-73.983176 40.770074)",
      "poi_name": "Lucky Star",
      "osm_id": 9538992246,
      "amenity": "restaurant",
      "cuisine": "chinese",
      "website": "https://www.luckystarnj.com/",
      "phone": "(201) 792-5888",
      "takeaway": "yes",
      "addr_state": "NJ",
      "addr_city": "Jersey City",
      "addr_postcode": "07306",
      "addr_street": "Newark Avenue",
      "addr_housenumber": "644"
    },
    {
      "id": 165515,
      "geometry": "POINT (-73.983176 40.770074)",
      "poi_name": "Yummy Tortillas",
      "osm_id": 9538992247,
      "amenity": "restaurant",
      "cuisine": "mexican",
      "website": "https://www.yummytortillasmexican.com/",
      "phone": "(201) 792-5860",
      "takeaway": "yes",
      "addr_state": "NJ",
      "addr_city": "Jersey City",
      "addr_postcode": "07306",
      "addr_street": "Newark Avenue",
      "addr_housenumber": "644"
    },
    {
      "id": 165516,
      "geometry": "POINT (-73.983176 40.770074)",
      "poi_name": "Lievito Pizza",
      "osm_id": 9539253676,
      "amenity": "restaurant",
      "cuisine": "pizza;pasta;sandwich;salad",
      "opening_hours": "Su-Th 11:00-01:45; Fr-Sa 11:00-02:45",
      "website": "https://lievitopizza.com/",
      "phone": "(201) 918-6461",
      "takeaway": "yes",
      "delivery": "yes",
      "addr_state": "NJ",
      "addr_city": "Jersey City",
      "addr_postcode": "07306",
      "addr_street": "Summit Avenue",
      "addr_housenumber": "584"
    },
    {
      "id": 165517,
      "geometry": "POINT (-73.983176 40.770074)",
      "poi_name": "Banana King",
      "osm_id": 9539253677,
      "amenity": "restaurant",
      "cuisine": "latin_american",
      "opening_hours": "24/7",
      "website": "https://www.bananakingcorp.com/",
      "phone": "(551) 220-9090",
      "takeaway": "yes",
      "addr_state": "NJ",
      "addr_city": "Jersey City",
      "addr_postcode": "07306",
      "addr_street": "Newark Avenue",
      "addr_housenumber": "665"
    },
    {
      "id": 166158,
      "geometry": "POINT (-73.983176 40.770074)",
      "poi_name": "Uptown Pizzeria",
      "osm_id": 9577868702,
      "amenity": "restaurant",
      "cuisine": "pizza",
      "addr_state": "NJ",
      "addr_city": "Hoboken",
      "addr_postcode": "07030",
      "addr_street": "14th Street",
      "addr_housenumber": "54"
    },
    {
      "id": 169221,
      "geometry": "POINT (-73.983176 40.770074)",
      "poi_name": "Mie Thai",
      "osm_id": 2295350033,
      "amenity": "restaurant",
      "cuisine": "thai",
      "wheelchair": "no",
      "addr_city": "Woodbridge",
      "addr_postcode": "07095",
      "addr_street": "Main Street",
      "addr_housenumber": "34"
    },
    {
      "id": 168642,
      "geometry": "POINT (-73.983176 40.770074)",
      "poi_name": "Marseille",
      "osm_id": 2273962587,
      "amenity": "restaurant",
      "cuisine": "french",
      "wheelchair": "no",
      "website": "https://marseillenyc.com/",
      "addr_state": "NY",
      "addr_city": "New York",
      "addr_postcode": "10036",
      "addr_street": "9th Avenue",
      "addr_housenumber": "630"
    },
    {
      "id": 168643,
      "geometry": "POINT (-73.983176 40.770074)",
      "poi_name": "Westway Diner",
      "osm_id": 2273968599,
      "amenity": "restaurant",
      "website": "www.westwaydinernyc.com/",
      "addr_state": "NY",
      "addr_city": "New York",
      "addr_postcode": "10036",
      "addr_street": "9th Avenue",
      "addr_housenumber": "614"
    },
    {
      "id": 168644,
      "geometry": "POINT (-73.983176 40.770074)",
      "poi_name": "Mama Mia 44SW",
      "osm_id": 2273972179,
      "amenity": "restaurant",
      "cuisine": "italian",
      "wheelchair": "yes",
      "website": "www.44southwest.com/",
      "addr_state": "NY",
      "addr_city": "New York",
      "addr_postcode": "10036",
      "addr_street": "9th Avenue",
      "addr_housenumber": "621"
    },
    {
      "id": 170388,
      "geometry": "POINT (-73.983176 40.770074)",
      "poi_name": "M-Thai",
      "osm_id": 2334601455,
      "amenity": "restaurant",
      "cuisine": "thai",
      "wheelchair": "yes",
      "website": "www.M-Thainyc.com",
      "internet_access": "no",
      "phone": "+1 212 229-9799",
      "takeaway": "yes",
      "outdoor_seating": "no",
      "addr_state": "NY",
      "addr_city": "New York",
      "addr_postcode": "10011",
      "addr_street": "8th Avenue",
      "addr_housenumber": "232"
    },
    {
      "id": 170328,
      "geometry": "POINT (-73.983176 40.770074)",
      "poi_name": "Ponte's",
      "osm_id": 2332341891,
      "amenity": "restaurant",
      "cuisine": "italian",
      "addr_city": "New York",
      "addr_postcode": "10013",
      "addr_street": "Desbrosses Street",
      "addr_housenumber": "39"
    },
    {
      "id": 169853,
      "geometry": "POINT (-73.983176 40.770074)",
      "poi_name": "Hell's Kitchen",
      "osm_id": 2322155492,
      "amenity": "restaurant",
      "cuisine": "mediterranean",
      "website": "https://www.hkhellskitchen.com/",
      "phone": "2129474208",
      "addr_state": "NY",
      "addr_city": "New York",
      "addr_postcode": "10036",
      "addr_street": "9th Avenue",
      "addr_housenumber": "523"
    },
    {
      "id": 171681,
      "geometry": "POINT (-73.983176 40.770074)",
      "poi_name": "IHOP",
      "osm_id": 2384399614,
      "amenity": "restaurant",
      "cuisine": "breakfast;pancake",
      "website": "https://www.ihop.com/",
      "phone": "1-718-494-4467",
      "addr_city": "Staten Island",
      "addr_postcode": "10314",
      "addr_street": "Richmond Avenue",
      "addr_housenumber": "935"
    },
    {
      "id": 171233,
      "geometry": "POINT (-73.983176 40.770074)",
      "poi_name": "Moran's",
      "osm_id": 2366519598,
      "amenity": "restaurant",
      "cuisine": "american",
      "website": "http://www.moransrestaurant.com/",
      "addr_state": "NY",
      "addr_city": "New York",
      "addr_postcode": "10011",
      "addr_street": "10th Avenue",
      "addr_housenumber": "146"
    },
    {
      "id": 171486,
      "geometry": "POINT (-73.983176 40.770074)",
      "poi_name": "Donnatella",
      "osm_id": 2377128144,
      "amenity": "restaurant",
      "cuisine": "pizza",
      "opening_hours": "Tu-We 12:00-22:00; Th-Sa 12:00-23:00; Su 12:00-22:00",
      "website": "http://donatellanyc.com/",
      "addr_state": "NY",
      "addr_city": "New York",
      "addr_postcode": "10011",
      "addr_street": "8th Avenue",
      "addr_housenumber": "184"
    },
    {
      "id": 171488,
      "geometry": "POINT (-73.983176 40.770074)",
      "poi_name": "El Cid",
      "osm_id": 2377128149,
      "amenity": "restaurant",
      "cuisine": "spanish",
      "website": "http://elcidnyc.com/",
      "addr_state": "NY",
      "addr_city": "New York",
      "addr_postcode": "10011",
      "addr_street": "8th Avenue",
      "addr_housenumber": "174"
    },
    {
      "id": 171489,
      "geometry": "POINT (-73.983176 40.770074)",
      "poi_name": "Shaffer\u2019s",
      "osm_id": 2377128150,
      "amenity": "restaurant",
      "website": "https://shaffersnyc.com/",
      "addr_state": "NY",
      "addr_city": "New York",
      "addr_postcode": "10011",
      "addr_street": "8th Avenue",
      "addr_housenumber": "151"
    },
    {
      "id": 171491,
      "geometry": "POINT (-73.983176 40.770074)",
      "poi_name": "Grand Sichuan Eastern",
      "osm_id": 2377128154,
      "amenity": "restaurant",
      "cuisine": "chinese",
      "addr_state": "NY",
      "addr_city": "New York",
      "addr_postcode": "10011",
      "addr_street": "8th Avenue",
      "addr_housenumber": "172"
    },
    {
      "id": 171492,
      "geometry": "POINT (-73.983176 40.770074)",
      "poi_name": "LOULOU",
      "osm_id": 2377128157,
      "amenity": "restaurant",
      "opening_hours": "Mo-Th 11:00-00:00; Fr-Su 10:00-00:00",
      "website": "https://www.loulounyc.com/",
      "phone": "+1-212-337-9577",
      "addr_state": "NY",
      "addr_city": "New York",
      "addr_postcode": "10011",
      "addr_street": "8th Avenue",
      "addr_housenumber": "176"
    },
    {
      "id": 171494,
      "geometry": "POINT (-73.983176 40.770074)",
      "poi_name": "Lasagna Ristorante",
      "osm_id": 2377128169,
      "amenity": "restaurant",
      "cuisine": "italian",
      "wheelchair": "yes",
      "website": "https://lasagnarestaurantchelsea.com",
      "phone": "+1-212-242-4551",
      "outdoor_seating": "yes",
      "addr_state": "NY",
      "addr_city": "New York",
      "addr_postcode": "10011",
      "addr_street": "8th Avenue",
      "addr_housenumber": "196"
    },
    {
      "id": 171498,
      "geometry": "POINT (-73.983176 40.770074)",
      "poi_name": "Mexicue",
      "osm_id": 2377128176,
      "amenity": "restaurant",
      "cuisine": "mexican",
      "opening_hours": "Mo-Th 12:00-22:00; Fr 12:00-23:00; Sa 11:00-23:00; Su 11:00-21:00",
      "website": "https://www.mexicue.com/location/mexicue-chelsea/",
      "phone": "+1-332-262-7100",
      "addr_state": "NY",
      "addr_city": "New York",
      "addr_postcode": "10011",
      "addr_street": "8th Avenue",
      "addr_housenumber": "160"
    },
    {
      "id": 171499,
      "geometry": "POINT (-73.983176 40.770074)",
      "poi_name": "Rocking Horse Cafe",
      "osm_id": 2377128178,
      "amenity": "restaurant",
      "cuisine": "mexican",
      "website": "http://rockinghorsecafe.com/",
      "addr_state": "NY",
      "addr_city": "New York",
      "addr_postcode": "10011",
      "addr_street": "8th Avenue",
      "addr_housenumber": "182"
    },
    {
      "id": 171500,
      "geometry": "POINT (-73.983176 40.770074)",
      "poi_name": "Spice",
      "osm_id": 2377128179,
      "amenity": "restaurant",
      "cuisine": "thai",
      "website": "https://www.spicethainyc.com/spice/home/",
      "addr_state": "NY",
      "addr_city": "New York",
      "addr_postcode": "10011",
      "addr_street": "8th Avenue",
      "addr_housenumber": "236"
    },
    {
      "id": 171505,
      "geometry": "POINT (-73.983176 40.770074)",
      "poi_name": "Temerarion",
      "osm_id": 2377128186,
      "amenity": "restaurant",
      "cuisine": "mexican",
      "website": "https://www.temerarionyc.com",
      "phone": "+1-212-645-2100",
      "takeaway": "yes",
      "delivery": "yes",
      "addr_state": "NY",
      "addr_city": "New York",
      "addr_postcode": "10011",
      "addr_street": "8th Avenue",
      "addr_housenumber": "198"
    },
    {
      "id": 171507,
      "geometry": "POINT (-73.983176 40.770074)",
      "poi_name": "Uncle Nick's Restaurant",
      "osm_id": 2377128195,
      "amenity": "restaurant",
      "cuisine": "greek",
      "wheelchair": "yes",
      "opening_hours": "Mo-Su 11:30-23:00",
      "website": "https://www.unclenicksgreekcuisine.com/",
      "takeaway": "yes",
      "outdoor_seating": "no",
      "addr_state": "NY",
      "addr_city": "New York",
      "addr_postcode": "10001",
      "addr_street": "8th Avenue",
      "addr_housenumber": "382"
    },
    {
      "id": 172593,
      "geometry": "POINT (-73.983176 40.770074)",
      "poi_name": "Pad Thai",
      "osm_id": 2407447000,
      "amenity": "restaurant",
      "cuisine": "thai;japanese",
      "opening_hours": "Mo-Fr 11:00-22:30; Sa, Su 12:00-22:30",
      "website": "https://www.padthai8thave.com/",
      "phone": "+1 212 268-2752",
      "takeaway": "yes",
      "delivery": "yes",
      "addr_city": "New York",
      "addr_postcode": "10001",
      "addr_street": "8th Avenue",
      "addr_housenumber": "409"
    },
    {
      "id": 172594,
      "geometry": "POINT (-73.983176 40.770074)",
      "poi_name": "Pio Pio Riko",
      "osm_id": 2407447001,
      "amenity": "restaurant",
      "cuisine": "peruvian;chicken",
      "wheelchair": "yes",
      "website": "https://www.piopio.com/",
      "takeaway": "yes",
      "outdoor_seating": "no",
      "addr_state": "NY",
      "addr_city": "New York",
      "addr_postcode": "10001",
      "addr_street": "8th Avenue",
      "addr_housenumber": "409"
    },
    {
      "id": 172693,
      "geometry": "POINT (-73.983176 40.770074)",
      "poi_name": "Qanoon",
      "osm_id": 2410485653,
      "amenity": "restaurant",
      "cuisine": "palestinian",
      "opening_hours": "Mo-Fr 17:00-22:00; Sa, Su 10:00-15:00, 17:00-22:00",
      "website": "https://www.qanoonnyc.com",
      "phone": "+1 646-843-9711",
      "addr_city": "New York",
      "addr_postcode": "10011",
      "addr_street": "9th Avenue",
      "addr_housenumber": "180"
    },
    {
      "id": 172595,
      "geometry": "POINT (-73.983176 40.770074)",
      "poi_name": "Taco Bandito",
      "osm_id": 2407467350,
      "amenity": "restaurant",
      "cuisine": "mexican",
      "opening_hours": "Mo-Sa 11:00-23:00; Su 12:00-22:00",
      "website": "http://tacobanditochelsea.com/",
      "phone": "+1 212-989-5918",
      "takeaway": "yes",
      "delivery": "yes",
      "addr_state": "NY",
      "addr_city": "New York",
      "addr_postcode": "10001",
      "addr_street": "8th Avenue",
      "addr_housenumber": "325"
    },
    {
      "id": 172600,
      "geometry": "POINT (-73.983176 40.770074)",
      "poi_name": "Pita Pan Cafe",
      "osm_id": 2407891431,
      "amenity": "restaurant",
      "cuisine": "greek",
      "addr_city": "New York",
      "addr_postcode": "10001",
      "addr_street": "8th Avenue",
      "addr_housenumber": "273"
    },
    {
      "id": 172621,
      "geometry": "POINT (-73.983176 40.770074)",
      "poi_name": "Dallas BBQ",
      "osm_id": 2408375729,
      "amenity": "restaurant",
      "cuisine": "barbecue",
      "website": "https://www.dallasbbq.com/",
      "phone": "+1-212.462.0001",
      "addr_state": "NY",
      "addr_city": "New York",
      "addr_street": "8th Avenue",
      "addr_housenumber": "261"
    },
    {
      "id": 172706,
      "geometry": "POINT (-73.983176 40.770074)",
      "poi_name": "Rafella Cafe",
      "osm_id": 2411263662,
      "amenity": "restaurant",
      "cuisine": "italian",
      "opening_hours": "Mo-Th 10:00-23:00; Fr 10:00-24:00; Sa 09:00-24:00; Su 09:00-23:30",
      "website": "rafaellacafe.com",
      "phone": "+1 212-741-3230",
      "addr_city": "New York",
      "addr_postcode": "10011",
      "addr_street": "9th Avenue",
      "addr_housenumber": "178"
    },
    {
      "id": 172708,
      "geometry": "POINT (-73.983176 40.770074)",
      "poi_name": "Dil e Punjab Deli",
      "osm_id": 2411275799,
      "amenity": "restaurant",
      "cuisine": "indian",
      "phone": "+1 212-647-9428",
      "addr_city": "New York",
      "addr_postcode": "10011",
      "addr_street": "9th Avenue",
      "addr_housenumber": "170"
    },
    {
      "id": 172727,
      "geometry": "POINT (-73.983176 40.770074)",
      "poi_name": "Omai",
      "osm_id": 2411595316,
      "amenity": "restaurant",
      "cuisine": "vietnamese",
      "website": "https://omainyc.com/",
      "phone": "+1 212.633.0575;+1 212.633.0550",
      "addr_state": "NY",
      "addr_city": "New York",
      "addr_street": "9th Avenue",
      "addr_housenumber": "158"
    },
    {
      "id": 172728,
      "geometry": "POINT (-73.983176 40.770074)",
      "poi_name": "Tipsy Parson",
      "osm_id": 2411595856,
      "amenity": "restaurant",
      "opening_hours": "Mo-Th 11:30-23:00; Fr 11:30-24:00; Sa 10:00-24:00; Su 10:00-22:30",
      "website": "https://www.tipsyparson.com/",
      "phone": "+1 212.620.4545",
      "addr_city": "New York",
      "addr_postcode": "10011",
      "addr_street": "9th Avenue",
      "addr_housenumber": "156"
    },
    {
      "id": 172658,
      "geometry": "POINT (-73.983176 40.770074)",
      "poi_name": "Chelsea Cottage's Viet Grill",
      "osm_id": 2409935351,
      "amenity": "restaurant",
      "cuisine": "vietnamese",
      "phone": "+1-212-366-4881;+1-212-366-4882",
      "addr_city": "New York",
      "addr_postcode": "10011",
      "addr_street": "9th Avenue",
      "addr_housenumber": "206"
    },
    {
      "id": 172659,
      "geometry": "POINT (-73.983176 40.770074)",
      "poi_name": "Famous Original Ray's Pizza",
      "osm_id": 2409935353,
      "amenity": "restaurant",
      "cuisine": "pizza",
      "website": "famousoriginalrayschelsea.com",
      "phone": "+1-212-243-1129",
      "addr_state": "NY",
      "addr_city": "New York",
      "addr_street": "9th Avenue",
      "addr_housenumber": "204"
    },
    {
      "id": 172660,
      "geometry": "POINT (-73.983176 40.770074)",
      "poi_name": "The Meatball Company",
      "osm_id": 2409946234,
      "amenity": "restaurant",
      "opening_hours": "Mo,Su 00:00-02:00,12:00-24:00; Tu-Sa 00:00-04:00,12:00-24:00",
      "website": "https://www.themeatballshop.com/locations/#chelsea",
      "phone": "+1 212-257-4363",
      "addr_city": "New York",
      "addr_street": "9th Avenue",
      "addr_housenumber": "200"
    },
    {
      "id": 174270,
      "geometry": "POINT (-73.983176 40.770074)",
      "poi_name": "New Asha Sri Lanka Restaurant",
      "osm_id": 2473702737,
      "amenity": "restaurant",
      "cuisine": "sri_lankan",
      "phone": "+1 718 420-0649",
      "addr_city": "Staten Island",
      "addr_postcode": "10301",
      "addr_street": "Victory Boulevard",
      "addr_housenumber": "322"
    },
    {
      "id": 172740,
      "geometry": "POINT (-73.983176 40.770074)",
      "poi_name": "Salinas",
      "osm_id": 2411819330,
      "amenity": "restaurant",
      "cuisine": "spanish",
      "website": "https://salinasnyc.com/",
      "phone": "+1 212.776.1990",
      "addr_city": "New York",
      "addr_postcode": "10011",
      "addr_street": "9th Avenue",
      "addr_housenumber": "136"
    },
    {
      "id": 175352,
      "geometry": "POINT (-73.983176 40.770074)",
      "poi_name": "Txikito",
      "osm_id": 2516877509,
      "amenity": "restaurant",
      "cuisine": "basque",
      "opening_hours": "Mo-Sa 17:30-23:00; Su 05:30-22:30",
      "website": "https://www.txikitonyc.com/",
      "internet_access": "wlan",
      "phone": "+1 212-242-4730",
      "addr_city": "New York",
      "addr_postcode": "10001",
      "addr_street": "9th Avenue",
      "addr_housenumber": "240"
    },
    {
      "id": 174711,
      "geometry": "POINT (-73.983176 40.770074)",
      "poi_name": "Enoteca Maria",
      "osm_id": 2494344430,
      "amenity": "restaurant",
      "cuisine": "italian",
      "website": "https://enotecamaria.com/",
      "phone": "+1 718 447-2777",
      "addr_city": "Staten Island",
      "addr_postcode": "10301",
      "addr_street": "Hyatt Street",
      "addr_housenumber": "27"
    },
    {
      "id": 174759,
      "geometry": "POINT (-73.983176 40.770074)",
      "poi_name": "San Rasa",
      "osm_id": 2495737087,
      "amenity": "restaurant",
      "cuisine": "sri_lankan",
      "website": "http://sanrasa.com/",
      "phone": "+1 718 420-0027",
      "addr_state": "NY",
      "addr_city": "Staten Island",
      "addr_postcode": "10301",
      "addr_street": "Corson Avenue",
      "addr_housenumber": "19"
    },
    {
      "id": 175340,
      "geometry": "POINT (-73.983176 40.770074)",
      "poi_name": "Duffy's",
      "osm_id": 2515565337,
      "amenity": "restaurant",
      "cuisine": "diner;american;burger",
      "opening_hours": "Su 12:00-22:00, Mo-We 11:30-22:30, Th 11:30-23:00, Fr-Sa 11:30-24:00",
      "phone": "(718) 447-9276",
      "addr_state": "NY",
      "addr_city": "Staten Island",
      "addr_postcode": "10310",
      "addr_street": "Forest Avenue",
      "addr_housenumber": "650"
    },
    {
      "id": 175578,
      "geometry": "POINT (-73.983176 40.770074)",
      "poi_name": "Sushi Wen",
      "osm_id": 2526690073,
      "amenity": "restaurant",
      "cuisine": "japanese;sushi",
      "opening_hours": "Mo-Th 11:00-22:30; Fr-Sa 11:00-23:00; Su 12:00-22:00",
      "phone": "+1-718-816-8279",
      "addr_state": "NY",
      "addr_city": "Staten Island",
      "addr_postcode": "10310",
      "addr_street": "Castleton Avenue",
      "addr_housenumber": "856"
    },
    {
      "id": 176138,
      "geometry": "POINT (-73.983176 40.770074)",
      "poi_name": "Il Sogno",
      "osm_id": 2551462177,
      "amenity": "restaurant",
      "cuisine": "italian",
      "addr_state": "NY",
      "addr_city": "Staten Island",
      "addr_postcode": "10312",
      "addr_street": "Jefferson Boulevard",
      "addr_housenumber": "26"
    },
    {
      "id": 176143,
      "geometry": "POINT (-73.983176 40.770074)",
      "poi_name": "Salvatore & Lloyd's Pizza Place",
      "osm_id": 2551542884,
      "amenity": "restaurant",
      "cuisine": "pizza",
      "website": "https://www.salandlloydspizzaplace.com",
      "phone": "+1-718-356-5350",
      "addr_state": "NY",
      "addr_city": "Staten Island",
      "addr_postcode": "10312",
      "addr_street": "Richmond Avenue",
      "addr_housenumber": "3850"
    },
    {
      "id": 176144,
      "geometry": "POINT (-73.983176 40.770074)",
      "poi_name": "Ali Baba",
      "osm_id": 2551542937,
      "amenity": "restaurant",
      "cuisine": "middle_eastern",
      "addr_state": "NY",
      "addr_city": "Staten Island",
      "addr_postcode": "10312",
      "addr_street": "Amboy Road",
      "addr_housenumber": "4561C"
    },
    {
      "id": 176560,
      "geometry": "POINT (-73.983176 40.770074)",
      "poi_name": "Via Carota",
      "osm_id": 2562463952,
      "amenity": "restaurant",
      "addr_state": "NY",
      "addr_city": "New York",
      "addr_postcode": "10014",
      "addr_street": "Grove Street",
      "addr_housenumber": "51"
    },
    {
      "id": 176973,
      "geometry": "POINT (-73.983176 40.770074)",
      "poi_name": "Lakruwana",
      "osm_id": 2570198566,
      "amenity": "restaurant",
      "cuisine": "sri_lankan",
      "website": "http://www.lakruwana.com/",
      "phone": "+1 347 857-6619",
      "addr_city": "Staten Island",
      "addr_postcode": "10304",
      "addr_street": "Bay Street",
      "addr_housenumber": "668"
    },
    {
      "id": 176913,
      "geometry": "POINT (-73.983176 40.770074)",
      "poi_name": "Catch NYC",
      "osm_id": 2569266641,
      "amenity": "restaurant",
      "cuisine": "seafood",
      "website": "https://catchrestaurants.com/catchnyc/",
      "phone": "+1-212-392-5978",
      "addr_state": "NY",
      "addr_city": "New York",
      "addr_postcode": "10014",
      "addr_street": "9th Avenue",
      "addr_housenumber": "21"
    },
    {
      "id": 176914,
      "geometry": "POINT (-73.983176 40.770074)",
      "poi_name": "Valbella",
      "osm_id": 2569266670,
      "amenity": "restaurant",
      "cuisine": "italian",
      "website": "https://www.valbellarestaurants.com/",
      "phone": "+1-212-645-7777",
      "addr_state": "NY",
      "addr_city": "New York",
      "addr_postcode": "10014",
      "addr_street": "West 13th Street",
      "addr_housenumber": "421"
    },
    {
      "id": 176916,
      "geometry": "POINT (-73.983176 40.770074)",
      "poi_name": "Serafina",
      "osm_id": 2569266715,
      "amenity": "restaurant",
      "website": "http://meatpacking.serafinarestaurant.com/",
      "addr_city": "New York",
      "addr_postcode": "10014",
      "addr_street": "9th Avenue",
      "addr_housenumber": "7"
    },
    {
      "id": 177552,
      "geometry": "POINT (-73.983176 40.770074)",
      "poi_name": "Blue Ginger",
      "osm_id": 2592264878,
      "amenity": "restaurant",
      "cuisine": "japanese",
      "addr_state": "NY",
      "addr_city": "New York",
      "addr_postcode": "10011",
      "addr_street": "8th Avenue",
      "addr_housenumber": "106"
    },
    {
      "id": 177553,
      "geometry": "POINT (-73.983176 40.770074)",
      "poi_name": "Chelsea Ristorante Italiano",
      "osm_id": 2592264880,
      "amenity": "restaurant",
      "cuisine": "italian",
      "website": "https://www.chrnyc.com/",
      "addr_state": "NY",
      "addr_city": "New York",
      "addr_postcode": "10011",
      "addr_street": "8th Avenue",
      "addr_housenumber": "108"
    },
    {
      "id": 177555,
      "geometry": "POINT (-73.983176 40.770074)",
      "poi_name": "B\u00f2c\u00e0ph\u00ea",
      "osm_id": 2592264896,
      "amenity": "restaurant",
      "cuisine": "vietnamese",
      "opening_hours": "Tu-We 12:00-22:00, Tu-Sa 12:00-23:00, Su 12:00-22:00",
      "website": "https://www.bocaphe.com/",
      "addr_state": "NY",
      "addr_city": "New York",
      "addr_postcode": "10011",
      "addr_street": "8th Avenue",
      "addr_housenumber": "104"
    },
    {
      "id": 178619,
      "geometry": "POINT (-73.983176 40.770074)",
      "poi_name": "Stadium Pizza",
      "osm_id": 10733145459,
      "amenity": "restaurant",
      "cuisine": "pizza",
      "addr_state": "NJ",
      "addr_city": "Jersey City",
      "addr_postcode": "07305",
      "addr_street": "NJ-440",
      "addr_housenumber": "321"
    },
    {
      "id": 178620,
      "geometry": "POINT (-73.983176 40.770074)",
      "poi_name": "Vinnie's Pizzeria III",
      "osm_id": 10733151574,
      "amenity": "restaurant",
      "cuisine": "pizza",
      "addr_state": "NJ",
      "addr_city": "Jersey City",
      "addr_postcode": "07305",
      "addr_street": "Danforth Avenue",
      "addr_housenumber": "431"
    },
    {
      "id": 178621,
      "geometry": "POINT (-73.983176 40.770074)",
      "poi_name": "Georgio's Pizzeria",
      "osm_id": 10733154297,
      "amenity": "restaurant",
      "cuisine": "pizza",
      "addr_state": "NJ",
      "addr_city": "Jersey City",
      "addr_postcode": "07305",
      "addr_street": "West Side Avenue",
      "addr_housenumber": "337"
    },
    {
      "id": 178622,
      "geometry": "POINT (-73.983176 40.770074)",
      "poi_name": "Vincent's Pizza",
      "osm_id": 10733171678,
      "amenity": "restaurant",
      "cuisine": "pizza",
      "addr_state": "NJ",
      "addr_city": "Jersey City",
      "addr_postcode": "07305",
      "addr_street": "John F. Kennedy Boulevard",
      "addr_housenumber": "1697"
    },
    {
      "id": 178408,
      "geometry": "POINT (-73.983176 40.770074)",
      "poi_name": "Miso Ramen",
      "osm_id": 10724776805,
      "amenity": "restaurant",
      "cuisine": "japanese",
      "opening_hours": "Mo-Su 11:30-21:00",
      "website": "https://ramenmiso.com/",
      "phone": "+1-201-333-8634",
      "addr_state": "NJ",
      "addr_city": "Jersey City",
      "addr_postcode": "07302",
      "addr_street": "Newark Avenue",
      "addr_housenumber": "189"
    },
    {
      "id": 178409,
      "geometry": "POINT (-73.983176 40.770074)",
      "poi_name": "Porta",
      "osm_id": 10724806705,
      "amenity": "restaurant",
      "opening_hours": "Mo-Th 16:00-22:00; Fr-Sa 12:00-02:00; Su 11:00-22:00",
      "website": "https://pizzaporta.com/jersey-city",
      "phone": "+1-201-544-5199",
      "addr_state": "NJ",
      "addr_city": "Jersey City",
      "addr_postcode": "07302",
      "addr_street": "Newark Avenue",
      "addr_housenumber": "135"
    },
    {
      "id": 179106,
      "geometry": "POINT (-73.983176 40.770074)",
      "poi_name": "Bamboo House",
      "osm_id": 10747334448,
      "amenity": "restaurant",
      "cuisine": "chinese",
      "opening_hours": "Mo-Su 10:00-22:00",
      "phone": "(732) 574-3665",
      "addr_state": "NJ",
      "addr_city": "Colonia",
      "addr_postcode": "07067",
      "addr_street": "Inman Avenue",
      "addr_housenumber": "310"
    },
    {
      "id": 179576,
      "geometry": "POINT (-73.983176 40.770074)",
      "poi_name": "Portobello Cafe",
      "osm_id": 10769247450,
      "amenity": "restaurant",
      "cuisine": "italian",
      "opening_hours": "Mo-Th 11:00-22:00; Fr-Sa 11:00-24:00; Su 14:00-22:00",
      "website": "https://www.portobellocafesi.com/",
      "capacity": "200",
      "phone": "+1-718-356-2233",
      "takeaway": "yes",
      "delivery": "yes",
      "addr_state": "NY",
      "addr_city": "Staten Island",
      "addr_postcode": "10308",
      "addr_street": "Hylan Boulevard",
      "addr_housenumber": "4221"
    },
    {
      "id": 183409,
      "geometry": "POINT (-73.983176 40.770074)",
      "poi_name": "Buon Appetito",
      "osm_id": 10929414513,
      "amenity": "restaurant",
      "cuisine": "pizza",
      "addr_state": "NJ",
      "addr_city": "Jersey City",
      "addr_postcode": "07302",
      "addr_street": "Jersey Avenue",
      "addr_housenumber": "520"
    },
    {
      "id": 180482,
      "geometry": "POINT (-73.983176 40.770074)",
      "poi_name": "LaVista Pizza",
      "osm_id": 10803083076,
      "amenity": "restaurant",
      "cuisine": "pizza",
      "opening_hours": "Mo-We 10:00-02:00; Th-Sa 10:00-04:45; Su 10:00-02:00",
      "website": "https://www.lavistapizza.com/",
      "phone": "+1-641-329-6800",
      "takeaway": "Mo-We 10:00-02:00;Th-Sa 10:00-04:45;Su 10:00-02:00",
      "delivery": "Mo-We 10:00-01:45;Th-Sa 10:00-04:45;Su 10:00-01:45",
      "addr_state": "NY",
      "addr_city": "New York",
      "addr_postcode": "10019",
      "addr_street": "10th Avenue",
      "addr_housenumber": "730"
    },
    {
      "id": 179976,
      "geometry": "POINT (-73.983176 40.770074)",
      "poi_name": "Wasabi House",
      "osm_id": 10784647505,
      "amenity": "restaurant",
      "cuisine": "japanese;sushi",
      "opening_hours": "Mo-Fr 11:00-15:00, 16:00-21:00; Sa 11:00-21:00; Su 12:00-21:00",
      "website": "http://wasabihouseeb.com",
      "phone": "732-254-9988",
      "addr_state": "NJ",
      "addr_city": "East Brunswick",
      "addr_postcode": "08826",
      "addr_street": "Tices Lane",
      "addr_housenumber": "77"
    },
    {
      "id": 181055,
      "geometry": "POINT (-73.983176 40.770074)",
      "poi_name": "Sushi Nakazawa",
      "osm_id": 10830817798,
      "amenity": "restaurant",
      "cuisine": "japanese;sushi",
      "addr_city": "New York",
      "addr_postcode": "10009",
      "addr_street": "Saint Mark's Place",
      "addr_housenumber": "23"
    },
    {
      "id": 181656,
      "geometry": "POINT (-73.983176 40.770074)",
      "poi_name": "Venemex Food",
      "osm_id": 10858986933,
      "amenity": "restaurant",
      "cuisine": "venezuelan",
      "addr_state": "NJ",
      "addr_city": "Colonia",
      "addr_postcode": "07067",
      "addr_street": "Inman Avenue",
      "addr_housenumber": "559"
    },
    {
      "id": 181657,
      "geometry": "POINT (-73.983176 40.770074)",
      "poi_name": "Luna piza",
      "osm_id": 10858986954,
      "amenity": "restaurant",
      "cuisine": "pizza",
      "addr_state": "NJ",
      "addr_city": "Colonia",
      "addr_postcode": "07067",
      "addr_street": "Inman Avenue",
      "addr_housenumber": "624"
    },
    {
      "id": 181658,
      "geometry": "POINT (-73.983176 40.770074)",
      "poi_name": "Three in One",
      "osm_id": 10858986958,
      "amenity": "restaurant",
      "addr_state": "NJ",
      "addr_city": "Colonia",
      "addr_postcode": "07067",
      "addr_street": "Inman Avenue",
      "addr_housenumber": "616"
    },
    {
      "id": 182718,
      "geometry": "POINT (-73.983176 40.770074)",
      "poi_name": "Corto",
      "osm_id": 10902503805,
      "amenity": "restaurant",
      "website": "https://www.cortojc.com/",
      "takeaway": "yes",
      "addr_state": "NJ",
      "addr_city": "Jersey City",
      "addr_postcode": "07307",
      "addr_street": "Palisade Avenue",
      "addr_housenumber": "507"
    },
    {
      "id": 186468,
      "geometry": "POINT (-73.983176 40.770074)",
      "poi_name": "Orale Mexican Kitchen",
      "osm_id": 7930672077,
      "amenity": "restaurant",
      "cuisine": "mexican",
      "description": "Orale is a fun and unique space in New Jersey City with two locations in downtown Jersey City and uptown Hoboken. For the ultimate foodies experience, enjoy authentic Mexican cuisine with a bar that includes some of the best handcrafted cocktails. On week",
      "opening_hours": "Tu-Su 15:00-20:30",
      "website": "https://oralemk.com/",
      "phone": "201-333-0001",
      "outdoor_seating": "yes",
      "addr_state": "NJ",
      "addr_city": "Jersey City",
      "addr_postcode": "07302",
      "addr_street": "Grove Street",
      "addr_housenumber": "341"
    },
    {
      "id": 184925,
      "geometry": "POINT (-73.983176 40.770074)",
      "poi_name": "Applebee's",
      "osm_id": 7821236138,
      "amenity": "restaurant",
      "cuisine": "american",
      "wheelchair": "yes",
      "official_name": "Applebee's Neighborhood Grill & Bar",
      "addr_state": "NY",
      "addr_postcode": "10309",
      "addr_street": "Veterans Road West",
      "addr_housenumber": "2722"
    },
    {
      "id": 186379,
      "geometry": "POINT (-73.983176 40.770074)",
      "poi_name": "Denino\u2019s Pizzeria & Tavern",
      "osm_id": 7927539457,
      "amenity": "restaurant",
      "cuisine": "pizza",
      "website": "http://deninossi.com",
      "phone": "+1-718-442-9401",
      "addr_state": "NY",
      "addr_postcode": "10302",
      "addr_street": "Port Richmond Avenue",
      "addr_housenumber": "524"
    },
    {
      "id": 187176,
      "geometry": "POINT (-73.983176 40.770074)",
      "poi_name": "Jerkin Chicken",
      "osm_id": 7978858310,
      "amenity": "restaurant",
      "cuisine": "jamaican;west_indian",
      "addr_state": "NJ",
      "addr_city": "Jersey CITY",
      "addr_postcode": "07305",
      "addr_street": "West Side Avenue",
      "addr_housenumber": "234"
    },
    {
      "id": 190223,
      "geometry": "POINT (-73.983176 40.770074)",
      "poi_name": "Chili's",
      "osm_id": 1277232398,
      "amenity": "restaurant",
      "cuisine": "tex-mex",
      "official_name": "Chili's Grill & Bar",
      "addr_state": "NJ",
      "addr_city": "Clark",
      "addr_postcode": "07066",
      "addr_street": "Central Avenue",
      "addr_housenumber": "225"
    },
    {
      "id": 190499,
      "geometry": "POINT (-73.983176 40.770074)",
      "poi_name": "Seamore's Seafood",
      "osm_id": 1297659439,
      "amenity": "restaurant",
      "cuisine": "seafood",
      "opening_hours": "Mo-Th, Su 12:00-22:00; Fr, Sa 12:00-23:00",
      "website": "https://www.seamores.com/location/chelsea/",
      "phone": "+1 212-597-9222",
      "takeaway": "yes",
      "outdoor_seating": "yes",
      "delivery": "yes",
      "addr_state": "NY",
      "addr_city": "New York",
      "addr_postcode": "10011",
      "addr_street": "8th Avenue",
      "addr_housenumber": "161"
    },
    {
      "id": 192696,
      "geometry": "POINT (-73.983176 40.770074)",
      "poi_name": "American Retro Bar & Grill",
      "osm_id": 1474144767,
      "amenity": "restaurant",
      "addr_state": "NY",
      "addr_city": "New York",
      "addr_postcode": "10019",
      "addr_street": "9th Avenue",
      "addr_housenumber": "785"
    },
    {
      "id": 192281,
      "geometry": "POINT (-73.983176 40.770074)",
      "poi_name": "Chef Tan",
      "osm_id": 1432326226,
      "amenity": "restaurant",
      "cuisine": "chinese",
      "website": "https://www.cheftanhighlandparknj.com/",
      "phone": "732-843-6900",
      "outdoor_seating": "yes",
      "addr_city": "Highland Park",
      "addr_postcode": "08904",
      "addr_street": "Raritan Avenue",
      "addr_housenumber": "441"
    },
    {
      "id": 192283,
      "geometry": "POINT (-73.983176 40.770074)",
      "poi_name": "Highland Pizza",
      "osm_id": 1432326238,
      "amenity": "restaurant",
      "cuisine": "pizza",
      "website": "https://highlandpizzanj.com/",
      "phone": "732-572-6744",
      "addr_state": "NJ",
      "addr_city": "Highland Park",
      "addr_postcode": "08904",
      "addr_street": "Raritan Avenue",
      "addr_housenumber": "601"
    },
    {
      "id": 192963,
      "geometry": "POINT (-73.983176 40.770074)",
      "poi_name": "Buddakan",
      "osm_id": 1487441071,
      "amenity": "restaurant",
      "cuisine": "asian",
      "addr_state": "NY",
      "addr_city": "New York",
      "addr_postcode": "10011",
      "addr_street": "9th Avenue",
      "addr_housenumber": "75"
    },
    {
      "id": 193876,
      "geometry": "POINT (-73.983176 40.770074)",
      "poi_name": "Market Diner",
      "osm_id": 1568008206,
      "amenity": "restaurant",
      "cuisine": "burger",
      "addr_state": "NY",
      "addr_city": "New York",
      "addr_postcode": "10036",
      "addr_street": "11th Avenue",
      "addr_housenumber": "572"
    },
    {
      "id": 195733,
      "geometry": "POINT (-73.983176 40.770074)",
      "poi_name": "Pita Grill and Creperie",
      "osm_id": 10413778283,
      "amenity": "restaurant",
      "cuisine": "mediterranean",
      "website": "https://www.pitagrillandcreperie.com/metuchen",
      "phone": "+1-732-318-6377",
      "addr_state": "NJ",
      "addr_city": "Metuchen",
      "addr_postcode": "08840",
      "addr_street": "Middlesex Avenue",
      "addr_housenumber": "660"
    },
    {
      "id": 196465,
      "geometry": "POINT (-73.983176 40.770074)",
      "poi_name": "Jersey Fried Chicken and Pizza",
      "osm_id": 10580101030,
      "amenity": "restaurant",
      "cuisine": "pizza",
      "addr_state": "NJ",
      "addr_city": "Jersey City",
      "addr_postcode": "07304",
      "addr_street": "Monticello Avenue",
      "addr_housenumber": "153"
    },
    {
      "id": 196834,
      "geometry": "POINT (-73.983176 40.770074)",
      "poi_name": "Made in New York Pizza",
      "osm_id": 10599105667,
      "amenity": "restaurant",
      "cuisine": "pizza",
      "addr_state": "NY",
      "addr_city": "New York",
      "addr_postcode": "10014",
      "addr_street": "Hudson Street",
      "addr_housenumber": "561"
    },
    {
      "id": 197113,
      "geometry": "POINT (-73.983176 40.770074)",
      "poi_name": "Jerry\u2019s Pizza & Restaurant",
      "osm_id": 10612304108,
      "amenity": "restaurant",
      "cuisine": "pizza",
      "addr_state": "NJ",
      "addr_city": "Jersey City",
      "addr_postcode": "07304",
      "addr_street": "NJ-440",
      "addr_housenumber": "698"
    },
    {
      "id": 198440,
      "geometry": "POINT (-73.983176 40.770074)",
      "poi_name": "Hot House Pizza",
      "osm_id": 10705284694,
      "amenity": "restaurant",
      "cuisine": "pizza",
      "addr_state": "NJ",
      "addr_city": "Hoboken",
      "addr_postcode": "07030",
      "addr_street": "2nd Street",
      "addr_housenumber": "606"
    },
    {
      "id": 200299,
      "geometry": "POINT (-73.983176 40.770074)",
      "poi_name": "H&S Giovanni's",
      "osm_id": 1030346276,
      "amenity": "restaurant",
      "cuisine": "italian;pizza",
      "wheelchair": "no",
      "addr_state": "NJ",
      "addr_city": "Hoboken",
      "addr_postcode": "07030",
      "addr_street": "Washington Street",
      "addr_housenumber": "603"
    },
    {
      "id": 201836,
      "geometry": "POINT (-73.983176 40.770074)",
      "poi_name": "Carbone",
      "osm_id": 661889865,
      "amenity": "restaurant",
      "addr_state": "NY",
      "addr_city": "New York",
      "addr_street": "West 38th Street",
      "addr_housenumber": "331"
    },
    {
      "id": 203085,
      "geometry": "POINT (-73.983176 40.770074)",
      "poi_name": "Kashkaval Garden",
      "osm_id": 7061916385,
      "amenity": "restaurant",
      "cuisine": "mediterranean",
      "opening_hours": "Mo-Sa 12:00-01:00; Su 12:00-23:00",
      "website": "http://kashkavalgarden.com/",
      "phone": "+1-212-245-1758",
      "delivery": "yes",
      "addr_state": "NY",
      "addr_city": "New York",
      "addr_street": "9th Avenue",
      "addr_housenumber": "852"
    },
    {
      "id": 203086,
      "geometry": "POINT (-73.983176 40.770074)",
      "poi_name": "Blue Seafood Bar",
      "osm_id": 7061919185,
      "amenity": "restaurant",
      "cuisine": "seafood",
      "wheelchair": "yes",
      "website": "https://blueseafoodbar.com/",
      "phone": "+1-212-757-7511",
      "outdoor_seating": "no",
      "delivery": "yes",
      "addr_state": "NY",
      "addr_city": "New York",
      "addr_street": "9th Avenue",
      "addr_housenumber": "856"
    },
    {
      "id": 204060,
      "geometry": "POINT (-73.983176 40.770074)",
      "poi_name": "Esposito's Pizza",
      "osm_id": 7111900883,
      "amenity": "restaurant",
      "cuisine": "pizza",
      "website": "https://www.espositopizza.com/",
      "phone": "+1-732-583-0001",
      "addr_state": "NJ",
      "addr_city": "Matawan",
      "addr_postcode": "07747",
      "addr_street": "New Jersey 34",
      "addr_housenumber": "930"
    },
    {
      "id": 205210,
      "geometry": "POINT (-73.983176 40.770074)",
      "poi_name": "Purple Rice",
      "osm_id": 7159891531,
      "amenity": "restaurant",
      "cuisine": "asian",
      "website": "https://www.purplericenj.com/",
      "addr_state": "NJ",
      "addr_city": "Hoboken",
      "addr_postcode": "07030",
      "addr_street": "Washington Street",
      "addr_housenumber": "832"
    },
    {
      "id": 208478,
      "geometry": "POINT (-73.983176 40.770074)",
      "poi_name": "El Pastorcito",
      "osm_id": 4992984181,
      "amenity": "restaurant",
      "cuisine": "latin_american",
      "addr_state": "NY",
      "addr_city": "Staten Island",
      "addr_postcode": "10301",
      "addr_street": "Victory Boulevard",
      "addr_housenumber": "74"
    },
    {
      "id": 208211,
      "geometry": "POINT (-73.983176 40.770074)",
      "poi_name": "RU Hungry",
      "osm_id": 4978432687,
      "amenity": "restaurant",
      "cuisine": "regional;sandwich;fast_food",
      "opening_hours": "Mo-Su 07:00-02:00",
      "website": "https://www.ruhungrynj.net/",
      "phone": "+1-732-246-2177",
      "takeaway": "yes",
      "outdoor_seating": "yes",
      "addr_state": "NJ",
      "addr_city": "New Brunswick",
      "addr_postcode": "08901",
      "addr_street": "Hamilton Street",
      "addr_housenumber": "95"
    },
    {
      "id": 210685,
      "geometry": "POINT (-73.983176 40.770074)",
      "poi_name": "Mr. Wrap's",
      "osm_id": 5113963278,
      "amenity": "restaurant",
      "cuisine": "sandwich;american",
      "wheelchair": "limited",
      "opening_hours": "Mo-Fr 10:00-22:30, Sa-Su 9:00-22:30",
      "capacity": "10",
      "takeaway": "yes",
      "outdoor_seating": "yes",
      "delivery": "yes",
      "addr_state": "NJ",
      "addr_city": "Hoboken",
      "addr_postcode": "07030",
      "addr_street": "Garden Street",
      "addr_housenumber": "741"
    },
    {
      "id": 209747,
      "geometry": "POINT (-73.983176 40.770074)",
      "poi_name": "Rudy's Bar & Grill",
      "osm_id": 5057079090,
      "amenity": "restaurant",
      "addr_state": "NY",
      "addr_city": "New York",
      "addr_postcode": "10036",
      "addr_street": "9th Avenue",
      "addr_housenumber": "627"
    },
    {
      "id": 211256,
      "geometry": "POINT (-73.983176 40.770074)",
      "poi_name": "Buffalo Wild Wings",
      "osm_id": 5148699250,
      "amenity": "restaurant",
      "cuisine": "wings",
      "addr_state": "NY",
      "addr_street": "Yona Avenue",
      "addr_housenumber": "1447"
    },
    {
      "id": 211036,
      "geometry": "POINT (-73.983176 40.770074)",
      "poi_name": "Thonglor",
      "osm_id": 5137895930,
      "amenity": "restaurant",
      "addr_state": "NY",
      "addr_city": "New York",
      "addr_postcode": "10019",
      "addr_street": "9th Avenue",
      "addr_housenumber": "789"
    },
    {
      "id": 212882,
      "geometry": "POINT (-73.983176 40.770074)",
      "poi_name": "Thai Kitchen",
      "osm_id": 5224940635,
      "amenity": "restaurant",
      "cuisine": "thai",
      "addr_state": "NY",
      "addr_city": "New York",
      "addr_street": "West 44th Street",
      "addr_housenumber": "339"
    },
    {
      "id": 211439,
      "geometry": "POINT (-73.983176 40.770074)",
      "poi_name": "Broadway Diner",
      "osm_id": 5157571127,
      "amenity": "restaurant",
      "addr_state": "NJ",
      "addr_city": "Bayonne",
      "addr_postcode": "07002",
      "addr_street": "Broadway",
      "addr_housenumber": "1075"
    },
    {
      "id": 211440,
      "geometry": "POINT (-73.983176 40.770074)",
      "poi_name": "Chandelier",
      "osm_id": 5157571128,
      "amenity": "restaurant",
      "addr_state": "NJ",
      "addr_city": "Bayonne",
      "addr_postcode": "07002",
      "addr_street": "Broadway",
      "addr_housenumber": "1081"
    },
    {
      "id": 212144,
      "geometry": "POINT (-73.983176 40.770074)",
      "poi_name": "Bateaux New York",
      "osm_id": 5192896322,
      "amenity": "restaurant",
      "website": "https://www.bateauxnewyork.com/",
      "phone": "+1-866-211-3806",
      "addr_state": "NY",
      "addr_postcode": "10011",
      "addr_street": "Chelsea Piers",
      "addr_housenumber": "61"
    },
    {
      "id": 213815,
      "geometry": "POINT (-73.983176 40.770074)",
      "poi_name": "Ahri's Kitchen",
      "osm_id": 5260594361,
      "amenity": "restaurant",
      "cuisine": "korean",
      "addr_state": "NJ",
      "addr_city": "Jersey City",
      "addr_postcode": "07302",
      "addr_street": "7th St",
      "addr_housenumber": "227"
    },
    {
      "id": 216331,
      "geometry": "POINT (-73.983176 40.770074)",
      "poi_name": "La Rosetta Restaurant & Pizzaria",
      "osm_id": 9167590944,
      "amenity": "restaurant",
      "cuisine": "pizza;italian",
      "opening_hours": "Su-Th 10:00-22:00; Fr-Sa 10:00-23:00",
      "website": "https://www.larosettacafe.com/",
      "phone": "732-721-2400",
      "addr_state": "NJ",
      "addr_city": "Sayreville",
      "addr_postcode": "08872",
      "addr_street": "Main Street",
      "addr_housenumber": "881"
    },
    {
      "id": 216273,
      "geometry": "POINT (-73.983176 40.770074)",
      "poi_name": "Sapporo Rai Rai Ramen",
      "osm_id": 9165966110,
      "amenity": "restaurant",
      "cuisine": "noodle",
      "opening_hours": "Su-Th 11:00-21:30; Fr-Sa 11:00-22:30",
      "phone": "732-360-8609",
      "delivery": "yes",
      "addr_state": "NJ",
      "addr_city": "East Brunswick",
      "addr_postcode": "08816",
      "addr_street": "NJ 18 North"
    },
    {
      "id": 216275,
      "geometry": "POINT (-73.983176 40.770074)",
      "poi_name": "Frank's Pizza",
      "osm_id": 9165966114,
      "amenity": "restaurant",
      "cuisine": "pizza",
      "opening_hours": "Mo-Th 11:00-22:00; Fr-Sa 11:00-23:00; Su 11:00-21:00",
      "website": "https://www.frankspizzeriaeastbrunswick.com/",
      "phone": "732-698-1500",
      "addr_state": "NJ",
      "addr_city": "East Brunswick",
      "addr_postcode": "08816",
      "addr_street": "NJ 18 North",
      "addr_housenumber": "300"
    },
    {
      "id": 216277,
      "geometry": "POINT (-73.983176 40.770074)",
      "poi_name": "Golden East Garden",
      "osm_id": 9166030966,
      "amenity": "restaurant",
      "cuisine": "chinese",
      "opening_hours": "Mo-Th 11:30-22:00; Fr-Sa 11:30-22:30; Su 12:00-22:00",
      "website": "https://www.goldeneastgarden.com/",
      "phone": "732-257-3737;732-254-9709",
      "delivery": "no",
      "addr_state": "NJ",
      "addr_city": "East Brunswick Township",
      "addr_postcode": "08816",
      "addr_street": "NJ 18 North",
      "addr_housenumber": "300"
    },
    {
      "id": 216450,
      "geometry": "POINT (-73.983176 40.770074)",
      "poi_name": "Zou Zou\u2019s",
      "osm_id": 9172181018,
      "amenity": "restaurant",
      "cuisine": "mediterranean",
      "wheelchair": "yes",
      "opening_hours": "Mo-Su 12:00-14:30, 17:00-23:00",
      "website": "https://www.zouzousnyc.com/",
      "phone": "+1-212-380-8585",
      "outdoor_seating": "no",
      "addr_state": "NY",
      "addr_city": "New York",
      "addr_postcode": "10001",
      "addr_street": "9th Avenue",
      "addr_housenumber": "385"
    },
    {
      "id": 216332,
      "geometry": "POINT (-73.983176 40.770074)",
      "poi_name": "Taste of Jamaica 1",
      "osm_id": 9167590945,
      "amenity": "restaurant",
      "cuisine": "jamaican",
      "opening_hours": "Su-Mo Closed; Tu-Fr 11:00-21:00; Sa 09:00-22:00",
      "website": "https://www.tasteofjamaica1.com/",
      "phone": "732-952-2300",
      "addr_state": "NJ",
      "addr_city": "Sayreville",
      "addr_postcode": "08872",
      "addr_street": "Main Street",
      "addr_housenumber": "881"
    },
    {
      "id": 216854,
      "geometry": "POINT (-73.983176 40.770074)",
      "poi_name": "Classique Restaurant",
      "osm_id": 9191048093,
      "amenity": "restaurant",
      "cuisine": "italian",
      "phone": "732-316-9100",
      "addr_state": "NJ",
      "addr_city": "Sayreville",
      "addr_postcode": "08872",
      "addr_street": "Raritan Street",
      "addr_housenumber": "521"
    },
    {
      "id": 216855,
      "geometry": "POINT (-73.983176 40.770074)",
      "poi_name": "Nunzio's Kitchen",
      "osm_id": 9191048095,
      "amenity": "restaurant",
      "cuisine": "pizza",
      "opening_hours": "Mo-Sa 11:00-20:00; Su Closed",
      "website": "https://www.nunzioskitchen.com",
      "phone": "732-727-1060",
      "takeaway": "yes",
      "delivery": "yes",
      "addr_state": "NJ",
      "addr_city": "Sayreville",
      "addr_postcode": "08872",
      "addr_street": "Raritan Street",
      "addr_housenumber": "521"
    },
    {
      "id": 216856,
      "geometry": "POINT (-73.983176 40.770074)",
      "poi_name": "Hung Ling Chinese Food",
      "osm_id": 9191048096,
      "amenity": "restaurant",
      "cuisine": "chinese",
      "opening_hours": "Mo-Th 11:00-20:30; Fr-Sa 11:00-23:10",
      "website": "https://hinglung.chinesenj.net/",
      "phone": "732-721-3900;732-721-3901",
      "takeaway": "yes",
      "delivery": "yes",
      "addr_state": "NJ",
      "addr_city": "Sayreville",
      "addr_postcode": "08872",
      "addr_street": "Raritan Street",
      "addr_housenumber": "521"
    },
    {
      "id": 218255,
      "geometry": "POINT (-73.983176 40.770074)",
      "poi_name": "Artichoke Basille\u2019s Pizza",
      "osm_id": 9270379117,
      "amenity": "restaurant",
      "cuisine": "pizza",
      "addr_state": "NJ",
      "addr_city": "Jersey City",
      "addr_postcode": "07302",
      "addr_street": "Bay Street",
      "addr_housenumber": "246"
    },
    {
      "id": 219080,
      "geometry": "POINT (-73.983176 40.770074)",
      "poi_name": "SIP .99 Cent Pizza",
      "osm_id": 9315721130,
      "amenity": "restaurant",
      "cuisine": "pizza",
      "addr_state": "NJ",
      "addr_city": "Jersey City",
      "addr_postcode": "07306",
      "addr_street": "Montgomery Street",
      "addr_housenumber": "753"
    },
    {
      "id": 219966,
      "geometry": "POINT (-73.983176 40.770074)",
      "poi_name": "Greek on Main",
      "osm_id": 9351831336,
      "amenity": "restaurant",
      "cuisine": "greek",
      "website": "https://thegreekonmain.com/",
      "phone": "+1 732 515 9457",
      "addr_state": "NJ",
      "addr_city": "Metuchen",
      "addr_postcode": "08840",
      "addr_street": "Main Street",
      "addr_housenumber": "419"
    },
    {
      "id": 217675,
      "geometry": "POINT (-73.983176 40.770074)",
      "poi_name": "Mike's Pizza",
      "osm_id": 9237010595,
      "amenity": "restaurant",
      "cuisine": "pizza",
      "opening_hours": "Mo-Th 10:00-22:00; Fr 10:00-23:00; Sa 10:00-22:30; Su 10:00-22:00",
      "website": "https://www.mikespizza.com/",
      "phone": "732-333-8888",
      "addr_state": "NJ",
      "addr_city": "Parlin",
      "addr_postcode": "08859",
      "addr_street": "US 9 South",
      "addr_housenumber": "1016"
    },
    {
      "id": 217676,
      "geometry": "POINT (-73.983176 40.770074)",
      "poi_name": "Old Bridge Asian Buffet",
      "osm_id": 9237010602,
      "amenity": "restaurant",
      "cuisine": "asian;chinese;indian;thai",
      "opening_hours": "Mo Closed; Tu-Th 11:30-15:00, 17:30-21:30; Fr 11:30-15:00, 17:30-22:00; Sa 11:30-22:00; Su 11:30-21:00",
      "phone": "732-553-1800",
      "addr_state": "NJ",
      "addr_city": "Parlin",
      "addr_postcode": "08859",
      "addr_street": "US 9 South",
      "addr_housenumber": "1034"
    },
    {
      "id": 223184,
      "geometry": "POINT (-73.983176 40.770074)",
      "poi_name": "Bareburger",
      "osm_id": 11048343459,
      "amenity": "restaurant",
      "cuisine": "burger",
      "website": "https://www.bareburger.com/",
      "outdoor_seating": "yes",
      "addr_state": "NJ",
      "addr_city": "Jersey City",
      "addr_postcode": "07302",
      "addr_street": "Newark Avenue",
      "addr_housenumber": "143"
    },
    {
      "id": 223748,
      "geometry": "POINT (-73.983176 40.770074)",
      "poi_name": "Boots & Bones BBQ",
      "osm_id": 11062634655,
      "amenity": "restaurant",
      "addr_city": "Jersey City",
      "addr_postcode": "07302",
      "addr_street": "Newark Avenue",
      "addr_housenumber": "116"
    },
    {
      "id": 223706,
      "geometry": "POINT (-73.983176 40.770074)",
      "poi_name": "Etcetera Etcetera",
      "osm_id": 11061450505,
      "amenity": "restaurant",
      "cuisine": "italian",
      "opening_hours": "Mo off; Tu-Sa 05:00-22:00; Su 05:00-21:00",
      "website": "https://etcetcnyc.com/",
      "phone": "+1-212-399-4141",
      "addr_state": "NY",
      "addr_city": "New York",
      "addr_postcode": "10036",
      "addr_street": "West 44th Street",
      "addr_housenumber": "532"
    },
    {
      "id": 224432,
      "geometry": "POINT (-73.983176 40.770074)",
      "poi_name": "Helen's Pizza",
      "osm_id": 11082055473,
      "amenity": "restaurant",
      "cuisine": "pizza;italian",
      "wheelchair": "limited",
      "opening_hours": "11:00-20:00",
      "website": "https://www.helenspizza.com/",
      "capacity": "50",
      "phone": "+1 201-435-1507",
      "takeaway": "yes",
      "outdoor_seating": "yes",
      "delivery": "yes",
      "addr_state": "NJ",
      "addr_city": "Jersey City",
      "addr_postcode": "07302",
      "addr_street": "Newark Avenue",
      "addr_housenumber": "183"
    },
    {
      "id": 224433,
      "geometry": "POINT (-73.983176 40.770074)",
      "poi_name": "Ela Greek Kitchen",
      "osm_id": 11082055474,
      "amenity": "restaurant",
      "cuisine": "greek",
      "website": "https://www.elagreekkitchen.com/",
      "addr_state": "NJ",
      "addr_city": "Jersey City",
      "addr_postcode": "07302",
      "addr_street": "Newark Avenue",
      "addr_housenumber": "179"
    },
    {
      "id": 224590,
      "geometry": "POINT (-73.983176 40.770074)",
      "poi_name": "Anixi",
      "osm_id": 11088424818,
      "amenity": "restaurant",
      "cuisine": "mediterranean",
      "website": "https://www.anixinyc.com/",
      "addr_state": "NY",
      "addr_city": "New York",
      "addr_postcode": "10001",
      "addr_street": "8th Avenue",
      "addr_housenumber": "290"
    },
    {
      "id": 225118,
      "geometry": "POINT (-73.983176 40.770074)",
      "poi_name": "Bites of Xian",
      "osm_id": 11112080406,
      "amenity": "restaurant",
      "cuisine": "asian",
      "website": "https://www.bitesofxian.com/",
      "phone": "+1-212-884-1222",
      "addr_state": "NY",
      "addr_city": "New York",
      "addr_postcode": "10018",
      "addr_street": "8th Avenue",
      "addr_housenumber": "555"
    },
    {
      "id": 225419,
      "geometry": "POINT (-73.983176 40.770074)",
      "poi_name": "Barking Dog",
      "osm_id": 11126165013,
      "amenity": "restaurant",
      "cuisine": "american",
      "opening_hours": "08:00-22:00",
      "website": "https://barkingdognyc.com/",
      "phone": "+1-646-755-8009",
      "addr_state": "NY",
      "addr_city": "New York",
      "addr_postcode": "10019",
      "addr_street": "West 49th Street",
      "addr_housenumber": "329"
    },
    {
      "id": 225844,
      "geometry": "POINT (-73.983176 40.770074)",
      "poi_name": "Jane Doe",
      "osm_id": 11140202678,
      "amenity": "restaurant",
      "cuisine": "cocktail_bar;asian;italian",
      "opening_hours": "Mo-Tu off; We-Th,Su 17:00-22:00; Fr 17:00-23:00; Sa 14:00-23:00",
      "website": "https://janedoejc.com/",
      "phone": "+1-201-256 3181",
      "addr_state": "NJ",
      "addr_city": "Jersey City",
      "addr_postcode": "07302",
      "addr_street": "Newark Avenue",
      "addr_housenumber": "333"
    },
    {
      "id": 230162,
      "geometry": "POINT (-73.983176 40.770074)",
      "poi_name": "Turning Point (Breakfast) Restaurant",
      "osm_id": 4416176890,
      "amenity": "restaurant",
      "wheelchair": "yes",
      "opening_hours": "08:00-15:00",
      "website": "https://theturningpoint.biz/hoboken/",
      "phone": "+1 -201-222-3797",
      "outdoor_seating": "yes",
      "delivery": "no",
      "toilets": "yes",
      "addr_state": "NJ",
      "addr_city": "Hoboken",
      "addr_postcode": "07030",
      "addr_street": "Sinatra Drive North",
      "addr_housenumber": "1420"
    },
    {
      "id": 230020,
      "geometry": "POINT (-73.983176 40.770074)",
      "poi_name": "Porte\u00f1o",
      "osm_id": 4412150567,
      "amenity": "restaurant",
      "cuisine": "argentinian",
      "opening_hours": "Mo-We 16:00-21:00; Th-Fr 16:00-22:00; Sa 12:00-22:00; Su 12:00-20:30",
      "website": "https://portenorestaurant.com/",
      "phone": "+1 (212) 695-9694",
      "takeaway": "no",
      "outdoor_seating": "yes",
      "delivery": "no",
      "toilets": "yes",
      "addr_state": "NY",
      "addr_city": "New York",
      "addr_postcode": "10001",
      "addr_street": "10th Avenue",
      "addr_housenumber": "299"
    },
    {
      "id": 230489,
      "geometry": "POINT (-73.983176 40.770074)",
      "poi_name": "Choc O Pain.",
      "osm_id": 4427331589,
      "amenity": "restaurant",
      "cuisine": "breakfast;french",
      "addr_state": "NJ",
      "addr_city": "Hoboken",
      "addr_postcode": "07030",
      "addr_street": "1st Street",
      "addr_housenumber": "157"
    },
    {
      "id": 230362,
      "geometry": "POINT (-73.983176 40.770074)",
      "poi_name": "Anthony David Restaurant.",
      "osm_id": 4423858593,
      "amenity": "restaurant",
      "opening_hours": "Mo-Su 07:00-22:00",
      "website": "https://anthonydavids.com/",
      "phone": "+1 (201) 222-8399",
      "addr_state": "NJ",
      "addr_city": "Hoboken",
      "addr_postcode": "07030",
      "addr_street": "Bloomfield Street",
      "addr_housenumber": "953"
    },
    {
      "id": 230383,
      "geometry": "POINT (-73.983176 40.770074)",
      "poi_name": "honeygrow",
      "osm_id": 4424408086,
      "amenity": "restaurant",
      "wheelchair": "yes",
      "opening_hours": "Mo-Su 11:00-22:00",
      "phone": "+1-732-214-9182",
      "delivery": "no",
      "addr_state": "NJ",
      "addr_city": "New Brunswick",
      "addr_postcode": "08901-8541",
      "addr_street": "College Avenue",
      "addr_housenumber": "36"
    },
    {
      "id": 230956,
      "geometry": "POINT (-73.983176 40.770074)",
      "poi_name": "Noodle Is Calling",
      "osm_id": 4449522012,
      "amenity": "restaurant",
      "cuisine": "Chinese",
      "addr_state": "NJ",
      "addr_city": "New Brunswick",
      "addr_postcode": "08901",
      "addr_street": "George Street",
      "addr_housenumber": "354"
    },
    {
      "id": 230957,
      "geometry": "POINT (-73.983176 40.770074)",
      "poi_name": "Hotoke",
      "osm_id": 4449522021,
      "amenity": "restaurant",
      "cuisine": "asian",
      "website": "http://hotokenj.com/wordpress/",
      "phone": "+1-732-246-7899",
      "addr_state": "NJ",
      "addr_city": "New Brunswick",
      "addr_postcode": "08901",
      "addr_street": "George Street",
      "addr_housenumber": "350"
    },
    {
      "id": 230958,
      "geometry": "POINT (-73.983176 40.770074)",
      "poi_name": "My Way Korean Restaurant",
      "osm_id": 4449522024,
      "amenity": "restaurant",
      "cuisine": "korean",
      "opening_hours": "Mo-Fr 10:30-22:30; Sa 12:00-22:30; Su 16:00-22:30",
      "website": "http://www.mywaynj.com/",
      "phone": "+1-732-545-5757",
      "addr_state": "NJ",
      "addr_city": "New Brunswick",
      "addr_postcode": "08901",
      "addr_street": "George Street",
      "addr_housenumber": "351"
    },
    {
      "id": 230959,
      "geometry": "POINT (-73.983176 40.770074)",
      "poi_name": "Shalimar Halal Gyro Grill",
      "osm_id": 4449522026,
      "amenity": "restaurant",
      "cuisine": "indian",
      "delivery": "yes",
      "addr_state": "NJ",
      "addr_city": "New Brunswick",
      "addr_postcode": "08901",
      "addr_street": "George Street",
      "addr_housenumber": "349 A"
    },
    {
      "id": 230983,
      "geometry": "POINT (-73.983176 40.770074)",
      "poi_name": "INC American Bar and Kitchen",
      "osm_id": 4449958284,
      "amenity": "restaurant",
      "cuisine": "american",
      "addr_state": "NJ",
      "addr_city": "New Brunswick",
      "addr_postcode": "08901-1904",
      "addr_street": "George Street",
      "addr_housenumber": "310"
    },
    {
      "id": 230985,
      "geometry": "POINT (-73.983176 40.770074)",
      "poi_name": "The Original Picken Chicken",
      "osm_id": 4449958322,
      "amenity": "restaurant",
      "cuisine": "chicken",
      "website": "http://www.originalpickenchicken.com/",
      "phone": "+1-732-448-0111",
      "addr_state": "NJ",
      "addr_city": "New Brunswick",
      "addr_postcode": "08901",
      "addr_street": "George Street",
      "addr_housenumber": "228"
    },
    {
      "id": 230774,
      "geometry": "POINT (-73.983176 40.770074)",
      "poi_name": "Gyro Xpress",
      "osm_id": 4439275215,
      "amenity": "restaurant",
      "cuisine": "greek",
      "addr_state": "NJ",
      "addr_city": "New Brunswick",
      "addr_postcode": "08901",
      "addr_street": "George Street",
      "addr_housenumber": "377"
    },
    {
      "id": 230776,
      "geometry": "POINT (-73.983176 40.770074)",
      "poi_name": "indochine",
      "osm_id": 4439275217,
      "amenity": "restaurant",
      "cuisine": "vietnamese",
      "website": "https://indochinefood.com/",
      "phone": "+1-732-745-2928",
      "addr_state": "NJ",
      "addr_city": "New Brunswick",
      "addr_postcode": "08901",
      "addr_street": "George Street",
      "addr_housenumber": "371"
    },
    {
      "id": 230777,
      "geometry": "POINT (-73.983176 40.770074)",
      "poi_name": "Teri Teri Japanese Restaurant",
      "osm_id": 4439275226,
      "amenity": "restaurant",
      "cuisine": "japanese",
      "addr_state": "NJ",
      "addr_city": "New Brunswick",
      "addr_postcode": "08901",
      "addr_street": "George Street",
      "addr_housenumber": "363"
    },
    {
      "id": 231058,
      "geometry": "POINT (-73.983176 40.770074)",
      "poi_name": "Gyu-Kaku",
      "osm_id": 4454392489,
      "amenity": "restaurant",
      "cuisine": "japanese;barbecue",
      "opening_hours": "Su-Th 11:00-22:00; Fr-Sa 11:00-23:00",
      "website": "https://www.gyu-kaku.com/times-square/",
      "phone": "+1-646-692-9115",
      "takeaway": "yes",
      "outdoor_seating": "no",
      "delivery": "yes",
      "toilets": "yes",
      "addr_state": "NY",
      "addr_city": "New York",
      "addr_postcode": "10036",
      "addr_street": "West 44th Street",
      "addr_housenumber": "321"
    },
    {
      "id": 231186,
      "geometry": "POINT (-73.983176 40.770074)",
      "poi_name": "Fiesta Mexican Restaurant",
      "osm_id": 4459403321,
      "amenity": "restaurant",
      "cuisine": "mexican",
      "addr_state": "NJ",
      "addr_city": "New Brunswick",
      "addr_postcode": "08901",
      "addr_street": "George Street",
      "addr_housenumber": "342"
    },
    {
      "id": 231187,
      "geometry": "POINT (-73.983176 40.770074)",
      "poi_name": "Catherine Lombardi Restaurant",
      "osm_id": 4459403322,
      "amenity": "restaurant",
      "cuisine": "italian",
      "website": "https://www.catherinelombardi.com/sle/cl/",
      "delivery": "no",
      "addr_state": "NJ",
      "addr_city": "New Brunswick",
      "addr_postcode": "08901",
      "addr_street": "Livingston Avenue",
      "addr_housenumber": "3"
    },
    {
      "id": 231189,
      "geometry": "POINT (-73.983176 40.770074)",
      "poi_name": "Filippo's Famous Pizza",
      "osm_id": 4459403327,
      "amenity": "restaurant",
      "cuisine": "pizza",
      "opening_hours": "Mo-Sa 11:00-23:00; Su 11:00-22:00",
      "website": "https://www.filippospizzamenu.com/",
      "takeaway": "yes",
      "delivery": "yes",
      "toilets": "yes",
      "addr_state": "NJ",
      "addr_city": "New Brunswick",
      "addr_postcode": "08901",
      "addr_street": "George Street",
      "addr_housenumber": "336"
    },
    {
      "id": 231390,
      "geometry": "POINT (-73.983176 40.770074)",
      "poi_name": "pho sure",
      "osm_id": 4466937585,
      "amenity": "restaurant",
      "cuisine": "vietnamese",
      "addr_state": "NY",
      "addr_city": "New York",
      "addr_postcode": "10014",
      "addr_street": "Christopher Street",
      "addr_housenumber": "120"
    },
    {
      "id": 232109,
      "geometry": "POINT (-73.983176 40.770074)",
      "poi_name": "House of 'Que",
      "osm_id": 4510936194,
      "amenity": "restaurant",
      "website": "https://www.houseofque.com/",
      "phone": "+1 201-706-8755",
      "addr_state": "NJ",
      "addr_city": "Hoboken",
      "addr_postcode": "07030",
      "addr_street": "Sinatra Drive",
      "addr_housenumber": "340"
    },
    {
      "id": 232721,
      "geometry": "POINT (-73.983176 40.770074)",
      "poi_name": "Hoja Asian Fusion",
      "osm_id": 4540216584,
      "amenity": "restaurant",
      "cuisine": "asian",
      "opening_hours": "11:00-21:00",
      "takeaway": "yes",
      "addr_state": "NJ",
      "addr_city": "Piscataway",
      "addr_postcode": "08854",
      "addr_street": "Rockafeller Road",
      "addr_housenumber": "55"
    },
    {
      "id": 232483,
      "geometry": "POINT (-73.983176 40.770074)",
      "poi_name": "Don Angie",
      "osm_id": 4527086687,
      "amenity": "restaurant",
      "cuisine": "italian",
      "opening_hours": "Mo-We, Su 17:00-23:00; Th-Sa 17:00-24:00",
      "website": "https://www.donangie.com",
      "phone": "+1 212-889-8884",
      "addr_city": "New York",
      "addr_postcode": "10014",
      "addr_street": "Greenwich Avenue",
      "addr_housenumber": "103"
    },
    {
      "id": 232722,
      "geometry": "POINT (-73.983176 40.770074)",
      "poi_name": "Tofu House",
      "osm_id": 4540216585,
      "amenity": "restaurant",
      "cuisine": "asian",
      "phone": "732-777-2110",
      "addr_state": "NJ",
      "addr_city": "Edison",
      "addr_postcode": "08817",
      "addr_street": "NJ-27",
      "addr_housenumber": "1755"
    },
    {
      "id": 232723,
      "geometry": "POINT (-73.983176 40.770074)",
      "poi_name": "Boom Boom Chicken",
      "osm_id": 4540216586,
      "amenity": "restaurant",
      "cuisine": "korean;asian",
      "opening_hours": "Mo-Su 11:00-21:00",
      "website": "https://www.boomboomchickennj.com/",
      "phone": "732-248-7885",
      "addr_state": "NJ",
      "addr_city": "Edison",
      "addr_postcode": "08817",
      "addr_street": "NJ-27",
      "addr_housenumber": "1751"
    },
    {
      "id": 232724,
      "geometry": "POINT (-73.983176 40.770074)",
      "poi_name": "Happy Lamb Hot Pot",
      "osm_id": 4540216587,
      "amenity": "restaurant",
      "cuisine": "hotpot",
      "addr_state": "NJ",
      "addr_city": "Edison",
      "addr_postcode": "08817",
      "addr_street": "NJ-27",
      "addr_housenumber": "1737"
    },
    {
      "id": 232729,
      "geometry": "POINT (-73.983176 40.770074)",
      "poi_name": "Hunan Manor",
      "osm_id": 4540216592,
      "amenity": "restaurant",
      "cuisine": "asian",
      "website": "https://www.hunanmanorhighlandpark.com/",
      "phone": "732-247-8813",
      "addr_state": "NJ",
      "addr_city": "Highland Park",
      "addr_postcode": "08904",
      "addr_street": "Raritan Avenue",
      "addr_housenumber": "239"
    },
    {
      "id": 232731,
      "geometry": "POINT (-73.983176 40.770074)",
      "poi_name": "KBG Korean BBQ & Grill",
      "osm_id": 4540216594,
      "amenity": "restaurant",
      "cuisine": "asian",
      "opening_hours": "12:00-22:00",
      "addr_state": "NJ",
      "addr_city": "New Brunswick",
      "addr_postcode": "08901",
      "addr_street": "Easton Avenue",
      "addr_housenumber": "6"
    },
    {
      "id": 232732,
      "geometry": "POINT (-73.983176 40.770074)",
      "poi_name": "Paris Baguette",
      "osm_id": 4540226513,
      "amenity": "restaurant",
      "cuisine": "bread",
      "opening_hours": "08:00-22:00",
      "website": "https://www.parisbaguette.com",
      "shop": "bakery",
      "phone": "732-248-0044",
      "addr_state": "NJ",
      "addr_city": "Edison",
      "addr_postcode": "08817",
      "addr_street": "NJ-27",
      "addr_housenumber": "1739"
    },
    {
      "id": 234332,
      "geometry": "POINT (-73.983176 40.770074)",
      "poi_name": "Socarrat Paella Bar",
      "osm_id": 4616328313,
      "amenity": "restaurant",
      "cuisine": "spanish",
      "opening_hours": "Su-Th 11:30-23:00; Fr-Sa 11:30-23:30",
      "website": "https://www.socarratnyc.com/",
      "phone": "+1 (212) 462-1000",
      "takeaway": "no",
      "outdoor_seating": "no",
      "delivery": "yes",
      "addr_state": "NY",
      "addr_city": "New York",
      "addr_postcode": "10011",
      "addr_street": "West 19th Street",
      "addr_housenumber": "259"
    },
    {
      "id": 233322,
      "geometry": "POINT (-73.983176 40.770074)",
      "poi_name": "Mijo's Pizza",
      "osm_id": 4568677962,
      "amenity": "restaurant",
      "cuisine": "pizza",
      "website": "http://mijospizzeria.com",
      "phone": "732-382-2992",
      "addr_state": "NJ",
      "addr_city": "Colonia",
      "addr_postcode": "07067",
      "addr_street": "Lake Avenue",
      "addr_housenumber": "427"
    },
    {
      "id": 235659,
      "geometry": "POINT (-73.983176 40.770074)",
      "poi_name": "Perkins",
      "osm_id": 5762467865,
      "amenity": "restaurant",
      "cuisine": "american",
      "official_name": "Perkins Restaurant and Bakery",
      "addr_state": "NJ",
      "addr_city": "Green Brook Township",
      "addr_postcode": "08812",
      "addr_street": "US 22",
      "addr_housenumber": "297"
    },
    {
      "id": 237523,
      "geometry": "POINT (-73.983176 40.770074)",
      "poi_name": "Between the Bread",
      "osm_id": 5837218437,
      "amenity": "restaurant",
      "opening_hours": "Mo-Fr 08:00-18:45",
      "website": "https://www.betweenthebread.com/",
      "internet_access": "wlan",
      "phone": "+1 (212) 765-1687",
      "takeaway": "yes",
      "addr_state": "NY",
      "addr_city": "New York",
      "addr_postcode": "10001",
      "addr_street": "West 27th Street",
      "addr_housenumber": "609"
    },
    {
      "id": 238689,
      "geometry": "POINT (-73.983176 40.770074)",
      "poi_name": "Fuji Hibachi",
      "osm_id": 5891429762,
      "amenity": "restaurant",
      "cuisine": "japanese;dumpling",
      "outdoor_seating": "no",
      "addr_state": "NY",
      "addr_city": "New York",
      "addr_postcode": "10036",
      "addr_street": "West 42nd Street",
      "addr_housenumber": "321"
    },
    {
      "id": 237568,
      "geometry": "POINT (-73.983176 40.770074)",
      "poi_name": "Benny Tudinos",
      "osm_id": 5839190385,
      "amenity": "restaurant",
      "cuisine": "pizza;italian",
      "website": "http://bennytudinos.com/",
      "phone": "+1  (201) 792-4132",
      "takeaway": "yes",
      "outdoor_seating": "yes",
      "addr_state": "NJ",
      "addr_city": "Hoboken",
      "addr_postcode": "07030",
      "addr_street": "Washington Street",
      "addr_housenumber": "622"
    },
    {
      "id": 237569,
      "geometry": "POINT (-73.983176 40.770074)",
      "poi_name": "Karma Kafe",
      "osm_id": 5839192489,
      "amenity": "restaurant",
      "cuisine": "indian",
      "website": "http://www.karmakafe.com/",
      "phone": "+1 201-610-0900",
      "takeaway": "yes",
      "delivery": "yes",
      "addr_state": "NJ",
      "addr_city": "Hoboken",
      "addr_postcode": "07030",
      "addr_street": "Washington Street",
      "addr_housenumber": "505"
    },
    {
      "id": 238968,
      "geometry": "POINT (-73.983176 40.770074)",
      "poi_name": "Gypsy Grill",
      "osm_id": 5898591215,
      "amenity": "restaurant",
      "wheelchair": "yes",
      "website": "https://gypsygrillny.com/",
      "phone": "+1 201-839-5115",
      "addr_state": "NJ",
      "addr_city": "Jersey City",
      "addr_postcode": "07302",
      "addr_street": "Newark Avenue",
      "addr_housenumber": "187"
    },
    {
      "id": 240714,
      "geometry": "POINT (-73.983176 40.770074)",
      "poi_name": "Badshah",
      "osm_id": 5984409285,
      "amenity": "restaurant",
      "wheelchair": "yes",
      "opening_hours": "Mo-Su 12:00-15:00, 17:00-23:00",
      "website": "https://www.badshahny.com/",
      "phone": "+1-646-649-2407",
      "takeaway": "yes",
      "delivery": "yes",
      "addr_state": "NY",
      "addr_city": "New York",
      "addr_postcode": "10019",
      "addr_street": "9th Avenue",
      "addr_housenumber": "788"
    },
    {
      "id": 240687,
      "geometry": "POINT (-73.983176 40.770074)",
      "poi_name": "Hyderabad House",
      "osm_id": 5984045086,
      "amenity": "restaurant",
      "cuisine": "indian",
      "opening_hours": "Tu-Th 11:00-15:00,17:00-22:30; Fr-Su 11:00-22:30",
      "website": "https://hydhousejc.com/",
      "phone": "(201) 876-2943",
      "takeaway": "yes",
      "outdoor_seating": "no",
      "addr_state": "NJ",
      "addr_city": "Jersey City",
      "addr_postcode": "07306",
      "addr_street": "Newark Avenue",
      "addr_housenumber": "523"
    },
    {
      "id": 241111,
      "geometry": "POINT (-73.983176 40.770074)",
      "poi_name": "Hoa Cafe",
      "osm_id": 6007303592,
      "amenity": "restaurant",
      "cuisine": "asian",
      "addr_state": "NY",
      "addr_city": "New York",
      "addr_postcode": "10001",
      "addr_street": "8th Avenue",
      "addr_housenumber": "370"
    },
    {
      "id": 241831,
      "geometry": "POINT (-73.983176 40.770074)",
      "poi_name": "Grand Banks",
      "osm_id": 6040235138,
      "amenity": "restaurant",
      "cuisine": "seafood",
      "website": "https://www.grandbanks.nyc/",
      "addr_city": "New York",
      "addr_postcode": "10013"
    },
    {
      "id": 243662,
      "geometry": "POINT (-73.983176 40.770074)",
      "poi_name": "Brisas Bakery & Restaurant",
      "osm_id": 7668021002,
      "amenity": "restaurant",
      "cuisine": "latin_american;colombian;bakery;coffee_shop",
      "description": "The Official Empanada of the New York Red Bulls",
      "wheelchair": "yes",
      "opening_hours": "Mo-Su 06:00-20:00",
      "website": "https://brisasempanadas.com/",
      "phone": "+1-908-353-1377",
      "delivery": "yes",
      "addr_state": "NJ",
      "addr_city": "Elizabeth",
      "addr_postcode": "07208",
      "addr_street": "Morris Avenue",
      "addr_housenumber": "262"
    },
    {
      "id": 242712,
      "geometry": "POINT (-73.983176 40.770074)",
      "poi_name": "Sub Culture",
      "osm_id": 7592942132,
      "amenity": "restaurant",
      "cuisine": "sandwich",
      "website": "https://www.subculturejc.com/",
      "takeaway": "yes",
      "addr_state": "NJ",
      "addr_city": "Jersey City",
      "addr_postcode": "07302",
      "addr_street": "Newark Avenue",
      "addr_housenumber": "260"
    },
    {
      "id": 243663,
      "geometry": "POINT (-73.983176 40.770074)",
      "poi_name": "Brisas Bakery & Restaurant",
      "osm_id": 7668021003,
      "amenity": "restaurant",
      "cuisine": "latin_american;colombian;coffee_shop;bakery",
      "description": "The Official Empanada of the New York Red Bulls",
      "wheelchair": "yes",
      "opening_hours": "Mo-Su 07:00-20:00",
      "website": "https://brisasempanadas.com/",
      "phone": "+1-908-662-2202",
      "outdoor_seating": "yes",
      "delivery": "yes",
      "addr_state": "NJ",
      "addr_city": "Elizabeth",
      "addr_postcode": "07202",
      "addr_street": "South Elmora Avenue",
      "addr_housenumber": "985"
    },
    {
      "id": 243682,
      "geometry": "POINT (-73.983176 40.770074)",
      "poi_name": "Brisas Bakery & Restaurant",
      "osm_id": 7670886492,
      "amenity": "restaurant",
      "cuisine": "latin_american;colombian;bakery;coffee_shop",
      "description": "The Official Empanada of the New York Red Bulls",
      "wheelchair": "yes",
      "opening_hours": "Mo-Su 05:00-21:00",
      "website": "https://brisasempanadas.com",
      "internet_access": "wlan",
      "phone": "+1-908-205-8962",
      "delivery": "yes",
      "addr_state": "NJ",
      "addr_city": "North Plainfield",
      "addr_postcode": "07060",
      "addr_street": "Somerset Street",
      "addr_housenumber": "214"
    },
    {
      "id": 243830,
      "geometry": "POINT (-73.983176 40.770074)",
      "poi_name": "$1 Pizza",
      "osm_id": 7681264829,
      "amenity": "restaurant",
      "cuisine": "pizza",
      "addr_state": "NY",
      "addr_city": "New York",
      "addr_postcode": "10011",
      "addr_street": "8th Avenue",
      "addr_housenumber": "288"
    }
  ],
  "answer_type": "loc",
  "question_entities": {
    "[1]": {
      "main_category": "amenity",
      "sub_category": "restaurant"
    },
    "[2]": {
      "distance": 50000,
      "text": "50 kilometers"
    },
    "[3]": {
      "main_category": "amenity",
      "sub_category": "university",
      "display_name": "New York Institute of Technology, New York, NY",
      "geo_wkt": "POINT (-73.983176 40.770074)",
      "poi": {
        "id": 35073,
        "geometry": "POINT (-73.983176 40.770074)",
        "poi_name": "New York Institute of Technology",
        "osm_id": 2710082455,
        "amenity": "university",
        "addr_state": "NY",
        "addr_city": "New York",
        "addr_postcode": "10023",
        "addr_street": "West 61st Street",
        "addr_housenumber": "26"
      }
    },
    "[4]": {
      "direction_desc": "southwest",
      "direction_predicate": "degrees(ST_Azimuth(origin.geometry, pois.geometry)) BETWEEN 202.5 AND 247.5"
    }
  },
  "id": 31,
  "type": "range:direction+loc"
}