{
  "question": "What's the distance to a hospital from Track 21, Houston, TX within a 150 kilometers span?",
  "sql": "SELECT *, ST_Distance(ST_GeomFromText('POINT (-95.647681 29.845137)',4326)::geography, pois.geometry) AS distance FROM pois\nWHERE ST_DWithin(pois.geometry, ST_GeomFromText('POINT (-95.647681 29.845137)',4326)::geography, 150000)\nAND amenity = 'hospital';\n",
  "answers": [
    {
      "id": 60464,
      "geometry": "POINT (-95.473236 29.708404)",
      "poi_name": "Behavioral Hospital of Bellaire",
      "osm_id": 5465702596,
      "amenity": "hospital",
      "website": "https://bhbhospital.com/",
      "phone": "+1-800-423-0017",
      "healthcare": "hospital",
      "emergency": "no",
      "addr_city": "Houston",
      "addr_postcode": "77081",
      "addr_street": "Dashwood Drive",
      "addr_housenumber": "5314",
      "distance": 22677.93409403
    },
    {
      "id": 65707,
      "geometry": "POINT (-95.480116 30.284628)",
      "poi_name": "Aspire Hospital",
      "osm_id": 5708621202,
      "amenity": "hospital",
      "website": "https://www.aspirehealthcorp.com/",
      "phone": "+1 936 647 3500",
      "healthcare": "hospital",
      "emergency": "no",
      "addr_city": "Conroe",
      "addr_postcode": "77304",
      "addr_street": "South Loop 336 West",
      "addr_housenumber": "2006",
      "distance": 51328.43226951
    },
    {
      "id": 73649,
      "geometry": "POINT (-94.832757 29.266978)",
      "poi_name": "Moody Neurorehabilitation Institute at TideWay",
      "osm_id": 9648004101,
      "amenity": "hospital",
      "description": "Since 1982, Moody Neuro has pioneered post-acute brain injury treatment and rehabilitation using innovative techniques, strategies and therapies.",
      "website": "https://moodyneuro.org/location/tideway/",
      "phone": "+1 409-741-3266",
      "healthcare": "hospital",
      "addr_state": "TX",
      "addr_city": "Galveston",
      "addr_postcode": "77551",
      "addr_street": "Central City Boulevard",
      "addr_housenumber": "6444",
      "distance": 101706.45658049
    },
    {
      "id": 73654,
      "geometry": "POINT (-94.78465 29.307153)",
      "poi_name": "Moody Neurorehabilitation Institute in Galveston",
      "osm_id": 9648937170,
      "amenity": "hospital",
      "description": "Since 1982, Moody Neuro has pioneered post-acute brain injury treatment and rehabilitation using innovative techniques, strategies and therapies.",
      "website": "https://moodyneuro.org/location/galveston/",
      "phone": "(409) 762-6661",
      "healthcare": "hospital",
      "addr_state": "TX",
      "addr_city": "Galveston",
      "addr_postcode": "77550",
      "addr_street": "Postoffice Street - Avenue E",
      "addr_housenumber": "1528",
      "distance": 102706.55381363
    },
    {
      "id": 76851,
      "geometry": "POINT (-94.777191 29.311459)",
      "poi_name": "John Seely Annex",
      "osm_id": 9795543210,
      "amenity": "hospital",
      "distance": 103019.5531541
    },
    {
      "id": 76852,
      "geometry": "POINT (-94.777156 29.310796)",
      "poi_name": "John Seely Hospital",
      "osm_id": 9795543212,
      "amenity": "hospital",
      "distance": 103064.80503902
    },
    {
      "id": 87171,
      "geometry": "POINT (-95.399419 29.70793)",
      "poi_name": "Texas Heart Institute - Denton A. Cooley Building",
      "osm_id": 1975596439,
      "amenity": "hospital",
      "operator": "Texas Heart Institute",
      "website": "https://www.texasheart.org/",
      "phone": "+1-832-355-4011",
      "healthcare": "hospital",
      "emergency": "no",
      "wikidata": "Q7768592",
      "addr_state": "TX",
      "addr_city": "Houston",
      "addr_postcode": "77030",
      "addr_street": "Bertner Avenue",
      "addr_housenumber": "6770",
      "distance": 28419.5573315
    },
    {
      "id": 126604,
      "geometry": "POINT (-95.101262 29.70239)",
      "poi_name": "CH First Emergency Room",
      "osm_id": 7986050032,
      "amenity": "hospital",
      "operator": "CH First Emergency Room",
      "website": "https://www.ch1er.com",
      "phone": "+1-281-343-3134",
      "healthcare": "Emergency Room",
      "emergency": "yes",
      "addr_state": "TX",
      "addr_city": "Deer Park",
      "addr_postcode": "77536",
      "addr_street": "East Boulevard",
      "addr_housenumber": "1101",
      "distance": 55159.29762723
    },
    {
      "id": 139122,
      "geometry": "POINT (-95.172278 30.072272)",
      "poi_name": "Westbridge Recovery Center, Inc",
      "osm_id": 6183318294,
      "amenity": "hospital",
      "website": "https://www.txwbrc.com/",
      "phone": "+1-832-510-8305",
      "healthcare": "hospital",
      "addr_state": "TX",
      "addr_city": "Porter",
      "addr_postcode": "77365",
      "addr_street": "Acorn Ln",
      "addr_housenumber": "4107",
      "distance": 52342.42572664
    },
    {
      "id": 163279,
      "geometry": "POINT (-95.797476 29.782484)",
      "poi_name": "SteadFast Primary Care",
      "osm_id": 9410578270,
      "amenity": "hospital",
      "healthcare": "hospital",
      "distance": 16059.46311208
    },
    {
      "id": 167398,
      "geometry": "POINT (-95.10666 29.506991)",
      "poi_name": "Devereux Advanced Behavioral Health Texas League City",
      "osm_id": 356815774,
      "amenity": "hospital",
      "operator": "Devereux Advanced Behavioral Health",
      "website": "https://www.devereux.org/site/SPageServer/?pagename=tx_index",
      "phone": "+1 800 373 0011",
      "healthcare": "hospital",
      "addr_city": "League City",
      "addr_postcode": "77573",
      "addr_street": "Devereux Drive",
      "addr_housenumber": "1150",
      "distance": 64401.1726045
    },
    {
      "id": 167399,
      "geometry": "POINT (-95.47327 29.70801)",
      "poi_name": "Cornerstone Hospital Houston \u2013 Bellaire",
      "osm_id": 356815851,
      "amenity": "hospital",
      "operator": "Cornerstone Healthcare Group",
      "website": "https://www.chghospitals.com/houston-bellaire/",
      "phone": "+1-713-295-5300",
      "healthcare": "hospital",
      "emergency": "no",
      "addr_city": "Houston",
      "addr_postcode": "77081",
      "addr_street": "Dashwood Drive",
      "addr_housenumber": "5314",
      "distance": 22704.77284229
    },
    {
      "id": 167400,
      "geometry": "POINT (-95.386876 29.723377)",
      "poi_name": "Plaza Specialty Hospital",
      "osm_id": 356816038,
      "amenity": "hospital",
      "operator": "HCA",
      "website": "https://plazaspecialtyhospital.com/",
      "phone": "+1-713-285-1000",
      "healthcare": "hospital",
      "emergency": "no",
      "addr_state": "TX",
      "addr_city": "Houston",
      "addr_postcode": "77004",
      "addr_street": "Binz Street",
      "addr_housenumber": "1300",
      "distance": 28603.02034343
    },
    {
      "id": 183142,
      "geometry": "POINT (-95.511901 30.071131)",
      "poi_name": "Spring Hospital",
      "osm_id": 10916978353,
      "amenity": "hospital",
      "website": "https://www.springhospital.com",
      "phone": "+1 346 331 4040",
      "healthcare": "hospital",
      "addr_state": "TX",
      "addr_city": "Spring",
      "addr_postcode": "77379",
      "addr_street": "Kuykendahl Road",
      "addr_housenumber": "20635",
      "distance": 28273.17559364
    },
    {
      "id": 167413,
      "geometry": "POINT (-95.633234 29.604411)",
      "poi_name": "HealthSouth Sugar Land Rehabilitation",
      "osm_id": 356865552,
      "amenity": "hospital",
      "operator": "Encompass Health",
      "website": "https://www.healthsouthsugarland.com/",
      "phone": "+1 281 276 7574",
      "healthcare": "hospital",
      "emergency": "no",
      "addr_city": "Sugar Land",
      "addr_postcode": "77478",
      "addr_street": "State Highway 6",
      "addr_housenumber": "1325",
      "distance": 26720.57857439
    },
    {
      "id": 183144,
      "geometry": "POINT (-94.169756 30.112141)",
      "poi_name": "The Medical Center Of Southeast Texas Beaumont Campus",
      "osm_id": 10916978449,
      "amenity": "hospital",
      "website": "https://www.medicalcentersetexas.org/beaumont",
      "phone": "+1 409 853 5902",
      "healthcare": "hospital",
      "addr_state": "TX",
      "addr_city": "Beaumont",
      "addr_postcode": "77706-2407",
      "addr_street": "Metropolitan Drive",
      "addr_housenumber": "6025",
      "distance": 145667.42915289
    },
    {
      "id": 183101,
      "geometry": "POINT (-95.142612 29.624121)",
      "poi_name": "Sacred Oak Medical Center",
      "osm_id": 10916186290,
      "amenity": "hospital",
      "website": "https://www.sacredoakmedical.com",
      "phone": "+1 281 241 6440",
      "healthcare": "hospital",
      "addr_state": "TX",
      "addr_city": "Houston",
      "addr_postcode": "77059",
      "addr_street": "Space Center Boulevard",
      "addr_housenumber": "11500",
      "distance": 54659.2718101
    },
    {
      "id": 183105,
      "geometry": "POINT (-95.761078 29.694382)",
      "poi_name": "Westpark Springs",
      "osm_id": 10916239280,
      "amenity": "hospital",
      "website": "https://www.westparksprings.com",
      "phone": "+1 832 535 2770",
      "healthcare": "hospital",
      "addr_state": "TX",
      "addr_city": "Richmond",
      "addr_postcode": "77407",
      "addr_street": "South Peek Road",
      "addr_housenumber": "6902",
      "distance": 19987.95862103
    },
    {
      "id": 183134,
      "geometry": "POINT (-95.170008 29.650856)",
      "poi_name": "Oceans Behavioral Hospital Of Pasadena",
      "osm_id": 10916919400,
      "amenity": "hospital",
      "website": "https://oceanshealthcare.com/ohc-location/pasadena/",
      "phone": "+1 832 821 4982",
      "healthcare": "hospital",
      "addr_state": "TX",
      "addr_city": "Pasadena",
      "addr_postcode": "77505",
      "addr_street": "Preston Avenue",
      "addr_housenumber": "4001",
      "distance": 50977.11662372
    },
    {
      "id": 183138,
      "geometry": "POINT (-95.116592 29.554836)",
      "poi_name": "Medical Behavioral Hospital Of Clear Lake",
      "osm_id": 10916959769,
      "amenity": "hospital",
      "website": "https://www.pphealthplan.com/facilities/medical-behavioral-hospital-of-clear-lake-llc/",
      "phone": "+1 281 606 3517",
      "healthcare": "hospital",
      "addr_state": "TX",
      "addr_city": "Houston",
      "addr_postcode": "77058",
      "addr_street": "Buccaneer Lane",
      "addr_housenumber": "16850",
      "distance": 60638.69104182
    },
    {
      "id": 183180,
      "geometry": "POINT (-95.11751 29.547744)",
      "poi_name": "PAM Rehabilitation Hospital Of Clear Lake - North Campus",
      "osm_id": 10917012531,
      "amenity": "hospital",
      "phone": "+1 281 286 1500",
      "healthcare": "rehabilitation",
      "addr_state": "TX",
      "addr_city": "Webster",
      "addr_postcode": "77598",
      "addr_street": "East Medical Center Boulevard",
      "addr_housenumber": "655",
      "distance": 60986.23109566
    },
    {
      "id": 183181,
      "geometry": "POINT (-95.449853 30.026944)",
      "poi_name": "New Horizon Hospital",
      "osm_id": 10917012532,
      "amenity": "hospital",
      "healthcare": "hospital",
      "addr_state": "TX",
      "addr_city": "Houston",
      "addr_postcode": "77090",
      "addr_street": "Red Oak Drive",
      "addr_housenumber": "17506",
      "distance": 27766.37970671
    },
    {
      "id": 183191,
      "geometry": "POINT (-95.448938 30.090608)",
      "poi_name": "Saint Luke's Health - Springwoods Village Hospital",
      "osm_id": 10917028926,
      "amenity": "hospital",
      "website": "https://locations.stlukeshealth.org/location/springwoods-village-hospital",
      "healthcare": "hospital",
      "addr_state": "TX",
      "addr_city": "Spring",
      "addr_postcode": "77389",
      "addr_street": "East Mossy Oaks Road",
      "addr_housenumber": "2255",
      "distance": 33292.51240405
    },
    {
      "id": 183196,
      "geometry": "POINT (-95.745799 29.775766)",
      "poi_name": "Memorial Hermann Rehabilitation Hospital Katy",
      "osm_id": 10917030811,
      "amenity": "hospital",
      "website": "https://memorialhermann.org/locations/rehabilitation-hospital-katy",
      "phone": "+1 281 579 5678",
      "healthcare": "rehabilitation",
      "addr_state": "TX",
      "addr_city": "Katy",
      "addr_postcode": "77450",
      "addr_street": "Kingsland Boulevard",
      "addr_housenumber": "21720",
      "distance": 12210.57229837
    },
    {
      "id": 183198,
      "geometry": "POINT (-96.323894 30.665741)",
      "poi_name": "Caprock Hospital",
      "osm_id": 10917032839,
      "amenity": "hospital",
      "website": "https://caprockhealthsystem.com",
      "phone": "+1 979 314 2323",
      "healthcare": "hospital",
      "addr_state": "TX",
      "addr_city": "Bryan",
      "addr_postcode": "77802",
      "addr_street": "Briarcrest Drive",
      "addr_housenumber": "3134",
      "distance": 111849.77725456
    },
    {
      "id": 183199,
      "geometry": "POINT (-95.458492 30.190023)",
      "poi_name": "Encompass Health Rehabilitation Hospital Vision Park",
      "osm_id": 10917033715,
      "amenity": "hospital",
      "website": "https://encompasshealth.com/locations/houston/visionparkrehab",
      "phone": "+1 936 444 1700",
      "healthcare": "rehabilitation",
      "addr_state": "TX",
      "addr_city": "Shenandoah",
      "addr_postcode": "77384",
      "addr_street": "Vision Park Boulevard",
      "addr_housenumber": "117",
      "distance": 42364.43677871
    },
    {
      "id": 183146,
      "geometry": "POINT (-95.74854 29.777964)",
      "poi_name": "Oceans Behavioral Hospital Of Katy",
      "osm_id": 10916981577,
      "amenity": "hospital",
      "website": "https://oceanshealthcare.com/ohc-location/katy/",
      "phone": "+1 281 492 8888",
      "healthcare": "hospital",
      "addr_state": "TX",
      "addr_city": "Katy",
      "addr_postcode": "77450",
      "addr_street": "Park Grove Lane",
      "addr_housenumber": "455",
      "distance": 12268.01868628
    },
    {
      "id": 183201,
      "geometry": "POINT (-94.135709 30.068889)",
      "poi_name": "Beaumont Emergency Hospital",
      "osm_id": 10917038047,
      "amenity": "hospital",
      "website": "https://beaumonteh.com",
      "phone": "+1 409 840 4004",
      "healthcare": "hospital",
      "addr_state": "TX",
      "addr_city": "Beaumont",
      "addr_postcode": "77707",
      "addr_street": "College Street",
      "addr_housenumber": "4004",
      "distance": 148038.74578382
    },
    {
      "id": 183148,
      "geometry": "POINT (-95.443055 30.130927)",
      "poi_name": "Woodlands Specialty Hospital",
      "osm_id": 10916982494,
      "amenity": "hospital",
      "website": "https://www.woodlandsspecialtyhospital.com",
      "phone": "+1 281 602 8160",
      "healthcare": "hospital",
      "addr_state": "TX",
      "addr_city": "The Woodlands",
      "addr_postcode": "77386",
      "addr_street": "I 45 North",
      "addr_housenumber": "25440",
      "distance": 37330.37473307
    },
    {
      "id": 183204,
      "geometry": "POINT (-95.454456 30.185673)",
      "poi_name": "Encompass Health Rehabilitation Hospital Of The Woodlands",
      "osm_id": 10917044299,
      "amenity": "hospital",
      "website": "https://encompasshealth.com/locations/houston/thewoodlandsrehab",
      "phone": "+1 281 364 2000",
      "healthcare": "rehabilitation",
      "addr_state": "TX",
      "addr_city": "Shenandoah",
      "addr_postcode": "77384",
      "addr_street": "Ih 45 South",
      "addr_housenumber": "18550",
      "distance": 42100.91514474
    },
    {
      "id": 183205,
      "geometry": "POINT (-95.462671 29.709977)",
      "poi_name": "First Surgical Hospital",
      "osm_id": 10917045362,
      "amenity": "hospital",
      "website": "https://www.firstsurgical.com",
      "phone": "+1 713 275 1111",
      "healthcare": "hospital",
      "addr_state": "TX",
      "addr_city": "Bellaire",
      "addr_postcode": "77401",
      "addr_street": "Bissonnet Street",
      "addr_housenumber": "4801",
      "distance": 23335.39352777
    },
    {
      "id": 183152,
      "geometry": "POINT (-94.22102 30.261869)",
      "poi_name": "Altus Lumberton Hospital",
      "osm_id": 10916989057,
      "amenity": "hospital",
      "website": "https://altusemergencylumberton.com",
      "healthcare": "hospital",
      "addr_state": "TX",
      "addr_city": "Lumberton",
      "addr_postcode": "77657",
      "addr_street": "North LHS Drive",
      "addr_housenumber": "137",
      "distance": 145126.64675748
    },
    {
      "id": 183206,
      "geometry": "POINT (-95.389833 29.572906)",
      "poi_name": "Encompass Health Rehabilitation Hospital Of Pearland",
      "osm_id": 10917048870,
      "amenity": "hospital",
      "website": "https://encompasshealth.com/pearlandrehab",
      "healthcare": "hospital",
      "addr_state": "TX",
      "addr_city": "Pearland",
      "addr_postcode": "77584",
      "addr_street": "Business Center Drive",
      "addr_housenumber": "2121",
      "distance": 39155.48286481
    },
    {
      "id": 183209,
      "geometry": "POINT (-95.556165 29.711451)",
      "poi_name": "Altus Houston Hospital - Celestial Hospital - Odyssey Hospital",
      "osm_id": 10917051808,
      "amenity": "hospital",
      "website": "https://altushospitals.org/altus-houston-hospital/",
      "healthcare": "hospital",
      "addr_state": "TX",
      "addr_city": "Houston",
      "addr_postcode": "77072",
      "addr_street": "West Sam Houston Parkway South",
      "addr_housenumber": "6011",
      "distance": 17260.21311254
    },
    {
      "id": 183153,
      "geometry": "POINT (-95.46066 30.172372)",
      "poi_name": "Nexus Childrens Hospital - The Woodlands Campus",
      "osm_id": 10916989844,
      "amenity": "hospital",
      "website": "https://nexushealthsystems.com/services/childrens-hospital/",
      "healthcare": "hospital",
      "addr_state": "TX",
      "addr_city": "Spring",
      "addr_postcode": "77380",
      "addr_street": "Six Pines Drive",
      "addr_housenumber": "9182",
      "distance": 40514.57928502
    },
    {
      "id": 183155,
      "geometry": "POINT (-95.445038 29.731067)",
      "poi_name": "River Oaks Hospitals And Clinics",
      "osm_id": 10916990784,
      "amenity": "hospital",
      "website": "https://www.rohc.care",
      "phone": "+1 713 330 3887",
      "healthcare": "hospital",
      "addr_state": "TX",
      "addr_city": "Houston",
      "addr_postcode": "77027",
      "addr_street": "Twelve Oaks Drive",
      "addr_housenumber": "4200",
      "distance": 23319.391021
    },
    {
      "id": 183212,
      "geometry": "POINT (-95.588132 29.646276)",
      "poi_name": "Atrium Medical Center",
      "osm_id": 10917052751,
      "amenity": "hospital",
      "website": "http://www.atriummedicalcenter.com",
      "phone": "+1 281 207 8200",
      "healthcare": "hospital",
      "addr_state": "TX",
      "addr_city": "Stafford",
      "addr_postcode": "77477",
      "addr_street": "West Airport Boulevard",
      "addr_housenumber": "11929",
      "distance": 22783.51984223
    },
    {
      "id": 183156,
      "geometry": "POINT (-95.662771 30.02428)",
      "poi_name": "Lone Star Behavioral Health Cypress",
      "osm_id": 10916992263,
      "amenity": "hospital",
      "website": "https://www.lonestarbehavioralhealth.com",
      "phone": "+1 281 516 6186",
      "healthcare": "hospital",
      "addr_state": "TX",
      "addr_city": "Cypress",
      "addr_postcode": "77429-1253",
      "addr_street": "Grant Road",
      "addr_housenumber": "16303",
      "distance": 19911.60356847
    },
    {
      "id": 183157,
      "geometry": "POINT (-95.642622 29.587404)",
      "poi_name": "Sugarland Rehab Hospital",
      "osm_id": 10916992315,
      "amenity": "hospital",
      "website": "https://sugarlandrehabhospital.com",
      "phone": "+1 281 766 9002",
      "healthcare": "hospital",
      "addr_state": "TX",
      "addr_city": "Sugar Land",
      "addr_postcode": "77479",
      "addr_street": "Branford Place",
      "addr_housenumber": "7622",
      "distance": 28573.264214
    },
    {
      "id": 183158,
      "geometry": "POINT (-95.636093 29.605347)",
      "poi_name": "United Memorial Medical Center - Sugar Land Hospital",
      "osm_id": 10916995868,
      "amenity": "hospital",
      "website": "https://ummc.care/ummcsugarland",
      "phone": "+1 281 238 3900",
      "healthcare": "hospital",
      "addr_state": "TX",
      "addr_city": "Sugar Land",
      "addr_postcode": "77478",
      "addr_street": "Highway 6",
      "addr_housenumber": "1211",
      "distance": 26603.84687877
    },
    {
      "id": 183160,
      "geometry": "POINT (-94.139808 30.083383)",
      "poi_name": "Christus Southeast Texas Orthopedic Specialty Center",
      "osm_id": 10916996250,
      "amenity": "hospital",
      "website": "https://www.beaumontbone.com",
      "phone": "+1 409 838 0346",
      "healthcare": "hospital",
      "addr_state": "TX",
      "addr_city": "Beaumont",
      "addr_postcode": "77707",
      "addr_street": "Laurel Avenue",
      "addr_housenumber": "3650",
      "distance": 147916.66529881
    },
    {
      "id": 183162,
      "geometry": "POINT (-95.46018 30.18875)",
      "poi_name": "Nexus Specialty Hospital Shenandoah Campus",
      "osm_id": 10916998162,
      "amenity": "hospital",
      "website": "https://nexushealthsystems.com/services/specialty-hospital/",
      "phone": "+1 281 364 0317",
      "healthcare": "hospital",
      "addr_state": "TX",
      "addr_city": "Shenandoah",
      "addr_postcode": "77384",
      "addr_street": "Vision Park Boulevard",
      "addr_housenumber": "123",
      "distance": 42167.05410516
    },
    {
      "id": 183167,
      "geometry": "POINT (-95.464056 30.309993)",
      "poi_name": "Psychiatric Emergency Treatment Center",
      "osm_id": 10917001255,
      "amenity": "hospital",
      "website": "https://mentalhealthtx.org/mt/facilities/tri-county-behavioral-healthcare-psychiatric-emergency-treatment-center/",
      "phone": "+1 936 521 6100",
      "healthcare": "hospital",
      "addr_state": "TX",
      "addr_city": "Conroe",
      "addr_postcode": "77301",
      "addr_street": "Fm 2854",
      "addr_housenumber": "706",
      "distance": 54487.25427312
    },
    {
      "id": 183172,
      "geometry": "POINT (-95.120049 29.543277)",
      "poi_name": "PAM Rehabilitation Hospital Of Clear Lake",
      "osm_id": 10917006195,
      "amenity": "hospital",
      "website": "https://pamhealth.com/facilities/find-facility/rehabilitation-hospitals/pam-rehabilitation-hospital-clear-lake",
      "phone": "+1 832 224 9500",
      "healthcare": "rehabilitation",
      "addr_state": "TX",
      "addr_city": "Webster",
      "addr_postcode": "77598",
      "addr_street": "East Medical Center Boulevard",
      "addr_housenumber": "110",
      "distance": 61050.62110623
    },
    {
      "id": 183174,
      "geometry": "POINT (-94.902929 29.822135)",
      "poi_name": "Patients Emergency Room",
      "osm_id": 10917009561,
      "amenity": "hospital",
      "website": "https://patientser.com",
      "phone": "+1 281 576 0555",
      "healthcare": "hospital",
      "addr_state": "TX",
      "addr_city": "Baytown",
      "addr_postcode": "77521",
      "addr_street": "Interstate 10 East",
      "addr_housenumber": "10133",
      "distance": 72022.96325707
    },
    {
      "id": 186661,
      "geometry": "POINT (-95.608856 30.040117)",
      "poi_name": "Genesis Medical Group - Tomball",
      "osm_id": 7940560866,
      "amenity": "hospital",
      "website": "https://www.genesisdoctors.com/",
      "phone": "+1-281-440-5300",
      "healthcare": "hospital",
      "addr_state": "TX",
      "addr_city": "Tomball",
      "addr_postcode": "77375",
      "addr_street": "Tomball Parkway",
      "addr_housenumber": "24721",
      "distance": 21936.45997266
    },
    {
      "id": 198411,
      "geometry": "POINT (-95.153183 29.584063)",
      "poi_name": "PS Med Spa",
      "osm_id": 10703363170,
      "amenity": "hospital",
      "opening_hours": "Mo-Th 08:00-17:00, Fr 09:00-15:00",
      "website": "https://www.psmedspa.com",
      "phone": "281-819-1147",
      "healthcare": "hospital",
      "addr_state": "TX",
      "addr_city": "Houston",
      "addr_postcode": "77062",
      "addr_street": "Aesthetic Circle",
      "addr_housenumber": "14018",
      "distance": 55918.96872854
    },
    {
      "id": 225246,
      "geometry": "POINT (-95.811683 29.790485)",
      "poi_name": "Clinica Hispana Rubymed - Katy",
      "osm_id": 11115815477,
      "amenity": "hospital",
      "description": "Clinica Hispana Rubymed es una red de cl\u00ednicas familiares localizada en Texas. Estamos especializados en medicina familiar, lo cual incluye todos los miembros de la familia mayores de 5 a\u00f1os.",
      "opening_hours": "Mo-Fr 09:00-21:00; Sa 09:00-16:00; Su 09:00-14:00",
      "website": "https://www.clinicahispanarubymed.com/?utm_campaign=gmb&utm_medium=referral&utm_source=gmb_katy",
      "phone": "+1-346-517-1202",
      "healthcare": "hospital",
      "addr_state": "TX",
      "addr_city": "Katy",
      "addr_postcode": "77493",
      "addr_street": "East 5th Street",
      "addr_housenumber": "5304",
      "distance": 16970.86999023
    }
  ],
  "answer_type": "distance",
  "question_entities": {
    "[1]": {
      "main_category": "amenity",
      "sub_category": "hospital"
    },
    "[2]": {
      "distance": 150000,
      "text": "150 kilometers"
    },
    "[3]": {
      "main_category": "tourism",
      "sub_category": "theme park",
      "display_name": "Track 21, Houston, TX",
      "geo_wkt": "POINT (-95.647681 29.845137)",
      "poi": {
        "id": 23532,
        "geometry": "POINT (-95.647681 29.845137)",
        "poi_name": "Track 21",
        "osm_id": 5245875822,
        "tourism": "theme_park",
        "addr_state": "TX",
        "addr_city": "Houston",
        "addr_street": "North Highway 6",
        "addr_housenumber": "4815"
      }
    }
  },
  "id": 759,
  "type": "range+distance"
}