{
  "question": "Which path guides to a museum from Department of Mechanical and Aerospace Engineering, Raleigh, NC within 170 kilometers?",
  "sql": "SELECT *, degrees(ST_Azimuth(ST_GeomFromText('POINT (-78.673807 35.771076)',4326)::geography, pois.geometry)) AS angle FROM pois\nWHERE ST_DWithin(pois.geometry, ST_GeomFromText('POINT (-78.673807 35.771076)',4326)::geography, 170000)\nAND tourism = 'museum';\n",
  "answers": [
    {
      "id": 375,
      "geometry": "POINT (-78.892702 35.054177)",
      "poi_name": "Edgar Allen Poe's House",
      "osm_id": 8343278935,
      "tourism": "museum",
      "website": "https://museumofthecapefear.ncdcr.gov/1897-poe-house",
      "angle": 194.0977272975114
    },
    {
      "id": 455,
      "geometry": "POINT (-78.457419 35.320622)",
      "poi_name": "Meadow Museum",
      "osm_id": 8380269313,
      "tourism": "museum",
      "website": "https://www.johnstoncountync.org/listing/meadow-museum/2436/",
      "phone": "+19193985342",
      "addr_state": "NC",
      "addr_city": "Benson",
      "addr_postcode": "27504",
      "addr_street": "NC-50 South",
      "addr_housenumber": "7296",
      "angle": 158.50190532125768
    },
    {
      "id": 687,
      "geometry": "POINT (-79.027833 35.927964)",
      "poi_name": "Kidzu Children\u2019s Museum",
      "osm_id": 2637778216,
      "tourism": "museum",
      "website": "https://www.kidzuchildrensmuseum.org/",
      "phone": "+1 919 933 1455",
      "angle": 298.6637772583675
    },
    {
      "id": 1622,
      "geometry": "POINT (-78.129376 36.725429)",
      "poi_name": "Model Railroad / Doll Museum / Chamber of Commerce",
      "osm_id": 3083241155,
      "tourism": "museum",
      "operator": "South Hill Chamber of Commerce",
      "website": "https://www.southhillchamber.com/tourism/#railroad",
      "angle": 24.640183884942786
    },
    {
      "id": 2141,
      "geometry": "POINT (-77.421698 36.389488)",
      "poi_name": "Northampton County Museum",
      "osm_id": 3276172666,
      "tourism": "museum",
      "website": "https://northamptonncmuseum.com/",
      "angle": 58.31468027372595
    },
    {
      "id": 2881,
      "geometry": "POINT (-78.861451 35.523584)",
      "poi_name": "The Cub Barn",
      "osm_id": 10062117538,
      "tourism": "museum",
      "addr_state": "NC",
      "addr_city": "Fuquay Varina",
      "addr_postcode": "27526",
      "addr_street": "NC Dr",
      "addr_housenumber": "1412",
      "angle": 211.80620231161208
    },
    {
      "id": 2982,
      "geometry": "POINT (-80.253762 35.824065)",
      "poi_name": "Davidson County Historical Museum",
      "osm_id": 10117821989,
      "tourism": "museum",
      "opening_hours": "Tu-Fr 10:00-16:00, Sa 10:00-15:00",
      "website": "https://www.davidsoncountyhistoricalmuseum.com/",
      "phone": "+1-336-242-2035",
      "museum": "history",
      "addr_state": "NC",
      "addr_city": "Lexington",
      "addr_postcode": "27292",
      "addr_street": "South Main Street",
      "addr_housenumber": "2",
      "angle": 272.8193353747969
    },
    {
      "id": 3073,
      "geometry": "POINT (-77.726499 35.490316)",
      "poi_name": "Nooherooka Monument, Snow Hill",
      "osm_id": 10158503818,
      "tourism": "museum",
      "website": "https://docsouth.unc.edu/",
      "addr_postcode": "28580",
      "addr_street": "Nooherooka Road",
      "addr_housenumber": "2846",
      "angle": 109.67577691169721
    },
    {
      "id": 3213,
      "geometry": "POINT (-78.344689 35.510935)",
      "poi_name": "Johnston County Heritage Center\u2019s new County Museum",
      "osm_id": 10238811109,
      "tourism": "museum",
      "opening_hours": "Mo-Fr 09:00-17:00; Sa 09:00-13:00",
      "phone": "919-938-5912,",
      "addr_postcode": "27577",
      "addr_street": "East Market Street",
      "addr_housenumber": "329",
      "angle": 133.98113735540477
    },
    {
      "id": 3655,
      "geometry": "POINT (-78.868644 35.088448)",
      "poi_name": "Clark Park Nature Center",
      "osm_id": 5523102132,
      "tourism": "museum",
      "website": "https://www.fcpr.us/parks-trails/parks/clark-park",
      "angle": 193.20564136126475
    },
    {
      "id": 3766,
      "geometry": "POINT (-78.882874 36.272156)",
      "poi_name": "Boars Nest a Dukes of Hazzard Museum",
      "osm_id": 5589119887,
      "tourism": "museum",
      "angle": 341.3376536322126
    },
    {
      "id": 4887,
      "geometry": "POINT (-77.42426 36.120559)",
      "poi_name": "Rock Museum",
      "osm_id": 9667778945,
      "tourism": "museum",
      "website": "https://rockmuseumeducation.com/",
      "addr_state": "NC",
      "addr_city": "Scotland Neck",
      "addr_postcode": "27874",
      "addr_street": "South Main Street",
      "addr_housenumber": "382",
      "angle": 70.65297073117054
    },
    {
      "id": 4895,
      "geometry": "POINT (-77.671666 35.454693)",
      "poi_name": "Greene County History Museum",
      "osm_id": 9674226549,
      "tourism": "museum",
      "phone": "+12527471999",
      "addr_state": "NC",
      "addr_city": "Snow Hill",
      "addr_postcode": "28580",
      "addr_street": "Northwest 3rd Street",
      "addr_housenumber": "107",
      "angle": 110.84499555210073
    },
    {
      "id": 5361,
      "geometry": "POINT (-79.406776 35.944942)",
      "poi_name": "Three College Observatory",
      "osm_id": 747871806,
      "tourism": "museum",
      "website": "https://physics.uncg.edu/tco/",
      "phone": "+1 (336) 376-3061",
      "addr_state": "NC",
      "addr_city": "Graham",
      "addr_postcode": "27253",
      "addr_street": "Thompson Mill Road",
      "addr_housenumber": "5106",
      "angle": 286.4599711734044
    },
    {
      "id": 5894,
      "geometry": "POINT (-79.805818 36.066151)",
      "poi_name": "Weatherspoon Art Museum",
      "osm_id": 1663832240,
      "tourism": "museum",
      "website": "https://weatherspoonart.org/",
      "museum": "art",
      "angle": 288.09958140867036
    },
    {
      "id": 6924,
      "geometry": "POINT (-78.880747 35.054291)",
      "poi_name": "Independent Light Infantry Museum",
      "osm_id": 8767035207,
      "tourism": "museum",
      "operator": "Fayetteville Independent Light Infantry Company",
      "website": "https://www.fili1793.com/",
      "phone": "+1-910-433-1457",
      "museum": "military",
      "addr_state": "NC",
      "addr_city": "Fayetteville",
      "addr_postcode": "28301",
      "addr_street": "Burgess Street",
      "addr_housenumber": "210",
      "angle": 193.35780467702148
    },
    {
      "id": 7781,
      "geometry": "POINT (-78.122411 35.778754)",
      "poi_name": "Country Doctor Museum",
      "osm_id": 6399648448,
      "tourism": "museum",
      "fee": "yes",
      "opening_hours": "Tu-Sa 10:00-15:00",
      "website": "https://www.countrydoctormuseum.org/",
      "addr_state": "NC",
      "addr_city": "Bailey",
      "addr_postcode": "27807",
      "addr_street": "Peele Road",
      "addr_housenumber": "7089",
      "angle": 88.85994342799718
    },
    {
      "id": 8000,
      "geometry": "POINT (-79.177143 35.720342)",
      "poi_name": "Chatham Historical Museum",
      "osm_id": 6505219810,
      "tourism": "museum",
      "website": "https://chathamhistory.org/museum.shtml",
      "phone": "+19195426222",
      "addr_state": "NC",
      "addr_city": "Pittsboro",
      "addr_postcode": "27312",
      "addr_street": "Hillsboro Street",
      "addr_housenumber": "9",
      "angle": 263.0986105432343
    },
    {
      "id": 8410,
      "geometry": "POINT (-77.965972 34.959972)",
      "poi_name": "Cowan Museum of History and Science",
      "osm_id": 6684665070,
      "tourism": "museum",
      "website": "https://cowanmuseum.org/",
      "phone": "(910) 296-2149",
      "addr_state": "NC",
      "addr_city": "Kenansville",
      "addr_postcode": "28349",
      "addr_street": "South Main Street",
      "addr_housenumber": "411",
      "angle": 144.23585700737453
    },
    {
      "id": 8411,
      "geometry": "POINT (-77.965263 34.959958)",
      "poi_name": "Liberty Hall",
      "osm_id": 6684680413,
      "tourism": "museum",
      "website": "https://libertyhallnc.org/",
      "phone": "(910) 296-2175",
      "addr_state": "NC",
      "addr_city": "Kenansville",
      "addr_postcode": "28349",
      "addr_street": "South Main Street",
      "addr_housenumber": "409",
      "angle": 144.20898992598552
    },
    {
      "id": 8508,
      "geometry": "POINT (-78.742417 35.412466)",
      "poi_name": "Lundy Fetterman Museum",
      "osm_id": 8514909706,
      "description": "Inside the Lundy Fetterman School of Business.  Open to the public Mondays and Wednesdays.",
      "tourism": "museum",
      "website": "https://library.campbell.edu/lundy-fetterman-museum",
      "wikidata": "Q113484095",
      "addr_state": "NC",
      "addr_city": "Buies Creek",
      "addr_postcode": "27506",
      "addr_street": "Dr McKoy Road",
      "addr_housenumber": "165",
      "angle": 188.90196162930135
    },
    {
      "id": 9033,
      "geometry": "POINT (-78.563951 36.649766)",
      "poi_name": "Prestwould Plantation",
      "osm_id": 3637549791,
      "tourism": "museum",
      "angle": 5.752933078293401
    },
    {
      "id": 9592,
      "geometry": "POINT (-77.040776 35.1086)",
      "poi_name": "New Bern Firemen's Museum",
      "osm_id": 3905366072,
      "tourism": "museum",
      "website": "https://firemensmuseum.com/",
      "angle": 115.8928502447669
    },
    {
      "id": 10174,
      "geometry": "POINT (-79.099841 36.077266)",
      "poi_name": "Orange County Historical Society",
      "osm_id": 6738872379,
      "tourism": "museum",
      "opening_hours": "Fr-Su 11:00-16:00",
      "website": "https://www.orangehistorync.org/",
      "angle": 311.58871416234774
    },
    {
      "id": 11348,
      "geometry": "POINT (-79.391433 35.17477)",
      "poi_name": "Creation Museum",
      "osm_id": 9940001609,
      "tourism": "museum",
      "building": "yes",
      "fee": "no",
      "shop": "religion",
      "phone": "+19106923471",
      "museum": "history",
      "addr_state": "NC",
      "addr_city": "Southern Pines",
      "addr_postcode": "28387",
      "addr_street": "Northwest Broad Street",
      "addr_housenumber": "156",
      "angle": 224.7601027304645
    },
    {
      "id": 11351,
      "geometry": "POINT (-78.609043 35.30772)",
      "poi_name": "Dunn Area History Museum",
      "osm_id": 9943277776,
      "tourism": "museum",
      "opening_hours": "Tu-Sa 10:00-16:30",
      "website": "https://www.dunnhistorymuseum.com/",
      "museum": "history",
      "addr_state": "NC",
      "addr_city": "Dunn",
      "addr_postcode": "28334",
      "addr_street": "East Broad Street",
      "addr_housenumber": "201",
      "angle": 173.46379854733644
    },
    {
      "id": 11650,
      "geometry": "POINT (-77.423568 34.750102)",
      "poi_name": "Zing Zumm",
      "osm_id": 11466464456,
      "tourism": "museum",
      "wheelchair": "yes",
      "opening_hours": "Tu-Sa 09:00-17:00; Su 12:00-17:00; PH closed",
      "website": "https://zingzumm.org/",
      "museum": "children",
      "toilets": "yes",
      "addr_state": "NC",
      "addr_city": "Jacksonville",
      "addr_street": "New Bridge Street",
      "addr_housenumber": "625",
      "angle": 134.51222433562577
    },
    {
      "id": 12545,
      "geometry": "POINT (-79.335979 36.403866)",
      "poi_name": "Richmond-Miles History Museum",
      "osm_id": 7306080277,
      "tourism": "museum",
      "opening_hours": "We-Fr 13:00-16:00",
      "website": "https://caswellcountyhistory.org/",
      "phone": "(336) 694-4965",
      "museum": "history",
      "addr_state": "NC",
      "addr_city": "Yanceyville",
      "addr_postcode": "27379",
      "addr_street": "Main Street",
      "addr_housenumber": "207",
      "angle": 319.85120717104076
    },
    {
      "id": 12603,
      "geometry": "POINT (-79.762958 35.072506)",
      "poi_name": "Rankin Museum of American Heritage",
      "osm_id": 7367472445,
      "tourism": "museum",
      "website": "https://rankinmuseum.org/",
      "phone": "(910) 652-6378",
      "museum": "history",
      "addr_state": "NC",
      "addr_city": "Ellerbe",
      "addr_postcode": "28338",
      "addr_street": "Church Street",
      "addr_housenumber": "131",
      "angle": 232.2357081800527
    },
    {
      "id": 12617,
      "geometry": "POINT (-78.671628 35.406332)",
      "poi_name": "Coats Museum",
      "osm_id": 7393098346,
      "tourism": "museum",
      "website": "http://www.coatsmuseum.com/",
      "phone": "(910) 897-2525",
      "addr_state": "NC",
      "addr_city": "Coats",
      "addr_postcode": "27521",
      "addr_street": "South McKinley Street",
      "addr_housenumber": "109",
      "angle": 179.71981197587948
    },
    {
      "id": 12622,
      "geometry": "POINT (-78.680478 35.723409)",
      "poi_name": "Randleigh Dairy Heritage Museum",
      "osm_id": 7402241010,
      "tourism": "museum",
      "website": "https://howlingcow.ncsu.edu/randleigh-dairy-heritage-museum/know-before-you-go/",
      "addr_state": "NC",
      "addr_city": "Raleigh",
      "addr_postcode": "27603",
      "addr_street": "Dairy Lane",
      "addr_housenumber": "301",
      "angle": 186.51012716229667
    },
    {
      "id": 12634,
      "geometry": "POINT (-77.788148 35.307327)",
      "poi_name": "La Grange Arts Center",
      "osm_id": 7421531266,
      "tourism": "museum",
      "website": "https://lagrangeartmuseum.org/",
      "addr_state": "NC",
      "addr_city": "La Grange",
      "addr_postcode": "28551",
      "addr_street": "West Railroad Street",
      "addr_housenumber": "112",
      "angle": 122.38693424018794
    },
    {
      "id": 14470,
      "geometry": "POINT (-80.198376 35.351446)",
      "poi_name": "Stanly County Museum",
      "osm_id": 4643260593,
      "tourism": "museum",
      "opening_hours": "Mo-Fr 09:00-17:00",
      "website": "https://stanlycountymuseum.com/",
      "phone": "+1 (704) 986-3777",
      "addr_state": "NC",
      "addr_city": "Albemarle",
      "addr_postcode": "28001",
      "addr_street": "North 2nd Street",
      "addr_housenumber": "157",
      "angle": 251.82849126979707
    },
    {
      "id": 15569,
      "geometry": "POINT (-80.297269 36.155824)",
      "poi_name": "Bethabara Visitor Center",
      "osm_id": 4942427599,
      "tourism": "museum",
      "fee": "no",
      "website": "https://historicbethabara.org/",
      "phone": "+1 336 924 8191",
      "addr_state": "NC",
      "addr_city": "Winston-Salem",
      "addr_postcode": "27106",
      "addr_street": "Bethabara Road",
      "addr_housenumber": "2147",
      "angle": 286.72790380434753
    },
    {
      "id": 17670,
      "geometry": "POINT (-78.1174 35.6007)",
      "poi_name": "Tobacco Farm Life Museum",
      "osm_id": 367912237,
      "tourism": "museum",
      "opening_hours": "Th-Sa 9:30-17:00",
      "website": "https://www.tobaccofarmlifemuseum.org/",
      "phone": "(919) 284-3431",
      "addr_state": "NC",
      "addr_city": "Kenly",
      "addr_postcode": "27542",
      "addr_street": "North Church Street",
      "addr_housenumber": "709",
      "angle": 110.41010479918091
    },
    {
      "id": 17673,
      "geometry": "POINT (-77.5809 35.2584)",
      "poi_name": "Caswell Number 1 Fire Station Museum",
      "osm_id": 367912241,
      "tourism": "museum",
      "website": "https://www.visitnc.com/listing/5RiC/caswell-no-1-fire-station-museum",
      "phone": "+1 252-523-2020",
      "addr_state": "NC",
      "addr_city": "Kinston",
      "addr_postcode": "28501",
      "addr_street": "South Queen Street",
      "addr_housenumber": "118",
      "angle": 119.52652975713329
    },
    {
      "id": 17756,
      "geometry": "POINT (-78.89807 37.032233)",
      "poi_name": "Patrick Henry Museum",
      "osm_id": 367997060,
      "tourism": "museum",
      "website": "https://www.redhill.org",
      "addr_state": "VA",
      "angle": 351.88609757740767
    },
    {
      "id": 17757,
      "geometry": "POINT (-77.542856 36.685387)",
      "poi_name": "Greensville County-Emporia Historical Museum",
      "osm_id": 367997094,
      "tourism": "museum",
      "addr_state": "VA",
      "angle": 44.729392254745584
    },
    {
      "id": 17758,
      "geometry": "POINT (-78.131401 36.726251)",
      "poi_name": "South Hill Tobacco Museum",
      "osm_id": 367997101,
      "tourism": "museum",
      "website": "https://m.facebook.com/profile.php?id=109378272436258&__tn__=C-R",
      "addr_state": "VA",
      "angle": 24.540746359922995
    },
    {
      "id": 17761,
      "geometry": "POINT (-79.400023 36.580972)",
      "poi_name": "Danville Museum of Fine Arts and History",
      "osm_id": 367997160,
      "tourism": "museum",
      "website": "https://www.danvillemuseum.org/",
      "addr_state": "VA",
      "angle": 324.1972138334045
    },
    {
      "id": 19274,
      "geometry": "POINT (-78.562465 36.622628)",
      "poi_name": "Clarksville Regional Museum",
      "osm_id": 2601547611,
      "tourism": "museum",
      "opening_hours": "Sa 13:00-16:00",
      "website": "https://www.clarksvilleregionalmuseum.info/",
      "angle": 6.016738856972132
    },
    {
      "id": 19285,
      "geometry": "POINT (-79.369077 35.147375)",
      "poi_name": "Weymouth Woods-Sandhills Nature Preserve-Museum",
      "osm_id": 2607411356,
      "tourism": "museum",
      "fee": "no",
      "opening_hours": "8:00-17:00; Dec 25 off",
      "angle": 222.56869151331188
    },
    {
      "id": 19502,
      "geometry": "POINT (-78.739683 35.507012)",
      "poi_name": "Angier Museum",
      "osm_id": 10792248059,
      "tourism": "museum",
      "phone": "(919) 639-2935",
      "addr_street": "West Depot Street",
      "addr_housenumber": "19",
      "angle": 191.5300067822874
    },
    {
      "id": 21443,
      "geometry": "POINT (-77.992775 35.383236)",
      "poi_name": "Wayne County Museum",
      "osm_id": 10266300079,
      "tourism": "museum",
      "website": "https://www.waynemuseum.org/",
      "phone": "+1 919 734 5023",
      "museum": "history",
      "addr_state": "NC",
      "addr_city": "Goldsboro",
      "addr_postcode": "27530",
      "addr_street": "North William Street",
      "addr_housenumber": "116",
      "angle": 124.6812278770023
    },
    {
      "id": 21486,
      "geometry": "POINT (-78.122026 35.778985)",
      "poi_name": "The Country Doctor Museum",
      "osm_id": 10282085969,
      "tourism": "museum",
      "website": "https://www.countrydoctormuseum.org/",
      "phone": "(252) 235-4165",
      "addr_state": "NC",
      "addr_city": "Bailey",
      "addr_postcode": "27807",
      "addr_street": "Peele Road",
      "addr_housenumber": "7089",
      "angle": 88.83103673112585
    },
    {
      "id": 21828,
      "geometry": "POINT (-77.470576 35.438823)",
      "poi_name": "North Carolina Museum of Natural Science - Contentnea Creek",
      "osm_id": 10686061078,
      "tourism": "museum",
      "phone": "+12523642862",
      "addr_state": "NC",
      "addr_city": "Grifton",
      "addr_postcode": "28530",
      "addr_street": "Contentnea Lane",
      "addr_housenumber": "949",
      "angle": 108.33050667985891
    },
    {
      "id": 21832,
      "geometry": "POINT (-78.548195 35.381705)",
      "poi_name": "Benson Museum of Local History",
      "osm_id": 10687537885,
      "tourism": "museum",
      "website": "https://www.townofbenson.com/2209/Museum",
      "phone": "(919) 894-1266",
      "museum": "local",
      "addr_state": "NC",
      "addr_city": "Benson",
      "addr_postcode": "27504",
      "addr_street": "West Main Street",
      "addr_housenumber": "102",
      "angle": 165.198537874603
    },
    {
      "id": 22661,
      "geometry": "POINT (-79.176236 34.811746)",
      "poi_name": "Red Springs Historical Museum",
      "osm_id": 7201041812,
      "tourism": "museum",
      "website": "https://www.redsprings.org/index.asp?SEC=AB534596-98E9-45F5-B3F6-A769875CAA02&Type=B_BASIC&_ga-ft=1ZaxY_.0.0.0.0.GXOKU9-1PmD3Sn.0.0",
      "phone": "(910) 843-7300",
      "addr_state": "NC",
      "addr_city": "Red Springs",
      "addr_postcode": "28377",
      "addr_street": "East 4th Avenue",
      "addr_housenumber": "506",
      "angle": 203.38418807364465
    },
    {
      "id": 25566,
      "geometry": "POINT (-79.384718 36.584188)",
      "poi_name": "Danville Science Center",
      "osm_id": 4541989147,
      "tourism": "museum",
      "website": "https://dsc.smv.org/",
      "wikidata": "Q24883674",
      "angle": 324.87897586329035
    },
    {
      "id": 26087,
      "geometry": "POINT (-79.370946 35.780428)",
      "poi_name": "Silk Hope Ruritan Club",
      "osm_id": 5782634492,
      "tourism": "museum",
      "website": "https://silkhopenc.org/",
      "phone": "+19196630331",
      "addr_state": "NC",
      "addr_city": "Siler City",
      "addr_postcode": "27344",
      "addr_street": "Silk Hope Road",
      "addr_housenumber": "4221",
      "angle": 271.1468409409579
    },
    {
      "id": 26129,
      "geometry": "POINT (-79.173372 35.720528)",
      "poi_name": "Small Museum of Folk Art",
      "osm_id": 5785410150,
      "tourism": "museum",
      "website": "https://www.smallmuseumfolkart.org/",
      "museum": "art",
      "wikidata": "Q113484254",
      "addr_state": "NC",
      "addr_city": "Pittsboro",
      "addr_postcode": "27312",
      "addr_street": "Small Street",
      "addr_housenumber": "31",
      "angle": 263.0707396591691
    },
    {
      "id": 26311,
      "geometry": "POINT (-77.548352 34.89778)",
      "poi_name": "Onslow County Museum",
      "osm_id": 5844583628,
      "tourism": "museum",
      "website": "http://onslowcountync.gov/151/Museum",
      "addr_state": "NC",
      "addr_city": "Richlands",
      "addr_postcode": "28574",
      "addr_street": "South Wilmington Street",
      "addr_housenumber": "301",
      "angle": 133.111496791134
    }
  ],
  "answer_type": "angle",
  "question_entities": {
    "[1]": {
      "main_category": "tourism",
      "sub_category": "museum"
    },
    "[2]": {
      "distance": 170000,
      "text": "170 kilometers"
    },
    "[3]": {
      "main_category": "amenity",
      "sub_category": "university",
      "display_name": "Department of Mechanical and Aerospace Engineering, Raleigh, NC",
      "geo_wkt": "POINT (-78.673807 35.771076)",
      "poi": {
        "id": 174237,
        "geometry": "POINT (-78.673807 35.771076)",
        "poi_name": "Department of Mechanical and Aerospace Engineering",
        "osm_id": 2470669436,
        "amenity": "university",
        "website": "https://www.mae.ncsu.edu/",
        "addr_state": "NC",
        "addr_city": "Raleigh",
        "addr_postcode": "27606"
      }
    }
  },
  "id": 1086,
  "type": "range+angle"
}