{
  "question": "What fast food restaurant situated within 120 kilometers towards the southwest of Mountain Creek gold mine, New London, NC?",
  "sql": "\nWITH origin AS  (SELECT ST_GeomFromText('POINT (-80.185301 35.43723)',4326)::geography AS geometry)\nSELECT * FROM pois, origin\nWHERE ST_DWithin(pois.geometry, ST_GeomFromText('POINT (-80.185301 35.43723)',4326)::geography, 120000)\nAND amenity = 'fast_food'\nAND degrees(ST_Azimuth(origin.geometry, pois.geometry)) BETWEEN 202.5 AND 247.5;\n",
  "answers": [
    {
      "id": 32659,
      "geometry": "POINT (-80.185301 35.43723)",
      "poi_name": "Subway",
      "osm_id": 2633070486,
      "amenity": "fast_food",
      "cuisine": "sandwich",
      "takeaway": "yes"
    },
    {
      "id": 27747,
      "geometry": "POINT (-80.185301 35.43723)",
      "poi_name": "Panera Bread",
      "osm_id": 446103981,
      "amenity": "fast_food",
      "cuisine": "sandwich;bakery",
      "takeaway": "yes"
    },
    {
      "id": 32060,
      "geometry": "POINT (-80.185301 35.43723)",
      "poi_name": "Five Guys",
      "osm_id": 2620535192,
      "amenity": "fast_food",
      "cuisine": "burger",
      "takeaway": "yes",
      "drive_through": "no",
      "official_name": "Five Guys Burgers and Fries"
    },
    {
      "id": 32062,
      "geometry": "POINT (-80.185301 35.43723)",
      "poi_name": "Subway",
      "osm_id": 2620535197,
      "amenity": "fast_food",
      "cuisine": "sandwich",
      "takeaway": "yes"
    },
    {
      "id": 46918,
      "geometry": "POINT (-80.185301 35.43723)",
      "poi_name": "Chopt",
      "osm_id": 3298028780,
      "amenity": "fast_food",
      "cuisine": "salad",
      "takeaway": "yes",
      "addr_state": "NC",
      "addr_city": "Charlotte",
      "addr_postcode": "28209",
      "addr_street": "Park Road",
      "addr_housenumber": "4125"
    },
    {
      "id": 34282,
      "geometry": "POINT (-80.185301 35.43723)",
      "poi_name": "Manhattan Bagel",
      "osm_id": 2698801250,
      "amenity": "fast_food",
      "cuisine": "bagel",
      "shop": "bakery",
      "takeaway": "yes",
      "addr_state": "NC",
      "addr_city": "Charlotte",
      "addr_postcode": "28277",
      "addr_street": "Providence Road",
      "addr_housenumber": "8040"
    },
    {
      "id": 32886,
      "geometry": "POINT (-80.185301 35.43723)",
      "poi_name": "Wendy's",
      "osm_id": 2640391494,
      "amenity": "fast_food",
      "cuisine": "burger",
      "takeaway": "yes",
      "drive_through": "yes"
    },
    {
      "id": 38539,
      "geometry": "POINT (-80.185301 35.43723)",
      "poi_name": "Cook Out",
      "osm_id": 2869700887,
      "amenity": "fast_food",
      "cuisine": "american",
      "takeaway": "yes"
    },
    {
      "id": 46921,
      "geometry": "POINT (-80.185301 35.43723)",
      "poi_name": "Subway",
      "osm_id": 3298028796,
      "amenity": "fast_food",
      "cuisine": "sandwich",
      "takeaway": "yes",
      "addr_state": "NC",
      "addr_city": "Charlotte",
      "addr_postcode": "28209",
      "addr_street": "Park Road",
      "addr_housenumber": "4323"
    },
    {
      "id": 46924,
      "geometry": "POINT (-80.185301 35.43723)",
      "poi_name": "Which Wich?",
      "osm_id": 3298043383,
      "amenity": "fast_food",
      "cuisine": "sandwich",
      "takeaway": "yes"
    },
    {
      "id": 46925,
      "geometry": "POINT (-80.185301 35.43723)",
      "poi_name": "Qdoba",
      "osm_id": 3298043386,
      "amenity": "fast_food",
      "cuisine": "mexican",
      "website": "https://locations.qdoba.com/us/nc/charlotte/1600-e-woodlawn-rd.html",
      "takeaway": "yes",
      "official_name": "Qdoba Mexican Grill"
    },
    {
      "id": 46926,
      "geometry": "POINT (-80.185301 35.43723)",
      "poi_name": "Smoothie King",
      "osm_id": 3298043387,
      "amenity": "fast_food",
      "cuisine": "juice",
      "takeaway": "yes"
    },
    {
      "id": 47070,
      "geometry": "POINT (-80.185301 35.43723)",
      "poi_name": "Hungry Howie's",
      "osm_id": 3304917488,
      "amenity": "fast_food",
      "cuisine": "pizza",
      "opening_hours": "10:30-23:30",
      "takeaway": "yes",
      "addr_state": "NC",
      "addr_city": "Pineville",
      "addr_postcode": "28226",
      "addr_street": "Pineville-Matthews Road",
      "addr_housenumber": "8334"
    },
    {
      "id": 46991,
      "geometry": "POINT (-80.185301 35.43723)",
      "poi_name": "Little Caesars",
      "osm_id": 3302698295,
      "amenity": "fast_food",
      "cuisine": "pizza",
      "website": "https://littlecaesars.com/en-us/store/12424/",
      "takeaway": "yes"
    },
    {
      "id": 46997,
      "geometry": "POINT (-80.185301 35.43723)",
      "poi_name": "Five Guys",
      "osm_id": 3302844767,
      "amenity": "fast_food",
      "cuisine": "burger",
      "takeaway": "yes",
      "official_name": "Five Guys Burgers and Fries"
    },
    {
      "id": 46998,
      "geometry": "POINT (-80.185301 35.43723)",
      "poi_name": "Chick-fil-A",
      "osm_id": 3302844768,
      "amenity": "fast_food",
      "cuisine": "chicken",
      "takeaway": "yes"
    },
    {
      "id": 46999,
      "geometry": "POINT (-80.185301 35.43723)",
      "poi_name": "Chipotle",
      "osm_id": 3302844769,
      "amenity": "fast_food",
      "cuisine": "mexican",
      "takeaway": "yes",
      "official_name": "Chipotle Mexican Grill"
    },
    {
      "id": 47002,
      "geometry": "POINT (-80.185301 35.43723)",
      "poi_name": "Auntie Anne's",
      "osm_id": 3302844773,
      "amenity": "fast_food",
      "cuisine": "pretzel",
      "takeaway": "yes"
    },
    {
      "id": 47003,
      "geometry": "POINT (-80.185301 35.43723)",
      "poi_name": "Panera Bread",
      "osm_id": 3302844777,
      "amenity": "fast_food",
      "cuisine": "sandwich;bakery",
      "takeaway": "yes"
    },
    {
      "id": 47004,
      "geometry": "POINT (-80.185301 35.43723)",
      "poi_name": "Charleys Philly Steaks",
      "osm_id": 3302844778,
      "amenity": "fast_food",
      "cuisine": "sandwich",
      "takeaway": "yes"
    },
    {
      "id": 47053,
      "geometry": "POINT (-80.185301 35.43723)",
      "poi_name": "Domino's",
      "osm_id": 3304497470,
      "amenity": "fast_food",
      "cuisine": "pizza",
      "takeaway": "yes"
    },
    {
      "id": 47215,
      "geometry": "POINT (-80.185301 35.43723)",
      "poi_name": "Honey Baked Ham",
      "osm_id": 3313321877,
      "amenity": "fast_food",
      "cuisine": "american",
      "takeaway": "yes",
      "official_name": "The Honey Baked Ham Company",
      "addr_state": "NC",
      "addr_city": "Charlotte",
      "addr_postcode": "28226",
      "addr_street": "Pineville-Matthews Road",
      "addr_housenumber": "7649"
    },
    {
      "id": 47216,
      "geometry": "POINT (-80.185301 35.43723)",
      "poi_name": "Flip'n Chicken",
      "osm_id": 3313321880,
      "amenity": "fast_food"
    },
    {
      "id": 47217,
      "geometry": "POINT (-80.185301 35.43723)",
      "poi_name": "Chicken Salad Chick",
      "osm_id": 3313321882,
      "amenity": "fast_food",
      "cuisine": "chicken",
      "takeaway": "yes",
      "addr_state": "NC",
      "addr_city": "Charlotte",
      "addr_postcode": "28226",
      "addr_street": "Pineville-Matthews Road",
      "addr_housenumber": "7617"
    },
    {
      "id": 47221,
      "geometry": "POINT (-80.185301 35.43723)",
      "poi_name": "Papa John's",
      "osm_id": 3313330808,
      "amenity": "fast_food",
      "cuisine": "pizza",
      "takeaway": "yes"
    },
    {
      "id": 47222,
      "geometry": "POINT (-80.185301 35.43723)",
      "poi_name": "Firehouse Subs",
      "osm_id": 3313330809,
      "amenity": "fast_food",
      "cuisine": "sandwich",
      "takeaway": "yes"
    },
    {
      "id": 47225,
      "geometry": "POINT (-80.185301 35.43723)",
      "poi_name": "Dunkin'",
      "osm_id": 3313330815,
      "amenity": "fast_food",
      "cuisine": "donut;coffee_shop",
      "takeaway": "yes"
    },
    {
      "id": 47072,
      "geometry": "POINT (-80.185301 35.43723)",
      "poi_name": "Subway",
      "osm_id": 3304917510,
      "amenity": "fast_food",
      "cuisine": "sandwich",
      "takeaway": "yes"
    },
    {
      "id": 47073,
      "geometry": "POINT (-80.185301 35.43723)",
      "poi_name": "Jersey Mike's Subs",
      "osm_id": 3304925597,
      "amenity": "fast_food",
      "cuisine": "sandwich",
      "takeaway": "yes"
    },
    {
      "id": 47075,
      "geometry": "POINT (-80.185301 35.43723)",
      "poi_name": "Bruegger's Bagels",
      "osm_id": 3304949961,
      "amenity": "fast_food",
      "cuisine": "bagel",
      "shop": "bakery",
      "takeaway": "yes"
    },
    {
      "id": 47365,
      "geometry": "POINT (-80.185301 35.43723)",
      "poi_name": "Jersey Mike's Subs",
      "osm_id": 3324042377,
      "amenity": "fast_food",
      "cuisine": "sandwich",
      "takeaway": "yes"
    },
    {
      "id": 47374,
      "geometry": "POINT (-80.185301 35.43723)",
      "poi_name": "Panera Bread",
      "osm_id": 3324098648,
      "amenity": "fast_food",
      "cuisine": "sandwich;bakery",
      "takeaway": "yes"
    },
    {
      "id": 47376,
      "geometry": "POINT (-80.185301 35.43723)",
      "poi_name": "Bruegger's Bagels",
      "osm_id": 3324105765,
      "amenity": "fast_food",
      "cuisine": "bagel",
      "takeaway": "yes",
      "addr_state": "NC",
      "addr_city": "Charlotte",
      "addr_postcode": "28211",
      "addr_street": "South Sharon Amity Road",
      "addr_housenumber": "106"
    },
    {
      "id": 47378,
      "geometry": "POINT (-80.185301 35.43723)",
      "poi_name": "Dairy Queen",
      "osm_id": 3324105769,
      "amenity": "fast_food",
      "cuisine": "ice_cream;burger",
      "takeaway": "yes",
      "addr_state": "NC",
      "addr_city": "Charlotte",
      "addr_postcode": "28211",
      "addr_street": "South Sharon Amity Road",
      "addr_housenumber": "108"
    },
    {
      "id": 47379,
      "geometry": "POINT (-80.185301 35.43723)",
      "poi_name": "Subway",
      "osm_id": 3324105770,
      "amenity": "fast_food",
      "cuisine": "sandwich",
      "takeaway": "yes"
    },
    {
      "id": 47517,
      "geometry": "POINT (-80.185301 35.43723)",
      "poi_name": "Mooyah",
      "osm_id": 3329520661,
      "amenity": "fast_food",
      "cuisine": "burger",
      "takeaway": "yes"
    },
    {
      "id": 47357,
      "geometry": "POINT (-80.185301 35.43723)",
      "poi_name": "Subway",
      "osm_id": 3324003612,
      "amenity": "fast_food",
      "cuisine": "sandwich",
      "takeaway": "yes"
    },
    {
      "id": 47364,
      "geometry": "POINT (-80.185301 35.43723)",
      "poi_name": "Domino's",
      "osm_id": 3324042374,
      "amenity": "fast_food",
      "cuisine": "pizza",
      "takeaway": "yes",
      "drive_through": "no"
    },
    {
      "id": 47521,
      "geometry": "POINT (-80.185301 35.43723)",
      "poi_name": "Jersey Mike's Subs",
      "osm_id": 3329533954,
      "amenity": "fast_food",
      "cuisine": "sandwich",
      "opening_hours": "Mo-Su 10:00-21:00",
      "takeaway": "yes",
      "addr_state": "NC",
      "addr_city": "Matthews",
      "addr_street": "Matthews Township Parkway"
    },
    {
      "id": 47524,
      "geometry": "POINT (-80.185301 35.43723)",
      "poi_name": "Dairy Queen",
      "osm_id": 3329533966,
      "amenity": "fast_food",
      "cuisine": "ice_cream;burger",
      "takeaway": "yes",
      "addr_state": "NC",
      "addr_city": "Matthews",
      "addr_street": "Matthews Township Parkway"
    },
    {
      "id": 47526,
      "geometry": "POINT (-80.185301 35.43723)",
      "poi_name": "Subway",
      "osm_id": 3329558433,
      "amenity": "fast_food",
      "cuisine": "sandwich",
      "takeaway": "yes"
    },
    {
      "id": 58205,
      "geometry": "POINT (-80.185301 35.43723)",
      "poi_name": "Jamba",
      "osm_id": 5367346806,
      "amenity": "fast_food",
      "cuisine": "juice",
      "takeaway": "yes",
      "outdoor_seating": "yes"
    },
    {
      "id": 47511,
      "geometry": "POINT (-80.185301 35.43723)",
      "poi_name": "Subway",
      "osm_id": 3329467148,
      "amenity": "fast_food",
      "cuisine": "sandwich",
      "takeaway": "yes"
    },
    {
      "id": 55003,
      "geometry": "POINT (-80.185301 35.43723)",
      "poi_name": "Subway",
      "osm_id": 10166918601,
      "amenity": "fast_food",
      "cuisine": "sandwich",
      "phone": "+1 (980) 207-3185",
      "takeaway": "yes",
      "addr_state": "NC",
      "addr_city": "Charlotte",
      "addr_postcode": "28204",
      "addr_street": "South Kings Drive",
      "addr_housenumber": "335"
    },
    {
      "id": 58080,
      "geometry": "POINT (-80.185301 35.43723)",
      "poi_name": "Qdoba",
      "osm_id": 5363922476,
      "amenity": "fast_food",
      "cuisine": "mexican",
      "takeaway": "yes",
      "drive_through": "no",
      "official_name": "Qdoba Mexican Grill",
      "delivery": "no",
      "addr_state": "NC",
      "addr_city": "Charlotte",
      "addr_postcode": "28277"
    },
    {
      "id": 58098,
      "geometry": "POINT (-80.185301 35.43723)",
      "poi_name": "Five Guys",
      "osm_id": 5364185678,
      "amenity": "fast_food",
      "cuisine": "burger",
      "takeaway": "yes",
      "drive_through": "no",
      "official_name": "Five Guys Burgers and Fries",
      "outdoor_seating": "yes"
    },
    {
      "id": 58099,
      "geometry": "POINT (-80.185301 35.43723)",
      "poi_name": "Firehouse Subs",
      "osm_id": 5364185679,
      "amenity": "fast_food",
      "cuisine": "sandwich",
      "takeaway": "yes",
      "drive_through": "no",
      "outdoor_seating": "yes"
    },
    {
      "id": 53546,
      "geometry": "POINT (-80.185301 35.43723)",
      "poi_name": "Wendy's",
      "osm_id": 10084832214,
      "amenity": "fast_food",
      "cuisine": "burger",
      "phone": "+17048888602",
      "takeaway": "yes",
      "addr_state": "NC",
      "addr_city": "Locust",
      "addr_postcode": "28097",
      "addr_street": "East Market Street",
      "addr_housenumber": "103"
    },
    {
      "id": 54759,
      "geometry": "POINT (-80.185301 35.43723)",
      "poi_name": "Which Wich?",
      "osm_id": 10155015137,
      "amenity": "fast_food",
      "cuisine": "sandwich",
      "website": "https://www.whichwich.com/",
      "phone": "+1 (704) 900-6036",
      "takeaway": "yes",
      "addr_state": "NC",
      "addr_city": "Charlotte",
      "addr_postcode": "28204",
      "addr_street": "Metropolitan Avenue",
      "addr_housenumber": "1055"
    },
    {
      "id": 54761,
      "geometry": "POINT (-80.185301 35.43723)",
      "poi_name": "Blenderz Smoothies & Bowls",
      "osm_id": 10155015143,
      "amenity": "fast_food",
      "cuisine": "juice",
      "addr_state": "NC",
      "addr_city": "Charlotte",
      "addr_postcode": "28204",
      "addr_street": "Metropolitan Avenue",
      "addr_housenumber": "1055"
    },
    {
      "id": 58206,
      "geometry": "POINT (-80.185301 35.43723)",
      "poi_name": "Domino's",
      "osm_id": 5367346807,
      "amenity": "fast_food",
      "cuisine": "pizza",
      "takeaway": "only",
      "drive_through": "no",
      "delivery": "yes"
    },
    {
      "id": 71075,
      "geometry": "POINT (-80.185301 35.43723)",
      "poi_name": "Zaxby's",
      "osm_id": 11380572902,
      "amenity": "fast_food",
      "cuisine": "chicken",
      "opening_hours": "Mo-Th 10:30-22:00; Fr-Sa 10:30-23:00; Su 11:00-22:00",
      "website": "https://www.zaxbys.com/",
      "phone": "+1-704-573-0607",
      "takeaway": "yes",
      "drive_through": "yes",
      "official_name": "Zaxby's Chicken Fingers & Buffalo Wings",
      "addr_state": "NC",
      "addr_city": "Mint Hill",
      "addr_postcode": "28227",
      "addr_street": "Brighton Park Drive",
      "addr_housenumber": "6911"
    },
    {
      "id": 58419,
      "geometry": "POINT (-80.185301 35.43723)",
      "poi_name": "Jersey Mike's Subs",
      "osm_id": 5374195687,
      "amenity": "fast_food",
      "cuisine": "sandwich",
      "takeaway": "yes"
    },
    {
      "id": 58746,
      "geometry": "POINT (-80.185301 35.43723)",
      "poi_name": "McDonald's",
      "osm_id": 5395972821,
      "amenity": "fast_food",
      "cuisine": "burger",
      "website": "https://www.mcdonalds.com/us/en-us/location/nc/charlotte/413-tyvola-rd/13052.html",
      "takeaway": "yes"
    },
    {
      "id": 60506,
      "geometry": "POINT (-80.185301 35.43723)",
      "poi_name": "China Wok",
      "osm_id": 5468470060,
      "amenity": "fast_food",
      "cuisine": "chinese",
      "takeaway": "yes",
      "addr_state": "SC",
      "addr_city": "Richburg",
      "addr_postcode": "29729",
      "addr_street": "Lancaster Highway",
      "addr_housenumber": "3191"
    },
    {
      "id": 60507,
      "geometry": "POINT (-80.185301 35.43723)",
      "poi_name": "Subway",
      "osm_id": 5468470095,
      "amenity": "fast_food",
      "cuisine": "sandwich",
      "takeaway": "yes"
    },
    {
      "id": 70764,
      "geometry": "POINT (-80.185301 35.43723)",
      "poi_name": "Chipotle",
      "osm_id": 11374017448,
      "amenity": "fast_food",
      "cuisine": "mexican",
      "website": "https://locations.chipotle.com/nc/charlotte/2921-providence-rd",
      "phone": "+1-704-366-7280",
      "takeaway": "yes",
      "official_name": "Chipotle Mexican Grill",
      "addr_state": "NC",
      "addr_city": "Charlotte",
      "addr_postcode": "28211",
      "addr_street": "Providence Road",
      "addr_housenumber": "2921"
    },
    {
      "id": 71090,
      "geometry": "POINT (-80.185301 35.43723)",
      "poi_name": "Dunkin'",
      "osm_id": 11381713413,
      "amenity": "fast_food",
      "cuisine": "donut;coffee_shop",
      "opening_hours": "Mo-Fr 05:30-20:00; Sa-Su 06:00-20:00",
      "website": "https://locations.dunkindonuts.com/en/nc/mint-hill/7001-matthews-mint-hill-rd/341637",
      "phone": "+1-704-545-7480",
      "takeaway": "yes",
      "drive_through": "yes",
      "addr_state": "NC",
      "addr_city": "Mint Hill",
      "addr_postcode": "28227",
      "addr_street": "Matthews-Mint Hill Road",
      "addr_housenumber": "7001"
    },
    {
      "id": 77037,
      "geometry": "POINT (-80.185301 35.43723)",
      "poi_name": "BurgerIM",
      "osm_id": 9803858757,
      "amenity": "fast_food",
      "cuisine": "burger",
      "website": "https://www.burgerimcharlotte.com/",
      "phone": "980-819-9930",
      "takeaway": "yes",
      "drive_through": "no",
      "addr_state": "NC",
      "addr_city": "Charlotte",
      "addr_postcode": "28217",
      "addr_street": "Potomac River Parkway",
      "addr_housenumber": "3320"
    },
    {
      "id": 71123,
      "geometry": "POINT (-80.185301 35.43723)",
      "poi_name": "Cinnabon",
      "osm_id": 11382448408,
      "amenity": "fast_food",
      "cuisine": "dessert",
      "takeaway": "yes"
    },
    {
      "id": 71135,
      "geometry": "POINT (-80.185301 35.43723)",
      "poi_name": "Wayback Burgers",
      "osm_id": 11382569808,
      "amenity": "fast_food",
      "cuisine": "burger",
      "opening_hours": "Mo-Su 10:30-21:00",
      "website": "https://waybackburgers.com/locations/us/north-carolina/mint-hill/",
      "phone": "+1-980-237-0140",
      "takeaway": "yes",
      "drive_through": "no",
      "outdoor_seating": "yes",
      "delivery": "yes",
      "addr_state": "NC",
      "addr_city": "Mint Hill",
      "addr_postcode": "28227",
      "addr_street": "Tutor Street",
      "addr_housenumber": "7014"
    },
    {
      "id": 71136,
      "geometry": "POINT (-80.185301 35.43723)",
      "poi_name": "Papa John's",
      "osm_id": 11382570678,
      "amenity": "fast_food",
      "cuisine": "pizza",
      "opening_hours": "Su-Th 09:30-23:00; Fr-Sa 9:30-0:00",
      "website": "https://locations.papajohns.com/united-states/nc/28227/mint-hill/7032-brighton-park-drive",
      "phone": "+1-704-545-2222",
      "takeaway": "yes",
      "drive_through": "no",
      "addr_state": "NC",
      "addr_city": "Mint Hill",
      "addr_postcode": "28227",
      "addr_street": "Brighton Park Drive",
      "addr_housenumber": "7032"
    },
    {
      "id": 71140,
      "geometry": "POINT (-80.185301 35.43723)",
      "poi_name": "Jersey Mike's Subs",
      "osm_id": 11382618980,
      "amenity": "fast_food",
      "cuisine": "sandwich",
      "opening_hours": "Mo-Su 10:00-21:00",
      "website": "https://www.jerseymikes.com/3141/mint-hill-nc",
      "phone": "+1-980-430-1401",
      "takeaway": "yes",
      "drive_through": "no",
      "addr_state": "NC",
      "addr_city": "Mint Hill",
      "addr_postcode": "28227",
      "addr_street": "Brighton Park Drive",
      "addr_housenumber": "7028"
    },
    {
      "id": 71395,
      "geometry": "POINT (-80.185301 35.43723)",
      "poi_name": "Marco's Pizza",
      "osm_id": 11388475392,
      "amenity": "fast_food",
      "cuisine": "pizza",
      "opening_hours": "Su-Th 11:00-23:00; Fr-Sa 11:00-00:00",
      "website": "https://www.marcos.com/",
      "phone": "+1-980-500-9900",
      "takeaway": "yes",
      "drive_through": "no",
      "delivery": "yes",
      "addr_state": "NC",
      "addr_city": "Mint Hill",
      "addr_postcode": "28227",
      "addr_street": "Matthews-Mint Hill Road",
      "addr_housenumber": "6816"
    },
    {
      "id": 72620,
      "geometry": "POINT (-80.185301 35.43723)",
      "poi_name": "Panera Bread",
      "osm_id": 11438974660,
      "amenity": "fast_food",
      "cuisine": "sandwich;bakery",
      "takeaway": "yes"
    },
    {
      "id": 71276,
      "geometry": "POINT (-80.185301 35.43723)",
      "poi_name": "Marco's Pizza",
      "osm_id": 11384972382,
      "amenity": "fast_food",
      "cuisine": "pizza",
      "takeaway": "yes"
    },
    {
      "id": 71514,
      "geometry": "POINT (-80.185301 35.43723)",
      "poi_name": "Subway",
      "osm_id": 11393141611,
      "amenity": "fast_food",
      "cuisine": "sandwich",
      "takeaway": "yes"
    },
    {
      "id": 71863,
      "geometry": "POINT (-80.185301 35.43723)",
      "poi_name": "Shelton Hall",
      "osm_id": 11403993658,
      "amenity": "fast_food",
      "fast_food": "cafeteria"
    },
    {
      "id": 72229,
      "geometry": "POINT (-80.185301 35.43723)",
      "poi_name": "Dunkin'",
      "osm_id": 11417840959,
      "amenity": "fast_food",
      "cuisine": "donut;coffee_shop",
      "opening_hours": "Mo-Fr 06:00-17:00; Sa-Su 07:00-17:00",
      "website": "https://locations.dunkindonuts.com/en/nc/charlotte/1308-c-the-plaza/357240",
      "phone": "+1-704-723-1351",
      "takeaway": "yes",
      "addr_state": "NC",
      "addr_city": "Charlotte",
      "addr_postcode": "28205",
      "addr_street": "The Plaza",
      "addr_housenumber": "1308"
    },
    {
      "id": 72230,
      "geometry": "POINT (-80.185301 35.43723)",
      "poi_name": "Dave's Hot Chicken",
      "osm_id": 11417840960,
      "amenity": "fast_food",
      "cuisine": "chicken",
      "opening_hours": "Mo-Th 11:00-22:00; Fr-Sa 11:00-23:00; Su 11:00-21:00",
      "website": "https://www.daveshotchicken.com/location/charlotte-nc-plaza-midwood/",
      "phone": "+1-980-381-4349",
      "takeaway": "yes",
      "addr_state": "NC",
      "addr_city": "Charlotte",
      "addr_postcode": "28205",
      "addr_street": "The Plaza",
      "addr_housenumber": "1300"
    },
    {
      "id": 105509,
      "geometry": "POINT (-80.185301 35.43723)",
      "poi_name": "Domino's",
      "osm_id": 8632660495,
      "amenity": "fast_food",
      "cuisine": "pizza",
      "phone": "+1-704-588-2200",
      "takeaway": "yes",
      "drive_through": "no",
      "addr_state": "NC",
      "addr_city": "Charlotte",
      "addr_postcode": "28273",
      "addr_street": "Steele Creek Road",
      "addr_housenumber": "14154"
    },
    {
      "id": 95197,
      "geometry": "POINT (-80.185301 35.43723)",
      "poi_name": "Taco Bell",
      "osm_id": 6388499850,
      "amenity": "fast_food",
      "cuisine": "tex-mex",
      "website": "https://locations.tacobell.com/nc/charlotte/6424-albemarle-rd.html",
      "takeaway": "yes"
    },
    {
      "id": 95198,
      "geometry": "POINT (-80.185301 35.43723)",
      "poi_name": "KFC",
      "osm_id": 6388499851,
      "amenity": "fast_food",
      "cuisine": "chicken",
      "website": "https://locations.kfc.com/nc/charlotte/6424-albemarle-rd",
      "takeaway": "yes"
    },
    {
      "id": 100366,
      "geometry": "POINT (-80.185301 35.43723)",
      "poi_name": "Chipotle",
      "osm_id": 6582866237,
      "amenity": "fast_food",
      "cuisine": "mexican",
      "takeaway": "yes",
      "official_name": "Chipotle Mexican Grill",
      "addr_street": "Potomac River Parkway",
      "addr_housenumber": "3320"
    },
    {
      "id": 120031,
      "geometry": "POINT (-80.185301 35.43723)",
      "poi_name": "Jimmy John's",
      "osm_id": 9135867615,
      "amenity": "fast_food",
      "cuisine": "sandwich",
      "takeaway": "yes",
      "official_name": "Jimmy John's Gourmet Sandwiches"
    },
    {
      "id": 119184,
      "geometry": "POINT (-80.185301 35.43723)",
      "poi_name": "Taco Bell",
      "osm_id": 9087731352,
      "amenity": "fast_food",
      "cuisine": "tex-mex",
      "takeaway": "yes"
    },
    {
      "id": 133691,
      "geometry": "POINT (-80.185301 35.43723)",
      "poi_name": "Taziki's Mediterranean Cafe",
      "osm_id": 10004601728,
      "amenity": "fast_food",
      "cuisine": "mediterranean",
      "takeaway": "yes",
      "addr_state": "NC",
      "addr_city": "Charlotte",
      "addr_postcode": "28204",
      "addr_street": "South Kings Drive",
      "addr_housenumber": "205"
    },
    {
      "id": 120145,
      "geometry": "POINT (-80.185301 35.43723)",
      "poi_name": "Domino's",
      "osm_id": 9143003831,
      "amenity": "fast_food",
      "cuisine": "pizza",
      "takeaway": "yes",
      "addr_state": "NC",
      "addr_city": "Charlotte",
      "addr_postcode": "28211",
      "addr_street": "Colwick Road",
      "addr_housenumber": "4350"
    },
    {
      "id": 133098,
      "geometry": "POINT (-80.185301 35.43723)",
      "poi_name": "Domino's",
      "osm_id": 9980253802,
      "amenity": "fast_food",
      "cuisine": "pizza",
      "takeaway": "yes",
      "addr_state": "SC",
      "addr_city": "Lake Wylie",
      "addr_postcode": "29710",
      "addr_street": "Evergreen Road",
      "addr_housenumber": "125"
    },
    {
      "id": 121994,
      "geometry": "POINT (-80.185301 35.43723)",
      "poi_name": "Chopt",
      "osm_id": 6783230639,
      "amenity": "fast_food",
      "cuisine": "salad",
      "takeaway": "yes",
      "drive_through": "no",
      "addr_state": "NC",
      "addr_city": "Charlotte",
      "addr_street": "Providence Road",
      "addr_housenumber": "8022"
    },
    {
      "id": 129083,
      "geometry": "POINT (-80.185301 35.43723)",
      "poi_name": "Smoothie King",
      "osm_id": 8210623118,
      "amenity": "fast_food",
      "cuisine": "juice",
      "takeaway": "yes"
    },
    {
      "id": 129084,
      "geometry": "POINT (-80.185301 35.43723)",
      "poi_name": "Qdoba",
      "osm_id": 8210623119,
      "amenity": "fast_food",
      "cuisine": "mexican",
      "website": "https://locations.qdoba.com/us/nc/matthews/3321-siskey-pkwy.html",
      "takeaway": "yes",
      "official_name": "Qdoba Mexican Grill"
    },
    {
      "id": 129085,
      "geometry": "POINT (-80.185301 35.43723)",
      "poi_name": "Domino's",
      "osm_id": 8210623121,
      "amenity": "fast_food",
      "cuisine": "pizza",
      "takeaway": "yes"
    },
    {
      "id": 129583,
      "geometry": "POINT (-80.185301 35.43723)",
      "poi_name": "Subway",
      "osm_id": 9831101856,
      "amenity": "fast_food",
      "cuisine": "sandwich",
      "takeaway": "yes"
    },
    {
      "id": 129587,
      "geometry": "POINT (-80.185301 35.43723)",
      "poi_name": "KFC",
      "osm_id": 9831158173,
      "amenity": "fast_food",
      "cuisine": "chicken",
      "website": "https://locations.kfc.com/nc/mint-hill/9030-lawyers-road",
      "takeaway": "yes",
      "drive_through": "yes"
    },
    {
      "id": 129588,
      "geometry": "POINT (-80.185301 35.43723)",
      "poi_name": "Taco Bell",
      "osm_id": 9831158174,
      "amenity": "fast_food",
      "cuisine": "tex-mex",
      "takeaway": "yes",
      "drive_through": "yes"
    },
    {
      "id": 133650,
      "geometry": "POINT (-80.185301 35.43723)",
      "poi_name": "Dunkin'",
      "osm_id": 10002951310,
      "amenity": "fast_food",
      "cuisine": "donut;coffee_shop",
      "takeaway": "yes"
    },
    {
      "id": 133651,
      "geometry": "POINT (-80.185301 35.43723)",
      "poi_name": "MOD Pizza",
      "osm_id": 10002951311,
      "amenity": "fast_food",
      "cuisine": "pizza",
      "takeaway": "yes"
    },
    {
      "id": 133827,
      "geometry": "POINT (-80.185301 35.43723)",
      "poi_name": "Tropical Smoothie Cafe",
      "osm_id": 10011847577,
      "amenity": "fast_food",
      "cuisine": "juice",
      "takeaway": "yes",
      "addr_state": "NC",
      "addr_city": "Charlotte",
      "addr_postcode": "28204",
      "addr_street": "South Kings Drive",
      "addr_housenumber": "601"
    },
    {
      "id": 133844,
      "geometry": "POINT (-80.185301 35.43723)",
      "poi_name": "Panera Bread",
      "osm_id": 10012312047,
      "amenity": "fast_food",
      "cuisine": "sandwich;bakery",
      "takeaway": "yes"
    },
    {
      "id": 133845,
      "geometry": "POINT (-80.185301 35.43723)",
      "poi_name": "Qdoba",
      "osm_id": 10012312048,
      "amenity": "fast_food",
      "cuisine": "mexican",
      "website": "https://locations.qdoba.com/us/nc/charlotte/8152-south-tryon-st.html",
      "takeaway": "yes",
      "official_name": "Qdoba Mexican Grill"
    },
    {
      "id": 134351,
      "geometry": "POINT (-80.185301 35.43723)",
      "poi_name": "Papa John's",
      "osm_id": 11465719948,
      "amenity": "fast_food",
      "cuisine": "pizza",
      "takeaway": "yes"
    },
    {
      "id": 133886,
      "geometry": "POINT (-80.185301 35.43723)",
      "poi_name": "Smoothie King",
      "osm_id": 10013948995,
      "amenity": "fast_food",
      "cuisine": "juice",
      "website": "https://locations.smoothieking.com/ll/US/NC/Charlotte/1235~H-East-Blvd_?utm_source=Uberall_GMB&utm_medium=local&utm_campaign=website",
      "phone": "+1 (704) 335-2200",
      "takeaway": "yes",
      "addr_state": "NC",
      "addr_city": "Charlotte",
      "addr_postcode": "28203",
      "addr_street": "East Boulevard",
      "addr_housenumber": "1235"
    },
    {
      "id": 133887,
      "geometry": "POINT (-80.185301 35.43723)",
      "poi_name": "Duck Donuts",
      "osm_id": 10013948996,
      "amenity": "fast_food",
      "cuisine": "donut",
      "website": "https://www.duckdonuts.com/charlotte/",
      "addr_state": "NC",
      "addr_city": "Charlotte",
      "addr_postcode": "28203",
      "addr_street": "Kenilworth Avenue",
      "addr_housenumber": "1710"
    },
    {
      "id": 134384,
      "geometry": "POINT (-80.185301 35.43723)",
      "poi_name": "Jersey Mike's Subs",
      "osm_id": 11466378299,
      "amenity": "fast_food",
      "cuisine": "sandwich",
      "takeaway": "yes"
    },
    {
      "id": 147204,
      "geometry": "POINT (-80.185301 35.43723)",
      "poi_name": "Papa John's",
      "osm_id": 7514756877,
      "amenity": "fast_food",
      "cuisine": "pizza",
      "takeaway": "yes",
      "drive_through": "no"
    },
    {
      "id": 135166,
      "geometry": "POINT (-80.185301 35.43723)",
      "poi_name": "Subway",
      "osm_id": 11506774400,
      "amenity": "fast_food",
      "cuisine": "sandwich",
      "wheelchair": "yes",
      "opening_hours": "Mo-Su 08:00-21:00",
      "website": "https://restaurants.subway.com/united-states/nc/mint-hill/7427-matthew-mint-hill-rd",
      "phone": "+17045454485",
      "takeaway": "yes",
      "outdoor_seating": "yes",
      "delivery": "yes",
      "addr_state": "NC",
      "addr_city": "Mint Hill",
      "addr_postcode": "28227",
      "addr_street": "Matthews-Mint Hill Road",
      "addr_housenumber": "7427"
    },
    {
      "id": 135904,
      "geometry": "POINT (-80.185301 35.43723)",
      "poi_name": "Jersey Mike's Subs",
      "osm_id": 11544946579,
      "amenity": "fast_food",
      "cuisine": "sandwich",
      "takeaway": "yes"
    },
    {
      "id": 135905,
      "geometry": "POINT (-80.185301 35.43723)",
      "poi_name": "The Steak n' Hoagie Shop",
      "osm_id": 11544946582,
      "amenity": "fast_food",
      "cuisine": "sandwich"
    },
    {
      "id": 135915,
      "geometry": "POINT (-80.185301 35.43723)",
      "poi_name": "Green Brothers",
      "osm_id": 11546964907,
      "amenity": "fast_food",
      "cuisine": "juice",
      "opening_hours": "Mo-Su 08:00-18:00",
      "phone": "+1-980-293-1964",
      "addr_state": "NC",
      "addr_city": "Charlotte",
      "addr_postcode": "28209",
      "addr_street": "South Boulevard",
      "addr_housenumber": "2725"
    },
    {
      "id": 135917,
      "geometry": "POINT (-80.185301 35.43723)",
      "poi_name": "Penn Station",
      "osm_id": 11546964911,
      "amenity": "fast_food",
      "cuisine": "sandwich",
      "takeaway": "yes"
    },
    {
      "id": 135954,
      "geometry": "POINT (-80.185301 35.43723)",
      "poi_name": "Green Brothers",
      "osm_id": 11548492902,
      "amenity": "fast_food",
      "cuisine": "juice"
    },
    {
      "id": 142030,
      "geometry": "POINT (-80.185301 35.43723)",
      "poi_name": "MOD Pizza",
      "osm_id": 6301193139,
      "amenity": "fast_food",
      "cuisine": "pizza",
      "takeaway": "yes",
      "addr_state": "NC",
      "addr_city": "Charlotte",
      "addr_postcode": "28277",
      "addr_street": "Ballancroft Parkway",
      "addr_housenumber": "15127"
    },
    {
      "id": 142034,
      "geometry": "POINT (-80.185301 35.43723)",
      "poi_name": "Potbelly",
      "osm_id": 6301315378,
      "amenity": "fast_food",
      "cuisine": "sandwich",
      "takeaway": "yes",
      "official_name": "Potbelly Sandwich Works"
    },
    {
      "id": 146357,
      "geometry": "POINT (-80.185301 35.43723)",
      "poi_name": "Lee's Hoagie House",
      "osm_id": 7434803335,
      "amenity": "fast_food",
      "description": "Subs, wings, hot dogs",
      "phone": "(803) 619-4046",
      "addr_street": "Bulkhead Way",
      "addr_housenumber": "312"
    },
    {
      "id": 136482,
      "geometry": "POINT (-80.185301 35.43723)",
      "poi_name": "Viva Chicken",
      "osm_id": 11586004561,
      "amenity": "fast_food",
      "cuisine": "chicken",
      "website": "https://www.vivachicken.com"
    },
    {
      "id": 136857,
      "geometry": "POINT (-80.185301 35.43723)",
      "poi_name": "Freddy's",
      "osm_id": 6073914762,
      "amenity": "fast_food",
      "cuisine": "ice_cream;burger",
      "takeaway": "yes",
      "official_name": "Freddy's Frozen Custard & Steakburgers",
      "addr_state": "SC",
      "addr_city": "Indian Land",
      "addr_postcode": "29707",
      "addr_street": "Red Stone Drive",
      "addr_housenumber": "9612"
    },
    {
      "id": 136861,
      "geometry": "POINT (-80.185301 35.43723)",
      "poi_name": "Moe's Southwest Grill",
      "osm_id": 6074010953,
      "amenity": "fast_food",
      "cuisine": "mexican",
      "takeaway": "yes"
    },
    {
      "id": 136862,
      "geometry": "POINT (-80.185301 35.43723)",
      "poi_name": "Which Wich?",
      "osm_id": 6074010954,
      "amenity": "fast_food",
      "cuisine": "sandwich",
      "takeaway": "yes"
    },
    {
      "id": 136863,
      "geometry": "POINT (-80.185301 35.43723)",
      "poi_name": "Tropical Smoothie Cafe",
      "osm_id": 6074010957,
      "amenity": "fast_food",
      "cuisine": "juice",
      "takeaway": "yes"
    },
    {
      "id": 141729,
      "geometry": "POINT (-80.185301 35.43723)",
      "poi_name": "Dunkin'",
      "osm_id": 6295958547,
      "amenity": "fast_food",
      "cuisine": "donut;coffee_shop",
      "takeaway": "yes",
      "addr_state": "NC",
      "addr_city": "Matthews",
      "addr_postcode": "28105",
      "addr_street": "Fincher Farm Road",
      "addr_housenumber": "3114"
    },
    {
      "id": 147205,
      "geometry": "POINT (-80.185301 35.43723)",
      "poi_name": "Penn Station",
      "osm_id": 7514756878,
      "amenity": "fast_food",
      "cuisine": "sandwich",
      "takeaway": "yes",
      "drive_through": "no"
    },
    {
      "id": 147207,
      "geometry": "POINT (-80.185301 35.43723)",
      "poi_name": "Clean Juice",
      "osm_id": 7514756883,
      "amenity": "fast_food",
      "cuisine": "juice",
      "takeaway": "yes"
    },
    {
      "id": 148633,
      "geometry": "POINT (-80.185301 35.43723)",
      "poi_name": "Subway",
      "osm_id": 3969551730,
      "amenity": "fast_food",
      "cuisine": "sandwich",
      "takeaway": "yes",
      "drive_through": "no",
      "delivery": "no",
      "addr_state": "NC",
      "addr_city": "Charlotte",
      "addr_postcode": "28204",
      "addr_street": "Charlottetowne Avenue",
      "addr_housenumber": "1125"
    },
    {
      "id": 148634,
      "geometry": "POINT (-80.185301 35.43723)",
      "poi_name": "Bojangles'",
      "osm_id": 3969552968,
      "amenity": "fast_food",
      "cuisine": "chicken",
      "takeaway": "yes",
      "drive_through": "yes",
      "official_name": "Bojangles' Famous Chicken 'n Biscuits",
      "delivery": "no",
      "addr_state": "NC",
      "addr_city": "Charlotte",
      "addr_postcode": "28204",
      "addr_street": "East 3rd Street",
      "addr_housenumber": "1407"
    },
    {
      "id": 165665,
      "geometry": "POINT (-80.185301 35.43723)",
      "poi_name": "Jamba",
      "osm_id": 9550362706,
      "amenity": "fast_food",
      "cuisine": "juice",
      "takeaway": "yes"
    },
    {
      "id": 148758,
      "geometry": "POINT (-80.185301 35.43723)",
      "poi_name": "Wendy's",
      "osm_id": 3978078723,
      "amenity": "fast_food",
      "cuisine": "burger",
      "takeaway": "yes",
      "drive_through": "yes"
    },
    {
      "id": 157747,
      "geometry": "POINT (-80.185301 35.43723)",
      "poi_name": "Five Guys",
      "osm_id": 4724152283,
      "amenity": "fast_food",
      "cuisine": "burger",
      "takeaway": "yes",
      "drive_through": "no",
      "official_name": "Five Guys Burgers and Fries",
      "outdoor_seating": "yes",
      "delivery": "no"
    },
    {
      "id": 161249,
      "geometry": "POINT (-80.185301 35.43723)",
      "poi_name": "Pollo Campero",
      "osm_id": 4871794421,
      "amenity": "fast_food",
      "cuisine": "chicken",
      "opening_hours": "Su-Th 10:00-22:00; Fr-Sa 10:00-23:00",
      "website": "https://www.campero.com/menu",
      "phone": "+1-704-900-5639",
      "takeaway": "yes",
      "addr_state": "NC",
      "addr_city": "Charlotte",
      "addr_postcode": "28215",
      "addr_street": "North Sharon Amity Road",
      "addr_housenumber": "5727"
    },
    {
      "id": 163514,
      "geometry": "POINT (-80.185301 35.43723)",
      "poi_name": "Dunkin'",
      "osm_id": 9421685813,
      "amenity": "fast_food",
      "cuisine": "donut;coffee_shop",
      "takeaway": "yes"
    },
    {
      "id": 163518,
      "geometry": "POINT (-80.185301 35.43723)",
      "poi_name": "Dunkin'",
      "osm_id": 9421710654,
      "amenity": "fast_food",
      "cuisine": "donut;coffee_shop",
      "opening_hours": "05:00-22:00",
      "internet_access": "wlan",
      "takeaway": "yes",
      "addr_state": "NC",
      "addr_city": "Pineville",
      "addr_postcode": "28226",
      "addr_street": "Pineville-Matthews Road",
      "addr_housenumber": "8332"
    },
    {
      "id": 163526,
      "geometry": "POINT (-80.185301 35.43723)",
      "poi_name": "Dunkin'",
      "osm_id": 9421725231,
      "amenity": "fast_food",
      "cuisine": "donut;coffee_shop",
      "takeaway": "yes"
    },
    {
      "id": 177413,
      "geometry": "POINT (-80.185301 35.43723)",
      "poi_name": "Firehouse Subs",
      "osm_id": 2588352036,
      "amenity": "fast_food",
      "cuisine": "sandwich",
      "takeaway": "yes",
      "addr_state": "NC",
      "addr_city": "Matthews",
      "addr_postcode": "28105",
      "addr_street": "Windsor Square Drive",
      "addr_housenumber": "1808"
    },
    {
      "id": 165987,
      "geometry": "POINT (-80.185301 35.43723)",
      "poi_name": "Subway",
      "osm_id": 9569512192,
      "amenity": "fast_food",
      "cuisine": "sandwich",
      "takeaway": "yes"
    },
    {
      "id": 175805,
      "geometry": "POINT (-80.185301 35.43723)",
      "poi_name": "Chipotle",
      "osm_id": 2542037142,
      "amenity": "fast_food",
      "cuisine": "mexican",
      "takeaway": "yes",
      "official_name": "Chipotle Mexican Grill"
    },
    {
      "id": 175806,
      "geometry": "POINT (-80.185301 35.43723)",
      "poi_name": "Chipotle",
      "osm_id": 2542045220,
      "amenity": "fast_food",
      "cuisine": "mexican",
      "opening_hours": "Mo-Su 10:45-22:00",
      "takeaway": "yes",
      "official_name": "Chipotle Mexican Grill",
      "addr_state": "NC",
      "addr_city": "Matthews",
      "addr_street": "Matthews Township Parkway"
    },
    {
      "id": 177414,
      "geometry": "POINT (-80.185301 35.43723)",
      "poi_name": "Five Guys",
      "osm_id": 2588352039,
      "amenity": "fast_food",
      "cuisine": "burger",
      "takeaway": "yes",
      "official_name": "Five Guys Burgers and Fries"
    },
    {
      "id": 177415,
      "geometry": "POINT (-80.185301 35.43723)",
      "poi_name": "Jimmy John's",
      "osm_id": 2588352046,
      "amenity": "fast_food",
      "cuisine": "sandwich",
      "takeaway": "yes",
      "official_name": "Jimmy John's Gourmet Sandwiches"
    },
    {
      "id": 177416,
      "geometry": "POINT (-80.185301 35.43723)",
      "poi_name": "Jimmy John's",
      "osm_id": 2588352049,
      "amenity": "fast_food",
      "cuisine": "sandwich",
      "takeaway": "yes",
      "official_name": "Jimmy John's Gourmet Sandwiches",
      "addr_state": "NC",
      "addr_city": "Charlotte",
      "addr_postcode": "28270",
      "addr_street": "Galleria Boulevard",
      "addr_housenumber": "1605"
    },
    {
      "id": 177422,
      "geometry": "POINT (-80.185301 35.43723)",
      "poi_name": "Qdoba",
      "osm_id": 2588352123,
      "amenity": "fast_food",
      "cuisine": "mexican",
      "website": "https://locations.qdoba.com/us/nc/matthews/2233-matthews-township-pkwy.html",
      "takeaway": "yes",
      "official_name": "Qdoba Mexican Grill"
    },
    {
      "id": 177516,
      "geometry": "POINT (-80.185301 35.43723)",
      "poi_name": "Hardee's",
      "osm_id": 2591071572,
      "amenity": "fast_food",
      "cuisine": "burger",
      "website": "https://locations.hardees.com/sc/rock-hill/188-s-herlong-ave",
      "takeaway": "yes"
    },
    {
      "id": 184818,
      "geometry": "POINT (-80.185301 35.43723)",
      "poi_name": "McDonald's",
      "osm_id": 7816078705,
      "amenity": "fast_food",
      "cuisine": "burger",
      "website": "https://www.mcdonalds.com/us/en-us/location/nc/charlotte/7051-south-blvd/37272.html",
      "takeaway": "yes"
    },
    {
      "id": 177517,
      "geometry": "POINT (-80.185301 35.43723)",
      "poi_name": "Jersey Mike's Subs",
      "osm_id": 2591071574,
      "amenity": "fast_food",
      "cuisine": "sandwich",
      "takeaway": "yes"
    },
    {
      "id": 177519,
      "geometry": "POINT (-80.185301 35.43723)",
      "poi_name": "Papa Murphy's",
      "osm_id": 2591071578,
      "amenity": "fast_food",
      "cuisine": "pizza",
      "takeaway": "only",
      "official_name": "Papa Murphy's Take 'N' Bake Pizza"
    },
    {
      "id": 177521,
      "geometry": "POINT (-80.185301 35.43723)",
      "poi_name": "Krispy Kreme",
      "osm_id": 2591097374,
      "amenity": "fast_food",
      "cuisine": "donut",
      "takeaway": "yes",
      "drive_through": "yes",
      "outdoor_seating": "yes",
      "delivery": "no"
    },
    {
      "id": 178168,
      "geometry": "POINT (-80.185301 35.43723)",
      "poi_name": "Panera Bread",
      "osm_id": 10717344442,
      "amenity": "fast_food",
      "cuisine": "sandwich;bakery",
      "takeaway": "yes"
    },
    {
      "id": 184632,
      "geometry": "POINT (-80.185301 35.43723)",
      "poi_name": "Chipotle",
      "osm_id": 7802244124,
      "amenity": "fast_food",
      "cuisine": "mexican",
      "takeaway": "yes",
      "official_name": "Chipotle Mexican Grill",
      "outdoor_seating": "yes",
      "addr_state": "NC",
      "addr_city": "Charlotte",
      "addr_postcode": "28204",
      "addr_street": "South Kings Drive",
      "addr_housenumber": "239"
    },
    {
      "id": 184633,
      "geometry": "POINT (-80.185301 35.43723)",
      "poi_name": "Arby's",
      "osm_id": 7802244137,
      "amenity": "fast_food",
      "cuisine": "sandwich",
      "takeaway": "yes",
      "drive_through": "yes",
      "delivery": "no",
      "addr_state": "NC"
    },
    {
      "id": 184634,
      "geometry": "POINT (-80.185301 35.43723)",
      "poi_name": "Dunkin'",
      "osm_id": 7802244154,
      "amenity": "fast_food",
      "cuisine": "donut;coffee_shop",
      "takeaway": "yes",
      "drive_through": "yes",
      "addr_state": "NC",
      "addr_city": "Charlotte",
      "addr_postcode": "28204",
      "addr_street": "South Kings Drive",
      "addr_housenumber": "709"
    },
    {
      "id": 184773,
      "geometry": "POINT (-80.185301 35.43723)",
      "poi_name": "Chick-fil-A",
      "osm_id": 7813767498,
      "amenity": "fast_food",
      "cuisine": "chicken",
      "wheelchair": "yes",
      "takeaway": "yes",
      "drive_through": "yes",
      "addr_state": "NC",
      "addr_city": "Charlotte",
      "addr_postcode": "28209",
      "addr_street": "South Boulevard",
      "addr_housenumber": "3015"
    },
    {
      "id": 184774,
      "geometry": "POINT (-80.185301 35.43723)",
      "poi_name": "Burger King",
      "osm_id": 7813767499,
      "amenity": "fast_food",
      "cuisine": "burger",
      "takeaway": "yes",
      "drive_through": "yes",
      "addr_state": "NC",
      "addr_city": "Charlotte",
      "addr_postcode": "28209",
      "addr_street": "South Boulevard",
      "addr_housenumber": "2901"
    },
    {
      "id": 180993,
      "geometry": "POINT (-80.185301 35.43723)",
      "poi_name": "Teriyaki Madness",
      "osm_id": 10828034326,
      "amenity": "fast_food",
      "cuisine": "japanese",
      "opening_hours": "Mo-Sa 11:00-21:00; Su 11:00-20:00",
      "website": "https://teriyakimadness.com/locations/metropolitan/",
      "phone": "+1-704-910-2076",
      "takeaway": "yes",
      "drive_through": "no",
      "addr_state": "NC",
      "addr_city": "Charlotte",
      "addr_postcode": "28204",
      "addr_street": "Metropolitan Avenue",
      "addr_housenumber": "1100"
    },
    {
      "id": 184698,
      "geometry": "POINT (-80.185301 35.43723)",
      "poi_name": "McDonald's",
      "osm_id": 7807489840,
      "amenity": "fast_food",
      "cuisine": "burger",
      "website": "https://www.mcdonalds.com/us/en-us/location/nc/charlotte/1035-n-wendover/5762.html",
      "takeaway": "yes"
    },
    {
      "id": 184699,
      "geometry": "POINT (-80.185301 35.43723)",
      "poi_name": "KFC",
      "osm_id": 7807489845,
      "amenity": "fast_food",
      "cuisine": "chicken",
      "website": "https://locations.kfc.com/nc/charlotte/1101-n-wendover-rd",
      "takeaway": "yes"
    },
    {
      "id": 184819,
      "geometry": "POINT (-80.185301 35.43723)",
      "poi_name": "Bojangles'",
      "osm_id": 7816078706,
      "amenity": "fast_food",
      "cuisine": "chicken",
      "takeaway": "yes",
      "official_name": "Bojangles' Famous Chicken 'n Biscuits"
    },
    {
      "id": 185014,
      "geometry": "POINT (-80.185301 35.43723)",
      "poi_name": "Panera Bread",
      "osm_id": 7827824385,
      "amenity": "fast_food",
      "cuisine": "sandwich;bakery",
      "takeaway": "yes",
      "drive_through": "yes"
    },
    {
      "id": 184974,
      "geometry": "POINT (-80.185301 35.43723)",
      "poi_name": "Arby's",
      "osm_id": 7824536682,
      "amenity": "fast_food",
      "cuisine": "sandwich",
      "takeaway": "yes",
      "drive_through": "yes"
    },
    {
      "id": 184914,
      "geometry": "POINT (-80.185301 35.43723)",
      "poi_name": "McDonald's",
      "osm_id": 7820859478,
      "amenity": "fast_food",
      "cuisine": "burger",
      "website": "https://www.mcdonalds.com/us/en-us/location/nc/charlotte/6428-fairview-rd/13361.html",
      "takeaway": "yes"
    },
    {
      "id": 191279,
      "geometry": "POINT (-80.185301 35.43723)",
      "poi_name": "Papa John's",
      "osm_id": 1352136292,
      "amenity": "fast_food",
      "cuisine": "pizza",
      "takeaway": "yes"
    },
    {
      "id": 187102,
      "geometry": "POINT (-80.185301 35.43723)",
      "poi_name": "Papa John's",
      "osm_id": 7972254052,
      "amenity": "fast_food",
      "cuisine": "pizza",
      "takeaway": "yes",
      "drive_through": "yes"
    },
    {
      "id": 187103,
      "geometry": "POINT (-80.185301 35.43723)",
      "poi_name": "Jersey Mike's Subs",
      "osm_id": 7972263618,
      "amenity": "fast_food",
      "cuisine": "sandwich",
      "takeaway": "yes",
      "drive_through": "no"
    },
    {
      "id": 189409,
      "geometry": "POINT (-80.185301 35.43723)",
      "poi_name": "Penn Station",
      "osm_id": 1233155555,
      "amenity": "fast_food",
      "cuisine": "sandwich",
      "takeaway": "yes",
      "addr_state": "SC",
      "addr_city": "Rock Hill",
      "addr_postcode": "29732",
      "addr_street": "Cherry Road",
      "addr_housenumber": "2012"
    },
    {
      "id": 185108,
      "geometry": "POINT (-80.185301 35.43723)",
      "poi_name": "McDonald's",
      "osm_id": 7833647524,
      "amenity": "fast_food",
      "cuisine": "burger",
      "website": "https://www.mcdonalds.com/us/en-us/location/nc/charlotte/7721-pineville-matthews-rd/33024.html",
      "takeaway": "yes"
    },
    {
      "id": 185109,
      "geometry": "POINT (-80.185301 35.43723)",
      "poi_name": "Jack in the Box",
      "osm_id": 7833647525,
      "amenity": "fast_food",
      "cuisine": "burger",
      "takeaway": "yes"
    },
    {
      "id": 191119,
      "geometry": "POINT (-80.185301 35.43723)",
      "poi_name": "Subway",
      "osm_id": 1341856610,
      "amenity": "fast_food",
      "cuisine": "sandwich",
      "takeaway": "yes"
    },
    {
      "id": 207001,
      "geometry": "POINT (-80.185301 35.43723)",
      "poi_name": "Papa Murphy's",
      "osm_id": 7235775636,
      "amenity": "fast_food",
      "cuisine": "pizza",
      "takeaway": "only",
      "official_name": "Papa Murphy's Take 'N' Bake Pizza"
    },
    {
      "id": 191315,
      "geometry": "POINT (-80.185301 35.43723)",
      "poi_name": "Firehouse Subs",
      "osm_id": 1355090483,
      "amenity": "fast_food",
      "cuisine": "sandwich",
      "phone": "7045830444",
      "takeaway": "yes",
      "addr_street": "S Tryon Street Ste 105",
      "addr_housenumber": "8516"
    },
    {
      "id": 202819,
      "geometry": "POINT (-80.185301 35.43723)",
      "poi_name": "Tacos Coranay",
      "osm_id": 7048148284,
      "amenity": "fast_food",
      "cuisine": "mexican"
    },
    {
      "id": 203858,
      "geometry": "POINT (-80.185301 35.43723)",
      "poi_name": "Sub Shop",
      "osm_id": 7101745624,
      "amenity": "fast_food",
      "cuisine": "sandwich"
    },
    {
      "id": 209267,
      "geometry": "POINT (-80.185301 35.43723)",
      "poi_name": "MOD Pizza",
      "osm_id": 5030573753,
      "amenity": "fast_food",
      "cuisine": "pizza",
      "takeaway": "yes"
    },
    {
      "id": 209281,
      "geometry": "POINT (-80.185301 35.43723)",
      "poi_name": "Firehouse Subs",
      "osm_id": 5030955656,
      "amenity": "fast_food",
      "cuisine": "sandwich",
      "takeaway": "yes"
    },
    {
      "id": 206999,
      "geometry": "POINT (-80.185301 35.43723)",
      "poi_name": "Jimmy John's",
      "osm_id": 7235775634,
      "amenity": "fast_food",
      "cuisine": "sandwich",
      "takeaway": "yes",
      "official_name": "Jimmy John's Gourmet Sandwiches"
    },
    {
      "id": 214238,
      "geometry": "POINT (-80.185301 35.43723)",
      "poi_name": "Subway",
      "osm_id": 5267274708,
      "amenity": "fast_food",
      "cuisine": "sandwich",
      "takeaway": "yes"
    },
    {
      "id": 210899,
      "geometry": "POINT (-80.185301 35.43723)",
      "poi_name": "Subway",
      "osm_id": 5127122854,
      "amenity": "fast_food",
      "cuisine": "sandwich",
      "takeaway": "yes",
      "addr_state": "NC",
      "addr_city": "Charlotte",
      "addr_postcode": "28277",
      "addr_street": "Conlan Circle",
      "addr_housenumber": "13855"
    },
    {
      "id": 212296,
      "geometry": "POINT (-80.185301 35.43723)",
      "poi_name": "Nestl\u00e9 Toll House Caf\u00e9",
      "osm_id": 5198084072,
      "amenity": "fast_food",
      "cuisine": "dessert",
      "takeaway": "yes"
    },
    {
      "id": 212297,
      "geometry": "POINT (-80.185301 35.43723)",
      "poi_name": "Auntie Anne's",
      "osm_id": 5198084073,
      "amenity": "fast_food",
      "cuisine": "pretzel",
      "takeaway": "yes"
    },
    {
      "id": 212420,
      "geometry": "POINT (-80.185301 35.43723)",
      "poi_name": "Chipotle",
      "osm_id": 5206659805,
      "amenity": "fast_food",
      "cuisine": "mexican",
      "takeaway": "yes",
      "official_name": "Chipotle Mexican Grill"
    },
    {
      "id": 212421,
      "geometry": "POINT (-80.185301 35.43723)",
      "poi_name": "Chick-fil-A",
      "osm_id": 5206659806,
      "amenity": "fast_food",
      "cuisine": "chicken",
      "takeaway": "yes"
    },
    {
      "id": 212423,
      "geometry": "POINT (-80.185301 35.43723)",
      "poi_name": "Charleys Philly Steaks",
      "osm_id": 5206659808,
      "amenity": "fast_food",
      "cuisine": "sandwich",
      "takeaway": "yes"
    },
    {
      "id": 212424,
      "geometry": "POINT (-80.185301 35.43723)",
      "poi_name": "Sbarro",
      "osm_id": 5206659809,
      "amenity": "fast_food",
      "cuisine": "pizza",
      "takeaway": "yes"
    },
    {
      "id": 212426,
      "geometry": "POINT (-80.185301 35.43723)",
      "poi_name": "Sarku Japan",
      "osm_id": 5206659813,
      "amenity": "fast_food",
      "cuisine": "japanese",
      "takeaway": "yes"
    },
    {
      "id": 212427,
      "geometry": "POINT (-80.185301 35.43723)",
      "poi_name": "Great Wraps",
      "osm_id": 5206659814,
      "amenity": "fast_food"
    },
    {
      "id": 213828,
      "geometry": "POINT (-80.185301 35.43723)",
      "poi_name": "Subway",
      "osm_id": 5260801952,
      "amenity": "fast_food",
      "cuisine": "sandwich",
      "takeaway": "yes"
    },
    {
      "id": 213831,
      "geometry": "POINT (-80.185301 35.43723)",
      "poi_name": "Jersey Mike's Subs",
      "osm_id": 5260801966,
      "amenity": "fast_food",
      "cuisine": "sandwich",
      "takeaway": "yes"
    },
    {
      "id": 213834,
      "geometry": "POINT (-80.185301 35.43723)",
      "poi_name": "Papa Murphy's",
      "osm_id": 5260801985,
      "amenity": "fast_food",
      "cuisine": "pizza",
      "takeaway": "only",
      "official_name": "Papa Murphy's Take 'N' Bake Pizza"
    },
    {
      "id": 214051,
      "geometry": "POINT (-80.185301 35.43723)",
      "poi_name": "Moe's Southwest Grill",
      "osm_id": 5264761066,
      "amenity": "fast_food",
      "cuisine": "mexican",
      "takeaway": "yes"
    },
    {
      "id": 214063,
      "geometry": "POINT (-80.185301 35.43723)",
      "poi_name": "Jimmy John's",
      "osm_id": 5264851356,
      "amenity": "fast_food",
      "cuisine": "sandwich",
      "takeaway": "yes",
      "official_name": "Jimmy John's Gourmet Sandwiches"
    },
    {
      "id": 214064,
      "geometry": "POINT (-80.185301 35.43723)",
      "poi_name": "Papa John's",
      "osm_id": 5264851361,
      "amenity": "fast_food",
      "cuisine": "pizza",
      "takeaway": "yes"
    },
    {
      "id": 212373,
      "geometry": "POINT (-80.185301 35.43723)",
      "poi_name": "Five Guys",
      "osm_id": 5203220837,
      "amenity": "fast_food",
      "cuisine": "burger",
      "takeaway": "yes",
      "official_name": "Five Guys Burgers and Fries",
      "addr_state": "NC",
      "addr_city": "Charlotte",
      "addr_postcode": "28205",
      "addr_street": "Central Avenue",
      "addr_housenumber": "1326"
    },
    {
      "id": 213795,
      "geometry": "POINT (-80.185301 35.43723)",
      "poi_name": "Tropical Smoothie Cafe",
      "osm_id": 5260308289,
      "amenity": "fast_food",
      "cuisine": "juice",
      "takeaway": "yes"
    },
    {
      "id": 214143,
      "geometry": "POINT (-80.185301 35.43723)",
      "poi_name": "Subway",
      "osm_id": 5266166710,
      "amenity": "fast_food",
      "cuisine": "sandwich",
      "takeaway": "yes"
    },
    {
      "id": 214370,
      "geometry": "POINT (-80.185301 35.43723)",
      "poi_name": "Domino's",
      "osm_id": 5270325451,
      "amenity": "fast_food",
      "cuisine": "pizza",
      "takeaway": "yes",
      "delivery": "yes"
    },
    {
      "id": 214276,
      "geometry": "POINT (-80.185301 35.43723)",
      "poi_name": "Papa John's",
      "osm_id": 5268082607,
      "amenity": "fast_food",
      "cuisine": "pizza",
      "takeaway": "yes",
      "delivery": "yes"
    },
    {
      "id": 216498,
      "geometry": "POINT (-80.185301 35.43723)",
      "poi_name": "Marco's Pizza",
      "osm_id": 9173741775,
      "amenity": "fast_food",
      "cuisine": "pizza",
      "takeaway": "yes",
      "addr_state": "NC",
      "addr_city": "Charlotte",
      "addr_postcode": "28277",
      "addr_street": "Providence Road West",
      "addr_housenumber": "11218"
    },
    {
      "id": 214536,
      "geometry": "POINT (-80.185301 35.43723)",
      "poi_name": "Papa John's",
      "osm_id": 5274569262,
      "amenity": "fast_food",
      "cuisine": "pizza",
      "takeaway": "yes"
    },
    {
      "id": 214537,
      "geometry": "POINT (-80.185301 35.43723)",
      "poi_name": "Jersey Mike's Subs",
      "osm_id": 5274569263,
      "amenity": "fast_food",
      "cuisine": "sandwich",
      "takeaway": "yes",
      "addr_state": "NC",
      "addr_city": "Charlotte",
      "addr_postcode": "28273",
      "addr_street": "South Tryon Street",
      "addr_housenumber": "11112"
    },
    {
      "id": 216441,
      "geometry": "POINT (-80.185301 35.43723)",
      "poi_name": "Marco's Pizza",
      "osm_id": 9171821322,
      "amenity": "fast_food",
      "cuisine": "pizza",
      "takeaway": "yes"
    },
    {
      "id": 214965,
      "geometry": "POINT (-80.185301 35.43723)",
      "poi_name": "Subway",
      "osm_id": 5284239056,
      "amenity": "fast_food",
      "cuisine": "sandwich",
      "takeaway": "yes"
    },
    {
      "id": 214966,
      "geometry": "POINT (-80.185301 35.43723)",
      "poi_name": "Marco's Pizza",
      "osm_id": 5284239260,
      "amenity": "fast_food",
      "cuisine": "pizza",
      "takeaway": "yes"
    },
    {
      "id": 214975,
      "geometry": "POINT (-80.185301 35.43723)",
      "poi_name": "Jersey Mike's Subs",
      "osm_id": 5284341108,
      "amenity": "fast_food",
      "cuisine": "sandwich",
      "takeaway": "yes"
    },
    {
      "id": 214976,
      "geometry": "POINT (-80.185301 35.43723)",
      "poi_name": "Domino's",
      "osm_id": 5284341110,
      "amenity": "fast_food",
      "cuisine": "pizza",
      "takeaway": "only",
      "delivery": "yes"
    },
    {
      "id": 214979,
      "geometry": "POINT (-80.185301 35.43723)",
      "poi_name": "Dunkin'",
      "osm_id": 5284341940,
      "amenity": "fast_food",
      "cuisine": "donut;coffee_shop",
      "takeaway": "yes",
      "addr_state": "SC",
      "addr_city": "Indian Land",
      "addr_postcode": "29707",
      "addr_street": "Charlotte Highway",
      "addr_housenumber": "8374"
    },
    {
      "id": 214982,
      "geometry": "POINT (-80.185301 35.43723)",
      "poi_name": "Papa John's",
      "osm_id": 5284342178,
      "amenity": "fast_food",
      "cuisine": "pizza",
      "takeaway": "yes",
      "delivery": "yes"
    },
    {
      "id": 215455,
      "geometry": "POINT (-80.185301 35.43723)",
      "poi_name": "Subway",
      "osm_id": 5300320818,
      "amenity": "fast_food",
      "cuisine": "sandwich",
      "takeaway": "yes"
    },
    {
      "id": 240693,
      "geometry": "POINT (-80.185301 35.43723)",
      "poi_name": "Jimmy John's",
      "osm_id": 5984081398,
      "amenity": "fast_food",
      "cuisine": "sandwich",
      "takeaway": "yes",
      "official_name": "Jimmy John's Gourmet Sandwiches"
    },
    {
      "id": 224994,
      "geometry": "POINT (-80.185301 35.43723)",
      "poi_name": "Spoons",
      "osm_id": 11106987857,
      "amenity": "fast_food",
      "cuisine": "fruit",
      "website": "https://www.spoons.com"
    },
    {
      "id": 234129,
      "geometry": "POINT (-80.185301 35.43723)",
      "poi_name": "Wendy's",
      "osm_id": 4606085310,
      "amenity": "fast_food",
      "cuisine": "burger",
      "takeaway": "yes",
      "drive_through": "yes",
      "addr_state": "SC",
      "addr_city": "Indian Land",
      "addr_postcode": "29707",
      "addr_street": "Charlotte Highway",
      "addr_housenumber": "7659"
    },
    {
      "id": 234130,
      "geometry": "POINT (-80.185301 35.43723)",
      "poi_name": "Zaxby's",
      "osm_id": 4606085311,
      "amenity": "fast_food",
      "cuisine": "chicken",
      "takeaway": "yes",
      "drive_through": "yes",
      "official_name": "Zaxby's Chicken Fingers & Buffalo Wings",
      "addr_state": "SC",
      "addr_city": "Indian Land",
      "addr_postcode": "29707",
      "addr_street": "Carolina Commons Drive",
      "addr_housenumber": "6222"
    },
    {
      "id": 234131,
      "geometry": "POINT (-80.185301 35.43723)",
      "poi_name": "Red Bowl Asian Bistro",
      "osm_id": 4606085312,
      "amenity": "fast_food",
      "addr_state": "SC",
      "addr_city": "Indian Land",
      "addr_postcode": "29707",
      "addr_street": "Carolina Commons Drive",
      "addr_housenumber": "6284"
    },
    {
      "id": 234132,
      "geometry": "POINT (-80.185301 35.43723)",
      "poi_name": "521 BBQ & Grill",
      "osm_id": 4606085313,
      "amenity": "fast_food",
      "addr_state": "SC",
      "addr_city": "Indian Land",
      "addr_postcode": "29707",
      "addr_street": "Carolina Commons Drive",
      "addr_housenumber": "6257"
    },
    {
      "id": 236071,
      "geometry": "POINT (-80.185301 35.43723)",
      "poi_name": "Papa John's",
      "osm_id": 5778408615,
      "amenity": "fast_food",
      "cuisine": "pizza",
      "takeaway": "yes",
      "delivery": "yes"
    },
    {
      "id": 238913,
      "geometry": "POINT (-80.185301 35.43723)",
      "poi_name": "Bojangles'",
      "osm_id": 5897667997,
      "amenity": "fast_food",
      "cuisine": "chicken",
      "takeaway": "yes",
      "official_name": "Bojangles' Famous Chicken 'n Biscuits"
    },
    {
      "id": 223084,
      "geometry": "POINT (-80.185301 35.43723)",
      "poi_name": "Bojangles'",
      "osm_id": 11046875699,
      "amenity": "fast_food",
      "cuisine": "chicken",
      "opening_hours": "Mo-Sa 05:00-22:00; Su 06:00-22:00",
      "operator": "Bo-Ventures LLC",
      "website": "https://locations.bojangles.com/sc/fort-mill/314-s-sutton-rd.html",
      "phone": "7045272675",
      "takeaway": "yes",
      "addr_state": "SC",
      "addr_city": "Fort Mill",
      "addr_street": "South Sutton Road",
      "addr_housenumber": "314"
    },
    {
      "id": 223792,
      "geometry": "POINT (-80.185301 35.43723)",
      "poi_name": "Taco Bell",
      "osm_id": 11063754773,
      "amenity": "fast_food",
      "cuisine": "tex-mex",
      "website": "https://locations.tacobell.com/nc/charlotte/13121-south-tryon-st-.html",
      "takeaway": "yes"
    },
    {
      "id": 226392,
      "geometry": "POINT (-80.185301 35.43723)",
      "poi_name": "Five Guys",
      "osm_id": 11158426319,
      "amenity": "fast_food",
      "cuisine": "burger",
      "website": "https://restaurants.fiveguys.com/2810-south-blvd",
      "phone": "+19808195341",
      "takeaway": "yes",
      "drive_through": "no",
      "official_name": "Five Guys Burgers and Fries",
      "addr_state": "NC",
      "addr_city": "Charlotte",
      "addr_postcode": "28209",
      "addr_street": "South Boulevard",
      "addr_housenumber": "2810"
    },
    {
      "id": 241881,
      "geometry": "POINT (-80.185301 35.43723)",
      "poi_name": "Moe's Southwest Grill",
      "osm_id": 6042959697,
      "amenity": "fast_food",
      "cuisine": "mexican",
      "opening_hours": "Mo-Su 11:00-21:00",
      "website": "https://www.moes.com/find-a-moes/south_carolina/clover/6016",
      "takeaway": "yes",
      "addr_state": "SC",
      "addr_city": "Lake Wylie",
      "addr_postcode": "29710",
      "addr_street": "Bulkhead Way",
      "addr_housenumber": "312"
    },
    {
      "id": 242593,
      "geometry": "POINT (-80.185301 35.43723)",
      "poi_name": "MOD Pizza",
      "osm_id": 7580289618,
      "amenity": "fast_food",
      "cuisine": "pizza",
      "website": "https://modpizza.com",
      "phone": "+1-704-910-1220",
      "takeaway": "yes",
      "addr_state": "NC",
      "addr_city": "Charlotte",
      "addr_postcode": "28278",
      "addr_street": "Berewick Town Center Drive",
      "addr_housenumber": "4830"
    },
    {
      "id": 243957,
      "geometry": "POINT (-80.185301 35.43723)",
      "poi_name": "Subway",
      "osm_id": 7687656732,
      "amenity": "fast_food",
      "cuisine": "sandwich",
      "takeaway": "yes"
    },
    {
      "id": 243286,
      "geometry": "POINT (-80.185301 35.43723)",
      "poi_name": "Smashburger",
      "osm_id": 7638361685,
      "amenity": "fast_food",
      "cuisine": "burger",
      "takeaway": "yes"
    }
  ],
  "answer_type": "name",
  "question_entities": {
    "[1]": {
      "main_category": "amenity",
      "sub_category": "fast food restaurant"
    },
    "[2]": {
      "distance": 120000,
      "text": "120 kilometers"
    },
    "[3]": {
      "main_category": "tourism",
      "sub_category": "attraction",
      "display_name": "Mountain Creek gold mine, New London, NC",
      "geo_wkt": "POINT (-80.185301 35.43723)",
      "poi": {
        "id": 3105,
        "geometry": "POINT (-80.185301 35.43723)",
        "poi_name": "Mountain Creek gold mine",
        "osm_id": 10175978887,
        "tourism": "attraction",
        "addr_state": "NC",
        "addr_city": "New London",
        "addr_postcode": "28127",
        "addr_street": "Gurley Road",
        "addr_housenumber": "41801"
      }
    },
    "[4]": {
      "direction_desc": "southwest",
      "direction_predicate": "degrees(ST_Azimuth(origin.geometry, pois.geometry)) BETWEEN 202.5 AND 247.5"
    }
  },
  "id": 2615,
  "type": "range:direction+name"
}