{
  "question": "Within a radius of 160 kilometers, what caf\u00e9 can I find to the southwest of African American Cultural Garden, Cleveland, OH?",
  "sql": "\nWITH origin AS  (SELECT ST_GeomFromText('POINT (-81.629472 41.530044)',4326)::geography AS geometry)\nSELECT * FROM pois, origin\nWHERE ST_DWithin(pois.geometry, ST_GeomFromText('POINT (-81.629472 41.530044)',4326)::geography, 160000)\nAND amenity = 'cafe'\nAND degrees(ST_Azimuth(origin.geometry, pois.geometry)) BETWEEN 202.5 AND 247.5;\n",
  "answers": [
    {
      "id": 42895,
      "geometry": "POINT (-81.629472 41.530044)",
      "poi_name": "Starbucks",
      "osm_id": 3085972269,
      "amenity": "cafe",
      "cuisine": "coffee_shop",
      "takeaway": "yes",
      "drive_through": "no",
      "official_name": "Starbucks Coffee",
      "addr_state": "OH",
      "addr_city": "Cleveland",
      "addr_postcode": "44114",
      "addr_street": "West Saint Clair Avenue",
      "addr_housenumber": "1"
    },
    {
      "id": 29198,
      "geometry": "POINT (-81.629472 41.530044)",
      "poi_name": "duck-rabbit coffee",
      "osm_id": 8287951145,
      "amenity": "cafe",
      "description": "Artisan small batch coffee roaster with coffee shop",
      "opening_hours": "Sa-Su 08:00-15:00; Mo-Fr 07:00-14:00",
      "website": "https://www.duckrabbitcoffee.com/",
      "internet_access": "wlan",
      "outdoor_seating": "no",
      "addr_postcode": "44113",
      "addr_street": "Lorain Avenue",
      "addr_housenumber": "4160"
    },
    {
      "id": 29969,
      "geometry": "POINT (-81.629472 41.530044)",
      "poi_name": "La Bodega",
      "osm_id": 8331819195,
      "amenity": "cafe",
      "cuisine": "sandwich"
    },
    {
      "id": 30289,
      "geometry": "POINT (-81.629472 41.530044)",
      "poi_name": "Brew\u2019d",
      "osm_id": 8345579720,
      "amenity": "cafe"
    },
    {
      "id": 30778,
      "geometry": "POINT (-81.629472 41.530044)",
      "poi_name": "Erie Island Coffee Co.",
      "osm_id": 8381423657,
      "amenity": "cafe",
      "addr_state": "OH",
      "addr_city": "Elyria",
      "addr_postcode": "44035",
      "addr_street": "Middle Avenue",
      "addr_housenumber": "148"
    },
    {
      "id": 31264,
      "geometry": "POINT (-81.629472 41.530044)",
      "poi_name": "Souper Market",
      "osm_id": 8415761695,
      "amenity": "cafe",
      "cuisine": "soup;sandwich"
    },
    {
      "id": 33749,
      "geometry": "POINT (-81.629472 41.530044)",
      "poi_name": "Starbucks",
      "osm_id": 2680733306,
      "amenity": "cafe",
      "cuisine": "coffee_shop",
      "operator": "Starbucks",
      "takeaway": "yes",
      "official_name": "Starbucks Coffee",
      "addr_state": "OH",
      "addr_city": "Cleveland",
      "addr_postcode": "44113",
      "addr_street": "West 6th Street",
      "addr_housenumber": "1374"
    },
    {
      "id": 38488,
      "geometry": "POINT (-81.629472 41.530044)",
      "poi_name": "Phoenix Coffee",
      "osm_id": 2868589024,
      "amenity": "cafe",
      "cuisine": "coffee_shop",
      "opening_hours": "Mo-Fr 07:00-14:00",
      "website": "https://phoenixcoffee.com/",
      "phone": "(216) 771-5282",
      "addr_postcode": "44114",
      "addr_street": "East 9th Street",
      "addr_housenumber": "1700"
    },
    {
      "id": 42953,
      "geometry": "POINT (-81.629472 41.530044)",
      "poi_name": "Omar Grill",
      "osm_id": 3088130531,
      "amenity": "cafe"
    },
    {
      "id": 36591,
      "geometry": "POINT (-81.629472 41.530044)",
      "poi_name": "Starbucks",
      "osm_id": 2772560165,
      "amenity": "cafe",
      "cuisine": "coffee_shop",
      "wheelchair": "limited",
      "takeaway": "yes",
      "official_name": "Starbucks Coffee"
    },
    {
      "id": 36592,
      "geometry": "POINT (-81.629472 41.530044)",
      "poi_name": "Starbucks",
      "osm_id": 2772560172,
      "amenity": "cafe",
      "cuisine": "coffee_shop",
      "opening_hours": "Mo-Su 06:30-16:00",
      "takeaway": "yes",
      "official_name": "Starbucks Coffee",
      "addr_state": "OH",
      "addr_city": "Cleveland",
      "addr_postcode": "44115",
      "addr_street": "Euclid Avenue",
      "addr_housenumber": "1400"
    },
    {
      "id": 52938,
      "geometry": "POINT (-81.629472 41.530044)",
      "poi_name": "Starbucks",
      "osm_id": 10055899454,
      "amenity": "cafe",
      "cuisine": "coffee_shop",
      "opening_hours": "Mo-Su 08:00-20:00",
      "takeaway": "yes",
      "official_name": "Starbucks Coffee"
    },
    {
      "id": 45714,
      "geometry": "POINT (-81.629472 41.530044)",
      "poi_name": "Al's Deli",
      "osm_id": 3225477785,
      "amenity": "cafe",
      "cuisine": "sandwich"
    },
    {
      "id": 47805,
      "geometry": "POINT (-81.629472 41.530044)",
      "poi_name": "affoGATO Cat Cafe",
      "osm_id": 3350729996,
      "amenity": "cafe",
      "cuisine": "coffee_shop",
      "description": "also has cats to pet and play with",
      "opening_hours": "We-Su 11:00-21:00",
      "website": "https://www.affogatocatcafe.com/",
      "phone": "+1-440-941-5130",
      "addr_city": "Cleveland",
      "addr_street": "Starkweather Avenue",
      "addr_housenumber": "761"
    },
    {
      "id": 52696,
      "geometry": "POINT (-81.629472 41.530044)",
      "poi_name": "Ready Set Coffee Roasters",
      "osm_id": 10043358153,
      "amenity": "cafe",
      "cuisine": "coffee_shop"
    },
    {
      "id": 52939,
      "geometry": "POINT (-81.629472 41.530044)",
      "poi_name": "Starbucks",
      "osm_id": 10055901894,
      "amenity": "cafe",
      "cuisine": "coffee_shop",
      "opening_hours": "Mo-Su 08:00-20:00",
      "takeaway": "yes",
      "official_name": "Starbucks Coffee"
    },
    {
      "id": 59391,
      "geometry": "POINT (-81.629472 41.530044)",
      "poi_name": "Smooth Rider Smoothies",
      "osm_id": 5422726374,
      "amenity": "cafe"
    },
    {
      "id": 54930,
      "geometry": "POINT (-81.629472 41.530044)",
      "poi_name": "The Copper Moon",
      "osm_id": 10162652581,
      "amenity": "cafe",
      "addr_street": "Euclid Ave",
      "addr_housenumber": "1127"
    },
    {
      "id": 57842,
      "geometry": "POINT (-81.629472 41.530044)",
      "poi_name": "Starbucks",
      "osm_id": 5353565461,
      "amenity": "cafe",
      "cuisine": "coffee_shop",
      "takeaway": "yes",
      "official_name": "Starbucks Coffee",
      "outdoor_seating": "no"
    },
    {
      "id": 58949,
      "geometry": "POINT (-81.629472 41.530044)",
      "poi_name": "Madison Take Out",
      "osm_id": 5404164956,
      "amenity": "cafe",
      "cuisine": "guatemalan",
      "takeaway": "yes",
      "outdoor_seating": "no",
      "addr_city": "Lakewood",
      "addr_postcode": "44107",
      "addr_street": "Madison Avenue",
      "addr_housenumber": "13359"
    },
    {
      "id": 59603,
      "geometry": "POINT (-81.629472 41.530044)",
      "poi_name": "Yemeni Gate",
      "osm_id": 5434125978,
      "amenity": "cafe",
      "cuisine": "yemeni",
      "addr_state": "OH",
      "addr_city": "Cleveland",
      "addr_street": "Lorain Avenue",
      "addr_housenumber": "11901"
    },
    {
      "id": 59392,
      "geometry": "POINT (-81.629472 41.530044)",
      "poi_name": "Herb N' Twine",
      "osm_id": 5422726376,
      "amenity": "cafe"
    },
    {
      "id": 83292,
      "geometry": "POINT (-81.629472 41.530044)",
      "poi_name": "The Gypsy Bean",
      "osm_id": 1737221343,
      "amenity": "cafe",
      "cuisine": "coffee_shop",
      "outdoor_seating": "no",
      "addr_state": "OH",
      "addr_city": "Cleveland",
      "addr_postcode": "44102",
      "addr_street": "Detroit Avenue",
      "addr_housenumber": "6425"
    },
    {
      "id": 64195,
      "geometry": "POINT (-81.629472 41.530044)",
      "poi_name": "Sam Slyk's Chicken and Ribs",
      "osm_id": 5643705919,
      "amenity": "cafe",
      "addr_city": "Cleveland",
      "addr_postcode": "44109",
      "addr_street": "Fulton Road",
      "addr_housenumber": "4259"
    },
    {
      "id": 61783,
      "geometry": "POINT (-81.629472 41.530044)",
      "poi_name": "Earth Bistro Cafe",
      "osm_id": 5536422861,
      "amenity": "cafe"
    },
    {
      "id": 64267,
      "geometry": "POINT (-81.629472 41.530044)",
      "poi_name": "Joe Maxx Coffee Company",
      "osm_id": 5646502577,
      "amenity": "cafe",
      "cuisine": "coffee_shop"
    },
    {
      "id": 67289,
      "geometry": "POINT (-81.629472 41.530044)",
      "poi_name": "The Local Coffee & Tea",
      "osm_id": 11231259640,
      "amenity": "cafe",
      "cuisine": "bagel;coffee_shop",
      "addr_street": "South Main Street",
      "addr_housenumber": "23"
    },
    {
      "id": 70128,
      "geometry": "POINT (-81.629472 41.530044)",
      "poi_name": "Mango Mango Dessert",
      "osm_id": 11345643929,
      "amenity": "cafe",
      "cuisine": "asian;dessert",
      "takeaway": "yes",
      "addr_city": "Cleveland",
      "addr_postcode": "44114",
      "addr_street": "Payne Avenue",
      "addr_housenumber": "3133"
    },
    {
      "id": 71683,
      "geometry": "POINT (-81.629472 41.530044)",
      "poi_name": "Uciuni Pizza",
      "osm_id": 11396975451,
      "amenity": "cafe",
      "cuisine": "pizza",
      "takeaway": "only",
      "outdoor_seating": "no",
      "addr_state": "OH",
      "addr_city": "Cleveland",
      "addr_street": "Memphis Avenue",
      "addr_housenumber": "6102"
    },
    {
      "id": 74513,
      "geometry": "POINT (-81.629472 41.530044)",
      "poi_name": "Stone Fruit Coffee Company",
      "osm_id": 9683665917,
      "amenity": "cafe",
      "cuisine": "coffee_shop"
    },
    {
      "id": 84319,
      "geometry": "POINT (-81.629472 41.530044)",
      "poi_name": "Slow Train Cafe",
      "osm_id": 1783879300,
      "amenity": "cafe",
      "cuisine": "coffee_shop",
      "opening_hours": "Mo-Fr 07:30-17:00; Sa,Su 08:00-17:00",
      "website": "https://www.slowtraincafe.com/",
      "internet_access": "wlan",
      "addr_postcode": "44074",
      "addr_street": "East College Street",
      "addr_housenumber": "55"
    },
    {
      "id": 94880,
      "geometry": "POINT (-81.629472 41.530044)",
      "poi_name": "Starbucks",
      "osm_id": 6377780602,
      "amenity": "cafe",
      "cuisine": "coffee_shop",
      "opening_hours": "Mo-Su 06:00-20:00",
      "website": "https://www.starbucks.com/store-locator/store/17020/kroger-mansfield-oh-557-1060-ashland-road-mansfield-oh-449052157-us",
      "phone": "+1-419-589-3147",
      "takeaway": "yes",
      "official_name": "Starbucks Coffee",
      "addr_state": "OH",
      "addr_city": "Mansfield",
      "addr_postcode": "44905",
      "addr_street": "Ashland Road",
      "addr_housenumber": "1060"
    },
    {
      "id": 87391,
      "geometry": "POINT (-81.629472 41.530044)",
      "poi_name": "27 Club",
      "osm_id": 8712619922,
      "amenity": "cafe",
      "cuisine": "coffee_shop",
      "addr_state": "OH",
      "addr_city": "Cleveland",
      "addr_postcode": "44113",
      "addr_street": "West 10th Street",
      "addr_housenumber": "1215"
    },
    {
      "id": 87957,
      "geometry": "POINT (-81.629472 41.530044)",
      "poi_name": "Troubadour",
      "osm_id": 8755810134,
      "amenity": "cafe",
      "cuisine": "coffee_shop"
    },
    {
      "id": 95577,
      "geometry": "POINT (-81.629472 41.530044)",
      "poi_name": "Suzy's Soups",
      "osm_id": 6402587804,
      "amenity": "cafe",
      "cuisine": "soup",
      "outdoor_seating": "no"
    },
    {
      "id": 94925,
      "geometry": "POINT (-81.629472 41.530044)",
      "poi_name": "Addicted",
      "osm_id": 6380694931,
      "amenity": "cafe",
      "cuisine": "coffee_shop;ice_cream",
      "takeaway": "yes"
    },
    {
      "id": 96048,
      "geometry": "POINT (-81.629472 41.530044)",
      "poi_name": "Relax, It's Just Coffee",
      "osm_id": 6418692387,
      "amenity": "cafe",
      "opening_hours": "Mo-Sa 07:00-19:00; Su 09:00-17:00",
      "website": "https://www.relaxitsjustcoffee.com/",
      "phone": "+1-419-522-1521",
      "addr_state": "OH",
      "addr_city": "Mansfield",
      "addr_postcode": "44902",
      "addr_street": "North Main Street",
      "addr_housenumber": "105"
    },
    {
      "id": 96117,
      "geometry": "POINT (-81.629472 41.530044)",
      "poi_name": "Curbside Coffee",
      "osm_id": 6419905431,
      "amenity": "cafe",
      "addr_city": "Cleveland",
      "addr_street": "Lorain Avenue",
      "addr_housenumber": "9858"
    },
    {
      "id": 101783,
      "geometry": "POINT (-81.629472 41.530044)",
      "poi_name": "Dreamz Cafe",
      "osm_id": 6643754425,
      "amenity": "cafe",
      "cuisine": "soul_food",
      "takeaway": "yes",
      "addr_state": "OH",
      "addr_city": "Cleveland",
      "addr_street": "Pearl Road",
      "addr_housenumber": "4912"
    },
    {
      "id": 99138,
      "geometry": "POINT (-81.629472 41.530044)",
      "poi_name": "Starbucks",
      "osm_id": 6541975269,
      "amenity": "cafe",
      "cuisine": "coffee_shop",
      "takeaway": "yes"
    },
    {
      "id": 97372,
      "geometry": "POINT (-81.629472 41.530044)",
      "poi_name": "C|F|E on Main",
      "osm_id": 6476367173,
      "amenity": "cafe",
      "opening_hours": "Mo-Th 11:00-14:00",
      "operator": "Dan Lew Exchange",
      "website": "http://www.chinaclubink.com/c-f-e-on-main.html",
      "phone": "+1-419-522-7699",
      "addr_state": "OH",
      "addr_city": "Mansfield",
      "addr_postcode": "44902",
      "addr_street": "North Main Street",
      "addr_housenumber": "28"
    },
    {
      "id": 108621,
      "geometry": "POINT (-81.629472 41.530044)",
      "poi_name": "Tabletop Board Game Cafe",
      "osm_id": 3630061151,
      "amenity": "cafe",
      "description": "Bright cafe themed around board games and community. Offering pizza, sandwiches, coffee, and beer & wine.",
      "opening_hours": "We-Th 16:00-21:00; Fr-Sa 11:00-22:00; Su 11:00-21:00",
      "website": "https://www.tabletopcleve.com/",
      "phone": "+1-216-512-3053",
      "outdoor_seating": "no",
      "delivery": "yes",
      "addr_state": "OH",
      "addr_city": "Cleveland",
      "addr_postcode": "44113",
      "addr_street": "West 25th Street",
      "addr_housenumber": "1810"
    },
    {
      "id": 109944,
      "geometry": "POINT (-81.629472 41.530044)",
      "poi_name": "Ohio City Pizzeria",
      "osm_id": 3679281474,
      "amenity": "cafe",
      "cuisine": "pizza",
      "takeaway": "yes",
      "outdoor_seating": "yes",
      "addr_state": "OH",
      "addr_city": "Cleveland",
      "addr_postcode": "44113",
      "addr_street": "Lorain Avenue",
      "addr_housenumber": "3223"
    },
    {
      "id": 109822,
      "geometry": "POINT (-81.629472 41.530044)",
      "poi_name": "Cafe A Roma",
      "osm_id": 3676516067,
      "amenity": "cafe"
    },
    {
      "id": 111423,
      "geometry": "POINT (-81.629472 41.530044)",
      "poi_name": "Starbucks",
      "osm_id": 3748087601,
      "amenity": "cafe",
      "cuisine": "coffee_shop",
      "takeaway": "yes",
      "official_name": "Starbucks Coffee"
    },
    {
      "id": 115471,
      "geometry": "POINT (-81.629472 41.530044)",
      "poi_name": "Starbucks",
      "osm_id": 8898429797,
      "amenity": "cafe",
      "cuisine": "coffee_shop",
      "takeaway": "yes",
      "official_name": "Starbucks Coffee",
      "addr_state": "OH",
      "addr_city": "Brooklyn",
      "addr_postcode": "44144",
      "addr_street": "Cascade Crossing",
      "addr_housenumber": "10330"
    },
    {
      "id": 114803,
      "geometry": "POINT (-81.629472 41.530044)",
      "poi_name": "Rising Star",
      "osm_id": 3895500528,
      "amenity": "cafe",
      "cuisine": "coffee_shop",
      "opening_hours": "Mo-Su 07:00-17:00",
      "addr_city": "Cleveland",
      "addr_postcode": "44114",
      "addr_street": "Superior Avenue East",
      "addr_housenumber": "412"
    },
    {
      "id": 115993,
      "geometry": "POINT (-81.629472 41.530044)",
      "poi_name": "Rise Above Cafe",
      "osm_id": 8922935597,
      "amenity": "cafe",
      "cuisine": "coffee_shop",
      "addr_state": "OH",
      "addr_city": "Cleveland",
      "addr_street": "Lorain Avenue",
      "addr_housenumber": "10400"
    },
    {
      "id": 116440,
      "geometry": "POINT (-81.629472 41.530044)",
      "poi_name": "Biggby Coffee",
      "osm_id": 8942912077,
      "amenity": "cafe",
      "cuisine": "coffee_shop",
      "takeaway": "yes",
      "addr_state": "OH",
      "addr_city": "North Olmsted",
      "addr_postcode": "44070",
      "addr_street": "Brookpark Road",
      "addr_housenumber": "26625"
    },
    {
      "id": 116362,
      "geometry": "POINT (-81.629472 41.530044)",
      "poi_name": "Starbucks",
      "osm_id": 8939886079,
      "amenity": "cafe",
      "cuisine": "coffee_shop",
      "takeaway": "yes",
      "official_name": "Starbucks Coffee",
      "addr_state": "OH",
      "addr_city": "North Olmsted",
      "addr_postcode": "44070",
      "addr_street": "Lorain Road",
      "addr_housenumber": "27178"
    },
    {
      "id": 116336,
      "geometry": "POINT (-81.629472 41.530044)",
      "poi_name": "Kelly's Cafe",
      "osm_id": 8939417445,
      "amenity": "cafe",
      "addr_state": "OH",
      "addr_city": "Brunswick",
      "addr_postcode": "44212",
      "addr_street": "Pearl Road",
      "addr_housenumber": "1661"
    },
    {
      "id": 120503,
      "geometry": "POINT (-81.629472 41.530044)",
      "poi_name": "Balance Grill",
      "osm_id": 6708874984,
      "amenity": "cafe",
      "cuisine": "asian",
      "addr_city": "Cleveland",
      "addr_street": "Euclid Avenue",
      "addr_housenumber": "515"
    },
    {
      "id": 116748,
      "geometry": "POINT (-81.629472 41.530044)",
      "poi_name": "Architectural Justice",
      "osm_id": 8958333978,
      "amenity": "cafe",
      "addr_state": "OH",
      "addr_city": "Strongsville",
      "addr_postcode": "44136",
      "addr_street": "Pearl Road",
      "addr_housenumber": "13593"
    },
    {
      "id": 117655,
      "geometry": "POINT (-81.629472 41.530044)",
      "poi_name": "Starbucks",
      "osm_id": 9005044035,
      "amenity": "cafe",
      "cuisine": "coffee_shop",
      "takeaway": "yes",
      "official_name": "Starbucks Coffee",
      "addr_state": "OH",
      "addr_city": "Cleveland",
      "addr_postcode": "44109",
      "addr_street": "Steelyard Drive",
      "addr_housenumber": "3420"
    },
    {
      "id": 117951,
      "geometry": "POINT (-81.629472 41.530044)",
      "poi_name": "Downtown Perk",
      "osm_id": 9020195218,
      "amenity": "cafe"
    },
    {
      "id": 118942,
      "geometry": "POINT (-81.629472 41.530044)",
      "poi_name": "Cent's",
      "osm_id": 9072257329,
      "amenity": "cafe",
      "cuisine": "pizza",
      "addr_state": "OH",
      "addr_city": "Cleveland",
      "addr_street": "Lorain Avenue",
      "addr_housenumber": "5016"
    },
    {
      "id": 120164,
      "geometry": "POINT (-81.629472 41.530044)",
      "poi_name": "Cafe Social Latinoamericano",
      "osm_id": 9143395099,
      "amenity": "cafe",
      "cuisine": "coffee_shop",
      "opening_hours": "Mo-Fr 08:00-15:00; Sa-Su 08:00-17:00",
      "website": "cafesocialcoffee.com",
      "phone": "+1 216 280 2423",
      "addr_state": "OH",
      "addr_city": "Cleveland",
      "addr_postcode": "44113",
      "addr_street": "Professor Avenue",
      "addr_housenumber": "2275"
    },
    {
      "id": 122225,
      "geometry": "POINT (-81.629472 41.530044)",
      "poi_name": "Sittoo's",
      "osm_id": 6793540727,
      "amenity": "cafe",
      "cuisine": "lebanese",
      "opening_hours": "Mo-Fr 11:00-21:00; Sa,Su 11:00-20:00",
      "outdoor_seating": "no"
    },
    {
      "id": 122431,
      "geometry": "POINT (-81.629472 41.530044)",
      "poi_name": "Terrapin",
      "osm_id": 6802884338,
      "amenity": "cafe",
      "cuisine": "coffee_shop"
    },
    {
      "id": 124192,
      "geometry": "POINT (-81.629472 41.530044)",
      "poi_name": "Common Grounds",
      "osm_id": 6903044564,
      "amenity": "cafe",
      "cuisine": "coffee_shop",
      "opening_hours": "24/7"
    },
    {
      "id": 122772,
      "geometry": "POINT (-81.629472 41.530044)",
      "poi_name": "Charlie And Tango Ice Cream And Smoothies",
      "osm_id": 6818064153,
      "amenity": "cafe",
      "cuisine": "ice_cream;smoothie",
      "opening_hours": "Mo-Su 12:00-22:30",
      "website": "https://charlieandtangoicecreamandsmoothies.business.site/",
      "addr_state": "OH",
      "addr_city": "Brook Park",
      "addr_street": "Snow Road",
      "addr_housenumber": "13357"
    },
    {
      "id": 125618,
      "geometry": "POINT (-81.629472 41.530044)",
      "poi_name": "Happy Bean Coffee Shop",
      "osm_id": 6966899990,
      "amenity": "cafe",
      "cuisine": "coffee_shop"
    },
    {
      "id": 125258,
      "geometry": "POINT (-81.629472 41.530044)",
      "poi_name": "Solstice Roasters Caf\u00e9",
      "osm_id": 6952532569,
      "amenity": "cafe",
      "addr_state": "OH",
      "addr_city": "Cleveland",
      "addr_street": "Carnegie Avenue",
      "addr_housenumber": "1101"
    },
    {
      "id": 126696,
      "geometry": "POINT (-81.629472 41.530044)",
      "poi_name": "Corner 11 Bowl and Wrap",
      "osm_id": 7993321546,
      "amenity": "cafe",
      "cuisine": "ramen;japanese",
      "outdoor_seating": "yes"
    },
    {
      "id": 135240,
      "geometry": "POINT (-81.629472 41.530044)",
      "poi_name": "The Break Bread Cafe",
      "osm_id": 11509713082,
      "amenity": "cafe",
      "cuisine": "sandwich",
      "addr_state": "OH",
      "addr_city": "Cleveland",
      "addr_postcode": "44114",
      "addr_street": "East 9th Street",
      "addr_housenumber": "1301"
    },
    {
      "id": 134851,
      "geometry": "POINT (-81.629472 41.530044)",
      "poi_name": "Browsing Room",
      "osm_id": 11493072428,
      "amenity": "cafe",
      "shop": "books"
    },
    {
      "id": 133111,
      "geometry": "POINT (-81.629472 41.530044)",
      "poi_name": "City Slice Pizza",
      "osm_id": 9980693317,
      "amenity": "cafe",
      "cuisine": "pizza",
      "takeaway": "yes"
    },
    {
      "id": 135241,
      "geometry": "POINT (-81.629472 41.530044)",
      "poi_name": "The Main Squeeze",
      "osm_id": 11509713097,
      "amenity": "cafe",
      "cuisine": "smoothie",
      "opening_hours": "Mo-Fr 07:00-16:00",
      "addr_state": "OH",
      "addr_city": "Cleveland",
      "addr_postcode": "44114",
      "addr_street": "Erieview Plaza",
      "addr_housenumber": "55"
    },
    {
      "id": 137676,
      "geometry": "POINT (-81.629472 41.530044)",
      "poi_name": "Mugs",
      "osm_id": 6109691615,
      "amenity": "cafe"
    },
    {
      "id": 137677,
      "geometry": "POINT (-81.629472 41.530044)",
      "poi_name": "Loko Bean",
      "osm_id": 6109691708,
      "amenity": "cafe"
    },
    {
      "id": 138484,
      "geometry": "POINT (-81.629472 41.530044)",
      "poi_name": "Pillars",
      "osm_id": 6152135675,
      "amenity": "cafe"
    },
    {
      "id": 142723,
      "geometry": "POINT (-81.629472 41.530044)",
      "poi_name": "Starbucks",
      "osm_id": 6321648460,
      "amenity": "cafe",
      "cuisine": "coffee_shop",
      "takeaway": "yes",
      "official_name": "Starbucks Coffee"
    },
    {
      "id": 140769,
      "geometry": "POINT (-81.629472 41.530044)",
      "poi_name": "Fratello's Deli",
      "osm_id": 6259885789,
      "amenity": "cafe",
      "cuisine": "sandwich"
    },
    {
      "id": 140578,
      "geometry": "POINT (-81.629472 41.530044)",
      "poi_name": "Pelican Coffee House",
      "osm_id": 6251003928,
      "amenity": "cafe"
    },
    {
      "id": 140899,
      "geometry": "POINT (-81.629472 41.530044)",
      "poi_name": "Phoenix Coffee",
      "osm_id": 6266396308,
      "amenity": "cafe",
      "cuisine": "coffee_shop",
      "phone": "+1-216-230-2869",
      "addr_state": "OH",
      "addr_city": "Cleveland",
      "addr_street": "West Saint Clair Avenue",
      "addr_housenumber": "826"
    },
    {
      "id": 148894,
      "geometry": "POINT (-81.629472 41.530044)",
      "poi_name": "Damas Eatery",
      "osm_id": 3987164724,
      "amenity": "cafe",
      "cuisine": "syrian",
      "opening_hours": "Mo-Fr 10:00-22:00; Sa-Su 12:00-20:00",
      "phone": "+1 216 331 1933",
      "takeaway": "yes",
      "drive_through": "no",
      "addr_state": "OH",
      "addr_city": "Cleveland",
      "addr_postcode": "44111",
      "addr_street": "West 117th Street",
      "addr_housenumber": "3650"
    },
    {
      "id": 153751,
      "geometry": "POINT (-81.629472 41.530044)",
      "poi_name": "Peace, Love & Little Donuts",
      "osm_id": 4211149796,
      "amenity": "cafe",
      "cuisine": "donut",
      "opening_hours": "Tu-Fr 07:00-18:00; Sa,Su 08:00-15:00"
    },
    {
      "id": 152053,
      "geometry": "POINT (-81.629472 41.530044)",
      "poi_name": "Koffie Cafe",
      "osm_id": 4124628993,
      "amenity": "cafe",
      "cuisine": "coffee_shop"
    },
    {
      "id": 151036,
      "geometry": "POINT (-81.629472 41.530044)",
      "poi_name": "Starbucks",
      "osm_id": 4077331168,
      "amenity": "cafe",
      "cuisine": "coffee_shop",
      "takeaway": "yes",
      "official_name": "Starbucks Coffee"
    },
    {
      "id": 164423,
      "geometry": "POINT (-81.629472 41.530044)",
      "poi_name": "Starbucks",
      "osm_id": 9471460034,
      "amenity": "cafe",
      "cuisine": "coffee_shop",
      "takeaway": "yes",
      "official_name": "Starbucks Coffee"
    },
    {
      "id": 154261,
      "geometry": "POINT (-81.629472 41.530044)",
      "poi_name": "Phoenix Coffee",
      "osm_id": 4230627695,
      "amenity": "cafe",
      "cuisine": "coffee_shop",
      "description": "nice hipster coffee joint",
      "opening_hours": "07:00-19:00",
      "internet_access": "wlan"
    },
    {
      "id": 154912,
      "geometry": "POINT (-81.629472 41.530044)",
      "poi_name": "Edda Coffee Roasters",
      "osm_id": 4261132627,
      "amenity": "cafe",
      "cuisine": "coffee_shop",
      "addr_state": "OH",
      "addr_city": "Cleveland",
      "addr_postcode": "44113",
      "addr_street": "West 25th Street",
      "addr_housenumber": "2011"
    },
    {
      "id": 156823,
      "geometry": "POINT (-81.629472 41.530044)",
      "poi_name": "Liquid Planet",
      "osm_id": 4673204731,
      "amenity": "cafe"
    },
    {
      "id": 156824,
      "geometry": "POINT (-81.629472 41.530044)",
      "poi_name": "Eagles Kafe",
      "osm_id": 4673204732,
      "amenity": "cafe",
      "cuisine": "coffee_shop",
      "outdoor_seating": "yes",
      "addr_state": "OH",
      "addr_city": "Cleveland",
      "addr_street": "Detroit Avenue",
      "addr_housenumber": "11100"
    },
    {
      "id": 154346,
      "geometry": "POINT (-81.629472 41.530044)",
      "poi_name": "Deons",
      "osm_id": 4234053219,
      "amenity": "cafe"
    },
    {
      "id": 154677,
      "geometry": "POINT (-81.629472 41.530044)",
      "poi_name": "Starbucks",
      "osm_id": 4251794030,
      "amenity": "cafe",
      "cuisine": "coffee_shop",
      "wheelchair": "yes",
      "takeaway": "yes",
      "official_name": "Starbucks Coffee",
      "addr_state": "OH",
      "addr_city": "Parma",
      "addr_postcode": "44129",
      "addr_street": "Ridge Road",
      "addr_housenumber": "6780"
    },
    {
      "id": 157924,
      "geometry": "POINT (-81.629472 41.530044)",
      "poi_name": "Sames & Cook",
      "osm_id": 4729300461,
      "amenity": "cafe",
      "opening_hours": "Mo-Fr 06:00-16:00; Sa 08:00-14:00",
      "website": "https://www.mkt.com/samesandcookcoffee",
      "phone": "+1-419-947-9694",
      "addr_state": "OH",
      "addr_city": "Mount Gilead",
      "addr_postcode": "43338",
      "addr_street": "South Main Street",
      "addr_housenumber": "33"
    },
    {
      "id": 161132,
      "geometry": "POINT (-81.629472 41.530044)",
      "poi_name": "Six Shooter Coffee",
      "osm_id": 4868045305,
      "amenity": "cafe",
      "cuisine": "coffee_shop",
      "opening_hours": "Mo-Su 07:00-19:00",
      "outdoor_seating": "no",
      "addr_state": "OH",
      "addr_city": "Cleveland",
      "addr_postcode": "44109",
      "addr_street": "Pearl Road",
      "addr_housenumber": "4193"
    },
    {
      "id": 164999,
      "geometry": "POINT (-81.629472 41.530044)",
      "poi_name": "Scoot! Cold Brew",
      "osm_id": 9512092527,
      "amenity": "cafe",
      "cuisine": "coffee_shop",
      "internet_access": "wlan"
    },
    {
      "id": 168641,
      "geometry": "POINT (-81.629472 41.530044)",
      "poi_name": "Gyro Guys",
      "osm_id": 2273740941,
      "amenity": "cafe",
      "cuisine": "greek",
      "drive_through": "no",
      "addr_state": "OH",
      "addr_city": "Cleveland",
      "addr_postcode": "44109",
      "addr_street": "Pearl Road",
      "addr_housenumber": "4348"
    },
    {
      "id": 165347,
      "geometry": "POINT (-81.629472 41.530044)",
      "poi_name": "Little Garden",
      "osm_id": 9530463208,
      "amenity": "cafe",
      "takeaway": "yes",
      "addr_state": "OH",
      "addr_city": "Cleveland",
      "addr_street": "Denison Avenue",
      "addr_housenumber": "9107"
    },
    {
      "id": 168597,
      "geometry": "POINT (-81.629472 41.530044)",
      "poi_name": "Starbucks",
      "osm_id": 2271205432,
      "amenity": "cafe",
      "cuisine": "coffee_shop",
      "takeaway": "yes",
      "official_name": "Starbucks Coffee",
      "addr_state": "OH",
      "addr_city": "Brooklyn",
      "addr_postcode": "44144",
      "addr_street": "Ridge Road",
      "addr_housenumber": "4752"
    },
    {
      "id": 171364,
      "geometry": "POINT (-81.629472 41.530044)",
      "poi_name": "Rising Star Coffee Roasters",
      "osm_id": 2374055891,
      "amenity": "cafe",
      "opening_hours": "Mo-Th 06:00-18:00; Fr-Sa 06:00-20:00; Su 08:00-18:00",
      "website": "http://www.risingstarcoffee.com",
      "internet_access": "no",
      "phone": "+1 (216) 273-3573",
      "addr_city": "Cleveland",
      "addr_postcode": "44113-2960",
      "addr_street": "West 29th Street",
      "addr_housenumber": "1455"
    },
    {
      "id": 169214,
      "geometry": "POINT (-81.629472 41.530044)",
      "poi_name": "Civilization",
      "osm_id": 2295270756,
      "amenity": "cafe",
      "cuisine": "coffee_shop",
      "internet_access": "yes"
    },
    {
      "id": 195283,
      "geometry": "POINT (-81.629472 41.530044)",
      "poi_name": "The Local Coffee & Tea",
      "osm_id": 10299351877,
      "amenity": "cafe",
      "opening_hours": "Mo-Fr 07:00-14:00; Sa,Su 10:00-15:00"
    },
    {
      "id": 175097,
      "geometry": "POINT (-81.629472 41.530044)",
      "poi_name": "Starbucks",
      "osm_id": 2505438490,
      "amenity": "cafe",
      "cuisine": "coffee_shop",
      "takeaway": "yes"
    },
    {
      "id": 183885,
      "geometry": "POINT (-81.629472 41.530044)",
      "poi_name": "Starbucks",
      "osm_id": 10949183309,
      "amenity": "cafe",
      "cuisine": "coffee_shop",
      "takeaway": "yes",
      "official_name": "Starbucks Coffee"
    },
    {
      "id": 184636,
      "geometry": "POINT (-81.629472 41.530044)",
      "poi_name": "The Cove Coffee Shop & Pizza Company",
      "osm_id": 7802342241,
      "amenity": "cafe",
      "cuisine": "coffee_shop;pizza",
      "opening_hours": "Mo-Th 06:30-20:00, Fr 06:30-21:00, Sa 07:30-21:00, Su 07:30-20:00",
      "website": "https://www.thecovecoffeeshop.com/",
      "internet_access": "wlan",
      "phone": "+1-567-229-3325",
      "addr_state": "OH",
      "addr_city": "Ontario",
      "addr_postcode": "44906",
      "addr_street": "Shelby-Ontario Road",
      "addr_housenumber": "325"
    },
    {
      "id": 189267,
      "geometry": "POINT (-81.629472 41.530044)",
      "poi_name": "Savor The Moment",
      "osm_id": 1224403721,
      "amenity": "cafe",
      "addr_city": "Cleveland",
      "addr_street": "Rocky River Drive",
      "addr_housenumber": "4080"
    },
    {
      "id": 192115,
      "geometry": "POINT (-81.629472 41.530044)",
      "poi_name": "KCC: Kelly Catering Company",
      "osm_id": 1422585205,
      "amenity": "cafe",
      "cuisine": "soul_food",
      "takeaway": "yes",
      "addr_city": "Cleveland",
      "addr_postcode": "44109",
      "addr_street": "Broadview Road",
      "addr_housenumber": "3312"
    },
    {
      "id": 195284,
      "geometry": "POINT (-81.629472 41.530044)",
      "poi_name": "Oberlin Nutrition",
      "osm_id": 10299356808,
      "amenity": "cafe"
    },
    {
      "id": 197555,
      "geometry": "POINT (-81.629472 41.530044)",
      "poi_name": "Starbucks",
      "osm_id": 10653006487,
      "amenity": "cafe",
      "cuisine": "coffee_shop",
      "takeaway": "yes",
      "official_name": "Starbucks Coffee",
      "addr_state": "OH",
      "addr_city": "Berea",
      "addr_street": "Front Street",
      "addr_housenumber": "106"
    },
    {
      "id": 198261,
      "geometry": "POINT (-81.629472 41.530044)",
      "poi_name": "Bread-N-Brew",
      "osm_id": 10695620250,
      "amenity": "cafe",
      "opening_hours": "Mo-Fr 07:00-18:50; Sa 08:00-15:50"
    },
    {
      "id": 205194,
      "geometry": "POINT (-81.629472 41.530044)",
      "poi_name": "Bella Luna",
      "osm_id": 7159610880,
      "amenity": "cafe",
      "cuisine": "empanada",
      "addr_state": "OH",
      "addr_city": "Cleveland",
      "addr_street": "West 25th Street",
      "addr_housenumber": "3460"
    },
    {
      "id": 202590,
      "geometry": "POINT (-81.629472 41.530044)",
      "poi_name": "Joe Maxx",
      "osm_id": 7039381626,
      "amenity": "cafe",
      "cuisine": "coffee_shop"
    },
    {
      "id": 203593,
      "geometry": "POINT (-81.629472 41.530044)",
      "poi_name": "North Main Cafe",
      "osm_id": 7094020912,
      "amenity": "cafe"
    },
    {
      "id": 210752,
      "geometry": "POINT (-81.629472 41.530044)",
      "poi_name": "Brewnuts",
      "osm_id": 5118582061,
      "amenity": "cafe",
      "cuisine": "donut",
      "addr_state": "OH",
      "addr_city": "Cleveland",
      "addr_street": "Detroit Avenue",
      "addr_housenumber": "6501"
    },
    {
      "id": 220677,
      "geometry": "POINT (-81.629472 41.530044)",
      "poi_name": "Milk + Honey",
      "osm_id": 9382610017,
      "amenity": "cafe",
      "cuisine": "coffee_shop;ice_cream"
    },
    {
      "id": 216061,
      "geometry": "POINT (-81.629472 41.530044)",
      "poi_name": "Happy Lotus Nutrition",
      "osm_id": 9152250363,
      "amenity": "cafe",
      "description": "Nutritional Shakes and Teas sold Cafe style.",
      "wheelchair": "yes",
      "opening_hours": "Mo-Fr 07:00-17:00",
      "internet_access": "yes",
      "phone": "+1-419-239-3969",
      "outdoor_seating": "yes",
      "addr_state": "OH",
      "addr_city": "Wakeman",
      "addr_postcode": "44889",
      "addr_street": "West Main Street",
      "addr_housenumber": "21"
    },
    {
      "id": 214511,
      "geometry": "POINT (-81.629472 41.530044)",
      "poi_name": "Tim Hortons",
      "osm_id": 5274081398,
      "amenity": "cafe",
      "cuisine": "coffee_shop",
      "takeaway": "yes",
      "addr_street": "East Main Street",
      "addr_housenumber": "1185"
    },
    {
      "id": 223829,
      "geometry": "POINT (-81.629472 41.530044)",
      "poi_name": "Ready Set Coffee",
      "osm_id": 11064225648,
      "amenity": "cafe",
      "cuisine": "coffee_shop"
    },
    {
      "id": 232013,
      "geometry": "POINT (-81.629472 41.530044)",
      "poi_name": "Restore Cold Pressed",
      "osm_id": 4504963609,
      "amenity": "cafe",
      "cuisine": "juice",
      "opening_hours": "07:00-18:00",
      "takeaway": "yes",
      "addr_state": "OH",
      "addr_city": "Cleveland",
      "addr_postcode": "44115",
      "addr_street": "Huron Road East",
      "addr_housenumber": "1001"
    },
    {
      "id": 224269,
      "geometry": "POINT (-81.629472 41.530044)",
      "poi_name": "Sips and Such Social House",
      "osm_id": 11077211805,
      "amenity": "cafe"
    },
    {
      "id": 224629,
      "geometry": "POINT (-81.629472 41.530044)",
      "poi_name": "Green Goat Cafe Bar",
      "osm_id": 11090731827,
      "amenity": "cafe",
      "cuisine": "coffee_shop"
    },
    {
      "id": 225367,
      "geometry": "POINT (-81.629472 41.530044)",
      "poi_name": "Patron Saint Cafe + Bar",
      "osm_id": 11124088154,
      "amenity": "cafe",
      "website": "https://www.patronsaintcle.com",
      "internet_access": "wlan",
      "addr_state": "OH",
      "addr_city": "Cleveland",
      "addr_postcode": "44113",
      "addr_street": "Detroit Avenue",
      "addr_housenumber": "2915"
    },
    {
      "id": 232864,
      "geometry": "POINT (-81.629472 41.530044)",
      "poi_name": "Cleveland Bagel Company",
      "osm_id": 4545849217,
      "amenity": "cafe",
      "cuisine": "bagel",
      "opening_hours": "Tu-Su 6:30-13:00",
      "website": "http://clebagelco.com/",
      "phone": "+1 216 600 5652",
      "outdoor_seating": "no",
      "addr_state": "OH",
      "addr_city": "Cleveland",
      "addr_postcode": "44113",
      "addr_street": "Detroit Avenue",
      "addr_housenumber": "4201"
    },
    {
      "id": 234051,
      "geometry": "POINT (-81.629472 41.530044)",
      "poi_name": "Old Brooklyn Nuitrition",
      "osm_id": 4600558419,
      "amenity": "cafe",
      "cuisine": "juice",
      "addr_state": "OH",
      "addr_city": "Cleveland",
      "addr_postcode": "44109",
      "addr_street": "Pearl Road",
      "addr_housenumber": "4138"
    },
    {
      "id": 240655,
      "geometry": "POINT (-81.629472 41.530044)",
      "poi_name": "Ohio Kabob Grill",
      "osm_id": 5983438765,
      "amenity": "cafe",
      "cuisine": "afghan",
      "outdoor_seating": "no",
      "addr_state": "OH",
      "addr_city": "Cleveland",
      "addr_street": "West 117th Street",
      "addr_housenumber": "3359"
    },
    {
      "id": 235331,
      "geometry": "POINT (-81.629472 41.530044)",
      "poi_name": "Lekko Coffee",
      "osm_id": 5751809888,
      "amenity": "cafe",
      "cuisine": "coffee_shop",
      "opening_hours": "Mo-Su 07:00-19:00",
      "outdoor_seating": "no",
      "addr_state": "OH",
      "addr_city": "Cleveland",
      "addr_street": "Detroit Avenue",
      "addr_housenumber": "2529"
    },
    {
      "id": 239032,
      "geometry": "POINT (-81.629472 41.530044)",
      "poi_name": "Phuel Cafe",
      "osm_id": 5902438412,
      "amenity": "cafe",
      "opening_hours": "Mo-We 11:00-14:30; Th-Sa 11:00-19:00"
    },
    {
      "id": 241906,
      "geometry": "POINT (-81.629472 41.530044)",
      "poi_name": "Robek's",
      "osm_id": 6044676063,
      "amenity": "cafe",
      "cuisine": "juice"
    }
  ],
  "answer_type": "name",
  "question_entities": {
    "[1]": {
      "main_category": "amenity",
      "sub_category": "cafe"
    },
    "[2]": {
      "distance": 160000,
      "text": "160 kilometers"
    },
    "[3]": {
      "main_category": "leisure",
      "sub_category": "garden",
      "display_name": "African American Cultural Garden, Cleveland, OH",
      "geo_wkt": "POINT (-81.629472 41.530044)",
      "poi": {
        "id": 247006,
        "geometry": "POINT (-81.629472 41.530044)",
        "poi_name": "African American Cultural Garden",
        "osm_id": 8567373858,
        "leisure": "garden",
        "fee": "no",
        "addr_state": "OH",
        "addr_city": "Cleveland",
        "addr_street": "Martin Luther King Junior Drive",
        "addr_housenumber": "890"
      }
    },
    "[4]": {
      "direction_desc": "southwest",
      "direction_predicate": "degrees(ST_Azimuth(origin.geometry, pois.geometry)) BETWEEN 202.5 AND 247.5"
    }
  },
  "id": 2679,
  "type": "range:direction+name"
}