{
  "question": "Which way should I go to access a caf\u00e9 from Center For Orthopaedic Reconstruction And Excellence, Jenks, OK within 50 kilometers?",
  "sql": "SELECT *, degrees(ST_Azimuth(ST_GeomFromText('POINT (-96.009856 36.025821)',4326)::geography, pois.geometry)) AS angle FROM pois\nWHERE ST_DWithin(pois.geometry, ST_GeomFromText('POINT (-96.009856 36.025821)',4326)::geography, 50000)\nAND amenity = 'cafe';\n",
  "answers": [
    {
      "id": 39266,
      "geometry": "POINT (-95.88341 35.941709)",
      "poi_name": "Johnson's Stepping Stone Cafe",
      "osm_id": 2912778468,
      "amenity": "cafe",
      "cuisine": "regional",
      "angle": 129.26137357934329
    },
    {
      "id": 43130,
      "geometry": "POINT (-95.869561 36.176671)",
      "poi_name": "Goldie's Donuts",
      "osm_id": 3095011229,
      "amenity": "cafe",
      "cuisine": "donut",
      "operator": "Daylight Donuts",
      "angle": 37.00223349977346
    },
    {
      "id": 56943,
      "geometry": "POINT (-95.984262 36.154926)",
      "poi_name": "Notion",
      "osm_id": 10253882127,
      "amenity": "cafe",
      "website": "https://notiontulsa.com/",
      "outdoor_seating": "no",
      "addr_state": "OK",
      "addr_city": "Tulsa",
      "addr_postcode": "74120",
      "addr_street": "South Frankfort Avenue",
      "addr_housenumber": "321",
      "angle": 9.132946819235004
    },
    {
      "id": 58293,
      "geometry": "POINT (-96.001589 36.054972)",
      "poi_name": "Starbucks",
      "osm_id": 5369559279,
      "amenity": "cafe",
      "cuisine": "coffee_shop",
      "takeaway": "yes",
      "official_name": "Starbucks Coffee",
      "angle": 12.9678265299475
    },
    {
      "id": 60404,
      "geometry": "POINT (-95.887257 36.190873)",
      "poi_name": "Caribou Coffee",
      "osm_id": 5462490322,
      "amenity": "cafe",
      "cuisine": "coffee_shop",
      "takeaway": "yes",
      "angle": 31.04305956772646
    },
    {
      "id": 64378,
      "geometry": "POINT (-95.848609 36.319037)",
      "poi_name": "Daylight Donuts",
      "osm_id": 5650700121,
      "amenity": "cafe",
      "cuisine": "donut",
      "angle": 23.983295747572434
    },
    {
      "id": 71714,
      "geometry": "POINT (-95.920254 36.137036)",
      "poi_name": "Starbucks",
      "osm_id": 11398419620,
      "amenity": "cafe",
      "cuisine": "coffee_shop",
      "opening_hours": "08:00-20:00",
      "phone": "+1 918-744-1701",
      "takeaway": "yes",
      "official_name": "Starbucks Coffee",
      "addr_street": "South Yale Avenue",
      "addr_housenumber": "1701",
      "angle": 33.1581085895438
    },
    {
      "id": 74092,
      "geometry": "POINT (-95.903049 36.016897)",
      "poi_name": "Sunrise Cafe",
      "osm_id": 9666873627,
      "amenity": "cafe",
      "angle": 95.84067751796601
    },
    {
      "id": 88921,
      "geometry": "POINT (-95.653169 35.962857)",
      "poi_name": "JBs Donuts",
      "osm_id": 8809049403,
      "amenity": "cafe",
      "cuisine": "donut",
      "opening_hours": "Mo-Sa 05:00-11:00",
      "addr_city": "Coweta",
      "addr_postcode": "74429",
      "addr_street": "South State Highway 51",
      "addr_housenumber": "13743",
      "angle": 102.15067227535802
    },
    {
      "id": 121059,
      "geometry": "POINT (-95.889099 36.000246)",
      "poi_name": "Redbud Cafe",
      "osm_id": 6740363914,
      "amenity": "cafe",
      "angle": 104.57524926728782
    },
    {
      "id": 135937,
      "geometry": "POINT (-95.800911 36.017856)",
      "poi_name": "Handmade",
      "osm_id": 11548080732,
      "amenity": "cafe",
      "angle": 92.62519662839135
    },
    {
      "id": 156845,
      "geometry": "POINT (-95.868204 36.099496)",
      "poi_name": "Roserock Cafe",
      "osm_id": 4673936340,
      "amenity": "cafe",
      "angle": 57.3151096474313
    },
    {
      "id": 136082,
      "geometry": "POINT (-95.955492 36.140235)",
      "poi_name": "Origin Coffee Company",
      "osm_id": 11559851196,
      "amenity": "cafe",
      "addr_city": "Tulsa",
      "addr_postcode": "74104",
      "addr_street": "East 15th Street",
      "addr_housenumber": "2510",
      "angle": 21.075078296564957
    },
    {
      "id": 150540,
      "geometry": "POINT (-95.856541 36.058479)",
      "poi_name": "Studio Eats",
      "osm_id": 4058924627,
      "amenity": "cafe",
      "opening_hours": "Fr, Sa 10:30-23:00; Mo-Th, Su 10:30-21:00",
      "angle": 75.25837779521137
    },
    {
      "id": 171983,
      "geometry": "POINT (-95.869542 36.046019)",
      "poi_name": "Starbucks",
      "osm_id": 2391064265,
      "amenity": "cafe",
      "cuisine": "coffee_shop",
      "takeaway": "yes",
      "official_name": "Starbucks Coffee",
      "addr_state": "OK",
      "addr_city": "Tulsa",
      "addr_postcode": "74133",
      "addr_street": "East 81st Street",
      "addr_housenumber": "9524",
      "angle": 79.9085106888478
    },
    {
      "id": 158490,
      "geometry": "POINT (-95.973955 36.060222)",
      "poi_name": "Starbucks",
      "osm_id": 4750164718,
      "amenity": "cafe",
      "cuisine": "coffee_shop",
      "takeaway": "yes",
      "official_name": "Starbucks Coffee",
      "angle": 40.2723779471289
    },
    {
      "id": 161733,
      "geometry": "POINT (-95.988716 36.151306)",
      "poi_name": "Elote",
      "osm_id": 4897946175,
      "amenity": "cafe",
      "opening_hours": "Mo-Sa 11:00-20:00",
      "phone": "+1-918-582-1403",
      "addr_street": "South Boston Avenue",
      "addr_housenumber": "514",
      "angle": 7.780203206995276
    },
    {
      "id": 164166,
      "geometry": "POINT (-95.634985 36.318816)",
      "poi_name": "Hilltop Coffee Shop",
      "osm_id": 9453682938,
      "amenity": "cafe",
      "cuisine": "coffee_shop",
      "opening_hours": "Monday through Thursday 7:30am - 3pm & Late Night Dining from 7:30pm to 11:30pm Friday 8am to 11am",
      "internet_access": "wlan",
      "outdoor_seating": "no",
      "addr_state": "OK",
      "addr_city": "Claremore",
      "addr_postcode": "74017",
      "addr_street": "W. Will Rogers Boulevard",
      "addr_housenumber": "1701",
      "angle": 45.94008080144253
    },
    {
      "id": 173163,
      "geometry": "POINT (-95.814384 36.061346)",
      "poi_name": "Starbucks",
      "osm_id": 2428690783,
      "amenity": "cafe",
      "cuisine": "coffee_shop",
      "takeaway": "yes",
      "official_name": "Starbucks Coffee",
      "addr_postcode": "74012",
      "addr_street": "West Kenosha Street",
      "angle": 77.32864850704806
    },
    {
      "id": 196648,
      "geometry": "POINT (-95.959203 36.044472)",
      "poi_name": "Nordaggio's Coffee",
      "osm_id": 10589791251,
      "amenity": "cafe",
      "angle": 65.5989912842912
    },
    {
      "id": 182705,
      "geometry": "POINT (-95.868066 36.030221)",
      "poi_name": "Ziggi's Coffee",
      "osm_id": 10900930071,
      "amenity": "cafe",
      "cuisine": "coffee_shop",
      "angle": 87.77036223929716
    },
    {
      "id": 187628,
      "geometry": "POINT (-95.924155 36.076962)",
      "poi_name": "Starbucks",
      "osm_id": 1086884919,
      "amenity": "cafe",
      "cuisine": "coffee_shop",
      "takeaway": "yes",
      "official_name": "Starbucks Coffee",
      "angle": 53.664647792222404
    },
    {
      "id": 193925,
      "geometry": "POINT (-95.922644 36.032215)",
      "poi_name": "Starbucks",
      "osm_id": 1571331685,
      "amenity": "cafe",
      "cuisine": "coffee_shop",
      "takeaway": "yes",
      "official_name": "Starbucks Coffee",
      "angle": 84.81674206507402
    },
    {
      "id": 195170,
      "geometry": "POINT (-95.988605 36.153692)",
      "poi_name": "Triangle Coffee Roasters",
      "osm_id": 10297103011,
      "amenity": "cafe",
      "takeaway": "yes",
      "outdoor_seating": "yes",
      "toilets": "yes",
      "addr_state": "OK",
      "addr_city": "Tulsa",
      "addr_street": "South Cincinnati Avenue",
      "addr_housenumber": "314",
      "angle": 7.675981900447081
    },
    {
      "id": 208753,
      "geometry": "POINT (-95.974296 36.180732)",
      "poi_name": "Sweet Lisa's Cafe",
      "osm_id": 5003592390,
      "amenity": "cafe",
      "opening_hours": "Tu,Th,Sa 11:00-18:30; We 11:00-16:30; Fr 11:00-20:30; Su 11:00-15:30",
      "angle": 10.541904441082
    },
    {
      "id": 208754,
      "geometry": "POINT (-95.974293 36.18059)",
      "poi_name": "Java Dave's Paradise Donuts",
      "osm_id": 5003592392,
      "amenity": "cafe",
      "opening_hours": "Mo-Fr 05:30-14:00; Sa 06:00-12:00",
      "angle": 10.55210090818764
    },
    {
      "id": 213504,
      "geometry": "POINT (-95.958846 36.02614)",
      "poi_name": "Robin's Roast Coffee",
      "osm_id": 5252958670,
      "amenity": "cafe",
      "opening_hours": "Tu-Th 07:00-21:00; Fr 07:00-22:00; Sa 08:00-22:00",
      "addr_state": "OK",
      "addr_city": "Jenks",
      "addr_street": "Riverwalk Terrace",
      "addr_housenumber": "400",
      "angle": 89.54363357272172
    },
    {
      "id": 229404,
      "geometry": "POINT (-95.990731 36.153112)",
      "poi_name": "Take 2",
      "osm_id": 4380649568,
      "amenity": "cafe",
      "description": "A resonance caf\u00e9",
      "opening_hours": "Mo-Fr 10:30-15:00",
      "website": "https://www.take2tulsa.com/",
      "addr_street": "South Main Street",
      "addr_housenumber": "309",
      "angle": 6.947293846697677
    },
    {
      "id": 221125,
      "geometry": "POINT (-95.958566 36.08011)",
      "poi_name": "Cricket & Fig",
      "osm_id": 10968151589,
      "amenity": "cafe",
      "website": "https://cricketandfig.com/menus.html",
      "angle": 37.47917531066845
    },
    {
      "id": 226099,
      "geometry": "POINT (-95.885711 36.043655)",
      "poi_name": "Le Louvre French Cafe",
      "osm_id": 11148688405,
      "amenity": "cafe",
      "cuisine": "french",
      "opening_hours": "Tu-Fr 10:00-16:00; Sa 09:30-16:00; Su 09:30-15:00",
      "website": "https://lelouvrefrenchcafe.com/",
      "phone": "(918) 286-6019",
      "addr_street": "South Memorial Drive",
      "angle": 79.93362076637916
    },
    {
      "id": 232613,
      "geometry": "POINT (-95.613131 36.311515)",
      "poi_name": "Dots Cafe",
      "osm_id": 4534885842,
      "amenity": "cafe",
      "phone": "+1 918 341 9718",
      "angle": 48.27347056693323
    },
    {
      "id": 232615,
      "geometry": "POINT (-95.987032 36.146667)",
      "poi_name": "Foolish Things Coffee Company",
      "osm_id": 4534900522,
      "amenity": "cafe",
      "opening_hours": "Mo-Fr 07:00-18:30; Sa,Su 08:00-15:30",
      "website": "http://www.foolishthingscoffee.com",
      "phone": "+1 918 857 2326",
      "addr_state": "OK",
      "addr_city": "Tulsa",
      "addr_postcode": "74119",
      "addr_street": "South Main Street",
      "addr_housenumber": "1001",
      "angle": 8.709052609099937
    },
    {
      "id": 238579,
      "geometry": "POINT (-96.11274 35.999132)",
      "poi_name": "CTX Coffee Co.",
      "osm_id": 5883286431,
      "amenity": "cafe",
      "cuisine": "coffee_shop",
      "website": "https://www.ctx.coffee/",
      "addr_state": "OK",
      "addr_city": "Sapulpa",
      "addr_postcode": "74066",
      "addr_street": "North Water Street",
      "addr_housenumber": "11",
      "angle": 252.32254280972109
    }
  ],
  "answer_type": "angle",
  "question_entities": {
    "[1]": {
      "main_category": "amenity",
      "sub_category": "cafe"
    },
    "[2]": {
      "distance": 50000,
      "text": "50 kilometers"
    },
    "[3]": {
      "main_category": "amenity",
      "sub_category": "hospital",
      "display_name": "Center For Orthopaedic Reconstruction And Excellence, Jenks, OK",
      "geo_wkt": "POINT (-96.009856 36.025821)",
      "poi": {
        "id": 182777,
        "geometry": "POINT (-96.009856 36.025821)",
        "poi_name": "Center For Orthopaedic Reconstruction And Excellence",
        "osm_id": 10904126879,
        "amenity": "hospital",
        "website": "https://corejenks.com",
        "phone": "+1 918 701 2300",
        "healthcare": "hospital",
        "addr_state": "OK",
        "addr_city": "Jenks",
        "addr_postcode": "74037",
        "addr_street": "West Main Street",
        "addr_housenumber": "3029"
      }
    }
  },
  "id": 1088,
  "type": "range+angle"
}