{
  "question": "What's the course towards an attraction from Wynmor Park, Scarsdale, NY within 120 kilometers?",
  "sql": "SELECT *, degrees(ST_Azimuth(ST_GeomFromText('POINT (-73.77351 40.986773)',4326)::geography, pois.geometry)) AS angle FROM pois\nWHERE ST_DWithin(pois.geometry, ST_GeomFromText('POINT (-73.77351 40.986773)',4326)::geography, 120000)\nAND tourism = 'attraction';\n",
  "answers": [
    {
      "id": 16,
      "geometry": "POINT (-74.247221 40.496348)",
      "poi_name": "The South Pole",
      "osm_id": 411499455,
      "tourism": "attraction",
      "angle": 216.45847026677797
    },
    {
      "id": 321,
      "geometry": "POINT (-74.135957 40.58252)",
      "poi_name": "Buck\u2019s Hollow",
      "osm_id": 8317327442,
      "tourism": "attraction",
      "angle": 214.39257436088937
    },
    {
      "id": 364,
      "geometry": "POINT (-74.139776 40.583771)",
      "poi_name": "Heyerdahl Ruins",
      "osm_id": 8336374091,
      "tourism": "attraction",
      "angle": 214.75655275880484
    },
    {
      "id": 480,
      "geometry": "POINT (-72.826 41.691958)",
      "poi_name": "Hospital Rock",
      "osm_id": 8402409770,
      "historic": "archaeological_site",
      "tourism": "attraction",
      "angle": 45.047900326213956
    },
    {
      "id": 642,
      "geometry": "POINT (-74.236828 41.123499)",
      "poi_name": "New Jersey Botanical Garden",
      "osm_id": 2626439478,
      "leisure": "garden",
      "tourism": "attraction",
      "website": "https://www.njbg.org/",
      "angle": 291.4502147088381
    },
    {
      "id": 725,
      "geometry": "POINT (-74.280344 40.766708)",
      "poi_name": "Amazing Asia",
      "osm_id": 2651819696,
      "tourism": "attraction",
      "angle": 240.3947704322903
    },
    {
      "id": 726,
      "geometry": "POINT (-74.27937 40.768502)",
      "poi_name": "Bear Country",
      "osm_id": 2651850472,
      "tourism": "attraction",
      "angle": 240.54855145308431
    },
    {
      "id": 727,
      "geometry": "POINT (-74.279866 40.767509)",
      "poi_name": "Animal Ambassadors",
      "osm_id": 2651850610,
      "tourism": "attraction",
      "angle": 240.46122078110284
    },
    {
      "id": 728,
      "geometry": "POINT (-74.278893 40.767545)",
      "poi_name": "Birds of Prey",
      "osm_id": 2651850641,
      "tourism": "attraction",
      "angle": 240.41751934003273
    },
    {
      "id": 729,
      "geometry": "POINT (-74.279772 40.766909)",
      "poi_name": "Australian Outback",
      "osm_id": 2651850801,
      "tourism": "attraction",
      "angle": 240.38931423342476
    },
    {
      "id": 752,
      "geometry": "POINT (-74.956664 40.900861)",
      "poi_name": "Legend of Jenny Jump",
      "osm_id": 2664343141,
      "tourism": "attraction",
      "angle": 264.91774761127994
    },
    {
      "id": 978,
      "geometry": "POINT (-73.946564 40.823794)",
      "poi_name": "La casa de los Tenenbaums",
      "osm_id": 2768171711,
      "tourism": "attraction",
      "addr_postcode": "10031",
      "addr_street": "Convent Avenue",
      "addr_housenumber": "339",
      "angle": 218.9118307925714
    },
    {
      "id": 1068,
      "geometry": "POINT (-73.845096 40.74291)",
      "poi_name": "Westinghouse Time Capsules",
      "osm_id": 2818398925,
      "tourism": "attraction",
      "wikidata": "Q1464514",
      "angle": 192.5867548388347
    },
    {
      "id": 1069,
      "geometry": "POINT (-73.849555 40.744037)",
      "poi_name": "Gates of Life",
      "osm_id": 2819328536,
      "tourism": "attraction",
      "angle": 193.40317910752265
    },
    {
      "id": 1221,
      "geometry": "POINT (-72.578575 41.509565)",
      "poi_name": "George Washington rock",
      "osm_id": 2903608744,
      "tourism": "attraction",
      "angle": 59.50662145891078
    },
    {
      "id": 2145,
      "geometry": "POINT (-73.971175 40.768115)",
      "poi_name": "Delacorte Musical Clock",
      "osm_id": 3278932286,
      "amenity": "clock",
      "historic": "yes",
      "tourism": "attraction",
      "website": "https://www.nycgovparks.org/parks/central-park/monuments/378",
      "wikidata": "Q43306957",
      "angle": 214.52069348013623
    },
    {
      "id": 2551,
      "geometry": "POINT (-72.942575 41.483031)",
      "poi_name": "Roaring Brook Falls",
      "osm_id": 497395192,
      "description": "Tallest waterfall in Connecticut.",
      "tourism": "attraction",
      "wikidata": "Q24192741",
      "angle": 51.37718519485624
    },
    {
      "id": 3218,
      "geometry": "POINT (-74.923734 40.717256)",
      "poi_name": "Hall Christmas Tree Farm",
      "osm_id": 10240300715,
      "tourism": "attraction",
      "phone": "+1 908 537 2056",
      "addr_state": "NJ",
      "addr_city": "Glen Gardner",
      "addr_postcode": "08826",
      "addr_street": "Red Mill Road",
      "addr_housenumber": "53",
      "angle": 253.2271170134976
    },
    {
      "id": 3270,
      "geometry": "POINT (-74.110544 40.594008)",
      "poi_name": "Jurassic Park",
      "osm_id": 5327546602,
      "tourism": "attraction",
      "website": "https://www.dnainfo.com/new-york/20120606/todt-hill/dinosaurs-dragons-transform-staten-island-home-into-fantasy-world",
      "addr_state": "NY",
      "addr_city": "Staten Island",
      "addr_postcode": "10304",
      "addr_street": "Todt Hill Road",
      "addr_housenumber": "724",
      "angle": 213.2220486725629
    },
    {
      "id": 3285,
      "geometry": "POINT (-74.037274 40.090859)",
      "poi_name": "Jenkinson's XD Dark Ride",
      "osm_id": 5337971808,
      "tourism": "attraction",
      "operator": "South Beach Arcade",
      "angle": 192.7450013203999
    },
    {
      "id": 3406,
      "geometry": "POINT (-73.575571 40.592059)",
      "poi_name": "US Army Corps of Engineers Survey Point",
      "osm_id": 5395644796,
      "tourism": "attraction",
      "angle": 159.07141834549
    },
    {
      "id": 3513,
      "geometry": "POINT (-74.003303 40.72269)",
      "poi_name": "Paul Nicklen Gallery",
      "osm_id": 5449742521,
      "tourism": "attraction",
      "opening_hours": "Mo-Su 12:00-19:00",
      "website": "http://www.paulnicklengallery.com",
      "phone": "+16468910042",
      "addr_postcode": "10013",
      "angle": 213.52783821106544
    },
    {
      "id": 3515,
      "geometry": "POINT (-73.849839 41.012013)",
      "poi_name": "House Of Sports",
      "osm_id": 5451202721,
      "tourism": "attraction",
      "opening_hours": "Mo-Su 09:00-22:00",
      "website": "https://www.houseofsportsny.com/",
      "addr_state": "NY",
      "addr_city": "Ardsley",
      "addr_postcode": "10502",
      "addr_street": "Elm Street",
      "addr_housenumber": "1",
      "angle": 293.6045195386109
    },
    {
      "id": 3565,
      "geometry": "POINT (-74.038603 40.743437)",
      "poi_name": "Frank Sinatra's Birthplace",
      "osm_id": 5468067617,
      "tourism": "attraction",
      "addr_state": "NJ",
      "addr_city": "Hoboken",
      "addr_street": "Monroe Street",
      "addr_housenumber": "415",
      "angle": 219.67916710782168
    },
    {
      "id": 3620,
      "geometry": "POINT (-74.008331 40.655947)",
      "poi_name": "Winter Flea + Smorgasburg",
      "osm_id": 5500391921,
      "tourism": "attraction",
      "opening_hours": "Sa-Su 10:00-17:00",
      "website": "https://brooklynflea.com/industry-city/",
      "addr_postcode": "11232",
      "addr_street": "37th Street",
      "addr_housenumber": "241",
      "angle": 208.41109158015817
    },
    {
      "id": 3649,
      "geometry": "POINT (-73.293368 41.715206)",
      "poi_name": "Peter's Forge",
      "osm_id": 5520344834,
      "tourism": "attraction",
      "angle": 26.2545068194859
    },
    {
      "id": 3744,
      "geometry": "POINT (-72.737257 41.453672)",
      "poi_name": "Washington Trail monument",
      "osm_id": 5577426389,
      "tourism": "attraction",
      "website": "https://patch.com/connecticut/durham/george-washington-actually-did-sleep-here",
      "angle": 58.83337757461057
    },
    {
      "id": 4118,
      "geometry": "POINT (-74.184844 40.390723)",
      "poi_name": "Holmdel Horn Antenna",
      "osm_id": 5685585294,
      "historic": "yes",
      "description": "At this site in 1964, Arno Penzias and Robert Wilson used this horn-shaped radio antenna and detected cosmic microwave background radiation, a significant discovery supporting the Big Bang theory.",
      "tourism": "attraction",
      "wikidata": "Q5883312",
      "angle": 207.84744445247765
    },
    {
      "id": 4280,
      "geometry": "POINT (-72.674224 41.404617)",
      "poi_name": "Dodge Dump Truck",
      "osm_id": 11199829975,
      "historic": "yes",
      "tourism": "attraction",
      "angle": 62.92599809504774
    },
    {
      "id": 4531,
      "geometry": "POINT (-73.861863 41.089752)",
      "poi_name": "Headless Horseman Bridge Sign",
      "osm_id": 11296863676,
      "tourism": "attraction",
      "website": "https://visitsleepyhollow.com/see/headless-horseman-bridge/",
      "angle": 327.0204350257039
    },
    {
      "id": 4751,
      "geometry": "POINT (-74.618446 41.016664)",
      "poi_name": "Frying Pan Trees",
      "osm_id": 11435097864,
      "tourism": "attraction",
      "angle": 272.9506798803634
    },
    {
      "id": 4782,
      "geometry": "POINT (-72.718784 41.375175)",
      "poi_name": "Bear Cave",
      "osm_id": 9611806080,
      "tourism": "attraction",
      "angle": 63.66789730013655
    },
    {
      "id": 5224,
      "geometry": "POINT (-74.065606 40.787368)",
      "poi_name": "truck",
      "osm_id": 9806480817,
      "tourism": "attraction",
      "angle": 228.12327496398476
    },
    {
      "id": 5263,
      "geometry": "POINT (-72.463103 41.348542)",
      "poi_name": "Stone Table",
      "osm_id": 9820334220,
      "tourism": "attraction",
      "angle": 69.50020423014601
    },
    {
      "id": 5578,
      "geometry": "POINT (-74.1126 41.111272)",
      "poi_name": "Town of Ramapo Challenger Learning Center",
      "osm_id": 821800837,
      "tourism": "attraction",
      "addr_postcode": "10901",
      "addr_street": "Rt. 59",
      "addr_housenumber": "225",
      "angle": 295.9841983077152
    },
    {
      "id": 5712,
      "geometry": "POINT (-74.790257 40.237677)",
      "poi_name": "House 6",
      "osm_id": 890660060,
      "tourism": "attraction",
      "angle": 226.2998335980257
    },
    {
      "id": 5713,
      "geometry": "POINT (-74.784697 40.235061)",
      "poi_name": "Houe 8",
      "osm_id": 890660074,
      "tourism": "attraction",
      "angle": 226.04168796468656
    },
    {
      "id": 6077,
      "geometry": "POINT (-73.483174 41.075611)",
      "poi_name": "Andrew Shaw Memorial Trust Scout Cabin",
      "osm_id": 1739472256,
      "tourism": "attraction",
      "angle": 67.90231319150993
    },
    {
      "id": 6549,
      "geometry": "POINT (-73.880656 40.847409)",
      "poi_name": "African Wild Dogs",
      "osm_id": 1852162771,
      "tourism": "attraction",
      "wheelchair": "yes",
      "angle": 210.28581624664017
    },
    {
      "id": 7017,
      "geometry": "POINT (-73.981599 40.573201)",
      "poi_name": "Endeavor",
      "osm_id": 8816101418,
      "tourism": "attraction",
      "fee": "yes",
      "website": "https://lunaparknyc.com/rides/soarin-eagle/",
      "angle": 200.99832143830793
    },
    {
      "id": 7018,
      "geometry": "POINT (-73.978701 40.573518)",
      "poi_name": "WindstarZ",
      "osm_id": 8816101455,
      "tourism": "attraction",
      "fee": "yes",
      "angle": 200.74517492229373
    },
    {
      "id": 7019,
      "geometry": "POINT (-73.97827 40.573675)",
      "poi_name": "Brooklyn Barge",
      "osm_id": 8816101474,
      "tourism": "attraction",
      "fee": "yes",
      "website": "https://lunaparknyc.com/rides/brooklyn-barge/",
      "angle": 200.71236849186417
    },
    {
      "id": 7020,
      "geometry": "POINT (-73.97872 40.573747)",
      "poi_name": "Speed Boat",
      "osm_id": 8816101476,
      "tourism": "attraction",
      "fee": "yes",
      "angle": 200.757363574707
    },
    {
      "id": 7021,
      "geometry": "POINT (-73.97826 40.573938)",
      "poi_name": "Coney Clipper",
      "osm_id": 8816101477,
      "tourism": "attraction",
      "angle": 200.72352469091868
    },
    {
      "id": 7022,
      "geometry": "POINT (-73.978437 40.573716)",
      "poi_name": "Seaside Swing",
      "osm_id": 8816101478,
      "tourism": "attraction",
      "angle": 200.72976209839112
    },
    {
      "id": 7023,
      "geometry": "POINT (-73.978274 40.573801)",
      "poi_name": "Magic Bikes",
      "osm_id": 8816101479,
      "tourism": "attraction",
      "fee": "yes",
      "angle": 200.71854462514156
    },
    {
      "id": 7024,
      "geometry": "POINT (-73.978444 40.574141)",
      "poi_name": "Coney Island Hang Glider",
      "osm_id": 8816101481,
      "tourism": "attraction",
      "angle": 200.74979510822047
    },
    {
      "id": 7025,
      "geometry": "POINT (-73.97943 40.573338)",
      "poi_name": "Happy Fishing",
      "osm_id": 8816101484,
      "tourism": "attraction",
      "fee": "yes",
      "angle": 200.8043771783665
    },
    {
      "id": 7026,
      "geometry": "POINT (-73.97921 40.573426)",
      "poi_name": "Samba Balloon Ride",
      "osm_id": 8816101486,
      "tourism": "attraction",
      "angle": 200.78805089864235
    },
    {
      "id": 7027,
      "geometry": "POINT (-73.979449 40.573861)",
      "poi_name": "Big Foot",
      "osm_id": 8816101497,
      "tourism": "attraction",
      "angle": 200.8300696354519
    },
    {
      "id": 7028,
      "geometry": "POINT (-73.979267 40.573882)",
      "poi_name": "Dizzy Dragons",
      "osm_id": 8816101498,
      "tourism": "attraction",
      "angle": 200.81421876031445
    },
    {
      "id": 7029,
      "geometry": "POINT (-73.979379 40.573757)",
      "poi_name": "Pepsi Pit Stop",
      "osm_id": 8816101500,
      "tourism": "attraction",
      "angle": 200.8188337565551
    },
    {
      "id": 7030,
      "geometry": "POINT (-73.979084 40.573764)",
      "poi_name": "Sea Serpent",
      "osm_id": 8816101533,
      "tourism": "attraction",
      "angle": 200.79182692112
    },
    {
      "id": 7031,
      "geometry": "POINT (-73.979204 40.573545)",
      "poi_name": "Jump Around Dune Buggy",
      "osm_id": 8816101534,
      "tourism": "attraction",
      "angle": 200.79296175364215
    },
    {
      "id": 7032,
      "geometry": "POINT (-73.979049 40.574607)",
      "poi_name": "Thunder Bolt",
      "osm_id": 8816101535,
      "tourism": "attraction",
      "angle": 200.82727874014336
    },
    {
      "id": 7037,
      "geometry": "POINT (-73.946465 40.747002)",
      "poi_name": "Historical landmark from 1877",
      "osm_id": 8818128217,
      "tourism": "attraction",
      "angle": 208.76157374076752
    },
    {
      "id": 7700,
      "geometry": "POINT (-74.58317 40.630212)",
      "poi_name": "Devil's Tree",
      "osm_id": 6371085634,
      "tourism": "attraction",
      "wikidata": "Q16931099",
      "angle": 240.16889470407523
    },
    {
      "id": 7769,
      "geometry": "POINT (-74.10878 40.72479)",
      "poi_name": "FlyNYON",
      "osm_id": 6390683685,
      "tourism": "attraction",
      "opening_hours": "24/7",
      "website": "https://flynyon.com/",
      "phone": "+1 855-696-6247",
      "addr_postcode": "07032",
      "addr_street": "John Miller way",
      "addr_housenumber": "78",
      "angle": 224.2867017893318
    },
    {
      "id": 7885,
      "geometry": "POINT (-74.4487 40.681303)",
      "poi_name": "Berkeley Aquatic Club",
      "osm_id": 6448766585,
      "tourism": "attraction",
      "angle": 239.44038591122538
    },
    {
      "id": 8085,
      "geometry": "POINT (-74.168228 41.811682)",
      "poi_name": "Pompey\u2019s Cave",
      "osm_id": 6557868185,
      "tourism": "attraction",
      "angle": 340.3165473902251
    },
    {
      "id": 8132,
      "geometry": "POINT (-73.936348 40.742815)",
      "poi_name": "Surreal Elevator",
      "osm_id": 6572266170,
      "tourism": "attraction",
      "angle": 206.92613575086034
    },
    {
      "id": 8133,
      "geometry": "POINT (-73.989679 40.685458)",
      "poi_name": "Mosaic House",
      "osm_id": 6572558955,
      "tourism": "attraction",
      "artwork_type": "mosaic",
      "angle": 208.65583004368438
    },
    {
      "id": 8316,
      "geometry": "POINT (-73.944396 40.808626)",
      "poi_name": "Taste Harlem Tour",
      "osm_id": 6622078088,
      "tourism": "attraction",
      "angle": 216.10553238007594
    },
    {
      "id": 8419,
      "geometry": "POINT (-73.581962 40.634243)",
      "poi_name": "Nautical Mile",
      "osm_id": 6689855285,
      "tourism": "attraction",
      "operator": "Village of Freeport",
      "addr_state": "NY",
      "addr_city": "Freeport",
      "addr_street": "Woodcleft Avenue",
      "angle": 157.50467051349648
    },
    {
      "id": 8513,
      "geometry": "POINT (-74.318271 40.031143)",
      "poi_name": "A-7 Corsair II",
      "osm_id": 8519572275,
      "historic": "aircraft",
      "tourism": "attraction",
      "wheelchair": "yes",
      "angle": 203.69135528363188
    },
    {
      "id": 8514,
      "geometry": "POINT (-74.318129 40.031)",
      "poi_name": "A-4 Skyhawk",
      "osm_id": 8519572276,
      "historic": "aircraft",
      "tourism": "attraction",
      "wheelchair": "yes",
      "angle": 203.68271258753515
    },
    {
      "id": 8515,
      "geometry": "POINT (-74.317908 40.030895)",
      "poi_name": "Lakehurst Air Park",
      "osm_id": 8519572277,
      "historic": "aircraft",
      "tourism": "attraction",
      "wheelchair": "yes",
      "angle": 203.67185455342377
    },
    {
      "id": 8685,
      "geometry": "POINT (-74.017472 40.673928)",
      "poi_name": "Street Car",
      "osm_id": 8621959370,
      "tourism": "attraction",
      "angle": 210.71907837280665
    },
    {
      "id": 8825,
      "geometry": "POINT (-73.380549 41.147474)",
      "poi_name": "Earthplace",
      "osm_id": 3539657604,
      "description": "The Nature Discovery Center",
      "tourism": "attraction",
      "wikidata": "Q5327248",
      "angle": 61.486727834219124
    },
    {
      "id": 8918,
      "geometry": "POINT (-73.972526 40.767631)",
      "poi_name": "Tropical Zone",
      "osm_id": 3572646793,
      "tourism": "attraction",
      "angle": 214.64431225824495
    },
    {
      "id": 8941,
      "geometry": "POINT (-72.83258 41.698979)",
      "poi_name": "Will Warren's Den",
      "osm_id": 3584654623,
      "tourism": "attraction",
      "angle": 44.56504723709725
    },
    {
      "id": 8958,
      "geometry": "POINT (-73.98388 40.753429)",
      "poi_name": "Le Carrousel",
      "osm_id": 3597257542,
      "tourism": "attraction",
      "wheelchair": "no",
      "fee": "yes",
      "website": "https://bryantpark.org/activities/le-carrousel",
      "angle": 214.45537721799928
    },
    {
      "id": 9020,
      "geometry": "POINT (-74.069899 39.943342)",
      "poi_name": "Tilt-A-Whirl",
      "osm_id": 3632109001,
      "tourism": "attraction",
      "angle": 192.3370363207753
    },
    {
      "id": 9023,
      "geometry": "POINT (-74.071372 39.942674)",
      "poi_name": "Go-Karts",
      "osm_id": 3632988946,
      "tourism": "attraction",
      "angle": 192.38889729656552
    },
    {
      "id": 9024,
      "geometry": "POINT (-72.585228 41.365708)",
      "poi_name": "Indian Caves",
      "osm_id": 3633067795,
      "tourism": "attraction",
      "angle": 66.72690455114741
    },
    {
      "id": 9030,
      "geometry": "POINT (-74.439981 40.134794)",
      "poi_name": "Harley Quinn Crazy Train",
      "osm_id": 3635967895,
      "tourism": "attraction",
      "wikidata": "Q13629857",
      "angle": 211.03790346161634
    },
    {
      "id": 9040,
      "geometry": "POINT (-73.143927 41.771324)",
      "poi_name": "Pinnacle Rock",
      "osm_id": 3641011930,
      "tourism": "attraction",
      "angle": 30.942184732182948
    },
    {
      "id": 9042,
      "geometry": "POINT (-73.267987 41.736668)",
      "poi_name": "Gagarin Grove",
      "osm_id": 3641210661,
      "tourism": "attraction",
      "angle": 26.7587142968816
    },
    {
      "id": 9484,
      "geometry": "POINT (-74.0053 40.732359)",
      "poi_name": "Friends Building",
      "osm_id": 3830610284,
      "tourism": "attraction",
      "addr_city": "New York",
      "addr_postcode": "10014",
      "addr_street": "Bedford Street",
      "addr_housenumber": "90",
      "angle": 214.74812515121243
    },
    {
      "id": 9575,
      "geometry": "POINT (-72.998372 41.719076)",
      "poi_name": "Tory's Den",
      "osm_id": 3891740160,
      "tourism": "attraction",
      "website": "https://www.courant.com/news/connecticut/hc-xpm-2009-05-03-hc-tory-den-burlington-wayto-artsunday-story.html",
      "angle": 38.319678525000526
    },
    {
      "id": 9975,
      "geometry": "POINT (-74.127859 41.244525)",
      "poi_name": "Bowling Rocks",
      "osm_id": 9085679869,
      "tourism": "attraction",
      "angle": 314.00165301637156
    },
    {
      "id": 10086,
      "geometry": "POINT (-73.48454 41.066567)",
      "poi_name": "Darien Arts Center",
      "osm_id": 6704224289,
      "tourism": "attraction",
      "angle": 69.87193515437875
    },
    {
      "id": 10087,
      "geometry": "POINT (-73.437362 41.064987)",
      "poi_name": "Rowayton Dog Park",
      "osm_id": 6704224386,
      "tourism": "attraction",
      "angle": 72.81056897660685
    },
    {
      "id": 10165,
      "geometry": "POINT (-72.882348 41.759592)",
      "poi_name": "Carousel",
      "osm_id": 6736498970,
      "tourism": "attraction",
      "angle": 40.68441777857496
    },
    {
      "id": 10166,
      "geometry": "POINT (-72.883563 41.760054)",
      "poi_name": "Kettles",
      "osm_id": 6736498971,
      "tourism": "attraction",
      "angle": 40.62909191297651
    },
    {
      "id": 10167,
      "geometry": "POINT (-72.882195 41.759904)",
      "poi_name": "Trolley Offices Sign",
      "osm_id": 6736498972,
      "tourism": "attraction",
      "angle": 40.677744577874776
    },
    {
      "id": 10168,
      "geometry": "POINT (-72.882952 41.760557)",
      "poi_name": "Swimming Pool",
      "osm_id": 6736498973,
      "tourism": "attraction",
      "angle": 40.62978587881148
    },
    {
      "id": 10169,
      "geometry": "POINT (-72.881543 41.760037)",
      "poi_name": "The Carrals",
      "osm_id": 6736498974,
      "tourism": "attraction",
      "angle": 40.69334189226619
    },
    {
      "id": 10616,
      "geometry": "POINT (-73.878584 40.847612)",
      "poi_name": "Somba Village",
      "osm_id": 6947008464,
      "tourism": "attraction",
      "angle": 209.83659744844377
    },
    {
      "id": 10574,
      "geometry": "POINT (-73.923605 40.835796)",
      "poi_name": "Joker Stairs",
      "osm_id": 6925436185,
      "tourism": "attraction",
      "wheelchair": "no",
      "opening_hours": "24/7",
      "wikidata": "Q74077989",
      "addr_state": "NY",
      "addr_postcode": "10452",
      "addr_street": "Shakespeare Avenue",
      "addr_housenumber": "1165",
      "angle": 217.07293214802576
    },
    {
      "id": 10606,
      "geometry": "POINT (-73.988312 40.721644)",
      "poi_name": "Jump into the Light VR Arcade",
      "osm_id": 6938593585,
      "tourism": "attraction",
      "angle": 211.66860129555886
    },
    {
      "id": 10617,
      "geometry": "POINT (-73.877915 40.845196)",
      "poi_name": "Nature Trek",
      "osm_id": 6947022597,
      "tourism": "attraction",
      "angle": 209.25720015018646
    },
    {
      "id": 10618,
      "geometry": "POINT (-73.877662 40.846844)",
      "poi_name": "Lions",
      "osm_id": 6947022610,
      "tourism": "attraction",
      "angle": 209.4839337453456
    },
    {
      "id": 10621,
      "geometry": "POINT (-74.000701 40.723252)",
      "poi_name": "King of Green Street",
      "osm_id": 6949759085,
      "tourism": "attraction",
      "addr_street": "Greene Street",
      "addr_housenumber": "72",
      "angle": 213.28335600231176
    },
    {
      "id": 10622,
      "geometry": "POINT (-74.002448 40.721178)",
      "poi_name": "Queen of Green Street",
      "osm_id": 6949759185,
      "tourism": "attraction",
      "addr_street": "Greene Street",
      "addr_housenumber": "28",
      "angle": 213.27953762089305
    },
    {
      "id": 10623,
      "geometry": "POINT (-73.998164 40.724126)",
      "poi_name": "Little Singer Building",
      "osm_id": 6949759186,
      "tourism": "attraction",
      "addr_street": "Broadway",
      "addr_housenumber": "561",
      "angle": 213.075076475191
    },
    {
      "id": 10646,
      "geometry": "POINT (-73.920876 40.644362)",
      "poi_name": "Wyckoff House Museum",
      "osm_id": 6973139686,
      "tourism": "attraction",
      "website": "https://wyckoffmuseum.org/",
      "wikidata": "Q12103268",
      "addr_street": "Clarendon Road",
      "addr_housenumber": "5816",
      "angle": 198.15461559403477
    },
    {
      "id": 10654,
      "geometry": "POINT (-74.099966 40.593461)",
      "poi_name": "Pierre Billiou House",
      "osm_id": 6981971285,
      "tourism": "attraction",
      "angle": 212.35214461902143
    },
    {
      "id": 10863,
      "geometry": "POINT (-73.923497 40.99586)",
      "poi_name": "Foundation Ruins",
      "osm_id": 8095110129,
      "tourism": "attraction",
      "angle": 274.6210066485626
    },
    {
      "id": 10922,
      "geometry": "POINT (-73.997602 40.718125)",
      "poi_name": "Italian flag painted Apartments",
      "osm_id": 8146801300,
      "tourism": "attraction",
      "angle": 212.422755824643
    },
    {
      "id": 11136,
      "geometry": "POINT (-74.313278 41.378727)",
      "poi_name": "Lego Big Shop",
      "osm_id": 9867028319,
      "tourism": "attraction",
      "angle": 314.04323890405595
    },
    {
      "id": 11137,
      "geometry": "POINT (-74.312713 41.378962)",
      "poi_name": "LEGO Rebuild The World",
      "osm_id": 9867028327,
      "tourism": "attraction",
      "angle": 314.0902900125198
    },
    {
      "id": 11138,
      "geometry": "POINT (-74.313761 41.380045)",
      "poi_name": "LEGO Dots",
      "osm_id": 9867029845,
      "tourism": "attraction",
      "angle": 314.11419702191876
    },
    {
      "id": 11139,
      "geometry": "POINT (-74.314251 41.380794)",
      "poi_name": "Ninja Training Camp",
      "osm_id": 9867029914,
      "tourism": "attraction",
      "angle": 314.1430400533936
    },
    {
      "id": 11176,
      "geometry": "POINT (-73.985015 40.739427)",
      "poi_name": "The Friends Experience",
      "osm_id": 9877458067,
      "tourism": "attraction",
      "website": "https://www.friendstheexperience.com/new-york/",
      "addr_postcode": "10010",
      "addr_street": "East 23rd Street",
      "addr_housenumber": "130",
      "angle": 213.06012326763366
    },
    {
      "id": 11406,
      "geometry": "POINT (-74.36188 41.723112)",
      "poi_name": "Overturned 1938 Truck",
      "osm_id": 9959927831,
      "tourism": "attraction",
      "angle": 329.1432311171191
    },
    {
      "id": 11540,
      "geometry": "POINT (-73.975109 40.573918)",
      "poi_name": "Sea Cliffs",
      "osm_id": 10003178777,
      "tourism": "attraction",
      "wheelchair": "yes",
      "angle": 200.42994804339267
    },
    {
      "id": 11937,
      "geometry": "POINT (-73.999292 40.717376)",
      "poi_name": "Explore Chinatown Information Kiosk",
      "osm_id": 6100997485,
      "tourism": "attraction",
      "wheelchair": "yes",
      "angle": 212.54591796745927
    },
    {
      "id": 12040,
      "geometry": "POINT (-72.585154 41.506836)",
      "poi_name": "Bible Rock",
      "osm_id": 6154509655,
      "tourism": "attraction",
      "angle": 59.50215896136005
    },
    {
      "id": 12053,
      "geometry": "POINT (-74.00687 40.713354)",
      "poi_name": "Site of the Beach Pneumatic Subway",
      "osm_id": 6163555085,
      "tourism": "attraction",
      "addr_street": "Murray Street",
      "addr_housenumber": "1",
      "angle": 213.0232656957584
    },
    {
      "id": 12082,
      "geometry": "POINT (-72.742453 40.871255)",
      "poi_name": "boulder",
      "osm_id": 6177534029,
      "tourism": "attraction",
      "angle": 98.06523507466984
    },
    {
      "id": 12083,
      "geometry": "POINT (-72.759118 40.866421)",
      "poi_name": "Exit sign",
      "osm_id": 6177534204,
      "tourism": "attraction",
      "angle": 98.55813766720485
    },
    {
      "id": 12136,
      "geometry": "POINT (-72.561164 41.520295)",
      "poi_name": "grindstone",
      "osm_id": 6206827446,
      "tourism": "attraction",
      "angle": 59.353123788851775
    },
    {
      "id": 12137,
      "geometry": "POINT (-73.965625 40.773329)",
      "poi_name": "Archibald\u2019s Townhouse",
      "osm_id": 6206843185,
      "tourism": "attraction",
      "angle": 214.40177505480804
    },
    {
      "id": 12226,
      "geometry": "POINT (-74.124394 41.038551)",
      "poi_name": "Abandoned Tractor",
      "osm_id": 6245586015,
      "description": "Old farm tractor along the nature trail at the Celery Farm nature preserve. Kids love it!",
      "tourism": "attraction",
      "angle": 281.13901445875376
    },
    {
      "id": 12298,
      "geometry": "POINT (-72.643177 41.498934)",
      "poi_name": "Middletown-Durham boundary stone",
      "osm_id": 6285172473,
      "tourism": "attraction",
      "angle": 58.65146676872244
    },
    {
      "id": 12506,
      "geometry": "POINT (-74.008628 40.745833)",
      "poi_name": "Golf",
      "osm_id": 7272017086,
      "tourism": "attraction",
      "angle": 216.60829633626008
    },
    {
      "id": 12854,
      "geometry": "POINT (-72.933374 41.626209)",
      "poi_name": "Libby's Lump",
      "osm_id": 3923712397,
      "tourism": "attraction",
      "information": "\"Libby's Lump\" is named after George Libby who was the Connecticut Forest and Park Association trail maintainer for the Tunxis Trail from about 1955 to about 1985.",
      "angle": 44.45624559943068
    },
    {
      "id": 12898,
      "geometry": "POINT (-73.026249 41.744508)",
      "poi_name": "Boynton Butterfly Garden",
      "osm_id": 3946031083,
      "tourism": "attraction",
      "angle": 36.36390345772701
    },
    {
      "id": 13071,
      "geometry": "POINT (-72.643153 41.481723)",
      "poi_name": "impassable",
      "osm_id": 4042789689,
      "tourism": "attraction",
      "angle": 59.51257499231519
    },
    {
      "id": 13248,
      "geometry": "POINT (-73.975712 40.573952)",
      "poi_name": "Glover's Reef",
      "osm_id": 4080257005,
      "tourism": "attraction",
      "wheelchair": "yes",
      "angle": 200.48752615998237
    },
    {
      "id": 13249,
      "geometry": "POINT (-73.975481 40.574101)",
      "poi_name": "Conservation Hall",
      "osm_id": 4080257006,
      "tourism": "attraction",
      "wheelchair": "yes",
      "angle": 200.472841426106
    },
    {
      "id": 13250,
      "geometry": "POINT (-73.974696 40.574614)",
      "poi_name": "Sharks",
      "osm_id": 4080272633,
      "tourism": "attraction",
      "wheelchair": "yes",
      "angle": 200.42290267727685
    },
    {
      "id": 13251,
      "geometry": "POINT (-73.979145 40.574041)",
      "poi_name": "Wonder Wheel",
      "osm_id": 4080306783,
      "tourism": "attraction",
      "fee": "yes",
      "wikidata": "Q1465377",
      "angle": 200.81021373057126
    },
    {
      "id": 13252,
      "geometry": "POINT (-73.979766 40.575275)",
      "poi_name": "Sideshows by the Seashore",
      "osm_id": 4080312833,
      "tourism": "attraction",
      "addr_state": "NY",
      "addr_city": "Brooklyn",
      "addr_postcode": "11224",
      "addr_street": "West 12th Street",
      "addr_housenumber": "1208",
      "angle": 200.92450248550787
    },
    {
      "id": 13720,
      "geometry": "POINT (-73.324268 41.610331)",
      "poi_name": "Indian village",
      "osm_id": 4137480110,
      "tourism": "attraction",
      "angle": 28.3680407169791
    },
    {
      "id": 13803,
      "geometry": "POINT (-73.877709 40.851644)",
      "poi_name": "New York City Zoo",
      "osm_id": 4146347192,
      "tourism": "attraction",
      "angle": 210.35838061212127
    },
    {
      "id": 13853,
      "geometry": "POINT (-73.335053 41.560469)",
      "poi_name": "Mine Hill National Historic Landmark",
      "osm_id": 4158082926,
      "description": "19th century ironworks and steel manufacturing",
      "tourism": "attraction",
      "angle": 29.822694154115982
    },
    {
      "id": 13924,
      "geometry": "POINT (-73.087937 41.639387)",
      "poi_name": "Rock House",
      "osm_id": 4188165912,
      "tourism": "attraction",
      "fee": "no",
      "angle": 38.155070118277315
    },
    {
      "id": 13991,
      "geometry": "POINT (-72.945686 41.741528)",
      "poi_name": "Devil's Kitchen",
      "osm_id": 4210016424,
      "tourism": "attraction",
      "angle": 39.29437410208694
    },
    {
      "id": 14152,
      "geometry": "POINT (-73.9788 40.758845)",
      "poi_name": "Rockefeller Center",
      "osm_id": 4236846689,
      "tourism": "attraction",
      "wheelchair": "yes",
      "angle": 214.42710470200666
    },
    {
      "id": 14153,
      "geometry": "POINT (-74.006996 40.742924)",
      "poi_name": "Chelsea Market",
      "osm_id": 4236846690,
      "tourism": "attraction",
      "opening_hours": "Mo-Sa 07:00-21:00; Su 08:00-20:00",
      "website": "https://www.chelseamarket.com/",
      "phone": "+12122436005",
      "addr_postcode": "10011",
      "addr_street": "9th Avenue",
      "addr_housenumber": "75",
      "angle": 216.09004009051674
    },
    {
      "id": 14631,
      "geometry": "POINT (-72.949458 41.759906)",
      "poi_name": "Kathy Ebersold plaque",
      "osm_id": 4673858864,
      "historic": "memorial",
      "tourism": "attraction",
      "angle": 38.488534425175516
    },
    {
      "id": 14789,
      "geometry": "POINT (-74.44057 40.147146)",
      "poi_name": "The Blue Lagoon",
      "osm_id": 4721476439,
      "tourism": "attraction",
      "angle": 211.42763196934618
    },
    {
      "id": 14752,
      "geometry": "POINT (-74.441365 40.135242)",
      "poi_name": "Fender Benders",
      "osm_id": 4709258063,
      "tourism": "attraction",
      "angle": 211.10385857965565
    },
    {
      "id": 14753,
      "geometry": "POINT (-74.441523 40.134946)",
      "poi_name": "Skyway",
      "osm_id": 4709258064,
      "tourism": "attraction",
      "wheelchair": "no",
      "angle": 211.1011814894256
    },
    {
      "id": 14754,
      "geometry": "POINT (-74.443962 40.135875)",
      "poi_name": "Batman The Ride",
      "osm_id": 4709270578,
      "tourism": "attraction",
      "angle": 211.22146411631735
    },
    {
      "id": 14755,
      "geometry": "POINT (-74.444275 40.135623)",
      "poi_name": "Nitro",
      "osm_id": 4709270580,
      "tourism": "attraction",
      "wikidata": "Q662497",
      "angle": 211.22592458439317
    },
    {
      "id": 14756,
      "geometry": "POINT (-74.444586 40.135525)",
      "poi_name": "Congo Rapids",
      "osm_id": 4709270581,
      "tourism": "attraction",
      "angle": 211.23484375410442
    },
    {
      "id": 14757,
      "geometry": "POINT (-74.442888 40.134984)",
      "poi_name": "Safari Tours",
      "osm_id": 4709289501,
      "tourism": "attraction",
      "angle": 211.15427416057344
    },
    {
      "id": 14758,
      "geometry": "POINT (-74.439004 40.135235)",
      "poi_name": "The Joker",
      "osm_id": 4710331145,
      "tourism": "attraction",
      "angle": 211.01355340841096
    },
    {
      "id": 14759,
      "geometry": "POINT (-74.438694 40.136531)",
      "poi_name": "Carousel",
      "osm_id": 4710355406,
      "tourism": "attraction",
      "official_name": "Patrina Williams Carousel",
      "angle": 211.03984344839404
    },
    {
      "id": 14760,
      "geometry": "POINT (-74.438089 40.13644)",
      "poi_name": "Enchanted Teacups",
      "osm_id": 4710355409,
      "tourism": "attraction",
      "angle": 211.0140915875019
    },
    {
      "id": 14762,
      "geometry": "POINT (-74.439751 40.137848)",
      "poi_name": "Great American Road Race",
      "osm_id": 4710915389,
      "tourism": "attraction",
      "angle": 211.11915869794115
    },
    {
      "id": 14763,
      "geometry": "POINT (-74.440019 40.139867)",
      "poi_name": "Superman - Ultimate Flight",
      "osm_id": 4710929558,
      "tourism": "attraction",
      "wheelchair": "yes",
      "angle": 211.1891786289504
    },
    {
      "id": 14764,
      "geometry": "POINT (-74.436508 40.13925)",
      "poi_name": "Kingda Ka",
      "osm_id": 4710945731,
      "tourism": "attraction",
      "wikidata": "Q830458",
      "angle": 211.0364445804294
    },
    {
      "id": 14765,
      "geometry": "POINT (-74.433384 40.140687)",
      "poi_name": "Zumanjaro: Drop of Doom",
      "osm_id": 4710945828,
      "tourism": "attraction",
      "angle": 210.95888897629348
    },
    {
      "id": 14771,
      "geometry": "POINT (-74.435246 40.13674)",
      "poi_name": "Saw Mill Log Flume",
      "osm_id": 4715502803,
      "tourism": "attraction",
      "angle": 210.9140325632803
    },
    {
      "id": 14772,
      "geometry": "POINT (-74.432717 40.138377)",
      "poi_name": "Bizzaro",
      "osm_id": 4715649736,
      "tourism": "attraction",
      "angle": 210.86507565627946
    },
    {
      "id": 14773,
      "geometry": "POINT (-74.434559 40.137347)",
      "poi_name": "Runaway Mine Train",
      "osm_id": 4715649737,
      "tourism": "attraction",
      "angle": 210.90554176598033
    },
    {
      "id": 14774,
      "geometry": "POINT (-74.434046 40.136876)",
      "poi_name": "Safari Off Road Adventure",
      "osm_id": 4715649738,
      "tourism": "attraction",
      "angle": 210.87201837761518
    },
    {
      "id": 14787,
      "geometry": "POINT (-74.437777 40.148302)",
      "poi_name": "The Four Winds",
      "osm_id": 4721448621,
      "tourism": "attraction",
      "angle": 211.35500077375744
    },
    {
      "id": 14788,
      "geometry": "POINT (-74.438861 40.147599)",
      "poi_name": "Discovery Bay",
      "osm_id": 4721466378,
      "tourism": "attraction",
      "angle": 211.37558065925532
    },
    {
      "id": 14790,
      "geometry": "POINT (-74.439443 40.146319)",
      "poi_name": "Calypso Springs",
      "osm_id": 4721478134,
      "tourism": "attraction",
      "angle": 211.35949613173815
    },
    {
      "id": 14791,
      "geometry": "POINT (-74.4398 40.145656)",
      "poi_name": "The Falls",
      "osm_id": 4721489315,
      "tourism": "attraction",
      "angle": 211.35333420303024
    },
    {
      "id": 14792,
      "geometry": "POINT (-74.439478 40.145859)",
      "poi_name": "Tornado",
      "osm_id": 4721489316,
      "tourism": "attraction",
      "angle": 211.3470702204325
    },
    {
      "id": 14793,
      "geometry": "POINT (-74.43954 40.145158)",
      "poi_name": "Bada Bing, Bada Bang, Bada Boom!",
      "osm_id": 4721489371,
      "tourism": "attraction",
      "angle": 211.32845697323998
    },
    {
      "id": 14794,
      "geometry": "POINT (-74.438878 40.144724)",
      "poi_name": "Hurricane Mountain",
      "osm_id": 4721489485,
      "tourism": "attraction",
      "angle": 211.29007426963815
    },
    {
      "id": 14795,
      "geometry": "POINT (-74.437548 40.144916)",
      "poi_name": "The Big Bambu and Reef Runner",
      "osm_id": 4721489638,
      "tourism": "attraction",
      "angle": 211.24470027788283
    },
    {
      "id": 15051,
      "geometry": "POINT (-72.361273 41.101941)",
      "poi_name": "watchtower",
      "osm_id": 4793262626,
      "tourism": "attraction",
      "angle": 83.38874995569857
    },
    {
      "id": 15086,
      "geometry": "POINT (-73.882328 40.877887)",
      "poi_name": "Parking",
      "osm_id": 4798951426,
      "tourism": "attraction",
      "angle": 217.19464078381793
    },
    {
      "id": 15179,
      "geometry": "POINT (-74.009925 40.70982)",
      "poi_name": "Barthman's Sidewalk Clock",
      "osm_id": 4822806224,
      "tourism": "attraction",
      "wheelchair": "yes",
      "addr_street": "Maiden Lane",
      "angle": 213.02914738025464
    },
    {
      "id": 15180,
      "geometry": "POINT (-74.004834 40.718499)",
      "poi_name": "Dream house",
      "osm_id": 4822806225,
      "tourism": "attraction",
      "opening_hours": "Th-Sa 14:00-00:00",
      "angle": 213.28975785522886
    },
    {
      "id": 15181,
      "geometry": "POINT (-73.994677 40.733199)",
      "poi_name": "La de forest house",
      "osm_id": 4822806226,
      "tourism": "attraction",
      "angle": 213.58481391290783
    },
    {
      "id": 15183,
      "geometry": "POINT (-73.988319 40.723324)",
      "poi_name": "Maison sur les toits",
      "osm_id": 4822836421,
      "tourism": "attraction",
      "angle": 211.8318952819834
    },
    {
      "id": 15218,
      "geometry": "POINT (-74.143347 40.858032)",
      "poi_name": "Brighton Asylum",
      "osm_id": 4830873565,
      "tourism": "attraction",
      "phone": "+1-201-716-2827",
      "addr_state": "NJ",
      "addr_city": "Passaic",
      "addr_postcode": "07055",
      "addr_street": "Brighton Avenue",
      "addr_housenumber": "2",
      "angle": 245.46925513401123
    },
    {
      "id": 15232,
      "geometry": "POINT (-74.665262 40.905192)",
      "poi_name": "Lakeside Billiards",
      "osm_id": 4833645028,
      "tourism": "attraction",
      "angle": 263.4126449210212
    },
    {
      "id": 15336,
      "geometry": "POINT (-72.739002 41.551149)",
      "poi_name": "1954",
      "osm_id": 4864472360,
      "historic": "wreck",
      "tourism": "attraction",
      "angle": 53.789802319491685
    },
    {
      "id": 15397,
      "geometry": "POINT (-72.897772 41.765932)",
      "poi_name": "1780s dam site",
      "osm_id": 4885485536,
      "tourism": "attraction",
      "angle": 39.96248791571726
    },
    {
      "id": 15558,
      "geometry": "POINT (-72.550476 41.368447)",
      "poi_name": "Lavender Pond Farm",
      "osm_id": 4937390222,
      "tourism": "attraction",
      "website": "https://www.lavenderpondfarm.com/",
      "addr_state": "CT",
      "addr_postcode": "06419",
      "addr_street": "Roast Meat Hill Road",
      "addr_housenumber": "318",
      "angle": 67.15556241338959
    },
    {
      "id": 15587,
      "geometry": "POINT (-74.507918 41.190145)",
      "poi_name": "Sprayground",
      "osm_id": 9392676337,
      "tourism": "attraction",
      "angle": 290.34440651151994
    },
    {
      "id": 15588,
      "geometry": "POINT (-74.507736 41.190073)",
      "poi_name": "Fishing Village",
      "osm_id": 9392676338,
      "tourism": "attraction",
      "angle": 290.3424139572749
    },
    {
      "id": 15590,
      "geometry": "POINT (-74.508348 41.189995)",
      "poi_name": "Cliff Jump",
      "osm_id": 9392769697,
      "tourism": "attraction",
      "angle": 290.32006842823154
    },
    {
      "id": 15591,
      "geometry": "POINT (-74.507342 41.187397)",
      "poi_name": "Surf Hill",
      "osm_id": 9392788841,
      "tourism": "attraction",
      "angle": 290.10792403294147
    },
    {
      "id": 15732,
      "geometry": "POINT (-74.198013 40.969877)",
      "poi_name": "American flag rock",
      "osm_id": 9484980187,
      "tourism": "attraction",
      "angle": 267.1328577550441
    },
    {
      "id": 15749,
      "geometry": "POINT (-73.226937 41.287846)",
      "poi_name": "Dynamite Storage Tunnel",
      "osm_id": 9501859909,
      "tourism": "attraction",
      "angle": 53.74311713695805
    },
    {
      "id": 15783,
      "geometry": "POINT (-72.849815 41.75793)",
      "poi_name": "Common Fence Section",
      "osm_id": 9520709742,
      "tourism": "attraction",
      "angle": 41.75485264989321
    },
    {
      "id": 16054,
      "geometry": "POINT (-74.002906 40.70575)",
      "poi_name": "South Street Seaport",
      "osm_id": 320948228,
      "tourism": "attraction",
      "wheelchair": "yes",
      "wikidata": "Q223000",
      "angle": 211.86891368958078
    },
    {
      "id": 16216,
      "geometry": "POINT (-73.89708 40.95371)",
      "poi_name": "Trevor Park",
      "osm_id": 357593347,
      "leisure": "park",
      "tourism": "attraction",
      "angle": 250.59668113951162
    },
    {
      "id": 16222,
      "geometry": "POINT (-73.64337 41.202934)",
      "poi_name": "Bedford Village Historic District",
      "osm_id": 357608348,
      "historic": "district",
      "tourism": "attraction",
      "wikidata": "Q4879212",
      "angle": 24.444451754451386
    },
    {
      "id": 16227,
      "geometry": "POINT (-74.086725 41.752137)",
      "poi_name": "Huguenot Street Historic District",
      "osm_id": 357647640,
      "leisure": "park",
      "historic": "district",
      "tourism": "attraction",
      "wikidata": "Q5934720",
      "angle": 342.96969874389805
    },
    {
      "id": 16385,
      "geometry": "POINT (-73.208767 41.640748)",
      "poi_name": "Bellamy-Ferriday Garden",
      "osm_id": 359280996,
      "leisure": "park",
      "tourism": "attraction",
      "angle": 32.881545781304304
    },
    {
      "id": 16386,
      "geometry": "POINT (-73.207901 41.639347)",
      "poi_name": "Bethlehem Green Historic District",
      "osm_id": 359280999,
      "historic": "district",
      "tourism": "attraction",
      "angle": 32.97797284074165
    },
    {
      "id": 17777,
      "geometry": "POINT (-74.002148 40.733801)",
      "poi_name": "Stonewall Inn",
      "osm_id": 368043598,
      "amenity": "bar",
      "tourism": "attraction",
      "wheelchair": "limited",
      "sport": "billiards",
      "website": "https://thestonewallinnnyc.com/",
      "wikidata": "Q1261362",
      "addr_state": "NY",
      "addr_city": "New York",
      "addr_postcode": "10014",
      "addr_street": "Christopher Street",
      "addr_housenumber": "53",
      "angle": 214.53243122570115
    },
    {
      "id": 18339,
      "geometry": "POINT (-73.053648 41.887278)",
      "poi_name": "4 towns meet",
      "osm_id": 377976906,
      "tourism": "attraction",
      "angle": 30.792041911414447
    },
    {
      "id": 19133,
      "geometry": "POINT (-73.989653 40.741072)",
      "poi_name": "Flatiron District",
      "osm_id": 2517056822,
      "tourism": "attraction",
      "wikidata": "Q1427377",
      "addr_postcode": "10010",
      "angle": 213.80783781212708
    },
    {
      "id": 19154,
      "geometry": "POINT (-74.033915 40.71202)",
      "poi_name": "Colgate Clock",
      "osm_id": 2525734185,
      "amenity": "clock",
      "historic": "yes",
      "tourism": "attraction",
      "wikidata": "Q1108243",
      "angle": 215.82762863102624
    },
    {
      "id": 19747,
      "geometry": "POINT (-72.713597 41.28895)",
      "poi_name": "Dinosaur Rock",
      "osm_id": 10869635604,
      "tourism": "attraction",
      "angle": 68.99012465668767
    },
    {
      "id": 20034,
      "geometry": "POINT (-73.987894 40.43301)",
      "poi_name": "Nike Missile",
      "osm_id": 7828332601,
      "tourism": "attraction",
      "angle": 196.48478103113823
    },
    {
      "id": 20035,
      "geometry": "POINT (-73.987536 40.433138)",
      "poi_name": "Nike Missile",
      "osm_id": 7828332602,
      "tourism": "attraction",
      "angle": 196.4623651582793
    },
    {
      "id": 20525,
      "geometry": "POINT (-73.878354 40.852968)",
      "poi_name": "Sea Lions",
      "osm_id": 1190684483,
      "tourism": "attraction",
      "wheelchair": "yes",
      "angle": 210.75950274915144
    },
    {
      "id": 20683,
      "geometry": "POINT (-74.438156 40.137641)",
      "poi_name": "Games Square",
      "osm_id": 1215847988,
      "tourism": "attraction",
      "wheelchair": "yes",
      "angle": 211.05204408830974
    },
    {
      "id": 20786,
      "geometry": "POINT (-73.972756 40.767998)",
      "poi_name": "Tortoise",
      "osm_id": 1240900810,
      "tourism": "attraction",
      "wheelchair": "yes",
      "operator": "Wildlife Conservation Society",
      "angle": 214.7202483442271
    },
    {
      "id": 20787,
      "geometry": "POINT (-73.971606 40.768372)",
      "poi_name": "Seal",
      "osm_id": 1240900824,
      "tourism": "attraction",
      "wheelchair": "yes",
      "operator": "Wildlife Conservation Society",
      "angle": 214.6104789595324
    },
    {
      "id": 20788,
      "geometry": "POINT (-73.971334 40.768196)",
      "poi_name": "Puffin",
      "osm_id": 1240900847,
      "tourism": "attraction",
      "operator": "Wildlife Conservation Society",
      "angle": 214.55212873652016
    },
    {
      "id": 20789,
      "geometry": "POINT (-73.971759 40.767819)",
      "poi_name": "California Sea Lion",
      "osm_id": 1240900912,
      "tourism": "attraction",
      "wheelchair": "yes",
      "operator": "Wildlife Conservation Society",
      "angle": 214.56368963677045
    },
    {
      "id": 20790,
      "geometry": "POINT (-73.971457 40.76833)",
      "poi_name": "Gentoo Penguin",
      "osm_id": 1240900960,
      "tourism": "attraction",
      "operator": "Wildlife Conservation Society",
      "angle": 214.58522303033362
    },
    {
      "id": 20791,
      "geometry": "POINT (-73.971913 40.768411)",
      "poi_name": "Grizzly Bear",
      "osm_id": 1240900963,
      "tourism": "attraction",
      "wheelchair": "limited",
      "operator": "Wildlife Conservation Society",
      "angle": 214.65689355923772
    },
    {
      "id": 20792,
      "geometry": "POINT (-73.972311 40.76818)",
      "poi_name": "Snow Monkey",
      "osm_id": 1240901027,
      "tourism": "attraction",
      "operator": "Wildlife Conservation Society",
      "angle": 214.68240491945372
    },
    {
      "id": 20793,
      "geometry": "POINT (-73.972785 40.768291)",
      "poi_name": "Red Panda",
      "osm_id": 1240901089,
      "tourism": "attraction",
      "wheelchair": "yes",
      "operator": "Wildlife Conservation Society",
      "angle": 214.75996593667617
    },
    {
      "id": 20794,
      "geometry": "POINT (-73.972649 40.768643)",
      "poi_name": "Snow Leopard",
      "osm_id": 1240901124,
      "tourism": "attraction",
      "angle": 214.78481642956515
    },
    {
      "id": 21501,
      "geometry": "POINT (-74.216098 40.557154)",
      "poi_name": "Staten Island Boat Graveyard",
      "osm_id": 10289645209,
      "tourism": "attraction",
      "angle": 218.21244595984032
    },
    {
      "id": 22486,
      "geometry": "POINT (-73.964896 40.664772)",
      "poi_name": "Nest",
      "osm_id": 7103394955,
      "tourism": "attraction",
      "angle": 204.36140750071814
    },
    {
      "id": 22224,
      "geometry": "POINT (-74.061082 40.001875)",
      "poi_name": "The Dancing Crab",
      "osm_id": 608975109,
      "tourism": "attraction",
      "shop": "department_store",
      "addr_city": "Normandy Beach",
      "addr_postcode": "08739",
      "addr_street": "559 State Route 35",
      "angle": 192.659846589248
    },
    {
      "id": 22225,
      "geometry": "POINT (-74.059149 40.107405)",
      "poi_name": "Coastal Living LLC\u200e",
      "osm_id": 608975837,
      "tourism": "attraction",
      "shop": "department_store",
      "phone": "(732) 292-1866\u200e",
      "addr_state": "NJ",
      "addr_city": "Brielle",
      "addr_street": "605 Higgins Avenue",
      "angle": 194.009714289977
    },
    {
      "id": 22487,
      "geometry": "POINT (-73.96482 40.664735)",
      "poi_name": "Spider Web",
      "osm_id": 7103394956,
      "tourism": "attraction",
      "angle": 204.3503846888185
    },
    {
      "id": 22844,
      "geometry": "POINT (-74.065971 40.896363)",
      "poi_name": "New York, Susquehanna and Western Railroad ALCO Type S-2 Locomotive",
      "osm_id": 4950158319,
      "historic": "locomotive",
      "tourism": "attraction",
      "wikidata": "Q7012958",
      "angle": 247.91633626275546
    },
    {
      "id": 22626,
      "geometry": "POINT (-74.009164 40.742448)",
      "poi_name": "Pier 55",
      "osm_id": 7181779686,
      "tourism": "attraction",
      "wheelchair": "yes",
      "addr_state": "NY",
      "addr_city": "New York",
      "addr_street": "Hudson River Greenway",
      "addr_housenumber": "55",
      "angle": 216.28988046658387
    },
    {
      "id": 22637,
      "geometry": "POINT (-72.678685 41.433846)",
      "poi_name": "Selectmen's Stones",
      "osm_id": 7188844429,
      "tourism": "attraction",
      "website": "https://davidkleff.typepad.com/home/2017/01/selectmens-stones-new-england-trail-haibun.html",
      "angle": 61.23811610561661
    },
    {
      "id": 22660,
      "geometry": "POINT (-73.368515 41.275309)",
      "poi_name": "3-town marker",
      "osm_id": 7200989647,
      "historic": "boundary_stone",
      "description": "three towns of easton, redding, and weston",
      "tourism": "attraction",
      "angle": 46.569238104388106
    },
    {
      "id": 22742,
      "geometry": "POINT (-73.815966 40.735156)",
      "poi_name": "Welcome Center",
      "osm_id": 7237447538,
      "tourism": "attraction",
      "operator": "Queens College",
      "angle": 187.31397382969408
    },
    {
      "id": 22756,
      "geometry": "POINT (-74.442026 40.134644)",
      "poi_name": "Skull Mountain",
      "osm_id": 4945023343,
      "tourism": "attraction",
      "wikidata": "Q954290",
      "angle": 211.11144947755224
    },
    {
      "id": 22757,
      "geometry": "POINT (-74.438249 40.139807)",
      "poi_name": "Green Lantern",
      "osm_id": 4945023356,
      "tourism": "attraction",
      "wheelchair": "yes",
      "wikidata": "Q693862",
      "angle": 211.11960725810752
    },
    {
      "id": 22758,
      "geometry": "POINT (-74.436171 40.138184)",
      "poi_name": "Plaza Games",
      "osm_id": 4945023403,
      "tourism": "attraction",
      "angle": 210.99203603454353
    },
    {
      "id": 22759,
      "geometry": "POINT (-74.434542 40.138802)",
      "poi_name": "El Toro",
      "osm_id": 4945023404,
      "tourism": "attraction",
      "wikidata": "Q1324667",
      "angle": 210.94771564824913
    },
    {
      "id": 22760,
      "geometry": "POINT (-74.434206 40.126621)",
      "poi_name": "Soaring Eagle",
      "osm_id": 4945033503,
      "tourism": "attraction",
      "angle": 210.57947771651348
    },
    {
      "id": 22998,
      "geometry": "POINT (-74.012417 40.691458)",
      "poi_name": "Governor's Island Kayacking",
      "osm_id": 4991344748,
      "description": "Established in 1994, the Downtown Boathouse is an all-volunteer nonprofit organization dedicated to providing free public access to the harbor in New York City through our kayaking programs.",
      "tourism": "attraction",
      "operator": "Downtown Boathouse",
      "sport": "canoeing",
      "website": "https://www.downtownboathouse.org/",
      "addr_state": "NY",
      "addr_city": "New York",
      "addr_street": "Pier 101",
      "angle": 211.64485879977101
    },
    {
      "id": 23052,
      "geometry": "POINT (-73.990322 40.743693)",
      "poi_name": "Chelsea Flea Market",
      "osm_id": 5016404328,
      "tourism": "attraction",
      "wheelchair": "yes",
      "angle": 214.17391257774983
    },
    {
      "id": 22971,
      "geometry": "POINT (-73.679678 41.841231)",
      "poi_name": "wings castle",
      "osm_id": 4986002322,
      "tourism": "attraction",
      "addr_state": "NY",
      "addr_city": "Millbrook",
      "addr_postcode": "12545",
      "addr_street": "Bangall Road",
      "addr_housenumber": "717",
      "angle": 4.694747994599905
    },
    {
      "id": 23058,
      "geometry": "POINT (-73.947406 40.823035)",
      "poi_name": "Original brown stone houses",
      "osm_id": 5019124321,
      "tourism": "attraction",
      "addr_street": "Convent Avenue",
      "angle": 218.91791022065144
    },
    {
      "id": 23068,
      "geometry": "POINT (-73.999138 40.222484)",
      "poi_name": "Madame Marie's",
      "osm_id": 5023206165,
      "tourism": "attraction",
      "angle": 192.75400094002313
    },
    {
      "id": 23431,
      "geometry": "POINT (-73.985655 40.748327)",
      "poi_name": "NY Skyride",
      "osm_id": 5190610589,
      "tourism": "attraction",
      "website": "skyride.com",
      "phone": "+1 212-279-9777",
      "addr_state": "NY",
      "addr_city": "New York",
      "addr_postcode": "10118",
      "addr_street": "5th Avenue",
      "addr_housenumber": "350",
      "angle": 214.1047198541708
    },
    {
      "id": 23105,
      "geometry": "POINT (-73.998325 40.69563)",
      "poi_name": "Brooklyn Heights Promenade",
      "osm_id": 5039268173,
      "tourism": "attraction",
      "wikidata": "Q15205111",
      "angle": 210.46203784749878
    },
    {
      "id": 23127,
      "geometry": "POINT (-73.972169 40.361483)",
      "poi_name": "Seabright Beach",
      "osm_id": 5045576821,
      "tourism": "attraction",
      "angle": 193.66301999470357
    },
    {
      "id": 23143,
      "geometry": "POINT (-73.575969 41.496576)",
      "poi_name": "Watchtower Educational Center",
      "osm_id": 5049752024,
      "amenity": "place_of_worship",
      "tourism": "attraction",
      "phone": "+1 (845) 306-1000",
      "addr_state": "NY",
      "addr_postcode": "12563",
      "addr_street": "Watchtower Drive",
      "addr_housenumber": "100",
      "angle": 16.237745618944043
    },
    {
      "id": 23386,
      "geometry": "POINT (-74.053112 40.869207)",
      "poi_name": "Urban Air Trampoline & Adventure Park",
      "osm_id": 5159110696,
      "leisure": "playground",
      "description": "Trampoline Park in South Hackensack.",
      "tourism": "attraction",
      "operator": "Urban Air LLC",
      "website": "https://www.urbanairtrampolinepark.com/trampoline-park-locations/south-hackensack-nj/",
      "phone": "+1-201- 212-6454",
      "addr_state": "NJ",
      "addr_city": "South Hackensack",
      "addr_postcode": "07606",
      "addr_street": "Wesley Street",
      "addr_housenumber": "69",
      "angle": 241.0878971181478
    },
    {
      "id": 23573,
      "geometry": "POINT (-73.991113 40.754946)",
      "poi_name": "The Ride",
      "osm_id": 5258640021,
      "tourism": "attraction",
      "phone": "2122210853",
      "angle": 215.5420595785842
    },
    {
      "id": 23461,
      "geometry": "POINT (-73.983575 40.772556)",
      "poi_name": "Free Public Stargazing",
      "osm_id": 5214014521,
      "tourism": "attraction",
      "website": "https://www.aaa.org/",
      "angle": 216.72868360501025
    },
    {
      "id": 23462,
      "geometry": "POINT (-73.971765 40.767841)",
      "poi_name": "Sea Lions",
      "osm_id": 5214014522,
      "tourism": "attraction",
      "angle": 214.56725295650963
    },
    {
      "id": 23466,
      "geometry": "POINT (-74.005668 40.717463)",
      "poi_name": "Textile building",
      "osm_id": 5215246721,
      "tourism": "attraction",
      "angle": 213.2833840802967
    },
    {
      "id": 24616,
      "geometry": "POINT (-74.280924 40.766371)",
      "poi_name": "African Adventure",
      "osm_id": 11139450648,
      "tourism": "attraction",
      "angle": 240.3855350577217
    },
    {
      "id": 23924,
      "geometry": "POINT (-74.586599 40.905432)",
      "poi_name": "13th Hour Haunted House",
      "osm_id": 9201376625,
      "tourism": "attraction",
      "operator": "13th Hour Haunted House",
      "website": "https://13thhour.com/",
      "addr_state": "NJ",
      "addr_city": "Wharton",
      "addr_postcode": "07885",
      "addr_street": "West Dewey Avenue",
      "addr_housenumber": "105",
      "angle": 262.7505017735753
    },
    {
      "id": 24089,
      "geometry": "POINT (-73.84141 40.877863)",
      "poi_name": "Tillotson Steps",
      "osm_id": 9308561248,
      "tourism": "attraction",
      "angle": 205.32769809072283
    },
    {
      "id": 24284,
      "geometry": "POINT (-74.00946 40.747686)",
      "poi_name": "The Lighthouse",
      "osm_id": 10994970505,
      "tourism": "attraction",
      "addr_postcode": "10011",
      "addr_street": "Chelsea Piers",
      "addr_housenumber": "61",
      "angle": 216.91715148974174
    },
    {
      "id": 24675,
      "geometry": "POINT (-73.16579 41.456905)",
      "poi_name": "Millstone",
      "osm_id": 11165760526,
      "tourism": "attraction",
      "angle": 44.104143825235
    },
    {
      "id": 24676,
      "geometry": "POINT (-73.165457 41.458277)",
      "poi_name": "Millstone",
      "osm_id": 11165760883,
      "tourism": "attraction",
      "angle": 44.036013165486146
    },
    {
      "id": 24540,
      "geometry": "POINT (-73.987203 40.749381)",
      "poi_name": "Harry Potter The Exhibition",
      "osm_id": 11105608570,
      "tourism": "attraction",
      "website": "https://harrypotterexhibition.com",
      "shop": "gift",
      "addr_postcode": "10001",
      "addr_street": "West 34th Street",
      "addr_housenumber": "50",
      "angle": 214.4166652100791
    },
    {
      "id": 24585,
      "geometry": "POINT (-74.668077 40.330194)",
      "poi_name": "Pond dialogue",
      "osm_id": 11121833618,
      "description": "Spot from Oppenheimer movie at which the famous dialogue of J. R. Oppenheimer (played by Cillian Murphy) and Albert Einstein (Tom Conti) took place",
      "tourism": "attraction",
      "angle": 226.34894354345622
    },
    {
      "id": 24640,
      "geometry": "POINT (-74.28017 40.768195)",
      "poi_name": "Great Plains",
      "osm_id": 11153372131,
      "tourism": "attraction",
      "angle": 240.55314845633615
    },
    {
      "id": 24719,
      "geometry": "POINT (-73.982038 41.918106)",
      "poi_name": "Hudson River Cruises",
      "osm_id": 11180498537,
      "tourism": "attraction",
      "opening_hours": "Mo-Su 08:00-17:00",
      "website": "https://www.hudsonrivercruises.com/",
      "phone": "+18453404700",
      "addr_postcode": "12401",
      "addr_street": "East Strand Street",
      "addr_housenumber": "1",
      "angle": 350.5071082255302
    },
    {
      "id": 24641,
      "geometry": "POINT (-74.278663 40.767436)",
      "poi_name": "Big Cat Country",
      "osm_id": 11153372132,
      "tourism": "attraction",
      "angle": 240.39390237511887
    },
    {
      "id": 24768,
      "geometry": "POINT (-73.992152 40.724241)",
      "poi_name": "Liz Christy Garden",
      "osm_id": 4314829890,
      "tourism": "attraction",
      "wikidata": "Q6660076",
      "angle": 212.37842086088355
    },
    {
      "id": 24825,
      "geometry": "POINT (-73.987592 40.760819)",
      "poi_name": "Sightseeing Pass, LLC",
      "osm_id": 4333671794,
      "tourism": "attraction",
      "angle": 215.79306792095403
    },
    {
      "id": 24779,
      "geometry": "POINT (-73.992454 40.72928)",
      "poi_name": "Colonnade row",
      "osm_id": 4319650089,
      "tourism": "attraction",
      "wikidata": "Q8348030",
      "angle": 212.91718605889105
    },
    {
      "id": 24794,
      "geometry": "POINT (-73.985012 40.727346)",
      "poi_name": "Couv Led Zepp 5e album",
      "osm_id": 4324579690,
      "tourism": "attraction",
      "angle": 211.82664834852068
    },
    {
      "id": 24732,
      "geometry": "POINT (-73.997566 40.699556)",
      "poi_name": "Kayak Brooklyn",
      "osm_id": 4305803394,
      "tourism": "attraction",
      "angle": 210.71661297700558
    },
    {
      "id": 24875,
      "geometry": "POINT (-73.998472 40.715626)",
      "poi_name": "Chinatown",
      "osm_id": 4351547190,
      "tourism": "attraction",
      "angle": 212.284090387957
    },
    {
      "id": 25226,
      "geometry": "POINT (-73.990717 40.743608)",
      "poi_name": "Cocktail Kingdom",
      "osm_id": 4425455889,
      "tourism": "attraction",
      "angle": 214.2133187330197
    },
    {
      "id": 25094,
      "geometry": "POINT (-73.624413 41.022246)",
      "poi_name": "Cavalier Galleries, Inc.",
      "osm_id": 4396890889,
      "tourism": "attraction",
      "opening_hours": "Mo-Sa 10:30-18:00; Su 12:00-17:00",
      "website": "https://www.cavaliergalleries.com/",
      "phone": "2038693664",
      "addr_state": "CT",
      "addr_postcode": "06830",
      "addr_street": "Greenwich Avenue",
      "addr_housenumber": "405",
      "angle": 72.51536401893355
    },
    {
      "id": 25299,
      "geometry": "POINT (-74.002303 40.717739)",
      "poi_name": "Cortlandt Alley",
      "osm_id": 4441423089,
      "tourism": "attraction",
      "angle": 212.92684609573766
    },
    {
      "id": 25374,
      "geometry": "POINT (-74.002817 40.733584)",
      "poi_name": "Greenwich Village",
      "osm_id": 4470028591,
      "tourism": "attraction",
      "wikidata": "Q205380",
      "angle": 214.58794401397438
    },
    {
      "id": 25931,
      "geometry": "POINT (-74.576389 40.361847)",
      "poi_name": "Sunset Views",
      "osm_id": 5744513374,
      "tourism": "attraction",
      "addr_state": "NJ",
      "addr_city": "South Brunswick",
      "addr_postcode": "08852",
      "addr_street": "Perrine Road",
      "addr_housenumber": "100",
      "angle": 224.63004246720152
    },
    {
      "id": 25554,
      "geometry": "POINT (-74.549051 40.70684)",
      "poi_name": "Basking Ridge Oak Tree",
      "osm_id": 4539867979,
      "tourism": "attraction",
      "wikidata": "Q105883603",
      "angle": 244.83105940734663
    },
    {
      "id": 25668,
      "geometry": "POINT (-74.00353 40.717227)",
      "poi_name": "American Icon",
      "osm_id": 4573225230,
      "tourism": "attraction",
      "addr_street": "Broadway",
      "addr_housenumber": "360",
      "angle": 213.0174390193907
    },
    {
      "id": 25629,
      "geometry": "POINT (-73.40241 41.153884)",
      "poi_name": "Creepy old car in the woods",
      "osm_id": 4559436192,
      "tourism": "attraction",
      "angle": 59.1243180168722
    },
    {
      "id": 25932,
      "geometry": "POINT (-75.01383 41.121377)",
      "poi_name": "Peter's Corners",
      "osm_id": 5744516148,
      "tourism": "attraction",
      "angle": 278.56554739616007
    },
    {
      "id": 26173,
      "geometry": "POINT (-73.587987 41.734226)",
      "poi_name": "curved outcropping",
      "osm_id": 5800056306,
      "tourism": "attraction",
      "angle": 10.530944518478982
    },
    {
      "id": 26022,
      "geometry": "POINT (-73.973945 40.761113)",
      "poi_name": "Anton Kern Gallery",
      "osm_id": 5763751554,
      "tourism": "attraction",
      "website": "https://antonkerngallery.com/",
      "angle": 214.05403260263148
    },
    {
      "id": 26174,
      "geometry": "POINT (-73.590043 41.732467)",
      "poi_name": "dim path continues",
      "osm_id": 5800056319,
      "tourism": "attraction",
      "angle": 10.441169599894232
    },
    {
      "id": 26176,
      "geometry": "POINT (-73.588935 41.73809)",
      "poi_name": "Dover Stone Church",
      "osm_id": 5800056400,
      "tourism": "attraction",
      "angle": 10.42503084563197
    },
    {
      "id": 26517,
      "geometry": "POINT (-73.787269 40.653271)",
      "poi_name": "JFK",
      "osm_id": 5915194224,
      "tourism": "attraction",
      "angle": 181.79961198602675
    },
    {
      "id": 26130,
      "geometry": "POINT (-73.892844 40.823888)",
      "poi_name": "I Love the Bronx mural",
      "osm_id": 5787313954,
      "tourism": "attraction",
      "angle": 209.10633259149702
    },
    {
      "id": 26131,
      "geometry": "POINT (-73.897751 40.821186)",
      "poi_name": "Big Pun mural",
      "osm_id": 5787341153,
      "tourism": "attraction",
      "angle": 209.69226335216044
    },
    {
      "id": 26136,
      "geometry": "POINT (-72.729615 40.921172)",
      "poi_name": "Splish Splash",
      "osm_id": 5787785029,
      "tourism": "attraction",
      "angle": 94.39617038506329
    },
    {
      "id": 26336,
      "geometry": "POINT (-73.983859 40.765064)",
      "poi_name": "Spyscape",
      "osm_id": 5849724991,
      "tourism": "attraction",
      "wheelchair": "yes",
      "internet_access": "wlan",
      "wikidata": "Q65082668",
      "angle": 215.82848595836424
    },
    {
      "id": 26365,
      "geometry": "POINT (-73.861612 41.089068)",
      "poi_name": "Headless Horseman Statue",
      "osm_id": 5863765185,
      "tourism": "attraction",
      "website": "https://visitsleepyhollow.com/see/headless-horseman-statue/",
      "angle": 326.9202233043849
    },
    {
      "id": 26524,
      "geometry": "POINT (-73.99815 40.714413)",
      "poi_name": "Bloody Angle",
      "osm_id": 5919381986,
      "tourism": "attraction",
      "wikidata": "Q885252",
      "angle": 212.13206338931514
    },
    {
      "id": 26548,
      "geometry": "POINT (-73.998609 40.731969)",
      "poi_name": "Hangman's Elm",
      "osm_id": 5927576885,
      "tourism": "attraction",
      "wikidata": "Q1407769",
      "angle": 213.92430580749215
    },
    {
      "id": 26549,
      "geometry": "POINT (-73.996459 40.733706)",
      "poi_name": "Mark Twain House",
      "osm_id": 5927588585,
      "tourism": "attraction",
      "angle": 213.85022828248245
    },
    {
      "id": 26791,
      "geometry": "POINT (-73.979668 40.759142)",
      "poi_name": "NBC Studios",
      "osm_id": 6052834698,
      "tourism": "attraction",
      "angle": 214.57494372775815
    },
    {
      "id": 26689,
      "geometry": "POINT (-73.969762 40.653174)",
      "poi_name": "Hammerhead Peninsula",
      "osm_id": 5993818488,
      "tourism": "attraction",
      "angle": 204.14478018964846
    },
    {
      "id": 26816,
      "geometry": "POINT (-73.99875 40.72288)",
      "poi_name": "SoHo",
      "osm_id": 158809984,
      "tourism": "attraction",
      "wikidata": "Q461572",
      "angle": 213.0199046638935
    },
    {
      "id": 26601,
      "geometry": "POINT (-73.962625 40.655882)",
      "poi_name": "Drummer's Grove",
      "osm_id": 5935352885,
      "tourism": "attraction",
      "angle": 203.5312959842565
    },
    {
      "id": 26893,
      "geometry": "POINT (-73.96329 40.77273)",
      "poi_name": "Eleanor Roosevelt High Residence",
      "osm_id": 7615599475,
      "tourism": "attraction",
      "addr_street": "East 74th Street",
      "addr_housenumber": "55",
      "angle": 214.0011519479338
    },
    {
      "id": 26792,
      "geometry": "POINT (-74.005466 40.72577)",
      "poi_name": "Color Factory",
      "osm_id": 6052834699,
      "tourism": "attraction",
      "opening_hours": "Mo, Th, Su 09:30-18:00; Tu 09:30-17:00; We off; Fr, Sa 09:30-20:00",
      "website": "https://colorfactory.co/",
      "addr_state": "NY",
      "addr_city": "New York",
      "addr_postcode": "10013",
      "addr_street": "Spring Street",
      "addr_housenumber": "251",
      "angle": 214.08620929988933
    },
    {
      "id": 255851,
      "geometry": "POINT (-73.89708 40.95371)",
      "poi_name": "Trevor Park",
      "osm_id": 357593347,
      "leisure": "park",
      "tourism": "attraction",
      "angle": 250.59668113951162
    },
    {
      "id": 27163,
      "geometry": "POINT (-73.82619 40.750327)",
      "poi_name": "Circle Garden",
      "osm_id": 7738673644,
      "leisure": "garden",
      "tourism": "attraction",
      "angle": 189.6170781204127
    },
    {
      "id": 27164,
      "geometry": "POINT (-73.826624 40.750143)",
      "poi_name": "Unity Garden",
      "osm_id": 7738673645,
      "leisure": "garden",
      "tourism": "attraction",
      "angle": 189.68746764780732
    },
    {
      "id": 27165,
      "geometry": "POINT (-73.82708 40.750204)",
      "poi_name": "Perennial Garden",
      "osm_id": 7738673646,
      "leisure": "garden",
      "tourism": "attraction",
      "angle": 189.77135185171244
    },
    {
      "id": 27166,
      "geometry": "POINT (-73.827478 40.750362)",
      "poi_name": "Annual Garden",
      "osm_id": 7738673647,
      "leisure": "garden",
      "tourism": "attraction",
      "angle": 189.84901216876105
    },
    {
      "id": 27167,
      "geometry": "POINT (-73.827199 40.750566)",
      "poi_name": "Floral Border",
      "osm_id": 7738673648,
      "leisure": "garden",
      "tourism": "attraction",
      "angle": 189.80734913650082
    },
    {
      "id": 27168,
      "geometry": "POINT (-73.826962 40.750403)",
      "poi_name": "Rose Garden",
      "osm_id": 7738673649,
      "leisure": "garden",
      "tourism": "attraction",
      "angle": 189.75836957878056
    },
    {
      "id": 27169,
      "geometry": "POINT (-73.826295 40.750061)",
      "poi_name": "Wetland & Woodland Garden",
      "osm_id": 7738673650,
      "leisure": "garden",
      "tourism": "attraction",
      "angle": 189.62528728182082
    },
    {
      "id": 27170,
      "geometry": "POINT (-73.826905 40.750772)",
      "poi_name": "Pinetum",
      "osm_id": 7738673652,
      "leisure": "garden",
      "tourism": "attraction",
      "angle": 189.76303635150288
    },
    {
      "id": 27171,
      "geometry": "POINT (-73.82736 40.75083)",
      "poi_name": "Oak All\u00e9e",
      "osm_id": 7738673653,
      "leisure": "garden",
      "tourism": "attraction",
      "angle": 189.84692886017467
    },
    {
      "id": 27172,
      "geometry": "POINT (-73.827713 40.750098)",
      "poi_name": "Magnolia Walk",
      "osm_id": 7738673662,
      "leisure": "garden",
      "tourism": "attraction",
      "angle": 189.88028249767973
    },
    {
      "id": 27173,
      "geometry": "POINT (-73.82777 40.75029)",
      "poi_name": "Bee Garden",
      "osm_id": 7738673663,
      "leisure": "garden",
      "tourism": "attraction",
      "angle": 189.89829026538922
    },
    {
      "id": 27174,
      "geometry": "POINT (-73.829802 40.749934)",
      "poi_name": "Arboretum/Crabapple Grove",
      "osm_id": 7738673665,
      "leisure": "garden",
      "tourism": "attraction",
      "angle": 190.24621058688933
    },
    {
      "id": 27175,
      "geometry": "POINT (-73.830662 40.75034)",
      "poi_name": "Meadow",
      "osm_id": 7738673666,
      "leisure": "garden",
      "tourism": "attraction",
      "angle": 190.41688902307317
    },
    {
      "id": 27176,
      "geometry": "POINT (-73.831284 40.7515)",
      "poi_name": "Deciduous Conifer Forest",
      "osm_id": 7738673667,
      "leisure": "garden",
      "tourism": "attraction",
      "angle": 190.57829686856343
    },
    {
      "id": 245241,
      "geometry": "POINT (-74.236828 41.123499)",
      "poi_name": "New Jersey Botanical Garden",
      "osm_id": 2626439478,
      "leisure": "garden",
      "tourism": "attraction",
      "website": "https://www.njbg.org/",
      "angle": 291.4502147088381
    },
    {
      "id": 256632,
      "geometry": "POINT (-74.086725 41.752137)",
      "poi_name": "Huguenot Street Historic District",
      "osm_id": 357647640,
      "leisure": "park",
      "historic": "district",
      "tourism": "attraction",
      "wikidata": "Q5934720",
      "angle": 342.96969874389805
    },
    {
      "id": 267588,
      "geometry": "POINT (-73.82619 40.750327)",
      "poi_name": "Circle Garden",
      "osm_id": 7738673644,
      "leisure": "garden",
      "tourism": "attraction",
      "angle": 189.6170781204127
    },
    {
      "id": 265200,
      "geometry": "POINT (-73.208767 41.640748)",
      "poi_name": "Bellamy-Ferriday Garden",
      "osm_id": 359280996,
      "leisure": "park",
      "tourism": "attraction",
      "angle": 32.881545781304304
    },
    {
      "id": 267589,
      "geometry": "POINT (-73.826624 40.750143)",
      "poi_name": "Unity Garden",
      "osm_id": 7738673645,
      "leisure": "garden",
      "tourism": "attraction",
      "angle": 189.68746764780732
    },
    {
      "id": 267590,
      "geometry": "POINT (-73.82708 40.750204)",
      "poi_name": "Perennial Garden",
      "osm_id": 7738673646,
      "leisure": "garden",
      "tourism": "attraction",
      "angle": 189.77135185171244
    },
    {
      "id": 267591,
      "geometry": "POINT (-73.827478 40.750362)",
      "poi_name": "Annual Garden",
      "osm_id": 7738673647,
      "leisure": "garden",
      "tourism": "attraction",
      "angle": 189.84901216876105
    },
    {
      "id": 267592,
      "geometry": "POINT (-73.827199 40.750566)",
      "poi_name": "Floral Border",
      "osm_id": 7738673648,
      "leisure": "garden",
      "tourism": "attraction",
      "angle": 189.80734913650082
    },
    {
      "id": 267593,
      "geometry": "POINT (-73.826962 40.750403)",
      "poi_name": "Rose Garden",
      "osm_id": 7738673649,
      "leisure": "garden",
      "tourism": "attraction",
      "angle": 189.75836957878056
    },
    {
      "id": 267594,
      "geometry": "POINT (-73.826295 40.750061)",
      "poi_name": "Wetland & Woodland Garden",
      "osm_id": 7738673650,
      "leisure": "garden",
      "tourism": "attraction",
      "angle": 189.62528728182082
    },
    {
      "id": 267595,
      "geometry": "POINT (-73.826905 40.750772)",
      "poi_name": "Pinetum",
      "osm_id": 7738673652,
      "leisure": "garden",
      "tourism": "attraction",
      "angle": 189.76303635150288
    },
    {
      "id": 267596,
      "geometry": "POINT (-73.82736 40.75083)",
      "poi_name": "Oak All\u00e9e",
      "osm_id": 7738673653,
      "leisure": "garden",
      "tourism": "attraction",
      "angle": 189.84692886017467
    },
    {
      "id": 267597,
      "geometry": "POINT (-73.827713 40.750098)",
      "poi_name": "Magnolia Walk",
      "osm_id": 7738673662,
      "leisure": "garden",
      "tourism": "attraction",
      "angle": 189.88028249767973
    },
    {
      "id": 267598,
      "geometry": "POINT (-73.82777 40.75029)",
      "poi_name": "Bee Garden",
      "osm_id": 7738673663,
      "leisure": "garden",
      "tourism": "attraction",
      "angle": 189.89829026538922
    },
    {
      "id": 267599,
      "geometry": "POINT (-73.829802 40.749934)",
      "poi_name": "Arboretum/Crabapple Grove",
      "osm_id": 7738673665,
      "leisure": "garden",
      "tourism": "attraction",
      "angle": 190.24621058688933
    },
    {
      "id": 267600,
      "geometry": "POINT (-73.830662 40.75034)",
      "poi_name": "Meadow",
      "osm_id": 7738673666,
      "leisure": "garden",
      "tourism": "attraction",
      "angle": 190.41688902307317
    },
    {
      "id": 267601,
      "geometry": "POINT (-73.831284 40.7515)",
      "poi_name": "Deciduous Conifer Forest",
      "osm_id": 7738673667,
      "leisure": "garden",
      "tourism": "attraction",
      "angle": 190.57829686856343
    }
  ],
  "answer_type": "angle",
  "question_entities": {
    "[1]": {
      "main_category": "tourism",
      "sub_category": "attraction"
    },
    "[2]": {
      "distance": 120000,
      "text": "120 kilometers"
    },
    "[3]": {
      "main_category": "leisure",
      "sub_category": "park",
      "display_name": "Wynmor Park, Scarsdale, NY",
      "geo_wkt": "POINT (-73.77351 40.986773)",
      "poi": {
        "id": 248266,
        "geometry": "POINT (-73.77351 40.986773)",
        "poi_name": "Wynmor Park",
        "osm_id": 7565059932,
        "leisure": "park",
        "description": " Built in 1926.  0.89 Acres.  One Har-Tru tennis court and a small open field. ",
        "addr_state": "NY",
        "addr_city": "Scarsdale",
        "addr_postcode": "10583",
        "addr_street": "Secor Road",
        "addr_housenumber": "18"
      }
    }
  },
  "id": 1074,
  "type": "range+angle"
}