{
  "question": "What's the route to a caf\u00e9 from Hendersons Arena, GA within 130 kilometers?",
  "sql": "SELECT *, degrees(ST_Azimuth(ST_GeomFromText('POINT (-84.5221 33.6101)',4326)::geography, pois.geometry)) AS angle FROM pois\nWHERE ST_DWithin(pois.geometry, ST_GeomFromText('POINT (-84.5221 33.6101)',4326)::geography, 130000)\nAND amenity = 'cafe';\n",
  "answers": [
    {
      "id": 15363,
      "geometry": "POINT (-83.978944 34.594308)",
      "poi_name": "Tasting Room",
      "osm_id": 4876802920,
      "amenity": "cafe",
      "tourism": "attraction",
      "opening_hours": "Jan 07-Feb 28: Sa 11:00-17:00; Su 12:30-17:00; Mar-Aug: Th-Sa 11:00-17:00; Su 12:30-17:00; Sep-Nov: Tu-Sa 11:00-17:00; Su 12:30-17:00; Dec 01-18: Sa 11:00-17:00; Su 12:30-17:00",
      "operator": "Wolf Mountain Vineyards & Winery",
      "angle": 24.507193733420213
    },
    {
      "id": 29044,
      "geometry": "POINT (-84.271652 33.782941)",
      "poi_name": "Radio Roasters Coffee",
      "osm_id": 8275224901,
      "amenity": "cafe",
      "description": "Coffee roasters also serving fresh coffee.",
      "outdoor_seating": "yes",
      "angle": 50.386179795836355
    },
    {
      "id": 29100,
      "geometry": "POINT (-84.168317 33.920752)",
      "poi_name": "Starbucks",
      "osm_id": 8281589956,
      "amenity": "cafe",
      "cuisine": "coffee_shop",
      "takeaway": "yes",
      "official_name": "Starbucks Coffee",
      "angle": 43.46760505252262
    },
    {
      "id": 29449,
      "geometry": "POINT (-84.131106 34.055646)",
      "poi_name": "Divine Coffee",
      "osm_id": 8301816127,
      "amenity": "cafe",
      "addr_state": "GA",
      "addr_city": "Johns Creek",
      "addr_postcode": "30024",
      "addr_street": "McGinnis Ferry Road",
      "addr_housenumber": "7725",
      "angle": 36.10852412789045
    },
    {
      "id": 29538,
      "geometry": "POINT (-84.257137 33.968917)",
      "poi_name": "Peachy Corners Caf\u00e9",
      "osm_id": 8308896834,
      "amenity": "cafe",
      "cuisine": "bubble_tea",
      "opening_hours": "Mo-Fr 07:00-21:00; Sa 08:00-21:00; Su 10:00-18:00; PH unknown",
      "website": "https://www.peachycornerscafe.com",
      "angle": 31.58273994640688
    },
    {
      "id": 30841,
      "geometry": "POINT (-83.377775 33.958766)",
      "poi_name": "Ding Tea",
      "osm_id": 8388524418,
      "amenity": "cafe",
      "addr_city": "Athens",
      "addr_postcode": "30601",
      "addr_street": "West Washington Street",
      "addr_housenumber": "121",
      "angle": 69.63553930458644
    },
    {
      "id": 31670,
      "geometry": "POINT (-83.373736 33.961789)",
      "poi_name": "1000 Faces Coffee",
      "osm_id": 8441236851,
      "amenity": "cafe",
      "cuisine": "coffee_shop",
      "wheelchair": "yes",
      "website": "https://www.1000facescoffee.com/",
      "internet_access": "no",
      "outdoor_seating": "no",
      "addr_state": "GA",
      "addr_city": "Athens",
      "addr_postcode": "30601",
      "addr_street": "North Thomas Street",
      "addr_housenumber": "510",
      "angle": 69.53965823154488
    },
    {
      "id": 33430,
      "geometry": "POINT (-83.906376 33.840816)",
      "poi_name": "Starbucks",
      "osm_id": 2667199462,
      "amenity": "cafe",
      "cuisine": "coffee_shop",
      "takeaway": "yes",
      "official_name": "Starbucks Coffee",
      "angle": 65.67610995571535
    },
    {
      "id": 33933,
      "geometry": "POINT (-84.550735 33.953181)",
      "poi_name": "Cool Beans",
      "osm_id": 2687618822,
      "amenity": "cafe",
      "cuisine": "coffee_shop",
      "wheelchair": "no",
      "opening_hours": "Mo-Sa 07:00-20:00; Su 09:00-20:00",
      "website": "http://www.coolbeanscoffeeroasters.com/",
      "internet_access": "wlan",
      "phone": "+1 (770) 422-9866",
      "takeaway": "yes",
      "drive_through": "no",
      "outdoor_seating": "yes",
      "delivery": "no",
      "toilets": "yes",
      "addr_city": "Marietta",
      "addr_postcode": "30060",
      "addr_street": "Mill Street",
      "addr_housenumber": "31",
      "angle": 356.02111272757094
    },
    {
      "id": 34127,
      "geometry": "POINT (-84.477786 33.900664)",
      "poi_name": "Starbucks",
      "osm_id": 2696041745,
      "amenity": "cafe",
      "cuisine": "coffee_shop",
      "takeaway": "yes",
      "drive_through": "yes",
      "official_name": "Starbucks Coffee",
      "addr_state": "GA",
      "addr_city": "Marietta",
      "addr_postcode": "30067",
      "addr_street": "Windy Hill Road",
      "addr_housenumber": "2580",
      "angle": 7.24743914576641
    },
    {
      "id": 34699,
      "geometry": "POINT (-84.373718 33.733761)",
      "poi_name": "Grant Park Coffeehouse",
      "osm_id": 2703552247,
      "amenity": "cafe",
      "angle": 45.052072140744926
    },
    {
      "id": 35250,
      "geometry": "POINT (-84.34164 34.043219)",
      "poi_name": "Starbucks",
      "osm_id": 2714938157,
      "amenity": "cafe",
      "cuisine": "coffee_shop",
      "website": "https://www.starbucks.com/store-locator/store/15863/roswell-marketplace-10800-alpharetta-highway-roswell-ga-300761490-us",
      "internet_access": "wlan",
      "phone": "+1-770-552-1390",
      "takeaway": "yes",
      "official_name": "Starbucks Coffee",
      "outdoor_seating": "yes",
      "addr_city": "Roswell",
      "addr_postcode": "30076",
      "addr_street": "Alpharetta Highway",
      "addr_housenumber": "10800",
      "angle": 19.12405765567752
    },
    {
      "id": 35658,
      "geometry": "POINT (-84.460511 33.903369)",
      "poi_name": "Planet Smoothie",
      "osm_id": 2727309303,
      "amenity": "cafe",
      "cuisine": "smoothie",
      "opening_hours": "Mo-Fr 07:00-20:00; Sa 08:00-19:00",
      "website": "https://www.planetsmoothie.com/",
      "internet_access": "no",
      "phone": "+1-770-859-0080",
      "addr_city": "Atlanta",
      "addr_postcode": "30339",
      "addr_street": "Powers Ferry Road Southeast",
      "addr_housenumber": "2014",
      "angle": 9.932291013408452
    },
    {
      "id": 36597,
      "geometry": "POINT (-84.463782 33.8801)",
      "poi_name": "Barnes & Noble Cafe",
      "osm_id": 2773409689,
      "amenity": "cafe",
      "cuisine": "coffee_shop",
      "wheelchair": "yes",
      "opening_hours": "Mo-Th 09:00-22:00; Fr-Sa 09:00-23:00; Su 09:00-21:00",
      "operator": "Barnes & Noble",
      "internet_access": "wlan",
      "outdoor_seating": "no",
      "addr_city": "Atlanta",
      "addr_postcode": "30339",
      "addr_street": "Cobb Parkway South",
      "addr_housenumber": "2952",
      "angle": 10.212157155596989
    },
    {
      "id": 37391,
      "geometry": "POINT (-84.241282 34.092929)",
      "poi_name": "Starbucks",
      "osm_id": 2810148148,
      "amenity": "cafe",
      "cuisine": "coffee_shop",
      "takeaway": "yes",
      "official_name": "Starbucks Coffee",
      "angle": 25.80747896505705
    },
    {
      "id": 38220,
      "geometry": "POINT (-84.335745 33.949392)",
      "poi_name": "Starbucks",
      "osm_id": 2849641246,
      "amenity": "cafe",
      "cuisine": "coffee_shop",
      "opening_hours": "Mo-Fr 05:30-22:00; Sa 06:00-22:00; Su 06:30-21:30",
      "internet_access": "wlan",
      "phone": "+1 (770) 604-9960",
      "takeaway": "yes",
      "drive_through": "yes",
      "official_name": "Starbucks Coffee",
      "addr_state": "GA",
      "addr_city": "Dunwoody",
      "addr_postcode": "30338",
      "addr_street": "Chamblee Dunwoody Road",
      "addr_housenumber": "5561",
      "angle": 24.586753884287
    },
    {
      "id": 38663,
      "geometry": "POINT (-83.913054 34.070074)",
      "poi_name": "Starbucks",
      "osm_id": 2875412249,
      "amenity": "cafe",
      "cuisine": "coffee_shop",
      "takeaway": "yes",
      "official_name": "Starbucks Coffee",
      "angle": 47.68367703626436
    },
    {
      "id": 39490,
      "geometry": "POINT (-84.432733 33.640084)",
      "poi_name": "Starbucks",
      "osm_id": 2924175844,
      "amenity": "cafe",
      "cuisine": "coffee_shop",
      "takeaway": "yes",
      "official_name": "Starbucks Coffee",
      "angle": 68.12138668935395
    },
    {
      "id": 39496,
      "geometry": "POINT (-84.425567 33.640852)",
      "poi_name": "Caribou Coffee",
      "osm_id": 2924606872,
      "amenity": "cafe",
      "cuisine": "coffee_shop",
      "takeaway": "yes",
      "angle": 69.1262568698033
    },
    {
      "id": 39513,
      "geometry": "POINT (-84.444661 33.640942)",
      "poi_name": "Starbucks",
      "osm_id": 2924610306,
      "amenity": "cafe",
      "cuisine": "coffee_shop",
      "takeaway": "yes",
      "official_name": "Starbucks Coffee",
      "angle": 64.52038971669101
    },
    {
      "id": 39641,
      "geometry": "POINT (-84.387523 33.777861)",
      "poi_name": "MidCity Cafe",
      "osm_id": 2933053627,
      "amenity": "cafe",
      "opening_hours": "Mo-Fr 11:00-24:00; Sa 00:00-02:00,12:00-24:00; Su 00:00-02:00",
      "addr_city": "Atlanta",
      "addr_postcode": "30308",
      "addr_street": "Spring Street Northwest",
      "addr_housenumber": "845",
      "angle": 33.806579055000505
    },
    {
      "id": 40026,
      "geometry": "POINT (-84.083346 34.003784)",
      "poi_name": "Hansel and Gretel",
      "osm_id": 2955185068,
      "amenity": "cafe",
      "angle": 42.8118012693993
    },
    {
      "id": 40027,
      "geometry": "POINT (-84.083561 34.005406)",
      "poi_name": "Mozart Bakery",
      "osm_id": 2955185069,
      "amenity": "cafe",
      "angle": 42.68012195844244
    },
    {
      "id": 40326,
      "geometry": "POINT (-84.656962 33.951301)",
      "poi_name": "Barnes & Noble Cafe",
      "osm_id": 2967031076,
      "amenity": "cafe",
      "cuisine": "coffee_shop",
      "opening_hours": "Mo-Sa 09:00-22:00; Su 10:00-21:00",
      "angle": 341.7716988857351
    },
    {
      "id": 41574,
      "geometry": "POINT (-84.303267 33.77581)",
      "poi_name": "The Dancing Goats Coffee Bar",
      "osm_id": 3021082253,
      "amenity": "cafe",
      "cuisine": "coffee_shop",
      "opening_hours": "06:30-19:00",
      "internet_access": "yes",
      "phone": "+1 404 687 1100",
      "addr_city": "Decatur",
      "addr_postcode": "30030",
      "addr_street": "West Ponce de Leon Avenue",
      "addr_housenumber": "419",
      "angle": 47.76597029131465
    },
    {
      "id": 41589,
      "geometry": "POINT (-84.382694 33.835382)",
      "poi_name": "Starbucks",
      "osm_id": 3021596180,
      "amenity": "cafe",
      "cuisine": "coffee_shop",
      "takeaway": "yes",
      "official_name": "Starbucks Coffee",
      "addr_state": "GA",
      "addr_city": "Atlanta",
      "addr_postcode": "30305",
      "addr_street": "Peachtree Street Northwest",
      "addr_housenumber": "2900",
      "angle": 27.304012941391143
    },
    {
      "id": 43185,
      "geometry": "POINT (-84.43249 33.641638)",
      "poi_name": "Starbucks",
      "osm_id": 3098867429,
      "amenity": "cafe",
      "cuisine": "coffee_shop",
      "takeaway": "yes",
      "official_name": "Starbucks Coffee",
      "outdoor_seating": "no",
      "angle": 67.1580931797341
    },
    {
      "id": 43765,
      "geometry": "POINT (-84.323211 33.751568)",
      "poi_name": "Taproom Coffee & Beer",
      "osm_id": 3129949343,
      "amenity": "cafe",
      "cuisine": "coffee_shop",
      "internet_access": "yes",
      "addr_postcode": "30317",
      "angle": 49.553683125900776
    },
    {
      "id": 43855,
      "geometry": "POINT (-84.462569 34.038603)",
      "poi_name": "Starbucks",
      "osm_id": 3135276488,
      "amenity": "cafe",
      "cuisine": "coffee_shop",
      "wheelchair": "yes",
      "opening_hours": "Mo-Fr 05:30-21:00; Sa 06:00-21:00; Su 06:30-19:00",
      "internet_access": "wlan",
      "takeaway": "yes",
      "official_name": "Starbucks Coffee",
      "addr_state": "GA",
      "addr_city": "Marietta",
      "addr_postcode": "30066",
      "addr_street": "Sandy Plains Road Northeastheast",
      "addr_housenumber": "3605",
      "angle": 6.597394103399298
    },
    {
      "id": 45282,
      "geometry": "POINT (-83.446528 33.915789)",
      "poi_name": "Starbucks",
      "osm_id": 3198637884,
      "amenity": "cafe",
      "cuisine": "coffee_shop",
      "internet_access": "wlan",
      "takeaway": "yes",
      "official_name": "Starbucks Coffee",
      "angle": 70.90903022522852
    },
    {
      "id": 46777,
      "geometry": "POINT (-84.462158 33.882421)",
      "poi_name": "101 Bagel Cafe",
      "osm_id": 3289281722,
      "amenity": "cafe",
      "cuisine": "bagel",
      "opening_hours": "Mo-Su 06:00-16:00",
      "website": "https://www.101bagelcafe.com/",
      "phone": "+1 (770) 988-9991",
      "addr_state": "GA",
      "addr_city": "Atlanta",
      "addr_postcode": "30339",
      "addr_street": "Cobb Parkway South",
      "addr_housenumber": "2955",
      "angle": 10.402535539400725
    },
    {
      "id": 46822,
      "geometry": "POINT (-84.549868 33.95214)",
      "poi_name": "Australian Bakery Cafe",
      "osm_id": 3294816576,
      "amenity": "cafe",
      "cuisine": "australian",
      "wheelchair": "no",
      "opening_hours": "Mo-Sa 08:00-16:00; Su 09:00-15:00",
      "website": "http://www.australianbakerycafe.com/",
      "phone": "+1 (678) 797-6222",
      "outdoor_seating": "yes",
      "addr_state": "GA",
      "addr_city": "Marietta",
      "addr_postcode": "30060",
      "addr_street": "South Park Square",
      "addr_housenumber": "48",
      "angle": 356.1295168182845
    },
    {
      "id": 48238,
      "geometry": "POINT (-84.412146 33.784365)",
      "poi_name": "West Egg Cafe",
      "osm_id": 3372607294,
      "amenity": "cafe",
      "website": "https://www.westeggcafe.com/",
      "addr_state": "GA",
      "addr_city": "Atlanta",
      "addr_postcode": "30318",
      "addr_street": "Howell Mill Road",
      "addr_housenumber": "1100",
      "angle": 27.776373607511758
    },
    {
      "id": 48239,
      "geometry": "POINT (-84.408978 33.777702)",
      "poi_name": "Urban Grind",
      "osm_id": 3372607296,
      "amenity": "cafe",
      "cuisine": "coffee_shop",
      "website": "http://www.urbangrindatl.com/",
      "internet_access": "yes",
      "addr_state": "GA",
      "addr_city": "Atlanta",
      "addr_postcode": "30318",
      "addr_street": "Marietta Street",
      "addr_housenumber": "962",
      "angle": 29.399529035712995
    },
    {
      "id": 48496,
      "geometry": "POINT (-84.572772 33.952231)",
      "poi_name": "Hoboken Cafe",
      "osm_id": 3385302578,
      "amenity": "cafe",
      "opening_hours": "Mo-Sa 11:00-04:00",
      "website": "https://www.hobokencafega.com/",
      "phone": "+1 (678) 909-3375",
      "addr_state": "GA",
      "addr_city": "Marietta",
      "addr_postcode": "30064",
      "addr_street": "Whitlock Avenue Northwest",
      "addr_housenumber": "688",
      "angle": 352.96377700196064
    },
    {
      "id": 48967,
      "geometry": "POINT (-84.30582 33.791264)",
      "poi_name": "Chololat\u00e9",
      "osm_id": 3411018984,
      "amenity": "cafe",
      "cuisine": "coffee_shop",
      "internet_access": "wlan",
      "angle": 44.87813710518632
    },
    {
      "id": 49538,
      "geometry": "POINT (-84.436189 33.640703)",
      "poi_name": "Cafe Tazza",
      "osm_id": 3441619056,
      "amenity": "cafe",
      "angle": 66.91144698173873
    },
    {
      "id": 50445,
      "geometry": "POINT (-84.388813 33.753925)",
      "poi_name": "Ebrik Coffee Room",
      "osm_id": 3485179629,
      "amenity": "cafe",
      "cuisine": "coffee_shop",
      "addr_state": "GA",
      "addr_city": "Atlanta",
      "addr_postcode": "30303",
      "addr_street": "Park Place Northeast",
      "addr_housenumber": "16",
      "angle": 37.730117257443624
    },
    {
      "id": 50442,
      "geometry": "POINT (-84.382853 33.755448)",
      "poi_name": "Refugee Coffee",
      "osm_id": 3485157910,
      "amenity": "cafe",
      "cuisine": "coffee_shop",
      "internet_access": "yes",
      "addr_state": "GA",
      "addr_city": "Atlanta",
      "addr_postcode": "30303",
      "addr_street": "Auburn Avenue Northeast",
      "addr_housenumber": "145",
      "angle": 38.652950812582255
    },
    {
      "id": 50443,
      "geometry": "POINT (-84.382784 33.755446)",
      "poi_name": "Arden's Garden",
      "osm_id": 3485166783,
      "amenity": "cafe",
      "cuisine": "juice",
      "addr_state": "GA",
      "addr_city": "Atlanta",
      "addr_postcode": "30303",
      "addr_street": "Auburn Avenue",
      "addr_housenumber": "45",
      "angle": 38.66710843426577
    },
    {
      "id": 50963,
      "geometry": "POINT (-84.35914 33.762518)",
      "poi_name": "Inman Perk Coffee",
      "osm_id": 497350542,
      "amenity": "cafe",
      "cuisine": "coffee_shop",
      "angle": 41.74494523268917
    },
    {
      "id": 51369,
      "geometry": "POINT (-84.389871 34.004901)",
      "poi_name": "Starbucks",
      "osm_id": 532172509,
      "amenity": "cafe",
      "cuisine": "coffee_shop",
      "internet_access": "wlan",
      "takeaway": "yes",
      "official_name": "Starbucks Coffee",
      "angle": 15.583667009422017
    },
    {
      "id": 51417,
      "geometry": "POINT (-84.299858 33.776071)",
      "poi_name": "Pastries A Go Go",
      "osm_id": 534152483,
      "amenity": "cafe",
      "website": "https://www.pastriesagogo.com/",
      "shop": "bakery",
      "angle": 48.160448506376746
    },
    {
      "id": 51484,
      "geometry": "POINT (-84.352327 33.770118)",
      "poi_name": "Java Vino",
      "osm_id": 536665814,
      "amenity": "cafe",
      "website": "https://javavino.com/",
      "addr_housenumber": "579",
      "angle": 41.52257999870094
    },
    {
      "id": 51486,
      "geometry": "POINT (-84.388671 33.75661)",
      "poi_name": "Starbucks",
      "osm_id": 536672764,
      "amenity": "cafe",
      "cuisine": "coffee_shop",
      "takeaway": "yes",
      "official_name": "Starbucks Coffee",
      "angle": 37.24708423767211
    },
    {
      "id": 51614,
      "geometry": "POINT (-84.295814 33.775444)",
      "poi_name": "Starbucks",
      "osm_id": 544023247,
      "amenity": "cafe",
      "cuisine": "coffee_shop",
      "takeaway": "yes",
      "official_name": "Starbucks Coffee",
      "addr_housenumber": "133",
      "angle": 48.77975380432755
    },
    {
      "id": 51638,
      "geometry": "POINT (-84.303276 33.759152)",
      "poi_name": "Kavarna",
      "osm_id": 544487958,
      "amenity": "cafe",
      "website": "https://kavarnadecatur.com/",
      "addr_housenumber": "707",
      "angle": 50.76660204319601
    },
    {
      "id": 51711,
      "geometry": "POINT (-84.295036 33.774909)",
      "poi_name": "Calle Latina",
      "osm_id": 554508584,
      "amenity": "cafe",
      "cuisine": "mexican",
      "website": "baddabing.net",
      "shop": "catering",
      "addr_housenumber": "406",
      "angle": 48.96911226638948
    },
    {
      "id": 51713,
      "geometry": "POINT (-84.296379 33.775897)",
      "poi_name": "Out of the Pan",
      "osm_id": 554816594,
      "amenity": "cafe",
      "cuisine": "american",
      "takeaway": "yes",
      "addr_street": "Clairemont Avenue",
      "addr_housenumber": "105",
      "angle": 48.6312090677544
    },
    {
      "id": 51719,
      "geometry": "POINT (-84.361484 33.773989)",
      "poi_name": "Java Jive",
      "osm_id": 555126575,
      "amenity": "cafe",
      "cuisine": "american",
      "addr_housenumber": "790",
      "angle": 39.280540158531
    },
    {
      "id": 51720,
      "geometry": "POINT (-84.299748 33.775414)",
      "poi_name": "Sawicki's",
      "osm_id": 556485776,
      "amenity": "cafe",
      "website": "http://sawickisfoods.com/",
      "shop": "meat;seafood",
      "addr_housenumber": "250",
      "angle": 48.28755280594202
    },
    {
      "id": 52011,
      "geometry": "POINT (-84.35186 33.792675)",
      "poi_name": "Caramba Cafe",
      "osm_id": 567065894,
      "amenity": "cafe",
      "website": "carambacafe.com",
      "addr_housenumber": "1409D",
      "angle": 37.884028568976696
    },
    {
      "id": 52050,
      "geometry": "POINT (-84.33362 33.764756)",
      "poi_name": "Dr. Bombay's",
      "osm_id": 568038119,
      "amenity": "cafe",
      "website": "drbombays.com",
      "addr_housenumber": "1645",
      "angle": 45.48103588247399
    },
    {
      "id": 52051,
      "geometry": "POINT (-84.333208 33.764913)",
      "poi_name": "Gato Bizco",
      "osm_id": 568038122,
      "amenity": "cafe",
      "addr_housenumber": "1660",
      "angle": 45.51437491271538
    },
    {
      "id": 52052,
      "geometry": "POINT (-84.333182 33.764748)",
      "poi_name": "The Flying Biscuit",
      "osm_id": 568038127,
      "amenity": "cafe",
      "website": "https://www.flyingbiscuit.com/",
      "addr_housenumber": "1655",
      "angle": 45.54866844270354
    },
    {
      "id": 52083,
      "geometry": "POINT (-84.292844 33.77578)",
      "poi_name": "J. Christopher's",
      "osm_id": 569509275,
      "amenity": "cafe",
      "wheelchair": "yes",
      "website": "https://jchristophers.com/",
      "angle": 49.09127405021705
    },
    {
      "id": 52706,
      "geometry": "POINT (-84.17283 34.150005)",
      "poi_name": "Everbowl",
      "osm_id": 10043774875,
      "amenity": "cafe",
      "cuisine": "smoothie",
      "wheelchair": "yes",
      "takeaway": "yes",
      "angle": 28.25247738115531
    },
    {
      "id": 52941,
      "geometry": "POINT (-85.152596 33.69002)",
      "poi_name": "Ellianos Coffee Co",
      "osm_id": 10055961588,
      "amenity": "cafe",
      "cuisine": "coffee_shop",
      "opening_hours": "Mo-Sa 06:00-19:00",
      "website": "https://www.ellianos.com/",
      "addr_state": "GA",
      "addr_city": "Bremen",
      "addr_postcode": "30110",
      "addr_street": "Price Creek Road",
      "addr_housenumber": "33",
      "angle": 278.793063832229
    },
    {
      "id": 53060,
      "geometry": "POINT (-84.193415 34.238098)",
      "poi_name": "Starbucks",
      "osm_id": 10062254760,
      "amenity": "cafe",
      "cuisine": "coffee_shop",
      "opening_hours": "06:00-20:00",
      "takeaway": "yes",
      "official_name": "Starbucks Coffee",
      "outdoor_seating": "no",
      "angle": 23.480483588275842
    },
    {
      "id": 53220,
      "geometry": "POINT (-84.185542 34.169912)",
      "poi_name": "Starbucks",
      "osm_id": 10069331769,
      "amenity": "cafe",
      "cuisine": "coffee_shop",
      "wheelchair": "yes",
      "opening_hours": "06:00-20:00",
      "takeaway": "yes",
      "drive_through": "no",
      "official_name": "Starbucks Coffee",
      "outdoor_seating": "no",
      "angle": 26.534494879246722
    },
    {
      "id": 53323,
      "geometry": "POINT (-84.176237 34.153373)",
      "poi_name": "Starbucks",
      "osm_id": 10075798878,
      "amenity": "cafe",
      "cuisine": "coffee_shop",
      "wheelchair": "yes",
      "takeaway": "yes",
      "official_name": "Starbucks Coffee",
      "angle": 27.871017811956822
    },
    {
      "id": 53370,
      "geometry": "POINT (-83.37473 33.950233)",
      "poi_name": "Starbucks",
      "osm_id": 10077775477,
      "amenity": "cafe",
      "cuisine": "coffee_shop",
      "takeaway": "yes",
      "official_name": "Starbucks Coffee",
      "outdoor_seating": "no",
      "angle": 70.13650861316879
    },
    {
      "id": 53373,
      "geometry": "POINT (-83.375421 33.951635)",
      "poi_name": "Jittery Joe's",
      "osm_id": 10078036986,
      "amenity": "cafe",
      "opening_hours": "Mo-Th 07:30-22:00; Fr 07:30-17:00; Sa 13:00-18:00; Su 13:00-22:00",
      "website": "https://jitteryjoes.com/",
      "phone": "706-549-2124",
      "outdoor_seating": "yes",
      "addr_state": "GA",
      "addr_city": "Athens",
      "addr_postcode": "30602",
      "addr_street": "Baxter Street",
      "addr_housenumber": "48",
      "angle": 70.05125429956026
    },
    {
      "id": 53425,
      "geometry": "POINT (-83.987009 33.956686)",
      "poi_name": "Boulder Creek Coffee",
      "osm_id": 10080280475,
      "amenity": "cafe",
      "opening_hours": "Mo-Fr 08:00-20:30; Sa 09:00-20:30",
      "website": "https://bouldercreekcoffee.com/",
      "internet_access": "wlan",
      "phone": "+1 678-765-7985",
      "drive_through": "yes",
      "outdoor_seating": "yes",
      "addr_state": "GA",
      "addr_city": "Lawrenceville",
      "addr_postcode": "30046",
      "addr_street": "East Crogan Street",
      "addr_housenumber": "233",
      "angle": 52.051046266610015
    },
    {
      "id": 53537,
      "geometry": "POINT (-83.708288 32.873402)",
      "poi_name": "Starbucks",
      "osm_id": 10083666420,
      "amenity": "cafe",
      "cuisine": "coffee_shop",
      "internet_access": "wlan",
      "takeaway": "yes",
      "drive_through": "yes",
      "official_name": "Starbucks Coffee",
      "addr_state": "GA",
      "addr_city": "Macon",
      "addr_postcode": "31210",
      "addr_street": "Forsyth Road",
      "addr_housenumber": "4640",
      "angle": 136.9067070510698
    },
    {
      "id": 53641,
      "geometry": "POINT (-84.455349 34.236545)",
      "poi_name": "Starbucks",
      "osm_id": 10088952442,
      "amenity": "cafe",
      "cuisine": "coffee_shop",
      "takeaway": "yes",
      "official_name": "Starbucks Coffee",
      "angle": 5.057567247202288
    },
    {
      "id": 53656,
      "geometry": "POINT (-83.987724 33.951476)",
      "poi_name": "Pearl's Tea",
      "osm_id": 10089943562,
      "amenity": "cafe",
      "cuisine": "bubble_tea",
      "opening_hours": "Mo-Su 11:00-21:00",
      "addr_state": "GA",
      "addr_city": "Lawrenceville",
      "addr_postcode": "30046",
      "addr_street": "South Clayton Street",
      "addr_housenumber": "30",
      "angle": 52.43461372593256
    },
    {
      "id": 53657,
      "geometry": "POINT (-83.987805 33.952247)",
      "poi_name": "Peachtree Cafe",
      "osm_id": 10089943563,
      "amenity": "cafe",
      "opening_hours": "We-Mo 08:00-15:00",
      "website": "https://peachtree-cafe.com/",
      "phone": "+1 678-377-8745",
      "outdoor_seating": "yes",
      "addr_street": "South Clayton Street",
      "addr_housenumber": "30",
      "angle": 52.367882515765345
    },
    {
      "id": 53749,
      "geometry": "POINT (-84.382348 33.752175)",
      "poi_name": "Starbucks",
      "osm_id": 10093411941,
      "amenity": "cafe",
      "cuisine": "coffee_shop",
      "takeaway": "yes",
      "official_name": "Starbucks Coffee",
      "angle": 39.393505413032855
    },
    {
      "id": 53915,
      "geometry": "POINT (-83.994647 33.944298)",
      "poi_name": "AS Coffee Shop",
      "osm_id": 10106452428,
      "amenity": "cafe",
      "angle": 52.66445414278623
    },
    {
      "id": 54404,
      "geometry": "POINT (-84.010247 33.921141)",
      "poi_name": "Bread & Bubble Tea",
      "osm_id": 10131672198,
      "amenity": "cafe",
      "cuisine": "bubble_tea",
      "angle": 53.8186920925185
    },
    {
      "id": 55051,
      "geometry": "POINT (-84.935984 33.712658)",
      "poi_name": "Starbucks",
      "osm_id": 10169875545,
      "amenity": "cafe",
      "cuisine": "coffee_shop",
      "opening_hours": "Mo-Su 05:30-20:30",
      "phone": "+1-770-456-4063",
      "takeaway": "yes",
      "official_name": "Starbucks Coffee",
      "outdoor_seating": "yes",
      "addr_state": "GA",
      "addr_city": "Villa Rica",
      "addr_postcode": "30180",
      "addr_street": "Carrollton Villa Rica Highway",
      "addr_housenumber": "700",
      "angle": 286.6207661837739
    },
    {
      "id": 56869,
      "geometry": "POINT (-84.035304 33.939188)",
      "poi_name": "Sweet Love Caf\u00e9",
      "osm_id": 10251486134,
      "amenity": "cafe",
      "angle": 50.87417782223628
    },
    {
      "id": 57312,
      "geometry": "POINT (-83.24119 33.463899)",
      "poi_name": "Pickle Barrel Cafe",
      "osm_id": 5333638006,
      "amenity": "cafe",
      "cuisine": "burger;sandwich;american",
      "internet_access": "wlan",
      "angle": 97.40715717056302
    },
    {
      "id": 57797,
      "geometry": "POINT (-84.371856 33.759741)",
      "poi_name": "Condesa",
      "osm_id": 5351941421,
      "amenity": "cafe",
      "cuisine": "coffee_shop",
      "opening_hours": "Mo-Fr 07:00-21:00; Sa-Su 08:00-21:00",
      "website": "http://www.condesacoffee.com",
      "internet_access": "wlan",
      "phone": "404-524-5054",
      "addr_postcode": "30312",
      "addr_street": "John Wesley Dobbs Avenue Northeast",
      "addr_housenumber": "480",
      "angle": 39.96679671391766
    },
    {
      "id": 58211,
      "geometry": "POINT (-84.466425 33.904427)",
      "poi_name": "PERKS Coffee",
      "osm_id": 5367358344,
      "amenity": "cafe",
      "cuisine": "coffee_shop",
      "opening_hours": "Mo-Fr 07:00-18:00; Sa 08:00-18:00; Su 09:00-16:00",
      "website": "http://perks.coffee",
      "internet_access": "wlan",
      "phone": "+1 (678) 903-5539",
      "outdoor_seating": "yes",
      "addr_state": "GA",
      "addr_postcode": "30067",
      "addr_street": "Windy Hill Road Southeast",
      "addr_housenumber": "3000",
      "angle": 8.963068532908588
    },
    {
      "id": 58265,
      "geometry": "POINT (-84.277833 34.07078)",
      "poi_name": "Caf\u00e9 Intermezzo",
      "osm_id": 5369166853,
      "amenity": "cafe",
      "angle": 23.799225869961475
    },
    {
      "id": 58276,
      "geometry": "POINT (-84.273091 34.070882)",
      "poi_name": "Starbucks",
      "osm_id": 5369193298,
      "amenity": "cafe",
      "cuisine": "coffee_shop",
      "takeaway": "yes",
      "official_name": "Starbucks Coffee",
      "angle": 24.203405497231063
    },
    {
      "id": 58577,
      "geometry": "POINT (-84.348492 33.932117)",
      "poi_name": "Starbucks",
      "osm_id": 5384103638,
      "amenity": "cafe",
      "cuisine": "coffee_shop",
      "takeaway": "yes",
      "official_name": "Starbucks Coffee",
      "addr_state": "GA",
      "addr_city": "Sandy Springs",
      "addr_postcode": "30338",
      "addr_street": "Mount Vernon Highway",
      "addr_housenumber": "1155",
      "angle": 24.191203923519012
    },
    {
      "id": 58763,
      "geometry": "POINT (-84.047453 34.357641)",
      "poi_name": "Caribou Coffee",
      "osm_id": 5397048104,
      "amenity": "cafe",
      "cuisine": "coffee_shop",
      "opening_hours": "Mo-Sa 10:00-21:00; Su 11:00-19:00",
      "phone": "+1 (706) 216-4131",
      "takeaway": "yes",
      "outdoor_seating": "no",
      "addr_state": "GA",
      "addr_city": "Dawsonville",
      "addr_postcode": "30534",
      "addr_street": "GA 400",
      "addr_housenumber": "800",
      "angle": 27.743451808920117
    },
    {
      "id": 59164,
      "geometry": "POINT (-84.388922 33.755796)",
      "poi_name": "Land of 1000 Hills",
      "osm_id": 5413277910,
      "amenity": "cafe",
      "cuisine": "coffee_shop",
      "angle": 37.349227278449874
    },
    {
      "id": 59167,
      "geometry": "POINT (-84.389238 33.755267)",
      "poi_name": "Boba Mocha",
      "osm_id": 5413277913,
      "amenity": "cafe",
      "angle": 37.38424058158507
    },
    {
      "id": 62156,
      "geometry": "POINT (-84.326774 33.789184)",
      "poi_name": "Starbucks",
      "osm_id": 5554395887,
      "amenity": "cafe",
      "cuisine": "coffee_shop",
      "takeaway": "yes",
      "official_name": "Starbucks Coffee",
      "angle": 42.29954583064338
    },
    {
      "id": 67157,
      "geometry": "POINT (-84.132904 34.180008)",
      "poi_name": "Starbucks",
      "osm_id": 11225751028,
      "amenity": "cafe",
      "cuisine": "coffee_shop",
      "opening_hours": "Mo-Fr 05:30-20:00; Sa-Su 06:00-20:00",
      "phone": "+16785132226",
      "takeaway": "yes",
      "official_name": "Starbucks Coffee",
      "addr_housenumber": "906",
      "angle": 29.55271715610842
    },
    {
      "id": 66830,
      "geometry": "POINT (-84.354757 33.909556)",
      "poi_name": "Starbucks",
      "osm_id": 11212927165,
      "amenity": "cafe",
      "cuisine": "coffee_shop",
      "description": "Inside Northside Hospital Women\u2019s Center",
      "takeaway": "yes",
      "official_name": "Starbucks Coffee",
      "angle": 24.97458158009533
    },
    {
      "id": 67055,
      "geometry": "POINT (-84.178653 34.045101)",
      "poi_name": "Tiger Sugar",
      "osm_id": 11221413688,
      "amenity": "cafe",
      "cuisine": "bubble_tea",
      "opening_hours": "Mo-Su 12:00-21:00",
      "phone": "+1 (678)-620-3030",
      "takeaway": "yes",
      "addr_state": "GA",
      "addr_city": "Johns Creek",
      "addr_postcode": "30097",
      "addr_street": "Abbotts Bridge Road",
      "addr_housenumber": "10820",
      "angle": 33.286538670191725
    },
    {
      "id": 67158,
      "geometry": "POINT (-84.173282 34.15213)",
      "poi_name": "Starbucks",
      "osm_id": 11225751035,
      "amenity": "cafe",
      "cuisine": "coffee_shop",
      "takeaway": "yes",
      "drive_through": "yes",
      "official_name": "Starbucks Coffee",
      "outdoor_seating": "yes",
      "toilets": "yes",
      "angle": 28.12740866903594
    },
    {
      "id": 67297,
      "geometry": "POINT (-84.579527 33.699532)",
      "poi_name": "Starbucks",
      "osm_id": 11232412338,
      "amenity": "cafe",
      "cuisine": "coffee_shop",
      "takeaway": "yes",
      "official_name": "Starbucks Coffee",
      "addr_street": "Campbellton Road",
      "addr_housenumber": "5847",
      "angle": 331.78015219358747
    },
    {
      "id": 68252,
      "geometry": "POINT (-84.35801 33.745823)",
      "poi_name": "Daily Dose Coffee",
      "osm_id": 11264952981,
      "amenity": "cafe",
      "addr_state": "GA",
      "addr_city": "Atlanta",
      "addr_postcode": "30316",
      "addr_street": "Memorial Drive Southeast",
      "addr_housenumber": "907",
      "angle": 45.26207211134792
    },
    {
      "id": 67393,
      "geometry": "POINT (-84.932779 34.477222)",
      "poi_name": "Bubble Panda",
      "osm_id": 11234790078,
      "amenity": "cafe",
      "cuisine": "bubble_tea",
      "opening_hours": "Mo-Th 12:00-20:00; Fr-Su 11:00-20:00",
      "phone": "+17062292442",
      "outdoor_seating": "no",
      "addr_state": "GA",
      "addr_city": "Calhoun",
      "addr_postcode": "30701",
      "addr_street": "Highway 53",
      "addr_housenumber": "271",
      "angle": 338.5975420894225
    },
    {
      "id": 68200,
      "geometry": "POINT (-84.352804 33.748699)",
      "poi_name": "Con Lech Coffee",
      "osm_id": 11263370246,
      "amenity": "cafe",
      "addr_state": "GA",
      "addr_city": "Atlanta",
      "addr_postcode": "30316",
      "addr_street": "Flat Shoals Avenue Southeast",
      "addr_housenumber": "181",
      "angle": 45.55410607093359
    },
    {
      "id": 70234,
      "geometry": "POINT (-84.293976 34.067849)",
      "poi_name": "Starbucks",
      "osm_id": 11352587630,
      "amenity": "cafe",
      "cuisine": "coffee_shop",
      "takeaway": "yes",
      "official_name": "Starbucks Coffee",
      "angle": 22.51730793296478
    },
    {
      "id": 68558,
      "geometry": "POINT (-84.91856 34.459275)",
      "poi_name": "Java Junction",
      "osm_id": 11273493723,
      "amenity": "cafe",
      "cuisine": "coffee_shop;sandwich;ice_cream",
      "opening_hours": "Mo-Sa 10:00-19:00; Su 11:00-19:00",
      "website": "https://www.premiumoutlets.com/outlet/calhoun-outlet-marketplace/stores/java-junction",
      "internet_access": "wlan",
      "phone": "+17066024561",
      "outdoor_seating": "yes",
      "addr_state": "GA",
      "addr_city": "Calhoun",
      "addr_postcode": "30701",
      "addr_street": "Belwood Road",
      "addr_housenumber": "455",
      "angle": 338.87004152686455
    },
    {
      "id": 72650,
      "geometry": "POINT (-84.315991 33.884318)",
      "poi_name": "Starbucks",
      "osm_id": 11440010591,
      "amenity": "cafe",
      "cuisine": "coffee_shop",
      "takeaway": "yes",
      "official_name": "Starbucks Coffee",
      "angle": 32.066858077542214
    },
    {
      "id": 73689,
      "geometry": "POINT (-84.796155 34.164602)",
      "poi_name": "Southern Muggs",
      "osm_id": 9650361443,
      "amenity": "cafe",
      "cuisine": "coffee_shop",
      "opening_hours": "Mo-Th 07:00-20:00; Fr-Sa 07:00-22:00; Su 08:00-18:00",
      "website": "https://southernmuggs.com/",
      "phone": "+1 (678) 719-8500",
      "addr_state": "GA",
      "addr_city": "Cartersville",
      "addr_postcode": "30120",
      "addr_street": "West Main Street",
      "addr_housenumber": "26",
      "angle": 337.67538917930364
    },
    {
      "id": 73197,
      "geometry": "POINT (-83.3244 33.938355)",
      "poi_name": "Vickars Nutritionist",
      "osm_id": 9613537073,
      "amenity": "cafe",
      "opening_hours": "07:00-13:00,17:00-20:00",
      "website": "https://asuccess.goherbalife.com/es-us",
      "phone": "06 540 4611",
      "addr_state": "GA",
      "addr_city": "Athens",
      "addr_postcode": "30605",
      "addr_street": "Gaines School Road",
      "addr_housenumber": "50",
      "angle": 71.49854278079388
    },
    {
      "id": 73976,
      "geometry": "POINT (-85.564063 33.122088)",
      "poi_name": "Red C Cafe",
      "osm_id": 9661041373,
      "amenity": "cafe",
      "opening_hours": "Mo-Sa 07:00-15:00",
      "phone": "+1 256 914 1089",
      "addr_city": "Wadley",
      "addr_street": "Main Street",
      "addr_housenumber": "216",
      "angle": 241.11846382903587
    },
    {
      "id": 74567,
      "geometry": "POINT (-83.380161 33.958815)",
      "poi_name": "The Rook & Pawn",
      "osm_id": 9686180534,
      "amenity": "cafe",
      "addr_state": "GA",
      "addr_city": "Athens",
      "angle": 69.59508386833892
    },
    {
      "id": 74259,
      "geometry": "POINT (-83.373846 33.961942)",
      "poi_name": "Lindsey\u2019s Culinary Markey",
      "osm_id": 9672606172,
      "amenity": "cafe",
      "opening_hours": "Mo-Fr 10:00-18:00",
      "website": "https://www.lindseysculinarymarket.com/",
      "addr_state": "GA",
      "addr_city": "Athens",
      "addr_postcode": "30601",
      "addr_street": "North Thomas Street",
      "addr_housenumber": "520",
      "angle": 69.52986205189193
    },
    {
      "id": 74636,
      "geometry": "POINT (-84.139845 34.208846)",
      "poi_name": "Community Cup - Coffeehouse and Bar",
      "osm_id": 9690451044,
      "amenity": "cafe",
      "cuisine": "coffee_shop",
      "opening_hours": "Mo-Fr 06:30-20:00; Sa 08:00-20:00",
      "phone": "4702150390",
      "addr_state": "GA",
      "addr_city": "Cumming",
      "addr_postcode": "30040",
      "addr_street": "Tribble Gap Road",
      "addr_housenumber": "125",
      "angle": 27.920011207666516
    },
    {
      "id": 74579,
      "geometry": "POINT (-83.376077 33.957708)",
      "poi_name": "Taichi Bubble Tea",
      "osm_id": 9686258022,
      "amenity": "cafe",
      "addr_state": "GA",
      "addr_city": "Athens",
      "addr_postcode": "30601",
      "addr_street": "East Broad Street",
      "addr_housenumber": "151",
      "angle": 69.71848071444222
    },
    {
      "id": 79775,
      "geometry": "POINT (-84.090386 33.831821)",
      "poi_name": "Alcove Coffee",
      "osm_id": 827126720,
      "amenity": "cafe",
      "angle": 58.30521902867279
    },
    {
      "id": 74882,
      "geometry": "POINT (-83.385754 33.94984)",
      "poi_name": "Choco Pronto",
      "osm_id": 9701825018,
      "amenity": "cafe",
      "cuisine": "coffee_shop",
      "opening_hours": "Mo-Fr 07:00-16:00; Sa 08:00-16:00; Su 08:00-15:00",
      "outdoor_seating": "no",
      "addr_city": "Athens",
      "addr_postcode": "30605",
      "addr_street": "Baxter Street",
      "addr_housenumber": "700",
      "angle": 69.98562364434682
    },
    {
      "id": 77269,
      "geometry": "POINT (-83.375276 33.95845)",
      "poi_name": "@local.",
      "osm_id": 9813379479,
      "amenity": "cafe",
      "cuisine": "coffee_shop",
      "website": "https://www.localonchurch.com/",
      "phone": "(678) 712-6299",
      "outdoor_seating": "no",
      "addr_city": "Athens",
      "addr_postcode": "30601",
      "addr_street": "College Avenue",
      "addr_housenumber": "198",
      "angle": 69.69180876779089
    },
    {
      "id": 77278,
      "geometry": "POINT (-83.409375 33.946124)",
      "poi_name": "Starbucks",
      "osm_id": 9813402548,
      "amenity": "cafe",
      "cuisine": "coffee_shop",
      "opening_hours": "Mo-Fr 05:30-21:00; Sa 06:00-21:00; Su 06:00-20:30",
      "takeaway": "yes",
      "official_name": "Starbucks Coffee",
      "addr_city": "Athens",
      "addr_postcode": "30606",
      "addr_street": "Alps Road",
      "addr_housenumber": "196",
      "angle": 69.8098781101848
    },
    {
      "id": 77279,
      "geometry": "POINT (-83.374857 33.957973)",
      "poi_name": "Bubble Cafe",
      "osm_id": 9813407958,
      "amenity": "cafe",
      "cuisine": "bubble_tea;asian",
      "addr_city": "Athens",
      "addr_postcode": "30601",
      "addr_street": "East Broad Street",
      "addr_housenumber": "247",
      "angle": 69.7236704289208
    },
    {
      "id": 78444,
      "geometry": "POINT (-84.468334 33.921697)",
      "poi_name": "Brazilian Bakery",
      "osm_id": 746540289,
      "amenity": "cafe",
      "cuisine": "brazilian",
      "description": "Free Wi-Fi Hotspot",
      "opening_hours": "Mo-Th 07:00-22:00; Fr-Sa 07:00-24:00; Su 08:00-24:00",
      "addr_state": "GA",
      "addr_city": "Marietta",
      "addr_street": "Powers Ferry Road Southeast",
      "addr_housenumber": "1260",
      "angle": 8.185585274851428
    },
    {
      "id": 78453,
      "geometry": "POINT (-84.629015 33.991974)",
      "poi_name": "Cuppy's Coffee",
      "osm_id": 747074559,
      "amenity": "cafe",
      "angle": 346.8739003019352
    },
    {
      "id": 79190,
      "geometry": "POINT (-84.34364 33.857192)",
      "poi_name": "Starbucks",
      "osm_id": 779187548,
      "amenity": "cafe",
      "cuisine": "coffee_shop",
      "takeaway": "yes",
      "official_name": "Starbucks Coffee",
      "angle": 31.058810563457918
    },
    {
      "id": 79191,
      "geometry": "POINT (-84.38836 33.818812)",
      "poi_name": "Starbucks",
      "osm_id": 779212214,
      "amenity": "cafe",
      "cuisine": "coffee_shop",
      "wheelchair": "yes",
      "takeaway": "yes",
      "official_name": "Starbucks Coffee",
      "angle": 28.132028984569004
    },
    {
      "id": 79196,
      "geometry": "POINT (-84.370149 33.843941)",
      "poi_name": "Caribou Coffee",
      "osm_id": 779212236,
      "amenity": "cafe",
      "cuisine": "coffee_shop",
      "takeaway": "yes",
      "angle": 28.457922182765557
    },
    {
      "id": 79201,
      "geometry": "POINT (-84.410306 33.779465)",
      "poi_name": "Octane Coffee Bar & Lounge",
      "osm_id": 780931920,
      "amenity": "cafe",
      "cuisine": "coffee_shop",
      "opening_hours": "Mo-Th 07:00-23:00;Fr 07:00-24:00;Sa 08:00-22:00;Su 08:00-22:00",
      "internet_access": "yes",
      "phone": "+1-404-815-9886",
      "addr_street": "Marietta Street",
      "addr_housenumber": "1009-B",
      "angle": 28.856660860482087
    },
    {
      "id": 81556,
      "geometry": "POINT (-84.217763 33.976132)",
      "poi_name": "Flying Biscuit Cafe",
      "osm_id": 1647183251,
      "amenity": "cafe",
      "angle": 34.68358014036771
    },
    {
      "id": 79803,
      "geometry": "POINT (-84.232177 33.957531)",
      "poi_name": "Starbucks",
      "osm_id": 829668486,
      "amenity": "cafe",
      "cuisine": "coffee_shop",
      "takeaway": "yes",
      "official_name": "Starbucks Coffee",
      "angle": 34.78817655082259
    },
    {
      "id": 80199,
      "geometry": "POINT (-84.39708 33.758453)",
      "poi_name": "Starbucks",
      "osm_id": 861902895,
      "amenity": "cafe",
      "cuisine": "coffee_shop",
      "takeaway": "yes",
      "official_name": "Starbucks Coffee",
      "angle": 35.13022437995073
    },
    {
      "id": 80855,
      "geometry": "POINT (-84.312516 33.818581)",
      "poi_name": "Starbucks",
      "osm_id": 1584192112,
      "amenity": "cafe",
      "cuisine": "coffee_shop",
      "takeaway": "yes",
      "official_name": "Starbucks Coffee",
      "angle": 39.97606002241399
    },
    {
      "id": 81495,
      "geometry": "POINT (-84.297223 33.777667)",
      "poi_name": "Crepe Masters",
      "osm_id": 1643182334,
      "amenity": "cafe",
      "angle": 48.22268441286835
    },
    {
      "id": 81833,
      "geometry": "POINT (-84.345425 33.740346)",
      "poi_name": "Joe's East Atlanta Coffee Shop",
      "osm_id": 1667797722,
      "amenity": "cafe",
      "cuisine": "coffee_shop",
      "opening_hours": "Mo-Su 07:00-17:00",
      "internet_access": "wlan",
      "outdoor_seating": "yes",
      "addr_street": "Flat Shoals Avenue SE",
      "addr_housenumber": "510",
      "angle": 48.5470225343528
    },
    {
      "id": 82933,
      "geometry": "POINT (-83.650907 32.832846)",
      "poi_name": "Jittery Joe's Coffee",
      "osm_id": 1721803766,
      "amenity": "cafe",
      "cuisine": "coffee_shop",
      "website": "http://www.jitteryjoes.com/locations/#macon",
      "internet_access": "wlan",
      "addr_postcode": "31201",
      "addr_street": "Montpelier Ave",
      "addr_housenumber": "1635",
      "angle": 136.46860138777654
    },
    {
      "id": 85029,
      "geometry": "POINT (-84.377727 33.936626)",
      "poi_name": "Starbucks",
      "osm_id": 1833761427,
      "amenity": "cafe",
      "cuisine": "coffee_shop",
      "takeaway": "yes",
      "official_name": "Starbucks Coffee",
      "angle": 20.22634577693399
    },
    {
      "id": 83526,
      "geometry": "POINT (-84.357253 33.740661)",
      "poi_name": "Drip Coffee Shop",
      "osm_id": 1748940289,
      "amenity": "cafe",
      "opening_hours": "Mo-Fr 07:00-18:00; Sa-Su 08:00-18:00",
      "addr_state": "GA",
      "addr_city": "Atlanta",
      "addr_postcode": "30316",
      "addr_street": "Garrett Street SE",
      "addr_housenumber": "928",
      "angle": 46.50458673009777
    },
    {
      "id": 83820,
      "geometry": "POINT (-84.308309 33.765461)",
      "poi_name": "Revolution Doughnuts",
      "osm_id": 1768740597,
      "amenity": "cafe",
      "cuisine": "donut",
      "website": "http://www.revolutiondonuts.com",
      "shop": "pastry",
      "phone": "+1-470-428-2023",
      "outdoor_seating": "sidewalk",
      "addr_city": "Decatur",
      "addr_postcode": "30030",
      "addr_street": "West College Avenue",
      "addr_housenumber": "908",
      "angle": 48.94022775033105
    },
    {
      "id": 86600,
      "geometry": "POINT (-84.367395 33.771456)",
      "poi_name": "The Dancing Goats Coffee Bar @ Ponce City Market",
      "osm_id": 1940768590,
      "amenity": "cafe",
      "cuisine": "coffee_shop",
      "website": "https://www.batdorfcoffee.com/",
      "internet_access": "wlan",
      "phone": "+1 404 874 0370",
      "addr_postcode": "30308",
      "addr_street": "North Avenue Northeast",
      "addr_housenumber": "650",
      "angle": 38.668164508657235
    },
    {
      "id": 87117,
      "geometry": "POINT (-84.372796 33.746078)",
      "poi_name": "The Little Tart Bakeshop",
      "osm_id": 1973081734,
      "amenity": "cafe",
      "opening_hours": "Mo-Fr 07:00-18:00; Sa-Su 08:00-16:00",
      "website": "https://www.littletartatl.com/location/grant-park/",
      "internet_access": "wlan",
      "outdoor_seating": "yes",
      "addr_postcode": "30312",
      "addr_street": "Memorial Drive Southeast",
      "addr_housenumber": "437",
      "angle": 42.51007709752207
    },
    {
      "id": 88818,
      "geometry": "POINT (-84.3994 33.7927)",
      "poi_name": "Starbucks",
      "osm_id": 8796724282,
      "amenity": "cafe",
      "cuisine": "coffee_shop",
      "opening_hours": "Mo-Su 08:00-21:00",
      "website": "https://www.starbucks.com/store-locator/store/6504/target-atlanta-t-2137-375-18th-st-atlanta-ga-303631190-us",
      "phone": "+1-678-954-4265",
      "takeaway": "yes",
      "official_name": "Starbucks Coffee",
      "addr_state": "GA",
      "addr_city": "Atlanta",
      "addr_postcode": "30363",
      "addr_street": "18th Street Northwest",
      "addr_housenumber": "375",
      "angle": 29.286219339276023
    },
    {
      "id": 94789,
      "geometry": "POINT (-84.388452 33.754392)",
      "poi_name": "Kung Fu Tea",
      "osm_id": 6375927985,
      "amenity": "cafe",
      "cuisine": "bubble_tea",
      "takeaway": "yes",
      "angle": 37.71498304413458
    },
    {
      "id": 89075,
      "geometry": "POINT (-83.382731 33.960181)",
      "poi_name": "Hendershot\u2019s",
      "osm_id": 8821586204,
      "amenity": "cafe",
      "addr_housenumber": "237",
      "angle": 69.48144680161724
    },
    {
      "id": 90751,
      "geometry": "POINT (-84.305027 33.792752)",
      "poi_name": "Nectar",
      "osm_id": 2015638373,
      "amenity": "cafe",
      "cuisine": "juice",
      "website": "http://nectarfoods.net",
      "angle": 44.74829212060912
    },
    {
      "id": 91029,
      "geometry": "POINT (-84.392649 33.75719)",
      "poi_name": "Just Around the Corner",
      "osm_id": 2035267512,
      "amenity": "cafe",
      "cuisine": "burger",
      "angle": 36.30754430145465
    },
    {
      "id": 93756,
      "geometry": "POINT (-84.355531 33.787262)",
      "poi_name": "San Francisco Coffee",
      "osm_id": 2184808417,
      "amenity": "cafe",
      "cuisine": "coffee_shop",
      "angle": 38.11650867514935
    },
    {
      "id": 94696,
      "geometry": "POINT (-84.310798 33.806215)",
      "poi_name": "Golden Drops Cafe",
      "osm_id": 6373302433,
      "amenity": "cafe",
      "cuisine": "coffee_shop",
      "wheelchair": "yes",
      "building": "yes",
      "opening_hours": "Tu-Fr 08:00-17:00; Sa,Su 10:00-17:00",
      "website": "https://www.goldendropscafe.com/",
      "internet_access": "wlan",
      "phone": "+1 404-968-9981",
      "takeaway": "yes",
      "outdoor_seating": "yes",
      "toilets": "no",
      "addr_street": "Clairmont Road",
      "addr_housenumber": "1788",
      "angle": 41.94370375596667
    },
    {
      "id": 97589,
      "geometry": "POINT (-84.580418 34.089121)",
      "poi_name": "La Villa Panaderia",
      "osm_id": 6484452437,
      "amenity": "cafe",
      "angle": 354.2161283663354
    },
    {
      "id": 95562,
      "geometry": "POINT (-84.049745 34.34938)",
      "poi_name": "Starbucks",
      "osm_id": 6401774123,
      "amenity": "cafe",
      "cuisine": "coffee_shop",
      "takeaway": "yes",
      "official_name": "Starbucks Coffee",
      "angle": 27.894077683587245
    },
    {
      "id": 98198,
      "geometry": "POINT (-84.544587 34.084289)",
      "poi_name": "Atlanta Bread Woodstock",
      "osm_id": 6510990468,
      "amenity": "cafe",
      "angle": 357.74029900565876
    },
    {
      "id": 100185,
      "geometry": "POINT (-83.718818 33.656167)",
      "poi_name": "Sacred Grounds Corner Cafe",
      "osm_id": 6577827258,
      "amenity": "cafe",
      "cuisine": "coffee_shop;coffee",
      "opening_hours": "Mo 06:00-13:00; Tu-Sa 06:00-14:00",
      "website": "http://sacredgroundscornercafe.com",
      "phone": "+1-678-465-9539",
      "outdoor_seating": "no",
      "addr_state": "GA",
      "addr_city": "Social Circle",
      "addr_postcode": "30025",
      "addr_street": "South Cherokee Road",
      "addr_housenumber": "109",
      "angle": 85.85564213546539
    },
    {
      "id": 99403,
      "geometry": "POINT (-84.551512 33.954048)",
      "poi_name": "Tiny Bubbles Tea Bar",
      "osm_id": 6550480119,
      "amenity": "cafe",
      "cuisine": "bubble_tea",
      "wheelchair": "yes",
      "opening_hours": "Su-Th 11:00-21:00; Fr 11:00-23:00; Sa 10:00-23:00",
      "website": "https://www.tinybubblesteabar.com/",
      "internet_access": "wlan",
      "phone": "+1 678-581-3777",
      "addr_street": "North Marietta Parkway",
      "addr_housenumber": "68",
      "angle": 355.92378879424734
    },
    {
      "id": 99406,
      "geometry": "POINT (-84.551599 33.954394)",
      "poi_name": "Bread & Butter Bakery",
      "osm_id": 6550480122,
      "amenity": "cafe",
      "opening_hours": "Su-Sa 11:00-22:00",
      "website": "https://breadandbutter.coffee/",
      "addr_street": "North Marietta Parkway",
      "addr_housenumber": "68",
      "angle": 355.9159906233375
    },
    {
      "id": 99916,
      "geometry": "POINT (-83.7134 33.794879)",
      "poi_name": "Coffee Camper Co.",
      "osm_id": 6568335399,
      "amenity": "cafe",
      "cuisine": "coffee_shop;coffee;tea;pastry",
      "opening_hours": "Mo-Sa 09:00-19:00",
      "website": "https://www.coffeecamperco.com",
      "internet_access": "wlan",
      "outdoor_seating": "no",
      "addr_state": "GA",
      "addr_city": "Monroe",
      "addr_postcode": "30655",
      "addr_street": "North Broad Street",
      "addr_housenumber": "101",
      "angle": 74.48627571678439
    },
    {
      "id": 100390,
      "geometry": "POINT (-83.860515 33.596221)",
      "poi_name": "Bread & Butter Bakery",
      "osm_id": 6583044343,
      "amenity": "cafe",
      "cuisine": "coffee_shop;coffee;pastry",
      "opening_hours": "Mo-Th 07:00-21:00; Fr-Sa 07:00-22:00; Su 08:00-20:00",
      "website": "https://breadandbutter.coffee/",
      "internet_access": "wlan",
      "phone": "+1-470-444-1330",
      "outdoor_seating": "no",
      "addr_state": "GA",
      "addr_city": "Covington",
      "addr_postcode": "30014",
      "addr_street": "Monticello Street Southwest",
      "addr_housenumber": "1124",
      "angle": 91.25300833029833
    },
    {
      "id": 104114,
      "geometry": "POINT (-84.582446 34.030404)",
      "poi_name": "Tinto's Coffee House",
      "osm_id": 8547497140,
      "amenity": "cafe",
      "cuisine": "coffee_shop",
      "opening_hours": "Mo-Fr 07:00-16:00; Sa-Su 09:00-16:00",
      "website": "https://www.tintoscoffee.com/",
      "phone": "+1 (678) 324-7389",
      "addr_state": "GA",
      "addr_city": "Kennesaw",
      "addr_postcode": "30144",
      "addr_street": "Chastain Road",
      "addr_housenumber": "1133",
      "angle": 353.1832032627211
    },
    {
      "id": 100559,
      "geometry": "POINT (-84.434224 33.806928)",
      "poi_name": "Cafe at Pharr",
      "osm_id": 6592625851,
      "amenity": "cafe",
      "opening_hours": "Mo-Fr 10:00-16:00, Sa 10:00-15:00",
      "website": "https://cafeatpharr.com/",
      "phone": "+1-678-0732-3334",
      "addr_state": "GA",
      "addr_city": "Atlanta",
      "addr_postcode": "30318",
      "addr_street": "Chattahoochee Avenue Northwest",
      "addr_housenumber": "1645",
      "angle": 20.437598934698855
    },
    {
      "id": 100665,
      "geometry": "POINT (-84.282159 33.896759)",
      "poi_name": "Kung Fu Tea",
      "osm_id": 6595142010,
      "amenity": "cafe",
      "opening_hours": "Su-Th 12:00-23:00, Fr-Sa 12:00-24:00",
      "website": "https://www.kungfutea.com",
      "phone": "+1-770-455-8585",
      "addr_state": "GA",
      "addr_city": "Doraville",
      "addr_postcode": "30340",
      "addr_street": "Buford Highway Northeast",
      "addr_housenumber": "5280-A",
      "angle": 34.89372644043744
    },
    {
      "id": 102736,
      "geometry": "POINT (-84.382304 34.058149)",
      "poi_name": "Starbucks",
      "osm_id": 8455196720,
      "amenity": "cafe",
      "cuisine": "coffee_shop",
      "phone": "+1-770-993-7573",
      "takeaway": "yes",
      "official_name": "Starbucks Coffee",
      "addr_state": "GA",
      "addr_city": "Roswell",
      "addr_postcode": "30075",
      "addr_street": "West Crossville Road",
      "addr_housenumber": "680",
      "angle": 14.555627714840083
    },
    {
      "id": 102746,
      "geometry": "POINT (-84.342918 34.034949)",
      "poi_name": "Starbucks",
      "osm_id": 8455427728,
      "amenity": "cafe",
      "cuisine": "coffee_shop",
      "takeaway": "yes",
      "official_name": "Starbucks Coffee",
      "addr_state": "GA",
      "addr_city": "Roswell",
      "addr_postcode": "30076",
      "addr_street": "Holcomb Bridge Road",
      "addr_housenumber": "609",
      "angle": 19.34267931255378
    },
    {
      "id": 103588,
      "geometry": "POINT (-83.386838 33.967953)",
      "poi_name": "Buvez!",
      "osm_id": 8512173350,
      "amenity": "cafe",
      "wheelchair": "yes",
      "angle": 69.0023235771757
    },
    {
      "id": 103913,
      "geometry": "POINT (-84.369509 33.839079)",
      "poi_name": "Corner Cafe",
      "osm_id": 8533230584,
      "amenity": "cafe",
      "outdoor_seating": "yes",
      "addr_state": "GA",
      "addr_city": "Atlanta",
      "addr_postcode": "30305",
      "addr_street": "Piedmont Road Northeast",
      "addr_housenumber": "3070",
      "angle": 29.06834442965
    },
    {
      "id": 103914,
      "geometry": "POINT (-84.39448 33.772642)",
      "poi_name": "Whistle Bistro",
      "osm_id": 8533230593,
      "amenity": "cafe",
      "wheelchair": "yes",
      "opening_hours": "Mo-Fr 09:00-15:00; Sa-Su off",
      "operator": "Tech Dining",
      "website": "https://www.dining.gatech.edu/node/181",
      "angle": 33.242426538131305
    },
    {
      "id": 108169,
      "geometry": "POINT (-84.31306 33.815809)",
      "poi_name": "Atlanta Coffee Roasters",
      "osm_id": 3599559801,
      "amenity": "cafe",
      "cuisine": "coffee_shop",
      "internet_access": "wlan",
      "takeaway": "yes",
      "drive_through": "no",
      "outdoor_seating": "yes",
      "angle": 40.28128657481644
    },
    {
      "id": 107012,
      "geometry": "POINT (-84.736543 33.730591)",
      "poi_name": "Starbucks",
      "osm_id": 3529212085,
      "amenity": "cafe",
      "cuisine": "coffee_shop",
      "takeaway": "yes",
      "official_name": "Starbucks Coffee",
      "angle": 303.9607398891153
    },
    {
      "id": 108406,
      "geometry": "POINT (-84.135144 33.886156)",
      "poi_name": "1910",
      "osm_id": 3613130980,
      "amenity": "cafe",
      "angle": 49.39514682154504
    },
    {
      "id": 109454,
      "geometry": "POINT (-84.466193 33.904342)",
      "poi_name": "Leb Byblos",
      "osm_id": 3660691414,
      "amenity": "cafe",
      "cuisine": "mediterranean",
      "opening_hours": "Mo-Fr 11:00-20:00; Sa 11:00-19:00",
      "internet_access": "no",
      "phone": "+1 (678) 503-8857",
      "outdoor_seating": "no",
      "addr_state": "GA",
      "addr_city": "Marietta",
      "addr_postcode": "30067",
      "addr_street": "Windy Hill Road Southeast",
      "addr_housenumber": "3000",
      "angle": 9.00239337384242
    },
    {
      "id": 112929,
      "geometry": "POINT (-84.650319 34.038492)",
      "poi_name": "Hybrid Fitness Cafe",
      "osm_id": 3810526907,
      "amenity": "cafe",
      "cuisine": "health_food",
      "internet_access": "wlan",
      "angle": 346.0101141221045
    },
    {
      "id": 115443,
      "geometry": "POINT (-84.377308 33.839871)",
      "poi_name": "Cafe at Pharr",
      "osm_id": 8895754117,
      "amenity": "cafe",
      "angle": 27.72898496046488
    },
    {
      "id": 115791,
      "geometry": "POINT (-84.423792 33.979132)",
      "poi_name": "Bagelicious",
      "osm_id": 8912479508,
      "amenity": "cafe",
      "cuisine": "bagel",
      "opening_hours": "Mo-Su 06:00-16:00",
      "phone": "+1 (770) 509-9505",
      "takeaway": "yes",
      "addr_state": "GA",
      "addr_city": "Marietta",
      "addr_postcode": "30068",
      "addr_street": "Powers Ferry Road Southeast",
      "addr_housenumber": "1255",
      "angle": 12.511955428025605
    },
    {
      "id": 115796,
      "geometry": "POINT (-84.423704 33.979086)",
      "poi_name": "Yogli Mogli",
      "osm_id": 8912548813,
      "amenity": "cafe",
      "cuisine": "frozen_yogurt",
      "opening_hours": "Mo-Su 12:00-22:00",
      "website": "https://www.yoglimogli.com/",
      "phone": "+1 (770) 578-1802",
      "addr_state": "GA",
      "addr_city": "Marietta",
      "addr_postcode": "30068",
      "addr_street": "Powers Ferry Road Southeast",
      "addr_housenumber": "1255",
      "angle": 12.524366750310286
    },
    {
      "id": 119332,
      "geometry": "POINT (-85.163108 34.248411)",
      "poi_name": "Starbucks",
      "osm_id": 9098903913,
      "amenity": "cafe",
      "cuisine": "coffee_shop",
      "takeaway": "yes",
      "official_name": "Starbucks Coffee",
      "angle": 320.2457758792793
    },
    {
      "id": 116786,
      "geometry": "POINT (-84.371323 33.575203)",
      "poi_name": "Starbucks",
      "osm_id": 8960250386,
      "amenity": "cafe",
      "cuisine": "coffee_shop",
      "takeaway": "yes",
      "official_name": "Starbucks Coffee",
      "angle": 105.41761585226551
    },
    {
      "id": 116789,
      "geometry": "POINT (-84.34723 33.610584)",
      "poi_name": "Quickly",
      "osm_id": 8960250542,
      "amenity": "cafe",
      "cuisine": "bubble_tea",
      "takeaway": "yes",
      "angle": 89.76199440254578
    },
    {
      "id": 118380,
      "geometry": "POINT (-84.281984 33.774215)",
      "poi_name": "Hodgepodge Coffeehouse",
      "osm_id": 9043614206,
      "amenity": "cafe",
      "opening_hours": "Mo-Sa 07:00-17:00, Su 08:00-17:00",
      "website": "https://hodgepodgecoffee.com/pages/hodgepodge-east",
      "internet_access": "yes",
      "phone": "+1-404-390-3949",
      "outdoor_seating": "yes",
      "addr_state": "GA",
      "addr_city": "Decatur",
      "addr_postcode": "30030",
      "addr_street": "East College Avenue",
      "addr_housenumber": "2653",
      "angle": 50.66236993253242
    },
    {
      "id": 119704,
      "geometry": "POINT (-84.481518 34.695543)",
      "poi_name": "Corner Stone Cafe",
      "osm_id": 9118232696,
      "amenity": "cafe",
      "cuisine": "breakfast;lunch;southern",
      "opening_hours": "Mo-Th 08:00-13:00; Fr-Su 08:00-14:00",
      "phone": "+1 (706) 636-2230",
      "addr_state": "GA",
      "addr_city": "Ellijay",
      "addr_postcode": "30540",
      "addr_street": "North Main Street",
      "addr_housenumber": "76",
      "angle": 1.7689471160196577
    },
    {
      "id": 124340,
      "geometry": "POINT (-84.388926 33.775014)",
      "poi_name": "Starbucks",
      "osm_id": 6912898013,
      "amenity": "cafe",
      "cuisine": "coffee_shop",
      "opening_hours": "Mo-Fr 05:30-20:00; Fr 05:30-20:30; Sa 06:00-20:30; Su 06:00-20:00",
      "takeaway": "yes",
      "official_name": "Starbucks Coffee",
      "addr_state": "GA",
      "addr_city": "Atlanta",
      "addr_postcode": "30308",
      "addr_street": "Spring Street Northwest",
      "addr_housenumber": "708",
      "angle": 33.98330309699693
    },
    {
      "id": 119735,
      "geometry": "POINT (-84.329384 33.894493)",
      "poi_name": "STARBUCKS",
      "osm_id": 9120011783,
      "amenity": "cafe",
      "cuisine": "coffee_shop",
      "takeaway": "yes",
      "official_name": "Starbucks Coffee",
      "angle": 29.458392174276277
    },
    {
      "id": 124466,
      "geometry": "POINT (-84.394799 33.760395)",
      "poi_name": "Starbucks",
      "osm_id": 6918500667,
      "amenity": "cafe",
      "cuisine": "coffee_shop",
      "takeaway": "yes",
      "official_name": "Starbucks Coffee",
      "angle": 35.2663267093415
    },
    {
      "id": 124470,
      "geometry": "POINT (-84.394414 33.757888)",
      "poi_name": "Starbucks",
      "osm_id": 6918531177,
      "amenity": "cafe",
      "cuisine": "coffee_shop",
      "takeaway": "yes",
      "official_name": "Starbucks Coffee",
      "angle": 35.80454902836277
    },
    {
      "id": 128573,
      "geometry": "POINT (-84.413821 33.786852)",
      "poi_name": "Chattahoochee Coffee",
      "osm_id": 8171357808,
      "amenity": "cafe",
      "angle": 27.084319811231584
    },
    {
      "id": 126897,
      "geometry": "POINT (-84.329369 33.894493)",
      "poi_name": "Starbucks",
      "osm_id": 8009983176,
      "amenity": "cafe",
      "cuisine": "coffee_shop",
      "takeaway": "yes",
      "official_name": "Starbucks Coffee",
      "angle": 29.460368975897925
    },
    {
      "id": 128904,
      "geometry": "POINT (-84.564025 33.377329)",
      "poi_name": "Starbucks",
      "osm_id": 8196179129,
      "amenity": "cafe",
      "cuisine": "coffee_shop",
      "takeaway": "yes",
      "official_name": "Starbucks Coffee",
      "angle": 188.59325000745577
    },
    {
      "id": 129852,
      "geometry": "POINT (-83.369582 33.957066)",
      "poi_name": "Vampire Penguin Shaved Snow And Coffee",
      "osm_id": 9843940666,
      "amenity": "cafe",
      "addr_city": "Athens",
      "addr_postcode": "30601",
      "addr_street": "Hickory Street",
      "addr_housenumber": "115",
      "angle": 69.85424487801963
    },
    {
      "id": 129976,
      "geometry": "POINT (-84.39652 33.774227)",
      "poi_name": "Kaldi's Coffee",
      "osm_id": 9848845383,
      "amenity": "cafe",
      "cuisine": "coffee_shop",
      "opening_hours": "Mo-Fr 09:00-15:00; Su-Sa off",
      "outdoor_seating": "yes",
      "addr_state": "GA",
      "addr_city": "Atlanta",
      "addr_postcode": "30313",
      "addr_street": "4th Street",
      "addr_housenumber": "266",
      "angle": 32.5678549639118
    },
    {
      "id": 135251,
      "geometry": "POINT (-84.389642 33.770665)",
      "poi_name": "Tim Hortons",
      "osm_id": 11509900660,
      "amenity": "cafe",
      "cuisine": "coffee_shop",
      "opening_hours": "Mo-Su 05:00-20:00",
      "website": "https://locations.timhortons.com/en/ga/atlanta/610-spring-st-nw/",
      "phone": "(470) 265-3003",
      "takeaway": "yes",
      "outdoor_seating": "no",
      "addr_state": "GA",
      "addr_city": "Atlanta",
      "addr_postcode": "30308",
      "addr_street": "Spring Street Northwest",
      "addr_housenumber": "610",
      "angle": 34.5533979683121
    },
    {
      "id": 132382,
      "geometry": "POINT (-83.343552 33.921682)",
      "poi_name": "Starbucks",
      "osm_id": 9953024845,
      "amenity": "cafe",
      "cuisine": "coffee_shop",
      "takeaway": "yes",
      "official_name": "Starbucks Coffee",
      "angle": 72.10792381726944
    },
    {
      "id": 132660,
      "geometry": "POINT (-84.626368 34.029674)",
      "poi_name": "Kennesaw Coffee Co.",
      "osm_id": 9962524041,
      "amenity": "cafe",
      "cuisine": "coffee_shop",
      "opening_hours": "Mo-Fr 07:00-20:00; Sa 08:00-20:00",
      "website": "https://justbettercustomcoffee.com/",
      "internet_access": "yes",
      "phone": "+1 (770) 485-1114",
      "drive_through": "yes",
      "outdoor_seating": "yes",
      "addr_state": "GA",
      "addr_city": "Kennesaw",
      "addr_postcode": "30144",
      "addr_street": "North Main Street",
      "addr_housenumber": "3070",
      "angle": 348.31083701313247
    },
    {
      "id": 134887,
      "geometry": "POINT (-83.267639 33.4185)",
      "poi_name": "The Pickled Okra",
      "osm_id": 11494893999,
      "amenity": "cafe",
      "angle": 99.98683749221343
    },
    {
      "id": 136998,
      "geometry": "POINT (-85.168615 34.28289)",
      "poi_name": "Lumina Coffee Company",
      "osm_id": 6080424179,
      "amenity": "cafe",
      "cuisine": "coffee_shop",
      "opening_hours": "Mo-Sa 06:00-22:00",
      "internet_access": "yes",
      "addr_state": "GA",
      "addr_city": "Rome",
      "addr_postcode": "30161",
      "addr_street": "Braves Blvd NE",
      "addr_housenumber": "640",
      "angle": 321.4902703878895
    },
    {
      "id": 139211,
      "geometry": "POINT (-84.383965 33.780074)",
      "poi_name": "Sweet Hut Bakery",
      "osm_id": 6186979685,
      "amenity": "cafe",
      "cuisine": "cake;donut;coffee_shop",
      "wheelchair": "yes",
      "opening_hours": "Mo-Th 11:00-22:00; Fr-Su 11:00-23:00",
      "website": "https://www.sweethutbakery.com/",
      "internet_access": "wlan",
      "phone": "4046004800",
      "outdoor_seating": "no",
      "addr_postcode": "30309",
      "addr_street": "Peachtree Street",
      "addr_housenumber": "933",
      "angle": 34.15021990107107
    },
    {
      "id": 137306,
      "geometry": "POINT (-85.097974 33.573803)",
      "poi_name": "Starbucks",
      "osm_id": 6093056241,
      "amenity": "cafe",
      "cuisine": "coffee_shop",
      "internet_access": "wlan",
      "takeaway": "yes",
      "official_name": "Starbucks Coffee",
      "outdoor_seating": "yes",
      "angle": 265.8523711133853
    },
    {
      "id": 139663,
      "geometry": "POINT (-84.411879 33.785609)",
      "poi_name": "Brash",
      "osm_id": 6208524788,
      "amenity": "cafe",
      "angle": 27.66557464026415
    },
    {
      "id": 140033,
      "geometry": "POINT (-84.387749 33.770677)",
      "poi_name": "Cafeteria",
      "osm_id": 6227558789,
      "amenity": "cafe",
      "cuisine": "chicken;breakfast;lunch",
      "opening_hours": "Mo-Fr 09:00-15:00",
      "internet_access": "no",
      "outdoor_seating": "no",
      "addr_state": "GA",
      "addr_city": "Atlanta",
      "addr_postcode": "30308",
      "addr_street": "West Peachtree Street Northwest",
      "addr_housenumber": "600",
      "angle": 34.931849439681066
    },
    {
      "id": 139619,
      "geometry": "POINT (-84.386422 33.78057)",
      "poi_name": "Dancing Goats Coffee Bar",
      "osm_id": 6206100587,
      "amenity": "cafe",
      "internet_access": "wlan",
      "phone": "+1 404 600 6547",
      "outdoor_seating": "yes",
      "addr_street": "Peachtree Place Northeast",
      "addr_housenumber": "33",
      "angle": 33.59759317670591
    },
    {
      "id": 140042,
      "geometry": "POINT (-84.397979 33.780723)",
      "poi_name": "Gold & Bold Coffee Roasters",
      "osm_id": 6228019385,
      "amenity": "cafe",
      "cuisine": "coffee_shop",
      "opening_hours": "Tu-Th 09:00-15:00; Fr 08:00-15:00; Sa-Mo off",
      "website": "https://www.dining.gatech.edu/node/239",
      "outdoor_seating": "no",
      "addr_state": "GA",
      "addr_city": "Atlanta",
      "addr_postcode": "30332",
      "addr_street": "Atlantic Drive Northwest",
      "addr_housenumber": "950",
      "angle": 31.268131523918843
    },
    {
      "id": 140293,
      "geometry": "POINT (-84.518982 34.09977)",
      "poi_name": "Copper Coin Coffee",
      "osm_id": 6238896789,
      "amenity": "cafe",
      "cuisine": "coffee_shop;brunch;breakfast",
      "website": "https://coppercoinwoodstock.com/",
      "internet_access": "wlan",
      "outdoor_seating": "yes",
      "addr_state": "GA",
      "addr_city": "Woodstock",
      "addr_postcode": "30188",
      "addr_street": "Chambers Street",
      "addr_housenumber": "400",
      "angle": 0.30350435033858497
    },
    {
      "id": 140844,
      "geometry": "POINT (-84.296765 34.077069)",
      "poi_name": "The Nest Cafe",
      "osm_id": 6262733188,
      "amenity": "cafe",
      "cuisine": "coffee_shop",
      "internet_access": "yes",
      "outdoor_seating": "yes",
      "addr_state": "GA",
      "addr_city": "Alpharetta",
      "addr_postcode": "30009",
      "addr_street": "Canton Street",
      "addr_housenumber": "58",
      "angle": 21.86945959557331
    },
    {
      "id": 140557,
      "geometry": "POINT (-84.395305 33.774299)",
      "poi_name": "Blue Donkey Coffee",
      "osm_id": 6250268928,
      "amenity": "cafe",
      "angle": 32.806853460006145
    },
    {
      "id": 140845,
      "geometry": "POINT (-84.294813 34.070777)",
      "poi_name": "Starbucks",
      "osm_id": 6262733189,
      "amenity": "cafe",
      "cuisine": "coffee_shop",
      "takeaway": "yes",
      "official_name": "Starbucks Coffee",
      "outdoor_seating": "yes",
      "addr_state": "GA",
      "addr_city": "Alpharetta",
      "addr_postcode": "30009",
      "addr_street": "Haynes Bridge Road",
      "addr_housenumber": "11770",
      "angle": 22.313774117720712
    },
    {
      "id": 141390,
      "geometry": "POINT (-84.316122 33.883936)",
      "poi_name": "Starbucks",
      "osm_id": 6283505847,
      "amenity": "cafe",
      "cuisine": "coffee_shop",
      "takeaway": "yes",
      "official_name": "Starbucks Coffee",
      "addr_state": "GA",
      "addr_city": "Chamblee",
      "addr_postcode": "30341",
      "addr_street": "Peachtree Boulevard",
      "addr_housenumber": "5001",
      "angle": 32.08652956338102
    },
    {
      "id": 145005,
      "geometry": "POINT (-84.429477 34.467896)",
      "poi_name": "Lollidrops Sweet Shoppe",
      "osm_id": 7300398013,
      "amenity": "cafe",
      "cuisine": "coffee_shop",
      "opening_hours": "Mo-Th 10:00-21:00; Fr-Sa 10:00-22:00; Su 11:00-21:00",
      "website": "http://www.lollidropscandy.com",
      "shop": "ice_cream;confectionery;",
      "phone": "+1 (706) 253-0465",
      "addr_state": "GA",
      "addr_city": "Jasper",
      "addr_postcode": "30143",
      "addr_street": "South Main Street",
      "addr_housenumber": "17",
      "angle": 5.110664835505684
    },
    {
      "id": 142329,
      "geometry": "POINT (-84.174451 34.09497)",
      "poi_name": "Starbucks",
      "osm_id": 6311454169,
      "amenity": "cafe",
      "cuisine": "coffee_shop",
      "takeaway": "yes",
      "official_name": "Starbucks Coffee",
      "addr_state": "GA",
      "addr_city": "Suwanee",
      "addr_postcode": "30024",
      "addr_street": "Peachtree Parkway",
      "addr_housenumber": "2609",
      "angle": 30.791705480321546
    },
    {
      "id": 147774,
      "geometry": "POINT (-84.338382 33.935478)",
      "poi_name": "Wild wings cafe",
      "osm_id": 7560940485,
      "amenity": "cafe",
      "angle": 25.19439432734621
    },
    {
      "id": 147553,
      "geometry": "POINT (-84.060796 33.884463)",
      "poi_name": "Starbucks",
      "osm_id": 7542898735,
      "amenity": "cafe",
      "cuisine": "coffee_shop",
      "opening_hours": "Mo-Fr 06:00-20:00; Sa,Su 07:00-20:00",
      "takeaway": "yes",
      "official_name": "Starbucks Coffee",
      "outdoor_seating": "no",
      "angle": 54.42248628616295
    },
    {
      "id": 147858,
      "geometry": "POINT (-84.393382 33.807714)",
      "poi_name": "Fresh4You",
      "osm_id": 7567432349,
      "amenity": "cafe",
      "angle": 28.52710454043966
    },
    {
      "id": 148459,
      "geometry": "POINT (-83.984711 34.074397)",
      "poi_name": "Starbucks",
      "osm_id": 3954033231,
      "amenity": "cafe",
      "cuisine": "coffee_shop",
      "takeaway": "yes",
      "official_name": "Starbucks Coffee",
      "addr_state": "GA",
      "addr_city": "Buford",
      "addr_postcode": "30519",
      "addr_street": "Buford Drive",
      "addr_housenumber": "3380",
      "angle": 43.85387611656551
    },
    {
      "id": 152314,
      "geometry": "POINT (-84.338286 33.92185)",
      "poi_name": "Starbucks",
      "osm_id": 4138955189,
      "amenity": "cafe",
      "cuisine": "coffee_shop",
      "internet_access": "yes",
      "takeaway": "yes",
      "official_name": "Starbucks Coffee",
      "addr_state": "GA",
      "addr_city": "Dunwoody",
      "addr_postcode": "30346",
      "addr_street": "Ashford Dunwoody Road Northeast",
      "addr_housenumber": "4441",
      "angle": 26.16655664131358
    },
    {
      "id": 148783,
      "geometry": "POINT (-84.076634 34.121621)",
      "poi_name": "Starbucks",
      "osm_id": 3980484435,
      "amenity": "cafe",
      "cuisine": "coffee_shop",
      "takeaway": "yes",
      "official_name": "Starbucks Coffee",
      "angle": 35.873714171917065
    },
    {
      "id": 148817,
      "geometry": "POINT (-84.195227 33.968801)",
      "poi_name": "Starbucks",
      "osm_id": 3982920965,
      "amenity": "cafe",
      "cuisine": "coffee_shop",
      "takeaway": "yes",
      "official_name": "Starbucks Coffee",
      "angle": 37.17560813475488
    },
    {
      "id": 151094,
      "geometry": "POINT (-84.369872 33.822734)",
      "poi_name": "SIP The Experience",
      "osm_id": 4081894989,
      "amenity": "cafe",
      "cuisine": "coffee_shop",
      "internet_access": "yes",
      "addr_state": "GA",
      "addr_city": "Atlanta",
      "addr_postcode": "30324",
      "addr_street": "Main Street",
      "addr_housenumber": "528",
      "angle": 30.84870362578839
    },
    {
      "id": 155423,
      "geometry": "POINT (-84.274497 34.089011)",
      "poi_name": "Starbucks",
      "osm_id": 4285520360,
      "amenity": "cafe",
      "cuisine": "coffee_shop",
      "internet_access": "yes",
      "takeaway": "yes",
      "official_name": "Starbucks Coffee",
      "addr_state": "GA",
      "addr_city": "Alpharetta",
      "addr_postcode": "30004",
      "addr_street": "Windward Parkway",
      "addr_housenumber": "5325",
      "angle": 23.26536576226731
    },
    {
      "id": 153625,
      "geometry": "POINT (-84.818464 34.157388)",
      "poi_name": "Starbucks",
      "osm_id": 4206068289,
      "amenity": "cafe",
      "cuisine": "coffee_shop",
      "takeaway": "yes",
      "official_name": "Starbucks Coffee",
      "angle": 335.7767838394257
    },
    {
      "id": 155506,
      "geometry": "POINT (-84.940766 34.523954)",
      "poi_name": "Little Giant Grille",
      "osm_id": 4288698913,
      "amenity": "cafe",
      "phone": "+1 (706) 602-9404",
      "angle": 339.24695349317125
    },
    {
      "id": 156203,
      "geometry": "POINT (-84.38234 33.836226)",
      "poi_name": "IN Between Cafe",
      "osm_id": 4643468356,
      "amenity": "cafe",
      "addr_state": "GA",
      "addr_city": "Atlanta",
      "addr_postcode": "30305",
      "addr_street": "Peachtree Road",
      "addr_housenumber": "2970",
      "angle": 27.27570207144493
    },
    {
      "id": 155630,
      "geometry": "POINT (-84.550388 33.952546)",
      "poi_name": "Tiny Bubbles Tea Bar",
      "osm_id": 4293926213,
      "amenity": "cafe",
      "opening_hours": "Mo-Sa 10:00-22:00; Su 10:00-21:00",
      "website": "http://www.tinybubblesteabar.com/",
      "internet_access": "wlan",
      "phone": "+1 (678) 581-3777",
      "outdoor_seating": "no",
      "addr_state": "GA",
      "addr_city": "Marietta",
      "addr_postcode": "30060",
      "addr_street": "West Park Square",
      "addr_housenumber": "21",
      "angle": 356.061879146308
    },
    {
      "id": 157278,
      "geometry": "POINT (-84.465422 33.876967)",
      "poi_name": "Cafe Copper Top",
      "osm_id": 4698283410,
      "amenity": "cafe",
      "outdoor_seating": "yes",
      "addr_state": "GA",
      "addr_city": "Atlanta",
      "addr_street": "Cumberland Boulevard Southeast",
      "addr_housenumber": "3100",
      "angle": 10.045320827347057
    },
    {
      "id": 157271,
      "geometry": "POINT (-84.465519 33.877559)",
      "poi_name": "Starbucks",
      "osm_id": 4697355860,
      "amenity": "cafe",
      "cuisine": "coffee_shop",
      "takeaway": "yes",
      "official_name": "Starbucks Coffee",
      "addr_state": "GA",
      "addr_city": "Atlanta",
      "addr_postcode": "30339",
      "addr_street": "Cumberland Boulevard Southeast",
      "addr_housenumber": "3000",
      "angle": 10.006694651135552
    },
    {
      "id": 159006,
      "geometry": "POINT (-84.408684 33.658871)",
      "poi_name": "drip",
      "osm_id": 4772967643,
      "amenity": "cafe",
      "cuisine": "coffee_shop",
      "opening_hours": "07:00-18:00; Sa 10:00-16:00; Su 10:00-15:00",
      "website": "http://www.dripatl.com/",
      "outdoor_seating": "no",
      "toilets": "yes",
      "addr_state": "GA",
      "addr_city": "Hapeville",
      "addr_postcode": "30354",
      "addr_street": "North Central Avenue",
      "addr_housenumber": "601",
      "angle": 62.76185205605632
    },
    {
      "id": 157328,
      "geometry": "POINT (-84.388349 33.776637)",
      "poi_name": "Starbucks",
      "osm_id": 4702370101,
      "amenity": "cafe",
      "cuisine": "coffee_shop",
      "wheelchair": "limited",
      "opening_hours": "May-Jul: Mo-Fr 07:00-20:00; May-Jul: Sa,Su 09:00-18:00",
      "takeaway": "yes",
      "official_name": "Starbucks Coffee",
      "angle": 33.83788594486284
    },
    {
      "id": 159011,
      "geometry": "POINT (-84.042723 33.804288)",
      "poi_name": "QT",
      "osm_id": 4773181121,
      "amenity": "cafe",
      "opening_hours": "24/7",
      "angle": 64.0082638186509
    },
    {
      "id": 161335,
      "geometry": "POINT (-83.978851 34.594413)",
      "poi_name": "Vineyard Caf\u00e9",
      "osm_id": 4876802914,
      "amenity": "cafe",
      "opening_hours": "Th-Sa 12:00-15:00",
      "operator": "Wolf Mountain Vineyards & Winery",
      "phone": "+1 (706) 867-9862",
      "angle": 24.508527123278697
    },
    {
      "id": 161336,
      "geometry": "POINT (-83.978944 34.594308)",
      "poi_name": "Tasting Room",
      "osm_id": 4876802920,
      "amenity": "cafe",
      "tourism": "attraction",
      "opening_hours": "Jan 07-Feb 28: Sa 11:00-17:00; Su 12:30-17:00; Mar-Aug: Th-Sa 11:00-17:00; Su 12:30-17:00; Sep-Nov: Tu-Sa 11:00-17:00; Su 12:30-17:00; Dec 01-18: Sa 11:00-17:00; Su 12:30-17:00",
      "operator": "Wolf Mountain Vineyards & Winery",
      "angle": 24.507193733420213
    },
    {
      "id": 162922,
      "geometry": "POINT (-84.08506 34.004759)",
      "poi_name": "Gong Cha",
      "osm_id": 9389297500,
      "amenity": "cafe",
      "cuisine": "bubble_tea",
      "takeaway": "yes",
      "addr_state": "GA",
      "addr_city": "Suwanee",
      "addr_postcode": "30024",
      "addr_street": "Old Peachtree Road Northwest",
      "addr_housenumber": "1299",
      "angle": 42.62956723811592
    },
    {
      "id": 162926,
      "geometry": "POINT (-84.083605 34.005298)",
      "poi_name": "Arte 3",
      "osm_id": 9389297506,
      "amenity": "cafe",
      "addr_state": "GA",
      "addr_city": "Suwanee",
      "addr_postcode": "30024",
      "addr_street": "Old Peachtree Road Northwest",
      "addr_housenumber": "1291",
      "angle": 42.685060854227125
    },
    {
      "id": 162928,
      "geometry": "POINT (-84.08239 34.001968)",
      "poi_name": "Starbucks",
      "osm_id": 9389297508,
      "amenity": "cafe",
      "cuisine": "coffee_shop",
      "takeaway": "yes",
      "official_name": "Starbucks Coffee",
      "addr_state": "GA",
      "addr_city": "Duluth",
      "addr_postcode": "30097",
      "addr_street": "Satellite Boulevard Northwest",
      "addr_housenumber": "1611",
      "angle": 43.0061844354011
    },
    {
      "id": 164016,
      "geometry": "POINT (-83.988828 33.956176)",
      "poi_name": "Reyna's Espresso & Sweets",
      "osm_id": 9446493437,
      "amenity": "cafe",
      "opening_hours": "Mo-Sa 08:00-20:00; Su 09:00-16:00",
      "website": "https://reynas.us/",
      "outdoor_seating": "yes",
      "addr_state": "GA",
      "addr_city": "Lawrenceville",
      "addr_postcode": "30046",
      "addr_street": "West Crogan Street",
      "addr_housenumber": "137",
      "angle": 51.9979937706955
    },
    {
      "id": 163537,
      "geometry": "POINT (-85.031896 33.038057)",
      "poi_name": "Sweet Roast Cafe",
      "osm_id": 9422878747,
      "amenity": "cafe",
      "angle": 216.94256427877804
    },
    {
      "id": 163561,
      "geometry": "POINT (-84.982698 33.041575)",
      "poi_name": "Starbucks",
      "osm_id": 9424276398,
      "amenity": "cafe",
      "cuisine": "coffee_shop",
      "takeaway": "yes",
      "official_name": "Starbucks Coffee",
      "angle": 214.34735121754687
    },
    {
      "id": 164229,
      "geometry": "POINT (-84.280429 34.096309)",
      "poi_name": "Mambo's Cafe",
      "osm_id": 9457538760,
      "amenity": "cafe",
      "angle": 22.456781987889507
    },
    {
      "id": 164233,
      "geometry": "POINT (-84.174772 34.160908)",
      "poi_name": "Starbucks",
      "osm_id": 9457732973,
      "amenity": "cafe",
      "cuisine": "coffee_shop",
      "wheelchair": "yes",
      "takeaway": "yes",
      "official_name": "Starbucks Coffee",
      "angle": 27.64358800020614
    },
    {
      "id": 164397,
      "geometry": "POINT (-84.515672 33.884112)",
      "poi_name": "Caf\u00e9 Lucia",
      "osm_id": 9469785397,
      "amenity": "cafe",
      "cuisine": "coffee_shop",
      "wheelchair": "yes",
      "opening_hours": "Mo-Fr 07:00-20:00; Sa 08:00-20:00; Su 08:00-19:00",
      "website": "https://cafeluciaatl.com/",
      "internet_access": "wlan",
      "phone": "+1 678-424-1015",
      "takeaway": "yes",
      "outdoor_seating": "yes",
      "toilets": "yes",
      "addr_state": "GA",
      "addr_city": "Smyrna",
      "addr_postcode": "30080",
      "addr_street": "West Spring Street",
      "addr_housenumber": "1260",
      "angle": 1.120977461862626
    },
    {
      "id": 165524,
      "geometry": "POINT (-84.336123 33.925218)",
      "poi_name": "Caf\u00e9 Intermezzo",
      "osm_id": 9542931510,
      "amenity": "cafe",
      "cuisine": "coffee_shop;bistro;cake;pastry",
      "website": "https://www.cafeintermezzo.com/location-dunwoody-ga",
      "phone": "+1 (770) 396-1344",
      "outdoor_seating": "yes",
      "addr_state": "GA",
      "addr_city": "Atlanta",
      "addr_postcode": "30346",
      "addr_street": "Ashford Dunwoody Road Northeast",
      "addr_housenumber": "4505",
      "angle": 26.187096496807733
    },
    {
      "id": 165707,
      "geometry": "POINT (-84.014121 33.871846)",
      "poi_name": "Kahala Coffee Traders",
      "osm_id": 9553074138,
      "amenity": "cafe",
      "cuisine": "coffee_shop",
      "angle": 58.194059077569825
    },
    {
      "id": 165745,
      "geometry": "POINT (-84.016069 33.875064)",
      "poi_name": "Starbucks",
      "osm_id": 9554908345,
      "amenity": "cafe",
      "cuisine": "coffee_shop",
      "opening_hours": "Mo-Su 08:00-20:00",
      "takeaway": "yes",
      "official_name": "Starbucks Coffee",
      "outdoor_seating": "no",
      "angle": 57.78143504065578
    },
    {
      "id": 165972,
      "geometry": "POINT (-84.297165 34.073875)",
      "poi_name": "The Ginger Roo.",
      "osm_id": 9567373917,
      "amenity": "cafe",
      "website": "https://www.the-gingerroom.com/",
      "phone": "(678)399-9964",
      "addr_postcode": "30009",
      "addr_street": "Roswell Street",
      "addr_housenumber": "61",
      "angle": 21.97108184456086
    },
    {
      "id": 167694,
      "geometry": "POINT (-84.320696 33.788348)",
      "poi_name": "Bread Coffeehouse",
      "osm_id": 358780359,
      "amenity": "cafe",
      "cuisine": "coffee_shop",
      "angle": 43.306981008128226
    },
    {
      "id": 166424,
      "geometry": "POINT (-83.393114 33.966323)",
      "poi_name": "Heirloom Cafe",
      "osm_id": 9592374229,
      "amenity": "cafe",
      "angle": 68.98569464646143
    },
    {
      "id": 168780,
      "geometry": "POINT (-84.380636 33.782092)",
      "poi_name": "Caribou Coffee",
      "osm_id": 2277885151,
      "amenity": "cafe",
      "cuisine": "coffee_shop",
      "wheelchair": "yes",
      "takeaway": "yes",
      "angle": 34.46970533919612
    },
    {
      "id": 168876,
      "geometry": "POINT (-84.331338 33.82743)",
      "poi_name": "Starbucks",
      "osm_id": 2283453470,
      "amenity": "cafe",
      "cuisine": "coffee_shop",
      "takeaway": "yes",
      "official_name": "Starbucks Coffee",
      "addr_state": "GA",
      "addr_postcode": "30329",
      "addr_street": "North Druid Hills Road Northeast",
      "addr_housenumber": "2321",
      "angle": 36.20703241521103
    },
    {
      "id": 170868,
      "geometry": "POINT (-84.37076 33.798133)",
      "poi_name": "Starbucks",
      "osm_id": 2351693960,
      "amenity": "cafe",
      "cuisine": "coffee_shop",
      "takeaway": "yes",
      "official_name": "Starbucks Coffee",
      "angle": 33.886621826710595
    },
    {
      "id": 168963,
      "geometry": "POINT (-84.364387 33.750442)",
      "poi_name": "Sweet Cheats",
      "osm_id": 2288048120,
      "amenity": "cafe",
      "cuisine": "cupcake;sweets",
      "internet_access": "wlan",
      "addr_state": "GA",
      "addr_city": "Atlanta",
      "addr_postcode": "30316",
      "addr_street": "Kirkwood Avenue Southeast",
      "addr_housenumber": "692B",
      "angle": 43.170001637451215
    },
    {
      "id": 172611,
      "geometry": "POINT (-84.547822 34.171694)",
      "poi_name": "Starbucks",
      "osm_id": 2408225058,
      "amenity": "cafe",
      "cuisine": "coffee_shop",
      "takeaway": "yes",
      "official_name": "Starbucks Coffee",
      "addr_state": "GA",
      "addr_city": "Canton",
      "addr_postcode": "30114",
      "addr_street": "Sixes Road",
      "addr_housenumber": "3241",
      "angle": 357.81968465306664
    },
    {
      "id": 171956,
      "geometry": "POINT (-84.382929 33.787043)",
      "poi_name": "Starbucks",
      "osm_id": 2390850320,
      "amenity": "cafe",
      "cuisine": "coffee_shop",
      "phone": "404-685-0287",
      "takeaway": "yes",
      "official_name": "Starbucks Coffee",
      "angle": 33.283214680199606
    },
    {
      "id": 175298,
      "geometry": "POINT (-85.075511 33.553368)",
      "poi_name": "Starbucks",
      "osm_id": 2512391620,
      "amenity": "cafe",
      "cuisine": "coffee_shop",
      "takeaway": "yes",
      "official_name": "Starbucks Coffee",
      "angle": 263.17037805028696
    },
    {
      "id": 173179,
      "geometry": "POINT (-84.361338 33.774131)",
      "poi_name": "Honey Bubble",
      "osm_id": 2429478309,
      "amenity": "cafe",
      "cuisine": "coffee_shop",
      "wheelchair": "yes",
      "takeaway": "yes",
      "outdoor_seating": "no",
      "angle": 39.28160103642504
    },
    {
      "id": 173285,
      "geometry": "POINT (-84.385152 33.771589)",
      "poi_name": "Broadway Diner",
      "osm_id": 2434041405,
      "amenity": "cafe",
      "angle": 35.294611467835864
    },
    {
      "id": 173503,
      "geometry": "POINT (-84.360199 34.008335)",
      "poi_name": "Land of a Thousand Hills Coffee House",
      "osm_id": 2441462303,
      "amenity": "cafe",
      "cuisine": "coffee_shop",
      "takeaway": "yes",
      "outdoor_seating": "yes",
      "angle": 18.700625238056475
    },
    {
      "id": 177462,
      "geometry": "POINT (-83.386348 33.938396)",
      "poi_name": "Jittery Joe's Coffee",
      "osm_id": 2589501898,
      "amenity": "cafe",
      "cuisine": "coffee_shop",
      "opening_hours": "Mo-Fr 6:30-22:00; Sa-Su 7:00-22:00",
      "addr_housenumber": "1230",
      "angle": 70.59256719493067
    },
    {
      "id": 175841,
      "geometry": "POINT (-84.439272 33.639723)",
      "poi_name": "The Coffee Bean & Tea Leaf",
      "osm_id": 2545081686,
      "amenity": "cafe",
      "cuisine": "coffee_shop",
      "takeaway": "yes",
      "angle": 66.83009453459206
    },
    {
      "id": 175842,
      "geometry": "POINT (-84.439281 33.63766)",
      "poi_name": "Caribou Coffee",
      "osm_id": 2545086404,
      "amenity": "cafe",
      "cuisine": "coffee_shop",
      "takeaway": "yes",
      "angle": 68.28556478754436
    },
    {
      "id": 179244,
      "geometry": "POINT (-84.52894 34.024141)",
      "poi_name": "Scooter's Coffee",
      "osm_id": 10754701913,
      "amenity": "cafe",
      "cuisine": "coffee_shop",
      "opening_hours": "Mo-Fr 06:00-20:00; Sa,Su 07:00-19:00",
      "angle": 359.2118391335507
    },
    {
      "id": 179268,
      "geometry": "POINT (-83.60676 34.122199)",
      "poi_name": "Starbucks",
      "osm_id": 10755167493,
      "amenity": "cafe",
      "cuisine": "coffee_shop",
      "takeaway": "yes",
      "official_name": "Starbucks Coffee",
      "angle": 55.897504069218364
    },
    {
      "id": 182068,
      "geometry": "POINT (-84.490857 33.967818)",
      "poi_name": "Starbucks",
      "osm_id": 10876566274,
      "amenity": "cafe",
      "cuisine": "coffee_shop",
      "wheelchair": "yes",
      "opening_hours": "Su-Th 05:00-21:00; Fr-Sa 05:00-22:00",
      "takeaway": "yes",
      "drive_through": "yes",
      "official_name": "Starbucks Coffee",
      "outdoor_seating": "yes",
      "toilets": "yes",
      "addr_state": "GA",
      "addr_city": "Marietta",
      "addr_street": "Roswell Road",
      "addr_housenumber": "2135",
      "angle": 4.162280064922792
    },
    {
      "id": 180087,
      "geometry": "POINT (-84.061551 33.886099)",
      "poi_name": "Chino Coffee",
      "osm_id": 10790491001,
      "amenity": "cafe",
      "cuisine": "coffee_shop",
      "angle": 54.21686504947857
    },
    {
      "id": 180827,
      "geometry": "POINT (-84.527449 34.023063)",
      "poi_name": "Xtraction Smoothies and Vegan Cafe",
      "osm_id": 10820477494,
      "amenity": "cafe",
      "cuisine": "guyanese",
      "wheelchair": "yes",
      "opening_hours": "Mo 12:30-18:30; Tu-Th 10:30-18:30; Fr 10:30-21:00; Sa 10:30-19:30; Su off",
      "website": "https://www.xtraction.us/",
      "phone": "+1 678-717-4564",
      "outdoor_seating": "no",
      "addr_street": "Canton Road",
      "addr_housenumber": "2392",
      "angle": 359.3820693417049
    },
    {
      "id": 183925,
      "geometry": "POINT (-84.267171 33.871566)",
      "poi_name": "Z Beans",
      "osm_id": 10950832425,
      "amenity": "cafe",
      "cuisine": "coffee_shop",
      "angle": 39.09362429165796
    },
    {
      "id": 182841,
      "geometry": "POINT (-84.684994 33.411684)",
      "poi_name": "Foxtail Coffee",
      "osm_id": 10906086954,
      "amenity": "cafe",
      "cuisine": "coffee_shop",
      "angle": 214.56191959028382
    },
    {
      "id": 184273,
      "geometry": "POINT (-84.354649 33.750103)",
      "poi_name": "Park Grounds",
      "osm_id": 7779207985,
      "amenity": "cafe",
      "cuisine": "coffee_shop;breakfast;sandwich",
      "wheelchair": "limited",
      "opening_hours": "Mo-Th 08:00-20:00; Fr-Su 08:00-21:00",
      "website": "https://www.parkgroundsatl.com/",
      "internet_access": "wlan",
      "phone": "+1 678-528-9901",
      "takeaway": "yes",
      "outdoor_seating": "yes",
      "addr_state": "GA",
      "addr_city": "Atlanta",
      "addr_postcode": "30316",
      "addr_street": "Flat Shoals Avenue Southeast",
      "addr_housenumber": "142",
      "angle": 44.95185963554008
    },
    {
      "id": 185283,
      "geometry": "POINT (-84.270438 33.985496)",
      "poi_name": "Ground & Pound Coffee",
      "osm_id": 7844446139,
      "amenity": "cafe",
      "cuisine": "coffee_shop",
      "opening_hours": "Mo-Fr 07:30-16:00, Sa 08:00-22:00, Su 09:00-16:00",
      "website": "https://groundandpoundcoffee.business.site",
      "internet_access": "wlan",
      "outdoor_seating": "yes",
      "addr_state": "GA",
      "addr_city": "Alpharetta",
      "addr_postcode": "30022",
      "addr_street": "Holcomb Bridge Road",
      "addr_housenumber": "8420",
      "angle": 29.16547691728455
    },
    {
      "id": 185495,
      "geometry": "POINT (-84.341962 34.033304)",
      "poi_name": "Sarah Donuts",
      "osm_id": 7859421381,
      "amenity": "cafe",
      "cuisine": "donut",
      "website": "https://www.sarahdonuts.com/",
      "phone": "+1-678-226-9999",
      "addr_state": "GA",
      "addr_city": "Roswell",
      "addr_postcode": "30076",
      "addr_street": "Holcomb Bridge Road",
      "addr_housenumber": "663",
      "angle": 19.508268593228628
    },
    {
      "id": 185498,
      "geometry": "POINT (-84.314851 34.018751)",
      "poi_name": "Coffee La Monde",
      "osm_id": 7859459985,
      "amenity": "cafe",
      "angle": 22.886619611925113
    },
    {
      "id": 185686,
      "geometry": "POINT (-84.293729 34.004011)",
      "poi_name": "Caf\u00e9 au Lait",
      "osm_id": 7875972633,
      "amenity": "cafe",
      "cuisine": "coffee_shop",
      "opening_hours": "Mo-Fr 06:30-19:00; Sa 07:00-18:00; Su 08:00-15:00",
      "website": "https://facebook.com/Cafe-Au-Lait-188310941247558/",
      "internet_access": "wlan",
      "phone": "+1-770-641-9607",
      "drive_through": "yes",
      "outdoor_seating": "yes",
      "addr_state": "GA",
      "addr_city": "Roswell",
      "addr_postcode": "30076",
      "addr_street": "Holcomb Bridge Road",
      "addr_housenumber": "2300",
      "angle": 25.762009773010362
    },
    {
      "id": 185788,
      "geometry": "POINT (-83.375115 33.957924)",
      "poi_name": "Starbucks",
      "osm_id": 7884135310,
      "amenity": "cafe",
      "cuisine": "coffee_shop",
      "wheelchair": "yes",
      "opening_hours": "Mo-Su 06:00-20:00",
      "internet_access": "wlan",
      "phone": "7065430114",
      "takeaway": "yes",
      "official_name": "Starbucks Coffee",
      "outdoor_seating": "yes",
      "addr_state": "GA",
      "addr_city": "Athens",
      "addr_postcode": "30601",
      "addr_street": "College Avenue",
      "addr_housenumber": "100",
      "angle": 69.72223262280501
    },
    {
      "id": 185882,
      "geometry": "POINT (-84.225408 34.050104)",
      "poi_name": "The Flying Biscuit",
      "osm_id": 7888800765,
      "amenity": "cafe",
      "cuisine": "breakfast",
      "angle": 29.28549680966098
    },
    {
      "id": 186258,
      "geometry": "POINT (-84.452656 34.081809)",
      "poi_name": "Arden's Garden",
      "osm_id": 7923866944,
      "amenity": "cafe",
      "angle": 6.983746271376045
    },
    {
      "id": 186260,
      "geometry": "POINT (-84.377715 34.055014)",
      "poi_name": "Scooter's Coffee",
      "osm_id": 7923866951,
      "amenity": "cafe",
      "angle": 15.113437143728468
    },
    {
      "id": 186266,
      "geometry": "POINT (-84.478765 34.086627)",
      "poi_name": "Starbucks",
      "osm_id": 7923866969,
      "amenity": "cafe",
      "cuisine": "coffee_shop",
      "takeaway": "yes",
      "official_name": "Starbucks Coffee",
      "angle": 4.327045927192938
    },
    {
      "id": 186729,
      "geometry": "POINT (-83.374457 33.95806)",
      "poi_name": "Jittery Joe's",
      "osm_id": 7946202978,
      "amenity": "cafe",
      "opening_hours": "07:30-20:00",
      "website": "https://jitteryjoes.com",
      "phone": "706-613-7449",
      "outdoor_seating": "yes",
      "addr_city": "Athens",
      "addr_postcode": "30601",
      "addr_street": "East Broad Street",
      "addr_housenumber": "297",
      "angle": 69.72535587018422
    },
    {
      "id": 186730,
      "geometry": "POINT (-83.372862 33.958042)",
      "poi_name": "Cravings",
      "osm_id": 7946202979,
      "amenity": "cafe",
      "addr_state": "GA",
      "addr_city": "Athens",
      "addr_postcode": "30601",
      "addr_street": "East Broad Street",
      "addr_housenumber": "480",
      "angle": 69.75136353057624
    },
    {
      "id": 188093,
      "geometry": "POINT (-84.161888 33.882245)",
      "poi_name": "Lilburn Cafe",
      "osm_id": 1127281445,
      "amenity": "cafe",
      "angle": 47.77410860714804
    },
    {
      "id": 186818,
      "geometry": "POINT (-84.270964 33.985487)",
      "poi_name": "Swan Cafe",
      "osm_id": 7947152373,
      "amenity": "cafe",
      "opening_hours": "Tu-Su 09:00-15:00",
      "website": "https://www.swancafe.com/",
      "phone": "+1-678-353-6256",
      "addr_state": "GA",
      "addr_city": "Alpharetta",
      "addr_postcode": "30022",
      "addr_street": "Holcomb Bridge Road",
      "addr_housenumber": "8400",
      "angle": 29.115120080648662
    },
    {
      "id": 186960,
      "geometry": "POINT (-84.278379 34.018897)",
      "poi_name": "Uptown Caf\u00e9",
      "osm_id": 7961169117,
      "amenity": "cafe",
      "cuisine": "american;breakfast",
      "website": "https://uptowncafe.com/",
      "angle": 26.389302309605633
    },
    {
      "id": 188337,
      "geometry": "POINT (-84.378712 33.749719)",
      "poi_name": "Marlee's Coffee and Tea",
      "osm_id": 1141444131,
      "amenity": "cafe",
      "cuisine": "coffee_shop",
      "addr_street": "Decatur Street",
      "addr_housenumber": "349",
      "angle": 40.6097393177262
    },
    {
      "id": 189449,
      "geometry": "POINT (-84.411859 33.950058)",
      "poi_name": "Starbucks",
      "osm_id": 1234207562,
      "amenity": "cafe",
      "cuisine": "coffee_shop",
      "opening_hours": "Mo-Fr 05:30-21:30; Sa 06:00-21:30; Su 07:00-21:00",
      "internet_access": "wlan",
      "phone": "+1 (770) 226-0087",
      "takeaway": "yes",
      "official_name": "Starbucks Coffee",
      "addr_state": "GA",
      "addr_city": "Marietta",
      "addr_postcode": "30068",
      "addr_street": "Johnson Ferry Road Northeast",
      "addr_housenumber": "31 A",
      "angle": 15.121053728123007
    },
    {
      "id": 189583,
      "geometry": "POINT (-84.350954 33.763856)",
      "poi_name": "Java Lords Coffeehouse & Bar",
      "osm_id": 1237999081,
      "amenity": "cafe",
      "angle": 42.89107069889163
    },
    {
      "id": 189854,
      "geometry": "POINT (-84.365614 33.825593)",
      "poi_name": "Starbucks",
      "osm_id": 1252485964,
      "amenity": "cafe",
      "cuisine": "coffee_shop",
      "takeaway": "yes",
      "official_name": "Starbucks Coffee",
      "addr_street": "Piedmont Road Northeast",
      "addr_housenumber": "2571",
      "angle": 31.2075063617635
    },
    {
      "id": 189566,
      "geometry": "POINT (-84.34945 33.768068)",
      "poi_name": "Starbucks",
      "osm_id": 1237615380,
      "amenity": "cafe",
      "cuisine": "coffee_shop",
      "takeaway": "yes",
      "official_name": "Starbucks Coffee",
      "angle": 42.36800326094042
    },
    {
      "id": 189567,
      "geometry": "POINT (-84.349377 33.767014)",
      "poi_name": "Aurora Coffee",
      "osm_id": 1237623443,
      "amenity": "cafe",
      "website": "http://auroracoffee.com",
      "angle": 42.57138344293759
    },
    {
      "id": 189569,
      "geometry": "POINT (-84.349334 33.765627)",
      "poi_name": "Village Coffeehouse",
      "osm_id": 1237654290,
      "amenity": "cafe",
      "angle": 42.83224549432523
    },
    {
      "id": 189718,
      "geometry": "POINT (-84.372694 33.754431)",
      "poi_name": "Cafe 458",
      "osm_id": 1246052475,
      "amenity": "cafe",
      "cuisine": "american",
      "addr_street": "Edgewood Avenue Southeast",
      "addr_housenumber": "458",
      "angle": 40.8315559635836
    },
    {
      "id": 189876,
      "geometry": "POINT (-85.828135 33.607515)",
      "poi_name": "Starbucks",
      "osm_id": 1253816053,
      "amenity": "cafe",
      "cuisine": "coffee_shop",
      "takeaway": "yes",
      "official_name": "Starbucks Coffee",
      "angle": 270.2259215372653
    },
    {
      "id": 189879,
      "geometry": "POINT (-85.785681 33.713171)",
      "poi_name": "Caf\u00e9 McClellan",
      "osm_id": 1253844544,
      "amenity": "cafe",
      "angle": 275.921441909243
    },
    {
      "id": 199211,
      "geometry": "POINT (-84.504207 33.882154)",
      "poi_name": "Rev Coffee Roasters",
      "osm_id": 945574843,
      "amenity": "cafe",
      "cuisine": "coffee_shop",
      "wheelchair": "yes",
      "opening_hours": "Mo-Fr 06:00-22:00; Sa-Su 07:00-22:00",
      "website": "https://www.revcoffee.com/",
      "internet_access": "wlan",
      "phone": "+1 770-573-4434",
      "takeaway": "yes",
      "outdoor_seating": "yes",
      "toilets": "yes",
      "addr_state": "GA",
      "addr_city": "Smyrna",
      "addr_postcode": "30080",
      "addr_street": "Spring Road Southeast",
      "addr_housenumber": "1680",
      "angle": 3.139821818519025
    },
    {
      "id": 192314,
      "geometry": "POINT (-84.285428 33.773172)",
      "poi_name": "Ducks Cosmic Kitchen",
      "osm_id": 1434736083,
      "amenity": "cafe",
      "website": "https://www.duckscosmickitchen.com/",
      "angle": 50.43669145990923
    },
    {
      "id": 192439,
      "geometry": "POINT (-84.389092 33.756613)",
      "poi_name": "Landmark Diner",
      "osm_id": 1446314511,
      "amenity": "cafe",
      "cuisine": "burger",
      "addr_city": "Atlanta",
      "addr_postcode": "30303",
      "addr_street": "Luckie Street",
      "addr_housenumber": "60",
      "angle": 37.15951144015011
    },
    {
      "id": 193957,
      "geometry": "POINT (-84.564289 34.01274)",
      "poi_name": "Starbucks",
      "osm_id": 1573384841,
      "amenity": "cafe",
      "cuisine": "coffee_shop",
      "opening_hours": "Mo-Th 05:30-23:00; Fr 05:30-24:00; Sa 06:30-24:00; Su 07:00-22:30",
      "phone": "+1 (770) 427-9712",
      "takeaway": "yes",
      "official_name": "Starbucks Coffee",
      "addr_state": "GA",
      "addr_city": "Kennesaw",
      "addr_postcode": "30144",
      "addr_street": "Ernest W. Barrett Parkway",
      "addr_housenumber": "440",
      "angle": 355.0130853140207
    },
    {
      "id": 199493,
      "geometry": "POINT (-83.925448 34.185219)",
      "poi_name": "Common Grounds",
      "osm_id": 966856766,
      "amenity": "cafe",
      "angle": 40.69744264631727
    },
    {
      "id": 202432,
      "geometry": "POINT (-84.378503 33.810696)",
      "poi_name": "East Pole Coffee Company",
      "osm_id": 7024641565,
      "amenity": "cafe",
      "cuisine": "coffee",
      "angle": 30.850530351625597
    },
    {
      "id": 200990,
      "geometry": "POINT (-84.130896 33.841403)",
      "poi_name": "Bagels and More",
      "osm_id": 603167383,
      "amenity": "cafe",
      "cuisine": "bagel",
      "angle": 54.60822024864254
    },
    {
      "id": 201808,
      "geometry": "POINT (-84.352292 33.769986)",
      "poi_name": "Babette's Cafe",
      "osm_id": 660529453,
      "amenity": "cafe",
      "website": "https://www.babettescafe.com/",
      "addr_housenumber": "573",
      "angle": 41.551911891919374
    },
    {
      "id": 200926,
      "geometry": "POINT (-84.420482 34.062612)",
      "poi_name": "Starbucks",
      "osm_id": 600663344,
      "amenity": "cafe",
      "cuisine": "coffee_shop",
      "opening_hours": "Mo-Fr 05:30-22:00; Sa 06:00-22:00; Su 06:30-21:00",
      "internet_access": "wlan",
      "phone": "+1 (770) 518-2651",
      "takeaway": "yes",
      "drive_through": "yes",
      "official_name": "Starbucks Coffee",
      "addr_state": "GA",
      "addr_city": "Roswell",
      "addr_postcode": "30075",
      "addr_street": "Woodstock Road",
      "addr_housenumber": "4646",
      "angle": 10.585745825641066
    },
    {
      "id": 202439,
      "geometry": "POINT (-84.38672 33.754366)",
      "poi_name": "Starbucks",
      "osm_id": 7025144080,
      "amenity": "cafe",
      "cuisine": "coffee_shop",
      "internet_access": "yes",
      "takeaway": "yes",
      "official_name": "Starbucks Coffee",
      "addr_state": "GA",
      "addr_city": "Atlanta",
      "addr_postcode": "30303",
      "addr_street": "Hurt Plaza Southeast",
      "addr_housenumber": "50",
      "angle": 38.07702398959898
    },
    {
      "id": 203920,
      "geometry": "POINT (-84.271274 33.77585)",
      "poi_name": "Banjo Coffee",
      "osm_id": 7105460723,
      "amenity": "cafe",
      "addr_housenumber": "38B",
      "angle": 51.60255711793065
    },
    {
      "id": 203205,
      "geometry": "POINT (-84.343853 33.983541)",
      "poi_name": "500 Cafe",
      "osm_id": 7070302517,
      "amenity": "cafe",
      "internet_access": "yes",
      "phone": "+1-678-352-0018",
      "takeaway": "yes",
      "outdoor_seating": "yes",
      "addr_state": "GA",
      "addr_city": "Atlanta",
      "addr_postcode": "30350",
      "addr_street": "Northridge Parkway",
      "addr_housenumber": "500",
      "angle": 21.677639575136876
    },
    {
      "id": 205537,
      "geometry": "POINT (-84.470483 33.887861)",
      "poi_name": "Kung Fu Tea",
      "osm_id": 7172046264,
      "amenity": "cafe",
      "cuisine": "bubble_tea",
      "takeaway": "yes",
      "addr_state": "GA",
      "addr_city": "Atlanta",
      "addr_postcode": "30339",
      "addr_street": "Battery Avenue Southeast",
      "addr_housenumber": "925",
      "angle": 8.809566321174534
    },
    {
      "id": 204986,
      "geometry": "POINT (-84.014571 33.879198)",
      "poi_name": "Kung Fu Tea",
      "osm_id": 7152514738,
      "amenity": "cafe",
      "cuisine": "bubble_tea",
      "angle": 57.45664223098552
    },
    {
      "id": 209666,
      "geometry": "POINT (-83.904681 34.660044)",
      "poi_name": "Sidewinder Grill",
      "osm_id": 5049664634,
      "amenity": "cafe",
      "outdoor_seating": "yes",
      "angle": 25.885254943242387
    },
    {
      "id": 208516,
      "geometry": "POINT (-84.387839 33.761818)",
      "poi_name": "Corner Bakery",
      "osm_id": 4994150228,
      "amenity": "cafe",
      "cuisine": "coffee_shop",
      "opening_hours": "Mo-Fr 06:30-15:00; Sa 08:00-14:00",
      "website": "https://www.cornerbakerycafe.com/location/southern-building",
      "shop": "bakery",
      "internet_access": "wlan",
      "takeaway": "yes",
      "addr_state": "GA",
      "addr_city": "Atlanta",
      "addr_postcode": "30303",
      "addr_street": "Peachtree Street Northeast",
      "addr_housenumber": "270",
      "angle": 36.45627035725037
    },
    {
      "id": 208813,
      "geometry": "POINT (-84.593107 34.059502)",
      "poi_name": "Starbucks",
      "osm_id": 5006000046,
      "amenity": "cafe",
      "cuisine": "coffee_shop",
      "takeaway": "yes",
      "official_name": "Starbucks Coffee",
      "addr_state": "GA",
      "addr_city": "Kennesaw",
      "addr_postcode": "30144",
      "addr_street": "Wade Green Road",
      "addr_housenumber": "4383",
      "angle": 352.5082945385311
    },
    {
      "id": 207579,
      "geometry": "POINT (-83.984098 34.530976)",
      "poi_name": "Starbucks",
      "osm_id": 4953267050,
      "amenity": "cafe",
      "cuisine": "coffee_shop",
      "takeaway": "yes",
      "official_name": "Starbucks Coffee",
      "angle": 25.777900615099252
    },
    {
      "id": 207585,
      "geometry": "POINT (-84.388196 33.78705)",
      "poi_name": "Rising Roll",
      "osm_id": 4953685794,
      "amenity": "cafe",
      "cuisine": "sandwich",
      "website": "https://risingroll.com/",
      "phone": "+1 404 815 6787",
      "outdoor_seating": "no",
      "addr_state": "GA",
      "addr_city": "Atlanta",
      "addr_postcode": "30309",
      "addr_street": "West Peachtree Street Northwest",
      "addr_housenumber": "1180",
      "angle": 32.27680161620256
    },
    {
      "id": 212188,
      "geometry": "POINT (-84.34086 33.923812)",
      "poi_name": "Starbucks",
      "osm_id": 5195012363,
      "amenity": "cafe",
      "cuisine": "coffee_shop",
      "takeaway": "yes",
      "official_name": "Starbucks Coffee",
      "angle": 25.707288457329113
    },
    {
      "id": 216640,
      "geometry": "POINT (-84.327076 33.449346)",
      "poi_name": "Wings Cafe",
      "osm_id": 9178575939,
      "amenity": "cafe",
      "angle": 134.490063783849
    },
    {
      "id": 213797,
      "geometry": "POINT (-84.38988 33.755716)",
      "poi_name": "Cafe Lucia",
      "osm_id": 5260314989,
      "amenity": "cafe",
      "cuisine": "coffee_shop",
      "opening_hours": "Mo-Su 08:00-16:00",
      "internet_access": "yes",
      "outdoor_seating": "yes",
      "addr_state": "GA",
      "addr_city": "Atlanta",
      "addr_postcode": "30303",
      "addr_street": "Forsyth Street Northwest",
      "addr_housenumber": "57",
      "angle": 37.165336575212976
    },
    {
      "id": 216547,
      "geometry": "POINT (-84.655429 34.029858)",
      "poi_name": "Starbucks",
      "osm_id": 9175549392,
      "amenity": "cafe",
      "cuisine": "coffee_shop",
      "takeaway": "yes",
      "official_name": "Starbucks Coffee",
      "angle": 345.18872742624774
    },
    {
      "id": 216552,
      "geometry": "POINT (-84.590363 33.999504)",
      "poi_name": "Starbucks",
      "osm_id": 9175553840,
      "amenity": "cafe",
      "cuisine": "coffee_shop",
      "takeaway": "yes",
      "official_name": "Starbucks Coffee",
      "addr_state": "GA",
      "addr_city": "Kennesaw",
      "addr_street": "Cobb Parkway",
      "addr_housenumber": "1955",
      "angle": 351.69323866587354
    },
    {
      "id": 214084,
      "geometry": "POINT (-83.905671 34.00094)",
      "poi_name": "Starbucks",
      "osm_id": 5265613029,
      "amenity": "cafe",
      "cuisine": "coffee_shop",
      "takeaway": "yes",
      "official_name": "Starbucks Coffee",
      "angle": 52.61171563930936
    },
    {
      "id": 214641,
      "geometry": "POINT (-84.438823 33.640791)",
      "poi_name": "Cafe Brioche",
      "osm_id": 5276555562,
      "amenity": "cafe",
      "angle": 66.20141155588466
    },
    {
      "id": 215503,
      "geometry": "POINT (-84.429298 33.63914)",
      "poi_name": "Harvest & Grounds",
      "osm_id": 5301097177,
      "amenity": "cafe",
      "angle": 69.46602065222112
    },
    {
      "id": 216580,
      "geometry": "POINT (-84.428172 33.849332)",
      "poi_name": "Starbucks",
      "osm_id": 9176612025,
      "amenity": "cafe",
      "cuisine": "coffee_shop",
      "takeaway": "yes",
      "official_name": "Starbucks Coffee",
      "angle": 18.136122670823358
    },
    {
      "id": 216709,
      "geometry": "POINT (-84.284878 33.193413)",
      "poi_name": "Cafe Real Estate",
      "osm_id": 9180632545,
      "amenity": "cafe",
      "angle": 154.40987966135052
    },
    {
      "id": 220470,
      "geometry": "POINT (-84.226097 34.06103)",
      "poi_name": "Bagel Boys",
      "osm_id": 9374686356,
      "amenity": "cafe",
      "angle": 28.631225969071753
    },
    {
      "id": 218090,
      "geometry": "POINT (-84.309849 33.858161)",
      "poi_name": "Pizza Semplice",
      "osm_id": 9256386501,
      "amenity": "cafe",
      "angle": 35.50167720711519
    },
    {
      "id": 221320,
      "geometry": "POINT (-83.739727 32.663268)",
      "poi_name": "Starbucks",
      "osm_id": 10971457363,
      "amenity": "cafe",
      "cuisine": "coffee_shop",
      "takeaway": "yes",
      "official_name": "Starbucks Coffee",
      "angle": 144.978686286401
    },
    {
      "id": 220611,
      "geometry": "POINT (-83.993668 34.052478)",
      "poi_name": "Starbucks",
      "osm_id": 9379946305,
      "amenity": "cafe",
      "cuisine": "coffee_shop",
      "takeaway": "yes",
      "official_name": "Starbucks Coffee",
      "angle": 44.76373196295626
    },
    {
      "id": 220618,
      "geometry": "POINT (-84.551754 33.95264)",
      "poi_name": "Starbucks",
      "osm_id": 9380276018,
      "amenity": "cafe",
      "cuisine": "coffee_shop",
      "takeaway": "yes",
      "official_name": "Starbucks Coffee",
      "addr_state": "GA",
      "addr_city": "Marietta",
      "addr_postcode": "30064",
      "addr_street": "Whitlock Avenue Northwest",
      "addr_housenumber": "30",
      "angle": 355.87347263269436
    },
    {
      "id": 224696,
      "geometry": "POINT (-84.44253 33.641346)",
      "poi_name": "Harvest & Grounds",
      "osm_id": 11094544236,
      "amenity": "cafe",
      "cuisine": "coffee_shop",
      "angle": 64.83266768081022
    },
    {
      "id": 223776,
      "geometry": "POINT (-84.347983 33.929424)",
      "poi_name": "LA Madeleine",
      "osm_id": 11063297278,
      "amenity": "cafe",
      "cuisine": "coffee_shop;french",
      "opening_hours": "Mo-Su 08:00-21:00",
      "internet_access": "wlan",
      "outdoor_seating": "yes",
      "addr_street": "Perimeter Center West",
      "addr_housenumber": "1165",
      "angle": 24.435239058763294
    },
    {
      "id": 224358,
      "geometry": "POINT (-84.503149 33.654344)",
      "poi_name": "Starbucks",
      "osm_id": 11079242411,
      "amenity": "cafe",
      "cuisine": "coffee_shop",
      "takeaway": "yes",
      "official_name": "Starbucks Coffee",
      "addr_city": "Atlanta",
      "addr_postcode": "30344",
      "addr_street": "Camp Creek Parkway",
      "addr_housenumber": "3507",
      "angle": 19.70781170233817
    },
    {
      "id": 221513,
      "geometry": "POINT (-83.960747 33.899537)",
      "poi_name": "Starbucks",
      "osm_id": 10981286167,
      "amenity": "cafe",
      "cuisine": "coffee_shop",
      "takeaway": "yes",
      "official_name": "Starbucks Coffee",
      "angle": 58.15833877862485
    },
    {
      "id": 222622,
      "geometry": "POINT (-83.385783 33.941316)",
      "poi_name": "Billy & Beau's Coffee",
      "osm_id": 11028031245,
      "amenity": "cafe",
      "addr_state": "GA",
      "addr_city": "Athens",
      "addr_postcode": "30605",
      "addr_street": "South Lumpkin Street",
      "addr_housenumber": "1540",
      "angle": 70.44356738222564
    },
    {
      "id": 223613,
      "geometry": "POINT (-83.415788 33.947786)",
      "poi_name": "Another Broken Egg Cafe",
      "osm_id": 11059407424,
      "amenity": "cafe",
      "angle": 69.61435155077615
    },
    {
      "id": 224040,
      "geometry": "POINT (-83.753499 33.948533)",
      "poi_name": "Starbucks",
      "osm_id": 11071841628,
      "amenity": "cafe",
      "cuisine": "coffee_shop",
      "takeaway": "yes",
      "official_name": "Starbucks Coffee",
      "angle": 61.98414382003563
    },
    {
      "id": 226740,
      "geometry": "POINT (-84.083825 33.922832)",
      "poi_name": "The Catfe",
      "osm_id": 11167161249,
      "amenity": "cafe",
      "website": "https://thecatfeco.com/",
      "addr_state": "GA",
      "addr_city": "Lawrenceville",
      "addr_postcode": "30044",
      "addr_street": "Bethesda School Road",
      "addr_housenumber": "426",
      "angle": 49.36885882582509
    },
    {
      "id": 225404,
      "geometry": "POINT (-84.445054 33.896563)",
      "poi_name": "Chatahoochee Coffee Company",
      "osm_id": 11125231266,
      "amenity": "cafe",
      "cuisine": "coffee_shop",
      "wheelchair": "yes",
      "opening_hours": "Mo-Fr 07:00-19:00; Sa,Su 08:00-18:00 \"no public gate access on weekends\"",
      "website": "https://chattahoocheecoffee.com/",
      "internet_access": "wlan",
      "phone": "+1-770-955-0788",
      "outdoor_seating": "yes",
      "addr_state": "GA",
      "addr_city": "Atlanta",
      "addr_postcode": "30339",
      "addr_street": "Akers Mill Road Southeast",
      "addr_housenumber": "2281",
      "angle": 12.640601215506177
    },
    {
      "id": 225598,
      "geometry": "POINT (-84.951556 34.502176)",
      "poi_name": "Calhoun Coffee Company Bar & Grill",
      "osm_id": 11133429169,
      "amenity": "cafe",
      "cuisine": "coffee_shop;sandwich",
      "website": "https://www.calhouncoffeeco.com/",
      "phone": "+17064036076",
      "outdoor_seating": "no",
      "addr_state": "GA",
      "addr_city": "Calhoun",
      "addr_postcode": "30701",
      "addr_street": "South Wall Street",
      "addr_housenumber": "117",
      "angle": 338.28449470787587
    },
    {
      "id": 224743,
      "geometry": "POINT (-85.254017 34.015716)",
      "poi_name": "Ellianos Coffee Co",
      "osm_id": 11097274160,
      "amenity": "cafe",
      "cuisine": "coffee_shop;breakfast;dessert;smoothie",
      "website": "https://www.ellianos.com/",
      "addr_state": "ga",
      "addr_city": "cedartown",
      "addr_postcode": "30125",
      "addr_street": "North Main Street",
      "addr_housenumber": "138",
      "angle": 303.783886111573
    },
    {
      "id": 225341,
      "geometry": "POINT (-84.301116 33.892255)",
      "poi_name": "Moonbird Coffee",
      "osm_id": 11123043814,
      "amenity": "cafe",
      "cuisine": "coffee_shop",
      "opening_hours": "We-Fr 07:30-11:00; Sa 08:00-11:30",
      "outdoor_seating": "yes",
      "addr_street": "Peachtree Road",
      "addr_housenumber": "5394",
      "angle": 33.13271250347454
    },
    {
      "id": 226741,
      "geometry": "POINT (-85.083169 33.574879)",
      "poi_name": "Fur Babies Cat Caf\u00e9",
      "osm_id": 11167162720,
      "amenity": "cafe",
      "fee": "yes",
      "website": "https://www.furbabiescatcafe.com/",
      "addr_state": "GA",
      "addr_city": "Carrollton",
      "addr_postcode": "30117",
      "addr_street": "South Street",
      "addr_housenumber": "302",
      "angle": 265.86554215625296
    },
    {
      "id": 228995,
      "geometry": "POINT (-83.87408 34.61367)",
      "poi_name": "Frogtown Cellars Bistro Cafe",
      "osm_id": 4362109494,
      "amenity": "cafe",
      "cuisine": "sandwich",
      "opening_hours": "Fr 12:00-15:30; Sa 10:30-15:30; Su 12:30-15:30",
      "website": "http://frogtown.us/",
      "phone": "+1 (706) 865-0687",
      "angle": 28.058448901901478
    },
    {
      "id": 228259,
      "geometry": "POINT (-84.019058 33.966986)",
      "poi_name": "Starbucks",
      "osm_id": 4337144389,
      "amenity": "cafe",
      "cuisine": "coffee_shop",
      "takeaway": "yes",
      "official_name": "Starbucks Coffee",
      "addr_street": "Duluth Highway",
      "angle": 49.50634422070601
    },
    {
      "id": 228996,
      "geometry": "POINT (-83.874037 34.613546)",
      "poi_name": "Frogtown Cellars Dahlonega Tasting Room",
      "osm_id": 4362109495,
      "amenity": "cafe",
      "cuisine": "wine",
      "tourism": "wine_cellar",
      "opening_hours": "Mo-Fr 12:00-17:00; Sa 10:30-18:00; Su 12:30-17:00",
      "website": "http://frogtown.us/",
      "phone": "+1 (706) 865-0687",
      "angle": 28.06298014826378
    },
    {
      "id": 238635,
      "geometry": "POINT (-83.627021 32.837084)",
      "poi_name": "Taste & See Caf\u00e9",
      "osm_id": 5888533085,
      "amenity": "cafe",
      "addr_street": "Poplar St",
      "addr_housenumber": "546",
      "angle": 135.53211606419424
    },
    {
      "id": 229715,
      "geometry": "POINT (-83.683936 33.304907)",
      "poi_name": "The Vanilla Bean",
      "osm_id": 4396390305,
      "amenity": "cafe",
      "cuisine": "coffee_shop;sandwich",
      "internet_access": "wlan",
      "outdoor_seating": "yes",
      "angle": 113.24883167563202
    },
    {
      "id": 232432,
      "geometry": "POINT (-84.311882 34.018068)",
      "poi_name": "Starbucks",
      "osm_id": 4524912377,
      "amenity": "cafe",
      "cuisine": "coffee_shop",
      "wheelchair": "yes",
      "opening_hours": "Mo-Fr 05:30-19:30; Sa-Su 06:00-19:30",
      "website": "https://www.starbucks.com/store-locator/store/1010171",
      "internet_access": "wlan",
      "phone": "+1 770-518-0118",
      "takeaway": "yes",
      "official_name": "Starbucks Coffee",
      "addr_state": "GA",
      "addr_city": "Roswell",
      "addr_postcode": "30076",
      "addr_street": "Holcomb Bridge Road",
      "addr_housenumber": "1570",
      "angle": 23.214675950383395
    },
    {
      "id": 232433,
      "geometry": "POINT (-84.312154 34.018192)",
      "poi_name": "Kale Me Crazy",
      "osm_id": 4524913281,
      "amenity": "cafe",
      "wheelchair": "yes",
      "opening_hours": "Mo-Fr 07:00-20:00; Sa 09:00-20:00; Su 09:00-18:00",
      "website": "https://kalemecrazy.net/roswell/",
      "internet_access": "wlan",
      "phone": "+1 678-878-3188",
      "outdoor_seating": "yes",
      "addr_state": "GA",
      "addr_city": "Roswell",
      "addr_postcode": "30076",
      "addr_street": "Holcomb Bridge Road",
      "addr_housenumber": "1570",
      "angle": 23.181509878838234
    },
    {
      "id": 235489,
      "geometry": "POINT (-83.752271 33.942974)",
      "poi_name": "Starbucks",
      "osm_id": 5757406549,
      "amenity": "cafe",
      "cuisine": "coffee_shop",
      "takeaway": "yes",
      "official_name": "Starbucks Coffee",
      "angle": 62.41158095499024
    },
    {
      "id": 230665,
      "geometry": "POINT (-84.781225 34.172093)",
      "poi_name": "Starbucks",
      "osm_id": 4434680903,
      "amenity": "cafe",
      "cuisine": "coffee_shop",
      "opening_hours": "Mo-Fr 05:00-21:30; Sa,Su 06:00-21:30",
      "takeaway": "yes",
      "official_name": "Starbucks Coffee",
      "addr_city": "Cartersville",
      "addr_postcode": "30121",
      "addr_street": "East Main Street",
      "addr_housenumber": "605",
      "angle": 339.039312727628
    },
    {
      "id": 236530,
      "geometry": "POINT (-84.512454 34.144285)",
      "poi_name": "Starbucks",
      "osm_id": 5796361695,
      "amenity": "cafe",
      "cuisine": "coffee_shop",
      "opening_hours": "Mo-Sa 05:00-22:00; Su 05:30-22:00",
      "website": "https://www.starbucks.com/store-locator/store/1017424/sixes-rd-holly-springs-4826-holly-springs-parkway-canton-ga-30115-us",
      "phone": "+1 (470) 228-9438",
      "takeaway": "yes",
      "drive_through": "yes",
      "official_name": "Starbucks Coffee",
      "addr_state": "GA",
      "addr_city": "Holly Springs",
      "addr_postcode": "30115",
      "addr_street": "Holly Springs Parkway",
      "addr_housenumber": "4826",
      "angle": 0.8601936627647718
    },
    {
      "id": 239911,
      "geometry": "POINT (-84.388112 33.797124)",
      "poi_name": "Rising Roll",
      "osm_id": 5943008670,
      "amenity": "cafe",
      "internet_access": "yes",
      "angle": 30.87532945549547
    },
    {
      "id": 238983,
      "geometry": "POINT (-84.381047 33.937997)",
      "poi_name": "Perk n Pooch",
      "osm_id": 5900467460,
      "amenity": "cafe",
      "cuisine": "coffee_shop",
      "opening_hours": "Mo-Th 10:00-17:00; Fr 10:00-18:00, Sa 09:00-18:00; Su 10:00-18:00",
      "website": "http://www.perk-n-pooch.com/",
      "shop": "pet_grooming",
      "phone": "+1 (678) 500-9237",
      "addr_state": "GA",
      "addr_city": "Sandy Springs",
      "addr_postcode": "30328",
      "addr_street": "Roswell Road",
      "addr_housenumber": "6690",
      "angle": 19.721199068085152
    },
    {
      "id": 239302,
      "geometry": "POINT (-84.354596 33.520634)",
      "poi_name": "Fig Tree Caf\u00e9",
      "osm_id": 5916042085,
      "amenity": "cafe",
      "angle": 122.49192154615587
    },
    {
      "id": 240033,
      "geometry": "POINT (-84.429894 34.468692)",
      "poi_name": "Carriage House Coffee Shop",
      "osm_id": 5952313892,
      "amenity": "cafe",
      "angle": 5.083022424762112
    },
    {
      "id": 240786,
      "geometry": "POINT (-84.520578 33.938073)",
      "poi_name": "Starbucks",
      "osm_id": 5990325048,
      "amenity": "cafe",
      "cuisine": "coffee_shop",
      "opening_hours": "Mo-Th 07:30-21:00; Fr 07:30-14:00",
      "takeaway": "yes",
      "official_name": "Starbucks Coffee",
      "outdoor_seating": "no",
      "delivery": "no",
      "angle": 0.22163599456095373
    },
    {
      "id": 244346,
      "geometry": "POINT (-84.268106 34.021832)",
      "poi_name": "Starbucks",
      "osm_id": 7716854530,
      "amenity": "cafe",
      "cuisine": "coffee_shop",
      "internet_access": "wlan",
      "takeaway": "yes",
      "official_name": "Starbucks Coffee",
      "outdoor_seating": "yes",
      "addr_state": "GA",
      "addr_city": "Alpharetta",
      "addr_postcode": "30022",
      "addr_street": "Haynes Bridge Road",
      "addr_housenumber": "9925",
      "angle": 27.174042705810944
    }
  ],
  "answer_type": "angle",
  "question_entities": {
    "[1]": {
      "main_category": "amenity",
      "sub_category": "cafe"
    },
    "[2]": {
      "distance": 130000,
      "text": "130 kilometers"
    },
    "[3]": {
      "main_category": "leisure",
      "sub_category": "stadium",
      "display_name": "Hendersons Arena, GA",
      "geo_wkt": "POINT (-84.5221 33.6101)",
      "poi": {
        "id": 265382,
        "geometry": "POINT (-84.5221 33.6101)",
        "poi_name": "Hendersons Arena",
        "osm_id": 367915659,
        "leisure": "stadium",
        "addr_state": "GA"
      }
    }
  },
  "id": 1077,
  "type": "range+angle"
}