{
  "question": "Is there a museum within 70 kilometers from the Mark, New York, NY?",
  "sql": "SELECT * FROM pois\nWHERE ST_DWithin(pois.geometry, ST_GeomFromText('POINT (-73.96326 40.775317)',4326)::geography, 70000)\nAND tourism = 'museum';\n",
  "answers": [
    {
      "id": 47,
      "geometry": "POINT (-74.076656 40.642496)",
      "poi_name": "Show Gallery Studio",
      "osm_id": 418524116,
      "tourism": "museum",
      "website": "http://www.showhownyc.com/"
    },
    {
      "id": 269,
      "geometry": "POINT (-73.94309 40.80995)",
      "poi_name": "Natonial Jazz Museum in Harlem",
      "osm_id": 8270992264,
      "tourism": "museum",
      "website": "https://jazzmuseuminharlem.org/",
      "museum": "history",
      "addr_state": "NY",
      "addr_city": "New York",
      "addr_postcode": "10027",
      "addr_street": "West 129th Street",
      "addr_housenumber": "58"
    },
    {
      "id": 276,
      "geometry": "POINT (-73.59791 41.033849)",
      "poi_name": "Greenwich Historical Society",
      "osm_id": 8277048658,
      "tourism": "museum",
      "website": "https://greenwichhistory.org/",
      "museum": "history",
      "addr_state": "CT",
      "addr_city": "Greenwich",
      "addr_postcode": "06807",
      "addr_street": "Strickland Road",
      "addr_housenumber": "47"
    },
    {
      "id": 314,
      "geometry": "POINT (-73.940675 40.839358)",
      "poi_name": "Malcolm X & Dr. Betty Shabazz Memorial and Educational Center",
      "osm_id": 8307408828,
      "tourism": "museum",
      "website": "https://theshabazzcenter.org",
      "wikidata": "Q6742732",
      "addr_state": "NY",
      "addr_city": "New York",
      "addr_postcode": "10032",
      "addr_street": "Broadway",
      "addr_housenumber": "3940"
    },
    {
      "id": 646,
      "geometry": "POINT (-74.604259 41.083436)",
      "poi_name": "Sterling Hill Mining Museum",
      "osm_id": 2627856547,
      "tourism": "museum",
      "website": "https://www.sterlinghillminingmuseum.org/",
      "wikidata": "Q7611425",
      "addr_state": "NJ",
      "addr_city": "Ogdensburg",
      "addr_postcode": "07439",
      "addr_street": "Plant Street",
      "addr_housenumber": "30"
    },
    {
      "id": 833,
      "geometry": "POINT (-73.986775 40.73927)",
      "poi_name": "Fotografiska",
      "osm_id": 2704048088,
      "tourism": "museum",
      "opening_hours": "Mo-Su 09:00-21:00",
      "wikidata": "Q104830591",
      "addr_postcode": "10010",
      "addr_street": "Park Avenue South",
      "addr_housenumber": "281"
    },
    {
      "id": 979,
      "geometry": "POINT (-73.944872 40.832146)",
      "poi_name": "Children's Cultural Center of Native America",
      "osm_id": 2768275469,
      "tourism": "museum",
      "fee": "yes",
      "opening_hours": "Mo-Fr 10:30-13:00",
      "operator": "Nitchen Inc.",
      "website": "https://www.cccona.org/",
      "phone": "+1-917-902-6628",
      "museum": "children",
      "addr_state": "NY",
      "addr_city": "New York",
      "addr_postcode": "10032",
      "addr_street": "West 155th Street",
      "addr_housenumber": "550"
    },
    {
      "id": 1056,
      "geometry": "POINT (-74.017705 40.705723)",
      "poi_name": "Skyscraper Museum",
      "osm_id": 2808241058,
      "tourism": "museum",
      "wheelchair": "yes",
      "opening_hours": "Th-Sa 12:00-18:00",
      "website": "https://skyscraper.org/",
      "wikidata": "Q2915494",
      "addr_state": "NY",
      "addr_city": "New York",
      "addr_postcode": "10280",
      "addr_street": "Battery Place",
      "addr_housenumber": "39"
    },
    {
      "id": 1082,
      "geometry": "POINT (-74.005072 40.713744)",
      "poi_name": "Hall des Lumi\u00e8res",
      "osm_id": 2825233330,
      "tourism": "museum",
      "fee": "yes",
      "opening_hours": "10:00-18:00; Tu off; Th-Sa 10:00-22:00",
      "website": "https://www.halldeslumieres.com/",
      "museum": "art",
      "addr_state": "NY",
      "addr_city": "New York",
      "addr_postcode": "10007",
      "addr_street": "Chambers Street",
      "addr_housenumber": "49"
    },
    {
      "id": 1213,
      "geometry": "POINT (-74.003676 40.706628)",
      "poi_name": "South Street Seaport Museum",
      "osm_id": 2898706753,
      "tourism": "museum",
      "wheelchair": "yes",
      "opening_hours": "Sa-Su 11:00-17:00",
      "website": "https://southstreetseaportmuseum.org/",
      "phone": "+12127488600",
      "wikidata": "Q16025238",
      "addr_postcode": "10038",
      "addr_street": "Fulton Street",
      "addr_housenumber": "12"
    },
    {
      "id": 1787,
      "geometry": "POINT (-73.990646 40.750268)",
      "poi_name": "The Houdini Museum of New York",
      "osm_id": 3154318791,
      "tourism": "museum",
      "website": "http://www.houdinimuseumny.com/"
    },
    {
      "id": 1950,
      "geometry": "POINT (-73.981596 40.77323)",
      "poi_name": "American Folk Art Museum",
      "osm_id": 3224793125,
      "tourism": "museum",
      "wheelchair": "yes",
      "website": "http://www.folkartmuseum.org",
      "museum": "art",
      "wikidata": "Q464354",
      "addr_state": "NY",
      "addr_city": "New York",
      "addr_street": "Lincoln Square",
      "addr_housenumber": "2"
    },
    {
      "id": 2164,
      "geometry": "POINT (-74.008135 40.727535)",
      "poi_name": "Children's Museum of the Arts",
      "osm_id": 3298095220,
      "tourism": "museum",
      "website": "https://cmany.org/",
      "wikidata": "Q5098190",
      "addr_city": "New York",
      "addr_street": "Charlton Street",
      "addr_housenumber": "103"
    },
    {
      "id": 2240,
      "geometry": "POINT (-74.101893 40.642711)",
      "poi_name": "Staten Island Children\u2019s Museum",
      "osm_id": 3350222381,
      "tourism": "museum",
      "wheelchair": "yes",
      "website": "https://www.sichildrensmuseum.org/",
      "phone": "+1 718-273-2060",
      "wikidata": "Q7603985",
      "addr_postcode": "10301"
    },
    {
      "id": 2320,
      "geometry": "POINT (-73.627578 40.709488)",
      "poi_name": "African American Museum",
      "osm_id": 3389885751,
      "tourism": "museum",
      "operator": "Nassau County Parks, Recreation, Museums",
      "website": "https://theaamuseum.org/",
      "wikidata": "Q4689667",
      "addr_state": "NY",
      "addr_city": "Hempstead",
      "addr_postcode": "11550",
      "addr_street": "North Franklin Street",
      "addr_housenumber": "110"
    },
    {
      "id": 2728,
      "geometry": "POINT (-73.983725 40.755739)",
      "poi_name": "International Center of Photography",
      "osm_id": 566445454,
      "tourism": "museum",
      "website": "https://www.icp.org/",
      "wikidata": "Q636942",
      "addr_state": "NY",
      "addr_city": "New York",
      "addr_postcode": "10036",
      "addr_street": "6th Avenue",
      "addr_housenumber": "1133"
    },
    {
      "id": 2808,
      "geometry": "POINT (-73.96399 40.773476)",
      "poi_name": "Frick Madison",
      "osm_id": 10038018687,
      "tourism": "museum",
      "opening_hours": "Th-Su 10:00-18:00",
      "website": "https://www.frick.org/",
      "museum": "art",
      "addr_state": "NY",
      "addr_city": "New York",
      "addr_postcode": "10021",
      "addr_street": "Madison Avenue",
      "addr_housenumber": "945"
    },
    {
      "id": 2924,
      "geometry": "POINT (-73.879387 40.991013)",
      "poi_name": "Hastings Historical Society",
      "osm_id": 10075975966,
      "tourism": "museum",
      "website": "https://hastingshistoricalsociety.org/"
    },
    {
      "id": 3001,
      "geometry": "POINT (-74.297251 40.274619)",
      "poi_name": "Craig House",
      "osm_id": 10126170754,
      "tourism": "museum",
      "opening_hours": "Sunday 1-4",
      "operator": "Monmouth Battlefield State Park",
      "museum": "history",
      "wikidata": "Q111951369",
      "addr_state": "NJ",
      "addr_city": "Freehold Township",
      "addr_postcode": "07728",
      "addr_street": "Schibanoff Lane"
    },
    {
      "id": 3002,
      "geometry": "POINT (-74.308394 40.249006)",
      "poi_name": "Oakley Farmhouse",
      "osm_id": 10126200404,
      "tourism": "museum",
      "operator": "Freehold Township Heritage Society",
      "website": "https://www.oakleyfarmmuseum.org/oakley-farm",
      "museum": "history",
      "wikidata": "Q107040945",
      "addr_state": "NJ",
      "addr_city": "Freehold",
      "addr_postcode": "07728",
      "addr_street": "Wemrock Road",
      "addr_housenumber": "189"
    },
    {
      "id": 3004,
      "geometry": "POINT (-74.306427 40.242674)",
      "poi_name": "Jewish Heritage Museum of Monmouth County",
      "osm_id": 10126413587,
      "tourism": "museum",
      "opening_hours": "Tu,Th 10:00-15:00; Su 11:00-15:00",
      "operator": "Jewish Federation of Monmouth County.",
      "website": "https://www.jhmomc.org/",
      "museum": "history",
      "wikidata": "Q113669417",
      "addr_state": "NJ",
      "addr_city": "Freehold",
      "addr_postcode": "07728",
      "addr_street": "Mounts Corner Drive",
      "addr_housenumber": "310"
    },
    {
      "id": 3028,
      "geometry": "POINT (-74.364833 40.416151)",
      "poi_name": "East Brunswick Museum",
      "osm_id": 10134129533,
      "tourism": "museum",
      "museum": "history"
    },
    {
      "id": 3046,
      "geometry": "POINT (-73.474305 41.11283)",
      "poi_name": "The Mather Homestead",
      "osm_id": 10144746842,
      "tourism": "museum",
      "fee": "yes",
      "opening_hours": "Tu-Th 11:00-15:00; Fr,Sa 13:00-15:00",
      "operator": "The Mather Homestead Foundation",
      "website": "https://www.matherhomestead.org/"
    },
    {
      "id": 3097,
      "geometry": "POINT (-73.974641 40.78158)",
      "poi_name": "Richard Gilder Center for Science, Education, and Innovation",
      "osm_id": 10172954431,
      "tourism": "museum",
      "opening_hours": "Mo-Su 10:00-17:30; Nov 23: off; Dec 25: off",
      "website": "https://www.amnh.org/about/gilder-center",
      "museum": "nature"
    },
    {
      "id": 3098,
      "geometry": "POINT (-73.973156 40.781649)",
      "poi_name": "Rose Center for Earth and Space",
      "osm_id": 10172955743,
      "tourism": "museum",
      "website": "https://www.amnh.org/exhibitions/permanent/rose-center",
      "museum": "nature",
      "wikidata": "Q2397171"
    },
    {
      "id": 3345,
      "geometry": "POINT (-73.447479 40.774922)",
      "poi_name": "Old Bethpage Village Restoration",
      "osm_id": 5367500320,
      "tourism": "museum"
    },
    {
      "id": 3405,
      "geometry": "POINT (-73.920017 40.710909)",
      "poi_name": "Greater Ridgewood Historical Society",
      "osm_id": 5394515623,
      "tourism": "museum",
      "opening_hours": "Sa-Su 13:00-17:00; We 15:00-19:00",
      "website": "https://onderdonkhouse.org/",
      "phone": "+1-718-456-1776",
      "addr_street": "Flushing Avenue"
    },
    {
      "id": 3460,
      "geometry": "POINT (-73.947616 40.808418)",
      "poi_name": "The Studio Museum In Harlem",
      "osm_id": 5420936939,
      "tourism": "museum",
      "website": "https://studiomuseum.org/",
      "wikidata": "Q903403",
      "addr_postcode": "10027",
      "addr_street": "West 125th Street",
      "addr_housenumber": "144"
    },
    {
      "id": 3637,
      "geometry": "POINT (-73.99882 40.728468)",
      "poi_name": "The Renee and Chaim Gross Foundation",
      "osm_id": 5509996164,
      "tourism": "museum",
      "wheelchair": "limited",
      "opening_hours": "Th,Fr 13:00-17:00",
      "website": "https://www.rcgrossfoundation.org/",
      "phone": "+1-212-529-4906",
      "wikidata": "Q24259668",
      "addr_state": "NY",
      "addr_city": "New York",
      "addr_postcode": "10012",
      "addr_street": "Laguardia Place",
      "addr_housenumber": "526"
    },
    {
      "id": 3741,
      "geometry": "POINT (-73.985867 40.727611)",
      "poi_name": "Museum of the American Gangster",
      "osm_id": 5576457144,
      "tourism": "museum",
      "fee": "yes",
      "opening_hours": "Tu-Su 13:00-18:00; Mo 13:00-19:00",
      "website": "https://theatre80.wordpress.com/about-80-st-marks-place/about-museum-of-the-american-gangster/",
      "wikidata": "Q6941063"
    },
    {
      "id": 3937,
      "geometry": "POINT (-74.00282 40.717366)",
      "poi_name": "Mmuseumm",
      "osm_id": 5640186350,
      "description": "tiny exhibit space in a disused elevator",
      "tourism": "museum",
      "wheelchair": "yes",
      "fee": "no",
      "opening_hours": "Sa-Su 12:00-18:00 open \"Museum\" || 00:00-24:00 open \"Viewing windows\"",
      "website": "https://www.mmuseumm.com/",
      "phone": "+1 888 763 8839",
      "wikidata": "Q22329588",
      "addr_postcode": "10013",
      "addr_street": "Cortlandt Alley",
      "addr_housenumber": "4"
    },
    {
      "id": 4218,
      "geometry": "POINT (-73.95339 40.742747)",
      "poi_name": "Underpenny Museum Antique & Collectables",
      "osm_id": 5721477303,
      "tourism": "museum",
      "phone": "+1-917-517-1492"
    },
    {
      "id": 4743,
      "geometry": "POINT (-73.417026 41.110742)",
      "poi_name": "Norwalk Art Space",
      "osm_id": 11426121771,
      "tourism": "museum",
      "website": "https://www.thenorwalkartspace.org/",
      "museum": "art",
      "addr_state": "CT",
      "addr_city": "Norwalk",
      "addr_postcode": "06850",
      "addr_street": "West Avenue",
      "addr_housenumber": "455"
    },
    {
      "id": 4745,
      "geometry": "POINT (-73.415676 41.109742)",
      "poi_name": "Stepping Stones Museum for Children",
      "osm_id": 11429157965,
      "tourism": "museum",
      "website": "https://www.steppingstonesmuseum.org"
    },
    {
      "id": 5220,
      "geometry": "POINT (-74.373917 40.792503)",
      "poi_name": "Imagine That!!!",
      "osm_id": 9802261328,
      "tourism": "museum",
      "website": "https://imaginethatmuseum.com/",
      "phone": "+1-973-966-8000",
      "museum": "children",
      "addr_state": "NJ",
      "addr_city": "Florham Park",
      "addr_postcode": "07932",
      "addr_street": "Vreeland Road",
      "addr_housenumber": "4"
    },
    {
      "id": 5239,
      "geometry": "POINT (-73.566361 40.907844)",
      "poi_name": "Bayville Historical Museum",
      "osm_id": 9812441192,
      "tourism": "museum"
    },
    {
      "id": 5339,
      "geometry": "POINT (-74.093992 40.985659)",
      "poi_name": "School House Museum",
      "osm_id": 736950265,
      "tourism": "museum",
      "website": "https://ridgewoodhistoricalsociety.org/"
    },
    {
      "id": 5978,
      "geometry": "POINT (-74.009196 40.706371)",
      "poi_name": "Museum of American Finance",
      "osm_id": 1693299134,
      "tourism": "museum",
      "opening_hours": "Tu-Sa 10:00-16:00",
      "website": "https://www.moaf.org/",
      "phone": "(212) 908-4110",
      "wikidata": "Q5354207"
    },
    {
      "id": 6301,
      "geometry": "POINT (-73.997738 40.740096)",
      "poi_name": "Rubin Museum of Art",
      "osm_id": 1810241472,
      "tourism": "museum",
      "opening_hours": "Mo 11:00-17:00, Sa,Su 11:00-18:00; We 11:00-21:00, Th 11:00-17:00, Fr 11:00-22:00",
      "website": "https://rubinmuseum.org/",
      "phone": "+1-212-620-5000",
      "wikidata": "Q63751",
      "addr_state": "NY",
      "addr_city": "New York",
      "addr_postcode": "10011",
      "addr_street": "West 17th Street",
      "addr_housenumber": "150"
    },
    {
      "id": 6991,
      "geometry": "POINT (-73.951007 41.348811)",
      "poi_name": "MANITOGA / The Russel Wright Design Center",
      "osm_id": 8804358016,
      "tourism": "museum",
      "website": "https://www.visitmanitoga.org/",
      "addr_state": "NY",
      "addr_city": "Garrison",
      "addr_postcode": "10524",
      "addr_street": "Old Manitou Road",
      "addr_housenumber": "22"
    },
    {
      "id": 7073,
      "geometry": "POINT (-73.193861 40.763933)",
      "poi_name": "Firefighter Museum",
      "osm_id": 8839907176,
      "tourism": "museum",
      "addr_street": "Courthouse Drive",
      "addr_housenumber": "4"
    },
    {
      "id": 7126,
      "geometry": "POINT (-73.949554 40.718955)",
      "poi_name": "Museum of Food and Drink",
      "osm_id": 8873306668,
      "tourism": "museum",
      "website": "https://www.mofad.org/",
      "addr_state": "NY",
      "addr_city": "Brooklyn",
      "addr_postcode": "11222",
      "addr_street": "Bayard Street",
      "addr_housenumber": "62"
    },
    {
      "id": 7319,
      "geometry": "POINT (-74.181656 40.372965)",
      "poi_name": "Holmes Hendrickson House",
      "osm_id": 2086702121,
      "tourism": "museum",
      "website": "https://www.monmouthhistory.org/holmes-hendrickson-house",
      "wikidata": "Q5883508"
    },
    {
      "id": 7488,
      "geometry": "POINT (-73.896922 40.588154)",
      "poi_name": "Ryan Visitor Center",
      "osm_id": 2185003533,
      "tourism": "museum",
      "website": "https://www.nps.gov/gate/learn/historyculture/ryan-visitor-center.htm",
      "addr_state": "NY",
      "addr_city": "Staten Island",
      "addr_postcode": "10305",
      "addr_street": "New York Avenue",
      "addr_housenumber": "210"
    },
    {
      "id": 7873,
      "geometry": "POINT (-74.060236 40.185317)",
      "poi_name": "Veteran Wireless Operators Association",
      "osm_id": 6448392802,
      "tourism": "museum",
      "website": "http://www.vwoa.org/"
    },
    {
      "id": 7874,
      "geometry": "POINT (-74.059791 40.1857)",
      "poi_name": "Us Army Signal Corps Electronics World War Two Communications",
      "osm_id": 6448392804,
      "tourism": "museum"
    },
    {
      "id": 7875,
      "geometry": "POINT (-74.059776 40.185513)",
      "poi_name": "World War Ii Military Miniatures And Artifact Museum Gallery",
      "osm_id": 6448392806,
      "tourism": "museum"
    },
    {
      "id": 7876,
      "geometry": "POINT (-74.060057 40.184973)",
      "poi_name": "Vintage Computer Federation Museum",
      "osm_id": 6448392810,
      "tourism": "museum",
      "website": "https://vcfed.org/wp/"
    },
    {
      "id": 7877,
      "geometry": "POINT (-74.059949 40.185828)",
      "poi_name": "Radio Technology Museum",
      "osm_id": 6448392814,
      "tourism": "museum",
      "website": "http://rtm.ar88.net/"
    },
    {
      "id": 7878,
      "geometry": "POINT (-74.05951 40.18548)",
      "poi_name": "New Jersey Shipwreck Museum",
      "osm_id": 6448392821,
      "tourism": "museum",
      "website": "https://njhda.org/"
    },
    {
      "id": 7879,
      "geometry": "POINT (-74.056421 40.184848)",
      "poi_name": "Diana Radio Telescope Museum",
      "osm_id": 6448516892,
      "tourism": "museum"
    },
    {
      "id": 7936,
      "geometry": "POINT (-73.977879 40.725731)",
      "poi_name": "Museum of Reclaimed Urban Space",
      "osm_id": 6481772610,
      "tourism": "museum",
      "wheelchair": "no",
      "fee": "yes",
      "opening_hours": "Tu,Th-Su 11:00-19:00",
      "website": "https://morusnyc.org/",
      "phone": "+1-646-340-8341",
      "toilets": "yes",
      "wikidata": "Q6941005",
      "addr_street": "Avenue C",
      "addr_housenumber": "155"
    },
    {
      "id": 8095,
      "geometry": "POINT (-73.991992 40.703714)",
      "poi_name": "Brooklyn Historical Society",
      "osm_id": 6562823263,
      "tourism": "museum"
    },
    {
      "id": 8178,
      "geometry": "POINT (-73.952917 40.664006)",
      "poi_name": "Museum of Women's Resistance",
      "osm_id": 6582352776,
      "description": "The Museum of Women's Resistance (MoWRe) examines the influence of women of African descent and women of color from the Global South and their resistance movements.",
      "tourism": "museum",
      "opening_hours": "Mo-Fr 10:30-17:30",
      "website": "https://www.museumofwomensresistance.org/",
      "phone": "(347) 533-9103",
      "addr_street": "Empire Boulevard",
      "addr_housenumber": "279"
    },
    {
      "id": 8956,
      "geometry": "POINT (-73.53275 40.874301)",
      "poi_name": "20th Century Cycles",
      "osm_id": 3595262121,
      "tourism": "museum",
      "wheelchair": "yes",
      "operator": "Billy Joel",
      "website": "https://20thcenturycycles.com/"
    },
    {
      "id": 9002,
      "geometry": "POINT (-73.994147 40.746654)",
      "poi_name": "The Museum at FIT",
      "osm_id": 3623620317,
      "tourism": "museum",
      "opening_hours": "Tu-Fr 12:00-20:00; Sa 10:00-17:00",
      "operator": "The Museum at FIT",
      "website": "https://www.fitnyc.edu/museum.asp"
    },
    {
      "id": 9398,
      "geometry": "POINT (-74.203148 40.436168)",
      "poi_name": "Keyport Historical Society",
      "osm_id": 3783374010,
      "tourism": "museum",
      "website": "http://keyporthistoricalsociety.com/",
      "addr_state": "NJ",
      "addr_city": "Keyport",
      "addr_postcode": "07735",
      "addr_street": "Main Street",
      "addr_housenumber": "34"
    },
    {
      "id": 9672,
      "geometry": "POINT (-74.091327 40.703041)",
      "poi_name": "Afro-American Historical Society Museum",
      "osm_id": 8920490209,
      "tourism": "museum",
      "opening_hours": "Sa 09:00-17:00",
      "website": "https://visitnj.org/nj-galleries/afro-american-historical-society-museum",
      "museum": "history",
      "addr_state": "NJ",
      "addr_city": "Jersey City",
      "addr_postcode": "07305",
      "addr_street": "John F. Kennedy Boulevard",
      "addr_housenumber": "1841"
    },
    {
      "id": 9697,
      "geometry": "POINT (-73.949334 40.796342)",
      "poi_name": "The Africa Center",
      "osm_id": 8942135848,
      "tourism": "museum",
      "opening_hours": "Su-Th 12:00-20:00",
      "website": "https://www.theafricacenter.org/",
      "museum": "art",
      "wikidata": "Q1954603",
      "addr_state": "NY",
      "addr_city": "New York",
      "addr_postcode": "10029",
      "addr_street": "5th Avenue",
      "addr_housenumber": "1280"
    },
    {
      "id": 9698,
      "geometry": "POINT (-73.974428 40.68535)",
      "poi_name": "Museum of Contemporary African Diasporan Arts",
      "osm_id": 8942168458,
      "tourism": "museum",
      "website": "https://www.mocada.org/",
      "wikidata": "Q6886122",
      "addr_state": "NY",
      "addr_city": "Brooklyn",
      "addr_postcode": "11217",
      "addr_street": "Hanson Place",
      "addr_housenumber": "80"
    },
    {
      "id": 9823,
      "geometry": "POINT (-73.969859 40.764)",
      "poi_name": "Grolier Club",
      "osm_id": 9007964737,
      "tourism": "museum",
      "website": "https://www.grolierclub.org/",
      "addr_street": "East 60th Street",
      "addr_housenumber": "47"
    },
    {
      "id": 10059,
      "geometry": "POINT (-74.003032 40.721768)",
      "poi_name": "Leslie-Lohman Museum of Art",
      "osm_id": 9136326361,
      "tourism": "museum",
      "wheelchair": "yes",
      "website": "https://www.leslielohman.org/",
      "phone": "+1 212 431 2609",
      "museum": "art",
      "wikidata": "Q6530976",
      "addr_state": "NY",
      "addr_city": "New York",
      "addr_postcode": "10013",
      "addr_street": "Wooster Street",
      "addr_housenumber": "26"
    },
    {
      "id": 10444,
      "geometry": "POINT (-73.977671 40.750689)",
      "poi_name": "The AKC Museum of the Dog",
      "osm_id": 6852303846,
      "tourism": "museum",
      "website": "https://museumofthedog.org/"
    },
    {
      "id": 10619,
      "geometry": "POINT (-73.961811 41.372592)",
      "poi_name": "West Point Museum",
      "osm_id": 6948513551,
      "tourism": "museum",
      "opening_hours": "Mo-Su 10:30-16:15",
      "operator": "US Army",
      "website": "https://history.army.mil/museums/IMCOM/westPoint/index.html",
      "museum": "military",
      "addr_state": "NY",
      "addr_city": "West Point",
      "addr_postcode": "10996",
      "addr_street": "New South Post Road",
      "addr_housenumber": "2110"
    },
    {
      "id": 10894,
      "geometry": "POINT (-73.955741 40.713954)",
      "poi_name": "The City Reliquary",
      "osm_id": 8132573640,
      "tourism": "museum",
      "opening_hours": "Th-Su 12:00-18:00; PH off",
      "website": "https://cityreliquary.org/",
      "museum": "local",
      "addr_state": "NY",
      "addr_city": "Brooklyn",
      "addr_postcode": "11211",
      "addr_street": "Metropolitan Avenue",
      "addr_housenumber": "370"
    },
    {
      "id": 11408,
      "geometry": "POINT (-74.006881 40.723177)",
      "poi_name": "Jackie Robinson Museum",
      "osm_id": 9960173554,
      "tourism": "museum",
      "opening_hours": "Th-Su 11:00-18:00; Dec 25 off",
      "website": "https://www.jackierobinsonmuseum.org",
      "phone": "(866) 454-3772",
      "museum": "person",
      "addr_state": "NY",
      "addr_city": "New York",
      "addr_postcode": "10013",
      "addr_street": "Varick Street",
      "addr_housenumber": "75"
    },
    {
      "id": 12372,
      "geometry": "POINT (-73.98694 41.17103)",
      "poi_name": "Blauvelt Homestead",
      "osm_id": 6327571234,
      "tourism": "museum",
      "operator": "Historical Society of Rockland County",
      "addr_state": "NY",
      "addr_city": "New City",
      "addr_postcode": "10956",
      "addr_street": "Zukor Road",
      "addr_housenumber": "20"
    },
    {
      "id": 12373,
      "geometry": "POINT (-73.986468 41.171034)",
      "poi_name": "History Center Museum",
      "osm_id": 6327577490,
      "tourism": "museum",
      "opening_hours": "We-Fr,Su 12:00-16:00",
      "operator": "Historical Society of Rockland",
      "addr_state": "NY",
      "addr_city": "New City",
      "addr_postcode": "10956",
      "addr_street": "Zukor Road",
      "addr_housenumber": "20"
    },
    {
      "id": 12896,
      "geometry": "POINT (-73.791053 40.805162)",
      "poi_name": "Maritime National Museum",
      "osm_id": 3940807665,
      "tourism": "museum",
      "website": "https://www.sunymaritime.edu/aboutpublic-programsmaritime-industry-museum/about-maritime-museum"
    },
    {
      "id": 12969,
      "geometry": "POINT (-73.929816 41.287703)",
      "poi_name": "Lincoln Depot Museum",
      "osm_id": 3993896261,
      "tourism": "museum",
      "website": "https://lincolndepotmuseum.org/"
    },
    {
      "id": 13253,
      "geometry": "POINT (-74.015955 40.692724)",
      "poi_name": "The Trust for Governors Island",
      "osm_id": 4080363530,
      "tourism": "museum",
      "fee": "no",
      "website": "https://www.govisland.com/about/the-trust-for-governors-island"
    },
    {
      "id": 14101,
      "geometry": "POINT (-73.987358 40.744037)",
      "poi_name": "Museum of Sex",
      "osm_id": 4224363289,
      "tourism": "museum",
      "wheelchair": "yes",
      "fee": "yes",
      "opening_hours": "Mo-Th, Su 10:30-22:00; Fr, Sa 10:30-23:00",
      "website": "https://www.museumofsex.com/",
      "phone": "+1 212-689-6337",
      "wikidata": "Q1322466",
      "addr_postcode": "10016",
      "addr_street": "5th Avenue",
      "addr_housenumber": "223"
    },
    {
      "id": 14223,
      "geometry": "POINT (-73.987344 40.743243)",
      "poi_name": "National Museum of Mathematics",
      "osm_id": 4252536496,
      "description": "Award winning museum that highlights the role of mathematics in illuminating the patterns and structures all around us. Its dynamic exhibits, gallery, and programs are designed to stimulate inquiry, spark curiosity, and reveal the wonders of mathematics.",
      "tourism": "museum",
      "wheelchair": "yes",
      "fee": "yes",
      "opening_hours": "Mo-Su 10:00-17:00",
      "website": "https://momath.org/",
      "internet_access": "wlan",
      "phone": "+1-212-542-0566",
      "toilets": "yes",
      "wikidata": "Q6940939",
      "addr_state": "NY",
      "addr_city": "New York",
      "addr_postcode": "10010",
      "addr_street": "East 26th Street",
      "addr_housenumber": "11"
    },
    {
      "id": 14869,
      "geometry": "POINT (-73.56042 40.584829)",
      "poi_name": "Jones Beach Energy & Nature Center",
      "osm_id": 4745490617,
      "amenity": "toilets",
      "tourism": "museum",
      "website": "https://www.jonesbeachenc.org/"
    },
    {
      "id": 14992,
      "geometry": "POINT (-73.973322 40.781397)",
      "poi_name": "Hayden Planetarium",
      "osm_id": 4778356621,
      "amenity": "planetarium",
      "tourism": "museum",
      "wheelchair": "yes",
      "fee": "yes",
      "opening_hours": "Mo-Su 10:00-17:30",
      "website": "https://haydenplanetarium.org/",
      "phone": "+1-212-769-5100",
      "wikidata": "Q665475",
      "addr_state": "NY",
      "addr_city": "New York",
      "addr_postcode": "10024",
      "addr_street": "Central Park West",
      "addr_housenumber": "200"
    },
    {
      "id": 15182,
      "geometry": "POINT (-73.943931 40.785658)",
      "poi_name": "Garbage museum",
      "osm_id": 4822836222,
      "tourism": "museum"
    },
    {
      "id": 15755,
      "geometry": "POINT (-73.978136 40.778609)",
      "poi_name": "NYC Barber Shop Museum",
      "osm_id": 9505939776,
      "tourism": "museum",
      "opening_hours": "Tu-Fr 10:00-19:00; Sa 10:00-18:00; Su 11:00-17:00",
      "website": "https://www.nycbarbershopmuseum.com/",
      "shop": "hairdresser",
      "phone": "+1-646-476-3525",
      "addr_state": "NY",
      "addr_city": "New York",
      "addr_postcode": "10023",
      "addr_street": "Columbus Avenue",
      "addr_housenumber": "290"
    },
    {
      "id": 17246,
      "geometry": "POINT (-73.497491 41.150192)",
      "poi_name": "New Canaan Historical Society",
      "osm_id": 367138492,
      "amenity": "library",
      "tourism": "museum",
      "website": "https://nchistory.org/",
      "addr_state": "CT"
    },
    {
      "id": 17290,
      "geometry": "POINT (-73.427065 41.190096)",
      "poi_name": "Wilton Heritage Museum",
      "osm_id": 367140292,
      "tourism": "museum",
      "wheelchair": "yes",
      "addr_state": "CT"
    },
    {
      "id": 17292,
      "geometry": "POINT (-73.545785 41.123364)",
      "poi_name": "Stamford Historical Society Museum",
      "osm_id": 367140298,
      "tourism": "museum",
      "website": "http://stamfordhistory.org/",
      "addr_state": "CT"
    },
    {
      "id": 17293,
      "geometry": "POINT (-73.407003 41.112094)",
      "poi_name": "Norwalk Museum;Norwalk Museum Historical Reference Library",
      "osm_id": 367140304,
      "amenity": "library",
      "tourism": "museum",
      "website": "https://norwalkhistoricalsociety.org/",
      "addr_state": "CT"
    },
    {
      "id": 17294,
      "geometry": "POINT (-73.378452 41.147041)",
      "poi_name": "Mid Fairfield Youth Museum",
      "osm_id": 367140307,
      "tourism": "museum",
      "addr_state": "CT"
    },
    {
      "id": 17296,
      "geometry": "POINT (-73.496449 41.14992)",
      "poi_name": "John Rogers Studio and Museum",
      "osm_id": 367140314,
      "tourism": "museum",
      "website": "https://nchistory.org/portfolio/rogers-studio/",
      "wikidata": "Q6255455",
      "addr_state": "CT"
    },
    {
      "id": 17298,
      "geometry": "POINT (-73.497899 41.070652)",
      "poi_name": "Connecticut Graphis Arts Center and Museum",
      "osm_id": 367140323,
      "tourism": "museum",
      "addr_state": "CT"
    },
    {
      "id": 17299,
      "geometry": "POINT (-73.622875 41.019976)",
      "poi_name": "Bruce Museum",
      "osm_id": 367140324,
      "tourism": "museum",
      "fee": "yes",
      "opening_hours": "Tu-Su 10:00-17:00",
      "website": "https://brucemuseum.org/",
      "addr_state": "CT",
      "addr_city": "Greenwich",
      "addr_postcode": "06830-7157",
      "addr_street": "Museum Drive",
      "addr_housenumber": "1"
    },
    {
      "id": 17302,
      "geometry": "POINT (-73.620126 41.018708)",
      "poi_name": "Bruce Museum",
      "osm_id": 367140327,
      "tourism": "museum",
      "wikidata": "Q4978056",
      "addr_state": "CT"
    },
    {
      "id": 17310,
      "geometry": "POINT (-74.030956 40.739273)",
      "poi_name": "Hoboken Fire Department Museum",
      "osm_id": 367697376,
      "tourism": "museum",
      "opening_hours": "Sa,Su 11:00-16:00",
      "website": "https://www.hobokenmuseum.org/visit/hoboken-fire-department-museum/",
      "wikidata": "Q4809792",
      "addr_state": "NJ",
      "addr_postcode": "07030",
      "addr_street": "Bloomfield Street",
      "addr_housenumber": "213"
    },
    {
      "id": 17311,
      "geometry": "POINT (-74.024992 40.752144)",
      "poi_name": "Hoboken Historical Museum",
      "osm_id": 367697388,
      "tourism": "museum",
      "website": "https://www.hobokenmuseum.org/",
      "wikidata": "Q14705586",
      "addr_state": "NJ",
      "addr_city": "Hoboken",
      "addr_postcode": "07030",
      "addr_street": "Hudson Street",
      "addr_housenumber": "1301"
    },
    {
      "id": 17312,
      "geometry": "POINT (-74.042288 40.885619)",
      "poi_name": "Bergen Museum of Art and Science",
      "osm_id": 367697399,
      "tourism": "museum",
      "wikidata": "Q4891525",
      "addr_state": "NJ"
    },
    {
      "id": 17313,
      "geometry": "POINT (-73.968788 40.848393)",
      "poi_name": "Fort Lee Museum at the Judge Moore House",
      "osm_id": 367697417,
      "tourism": "museum",
      "addr_state": "NJ"
    },
    {
      "id": 17314,
      "geometry": "POINT (-74.135278 40.326111)",
      "poi_name": "Monmouth Museum",
      "osm_id": 367697465,
      "tourism": "museum",
      "addr_state": "NJ"
    },
    {
      "id": 17316,
      "geometry": "POINT (-74.423901 40.761299)",
      "poi_name": "United Methodist Archives and History Center",
      "osm_id": 367697543,
      "tourism": "museum",
      "addr_state": "NJ"
    },
    {
      "id": 17775,
      "geometry": "POINT (-73.791111 40.934444)",
      "poi_name": "Thomas Paine Cottage and Museum",
      "osm_id": 368042964,
      "tourism": "museum",
      "building": "yes",
      "website": "https://www.thomaspainecottage.org/homepage.html",
      "addr_state": "NY",
      "addr_street": "Sicard Avenue",
      "addr_housenumber": "20"
    },
    {
      "id": 17779,
      "geometry": "POINT (-74.011354 40.703387)",
      "poi_name": "Fraunces Tavern Museum",
      "osm_id": 368052081,
      "tourism": "museum",
      "wheelchair": "yes",
      "opening_hours": "We-Su 12:00-17:00",
      "website": "https://www.frauncestavernmuseum.org/",
      "phone": "+1 212-425-1778",
      "addr_state": "NY",
      "addr_city": "New York",
      "addr_postcode": "10004",
      "addr_street": "Pearl Street",
      "addr_housenumber": "54"
    },
    {
      "id": 17787,
      "geometry": "POINT (-74.013747 40.704026)",
      "poi_name": "National Museum of the American Indian",
      "osm_id": 368061337,
      "tourism": "museum",
      "wheelchair": "yes",
      "opening_hours": "Mo-Su 10:00-17:00",
      "website": "https://americanindian.si.edu/",
      "phone": "+12125143700",
      "wikidata": "Q5539979",
      "addr_state": "NY",
      "addr_city": "New York",
      "addr_postcode": "10004",
      "addr_street": "Bowling Green",
      "addr_housenumber": "1"
    },
    {
      "id": 17790,
      "geometry": "POINT (-73.701332 40.815393)",
      "poi_name": "Science Museum of Long Island",
      "osm_id": 368061451,
      "tourism": "museum",
      "website": "https://www.smli.org/",
      "phone": "(516) 627-9400",
      "addr_state": "NY",
      "addr_city": "Manhasset",
      "addr_postcode": "11030",
      "addr_housenumber": "1526"
    },
    {
      "id": 17791,
      "geometry": "POINT (-73.646389 40.794444)",
      "poi_name": "Van Nostrand - Starkins House And Museum",
      "osm_id": 368061456,
      "tourism": "museum",
      "addr_state": "NY"
    },
    {
      "id": 17792,
      "geometry": "POINT (-73.510278 40.680556)",
      "poi_name": "Wantagh Museum",
      "osm_id": 368061460,
      "tourism": "museum",
      "website": "https://www.wantagh.li/museum/",
      "wikidata": "Q14707716",
      "addr_state": "NY"
    },
    {
      "id": 17793,
      "geometry": "POINT (-73.663261 40.646387)",
      "poi_name": "Grist Mill Museum",
      "osm_id": 368061469,
      "tourism": "museum",
      "addr_state": "NY"
    },
    {
      "id": 17794,
      "geometry": "POINT (-73.734093 40.608939)",
      "poi_name": "Rock Hall Museum",
      "osm_id": 368061476,
      "tourism": "museum",
      "website": "https://www.friendsofrockhall.org/",
      "wikidata": "Q7354447",
      "addr_state": "NY"
    },
    {
      "id": 17795,
      "geometry": "POINT (-73.92119 41.289046)",
      "poi_name": "The Peekskill Museum",
      "osm_id": 368061510,
      "tourism": "museum",
      "website": "https://peekskillmuseum.org/",
      "addr_state": "NY"
    },
    {
      "id": 17796,
      "geometry": "POINT (-73.919947 40.831091)",
      "poi_name": "Bronx Museum of the Arts",
      "osm_id": 368061518,
      "tourism": "museum",
      "wheelchair": "yes",
      "fee": "no",
      "opening_hours": "We-Su 13:00-18:00",
      "website": "https://bronxmuseum.org/",
      "wikidata": "Q4974195",
      "addr_state": "NY",
      "addr_postcode": "10456",
      "addr_street": "Grand Concourse",
      "addr_housenumber": "1040"
    },
    {
      "id": 17797,
      "geometry": "POINT (-73.581793 41.331206)",
      "poi_name": "Hammond Museum",
      "osm_id": 368061534,
      "tourism": "museum",
      "website": "https://www.hammondmuseum.org/",
      "addr_state": "NY"
    },
    {
      "id": 17798,
      "geometry": "POINT (-73.530324 40.870718)",
      "poi_name": "Earle - Wightman House Museum",
      "osm_id": 368061551,
      "tourism": "museum",
      "website": "https://www.oysterbayhistorical.org/house-and-garden.html",
      "wikidata": "Q5326398",
      "addr_state": "NY"
    },
    {
      "id": 17799,
      "geometry": "POINT (-73.840278 41.353611)",
      "poi_name": "Schoolhouse Museum",
      "osm_id": 368061554,
      "tourism": "museum",
      "website": "https://putnamvalleyhistory.org/historical-society-museum-building/",
      "addr_state": "NY"
    },
    {
      "id": 17800,
      "geometry": "POINT (-73.483382 40.667664)",
      "poi_name": "Tackapausha Museum Library",
      "osm_id": 368061562,
      "tourism": "museum",
      "addr_state": "NY"
    },
    {
      "id": 17801,
      "geometry": "POINT (-73.483382 40.667859)",
      "poi_name": "Tackapausha Museum",
      "osm_id": 368061566,
      "tourism": "museum",
      "website": "https://www.nassaucountyny.gov//2951/Tackapausha-Museum-and-Preserve",
      "addr_state": "NY"
    },
    {
      "id": 17802,
      "geometry": "POINT (-73.993831 40.737978)",
      "poi_name": "Yeshiva University Museum",
      "osm_id": 368061605,
      "tourism": "museum",
      "website": "https://www.yumuseum.org/",
      "wikidata": "Q8052851",
      "addr_state": "NY"
    },
    {
      "id": 17803,
      "geometry": "POINT (-74.004908 40.725096)",
      "poi_name": "Dahesh Museum of Art",
      "osm_id": 368061607,
      "tourism": "museum",
      "website": "https://www.daheshmuseum.org/",
      "wikidata": "Q2999991",
      "addr_state": "NY"
    },
    {
      "id": 17804,
      "geometry": "POINT (-73.924007 40.756195)",
      "poi_name": "Museum of the Moving Image",
      "osm_id": 368061644,
      "tourism": "museum",
      "wheelchair": "yes",
      "website": "https://movingimage.us/",
      "phone": "+1 718 777 6800",
      "wikidata": "Q465765",
      "addr_state": "NY",
      "addr_city": "Astoria",
      "addr_postcode": "11106",
      "addr_street": "35th Avenue"
    },
    {
      "id": 17805,
      "geometry": "POINT (-73.98998 40.690518)",
      "poi_name": "New York Transit Museum",
      "osm_id": 368061648,
      "description": "Undeground museum in disused subway tunnel. Main entrance on Schermerhorn Street at Boerum Place, wheelchair-accessible entrance on Schermerhorn Street at Court Street",
      "tourism": "museum",
      "wheelchair": "limited",
      "opening_hours": "Th-Su 10:00-16:00",
      "operator": "MTA",
      "website": "https://www.nytransitmuseum.org",
      "wikidata": "Q1503777",
      "addr_postcode": "11201",
      "addr_street": "Schermerhorn Street",
      "addr_housenumber": "99"
    },
    {
      "id": 17806,
      "geometry": "POINT (-73.997778 40.725)",
      "poi_name": "Museum of African Art",
      "osm_id": 368061657,
      "tourism": "museum",
      "addr_state": "NY"
    },
    {
      "id": 17807,
      "geometry": "POINT (-73.990027 40.718784)",
      "poi_name": "Lower East Side Tenement Museum",
      "osm_id": 368061660,
      "tourism": "museum",
      "opening_hours": "Mo-Su 10:00-18:00",
      "website": "https://www.tenement.org/",
      "phone": "+1 212-982-8420",
      "wikidata": "Q901533",
      "addr_state": "NY",
      "addr_city": "New York",
      "addr_street": "Orchard Street",
      "addr_housenumber": "103"
    },
    {
      "id": 17808,
      "geometry": "POINT (-73.9575 40.649444)",
      "poi_name": "Erasmus Hall Museum",
      "osm_id": 368061667,
      "tourism": "museum",
      "website": "https://6tocelebrate.org/site/erasmus-hall-museum-erasmus-hall-high-school/",
      "addr_state": "NY"
    },
    {
      "id": 17824,
      "geometry": "POINT (-73.80564 40.871781)",
      "poi_name": "Bartow-Pell Mansion Museum",
      "osm_id": 368061866,
      "tourism": "museum",
      "opening_hours": "We-Su 12:00-16:00; Th off; Fr off",
      "website": "https://www.bartowpellmansionmuseum.org/",
      "wikidata": "Q4865770",
      "addr_state": "NY"
    },
    {
      "id": 18359,
      "geometry": "POINT (-74.061741 40.324032)",
      "poi_name": "Allen House",
      "osm_id": 2262296375,
      "tourism": "museum",
      "wikidata": "Q4731691"
    },
    {
      "id": 18425,
      "geometry": "POINT (-74.163439 40.8185)",
      "poi_name": "Nutley Museum",
      "osm_id": 2295374778,
      "tourism": "museum",
      "operator": "Nutley Historical Society",
      "website": "https://www.nutleyhistoricalsociety.org/"
    },
    {
      "id": 18448,
      "geometry": "POINT (-73.588969 41.25741)",
      "poi_name": "Trailside nature museum",
      "osm_id": 2305180821,
      "tourism": "museum",
      "wheelchair": "yes",
      "operator": "Westchester County Parks",
      "website": "https://www.friendsoftrailside.org/",
      "addr_street": "Reservation Road"
    },
    {
      "id": 19208,
      "geometry": "POINT (-73.990873 40.716597)",
      "poi_name": "100 Gates Project",
      "osm_id": 2567548346,
      "tourism": "museum",
      "website": "https://100gates.nyc"
    },
    {
      "id": 19297,
      "geometry": "POINT (-73.925893 40.828571)",
      "poi_name": "The Yankees Museum",
      "osm_id": 2611640871,
      "tourism": "museum",
      "website": "https://www.mlb.com/yankees/ballpark/tours/museum",
      "wikidata": "Q7014872"
    },
    {
      "id": 20097,
      "geometry": "POINT (-74.416887 40.759608)",
      "poi_name": "Museum of Early Trades and Crafts Education Annex",
      "osm_id": 7866085103,
      "tourism": "museum",
      "website": "https://metc.org/"
    },
    {
      "id": 20320,
      "geometry": "POINT (-74.059445 40.186053)",
      "poi_name": "InfoAge Science Center",
      "osm_id": 1083066048,
      "tourism": "museum"
    },
    {
      "id": 20325,
      "geometry": "POINT (-73.67084 40.585213)",
      "poi_name": "Long Beach Historical & Preservation Society Museum",
      "osm_id": 1089084022,
      "tourism": "museum",
      "website": "https://longbeachhistoricalsociety.org/",
      "wikidata": "Q5914133",
      "addr_state": "NY",
      "addr_city": "Long Beach",
      "addr_postcode": "11561",
      "addr_street": "West Penn Street",
      "addr_housenumber": "226"
    },
    {
      "id": 21315,
      "geometry": "POINT (-73.987383 41.323967)",
      "poi_name": "Fort Montgomery",
      "osm_id": 1492588732,
      "tourism": "museum",
      "operator": "New York State Office of Parks, Recreation and Historic Preservation",
      "website": "https://parks.ny.gov/historic-sites/fortmontgomery/amenities.aspx"
    },
    {
      "id": 21377,
      "geometry": "POINT (-73.922886 40.867382)",
      "poi_name": "Dyckman Farmhouse Museum",
      "osm_id": 1549441335,
      "description": "Museum in the city's only remaining Dutch colonial farmhouse (built circa 1764) and its garden.",
      "tourism": "museum",
      "wheelchair": "no",
      "opening_hours": "Th-Sa 11:00-16:00; Su 11:00-15:00",
      "website": "https://dyckmanfarmhouse.org/",
      "phone": "+1-212-304-9422",
      "wikidata": "Q2865930",
      "addr_state": "NY",
      "addr_city": "New York",
      "addr_postcode": "10034",
      "addr_street": "Broadway",
      "addr_housenumber": "4881"
    },
    {
      "id": 21497,
      "geometry": "POINT (-74.088091 40.628564)",
      "poi_name": "Casa Belvedere, The Italian Cultural Foundation",
      "osm_id": 10289644809,
      "tourism": "museum",
      "website": "https://casa-belvedere.org"
    },
    {
      "id": 21498,
      "geometry": "POINT (-74.111077 40.638017)",
      "poi_name": "Kreuzer-Pelton House",
      "osm_id": 10289644810,
      "tourism": "museum",
      "addr_housenumber": "214"
    },
    {
      "id": 21499,
      "geometry": "POINT (-74.123541 40.628878)",
      "poi_name": "The Scott-Edwards House",
      "osm_id": 10289644811,
      "tourism": "museum"
    },
    {
      "id": 21500,
      "geometry": "POINT (-74.135686 40.61607)",
      "poi_name": "The Peter Houseman House",
      "osm_id": 10289645009,
      "tourism": "museum"
    },
    {
      "id": 21504,
      "geometry": "POINT (-73.930253 40.822655)",
      "poi_name": "Universal Hip Hop Museum",
      "osm_id": 10291573910,
      "tourism": "museum",
      "website": "https://uhhm.org"
    },
    {
      "id": 21901,
      "geometry": "POINT (-74.105326 40.785678)",
      "poi_name": "William D. McDowell Observatory",
      "osm_id": 913644165,
      "tourism": "museum"
    },
    {
      "id": 22220,
      "geometry": "POINT (-74.089318 40.838084)",
      "poi_name": "Carlstadt Historical Society",
      "osm_id": 608435749,
      "tourism": "museum"
    },
    {
      "id": 22395,
      "geometry": "POINT (-73.457195 40.871256)",
      "poi_name": "Preservation Long Islannd",
      "osm_id": 7016083504,
      "tourism": "museum",
      "website": "http://preservationlonglsland.org/",
      "addr_state": "NY",
      "addr_city": "Cold Spring Harbor",
      "addr_postcode": "11724",
      "addr_street": "West Main Street",
      "addr_housenumber": "161"
    },
    {
      "id": 22425,
      "geometry": "POINT (-73.966827 40.764819)",
      "poi_name": "Society of Illustrators",
      "osm_id": 7041713696,
      "tourism": "museum",
      "opening_hours": "We-Sa 11:00-17:00",
      "website": "https://societyillustrators.org/",
      "phone": "+1 212 838 2560",
      "museum": "art",
      "addr_state": "NY",
      "addr_city": "New York",
      "addr_postcode": "10065",
      "addr_street": "East 63rd Street",
      "addr_housenumber": "128"
    },
    {
      "id": 22462,
      "geometry": "POINT (-73.597478 40.728347)",
      "poi_name": "Cradle of Aviation Museum",
      "osm_id": 7089432281,
      "tourism": "museum",
      "website": "https://www.cradleofaviation.org/",
      "wikidata": "Q5180482"
    },
    {
      "id": 22463,
      "geometry": "POINT (-73.598003 40.728222)",
      "poi_name": "Nassau County Firefighters Museum",
      "osm_id": 7089438187,
      "tourism": "museum",
      "website": "https://ncfiremuseum.org/index.php"
    },
    {
      "id": 22548,
      "geometry": "POINT (-73.997906 40.723865)",
      "poi_name": "Museum of Ice Cream",
      "osm_id": 7152625885,
      "tourism": "museum",
      "opening_hours": "Mo, We, Th, Su 10:00-19:00; Fr, Sa 10:00-20:30",
      "website": "https://www.museumoficecream.com/new-york-city",
      "addr_street": "Broadway",
      "addr_housenumber": "558"
    },
    {
      "id": 22673,
      "geometry": "POINT (-73.624737 40.863361)",
      "poi_name": "First City Project",
      "osm_id": 7209268009,
      "tourism": "museum",
      "website": "http://www.firstcityproject.com/"
    },
    {
      "id": 22740,
      "geometry": "POINT (-73.816895 40.736375)",
      "poi_name": "Godwin-Ternbach Museum",
      "osm_id": 7237418930,
      "tourism": "museum",
      "website": "https://gtmuseum.org/",
      "museum": "art",
      "wikidata": "Q18343137"
    },
    {
      "id": 22937,
      "geometry": "POINT (-73.980323 40.661916)",
      "poi_name": "Lesbian Herstory Archives",
      "osm_id": 4975837317,
      "tourism": "museum",
      "opening_hours": "\"see website for schedule\"",
      "website": "https://lesbianherstoryarchives.com",
      "phone": "+1-718-768-3953",
      "wikidata": "Q6530249"
    },
    {
      "id": 23064,
      "geometry": "POINT (-73.961714 40.91029)",
      "poi_name": "African Art Museum at the SMA",
      "osm_id": 5022817661,
      "tourism": "museum",
      "operator": "Society of African Missions",
      "website": "http://smafathers.org/museum/"
    },
    {
      "id": 23394,
      "geometry": "POINT (-74.00672 40.74121)",
      "poi_name": "Ground Zero Museum Workshop",
      "osm_id": 5166579821,
      "tourism": "museum",
      "opening_hours": "We-Su 11:00-15:00",
      "website": "https://groundzeromuseumworkshop.org/",
      "addr_postcode": "10014"
    },
    {
      "id": 23750,
      "geometry": "POINT (-73.941171 40.830454)",
      "poi_name": "Sugar Hill Children's Museum of Art and Story Telling",
      "osm_id": 5296084264,
      "tourism": "museum",
      "wheelchair": "yes",
      "website": "https://www.sugarhillmuseum.org",
      "addr_postcode": "10032",
      "addr_street": "Saint Nicholas Avenue",
      "addr_housenumber": "898"
    },
    {
      "id": 24180,
      "geometry": "POINT (-73.988649 40.718097)",
      "poi_name": "International Center of Photography",
      "osm_id": 9371206933,
      "tourism": "museum",
      "opening_hours": "11:00-19:00; Tu off; Th 11:00-21:00",
      "website": "https://www.icp.org/",
      "museum": "art",
      "addr_state": "NY",
      "addr_city": "New York",
      "addr_postcode": "10002",
      "addr_street": "Essex Street",
      "addr_housenumber": "79"
    },
    {
      "id": 24213,
      "geometry": "POINT (-73.680378 41.005669)",
      "poi_name": "MNH Outpost",
      "osm_id": 10961802055,
      "tourism": "museum"
    },
    {
      "id": 24494,
      "geometry": "POINT (-74.003532 40.750247)",
      "poi_name": "National Academy of Design",
      "osm_id": 11079626705,
      "tourism": "museum",
      "website": "https://nationalacademy.org/",
      "phone": "+1-212-369-4880",
      "museum": "art",
      "addr_state": "NY",
      "addr_city": "New York",
      "addr_postcode": "10001",
      "addr_street": "West 26th Street",
      "addr_housenumber": "519"
    },
    {
      "id": 24566,
      "geometry": "POINT (-73.988667 40.748289)",
      "poi_name": "June 4th Memorial Exhibit",
      "osm_id": 11113367836,
      "tourism": "museum",
      "website": "https://jinian64.org/",
      "museum": "history",
      "addr_state": "NY",
      "addr_city": "New York",
      "addr_postcode": "10001",
      "addr_street": "6th Avenue",
      "addr_housenumber": "894"
    },
    {
      "id": 24586,
      "geometry": "POINT (-74.216501 40.540978)",
      "poi_name": "Sandy Ground Historical Society",
      "osm_id": 11124194340,
      "tourism": "museum",
      "opening_hours": "Tu-Su 13:00-16:00",
      "website": "https://www.nyc-arts.org/organizations/341/sandy-ground-historical-society",
      "addr_postcode": "10309",
      "addr_street": "Woodrow Road",
      "addr_housenumber": "1538"
    },
    {
      "id": 24802,
      "geometry": "POINT (-73.689105 40.860814)",
      "poi_name": "Falaise Museum",
      "osm_id": 4328214489,
      "tourism": "museum"
    },
    {
      "id": 24810,
      "geometry": "POINT (-73.997461 40.719254)",
      "poi_name": "Italian American Museum",
      "osm_id": 4332192139,
      "tourism": "museum",
      "website": "https://italianamericanmuseum.org/",
      "phone": "+1 212-965-9000",
      "addr_state": "NY",
      "addr_city": "New York",
      "addr_street": "Mulberry Street",
      "addr_housenumber": "155"
    },
    {
      "id": 25116,
      "geometry": "POINT (-74.446722 40.498701)",
      "poi_name": "Rutgers Geology Museum",
      "osm_id": 4403759525,
      "tourism": "museum",
      "operator": "Rutgers University",
      "website": "https://geologymuseum.rutgers.edu/geology-museum",
      "phone": "+1-848-932-7243",
      "addr_state": "NJ",
      "addr_city": "New Brunswick",
      "addr_postcode": "08901-1281",
      "addr_street": "Somerset Street",
      "addr_housenumber": "85"
    },
    {
      "id": 25204,
      "geometry": "POINT (-73.641692 40.884037)",
      "poi_name": "Holocaust Memorial Center",
      "osm_id": 4422126860,
      "tourism": "museum",
      "opening_hours": "Mo-Fr 10:00-16:30; Sa-Su 12:00-16:00",
      "official_name": "Holocaust Memorial and Tolerance Center of Nassau County",
      "wikidata": "Q18737134",
      "addr_city": "Glen Cove",
      "addr_postcode": "11542",
      "addr_street": "Crescent Beach Road",
      "addr_housenumber": "100"
    },
    {
      "id": 25342,
      "geometry": "POINT (-73.927462 40.81753)",
      "poi_name": "Hostos Center for the Art and Culture",
      "osm_id": 4455068893,
      "tourism": "museum",
      "website": "https://hostoscenter.org/",
      "wikidata": "Q22329578"
    },
    {
      "id": 25343,
      "geometry": "POINT (-73.918658 40.818032)",
      "poi_name": "Bronx Documentary Center",
      "osm_id": 4455096389,
      "tourism": "museum",
      "wheelchair": "yes",
      "website": "https://www.bronxdoc.org/"
    },
    {
      "id": 25359,
      "geometry": "POINT (-73.981479 40.749191)",
      "poi_name": "The Morgan Library & Museum",
      "osm_id": 4462440249,
      "tourism": "museum",
      "opening_hours": "Tu-Su 10:00-17:30",
      "website": "https://www.themorgan.org/",
      "phone": "+1-212-685-0008",
      "museum": "art",
      "wikidata": "Q1478423",
      "addr_state": "NY",
      "addr_city": "New York",
      "addr_postcode": "10016",
      "addr_street": "Madison Avenue",
      "addr_housenumber": "225"
    },
    {
      "id": 25375,
      "geometry": "POINT (-74.005944 40.749442)",
      "poi_name": "Gagosian",
      "osm_id": 4470030189,
      "tourism": "museum",
      "opening_hours": "Tu-Sa 10:00-18:00",
      "website": "https://gagosian.com",
      "phone": "+1-212-741-1111",
      "wikidata": "Q2748031",
      "addr_street": "West 24th Street",
      "addr_housenumber": "555"
    },
    {
      "id": 25436,
      "geometry": "POINT (-73.931923 40.864868)",
      "poi_name": "The Met Cloisters",
      "osm_id": 4491242890,
      "tourism": "museum",
      "opening_hours": "Th-Tu 10:00-16:30",
      "operator": "The Metropolitan Museum of Art",
      "website": "https://www.metmuseum.org/visit/plan-your-visit/met-cloisters",
      "museum": "art",
      "wikidata": "Q1138030",
      "addr_postcode": "10040",
      "addr_street": "Margaret Corbin Drive",
      "addr_housenumber": "99"
    },
    {
      "id": 25787,
      "geometry": "POINT (-73.993386 40.723088)",
      "poi_name": "ICP International Center of Photography Museum",
      "osm_id": 4605597194,
      "tourism": "museum",
      "opening_hours": "Tu-We, Fr-Su 10:00-18:00; Th 09:00-21:00",
      "website": "https://www.icp.org/facilities/museum",
      "phone": "2128570000",
      "addr_postcode": "10012"
    },
    {
      "id": 25880,
      "geometry": "POINT (-73.987818 40.704599)",
      "poi_name": "Spark Brooklyn Children's Museum Annex",
      "osm_id": 4631369553,
      "tourism": "museum",
      "operator": "Brooklyn Children's Museum",
      "website": "https://www.brooklynkids.org/spark/",
      "addr_city": "Brooklyn",
      "addr_postcode": "11201",
      "addr_street": "John Street",
      "addr_housenumber": "1"
    },
    {
      "id": 25881,
      "geometry": "POINT (-73.487924 40.668533)",
      "poi_name": "Seaford Historical Society",
      "osm_id": 4631494763,
      "tourism": "museum",
      "website": "https://www.seafordhistoricalsociety.com/"
    },
    {
      "id": 25951,
      "geometry": "POINT (-73.980625 40.635515)",
      "poi_name": "Living Torah Museum",
      "osm_id": 5747114437,
      "tourism": "museum",
      "website": "https://www.livingtorahmuseum.com/",
      "wikidata": "Q6659326",
      "addr_street": "41st Street",
      "addr_housenumber": "1601"
    },
    {
      "id": 25952,
      "geometry": "POINT (-73.99858 40.72873)",
      "poi_name": "Center for Architecture",
      "osm_id": 5747425246,
      "tourism": "museum",
      "wheelchair": "limited",
      "website": "https://www.centerforarchitecture.org/",
      "wikidata": "Q5059504",
      "addr_street": "LaGuardia Place",
      "addr_housenumber": "546"
    },
    {
      "id": 26648,
      "geometry": "POINT (-73.864264 41.161)",
      "poi_name": "Sing Sing Prison Museum",
      "osm_id": 5962390830,
      "tourism": "museum",
      "addr_postcode": "10562",
      "addr_street": "Main Street",
      "addr_housenumber": "127"
    },
    {
      "id": 26763,
      "geometry": "POINT (-74.002855 40.739659)",
      "poi_name": "Museum of Illusions",
      "osm_id": 6035120505,
      "tourism": "museum",
      "website": "https://museumofillusions.us/",
      "addr_street": "8th Avenue",
      "addr_housenumber": "77"
    },
    {
      "id": 70,
      "geometry": "POINT (-74.101763 40.644307)",
      "poi_name": "Noble Maritime Collection",
      "osm_id": 424048139,
      "tourism": "museum",
      "wheelchair": "yes",
      "opening_hours": "Th-Su 12:00-17:00",
      "website": "https://noblemaritime.org/",
      "phone": "+1 718-447-6490",
      "museum": "art",
      "addr_postcode": "10301"
    },
    {
      "id": 71,
      "geometry": "POINT (-74.102099 40.644381)",
      "poi_name": "Newhouse Center for Contemporary Art",
      "osm_id": 424048146,
      "tourism": "museum",
      "wheelchair": "yes",
      "website": "https://snug-harbor.org/newhousecenter/",
      "wikidata": "Q7018212",
      "addr_postcode": "10301"
    },
    {
      "id": 72,
      "geometry": "POINT (-74.102749 40.644521)",
      "poi_name": "Staten Island Museum",
      "osm_id": 424048153,
      "tourism": "museum",
      "wheelchair": "yes",
      "opening_hours": "We-Su 11:00-17:00",
      "website": "https://www.statenislandmuseum.org/",
      "phone": "+1-718-727-1135",
      "wikidata": "Q1140168",
      "addr_postcode": "10301"
    }
  ],
  "answer_type": "name",
  "question_entities": {
    "[1]": {
      "main_category": "tourism",
      "sub_category": "museum"
    },
    "[2]": {
      "distance": 70000,
      "text": "70 kilometers"
    },
    "[3]": {
      "main_category": "tourism",
      "sub_category": "hotel",
      "display_name": "The Mark, New York, NY",
      "geo_wkt": "POINT (-73.96326 40.775317)",
      "poi": {
        "id": 3330,
        "geometry": "POINT (-73.96326 40.775317)",
        "poi_name": "The Mark",
        "osm_id": 5356822882,
        "tourism": "hotel",
        "wheelchair": "yes",
        "website": "https://www.themarkhotel.com/",
        "phone": "+1 (212) 744-4300",
        "addr_state": "NY",
        "addr_city": "New York",
        "addr_postcode": "10075",
        "addr_street": "East 77th Street",
        "addr_housenumber": "25"
      }
    }
  },
  "id": 836,
  "type": "range+name"
}