{
  "question": "What's the distance to a caf\u00e9 from Marvin's Marvelous Mechanical Museum, Farmington Hills, MI within 70 kilometers?",
  "sql": "SELECT *, ST_Distance(ST_GeomFromText('POINT (-83.362246 42.525345)',4326)::geography, pois.geometry) AS distance FROM pois\nWHERE ST_DWithin(pois.geometry, ST_GeomFromText('POINT (-83.362246 42.525345)',4326)::geography, 70000)\nAND amenity = 'cafe';\n",
  "answers": [
    {
      "id": 27529,
      "geometry": "POINT (-83.144435 42.48799)",
      "poi_name": "Starbucks",
      "osm_id": 430025466,
      "amenity": "cafe",
      "cuisine": "coffee_shop",
      "website": "https://www.starbucks.com/store-locator/store/18383/royal-oak-s-main-3rd-st-300-s-main-st-royal-oak-mi-480672614-us",
      "takeaway": "yes",
      "official_name": "Starbucks Coffee",
      "addr_state": "MI",
      "addr_city": "Royal Oak",
      "addr_street": "South Main Street",
      "addr_housenumber": "300",
      "distance": 18376.52932345
    },
    {
      "id": 27532,
      "geometry": "POINT (-83.146788 42.485381)",
      "poi_name": "Five15",
      "osm_id": 430027018,
      "amenity": "cafe",
      "opening_hours": "Tu-Sa 00:00-18:00; Su 00:00-17:00",
      "addr_state": "MI",
      "addr_city": "Royal Oak",
      "addr_postcode": "48067",
      "addr_street": "South Washington Avenue",
      "addr_housenumber": "600",
      "distance": 18256.835025
    },
    {
      "id": 29448,
      "geometry": "POINT (-83.176274 42.32518)",
      "poi_name": "Romantica Cafe",
      "osm_id": 8301810322,
      "amenity": "cafe",
      "cuisine": "coffee_shop;tea",
      "phone": "+1-313-429-3166",
      "outdoor_seating": "no",
      "addr_street": "Schaefer Road",
      "addr_housenumber": "5125",
      "distance": 26992.87188852
    },
    {
      "id": 29728,
      "geometry": "POINT (-83.388081 42.659106)",
      "poi_name": "Starbucks",
      "osm_id": 8321935959,
      "amenity": "cafe",
      "cuisine": "coffee_shop",
      "takeaway": "yes",
      "official_name": "Starbucks Coffee",
      "distance": 15009.40332186
    },
    {
      "id": 30343,
      "geometry": "POINT (-83.78293 42.278734)",
      "poi_name": "Sweetwater's Coffee & Tea",
      "osm_id": 8350684368,
      "amenity": "cafe",
      "cuisine": "coffee_shop",
      "opening_hours": "Mo-Su 09:00-18:00",
      "distance": 44157.74323231
    },
    {
      "id": 30545,
      "geometry": "POINT (-83.000592 42.400887)",
      "poi_name": "Tim Hortons",
      "osm_id": 8365340859,
      "amenity": "cafe",
      "cuisine": "coffee_shop",
      "opening_hours": "Mo-Sa 05:30-19:00; Su 06:00-19:00",
      "takeaway": "yes",
      "outdoor_seating": "no",
      "addr_state": "MI",
      "addr_city": "Detroit",
      "addr_postcode": "48213",
      "addr_street": "Gratiot Avenue",
      "addr_housenumber": "10533",
      "distance": 32800.85196503
    },
    {
      "id": 31659,
      "geometry": "POINT (-83.424409 42.248908)",
      "poi_name": "Tim Hortons",
      "osm_id": 8440745205,
      "amenity": "cafe",
      "cuisine": "coffee_shop",
      "takeaway": "yes",
      "addr_state": "MI",
      "addr_city": "Romulus",
      "addr_postcode": "48174",
      "addr_street": "Ecorse Road",
      "addr_housenumber": "39315",
      "distance": 31130.56805692
    },
    {
      "id": 31688,
      "geometry": "POINT (-83.8396 42.293475)",
      "poi_name": "Tim Hortons",
      "osm_id": 8441897388,
      "amenity": "cafe",
      "cuisine": "coffee_shop",
      "takeaway": "yes",
      "addr_state": "MI",
      "addr_city": "Ann Arbor",
      "addr_postcode": "48103",
      "addr_street": "North Zeeb Road",
      "addr_housenumber": "325",
      "distance": 46983.47677247
    },
    {
      "id": 31692,
      "geometry": "POINT (-83.759547 42.247924)",
      "poi_name": "Tim Hortons",
      "osm_id": 8441975838,
      "amenity": "cafe",
      "cuisine": "coffee_shop",
      "opening_hours": "24/7",
      "phone": "+1 734 222 6327",
      "takeaway": "yes",
      "addr_state": "MI",
      "addr_city": "Ann Arbor",
      "addr_postcode": "48103",
      "addr_street": "Ann Arbor-Saline Road",
      "addr_housenumber": "2679",
      "distance": 44944.52255198
    },
    {
      "id": 31725,
      "geometry": "POINT (-82.746414 42.72107)",
      "poi_name": "Tim Hortons",
      "osm_id": 8443671668,
      "amenity": "cafe",
      "cuisine": "coffee_shop",
      "takeaway": "yes",
      "distance": 55000.94320247
    },
    {
      "id": 31728,
      "geometry": "POINT (-82.747503 42.721005)",
      "poi_name": "My Place Cafe",
      "osm_id": 8443671671,
      "amenity": "cafe",
      "distance": 54916.06656445
    },
    {
      "id": 31876,
      "geometry": "POINT (-82.769314 42.676272)",
      "poi_name": "Tim Hortons",
      "osm_id": 8453619008,
      "amenity": "cafe",
      "cuisine": "coffee_shop",
      "takeaway": "yes",
      "distance": 51467.21636377
    },
    {
      "id": 32257,
      "geometry": "POINT (-83.746011 42.284453)",
      "poi_name": "Sweetwaters Coffee & Tea",
      "osm_id": 2623064649,
      "amenity": "cafe",
      "internet_access": "yes",
      "distance": 41401.94666911
    },
    {
      "id": 32258,
      "geometry": "POINT (-83.748581 42.283024)",
      "poi_name": "Mighty\u00a0Good Coffee",
      "osm_id": 2623065827,
      "amenity": "cafe",
      "internet_access": "yes",
      "distance": 41666.24091453
    },
    {
      "id": 34166,
      "geometry": "POINT (-83.337701 42.498709)",
      "poi_name": "Jungle Java",
      "osm_id": 2696977518,
      "amenity": "cafe",
      "distance": 3581.01754704
    },
    {
      "id": 35985,
      "geometry": "POINT (-83.740974 42.279475)",
      "poi_name": "Starbucks",
      "osm_id": 2742714779,
      "amenity": "cafe",
      "cuisine": "coffee_shop",
      "opening_hours": "Mo-Fr 05:30-21:00; Sa,Su 06:00-21:00",
      "takeaway": "yes",
      "official_name": "Starbucks Coffee",
      "distance": 41449.60938025
    },
    {
      "id": 36259,
      "geometry": "POINT (-83.680862 42.237205)",
      "poi_name": "Starbucks",
      "osm_id": 2758425284,
      "amenity": "cafe",
      "cuisine": "coffee_shop",
      "takeaway": "yes",
      "official_name": "Starbucks Coffee",
      "distance": 41387.6056252
    },
    {
      "id": 36339,
      "geometry": "POINT (-83.741294 42.278443)",
      "poi_name": "Comet Coffee",
      "osm_id": 2760098981,
      "amenity": "cafe",
      "cuisine": "coffee_shop",
      "opening_hours": "We-Su 08:30-16:00",
      "addr_street": "Nickels Arcade",
      "addr_housenumber": "16",
      "distance": 41545.15865495
    },
    {
      "id": 38647,
      "geometry": "POINT (-83.740948 42.278823)",
      "poi_name": "Amer's Delicatessen",
      "osm_id": 2874423480,
      "amenity": "cafe",
      "cuisine": "sandwich",
      "internet_access": "wlan",
      "addr_city": "Ann Arbor",
      "addr_street": "South State Street",
      "distance": 41495.87089823
    },
    {
      "id": 38648,
      "geometry": "POINT (-83.740947 42.278838)",
      "poi_name": "Chicago Reds",
      "osm_id": 2874423481,
      "amenity": "cafe",
      "cuisine": "american",
      "internet_access": "wlan",
      "addr_city": "Ann Arbor",
      "addr_street": "South State Street",
      "distance": 41494.73882361
    },
    {
      "id": 38649,
      "geometry": "POINT (-83.740948 42.278806)",
      "poi_name": "Yogurt Rush",
      "osm_id": 2874423482,
      "amenity": "cafe",
      "cuisine": "ice_cream",
      "wheelchair": "yes",
      "website": "http://www.yogurtrush.com/",
      "internet_access": "wlan",
      "addr_city": "Ann Arbor",
      "addr_street": "South State Street",
      "addr_housenumber": "314",
      "distance": 41497.12139135
    },
    {
      "id": 38650,
      "geometry": "POINT (-83.740958 42.278961)",
      "poi_name": "Sharetea",
      "osm_id": 2874423483,
      "amenity": "cafe",
      "cuisine": "bubble_tea",
      "website": "https://www.1992sharetea.com/",
      "phone": "+1-734-926-8940",
      "takeaway": "yes",
      "addr_city": "Ann Arbor",
      "addr_street": "South State Street",
      "addr_housenumber": "310",
      "distance": 41486.34358874
    },
    {
      "id": 38881,
      "geometry": "POINT (-83.742256 42.277726)",
      "poi_name": "UniTea",
      "osm_id": 2887795516,
      "amenity": "cafe",
      "cuisine": "bubble_tea",
      "addr_city": "Ann Arbor",
      "addr_postcode": "48104",
      "addr_street": "East William Street",
      "addr_housenumber": "522",
      "distance": 41657.37041167
    },
    {
      "id": 39109,
      "geometry": "POINT (-83.615493 42.515549)",
      "poi_name": "Starbucks",
      "osm_id": 2903305575,
      "amenity": "cafe",
      "cuisine": "coffee_shop",
      "takeaway": "yes",
      "official_name": "Starbucks Coffee",
      "distance": 20838.29953954
    },
    {
      "id": 39822,
      "geometry": "POINT (-83.146354 42.486682)",
      "poi_name": "The Proving Grounds",
      "osm_id": 2941061595,
      "amenity": "cafe",
      "cuisine": "coffee_shop;ice_cream",
      "opening_hours": "Mo-Su 07:00-18:00",
      "addr_state": "MI",
      "addr_city": "Royal Oak",
      "addr_postcode": "48067",
      "addr_street": "South Washington Avenue",
      "addr_housenumber": "417",
      "distance": 18256.77833409
    },
    {
      "id": 39826,
      "geometry": "POINT (-83.145714 42.487337)",
      "poi_name": "Cacao Tree Cafe",
      "osm_id": 2941062923,
      "amenity": "cafe",
      "cuisine": "organic",
      "opening_hours": "Mo-Sa 08:00-20:00",
      "addr_state": "MI",
      "addr_city": "Royal Oak",
      "addr_postcode": "48067",
      "addr_street": "West 4th Street",
      "addr_housenumber": "204",
      "distance": 18290.90000093
    },
    {
      "id": 39903,
      "geometry": "POINT (-83.469789 42.369707)",
      "poi_name": "Starbucks",
      "osm_id": 2948729505,
      "amenity": "cafe",
      "cuisine": "coffee_shop",
      "takeaway": "yes",
      "official_name": "Starbucks Coffee",
      "distance": 19420.89020785
    },
    {
      "id": 40340,
      "geometry": "POINT (-83.651356 42.476282)",
      "poi_name": "Java House",
      "osm_id": 2967725009,
      "amenity": "cafe",
      "distance": 24381.22427452
    },
    {
      "id": 40779,
      "geometry": "POINT (-83.047211 42.331198)",
      "poi_name": "Starbucks",
      "osm_id": 2983229795,
      "amenity": "cafe",
      "cuisine": "coffee_shop",
      "operator": "Starbucks",
      "internet_access": "wlan",
      "takeaway": "yes",
      "official_name": "Starbucks Coffee",
      "addr_state": "MI",
      "addr_city": "Detroit",
      "addr_postcode": "48226",
      "addr_street": "Woodward Avenue",
      "addr_housenumber": "777",
      "distance": 33722.51816846
    },
    {
      "id": 42054,
      "geometry": "POINT (-83.74628 42.279615)",
      "poi_name": "Afternoon Delight",
      "osm_id": 3040021263,
      "amenity": "cafe",
      "cuisine": "american",
      "wheelchair": "yes",
      "opening_hours": "Mo-Sa 08:00-15:00; Su 08:30-15:00",
      "website": "https://www.afternoondelightcafe.com/",
      "phone": "+17346657513",
      "takeaway": "yes",
      "outdoor_seating": "yes",
      "addr_street": "East Liberty Street",
      "addr_housenumber": "251",
      "distance": 41768.93483671
    },
    {
      "id": 42070,
      "geometry": "POINT (-83.734302 42.275132)",
      "poi_name": "Sweeting: Tea and Dessert",
      "osm_id": 3040289933,
      "amenity": "cafe",
      "cuisine": "bubble_tea",
      "opening_hours": "Su-Th 12:00-21:00; Fr,Sa 12:00-22:00",
      "addr_state": "MI",
      "addr_city": "Ann Arbor",
      "addr_postcode": "48105",
      "addr_street": "South University Avenue",
      "addr_housenumber": "1205",
      "distance": 41361.39568494
    },
    {
      "id": 42440,
      "geometry": "POINT (-83.717697 42.290878)",
      "poi_name": "Fireside Roast",
      "osm_id": 3062442003,
      "amenity": "cafe",
      "cuisine": "sandwich;coffee_shop",
      "distance": 39172.77623385
    },
    {
      "id": 42464,
      "geometry": "POINT (-83.721272 42.293635)",
      "poi_name": "Blue Apple",
      "osm_id": 3065601646,
      "amenity": "cafe",
      "cuisine": "sandwich;pizza",
      "opening_hours": "Mo-Th 07:00-01:00; Fr 07:00-23:00; Sa 09:00-23:00; Su 09:00-01:00",
      "distance": 39190.7630331
    },
    {
      "id": 42473,
      "geometry": "POINT (-83.731747 42.280222)",
      "poi_name": "Victors",
      "osm_id": 3065610484,
      "amenity": "cafe",
      "cuisine": "sandwich;pizza",
      "opening_hours": "Mo-Th 07:00-01:00; Fr 07:00-23:00; Sa 09:00-23:00; Su 09:00-01:00",
      "distance": 40825.67429215
    },
    {
      "id": 42566,
      "geometry": "POINT (-83.737109 42.275882)",
      "poi_name": "Bert's Cafe",
      "osm_id": 3068653993,
      "amenity": "cafe",
      "cuisine": "sandwich;coffee_shop",
      "opening_hours": "Mo-Th 08:00-01:00; Fr 08:00-17:00; Sa 12:00-17:00",
      "website": "https://dining.umich.edu/menus-locations/cafes/berts-cafe/",
      "distance": 41476.97976854
    },
    {
      "id": 42614,
      "geometry": "POINT (-83.715841 42.291494)",
      "poi_name": "Mujo Cafe",
      "osm_id": 3072665433,
      "amenity": "cafe",
      "cuisine": "sandwich",
      "opening_hours": "Mo-Th 07:00-02:00; Fr 07:00-18:00; Sa off; Su 12:00-02:00",
      "distance": 39013.04188258
    },
    {
      "id": 42616,
      "geometry": "POINT (-83.735647 42.275122)",
      "poi_name": "M-36 Coffee Roasters",
      "osm_id": 3072665436,
      "amenity": "cafe",
      "cuisine": "coffee_shop",
      "opening_hours": "Mo-Fr 06:30-20:00, Fr,Sa 07:00-20:00",
      "website": "https://www.m36coffeeroasters.com/",
      "addr_city": "Ann Arbor",
      "addr_postcode": "48104",
      "addr_street": "South University Avenue",
      "addr_housenumber": "1101",
      "distance": 41444.20391899
    },
    {
      "id": 42624,
      "geometry": "POINT (-83.623168 42.245579)",
      "poi_name": "Sweetwaters Coffee & Tea",
      "osm_id": 3072762633,
      "amenity": "cafe",
      "cuisine": "coffee_shop",
      "opening_hours": "Mo-Th 07:00-21:00; Fr 07:00-20:00; Sa,Su 08:00-20:00",
      "addr_city": "Ypsilanti",
      "addr_postcode": "48197",
      "addr_street": "West Cross Street",
      "addr_housenumber": "735",
      "distance": 37781.34957574
    },
    {
      "id": 42643,
      "geometry": "POINT (-83.709348 42.303452)",
      "poi_name": "Espresso Royale",
      "osm_id": 3074088119,
      "amenity": "cafe",
      "cuisine": "coffee_shop",
      "opening_hours": "Mo-Fr 06:00-23:00;Sa 07:00-23:00;Su 08:00-23:00",
      "website": "https://www.espressoroyale.com/michigan-shops.html",
      "phone": "+1 734 222 8278",
      "addr_city": "Ann Arbor",
      "addr_postcode": "48105",
      "addr_street": "Plymouth Road",
      "addr_housenumber": "2603",
      "distance": 37733.1704092
    },
    {
      "id": 42644,
      "geometry": "POINT (-83.748753 42.280026)",
      "poi_name": "Espresso Royale",
      "osm_id": 3074088120,
      "amenity": "cafe",
      "cuisine": "coffee_shop",
      "opening_hours": "Mo-Fr 06:30-22:00;Sa 07:30-22:00;Su 07:30-21:00",
      "website": "https://www.espressoroyale.com/michigan-shops.html",
      "phone": "+1 734 668 1838",
      "addr_city": "Ann Arbor",
      "addr_postcode": "48104",
      "addr_street": "South Main Street",
      "addr_housenumber": "214",
      "distance": 41893.52037766
    },
    {
      "id": 42645,
      "geometry": "POINT (-83.752136 42.253778)",
      "poi_name": "Espresso Royale",
      "osm_id": 3074088121,
      "amenity": "cafe",
      "cuisine": "coffee_shop",
      "opening_hours": "Mo-Fr 06:00-22:00;Sa 07:00-22:00;Su 08:00-22:00",
      "website": "https://www.espressoroyale.com/michigan-shops.html",
      "phone": "+1 734 761 8326",
      "addr_city": "Ann Arbor",
      "addr_postcode": "48103",
      "addr_street": "South Main Street",
      "addr_housenumber": "2264",
      "distance": 44053.36610539
    },
    {
      "id": 42764,
      "geometry": "POINT (-83.722873 42.297829)",
      "poi_name": "Bagel Fragel",
      "osm_id": 3077164775,
      "amenity": "cafe",
      "distance": 38985.91097223
    },
    {
      "id": 43623,
      "geometry": "POINT (-83.269339 42.826853)",
      "poi_name": "Idle Away Coffee",
      "osm_id": 3123354242,
      "amenity": "cafe",
      "cuisine": "coffee_shop",
      "distance": 34348.2468826
    },
    {
      "id": 43647,
      "geometry": "POINT (-83.483452 42.394915)",
      "poi_name": "Biggby Coffee",
      "osm_id": 3125106695,
      "amenity": "cafe",
      "cuisine": "coffee_shop",
      "internet_access": "yes",
      "takeaway": "yes",
      "addr_state": "MI",
      "addr_city": "Plymouth Township",
      "addr_postcode": "48170",
      "addr_street": "5 Mile Road",
      "addr_housenumber": "44601",
      "distance": 17586.99577442
    },
    {
      "id": 43661,
      "geometry": "POINT (-83.929356 42.607229)",
      "poi_name": "Uptown Coffeehouse",
      "osm_id": 3126159850,
      "amenity": "cafe",
      "cuisine": "coffee_shop",
      "wheelchair": "yes",
      "website": "https://uptowncoffeehouse.com/",
      "internet_access": "wlan",
      "addr_city": "Howell",
      "addr_postcode": "48843",
      "addr_street": "East Grand River Avenue",
      "addr_housenumber": "102",
      "distance": 47446.57650169
    },
    {
      "id": 43746,
      "geometry": "POINT (-83.780387 42.295573)",
      "poi_name": "Juicy Kitchen",
      "osm_id": 3129635302,
      "amenity": "cafe",
      "website": "https://juicykitchen-a2.com/",
      "phone": "+1 734 585 5562",
      "addr_city": "Ann Arbor",
      "addr_street": "North Maple Road",
      "addr_housenumber": "1506",
      "distance": 42850.38625185
    },
    {
      "id": 44807,
      "geometry": "POINT (-84.020684 42.318204)",
      "poi_name": "Zou Zou's Cafe",
      "osm_id": 3178055561,
      "amenity": "cafe",
      "phone": "+1-734-433-4226",
      "addr_state": "MI",
      "addr_city": "Chelsea",
      "addr_postcode": "48118",
      "addr_street": "North Main Street",
      "addr_housenumber": "101",
      "distance": 58872.82826969
    },
    {
      "id": 45590,
      "geometry": "POINT (-83.734181 42.255241)",
      "poi_name": "Roos Roast",
      "osm_id": 3218362650,
      "amenity": "cafe",
      "cuisine": "coffee_shop",
      "internet_access": "yes",
      "addr_state": "MI",
      "addr_city": "Ann Arbor",
      "addr_postcode": "48104",
      "addr_street": "Rosewood Street",
      "addr_housenumber": "1133",
      "distance": 42873.66090496
    },
    {
      "id": 46074,
      "geometry": "POINT (-83.423719 42.468654)",
      "poi_name": "Tim Hortons",
      "osm_id": 3244771923,
      "amenity": "cafe",
      "cuisine": "coffee_shop",
      "takeaway": "yes",
      "distance": 8074.19603153
    },
    {
      "id": 46077,
      "geometry": "POINT (-83.395107 42.468678)",
      "poi_name": "Orange Leaf",
      "osm_id": 3244863952,
      "amenity": "cafe",
      "cuisine": "ice_cream",
      "distance": 6849.88317124
    },
    {
      "id": 46657,
      "geometry": "POINT (-83.705281 42.798394)",
      "poi_name": "Biggby Coffee",
      "osm_id": 3281338456,
      "amenity": "cafe",
      "cuisine": "coffee_shop",
      "takeaway": "yes",
      "distance": 41364.16743637
    },
    {
      "id": 46667,
      "geometry": "POINT (-83.06914 42.35142)",
      "poi_name": "The Bottom Line Coffee House",
      "osm_id": 3281439557,
      "amenity": "cafe",
      "cuisine": "coffee_shop",
      "internet_access": "wlan",
      "addr_state": "MI",
      "addr_city": "Detroit",
      "addr_postcode": "48201",
      "addr_street": "3rd Street",
      "addr_housenumber": "4474",
      "distance": 30900.98698949
    },
    {
      "id": 46770,
      "geometry": "POINT (-83.33432 42.378469)",
      "poi_name": "Starbucks",
      "osm_id": 3289178579,
      "amenity": "cafe",
      "cuisine": "coffee_shop",
      "opening_hours": "Su-Mo 06:00-22:00; Tu-Th 05:00-22:00; Fr-Sa 05:00-23:00",
      "phone": "+1-734-762-0746",
      "takeaway": "yes",
      "official_name": "Starbucks Coffee",
      "addr_state": "MI",
      "addr_city": "Livonia",
      "addr_postcode": "48150",
      "addr_street": "Middlebelt Road",
      "addr_housenumber": "12679",
      "distance": 16476.21464873
    },
    {
      "id": 47135,
      "geometry": "POINT (-82.997185 42.355166)",
      "poi_name": "The Red Hook Detroit",
      "osm_id": 3308360566,
      "amenity": "cafe",
      "cuisine": "coffee_shop",
      "internet_access": "wlan",
      "distance": 35489.74558699
    },
    {
      "id": 47863,
      "geometry": "POINT (-83.230133 42.405766)",
      "poi_name": "Always Brewing Detroit",
      "osm_id": 3353358716,
      "amenity": "cafe",
      "cuisine": "coffee_shop",
      "internet_access": "yes",
      "addr_state": "MI",
      "addr_city": "Detroit",
      "addr_postcode": "48219",
      "addr_street": "Grand River Avenue",
      "addr_housenumber": "19180",
      "distance": 17161.04481787
    },
    {
      "id": 47998,
      "geometry": "POINT (-83.620772 42.211739)",
      "poi_name": "Starbucks",
      "osm_id": 3359602901,
      "amenity": "cafe",
      "cuisine": "coffee_shop",
      "takeaway": "yes",
      "official_name": "Starbucks Coffee",
      "distance": 40828.70010133
    },
    {
      "id": 50787,
      "geometry": "POINT (-83.736343 42.790385)",
      "poi_name": "Tim Hortons",
      "osm_id": 3507025376,
      "amenity": "cafe",
      "cuisine": "coffee_shop",
      "opening_hours": "05:00-21:00",
      "website": "https://www.timhortons.com/store-locator/store/910897/3238-owen-rd--fenton--michigan--48430-1846",
      "phone": "+1 810 629 3921",
      "takeaway": "yes",
      "addr_state": "MI",
      "addr_city": "Fenton",
      "addr_postcode": "48430",
      "addr_street": "Owen Road",
      "addr_housenumber": "3238",
      "distance": 42516.6276854
    },
    {
      "id": 50829,
      "geometry": "POINT (-83.169698 42.634797)",
      "poi_name": "Antonio's Cafe & Grill",
      "osm_id": 3508583576,
      "amenity": "cafe",
      "cuisine": "american",
      "addr_state": "MI",
      "addr_city": "Rochester Hills",
      "addr_postcode": "48309",
      "addr_street": "West Auburn Road",
      "addr_housenumber": "1959",
      "distance": 19942.12511937
    },
    {
      "id": 51520,
      "geometry": "POINT (-83.167416 42.548297)",
      "poi_name": "Starbucks",
      "osm_id": 538376086,
      "amenity": "cafe",
      "cuisine": "coffee_shop",
      "takeaway": "yes",
      "official_name": "Starbucks Coffee",
      "addr_city": "Troy",
      "addr_postcode": "48084",
      "addr_street": "West Maple Road",
      "addr_housenumber": "1470",
      "distance": 16207.19763157
    },
    {
      "id": 51541,
      "geometry": "POINT (-83.233193 42.670166)",
      "poi_name": "Biggby Coffee",
      "osm_id": 539277465,
      "amenity": "cafe",
      "cuisine": "coffee_shop",
      "takeaway": "yes",
      "distance": 19260.97311516
    },
    {
      "id": 51600,
      "geometry": "POINT (-83.688116 42.25572)",
      "poi_name": "Starbucks",
      "osm_id": 541900696,
      "amenity": "cafe",
      "cuisine": "coffee_shop",
      "wheelchair": "yes",
      "operator": "Starbucks",
      "takeaway": "yes",
      "official_name": "Starbucks Coffee",
      "distance": 40212.01104696
    },
    {
      "id": 56075,
      "geometry": "POINT (-83.453461 42.322244)",
      "poi_name": "Starbucks",
      "osm_id": 10223878150,
      "amenity": "cafe",
      "cuisine": "coffee_shop",
      "takeaway": "yes",
      "official_name": "Starbucks Coffee",
      "outdoor_seating": "yes",
      "distance": 23776.8671559
    },
    {
      "id": 56429,
      "geometry": "POINT (-83.439856 42.223142)",
      "poi_name": "Tim Hortons",
      "osm_id": 10236320270,
      "amenity": "cafe",
      "cuisine": "coffee_shop",
      "takeaway": "yes",
      "outdoor_seating": "no",
      "addr_state": "MI",
      "addr_city": "Belleville",
      "addr_postcode": "48111",
      "addr_street": "Haggerty Road",
      "addr_housenumber": "11175",
      "distance": 34172.02322095
    },
    {
      "id": 57323,
      "geometry": "POINT (-83.010176 42.67034)",
      "poi_name": "Starbucks",
      "osm_id": 5333925349,
      "amenity": "cafe",
      "cuisine": "coffee_shop",
      "takeaway": "yes",
      "official_name": "Starbucks Coffee",
      "distance": 33080.58916509
    },
    {
      "id": 57676,
      "geometry": "POINT (-83.077079 42.369806)",
      "poi_name": "Stella Good Coffee",
      "osm_id": 5346084613,
      "amenity": "cafe",
      "cuisine": "coffee_shop",
      "opening_hours": "Mo-Fr 07:00-18:30; Sa 09:00-18:30",
      "operator": "Pure Detroit",
      "internet_access": "wlan",
      "outdoor_seating": "no",
      "distance": 29135.65919969
    },
    {
      "id": 58544,
      "geometry": "POINT (-83.038029 42.71102)",
      "poi_name": "Starbucks",
      "osm_id": 5381968613,
      "amenity": "cafe",
      "cuisine": "coffee_shop",
      "takeaway": "yes",
      "official_name": "Starbucks Coffee",
      "distance": 33659.7780181
    },
    {
      "id": 58778,
      "geometry": "POINT (-82.768753 42.895937)",
      "poi_name": "Donut Girls",
      "osm_id": 5397448776,
      "amenity": "cafe",
      "distance": 63708.05681894
    },
    {
      "id": 59495,
      "geometry": "POINT (-83.326195 42.635735)",
      "poi_name": "Tim Hortons",
      "osm_id": 5428113142,
      "amenity": "cafe",
      "cuisine": "coffee_shop",
      "takeaway": "yes",
      "distance": 12614.67092273
    },
    {
      "id": 59853,
      "geometry": "POINT (-83.741753 42.279276)",
      "poi_name": "Sweetwaters",
      "osm_id": 5446624865,
      "amenity": "cafe",
      "opening_hours": "Su-Th 08:00-20:00; Fr,Sa 08:00-22:00",
      "addr_street": "East Liberty Street",
      "addr_housenumber": "604",
      "distance": 41512.48069082
    },
    {
      "id": 59855,
      "geometry": "POINT (-83.742026 42.279503)",
      "poi_name": "Tea Ninja",
      "osm_id": 5446624871,
      "amenity": "cafe",
      "cuisine": "bubble_tea",
      "website": "https://teaninjaannarbor.com/",
      "addr_street": "East Liberty Street",
      "addr_housenumber": "535",
      "distance": 41512.73846845
    },
    {
      "id": 60262,
      "geometry": "POINT (-83.246783 42.137914)",
      "poi_name": "Tim Hortons",
      "osm_id": 5459648994,
      "amenity": "cafe",
      "cuisine": "coffee_shop",
      "takeaway": "yes",
      "distance": 44075.29744748
    },
    {
      "id": 61185,
      "geometry": "POINT (-83.199263 42.531004)",
      "poi_name": "Green Space Cafe Take Away",
      "osm_id": 5502349822,
      "amenity": "cafe",
      "addr_street": "South Woodward Avenue",
      "addr_housenumber": "32867",
      "distance": 13405.78638487
    },
    {
      "id": 62449,
      "geometry": "POINT (-83.609095 42.244869)",
      "poi_name": "Cultivate Coffee and Tap House",
      "osm_id": 5568056079,
      "amenity": "cafe",
      "cuisine": "coffee_shop",
      "opening_hours": "Mo-Th 08:00-23:00; Fr,Sa 08:00-24:00; Su 08:00-22:00",
      "website": "https://www.cultivateypsi.com/",
      "internet_access": "wlan",
      "phone": "+1-734-249-8993",
      "addr_street": "North River Street",
      "addr_housenumber": "307",
      "distance": 37200.56621643
    },
    {
      "id": 63281,
      "geometry": "POINT (-83.214441 42.546546)",
      "poi_name": "Eli Tea Faux Bubble Tea",
      "osm_id": 5608081568,
      "amenity": "cafe",
      "addr_state": "MI",
      "addr_city": "Birmingham",
      "addr_postcode": "48009",
      "addr_street": "South Old Woodward Avenue",
      "addr_housenumber": "108",
      "distance": 12368.77330921
    },
    {
      "id": 63282,
      "geometry": "POINT (-83.135325 42.461061)",
      "poi_name": "Detroit Bubble Tea Ferndale",
      "osm_id": 5608081576,
      "amenity": "cafe",
      "distance": 19974.69049884
    },
    {
      "id": 71432,
      "geometry": "POINT (-83.397673 41.916542)",
      "poi_name": "Nocturnal",
      "osm_id": 11390608069,
      "amenity": "cafe",
      "cuisine": "coffee_shop;tea",
      "opening_hours": "We-Th 15:00-21:00; Fr-Sa 15:00-22:00",
      "website": "https://nocturnalmonroe.com",
      "internet_access": "wlan",
      "phone": "+17346392051",
      "addr_postcode": "48161",
      "distance": 67687.53349425
    },
    {
      "id": 74284,
      "geometry": "POINT (-83.182584 42.32924)",
      "poi_name": "Manaeesh Cafe / Cheesecake",
      "osm_id": 9673474711,
      "amenity": "cafe",
      "cuisine": "middle_eastern",
      "website": "https://www.yelp.com/biz/manaeesh-caf%C3%A9-dearborn",
      "phone": "+1-313-584-5999",
      "addr_state": "MI",
      "addr_city": "Dearborn",
      "addr_postcode": "48126",
      "addr_street": "Ford Road",
      "addr_housenumber": "14339",
      "distance": 26327.30161196
    },
    {
      "id": 72491,
      "geometry": "POINT (-83.21095 42.260879)",
      "poi_name": "Caribou Coffee (Coming Soon)",
      "osm_id": 11429558593,
      "amenity": "cafe",
      "cuisine": "coffee_shop",
      "takeaway": "yes",
      "distance": 31909.37069599
    },
    {
      "id": 73474,
      "geometry": "POINT (-83.48064 42.537296)",
      "poi_name": "Tim Hortons",
      "osm_id": 9634766392,
      "amenity": "cafe",
      "cuisine": "coffee_shop",
      "takeaway": "yes",
      "distance": 9817.15985349
    },
    {
      "id": 74397,
      "geometry": "POINT (-83.177138 42.340901)",
      "poi_name": "Ananas Cafe - Dearborn",
      "osm_id": 9678967996,
      "amenity": "cafe",
      "website": "https://ananascafedearborn.com/41780",
      "addr_state": "MI",
      "addr_city": "Dearborn",
      "addr_street": "Schaefer Road",
      "addr_housenumber": "6831",
      "distance": 25530.05056638
    },
    {
      "id": 74461,
      "geometry": "POINT (-83.02018 42.339892)",
      "poi_name": "The Red Hook",
      "osm_id": 9681172505,
      "amenity": "cafe",
      "cuisine": "coffee_shop",
      "distance": 34880.74448847
    },
    {
      "id": 74718,
      "geometry": "POINT (-83.411721 41.93023)",
      "poi_name": "Biggby Coffee",
      "osm_id": 9693364904,
      "amenity": "cafe",
      "cuisine": "coffee_shop",
      "takeaway": "yes",
      "outdoor_seating": "no",
      "addr_state": "MI",
      "addr_city": "Monroe",
      "addr_postcode": "48162",
      "addr_street": "North Telegraph Road",
      "addr_housenumber": "559",
      "distance": 66230.11476271
    },
    {
      "id": 74721,
      "geometry": "POINT (-83.676674 41.960498)",
      "poi_name": "Tim Hortons",
      "osm_id": 9693383986,
      "amenity": "cafe",
      "cuisine": "coffee_shop",
      "takeaway": "yes",
      "outdoor_seating": "no",
      "distance": 67897.08012674
    },
    {
      "id": 76405,
      "geometry": "POINT (-83.284911 42.513124)",
      "poi_name": "Kung Fu Tea",
      "osm_id": 9775468968,
      "amenity": "cafe",
      "cuisine": "bubble_tea",
      "description": "Also contains TKK fried chicken",
      "opening_hours": "Mo-Su 11:00-21:00",
      "website": "https://kungfutea.com",
      "shop": "tea",
      "phone": "+1-248-480-0174",
      "takeaway": "yes",
      "addr_street": "Telegraph Road",
      "addr_housenumber": "30754",
      "distance": 6498.25968941
    },
    {
      "id": 75765,
      "geometry": "POINT (-83.038031 42.346914)",
      "poi_name": "Bea\u2019s Detroit -Cafe",
      "osm_id": 9742304213,
      "amenity": "cafe",
      "cuisine": "coffee_shop",
      "opening_hours": "Sa 8:00-17:00; Su 10:00-17:00",
      "website": "https://www.beasdetroit.com/",
      "addr_state": "MI",
      "addr_city": "Detroit",
      "addr_street": "Winder Street",
      "addr_housenumber": "1533",
      "distance": 33234.37341893
    },
    {
      "id": 77916,
      "geometry": "POINT (-83.40098 42.337285)",
      "poi_name": "Starbucks",
      "osm_id": 726237829,
      "amenity": "cafe",
      "cuisine": "coffee_shop",
      "takeaway": "yes",
      "official_name": "Starbucks Coffee",
      "distance": 21131.78192531
    },
    {
      "id": 77099,
      "geometry": "POINT (-83.80268 42.283132)",
      "poi_name": "Dozer Coffee",
      "osm_id": 9807443899,
      "amenity": "cafe",
      "opening_hours": "07:00-17:00",
      "website": "https://dozercoffee.com/",
      "phone": "+1 734 929 5217",
      "addr_state": "MI",
      "addr_city": "Ann Arbor",
      "addr_postcode": "48103",
      "addr_street": "Jackson Plaza",
      "addr_housenumber": "112",
      "distance": 45150.36488332
    },
    {
      "id": 87275,
      "geometry": "POINT (-83.310226 42.312149)",
      "poi_name": "Tim Hortons",
      "osm_id": 8703125207,
      "amenity": "cafe",
      "cuisine": "coffee_shop",
      "takeaway": "yes",
      "addr_state": "MI",
      "addr_city": "Dearborn Heights",
      "addr_postcode": "48127",
      "addr_street": "Cherry Hill Road",
      "addr_housenumber": "27380",
      "distance": 24066.0313518
    },
    {
      "id": 86171,
      "geometry": "POINT (-83.628233 42.253816)",
      "poi_name": "MarketPlace",
      "osm_id": 1921775189,
      "amenity": "cafe",
      "cuisine": "american",
      "website": "https://www.emich.edu/dining/services/units.php?l=marketplace",
      "distance": 37275.09678386
    },
    {
      "id": 87000,
      "geometry": "POINT (-83.483062 42.431915)",
      "poi_name": "Tuscan Cafe",
      "osm_id": 1964036673,
      "amenity": "cafe",
      "cuisine": "sandwich",
      "distance": 14366.69795324
    },
    {
      "id": 87582,
      "geometry": "POINT (-82.893095 42.527834)",
      "poi_name": "Euro Cafe",
      "osm_id": 8723468118,
      "amenity": "cafe",
      "distance": 38548.33933139
    },
    {
      "id": 88334,
      "geometry": "POINT (-83.697565 42.244732)",
      "poi_name": "Socotra Coffee House",
      "osm_id": 8779519248,
      "amenity": "cafe",
      "cuisine": "coffee_shop",
      "description": "Yemeni coffee shop",
      "opening_hours": "Mo-Su 09:00-22:00",
      "website": "http://socotracoffeehouse.com/",
      "phone": "+1-734-929-5672",
      "drive_through": "no",
      "outdoor_seating": "no",
      "addr_state": "MI",
      "addr_city": "Ann Arbor",
      "addr_postcode": "48108",
      "addr_street": "Packard Road",
      "addr_housenumber": "3130",
      "distance": 41642.57214817
    },
    {
      "id": 87700,
      "geometry": "POINT (-83.249055 42.304574)",
      "poi_name": "Bubbleology",
      "osm_id": 8735099410,
      "amenity": "cafe",
      "cuisine": "bubble_tea",
      "outdoor_seating": "yes",
      "distance": 26233.67580349
    },
    {
      "id": 89472,
      "geometry": "POINT (-83.120714 42.446063)",
      "poi_name": "Starbucks",
      "osm_id": 8847040001,
      "amenity": "cafe",
      "cuisine": "coffee_shop",
      "takeaway": "yes",
      "official_name": "Starbucks Coffee",
      "outdoor_seating": "no",
      "addr_state": "MI",
      "addr_city": "Detroit",
      "addr_postcode": "48203",
      "addr_street": "8 Mile Road West",
      "addr_housenumber": "1327",
      "distance": 21723.51676222
    },
    {
      "id": 89404,
      "geometry": "POINT (-83.039423 42.331771)",
      "poi_name": "Minnie's Rhythm Caf\u00e9",
      "osm_id": 8842132357,
      "amenity": "cafe",
      "addr_state": "MI",
      "addr_city": "Detroit",
      "addr_postcode": "48226",
      "addr_street": "East Larned Street",
      "addr_housenumber": "546",
      "distance": 34177.52185286
    },
    {
      "id": 89530,
      "geometry": "POINT (-82.997886 42.355874)",
      "poi_name": "Snack Camp",
      "osm_id": 8850917667,
      "amenity": "cafe",
      "cuisine": "international",
      "website": "https://www.facebook.com/snackcampdetroit/",
      "addr_street": "Van Dyke",
      "addr_housenumber": "1464",
      "distance": 35398.97106141
    },
    {
      "id": 89411,
      "geometry": "POINT (-83.14287 42.450456)",
      "poi_name": "Ashe Supply Co.",
      "osm_id": 8842502795,
      "amenity": "cafe",
      "cuisine": "coffee_shop",
      "distance": 19861.99204428
    },
    {
      "id": 90007,
      "geometry": "POINT (-83.262291 42.544739)",
      "poi_name": "Jersey Bagel Deli & Grill",
      "osm_id": 8875706964,
      "amenity": "cafe",
      "cuisine": "bagel;deli",
      "distance": 8489.50037634
    },
    {
      "id": 92073,
      "geometry": "POINT (-83.287756 42.705826)",
      "poi_name": "Tim Hortons",
      "osm_id": 2103671608,
      "amenity": "cafe",
      "cuisine": "coffee_shop",
      "operator": "Restaurant Brands International Inc.",
      "website": "https://www.timhortons.com/",
      "takeaway": "yes",
      "drive_through": "no",
      "distance": 20959.59373282
    },
    {
      "id": 95357,
      "geometry": "POINT (-83.730594 42.260984)",
      "poi_name": "Black Diesel Coffee",
      "osm_id": 6392687559,
      "amenity": "cafe",
      "cuisine": "coffee_shop",
      "addr_state": "MI",
      "addr_city": "Ann Arbor",
      "addr_postcode": "48104",
      "addr_street": "East Stadium Boulevard",
      "addr_housenumber": "1423",
      "distance": 42216.01504541
    },
    {
      "id": 93094,
      "geometry": "POINT (-83.019241 42.773071)",
      "poi_name": "School House Ice Cream Shoppe",
      "osm_id": 2149193496,
      "amenity": "cafe",
      "cuisine": "ice_cream",
      "distance": 39350.20780889
    },
    {
      "id": 94583,
      "geometry": "POINT (-83.609418 42.24581)",
      "poi_name": "Cream & Crumb",
      "osm_id": 6369231185,
      "amenity": "cafe",
      "addr_street": "East Cross Street",
      "addr_housenumber": "44",
      "distance": 37127.56391313
    },
    {
      "id": 95156,
      "geometry": "POINT (-83.738344 42.184261)",
      "poi_name": "Brewed Awakeings",
      "osm_id": 6388005296,
      "amenity": "cafe",
      "wheelchair": "yes",
      "takeaway": "yes",
      "distance": 48945.02819506
    },
    {
      "id": 96332,
      "geometry": "POINT (-83.132358 42.635107)",
      "poi_name": "Starbucks",
      "osm_id": 6429063786,
      "amenity": "cafe",
      "cuisine": "coffee_shop",
      "takeaway": "yes",
      "drive_through": "yes",
      "official_name": "Starbucks Coffee",
      "distance": 22468.46846855
    },
    {
      "id": 97542,
      "geometry": "POINT (-83.214239 42.195686)",
      "poi_name": "Iliria Coffee",
      "osm_id": 6483243092,
      "amenity": "cafe",
      "outdoor_seating": "no",
      "addr_state": "MI",
      "addr_city": "Southgate",
      "addr_postcode": "48195",
      "addr_street": "Dix-Toledo Highway",
      "addr_housenumber": "15455",
      "distance": 38595.17898275
    },
    {
      "id": 97544,
      "geometry": "POINT (-83.21991 42.190845)",
      "poi_name": "Biggby Coffee",
      "osm_id": 6483243154,
      "amenity": "cafe",
      "cuisine": "coffee_shop",
      "takeaway": "yes",
      "outdoor_seating": "no",
      "addr_state": "MI",
      "addr_city": "Southgate",
      "addr_postcode": "48195",
      "addr_street": "Dix-Toledo Highway",
      "addr_housenumber": "16215",
      "distance": 38962.74483553
    },
    {
      "id": 100001,
      "geometry": "POINT (-83.155779 42.681967)",
      "poi_name": "Starbucks",
      "osm_id": 6571098615,
      "amenity": "cafe",
      "cuisine": "coffee_shop",
      "takeaway": "yes",
      "official_name": "Starbucks Coffee",
      "distance": 24285.31031153
    },
    {
      "id": 99846,
      "geometry": "POINT (-83.484418 42.223707)",
      "poi_name": "Starbucks",
      "osm_id": 6566668842,
      "amenity": "cafe",
      "cuisine": "coffee_shop",
      "takeaway": "yes",
      "official_name": "Starbucks Coffee",
      "distance": 34984.44991858
    },
    {
      "id": 103237,
      "geometry": "POINT (-82.870586 42.556153)",
      "poi_name": "Tim Hortons",
      "osm_id": 8492123243,
      "amenity": "cafe",
      "cuisine": "coffee_shop",
      "takeaway": "yes",
      "distance": 40532.35137911
    },
    {
      "id": 100094,
      "geometry": "POINT (-83.249329 42.61887)",
      "poi_name": "Tim Hortons",
      "osm_id": 6573815285,
      "amenity": "cafe",
      "cuisine": "coffee_shop",
      "takeaway": "yes",
      "distance": 13924.25133307
    },
    {
      "id": 102903,
      "geometry": "POINT (-83.034528 42.671949)",
      "poi_name": "Biggby Coffee",
      "osm_id": 8464304470,
      "amenity": "cafe",
      "cuisine": "coffee_shop",
      "takeaway": "yes",
      "distance": 31441.86727267
    },
    {
      "id": 102905,
      "geometry": "POINT (-83.032452 42.641072)",
      "poi_name": "Tim Hortons",
      "osm_id": 8464304472,
      "amenity": "cafe",
      "cuisine": "coffee_shop",
      "takeaway": "yes",
      "distance": 29969.89156235
    },
    {
      "id": 103564,
      "geometry": "POINT (-83.380702 42.739082)",
      "poi_name": "Tim Hortons",
      "osm_id": 8510804741,
      "amenity": "cafe",
      "cuisine": "coffee_shop",
      "takeaway": "yes",
      "addr_state": "MI",
      "addr_city": "Clarkston",
      "addr_postcode": "48348",
      "addr_street": "Sashabaw Road",
      "addr_housenumber": "6889",
      "distance": 23791.26818826
    },
    {
      "id": 103325,
      "geometry": "POINT (-83.064803 42.477173)",
      "poi_name": "Tim Hortons",
      "osm_id": 8495369793,
      "amenity": "cafe",
      "cuisine": "coffee_shop",
      "takeaway": "yes",
      "distance": 25027.77992484
    },
    {
      "id": 103338,
      "geometry": "POINT (-83.027894 42.507032)",
      "poi_name": "Tim Hortons",
      "osm_id": 8495370549,
      "amenity": "cafe",
      "cuisine": "coffee_shop",
      "takeaway": "yes",
      "distance": 27551.49066516
    },
    {
      "id": 103357,
      "geometry": "POINT (-83.187869 42.252818)",
      "poi_name": "Tim Hortons",
      "osm_id": 8497555235,
      "amenity": "cafe",
      "cuisine": "coffee_shop",
      "takeaway": "yes",
      "distance": 33505.28620238
    },
    {
      "id": 103469,
      "geometry": "POINT (-83.149676 42.204066)",
      "poi_name": "The Coffee Lounge",
      "osm_id": 8503890187,
      "amenity": "cafe",
      "cuisine": "coffee_shop",
      "distance": 39752.18286219
    },
    {
      "id": 103987,
      "geometry": "POINT (-83.107153 42.491129)",
      "poi_name": "Biggby Coffee",
      "osm_id": 8538006623,
      "amenity": "cafe",
      "cuisine": "coffee_shop",
      "opening_hours": "Mo-Sa 06:00-20:00; Su 07:00-20:00",
      "phone": "+1 248 291 5932",
      "takeaway": "yes",
      "drive_through": "yes",
      "addr_state": "MI",
      "addr_city": "Madison Heights",
      "addr_postcode": "48071",
      "addr_street": "West 11 Mile Road",
      "addr_housenumber": "222",
      "distance": 21307.34776089
    },
    {
      "id": 103645,
      "geometry": "POINT (-83.437449 42.544304)",
      "poi_name": "Coco Rico Cafe",
      "osm_id": 8515841938,
      "amenity": "cafe",
      "opening_hours": "Mo-Sa 09:00-20:30, Su 09:00-20:00",
      "website": "https://coco-rico-cafe.business.site/",
      "phone": "+1-248-863-9938",
      "addr_state": "MI",
      "addr_city": "West Bloomfield",
      "addr_postcode": "48322",
      "addr_street": "Haggerty Road",
      "addr_housenumber": "6335",
      "distance": 6527.26161653
    },
    {
      "id": 104625,
      "geometry": "POINT (-83.398929 41.950308)",
      "poi_name": "Starbucks",
      "osm_id": 8579498540,
      "amenity": "cafe",
      "cuisine": "coffee_shop",
      "takeaway": "yes",
      "official_name": "Starbucks Coffee",
      "distance": 63945.60587029
    },
    {
      "id": 104038,
      "geometry": "POINT (-83.182369 42.459316)",
      "poi_name": "Tim Hortons",
      "osm_id": 8541859563,
      "amenity": "cafe",
      "cuisine": "coffee_shop",
      "takeaway": "yes",
      "distance": 16506.59631822
    },
    {
      "id": 104854,
      "geometry": "POINT (-83.23689 42.094687)",
      "poi_name": "Tim Hortons",
      "osm_id": 8590447958,
      "amenity": "cafe",
      "cuisine": "coffee_shop",
      "takeaway": "yes",
      "outdoor_seating": "no",
      "addr_state": "MI",
      "addr_city": "Brownstown Charter Township",
      "addr_postcode": "48183",
      "addr_street": "Gibraltar Road",
      "addr_housenumber": "20913",
      "distance": 48940.94043113
    },
    {
      "id": 104647,
      "geometry": "POINT (-83.284242 42.545354)",
      "poi_name": "Tim Hortons",
      "osm_id": 8579851914,
      "amenity": "cafe",
      "cuisine": "coffee_shop",
      "takeaway": "yes",
      "distance": 6782.7227246
    },
    {
      "id": 105350,
      "geometry": "POINT (-83.277988 42.399648)",
      "poi_name": "Tim Hortons",
      "osm_id": 8619205144,
      "amenity": "cafe",
      "cuisine": "coffee_shop",
      "takeaway": "yes",
      "distance": 15587.86299576
    },
    {
      "id": 105226,
      "geometry": "POINT (-83.270317 42.245748)",
      "poi_name": "Tim Hortons",
      "osm_id": 8613880980,
      "amenity": "cafe",
      "cuisine": "coffee_shop",
      "takeaway": "yes",
      "distance": 31967.1582541
    },
    {
      "id": 105359,
      "geometry": "POINT (-83.464245 42.359426)",
      "poi_name": "Biggby Coffee",
      "osm_id": 8620147312,
      "amenity": "cafe",
      "cuisine": "coffee_shop",
      "phone": "+1 734 259 6230",
      "takeaway": "yes",
      "addr_state": "MI",
      "addr_city": "Plymouth",
      "addr_postcode": "48170",
      "addr_street": "West Ann Arbor Road",
      "addr_housenumber": "400",
      "distance": 20251.20925747
    },
    {
      "id": 106592,
      "geometry": "POINT (-83.157643 42.344096)",
      "poi_name": "Tim Hortons",
      "osm_id": 8691224298,
      "amenity": "cafe",
      "cuisine": "coffee_shop",
      "takeaway": "yes",
      "addr_state": "MI",
      "addr_city": "Dearborn",
      "addr_postcode": "48126",
      "addr_street": "West Warren Avenue",
      "addr_housenumber": "10005",
      "distance": 26244.90617268
    },
    {
      "id": 105760,
      "geometry": "POINT (-83.207236 42.259805)",
      "poi_name": "Biggby Coffee",
      "osm_id": 8641781698,
      "amenity": "cafe",
      "cuisine": "coffee_shop",
      "takeaway": "yes",
      "outdoor_seating": "no",
      "distance": 32139.42771809
    },
    {
      "id": 107209,
      "geometry": "POINT (-84.180292 42.450483)",
      "poi_name": "Cravingz Coffee House & Sandwich Shop",
      "osm_id": 3544784531,
      "amenity": "cafe",
      "opening_hours": "Mo-Fr 06:00-19:00; Sa 08:00-17:00; Su 10:00-14:00",
      "website": "https://m.facebook.com/Cravingz-Coffee-House-Sandwich-Shop-142231359209249/",
      "phone": "+1-517-851-3810",
      "addr_street": "South Clinton Street",
      "addr_housenumber": "140",
      "distance": 67767.39071406
    },
    {
      "id": 106962,
      "geometry": "POINT (-83.888308 42.33832)",
      "poi_name": "Joe and Rosie Coffee and Tea",
      "osm_id": 3526027218,
      "amenity": "cafe",
      "cuisine": "cafe",
      "internet_access": "wlan",
      "addr_state": "MI",
      "addr_city": "Dexter",
      "addr_postcode": "48130",
      "addr_street": "Main Street",
      "addr_housenumber": "8074",
      "distance": 48015.66411675
    },
    {
      "id": 109901,
      "geometry": "POINT (-83.616988 42.515598)",
      "poi_name": "Biggby Coffee",
      "osm_id": 3678134450,
      "amenity": "cafe",
      "cuisine": "coffee_shop",
      "takeaway": "yes",
      "distance": 20960.70605353
    },
    {
      "id": 108738,
      "geometry": "POINT (-83.060164 42.350389)",
      "poi_name": "The Red Hook - Midtown",
      "osm_id": 3633669166,
      "amenity": "cafe",
      "cuisine": "coffee_shop",
      "opening_hours": "Mo-Fr 07:00-17:00; Sa 08:00-17:00; Su 09:00-14:00",
      "internet_access": "wlan",
      "addr_state": "MI",
      "addr_city": "Detroit",
      "addr_postcode": "48201",
      "addr_street": "Woodward Avenue",
      "addr_housenumber": "3965",
      "distance": 31551.30512549
    },
    {
      "id": 109372,
      "geometry": "POINT (-83.65743 42.312296)",
      "poi_name": "Moonwinks",
      "osm_id": 3658419409,
      "amenity": "cafe",
      "cuisine": "coffee_shop",
      "distance": 33916.40000934
    },
    {
      "id": 112080,
      "geometry": "POINT (-83.705717 42.302901)",
      "poi_name": "Starbucks",
      "osm_id": 3780117264,
      "amenity": "cafe",
      "cuisine": "coffee_shop",
      "internet_access": "wlan",
      "phone": "+1 734 332 6118",
      "takeaway": "yes",
      "official_name": "Starbucks Coffee",
      "addr_state": "MI",
      "addr_city": "Ann Arbor",
      "addr_street": "Plymouth Road",
      "addr_housenumber": "2793",
      "distance": 37547.73272276
    },
    {
      "id": 110055,
      "geometry": "POINT (-83.06005 42.391866)",
      "poi_name": "Cafe 1923",
      "osm_id": 3685625573,
      "amenity": "cafe",
      "cuisine": "coffee_shop",
      "website": "http://www.cafe1923.com/",
      "internet_access": "wlan",
      "addr_city": "Hamtramck",
      "addr_postcode": "48212",
      "addr_street": "Holbrook Street",
      "addr_housenumber": "2287",
      "distance": 28942.93024062
    },
    {
      "id": 114265,
      "geometry": "POINT (-83.045367 42.334395)",
      "poi_name": "the Broadway",
      "osm_id": 3875115055,
      "amenity": "cafe",
      "distance": 33613.59784638
    },
    {
      "id": 114275,
      "geometry": "POINT (-83.361386 42.543277)",
      "poi_name": "Tim Hortons",
      "osm_id": 3875600958,
      "amenity": "cafe",
      "cuisine": "coffee_shop",
      "takeaway": "yes",
      "distance": 1993.22831668
    },
    {
      "id": 114308,
      "geometry": "POINT (-83.048996 42.332987)",
      "poi_name": "Dessert Oasis Coffee Roasters",
      "osm_id": 3877100869,
      "amenity": "cafe",
      "opening_hours": "6:00-22:00",
      "internet_access": "yes",
      "addr_state": "MI",
      "addr_city": "Detroit",
      "addr_postcode": "48226",
      "addr_street": "Griswold Street",
      "addr_housenumber": "1220",
      "distance": 33482.28767464
    },
    {
      "id": 114276,
      "geometry": "POINT (-83.215212 42.547336)",
      "poi_name": "pita Cafe",
      "osm_id": 3875600962,
      "amenity": "cafe",
      "distance": 12323.59545057
    },
    {
      "id": 114277,
      "geometry": "POINT (-83.214716 42.546806)",
      "poi_name": "Starbucks Reserve",
      "osm_id": 3875600963,
      "amenity": "cafe",
      "cuisine": "coffee_shop",
      "takeaway": "yes",
      "distance": 12352.04168574
    },
    {
      "id": 115069,
      "geometry": "POINT (-83.700125 42.256967)",
      "poi_name": "Mighty\u00a0Good Coffee",
      "osm_id": 3908803754,
      "amenity": "cafe",
      "distance": 40776.95894231
    },
    {
      "id": 118490,
      "geometry": "POINT (-83.240128 42.784799)",
      "poi_name": "Shadrach, Meshach & ABeanToGo Lake Orion",
      "osm_id": 9048725408,
      "amenity": "cafe",
      "cuisine": "coffee;sandwich;baked_goods",
      "website": "https://www.abeantogo.com/",
      "phone": "+1-248-690-9382",
      "addr_state": "MI",
      "addr_city": "Lake Orion",
      "addr_postcode": "48362",
      "addr_street": "West Flint Street",
      "addr_housenumber": "16",
      "distance": 30511.54688631
    },
    {
      "id": 115118,
      "geometry": "POINT (-83.239099 42.501616)",
      "poi_name": "Tim Hortons",
      "osm_id": 3911748965,
      "amenity": "cafe",
      "cuisine": "coffee_shop",
      "operator": "Restaurant Brands International Inc.",
      "takeaway": "yes",
      "distance": 10457.9923422
    },
    {
      "id": 115655,
      "geometry": "POINT (-83.474783 42.481052)",
      "poi_name": "Sweetwaters Coffee & Tea",
      "osm_id": 8908514785,
      "amenity": "cafe",
      "opening_hours": "Mo-Fr 06:00-19:00; Sa-Su 07:00-19:00",
      "addr_street": "Grand River Avenue",
      "addr_housenumber": "43346",
      "distance": 10477.11011244
    },
    {
      "id": 122701,
      "geometry": "POINT (-83.168872 42.323824)",
      "poi_name": "Starbucks",
      "osm_id": 6815019645,
      "amenity": "cafe",
      "cuisine": "coffee_shop",
      "takeaway": "yes",
      "official_name": "Starbucks Coffee",
      "distance": 27465.61351292
    },
    {
      "id": 118688,
      "geometry": "POINT (-83.74219 42.278037)",
      "poi_name": "Jasmine",
      "osm_id": 9061192936,
      "amenity": "cafe",
      "cuisine": "bubble_tea",
      "takeaway": "yes",
      "outdoor_seating": "yes",
      "distance": 41630.46505551
    },
    {
      "id": 120020,
      "geometry": "POINT (-83.083657 42.380408)",
      "poi_name": "Caf\u00e9 Sonshine (by CDC)",
      "osm_id": 9135474539,
      "amenity": "cafe",
      "distance": 28006.96866649
    },
    {
      "id": 122836,
      "geometry": "POINT (-83.148047 42.487028)",
      "poi_name": "The Office Coffee Shop",
      "osm_id": 6821050606,
      "amenity": "cafe",
      "cuisine": "coffee_shop;sandwich",
      "description": "Airy coffee bar offering free Wi-Fi & cafe fare, plus a co-working space with conference rooms.",
      "opening_hours": "Mo-Fr 07:00-18:00; Sa 08:00-18:00; Su 09:00-18:00",
      "website": "https://www.theofficecoffeeshop.com/",
      "internet_access": "wlan",
      "outdoor_seating": "no",
      "addr_state": "MI",
      "addr_city": "Royal Oak",
      "addr_postcode": "48067",
      "addr_street": "South Lafayette Avenue",
      "addr_housenumber": "402",
      "distance": 18112.4192091
    },
    {
      "id": 122998,
      "geometry": "POINT (-83.060097 42.402485)",
      "poi_name": "Living Zen Organics",
      "osm_id": 6831775716,
      "amenity": "cafe",
      "opening_hours": "Mo-Sa 10:00-17:00",
      "website": "https://www.detroitzencenter.org/living-zen-organics",
      "phone": "+1-734-366-7736",
      "addr_street": "Casmere Street",
      "addr_housenumber": "3030",
      "distance": 28351.54002505
    },
    {
      "id": 125957,
      "geometry": "POINT (-83.360881 42.20454)",
      "poi_name": "Starbucks",
      "osm_id": 6981751507,
      "amenity": "cafe",
      "cuisine": "coffee_shop",
      "takeaway": "yes",
      "official_name": "Starbucks Coffee",
      "distance": 35635.32840837
    },
    {
      "id": 124044,
      "geometry": "POINT (-83.036227 42.348809)",
      "poi_name": "Anthology Coffee",
      "osm_id": 6897368485,
      "amenity": "cafe",
      "cuisine": "coffee_shop",
      "opening_hours": "Mo-Su 09:00-16:00",
      "addr_state": "MI",
      "addr_city": "Detroit",
      "addr_postcode": "48207",
      "addr_street": "Division Street",
      "addr_housenumber": "1948",
      "distance": 33228.65291852
    },
    {
      "id": 125962,
      "geometry": "POINT (-83.357944 42.208552)",
      "poi_name": "Illy Coffee & Fountain Bare",
      "osm_id": 6981772292,
      "amenity": "cafe",
      "outdoor_seating": "no",
      "distance": 35191.24893731
    },
    {
      "id": 125971,
      "geometry": "POINT (-83.362524 42.208515)",
      "poi_name": "Starbucks",
      "osm_id": 6981780829,
      "amenity": "cafe",
      "cuisine": "coffee_shop",
      "takeaway": "yes",
      "official_name": "Starbucks Coffee",
      "distance": 35193.62612768
    },
    {
      "id": 125976,
      "geometry": "POINT (-83.355286 42.21191)",
      "poi_name": "Starbucks",
      "osm_id": 6981790322,
      "amenity": "cafe",
      "cuisine": "coffee_shop",
      "takeaway": "yes",
      "official_name": "Starbucks Coffee",
      "outdoor_seating": "no",
      "distance": 34821.19713605
    },
    {
      "id": 126574,
      "geometry": "POINT (-83.209036 42.257932)",
      "poi_name": "City Coffeehouse",
      "osm_id": 7012890551,
      "amenity": "cafe",
      "opening_hours": "Mo-Su 09:00-22:00",
      "website": "https://city-coffeehouse.business.site/",
      "phone": "+1-313-908-4027",
      "outdoor_seating": "yes",
      "addr_state": "MI",
      "addr_city": "Allen Park",
      "addr_postcode": "48101",
      "addr_street": "Allen Road",
      "addr_housenumber": "6623",
      "distance": 32272.38829069
    },
    {
      "id": 126536,
      "geometry": "POINT (-83.292136 42.094978)",
      "poi_name": "Blue Heron Trading Company",
      "osm_id": 7009866716,
      "amenity": "cafe",
      "opening_hours": "Mo-Fr 10:00-18:00; Sa 10:00-17:00; Su 12:00-16:00",
      "phone": "+1-734-789-7986",
      "addr_street": "East Huron River Drive",
      "addr_housenumber": "26217",
      "distance": 48153.06662151
    },
    {
      "id": 126537,
      "geometry": "POINT (-83.224492 42.198414)",
      "poi_name": "Fresh Bean Coffee Co.",
      "osm_id": 7009876132,
      "amenity": "cafe",
      "opening_hours": "Mo-Th 06:30-20:00; Fr, Sa 06:30-22:00; Su 07:00-19:00",
      "phone": "+1-734-225-7333",
      "outdoor_seating": "no",
      "addr_state": "MI",
      "addr_city": "Southgate",
      "addr_postcode": "48195",
      "addr_street": "Eureka Road",
      "addr_housenumber": "18855",
      "distance": 38047.38106189
    },
    {
      "id": 126578,
      "geometry": "POINT (-83.390596 42.282909)",
      "poi_name": "Karma Coffee & Kitchen",
      "osm_id": 7012915567,
      "amenity": "cafe",
      "opening_hours": "Tu-Fr 10:00-18:00",
      "phone": "+1-734-589-0304",
      "addr_street": "Michigan Avenue",
      "addr_housenumber": "35634",
      "distance": 27030.96289274
    },
    {
      "id": 126840,
      "geometry": "POINT (-83.064023 42.373427)",
      "poi_name": "The Gathering Coffee Co.",
      "osm_id": 8004360676,
      "amenity": "cafe",
      "cuisine": "coffee_shop",
      "opening_hours": "Mo-Th 07:00-16:00, Fr-Su 08:00-17:00",
      "website": "https://www.gatheringcoffee.com/",
      "internet_access": "wlan",
      "outdoor_seating": "yes",
      "addr_state": "MI",
      "addr_city": "Detroit",
      "addr_postcode": "48211",
      "addr_street": "East Grand Boulevard",
      "addr_housenumber": "2831",
      "distance": 29776.912338
    },
    {
      "id": 127464,
      "geometry": "POINT (-83.143783 42.533187)",
      "poi_name": "Biggby Coffee",
      "osm_id": 8066691537,
      "amenity": "cafe",
      "cuisine": "coffee_shop",
      "takeaway": "yes",
      "distance": 17970.22027758
    },
    {
      "id": 128002,
      "geometry": "POINT (-83.047396 42.507547)",
      "poi_name": "Starbucks",
      "osm_id": 8116931069,
      "amenity": "cafe",
      "cuisine": "coffee_shop",
      "takeaway": "yes",
      "official_name": "Starbucks Coffee",
      "distance": 25949.00017116
    },
    {
      "id": 128290,
      "geometry": "POINT (-83.193361 42.683481)",
      "poi_name": "Starbucks",
      "osm_id": 8146784490,
      "amenity": "cafe",
      "cuisine": "coffee_shop",
      "takeaway": "yes",
      "official_name": "Starbucks Coffee",
      "distance": 22375.35203948
    },
    {
      "id": 129242,
      "geometry": "POINT (-83.363269 41.926898)",
      "poi_name": "Tim Hortons",
      "osm_id": 8225177287,
      "amenity": "cafe",
      "cuisine": "coffee_shop",
      "takeaway": "yes",
      "outdoor_seating": "no",
      "distance": 66474.16762118
    },
    {
      "id": 128378,
      "geometry": "POINT (-83.193418 42.679849)",
      "poi_name": "Tim Hortons",
      "osm_id": 8152800487,
      "amenity": "cafe",
      "cuisine": "coffee_shop",
      "takeaway": "yes",
      "distance": 22057.28811238
    },
    {
      "id": 132498,
      "geometry": "POINT (-83.8393 42.285972)",
      "poi_name": "Starbucks",
      "osm_id": 9957555059,
      "amenity": "cafe",
      "cuisine": "coffee_shop",
      "takeaway": "yes",
      "official_name": "Starbucks Coffee",
      "distance": 47427.00633131
    },
    {
      "id": 129341,
      "geometry": "POINT (-83.215518 42.278299)",
      "poi_name": "Starbucks",
      "osm_id": 8236542171,
      "amenity": "cafe",
      "cuisine": "coffee_shop",
      "takeaway": "yes",
      "official_name": "Starbucks Coffee",
      "distance": 29983.14948275
    },
    {
      "id": 129344,
      "geometry": "POINT (-83.214056 42.277267)",
      "poi_name": "Biggby Coffee",
      "osm_id": 8236542184,
      "amenity": "cafe",
      "cuisine": "coffee_shop",
      "website": "https://www.facebook.com/biggbystore630/",
      "takeaway": "yes",
      "addr_state": "MI",
      "addr_city": "Allen Park",
      "addr_postcode": "48101",
      "addr_street": "West Outer Drive",
      "addr_housenumber": "23190",
      "distance": 30136.70198706
    },
    {
      "id": 130008,
      "geometry": "POINT (-83.145537 42.476451)",
      "poi_name": "Royal Oak Roast",
      "osm_id": 9850353826,
      "amenity": "cafe",
      "cuisine": "coffee_shop",
      "opening_hours": "Mo-Su 07:00-19:00",
      "website": "https://www.drinkroast.com",
      "internet_access": "wlan",
      "phone": "+1 248-535-9770",
      "outdoor_seating": "yes",
      "addr_state": "MI",
      "addr_city": "Royal Oak",
      "addr_postcode": "48067",
      "addr_street": "Woodward Avenue",
      "addr_housenumber": "25070",
      "distance": 18622.58747329
    },
    {
      "id": 130431,
      "geometry": "POINT (-83.484536 42.321463)",
      "poi_name": "Tim Hortons",
      "osm_id": 9871355591,
      "amenity": "cafe",
      "cuisine": "coffee_shop",
      "takeaway": "yes",
      "distance": 24783.14614905
    },
    {
      "id": 130438,
      "geometry": "POINT (-83.16953 42.596756)",
      "poi_name": "Qamaria Yemeni Coffee Co.",
      "osm_id": 9872497206,
      "amenity": "cafe",
      "cuisine": "coffee_shop",
      "addr_state": "MI",
      "addr_city": "Troy",
      "addr_postcode": "48098",
      "addr_street": "Crooks Road",
      "addr_housenumber": "5385",
      "distance": 17702.48390092
    },
    {
      "id": 130439,
      "geometry": "POINT (-83.16954 42.599116)",
      "poi_name": "Starbucks",
      "osm_id": 9872497207,
      "amenity": "cafe",
      "cuisine": "coffee_shop",
      "takeaway": "yes",
      "official_name": "Starbucks Coffee",
      "addr_state": "MI",
      "addr_city": "Troy",
      "addr_postcode": "48098",
      "addr_street": "Crooks Road",
      "addr_housenumber": "5531",
      "distance": 17820.55147423
    },
    {
      "id": 130444,
      "geometry": "POINT (-83.169519 42.596667)",
      "poi_name": "Bagel Factory Cafe",
      "osm_id": 9872562495,
      "amenity": "cafe",
      "addr_state": "MI",
      "addr_city": "Troy",
      "addr_postcode": "48098",
      "addr_street": "Crooks Road",
      "addr_housenumber": "5389",
      "distance": 17698.85875928
    },
    {
      "id": 131206,
      "geometry": "POINT (-83.244633 42.306247)",
      "poi_name": "Qahwah House",
      "osm_id": 9905898368,
      "amenity": "cafe",
      "website": "https://www.qahwahhouse.com/",
      "distance": 26192.31725178
    },
    {
      "id": 131420,
      "geometry": "POINT (-83.749177 42.279501)",
      "poi_name": "Hyperion Coffee",
      "osm_id": 9915460327,
      "amenity": "cafe",
      "cuisine": "coffee_shop",
      "opening_hours": "Mo-Su 07:00-18:00",
      "internet_access": "wlan",
      "addr_state": "MI",
      "addr_city": "Ann Arbor",
      "addr_postcode": "48103",
      "addr_street": "West Liberty Street",
      "addr_housenumber": "111",
      "distance": 41958.03222571
    },
    {
      "id": 134137,
      "geometry": "POINT (-83.284025 42.11211)",
      "poi_name": "Biggby Coffee",
      "osm_id": 10032231099,
      "amenity": "cafe",
      "cuisine": "coffee_shop",
      "takeaway": "yes",
      "outdoor_seating": "no",
      "addr_state": "MI",
      "addr_city": "Flat Rock",
      "addr_postcode": "48134",
      "addr_street": "Telegraph Road",
      "addr_housenumber": "26614",
      "distance": 46352.67509063
    },
    {
      "id": 132677,
      "geometry": "POINT (-83.485335 42.322373)",
      "poi_name": "Bambu Boba Tea Canton",
      "osm_id": 9963733750,
      "amenity": "cafe",
      "distance": 24717.60760096
    },
    {
      "id": 133467,
      "geometry": "POINT (-83.266095 42.442807)",
      "poi_name": "Tim Hortons",
      "osm_id": 9995453521,
      "amenity": "cafe",
      "cuisine": "coffee_shop",
      "website": "https://www.timhortons.com",
      "phone": "+1-313-592-9000",
      "takeaway": "yes",
      "outdoor_seating": "no",
      "addr_state": "MI",
      "addr_city": "Detroit",
      "addr_postcode": "48219",
      "addr_street": "8 Mile Road",
      "addr_housenumber": "22565",
      "distance": 12106.16149402
    },
    {
      "id": 135316,
      "geometry": "POINT (-83.255784 42.200313)",
      "poi_name": "Hot Shot Coffee",
      "osm_id": 11511598158,
      "amenity": "cafe",
      "cuisine": "coffee_shop",
      "phone": "+1-313-600-6170",
      "addr_state": "MI",
      "addr_city": "Taylor",
      "addr_postcode": "48180",
      "addr_street": "Eureka Road",
      "addr_housenumber": "23000",
      "distance": 37154.62085942
    },
    {
      "id": 135527,
      "geometry": "POINT (-83.191158 42.34398)",
      "poi_name": "Azal Cofee",
      "osm_id": 11519765169,
      "amenity": "cafe",
      "cuisine": "arab;coffee_shop",
      "website": "http://azalcoffeeusa.com",
      "addr_postcode": "48126",
      "addr_street": "West Warren Avenue",
      "addr_housenumber": "15010",
      "distance": 24577.68977584
    },
    {
      "id": 141057,
      "geometry": "POINT (-83.144068 42.489393)",
      "poi_name": "Dessert Oasis Coffee Roasters",
      "osm_id": 6270559854,
      "amenity": "cafe",
      "distance": 18371.22464634
    },
    {
      "id": 135693,
      "geometry": "POINT (-83.757316 42.635189)",
      "poi_name": "Starbucks",
      "osm_id": 11530146318,
      "amenity": "cafe",
      "cuisine": "coffee_shop",
      "takeaway": "yes",
      "official_name": "Starbucks Coffee",
      "distance": 34652.15565441
    },
    {
      "id": 135694,
      "geometry": "POINT (-83.755422 42.634808)",
      "poi_name": "Thread Creek Coffee",
      "osm_id": 11530146319,
      "amenity": "cafe",
      "cuisine": "coffee_shop",
      "distance": 34491.85960875
    },
    {
      "id": 135697,
      "geometry": "POINT (-83.744395 42.634603)",
      "poi_name": "Starbucks",
      "osm_id": 11530146330,
      "amenity": "cafe",
      "cuisine": "coffee_shop",
      "takeaway": "yes",
      "official_name": "Starbucks Coffee",
      "distance": 33638.04498923
    },
    {
      "id": 137584,
      "geometry": "POINT (-83.300091 42.607418)",
      "poi_name": "Starbucks",
      "osm_id": 6106172576,
      "amenity": "cafe",
      "cuisine": "coffee_shop",
      "takeaway": "yes",
      "official_name": "Starbucks Coffee",
      "distance": 10448.3628853
    },
    {
      "id": 140658,
      "geometry": "POINT (-83.14397 42.487154)",
      "poi_name": "Atomic Coffee",
      "osm_id": 6255159323,
      "amenity": "cafe",
      "opening_hours": "Mo-Su 07:00-22:00",
      "website": "https://www.atomiccoffee.net/",
      "addr_state": "MI",
      "addr_city": "Royal Oak",
      "addr_street": "South Main Street",
      "addr_housenumber": "401",
      "distance": 18435.04148618
    },
    {
      "id": 142301,
      "geometry": "POINT (-83.476761 42.49388)",
      "poi_name": "Starbucks",
      "osm_id": 6311200613,
      "amenity": "cafe",
      "cuisine": "coffee_shop",
      "takeaway": "yes",
      "official_name": "Starbucks Coffee",
      "distance": 10039.63888735
    },
    {
      "id": 141140,
      "geometry": "POINT (-83.144486 42.489549)",
      "poi_name": "Bean & Leaf Cafe",
      "osm_id": 6273773638,
      "amenity": "cafe",
      "addr_state": "MI",
      "addr_city": "Royal Oak",
      "addr_postcode": "48067",
      "addr_street": "South Main Street",
      "addr_housenumber": "106",
      "distance": 18333.89988866
    },
    {
      "id": 141397,
      "geometry": "POINT (-83.138457 42.460636)",
      "poi_name": "Delite Cafe & Deli",
      "osm_id": 6283624345,
      "amenity": "cafe",
      "distance": 19751.63801737
    },
    {
      "id": 143821,
      "geometry": "POINT (-83.513425 42.236799)",
      "poi_name": "Bistro Cafe",
      "osm_id": 6352166066,
      "amenity": "cafe",
      "cuisine": "burger;sandwich;breakfast;italian;dessert;snack",
      "opening_hours": "24/7",
      "takeaway": "yes",
      "outdoor_seating": "yes",
      "addr_state": "MI",
      "addr_city": "Belleville",
      "addr_postcode": "48111",
      "addr_street": "E Street",
      "addr_housenumber": "2068",
      "distance": 34385.03280426
    },
    {
      "id": 143741,
      "geometry": "POINT (-83.190422 42.184076)",
      "poi_name": "Starbucks",
      "osm_id": 6348547749,
      "amenity": "cafe",
      "cuisine": "coffee_shop",
      "takeaway": "yes",
      "official_name": "Starbucks Coffee",
      "outdoor_seating": "no",
      "distance": 40465.23287372
    },
    {
      "id": 144126,
      "geometry": "POINT (-83.742617 42.279515)",
      "poi_name": "Lab Cafe",
      "osm_id": 6364697989,
      "amenity": "cafe",
      "opening_hours": "Mo-Su 10:00-18:30",
      "distance": 41548.48994431
    },
    {
      "id": 145663,
      "geometry": "POINT (-83.262014 42.545852)",
      "poi_name": "Starbucks",
      "osm_id": 7380637788,
      "amenity": "cafe",
      "cuisine": "coffee_shop",
      "takeaway": "yes",
      "official_name": "Starbucks Coffee",
      "distance": 8543.5572368
    },
    {
      "id": 144178,
      "geometry": "POINT (-82.981165 42.629028)",
      "poi_name": "Lula's Cafe",
      "osm_id": 6367736960,
      "amenity": "cafe",
      "cuisine": "coffee_shop",
      "opening_hours": "Mo-Su 10:00-23:00",
      "internet_access": "wlan",
      "phone": "+1-586-251-2107",
      "outdoor_seating": "yes",
      "addr_state": "MI",
      "addr_city": "Shelby Charter Township",
      "addr_postcode": "48315",
      "addr_street": "Market Street",
      "addr_housenumber": "45271",
      "distance": 33338.61336358
    },
    {
      "id": 146103,
      "geometry": "POINT (-83.447579 42.603587)",
      "poi_name": "Biggby Coffee",
      "osm_id": 7412363613,
      "amenity": "cafe",
      "cuisine": "coffee_shop",
      "takeaway": "yes",
      "drive_through": "yes",
      "outdoor_seating": "yes",
      "distance": 11164.24548807
    },
    {
      "id": 146297,
      "geometry": "POINT (-83.358953 42.541807)",
      "poi_name": "Zingerman's Coffee",
      "osm_id": 7431474341,
      "amenity": "cafe",
      "cuisine": "coffee_shop",
      "distance": 1848.57492778
    },
    {
      "id": 146143,
      "geometry": "POINT (-83.440897 42.576389)",
      "poi_name": "Presotea",
      "osm_id": 7415234578,
      "amenity": "cafe",
      "cuisine": "bubble_tea",
      "distance": 8595.3177025
    },
    {
      "id": 146438,
      "geometry": "POINT (-83.486477 42.591365)",
      "poi_name": "Blazing Bagels",
      "osm_id": 7443279190,
      "amenity": "cafe",
      "cuisine": "bagel;coffee_shop",
      "opening_hours": "Mo-Fr 06:00-14:00; Sa-Su 08:00-13:00",
      "phone": "+1-248-366-7100",
      "addr_state": "MI",
      "addr_city": "Commerce Township",
      "addr_postcode": "48382",
      "addr_street": "West Commerce Road",
      "addr_housenumber": "510",
      "distance": 12564.56823978
    },
    {
      "id": 146629,
      "geometry": "POINT (-83.6044 42.593384)",
      "poi_name": "Starbucks",
      "osm_id": 7465371577,
      "amenity": "cafe",
      "cuisine": "coffee_shop",
      "takeaway": "yes",
      "official_name": "Starbucks Coffee",
      "distance": 21273.81292892
    },
    {
      "id": 146645,
      "geometry": "POINT (-83.600511 42.590631)",
      "poi_name": "Proving Grounds Coffee",
      "osm_id": 7467750504,
      "amenity": "cafe",
      "distance": 20867.74240653
    },
    {
      "id": 147122,
      "geometry": "POINT (-83.445702 42.614813)",
      "poi_name": "Tim Hortons",
      "osm_id": 7507473929,
      "amenity": "cafe",
      "cuisine": "coffee_shop",
      "takeaway": "yes",
      "distance": 12071.7966444
    },
    {
      "id": 146735,
      "geometry": "POINT (-83.419966 42.353136)",
      "poi_name": "Coffee & Cream",
      "osm_id": 7472289928,
      "amenity": "cafe",
      "cuisine": "ice_cream;coffee_shop",
      "internet_access": "wlan",
      "outdoor_seating": "yes",
      "distance": 19710.02861697
    },
    {
      "id": 146969,
      "geometry": "POINT (-83.492155 42.596701)",
      "poi_name": "Qamaria Yemeni Coffee Co.",
      "osm_id": 7490240217,
      "amenity": "cafe",
      "cuisine": "coffee_shop",
      "takeaway": "yes",
      "distance": 13290.45952668
    },
    {
      "id": 147507,
      "geometry": "POINT (-83.503114 42.647938)",
      "poi_name": "Starbucks",
      "osm_id": 7538746977,
      "amenity": "cafe",
      "cuisine": "coffee_shop",
      "takeaway": "yes",
      "official_name": "Starbucks Coffee",
      "distance": 17865.16934191
    },
    {
      "id": 151970,
      "geometry": "POINT (-83.039798 42.328991)",
      "poi_name": "Starbucks",
      "osm_id": 4121449547,
      "amenity": "cafe",
      "cuisine": "coffee_shop",
      "phone": "+1-313-568-8400",
      "takeaway": "yes",
      "official_name": "Starbucks Coffee",
      "addr_state": "MI",
      "addr_city": "Detroit",
      "addr_street": "Renaissance Drive West",
      "addr_housenumber": "400",
      "distance": 34349.27884483
    },
    {
      "id": 148670,
      "geometry": "POINT (-83.75378 42.537075)",
      "poi_name": "Coffee Beanery",
      "osm_id": 3972395416,
      "amenity": "cafe",
      "distance": 32194.005995
    },
    {
      "id": 149850,
      "geometry": "POINT (-83.748305 42.232426)",
      "poi_name": "Zingerman's Coffee Company",
      "osm_id": 4029305342,
      "amenity": "cafe",
      "cuisine": "coffee_shop",
      "website": "https://www.zingermanscoffee.com/",
      "phone": "+1-734-929-6060",
      "addr_state": "MI",
      "addr_city": "Ann Arbor",
      "addr_postcode": "48108",
      "addr_street": "Plaza Drive",
      "addr_housenumber": "3723",
      "distance": 45492.82583386
    },
    {
      "id": 151078,
      "geometry": "POINT (-83.693506 42.255522)",
      "poi_name": "Biggby Coffee",
      "osm_id": 4080788256,
      "amenity": "cafe",
      "cuisine": "coffee_shop",
      "takeaway": "yes",
      "addr_street": "Washtenaw Avenue",
      "addr_housenumber": "3354",
      "distance": 40525.87793607
    },
    {
      "id": 152297,
      "geometry": "POINT (-83.361083 42.499728)",
      "poi_name": "Scrambler's",
      "osm_id": 4137258551,
      "amenity": "cafe",
      "opening_hours": "06:30-15:00",
      "website": "https://www.scramblermaries.com",
      "addr_postcode": "48334",
      "addr_street": "Orchard Lake Road",
      "addr_housenumber": "27909",
      "distance": 2847.20115704
    },
    {
      "id": 151923,
      "geometry": "POINT (-83.070907 42.358458)",
      "poi_name": "Starbucks",
      "osm_id": 4119748263,
      "amenity": "cafe",
      "cuisine": "coffee_shop",
      "takeaway": "yes",
      "official_name": "Starbucks Coffee",
      "distance": 30302.10690247
    },
    {
      "id": 151989,
      "geometry": "POINT (-83.040523 42.346168)",
      "poi_name": "Germack",
      "osm_id": 4121692994,
      "amenity": "cafe",
      "cuisine": "coffee_shop",
      "website": "https://www.germack.com/",
      "addr_state": "MI",
      "addr_city": "Detroit",
      "addr_street": "Russell Street",
      "addr_housenumber": "2509",
      "distance": 33119.79847662
    },
    {
      "id": 155024,
      "geometry": "POINT (-83.362074 42.202992)",
      "poi_name": "Coffee Beanery",
      "osm_id": 4266027594,
      "amenity": "cafe",
      "cuisine": "coffee_shop",
      "distance": 35807.07906426
    },
    {
      "id": 153147,
      "geometry": "POINT (-83.436296 42.528095)",
      "poi_name": "Kubba House",
      "osm_id": 4179886081,
      "amenity": "cafe",
      "description": "Carry Out & Catering",
      "addr_street": "Haggerty Road",
      "addr_housenumber": "7414",
      "distance": 6091.93461072
    },
    {
      "id": 156856,
      "geometry": "POINT (-83.75533 42.275827)",
      "poi_name": "Jefferson Market and Cakery",
      "osm_id": 4675478273,
      "amenity": "cafe",
      "description": "The cakery is known for making wedding cakes.",
      "opening_hours": "We-Su 08:00-14:00",
      "website": "http://jeffersonmarketandcakery.com",
      "outdoor_seating": "yes",
      "addr_street": "West Jefferson Street",
      "addr_housenumber": "609",
      "distance": 42608.99594179
    },
    {
      "id": 156964,
      "geometry": "POINT (-83.044159 42.352317)",
      "poi_name": "Milano Bakery & Cafe",
      "osm_id": 4679409789,
      "amenity": "cafe",
      "addr_state": "MI",
      "addr_city": "Detroit",
      "addr_postcode": "48207",
      "addr_street": "Russell Street",
      "addr_housenumber": "3500",
      "distance": 32471.28951462
    },
    {
      "id": 157317,
      "geometry": "POINT (-83.046004 42.331255)",
      "poi_name": "Roasting Plant",
      "osm_id": 4701462960,
      "amenity": "cafe",
      "cuisine": "coffee_shop",
      "opening_hours": "Mo-Th 07:00-18:00; Fr 07:00-19:00; Sa, Su 08:00-19:00",
      "internet_access": "yes",
      "addr_state": "MI",
      "addr_city": "Detroit",
      "addr_postcode": "48226",
      "addr_street": "Woodward Avenue",
      "addr_housenumber": "660",
      "distance": 33794.91401883
    },
    {
      "id": 159327,
      "geometry": "POINT (-83.749662 42.280417)",
      "poi_name": "Sweetwaters",
      "osm_id": 4787322480,
      "amenity": "cafe",
      "website": "http://sweetwaterscafe.com",
      "addr_street": "West Washington Street",
      "addr_housenumber": "123",
      "distance": 41922.09926566
    },
    {
      "id": 159413,
      "geometry": "POINT (-83.73405 42.274904)",
      "poi_name": "Starbucks",
      "osm_id": 4792172901,
      "amenity": "cafe",
      "cuisine": "coffee_shop",
      "takeaway": "yes",
      "official_name": "Starbucks Coffee",
      "addr_city": "Ann Arbor",
      "addr_street": "South University Avenue",
      "distance": 41363.17403192
    },
    {
      "id": 159669,
      "geometry": "POINT (-83.733483 42.274914)",
      "poi_name": "Bubble Island",
      "osm_id": 4802256331,
      "amenity": "cafe",
      "opening_hours": "Mo-Th 11:00-02:00; Fr-Sa 11:00-03:00; Su 12:00-02:00",
      "website": "http://www.bubbleisland.com",
      "phone": "+1-734-222-9013",
      "addr_city": "Ann Arbor",
      "addr_street": "South University Avenue",
      "addr_housenumber": "1220",
      "distance": 41327.8262246
    },
    {
      "id": 160499,
      "geometry": "POINT (-83.747545 42.279426)",
      "poi_name": "Avalon Cafe + Kitchen",
      "osm_id": 4837097556,
      "amenity": "cafe",
      "opening_hours": "Mo-Th 07:00-20:00; Fr 07:00-21:00; Sa 08:00-21:00; Su 08:00-20:00",
      "website": "https://avalonbreads.net/",
      "internet_access": "wlan",
      "phone": "+1-734-263-2996",
      "addr_street": "East Liberty Street",
      "addr_housenumber": "120",
      "distance": 41861.64683706
    },
    {
      "id": 160110,
      "geometry": "POINT (-83.414977 42.3959)",
      "poi_name": "Tim Hortons",
      "osm_id": 4820212566,
      "amenity": "cafe",
      "cuisine": "coffee_shop",
      "takeaway": "yes",
      "distance": 15018.87865673
    },
    {
      "id": 161950,
      "geometry": "POINT (-83.731824 42.275176)",
      "poi_name": "Vertex Coffee Roasters",
      "osm_id": 4908016618,
      "amenity": "cafe",
      "cuisine": "coffee_shop",
      "opening_hours": "Mo-Fr 07:30-18:00; Su 08:00-17:00",
      "addr_city": "Ann Arbor",
      "distance": 41207.19657046
    },
    {
      "id": 160705,
      "geometry": "POINT (-83.743737 42.280492)",
      "poi_name": "Stray Hen Cafe",
      "osm_id": 4842861417,
      "amenity": "cafe",
      "website": "https://www.strayhencafe.com/",
      "addr_street": "East Washington Street",
      "addr_housenumber": "403",
      "distance": 41546.69791914
    },
    {
      "id": 160805,
      "geometry": "POINT (-83.747729 42.279682)",
      "poi_name": "RoosRoast Coffee",
      "osm_id": 4848486388,
      "amenity": "cafe",
      "addr_street": "East Liberty Street",
      "addr_housenumber": "117",
      "distance": 41854.50184446
    },
    {
      "id": 162565,
      "geometry": "POINT (-83.123365 42.472813)",
      "poi_name": "Hilton Rd Cafe",
      "osm_id": 4934853123,
      "amenity": "cafe",
      "addr_street": "Hilton Road",
      "addr_housenumber": "3150",
      "distance": 20484.80546497
    },
    {
      "id": 162173,
      "geometry": "POINT (-83.749314 42.280637)",
      "poi_name": "Cafe Zola",
      "osm_id": 4919630431,
      "amenity": "cafe",
      "website": "http://www.cafezola.com/",
      "outdoor_seating": "yes",
      "addr_street": "West Washington Street",
      "addr_housenumber": "112",
      "distance": 41884.39437776
    },
    {
      "id": 162271,
      "geometry": "POINT (-83.73024 42.272703)",
      "poi_name": "Hillel Cafe",
      "osm_id": 4923016825,
      "amenity": "cafe",
      "distance": 41297.6561053
    },
    {
      "id": 162974,
      "geometry": "POINT (-83.265482 42.147771)",
      "poi_name": "Biggby Coffee",
      "osm_id": 9392998812,
      "amenity": "cafe",
      "cuisine": "coffee_shop",
      "takeaway": "yes",
      "drive_through": "yes",
      "outdoor_seating": "no",
      "addr_state": "MI",
      "addr_city": "Brownstown Township",
      "addr_postcode": "48183",
      "addr_street": "Telegraph Road",
      "addr_housenumber": "21469",
      "distance": 42692.25851315
    },
    {
      "id": 162846,
      "geometry": "POINT (-83.048712 42.39641)",
      "poi_name": "Boostan Cafe",
      "osm_id": 4944146521,
      "amenity": "cafe",
      "addr_street": "Holbrook Street",
      "addr_housenumber": "3470",
      "distance": 29498.50555078
    },
    {
      "id": 162847,
      "geometry": "POINT (-83.059349 42.398627)",
      "poi_name": "Oloman Cafe",
      "osm_id": 4944146522,
      "amenity": "cafe",
      "distance": 28614.5175404
    },
    {
      "id": 163194,
      "geometry": "POINT (-83.308157 42.499897)",
      "poi_name": "Starbucks",
      "osm_id": 9406054837,
      "amenity": "cafe",
      "cuisine": "coffee_shop",
      "shop": "coffee",
      "takeaway": "yes",
      "official_name": "Starbucks Coffee",
      "addr_street": "Franklin Road",
      "addr_housenumber": "28875",
      "distance": 5267.86389655
    },
    {
      "id": 163637,
      "geometry": "POINT (-83.06876 42.551331)",
      "poi_name": "Tim Hortons",
      "osm_id": 9427175367,
      "amenity": "cafe",
      "cuisine": "coffee_shop",
      "opening_hours": "24/7",
      "operator": "Restaurant Brands International Inc.",
      "website": "https://www.timhortons.com/store-locator/store/restaurant_71023",
      "phone": "+1 586 756 6300",
      "takeaway": "yes",
      "addr_state": "MI",
      "addr_city": "Sterling Heights",
      "addr_postcode": "48310",
      "addr_street": "Ryan Road",
      "addr_housenumber": "25100",
      "distance": 24281.70805732
    },
    {
      "id": 165639,
      "geometry": "POINT (-83.76967 42.24365)",
      "poi_name": "Starbucks",
      "osm_id": 9547980222,
      "amenity": "cafe",
      "cuisine": "coffee_shop",
      "takeaway": "yes",
      "official_name": "Starbucks Coffee",
      "addr_state": "MI",
      "addr_city": "Ann Arbor",
      "addr_postcode": "48103",
      "addr_street": "West Waters Road",
      "addr_housenumber": "2000",
      "distance": 45878.16024795
    },
    {
      "id": 165466,
      "geometry": "POINT (-83.048279 42.329302)",
      "poi_name": "Coffee Down Under",
      "osm_id": 9537266081,
      "amenity": "cafe",
      "cuisine": "coffee_shop",
      "opening_hours": "Su-Tu 08:00-16:00; We-Th 08:00-12:00; Fr-Sa 08:00-13:00",
      "website": "https://www.coffeedownunder.com/",
      "phone": "+1 313-444-6626",
      "addr_state": "MI",
      "addr_city": "Detroit",
      "addr_postcode": "48226",
      "addr_street": "Shelby Street",
      "addr_housenumber": "607",
      "distance": 33790.68143968
    },
    {
      "id": 165470,
      "geometry": "POINT (-83.048892 42.328746)",
      "poi_name": "Starbucks",
      "osm_id": 9537408438,
      "amenity": "cafe",
      "cuisine": "coffee_shop",
      "opening_hours": "Mo-Su 07:00-17:00",
      "website": "https://www.starbucks.com/store-locator/store/1030267/marquette-building-detroit-243-w-congress-st-detroit-mi-48226-us",
      "phone": "+1 313 512 5900",
      "takeaway": "yes",
      "official_name": "Starbucks Coffee",
      "addr_state": "MI",
      "addr_city": "Detroit",
      "addr_postcode": "48226",
      "addr_street": "West Congress Street",
      "addr_housenumber": "243",
      "distance": 33792.05724916
    },
    {
      "id": 169701,
      "geometry": "POINT (-83.37426 42.463802)",
      "poi_name": "Starbucks",
      "osm_id": 2315415808,
      "amenity": "cafe",
      "cuisine": "coffee_shop",
      "opening_hours": "Mo-Th 05:30-22:30; Fr 05:30-23:30; Sa 06:00-23:30; Su 06:00-22:30",
      "phone": "+1-248-476-5411",
      "takeaway": "yes",
      "official_name": "Starbucks Coffee",
      "addr_state": "MI",
      "addr_city": "Farmington",
      "addr_postcode": "48336-3121",
      "addr_street": "Grand River Avenue",
      "addr_housenumber": "33199",
      "distance": 6907.3245697
    },
    {
      "id": 169001,
      "geometry": "POINT (-83.531775 42.651457)",
      "poi_name": "Starbucks",
      "osm_id": 2290760404,
      "amenity": "cafe",
      "cuisine": "coffee_shop",
      "phone": "+1-248-889-6800",
      "takeaway": "yes",
      "official_name": "Starbucks Coffee",
      "addr_state": "MI",
      "addr_city": "White Lake",
      "addr_street": "Highland Road",
      "addr_housenumber": "6001",
      "distance": 19745.76109269
    },
    {
      "id": 169002,
      "geometry": "POINT (-83.600829 42.592637)",
      "poi_name": "Starbucks",
      "osm_id": 2290765617,
      "amenity": "cafe",
      "cuisine": "coffee_shop",
      "takeaway": "yes",
      "official_name": "Starbucks Coffee",
      "addr_city": "Milford",
      "addr_street": "North Main Street",
      "addr_housenumber": "525",
      "distance": 20970.37802027
    },
    {
      "id": 171192,
      "geometry": "POINT (-83.244733 42.305877)",
      "poi_name": "Cigaro",
      "osm_id": 2365262180,
      "amenity": "cafe",
      "distance": 26227.46406405
    },
    {
      "id": 171579,
      "geometry": "POINT (-83.188386 42.308657)",
      "poi_name": "Tim Hortons",
      "osm_id": 2379647010,
      "amenity": "cafe",
      "cuisine": "coffee_shop",
      "opening_hours": "Mo-Su 06:00-21:00",
      "phone": "+1-313-240-9394",
      "takeaway": "yes",
      "addr_state": "MI",
      "addr_city": "Dearborn",
      "addr_postcode": "48120",
      "addr_street": "Greenfield Road",
      "addr_housenumber": "3550",
      "distance": 28002.53375728
    },
    {
      "id": 171303,
      "geometry": "POINT (-83.287895 42.326426)",
      "poi_name": "Biggby Coffee",
      "osm_id": 2370921723,
      "amenity": "cafe",
      "cuisine": "coffee_shop",
      "takeaway": "yes",
      "distance": 22927.75606147
    },
    {
      "id": 172675,
      "geometry": "POINT (-83.12859 42.567856)",
      "poi_name": "Tim Hortons",
      "osm_id": 2410304479,
      "amenity": "cafe",
      "cuisine": "coffee_shop",
      "takeaway": "yes",
      "addr_street": "Rochester Road",
      "addr_housenumber": "3331",
      "distance": 19764.41325893
    },
    {
      "id": 171945,
      "geometry": "POINT (-83.075707 42.331556)",
      "poi_name": "Astro Coffee",
      "osm_id": 2390716704,
      "amenity": "cafe",
      "cuisine": "coffee_shop",
      "internet_access": "no",
      "distance": 31928.07550046
    },
    {
      "id": 179755,
      "geometry": "POINT (-83.417877 42.324315)",
      "poi_name": "Tim Hortons",
      "osm_id": 10777024485,
      "amenity": "cafe",
      "cuisine": "coffee_shop",
      "takeaway": "yes",
      "outdoor_seating": "no",
      "addr_state": "MI",
      "addr_city": "Westland",
      "addr_postcode": "48185",
      "addr_street": "Ford Road",
      "addr_housenumber": "38350",
      "distance": 22795.25075774
    },
    {
      "id": 172709,
      "geometry": "POINT (-83.184387 42.548548)",
      "poi_name": "TCBY",
      "osm_id": 2411279339,
      "amenity": "cafe",
      "cuisine": "ice_cream",
      "addr_street": "W Maple Rd",
      "addr_housenumber": "2848",
      "distance": 14836.78517885
    },
    {
      "id": 181141,
      "geometry": "POINT (-83.51091 42.391488)",
      "poi_name": "Starbucks",
      "osm_id": 10833977652,
      "amenity": "cafe",
      "cuisine": "coffee_shop",
      "takeaway": "yes",
      "official_name": "Starbucks Coffee",
      "distance": 19251.46816519
    },
    {
      "id": 181319,
      "geometry": "POINT (-83.048208 42.334745)",
      "poi_name": "Madcap",
      "osm_id": 10840541238,
      "amenity": "cafe",
      "opening_hours": "Mo-We, Su 08:00-16:00; Th-Sa 07:00-19:00",
      "website": "https://www.madcap.com",
      "addr_housenumber": "1413",
      "distance": 33407.89375513
    },
    {
      "id": 183704,
      "geometry": "POINT (-83.741442 42.275166)",
      "poi_name": "Sweetwaters",
      "osm_id": 10942330076,
      "amenity": "cafe",
      "cuisine": "coffee_shop",
      "distance": 41796.10729609
    },
    {
      "id": 183534,
      "geometry": "POINT (-83.244825 42.305782)",
      "poi_name": "Kung Fu Tea",
      "osm_id": 10935072947,
      "amenity": "cafe",
      "cuisine": "bubble_tea",
      "distance": 26234.54281905
    },
    {
      "id": 181521,
      "geometry": "POINT (-82.974056 42.630104)",
      "poi_name": "Tim Hortons",
      "osm_id": 10853879245,
      "amenity": "cafe",
      "cuisine": "coffee_shop",
      "opening_hours": "Mo-Su 05:00-22:00",
      "website": "https://locations.timhortons.com/mi/shelby-township/45395-hayes-rd",
      "phone": "+1-586-247-2003",
      "takeaway": "yes",
      "drive_through": "yes",
      "addr_state": "MI",
      "addr_city": "Shelby Charter Township",
      "addr_postcode": "48315",
      "addr_street": "Hayes Road",
      "addr_housenumber": "45395",
      "distance": 33927.44497677
    },
    {
      "id": 187255,
      "geometry": "POINT (-83.617273 42.245578)",
      "poi_name": "Cross Street Coffee",
      "osm_id": 1045542986,
      "amenity": "cafe",
      "cuisine": "coffee_shop",
      "internet_access": "wlan",
      "phone": "+1-734-484-4684",
      "addr_postcode": "48197",
      "addr_street": "West Cross Avenue",
      "addr_housenumber": "317",
      "distance": 37507.52367973
    },
    {
      "id": 183823,
      "geometry": "POINT (-83.234568 42.284096)",
      "poi_name": "Dellah Coffee & Brunch House",
      "osm_id": 10947609923,
      "amenity": "cafe",
      "cuisine": "coffee_shop",
      "distance": 28785.84322435
    },
    {
      "id": 184736,
      "geometry": "POINT (-82.975843 42.670363)",
      "poi_name": "iCoffee House",
      "osm_id": 7810348711,
      "amenity": "cafe",
      "cuisine": "coffee_shop",
      "distance": 35569.375279
    },
    {
      "id": 184182,
      "geometry": "POINT (-83.331843 42.368832)",
      "poi_name": "Kung Fu Tea",
      "osm_id": 7776603432,
      "amenity": "cafe",
      "cuisine": "bubble_tea",
      "takeaway": "yes",
      "outdoor_seating": "no",
      "distance": 17564.824732
    },
    {
      "id": 184705,
      "geometry": "POINT (-83.013157 42.801881)",
      "poi_name": "Romeo Cafe",
      "osm_id": 7807527776,
      "amenity": "cafe",
      "distance": 41985.26588857
    },
    {
      "id": 190024,
      "geometry": "POINT (-83.041809 42.335116)",
      "poi_name": "Europa Cafe",
      "osm_id": 1262468197,
      "amenity": "cafe",
      "cuisine": "international",
      "distance": 33790.99817325
    },
    {
      "id": 190307,
      "geometry": "POINT (-83.609518 42.245785)",
      "poi_name": "Cafe Ollie",
      "osm_id": 1283146763,
      "amenity": "cafe",
      "distance": 37134.42235388
    },
    {
      "id": 190308,
      "geometry": "POINT (-83.615339 42.240872)",
      "poi_name": "B-24",
      "osm_id": 1283176727,
      "amenity": "cafe",
      "cuisine": "coffee_shop",
      "wheelchair": "yes",
      "distance": 37854.17610002
    },
    {
      "id": 190309,
      "geometry": "POINT (-83.614352 42.241749)",
      "poi_name": "Beezy's",
      "osm_id": 1283176759,
      "amenity": "cafe",
      "cuisine": "coffee_shop",
      "opening_hours": "Mo-Sa 07:00-16:00; Su 09:00-16:00",
      "website": "http://beezyscafe.com",
      "phone": "+1-734-485-9625",
      "addr_city": "Ypsilanti",
      "addr_street": "North Washington Street",
      "addr_housenumber": "20",
      "distance": 37728.04537061
    },
    {
      "id": 197929,
      "geometry": "POINT (-83.211476 42.545547)",
      "poi_name": "Birmingham Roast",
      "osm_id": 10681837257,
      "amenity": "cafe",
      "cuisine": "coffee_shop",
      "addr_state": "MI",
      "addr_city": "Birmingham",
      "addr_postcode": "48009",
      "addr_street": "East Brown Street",
      "addr_housenumber": "525",
      "distance": 12587.76639594
    },
    {
      "id": 195292,
      "geometry": "POINT (-83.084859 42.447688)",
      "poi_name": "Tim Hortons",
      "osm_id": 10299385830,
      "amenity": "cafe",
      "cuisine": "coffee_shop",
      "takeaway": "yes",
      "distance": 24382.78649281
    },
    {
      "id": 195641,
      "geometry": "POINT (-83.348199 42.243994)",
      "poi_name": "Starbucks",
      "osm_id": 10313875391,
      "amenity": "cafe",
      "cuisine": "coffee_shop",
      "takeaway": "yes",
      "official_name": "Starbucks Coffee",
      "outdoor_seating": "yes",
      "distance": 31274.03900181
    },
    {
      "id": 195649,
      "geometry": "POINT (-83.386984 42.333527)",
      "poi_name": "Aroma Creperie & Cafe",
      "osm_id": 10313877398,
      "amenity": "cafe",
      "outdoor_seating": "no",
      "distance": 21404.50698605
    },
    {
      "id": 196299,
      "geometry": "POINT (-83.43113 42.434176)",
      "poi_name": "Starbucks",
      "osm_id": 10572972454,
      "amenity": "cafe",
      "cuisine": "coffee_shop",
      "opening_hours": "Mo-Su 08:00-20:00",
      "phone": "+1-734-953-6620",
      "takeaway": "yes",
      "official_name": "Starbucks Coffee",
      "addr_state": "MI",
      "addr_city": "Livonia",
      "addr_postcode": "48152",
      "addr_street": "Haggerty Road",
      "addr_housenumber": "20100",
      "distance": 11603.61991834
    },
    {
      "id": 193147,
      "geometry": "POINT (-83.24692 42.305153)",
      "poi_name": "Starbucks",
      "osm_id": 1502463184,
      "amenity": "cafe",
      "cuisine": "coffee_shop",
      "takeaway": "yes",
      "official_name": "Starbucks Coffee",
      "distance": 26236.64065476
    },
    {
      "id": 193160,
      "geometry": "POINT (-83.251773 42.303899)",
      "poi_name": "Biggby Coffee",
      "osm_id": 1503605078,
      "amenity": "cafe",
      "cuisine": "coffee_shop",
      "takeaway": "yes",
      "outdoor_seating": "no",
      "distance": 26225.44531143
    },
    {
      "id": 194939,
      "geometry": "POINT (-83.0459 42.329736)",
      "poi_name": "Peet's Coffee",
      "osm_id": 10290156558,
      "amenity": "cafe",
      "cuisine": "coffee_shop",
      "takeaway": "yes",
      "distance": 33909.66929785
    },
    {
      "id": 201377,
      "geometry": "POINT (-83.47044 42.370105)",
      "poi_name": "Boule Artisan Bakery",
      "osm_id": 626796375,
      "amenity": "cafe",
      "distance": 19406.0253206
    },
    {
      "id": 200869,
      "geometry": "POINT (-83.109912 42.564535)",
      "poi_name": "Starbucks",
      "osm_id": 599357858,
      "amenity": "cafe",
      "cuisine": "coffee_shop",
      "phone": "+1-248-689-8184",
      "takeaway": "yes",
      "official_name": "Starbucks Coffee",
      "addr_state": "MI",
      "addr_city": "Troy",
      "addr_postcode": "48083",
      "addr_street": "East Big Beaver Road",
      "addr_housenumber": "1921",
      "distance": 21178.98401593
    },
    {
      "id": 199382,
      "geometry": "POINT (-83.651279 42.460484)",
      "poi_name": "The Corner Social",
      "osm_id": 958364717,
      "amenity": "cafe",
      "website": "https://www.thecornersocial.com/",
      "phone": "+1-248-437-0686",
      "addr_state": "MI",
      "addr_city": "South Lyon",
      "addr_postcode": "48178",
      "addr_street": "South Lafayette Street",
      "addr_housenumber": "101",
      "distance": 24829.22736819
    },
    {
      "id": 202755,
      "geometry": "POINT (-83.258342 42.197295)",
      "poi_name": "Z's Bubble Tear",
      "osm_id": 7046886523,
      "amenity": "cafe",
      "cuisine": "bubble_tea",
      "outdoor_seating": "no",
      "addr_state": "MI",
      "addr_city": "Taylor",
      "addr_postcode": "48180",
      "addr_street": "Eureka Road",
      "addr_housenumber": "23255",
      "distance": 37431.75104065
    },
    {
      "id": 202947,
      "geometry": "POINT (-83.630863 42.928604)",
      "poi_name": "Starbucks",
      "osm_id": 7055602662,
      "amenity": "cafe",
      "cuisine": "coffee_shop",
      "takeaway": "yes",
      "drive_through": "yes",
      "official_name": "Starbucks Coffee",
      "distance": 49907.5280112
    },
    {
      "id": 202824,
      "geometry": "POINT (-83.777618 42.273744)",
      "poi_name": "19 Drips",
      "osm_id": 7048529185,
      "amenity": "cafe",
      "opening_hours": "Mo-Th, Su 07:00-19:00; Fr, Sa 07:00-23:00",
      "website": "https://www.19drips.com/",
      "phone": "+1-734-585-0461",
      "addr_street": "West Liberty Street",
      "addr_housenumber": "2263",
      "distance": 44165.31083972
    },
    {
      "id": 202902,
      "geometry": "POINT (-83.516401 43.022863)",
      "poi_name": "Biggby Coffee",
      "osm_id": 7054784652,
      "amenity": "cafe",
      "cuisine": "coffee_shop",
      "takeaway": "yes",
      "distance": 56690.0556486
    },
    {
      "id": 202955,
      "geometry": "POINT (-83.62444 42.924015)",
      "poi_name": "Bubble Bee Tea",
      "osm_id": 7055626558,
      "amenity": "cafe",
      "distance": 49219.09290009
    },
    {
      "id": 202904,
      "geometry": "POINT (-83.634674 42.991212)",
      "poi_name": "Biggby Coffee",
      "osm_id": 7054836046,
      "amenity": "cafe",
      "cuisine": "coffee_shop",
      "takeaway": "yes",
      "distance": 56352.57018637
    },
    {
      "id": 203074,
      "geometry": "POINT (-83.260482 42.198429)",
      "poi_name": "Starbucks",
      "osm_id": 7061306569,
      "amenity": "cafe",
      "cuisine": "coffee_shop",
      "takeaway": "yes",
      "official_name": "Starbucks Coffee",
      "distance": 37269.07742407
    },
    {
      "id": 202921,
      "geometry": "POINT (-83.635559 43.018322)",
      "poi_name": "Starbucks",
      "osm_id": 7055480218,
      "amenity": "cafe",
      "cuisine": "coffee_shop",
      "takeaway": "yes",
      "official_name": "Starbucks Coffee",
      "distance": 59155.94112999
    },
    {
      "id": 202933,
      "geometry": "POINT (-83.663825 42.944976)",
      "poi_name": "Biggby Coffee",
      "osm_id": 7055531109,
      "amenity": "cafe",
      "cuisine": "coffee_shop",
      "takeaway": "yes",
      "distance": 52753.54081793
    },
    {
      "id": 203005,
      "geometry": "POINT (-83.771517 42.984767)",
      "poi_name": "Biggby Coffee",
      "osm_id": 7057405529,
      "amenity": "cafe",
      "cuisine": "coffee_shop",
      "wheelchair": "yes",
      "takeaway": "yes",
      "distance": 61051.09615592
    },
    {
      "id": 203009,
      "geometry": "POINT (-83.770619 42.977053)",
      "poi_name": "Coffe Beanery",
      "osm_id": 7057405571,
      "amenity": "cafe",
      "distance": 60296.89479553
    },
    {
      "id": 203018,
      "geometry": "POINT (-83.740423 42.988438)",
      "poi_name": "Starbucks",
      "osm_id": 7057458836,
      "amenity": "cafe",
      "cuisine": "coffee_shop",
      "takeaway": "yes",
      "official_name": "Starbucks Coffee",
      "distance": 60040.70375291
    },
    {
      "id": 203022,
      "geometry": "POINT (-83.745136 42.987289)",
      "poi_name": "Tim Hortons",
      "osm_id": 7057469821,
      "amenity": "cafe",
      "cuisine": "coffee_shop",
      "takeaway": "yes",
      "addr_state": "MI",
      "addr_city": "Flint",
      "addr_postcode": "48507",
      "addr_street": "Miller Road",
      "addr_housenumber": "3356",
      "distance": 60131.68549536
    },
    {
      "id": 203037,
      "geometry": "POINT (-82.857795 42.629413)",
      "poi_name": "Starbucks",
      "osm_id": 7058141348,
      "amenity": "cafe",
      "cuisine": "coffee_shop",
      "takeaway": "yes",
      "official_name": "Starbucks Coffee",
      "distance": 42997.33751857
    },
    {
      "id": 207685,
      "geometry": "POINT (-83.135823 42.460469)",
      "poi_name": "Java Hutt",
      "osm_id": 4957523230,
      "amenity": "cafe",
      "addr_state": "MI",
      "addr_city": "Ferndale",
      "addr_postcode": "48220",
      "addr_street": "West 9 Mile Road",
      "addr_housenumber": "165",
      "distance": 19960.25364985
    },
    {
      "id": 205704,
      "geometry": "POINT (-83.690478 42.943623)",
      "poi_name": "Starbucks",
      "osm_id": 7178306304,
      "amenity": "cafe",
      "cuisine": "coffee_shop",
      "takeaway": "yes",
      "official_name": "Starbucks Coffee",
      "distance": 53679.87092228
    },
    {
      "id": 205705,
      "geometry": "POINT (-83.69255 42.943738)",
      "poi_name": "Tim Hortons",
      "osm_id": 7178306306,
      "amenity": "cafe",
      "cuisine": "coffee_shop",
      "takeaway": "yes",
      "distance": 53776.07081292
    },
    {
      "id": 205735,
      "geometry": "POINT (-83.808397 43.059615)",
      "poi_name": "Biggby Coffee",
      "osm_id": 7178447711,
      "amenity": "cafe",
      "cuisine": "coffee_shop",
      "opening_hours": "Mo-Fr 06:00-19:00; Sa,Su 07:00-19:00",
      "takeaway": "yes",
      "addr_city": "Flushing",
      "addr_postcode": "48433",
      "distance": 69677.30888701
    },
    {
      "id": 207331,
      "geometry": "POINT (-83.146803 42.486715)",
      "poi_name": "Cafe Muse",
      "osm_id": 4944827225,
      "amenity": "cafe",
      "opening_hours": "Mo,We-Fr 08:30-13:30; Sa,Su 08:30-14:00",
      "addr_street": "South Washington Avenue",
      "addr_housenumber": "418",
      "distance": 18219.98046598
    },
    {
      "id": 207487,
      "geometry": "POINT (-83.334624 42.608851)",
      "poi_name": "Ellen's Bakery and Cafe",
      "osm_id": 4949208111,
      "amenity": "cafe",
      "description": "Fresh baked bread and serving breakfast, lunch, and dinner",
      "website": "https://ellensbakeryandcafe.com/",
      "phone": "+1-248-681-5700",
      "addr_street": "Orchard Lake Road",
      "addr_housenumber": "2495",
      "distance": 9549.49529792
    },
    {
      "id": 207602,
      "geometry": "POINT (-83.748718 42.280913)",
      "poi_name": "Crazy Wisdom Tearoom",
      "osm_id": 4953893900,
      "amenity": "cafe",
      "website": "http://www.crazywisdom.net/tea-room.html",
      "outdoor_seating": "no",
      "distance": 41827.13913283
    },
    {
      "id": 203493,
      "geometry": "POINT (-83.073683 42.33166)",
      "poi_name": "Lucky Detroit",
      "osm_id": 7089744848,
      "amenity": "cafe",
      "opening_hours": "Mo-Fr 07:30-18:00; Sa 08:00-18:00; Su 10:00-16:00",
      "website": "https://www.luckydetroit.com/",
      "addr_state": "MI",
      "addr_city": "Detroit",
      "addr_postcode": "48216",
      "addr_street": "Michigan Avenue",
      "addr_housenumber": "2000",
      "distance": 32043.52214188
    },
    {
      "id": 203495,
      "geometry": "POINT (-83.039497 42.348099)",
      "poi_name": "Cairo Coffee",
      "osm_id": 7089752210,
      "amenity": "cafe",
      "cuisine": "coffee_shop",
      "description": "Located inside Savvy Chic",
      "opening_hours": "Tu 09:00-16:00; We-Sa 09:00-17:00",
      "website": "https://cairocoffeeblog.wordpress.com/",
      "phone": "+1-313-833-8769",
      "addr_state": "MI",
      "addr_city": "Detroit",
      "addr_street": "Riopelle Street",
      "addr_housenumber": "2712",
      "distance": 33058.83537159
    },
    {
      "id": 203497,
      "geometry": "POINT (-83.145599 42.417301)",
      "poi_name": "Detroit Sip",
      "osm_id": 7089785877,
      "amenity": "cafe",
      "cuisine": "coffee_shop",
      "opening_hours": "Th, Fr 06:30-17:00; Sa 08:00-16:00; Su 10:00-16:00",
      "website": "https://www.detroitsip.com/",
      "phone": "+1-313-635-5130",
      "addr_street": "West McNichols Road",
      "addr_housenumber": "7410",
      "distance": 21481.65501152
    },
    {
      "id": 204231,
      "geometry": "POINT (-83.110741 42.534552)",
      "poi_name": "Starbucks",
      "osm_id": 7118713945,
      "amenity": "cafe",
      "cuisine": "coffee_shop",
      "takeaway": "yes",
      "drive_through": "yes",
      "official_name": "Starbucks Coffee",
      "distance": 20688.85446596
    },
    {
      "id": 207708,
      "geometry": "POINT (-83.741655 42.277969)",
      "poi_name": "Ding Tea",
      "osm_id": 4958401113,
      "amenity": "cafe",
      "cuisine": "bubble_tea",
      "takeaway": "yes",
      "outdoor_seating": "yes",
      "addr_street": "East William Street",
      "addr_housenumber": "607",
      "distance": 41602.37624617
    },
    {
      "id": 207877,
      "geometry": "POINT (-83.738706 42.289814)",
      "poi_name": "Lowertown Bar & Cafe",
      "osm_id": 4964930186,
      "amenity": "cafe",
      "opening_hours": "Tu-Fr 07:00-14:00; Sa,Su 08:00-14:00",
      "website": "https://lowertowna2.com/",
      "internet_access": "wlan",
      "outdoor_seating": "yes",
      "addr_street": "Broadway Street",
      "addr_housenumber": "1031",
      "distance": 40557.25209139
    },
    {
      "id": 207825,
      "geometry": "POINT (-83.143015 42.453211)",
      "poi_name": "Catfe Lounge",
      "osm_id": 4962249597,
      "amenity": "cafe",
      "website": "https://ferndalecatshelter.org/catfe-lounge/",
      "addr_state": "MI",
      "addr_city": "Ferndale",
      "addr_postcode": "48220",
      "addr_street": "Livernois Street",
      "addr_housenumber": "821",
      "distance": 19724.54386326
    },
    {
      "id": 207821,
      "geometry": "POINT (-83.143695 42.460757)",
      "poi_name": "Biggby Coffee",
      "osm_id": 4962249569,
      "amenity": "cafe",
      "cuisine": "coffee_shop",
      "takeaway": "yes",
      "addr_state": "MI",
      "addr_city": "Ferndale",
      "addr_postcode": "48220",
      "addr_street": "West 9 Mile Road",
      "addr_housenumber": "750",
      "distance": 19346.21124807
    },
    {
      "id": 213703,
      "geometry": "POINT (-83.196148 42.503272)",
      "poi_name": "Biggby Coffee",
      "osm_id": 5257996261,
      "amenity": "cafe",
      "cuisine": "coffee_shop",
      "phone": "+1-248-268-1905",
      "takeaway": "yes",
      "addr_state": "MI",
      "addr_city": "Berkley",
      "addr_street": "12 Mile Road",
      "addr_housenumber": "3600",
      "distance": 13868.47230039
    },
    {
      "id": 208721,
      "geometry": "POINT (-83.747456 42.280291)",
      "poi_name": "Literati Coffee",
      "osm_id": 5002273841,
      "amenity": "cafe",
      "opening_hours": "Mo-Th 08:00-21:00; Fr 08:00-22:00; Sa 09:00-22:00; Su 10:00-19:00",
      "website": "http://www.literaticoffee.com/",
      "internet_access": "wlan",
      "addr_street": "South Fourth Avenue",
      "addr_housenumber": "204",
      "distance": 41793.21318833
    },
    {
      "id": 208954,
      "geometry": "POINT (-83.281626 42.580988)",
      "poi_name": "Starbucks",
      "osm_id": 5015700390,
      "amenity": "cafe",
      "cuisine": "coffee_shop",
      "takeaway": "yes",
      "official_name": "Starbucks Coffee",
      "distance": 9057.90572917
    },
    {
      "id": 213631,
      "geometry": "POINT (-82.916158 42.405789)",
      "poi_name": "Starbucks",
      "osm_id": 5256432107,
      "amenity": "cafe",
      "cuisine": "coffee_shop",
      "takeaway": "yes",
      "official_name": "Starbucks Coffee",
      "addr_state": "MI",
      "addr_city": "Detroit",
      "addr_postcode": "48224",
      "addr_street": "Mack Avenue",
      "addr_housenumber": "18051",
      "distance": 39017.75109016
    },
    {
      "id": 213785,
      "geometry": "POINT (-83.694649 42.304952)",
      "poi_name": "Sweetwaters",
      "osm_id": 5260245716,
      "amenity": "cafe",
      "distance": 36714.01604376
    },
    {
      "id": 208584,
      "geometry": "POINT (-83.74698 42.282856)",
      "poi_name": "Cafe Verde",
      "osm_id": 4997286406,
      "amenity": "cafe",
      "wheelchair": "yes",
      "website": "https://peoplesfood.coop/store-cafe/",
      "addr_street": "North Fourth Avenue",
      "addr_housenumber": "216",
      "distance": 41577.87635537
    },
    {
      "id": 208585,
      "geometry": "POINT (-83.747045 42.282568)",
      "poi_name": "TeaHaus Cafe",
      "osm_id": 4997286409,
      "amenity": "cafe",
      "wheelchair": "yes",
      "opening_hours": "Tu-Sa 10:00-18:00; Su 11:00-19:00",
      "website": "https://teahaus.com/",
      "internet_access": "wlan",
      "takeaway": "yes",
      "outdoor_seating": "yes",
      "addr_street": "North Fourth Avenue",
      "addr_housenumber": "204",
      "distance": 41602.73445256
    },
    {
      "id": 209021,
      "geometry": "POINT (-83.112836 42.46091)",
      "poi_name": "Detroit Fleet Food Truck Park",
      "osm_id": 5018858521,
      "amenity": "cafe",
      "addr_street": "East 9 Mile Road",
      "addr_housenumber": "1820",
      "distance": 21716.89049353
    },
    {
      "id": 210608,
      "geometry": "POINT (-83.037786 42.34439)",
      "poi_name": "People s record",
      "osm_id": 5111341521,
      "amenity": "cafe",
      "opening_hours": "Tu-Fr 09:00-17:00; Sa 09:00-16:00; Su 10:00-15:00",
      "website": "https://www.trinosophes.com/",
      "addr_street": "Gratiot Avenue",
      "addr_housenumber": "1464",
      "distance": 33418.79385364
    },
    {
      "id": 216707,
      "geometry": "POINT (-83.145012 42.487129)",
      "poi_name": "Goldfish Tea",
      "osm_id": 9180586641,
      "amenity": "cafe",
      "distance": 18352.41465175
    },
    {
      "id": 214542,
      "geometry": "POINT (-82.976726 42.628169)",
      "poi_name": "Starbucks",
      "osm_id": 5274693321,
      "amenity": "cafe",
      "cuisine": "coffee_shop",
      "opening_hours": "Mo-Fr 05:00-21:00; Sa-Su 06:00-21:00",
      "website": "https://www.starbucks.com/store-locator/store/1006375/hall-rd-hayes-15069-hall-rd-ste-a-shelby-township-mi-483156206-u",
      "internet_access": "wlan",
      "phone": "+1-586-566-1081",
      "takeaway": "yes",
      "drive_through": "yes",
      "official_name": "Starbucks Coffee",
      "outdoor_seating": "yes",
      "addr_state": "MI",
      "addr_city": "Shelby Charter Township",
      "addr_postcode": "48315",
      "addr_street": "Hall Road",
      "addr_housenumber": "15069",
      "distance": 33648.48097878
    },
    {
      "id": 215044,
      "geometry": "POINT (-83.188703 42.306897)",
      "poi_name": "Biggby Coffee",
      "osm_id": 5285414221,
      "amenity": "cafe",
      "cuisine": "coffee_shop",
      "opening_hours": "Mo-Su 06:00-21:00",
      "internet_access": "wlan",
      "phone": "+1-313-982-1100",
      "takeaway": "yes",
      "addr_state": "MI",
      "addr_city": "Dearborn",
      "addr_postcode": "48120",
      "addr_street": "Greenfield Road",
      "addr_housenumber": "3389",
      "distance": 28157.60346684
    },
    {
      "id": 214819,
      "geometry": "POINT (-83.221236 42.673113)",
      "poi_name": "Starbucks",
      "osm_id": 5281251345,
      "amenity": "cafe",
      "cuisine": "coffee_shop",
      "takeaway": "yes",
      "official_name": "Starbucks Coffee",
      "distance": 20084.07499608
    },
    {
      "id": 215006,
      "geometry": "POINT (-83.319481 42.506275)",
      "poi_name": "Starbucks",
      "osm_id": 5284833145,
      "amenity": "cafe",
      "cuisine": "coffee_shop",
      "takeaway": "yes",
      "distance": 4103.41105201
    },
    {
      "id": 215745,
      "geometry": "POINT (-83.074778 42.367838)",
      "poi_name": "Tim Hortons",
      "osm_id": 5311493708,
      "amenity": "cafe",
      "cuisine": "coffee_shop",
      "takeaway": "yes",
      "distance": 29418.08859872
    },
    {
      "id": 216712,
      "geometry": "POINT (-83.177964 42.139864)",
      "poi_name": "Nourish The \"T\"",
      "osm_id": 9180641870,
      "amenity": "cafe",
      "outdoor_seating": "no",
      "distance": 45432.93747396
    },
    {
      "id": 217329,
      "geometry": "POINT (-83.253836 42.227848)",
      "poi_name": "Biggby Coffee",
      "osm_id": 9216903716,
      "amenity": "cafe",
      "cuisine": "coffee_shop",
      "takeaway": "yes",
      "distance": 34231.09283632
    },
    {
      "id": 217488,
      "geometry": "POINT (-83.103998 42.469686)",
      "poi_name": "Doug's Delight",
      "osm_id": 9225651874,
      "amenity": "cafe",
      "addr_state": "MI",
      "addr_city": "Hazel Park",
      "addr_postcode": "48030",
      "addr_street": "John R Road",
      "addr_housenumber": "24110",
      "distance": 22110.56660918
    },
    {
      "id": 216957,
      "geometry": "POINT (-83.134046 42.681869)",
      "poi_name": "Bean & Leaf Cafe",
      "osm_id": 9196089717,
      "amenity": "cafe",
      "cuisine": "coffee_shop;tea",
      "opening_hours": "Su 08:00-19:00; Mo-Sa 07:00-19:00",
      "addr_postcode": "48307",
      "addr_street": "South Main Street",
      "addr_housenumber": "439",
      "distance": 25554.17521043
    },
    {
      "id": 219923,
      "geometry": "POINT (-83.221902 42.633876)",
      "poi_name": "Family Table Cafe",
      "osm_id": 9350813542,
      "amenity": "cafe",
      "distance": 16676.13378415
    },
    {
      "id": 219577,
      "geometry": "POINT (-83.648051 42.249036)",
      "poi_name": "Tim Hortons",
      "osm_id": 9335959637,
      "amenity": "cafe",
      "cuisine": "coffee_shop",
      "website": "https://www.timhortons.com/store-locator/store/restaurant_70950",
      "takeaway": "yes",
      "addr_state": "MI",
      "addr_city": "Ypsilanti",
      "addr_postcode": "48197",
      "addr_street": "Washtenaw Avenue",
      "addr_housenumber": "2220",
      "distance": 38677.27069303
    },
    {
      "id": 219924,
      "geometry": "POINT (-83.220803 42.633863)",
      "poi_name": "Quickly Boba",
      "osm_id": 9350824067,
      "amenity": "cafe",
      "distance": 16737.6013624
    },
    {
      "id": 222464,
      "geometry": "POINT (-83.469018 42.65722)",
      "poi_name": "Biggby Coffee",
      "osm_id": 11018980296,
      "amenity": "cafe",
      "cuisine": "coffee_shop",
      "addr_state": "MI",
      "addr_city": "White Lake",
      "addr_postcode": "48386",
      "addr_street": "Highland Road",
      "addr_housenumber": "9228",
      "distance": 17070.5934641
    },
    {
      "id": 219976,
      "geometry": "POINT (-83.050562 42.331852)",
      "poi_name": "Starbucks",
      "osm_id": 9353565134,
      "amenity": "cafe",
      "cuisine": "coffee_shop",
      "takeaway": "yes",
      "official_name": "Starbucks Coffee",
      "addr_state": "MI",
      "addr_city": "Detroit",
      "addr_postcode": "48226",
      "addr_street": "Washington Boulevard",
      "addr_housenumber": "1114",
      "distance": 33464.17901474
    },
    {
      "id": 224735,
      "geometry": "POINT (-83.031515 42.511746)",
      "poi_name": "GM VEC Tower Cafe",
      "osm_id": 11096752274,
      "amenity": "cafe",
      "distance": 27219.65386068
    },
    {
      "id": 222673,
      "geometry": "POINT (-83.620145 42.223232)",
      "poi_name": "Ypsilanti Nutrition",
      "osm_id": 11030582310,
      "amenity": "cafe",
      "cuisine": "tea;coffee;shakes",
      "opening_hours": "Mo-Fr 07:30-18:30; Sa-Su 09:00-14:00",
      "website": "https://www.facebook.com/ypsilantinutrition/",
      "internet_access": "wlan",
      "phone": "734-340-3962",
      "addr_state": "MI",
      "addr_city": "Ypsilanti",
      "addr_postcode": "48197",
      "addr_street": "Anna J Stepp Drive",
      "addr_housenumber": "1338",
      "distance": 39716.43383044
    },
    {
      "id": 224337,
      "geometry": "POINT (-83.674806 42.569638)",
      "poi_name": "GM Proving Grounds Cafe",
      "osm_id": 11078303220,
      "amenity": "cafe",
      "distance": 26139.87420791
    },
    {
      "id": 223108,
      "geometry": "POINT (-83.10051 42.377517)",
      "poi_name": "The Congregation",
      "osm_id": 11047093101,
      "amenity": "cafe",
      "cuisine": "coffee_shop",
      "opening_hours": "Tu-Fr 08:00-21:00; Sa 09:00-21:00; Su 09:00-18:00",
      "website": "https://thecongregationdetroit.com/",
      "internet_access": "wlan",
      "phone": "+1-313-307-5518",
      "outdoor_seating": "yes",
      "addr_state": "MI",
      "addr_city": "Detroit",
      "addr_postcode": "48206",
      "addr_street": "Rosa Parks Boulevard",
      "addr_housenumber": "9321",
      "distance": 27078.35791701
    },
    {
      "id": 224492,
      "geometry": "POINT (-83.192986 42.523953)",
      "poi_name": "Starbucks",
      "osm_id": 11084345117,
      "amenity": "cafe",
      "cuisine": "coffee_shop",
      "takeaway": "yes",
      "official_name": "Starbucks Coffee",
      "distance": 13908.4048167
    },
    {
      "id": 224654,
      "geometry": "POINT (-83.833955 42.287357)",
      "poi_name": "Little Lions Cat Cafe",
      "osm_id": 11091956360,
      "amenity": "cafe",
      "distance": 46976.17650549
    },
    {
      "id": 225283,
      "geometry": "POINT (-83.055565 42.353262)",
      "poi_name": "BIGGBY COFFEE",
      "osm_id": 11118356388,
      "amenity": "cafe",
      "distance": 31656.06504426
    },
    {
      "id": 224869,
      "geometry": "POINT (-83.737528 42.244772)",
      "poi_name": "Sweetwaters",
      "osm_id": 11101910991,
      "amenity": "cafe",
      "opening_hours": "Mo-Th 07:00-16:00",
      "distance": 43890.79380423
    },
    {
      "id": 225072,
      "geometry": "POINT (-83.622843 42.252249)",
      "poi_name": "Eagle's Grind",
      "osm_id": 11110305995,
      "amenity": "cafe",
      "cuisine": "coffee_shop",
      "website": "https://dineoncampus.com/emu",
      "outdoor_seating": "yes",
      "distance": 37158.19514132
    },
    {
      "id": 225074,
      "geometry": "POINT (-83.627098 42.252052)",
      "poi_name": "Starbucks",
      "osm_id": 11110319436,
      "amenity": "cafe",
      "cuisine": "coffee_shop",
      "website": "https://www.starbucks.com/store-locator/store/16946",
      "internet_access": "yes",
      "phone": "(734) 487-6416",
      "takeaway": "yes",
      "official_name": "Starbucks Coffee",
      "outdoor_seating": "yes",
      "addr_state": "MI",
      "addr_city": "Yipsilanti",
      "addr_postcode": "48176",
      "addr_street": "Oakwood Street",
      "addr_housenumber": "900",
      "distance": 37379.36876172
    },
    {
      "id": 225063,
      "geometry": "POINT (-83.759882 42.177843)",
      "poi_name": "Quickly",
      "osm_id": 11110268837,
      "amenity": "cafe",
      "cuisine": "bubble_tea",
      "phone": "+17349772124",
      "takeaway": "yes",
      "addr_state": "MI",
      "addr_city": "Saline",
      "addr_postcode": "48176",
      "addr_street": "East Michigan Avenue",
      "addr_housenumber": "1329",
      "distance": 50629.71759879
    },
    {
      "id": 225842,
      "geometry": "POINT (-83.810781 42.979715)",
      "poi_name": "Fireside Coffee Co.",
      "osm_id": 11140186543,
      "amenity": "cafe",
      "cuisine": "coffee_shop",
      "website": "https://firesidecoffee.com",
      "addr_state": "MI",
      "addr_city": "Swartz Creek",
      "addr_postcode": "48473",
      "addr_street": "Elms Road",
      "addr_housenumber": "3239",
      "distance": 62418.62123532
    },
    {
      "id": 226850,
      "geometry": "POINT (-83.628972 42.928046)",
      "poi_name": "Qamaria Yemeni Coffee",
      "osm_id": 11170799336,
      "amenity": "cafe",
      "cuisine": "coffee_shop;dessert",
      "website": "https://www.qamariacoffee.com/",
      "addr_state": "MI",
      "addr_city": "Grand Blanc",
      "addr_postcode": "48439",
      "addr_street": "South Saginaw Street",
      "addr_housenumber": "11419",
      "distance": 49783.83132065
    },
    {
      "id": 225783,
      "geometry": "POINT (-82.889455 42.478009)",
      "poi_name": "New Order Coffee Roasters",
      "osm_id": 11139532166,
      "amenity": "cafe",
      "cuisine": "coffee_shop",
      "website": "https://www.newordercoffee.com",
      "addr_state": "MI",
      "addr_city": "Saint Clair Shores",
      "addr_postcode": "48081",
      "addr_street": "Jefferson Avenue",
      "addr_housenumber": "25107",
      "distance": 39216.01157322
    },
    {
      "id": 229475,
      "geometry": "POINT (-83.106203 42.320205)",
      "poi_name": "Bella's Coffee House",
      "osm_id": 4382514731,
      "amenity": "cafe",
      "cuisine": "coffee_shop",
      "distance": 31037.1217851
    },
    {
      "id": 227969,
      "geometry": "POINT (-83.43915 42.528646)",
      "poi_name": "Gest Omelettes",
      "osm_id": 4325312173,
      "amenity": "cafe",
      "addr_street": "West 14 Mile Road",
      "addr_housenumber": "39560",
      "distance": 6329.30371177
    },
    {
      "id": 227970,
      "geometry": "POINT (-83.438858 42.528653)",
      "poi_name": "Sanka Tei Take Out Sushi",
      "osm_id": 4325312183,
      "amenity": "cafe",
      "takeaway": "only",
      "addr_street": "West 14 Mile Road",
      "addr_housenumber": "39520",
      "distance": 6305.47932973
    },
    {
      "id": 228192,
      "geometry": "POINT (-83.336192 42.455792)",
      "poi_name": "Biggby Coffee",
      "osm_id": 4333797449,
      "amenity": "cafe",
      "cuisine": "coffee_shop",
      "website": "https://www.biggby.com/",
      "takeaway": "yes",
      "addr_street": "Middlebelt Road",
      "addr_housenumber": "22370",
      "distance": 8017.5216438
    },
    {
      "id": 228041,
      "geometry": "POINT (-83.443195 42.527966)",
      "poi_name": "Miracle Coffee",
      "osm_id": 4328017508,
      "amenity": "cafe",
      "internet_access": "wlan",
      "phone": "+1 248 558-9556",
      "addr_state": "MI",
      "addr_city": "Commerce Township",
      "addr_postcode": "48390",
      "addr_street": "West 14 Mile Road",
      "addr_housenumber": "40200",
      "distance": 6657.49515909
    },
    {
      "id": 230746,
      "geometry": "POINT (-83.779804 42.279682)",
      "poi_name": "Biggby Coffee",
      "osm_id": 4438417268,
      "amenity": "cafe",
      "cuisine": "coffee_shop",
      "internet_access": "yes",
      "takeaway": "yes",
      "addr_street": "West Stadium Boulevard",
      "addr_housenumber": "2550",
      "distance": 43890.45853163
    },
    {
      "id": 230753,
      "geometry": "POINT (-83.777622 42.273741)",
      "poi_name": "Pilar's Coffeehouse",
      "osm_id": 4438533906,
      "amenity": "cafe",
      "addr_street": "West Liberty Street",
      "addr_housenumber": "2263",
      "distance": 44165.77733811
    },
    {
      "id": 232198,
      "geometry": "POINT (-83.476548 42.480065)",
      "poi_name": "Novi Coney Island",
      "osm_id": 4514672276,
      "amenity": "cafe",
      "website": "https://www.noviconey.com/",
      "addr_street": "Novi Road",
      "addr_housenumber": "25875",
      "distance": 10656.78240454
    },
    {
      "id": 231095,
      "geometry": "POINT (-83.47298 42.481258)",
      "poi_name": "Raw Organic Juice Bar",
      "osm_id": 4455833668,
      "amenity": "cafe",
      "opening_hours": "Mo-Fr 08:00-20:00; Sa 10:00-18:00; Su 11:00-17:00",
      "website": "https://raworganicjuicebarnovi.square.site/",
      "phone": "+1 248 596-0000",
      "addr_city": "Novi",
      "addr_postcode": "48375",
      "addr_street": "West 11 Mile Road",
      "addr_housenumber": "43300",
      "distance": 10335.66846551
    },
    {
      "id": 231907,
      "geometry": "POINT (-83.183197 42.3441)",
      "poi_name": "Shatila Bakery",
      "osm_id": 4497330682,
      "amenity": "cafe",
      "cuisine": "middle_eastern",
      "opening_hours": "Su-Th 07:30-23:00; Fr-Sa 07:30-24:00",
      "website": "https://shatila.com/",
      "shop": "bakery",
      "addr_state": "MI",
      "addr_city": "Dearborn",
      "addr_postcode": "48126",
      "addr_street": "West Warren Avenue",
      "addr_housenumber": "14300",
      "distance": 24947.8958936
    },
    {
      "id": 237118,
      "geometry": "POINT (-83.243687 42.572491)",
      "poi_name": "Kingswood Cafe",
      "osm_id": 5819644767,
      "amenity": "cafe",
      "distance": 11056.81925563
    },
    {
      "id": 233331,
      "geometry": "POINT (-83.136942 42.668436)",
      "poi_name": "Life Cafe",
      "osm_id": 4568926976,
      "amenity": "cafe",
      "cuisine": "cafe;health_food",
      "internet_access": "yes",
      "distance": 24384.05491647
    },
    {
      "id": 233332,
      "geometry": "POINT (-83.135362 42.697227)",
      "poi_name": "Starbucks",
      "osm_id": 4568926977,
      "amenity": "cafe",
      "cuisine": "coffee_shop",
      "takeaway": "yes",
      "official_name": "Starbucks Coffee",
      "distance": 26667.13853268
    },
    {
      "id": 233336,
      "geometry": "POINT (-83.228738 42.653789)",
      "poi_name": "Main Cafe",
      "osm_id": 4568950751,
      "amenity": "cafe",
      "internet_access": "no",
      "outdoor_seating": "yes",
      "distance": 17990.82415925
    },
    {
      "id": 235290,
      "geometry": "POINT (-83.215133 42.547253)",
      "poi_name": "Bateel USA",
      "osm_id": 5750271579,
      "amenity": "cafe",
      "distance": 12328.13677366
    },
    {
      "id": 236527,
      "geometry": "POINT (-82.964308 42.435165)",
      "poi_name": "Lape Soul Food",
      "osm_id": 5796160556,
      "amenity": "cafe",
      "cuisine": "southern",
      "addr_state": "MI",
      "addr_city": "Detroit",
      "addr_street": "East 7 Mile Road",
      "addr_housenumber": "15236",
      "distance": 34219.5022307
    },
    {
      "id": 237269,
      "geometry": "POINT (-83.217836 42.551731)",
      "poi_name": "Cafe Succo",
      "osm_id": 5824659927,
      "amenity": "cafe",
      "addr_state": "MI",
      "addr_city": "Birmingham",
      "addr_postcode": "48009",
      "addr_street": "North Old Woodward Avenue",
      "addr_housenumber": "600",
      "distance": 12219.76916186
    },
    {
      "id": 239140,
      "geometry": "POINT (-83.349827 42.224181)",
      "poi_name": "Starbucks",
      "osm_id": 5907286185,
      "amenity": "cafe",
      "cuisine": "coffee_shop",
      "takeaway": "yes",
      "official_name": "Starbucks Coffee",
      "distance": 33469.10153006
    },
    {
      "id": 238320,
      "geometry": "POINT (-83.643596 42.227378)",
      "poi_name": "Tim Hortons",
      "osm_id": 5873643466,
      "amenity": "cafe",
      "cuisine": "coffee_shop",
      "website": "https://www.timhortons.com/store-locator/store/restaurant_71128",
      "phone": "+1-734-480-9152",
      "takeaway": "yes",
      "addr_state": "MI",
      "addr_city": "Ypsilanti",
      "addr_postcode": "48197",
      "addr_street": "South Hewitt Road",
      "addr_housenumber": "760",
      "distance": 40403.54292905
    },
    {
      "id": 237447,
      "geometry": "POINT (-83.488398 42.322537)",
      "poi_name": "Biggby Coffee",
      "osm_id": 5832400799,
      "amenity": "cafe",
      "cuisine": "coffee_shop",
      "takeaway": "yes",
      "distance": 24805.38077321
    },
    {
      "id": 238454,
      "geometry": "POINT (-83.833989 42.287477)",
      "poi_name": "Biggby Coffee",
      "osm_id": 5878432976,
      "amenity": "cafe",
      "cuisine": "coffee_shop",
      "takeaway": "yes",
      "distance": 46970.96588432
    },
    {
      "id": 239465,
      "geometry": "POINT (-83.063187 42.355682)",
      "poi_name": "Hannan Cafe",
      "osm_id": 5922816018,
      "amenity": "cafe",
      "operator": "Detroit Cooks A Culinary Collective",
      "website": "https://hannan.org/detroit-cooks-at-hannan-cafe/",
      "phone": "+1-313-265-3166",
      "addr_state": "MI",
      "addr_city": "Detroit",
      "addr_street": "Woodward Avenue",
      "addr_housenumber": "4750",
      "distance": 30993.93514483
    },
    {
      "id": 239348,
      "geometry": "POINT (-83.780842 42.166293)",
      "poi_name": "Carrigan Cafe",
      "osm_id": 5918231525,
      "amenity": "cafe",
      "cuisine": "sandwich",
      "opening_hours": "Mo-Su 06:00-18:00",
      "website": "http://carrigancafe.com",
      "internet_access": "wlan",
      "phone": "+1-734-316-7633",
      "addr_state": "MI",
      "addr_city": "Saline",
      "addr_postcode": "48176",
      "addr_street": "South Ann Arbor Street",
      "addr_housenumber": "101",
      "distance": 52729.62918022
    },
    {
      "id": 239365,
      "geometry": "POINT (-83.257514 42.416903)",
      "poi_name": "Motor City Java House",
      "osm_id": 5918972091,
      "amenity": "cafe",
      "cuisine": "coffee_shop",
      "addr_state": "MI",
      "addr_city": "Detroit",
      "addr_postcode": "48219",
      "addr_street": "Lahser Road",
      "addr_housenumber": "17336",
      "distance": 14808.36479615
    },
    {
      "id": 240082,
      "geometry": "POINT (-83.05448 42.32864)",
      "poi_name": "The Press Room",
      "osm_id": 5954905195,
      "amenity": "cafe",
      "opening_hours": "Mo-Fr 07:00-19:00",
      "phone": "+1-313-408-6465",
      "outdoor_seating": "no",
      "addr_state": "MI",
      "addr_city": "Detroit",
      "addr_postcode": "48226",
      "addr_street": "Lafayette Boulevard West",
      "addr_housenumber": "615",
      "distance": 33450.1927025
    },
    {
      "id": 239783,
      "geometry": "POINT (-83.350783 42.222742)",
      "poi_name": "Detroit Street Cafe",
      "osm_id": 5939723393,
      "amenity": "cafe",
      "wheelchair": "yes",
      "takeaway": "yes",
      "distance": 33626.56561403
    },
    {
      "id": 239794,
      "geometry": "POINT (-83.700389 42.23058)",
      "poi_name": "Biggby Coffee",
      "osm_id": 5939844875,
      "amenity": "cafe",
      "cuisine": "coffee_shop",
      "wheelchair": "yes",
      "opening_hours": "Mo-Sa 06:00-19:00; Su 07:00-19:00",
      "website": "https://biggby.com",
      "internet_access": "wlan",
      "phone": "+1-734-368-9384",
      "takeaway": "yes",
      "outdoor_seating": "yes",
      "delivery": "yes",
      "addr_state": "MI",
      "addr_city": "Ann Arbor",
      "addr_postcode": "48108",
      "addr_street": "Platt Road",
      "addr_housenumber": "3980",
      "distance": 42984.2237284
    },
    {
      "id": 239981,
      "geometry": "POINT (-83.047972 42.332737)",
      "poi_name": "Avalon Bakery",
      "osm_id": 5948850128,
      "amenity": "cafe",
      "opening_hours": "Mo-Th 07:00-22:00; Fr 07:00-24:00; Sa 08:00-24:00; Su 08:00-22:00",
      "shop": "bakery",
      "outdoor_seating": "yes",
      "addr_state": "MI",
      "addr_city": "Detroit",
      "addr_postcode": "48226",
      "addr_street": "Woodward Avenue",
      "addr_housenumber": "1075",
      "distance": 33564.90306559
    },
    {
      "id": 240051,
      "geometry": "POINT (-83.346991 42.228004)",
      "poi_name": "Coffee Beanery",
      "osm_id": 5952846064,
      "amenity": "cafe",
      "distance": 33052.71634488
    },
    {
      "id": 240053,
      "geometry": "POINT (-83.347804 42.226901)",
      "poi_name": "Le Petit Betio Bistro",
      "osm_id": 5952846067,
      "amenity": "cafe",
      "distance": 33172.70194238
    },
    {
      "id": 240131,
      "geometry": "POINT (-83.053887 42.33789)",
      "poi_name": "Hot Taco",
      "osm_id": 5958620985,
      "amenity": "cafe",
      "cuisine": "mexican",
      "addr_street": "Park Avenue",
      "addr_housenumber": "2233",
      "distance": 32824.54081818
    },
    {
      "id": 240284,
      "geometry": "POINT (-83.048655 42.327371)",
      "poi_name": "Cork & Grind",
      "osm_id": 5965225655,
      "amenity": "cafe",
      "cuisine": "coffee_shop;wine;beer;breakfast",
      "internet_access": "wlan",
      "outdoor_seating": "yes",
      "addr_state": "MI",
      "addr_city": "Detroit",
      "distance": 33906.04873334
    },
    {
      "id": 240244,
      "geometry": "POINT (-83.176862 42.340017)",
      "poi_name": "Qahwah House",
      "osm_id": 5964664877,
      "amenity": "cafe",
      "cuisine": "coffee_shop",
      "opening_hours": "Mo-Sa 07:00-23:00; Su 09:00-23:00",
      "addr_street": "Schaefer Road",
      "addr_housenumber": "6655",
      "distance": 25622.4617077
    },
    {
      "id": 240258,
      "geometry": "POINT (-83.321378 43.043171)",
      "poi_name": "Starbucks",
      "osm_id": 5964853834,
      "amenity": "cafe",
      "cuisine": "coffee_shop",
      "takeaway": "yes",
      "official_name": "Starbucks Coffee",
      "distance": 57621.63636555
    },
    {
      "id": 240056,
      "geometry": "POINT (-83.348688 42.225728)",
      "poi_name": "Common Grace Coffee Company",
      "osm_id": 5952846385,
      "amenity": "cafe",
      "distance": 33300.38146638
    },
    {
      "id": 240175,
      "geometry": "POINT (-83.05059 42.334834)",
      "poi_name": "La Pecora Nera",
      "osm_id": 5961345266,
      "amenity": "cafe",
      "cuisine": "italian",
      "distance": 33250.16898597
    },
    {
      "id": 241419,
      "geometry": "POINT (-83.616922 42.513857)",
      "poi_name": "Tim Hortons",
      "osm_id": 6023190788,
      "amenity": "cafe",
      "cuisine": "coffee_shop",
      "takeaway": "yes",
      "addr_state": "MI",
      "addr_city": "New Hudson",
      "addr_postcode": "48165",
      "addr_street": "Milford Road",
      "addr_housenumber": "30465",
      "distance": 20966.41509726
    },
    {
      "id": 240958,
      "geometry": "POINT (-83.750509 42.264465)",
      "poi_name": "The Drip House",
      "osm_id": 6001436187,
      "amenity": "cafe",
      "distance": 43147.7547547
    },
    {
      "id": 242933,
      "geometry": "POINT (-83.481868 42.431357)",
      "poi_name": "My Little Paris",
      "osm_id": 7609970934,
      "amenity": "cafe",
      "distance": 14344.11443167
    },
    {
      "id": 242836,
      "geometry": "POINT (-83.055996 42.345005)",
      "poi_name": "Cafe Alto",
      "osm_id": 7603362867,
      "amenity": "cafe",
      "cuisine": "coffee_shop",
      "opening_hours": "Mo-Su 08:00-17:00",
      "outdoor_seating": "yes",
      "addr_street": "Woodward",
      "addr_housenumber": "3100",
      "distance": 32191.74432833
    },
    {
      "id": 243717,
      "geometry": "POINT (-83.135246 42.69384)",
      "poi_name": "Zo's Bubble Tea",
      "osm_id": 7672005259,
      "amenity": "cafe",
      "cuisine": "bubble_tea",
      "internet_access": "wlan",
      "addr_state": "MI",
      "addr_city": "Rochester Hills",
      "addr_postcode": "48307",
      "addr_street": "North Rochester Road",
      "addr_housenumber": "1431",
      "distance": 26406.14830496
    },
    {
      "id": 243480,
      "geometry": "POINT (-83.296725 42.703162)",
      "poi_name": "Teamension",
      "osm_id": 7653305133,
      "amenity": "cafe",
      "cuisine": "tea;bakery",
      "opening_hours": "Mo-Sa 11:00-19:00; Su 11:00-18:00",
      "website": "https://www.facebook.com/Teamension/",
      "phone": "+1 248-464-6687",
      "takeaway": "yes",
      "addr_street": "Baldwin Road",
      "addr_housenumber": "4346",
      "distance": 20471.30671997
    },
    {
      "id": 243163,
      "geometry": "POINT (-83.06815 42.349628)",
      "poi_name": "Awake Cafe",
      "osm_id": 7629440001,
      "amenity": "cafe",
      "cuisine": "coffee_shop",
      "addr_state": "MI",
      "addr_city": "Detroit",
      "addr_postcode": "48201",
      "addr_street": "3rd Street",
      "addr_housenumber": "4244",
      "distance": 31089.46296912
    }
  ],
  "answer_type": "distance",
  "question_entities": {
    "[1]": {
      "main_category": "amenity",
      "sub_category": "cafe"
    },
    "[2]": {
      "distance": 70000,
      "text": "70 kilometers"
    },
    "[3]": {
      "main_category": "tourism",
      "sub_category": "attraction",
      "display_name": "Marvin's Marvelous Mechanical Museum, Farmington Hills, MI",
      "geo_wkt": "POINT (-83.362246 42.525345)",
      "poi": {
        "id": 2440,
        "geometry": "POINT (-83.362246 42.525345)",
        "poi_name": "Marvin's Marvelous Mechanical Museum",
        "osm_id": 3449283902,
        "tourism": "attraction",
        "website": "http://www.marvin3m.com/",
        "phone": "+1-248-626-5020",
        "wikidata": "Q6778265",
        "addr_state": "MI",
        "addr_city": "Farmington Hills",
        "addr_postcode": "48334",
        "addr_street": "Orchard Lake Road",
        "addr_housenumber": "31005"
      }
    }
  },
  "id": 736,
  "type": "range+distance"
}