{
  "question": "Where can I find a art museum within 90 kilometers from Top of the Rock, New York, NY?",
  "sql": "SELECT * FROM pois\nWHERE ST_DWithin(pois.geometry, ST_GeomFromText('POINT (-73.979395 40.759034)',4326)::geography, 90000)\nAND tourism = 'museum'\nAND museum = 'art';\n",
  "answers": [
    {
      "id": 1082,
      "geometry": "POINT (-74.005072 40.713744)",
      "poi_name": "Hall des Lumi\u00e8res",
      "osm_id": 2825233330,
      "tourism": "museum",
      "fee": "yes",
      "opening_hours": "10:00-18:00; Tu off; Th-Sa 10:00-22:00",
      "website": "https://www.halldeslumieres.com/",
      "museum": "art",
      "addr_state": "NY",
      "addr_city": "New York",
      "addr_postcode": "10007",
      "addr_street": "Chambers Street",
      "addr_housenumber": "49"
    },
    {
      "id": 1950,
      "geometry": "POINT (-73.981596 40.77323)",
      "poi_name": "American Folk Art Museum",
      "osm_id": 3224793125,
      "tourism": "museum",
      "wheelchair": "yes",
      "website": "http://www.folkartmuseum.org",
      "museum": "art",
      "wikidata": "Q464354",
      "addr_state": "NY",
      "addr_city": "New York",
      "addr_street": "Lincoln Square",
      "addr_housenumber": "2"
    },
    {
      "id": 2808,
      "geometry": "POINT (-73.96399 40.773476)",
      "poi_name": "Frick Madison",
      "osm_id": 10038018687,
      "tourism": "museum",
      "opening_hours": "Th-Su 10:00-18:00",
      "website": "https://www.frick.org/",
      "museum": "art",
      "addr_state": "NY",
      "addr_city": "New York",
      "addr_postcode": "10021",
      "addr_street": "Madison Avenue",
      "addr_housenumber": "945"
    },
    {
      "id": 4743,
      "geometry": "POINT (-73.417026 41.110742)",
      "poi_name": "Norwalk Art Space",
      "osm_id": 11426121771,
      "tourism": "museum",
      "website": "https://www.thenorwalkartspace.org/",
      "museum": "art",
      "addr_state": "CT",
      "addr_city": "Norwalk",
      "addr_postcode": "06850",
      "addr_street": "West Avenue",
      "addr_housenumber": "455"
    },
    {
      "id": 9697,
      "geometry": "POINT (-73.949334 40.796342)",
      "poi_name": "The Africa Center",
      "osm_id": 8942135848,
      "tourism": "museum",
      "opening_hours": "Su-Th 12:00-20:00",
      "website": "https://www.theafricacenter.org/",
      "museum": "art",
      "wikidata": "Q1954603",
      "addr_state": "NY",
      "addr_city": "New York",
      "addr_postcode": "10029",
      "addr_street": "5th Avenue",
      "addr_housenumber": "1280"
    },
    {
      "id": 10059,
      "geometry": "POINT (-74.003032 40.721768)",
      "poi_name": "Leslie-Lohman Museum of Art",
      "osm_id": 9136326361,
      "tourism": "museum",
      "wheelchair": "yes",
      "website": "https://www.leslielohman.org/",
      "phone": "+1 212 431 2609",
      "museum": "art",
      "wikidata": "Q6530976",
      "addr_state": "NY",
      "addr_city": "New York",
      "addr_postcode": "10013",
      "addr_street": "Wooster Street",
      "addr_housenumber": "26"
    },
    {
      "id": 22425,
      "geometry": "POINT (-73.966827 40.764819)",
      "poi_name": "Society of Illustrators",
      "osm_id": 7041713696,
      "tourism": "museum",
      "opening_hours": "We-Sa 11:00-17:00",
      "website": "https://societyillustrators.org/",
      "phone": "+1 212 838 2560",
      "museum": "art",
      "addr_state": "NY",
      "addr_city": "New York",
      "addr_postcode": "10065",
      "addr_street": "East 63rd Street",
      "addr_housenumber": "128"
    },
    {
      "id": 24180,
      "geometry": "POINT (-73.988649 40.718097)",
      "poi_name": "International Center of Photography",
      "osm_id": 9371206933,
      "tourism": "museum",
      "opening_hours": "11:00-19:00; Tu off; Th 11:00-21:00",
      "website": "https://www.icp.org/",
      "museum": "art",
      "addr_state": "NY",
      "addr_city": "New York",
      "addr_postcode": "10002",
      "addr_street": "Essex Street",
      "addr_housenumber": "79"
    },
    {
      "id": 24494,
      "geometry": "POINT (-74.003532 40.750247)",
      "poi_name": "National Academy of Design",
      "osm_id": 11079626705,
      "tourism": "museum",
      "website": "https://nationalacademy.org/",
      "phone": "+1-212-369-4880",
      "museum": "art",
      "addr_state": "NY",
      "addr_city": "New York",
      "addr_postcode": "10001",
      "addr_street": "West 26th Street",
      "addr_housenumber": "519"
    },
    {
      "id": 25359,
      "geometry": "POINT (-73.981479 40.749191)",
      "poi_name": "The Morgan Library & Museum",
      "osm_id": 4462440249,
      "tourism": "museum",
      "opening_hours": "Tu-Su 10:00-17:30",
      "website": "https://www.themorgan.org/",
      "phone": "+1-212-685-0008",
      "museum": "art",
      "wikidata": "Q1478423",
      "addr_state": "NY",
      "addr_city": "New York",
      "addr_postcode": "10016",
      "addr_street": "Madison Avenue",
      "addr_housenumber": "225"
    }
  ],
  "answer_type": "loc",
  "question_entities": {
    "[1]": {
      "main_category": "tourism",
      "sub_category": "museum",
      "poi_filter_desc": "art museum",
      "poi_filter_sql": "museum = 'art'"
    },
    "[2]": {
      "distance": 90000,
      "text": "90 kilometers"
    },
    "[3]": {
      "main_category": "tourism",
      "sub_category": "viewpoint",
      "display_name": "Top of the Rock, New York, NY",
      "geo_wkt": "POINT (-73.979395 40.759034)",
      "poi": {
        "id": 26307,
        "geometry": "POINT (-73.979395 40.759034)",
        "poi_name": "Top of the Rock",
        "osm_id": 5844051585,
        "tourism": "viewpoint",
        "wheelchair": "yes",
        "website": "https://www.topoftherocknyc.com/",
        "wikidata": "Q66722774",
        "addr_state": "NY",
        "addr_city": "New York",
        "addr_street": "Rockefeller Plaza",
        "addr_housenumber": "30"
      }
    }
  },
  "id": 486,
  "type": "range:non_spat_filter+loc"
}