{
  "question": "Where can I find a restaurant within 60 kilometers from Aiken County Historical Museum, Aiken, SC?",
  "sql": "SELECT * FROM pois\nWHERE ST_DWithin(pois.geometry, ST_GeomFromText('POINT (-81.725285 33.554729)',4326)::geography, 60000)\nAND amenity = 'restaurant';\n",
  "answers": [
    {
      "id": 34866,
      "geometry": "POINT (-81.512061 33.916346)",
      "poi_name": "San Jose Mexican Restaurant",
      "osm_id": 2705201900,
      "amenity": "restaurant",
      "cuisine": "mexican",
      "addr_city": "Batesburg-Leesville",
      "addr_postcode": "29070",
      "addr_street": "East Columbia Avenue",
      "addr_housenumber": "410"
    },
    {
      "id": 34867,
      "geometry": "POINT (-81.512607 33.918577)",
      "poi_name": "Mi Rancho",
      "osm_id": 2705203394,
      "amenity": "restaurant",
      "cuisine": "mexican",
      "addr_state": "SC",
      "addr_city": "Batesburg-Leesville",
      "addr_postcode": "29070",
      "addr_street": "East Church Street",
      "addr_housenumber": "421"
    },
    {
      "id": 34868,
      "geometry": "POINT (-81.516862 33.914814)",
      "poi_name": "The Spud Stop",
      "osm_id": 2705206892,
      "amenity": "restaurant",
      "cuisine": "american",
      "phone": "+1-803-307-0213",
      "addr_state": "SC",
      "addr_city": "Batesburg-Leesville",
      "addr_postcode": "29070",
      "addr_street": "East Columbia Avenue",
      "addr_housenumber": "327"
    },
    {
      "id": 39966,
      "geometry": "POINT (-81.708097 33.503012)",
      "poi_name": "Shane's Rib Shack",
      "osm_id": 2953310413,
      "amenity": "restaurant",
      "cuisine": "barbecue",
      "phone": "803.226.0192",
      "addr_city": "aiken",
      "addr_postcode": "29803",
      "addr_street": "Whiskey Road",
      "addr_housenumber": "2645"
    },
    {
      "id": 40327,
      "geometry": "POINT (-81.723853 33.566146)",
      "poi_name": "Piece of Potato",
      "osm_id": 2967039521,
      "amenity": "restaurant",
      "website": "https://www.pieceofpotato.com/",
      "addr_state": "SC",
      "addr_city": "Aiken",
      "addr_postcode": "29801",
      "addr_street": "Greenville Street Northwest",
      "addr_housenumber": "221"
    },
    {
      "id": 40627,
      "geometry": "POINT (-81.421435 33.40189)",
      "poi_name": "Meeting on Main",
      "osm_id": 2975212033,
      "amenity": "restaurant",
      "cuisine": "sandwich",
      "addr_city": "Williston",
      "addr_postcode": "29853",
      "addr_street": "MAIN STREET",
      "addr_housenumber": "12890"
    },
    {
      "id": 46716,
      "geometry": "POINT (-81.738888 33.638373)",
      "poi_name": "Waffle House",
      "osm_id": 3285154524,
      "amenity": "restaurant",
      "cuisine": "american",
      "opening_hours": "24/7",
      "website": "https://www.wafflehouse.com/",
      "phone": "803-643-0443",
      "addr_state": "SC",
      "addr_city": "Aiken",
      "addr_postcode": "29801",
      "addr_street": "Frontage Road",
      "addr_housenumber": "105"
    },
    {
      "id": 57452,
      "geometry": "POINT (-81.510681 33.918314)",
      "poi_name": "HEbrews",
      "osm_id": 5337103210,
      "amenity": "restaurant",
      "cuisine": "coffee_shop;american",
      "addr_state": "SC",
      "addr_city": "Batesburg-Leesville",
      "addr_postcode": "29070",
      "addr_street": "East Railroad Avenue",
      "addr_housenumber": "442"
    },
    {
      "id": 58303,
      "geometry": "POINT (-81.814668 33.151708)",
      "poi_name": "Pointers Grill at Hancock Landing",
      "osm_id": 5370422374,
      "amenity": "restaurant",
      "cuisine": "american",
      "opening_hours": "Mo-We 10:30-22:00; Th-Fr 10:30-24:00; Sa 18:00-24:00",
      "website": "http://pointersgrill.com/",
      "phone": "+1 706-554-5222",
      "takeaway": "yes",
      "addr_state": "GA",
      "addr_city": "Waynesboro",
      "addr_postcode": "30830",
      "addr_street": "Hancock Landing Road",
      "addr_housenumber": "2056"
    },
    {
      "id": 60500,
      "geometry": "POINT (-82.054278 33.51465)",
      "poi_name": "Bateman Coummunity Living",
      "osm_id": 5467778542,
      "amenity": "restaurant",
      "cuisine": "regional",
      "opening_hours": "Mo-Fr 09:00-17:00",
      "phone": "+1-706-922-1018",
      "takeaway": "no",
      "delivery": "yes",
      "addr_state": "GA",
      "addr_city": "Augusta",
      "addr_postcode": "30907",
      "addr_street": "Washington Road",
      "addr_housenumber": "3113"
    },
    {
      "id": 63895,
      "geometry": "POINT (-82.197226 33.479742)",
      "poi_name": "Mi Rancho",
      "osm_id": 5633960416,
      "amenity": "restaurant",
      "cuisine": "mexican",
      "addr_state": "GA",
      "addr_city": "Grovetown",
      "addr_postcode": "30813",
      "addr_street": "Gateway Boulevard",
      "addr_housenumber": "4010"
    },
    {
      "id": 71151,
      "geometry": "POINT (-81.971352 33.493521)",
      "poi_name": "Your Pie Pizza",
      "osm_id": 11382822441,
      "amenity": "restaurant",
      "cuisine": "pizza",
      "website": "https://yourpie.com/locations/north-augusta",
      "addr_state": "SC",
      "addr_city": "North Augusta",
      "addr_postcode": "29841",
      "addr_street": "Georgia Avenue",
      "addr_housenumber": "434"
    },
    {
      "id": 74052,
      "geometry": "POINT (-82.031707 33.508231)",
      "poi_name": "China",
      "osm_id": 9664216501,
      "amenity": "restaurant",
      "cuisine": "chinese",
      "phone": "+17067388998",
      "addr_state": "GA",
      "addr_city": "Augusta",
      "addr_postcode": "30909",
      "addr_street": "Washington Road",
      "addr_housenumber": "2816"
    },
    {
      "id": 74192,
      "geometry": "POINT (-81.514682 33.879716)",
      "poi_name": "Kathy's Bar & Grill",
      "osm_id": 9670354186,
      "amenity": "restaurant",
      "phone": "+1 803 657 5131",
      "addr_state": "SC",
      "addr_city": "Batesburg-Leesville",
      "addr_postcode": "29070",
      "addr_street": "South Lee Street",
      "addr_housenumber": "1120"
    },
    {
      "id": 82560,
      "geometry": "POINT (-81.722286 33.559861)",
      "poi_name": "Mellow Mushroom",
      "osm_id": 1702969989,
      "amenity": "restaurant",
      "cuisine": "pizza",
      "website": "https://mellowmushroom.com/",
      "outdoor_seating": "yes",
      "delivery": "no",
      "addr_state": "SC",
      "addr_city": "Aiken",
      "addr_postcode": "29801",
      "addr_street": "Bee Lane",
      "addr_housenumber": "151"
    },
    {
      "id": 82564,
      "geometry": "POINT (-81.701399 33.530449)",
      "poi_name": "Maria's Mexican Restaurant",
      "osm_id": 1702993077,
      "amenity": "restaurant",
      "cuisine": "mexican",
      "addr_state": "SC",
      "addr_city": "Aiken",
      "addr_postcode": "29803",
      "addr_street": "East Pine Log Road",
      "addr_housenumber": "716"
    },
    {
      "id": 85522,
      "geometry": "POINT (-81.724037 33.533692)",
      "poi_name": "Pizza Hut",
      "osm_id": 1875002570,
      "amenity": "restaurant",
      "cuisine": "pizza",
      "phone": "+1 803 649 0909",
      "addr_state": "SC",
      "addr_city": "Aiken",
      "addr_postcode": "29803",
      "addr_street": "Whiskey Rd",
      "addr_housenumber": "1490"
    },
    {
      "id": 93844,
      "geometry": "POINT (-81.724849 33.520532)",
      "poi_name": "Wild Wing Cafe",
      "osm_id": 2189170967,
      "amenity": "restaurant",
      "cuisine": "wings",
      "addr_state": "SC",
      "addr_city": "Aiken",
      "addr_postcode": "29803",
      "addr_street": "Fabian Drive",
      "addr_housenumber": "470"
    },
    {
      "id": 93846,
      "geometry": "POINT (-81.723176 33.523148)",
      "poi_name": "Tasty Crab House Aiken",
      "osm_id": 2189172406,
      "amenity": "restaurant",
      "addr_state": "SC",
      "addr_city": "Aiken",
      "addr_postcode": "29803",
      "addr_street": "Pine Log Road",
      "addr_housenumber": "996"
    },
    {
      "id": 96885,
      "geometry": "POINT (-82.197649 33.476562)",
      "poi_name": "Your Pie",
      "osm_id": 6450063798,
      "amenity": "restaurant",
      "cuisine": "pizza",
      "phone": "+1-706-426-0116",
      "addr_state": "GA",
      "addr_city": "Grovetown",
      "addr_postcode": "30813",
      "addr_street": "Bentley Drive",
      "addr_housenumber": "9592"
    },
    {
      "id": 117250,
      "geometry": "POINT (-81.535379 33.909472)",
      "poi_name": "China 1",
      "osm_id": 8984335641,
      "amenity": "restaurant",
      "cuisine": "chinese",
      "addr_state": "SC",
      "addr_city": "Batesburg-Leesville",
      "addr_postcode": "29006",
      "addr_street": "West Columbia Avenue"
    },
    {
      "id": 116505,
      "geometry": "POINT (-81.741865 33.564898)",
      "poi_name": "ATown Wings",
      "osm_id": 8945248482,
      "amenity": "restaurant",
      "cuisine": "wings",
      "addr_state": "SC",
      "addr_city": "Aiken",
      "addr_postcode": "29801",
      "addr_street": "Richland Ave W",
      "addr_housenumber": "1637"
    },
    {
      "id": 130419,
      "geometry": "POINT (-81.722528 33.560793)",
      "poi_name": "Malia's Restaurant",
      "osm_id": 9871176007,
      "amenity": "restaurant",
      "website": "https://maliasrestaurant.com/",
      "phone": "+1 803 643 3086",
      "addr_state": "SC",
      "addr_city": "Aiken",
      "addr_postcode": "29801",
      "addr_street": "Laurens Street SW",
      "addr_housenumber": "120"
    },
    {
      "id": 130817,
      "geometry": "POINT (-81.722175 33.560327)",
      "poi_name": "Fuse",
      "osm_id": 9892193551,
      "amenity": "restaurant",
      "website": "https://fuseaiken.com/",
      "addr_state": "SC",
      "addr_city": "Aiken",
      "addr_postcode": "29801",
      "addr_street": "The Alley",
      "addr_housenumber": "222"
    },
    {
      "id": 130818,
      "geometry": "POINT (-81.72177 33.560168)",
      "poi_name": "Tako Sushi",
      "osm_id": 9892193552,
      "amenity": "restaurant",
      "website": "https://www.tako-sushi.com/location/aiken/",
      "addr_state": "SC",
      "addr_city": "Aiken",
      "addr_postcode": "29801",
      "addr_street": "The Alley",
      "addr_housenumber": "210"
    },
    {
      "id": 130819,
      "geometry": "POINT (-81.722314 33.560165)",
      "poi_name": "Whiskey Alley",
      "osm_id": 9892193554,
      "amenity": "restaurant",
      "website": "https://www.whiskeyalley.com/",
      "addr_state": "SC",
      "addr_city": "Aiken",
      "addr_postcode": "29801",
      "addr_street": "The Alley",
      "addr_housenumber": "227"
    },
    {
      "id": 130820,
      "geometry": "POINT (-81.721914 33.563402)",
      "poi_name": "Mack's",
      "osm_id": 9892193555,
      "amenity": "restaurant",
      "website": "https://macksinaiken.com/",
      "addr_state": "SC",
      "addr_postcode": "29801",
      "addr_street": "Laurens Street NW"
    },
    {
      "id": 130821,
      "geometry": "POINT (-81.722331 33.562491)",
      "poi_name": "What's Cookin Downtown",
      "osm_id": 9892193562,
      "amenity": "restaurant",
      "website": "https://www.whatscookindowntown.com/",
      "addr_state": "SC",
      "addr_postcode": "29801",
      "addr_street": "Laurens Street NW"
    },
    {
      "id": 130822,
      "geometry": "POINT (-81.722365 33.562417)",
      "poi_name": "Palmetto Seafood Bar & Grill",
      "osm_id": 9892193563,
      "amenity": "restaurant",
      "addr_state": "SC",
      "addr_postcode": "29801",
      "addr_street": "Laurens Street NW",
      "addr_housenumber": "119"
    },
    {
      "id": 130823,
      "geometry": "POINT (-81.721356 33.561023)",
      "poi_name": "Taj Aiken",
      "osm_id": 9892193577,
      "amenity": "restaurant",
      "website": "https://tajaiken.com",
      "addr_state": "SC",
      "addr_city": "Aiken",
      "addr_postcode": "29801",
      "addr_street": "Richland Avenue West",
      "addr_housenumber": "213"
    },
    {
      "id": 131220,
      "geometry": "POINT (-81.720647 33.559147)",
      "poi_name": "Neon Fig",
      "osm_id": 9906290621,
      "amenity": "restaurant",
      "website": "https://neon-fig.com/",
      "addr_state": "SC",
      "addr_city": "Aiken",
      "addr_postcode": "29801",
      "addr_street": "Park Avenue SW",
      "addr_housenumber": "110"
    },
    {
      "id": 132730,
      "geometry": "POINT (-81.723635 33.531219)",
      "poi_name": "Thai Jasmine Rice",
      "osm_id": 9966102574,
      "amenity": "restaurant",
      "addr_state": "SC",
      "addr_city": "Aiken",
      "addr_postcode": "29803",
      "addr_street": "Whiskey Road",
      "addr_housenumber": "1552"
    },
    {
      "id": 136138,
      "geometry": "POINT (-82.323713 33.416729)",
      "poi_name": "Pizza Hut",
      "osm_id": 11564789026,
      "amenity": "restaurant",
      "cuisine": "pizza",
      "addr_state": "GA",
      "addr_city": "Harlem",
      "addr_postcode": "30814",
      "addr_street": "Henry Miller Boulevard",
      "addr_housenumber": "569"
    },
    {
      "id": 181104,
      "geometry": "POINT (-81.7217 33.559448)",
      "poi_name": "Wildemount",
      "osm_id": 10832400946,
      "amenity": "restaurant",
      "opening_hours": "Tu-Sa 17:00-21:00",
      "website": "https://the-wildemount.constantcontactsites.com/",
      "phone": "+1.803.262.5269",
      "addr_state": "SC",
      "addr_city": "Aiken",
      "addr_postcode": "29801",
      "addr_street": "Park Avenue SW",
      "addr_housenumber": "200"
    },
    {
      "id": 175384,
      "geometry": "POINT (-82.043417 33.42984)",
      "poi_name": "Happy House",
      "osm_id": 2518077998,
      "amenity": "restaurant",
      "cuisine": "korean",
      "wheelchair": "yes",
      "phone": "+1 (706) 798-4055",
      "addr_city": "Augusta",
      "addr_postcode": "30906",
      "addr_street": "Deans Bridge Road",
      "addr_housenumber": "3008"
    },
    {
      "id": 147251,
      "geometry": "POINT (-82.200487 33.49139)",
      "poi_name": "La Cocina Del Rey",
      "osm_id": 7518735363,
      "amenity": "restaurant",
      "cuisine": "mexican",
      "addr_state": "GA",
      "addr_city": "Grovetown",
      "addr_postcode": "30813",
      "addr_street": "Lewiston Road",
      "addr_housenumber": "419"
    },
    {
      "id": 184379,
      "geometry": "POINT (-81.423778 33.402176)",
      "poi_name": "The Sandwich Shop",
      "osm_id": 7785948157,
      "amenity": "restaurant",
      "cuisine": "sandwich",
      "addr_state": "SC",
      "addr_city": "Williston",
      "addr_postcode": "29853",
      "addr_street": "MAIN STREET",
      "addr_housenumber": "13035"
    },
    {
      "id": 183428,
      "geometry": "POINT (-81.748388 33.493115)",
      "poi_name": "AnShu Asian Cafe",
      "osm_id": 10930581556,
      "amenity": "restaurant",
      "website": "https://anshuasiancafe.com/",
      "phone": "+1-803-226-0556",
      "addr_state": "SC",
      "addr_city": "Aiken",
      "addr_postcode": "29803",
      "addr_street": "Coach Light Way",
      "addr_housenumber": "122"
    },
    {
      "id": 184380,
      "geometry": "POINT (-81.418471 33.399459)",
      "poi_name": "Russell's Pizza",
      "osm_id": 7785948158,
      "amenity": "restaurant",
      "cuisine": "pizza",
      "opening_hours": "Mo-Th 11:00-21:00; Fr-Sa 11:00-22:00",
      "phone": "803-266-7722",
      "addr_state": "SC",
      "addr_city": "Williston",
      "addr_postcode": "29853",
      "addr_street": "MAIN STREET",
      "addr_housenumber": "12677"
    },
    {
      "id": 184441,
      "geometry": "POINT (-81.439091 34.019881)",
      "poi_name": "Charley's Fisherman's Wharf",
      "osm_id": 7791583273,
      "amenity": "restaurant",
      "cuisine": "american;seafood",
      "phone": "803 532 1205",
      "addr_state": "SC",
      "addr_city": "Leesville",
      "addr_postcode": "29070",
      "addr_street": "Highway 378",
      "addr_housenumber": "3224"
    },
    {
      "id": 185626,
      "geometry": "POINT (-81.518451 33.914706)",
      "poi_name": "Angelo's Greek & Italian Restaurant",
      "osm_id": 7872559597,
      "amenity": "restaurant",
      "cuisine": "italian;greek",
      "phone": "+1 803 532 3013",
      "addr_state": "SC",
      "addr_city": "Batesburg-Leesville",
      "addr_postcode": "29070",
      "addr_street": "Village Square Drive",
      "addr_housenumber": "333"
    },
    {
      "id": 185771,
      "geometry": "POINT (-81.363769 33.243684)",
      "poi_name": "Wangz on Main",
      "osm_id": 7882514906,
      "amenity": "restaurant",
      "phone": "+1 803 450 5083",
      "addr_state": "SC",
      "addr_city": "Barnwell",
      "addr_postcode": "29812",
      "addr_street": "Main Street",
      "addr_housenumber": "212A"
    },
    {
      "id": 185919,
      "geometry": "POINT (-81.526781 33.917378)",
      "poi_name": "China House",
      "osm_id": 7893998349,
      "amenity": "restaurant",
      "cuisine": "chinese",
      "addr_state": "SC",
      "addr_city": "Batesburg-Leesville",
      "addr_postcode": "29070",
      "addr_street": "East Church Street"
    },
    {
      "id": 184513,
      "geometry": "POINT (-81.531677 33.91318)",
      "poi_name": "Waffle House",
      "osm_id": 7796181621,
      "amenity": "restaurant",
      "cuisine": "american",
      "opening_hours": "24/7",
      "website": "https://wafflehouse.com/",
      "addr_state": "SC",
      "addr_city": "Batesburg-Leesville",
      "addr_postcode": "29070",
      "addr_street": "West Church Street",
      "addr_housenumber": "130"
    },
    {
      "id": 184668,
      "geometry": "POINT (-81.428442 34.016801)",
      "poi_name": "Highway 378 Bar and Grill",
      "osm_id": 7805135721,
      "amenity": "restaurant",
      "cuisine": "american",
      "addr_state": "SC",
      "addr_city": "Gilbert",
      "addr_postcode": "29054",
      "addr_street": "Highway 378"
    },
    {
      "id": 186950,
      "geometry": "POINT (-81.548265 33.906386)",
      "poi_name": "The Root Cellar",
      "osm_id": 7959561758,
      "amenity": "restaurant",
      "addr_state": "SC",
      "addr_city": "Batesburg-Leesville",
      "addr_postcode": "29006",
      "addr_street": "North Oak Street",
      "addr_housenumber": "133"
    },
    {
      "id": 194904,
      "geometry": "POINT (-81.722714 33.534433)",
      "poi_name": "Aiken Fish House and Oyster Bar",
      "osm_id": 10288142075,
      "amenity": "restaurant",
      "cuisine": "seafood",
      "website": "https://www.aikenfishhouse.com/",
      "phone": "+1.803.226.0260",
      "addr_state": "SC",
      "addr_city": "Aiken",
      "addr_postcode": "29803",
      "addr_street": "Whiskey Road",
      "addr_housenumber": "1376"
    },
    {
      "id": 194906,
      "geometry": "POINT (-81.724709 33.531247)",
      "poi_name": "The Feed Sack",
      "osm_id": 10288197511,
      "amenity": "restaurant",
      "website": "https://www.feedsackaiken.com/",
      "phone": "+1.803.226.0459",
      "addr_state": "SC",
      "addr_city": "Aiken",
      "addr_postcode": "29803",
      "addr_street": "Whiskey Road",
      "addr_housenumber": "1593"
    },
    {
      "id": 194911,
      "geometry": "POINT (-81.724299 33.566273)",
      "poi_name": "Tiffany's at the Stables",
      "osm_id": 10288451167,
      "amenity": "restaurant",
      "website": "https://tiffanysatthestables.com/",
      "addr_state": "SC",
      "addr_city": "Aiken",
      "addr_postcode": "29801",
      "addr_street": "Greenville Street Northwest",
      "addr_housenumber": "245"
    },
    {
      "id": 195882,
      "geometry": "POINT (-81.516372 33.915012)",
      "poi_name": "Customz Pizzeria",
      "osm_id": 10549034780,
      "amenity": "restaurant",
      "cuisine": "pizza",
      "addr_state": "SC",
      "addr_city": "Batesburg-Leesville",
      "addr_postcode": "29070",
      "addr_street": "East Columbia Avenue",
      "addr_housenumber": "333"
    },
    {
      "id": 195335,
      "geometry": "POINT (-82.198646 33.47738)",
      "poi_name": "Habanero's Mexican Grill",
      "osm_id": 10301563444,
      "amenity": "restaurant",
      "cuisine": "mexican",
      "addr_state": "GA",
      "addr_city": "Grovetown",
      "addr_postcode": "30831",
      "addr_street": "Meridian Drive",
      "addr_housenumber": "235"
    },
    {
      "id": 217471,
      "geometry": "POINT (-81.532444 33.9103)",
      "poi_name": "Japan Express",
      "osm_id": 9223987997,
      "amenity": "restaurant",
      "cuisine": "japanese",
      "phone": "+1 803 307 5067",
      "addr_state": "SC",
      "addr_city": "Batesburg-Leesville",
      "addr_postcode": "29006",
      "addr_street": "West Columbia Avenue",
      "addr_housenumber": "211"
    },
    {
      "id": 221059,
      "geometry": "POINT (-81.362413 33.652409)",
      "poi_name": "Russell's Pizza",
      "osm_id": 10966526594,
      "amenity": "restaurant",
      "cuisine": "pizza",
      "phone": "803-564-5012",
      "addr_city": "Wagener, South Carolina",
      "addr_postcode": "29164",
      "addr_street": "Lee Street North",
      "addr_housenumber": "136"
    },
    {
      "id": 224630,
      "geometry": "POINT (-81.96986 33.476095)",
      "poi_name": "Tacocat",
      "osm_id": 11090757690,
      "amenity": "restaurant",
      "opening_hours": "We-Sa 11:00-22:00, Su 11:00-15:00",
      "website": "https://tacocataugusta.com/",
      "phone": "+1-706-842-7800",
      "addr_state": "GA",
      "addr_city": "Augusta",
      "addr_postcode": "30901",
      "addr_street": "10th Street",
      "addr_housenumber": "208"
    },
    {
      "id": 224631,
      "geometry": "POINT (-81.971353 33.476988)",
      "poi_name": "Mellow Mushroom",
      "osm_id": 11090757691,
      "amenity": "restaurant",
      "opening_hours": "Mo-We 11:00-21:00, Th-Sa 11:00-22:00, Su 11:00-21:00",
      "website": "https://mellowmushroom.com/location/ga-augusta-1102-broad-st-30901/",
      "phone": "+1- 706-828-5578",
      "addr_state": "GA",
      "addr_city": "Augusta",
      "addr_postcode": "30901",
      "addr_street": "Broad Street",
      "addr_housenumber": "1102"
    },
    {
      "id": 244087,
      "geometry": "POINT (-81.270253 33.354794)",
      "poi_name": "China Kitchen",
      "osm_id": 7700148109,
      "amenity": "restaurant",
      "cuisine": "chinese",
      "opening_hours": "Mo-We 11:00-21:00; Th-Sa 11:00-22:00; Su off",
      "phone": "+1 803 284 1800",
      "addr_state": "SC",
      "addr_city": "Blackville",
      "addr_postcode": "29817",
      "addr_street": "Main Street",
      "addr_housenumber": "511"
    },
    {
      "id": 244088,
      "geometry": "POINT (-81.269838 33.354768)",
      "poi_name": "Miller's Bread Basket",
      "osm_id": 7700148110,
      "amenity": "restaurant",
      "opening_hours": "Mo off; Tu-We 11:00-14:00; Th-Sa 11:00-20:00; Su off",
      "addr_state": "SC",
      "addr_city": "Blackville",
      "addr_postcode": "29817",
      "addr_street": "Main Street",
      "addr_housenumber": "483"
    },
    {
      "id": 244091,
      "geometry": "POINT (-81.25812 33.348803)",
      "poi_name": "Low Country Crab House",
      "osm_id": 7700274206,
      "amenity": "restaurant",
      "cuisine": "seafood",
      "addr_state": "SC",
      "addr_city": "Blackville",
      "addr_postcode": "29817",
      "addr_street": "Dexter Street",
      "addr_housenumber": "2564"
    },
    {
      "id": 244249,
      "geometry": "POINT (-81.27089 33.356262)",
      "poi_name": "Sewes Unlimited",
      "osm_id": 7708817178,
      "amenity": "restaurant",
      "opening_hours": "Mo-Tu off; We 11:30-19:00; Th 11:30-20:00; Fr 11:30-21:00; Sa 12:00-18:00; Su off",
      "phone": "+1 803 508 5664",
      "addr_state": "SC",
      "addr_city": "Blackville",
      "addr_postcode": "29817",
      "addr_street": "Solomon Blatt Avenue",
      "addr_housenumber": "19391"
    }
  ],
  "answer_type": "loc",
  "question_entities": {
    "[1]": {
      "main_category": "amenity",
      "sub_category": "restaurant"
    },
    "[2]": {
      "distance": 60000,
      "text": "60 kilometers"
    },
    "[3]": {
      "main_category": "tourism",
      "sub_category": "museum",
      "display_name": "Aiken County Historical Museum, Aiken, SC",
      "geo_wkt": "POINT (-81.725285 33.554729)",
      "poi": {
        "id": 11247,
        "geometry": "POINT (-81.725285 33.554729)",
        "poi_name": "Aiken County Historical Museum",
        "osm_id": 9907902380,
        "tourism": "museum",
        "website": "https://www.aikencountymuseum.org/",
        "addr_state": "SC",
        "addr_city": "Aiken",
        "addr_postcode": "29801",
        "addr_street": "Newberry Street SW",
        "addr_housenumber": "433"
      }
    }
  },
  "id": 2037,
  "type": "range+loc"
}