{
  "question": "Where can I find a caf\u00e9 located within 190 kilometers in the direction of northwest from Denison Biological Reserve / Polly Anderson Field Station, Granville, OH?",
  "sql": "\nWITH origin AS  (SELECT ST_GeomFromText('POINT (-82.52007 40.084033)',4326)::geography AS geometry)\nSELECT * FROM pois, origin\nWHERE ST_DWithin(pois.geometry, ST_GeomFromText('POINT (-82.52007 40.084033)',4326)::geography, 190000)\nAND amenity = 'cafe'\nAND degrees(ST_Azimuth(origin.geometry, pois.geometry)) BETWEEN 292.5 AND 337.5;\n",
  "answers": [
    {
      "id": 39298,
      "geometry": "POINT (-82.52007 40.084033)",
      "poi_name": "Jazzman's",
      "osm_id": 2915335785,
      "amenity": "cafe",
      "cuisine": "coffee_shop",
      "addr_city": "Findlay",
      "addr_postcode": "45840"
    },
    {
      "id": 34284,
      "geometry": "POINT (-82.52007 40.084033)",
      "poi_name": "Wah Yuen",
      "osm_id": 2698820461,
      "amenity": "cafe",
      "cuisine": "chinese",
      "internet_access": "no",
      "addr_city": "Sunbury",
      "addr_postcode": "43074",
      "addr_street": "Vernon Street",
      "addr_housenumber": "36"
    },
    {
      "id": 39300,
      "geometry": "POINT (-82.52007 40.084033)",
      "poi_name": "Derricks",
      "osm_id": 2915339319,
      "amenity": "cafe",
      "website": "https://www.findlay.edu/offices/student/dining/Derrick's",
      "addr_city": "Findlay",
      "addr_postcode": "45840"
    },
    {
      "id": 50594,
      "geometry": "POINT (-82.52007 40.084033)",
      "poi_name": "Starbucks",
      "osm_id": 3493931123,
      "amenity": "cafe",
      "cuisine": "coffee_shop",
      "takeaway": "yes",
      "official_name": "Starbucks Coffee",
      "addr_state": "OH",
      "addr_city": "Bowling Green",
      "addr_postcode": "43402",
      "addr_street": "North Main Street"
    },
    {
      "id": 46645,
      "geometry": "POINT (-82.52007 40.084033)",
      "poi_name": "Tim Hortons",
      "osm_id": 3280929744,
      "amenity": "cafe",
      "cuisine": "coffee_shop",
      "opening_hours": "24/7",
      "internet_access": "wlan",
      "takeaway": "yes",
      "drive_through": "yes",
      "outdoor_seating": "yes",
      "delivery": "no",
      "addr_state": "OH",
      "addr_city": "Bowling Green",
      "addr_postcode": "43402",
      "addr_street": "East Wooster Street",
      "addr_housenumber": "1508"
    },
    {
      "id": 48904,
      "geometry": "POINT (-82.52007 40.084033)",
      "poi_name": "Call of the Canyon Cafe",
      "osm_id": 3407145696,
      "amenity": "cafe",
      "cuisine": "sandwich;deli;tex-mex",
      "opening_hours": "Mo-Fr 11:00-20:30; Sa-Su 11:00-16:00",
      "website": "https://www.callofthecanyonbg.com",
      "outdoor_seating": "no",
      "addr_state": "OH",
      "addr_city": "Bowling Green",
      "addr_postcode": "43402",
      "addr_street": "North Main Street",
      "addr_housenumber": "109"
    },
    {
      "id": 70926,
      "geometry": "POINT (-82.52007 40.084033)",
      "poi_name": "Vibe Coffeehouse and Caf\u00e9",
      "osm_id": 11378394984,
      "amenity": "cafe",
      "opening_hours": "Mo-Fr 07:30-16:00, Sa 08:00-4:00",
      "website": "https://vibecoffeehouse.com/",
      "addr_state": "OH",
      "addr_city": "Lima",
      "addr_postcode": "45801",
      "addr_street": "East Market Street",
      "addr_housenumber": "311"
    },
    {
      "id": 65991,
      "geometry": "POINT (-82.52007 40.084033)",
      "poi_name": "Starbucks",
      "osm_id": 5723911585,
      "amenity": "cafe",
      "cuisine": "coffee_shop",
      "takeaway": "yes",
      "official_name": "Starbucks Coffee",
      "outdoor_seating": "yes",
      "addr_state": "OH",
      "addr_city": "Perrysburg",
      "addr_postcode": "43551",
      "addr_street": "Fremont Pike",
      "addr_housenumber": "10680"
    },
    {
      "id": 67537,
      "geometry": "POINT (-82.52007 40.084033)",
      "poi_name": "Tabby & Fidos",
      "osm_id": 11238675432,
      "amenity": "cafe",
      "website": "https://tabbyandfidos.com/",
      "addr_state": "OH",
      "addr_city": "Bowling Green",
      "addr_postcode": "43402",
      "addr_street": "North Main Street",
      "addr_housenumber": "300"
    },
    {
      "id": 85239,
      "geometry": "POINT (-82.52007 40.084033)",
      "poi_name": "Twisted Whisk Caf\u00e9",
      "osm_id": 1850899911,
      "amenity": "cafe",
      "cuisine": "coffee_shop",
      "opening_hours": "Mo-Sa 07:00-19:00; PH closed",
      "website": "https://www.twistedwhiskcafe.com/",
      "phone": "+1 419 358 9622",
      "addr_state": "OH",
      "addr_city": "Bluffton",
      "addr_postcode": "45817",
      "addr_street": "South Main Street",
      "addr_housenumber": "101"
    },
    {
      "id": 109849,
      "geometry": "POINT (-82.52007 40.084033)",
      "poi_name": "We Serve Coffee",
      "osm_id": 3676862800,
      "amenity": "cafe",
      "cuisine": "coffee_shop",
      "internet_access": "wlan",
      "phone": "+1-567-525-4680",
      "outdoor_seating": "yes",
      "addr_state": "OH",
      "addr_city": "Findlay",
      "addr_postcode": "45840",
      "addr_street": "East Sandusky Street",
      "addr_housenumber": "114"
    },
    {
      "id": 115332,
      "geometry": "POINT (-82.52007 40.084033)",
      "poi_name": "Starbucks",
      "osm_id": 8889320848,
      "amenity": "cafe",
      "cuisine": "coffee_shop",
      "takeaway": "yes",
      "official_name": "Starbucks Coffee",
      "addr_state": "OH",
      "addr_city": "Findlay",
      "addr_postcode": "45840",
      "addr_street": "Tiffin Avenue",
      "addr_housenumber": "1819"
    },
    {
      "id": 107062,
      "geometry": "POINT (-82.52007 40.084033)",
      "poi_name": "Starbucks",
      "osm_id": 3533813597,
      "amenity": "cafe",
      "cuisine": "coffee_shop",
      "internet_access": "wlan",
      "takeaway": "yes",
      "official_name": "Starbucks Coffee",
      "outdoor_seating": "summer",
      "addr_state": "OH",
      "addr_city": "Perrysburg",
      "addr_postcode": "43551",
      "addr_street": "Levis Commons Boulevard",
      "addr_housenumber": "3145"
    },
    {
      "id": 123526,
      "geometry": "POINT (-82.52007 40.084033)",
      "poi_name": "The Coffee Vault",
      "osm_id": 6860198566,
      "amenity": "cafe",
      "cuisine": "coffee",
      "addr_state": "OH",
      "addr_city": "Galena",
      "addr_postcode": "43021",
      "addr_street": "West Columbus Street",
      "addr_housenumber": "9"
    },
    {
      "id": 125345,
      "geometry": "POINT (-82.52007 40.084033)",
      "poi_name": "Baliwicks Coffee Company",
      "osm_id": 6956499772,
      "amenity": "cafe",
      "cuisine": "coffee_shop",
      "internet_access": "wlan",
      "outdoor_seating": "no",
      "addr_state": "OH",
      "addr_city": "Tiffin",
      "addr_housenumber": "62"
    },
    {
      "id": 144944,
      "geometry": "POINT (-82.52007 40.084033)",
      "poi_name": "Juniper Brewing Company",
      "osm_id": 7295886030,
      "amenity": "cafe",
      "cuisine": "coffee_shop",
      "phone": "+1-419-575-0165",
      "outdoor_seating": "yes",
      "addr_state": "OH",
      "addr_city": "Bowling Green",
      "addr_postcode": "43402",
      "addr_street": "South Main Street",
      "addr_housenumber": "145"
    },
    {
      "id": 143931,
      "geometry": "POINT (-82.52007 40.084033)",
      "poi_name": "The Wildcat Cafe",
      "osm_id": 6356542556,
      "amenity": "cafe",
      "opening_hours": "06:00-20:00",
      "phone": "+1-419-387-7095",
      "outdoor_seating": "no",
      "addr_state": "OH",
      "addr_city": "Vanlue",
      "addr_postcode": "45890"
    },
    {
      "id": 154328,
      "geometry": "POINT (-82.52007 40.084033)",
      "poi_name": "Tim Hortons",
      "osm_id": 4232937984,
      "amenity": "cafe",
      "cuisine": "coffee_shop",
      "opening_hours": "24/7",
      "internet_access": "wlan",
      "takeaway": "yes",
      "drive_through": "yes",
      "addr_state": "OH",
      "addr_city": "Findlay",
      "addr_postcode": "45840",
      "addr_street": "Tiffin Avenue",
      "addr_housenumber": "1200"
    },
    {
      "id": 151786,
      "geometry": "POINT (-82.52007 40.084033)",
      "poi_name": "Tim Hortons",
      "osm_id": 4113383748,
      "amenity": "cafe",
      "cuisine": "coffee_shop",
      "website": "https://www.timhortons.com/",
      "internet_access": "yes",
      "phone": "+1-419-872-2224",
      "takeaway": "yes",
      "addr_state": "OH",
      "addr_city": "Perrysburg",
      "addr_postcode": "43551",
      "addr_street": "Fremont Pike",
      "addr_housenumber": "10711"
    },
    {
      "id": 154337,
      "geometry": "POINT (-82.52007 40.084033)",
      "poi_name": "Coffee Amici",
      "osm_id": 4233033082,
      "amenity": "cafe",
      "cuisine": "coffee_shop",
      "website": "https://www.coffeeamici.com/",
      "internet_access": "wlan",
      "addr_state": "OH",
      "addr_city": "Findlay",
      "addr_postcode": "45840",
      "addr_street": "South Main Street",
      "addr_housenumber": "328"
    },
    {
      "id": 208674,
      "geometry": "POINT (-82.52007 40.084033)",
      "poi_name": "Everyday People Cafe",
      "osm_id": 5000734476,
      "amenity": "cafe",
      "opening_hours": "Tu-Su 06:00-15:00",
      "phone": "+1-419-363-0136",
      "outdoor_seating": "yes",
      "addr_state": "OH",
      "addr_city": "Bowling Green",
      "addr_postcode": "43402",
      "addr_street": "South Main Street",
      "addr_housenumber": "309"
    },
    {
      "id": 157924,
      "geometry": "POINT (-82.52007 40.084033)",
      "poi_name": "Sames & Cook",
      "osm_id": 4729300461,
      "amenity": "cafe",
      "opening_hours": "Mo-Fr 06:00-16:00; Sa 08:00-14:00",
      "website": "https://www.mkt.com/samesandcookcoffee",
      "phone": "+1-419-947-9694",
      "addr_state": "OH",
      "addr_city": "Mount Gilead",
      "addr_postcode": "43338",
      "addr_street": "South Main Street",
      "addr_housenumber": "33"
    },
    {
      "id": 188645,
      "geometry": "POINT (-82.52007 40.084033)",
      "poi_name": "Grounds for Thought",
      "osm_id": 1171410089,
      "amenity": "cafe",
      "cuisine": "coffee_shop;sandwich",
      "description": "A local cafe and used bookstore.",
      "website": "https://www.groundsforthought.com/",
      "shop": "books",
      "internet_access": "wlan",
      "phone": "+1-419-354-3266",
      "outdoor_seating": "yes",
      "addr_state": "OH",
      "addr_city": "Bowling Green",
      "addr_postcode": "43402",
      "addr_street": "South Main Street",
      "addr_housenumber": "174"
    },
    {
      "id": 174311,
      "geometry": "POINT (-82.52007 40.084033)",
      "poi_name": "Caribou Coffee",
      "osm_id": 2475712692,
      "amenity": "cafe",
      "cuisine": "coffee_shop",
      "opening_hours": "Mo-Su 07:00-19:00",
      "website": "https://locations.cariboucoffee.com/us/oh/findlay/2021-broad-avenue",
      "internet_access": "wlan",
      "phone": "+1-419-422-9521",
      "takeaway": "yes",
      "addr_state": "OH",
      "addr_city": "Findlay",
      "addr_postcode": "45840",
      "addr_street": "Broad Avenue",
      "addr_housenumber": "2021"
    },
    {
      "id": 228870,
      "geometry": "POINT (-82.52007 40.084033)",
      "poi_name": "Phat Cakes & Cafe",
      "osm_id": 4358259716,
      "amenity": "cafe",
      "cuisine": "dessert",
      "outdoor_seating": "no",
      "addr_state": "OH",
      "addr_city": "Tiffin",
      "addr_street": "South Washington Street",
      "addr_housenumber": "45"
    },
    {
      "id": 243276,
      "geometry": "POINT (-82.52007 40.084033)",
      "poi_name": "The Baker's Cafe",
      "osm_id": 7637126394,
      "amenity": "cafe",
      "cuisine": "sandwich;coffee_shop;dessert",
      "opening_hours": "Mo-We 07:00-16:00; Th-Fr 07:00-21:00; Sa 08:00-21:00",
      "phone": "+1-419-422-7133",
      "outdoor_seating": "yes",
      "addr_state": "OH",
      "addr_city": "Findlay",
      "addr_postcode": "45840",
      "addr_street": "South Main Street",
      "addr_housenumber": "408"
    }
  ],
  "answer_type": "loc",
  "question_entities": {
    "[1]": {
      "main_category": "amenity",
      "sub_category": "cafe"
    },
    "[2]": {
      "distance": 190000,
      "text": "190 kilometers"
    },
    "[3]": {
      "main_category": "leisure",
      "sub_category": "nature reserve",
      "display_name": "Denison Biological Reserve / Polly Anderson Field Station, Granville, OH",
      "geo_wkt": "POINT (-82.52007 40.084033)",
      "poi": {
        "id": 246339,
        "geometry": "POINT (-82.52007 40.084033)",
        "poi_name": "Denison Biological Reserve / Polly Anderson Field Station",
        "osm_id": 11329562516,
        "leisure": "nature_reserve",
        "addr_state": "OH",
        "addr_city": "Granville",
        "addr_postcode": "43023",
        "addr_street": "North Street",
        "addr_housenumber": "1760"
      }
    },
    "[4]": {
      "direction_desc": "northwest",
      "direction_predicate": "degrees(ST_Azimuth(origin.geometry, pois.geometry)) BETWEEN 292.5 AND 337.5"
    }
  },
  "id": 36,
  "type": "range:direction+loc"
}