{
  "question": "Where can I find caf\u00e9 as you head towards Hudson Gateway Place LLC, San Jose, CA from the View Lounge, San Francisco, CA, within a radius of 80 kilometers?",
  "sql": "WITH\n    angle AS (SELECT degrees(ST_Azimuth(ST_GeomFromText('POINT (-122.404326 37.785414)',4326)::geography, ST_GeomFromText('POINT (-121.923427 37.369617)',4326)::geography)) AS value)\nSELECT * FROM pois,angle\nWHERE amenity = 'cafe'\nAND ST_DWithin(pois.geometry, ST_GeomFromText('POINT (-122.404326 37.785414)',4326)::geography, 80000)\nAND (degrees(ST_Azimuth(ST_GeomFromText('POINT (-122.404326 37.785414)',4326)::geography, pois.geometry)) BETWEEN angle.value - 22.5 AND angle.value + 22.5);\n",
  "answers": [
    {
      "id": 27606,
      "geometry": "POINT (-121.932656 37.344405)",
      "poi_name": "Starbucks",
      "osm_id": 439234263,
      "amenity": "cafe",
      "cuisine": "coffee_shop",
      "internet_access": "yes",
      "takeaway": "yes",
      "official_name": "Starbucks Coffee",
      "addr_state": "CA",
      "addr_city": "Santa Clara",
      "addr_postcode": "95050",
      "addr_street": "The Alameda",
      "addr_housenumber": "2221",
      "value": 137.22367085887103
    },
    {
      "id": 27927,
      "geometry": "POINT (-121.873013 37.373201)",
      "poi_name": "Starbucks",
      "osm_id": 459380662,
      "amenity": "cafe",
      "cuisine": "coffee_shop",
      "takeaway": "yes",
      "official_name": "Starbucks Coffee",
      "addr_state": "CA",
      "addr_city": "San Jose",
      "addr_postcode": "95133",
      "addr_street": "Berryessa Road",
      "addr_housenumber": "1712",
      "value": 137.22367085887103
    },
    {
      "id": 28496,
      "geometry": "POINT (-122.12964 37.433955)",
      "poi_name": "Palo Alto Cafe",
      "osm_id": 486624281,
      "amenity": "cafe",
      "opening_hours": "06:30-17:00",
      "website": "https://paloaltoroastingco.com/",
      "phone": "(650) 322-8644",
      "addr_state": "CA",
      "addr_city": "Palo Alto",
      "addr_postcode": "94306",
      "addr_street": "Middlefield Road",
      "addr_housenumber": "2675",
      "value": 137.22367085887103
    },
    {
      "id": 28505,
      "geometry": "POINT (-122.030355 37.38835)",
      "poi_name": "Starbucks",
      "osm_id": 487082165,
      "amenity": "cafe",
      "cuisine": "coffee_shop",
      "operator": "Starbucks",
      "takeaway": "yes",
      "official_name": "Starbucks Coffee",
      "addr_state": "CA",
      "addr_city": "Sunnyvale",
      "addr_postcode": "94085",
      "addr_street": "North Mathilda Avenue",
      "addr_housenumber": "460",
      "value": 137.22367085887103
    },
    {
      "id": 28565,
      "geometry": "POINT (-121.92369 37.398105)",
      "poi_name": "Starbucks",
      "osm_id": 491864092,
      "amenity": "cafe",
      "cuisine": "coffee_shop",
      "internet_access": "wlan",
      "takeaway": "yes",
      "official_name": "Starbucks Coffee",
      "addr_city": "San Jose",
      "addr_postcode": "95134",
      "addr_street": "River Oaks Parkway",
      "addr_housenumber": "670",
      "value": 137.22367085887103
    },
    {
      "id": 29999,
      "geometry": "POINT (-121.875896 37.416129)",
      "poi_name": "Donut Basket",
      "osm_id": 8332523274,
      "amenity": "cafe",
      "cuisine": "donut",
      "description": "donuts, bagels, croissant and coffee",
      "wheelchair": "yes",
      "opening_hours": "Mo-Sa 05:00-15:00; Su 05:00-13:00",
      "takeaway": "yes",
      "addr_state": "CA",
      "addr_city": "Milpitas",
      "addr_postcode": "95035",
      "addr_street": "Landess Avenue",
      "addr_housenumber": "1559",
      "value": 137.22367085887103
    },
    {
      "id": 30000,
      "geometry": "POINT (-121.877086 37.41654)",
      "poi_name": "Tea Zen Tea",
      "osm_id": 8332523277,
      "amenity": "cafe",
      "cuisine": "bubble_tea",
      "wheelchair": "yes",
      "opening_hours": "Mo-Su 11:00-23:00",
      "takeaway": "yes",
      "outdoor_seating": "yes",
      "toilets": "yes",
      "addr_state": "CA",
      "addr_city": "Milpitas",
      "addr_postcode": "95035",
      "addr_street": "Landess Avenue",
      "addr_housenumber": "1535",
      "value": 137.22367085887103
    },
    {
      "id": 30001,
      "geometry": "POINT (-121.876482 37.416652)",
      "poi_name": "Aroma Coffee & Snacks",
      "osm_id": 8332523283,
      "amenity": "cafe",
      "addr_state": "CA",
      "addr_city": "Milpitas",
      "addr_postcode": "95035",
      "addr_street": "Landess Avenue",
      "addr_housenumber": "1535",
      "value": 137.22367085887103
    },
    {
      "id": 30364,
      "geometry": "POINT (-121.833612 37.316103)",
      "poi_name": "Urban Tea Cafe",
      "osm_id": 8355533283,
      "amenity": "cafe",
      "cuisine": "bubble_tea",
      "addr_state": "CA",
      "addr_city": "San Jose",
      "addr_postcode": "95122",
      "addr_street": "Tully Road",
      "addr_housenumber": "1310",
      "value": 137.22367085887103
    },
    {
      "id": 30388,
      "geometry": "POINT (-121.88333 37.434368)",
      "poi_name": "Omega Coffee Shop",
      "osm_id": 8356250193,
      "amenity": "cafe",
      "cuisine": "coffee_shop",
      "opening_hours": "Mo-Su 07:00-20:00",
      "official_name": "Omega Family Restaurant & Lounge",
      "addr_state": "CA",
      "addr_city": "Milpitas",
      "addr_postcode": "95035",
      "addr_street": "South Park Victoria Drive",
      "addr_housenumber": "90",
      "value": 137.22367085887103
    },
    {
      "id": 30407,
      "geometry": "POINT (-121.85726 37.331155)",
      "poi_name": "Teahee",
      "osm_id": 8356897635,
      "amenity": "cafe",
      "cuisine": "bubble_tea",
      "addr_state": "CA",
      "addr_city": "San Jose",
      "addr_postcode": "95122",
      "addr_street": "Story Road",
      "addr_housenumber": "979",
      "value": 137.22367085887103
    },
    {
      "id": 30409,
      "geometry": "POINT (-121.857608 37.332512)",
      "poi_name": "Tea Lyfe Drinks",
      "osm_id": 8356930858,
      "amenity": "cafe",
      "cuisine": "bubble_tea",
      "website": "http://tealyfe.us/",
      "addr_state": "CA",
      "addr_city": "San Jose",
      "addr_postcode": "95122",
      "addr_street": "Story Road",
      "addr_housenumber": "989",
      "value": 137.22367085887103
    },
    {
      "id": 30410,
      "geometry": "POINT (-121.8579 37.332765)",
      "poi_name": "The Sweet Corner Cafe",
      "osm_id": 8356930859,
      "amenity": "cafe",
      "cuisine": "bubble_tea",
      "addr_state": "CA",
      "addr_city": "San Jose",
      "addr_postcode": "95122",
      "addr_street": "Story Road",
      "addr_housenumber": "989",
      "value": 137.22367085887103
    },
    {
      "id": 30490,
      "geometry": "POINT (-121.809993 37.310452)",
      "poi_name": "Krazy Churros",
      "osm_id": 8362804606,
      "amenity": "cafe",
      "cuisine": "mexican;tea;dessert",
      "addr_state": "CA",
      "addr_city": "San Jose",
      "addr_postcode": "95121",
      "addr_street": "East Capitol Expressway",
      "addr_housenumber": "1807",
      "value": 137.22367085887103
    },
    {
      "id": 30498,
      "geometry": "POINT (-121.99703 37.293096)",
      "poi_name": "Happy Lemon",
      "osm_id": 8362968187,
      "amenity": "cafe",
      "cuisine": "bubble_tea",
      "takeaway": "yes",
      "addr_state": "CA",
      "addr_city": "San Jose",
      "addr_postcode": "95129",
      "addr_street": "Prospect Road",
      "addr_housenumber": "5379",
      "value": 137.22367085887103
    },
    {
      "id": 30502,
      "geometry": "POINT (-121.864645 37.303034)",
      "poi_name": "Tapioca Express",
      "osm_id": 8363056266,
      "amenity": "cafe",
      "cuisine": "bubble_tea",
      "takeaway": "yes",
      "addr_state": "CA",
      "addr_city": "San Jose",
      "addr_postcode": "95125",
      "addr_street": "Curtner Avenue",
      "addr_housenumber": "81",
      "value": 137.22367085887103
    },
    {
      "id": 30511,
      "geometry": "POINT (-121.864252 37.302047)",
      "poi_name": "Starbucks",
      "osm_id": 8363056280,
      "amenity": "cafe",
      "cuisine": "coffee_shop",
      "takeaway": "yes",
      "official_name": "Starbucks Coffee",
      "addr_state": "CA",
      "addr_city": "San Jose",
      "addr_postcode": "95125",
      "addr_street": "Curtner Avenue",
      "addr_housenumber": "101",
      "value": 137.22367085887103
    },
    {
      "id": 30593,
      "geometry": "POINT (-121.850627 37.274072)",
      "poi_name": "Kay\u2019s Tea House",
      "osm_id": 8369779481,
      "amenity": "cafe",
      "cuisine": "bubble_tea",
      "addr_state": "CA",
      "addr_city": "San Jose",
      "addr_postcode": "95136",
      "addr_street": "West Capitol Expressway",
      "addr_housenumber": "422",
      "value": 137.22367085887103
    },
    {
      "id": 30671,
      "geometry": "POINT (-121.978247 37.315285)",
      "poi_name": "Teaspoon",
      "osm_id": 8373614862,
      "amenity": "cafe",
      "cuisine": "bubble_tea",
      "wheelchair": "yes",
      "opening_hours": "Mo-Su 11:00-23:00",
      "website": "https://www.teaspoonlife.com/",
      "phone": "+1 408 2169794",
      "outdoor_seating": "yes",
      "addr_state": "CA",
      "addr_city": "San Jose",
      "addr_postcode": "95129",
      "addr_street": "Moorpark Avenue",
      "addr_housenumber": "4328",
      "value": 137.22367085887103
    },
    {
      "id": 30714,
      "geometry": "POINT (-121.908771 37.252748)",
      "poi_name": "Big E Cafe",
      "osm_id": 8377042752,
      "amenity": "cafe",
      "addr_state": "CA",
      "addr_city": "San Jose",
      "addr_postcode": "95118",
      "addr_street": "Branham Lane",
      "addr_housenumber": "1683",
      "value": 137.22367085887103
    },
    {
      "id": 30843,
      "geometry": "POINT (-121.974861 37.31974)",
      "poi_name": "Kung Fu Tea",
      "osm_id": 8388606979,
      "amenity": "cafe",
      "cuisine": "bubble_tea",
      "wheelchair": "yes",
      "opening_hours": "11:00-20:30",
      "website": "https://www.kungfutea.com/",
      "takeaway": "yes",
      "outdoor_seating": "no",
      "addr_state": "CA",
      "addr_city": "San Jose",
      "addr_postcode": "95129",
      "addr_street": "Saratoga Avenue",
      "addr_housenumber": "457",
      "value": 137.22367085887103
    },
    {
      "id": 30870,
      "geometry": "POINT (-121.855479 37.353402)",
      "poi_name": "Oddi's Cafe",
      "osm_id": 8391841811,
      "amenity": "cafe",
      "opening_hours": "Mo-Su 7:00-14:00",
      "phone": "4084757510",
      "delivery": "yes",
      "addr_state": "CA",
      "addr_city": "San Jose",
      "addr_postcode": "95116",
      "addr_street": "Alum Rock Avenue",
      "addr_housenumber": "1737",
      "value": 137.22367085887103
    },
    {
      "id": 30878,
      "geometry": "POINT (-121.851529 37.275198)",
      "poi_name": "Tastea Communications Hill",
      "osm_id": 8391972932,
      "amenity": "cafe",
      "cuisine": "bubble_tea",
      "operator": "Bay Area Tea 3",
      "addr_state": "CA",
      "addr_city": "San Jose",
      "addr_postcode": "95136",
      "addr_street": "West Capitol Expressway",
      "addr_housenumber": "509",
      "value": 137.22367085887103
    },
    {
      "id": 31134,
      "geometry": "POINT (-121.875737 37.413453)",
      "poi_name": "Hotspot Cafe",
      "osm_id": 8405938002,
      "amenity": "cafe",
      "wheelchair": "yes",
      "operator": "HS Deli Investment Corp",
      "addr_state": "CA",
      "addr_city": "San Jose",
      "addr_postcode": "95132",
      "addr_street": "Morrill Avenue",
      "addr_housenumber": "2133",
      "value": 137.22367085887103
    },
    {
      "id": 31138,
      "geometry": "POINT (-121.856965 37.249654)",
      "poi_name": "Main St. Bagels",
      "osm_id": 8406188259,
      "amenity": "cafe",
      "cuisine": "bagel",
      "addr_state": "CA",
      "addr_city": "San Jose",
      "addr_postcode": "95123",
      "addr_street": "Blossom Hill Road",
      "addr_housenumber": "838",
      "value": 137.22367085887103
    },
    {
      "id": 31461,
      "geometry": "POINT (-121.855855 37.330278)",
      "poi_name": "Lucky Tea",
      "osm_id": 8424083721,
      "amenity": "cafe",
      "cuisine": "bubble_tea",
      "official_name": "Lucky Tea 1 LLC",
      "addr_state": "CA",
      "addr_city": "San Jose",
      "addr_postcode": "95122",
      "addr_street": "Story Road",
      "addr_housenumber": "956",
      "value": 137.22367085887103
    },
    {
      "id": 31698,
      "geometry": "POINT (-121.824252 37.323128)",
      "poi_name": "Jazen Tea",
      "osm_id": 8442146835,
      "amenity": "cafe",
      "cuisine": "bubble_tea",
      "operator": "Aureflam Corporation",
      "takeaway": "yes",
      "addr_state": "CA",
      "addr_city": "San Jose",
      "addr_postcode": "95122",
      "addr_street": "Tully Road",
      "addr_housenumber": "1834",
      "value": 137.22367085887103
    },
    {
      "id": 32044,
      "geometry": "POINT (-122.097698 37.361179)",
      "poi_name": "Main Street Bagels",
      "osm_id": 2619982674,
      "amenity": "cafe",
      "cuisine": "bagel",
      "addr_state": "CA",
      "addr_city": "Los Altos",
      "addr_housenumber": "666",
      "value": 137.22367085887103
    },
    {
      "id": 32047,
      "geometry": "POINT (-122.114717 37.379546)",
      "poi_name": "Red Berry Coffee Bar",
      "osm_id": 2619982697,
      "amenity": "cafe",
      "website": "http://www.redberrycoffeebar.com/",
      "phone": "4088363711",
      "addr_city": "Los Altos",
      "addr_street": "Main Street",
      "addr_housenumber": "145",
      "value": 137.22367085887103
    },
    {
      "id": 32048,
      "geometry": "POINT (-122.097988 37.361387)",
      "poi_name": "Starbucks",
      "osm_id": 2619982709,
      "amenity": "cafe",
      "cuisine": "coffee_shop",
      "wheelchair": "yes",
      "internet_access": "yes",
      "phone": "+1-650-917-1359",
      "takeaway": "yes",
      "official_name": "Starbucks Coffee",
      "outdoor_seating": "yes",
      "addr_state": "CA",
      "addr_city": "Los Altos",
      "addr_postcode": "94024",
      "addr_street": "Fremont Avenue",
      "addr_housenumber": "654",
      "value": 137.22367085887103
    },
    {
      "id": 32067,
      "geometry": "POINT (-122.183575 37.453041)",
      "poi_name": "Menlo Cafe",
      "osm_id": 2620593452,
      "amenity": "cafe",
      "cuisine": "coffee",
      "outdoor_seating": "yes",
      "addr_state": "CA",
      "addr_city": "Menlo Park",
      "addr_postcode": "94025",
      "addr_street": "Santa Cruz Avenue",
      "addr_housenumber": "620",
      "value": 137.22367085887103
    },
    {
      "id": 32517,
      "geometry": "POINT (-122.181678 37.452494)",
      "poi_name": "Tea it Up",
      "osm_id": 2628201850,
      "amenity": "cafe",
      "cuisine": "bubble_tea",
      "wheelchair": "yes",
      "opening_hours": "Mo-Su 12:00-20:00",
      "website": "https://teaitup.net/",
      "phone": "+16503132138",
      "outdoor_seating": "yes",
      "addr_state": "CA",
      "addr_city": "Menlo Park",
      "addr_postcode": "94025",
      "addr_street": "El Camino Real",
      "addr_housenumber": "993",
      "value": 137.22367085887103
    },
    {
      "id": 32579,
      "geometry": "POINT (-122.184911 37.45141)",
      "poi_name": "Bagel Street Cafe",
      "osm_id": 2629382155,
      "amenity": "cafe",
      "outdoor_seating": "yes",
      "addr_state": "CA",
      "addr_city": "Menlo Park",
      "addr_postcode": "94025",
      "addr_street": "Santa Cruz Avenue",
      "addr_housenumber": "746",
      "value": 137.22367085887103
    },
    {
      "id": 32783,
      "geometry": "POINT (-122.144818 37.424264)",
      "poi_name": "Fambrini's Cafe",
      "osm_id": 2637875969,
      "amenity": "cafe",
      "opening_hours": "Mo-Fr 09:30-15:00; Sa-Su 10:30-15:00",
      "addr_state": "CA",
      "addr_city": "Palo Alto",
      "addr_postcode": "94306",
      "addr_street": "El Camino Real",
      "addr_housenumber": "2500",
      "value": 137.22367085887103
    },
    {
      "id": 32921,
      "geometry": "POINT (-122.114646 37.379835)",
      "poi_name": "T4 - Tea For U",
      "osm_id": 2641692571,
      "amenity": "cafe",
      "cuisine": "bubble_tea",
      "addr_city": "Los Altos",
      "addr_street": "Main Street",
      "value": 137.22367085887103
    },
    {
      "id": 33058,
      "geometry": "POINT (-122.223267 37.486886)",
      "poi_name": "Taza",
      "osm_id": 2650152867,
      "amenity": "cafe",
      "opening_hours": "Mo-Fr 09:00-16:00",
      "addr_city": "Redwood City",
      "addr_street": "Broadway",
      "addr_housenumber": "1796",
      "value": 137.22367085887103
    },
    {
      "id": 33170,
      "geometry": "POINT (-121.89428 37.336737)",
      "poi_name": "Voyager Craft Coffee",
      "osm_id": 2654920989,
      "amenity": "cafe",
      "cuisine": "coffee_shop",
      "internet_access": "wlan",
      "addr_city": "San Jose",
      "addr_postcode": "95110",
      "addr_street": "North San Pedro Street",
      "addr_housenumber": "87",
      "value": 137.22367085887103
    },
    {
      "id": 33478,
      "geometry": "POINT (-121.900355 37.307762)",
      "poi_name": "Peet's Coffee",
      "osm_id": 2669556285,
      "amenity": "cafe",
      "cuisine": "coffee_shop",
      "opening_hours": "Mo-Sa 05:00-21:00; Su 06:00-21:00",
      "website": "https://www.peets.com/",
      "phone": "408-975-9281",
      "takeaway": "yes",
      "addr_state": "CA",
      "addr_city": "San Jose",
      "addr_postcode": "95125",
      "addr_street": "Lincoln Avenue",
      "addr_housenumber": "1140",
      "value": 137.22367085887103
    },
    {
      "id": 34177,
      "geometry": "POINT (-122.122955 37.429603)",
      "poi_name": "Bill's Cafe",
      "osm_id": 2697101133,
      "amenity": "cafe",
      "cuisine": "breakfast;lunch",
      "opening_hours": "Mo-Fr 07:00-14:00; Sa-Su 07:00-15:00",
      "website": "https://www.billscafe.com/",
      "phone": "(650) 665-7941",
      "addr_state": "CA",
      "addr_city": "Palo Alto",
      "addr_postcode": "94306",
      "addr_street": "Middlefield Road",
      "addr_housenumber": "3163",
      "value": 137.22367085887103
    },
    {
      "id": 34439,
      "geometry": "POINT (-121.830945 37.238123)",
      "poi_name": "Starbucks",
      "osm_id": 2699785002,
      "amenity": "cafe",
      "cuisine": "coffee_shop",
      "internet_access": "yes",
      "takeaway": "yes",
      "official_name": "Starbucks Coffee",
      "addr_city": "San Jose",
      "addr_postcode": "95123",
      "addr_street": "Snell Avenue",
      "addr_housenumber": "6009",
      "value": 137.22367085887103
    },
    {
      "id": 35664,
      "geometry": "POINT (-122.019983 37.589494)",
      "poi_name": "Mr Green Bubble",
      "osm_id": 2727635704,
      "amenity": "cafe",
      "cuisine": "taiwanese;bubble_tea",
      "opening_hours": "Mo-Su 11:00-20:00",
      "outdoor_seating": "yes",
      "addr_state": "CA",
      "addr_city": "Union City",
      "addr_postcode": "94587",
      "addr_street": "Decoto Road",
      "addr_housenumber": "1644",
      "value": 137.22367085887103
    },
    {
      "id": 36302,
      "geometry": "POINT (-122.014727 37.3372)",
      "poi_name": "7Leaves",
      "osm_id": 2760019613,
      "amenity": "cafe",
      "website": "https://7leavescafe.com/locations#san-jose",
      "phone": "+1-408-982-3534",
      "addr_state": "CA",
      "addr_city": "Cupertino",
      "addr_postcode": "95014",
      "addr_street": "Wolfe Road",
      "addr_housenumber": "1111",
      "value": 137.22367085887103
    },
    {
      "id": 37476,
      "geometry": "POINT (-122.031439 37.31823)",
      "poi_name": "Bitter+Sweet",
      "osm_id": 2814548826,
      "amenity": "cafe",
      "cuisine": "coffee_shop",
      "wheelchair": "yes",
      "opening_hours": "07:30 - 22:00",
      "operator": "Barista Dan Incorporated",
      "internet_access": "yes",
      "outdoor_seating": "yes",
      "addr_state": "CA",
      "addr_city": "Cupertino",
      "addr_postcode": "95014",
      "addr_street": "Town Center Lane",
      "addr_housenumber": "20560",
      "value": 137.22367085887103
    },
    {
      "id": 37481,
      "geometry": "POINT (-122.391332 37.77878)",
      "poi_name": "Bravado",
      "osm_id": 2815191083,
      "amenity": "cafe",
      "cuisine": "coffee_shop",
      "opening_hours": "Mo-Fr 07:00-18:00; Sa-Su 11:00-15:00",
      "website": "https://www.bravadolounge.com/",
      "internet_access": "wlan",
      "phone": "+1 415-957-1100",
      "addr_state": "CA",
      "addr_city": "San Francisco",
      "addr_postcode": "94107",
      "addr_street": "King Street",
      "addr_housenumber": "170",
      "value": 137.22367085887103
    },
    {
      "id": 37591,
      "geometry": "POINT (-121.947974 37.511294)",
      "poi_name": "Starbucks",
      "osm_id": 2821996498,
      "amenity": "cafe",
      "cuisine": "coffee_shop",
      "opening_hours": "Mo-Th 03:30-19:00; Fr 04:00-19:00; Sa,Su 04:30-19:00",
      "takeaway": "yes",
      "official_name": "Starbucks Coffee",
      "addr_state": "CA",
      "addr_city": "Fremont",
      "addr_postcode": "94538",
      "addr_street": "Hugo Terrace",
      "addr_housenumber": "43941",
      "value": 137.22367085887103
    },
    {
      "id": 39130,
      "geometry": "POINT (-121.947581 37.322726)",
      "poi_name": "Lavazza Espression",
      "osm_id": 2904987063,
      "amenity": "cafe",
      "addr_city": "San Jose",
      "addr_postcode": "95128",
      "addr_street": "Santana Row",
      "addr_housenumber": "300",
      "value": 137.22367085887103
    },
    {
      "id": 39259,
      "geometry": "POINT (-121.920415 37.369065)",
      "poi_name": "Bagel Street Cafe",
      "osm_id": 2912323903,
      "amenity": "cafe",
      "cuisine": "sandwich",
      "addr_city": "San Jose",
      "addr_postcode": "95110",
      "addr_street": "Technology Drive",
      "addr_housenumber": "1757",
      "value": 137.22367085887103
    },
    {
      "id": 41055,
      "geometry": "POINT (-121.976312 37.504352)",
      "poi_name": "Pure Yum",
      "osm_id": 2993278980,
      "amenity": "cafe",
      "addr_city": "Fremont",
      "addr_postcode": "94538",
      "addr_street": "Auto Mall Parkway",
      "addr_housenumber": "5625",
      "value": 137.22367085887103
    },
    {
      "id": 42722,
      "geometry": "POINT (-121.884632 37.386457)",
      "poi_name": "Bambu",
      "osm_id": 3075986785,
      "amenity": "cafe",
      "cuisine": "vietnamese;bubble_tea",
      "wheelchair": "limited",
      "opening_hours": "Tu-Su 09:00-20:00",
      "website": "https://www.drinkbambu.com/",
      "internet_access": "wlan",
      "phone": "+14083928238",
      "takeaway": "yes",
      "official_name": "Bambu Coffee & Snacks",
      "outdoor_seating": "no",
      "delivery": "yes",
      "addr_state": "CA",
      "addr_city": "San Jose",
      "addr_postcode": "95131",
      "addr_street": "Hostetter Road",
      "addr_housenumber": "1688",
      "value": 137.22367085887103
    },
    {
      "id": 43957,
      "geometry": "POINT (-121.966121 37.328337)",
      "poi_name": "Starbucks",
      "osm_id": 3137935929,
      "amenity": "cafe",
      "cuisine": "coffee_shop",
      "opening_hours": "Mo-Su 04:30-21:00",
      "operator": "Starbucks Coffee Company",
      "takeaway": "yes",
      "official_name": "Starbucks Coffee",
      "addr_state": "CA",
      "addr_city": "Santa Clara",
      "addr_postcode": "95129",
      "addr_street": "Saratoga Avenue",
      "addr_housenumber": "200",
      "value": 137.22367085887103
    },
    {
      "id": 44532,
      "geometry": "POINT (-121.978358 37.576516)",
      "poi_name": "The Nile",
      "osm_id": 3163629767,
      "amenity": "cafe",
      "cuisine": "american",
      "opening_hours": "Mo-Th 08:00-19:00; Fr-Sa 08:00-21:00; Su 08:00-20:00",
      "addr_city": "Fremont",
      "addr_postcode": "94536",
      "addr_street": "I Street",
      "addr_housenumber": "121",
      "value": 137.22367085887103
    },
    {
      "id": 44234,
      "geometry": "POINT (-121.88499 37.333635)",
      "poi_name": "Philz Coffee",
      "osm_id": 3151883654,
      "amenity": "cafe",
      "cuisine": "coffee_shop",
      "takeaway": "yes",
      "addr_state": "CA",
      "addr_city": "San Jose",
      "addr_postcode": "95112",
      "addr_street": "Paseo De San Antonio",
      "addr_housenumber": "118",
      "value": 137.22367085887103
    },
    {
      "id": 45216,
      "geometry": "POINT (-122.057076 37.399385)",
      "poi_name": "Halftime Cafe",
      "osm_id": 3195064061,
      "amenity": "cafe",
      "opening_hours": "11:00 - 19:00",
      "internet_access": "wlan",
      "addr_state": "CA",
      "addr_city": "Mountain View",
      "addr_postcode": "94043",
      "addr_street": "North Whisman Road",
      "addr_housenumber": "389",
      "value": 137.22367085887103
    },
    {
      "id": 45217,
      "geometry": "POINT (-122.055459 37.399924)",
      "poi_name": "Pausa",
      "osm_id": 3195064066,
      "amenity": "cafe",
      "opening_hours": "Mo-Fr 11:30-13:30",
      "addr_state": "CA",
      "addr_city": "Mountain View",
      "addr_postcode": "94043",
      "addr_street": "Ellis Street",
      "addr_housenumber": "468",
      "value": 137.22367085887103
    },
    {
      "id": 46094,
      "geometry": "POINT (-121.999133 37.536414)",
      "poi_name": "Paradise Biryani Pointe",
      "osm_id": 3245685019,
      "amenity": "cafe",
      "cuisine": "indian",
      "takeaway": "yes",
      "addr_state": "CA",
      "addr_city": "Fremont",
      "addr_street": "Mowry Avenue",
      "value": 137.22367085887103
    },
    {
      "id": 48269,
      "geometry": "POINT (-121.773629 37.314237)",
      "poi_name": "Evergreen Coffee Company",
      "osm_id": 3373755207,
      "amenity": "cafe",
      "cuisine": "coffee_shop",
      "internet_access": "yes",
      "addr_state": "CA",
      "addr_city": "San Jose",
      "addr_postcode": "95135",
      "addr_street": "Evergreen Village Square",
      "addr_housenumber": "4075",
      "value": 137.22367085887103
    },
    {
      "id": 47898,
      "geometry": "POINT (-122.175588 37.428326)",
      "poi_name": "Coupa Cafe",
      "osm_id": 3355037887,
      "amenity": "cafe",
      "cuisine": "coffee_shop",
      "opening_hours": "Mo-Fr 07:30-17:30",
      "internet_access": "no",
      "addr_state": "CA",
      "addr_city": "Stanford",
      "addr_postcode": "94305",
      "addr_street": "Via Ortega Drive",
      "addr_housenumber": "473",
      "value": 137.22367085887103
    },
    {
      "id": 48165,
      "geometry": "POINT (-122.031282 37.377377)",
      "poi_name": "Philz Coffee",
      "osm_id": 3369427811,
      "amenity": "cafe",
      "cuisine": "coffee_shop",
      "internet_access": "yes",
      "addr_state": "CA",
      "addr_city": "Sunnyvale",
      "addr_postcode": "94087",
      "addr_street": "South Frances Street",
      "addr_housenumber": "125",
      "value": 137.22367085887103
    },
    {
      "id": 49549,
      "geometry": "POINT (-122.000727 37.536108)",
      "poi_name": "Vienna Bakery and Cafe",
      "osm_id": 3441945893,
      "amenity": "cafe",
      "addr_state": "CA",
      "addr_city": "Fremont",
      "addr_street": "Mowry Avenue",
      "value": 137.22367085887103
    },
    {
      "id": 48850,
      "geometry": "POINT (-121.962669 37.262222)",
      "poi_name": "Purple Onion Cafe",
      "osm_id": 3403138795,
      "amenity": "cafe",
      "cuisine": "coffee_shop;sandwich;salad",
      "addr_state": "CA",
      "addr_city": "Los Gatos",
      "addr_postcode": "95030",
      "addr_street": "South Winchester Boulevard",
      "addr_housenumber": "14107",
      "value": 137.22367085887103
    },
    {
      "id": 49388,
      "geometry": "POINT (-122.032555 37.304038)",
      "poi_name": "85\u00b0C",
      "osm_id": 3429668878,
      "amenity": "cafe",
      "cuisine": "coffee_shop;chinese;bakery",
      "wheelchair": "yes",
      "opening_hours": "Mo-Sa 07:00-21:00; Su 08:00-21:00; Jan 1 09:00-21:00; Dec 31 08:00-18:00",
      "website": "https://www.85cbakerycafe.com/",
      "phone": "+1 408 252-7885",
      "takeaway": "yes",
      "drive_through": "no",
      "outdoor_seating": "patio",
      "delivery": "yes",
      "toilets": "yes",
      "addr_state": "CA",
      "addr_city": "San Jose",
      "addr_postcode": "95129",
      "addr_street": "South De Anza Boulevard",
      "addr_housenumber": "1183",
      "value": 137.22367085887103
    },
    {
      "id": 50332,
      "geometry": "POINT (-121.917748 37.340718)",
      "poi_name": "The Coffee House",
      "osm_id": 3478495324,
      "amenity": "cafe",
      "cuisine": "coffee_shop",
      "addr_city": "San Jose",
      "addr_postcode": "95126",
      "addr_street": "Emory Street",
      "addr_housenumber": "894",
      "value": 137.22367085887103
    },
    {
      "id": 51076,
      "geometry": "POINT (-121.913213 37.29286)",
      "poi_name": "Starbucks",
      "osm_id": 506819349,
      "amenity": "cafe",
      "cuisine": "coffee_shop",
      "takeaway": "yes",
      "official_name": "Starbucks Coffee",
      "addr_city": "San Jose",
      "addr_postcode": "95125",
      "addr_street": "Meridian Avenue",
      "addr_housenumber": "1702",
      "value": 137.22367085887103
    },
    {
      "id": 51780,
      "geometry": "POINT (-122.183862 37.452213)",
      "poi_name": "Starbucks",
      "osm_id": 559835232,
      "amenity": "cafe",
      "cuisine": "coffee_shop",
      "opening_hours": "Mo-Fr 05:00-21:00; Sa 05:30-20:30; Su 06:00-20:30",
      "takeaway": "yes",
      "official_name": "Starbucks Coffee",
      "addr_state": "CA",
      "addr_city": "Menlo Park",
      "addr_postcode": "94025",
      "addr_street": "Santa Cruz Avenue",
      "addr_housenumber": "693",
      "value": 137.22367085887103
    },
    {
      "id": 51834,
      "geometry": "POINT (-121.917214 37.370905)",
      "poi_name": "Starbucks",
      "osm_id": 563335614,
      "amenity": "cafe",
      "cuisine": "coffee_shop",
      "operator": "Starbucks Coffee Company",
      "internet_access": "wlan",
      "takeaway": "yes",
      "official_name": "Starbucks Coffee",
      "addr_state": "CA",
      "addr_city": "San Jose",
      "addr_postcode": "95110",
      "addr_street": "North 1st Street",
      "addr_housenumber": "1751",
      "value": 137.22367085887103
    },
    {
      "id": 52031,
      "geometry": "POINT (-122.231114 37.485009)",
      "poi_name": "Starbucks",
      "osm_id": 567674195,
      "amenity": "cafe",
      "cuisine": "coffee_shop",
      "internet_access": "wlan",
      "phone": "(650) 366-6205",
      "takeaway": "yes",
      "official_name": "Starbucks Coffee",
      "addr_city": "Redwood City",
      "addr_postcode": "94063",
      "addr_street": "El Camino Real",
      "addr_housenumber": "1045",
      "value": 137.22367085887103
    },
    {
      "id": 51920,
      "geometry": "POINT (-122.029747 37.377367)",
      "poi_name": "Coffee-n-More",
      "osm_id": 566055916,
      "amenity": "cafe",
      "opening_hours": "Mo-Sa 07:00-18:00",
      "internet_access": "wlan",
      "addr_state": "CA",
      "addr_city": "Sunnyvale",
      "addr_postcode": "94086",
      "addr_street": "South Murphy Avenue",
      "addr_housenumber": "100",
      "value": 137.22367085887103
    },
    {
      "id": 52042,
      "geometry": "POINT (-122.019516 37.587162)",
      "poi_name": "Donut Delight",
      "osm_id": 567795816,
      "amenity": "cafe",
      "cuisine": "donut;chinese;dimsum",
      "addr_state": "CA",
      "addr_city": "Union City",
      "addr_postcode": "94587",
      "addr_street": "Alvarado-Niles Road",
      "addr_housenumber": "34554",
      "value": 137.22367085887103
    },
    {
      "id": 52045,
      "geometry": "POINT (-122.023701 37.582568)",
      "poi_name": "Baldie's Cafe",
      "osm_id": 567797554,
      "amenity": "cafe",
      "cuisine": "diner",
      "addr_state": "CA",
      "addr_city": "Union City",
      "addr_postcode": "94587",
      "addr_street": "Decoto Road",
      "addr_housenumber": "2649",
      "value": 137.22367085887103
    },
    {
      "id": 52148,
      "geometry": "POINT (-121.998263 37.534896)",
      "poi_name": "Starbucks",
      "osm_id": 571837074,
      "amenity": "cafe",
      "cuisine": "coffee_shop",
      "takeaway": "yes",
      "addr_state": "CA",
      "addr_city": "Fremont",
      "addr_street": "Mowry Avenue",
      "addr_housenumber": "5034",
      "value": 137.22367085887103
    },
    {
      "id": 52322,
      "geometry": "POINT (-121.888412 37.33739)",
      "poi_name": "Con Azucar Caf\u00e9",
      "osm_id": 577406730,
      "amenity": "cafe",
      "cuisine": "mexican;sandwich",
      "website": "https://www.conazucarcafe.com/",
      "takeaway": "yes",
      "addr_state": "CA",
      "addr_city": "San Jose",
      "addr_postcode": "95112",
      "addr_street": "East Santa Clara Street",
      "addr_housenumber": "101",
      "value": 137.22367085887103
    },
    {
      "id": 52233,
      "geometry": "POINT (-122.069183 37.599187)",
      "poi_name": "Starbucks",
      "osm_id": 574003274,
      "amenity": "cafe",
      "cuisine": "coffee_shop",
      "opening_hours": "Mo-Su 04:30-00:00; Fr-Sa 04:30-01:00",
      "takeaway": "yes",
      "official_name": "Starbucks Coffee",
      "outdoor_seating": "yes",
      "addr_city": "Union City",
      "addr_postcode": "94587",
      "addr_street": "Dyer Street",
      "addr_housenumber": "32240",
      "value": 137.22367085887103
    },
    {
      "id": 54348,
      "geometry": "POINT (-121.91163 37.454969)",
      "poi_name": "Sunright Tea Studio - Milpitas",
      "osm_id": 10128628588,
      "amenity": "cafe",
      "cuisine": "bubble_tea",
      "opening_hours": "11:45-21:00",
      "website": "https://www.toasttab.com/sunright-tea-studio-milpitas/v3",
      "phone": "+1 408-618-8515",
      "outdoor_seating": "no",
      "addr_state": "CA",
      "addr_city": "Milpitas",
      "addr_street": "North Milpitas Boulevard",
      "addr_housenumber": "1693",
      "value": 137.22367085887103
    },
    {
      "id": 52890,
      "geometry": "POINT (-121.818011 37.357471)",
      "poi_name": "Starbucks",
      "osm_id": 10052610443,
      "amenity": "cafe",
      "cuisine": "coffee_shop",
      "takeaway": "yes",
      "official_name": "Starbucks Coffee",
      "addr_state": "CA",
      "addr_city": "San Jose",
      "addr_postcode": "95127",
      "addr_street": "South White Road",
      "addr_housenumber": "1080",
      "value": 137.22367085887103
    },
    {
      "id": 54589,
      "geometry": "POINT (-121.971207 37.504989)",
      "poi_name": "iTea",
      "osm_id": 10141649481,
      "amenity": "cafe",
      "cuisine": "bubble_tea",
      "wheelchair": "yes",
      "opening_hours": "Mo-Su 11:30-22:00",
      "internet_access": "wlan",
      "addr_city": "Fremont",
      "addr_postcode": "94538",
      "addr_street": "Christy Street",
      "addr_housenumber": "43421",
      "value": 137.22367085887103
    },
    {
      "id": 55974,
      "geometry": "POINT (-121.883505 37.387182)",
      "poi_name": "Venus Cafe",
      "osm_id": 10218931793,
      "amenity": "cafe",
      "cuisine": "asian",
      "wheelchair": "yes",
      "opening_hours": "Sa-Th 11:00-22:00; Fr 11:00-23:00",
      "website": "http://venuscafe-sj.com/",
      "phone": "+14085731128",
      "takeaway": "yes",
      "outdoor_seating": "yes",
      "delivery": "yes",
      "addr_state": "CA",
      "addr_city": "San Jose",
      "addr_postcode": "95131",
      "addr_street": "Hostetter Road",
      "addr_housenumber": "1698",
      "value": 137.22367085887103
    },
    {
      "id": 55523,
      "geometry": "POINT (-121.976682 37.315535)",
      "poi_name": "Coffee and Water Lab",
      "osm_id": 10196564976,
      "amenity": "cafe",
      "website": "https://www.coffeeandwaterlab.com/",
      "phone": "+1 408 839 1378",
      "addr_state": "CA",
      "addr_city": "San Jose",
      "addr_postcode": "95129",
      "addr_street": "Saratoga Avenue",
      "addr_housenumber": "603",
      "value": 137.22367085887103
    },
    {
      "id": 58905,
      "geometry": "POINT (-121.897221 37.30386)",
      "poi_name": "Starbucks",
      "osm_id": 5402514207,
      "amenity": "cafe",
      "cuisine": "coffee_shop",
      "takeaway": "yes",
      "official_name": "Starbucks Coffee",
      "addr_state": "CA",
      "addr_city": "San Jose",
      "addr_postcode": "95125",
      "addr_street": "Lincoln Avenue",
      "addr_housenumber": "1396",
      "value": 137.22367085887103
    },
    {
      "id": 56030,
      "geometry": "POINT (-122.185582 37.455082)",
      "poi_name": "Canteen Coffee House",
      "osm_id": 10221971756,
      "amenity": "cafe",
      "cuisine": "coffee_shop",
      "opening_hours": "Mo-Fr 7:00-15:00, Sa 8:00-14:00",
      "website": "https://www.canteen.studio/cafe",
      "phone": "+1 6505500081",
      "outdoor_seating": "yes",
      "addr_state": "CA",
      "addr_city": "Menlo Park",
      "addr_street": "El Camino Real",
      "addr_housenumber": "1300",
      "value": 137.22367085887103
    },
    {
      "id": 57723,
      "geometry": "POINT (-121.914222 37.304096)",
      "poi_name": "Starbucks",
      "osm_id": 5348535014,
      "amenity": "cafe",
      "cuisine": "coffee_shop",
      "takeaway": "yes",
      "official_name": "Starbucks Coffee",
      "addr_city": "San Jose",
      "addr_postcode": "95125",
      "addr_street": "Meridian Avenue",
      "addr_housenumber": "1087",
      "value": 137.22367085887103
    },
    {
      "id": 59793,
      "geometry": "POINT (-121.842239 37.339421)",
      "poi_name": "Starbucks",
      "osm_id": 5443339829,
      "amenity": "cafe",
      "cuisine": "coffee_shop",
      "description": "Story & King",
      "opening_hours": "Mo-Su 05:00-22:00",
      "website": "https://www.starbucks.com/store-locator/store/8463/story-king-1110-king-road-san-jose-ca-951222118-us",
      "takeaway": "yes",
      "official_name": "Starbucks Coffee",
      "addr_city": "San Jose",
      "addr_postcode": "95122",
      "addr_street": "South King Road",
      "addr_housenumber": "1110",
      "value": 137.22367085887103
    },
    {
      "id": 59004,
      "geometry": "POINT (-121.802127 37.247764)",
      "poi_name": "Katea",
      "osm_id": 5406084615,
      "amenity": "cafe",
      "cuisine": "bubble_tea",
      "internet_access": "yes",
      "addr_state": "CA",
      "addr_city": "San Jos\u00e9",
      "addr_postcode": "95123",
      "addr_housenumber": "5700",
      "value": 137.22367085887103
    },
    {
      "id": 59006,
      "geometry": "POINT (-121.805183 37.251094)",
      "poi_name": "Sharetea",
      "osm_id": 5406084617,
      "amenity": "cafe",
      "cuisine": "bubble_tea",
      "takeaway": "yes",
      "outdoor_seating": "yes",
      "addr_state": "CA",
      "addr_city": "San Jose",
      "addr_postcode": "95123",
      "addr_street": "Cottle Road",
      "addr_housenumber": "5627",
      "value": 137.22367085887103
    },
    {
      "id": 63570,
      "geometry": "POINT (-122.07084 37.378727)",
      "poi_name": "Tea Cub Boba & Snack",
      "osm_id": 5623064563,
      "amenity": "cafe",
      "cuisine": "bubble_tea",
      "opening_hours": "Mo-Tu 10:00-19:00; We-Su 10:00-20:00",
      "website": "https://teacubbobamv.com/",
      "phone": "+1-650-386-1666",
      "addr_state": "CA",
      "addr_city": "Mountain View",
      "addr_postcode": "94040",
      "addr_street": "East El Camino Real",
      "addr_housenumber": "175",
      "value": 137.22367085887103
    },
    {
      "id": 64608,
      "geometry": "POINT (-121.890319 37.396641)",
      "poi_name": "The Grind",
      "osm_id": 5659970674,
      "amenity": "cafe",
      "cuisine": "coffee_shop",
      "official_name": "The Grind Coffee House",
      "addr_state": "CA",
      "addr_city": "San Jose",
      "addr_postcode": "95131",
      "addr_street": "Concourse Drive",
      "addr_housenumber": "2050",
      "value": 137.22367085887103
    },
    {
      "id": 64986,
      "geometry": "POINT (-121.968513 37.324034)",
      "poi_name": "Coffee Factory",
      "osm_id": 5680651599,
      "amenity": "cafe",
      "cuisine": "coffee_shop",
      "website": "http://coffeefactory-roasters.com/",
      "addr_state": "CA",
      "addr_city": "Santa Clara",
      "addr_postcode": "95051",
      "addr_street": "Stevens Creek Boulevard",
      "addr_housenumber": "3787",
      "value": 137.22367085887103
    },
    {
      "id": 66260,
      "geometry": "POINT (-121.955 37.41693)",
      "poi_name": "Starbucks",
      "osm_id": 5732773895,
      "amenity": "cafe",
      "cuisine": "coffee_shop",
      "wheelchair": "yes",
      "opening_hours": "Mo-Fr 05:00-18:00; Sa-Su 06:00-18:00",
      "takeaway": "yes",
      "official_name": "Starbucks Coffee",
      "outdoor_seating": "yes",
      "toilets": "yes",
      "addr_state": "CA",
      "addr_city": "San Jose",
      "addr_postcode": "95134",
      "addr_street": "North 1st Street",
      "addr_housenumber": "4190",
      "value": 137.22367085887103
    },
    {
      "id": 73283,
      "geometry": "POINT (-122.025622 37.361469)",
      "poi_name": "Paris Baguette",
      "osm_id": 9623542441,
      "amenity": "cafe",
      "opening_hours": "Mo-Su 08:00-20:00",
      "website": "https://www.parisbaguette.com/",
      "shop": "bakery",
      "phone": "+1 (408) 685-2770",
      "addr_state": "CA",
      "addr_city": "Sunnyvale",
      "addr_postcode": "94087",
      "addr_street": "East El Camino Real",
      "addr_housenumber": "598",
      "value": 137.22367085887103
    },
    {
      "id": 73542,
      "geometry": "POINT (-121.859415 37.351256)",
      "poi_name": "Caf\u00e9 Docanto",
      "osm_id": 9643612448,
      "amenity": "cafe",
      "phone": "+1-408-272-2929",
      "addr_state": "CA",
      "addr_city": "San Jose",
      "addr_postcode": "95116",
      "addr_street": "North 33rd Street",
      "addr_housenumber": "7",
      "value": 137.22367085887103
    },
    {
      "id": 75648,
      "geometry": "POINT (-122.01952 37.587789)",
      "poi_name": "Starbucks",
      "osm_id": 9739591211,
      "amenity": "cafe",
      "cuisine": "coffee_shop",
      "description": "Located inside of Safeway",
      "opening_hours": "Mo-Su 05:00-19:00",
      "takeaway": "yes",
      "official_name": "Starbucks Coffee",
      "addr_state": "CA",
      "addr_city": "Union City",
      "addr_postcode": "94587",
      "addr_street": "Decoto Road",
      "addr_housenumber": "1790",
      "value": 137.22367085887103
    },
    {
      "id": 73867,
      "geometry": "POINT (-121.826702 37.320644)",
      "poi_name": "SJ Island",
      "osm_id": 9657278583,
      "amenity": "cafe",
      "cuisine": "vietnamese",
      "outdoor_seating": "yes",
      "addr_city": "San Jose",
      "addr_postcode": "95121",
      "addr_street": "Tully Road",
      "addr_housenumber": "1692",
      "value": 137.22367085887103
    },
    {
      "id": 75088,
      "geometry": "POINT (-122.099234 37.39484)",
      "poi_name": "ZombieRunner Coffee",
      "osm_id": 9710424544,
      "amenity": "cafe",
      "opening_hours": "Mo-Sa 09:00-14:00; Su off",
      "website": "https://www.zombierunner.com/",
      "phone": "+1 650 3252048",
      "addr_state": "CA",
      "addr_city": "Mountain View",
      "addr_postcode": "94040",
      "addr_street": "West El Camino Real",
      "addr_housenumber": "1980",
      "value": 137.22367085887103
    },
    {
      "id": 75357,
      "geometry": "POINT (-122.08426 37.385661)",
      "poi_name": "Mr. Sun",
      "osm_id": 9725659670,
      "amenity": "cafe",
      "cuisine": "bubble_tea",
      "wheelchair": "yes",
      "opening_hours": "Mo-Th 12:00-20:00; Fr-Su 12:00-21:00",
      "website": "http://mrsuntea.com/en/",
      "capacity": "71",
      "internet_access": "wlan",
      "phone": "+1 650 3866537",
      "takeaway": "yes",
      "outdoor_seating": "no",
      "addr_state": "CA",
      "addr_city": "Mountain View",
      "addr_street": "West El Camino Real",
      "addr_housenumber": "801",
      "value": 137.22367085887103
    },
    {
      "id": 75364,
      "geometry": "POINT (-121.814261 37.30867)",
      "poi_name": "Macu Tea",
      "osm_id": 9725759757,
      "amenity": "cafe",
      "cuisine": "tea",
      "addr_state": "CA",
      "addr_city": "San Jose",
      "addr_postcode": "95121",
      "addr_street": "Silver Creek Road",
      "addr_housenumber": "3005",
      "value": 137.22367085887103
    },
    {
      "id": 75650,
      "geometry": "POINT (-122.020062 37.586434)",
      "poi_name": "Sunright Tea Studio",
      "osm_id": 9739706733,
      "amenity": "cafe",
      "cuisine": "bubble_tea",
      "phone": "510-431-3280",
      "addr_state": "CA",
      "addr_city": "Union City",
      "addr_postcode": "94587",
      "addr_street": "Alvarado-Niles Road",
      "addr_housenumber": "34563",
      "value": 137.22367085887103
    },
    {
      "id": 73804,
      "geometry": "POINT (-122.014706 37.335462)",
      "poi_name": "TrueDan",
      "osm_id": 9654980383,
      "amenity": "cafe",
      "addr_state": "CA",
      "addr_city": "Cupertino",
      "addr_postcode": "95014-0614",
      "addr_street": "North Wolfe Road",
      "addr_housenumber": "10815",
      "value": 137.22367085887103
    },
    {
      "id": 73805,
      "geometry": "POINT (-122.014695 37.335337)",
      "poi_name": "Jell & Chill",
      "osm_id": 9654980384,
      "amenity": "cafe",
      "opening_hours": "Su-Th 12:00-21:00; Fr,Sa 12:00-21:30",
      "addr_state": "CA",
      "addr_city": "Cupertino",
      "addr_postcode": "95014-0614",
      "addr_street": "North Wolfe Road",
      "addr_housenumber": "10815",
      "value": 137.22367085887103
    },
    {
      "id": 78598,
      "geometry": "POINT (-121.9283 37.395002)",
      "poi_name": "Beryl's Place",
      "osm_id": 760160520,
      "amenity": "cafe",
      "description": "tiny cafe in office park. lovely outdoor seating area",
      "wheelchair": "limited",
      "opening_hours": "Mo-Fr 07:00-15:00",
      "takeaway": "yes",
      "outdoor_seating": "yes",
      "addr_city": "San Jose",
      "addr_postcode": "95134",
      "addr_street": "Zanker Road",
      "addr_housenumber": "2860",
      "value": 137.22367085887103
    },
    {
      "id": 77172,
      "geometry": "POINT (-121.974905 37.381669)",
      "poi_name": "Gong Cha",
      "osm_id": 9809848187,
      "amenity": "cafe",
      "cuisine": "bubble_tea",
      "takeaway": "yes",
      "addr_state": "CA",
      "addr_city": "Santa Clara",
      "addr_postcode": "95054",
      "addr_street": "Augustine Drive",
      "addr_housenumber": "2712",
      "value": 137.22367085887103
    },
    {
      "id": 77522,
      "geometry": "POINT (-122.079078 37.596382)",
      "poi_name": "Hippies Brew",
      "osm_id": 695532106,
      "amenity": "cafe",
      "cuisine": "coffee_shop",
      "website": "http://www.hippiesbrew.com",
      "phone": "+1-510-461-8629",
      "addr_state": "CA",
      "addr_city": "Union City",
      "addr_postcode": "94587",
      "addr_street": "Smith Street",
      "addr_housenumber": "3900",
      "value": 137.22367085887103
    },
    {
      "id": 81195,
      "geometry": "POINT (-122.11049 37.419268)",
      "poi_name": "Peet's Coffee",
      "osm_id": 1613630880,
      "amenity": "cafe",
      "cuisine": "coffee_shop",
      "takeaway": "yes",
      "addr_city": "Palo Alto",
      "addr_street": "Middlefield Road",
      "addr_housenumber": "3904",
      "value": 137.22367085887103
    },
    {
      "id": 81496,
      "geometry": "POINT (-122.094341 37.411462)",
      "poi_name": "Starbucks",
      "osm_id": 1643834661,
      "amenity": "cafe",
      "cuisine": "coffee_shop",
      "opening_hours": "Mo-Th 05:00-19:30; Fr 05:00-20:00; Sa,Su 05:30-20:00",
      "takeaway": "yes",
      "official_name": "Starbucks Coffee",
      "addr_city": "Mountain View",
      "addr_postcode": "94043",
      "addr_street": "North Rengstorff Avenue",
      "addr_housenumber": "580",
      "value": 137.22367085887103
    },
    {
      "id": 81320,
      "geometry": "POINT (-121.804355 37.249141)",
      "poi_name": "Eric's Delicafe",
      "osm_id": 1626101710,
      "amenity": "cafe",
      "operator": "OTC Deli Inc.",
      "addr_state": "CA",
      "addr_city": "San Jose",
      "addr_postcode": "95123",
      "addr_street": "Cottle Road",
      "addr_housenumber": "5705",
      "value": 137.22367085887103
    },
    {
      "id": 81908,
      "geometry": "POINT (-122.232541 37.484505)",
      "poi_name": "Teatime",
      "osm_id": 1669545495,
      "amenity": "cafe",
      "cuisine": "tea",
      "addr_city": "Redwood City",
      "addr_postcode": "94063",
      "addr_street": "El Camino Real",
      "addr_housenumber": "1003",
      "value": 137.22367085887103
    },
    {
      "id": 82929,
      "geometry": "POINT (-122.226423 37.486043)",
      "poi_name": "\u00a1Venga! Empanadas",
      "osm_id": 1721445026,
      "amenity": "cafe",
      "outdoor_seating": "yes",
      "addr_city": "Redwood City",
      "addr_postcode": "94063",
      "addr_street": "Main Street",
      "addr_housenumber": "822",
      "value": 137.22367085887103
    },
    {
      "id": 82939,
      "geometry": "POINT (-122.0793 37.393749)",
      "poi_name": "Hong Kong Bakery and Cafe",
      "osm_id": 1722146746,
      "amenity": "cafe",
      "cuisine": "chinese",
      "wheelchair": "yes",
      "opening_hours": "Mo-Su 08:30-19:30",
      "shop": "bakery",
      "phone": "+1 650-969-3153",
      "takeaway": "only",
      "addr_state": "CA",
      "addr_city": "Mountain View",
      "addr_street": "Castro Street",
      "addr_housenumber": "210",
      "value": 137.22367085887103
    },
    {
      "id": 82940,
      "geometry": "POINT (-122.079314 37.393716)",
      "poi_name": "Maison Alyz\u00e9e",
      "osm_id": 1722147412,
      "amenity": "cafe",
      "addr_state": "CA",
      "addr_city": "Mountain View",
      "addr_street": "Castro Street",
      "addr_housenumber": "212",
      "value": 137.22367085887103
    },
    {
      "id": 82998,
      "geometry": "POINT (-122.227713 37.486693)",
      "poi_name": "Revere Coffee & Tea",
      "osm_id": 1724869737,
      "amenity": "cafe",
      "addr_city": "Redwood City",
      "addr_postcode": "94063",
      "addr_street": "Broadway",
      "addr_housenumber": "2074",
      "value": 137.22367085887103
    },
    {
      "id": 83017,
      "geometry": "POINT (-121.91786 37.423697)",
      "poi_name": "Ume",
      "osm_id": 1726073292,
      "amenity": "cafe",
      "cuisine": "bubble_tea",
      "toilets": "no",
      "addr_state": "CA",
      "addr_city": "Milpitas",
      "addr_postcode": "95035",
      "addr_street": "Barber Court",
      "addr_housenumber": "272",
      "value": 137.22367085887103
    },
    {
      "id": 83126,
      "geometry": "POINT (-122.230747 37.486291)",
      "poi_name": "Teaspoon",
      "osm_id": 1729170122,
      "amenity": "cafe",
      "cuisine": "dessert",
      "outdoor_seating": "yes",
      "addr_city": "Redwood City",
      "addr_postcode": "94063",
      "addr_street": "Broadway",
      "addr_housenumber": "2361",
      "value": 137.22367085887103
    },
    {
      "id": 83135,
      "geometry": "POINT (-122.087677 37.372797)",
      "poi_name": "Tea Annie",
      "osm_id": 1729919570,
      "amenity": "cafe",
      "addr_city": "Mountain View",
      "addr_postcode": "94040",
      "addr_street": "Miramonte Avenue",
      "addr_housenumber": "1712 Suite A",
      "value": 137.22367085887103
    },
    {
      "id": 83165,
      "geometry": "POINT (-122.231359 37.486522)",
      "poi_name": "Tong Sui",
      "osm_id": 1731368528,
      "amenity": "cafe",
      "cuisine": "dessert",
      "wheelchair": "yes",
      "opening_hours": "Mo-Th 11:30-20:00; Fr-Sa 11:30-21:00; Su 11:30-19:00",
      "outdoor_seating": "yes",
      "addr_city": "Redwood City",
      "addr_postcode": "94063",
      "addr_street": "Broadway Street",
      "addr_housenumber": "2400",
      "value": 137.22367085887103
    },
    {
      "id": 83448,
      "geometry": "POINT (-122.193304 37.401873)",
      "poi_name": "Konditorei Cafe",
      "osm_id": 1744846261,
      "amenity": "cafe",
      "cuisine": "ice_cream;coffee_shop",
      "opening_hours": "Mo-Fr 06:30-14:30; Sa 07:00-14:30; Su 07:00-13:30",
      "internet_access": "yes",
      "phone": "+1 650 854 8616",
      "outdoor_seating": "yes",
      "addr_city": "Portola Valley",
      "addr_postcode": "94028",
      "addr_street": "Alpine Road",
      "addr_housenumber": "3130",
      "value": 137.22367085887103
    },
    {
      "id": 83908,
      "geometry": "POINT (-122.117945 37.378761)",
      "poi_name": "Peet's Coffee",
      "osm_id": 1770222913,
      "amenity": "cafe",
      "cuisine": "coffee_shop",
      "website": "https://www.peets.com/",
      "internet_access": "wlan",
      "phone": "+1 650 941 6722",
      "takeaway": "yes",
      "addr_state": "CA",
      "addr_city": "Los Altos",
      "addr_postcode": "94022",
      "addr_street": "State Street",
      "addr_housenumber": "367",
      "value": 137.22367085887103
    },
    {
      "id": 83029,
      "geometry": "POINT (-122.228936 37.485922)",
      "poi_name": "Happy Lemon",
      "osm_id": 1726114122,
      "amenity": "cafe",
      "cuisine": "bubble_tea",
      "opening_hours": "Mo-Th 11:30-20:30; Fr-Su 11:30-21:00",
      "addr_city": "Redwood City",
      "addr_postcode": "94063",
      "addr_street": "Middlefield Road",
      "addr_housenumber": "851",
      "value": 137.22367085887103
    },
    {
      "id": 83216,
      "geometry": "POINT (-122.233313 37.486427)",
      "poi_name": "Peet's Coffee",
      "osm_id": 1734830439,
      "amenity": "cafe",
      "cuisine": "coffee_shop",
      "wheelchair": "yes",
      "opening_hours": "Mo-Fr 05:00-18:00; Sa-Su 06:00-18:00",
      "website": "https://www.peets.com/",
      "internet_access": "wlan",
      "phone": "(650) 362-1000",
      "takeaway": "yes",
      "outdoor_seating": "yes",
      "addr_city": "Redwood City",
      "addr_postcode": "94063",
      "addr_street": "Broadway",
      "addr_housenumber": "2600",
      "value": 137.22367085887103
    },
    {
      "id": 84817,
      "geometry": "POINT (-122.09647 37.360546)",
      "poi_name": "Los Altos Bakery and Cafe",
      "osm_id": 1818369713,
      "amenity": "cafe",
      "wheelchair": "yes",
      "addr_state": "CA",
      "addr_city": "Los Altos",
      "addr_street": "Fremont Avenue",
      "addr_housenumber": "692",
      "value": 137.22367085887103
    },
    {
      "id": 87649,
      "geometry": "POINT (-121.895427 37.336313)",
      "poi_name": "DR.INK",
      "osm_id": 8730002084,
      "amenity": "cafe",
      "cuisine": "bubble_tea",
      "website": "https://www.dr-ink.space/",
      "addr_state": "CA",
      "addr_city": "San Jose",
      "addr_postcode": "95113",
      "addr_street": "North Almaden Avenue",
      "addr_housenumber": "77",
      "value": 137.22367085887103
    },
    {
      "id": 89864,
      "geometry": "POINT (-121.840495 37.299815)",
      "poi_name": "Ch\u00e8 Hi\u1ec1n Kh\u00e1nh",
      "osm_id": 8867631958,
      "amenity": "cafe",
      "cuisine": "vietnamese;ch\u00e8",
      "addr_state": "CA",
      "addr_city": "San Jose",
      "addr_postcode": "95111",
      "addr_street": "Senter Road",
      "addr_housenumber": "2857",
      "value": 137.22367085887103
    },
    {
      "id": 87720,
      "geometry": "POINT (-121.874365 37.417637)",
      "poi_name": "Quickly",
      "osm_id": 8735543507,
      "amenity": "cafe",
      "cuisine": "bubble_tea",
      "wheelchair": "yes",
      "opening_hours": "Mo-Th,Su 11:00-22:00; Fr-Sa 11:00-24:00",
      "operator": "Tuan Van Incorporated",
      "takeaway": "yes",
      "addr_state": "CA",
      "addr_city": "Milpitas",
      "addr_postcode": "95035",
      "addr_street": "South Park Victoria Drive",
      "addr_housenumber": "1350",
      "value": 137.22367085887103
    },
    {
      "id": 88080,
      "geometry": "POINT (-121.809782 37.312356)",
      "poi_name": "i-Tea San Jose",
      "osm_id": 8759777169,
      "amenity": "cafe",
      "cuisine": "bubble_tea;snack",
      "opening_hours": "Mo-Su 11:00-22:00",
      "phone": "+1-408-684-6968",
      "outdoor_seating": "no",
      "addr_state": "CA",
      "addr_city": "San Jose",
      "addr_postcode": "95121",
      "addr_street": "Aborn Square",
      "addr_housenumber": "2936",
      "value": 137.22367085887103
    },
    {
      "id": 87788,
      "geometry": "POINT (-121.912236 37.349382)",
      "poi_name": "Egghead",
      "osm_id": 8740733655,
      "amenity": "cafe",
      "takeaway": "only",
      "delivery": "yes",
      "addr_state": "CA",
      "addr_city": "San Jose",
      "addr_postcode": "95110",
      "addr_street": "Ruff Drive",
      "addr_housenumber": "949",
      "value": 137.22367085887103
    },
    {
      "id": 88134,
      "geometry": "POINT (-121.907676 37.429541)",
      "poi_name": "R&B Tea",
      "osm_id": 8766337816,
      "amenity": "cafe",
      "wheelchair": "yes",
      "opening_hours": "Mo-Su 12:00-22:00",
      "takeaway": "yes",
      "addr_state": "CA",
      "addr_city": "Milpitas",
      "addr_postcode": "95035",
      "addr_street": "South Abel Street",
      "addr_housenumber": "60",
      "value": 137.22367085887103
    },
    {
      "id": 88753,
      "geometry": "POINT (-121.951311 37.305425)",
      "poi_name": "Winchester Coffee House",
      "osm_id": 8794617610,
      "amenity": "cafe",
      "cuisine": "coffee_shop",
      "opening_hours": "Mo-Fr 09:00-16:00",
      "addr_state": "CA",
      "addr_city": "San Jose",
      "addr_postcode": "95128",
      "addr_street": "South Winchester Boulevard",
      "addr_housenumber": "1101",
      "value": 137.22367085887103
    },
    {
      "id": 90933,
      "geometry": "POINT (-121.903836 37.232874)",
      "poi_name": "Manley's Donuts",
      "osm_id": 2028393608,
      "amenity": "cafe",
      "cuisine": "donut",
      "addr_city": "San Jose",
      "addr_postcode": "95124",
      "addr_street": "Camden Avenue",
      "addr_housenumber": "5721",
      "value": 137.22367085887103
    },
    {
      "id": 92275,
      "geometry": "POINT (-121.948162 37.319778)",
      "poi_name": "Left Bank Brasserie",
      "osm_id": 2109337126,
      "amenity": "cafe",
      "cuisine": "brasserie;french",
      "operator": "La Rive Gauche LLC",
      "addr_state": "CA",
      "addr_city": "San Jose",
      "addr_postcode": "95128",
      "addr_street": "Santana Row",
      "addr_housenumber": "377",
      "value": 137.22367085887103
    },
    {
      "id": 92239,
      "geometry": "POINT (-121.879251 37.250443)",
      "poi_name": "House of Bagels",
      "osm_id": 2107857671,
      "amenity": "cafe",
      "cuisine": "bagel",
      "addr_state": "CA",
      "addr_city": "San Jose",
      "addr_postcode": "95118",
      "addr_street": "Almaden Expressway",
      "addr_housenumber": "5353",
      "value": 137.22367085887103
    },
    {
      "id": 91923,
      "geometry": "POINT (-122.099886 37.429715)",
      "poi_name": "Plaza deli",
      "osm_id": 2095327716,
      "amenity": "cafe",
      "cuisine": "deli",
      "operator": "Sam",
      "website": "http://www.baysidebusinessplaza.com/Plaza_Deli_Menu.pdf",
      "internet_access": "no",
      "phone": "1-650-965-3189",
      "takeaway": "yes",
      "drive_through": "no",
      "outdoor_seating": "yes",
      "addr_city": "Mountain View",
      "addr_postcode": "94043",
      "addr_street": "Bayshore Parkway",
      "addr_housenumber": "2680",
      "value": 137.22367085887103
    },
    {
      "id": 92742,
      "geometry": "POINT (-121.998995 37.2804)",
      "poi_name": "Starbucks",
      "osm_id": 2131880791,
      "amenity": "cafe",
      "cuisine": "coffee_shop",
      "takeaway": "yes",
      "official_name": "Starbucks Coffee",
      "addr_state": "CA",
      "addr_city": "Saratoga",
      "addr_postcode": "95070",
      "addr_street": "Cox Avenue",
      "addr_housenumber": "18764",
      "value": 137.22367085887103
    },
    {
      "id": 93185,
      "geometry": "POINT (-121.921609 37.42166)",
      "poi_name": "Starbucks",
      "osm_id": 2153998271,
      "amenity": "cafe",
      "cuisine": "coffee_shop",
      "operator": "NARJ LLC",
      "takeaway": "yes",
      "official_name": "Starbucks Coffee",
      "addr_state": "CA",
      "addr_city": "Milpitas",
      "addr_postcode": "95035",
      "addr_street": "North McCarthy Boulevard",
      "addr_housenumber": "1625",
      "value": 137.22367085887103
    },
    {
      "id": 92414,
      "geometry": "POINT (-121.974741 37.320003)",
      "poi_name": "Bijan",
      "osm_id": 2120292037,
      "amenity": "cafe",
      "addr_city": "San Jose",
      "addr_postcode": "95129",
      "addr_street": "Saratoga Avenue",
      "addr_housenumber": "441",
      "value": 137.22367085887103
    },
    {
      "id": 93220,
      "geometry": "POINT (-121.927949 37.38536)",
      "poi_name": "Starbucks",
      "osm_id": 2157545925,
      "amenity": "cafe",
      "cuisine": "coffee_shop",
      "wheelchair": "yes",
      "opening_hours": "Mo-Fr 04:30-17:30",
      "takeaway": "yes",
      "official_name": "Starbucks Coffee",
      "outdoor_seating": "yes",
      "toilets": "yes",
      "addr_city": "San Jose",
      "addr_postcode": "95131",
      "addr_street": "North 1st Street",
      "addr_housenumber": "2579",
      "value": 137.22367085887103
    },
    {
      "id": 93238,
      "geometry": "POINT (-122.079493 37.394148)",
      "poi_name": "Verde Tea Cafe",
      "osm_id": 2157948579,
      "amenity": "cafe",
      "cuisine": "bubble_tea",
      "opening_hours": "Mo-Su 11:30-20:00",
      "addr_city": "Mountain View",
      "addr_street": "Villa Street",
      "addr_housenumber": "852",
      "value": 137.22367085887103
    },
    {
      "id": 94404,
      "geometry": "POINT (-122.393853 37.778198)",
      "poi_name": "Cafe Okawari",
      "osm_id": 2240839538,
      "amenity": "cafe",
      "cuisine": "japanese",
      "opening_hours": "Mo-Fr 10:30-19:30",
      "website": "https://www.cafeokawari.com/",
      "addr_city": "San Francisco",
      "addr_postcode": "94107",
      "addr_street": "Townsend Street",
      "addr_housenumber": "236",
      "value": 137.22367085887103
    },
    {
      "id": 94406,
      "geometry": "POINT (-122.392176 37.778574)",
      "poi_name": "EA Cafe",
      "osm_id": 2240839575,
      "amenity": "cafe",
      "cuisine": "ice_cream;poke;coffee_shop",
      "takeaway": "yes",
      "outdoor_seating": "no",
      "addr_state": "CA",
      "addr_street": "3rd Street",
      "addr_housenumber": "735",
      "value": 137.22367085887103
    },
    {
      "id": 96531,
      "geometry": "POINT (-121.857923 37.332015)",
      "poi_name": "T4 San Jose",
      "osm_id": 6435975128,
      "amenity": "cafe",
      "cuisine": "tea;bubble_tea",
      "operator": "Aquat LLC",
      "website": "https://thet4.com/stores/san-jose/",
      "addr_state": "CA",
      "addr_city": "San Jose",
      "addr_postcode": "95122",
      "addr_street": "Story Road",
      "addr_housenumber": "969",
      "value": 137.22367085887103
    },
    {
      "id": 97881,
      "geometry": "POINT (-121.884089 37.32912)",
      "poi_name": "Academic Coffee",
      "osm_id": 6499035246,
      "amenity": "cafe",
      "cuisine": "coffee_shop",
      "website": "https://www.academiccoffee.com/",
      "takeaway": "yes",
      "drive_through": "no",
      "outdoor_seating": "patio",
      "toilets": "yes",
      "addr_state": "CA",
      "addr_city": "San Jose",
      "addr_postcode": "95113",
      "addr_street": "South 2nd Street",
      "addr_housenumber": "499",
      "value": 137.22367085887103
    },
    {
      "id": 98048,
      "geometry": "POINT (-122.087458 37.61487)",
      "poi_name": "Starbucks",
      "osm_id": 6505265019,
      "amenity": "cafe",
      "cuisine": "coffee_shop",
      "opening_hours": "Mo-Su 04:00-21:00",
      "takeaway": "yes",
      "official_name": "Starbucks Coffee",
      "addr_state": "CA",
      "addr_city": "Hayward",
      "addr_postcode": "94545",
      "addr_street": "Hesperian Boulevard",
      "addr_housenumber": "28517",
      "value": 137.22367085887103
    },
    {
      "id": 100389,
      "geometry": "POINT (-122.213678 37.470907)",
      "poi_name": "Pink Pantherz Espresso",
      "osm_id": 6583041553,
      "amenity": "cafe",
      "website": "http://www.pinkpantherzespresso.com",
      "takeaway": "only",
      "drive_through": "only",
      "addr_city": "Redwood City",
      "addr_postcode": "94061",
      "addr_street": "El Camino Real",
      "addr_housenumber": "2797",
      "value": 137.22367085887103
    },
    {
      "id": 100850,
      "geometry": "POINT (-122.071328 37.589684)",
      "poi_name": "Boba Fitt Drinks",
      "osm_id": 6601976144,
      "amenity": "cafe",
      "cuisine": "bubble_tea",
      "addr_state": "CA",
      "addr_city": "Union City",
      "addr_postcode": "94587",
      "addr_street": "Alvarado Boulevard",
      "addr_housenumber": "31877",
      "value": 137.22367085887103
    },
    {
      "id": 100717,
      "geometry": "POINT (-122.019538 37.588113)",
      "poi_name": "Caff\u00e9.in",
      "osm_id": 6595761869,
      "amenity": "cafe",
      "cuisine": "bubble_tea",
      "opening_hours": "Mo-Su 12:00-00:00; Fr-Sa 12:00-01:00",
      "addr_state": "CA",
      "addr_city": "Union City",
      "addr_postcode": "94587",
      "addr_street": "Decoto Road",
      "addr_housenumber": "1788",
      "value": 137.22367085887103
    },
    {
      "id": 100855,
      "geometry": "POINT (-122.071076 37.591713)",
      "poi_name": "Bambu",
      "osm_id": 6601976157,
      "amenity": "cafe",
      "cuisine": "vietnamese;bubble_tea",
      "opening_hours": "Mo-Su 12:00-19:30",
      "takeaway": "yes",
      "outdoor_seating": "no",
      "addr_state": "CA",
      "addr_city": "Fremont",
      "addr_postcode": "94587",
      "addr_street": "Alvarado Boulevard",
      "addr_housenumber": "31812-31822",
      "value": 137.22367085887103
    },
    {
      "id": 102499,
      "geometry": "POINT (-121.898942 37.435308)",
      "poi_name": "Erik's DeliCaf\u00e9",
      "osm_id": 6682078844,
      "amenity": "cafe",
      "cuisine": "coffee_shop",
      "opening_hours": "Mo-Sa 10:00-20:00; Su 10:00-19:00",
      "outdoor_seating": "yes",
      "addr_state": "CA",
      "addr_city": "Milpitas",
      "addr_postcode": "95035",
      "addr_street": "North Milpitas Boulevard",
      "addr_housenumber": "148",
      "value": 137.22367085887103
    },
    {
      "id": 101867,
      "geometry": "POINT (-122.067509 37.589554)",
      "poi_name": "Joy4tea",
      "osm_id": 6645904763,
      "amenity": "cafe",
      "cuisine": "bubble_tea",
      "opening_hours": "Tu-Sa 12:00-21:00; Su 12:00-20:00",
      "addr_state": "CA",
      "addr_city": "Union City",
      "addr_postcode": "94587",
      "addr_street": "Alvarado Boulevard",
      "addr_housenumber": "32148",
      "value": 137.22367085887103
    },
    {
      "id": 102452,
      "geometry": "POINT (-121.898094 37.434502)",
      "poi_name": "Peet's Coffee",
      "osm_id": 6681775713,
      "amenity": "cafe",
      "cuisine": "coffee_shop",
      "opening_hours": "Mo-Fr 05:30-17:00; Sa,Su 06:00-17:00",
      "takeaway": "yes",
      "outdoor_seating": "yes",
      "addr_state": "CA",
      "addr_city": "Milpitas",
      "addr_postcode": "95035",
      "addr_street": "East Calaveras Boulevard",
      "addr_housenumber": "543",
      "value": 137.22367085887103
    },
    {
      "id": 102465,
      "geometry": "POINT (-121.897878 37.434805)",
      "poi_name": "Starbucks",
      "osm_id": 6681849994,
      "amenity": "cafe",
      "cuisine": "coffee_shop",
      "opening_hours": "Mo-Su 06:00-19:00",
      "takeaway": "yes",
      "official_name": "Starbucks Coffee",
      "addr_state": "CA",
      "addr_city": "Milpitas",
      "addr_postcode": "95035",
      "addr_street": "East Calaveras Boulevard",
      "addr_housenumber": "555",
      "value": 137.22367085887103
    },
    {
      "id": 103401,
      "geometry": "POINT (-121.851767 37.365542)",
      "poi_name": "Milq Tea Lounge",
      "osm_id": 8499123488,
      "amenity": "cafe",
      "cuisine": "bubble_tea",
      "official_name": "Milq Tea Lounge Incorporated",
      "addr_state": "CA",
      "addr_city": "San Jose",
      "addr_postcode": "95133",
      "addr_street": "North Jackson Avenue",
      "addr_housenumber": "301",
      "value": 137.22367085887103
    },
    {
      "id": 102800,
      "geometry": "POINT (-121.915042 37.418208)",
      "poi_name": "Bon Appetit @ Bright Horizons",
      "osm_id": 8459295385,
      "amenity": "cafe",
      "addr_state": "CA",
      "addr_city": "Milpitas",
      "addr_postcode": "95035",
      "addr_street": "Barber Lane",
      "addr_housenumber": "800",
      "value": 137.22367085887103
    },
    {
      "id": 104491,
      "geometry": "POINT (-121.97791 37.314737)",
      "poi_name": "Mochi-ya Ren",
      "osm_id": 8570769977,
      "amenity": "cafe",
      "cuisine": "japanese",
      "description": "Sweets shop cafe that serves mochi",
      "shop": "pastry",
      "takeaway": "yes",
      "outdoor_seating": "no",
      "addr_state": "CA",
      "addr_city": "San Jose",
      "addr_postcode": "95129",
      "addr_street": "Saratoga Avenue",
      "addr_housenumber": "675",
      "value": 137.22367085887103
    },
    {
      "id": 103438,
      "geometry": "POINT (-122.116133 37.453704)",
      "poi_name": "Baylands Cafe",
      "osm_id": 8501608229,
      "amenity": "cafe",
      "opening_hours": "Mo-Su 08:00-18:00",
      "phone": "+1 650-223-8888",
      "addr_state": "CA",
      "addr_city": "Palo Alto",
      "addr_postcode": "94303",
      "addr_street": "Embarcadero Road",
      "addr_housenumber": "1875",
      "value": 137.22367085887103
    },
    {
      "id": 103918,
      "geometry": "POINT (-121.826954 37.319122)",
      "poi_name": "Shincha Tea",
      "osm_id": 8533356526,
      "amenity": "cafe",
      "cuisine": "bubble_tea",
      "website": "http://shinchatea.com/",
      "addr_state": "CA",
      "addr_city": "San Jose",
      "addr_postcode": "95121",
      "addr_street": "Alvin Avenue",
      "addr_housenumber": "2487",
      "value": 137.22367085887103
    },
    {
      "id": 104213,
      "geometry": "POINT (-121.84795 37.289753)",
      "poi_name": "Starbucks",
      "osm_id": 8555364664,
      "amenity": "cafe",
      "cuisine": "coffee_shop",
      "takeaway": "yes",
      "official_name": "Starbucks Coffee",
      "addr_state": "CA",
      "addr_city": "San Jose",
      "addr_postcode": "95111",
      "addr_street": "Monterey Road",
      "addr_housenumber": "2961",
      "value": 137.22367085887103
    },
    {
      "id": 103589,
      "geometry": "POINT (-121.977285 37.315639)",
      "poi_name": "N7 Draft Tea & Coffee",
      "osm_id": 8512184060,
      "amenity": "cafe",
      "cuisine": "coffee_shop;tea",
      "addr_state": "CA",
      "addr_city": "San Jose",
      "addr_postcode": "95129",
      "addr_street": "Moorpark Avenue",
      "addr_housenumber": "4306",
      "value": 137.22367085887103
    },
    {
      "id": 103601,
      "geometry": "POINT (-122.113162 37.422188)",
      "poi_name": "Ada's Cafe",
      "osm_id": 8512288132,
      "amenity": "cafe",
      "opening_hours": "We-Su 08:00-16:00",
      "website": "https://www.adascafe.org/",
      "phone": "650-327-2327",
      "addr_state": "CA",
      "addr_city": "Palo Alto",
      "addr_postcode": "94303",
      "addr_street": "Middlefield Road",
      "addr_housenumber": "3700",
      "value": 137.22367085887103
    },
    {
      "id": 103789,
      "geometry": "POINT (-121.852727 37.275952)",
      "poi_name": "85\u00b0C",
      "osm_id": 8525652576,
      "amenity": "cafe",
      "cuisine": "coffee_shop;chinese",
      "takeaway": "yes",
      "addr_state": "CA",
      "addr_city": "San Jose",
      "addr_postcode": "95136",
      "addr_street": "West Capitol Expressway",
      "addr_housenumber": "541",
      "value": 137.22367085887103
    },
    {
      "id": 103792,
      "geometry": "POINT (-121.823637 37.319466)",
      "poi_name": "Cool Tea Bar",
      "osm_id": 8525703678,
      "amenity": "cafe",
      "cuisine": "bubble_tea",
      "operator": "Imix Inc.",
      "addr_state": "CA",
      "addr_city": "San Jose",
      "addr_postcode": "95121",
      "addr_street": "South King Road",
      "addr_housenumber": "2569",
      "value": 137.22367085887103
    },
    {
      "id": 104382,
      "geometry": "POINT (-121.834838 37.279336)",
      "poi_name": "Rainbow Tea House",
      "osm_id": 8567999335,
      "amenity": "cafe",
      "cuisine": "bubble_tea",
      "operator": "Viet Sandwiches Incorporated",
      "addr_state": "CA",
      "addr_city": "San Jose",
      "addr_postcode": "95111",
      "addr_street": "Monterey Road",
      "addr_housenumber": "4100",
      "value": 137.22367085887103
    },
    {
      "id": 104543,
      "geometry": "POINT (-121.794111 37.313985)",
      "poi_name": "Starbucks",
      "osm_id": 8573333111,
      "amenity": "cafe",
      "cuisine": "coffee_shop",
      "operator": "Starbucks Coffee Company",
      "takeaway": "yes",
      "official_name": "Starbucks Coffee",
      "addr_state": "CA",
      "addr_city": "San Jose",
      "addr_postcode": "95121",
      "addr_street": "Aborn Road",
      "addr_housenumber": "2721",
      "value": 137.22367085887103
    },
    {
      "id": 105140,
      "geometry": "POINT (-121.938607 37.339616)",
      "poi_name": "Starbucks",
      "osm_id": 8604433237,
      "amenity": "cafe",
      "cuisine": "coffee_shop",
      "takeaway": "yes",
      "official_name": "Starbucks Coffee",
      "addr_state": "CA",
      "addr_city": "Santa Clara",
      "addr_postcode": "95050",
      "addr_street": "Washington Street",
      "addr_housenumber": "71",
      "value": 137.22367085887103
    },
    {
      "id": 104554,
      "geometry": "POINT (-121.793429 37.315331)",
      "poi_name": "Tastea Evergreen",
      "osm_id": 8573396620,
      "amenity": "cafe",
      "cuisine": "bubble_tea",
      "operator": "Bay Area Tea 2",
      "addr_state": "CA",
      "addr_city": "San Jose",
      "addr_postcode": "95148",
      "addr_street": "South White Road",
      "addr_housenumber": "3247",
      "value": 137.22367085887103
    },
    {
      "id": 105357,
      "geometry": "POINT (-121.808449 37.260449)",
      "poi_name": "La Nube Never\u00eda Cafeter\u00eda",
      "osm_id": 8619642392,
      "amenity": "cafe",
      "addr_state": "CA",
      "addr_city": "San Jose",
      "addr_postcode": "95111",
      "addr_street": "Monterey Road",
      "value": 137.22367085887103
    },
    {
      "id": 105365,
      "geometry": "POINT (-122.031296 37.351199)",
      "poi_name": "K\u2019s Crepes & Cafe",
      "osm_id": 8622684227,
      "amenity": "cafe",
      "cuisine": "crepe",
      "addr_state": "CA",
      "addr_city": "Sunnyvale",
      "addr_postcode": "94087",
      "addr_street": "East Fremont Avenue",
      "addr_housenumber": "126",
      "value": 137.22367085887103
    },
    {
      "id": 106340,
      "geometry": "POINT (-121.818921 37.32637)",
      "poi_name": "Dolce Espresso",
      "osm_id": 8675336494,
      "amenity": "cafe",
      "cuisine": "coffee_shop",
      "addr_state": "CA",
      "addr_city": "San Jose",
      "addr_postcode": "95122",
      "addr_street": "Tully Road",
      "addr_housenumber": "2078",
      "value": 137.22367085887103
    },
    {
      "id": 106005,
      "geometry": "POINT (-121.924066 37.370781)",
      "poi_name": "San Jose Gateway Cafe",
      "osm_id": 8657965734,
      "amenity": "cafe",
      "addr_state": "CA",
      "addr_city": "San Jose",
      "addr_postcode": "95110",
      "addr_street": "Gateway Place",
      "addr_housenumber": "2025",
      "value": 137.22367085887103
    },
    {
      "id": 106097,
      "geometry": "POINT (-121.996159 37.292757)",
      "poi_name": "Starbucks",
      "osm_id": 8664244788,
      "amenity": "cafe",
      "cuisine": "coffee_shop",
      "internet_access": "wlan",
      "phone": "+14084461062",
      "takeaway": "yes",
      "drive_through": "yes",
      "official_name": "Starbucks Coffee",
      "outdoor_seating": "yes",
      "addr_state": "CA",
      "addr_city": "San Jose",
      "addr_postcode": "95129",
      "addr_street": "Prospect Road",
      "addr_housenumber": "5297",
      "value": 137.22367085887103
    },
    {
      "id": 107127,
      "geometry": "POINT (-121.89283 37.335289)",
      "poi_name": "Starbucks",
      "osm_id": 3537287697,
      "amenity": "cafe",
      "cuisine": "coffee_shop",
      "takeaway": "yes",
      "official_name": "Starbucks Coffee",
      "addr_city": "San Jose",
      "addr_postcode": "95113",
      "addr_street": "West Santa Clara Street",
      "addr_housenumber": "145",
      "value": 137.22367085887103
    },
    {
      "id": 107136,
      "geometry": "POINT (-121.887949 37.290628)",
      "poi_name": "Elva's Coffee Stop",
      "osm_id": 3539030768,
      "amenity": "cafe",
      "cuisine": "coffee",
      "wheelchair": "yes",
      "opening_hours": "06:30-14:00",
      "website": "http://elva.willowglenextra.com",
      "internet_access": "yes",
      "phone": "408-269-2245",
      "addr_state": "CA",
      "addr_city": "San Jose",
      "addr_postcode": "95125",
      "addr_street": "Lincoln Avenue",
      "addr_housenumber": "2206",
      "value": 137.22367085887103
    },
    {
      "id": 107466,
      "geometry": "POINT (-122.015866 37.335993)",
      "poi_name": "Fantasia Coffee & Tea",
      "osm_id": 3562593040,
      "amenity": "cafe",
      "wheelchair": "yes",
      "takeaway": "yes",
      "outdoor_seating": "yes",
      "toilets": "yes",
      "addr_state": "CA",
      "addr_city": "Cupertino",
      "addr_street": "North Wolfe Road",
      "addr_housenumber": "10933",
      "value": 137.22367085887103
    },
    {
      "id": 107395,
      "geometry": "POINT (-121.894318 37.337824)",
      "poi_name": "Towers Cafe",
      "osm_id": 3559807117,
      "amenity": "cafe",
      "opening_hours": "Mo-Fr 06:30-16:30; Sa 07:00-12:30",
      "operator": "QD Cafe Incorporated",
      "addr_state": "CA",
      "addr_city": "San Jose",
      "addr_postcode": "95113",
      "addr_street": "North Market Street",
      "addr_housenumber": "111",
      "value": 137.22367085887103
    },
    {
      "id": 107418,
      "geometry": "POINT (-121.856892 37.332097)",
      "poi_name": "L\u1ea9u D\u00ea B\u00ecnh Minh",
      "osm_id": 3560256377,
      "amenity": "cafe",
      "cuisine": "vietnamese;hotpot",
      "addr_city": "San Jose",
      "addr_postcode": "95122",
      "addr_street": "Story Road",
      "addr_housenumber": "999",
      "value": 137.22367085887103
    },
    {
      "id": 107160,
      "geometry": "POINT (-121.922091 37.35049)",
      "poi_name": "Starbucks",
      "osm_id": 3540148721,
      "amenity": "cafe",
      "cuisine": "coffee_shop",
      "opening_hours": "Mo-Fr 04:30-21:30; Sa,Su 05:00-21:30",
      "takeaway": "yes",
      "official_name": "Starbucks Coffee",
      "addr_state": "CA",
      "addr_city": "San Jose",
      "addr_postcode": "95110",
      "addr_street": "Newhall Drive",
      "addr_housenumber": "540",
      "value": 137.22367085887103
    },
    {
      "id": 107365,
      "geometry": "POINT (-121.891137 37.335669)",
      "poi_name": "City Bagels",
      "osm_id": 3555373048,
      "amenity": "cafe",
      "cuisine": "sandwich;donut;bubble_tea;coffee_shop",
      "wheelchair": "yes",
      "opening_hours": "Mo-Fr 06:00-14:00; Sa-Su 06:00-13:30",
      "website": "http://citybagels.biz/",
      "internet_access": "no",
      "phone": "+1 408-275-0151",
      "takeaway": "yes",
      "drive_through": "no",
      "outdoor_seating": "no",
      "toilets": "no",
      "addr_state": "CA",
      "addr_city": "San Jose",
      "addr_postcode": "95113",
      "addr_street": "West Santa Clara Street",
      "addr_housenumber": "52",
      "value": 137.22367085887103
    },
    {
      "id": 107483,
      "geometry": "POINT (-121.84232 37.371362)",
      "poi_name": "Starbucks",
      "osm_id": 3563994303,
      "amenity": "cafe",
      "cuisine": "coffee_shop",
      "operator": "Starbucks Coffee Company",
      "takeaway": "yes",
      "official_name": "Starbucks Coffee",
      "addr_state": "CA",
      "addr_city": "San Jose",
      "addr_postcode": "95127",
      "addr_street": "McKee Road",
      "addr_housenumber": "2707",
      "value": 137.22367085887103
    },
    {
      "id": 107783,
      "geometry": "POINT (-121.978301 37.576653)",
      "poi_name": "Nature\u2019s & Soul",
      "osm_id": 3577840300,
      "amenity": "cafe",
      "addr_city": "Fremont",
      "addr_postcode": "94536",
      "addr_street": "Niles Boulevard",
      "addr_housenumber": "37597",
      "value": 137.22367085887103
    },
    {
      "id": 107673,
      "geometry": "POINT (-121.986798 37.546378)",
      "poi_name": "The Posh Bagel",
      "osm_id": 3573799293,
      "amenity": "cafe",
      "cuisine": "sandwich",
      "opening_hours": "Mo-Fr 06:00-17:00; Sa-Su 07:00-18:00",
      "internet_access": "wlan",
      "addr_state": "CA",
      "addr_city": "Fremont",
      "addr_housenumber": "39124",
      "value": 137.22367085887103
    },
    {
      "id": 108203,
      "geometry": "POINT (-121.911634 37.341433)",
      "poi_name": "Starbucks",
      "osm_id": 3602707769,
      "amenity": "cafe",
      "cuisine": "coffee_shop",
      "takeaway": "yes",
      "official_name": "Starbucks Coffee",
      "addr_city": "San Jose",
      "addr_postcode": "95110",
      "addr_street": "Coleman Avenue",
      "addr_housenumber": "695",
      "value": 137.22367085887103
    },
    {
      "id": 108416,
      "geometry": "POINT (-121.934366 37.344958)",
      "poi_name": "Tea Plus",
      "osm_id": 3613960690,
      "amenity": "cafe",
      "cuisine": "bubble_tea",
      "addr_state": "CA",
      "addr_city": "Santa Clara",
      "addr_postcode": "95050",
      "addr_street": "The Alameda",
      "addr_housenumber": "2421",
      "value": 137.22367085887103
    },
    {
      "id": 108304,
      "geometry": "POINT (-121.905487 37.331561)",
      "poi_name": "HannaH",
      "osm_id": 3608158859,
      "amenity": "cafe",
      "cuisine": "coffee_shop",
      "official_name": "Hannah Coffee, Tea, & Sweets",
      "addr_state": "CA",
      "addr_city": "San Jose",
      "addr_postcode": "95126",
      "addr_street": "The Alameda",
      "addr_housenumber": "754",
      "value": 137.22367085887103
    },
    {
      "id": 108501,
      "geometry": "POINT (-121.881317 37.340766)",
      "poi_name": "Vegan Donut & Cafe",
      "osm_id": 3622610707,
      "amenity": "cafe",
      "cuisine": "donut",
      "addr_city": "San Jose",
      "addr_postcode": "95112",
      "addr_street": "East Santa Clara Street",
      "addr_housenumber": "449",
      "value": 137.22367085887103
    },
    {
      "id": 108481,
      "geometry": "POINT (-121.986819 37.543808)",
      "poi_name": "Tata Teahouse",
      "osm_id": 3621209396,
      "amenity": "cafe",
      "addr_state": "CA",
      "addr_city": "Fremont",
      "addr_street": "Argonaut Way",
      "addr_housenumber": "39230",
      "value": 137.22367085887103
    },
    {
      "id": 108630,
      "geometry": "POINT (-121.886765 37.333835)",
      "poi_name": "Whispers",
      "osm_id": 3630274647,
      "amenity": "cafe",
      "cuisine": "breakfast",
      "website": "https://whisperscafe.com/",
      "addr_city": "San Jose",
      "addr_postcode": "95113",
      "addr_street": "South 2nd Street",
      "addr_housenumber": "150",
      "value": 137.22367085887103
    },
    {
      "id": 108552,
      "geometry": "POINT (-121.911772 37.331767)",
      "poi_name": "Crema Coffee Roasting Company",
      "osm_id": 3624657294,
      "amenity": "cafe",
      "cuisine": "coffee_shop",
      "website": "http://www.cremacoffeeco.com/",
      "addr_city": "San Jose",
      "addr_postcode": "95126",
      "addr_street": "The Alameda",
      "addr_housenumber": "1202",
      "value": 137.22367085887103
    },
    {
      "id": 108807,
      "geometry": "POINT (-121.885649 37.33873)",
      "poi_name": "Tea Village",
      "osm_id": 3634866137,
      "amenity": "cafe",
      "cuisine": "bubble_tea",
      "addr_state": "CA",
      "addr_city": "San Jose",
      "addr_postcode": "95113",
      "addr_street": "East Santa Clara Street",
      "addr_housenumber": "231",
      "value": 137.22367085887103
    },
    {
      "id": 109898,
      "geometry": "POINT (-121.933176 37.344601)",
      "poi_name": "Skinny Monkey",
      "osm_id": 3678037158,
      "amenity": "cafe",
      "cuisine": "bubble_tea;shave_ice",
      "addr_state": "CA",
      "addr_city": "Santa Clara",
      "addr_postcode": "95050",
      "addr_street": "The Alameda",
      "addr_housenumber": "2255",
      "value": 137.22367085887103
    },
    {
      "id": 109836,
      "geometry": "POINT (-121.981118 37.553972)",
      "poi_name": "PJ's Bagels",
      "osm_id": 3676760024,
      "amenity": "cafe",
      "cuisine": "bagel",
      "opening_hours": "Mo-Fr 05:30-15:00; Sa 06:30-16:00; Su 06:30-14:30",
      "internet_access": "wlan",
      "addr_city": "Fremont",
      "addr_postcode": "94538",
      "addr_street": "Paseo Padre Parkway",
      "addr_housenumber": "38990B",
      "value": 137.22367085887103
    },
    {
      "id": 109931,
      "geometry": "POINT (-121.840385 37.299596)",
      "poi_name": "Meow!",
      "osm_id": 3678527432,
      "amenity": "cafe",
      "cuisine": "tea",
      "website": "http://www.meowtea.com/",
      "addr_state": "CA",
      "addr_city": "San Jose",
      "addr_postcode": "95111",
      "addr_street": "Senter Road",
      "addr_housenumber": "2857",
      "value": 137.22367085887103
    },
    {
      "id": 108769,
      "geometry": "POINT (-121.889263 37.334723)",
      "poi_name": "EggHead Sando Caf\u00e9",
      "osm_id": 3634565760,
      "amenity": "cafe",
      "addr_state": "CA",
      "addr_city": "San Jose",
      "addr_postcode": "95113",
      "addr_street": "South 1st Street",
      "addr_housenumber": "80",
      "value": 137.22367085887103
    },
    {
      "id": 109022,
      "geometry": "POINT (-121.924092 37.3342)",
      "poi_name": "Starbucks",
      "osm_id": 3646555434,
      "amenity": "cafe",
      "cuisine": "coffee_shop",
      "wheelchair": "yes",
      "takeaway": "yes",
      "official_name": "Starbucks Coffee",
      "addr_city": "San Jose",
      "addr_postcode": "95126",
      "addr_street": "Park Avenue",
      "addr_housenumber": "1700",
      "value": 137.22367085887103
    },
    {
      "id": 109427,
      "geometry": "POINT (-121.973098 37.31993)",
      "poi_name": "Starbucks",
      "osm_id": 3659623886,
      "amenity": "cafe",
      "cuisine": "coffee_shop",
      "internet_access": "wlan",
      "takeaway": "yes",
      "official_name": "Starbucks Coffee",
      "addr_state": "CA",
      "addr_city": "San Jose",
      "addr_postcode": "95129",
      "addr_street": "Saratoga Avenue",
      "addr_housenumber": "405",
      "value": 137.22367085887103
    },
    {
      "id": 109428,
      "geometry": "POINT (-121.973246 37.319944)",
      "poi_name": "Starbucks",
      "osm_id": 3659629615,
      "amenity": "cafe",
      "cuisine": "coffee_shop",
      "opening_hours": "Mo-Su 05:00-19:30",
      "website": "https://www.starbucks.com/store-locator/store/1007021/saratoga-kiely-405-saratoga-ave-suite-10-san-jose-ca-951291326-us",
      "phone": "+1-408-260-9160",
      "takeaway": "yes",
      "official_name": "Starbucks Coffee",
      "outdoor_seating": "yes",
      "addr_state": "CA",
      "addr_city": "San Jose",
      "addr_postcode": "95129",
      "addr_street": "Saratoga Avenue",
      "addr_housenumber": "405",
      "value": 137.22367085887103
    },
    {
      "id": 109933,
      "geometry": "POINT (-121.838645 37.297443)",
      "poi_name": "Bo Gia",
      "osm_id": 3678527444,
      "amenity": "cafe",
      "cuisine": "vietnamese",
      "addr_state": "CA",
      "addr_city": "San Jose",
      "addr_postcode": "95111",
      "addr_street": "Senter Road",
      "addr_housenumber": "2897",
      "value": 137.22367085887103
    },
    {
      "id": 110389,
      "geometry": "POINT (-121.859087 37.329686)",
      "poi_name": "Bobo Drinks",
      "osm_id": 3700431844,
      "amenity": "cafe",
      "cuisine": "vietnamese",
      "addr_city": "San Jose",
      "addr_postcode": "95122",
      "addr_street": "Story Road",
      "addr_housenumber": "779",
      "value": 137.22367085887103
    },
    {
      "id": 109955,
      "geometry": "POINT (-121.847639 37.308433)",
      "poi_name": "Heo May Cafe",
      "osm_id": 3679715100,
      "amenity": "cafe",
      "addr_city": "San Jose",
      "addr_postcode": "95111",
      "addr_street": "Senter Road",
      "addr_housenumber": "2398",
      "value": 137.22367085887103
    },
    {
      "id": 109956,
      "geometry": "POINT (-121.848016 37.30907)",
      "poi_name": "Dolce Espresso",
      "osm_id": 3679715105,
      "amenity": "cafe",
      "cuisine": "coffee_shop",
      "addr_state": "CA",
      "addr_city": "San Jose",
      "addr_postcode": "95112",
      "addr_street": "Senter Road",
      "addr_housenumber": "2326",
      "value": 137.22367085887103
    },
    {
      "id": 109957,
      "geometry": "POINT (-121.849713 37.310733)",
      "poi_name": "Passion-T Snacks & Desserts",
      "osm_id": 3679715120,
      "amenity": "cafe",
      "cuisine": "bubble_tea",
      "addr_state": "CA",
      "addr_city": "San Jose",
      "addr_postcode": "95112",
      "addr_street": "Senter Road",
      "addr_housenumber": "2266",
      "value": 137.22367085887103
    },
    {
      "id": 110654,
      "geometry": "POINT (-121.813055 37.30892)",
      "poi_name": "Happy Lemon",
      "osm_id": 3711324869,
      "amenity": "cafe",
      "cuisine": "bubble_tea",
      "takeaway": "yes",
      "addr_state": "CA",
      "addr_city": "San Jose",
      "addr_postcode": "95121",
      "addr_street": "Silver Creek Road",
      "addr_housenumber": "3005",
      "value": 137.22367085887103
    },
    {
      "id": 112846,
      "geometry": "POINT (-122.036462 37.33679)",
      "poi_name": "Starbucks",
      "osm_id": 3807526196,
      "amenity": "cafe",
      "cuisine": "coffee_shop",
      "operator": "Starbucks Coffee Company",
      "takeaway": "yes",
      "official_name": "Starbucks Coffee",
      "addr_state": "CA",
      "addr_city": "Cupertino",
      "addr_postcode": "95014-0451",
      "addr_street": "Homestead Road",
      "addr_housenumber": "20676",
      "value": 137.22367085887103
    },
    {
      "id": 112124,
      "geometry": "POINT (-121.977047 37.57635)",
      "poi_name": "Niles Ice Cream Sweets & Eats",
      "osm_id": 3781461944,
      "amenity": "cafe",
      "cuisine": "ice_cream",
      "opening_hours": "Su-Sa 11:00-22:00",
      "outdoor_seating": "yes",
      "addr_state": "CA",
      "addr_city": "Fremont",
      "addr_street": "Niles Boulevard",
      "addr_housenumber": "37699",
      "value": 137.22367085887103
    },
    {
      "id": 115493,
      "geometry": "POINT (-121.809739 37.31089)",
      "poi_name": "Starbucks",
      "osm_id": 8899354495,
      "amenity": "cafe",
      "cuisine": "coffee_shop",
      "internet_access": "yes",
      "takeaway": "yes",
      "official_name": "Starbucks Coffee",
      "outdoor_seating": "yes",
      "addr_state": "CA",
      "addr_city": "San Jose",
      "addr_postcode": "95121",
      "addr_street": "East Capitol Expressway",
      "addr_housenumber": "1847",
      "value": 137.22367085887103
    },
    {
      "id": 113047,
      "geometry": "POINT (-122.033662 37.316655)",
      "poi_name": "Vampire Penguin",
      "osm_id": 3814942153,
      "amenity": "cafe",
      "cuisine": "bubble_tea",
      "operator": "Bell R&T LLC",
      "website": "https://www.vampirepenguincupertino.com/",
      "addr_state": "CA",
      "addr_city": "Cupertino",
      "addr_postcode": "95014-3011",
      "addr_street": "South De Anza Boulevard",
      "addr_housenumber": "10445",
      "value": 137.22367085887103
    },
    {
      "id": 113049,
      "geometry": "POINT (-122.034649 37.322579)",
      "poi_name": "Philz Coffee",
      "osm_id": 3814942187,
      "amenity": "cafe",
      "cuisine": "coffee_shop",
      "opening_hours": "Mo-Fr 06:00 - 20:30; Sa-Su 06:30-20:00",
      "website": "https://www.philzcoffee.com/",
      "phone": "+1 (408) 446-9000",
      "takeaway": "yes",
      "addr_city": "cupertino",
      "addr_postcode": "95014",
      "addr_street": "Stevens Creek Boulevard",
      "addr_housenumber": "20686",
      "value": 137.22367085887103
    },
    {
      "id": 113055,
      "geometry": "POINT (-122.015603 37.33582)",
      "poi_name": "Ume",
      "osm_id": 3815032272,
      "amenity": "cafe",
      "cuisine": "bubble_tea",
      "wheelchair": "yes",
      "opening_hours": "Mo-Su 11:00-21:30",
      "addr_state": "CA",
      "addr_city": "Cupertino",
      "addr_postcode": "95014",
      "addr_street": "North Wolfe Road",
      "addr_housenumber": "10887",
      "value": 137.22367085887103
    },
    {
      "id": 115828,
      "geometry": "POINT (-122.182502 37.454437)",
      "poi_name": "Philz Coffee",
      "osm_id": 8914579824,
      "amenity": "cafe",
      "cuisine": "coffee_shop",
      "takeaway": "yes",
      "addr_state": "CA",
      "addr_city": "Menlo Park",
      "addr_postcode": "94025",
      "addr_street": "Santa Cruz Avenue",
      "addr_housenumber": "506",
      "value": 137.22367085887103
    },
    {
      "id": 116284,
      "geometry": "POINT (-122.047434 37.548105)",
      "poi_name": "85\u00b0C",
      "osm_id": 8934474375,
      "amenity": "cafe",
      "cuisine": "coffee_shop;chinese",
      "website": "https://www.85cbakerycafe.com/",
      "phone": "+1-510-796-8585",
      "takeaway": "yes",
      "addr_state": "CA",
      "addr_city": "Newark",
      "addr_postcode": "94560",
      "addr_street": "Newark Boulevard",
      "addr_housenumber": "35201",
      "value": 137.22367085887103
    },
    {
      "id": 116716,
      "geometry": "POINT (-121.944392 37.294037)",
      "poi_name": "7 Leaves Cafe",
      "osm_id": 8955585207,
      "amenity": "cafe",
      "cuisine": "bubble_tea",
      "website": "https://7leavescafe.com/locations/campbell/",
      "takeaway": "yes",
      "addr_state": "CA",
      "addr_city": "Campbell",
      "addr_postcode": "95008",
      "addr_street": "East Hamilton Avenue",
      "addr_housenumber": "330",
      "value": 137.22367085887103
    },
    {
      "id": 118590,
      "geometry": "POINT (-121.860195 37.387633)",
      "poi_name": "Tastea San Jose",
      "osm_id": 9053836184,
      "amenity": "cafe",
      "cuisine": "bubble_tea",
      "wheelchair": "yes",
      "opening_hours": "Mo-Th 12:00-21:00; Fr-Sa 11:00-23:00; Su 11:00-21:00",
      "toilets": "yes",
      "addr_state": "CA",
      "addr_city": "San Jose",
      "addr_postcode": "95132",
      "addr_street": "North Capitol Avenue",
      "addr_housenumber": "1160",
      "value": 137.22367085887103
    },
    {
      "id": 118592,
      "geometry": "POINT (-121.861375 37.388622)",
      "poi_name": "Macu Tea",
      "osm_id": 9053836187,
      "amenity": "cafe",
      "cuisine": "bubble_tea",
      "takeaway": "yes",
      "addr_city": "San Jose",
      "addr_postcode": "95132",
      "addr_street": "North Capitol Avenue",
      "addr_housenumber": "1196",
      "value": 137.22367085887103
    },
    {
      "id": 120384,
      "geometry": "POINT (-121.885792 37.435565)",
      "poi_name": "Starbucks",
      "osm_id": 6700931882,
      "amenity": "cafe",
      "cuisine": "coffee_shop",
      "opening_hours": "Mo-Fr 05:00-19:30; Sa,Su 05:30-19:00",
      "takeaway": "yes",
      "official_name": "Starbucks Coffee",
      "addr_state": "CA",
      "addr_city": "Milpitas",
      "addr_postcode": "95035",
      "addr_street": "East Calaveras Boulevard",
      "addr_housenumber": "1197",
      "value": 137.22367085887103
    },
    {
      "id": 120404,
      "geometry": "POINT (-121.915471 37.4195)",
      "poi_name": "85\u00b0C",
      "osm_id": 6701148970,
      "amenity": "cafe",
      "cuisine": "coffee_shop;chinese",
      "shop": "bakery",
      "takeaway": "yes",
      "official_name": "85C Bakery Cafe - Milpitas",
      "addr_state": "CA",
      "addr_city": "Milpitas",
      "addr_postcode": "95035",
      "addr_street": "Barber Lane",
      "addr_housenumber": "672",
      "value": 137.22367085887103
    },
    {
      "id": 127348,
      "geometry": "POINT (-121.878904 37.321082)",
      "poi_name": "Trine's Cafe",
      "osm_id": 8057409712,
      "amenity": "cafe",
      "addr_city": "San Jose",
      "addr_postcode": "95110",
      "addr_street": "South 1st Street",
      "addr_housenumber": "995",
      "value": 137.22367085887103
    },
    {
      "id": 123499,
      "geometry": "POINT (-121.946533 37.395364)",
      "poi_name": "Fantasia Tea Cafe",
      "osm_id": 6859149490,
      "amenity": "cafe",
      "cuisine": "bubble_tea",
      "wheelchair": "yes",
      "opening_hours": "Mo-Su 11:00-20:00",
      "toilets": "yes",
      "addr_state": "CA",
      "addr_city": "Santa Clara",
      "addr_postcode": "95054",
      "addr_street": "Rivermark Plaza",
      "addr_housenumber": "3969",
      "value": 137.22367085887103
    },
    {
      "id": 123500,
      "geometry": "POINT (-121.946117 37.395191)",
      "poi_name": "EggHead Sando Cafe",
      "osm_id": 6859149493,
      "amenity": "cafe",
      "wheelchair": "yes",
      "opening_hours": "Mo-Fr 07:00-15:00; Sa 07:00-16:00; Su 08:00-16:00",
      "takeaway": "yes",
      "outdoor_seating": "yes",
      "addr_state": "CA",
      "addr_city": "Santa Clara",
      "addr_postcode": "95054",
      "addr_street": "Rivermark Plaza",
      "addr_housenumber": "3957",
      "value": 137.22367085887103
    },
    {
      "id": 124718,
      "geometry": "POINT (-121.972513 37.323597)",
      "poi_name": "Voyager Craft Coffee",
      "osm_id": 6926714151,
      "amenity": "cafe",
      "cuisine": "coffee_shop",
      "website": "http://www.voyagercc.com/",
      "takeaway": "yes",
      "addr_state": "CA",
      "addr_city": "Santa Clara",
      "addr_postcode": "95051",
      "addr_street": "Stevens Creek Boulevard",
      "addr_housenumber": "3985",
      "value": 137.22367085887103
    },
    {
      "id": 123647,
      "geometry": "POINT (-121.821901 37.300223)",
      "poi_name": "Starbucks",
      "osm_id": 6868507878,
      "amenity": "cafe",
      "cuisine": "coffee_shop",
      "takeaway": "yes",
      "official_name": "Starbucks Coffee",
      "addr_state": "CA",
      "addr_city": "San Jose",
      "addr_postcode": "95125",
      "addr_street": "East Capitol Expressway",
      "addr_housenumber": "1041",
      "value": 137.22367085887103
    },
    {
      "id": 127366,
      "geometry": "POINT (-121.860834 37.358877)",
      "poi_name": "Co Hong Cafe",
      "osm_id": 8060126722,
      "amenity": "cafe",
      "addr_city": "San Jose",
      "addr_postcode": "95116",
      "addr_street": "McKee Road",
      "addr_housenumber": "1711",
      "value": 137.22367085887103
    },
    {
      "id": 128793,
      "geometry": "POINT (-121.937596 37.412777)",
      "poi_name": "Caffe Bene",
      "osm_id": 8185858628,
      "amenity": "cafe",
      "description": "coffee, waffles",
      "wheelchair": "limited",
      "opening_hours": "Mo-Su 09:00-20:00",
      "takeaway": "yes",
      "outdoor_seating": "yes",
      "toilets": "yes",
      "addr_state": "CA",
      "addr_city": "San Jose",
      "addr_postcode": "95134",
      "addr_street": "East Tasman Drive",
      "addr_housenumber": "181",
      "value": 137.22367085887103
    },
    {
      "id": 128678,
      "geometry": "POINT (-121.976918 37.352016)",
      "poi_name": "Jin\u2019s Bakery & Coffee",
      "osm_id": 8177961443,
      "amenity": "cafe",
      "addr_state": "CA",
      "addr_city": "Santa Clara",
      "addr_postcode": "95051",
      "addr_street": "El Camino Real",
      "addr_housenumber": "2792",
      "value": 137.22367085887103
    },
    {
      "id": 131733,
      "geometry": "POINT (-121.994153 37.291738)",
      "poi_name": "TaoTaoTea",
      "osm_id": 9925744569,
      "amenity": "cafe",
      "cuisine": "bubble_tea",
      "addr_state": "CA",
      "addr_city": "Saratoga",
      "addr_postcode": "95070",
      "addr_street": "Prospect Road",
      "addr_housenumber": "18472",
      "value": 137.22367085887103
    },
    {
      "id": 128887,
      "geometry": "POINT (-121.792899 37.313345)",
      "poi_name": "Peacock Indian Cafe",
      "osm_id": 8195174713,
      "amenity": "cafe",
      "cuisine": "indian",
      "addr_city": "San Jose",
      "addr_postcode": "95121",
      "addr_street": "Aborn Road",
      "addr_housenumber": "2760",
      "value": 137.22367085887103
    },
    {
      "id": 130991,
      "geometry": "POINT (-121.994341 37.308856)",
      "poi_name": "Cozy Tea Loft",
      "osm_id": 9898120411,
      "amenity": "cafe",
      "cuisine": "bubble_tea",
      "opening_hours": "Mo-Su 12:00-22:00",
      "website": "https://www.cozytealoftsj.com/",
      "phone": "+1-408-564-6907",
      "outdoor_seating": "no",
      "addr_state": "CA",
      "addr_city": "San Jose",
      "addr_postcode": "95129",
      "addr_street": "Moorpark Avenue",
      "addr_housenumber": "5152",
      "value": 137.22367085887103
    },
    {
      "id": 136661,
      "geometry": "POINT (-121.950624 37.30015)",
      "poi_name": "Starbucks",
      "osm_id": 11595494901,
      "amenity": "cafe",
      "cuisine": "coffee_shop",
      "takeaway": "yes",
      "official_name": "Starbucks Coffee",
      "outdoor_seating": "yes",
      "addr_state": "CA",
      "addr_city": "San Jose",
      "addr_postcode": "95128",
      "addr_street": "South Winchester Boulevard",
      "addr_housenumber": "1335",
      "value": 137.22367085887103
    },
    {
      "id": 131726,
      "geometry": "POINT (-121.821134 37.324251)",
      "poi_name": "SJ Island",
      "osm_id": 9925366773,
      "amenity": "cafe",
      "cuisine": "vietnamese",
      "outdoor_seating": "yes",
      "addr_state": "CA",
      "addr_city": "San Jose",
      "addr_postcode": "95122",
      "addr_street": "Tully Road",
      "addr_housenumber": "1962",
      "value": 137.22367085887103
    },
    {
      "id": 133736,
      "geometry": "POINT (-121.929688 37.369334)",
      "poi_name": "Peet's Coffee",
      "osm_id": 10005512661,
      "amenity": "cafe",
      "cuisine": "coffee_shop",
      "opening_hours": "04:30+",
      "takeaway": "yes",
      "addr_state": "CA",
      "addr_city": "San Jose",
      "addr_postcode": "95110",
      "addr_street": "Airport Boulevard",
      "addr_housenumber": "2077",
      "value": 137.22367085887103
    },
    {
      "id": 137877,
      "geometry": "POINT (-122.00537 37.332595)",
      "poi_name": "Cafe",
      "osm_id": 6117580047,
      "amenity": "cafe",
      "cuisine": "coffee_shop",
      "wheelchair": "yes",
      "internet_access": "yes",
      "takeaway": "yes",
      "outdoor_seating": "yes",
      "addr_state": "CA",
      "addr_city": "Cupertino",
      "addr_postcode": "95014-0706",
      "addr_street": "North Tantau Avenue",
      "addr_housenumber": "10600",
      "value": 137.22367085887103
    },
    {
      "id": 139213,
      "geometry": "POINT (-122.006837 37.558442)",
      "poi_name": "Slapface Coffee & Tea",
      "osm_id": 6187154318,
      "amenity": "cafe",
      "cuisine": "coffee_shop",
      "internet_access": "wlan",
      "takeaway": "yes",
      "outdoor_seating": "yes",
      "addr_state": "CA",
      "addr_city": "Fremont",
      "addr_postcode": "94536",
      "addr_street": "Fremont Boulevard",
      "addr_housenumber": "37324",
      "value": 137.22367085887103
    },
    {
      "id": 139214,
      "geometry": "POINT (-122.104904 37.645203)",
      "poi_name": "Eon Coffee",
      "osm_id": 6187158535,
      "amenity": "cafe",
      "cuisine": "coffee_shop;sandwich;tea",
      "internet_access": "wlan",
      "takeaway": "yes",
      "outdoor_seating": "yes",
      "addr_state": "CA",
      "addr_city": "Hayward",
      "addr_postcode": "94545",
      "addr_street": "Hesperian Boulevard",
      "addr_housenumber": "24970",
      "value": 137.22367085887103
    },
    {
      "id": 138151,
      "geometry": "POINT (-122.391286 37.773478)",
      "poi_name": "Joe & The Juice",
      "osm_id": 6133706543,
      "amenity": "cafe",
      "cuisine": "coffee_shop",
      "wheelchair": "yes",
      "opening_hours": "Mo-Su 07:00-19:00",
      "website": "https://joejuice.com",
      "takeaway": "yes",
      "outdoor_seating": "yes",
      "addr_state": "CA",
      "addr_city": "San Francisco",
      "addr_postcode": "94158",
      "addr_street": "4th Street",
      "addr_housenumber": "1155",
      "value": 137.22367085887103
    },
    {
      "id": 142002,
      "geometry": "POINT (-121.906377 37.340512)",
      "poi_name": "Happy Lemon",
      "osm_id": 6300726343,
      "amenity": "cafe",
      "cuisine": "bubble_tea",
      "addr_city": "San Jose",
      "addr_postcode": "95110",
      "addr_street": "Coleman Avenue",
      "addr_housenumber": "567",
      "value": 137.22367085887103
    },
    {
      "id": 142396,
      "geometry": "POINT (-121.980994 37.351549)",
      "poi_name": "Big Mug Coffee Roaster",
      "osm_id": 6313249954,
      "amenity": "cafe",
      "internet_access": "wlan",
      "outdoor_seating": "no",
      "addr_state": "CA",
      "addr_city": "Santa Clara",
      "addr_postcode": "95051",
      "addr_street": "El Camino Real",
      "addr_housenumber": "3014",
      "value": 137.22367085887103
    },
    {
      "id": 147458,
      "geometry": "POINT (-121.792493 37.256427)",
      "poi_name": "Starbucks",
      "osm_id": 7534540329,
      "amenity": "cafe",
      "cuisine": "coffee_shop",
      "description": "Silver Creek & Hwy 101",
      "operator": "Starbucks Coffee Company",
      "phone": "+1-408-763-0938",
      "takeaway": "yes",
      "official_name": "Starbucks Coffee",
      "addr_state": "CA",
      "addr_city": "San Jose",
      "addr_postcode": "95138",
      "addr_street": "Silver Creek Valley Place",
      "addr_housenumber": "5805",
      "value": 137.22367085887103
    },
    {
      "id": 147658,
      "geometry": "POINT (-121.957186 37.52426)",
      "poi_name": "Tpumps",
      "osm_id": 7553064821,
      "amenity": "cafe",
      "opening_hours": "Mo-Su 11:00-21:30",
      "website": "https://www.tpumps.com/",
      "internet_access": "yes",
      "addr_state": "CA",
      "addr_city": "Fremont",
      "addr_postcode": "94538",
      "addr_street": "Blacow Road",
      "addr_housenumber": "42130",
      "value": 137.22367085887103
    },
    {
      "id": 147971,
      "geometry": "POINT (-121.803133 37.248665)",
      "poi_name": "Starbucks",
      "osm_id": 3921116036,
      "amenity": "cafe",
      "cuisine": "coffee_shop",
      "internet_access": "wlan",
      "takeaway": "yes",
      "drive_through": "no",
      "official_name": "Starbucks Coffee",
      "outdoor_seating": "yes",
      "addr_state": "CA",
      "addr_city": "San Jose",
      "addr_postcode": "95123",
      "addr_street": "Cottle Road",
      "addr_housenumber": "5670",
      "value": 137.22367085887103
    },
    {
      "id": 145073,
      "geometry": "POINT (-121.896047 37.382097)",
      "poi_name": "Vitality Bowls superfood cafe",
      "osm_id": 7307534764,
      "amenity": "cafe",
      "cuisine": "health_food",
      "description": "acai bowls, smoothies, juices, soups, salads",
      "wheelchair": "yes",
      "opening_hours": "Mo-Su 08:00-21:00",
      "takeaway": "yes",
      "outdoor_seating": "yes",
      "toilets": "yes",
      "addr_state": "CA",
      "addr_city": "San Jose",
      "addr_postcode": "95131",
      "addr_street": "East Brokaw Road",
      "addr_housenumber": "1088",
      "value": 137.22367085887103
    },
    {
      "id": 145080,
      "geometry": "POINT (-121.895864 37.381832)",
      "poi_name": "Peet's Coffee",
      "osm_id": 7307534779,
      "amenity": "cafe",
      "cuisine": "coffee_shop",
      "wheelchair": "yes",
      "takeaway": "yes",
      "outdoor_seating": "yes",
      "toilets": "yes",
      "addr_state": "CA",
      "addr_city": "San Jose",
      "addr_postcode": "95131",
      "addr_street": "Oakland Road",
      "addr_housenumber": "1088",
      "value": 137.22367085887103
    },
    {
      "id": 149828,
      "geometry": "POINT (-122.031589 37.376411)",
      "poi_name": "Starbucks",
      "osm_id": 4027092746,
      "amenity": "cafe",
      "cuisine": "coffee_shop",
      "internet_access": "yes",
      "takeaway": "yes",
      "official_name": "Starbucks Coffee",
      "addr_state": "CA",
      "addr_city": "Sunnyvale",
      "addr_postcode": "94086",
      "addr_street": "W Washington Ave",
      "addr_housenumber": "231",
      "value": 137.22367085887103
    },
    {
      "id": 148735,
      "geometry": "POINT (-122.012591 37.308738)",
      "poi_name": "Tea Top",
      "osm_id": 3977017757,
      "amenity": "cafe",
      "addr_city": "San Jose",
      "addr_postcode": "95129",
      "addr_street": "Bollinger Road",
      "addr_housenumber": "6158",
      "value": 137.22367085887103
    },
    {
      "id": 148754,
      "geometry": "POINT (-122.003235 37.389148)",
      "poi_name": "Von\u2019s Express Halal",
      "osm_id": 3977606746,
      "amenity": "cafe",
      "cuisine": "indian",
      "opening_hours": "11:00-21:00",
      "website": "https://vonshalal.com/",
      "internet_access": "yes",
      "phone": "408.542.9766",
      "addr_state": "CA",
      "addr_city": "Sunnyvale",
      "addr_street": "E Duane Ave",
      "addr_housenumber": "933",
      "value": 137.22367085887103
    },
    {
      "id": 149343,
      "geometry": "POINT (-121.88461 37.230325)",
      "poi_name": "Blvd Coffee",
      "osm_id": 4004340905,
      "amenity": "cafe",
      "cuisine": "coffee_shop",
      "operator": "Blvd Coffee Incorporated",
      "official_name": "Blvd Coffee of Almaden",
      "addr_state": "CA",
      "addr_city": "San Jose",
      "addr_postcode": "95120",
      "addr_street": "Meridian Avenue",
      "addr_housenumber": "6055",
      "value": 137.22367085887103
    },
    {
      "id": 151527,
      "geometry": "POINT (-121.82805 37.366104)",
      "poi_name": "Starbucks",
      "osm_id": 4103619352,
      "amenity": "cafe",
      "cuisine": "coffee_shop",
      "takeaway": "yes",
      "official_name": "Starbucks Coffee",
      "addr_state": "CA",
      "addr_city": "San Jose",
      "addr_postcode": "95127",
      "addr_street": "Alum Rock Avenue",
      "addr_housenumber": "3103",
      "value": 137.22367085887103
    },
    {
      "id": 151313,
      "geometry": "POINT (-121.88687 37.329925)",
      "poi_name": "Voltaire Coffee House",
      "osm_id": 4093398681,
      "amenity": "cafe",
      "opening_hours": "Mo-Fr 06:00-18:00; Sa-Su 08:00-18:00",
      "website": "http://www.voltairecoffeehouse.com",
      "addr_city": "San Jose",
      "addr_postcode": "95113",
      "addr_street": "South Market Street",
      "addr_housenumber": "360",
      "value": 137.22367085887103
    },
    {
      "id": 154637,
      "geometry": "POINT (-121.946199 37.394736)",
      "poi_name": "Prolific Oven Bakery & Cafe",
      "osm_id": 4247809499,
      "amenity": "cafe",
      "opening_hours": "Mo-Th 07:00-21:30; Fr 07:00-22:30; Sa 07:30-22:30; Su 08:00-21:30",
      "website": "http://www.prolificoven.com/store-locations/rivermark-village-in-santa-clara-ca",
      "phone": "+1-408-986-8388",
      "addr_state": "CA",
      "addr_city": "Santa Clara",
      "addr_postcode": "95054",
      "addr_street": "Rivermark Plaza",
      "addr_housenumber": "3938",
      "value": 137.22367085887103
    },
    {
      "id": 153053,
      "geometry": "POINT (-121.963346 37.408171)",
      "poi_name": "Mikayla's Cafe",
      "osm_id": 4173741395,
      "amenity": "cafe",
      "opening_hours": "Mo-Fr 07:00-14:30; Sa,Su 08:00-15:00",
      "website": "https://www.mikaylascafe.com/",
      "phone": "+1-408-988-8803",
      "addr_state": "CA",
      "addr_city": "Santa Clara",
      "addr_postcode": "95054",
      "addr_street": "Tasman Drive",
      "addr_housenumber": "2209",
      "value": 137.22367085887103
    },
    {
      "id": 154369,
      "geometry": "POINT (-122.240266 37.49041)",
      "poi_name": "Starbucks",
      "osm_id": 4235059080,
      "amenity": "cafe",
      "cuisine": "coffee_shop",
      "takeaway": "yes",
      "official_name": "Starbucks Coffee",
      "addr_state": "CA",
      "addr_city": "Redwood City",
      "addr_postcode": "94062",
      "addr_street": "El Camino Real",
      "addr_housenumber": "490",
      "value": 137.22367085887103
    },
    {
      "id": 155657,
      "geometry": "POINT (-121.844287 37.250119)",
      "poi_name": "Hubs Coffee",
      "osm_id": 4295519591,
      "amenity": "cafe",
      "addr_city": "San Jose",
      "addr_postcode": "95123",
      "addr_street": "Blossom Hill Road",
      "addr_housenumber": "630",
      "value": 137.22367085887103
    },
    {
      "id": 155621,
      "geometry": "POINT (-121.85793 37.248616)",
      "poi_name": "TLeaf Teapresso",
      "osm_id": 4293813390,
      "amenity": "cafe",
      "addr_city": "San Jose",
      "addr_postcode": "95123",
      "addr_street": "Blossom Hill Road",
      "addr_housenumber": "860",
      "value": 137.22367085887103
    },
    {
      "id": 155624,
      "geometry": "POINT (-121.857841 37.249073)",
      "poi_name": "Starbucks",
      "osm_id": 4293847889,
      "amenity": "cafe",
      "cuisine": "coffee_shop",
      "takeaway": "yes",
      "official_name": "Starbucks Coffee",
      "addr_state": "CA",
      "addr_city": "San Jose",
      "addr_postcode": "95123",
      "addr_street": "Blossom Hill Road",
      "addr_housenumber": "854",
      "value": 137.22367085887103
    },
    {
      "id": 158379,
      "geometry": "POINT (-122.031773 37.292663)",
      "poi_name": "Peet's Coffee",
      "osm_id": 4745733743,
      "amenity": "cafe",
      "cuisine": "coffee_shop",
      "opening_hours": "Mo-Su 06:00-18:00",
      "internet_access": "yes",
      "takeaway": "yes",
      "outdoor_seating": "yes",
      "addr_city": "Saratoga",
      "addr_postcode": "95070",
      "addr_street": "Saratoga-Sunnyvale Road",
      "addr_housenumber": "12148",
      "value": 137.22367085887103
    },
    {
      "id": 156576,
      "geometry": "POINT (-121.771909 37.300637)",
      "poi_name": "Starbucks",
      "osm_id": 4665108094,
      "amenity": "cafe",
      "cuisine": "coffee_shop",
      "opening_hours": "Mo-Su 05:30-20:30",
      "operator": "Starbucks Coffee Company",
      "internet_access": "wlan",
      "phone": "+1 408-531-8204",
      "takeaway": "yes",
      "official_name": "Starbucks Coffee",
      "addr_state": "CA",
      "addr_city": "San Jose",
      "addr_postcode": "95135",
      "addr_street": "San Felipe Road",
      "addr_housenumber": "4848",
      "value": 137.22367085887103
    },
    {
      "id": 157212,
      "geometry": "POINT (-122.391697 37.773514)",
      "poi_name": "Cafe R\u00e9veille",
      "osm_id": 4693634741,
      "amenity": "cafe",
      "cuisine": "american;coffee_shop",
      "wheelchair": "limited",
      "opening_hours": "Mo-Su 07:00-17:00",
      "outdoor_seating": "yes",
      "addr_state": "CA",
      "addr_city": "San Francisco",
      "addr_postcode": "94158",
      "addr_street": "Long Bridge Street",
      "addr_housenumber": "610",
      "value": 137.22367085887103
    },
    {
      "id": 157391,
      "geometry": "POINT (-121.977059 37.308339)",
      "poi_name": "Rose Cafe & Donuts",
      "osm_id": 4706077390,
      "amenity": "cafe",
      "addr_city": "San Jose",
      "addr_postcode": "95129",
      "addr_street": "Saratoga Avenue",
      "addr_housenumber": "994",
      "value": 137.22367085887103
    },
    {
      "id": 158859,
      "geometry": "POINT (-121.888464 37.333635)",
      "poi_name": "Tea Villa",
      "osm_id": 4765780813,
      "amenity": "cafe",
      "cuisine": "bubble_tea",
      "addr_city": "San Jose",
      "addr_postcode": "95113",
      "addr_street": "South 1st Street",
      "addr_housenumber": "150",
      "value": 137.22367085887103
    },
    {
      "id": 158870,
      "geometry": "POINT (-121.894453 37.383266)",
      "poi_name": "Starbucks",
      "osm_id": 4766343040,
      "amenity": "cafe",
      "cuisine": "coffee_shop",
      "takeaway": "yes",
      "official_name": "Starbucks Coffee",
      "addr_city": "San Jose",
      "addr_postcode": "95131",
      "addr_street": "Oakland Road",
      "addr_housenumber": "1704",
      "value": 137.22367085887103
    },
    {
      "id": 159562,
      "geometry": "POINT (-121.88736 37.333431)",
      "poi_name": "Starbucks",
      "osm_id": 4797429122,
      "amenity": "cafe",
      "cuisine": "coffee_shop",
      "takeaway": "yes",
      "official_name": "Starbucks Coffee",
      "addr_city": "San Jose",
      "addr_postcode": "95113",
      "addr_street": "South 1st Street",
      "addr_housenumber": "150",
      "value": 137.22367085887103
    },
    {
      "id": 160537,
      "geometry": "POINT (-122.079029 37.392414)",
      "poi_name": "Dana Street Roasting Company",
      "osm_id": 4837889880,
      "amenity": "cafe",
      "website": "http://www.danastreetroasting.com",
      "addr_state": "CA",
      "addr_city": "Mountain View",
      "addr_postcode": "94041",
      "addr_street": "West Dana Street",
      "addr_housenumber": "744",
      "value": 137.22367085887103
    },
    {
      "id": 161461,
      "geometry": "POINT (-121.889858 37.335479)",
      "poi_name": "Tea Alley",
      "osm_id": 4882119479,
      "amenity": "cafe",
      "cuisine": "bubble_tea",
      "official_name": "Tea Alley Incorporated",
      "addr_state": "CA",
      "addr_city": "San Jose",
      "addr_postcode": "95113",
      "addr_street": "South 1st Street",
      "addr_housenumber": "40",
      "value": 137.22367085887103
    },
    {
      "id": 160408,
      "geometry": "POINT (-121.88667 37.335339)",
      "poi_name": "Amor Cafe & Tea",
      "osm_id": 4833597321,
      "amenity": "cafe",
      "opening_hours": "Mo-Fr 11:00-22:00; Su 15:00-22:00",
      "website": "http://www.amorcafeandtea.com/",
      "addr_city": "San Jose",
      "addr_postcode": "95112",
      "addr_street": "East San Fernando Street",
      "addr_housenumber": "110",
      "value": 137.22367085887103
    },
    {
      "id": 161528,
      "geometry": "POINT (-121.892066 37.352736)",
      "poi_name": "Sinceretea",
      "osm_id": 4885837994,
      "amenity": "cafe",
      "cuisine": "bubble_tea",
      "wheelchair": "yes",
      "opening_hours": "12:00-19:00",
      "website": "https://sinceretea.net/",
      "internet_access": "wlan",
      "phone": "+1 408-908-9469",
      "takeaway": "yes",
      "drive_through": "no",
      "outdoor_seating": "patio",
      "toilets": "no",
      "addr_state": "CA",
      "addr_city": "San Jose",
      "addr_postcode": "95112",
      "addr_street": "East Taylor Street",
      "addr_housenumber": "392",
      "value": 137.22367085887103
    },
    {
      "id": 161709,
      "geometry": "POINT (-121.977329 37.221274)",
      "poi_name": "Cafe Dio",
      "osm_id": 4896285245,
      "amenity": "cafe",
      "addr_state": "CA",
      "addr_city": "Los Gatos",
      "addr_postcode": "95030",
      "addr_street": "East Main Street",
      "addr_housenumber": "151",
      "value": 137.22367085887103
    },
    {
      "id": 162184,
      "geometry": "POINT (-121.980801 37.221166)",
      "poi_name": "Purple Onion Cafe",
      "osm_id": 4919874017,
      "amenity": "cafe",
      "website": "http://purpleonionca.com/",
      "phone": "(408) 354-4125",
      "addr_state": "CA",
      "addr_city": "Los Gatos",
      "addr_postcode": "95030",
      "addr_street": "East Main Street",
      "addr_housenumber": "26",
      "value": 137.22367085887103
    },
    {
      "id": 165484,
      "geometry": "POINT (-121.886714 37.338225)",
      "poi_name": "Starbucks",
      "osm_id": 9538333457,
      "amenity": "cafe",
      "cuisine": "coffee_shop",
      "website": "https://www.starbucks.com/store-locator/store/1031578/e-santa-clara-5th-181-e-santa-clara-street-san-jose-ca-95112-us",
      "takeaway": "yes",
      "official_name": "Starbucks Coffee",
      "addr_state": "CA",
      "addr_city": "San Jose",
      "addr_postcode": "95113",
      "addr_street": "East Santa Clara Street",
      "addr_housenumber": "181",
      "value": 137.22367085887103
    },
    {
      "id": 162736,
      "geometry": "POINT (-121.994363 37.367613)",
      "poi_name": "Vitality Bowls",
      "osm_id": 4939160352,
      "amenity": "cafe",
      "cuisine": "juice;smoothie;a\u00e7a\u00ed",
      "wheelchair": "yes",
      "operator": "Makalu LLC",
      "takeaway": "yes",
      "outdoor_seating": "yes",
      "addr_state": "CA",
      "addr_city": "Santa Clara",
      "addr_postcode": "95051",
      "addr_street": "Monroe Street",
      "addr_housenumber": "3555",
      "value": 137.22367085887103
    },
    {
      "id": 163418,
      "geometry": "POINT (-122.40338 37.78462)",
      "poi_name": "Sharetea",
      "osm_id": 9417077145,
      "amenity": "cafe",
      "cuisine": "bubble_tea",
      "opening_hours": "Mo-Th 11:00-19:30; Fr-Su 11:00-20:30",
      "website": "https://www.shareteametreon.online/",
      "phone": "+1 415 2270888",
      "takeaway": "yes",
      "addr_city": "San Francisco",
      "value": 137.22367085887103
    },
    {
      "id": 163530,
      "geometry": "POINT (-121.828347 37.366481)",
      "poi_name": "TeaZer",
      "osm_id": 9421754560,
      "amenity": "cafe",
      "cuisine": "bubble_tea",
      "operator": "Ellis Thyme Inc.",
      "addr_state": "CA",
      "addr_city": "San Jose",
      "addr_postcode": "95127",
      "addr_street": "North White Road",
      "addr_housenumber": "22",
      "value": 137.22367085887103
    },
    {
      "id": 164454,
      "geometry": "POINT (-122.00846 37.403532)",
      "poi_name": "Boba Drive",
      "osm_id": 9472641687,
      "amenity": "cafe",
      "cuisine": "bubble_tea",
      "website": "https://www.bobadrive.shop/",
      "official_name": "Boba Drive LLC",
      "addr_state": "CA",
      "addr_city": "Sunnyvale",
      "addr_postcode": "94089",
      "addr_street": "West Tasman Drive",
      "addr_housenumber": "677",
      "value": 137.22367085887103
    },
    {
      "id": 166659,
      "geometry": "POINT (-122.144271 37.427242)",
      "poi_name": "Printer's Cafe",
      "osm_id": 303809258,
      "amenity": "cafe",
      "cuisine": "mexican;sandwich;gelato;cake",
      "description": "Wifi",
      "opening_hours": "Mo-Fr 07:00-21:00; Sa 08:00-21:00; Su 09:00-17:00",
      "website": "https://www.printerscafe.com/",
      "phone": "650-323-3347",
      "takeaway": "yes",
      "addr_city": "Palo Alto",
      "addr_street": "South California Avenue",
      "addr_housenumber": "320",
      "value": 137.22367085887103
    },
    {
      "id": 166378,
      "geometry": "POINT (-121.971739 37.321753)",
      "poi_name": "7 Leaves Cafe",
      "osm_id": 9590491978,
      "amenity": "cafe",
      "cuisine": "bubble_tea",
      "opening_hours": "Mo-Fr 07:00-22:00; Sa-Su 08:00-22:00",
      "website": "https://7leavescafe.com/",
      "phone": "+1-408-618-8401",
      "addr_city": "San Jose",
      "addr_postcode": "95129",
      "addr_street": "Saratoga Avenue",
      "addr_housenumber": "375",
      "value": 137.22367085887103
    },
    {
      "id": 166559,
      "geometry": "POINT (-121.881816 37.33378)",
      "poi_name": "Starbucks",
      "osm_id": 281136405,
      "amenity": "cafe",
      "cuisine": "coffee_shop",
      "internet_access": "yes",
      "takeaway": "yes",
      "official_name": "Starbucks Coffee",
      "outdoor_seating": "yes",
      "addr_state": "CA",
      "addr_city": "San Jose",
      "addr_postcode": "95192",
      "addr_street": "Washington Square",
      "addr_housenumber": "1",
      "value": 137.22367085887103
    },
    {
      "id": 166564,
      "geometry": "POINT (-122.170826 37.424076)",
      "poi_name": "CoHo",
      "osm_id": 281870028,
      "amenity": "cafe",
      "addr_state": "CA",
      "addr_city": "Stanford",
      "addr_postcode": "94305",
      "addr_street": "Lagunita Drive",
      "addr_housenumber": "459",
      "value": 137.22367085887103
    },
    {
      "id": 167223,
      "geometry": "POINT (-122.096418 37.421808)",
      "poi_name": "Starbucks",
      "osm_id": 345476438,
      "amenity": "cafe",
      "cuisine": "coffee_shop",
      "opening_hours": "Mo-Fr 04:30-20:30; Sa 05:00-19:30; Su 05:30-19:30",
      "takeaway": "yes",
      "official_name": "Starbucks Coffee",
      "addr_state": "CA",
      "addr_city": "Mountain View",
      "addr_postcode": "94043",
      "addr_street": "East Charleston Road",
      "addr_housenumber": "2410",
      "value": 137.22367085887103
    },
    {
      "id": 167010,
      "geometry": "POINT (-122.186227 37.449424)",
      "poi_name": "Peet's Coffee",
      "osm_id": 324871971,
      "amenity": "cafe",
      "cuisine": "coffee_shop",
      "description": "Alfred Peet opened this Menlo Park coffee shop in 1971, the second one after the original Berkeley location.",
      "opening_hours": "Mo-Fr 05:00-21:00; Sa-Su 06:00-21:00",
      "takeaway": "yes",
      "addr_state": "CA",
      "addr_city": "Menlo Park",
      "addr_postcode": "94025",
      "addr_street": "Santa Cruz Avenue",
      "addr_housenumber": "899",
      "value": 137.22367085887103
    },
    {
      "id": 167151,
      "geometry": "POINT (-122.078864 37.393644)",
      "poi_name": "Red Rock Coffee",
      "osm_id": 343135403,
      "amenity": "cafe",
      "wheelchair": "limited",
      "opening_hours": "Mo-Th 07:00-22:00, Fr 7:00-23:00, Sa 08:00-23:00, Su 8:00-17:00",
      "website": "http://www.redrockcoffee.org/",
      "internet_access": "wlan",
      "phone": "+16509674473",
      "addr_city": "Mountain View",
      "addr_postcode": "94041",
      "addr_street": "Castro Street",
      "addr_housenumber": "201",
      "value": 137.22367085887103
    },
    {
      "id": 169254,
      "geometry": "POINT (-122.388215 37.760084)",
      "poi_name": "Jolt and Bolt",
      "osm_id": 2296069181,
      "amenity": "cafe",
      "cuisine": "coffee_shop;bakery;sandwich;salad",
      "opening_hours": "Mo-Fr 08:30-15:00; Sa,Su 10:00-12:00",
      "internet_access": "no",
      "addr_state": "CA",
      "addr_city": "San Francisco",
      "addr_street": "3rd Street",
      "addr_housenumber": "2325",
      "value": 137.22367085887103
    },
    {
      "id": 167253,
      "geometry": "POINT (-121.913978 37.323315)",
      "poi_name": "Starbucks",
      "osm_id": 347433822,
      "amenity": "cafe",
      "cuisine": "coffee_shop",
      "wheelchair": "yes",
      "opening_hours": "Mo-Su 06:00-18:00",
      "operator": "Starbucks",
      "takeaway": "yes",
      "official_name": "Starbucks Coffee",
      "outdoor_seating": "yes",
      "toilets": "yes",
      "addr_city": "San Jose",
      "addr_postcode": "95126",
      "addr_street": "West San Carlos Street",
      "addr_housenumber": "1432",
      "value": 137.22367085887103
    },
    {
      "id": 168430,
      "geometry": "POINT (-122.224188 37.491716)",
      "poi_name": "Quickly",
      "osm_id": 2255931343,
      "amenity": "cafe",
      "cuisine": "bubble_tea",
      "wheelchair": "yes",
      "opening_hours": "Tu-Su 11:00-19:00",
      "website": "http://www.quicklyusa.com/redwoodcityca.html",
      "phone": "+1 650 752 8950",
      "takeaway": "yes",
      "addr_state": "CA",
      "addr_city": "Redwood City",
      "addr_postcode": "94063",
      "addr_street": "Walnut Street",
      "addr_housenumber": "300",
      "value": 137.22367085887103
    },
    {
      "id": 169266,
      "geometry": "POINT (-121.896948 37.254529)",
      "poi_name": "Coffee Net",
      "osm_id": 2296215344,
      "amenity": "cafe",
      "cuisine": "coffee_shop",
      "internet_access": "wlan",
      "phone": "(408) 269-1600",
      "addr_city": "San Jose",
      "addr_postcode": "95118",
      "addr_street": "Meridian Avenue",
      "addr_housenumber": "4720",
      "value": 137.22367085887103
    },
    {
      "id": 169475,
      "geometry": "POINT (-121.88509 37.33363)",
      "poi_name": "La Lune Sucree",
      "osm_id": 2302042015,
      "amenity": "cafe",
      "cuisine": "french",
      "website": "https://lalunesucree.com/",
      "internet_access": "yes",
      "phone": "+1-408-292-2070",
      "addr_state": "CA",
      "addr_city": "San Jose",
      "addr_postcode": "95112",
      "addr_street": "Paseo de San Antonio",
      "addr_housenumber": "116",
      "value": 137.22367085887103
    },
    {
      "id": 169409,
      "geometry": "POINT (-122.112365 37.402735)",
      "poi_name": "Starbucks",
      "osm_id": 2300367852,
      "amenity": "cafe",
      "cuisine": "coffee_shop",
      "internet_access": "wlan",
      "takeaway": "yes",
      "official_name": "Starbucks Coffee",
      "addr_state": "CA",
      "addr_city": "Mountain View",
      "addr_postcode": "94040",
      "addr_street": "San Antonio Road",
      "addr_housenumber": "565",
      "value": 137.22367085887103
    },
    {
      "id": 172580,
      "geometry": "POINT (-122.182305 37.453667)",
      "poi_name": "Cafe Borrone",
      "osm_id": 2407184266,
      "amenity": "cafe",
      "description": "Kitchen closes one hour before closing",
      "wheelchair": "yes",
      "opening_hours": "Su-Mo 07:00-17:00; Tu-Sa 07:00-23:00",
      "website": "https://www.cafeborrone.com/",
      "internet_access": "wlan",
      "phone": "+1-650-327-0830",
      "outdoor_seating": "yes",
      "toilets": "yes",
      "addr_city": "Menlo Park",
      "addr_postcode": "94025",
      "addr_street": "El Camino Real",
      "addr_housenumber": "1010",
      "value": 137.22367085887103
    },
    {
      "id": 170477,
      "geometry": "POINT (-122.392759 37.767991)",
      "poi_name": "The Pub",
      "osm_id": 2338519352,
      "amenity": "cafe",
      "wheelchair": "yes",
      "internet_access": "yes",
      "takeaway": "yes",
      "outdoor_seating": "yes",
      "addr_city": "San Francisco",
      "addr_postcode": "94143",
      "addr_street": "Owens Street",
      "addr_housenumber": "1675",
      "value": 137.22367085887103
    },
    {
      "id": 170586,
      "geometry": "POINT (-122.389394 37.757768)",
      "poi_name": "Honeybear Boba",
      "osm_id": 2341485060,
      "amenity": "cafe",
      "cuisine": "bubble_tea;tea",
      "wheelchair": "yes",
      "opening_hours": "Mo-Su 11:30-16:00",
      "website": "https://www.honeybearbobaco.com/",
      "internet_access": "no",
      "phone": "+14156545314",
      "outdoor_seating": "no",
      "addr_city": "San Francisco",
      "addr_postcode": "94107",
      "addr_street": "22nd Street",
      "addr_housenumber": "801",
      "value": 137.22367085887103
    },
    {
      "id": 170609,
      "geometry": "POINT (-122.394012 37.767017)",
      "poi_name": "Pokelife",
      "osm_id": 2342299361,
      "amenity": "cafe",
      "cuisine": "poke",
      "wheelchair": "yes",
      "opening_hours": "Mo-Fr 11:00-16:00; PH closed",
      "takeaway": "yes",
      "outdoor_seating": "yes",
      "addr_city": "San Francisco",
      "addr_postcode": "94158",
      "addr_street": "Owens Street",
      "addr_housenumber": "1700",
      "value": 137.22367085887103
    },
    {
      "id": 172253,
      "geometry": "POINT (-121.913003 37.332026)",
      "poi_name": "Peet's Coffee",
      "osm_id": 2398941211,
      "amenity": "cafe",
      "cuisine": "coffee_shop",
      "takeaway": "yes",
      "addr_state": "CA",
      "addr_city": "San Jose",
      "addr_postcode": "95126",
      "addr_street": "The Alameda",
      "addr_housenumber": "1295",
      "value": 137.22367085887103
    },
    {
      "id": 172286,
      "geometry": "POINT (-122.184117 37.421259)",
      "poi_name": "Cafe Coupa Stanford Golf Course",
      "osm_id": 2399856270,
      "amenity": "cafe",
      "addr_state": "CA",
      "addr_city": "Stanford",
      "addr_postcode": "94305",
      "addr_street": "Junipero Serra Boulevard",
      "addr_housenumber": "198",
      "value": 137.22367085887103
    },
    {
      "id": 174725,
      "geometry": "POINT (-121.946911 37.287225)",
      "poi_name": "Snake & Butterfly",
      "osm_id": 2494529065,
      "amenity": "cafe",
      "addr_state": "CA",
      "addr_city": "Campbell",
      "addr_postcode": "95008",
      "addr_street": "East Campbell Avenue",
      "addr_housenumber": "191",
      "value": 137.22367085887103
    },
    {
      "id": 174728,
      "geometry": "POINT (-121.946568 37.287182)",
      "poi_name": "Breaktime Tea",
      "osm_id": 2494531136,
      "amenity": "cafe",
      "cuisine": "bubble_tea",
      "addr_state": "CA",
      "addr_city": "Campbell",
      "addr_postcode": "95008",
      "addr_street": "East Campbell Avenue",
      "addr_housenumber": "199",
      "value": 137.22367085887103
    },
    {
      "id": 177852,
      "geometry": "POINT (-121.995212 37.384527)",
      "poi_name": "Bagel Place Cafe",
      "osm_id": 2607395530,
      "amenity": "cafe",
      "cuisine": "bagel",
      "website": "http://www.bagelplacecafe.com/",
      "shop": "bakery",
      "phone": "+1-408-720-8226",
      "addr_state": "CA",
      "addr_city": "Sunnyvale",
      "addr_postcode": "94085",
      "addr_street": "Lawrence Expressway",
      "addr_housenumber": "546",
      "value": 137.22367085887103
    },
    {
      "id": 178316,
      "geometry": "POINT (-121.880109 37.3696)",
      "poi_name": "CoCo Fresh Tea & Juice",
      "osm_id": 10720284541,
      "amenity": "cafe",
      "cuisine": "bubble_tea",
      "wheelchair": "yes",
      "opening_hours": "Mo-Th 12:30-21:00;Fr-Su 11:30-21:00",
      "takeaway": "yes",
      "addr_state": "CA",
      "addr_city": "San Jose",
      "addr_postcode": "95133",
      "addr_street": "Berryessa Road",
      "addr_housenumber": "1477",
      "value": 137.22367085887103
    },
    {
      "id": 179894,
      "geometry": "POINT (-122.3939 37.778164)",
      "poi_name": "Cento Coffee",
      "osm_id": 10780794751,
      "amenity": "cafe",
      "cuisine": "coffee_shop",
      "opening_hours": "Mo 08:00-13:00; Tu-Th 08:00-15:00; Fr 08:00-13:00",
      "website": "https://centocoffee.com/",
      "addr_state": "CA",
      "addr_street": "Townsend Street",
      "addr_housenumber": "242",
      "value": 137.22367085887103
    },
    {
      "id": 179980,
      "geometry": "POINT (-122.158951 37.438608)",
      "poi_name": "Boba Guys",
      "osm_id": 10784931770,
      "amenity": "cafe",
      "cuisine": "bubble_tea",
      "opening_hours": "Mo-Sa 10:00-21:00; Su 11:00-19:00",
      "website": "https://www.bobaguys.com/sf-bay-area-express",
      "addr_state": "CA",
      "addr_city": "Palo Alto",
      "addr_postcode": "94301",
      "addr_street": "El Camino Real",
      "addr_housenumber": "855",
      "value": 137.22367085887103
    },
    {
      "id": 185259,
      "geometry": "POINT (-121.838101 37.314973)",
      "poi_name": "Xinh Xinh Cafe",
      "osm_id": 7841092579,
      "amenity": "cafe",
      "addr_city": "San Jose",
      "addr_postcode": "95122",
      "addr_street": "Tully Road",
      "addr_housenumber": "1075",
      "value": 137.22367085887103
    },
    {
      "id": 185354,
      "geometry": "POINT (-121.872413 37.315363)",
      "poi_name": "Starbucks",
      "osm_id": 7847854386,
      "amenity": "cafe",
      "cuisine": "coffee_shop",
      "takeaway": "yes",
      "official_name": "Starbucks Coffee",
      "addr_city": "San Jose",
      "addr_postcode": "95112",
      "addr_street": "Monterey Road",
      "addr_housenumber": "1430",
      "value": 137.22367085887103
    },
    {
      "id": 186836,
      "geometry": "POINT (-122.38842 37.760699)",
      "poi_name": "Happy Cow Creamery & Tea",
      "osm_id": 7949016221,
      "amenity": "cafe",
      "cuisine": "bubble_tea",
      "addr_state": "CA",
      "addr_city": "San Francisco",
      "addr_postcode": "94107",
      "addr_street": "3rd Street",
      "addr_housenumber": "2291",
      "value": 137.22367085887103
    },
    {
      "id": 185621,
      "geometry": "POINT (-121.908116 37.320748)",
      "poi_name": "Chromatic Coffee Co.",
      "osm_id": 7871426645,
      "amenity": "cafe",
      "opening_hours": "Mo-Th 08:00-15:00; Fr-Su 08:00-17:00",
      "website": "https://www.chromaticcoffee.com/",
      "phone": "+1 (408) 217-8583",
      "outdoor_seating": "no",
      "addr_state": "CA",
      "addr_city": "San Jose",
      "addr_postcode": "95126",
      "addr_street": "Lincoln Avenue",
      "addr_housenumber": "460",
      "value": 137.22367085887103
    },
    {
      "id": 187190,
      "geometry": "POINT (-122.082896 37.387966)",
      "poi_name": "1 Oz Coffee",
      "osm_id": 7979223615,
      "amenity": "cafe",
      "cuisine": "coffee_shop",
      "operator": "1 Oz Coffee LLC",
      "addr_state": "CA",
      "addr_city": "Mountain View",
      "addr_postcode": "94041",
      "addr_street": "Castro Street",
      "addr_housenumber": "650",
      "value": 137.22367085887103
    },
    {
      "id": 187476,
      "geometry": "POINT (-122.061657 37.396947)",
      "poi_name": "Clocktower Coffee",
      "osm_id": 1071651008,
      "amenity": "cafe",
      "wheelchair": "yes",
      "internet_access": "wlan",
      "addr_state": "CA",
      "addr_city": "Mountain View",
      "addr_postcode": "94043",
      "addr_street": "East Middlefield Road",
      "addr_housenumber": "205",
      "value": 137.22367085887103
    },
    {
      "id": 187575,
      "geometry": "POINT (-121.931276 37.293951)",
      "poi_name": "House of Bagels",
      "osm_id": 1079536705,
      "amenity": "cafe",
      "cuisine": "bagel",
      "addr_state": "CA",
      "addr_city": "Campbell",
      "addr_postcode": "95008",
      "addr_street": "South Bascom Avenue",
      "addr_housenumber": "1640",
      "value": 137.22367085887103
    },
    {
      "id": 187925,
      "geometry": "POINT (-122.22994 37.486329)",
      "poi_name": "Starbucks",
      "osm_id": 1110824413,
      "amenity": "cafe",
      "cuisine": "coffee_shop",
      "wheelchair": "yes",
      "opening_hours": "Mo-Th 05:00-19:00; Fr 05:00-20:30; Sa 06:00-20:30; Su 06:00-19:00",
      "internet_access": "wlan",
      "takeaway": "yes",
      "official_name": "Starbucks Coffee",
      "addr_city": "Redwood City",
      "addr_postcode": "94063",
      "addr_street": "Hamilton Street",
      "addr_housenumber": "2227",
      "value": 137.22367085887103
    },
    {
      "id": 188377,
      "geometry": "POINT (-121.943734 37.287156)",
      "poi_name": "Orchard Valley Coffee",
      "osm_id": 1145574420,
      "amenity": "cafe",
      "cuisine": "coffee_shop",
      "opening_hours": "Mo-Su 06:00-21:00",
      "internet_access": "wlan",
      "toilets": "yes",
      "addr_city": "Campbell",
      "addr_street": "East Campbell Avenue",
      "addr_housenumber": "349",
      "value": 137.22367085887103
    },
    {
      "id": 188381,
      "geometry": "POINT (-121.944993 37.287166)",
      "poi_name": "Starbucks",
      "osm_id": 1145574478,
      "amenity": "cafe",
      "cuisine": "coffee_shop",
      "wheelchair": "yes",
      "internet_access": "wlan",
      "takeaway": "yes",
      "official_name": "Starbucks Coffee",
      "addr_state": "CA",
      "addr_city": "Campbell",
      "addr_postcode": "95008",
      "addr_street": "East Campbell Avenue",
      "addr_housenumber": "267",
      "value": 137.22367085887103
    },
    {
      "id": 188478,
      "geometry": "POINT (-121.918813 37.263245)",
      "poi_name": "Starbucks",
      "osm_id": 1155857946,
      "amenity": "cafe",
      "cuisine": "coffee_shop",
      "takeaway": "yes",
      "official_name": "Starbucks Coffee",
      "addr_state": "CA",
      "addr_city": "San Jose",
      "addr_postcode": "95124",
      "addr_street": "Hillsdale Avenue",
      "addr_housenumber": "1815",
      "value": 137.22367085887103
    },
    {
      "id": 188842,
      "geometry": "POINT (-121.922656 37.2756)",
      "poi_name": "Starbucks",
      "osm_id": 1187467599,
      "amenity": "cafe",
      "cuisine": "coffee_shop",
      "takeaway": "yes",
      "official_name": "Starbucks Coffee",
      "addr_city": "San Jose",
      "addr_postcode": "95124",
      "addr_street": "Curtner Avenue",
      "addr_housenumber": "1876",
      "value": 137.22367085887103
    },
    {
      "id": 188569,
      "geometry": "POINT (-122.275661 37.519868)",
      "poi_name": "Starbucks",
      "osm_id": 1162023287,
      "amenity": "cafe",
      "cuisine": "coffee_shop",
      "opening_hours": "Mo-Th, Sa 04:30-20:00; Fr 04:30-21:00; Su 05:00-19:00",
      "operator": "Starbucks",
      "website": "https://www.starbucks.com/store-locator/store/15946/ralston-el-camino-belmont-1050-a-el-camino-real-belmont-ca-940023956-us",
      "internet_access": "wlan",
      "phone": "+1 (650) 654-5533",
      "takeaway": "yes",
      "official_name": "Starbucks Coffee",
      "outdoor_seating": "yes",
      "addr_state": "CA",
      "addr_city": "Belmont",
      "addr_postcode": "94002",
      "addr_street": "El Camino Real",
      "addr_housenumber": "1050",
      "value": 137.22367085887103
    },
    {
      "id": 188843,
      "geometry": "POINT (-121.930916 37.29467)",
      "poi_name": "Starbucks",
      "osm_id": 1187479322,
      "amenity": "cafe",
      "cuisine": "coffee_shop",
      "takeaway": "yes",
      "official_name": "Starbucks Coffee",
      "addr_city": "San Jose",
      "addr_postcode": "95125",
      "addr_street": "South Bascom Avenue",
      "addr_housenumber": "1574",
      "value": 137.22367085887103
    },
    {
      "id": 189196,
      "geometry": "POINT (-122.038271 37.323208)",
      "poi_name": "Voyager Craft Coffee",
      "osm_id": 1218545831,
      "amenity": "cafe",
      "cuisine": "coffee_shop",
      "wheelchair": "yes",
      "opening_hours": "Mo-Su 07:00-17:00",
      "takeaway": "yes",
      "outdoor_seating": "yes",
      "toilets": "yes",
      "addr_state": "CA",
      "addr_city": "Cupertino",
      "addr_postcode": "95014",
      "addr_street": "Stevens Creek Boulevard",
      "addr_housenumber": "20807",
      "value": 137.22367085887103
    },
    {
      "id": 189016,
      "geometry": "POINT (-121.876332 37.249871)",
      "poi_name": "Peet's Coffee",
      "osm_id": 1199539036,
      "amenity": "cafe",
      "cuisine": "coffee_shop",
      "takeaway": "yes",
      "addr_state": "CA",
      "addr_city": "San Jose",
      "addr_postcode": "95118",
      "addr_street": "Blossom Hill Road",
      "addr_housenumber": "1110",
      "value": 137.22367085887103
    },
    {
      "id": 189205,
      "geometry": "POINT (-121.960999 37.23491)",
      "poi_name": "Peet's Coffee",
      "osm_id": 1219353018,
      "amenity": "cafe",
      "cuisine": "coffee_shop",
      "takeaway": "yes",
      "addr_state": "CA",
      "addr_city": "Los Gatos",
      "addr_postcode": "95032",
      "addr_street": "Blossom Hill Road",
      "addr_housenumber": "798",
      "value": 137.22367085887103
    },
    {
      "id": 189905,
      "geometry": "POINT (-121.945988 37.39441)",
      "poi_name": "Peet's Coffee",
      "osm_id": 1255655331,
      "amenity": "cafe",
      "cuisine": "coffee_shop",
      "wheelchair": "yes",
      "opening_hours": "Mo-Sa 05:00-22:00; Su 06:00-21:00",
      "internet_access": "wlan",
      "phone": "+1 408-213-0810",
      "takeaway": "yes",
      "addr_state": "CA",
      "addr_city": "Santa Clara",
      "addr_postcode": "95054",
      "addr_street": "Rivermark Plaza",
      "addr_housenumber": "3932",
      "value": 137.22367085887103
    },
    {
      "id": 190725,
      "geometry": "POINT (-122.046542 37.378614)",
      "poi_name": "Hanabusa Caf\u00e9",
      "osm_id": 1313317149,
      "amenity": "cafe",
      "cuisine": "pankcake",
      "website": "https://hanabusa.cafe",
      "addr_state": "CA",
      "addr_city": "Sunnyvale",
      "addr_postcode": "94086",
      "addr_street": "South Mary Avenue",
      "addr_housenumber": "201",
      "value": 137.22367085887103
    },
    {
      "id": 190965,
      "geometry": "POINT (-122.051338 37.352641)",
      "poi_name": "Starbucks",
      "osm_id": 1327997361,
      "amenity": "cafe",
      "cuisine": "coffee_shop",
      "opening_hours": "Mo-Sa 05:00-20:00, Su 06:00-19:30",
      "internet_access": "wlan",
      "takeaway": "yes",
      "official_name": "Starbucks Coffee",
      "outdoor_seating": "yes",
      "addr_state": "CA",
      "addr_city": "Sunnyvale",
      "addr_postcode": "94087",
      "addr_street": "South Mary Avenue",
      "addr_housenumber": "1291",
      "value": 137.22367085887103
    },
    {
      "id": 191320,
      "geometry": "POINT (-122.225133 37.490392)",
      "poi_name": "Starbucks",
      "osm_id": 1355479723,
      "amenity": "cafe",
      "cuisine": "coffee_shop",
      "opening_hours": "Mo-Fr 05:30-18:00; Sa,Su 06:00-18:00",
      "phone": "+1 650 780 0889",
      "takeaway": "yes",
      "official_name": "Starbucks Coffee",
      "addr_state": "CA",
      "addr_city": "Redwood City",
      "addr_postcode": "94063",
      "addr_street": "Walnut Street",
      "addr_housenumber": "400a",
      "value": 137.22367085887103
    },
    {
      "id": 193288,
      "geometry": "POINT (-122.002255 37.532448)",
      "poi_name": "Starbucks",
      "osm_id": 1518002924,
      "amenity": "cafe",
      "cuisine": "coffee_shop",
      "takeaway": "yes",
      "official_name": "Starbucks Coffee",
      "addr_state": "CA",
      "addr_city": "Fremont",
      "value": 137.22367085887103
    },
    {
      "id": 191162,
      "geometry": "POINT (-121.828101 37.381704)",
      "poi_name": "The Coffee Cup",
      "osm_id": 1345335449,
      "amenity": "cafe",
      "addr_state": "CA",
      "addr_city": "San Jose",
      "addr_postcode": "95127",
      "addr_street": "McKee Road",
      "addr_housenumber": "3477",
      "value": 137.22367085887103
    },
    {
      "id": 194802,
      "geometry": "POINT (-122.226707 37.486736)",
      "poi_name": "Coffeebar",
      "osm_id": 10285385809,
      "amenity": "cafe",
      "opening_hours": "Mo-Su 07:00-18:00",
      "website": "https://www.coffeebar.com/pages/locations#redwood-city",
      "internet_access": "wlan",
      "phone": "+1 650 779 0466",
      "takeaway": "yes",
      "addr_state": "CA",
      "addr_postcode": "94063",
      "addr_street": "Broadway",
      "addr_housenumber": "2020",
      "value": 137.22367085887103
    },
    {
      "id": 193793,
      "geometry": "POINT (-121.948438 37.319348)",
      "poi_name": "Peet's Coffee",
      "osm_id": 1561616311,
      "amenity": "cafe",
      "cuisine": "coffee_shop",
      "opening_hours": "Mo-Th 05:00-22:00; Fr-Sa 05:00-23:00; Su 06:00-21:00",
      "takeaway": "yes",
      "addr_state": "CA",
      "addr_city": "San Jose",
      "addr_postcode": "95128",
      "addr_street": "Santana Row",
      "addr_housenumber": "377",
      "value": 137.22367085887103
    },
    {
      "id": 194004,
      "geometry": "POINT (-122.079359 37.393621)",
      "poi_name": "Ume Tea",
      "osm_id": 1576036876,
      "amenity": "cafe",
      "cuisine": "bubble_tea",
      "wheelchair": "yes",
      "addr_state": "CA",
      "addr_city": "Mountain View",
      "addr_street": "Castro Street",
      "addr_housenumber": "220",
      "value": 137.22367085887103
    },
    {
      "id": 196084,
      "geometry": "POINT (-122.223683 37.479585)",
      "poi_name": "Injuri",
      "osm_id": 10563260570,
      "amenity": "cafe",
      "opening_hours": "Mo-Su 09:00-21:00",
      "addr_state": "CA",
      "addr_city": "Redwood City",
      "addr_postcode": "94063",
      "addr_street": "Main Street",
      "addr_housenumber": "1414",
      "value": 137.22367085887103
    },
    {
      "id": 196062,
      "geometry": "POINT (-121.892869 37.433229)",
      "poi_name": "i-Tea Milpitas",
      "osm_id": 10560824582,
      "amenity": "cafe",
      "cuisine": "bubble_tea",
      "description": "boba tea and snacks",
      "opening_hours": "Mo-Su 11:30-21:00",
      "website": "https://www.itea-usa.com/",
      "phone": "+14084714667",
      "outdoor_seating": "yes",
      "addr_state": "CA",
      "addr_city": "Milpitas",
      "addr_postcode": "95035",
      "addr_street": "East Calaveras Boulevard",
      "addr_housenumber": "760",
      "value": 137.22367085887103
    },
    {
      "id": 197473,
      "geometry": "POINT (-121.916702 37.422422)",
      "poi_name": "Gong Cha",
      "osm_id": 10650239537,
      "amenity": "cafe",
      "cuisine": "bubble_tea",
      "wheelchair": "yes",
      "opening_hours": "Mo-Th 11:30-21:00; Fr-Sa 11:30-23:00; Su 11:30-21:00",
      "takeaway": "yes",
      "addr_state": "CA",
      "addr_city": "Milpitas",
      "addr_postcode": "95035",
      "addr_street": "Barber Court",
      "addr_housenumber": "372",
      "value": 137.22367085887103
    },
    {
      "id": 196662,
      "geometry": "POINT (-121.897666 37.433625)",
      "poi_name": "Feng Cha Milpitas",
      "osm_id": 10589939158,
      "amenity": "cafe",
      "cuisine": "bubble_tea",
      "description": "boba tea and snacks",
      "opening_hours": "Mo-Th,Su 11:30-22:00; Fr-Sa 11:30-21:00",
      "toilets": "yes",
      "addr_state": "CA",
      "addr_city": "Milpitas",
      "addr_postcode": "95035",
      "addr_street": "East Calaveras Boulevard",
      "addr_housenumber": "489",
      "value": 137.22367085887103
    },
    {
      "id": 197276,
      "geometry": "POINT (-121.96797 37.502176)",
      "poi_name": "Starbucks",
      "osm_id": 10627480474,
      "amenity": "cafe",
      "cuisine": "coffee_shop",
      "description": "inside target store",
      "wheelchair": "yes",
      "opening_hours": "Mo-Su 08:00-20:00",
      "takeaway": "yes",
      "official_name": "Starbucks Coffee",
      "toilets": "yes",
      "addr_state": "CA",
      "addr_city": "Fremont",
      "addr_postcode": "94538",
      "addr_street": "Pacific Commons Boulevard",
      "addr_housenumber": "43950",
      "value": 137.22367085887103
    },
    {
      "id": 197415,
      "geometry": "POINT (-121.918474 37.423446)",
      "poi_name": "Yi Fang Tea",
      "osm_id": 10647814366,
      "amenity": "cafe",
      "cuisine": "bubble_tea",
      "wheelchair": "yes",
      "takeaway": "yes",
      "addr_state": "CA",
      "addr_city": "Milpitas",
      "addr_postcode": "95035",
      "addr_street": "Barber Court",
      "addr_housenumber": "212",
      "value": 137.22367085887103
    },
    {
      "id": 196823,
      "geometry": "POINT (-121.884066 37.433853)",
      "poi_name": "Bambu",
      "osm_id": 10597599021,
      "amenity": "cafe",
      "cuisine": "vietnamese;bubble_tea",
      "opening_hours": "Mo-Su 09:00-20:00",
      "takeaway": "yes",
      "addr_state": "CA",
      "addr_city": "Milpitas",
      "addr_postcode": "95035",
      "addr_street": "South Park Victoria Drive",
      "addr_housenumber": "89",
      "value": 137.22367085887103
    },
    {
      "id": 197486,
      "geometry": "POINT (-121.91653 37.420799)",
      "poi_name": "Fantasia",
      "osm_id": 10650397174,
      "amenity": "cafe",
      "cuisine": "bubble_tea",
      "wheelchair": "yes",
      "opening_hours": "Mo-Su 10:00-21:00",
      "addr_state": "CA",
      "addr_city": "Milpitas",
      "addr_postcode": "95035",
      "addr_street": "Barber Lane",
      "addr_housenumber": "528",
      "value": 137.22367085887103
    },
    {
      "id": 198870,
      "geometry": "POINT (-121.941768 37.40642)",
      "poi_name": "Starbucks",
      "osm_id": 923740504,
      "amenity": "cafe",
      "cuisine": "coffee_shop",
      "opening_hours": "Mo-Fr 10:00-21:00; Sa 11:00-19:00; Su 11:00-17:00",
      "internet_access": "wlan",
      "takeaway": "yes",
      "official_name": "Starbucks Coffee",
      "addr_city": "San Jose",
      "addr_postcode": "95134",
      "addr_street": "Rio Robles East",
      "addr_housenumber": "31",
      "value": 137.22367085887103
    },
    {
      "id": 199423,
      "geometry": "POINT (-121.891841 37.306648)",
      "poi_name": "Toast Cafe & Grill",
      "osm_id": 961807258,
      "amenity": "cafe",
      "outdoor_seating": "yes",
      "addr_state": "CA",
      "addr_city": "San Jose",
      "addr_postcode": "95125",
      "addr_street": "Bird Avenue",
      "addr_housenumber": "1411",
      "value": 137.22367085887103
    },
    {
      "id": 200173,
      "geometry": "POINT (-122.022689 37.587079)",
      "poi_name": "Cafe 86",
      "osm_id": 1019495671,
      "amenity": "cafe",
      "cuisine": "dessert;milk_tea",
      "opening_hours": "Su-Th 12:30-21:00, Fr-Sa 12:30-22:00",
      "website": "https://www.cafe-86.com/",
      "phone": "909-455-6078",
      "outdoor_seating": "no",
      "addr_state": "CA",
      "addr_city": "Union City",
      "addr_postcode": "94587",
      "addr_street": "Alvarado-Niles Road",
      "addr_housenumber": "34391",
      "value": 137.22367085887103
    },
    {
      "id": 199839,
      "geometry": "POINT (-122.144472 37.427075)",
      "poi_name": "ZombieRunner Coffee",
      "osm_id": 992088570,
      "amenity": "cafe",
      "cuisine": "coffee_shop",
      "opening_hours": "Mo 08:00-14:00; Tu-Sa 08:00-16:00; Su 08:00-15:00",
      "website": "https://www.zombierunner.com/",
      "phone": "+1(650) 325-2048",
      "addr_state": "CA",
      "addr_city": "Palo Alto",
      "addr_postcode": "94306",
      "addr_street": "South California Avenue",
      "addr_housenumber": "344",
      "value": 137.22367085887103
    },
    {
      "id": 200104,
      "geometry": "POINT (-122.009057 37.562591)",
      "poi_name": "Suju's Coffee & Tea",
      "osm_id": 1014211062,
      "amenity": "cafe",
      "cuisine": "coffee_shop",
      "opening_hours": "Mo-Fr 06:00-24:00, Sa,Su 06:30-24:00",
      "internet_access": "wlan",
      "outdoor_seating": "yes",
      "addr_state": "CA",
      "addr_city": "Fremont",
      "addr_postcode": "94536",
      "addr_street": "Thornton Avenue",
      "addr_housenumber": "3602",
      "value": 137.22367085887103
    },
    {
      "id": 200108,
      "geometry": "POINT (-122.019483 37.588186)",
      "poi_name": "Happy Lemon",
      "osm_id": 1014233831,
      "amenity": "cafe",
      "cuisine": "bubble_tea",
      "opening_hours": "Mo-Su 12:00-22:00; Fr-Sa 12:00-23:00",
      "takeaway": "yes",
      "addr_state": "CA",
      "addr_city": "Union City",
      "addr_postcode": "94587",
      "addr_street": "Decoto Road",
      "addr_housenumber": "1780",
      "value": 137.22367085887103
    },
    {
      "id": 200113,
      "geometry": "POINT (-122.01868 37.58903)",
      "poi_name": "Jenjon's Cafe",
      "osm_id": 1014233861,
      "amenity": "cafe",
      "cuisine": "vietnamese",
      "addr_state": "CA",
      "addr_city": "Union City",
      "addr_postcode": "94587",
      "addr_street": "Decoto Road",
      "addr_housenumber": "1704",
      "value": 137.22367085887103
    },
    {
      "id": 200827,
      "geometry": "POINT (-121.983051 37.221988)",
      "poi_name": "Los Gatos Roasting Company",
      "osm_id": 598640976,
      "amenity": "cafe",
      "addr_state": "CA",
      "addr_city": "Los Gatos",
      "addr_postcode": "95030",
      "addr_street": "West Main Street",
      "addr_housenumber": "101",
      "value": 137.22367085887103
    },
    {
      "id": 200849,
      "geometry": "POINT (-121.994843 37.338443)",
      "poi_name": "Starbucks",
      "osm_id": 599098661,
      "amenity": "cafe",
      "cuisine": "coffee_shop",
      "operator": "Starbucks Coffee Company",
      "takeaway": "yes",
      "official_name": "Starbucks Coffee",
      "addr_state": "CA",
      "addr_city": "Santa Clara",
      "addr_postcode": "95051",
      "addr_street": "Homestead Road",
      "addr_housenumber": "3551",
      "value": 137.22367085887103
    },
    {
      "id": 200864,
      "geometry": "POINT (-121.997325 37.352958)",
      "poi_name": "Starbucks",
      "osm_id": 599326229,
      "amenity": "cafe",
      "cuisine": "coffee_shop",
      "opening_hours": "Mo-Fr 04:30-24:00, Sa,Su 05:00-00:30",
      "operator": "Starbucks",
      "takeaway": "yes",
      "official_name": "Starbucks Coffee",
      "addr_city": "Santa Clara",
      "addr_postcode": "95051",
      "addr_street": "East El Camino Real",
      "addr_housenumber": "3605",
      "value": 137.22367085887103
    },
    {
      "id": 202844,
      "geometry": "POINT (-121.940652 37.510715)",
      "poi_name": "Dash Coffee and Bakery",
      "osm_id": 7051058674,
      "amenity": "cafe",
      "cuisine": "coffee_shop",
      "description": "Coffee shop offering organic coffees, baked goods, turkish pastries and catering.",
      "opening_hours": "Mo-Th 08:00-17:30; Fr 08:00-20:00; Sa 09:00-22:00; Su 09:00-17:30",
      "internet_access": "yes",
      "takeaway": "yes",
      "outdoor_seating": "yes",
      "toilets": "yes",
      "addr_state": "CA",
      "addr_city": "Fremont",
      "addr_postcode": "94539",
      "addr_street": "Osgood Road",
      "addr_housenumber": "44047",
      "value": 137.22367085887103
    },
    {
      "id": 202099,
      "geometry": "POINT (-122.393397 37.775563)",
      "poi_name": "Philz Coffee",
      "osm_id": 679010814,
      "amenity": "cafe",
      "cuisine": "coffee_shop",
      "opening_hours": "Mo-Fr 05:30-17:00; Sa-Su 06:30-18:00",
      "website": "https://www.philzcoffee.com/",
      "internet_access": "wlan",
      "takeaway": "yes",
      "addr_state": "CA",
      "addr_city": "San Francisco",
      "addr_postcode": "94158",
      "addr_street": "Berry Street",
      "addr_housenumber": "201",
      "value": 137.22367085887103
    },
    {
      "id": 203832,
      "geometry": "POINT (-121.832262 37.237339)",
      "poi_name": "Peet\u2019s Coffee",
      "osm_id": 7100431428,
      "amenity": "cafe",
      "cuisine": "coffee_shop",
      "takeaway": "yes",
      "outdoor_seating": "no",
      "addr_city": "San Jose",
      "addr_postcode": "95123",
      "addr_street": "Snell Avenue",
      "addr_housenumber": "6061",
      "value": 137.22367085887103
    },
    {
      "id": 203096,
      "geometry": "POINT (-121.873363 37.258937)",
      "poi_name": "Starbucks",
      "osm_id": 7062850738,
      "amenity": "cafe",
      "cuisine": "coffee_shop",
      "opening_hours": "Mo-Fr 04:30-21:30; Sa,Su 05:00-21:30",
      "takeaway": "yes",
      "official_name": "Starbucks Coffee",
      "addr_city": "San Jose",
      "addr_postcode": "95118",
      "addr_street": "Cherry Avenue",
      "addr_housenumber": "5150",
      "value": 137.22367085887103
    },
    {
      "id": 203296,
      "geometry": "POINT (-121.872192 37.37383)",
      "poi_name": "Pekoe",
      "osm_id": 7076603487,
      "amenity": "cafe",
      "cuisine": "bubble_tea",
      "wheelchair": "yes",
      "operator": "Ms. A Holdings LLC",
      "addr_state": "CA",
      "addr_city": "San Jose",
      "addr_postcode": "95133",
      "addr_street": "Lundy Avenue",
      "addr_housenumber": "996",
      "value": 137.22367085887103
    },
    {
      "id": 204270,
      "geometry": "POINT (-121.894739 37.326042)",
      "poi_name": "iJAVA Cafe",
      "osm_id": 7120584720,
      "amenity": "cafe",
      "cuisine": "coffee_shop;breakfast",
      "opening_hours": "08:00-14:00",
      "website": "https://ijavacafe.com/delmas",
      "internet_access": "wlan",
      "phone": "+1 408-753-9732",
      "takeaway": "yes",
      "drive_through": "no",
      "outdoor_seating": "sidewalk",
      "delivery": "no",
      "toilets": "yes",
      "addr_state": "CA",
      "addr_city": "San Jose",
      "addr_postcode": "95126",
      "addr_street": "Delmas Avenue",
      "addr_housenumber": "387",
      "value": 137.22367085887103
    },
    {
      "id": 203823,
      "geometry": "POINT (-121.832052 37.23816)",
      "poi_name": "Sam's Donuts",
      "osm_id": 7100399093,
      "amenity": "cafe",
      "cuisine": "donut",
      "addr_city": "San Jose",
      "addr_postcode": "95123",
      "addr_street": "Snell Avenue",
      "addr_housenumber": "6047",
      "value": 137.22367085887103
    },
    {
      "id": 207013,
      "geometry": "POINT (-121.849178 37.311056)",
      "poi_name": "Dolce Espresso III",
      "osm_id": 7235884504,
      "amenity": "cafe",
      "cuisine": "coffee_shop",
      "addr_state": "CA",
      "addr_city": "San Jose",
      "addr_postcode": "95112",
      "addr_street": "Senter Road",
      "addr_housenumber": "2268",
      "value": 137.22367085887103
    },
    {
      "id": 207029,
      "geometry": "POINT (-121.84838 37.39939)",
      "poi_name": "Teaver",
      "osm_id": 7236192541,
      "amenity": "cafe",
      "cuisine": "bubble_tea",
      "wheelchair": "yes",
      "internet_access": "wlan",
      "addr_city": "San Jose",
      "addr_postcode": "95132",
      "addr_street": "Sierra Road",
      "addr_housenumber": "3245",
      "value": 137.22367085887103
    },
    {
      "id": 217623,
      "geometry": "POINT (-121.858438 37.332301)",
      "poi_name": "Teazu",
      "osm_id": 9234239195,
      "amenity": "cafe",
      "cuisine": "vietnamese;bubble_tea;sandwich",
      "operator": "Teazu Lounge Incorporated",
      "website": "https://teazusj.com/",
      "addr_state": "CA",
      "addr_city": "San Jose",
      "addr_postcode": "95122",
      "addr_street": "Story Road",
      "addr_housenumber": "969",
      "value": 137.22367085887103
    },
    {
      "id": 212611,
      "geometry": "POINT (-122.12949 37.434088)",
      "poi_name": "Teaspoon",
      "osm_id": 5215520011,
      "amenity": "cafe",
      "cuisine": "bubble_tea",
      "opening_hours": "11:00-22:00",
      "website": "https://teaspoonfun.com/",
      "addr_state": "CA",
      "addr_city": "Palo Alto",
      "addr_postcode": "94306",
      "addr_street": "Middlefield Road",
      "addr_housenumber": "2675",
      "value": 137.22367085887103
    },
    {
      "id": 215020,
      "geometry": "POINT (-121.872494 37.375043)",
      "poi_name": "7Leaves Cafe",
      "osm_id": 5285058439,
      "amenity": "cafe",
      "operator": "7Leaves Santa Clara LLC",
      "outdoor_seating": "yes",
      "addr_state": "CA",
      "addr_city": "San Jose",
      "addr_postcode": "95131",
      "addr_street": "Berryessa Road",
      "addr_housenumber": "1743",
      "value": 137.22367085887103
    },
    {
      "id": 216261,
      "geometry": "POINT (-121.909223 37.251739)",
      "poi_name": "Bagel and Donut Basket",
      "osm_id": 9165273505,
      "amenity": "cafe",
      "cuisine": "bagel",
      "addr_city": "San Jose",
      "addr_postcode": "95118",
      "addr_street": "Branham Lane",
      "addr_housenumber": "1705",
      "value": 137.22367085887103
    },
    {
      "id": 208857,
      "geometry": "POINT (-121.939989 37.40207)",
      "poi_name": "Starbucks",
      "osm_id": 5008481801,
      "amenity": "cafe",
      "cuisine": "coffee_shop",
      "opening_hours": "Mo-Fr 05:30-08:00; Sa,Su 06:00-08:00",
      "takeaway": "yes",
      "official_name": "Starbucks Coffee",
      "addr_state": "CA",
      "addr_city": "San Jose",
      "addr_postcode": "95134",
      "addr_street": "River Oaks Place",
      "addr_housenumber": "55",
      "value": 137.22367085887103
    },
    {
      "id": 210129,
      "geometry": "POINT (-121.882871 37.387564)",
      "poi_name": "Sharetea",
      "osm_id": 5078370921,
      "amenity": "cafe",
      "cuisine": "bubble_tea",
      "opening_hours": "Mo-Su 11:30-21:00",
      "website": "https://www.1992sharetea.com/",
      "internet_access": "wlan",
      "phone": "+14088371920",
      "takeaway": "yes",
      "delivery": "yes",
      "addr_city": "San Jose",
      "addr_postcode": "95131",
      "addr_street": "Hostetter Road",
      "addr_housenumber": "1728",
      "value": 137.22367085887103
    },
    {
      "id": 210786,
      "geometry": "POINT (-121.933115 37.40304)",
      "poi_name": "Starbucks",
      "osm_id": 5121029938,
      "amenity": "cafe",
      "cuisine": "coffee_shop",
      "takeaway": "yes",
      "official_name": "Starbucks Coffee",
      "addr_city": "San Jose",
      "addr_postcode": "95134",
      "addr_street": "Zanker Road",
      "addr_housenumber": "3350",
      "value": 137.22367085887103
    },
    {
      "id": 213045,
      "geometry": "POINT (-122.012258 37.323247)",
      "poi_name": "Cafe LaTTea",
      "osm_id": 5233334640,
      "amenity": "cafe",
      "cuisine": "coffee_shop;sandwich",
      "outdoor_seating": "yes",
      "addr_city": "Cupertino",
      "addr_street": "Stevens Creek Boulevard",
      "addr_housenumber": "19501",
      "value": 137.22367085887103
    },
    {
      "id": 219244,
      "geometry": "POINT (-121.993983 37.367647)",
      "poi_name": "Starbucks",
      "osm_id": 9319663609,
      "amenity": "cafe",
      "cuisine": "coffee_shop",
      "opening_hours": "Mo-Fr 05:00-20:00; Sa,Su 05:30-18:30",
      "takeaway": "yes",
      "official_name": "Starbucks Coffee",
      "addr_state": "CA",
      "addr_city": "Santa Clara",
      "addr_postcode": "95051",
      "addr_street": "Monroe Street",
      "addr_housenumber": "3555",
      "value": 137.22367085887103
    },
    {
      "id": 219638,
      "geometry": "POINT (-121.95473 37.323516)",
      "poi_name": "Kafe Unik",
      "osm_id": 9339318291,
      "amenity": "cafe",
      "addr_state": "CA",
      "addr_city": "San Jose",
      "addr_postcode": "95117",
      "addr_street": "Stevens Creek Boulevard",
      "addr_housenumber": "3275",
      "value": 137.22367085887103
    },
    {
      "id": 220750,
      "geometry": "POINT (-121.81383 37.324924)",
      "poi_name": "Quickly",
      "osm_id": 9384980380,
      "amenity": "cafe",
      "cuisine": "bubble_tea",
      "addr_state": "CA",
      "addr_city": "San Jose",
      "addr_postcode": "95122",
      "addr_street": "Eastridge Loop",
      "addr_housenumber": "2200",
      "value": 137.22367085887103
    },
    {
      "id": 220751,
      "geometry": "POINT (-121.81522 37.325114)",
      "poi_name": "Gong Cha",
      "osm_id": 9384980381,
      "amenity": "cafe",
      "cuisine": "bubble_tea",
      "addr_state": "CA",
      "addr_city": "San Jose",
      "addr_postcode": "95122",
      "addr_street": "Eastridge Loop",
      "addr_housenumber": "2200",
      "value": 137.22367085887103
    },
    {
      "id": 221573,
      "geometry": "POINT (-121.915081 37.335228)",
      "poi_name": "Orbit Coffee Company",
      "osm_id": 10981837726,
      "amenity": "cafe",
      "outdoor_seating": "yes",
      "addr_state": "CA",
      "addr_city": "San Jose",
      "addr_postcode": "95126",
      "addr_street": "The Alameda",
      "addr_housenumber": "1520",
      "value": 137.22367085887103
    },
    {
      "id": 220915,
      "geometry": "POINT (-122.063855 37.60681)",
      "poi_name": "Starbucks",
      "osm_id": 10963044448,
      "amenity": "cafe",
      "cuisine": "coffee_shop",
      "website": "https://starbucks.com",
      "phone": "+1-510-489-2907",
      "takeaway": "yes",
      "official_name": "Starbucks Coffee",
      "outdoor_seating": "yes",
      "addr_state": "CA",
      "addr_city": "Hayward",
      "addr_postcode": "94544",
      "addr_street": "Whipple Road",
      "addr_housenumber": "2472",
      "value": 137.22367085887103
    },
    {
      "id": 221295,
      "geometry": "POINT (-122.048967 37.548575)",
      "poi_name": "Feng Cha Teahouse",
      "osm_id": 10970200665,
      "amenity": "cafe",
      "cuisine": "bubble_tea",
      "website": "https://www.fengchabayarea.com/",
      "phone": "+1-510-992-2663",
      "addr_state": "CA",
      "addr_city": "Newark",
      "addr_postcode": "94560",
      "addr_street": "Jarvis Avenue",
      "addr_housenumber": "6180",
      "value": 137.22367085887103
    },
    {
      "id": 221916,
      "geometry": "POINT (-121.842337 37.391907)",
      "poi_name": "Oh My Boba",
      "osm_id": 10996432553,
      "amenity": "cafe",
      "cuisine": "bubble_tea",
      "opening_hours": "Mo-Tu,Th-Sa 12:00-20:00; Su 12:00-23:00",
      "addr_state": "CA",
      "addr_city": "San Jose",
      "addr_postcode": "95132",
      "addr_street": "Piedmont Road",
      "addr_housenumber": "1030",
      "value": 137.22367085887103
    },
    {
      "id": 221672,
      "geometry": "POINT (-121.911414 37.427342)",
      "poi_name": "Happy Lemon",
      "osm_id": 10983331024,
      "amenity": "cafe",
      "cuisine": "bubble_tea",
      "wheelchair": "yes",
      "takeaway": "yes",
      "toilets": "yes",
      "addr_state": "CA",
      "addr_city": "Milpitas",
      "addr_postcode": "95035",
      "addr_street": "West Calaveras Boulevard",
      "addr_housenumber": "279",
      "value": 137.22367085887103
    },
    {
      "id": 221673,
      "geometry": "POINT (-121.911173 37.428806)",
      "poi_name": "Teaspoon",
      "osm_id": 10983331675,
      "amenity": "cafe",
      "cuisine": "bubble_tea",
      "wheelchair": "yes",
      "opening_hours": "11:00-23:00",
      "outdoor_seating": "no",
      "addr_state": "CA",
      "addr_city": "Milpitas",
      "addr_postcode": "95035",
      "addr_street": "West Calaveras Boulevard",
      "addr_housenumber": "201",
      "value": 137.22367085887103
    },
    {
      "id": 221679,
      "geometry": "POINT (-121.911292 37.42777)",
      "poi_name": "Tong Sui",
      "osm_id": 10983360864,
      "amenity": "cafe",
      "cuisine": "bubble_tea",
      "wheelchair": "yes",
      "opening_hours": "Mo-Su 12:00-21:00",
      "toilets": "no",
      "addr_state": "CA",
      "addr_city": "Milpitas",
      "addr_postcode": "95035",
      "addr_street": "West Calaveras Boulevard",
      "addr_housenumber": "265",
      "value": 137.22367085887103
    },
    {
      "id": 222913,
      "geometry": "POINT (-121.927984 37.492288)",
      "poi_name": "Rose Tea Lounge",
      "osm_id": 11040401271,
      "amenity": "cafe",
      "cuisine": "bubble_tea",
      "wheelchair": "yes",
      "opening_hours": "Mo-Su 12:00-21:00",
      "outdoor_seating": "yes",
      "addr_state": "CA",
      "addr_city": "Fremont",
      "addr_postcode": "94539",
      "addr_street": "Mission Boulevard",
      "addr_housenumber": "46461",
      "value": 137.22367085887103
    },
    {
      "id": 222357,
      "geometry": "POINT (-121.910015 37.426517)",
      "poi_name": "Mandro Teahouse",
      "osm_id": 11015025247,
      "amenity": "cafe",
      "cuisine": "bubble_tea",
      "addr_state": "CA",
      "addr_city": "Milpitas",
      "addr_postcode": "95035",
      "addr_street": "Serra Way",
      "addr_housenumber": "200",
      "value": 137.22367085887103
    },
    {
      "id": 222682,
      "geometry": "POINT (-121.911811 37.455927)",
      "poi_name": "3Catea",
      "osm_id": 11030945360,
      "amenity": "cafe",
      "cuisine": "bubble_tea",
      "wheelchair": "yes",
      "toilets": "yes",
      "addr_state": "CA",
      "addr_city": "Milpitas",
      "addr_postcode": "95035",
      "addr_street": "North Milpitas Boulevard",
      "addr_housenumber": "1777",
      "value": 137.22367085887103
    },
    {
      "id": 223235,
      "geometry": "POINT (-121.97349 37.499996)",
      "poi_name": "Tea Daily",
      "osm_id": 11048899291,
      "amenity": "cafe",
      "cuisine": "bubble_tea",
      "addr_state": "CA",
      "addr_city": "Fremont",
      "addr_street": "Boscell Road",
      "addr_housenumber": "43773",
      "value": 137.22367085887103
    },
    {
      "id": 223571,
      "geometry": "POINT (-121.911301 37.427867)",
      "poi_name": "K On The Go",
      "osm_id": 11057490591,
      "amenity": "cafe",
      "description": "coffee, tea, desserts",
      "wheelchair": "yes",
      "opening_hours": "Mo-Th 10:00-18:00; Fr-Su 10:00-20:00",
      "website": "https://kfaminc.com/",
      "takeaway": "yes",
      "addr_state": "CA",
      "addr_city": "Milpitas",
      "addr_postcode": "95035",
      "addr_street": "West Calaveras Boulevard",
      "addr_housenumber": "261",
      "value": 137.22367085887103
    },
    {
      "id": 224350,
      "geometry": "POINT (-121.893084 37.383528)",
      "poi_name": "Tiger Tea & Juice",
      "osm_id": 11079067178,
      "amenity": "cafe",
      "cuisine": "bubble_tea",
      "opening_hours": "Mo-Su 11:00-21:30",
      "phone": "(650) 201-9822",
      "addr_state": "CA",
      "addr_city": "San Jose",
      "addr_postcode": "95131",
      "addr_street": "Oakland Rd Ste",
      "addr_housenumber": "1706",
      "value": 137.22367085887103
    },
    {
      "id": 224443,
      "geometry": "POINT (-122.131657 37.361567)",
      "poi_name": "KJ's Cafe",
      "osm_id": 11082195910,
      "amenity": "cafe",
      "cuisine": "coffee",
      "opening_hours": "Mo-Th 08:30-14:00",
      "addr_state": "CA",
      "addr_city": "Los Altos Hills",
      "addr_postcode": "94022",
      "addr_street": "El Monte Road",
      "addr_housenumber": "12345",
      "value": 137.22367085887103
    },
    {
      "id": 227055,
      "geometry": "POINT (-121.911716 37.455348)",
      "poi_name": "Xing Fu Tang",
      "osm_id": 11178029448,
      "amenity": "cafe",
      "cuisine": "bubble_tea",
      "wheelchair": "yes",
      "takeaway": "yes",
      "toilets": "yes",
      "addr_state": "CA",
      "addr_city": "Milpitas",
      "addr_postcode": "95035",
      "addr_street": "North Milpitas Boulevard",
      "addr_housenumber": "1735",
      "value": 137.22367085887103
    },
    {
      "id": 227064,
      "geometry": "POINT (-121.910104 37.455238)",
      "poi_name": "Tapioca Express",
      "osm_id": 11178053817,
      "amenity": "cafe",
      "cuisine": "bubble_tea",
      "wheelchair": "yes",
      "opening_hours": "We-Su 12:00-20:15",
      "takeaway": "yes",
      "addr_state": "CA",
      "addr_city": "Milpitas",
      "addr_postcode": "95035",
      "addr_street": "North Milpitas Boulevard",
      "addr_housenumber": "1710",
      "value": 137.22367085887103
    },
    {
      "id": 224515,
      "geometry": "POINT (-122.128551 37.360634)",
      "poi_name": "KJ's Cafe",
      "osm_id": 11084949118,
      "amenity": "cafe",
      "cuisine": "coffee;snack",
      "opening_hours": "Mo-Th 07:30-15:00",
      "phone": "(650) 949-7727",
      "outdoor_seating": "yes",
      "addr_state": "CA",
      "addr_city": "Los Altos Hills",
      "addr_postcode": "94022",
      "addr_street": "El Monte Road",
      "addr_housenumber": "12345",
      "value": 137.22367085887103
    },
    {
      "id": 229652,
      "geometry": "POINT (-121.887058 37.331148)",
      "poi_name": "Nirvana Soul",
      "osm_id": 4392901231,
      "amenity": "cafe",
      "opening_hours": "Mo-Sa 07:00-16:00, Su 07:00-12:00",
      "website": "https://www.nirvanasoulcoffee.com/",
      "outdoor_seating": "yes",
      "addr_state": "CA",
      "addr_city": "San Jose",
      "addr_postcode": "95113",
      "addr_street": "South 1st Street",
      "addr_housenumber": "315",
      "value": 137.22367085887103
    },
    {
      "id": 227732,
      "geometry": "POINT (-122.250291 37.562898)",
      "poi_name": "SeeU Cafe",
      "osm_id": 4316669090,
      "amenity": "cafe",
      "wheelchair": "yes",
      "opening_hours": "Tu-Sa 07:00 - 22:00; Su 09:00-16:00; Mo off; \"Events longer\"",
      "phone": "+1 650 3570088",
      "addr_city": "Foster City",
      "addr_postcode": "94404",
      "addr_street": "Beach Park Boulevard",
      "addr_housenumber": "1465",
      "value": 137.22367085887103
    },
    {
      "id": 228965,
      "geometry": "POINT (-121.81389 37.309535)",
      "poi_name": "N\u2077",
      "osm_id": 4360926906,
      "amenity": "cafe",
      "cuisine": "tea;coffee_shop",
      "addr_state": "CA",
      "addr_city": "San Jose",
      "addr_postcode": "95121",
      "addr_street": "Silver Creek Road",
      "addr_housenumber": "3005",
      "value": 137.22367085887103
    },
    {
      "id": 228968,
      "geometry": "POINT (-121.813614 37.308621)",
      "poi_name": "Le Cr\u00e8me Caf\u00e9",
      "osm_id": 4360926924,
      "amenity": "cafe",
      "cuisine": "donut",
      "website": "https://le-creme-cafe.edan.io/",
      "shop": "pastry",
      "takeaway": "yes",
      "addr_state": "CA",
      "addr_city": "San Jose",
      "addr_postcode": "95121",
      "addr_street": "Silver Creek Road",
      "addr_housenumber": "3005",
      "value": 137.22367085887103
    },
    {
      "id": 228972,
      "geometry": "POINT (-121.814156 37.308569)",
      "poi_name": "Tr\u1ea1m Cream Coffee",
      "osm_id": 4360926931,
      "amenity": "cafe",
      "cuisine": "coffee_shop",
      "website": "https://www.tramcreamcoffee.com/",
      "addr_state": "CA",
      "addr_city": "San Jose",
      "addr_postcode": "95121",
      "addr_street": "Silver Creek Road",
      "addr_housenumber": "3005",
      "value": 137.22367085887103
    },
    {
      "id": 229698,
      "geometry": "POINT (-122.079483 37.402647)",
      "poi_name": "Regal Bagel Cafe",
      "osm_id": 4395482134,
      "amenity": "cafe",
      "cuisine": "american",
      "opening_hours": "Mo-Fr 06:00-14:00; Sa 06:30-14:00; Su 07:30-14:00",
      "addr_state": "CA",
      "addr_city": "Mountain View",
      "addr_postcode": "94043",
      "addr_street": "North Shoreline Boulevard",
      "addr_housenumber": "570",
      "value": 137.22367085887103
    },
    {
      "id": 228143,
      "geometry": "POINT (-122.032945 37.303975)",
      "poi_name": "Go Fish Poke Bar",
      "osm_id": 4331618319,
      "amenity": "cafe",
      "cuisine": "japanese",
      "addr_state": "CA",
      "addr_city": "San Jose",
      "addr_postcode": "95129",
      "addr_street": "South De Anza Boulevard",
      "addr_housenumber": "1183",
      "value": 137.22367085887103
    },
    {
      "id": 229659,
      "geometry": "POINT (-122.079603 37.402456)",
      "poi_name": "Big Bites Vietnamese Eatery",
      "osm_id": 4392976740,
      "amenity": "cafe",
      "cuisine": "vietnamese",
      "opening_hours": "Mo-Fr 10:00-21:00; Sa,Su 11:00-21:00",
      "website": "http://bigbiteseatery.com/",
      "phone": "+1 650-390-0860",
      "takeaway": "yes",
      "addr_state": "CA",
      "addr_city": "Mountain View",
      "addr_postcode": "94043",
      "addr_street": "North Shoreline Boulevard",
      "addr_housenumber": "570",
      "value": 137.22367085887103
    },
    {
      "id": 229660,
      "geometry": "POINT (-122.079796 37.402524)",
      "poi_name": "California Mochi Mini",
      "osm_id": 4392976741,
      "amenity": "cafe",
      "cuisine": "dessert",
      "operator": "California Mochi",
      "website": "http://californiamochi.com/",
      "phone": "650-584-3103",
      "addr_state": "CA",
      "addr_city": "Mountain View",
      "addr_postcode": "94043",
      "addr_street": "North Shoreline Boulevard",
      "addr_housenumber": "570",
      "value": 137.22367085887103
    },
    {
      "id": 231736,
      "geometry": "POINT (-121.812148 37.306652)",
      "poi_name": "Tr\u00e0",
      "osm_id": 4485175930,
      "amenity": "cafe",
      "cuisine": "smoothie",
      "addr_state": "CA",
      "addr_city": "San Jose",
      "addr_postcode": "95121",
      "addr_street": "East Capitol Expressway",
      "addr_housenumber": "1631",
      "value": 137.22367085887103
    },
    {
      "id": 233207,
      "geometry": "POINT (-121.977716 37.339271)",
      "poi_name": "Erik's Deli",
      "osm_id": 4562827119,
      "amenity": "cafe",
      "cuisine": "deli",
      "opening_hours": "Mo-Sa 10:00-20:00; Su 11:00-19:00",
      "website": "https://www.eriksdelicafe.com/location/santa-clara-kiely-boulevard-location/",
      "phone": "+1-408-246-1010",
      "addr_state": "CA",
      "addr_city": "Santa Clara",
      "addr_postcode": "95051",
      "addr_street": "Kiely Boulevard",
      "addr_housenumber": "830",
      "value": 137.22367085887103
    },
    {
      "id": 233915,
      "geometry": "POINT (-121.8619 37.387275)",
      "poi_name": "Starbucks",
      "osm_id": 4591757038,
      "amenity": "cafe",
      "cuisine": "coffee_shop",
      "opening_hours": "Mo-Th 05:00-19:00; Fr-Su 05:00-20:00",
      "takeaway": "yes",
      "official_name": "Starbucks Coffee",
      "outdoor_seating": "yes",
      "addr_state": "CA",
      "addr_city": "San Jose",
      "addr_postcode": "95132",
      "addr_street": "North Capitol Avenue",
      "addr_housenumber": "1155",
      "value": 137.22367085887103
    },
    {
      "id": 233920,
      "geometry": "POINT (-121.84528 37.369718)",
      "poi_name": "Chatime",
      "osm_id": 4591774141,
      "amenity": "cafe",
      "cuisine": "bubble_tea",
      "takeaway": "yes",
      "official_name": "Chatime San Jose",
      "addr_city": "San Jose",
      "addr_postcode": "95133",
      "addr_street": "North Capitol Avenue",
      "addr_housenumber": "311",
      "value": 137.22367085887103
    },
    {
      "id": 233922,
      "geometry": "POINT (-121.850657 37.365368)",
      "poi_name": "Tapioca Express",
      "osm_id": 4591774146,
      "amenity": "cafe",
      "cuisine": "bubble_tea",
      "takeaway": "yes",
      "addr_city": "San Jose",
      "addr_postcode": "95133",
      "addr_street": "McKee Road",
      "addr_housenumber": "2285",
      "value": 137.22367085887103
    },
    {
      "id": 234164,
      "geometry": "POINT (-122.113096 37.401467)",
      "poi_name": "Boba Bliss",
      "osm_id": 4609012005,
      "amenity": "cafe",
      "opening_hours": "Su-Th 12:00-21:00; Fr,Sa 12:00-21:30",
      "website": "https://www.bobablisscafe.com/",
      "internet_access": "wlan",
      "phone": "+1-650-383-5512",
      "outdoor_seating": "yes",
      "addr_state": "CA",
      "addr_city": "Mountain View",
      "addr_postcode": "94040",
      "addr_street": "San Antonio Road",
      "addr_housenumber": "685",
      "value": 137.22367085887103
    },
    {
      "id": 243465,
      "geometry": "POINT (-122.159401 37.447517)",
      "poi_name": "Blue Bottle Coffee",
      "osm_id": 7651129398,
      "amenity": "cafe",
      "cuisine": "coffee_shop",
      "website": "https://bluebottlecoffee.com/cafes/palo-alto",
      "takeaway": "yes",
      "addr_state": "CA",
      "addr_city": "Palo Alto",
      "addr_postcode": "94301",
      "addr_street": "University Avenue",
      "addr_housenumber": "456",
      "value": 137.22367085887103
    },
    {
      "id": 235940,
      "geometry": "POINT (-121.88768 37.3873)",
      "poi_name": "Gong Cha",
      "osm_id": 5773786205,
      "amenity": "cafe",
      "cuisine": "bubble_tea",
      "takeaway": "yes",
      "addr_city": "San Jose",
      "addr_postcode": "95131",
      "addr_street": "Lundy Avenue",
      "addr_housenumber": "1701",
      "value": 137.22367085887103
    },
    {
      "id": 241844,
      "geometry": "POINT (-121.845363 37.35793)",
      "poi_name": "A Bite of Wyoming",
      "osm_id": 6040742862,
      "amenity": "cafe",
      "cuisine": "american",
      "addr_state": "CA",
      "addr_city": "San Jose",
      "addr_street": "Alum Rock Avenue",
      "value": 137.22367085887103
    },
    {
      "id": 245004,
      "geometry": "POINT (-122.031694 37.30577)",
      "poi_name": "Music Tunnel KTV Cafe",
      "osm_id": 7757334644,
      "amenity": "cafe",
      "website": "https://www.musictunnelktv.com/",
      "phone": "+1 408-446-0888",
      "addr_city": "San Jose",
      "addr_postcode": "95129",
      "addr_street": "South De Anza Boulevard",
      "addr_housenumber": "1132",
      "value": 137.22367085887103
    },
    {
      "id": 244023,
      "geometry": "POINT (-121.810551 37.30614)",
      "poi_name": "Teasociety",
      "osm_id": 7693476692,
      "amenity": "cafe",
      "cuisine": "milk_tea;fries",
      "drive_through": "no",
      "addr_state": "CA",
      "addr_city": "San Jose",
      "addr_postcode": "95121",
      "addr_street": "East Capitol Expressway",
      "addr_housenumber": "1658",
      "value": 137.22367085887103
    },
    {
      "id": 244024,
      "geometry": "POINT (-121.810714 37.330839)",
      "poi_name": "Tisane",
      "osm_id": 7693520104,
      "amenity": "cafe",
      "cuisine": "bubble_tea",
      "addr_state": "CA",
      "addr_city": "San Jose",
      "addr_postcode": "95148",
      "addr_street": "East Capitol Expressway",
      "addr_housenumber": "2980",
      "value": 137.22367085887103
    }
  ],
  "answer_type": "loc",
  "question_entities": {
    "[2]": {
      "distance": 80000,
      "text": "80 kilometers"
    },
    "[3]": {
      "main_category": "tourism",
      "sub_category": "viewpoint",
      "display_name": "The View Lounge, San Francisco, CA",
      "geo_wkt": "POINT (-122.404326 37.785414)",
      "poi": {
        "id": 5810,
        "geometry": "POINT (-122.404326 37.785414)",
        "poi_name": "The View Lounge",
        "osm_id": 1612808193,
        "amenity": "bar",
        "description": "39th floor bar with city views; enter through hotel",
        "tourism": "viewpoint",
        "opening_hours": "Mo-Su 16:00-24:00",
        "operator": "Marriott",
        "website": "https://www.sfmarquis.com/theview",
        "phone": "+1 415-896-1600",
        "addr_state": "CA",
        "addr_city": "San Francisco",
        "addr_postcode": "94103",
        "addr_street": "4th Street",
        "addr_housenumber": "55"
      }
    },
    "[4]": {
      "main_category": "tourism",
      "sub_category": "gallery",
      "display_name": "Hudson Gateway Place LLC, San Jose, CA",
      "geo_wkt": "POINT (-121.923427 37.369617)",
      "poi": {
        "id": 8752,
        "geometry": "POINT (-121.923427 37.369617)",
        "poi_name": "Hudson Gateway Place LLC",
        "osm_id": 8671046749,
        "tourism": "gallery",
        "addr_state": "CA",
        "addr_city": "San Jose",
        "addr_postcode": "95110",
        "addr_street": "Gateway Place",
        "addr_housenumber": "2001;2033;2055,2077;2099"
      }
    },
    "[1]": {
      "main_category": "amenity",
      "sub_category": "cafe"
    }
  },
  "id": 1278,
  "type": "range:towards+loc"
}