{
  "question": "Can you find me a gallery that's 40 kilometers from Fullerton Museum Center, Fullerton, CA?",
  "sql": "SELECT * FROM pois\nWHERE ST_DWithin(pois.geometry, ST_GeomFromText('POINT (-117.922419 33.872694)',4326)::geography, 40000)\nAND tourism = 'gallery';\n",
  "answers": [
    {
      "id": 799,
      "geometry": "POINT (-117.91843 33.810195)",
      "poi_name": "Disney Gallery",
      "osm_id": 2690898405,
      "tourism": "gallery",
      "website": "https://disneyland.disney.go.com/attractions/disneyland/disney-gallery/",
      "wikidata": "Q3520641"
    },
    {
      "id": 2630,
      "geometry": "POINT (-118.24766 34.050508)",
      "poi_name": "Morono Kiang Gallery",
      "osm_id": 536322268,
      "tourism": "gallery"
    },
    {
      "id": 2666,
      "geometry": "POINT (-118.251249 34.046391)",
      "poi_name": "NORBERTELLEN GALLERY",
      "osm_id": 543989751,
      "tourism": "gallery"
    },
    {
      "id": 2667,
      "geometry": "POINT (-118.248239 34.048666)",
      "poi_name": "Continental Gallery",
      "osm_id": 543989799,
      "tourism": "gallery"
    },
    {
      "id": 2668,
      "geometry": "POINT (-118.251369 34.046107)",
      "poi_name": "Crack Gallery",
      "osm_id": 543989864,
      "tourism": "gallery",
      "wheelchair": "limited"
    },
    {
      "id": 2670,
      "geometry": "POINT (-118.249507 34.046939)",
      "poi_name": "Julie Rico Gallery",
      "osm_id": 543989942,
      "amenity": "arts_centre",
      "tourism": "gallery"
    },
    {
      "id": 2671,
      "geometry": "POINT (-118.250673 34.044341)",
      "poi_name": "Arty",
      "osm_id": 543990045,
      "tourism": "gallery"
    },
    {
      "id": 2672,
      "geometry": "POINT (-118.248502 34.045339)",
      "poi_name": "Rooftop Gallery",
      "osm_id": 543990058,
      "tourism": "gallery"
    },
    {
      "id": 2673,
      "geometry": "POINT (-118.249469 34.045157)",
      "poi_name": "The Last Laugh",
      "osm_id": 543990082,
      "tourism": "gallery"
    },
    {
      "id": 2674,
      "geometry": "POINT (-118.249091 34.044837)",
      "poi_name": "Fifty/ 24LA Gallery",
      "osm_id": 543990097,
      "tourism": "gallery"
    },
    {
      "id": 2675,
      "geometry": "POINT (-118.248791 34.044987)",
      "poi_name": "Compact Space",
      "osm_id": 543990111,
      "tourism": "gallery"
    },
    {
      "id": 2676,
      "geometry": "POINT (-118.25064 34.04227)",
      "poi_name": "Ground Floor Gallery at Santee Court",
      "osm_id": 543990163,
      "tourism": "gallery"
    },
    {
      "id": 2677,
      "geometry": "POINT (-118.253128 34.044037)",
      "poi_name": "The Hive",
      "osm_id": 543990188,
      "tourism": "gallery",
      "wheelchair": "yes"
    },
    {
      "id": 2678,
      "geometry": "POINT (-118.252871 34.044308)",
      "poi_name": "G727",
      "osm_id": 543990216,
      "tourism": "gallery"
    },
    {
      "id": 2679,
      "geometry": "POINT (-118.252682 34.044578)",
      "poi_name": "Infusion Gallery",
      "osm_id": 543990236,
      "tourism": "gallery"
    },
    {
      "id": 2680,
      "geometry": "POINT (-118.260493 34.04898)",
      "poi_name": "7+FIG Art Space",
      "osm_id": 543990271,
      "tourism": "gallery"
    },
    {
      "id": 2682,
      "geometry": "POINT (-118.26324 34.041783)",
      "poi_name": "PYO Gallery",
      "osm_id": 543990327,
      "tourism": "gallery"
    },
    {
      "id": 2683,
      "geometry": "POINT (-118.254564 34.044276)",
      "poi_name": "The Landing Party",
      "osm_id": 543990380,
      "tourism": "gallery"
    },
    {
      "id": 2684,
      "geometry": "POINT (-118.251832 34.049089)",
      "poi_name": "Phantom Galleries LA",
      "osm_id": 543990434,
      "tourism": "gallery"
    },
    {
      "id": 2685,
      "geometry": "POINT (-118.259128 34.049105)",
      "poi_name": "Gallery 1927 at the Fine Arts Building",
      "osm_id": 543990451,
      "tourism": "gallery"
    },
    {
      "id": 2702,
      "geometry": "POINT (-118.241386 34.050134)",
      "poi_name": "LA Artcore Center",
      "osm_id": 557235952,
      "tourism": "gallery"
    },
    {
      "id": 3010,
      "geometry": "POINT (-118.255452 34.05082)",
      "poi_name": "Los Angeles Central Library Getty Gallery",
      "osm_id": 10128527537,
      "tourism": "gallery",
      "fee": "no",
      "opening_hours": "Mo-Th 10:00-20:00; Fr-Sa 09:30-17:30; Su 13:00-17:00",
      "operator": "Los Angeles Public Library",
      "website": "https://www.lapl.org/branches/central-library",
      "internet_access": "wlan"
    },
    {
      "id": 3045,
      "geometry": "POINT (-118.285092 33.737135)",
      "poi_name": "EDDIE ROQUE STUDIO ART",
      "osm_id": 10144620810,
      "tourism": "gallery",
      "opening_hours": "Mo-Su 09:00-21:00",
      "operator": "EDDIE ROQUE",
      "addr_state": "ca",
      "addr_city": "san pedro",
      "addr_street": "West 8th Street",
      "addr_housenumber": "366"
    },
    {
      "id": 3894,
      "geometry": "POINT (-117.890671 33.69581)",
      "poi_name": "Bear Street Gallery",
      "osm_id": 5625625826,
      "tourism": "gallery"
    },
    {
      "id": 3895,
      "geometry": "POINT (-117.887856 33.69133)",
      "poi_name": "Liulu",
      "osm_id": 5625699841,
      "tourism": "gallery"
    },
    {
      "id": 4387,
      "geometry": "POINT (-118.192122 34.109755)",
      "poi_name": "KR38SPC GALLERY",
      "osm_id": 11244417395,
      "tourism": "gallery",
      "addr_street": "North Figueroa Street",
      "addr_housenumber": "5720 1/2"
    },
    {
      "id": 4615,
      "geometry": "POINT (-118.247875 34.098544)",
      "poi_name": "Baltic Crossroads Art Gallery",
      "osm_id": 11357421363,
      "tourism": "gallery",
      "opening_hours": "Mo-Su 11:00-19:00",
      "operator": "Inguna Galvina",
      "website": "https://baltic-crossroads.com",
      "addr_state": "CA",
      "addr_city": "Los Angeles",
      "addr_postcode": "90039",
      "addr_street": "Riverside Drive",
      "addr_housenumber": "1955"
    },
    {
      "id": 4673,
      "geometry": "POINT (-117.782405 33.5428)",
      "poi_name": "Dawson Cole Fine Art",
      "osm_id": 11382640633,
      "tourism": "gallery",
      "addr_state": "CA",
      "addr_city": "Laguna Beach",
      "addr_postcode": "92651",
      "addr_street": "Glenneyre Street",
      "addr_housenumber": "326"
    },
    {
      "id": 8623,
      "geometry": "POINT (-118.209509 34.093033)",
      "poi_name": "Rock Rose Gallery",
      "osm_id": 8603242003,
      "tourism": "gallery",
      "addr_street": "N Figueroa Street",
      "addr_housenumber": "4108"
    },
    {
      "id": 9722,
      "geometry": "POINT (-117.894008 34.135444)",
      "poi_name": "Duke Art Gallery",
      "osm_id": 8952794207,
      "tourism": "gallery"
    },
    {
      "id": 10722,
      "geometry": "POINT (-118.151534 33.764304)",
      "poi_name": "Iguana Import Gallery",
      "osm_id": 7996697203,
      "tourism": "gallery",
      "phone": "562 433 1713",
      "addr_state": "CA",
      "addr_city": "Long Beach",
      "addr_postcode": "90803",
      "addr_street": "East Broadway",
      "addr_housenumber": "3440"
    },
    {
      "id": 11172,
      "geometry": "POINT (-117.931626 33.646386)",
      "poi_name": "Location 1980",
      "osm_id": 9875698803,
      "tourism": "gallery",
      "phone": "+1-949-612-7984"
    },
    {
      "id": 11923,
      "geometry": "POINT (-117.890822 33.695945)",
      "poi_name": "Showcase Gallery",
      "osm_id": 6091314792,
      "tourism": "gallery"
    },
    {
      "id": 12121,
      "geometry": "POINT (-118.256279 34.035411)",
      "poi_name": "Track 16 Gallery 1",
      "osm_id": 6197156485,
      "tourism": "gallery",
      "opening_hours": "We-Sa 12:00-18:00",
      "website": "https://www.track16.com/",
      "phone": "1-310-815-8080",
      "addr_state": "CA",
      "addr_city": "Los Angeles",
      "addr_postcode": "90015",
      "addr_street": "Maple Avenue",
      "addr_housenumber": "1206"
    },
    {
      "id": 12304,
      "geometry": "POINT (-118.132745 33.940209)",
      "poi_name": "Stay Gallery",
      "osm_id": 6289675639,
      "tourism": "gallery"
    },
    {
      "id": 13290,
      "geometry": "POINT (-117.577057 33.84476)",
      "poi_name": "The Arts Colony Gallery",
      "osm_id": 4086068600,
      "tourism": "gallery",
      "opening_hours": "10:00-14:00",
      "operator": "theartscolony.org",
      "addr_state": "CA",
      "addr_city": "Corona",
      "addr_postcode": "92882",
      "addr_street": "Taylor Ave",
      "addr_housenumber": "3120"
    },
    {
      "id": 13860,
      "geometry": "POINT (-118.234648 34.046112)",
      "poi_name": "Hauser & Wirth",
      "osm_id": 4160635189,
      "tourism": "gallery",
      "website": "https://www.hauserwirth.com",
      "phone": "+1-213-943-1620",
      "addr_street": "East 3rd Street",
      "addr_housenumber": "901"
    },
    {
      "id": 13990,
      "geometry": "POINT (-118.251132 34.042099)",
      "poi_name": "Diego Cardoso",
      "osm_id": 4209859291,
      "tourism": "gallery",
      "operator": "Diego Cardoso",
      "website": "http://www.cardosoart.com/",
      "addr_state": "CA",
      "addr_city": "Los Angeles",
      "addr_postcode": "90014",
      "addr_street": "South Los Angeles Street",
      "addr_housenumber": "738 #4"
    },
    {
      "id": 15659,
      "geometry": "POINT (-117.827952 33.758662)",
      "poi_name": "Chemers Art Gallery",
      "osm_id": 9432239682,
      "tourism": "gallery"
    },
    {
      "id": 15661,
      "geometry": "POINT (-117.85328 33.786846)",
      "poi_name": "Seeds Fine Art Exhibits",
      "osm_id": 9435349182,
      "tourism": "gallery"
    },
    {
      "id": 15662,
      "geometry": "POINT (-117.867003 33.774785)",
      "poi_name": "Noah Fine Art",
      "osm_id": 9435349183,
      "tourism": "gallery"
    },
    {
      "id": 18164,
      "geometry": "POINT (-117.503636 33.912438)",
      "poi_name": "Brandstater Gallery",
      "osm_id": 368167300,
      "tourism": "gallery",
      "addr_state": "CA"
    },
    {
      "id": 19741,
      "geometry": "POINT (-118.284016 33.738661)",
      "poi_name": "Off the Wall Art Designs",
      "osm_id": 10863489700,
      "tourism": "gallery",
      "opening_hours": "by appointment",
      "phone": "(310) 488-6533",
      "addr_state": "CA",
      "addr_city": "San Pedro",
      "addr_postcode": "90731",
      "addr_street": "West 6th Street",
      "addr_housenumber": "319"
    },
    {
      "id": 19808,
      "geometry": "POINT (-118.279016 34.041312)",
      "poi_name": "The Graff Lab",
      "osm_id": 10884029114,
      "tourism": "gallery",
      "website": "https://thegrafflab.com/",
      "addr_state": "CA",
      "addr_city": "Los Angeles",
      "addr_postcode": "90015",
      "addr_street": "Venice Boulevard",
      "addr_housenumber": "1038"
    },
    {
      "id": 20747,
      "geometry": "POINT (-117.888698 33.916861)",
      "poi_name": "Brea Art Gallery",
      "osm_id": 1234350229,
      "tourism": "gallery",
      "website": "https://www.ci.brea.ca.us/section.cfm?id=460"
    },
    {
      "id": 21507,
      "geometry": "POINT (-118.25595 34.083559)",
      "poi_name": "Randyland",
      "osm_id": 10292536215,
      "tourism": "gallery",
      "website": "https://www.facebook.com/RandylandLA/",
      "addr_street": "Lemoyne Street",
      "addr_housenumber": "1646"
    },
    {
      "id": 21716,
      "geometry": "POINT (-117.783239 33.542521)",
      "poi_name": "The Signature Gallery",
      "osm_id": 10617347120,
      "tourism": "gallery",
      "addr_street": "Forest Avenue",
      "addr_housenumber": "220"
    },
    {
      "id": 21717,
      "geometry": "POINT (-117.783185 33.542561)",
      "poi_name": "DeBilzan Gallery",
      "osm_id": 10617347123,
      "tourism": "gallery",
      "website": "https://debilzan.com",
      "addr_street": "Forest Avenue",
      "addr_housenumber": "224"
    },
    {
      "id": 22402,
      "geometry": "POINT (-117.721367 34.094157)",
      "poi_name": "Studio Claremont",
      "osm_id": 7020769179,
      "tourism": "gallery"
    },
    {
      "id": 22942,
      "geometry": "POINT (-118.287354 33.737994)",
      "poi_name": "Gallery 478",
      "osm_id": 4977831204,
      "tourism": "gallery",
      "addr_street": "West 7th Street",
      "addr_housenumber": "478"
    },
    {
      "id": 24118,
      "geometry": "POINT (-117.927638 33.869516)",
      "poi_name": "PAS Gallery and Studio",
      "osm_id": 9328497207,
      "tourism": "gallery"
    },
    {
      "id": 24119,
      "geometry": "POINT (-117.869012 33.746066)",
      "poi_name": "Grand Central Art Center",
      "osm_id": 9330257478,
      "tourism": "gallery"
    },
    {
      "id": 24120,
      "geometry": "POINT (-117.868428 33.746127)",
      "poi_name": "Orange County Center for Contemporary Art",
      "osm_id": 9330257486,
      "tourism": "gallery"
    },
    {
      "id": 24823,
      "geometry": "POINT (-117.877447 33.615206)",
      "poi_name": "Lahaina Galleries",
      "osm_id": 4333085675,
      "tourism": "gallery",
      "opening_hours": "Mo-Sa 11:00-19:00; Su 11:00-18:00",
      "website": "https://lahainagalleries.com/southern-california",
      "phone": "+1-949-721-9117",
      "addr_state": "CA",
      "addr_city": "Newport Beach",
      "addr_postcode": "92660",
      "addr_street": "Newport Center Drive",
      "addr_housenumber": "1173"
    },
    {
      "id": 25273,
      "geometry": "POINT (-117.916632 33.874413)",
      "poi_name": "Fullerton College Art Gallery",
      "osm_id": 4437349757,
      "tourism": "gallery",
      "fee": "no"
    },
    {
      "id": 26339,
      "geometry": "POINT (-117.892806 33.692041)",
      "poi_name": "Martin Lawrence Galleries",
      "osm_id": 5850036983,
      "tourism": "gallery",
      "opening_hours": "Mo-Sa 10:00-20:00, Su 11:00-19:00",
      "addr_state": "CA",
      "addr_city": "Costa Mesa",
      "addr_postcode": "92626",
      "addr_street": "Bear Street",
      "addr_housenumber": "3333"
    }
  ],
  "answer_type": "name",
  "question_entities": {
    "[1]": {
      "main_category": "tourism",
      "sub_category": "gallery"
    },
    "[2]": {
      "distance": 40000,
      "text": "40 kilometers"
    },
    "[3]": {
      "main_category": "tourism",
      "sub_category": "museum",
      "display_name": "Fullerton Museum Center, Fullerton, CA",
      "geo_wkt": "POINT (-117.922419 33.872694)",
      "poi": {
        "id": 18222,
        "geometry": "POINT (-117.922419 33.872694)",
        "poi_name": "Fullerton Museum Center",
        "osm_id": 368174081,
        "tourism": "museum",
        "website": "https://www.fullertonmuseum.com/",
        "addr_state": "CA",
        "addr_city": "Fullerton",
        "addr_postcode": "92832",
        "addr_street": "North Pomona Avenue",
        "addr_housenumber": "301"
      }
    }
  },
  "id": 826,
  "type": "range+name"
}