{
  "question": "Where can I find a caf\u00e9 within 150 kilometers drive from Go Ape Treetop Adventure Course, Strongsville, OH?",
  "sql": "SELECT * FROM pois\nWHERE ST_DWithin(pois.geometry, ST_GeomFromText('POINT (-81.818381 41.322133)',4326)::geography, 150000)\nAND amenity = 'cafe';\n",
  "answers": [
    {
      "id": 28771,
      "geometry": "POINT (-81.987762 41.460559)",
      "poi_name": "Pulp",
      "osm_id": 8258482120,
      "amenity": "cafe",
      "cuisine": "juice;sandwich",
      "addr_state": "OH",
      "addr_city": "Avon",
      "addr_postcode": "44011",
      "addr_street": "Nagel Road",
      "addr_housenumber": "1813"
    },
    {
      "id": 28835,
      "geometry": "POINT (-80.319382 41.999722)",
      "poi_name": "The Crick Coffee House & Eatery",
      "osm_id": 8262671254,
      "amenity": "cafe",
      "addr_state": "PA",
      "addr_city": "Girard",
      "addr_postcode": "16417",
      "addr_street": "West Main Street",
      "addr_housenumber": "236"
    },
    {
      "id": 30778,
      "geometry": "POINT (-82.106651 41.366683)",
      "poi_name": "Erie Island Coffee Co.",
      "osm_id": 8381423657,
      "amenity": "cafe",
      "addr_state": "OH",
      "addr_city": "Elyria",
      "addr_postcode": "44035",
      "addr_street": "Middle Avenue",
      "addr_housenumber": "148"
    },
    {
      "id": 31091,
      "geometry": "POINT (-81.603642 41.508912)",
      "poi_name": "Euro Wafel",
      "osm_id": 8403724376,
      "amenity": "cafe",
      "cuisine": "waffle;crepe;coffee_shop",
      "addr_state": "OH",
      "addr_city": "Cleveland",
      "addr_postcode": "44106",
      "addr_street": "Mayfield Road",
      "addr_housenumber": "11433"
    },
    {
      "id": 31477,
      "geometry": "POINT (-81.615612 41.518827)",
      "poi_name": "Cleveland Cold Brew Coffee & Cafe",
      "osm_id": 8426441769,
      "amenity": "cafe",
      "cuisine": "coffee_shop",
      "opening_hours": "Mo-Sa 09:00-14:00",
      "website": "https://clevelandcoldbrew.com",
      "addr_state": "OH",
      "addr_city": "Cleveland",
      "addr_postcode": "44106",
      "addr_street": "East 105th Street",
      "addr_housenumber": "1400"
    },
    {
      "id": 33749,
      "geometry": "POINT (-81.698419 41.499123)",
      "poi_name": "Starbucks",
      "osm_id": 2680733306,
      "amenity": "cafe",
      "cuisine": "coffee_shop",
      "operator": "Starbucks",
      "takeaway": "yes",
      "official_name": "Starbucks Coffee",
      "addr_state": "OH",
      "addr_city": "Cleveland",
      "addr_postcode": "44113",
      "addr_street": "West 6th Street",
      "addr_housenumber": "1374"
    },
    {
      "id": 34284,
      "geometry": "POINT (-82.858233 40.24225)",
      "poi_name": "Wah Yuen",
      "osm_id": 2698820461,
      "amenity": "cafe",
      "cuisine": "chinese",
      "internet_access": "no",
      "addr_city": "Sunbury",
      "addr_postcode": "43074",
      "addr_street": "Vernon Street",
      "addr_housenumber": "36"
    },
    {
      "id": 35254,
      "geometry": "POINT (-81.52786 41.6088)",
      "poi_name": "Lakeshore Coffee House",
      "osm_id": 2714983453,
      "amenity": "cafe",
      "cuisine": "coffee_shop",
      "opening_hours": "Mo 06:00-18:00; Tu-Fr 06:00-21:00; Sa-Su 06:00-18:00",
      "website": "https://www.facebook.com/pages/Lake-Shore-Coffee-House/101630009914856",
      "internet_access": "wlan",
      "addr_city": "Euclid",
      "addr_postcode": "44123",
      "addr_street": "Lake Shore Boulevard",
      "addr_housenumber": "22032"
    },
    {
      "id": 36592,
      "geometry": "POINT (-81.681511 41.500765)",
      "poi_name": "Starbucks",
      "osm_id": 2772560172,
      "amenity": "cafe",
      "cuisine": "coffee_shop",
      "opening_hours": "Mo-Su 06:30-16:00",
      "takeaway": "yes",
      "official_name": "Starbucks Coffee",
      "addr_state": "OH",
      "addr_city": "Cleveland",
      "addr_postcode": "44115",
      "addr_street": "Euclid Avenue",
      "addr_housenumber": "1400"
    },
    {
      "id": 42895,
      "geometry": "POINT (-81.694618 41.501816)",
      "poi_name": "Starbucks",
      "osm_id": 3085972269,
      "amenity": "cafe",
      "cuisine": "coffee_shop",
      "takeaway": "yes",
      "drive_through": "no",
      "official_name": "Starbucks Coffee",
      "addr_state": "OH",
      "addr_city": "Cleveland",
      "addr_postcode": "44114",
      "addr_street": "West Saint Clair Avenue",
      "addr_housenumber": "1"
    },
    {
      "id": 46301,
      "geometry": "POINT (-81.145419 41.472883)",
      "poi_name": "Coffee Corners",
      "osm_id": 3258170114,
      "amenity": "cafe",
      "addr_state": "OH",
      "addr_city": "Burton",
      "addr_postcode": "44021",
      "addr_street": "North Cheshire Street",
      "addr_housenumber": "14544"
    },
    {
      "id": 47805,
      "geometry": "POINT (-81.682408 41.477446)",
      "poi_name": "affoGATO Cat Cafe",
      "osm_id": 3350729996,
      "amenity": "cafe",
      "cuisine": "coffee_shop",
      "description": "also has cats to pet and play with",
      "opening_hours": "We-Su 11:00-21:00",
      "website": "https://www.affogatocatcafe.com/",
      "phone": "+1-440-941-5130",
      "addr_city": "Cleveland",
      "addr_street": "Starkweather Avenue",
      "addr_housenumber": "761"
    },
    {
      "id": 48583,
      "geometry": "POINT (-81.437792 41.539533)",
      "poi_name": "Paradise Biryani Pointe",
      "osm_id": 3388679394,
      "amenity": "cafe",
      "cuisine": "indian",
      "opening_hours": "Mo-Fr 11:30-14:00,17:00-21:30; Sa 11:30-15:30,17:30-22:30; Su 11:30-15:30,05:30-21:15",
      "website": "https://paradisebiryanicleveland.com/mayfield/",
      "phone": "+1 440 565 7753",
      "addr_state": "OH",
      "addr_city": "Gates Mills",
      "addr_postcode": "44040",
      "addr_street": "Wilson Mills Road",
      "addr_housenumber": "6679"
    },
    {
      "id": 50589,
      "geometry": "POINT (-81.768123 41.487196)",
      "poi_name": "Starbucks",
      "osm_id": 3493195016,
      "amenity": "cafe",
      "cuisine": "coffee_shop",
      "opening_hours": "05:00-23:00",
      "internet_access": "yes",
      "phone": "+1 (216) 221-6680",
      "takeaway": "yes",
      "official_name": "Starbucks Coffee",
      "addr_state": "OH",
      "addr_city": "Cleveland",
      "addr_postcode": "44102",
      "addr_street": "Clifton Boulevard"
    },
    {
      "id": 50873,
      "geometry": "POINT (-81.59012 41.484608)",
      "poi_name": "Biggby Coffee",
      "osm_id": 3510279234,
      "amenity": "cafe",
      "cuisine": "coffee_shop",
      "takeaway": "yes",
      "addr_state": "OH",
      "addr_city": "Cleveland",
      "addr_postcode": "44120",
      "addr_street": "Shaker Square",
      "addr_housenumber": "13201"
    },
    {
      "id": 53428,
      "geometry": "POINT (-81.528286 40.811584)",
      "poi_name": "Blue Heron Cafe",
      "osm_id": 10080347413,
      "amenity": "cafe",
      "cuisine": "sandwich",
      "wheelchair": "yes",
      "website": "https://www.myblueheroncafe.com",
      "phone": "+1-330-837-3354",
      "takeaway": "yes",
      "outdoor_seating": "yes",
      "delivery": "yes",
      "addr_state": "OH",
      "addr_city": "Massillon",
      "addr_postcode": "44647",
      "addr_street": "Lake Avenue Northwest",
      "addr_housenumber": "125"
    },
    {
      "id": 54492,
      "geometry": "POINT (-81.452974 41.032882)",
      "poi_name": "The Boathouse Cafe",
      "osm_id": 10136667888,
      "amenity": "cafe",
      "website": "https://boathousecafeakron.com/",
      "phone": "+1-234-231-1556",
      "addr_state": "OH",
      "addr_city": "Akron",
      "addr_postcode": "44312",
      "addr_street": "East Waterloo Road",
      "addr_housenumber": "2215"
    },
    {
      "id": 55404,
      "geometry": "POINT (-81.465721 40.965959)",
      "poi_name": "The Human Bean",
      "osm_id": 10186045453,
      "amenity": "cafe",
      "cuisine": "coffee_shop",
      "website": "https://thehumanbean.com/location/the-human-bean-3532-massillon-road-uniontown-oh/",
      "phone": "+1-888-262-2215",
      "takeaway": "yes",
      "addr_state": "OH",
      "addr_city": "Uniontown",
      "addr_postcode": "44685",
      "addr_street": "Massillon Road",
      "addr_housenumber": "3532"
    },
    {
      "id": 58949,
      "geometry": "POINT (-81.783904 41.476888)",
      "poi_name": "Madison Take Out",
      "osm_id": 5404164956,
      "amenity": "cafe",
      "cuisine": "guatemalan",
      "takeaway": "yes",
      "outdoor_seating": "no",
      "addr_city": "Lakewood",
      "addr_postcode": "44107",
      "addr_street": "Madison Avenue",
      "addr_housenumber": "13359"
    },
    {
      "id": 59603,
      "geometry": "POINT (-81.771156 41.460877)",
      "poi_name": "Yemeni Gate",
      "osm_id": 5434125978,
      "amenity": "cafe",
      "cuisine": "yemeni",
      "addr_state": "OH",
      "addr_city": "Cleveland",
      "addr_street": "Lorain Avenue",
      "addr_housenumber": "11901"
    },
    {
      "id": 64195,
      "geometry": "POINT (-81.722892 41.440842)",
      "poi_name": "Sam Slyk's Chicken and Ribs",
      "osm_id": 5643705919,
      "amenity": "cafe",
      "addr_city": "Cleveland",
      "addr_postcode": "44109",
      "addr_street": "Fulton Road",
      "addr_housenumber": "4259"
    },
    {
      "id": 67076,
      "geometry": "POINT (-80.753144 41.182475)",
      "poi_name": "Steamed Rebellion Coffee Shop & Antiques",
      "osm_id": 11222570454,
      "amenity": "cafe",
      "cuisine": "coffee_shop",
      "opening_hours": "Mo-Sa 07:00-16:00",
      "internet_access": "wlan",
      "outdoor_seating": "yes",
      "addr_state": "Ohio",
      "addr_city": "Niles",
      "addr_postcode": "44446",
      "addr_street": "Robbins Avenue",
      "addr_housenumber": "507"
    },
    {
      "id": 68372,
      "geometry": "POINT (-80.764851 41.18102)",
      "poi_name": "Cadence Coffeehouse and Creperie",
      "osm_id": 11267554296,
      "amenity": "cafe",
      "cuisine": "coffee_shop;crepe",
      "addr_state": "OH",
      "addr_city": "Niles",
      "addr_street": "North Main Street"
    },
    {
      "id": 68649,
      "geometry": "POINT (-81.440589 41.608218)",
      "poi_name": "Starbucks",
      "osm_id": 11279674493,
      "amenity": "cafe",
      "cuisine": "coffee_shop",
      "opening_hours": "Su 06:00-20:00; Mo-Sa 05:30-20:00",
      "website": "https://www.starbucks.com/store-locator/store/1025343/willoughby-som-center-5880-som-center-rd-willoughby-oh-440943034-us",
      "internet_access": "wlan",
      "phone": "+1 216 387 3870",
      "takeaway": "yes",
      "drive_through": "yes",
      "official_name": "Starbucks Coffee",
      "addr_state": "OH",
      "addr_city": "Willoughby",
      "addr_postcode": "44094",
      "addr_street": "SOM Center Road",
      "addr_housenumber": "5880"
    },
    {
      "id": 70128,
      "geometry": "POINT (-81.666771 41.508808)",
      "poi_name": "Mango Mango Dessert",
      "osm_id": 11345643929,
      "amenity": "cafe",
      "cuisine": "asian;dessert",
      "takeaway": "yes",
      "addr_city": "Cleveland",
      "addr_postcode": "44114",
      "addr_street": "Payne Avenue",
      "addr_housenumber": "3133"
    },
    {
      "id": 71682,
      "geometry": "POINT (-81.406918 41.639843)",
      "poi_name": "Fiona's Coffee Bar & Bakery",
      "osm_id": 11396918559,
      "amenity": "cafe",
      "cuisine": "coffee_shop;bagel",
      "opening_hours": "Su-Sa 07:00-21:00",
      "website": "https://www.fionascoffeebar.com",
      "phone": "+1 440 571 4226",
      "addr_state": "OH",
      "addr_city": "Willoughby",
      "addr_postcode": "44094",
      "addr_street": "Erie Street",
      "addr_housenumber": "4148"
    },
    {
      "id": 71683,
      "geometry": "POINT (-81.729337 41.440148)",
      "poi_name": "Uciuni Pizza",
      "osm_id": 11396975451,
      "amenity": "cafe",
      "cuisine": "pizza",
      "takeaway": "only",
      "outdoor_seating": "no",
      "addr_state": "OH",
      "addr_city": "Cleveland",
      "addr_street": "Memphis Avenue",
      "addr_housenumber": "6102"
    },
    {
      "id": 74718,
      "geometry": "POINT (-83.411721 41.93023)",
      "poi_name": "Biggby Coffee",
      "osm_id": 9693364904,
      "amenity": "cafe",
      "cuisine": "coffee_shop",
      "takeaway": "yes",
      "outdoor_seating": "no",
      "addr_state": "MI",
      "addr_city": "Monroe",
      "addr_postcode": "48162",
      "addr_street": "North Telegraph Road",
      "addr_housenumber": "559"
    },
    {
      "id": 83292,
      "geometry": "POINT (-81.730095 41.483992)",
      "poi_name": "The Gypsy Bean",
      "osm_id": 1737221343,
      "amenity": "cafe",
      "cuisine": "coffee_shop",
      "outdoor_seating": "no",
      "addr_state": "OH",
      "addr_city": "Cleveland",
      "addr_postcode": "44102",
      "addr_street": "Detroit Avenue",
      "addr_housenumber": "6425"
    },
    {
      "id": 87391,
      "geometry": "POINT (-81.703452 41.49993)",
      "poi_name": "27 Club",
      "osm_id": 8712619922,
      "amenity": "cafe",
      "cuisine": "coffee_shop",
      "addr_state": "OH",
      "addr_city": "Cleveland",
      "addr_postcode": "44113",
      "addr_street": "West 10th Street",
      "addr_housenumber": "1215"
    },
    {
      "id": 88261,
      "geometry": "POINT (-80.798704 41.900098)",
      "poi_name": "Harbor Perk Coffeehouse & Roasting",
      "osm_id": 8776508081,
      "amenity": "cafe",
      "cuisine": "coffee_shop",
      "addr_state": "OH",
      "addr_city": "Ashtabula",
      "addr_postcode": "44004",
      "addr_street": "Bridge Street",
      "addr_housenumber": "1003"
    },
    {
      "id": 89778,
      "geometry": "POINT (-81.425302 41.628705)",
      "poi_name": "Starbucks",
      "osm_id": 8861296290,
      "amenity": "cafe",
      "cuisine": "coffee_shop",
      "takeaway": "yes",
      "official_name": "Starbucks Coffee",
      "addr_state": "OH",
      "addr_city": "Willoughby",
      "addr_postcode": "44094",
      "addr_street": "Euclid Avenue",
      "addr_housenumber": "36575"
    },
    {
      "id": 94252,
      "geometry": "POINT (-81.802116 41.485129)",
      "poi_name": "The Root Cafe",
      "osm_id": 2217336574,
      "amenity": "cafe",
      "cuisine": "coffee_shop",
      "opening_hours": "Mo-Sa 07:00-19:00; Su 08:00-19:00",
      "internet_access": "wlan",
      "outdoor_seating": "no",
      "addr_state": "OH",
      "addr_city": "Lakewood",
      "addr_street": "Detroit Avenue",
      "addr_housenumber": "15118"
    },
    {
      "id": 94880,
      "geometry": "POINT (-82.475366 40.774268)",
      "poi_name": "Starbucks",
      "osm_id": 6377780602,
      "amenity": "cafe",
      "cuisine": "coffee_shop",
      "opening_hours": "Mo-Su 06:00-20:00",
      "website": "https://www.starbucks.com/store-locator/store/17020/kroger-mansfield-oh-557-1060-ashland-road-mansfield-oh-449052157-us",
      "phone": "+1-419-589-3147",
      "takeaway": "yes",
      "official_name": "Starbucks Coffee",
      "addr_state": "OH",
      "addr_city": "Mansfield",
      "addr_postcode": "44905",
      "addr_street": "Ashland Road",
      "addr_housenumber": "1060"
    },
    {
      "id": 96048,
      "geometry": "POINT (-82.515616 40.761396)",
      "poi_name": "Relax, It's Just Coffee",
      "osm_id": 6418692387,
      "amenity": "cafe",
      "opening_hours": "Mo-Sa 07:00-19:00; Su 09:00-17:00",
      "website": "https://www.relaxitsjustcoffee.com/",
      "phone": "+1-419-522-1521",
      "addr_state": "OH",
      "addr_city": "Mansfield",
      "addr_postcode": "44902",
      "addr_street": "North Main Street",
      "addr_housenumber": "105"
    },
    {
      "id": 96117,
      "geometry": "POINT (-81.752144 41.467493)",
      "poi_name": "Curbside Coffee",
      "osm_id": 6419905431,
      "amenity": "cafe",
      "addr_city": "Cleveland",
      "addr_street": "Lorain Avenue",
      "addr_housenumber": "9858"
    },
    {
      "id": 96191,
      "geometry": "POINT (-81.577895 41.114558)",
      "poi_name": "Niko's Sandwich Board",
      "osm_id": 6422188209,
      "amenity": "cafe",
      "addr_state": "OH",
      "addr_city": "Akron",
      "addr_street": "West Market Street",
      "addr_housenumber": "1947"
    },
    {
      "id": 97372,
      "geometry": "POINT (-82.51543 40.759206)",
      "poi_name": "C|F|E on Main",
      "osm_id": 6476367173,
      "amenity": "cafe",
      "opening_hours": "Mo-Th 11:00-14:00",
      "operator": "Dan Lew Exchange",
      "website": "http://www.chinaclubink.com/c-f-e-on-main.html",
      "phone": "+1-419-522-7699",
      "addr_state": "OH",
      "addr_city": "Mansfield",
      "addr_postcode": "44902",
      "addr_street": "North Main Street",
      "addr_housenumber": "28"
    },
    {
      "id": 99985,
      "geometry": "POINT (-82.224108 41.398235)",
      "poi_name": "Arabica",
      "osm_id": 6570149109,
      "amenity": "cafe",
      "opening_hours": "Mo-Th 06:30-18:00; Fr 06:30-20:00; Sa 08:00-20:00; Su 08:00-14:30",
      "website": "http://www.arabicaamherst.com",
      "phone": "+1-440-941-0718",
      "addr_state": "OH",
      "addr_city": "Amherst",
      "addr_postcode": "44001",
      "addr_street": "Park Avenue",
      "addr_housenumber": "254"
    },
    {
      "id": 101783,
      "geometry": "POINT (-81.722123 41.424199)",
      "poi_name": "Dreamz Cafe",
      "osm_id": 6643754425,
      "amenity": "cafe",
      "cuisine": "soul_food",
      "takeaway": "yes",
      "addr_state": "OH",
      "addr_city": "Cleveland",
      "addr_street": "Pearl Road",
      "addr_housenumber": "4912"
    },
    {
      "id": 104854,
      "geometry": "POINT (-83.23689 42.094687)",
      "poi_name": "Tim Hortons",
      "osm_id": 8590447958,
      "amenity": "cafe",
      "cuisine": "coffee_shop",
      "takeaway": "yes",
      "outdoor_seating": "no",
      "addr_state": "MI",
      "addr_city": "Brownstown Charter Township",
      "addr_postcode": "48183",
      "addr_street": "Gibraltar Road",
      "addr_housenumber": "20913"
    },
    {
      "id": 108888,
      "geometry": "POINT (-81.565517 41.498188)",
      "poi_name": "Nubeigel",
      "osm_id": 3637857825,
      "amenity": "cafe",
      "cuisine": "bagel",
      "website": "https://www.nubeigel.com",
      "phone": "216-331-1794",
      "addr_state": "OH",
      "addr_city": "Cleveland Heights",
      "addr_postcode": "44118",
      "addr_street": "Lee Road",
      "addr_housenumber": "2254"
    },
    {
      "id": 106122,
      "geometry": "POINT (-81.366879 41.65948)",
      "poi_name": "Starbucks",
      "osm_id": 8665711328,
      "amenity": "cafe",
      "cuisine": "coffee_shop",
      "takeaway": "yes",
      "official_name": "Starbucks Coffee",
      "addr_state": "OH",
      "addr_city": "Mentor",
      "addr_postcode": "44060",
      "addr_street": "Mentor Avenue",
      "addr_housenumber": "7681"
    },
    {
      "id": 108621,
      "geometry": "POINT (-81.705384 41.486391)",
      "poi_name": "Tabletop Board Game Cafe",
      "osm_id": 3630061151,
      "amenity": "cafe",
      "description": "Bright cafe themed around board games and community. Offering pizza, sandwiches, coffee, and beer & wine.",
      "opening_hours": "We-Th 16:00-21:00; Fr-Sa 11:00-22:00; Su 11:00-21:00",
      "website": "https://www.tabletopcleve.com/",
      "phone": "+1-216-512-3053",
      "outdoor_seating": "no",
      "delivery": "yes",
      "addr_state": "OH",
      "addr_city": "Cleveland",
      "addr_postcode": "44113",
      "addr_street": "West 25th Street",
      "addr_housenumber": "1810"
    },
    {
      "id": 109944,
      "geometry": "POINT (-81.709312 41.48168)",
      "poi_name": "Ohio City Pizzeria",
      "osm_id": 3679281474,
      "amenity": "cafe",
      "cuisine": "pizza",
      "takeaway": "yes",
      "outdoor_seating": "yes",
      "addr_state": "OH",
      "addr_city": "Cleveland",
      "addr_postcode": "44113",
      "addr_street": "Lorain Avenue",
      "addr_housenumber": "3223"
    },
    {
      "id": 114803,
      "geometry": "POINT (-81.691099 41.500665)",
      "poi_name": "Rising Star",
      "osm_id": 3895500528,
      "amenity": "cafe",
      "cuisine": "coffee_shop",
      "opening_hours": "Mo-Su 07:00-17:00",
      "addr_city": "Cleveland",
      "addr_postcode": "44114",
      "addr_street": "Superior Avenue East",
      "addr_housenumber": "412"
    },
    {
      "id": 115471,
      "geometry": "POINT (-81.759858 41.423942)",
      "poi_name": "Starbucks",
      "osm_id": 8898429797,
      "amenity": "cafe",
      "cuisine": "coffee_shop",
      "takeaway": "yes",
      "official_name": "Starbucks Coffee",
      "addr_state": "OH",
      "addr_city": "Brooklyn",
      "addr_postcode": "44144",
      "addr_street": "Cascade Crossing",
      "addr_housenumber": "10330"
    },
    {
      "id": 115774,
      "geometry": "POINT (-81.535243 41.486867)",
      "poi_name": "Biggby Coffee",
      "osm_id": 8912339248,
      "amenity": "cafe",
      "cuisine": "coffee_shop",
      "takeaway": "yes",
      "addr_state": "OH",
      "addr_city": "Shaker Heights",
      "addr_postcode": "44118",
      "addr_street": "Fairmount Boulevard",
      "addr_housenumber": "20609"
    },
    {
      "id": 115993,
      "geometry": "POINT (-81.757832 41.465628)",
      "poi_name": "Rise Above Cafe",
      "osm_id": 8922935597,
      "amenity": "cafe",
      "cuisine": "coffee_shop",
      "addr_state": "OH",
      "addr_city": "Cleveland",
      "addr_street": "Lorain Avenue",
      "addr_housenumber": "10400"
    },
    {
      "id": 116362,
      "geometry": "POINT (-81.923138 41.416502)",
      "poi_name": "Starbucks",
      "osm_id": 8939886079,
      "amenity": "cafe",
      "cuisine": "coffee_shop",
      "takeaway": "yes",
      "official_name": "Starbucks Coffee",
      "addr_state": "OH",
      "addr_city": "North Olmsted",
      "addr_postcode": "44070",
      "addr_street": "Lorain Road",
      "addr_housenumber": "27178"
    },
    {
      "id": 116963,
      "geometry": "POINT (-81.836221 41.481901)",
      "poi_name": "Erie Island Coffee",
      "osm_id": 8972594984,
      "amenity": "cafe",
      "cuisine": "coffee_shop",
      "addr_state": "OH",
      "addr_city": "Rocky River",
      "addr_postcode": "44116",
      "addr_street": "Detroit Road",
      "addr_housenumber": "19300"
    },
    {
      "id": 116440,
      "geometry": "POINT (-81.917202 41.419431)",
      "poi_name": "Biggby Coffee",
      "osm_id": 8942912077,
      "amenity": "cafe",
      "cuisine": "coffee_shop",
      "takeaway": "yes",
      "addr_state": "OH",
      "addr_city": "North Olmsted",
      "addr_postcode": "44070",
      "addr_street": "Brookpark Road",
      "addr_housenumber": "26625"
    },
    {
      "id": 116336,
      "geometry": "POINT (-81.840187 41.230084)",
      "poi_name": "Kelly's Cafe",
      "osm_id": 8939417445,
      "amenity": "cafe",
      "addr_state": "OH",
      "addr_city": "Brunswick",
      "addr_postcode": "44212",
      "addr_street": "Pearl Road",
      "addr_housenumber": "1661"
    },
    {
      "id": 116748,
      "geometry": "POINT (-81.83476 41.315703)",
      "poi_name": "Architectural Justice",
      "osm_id": 8958333978,
      "amenity": "cafe",
      "addr_state": "OH",
      "addr_city": "Strongsville",
      "addr_postcode": "44136",
      "addr_street": "Pearl Road",
      "addr_housenumber": "13593"
    },
    {
      "id": 117236,
      "geometry": "POINT (-82.203436 41.42942)",
      "poi_name": "Starbucks",
      "osm_id": 8984023162,
      "amenity": "cafe",
      "cuisine": "coffee_shop",
      "takeaway": "yes",
      "official_name": "Starbucks Coffee",
      "addr_state": "OH",
      "addr_city": "Lorain",
      "addr_postcode": "44053",
      "addr_street": "North Leavitt Road",
      "addr_housenumber": "4310"
    },
    {
      "id": 117512,
      "geometry": "POINT (-81.46467 40.958127)",
      "poi_name": "Starbucks",
      "osm_id": 8999077915,
      "amenity": "cafe",
      "cuisine": "coffee_shop",
      "phone": "+1-330-899-1222",
      "takeaway": "yes",
      "official_name": "Starbucks Coffee",
      "outdoor_seating": "yes",
      "addr_state": "OH",
      "addr_city": "Uniontown",
      "addr_postcode": "44685",
      "addr_street": "Massillon Road",
      "addr_housenumber": "3875"
    },
    {
      "id": 117563,
      "geometry": "POINT (-80.817798 41.236367)",
      "poi_name": "Nova Coffee Co.",
      "osm_id": 9000022640,
      "amenity": "cafe",
      "cuisine": "coffee_shop",
      "opening_hours": "Mo-Th07:00-14:00, Fr-Su 07:00-15:00",
      "outdoor_seating": "no",
      "addr_state": "OH",
      "addr_city": "Warren",
      "addr_postcode": "44481",
      "addr_street": "North Park Avenue",
      "addr_housenumber": "112"
    },
    {
      "id": 117759,
      "geometry": "POINT (-81.241149 41.66318)",
      "poi_name": "Starbucks",
      "osm_id": 9008801057,
      "amenity": "cafe",
      "cuisine": "coffee_shop",
      "opening_hours": "Mo-Su 05:00-21:00",
      "phone": "+12163151587",
      "takeaway": "yes",
      "official_name": "Starbucks Coffee",
      "addr_state": "OH",
      "addr_city": "Painesville",
      "addr_postcode": "44077",
      "addr_street": "Crile Road",
      "addr_housenumber": "7639"
    },
    {
      "id": 119057,
      "geometry": "POINT (-80.304498 40.695712)",
      "poi_name": "Starbucks",
      "osm_id": 9081193248,
      "amenity": "cafe",
      "cuisine": "coffee_shop",
      "takeaway": "yes",
      "official_name": "Starbucks Coffee",
      "addr_state": "PA",
      "addr_city": "Beaver",
      "addr_postcode": "15009",
      "addr_street": "3rd Street",
      "addr_housenumber": "596"
    },
    {
      "id": 117655,
      "geometry": "POINT (-81.691568 41.45992)",
      "poi_name": "Starbucks",
      "osm_id": 9005044035,
      "amenity": "cafe",
      "cuisine": "coffee_shop",
      "takeaway": "yes",
      "official_name": "Starbucks Coffee",
      "addr_state": "OH",
      "addr_city": "Cleveland",
      "addr_postcode": "44109",
      "addr_street": "Steelyard Drive",
      "addr_housenumber": "3420"
    },
    {
      "id": 118500,
      "geometry": "POINT (-81.61723 41.482356)",
      "poi_name": "I Love Granny K's Soul Food",
      "osm_id": 9048822230,
      "amenity": "cafe",
      "cuisine": "soul_food",
      "addr_state": "OH",
      "addr_city": "Cleveland",
      "addr_street": "Buckeye Road",
      "addr_housenumber": "9718"
    },
    {
      "id": 118942,
      "geometry": "POINT (-81.721575 41.477573)",
      "poi_name": "Cent's",
      "osm_id": 9072257329,
      "amenity": "cafe",
      "cuisine": "pizza",
      "addr_state": "OH",
      "addr_city": "Cleveland",
      "addr_street": "Lorain Avenue",
      "addr_housenumber": "5016"
    },
    {
      "id": 120503,
      "geometry": "POINT (-81.689848 41.500028)",
      "poi_name": "Balance Grill",
      "osm_id": 6708874984,
      "amenity": "cafe",
      "cuisine": "asian",
      "addr_city": "Cleveland",
      "addr_street": "Euclid Avenue",
      "addr_housenumber": "515"
    },
    {
      "id": 119124,
      "geometry": "POINT (-81.571436 41.571232)",
      "poi_name": "Six Shooter Coffee",
      "osm_id": 9082989467,
      "amenity": "cafe",
      "cuisine": "coffee_shop",
      "opening_hours": "Mo-Su 07:00-19:00",
      "addr_state": "OH",
      "addr_city": "Cleveland",
      "addr_street": "Waterloo Road",
      "addr_housenumber": "15613"
    },
    {
      "id": 119695,
      "geometry": "POINT (-80.34359 42.014462)",
      "poi_name": "Yellow Jacket Cafe",
      "osm_id": 9116882536,
      "amenity": "cafe",
      "addr_state": "PA",
      "addr_city": "Lake City",
      "addr_postcode": "16423",
      "addr_street": "Rice Avenue",
      "addr_housenumber": "2170"
    },
    {
      "id": 120164,
      "geometry": "POINT (-81.686051 41.481207)",
      "poi_name": "Cafe Social Latinoamericano",
      "osm_id": 9143395099,
      "amenity": "cafe",
      "cuisine": "coffee_shop",
      "opening_hours": "Mo-Fr 08:00-15:00; Sa-Su 08:00-17:00",
      "website": "cafesocialcoffee.com",
      "phone": "+1 216 280 2423",
      "addr_state": "OH",
      "addr_city": "Cleveland",
      "addr_postcode": "44113",
      "addr_street": "Professor Avenue",
      "addr_housenumber": "2275"
    },
    {
      "id": 120196,
      "geometry": "POINT (-81.5804 41.046344)",
      "poi_name": "The Beanhead Brothers",
      "osm_id": 9144596580,
      "amenity": "cafe",
      "cuisine": "coffee_shop",
      "addr_state": "OH",
      "addr_city": "Akron",
      "addr_postcode": "44320",
      "addr_street": "Romig Road",
      "addr_housenumber": "2495"
    },
    {
      "id": 119720,
      "geometry": "POINT (-80.323886 40.773208)",
      "poi_name": "Beaver Falls Coffee and Tea",
      "osm_id": 9118962679,
      "amenity": "cafe",
      "cuisine": "coffee_shop",
      "website": "https://www.beaverfallscoffeeandtea.com/",
      "internet_access": "yes",
      "phone": "724-843-4221",
      "outdoor_seating": "yes",
      "addr_state": "PA",
      "addr_city": "Beaver Falls",
      "addr_postcode": "15010",
      "addr_street": "4th Avenue",
      "addr_housenumber": "3219"
    },
    {
      "id": 122772,
      "geometry": "POINT (-81.784651 41.4048)",
      "poi_name": "Charlie And Tango Ice Cream And Smoothies",
      "osm_id": 6818064153,
      "amenity": "cafe",
      "cuisine": "ice_cream;smoothie",
      "opening_hours": "Mo-Su 12:00-22:30",
      "website": "https://charlieandtangoicecreamandsmoothies.business.site/",
      "addr_state": "OH",
      "addr_city": "Brook Park",
      "addr_street": "Snow Road",
      "addr_housenumber": "13357"
    },
    {
      "id": 124246,
      "geometry": "POINT (-81.603045 41.480869)",
      "poi_name": "The Grind Shop",
      "osm_id": 6905771230,
      "amenity": "cafe",
      "cuisine": "coffee_shop",
      "opening_hours": "Mo-Sa 06:00-20:00",
      "addr_state": "OH",
      "addr_city": "Cleveland",
      "addr_postcode": "44104",
      "addr_street": "Buckeye Road",
      "addr_housenumber": "11536"
    },
    {
      "id": 123422,
      "geometry": "POINT (-81.827097 41.482103)",
      "poi_name": "Insomnia Cookies",
      "osm_id": 6853832965,
      "amenity": "cafe",
      "cuisine": "cookie",
      "shop": "pastry",
      "addr_city": "Lakewood",
      "addr_postcode": "44107",
      "addr_street": "Detroit Avenue",
      "addr_housenumber": "18508"
    },
    {
      "id": 125345,
      "geometry": "POINT (-83.176908 41.115691)",
      "poi_name": "Baliwicks Coffee Company",
      "osm_id": 6956499772,
      "amenity": "cafe",
      "cuisine": "coffee_shop",
      "internet_access": "wlan",
      "outdoor_seating": "no",
      "addr_state": "OH",
      "addr_city": "Tiffin",
      "addr_housenumber": "62"
    },
    {
      "id": 125258,
      "geometry": "POINT (-81.681791 41.49638)",
      "poi_name": "Solstice Roasters Caf\u00e9",
      "osm_id": 6952532569,
      "amenity": "cafe",
      "addr_state": "OH",
      "addr_city": "Cleveland",
      "addr_street": "Carnegie Avenue",
      "addr_housenumber": "1101"
    },
    {
      "id": 128417,
      "geometry": "POINT (-81.549743 41.592038)",
      "poi_name": "Blue Parrot Cafe",
      "osm_id": 8156138920,
      "amenity": "cafe",
      "addr_state": "OH",
      "addr_city": "Euclid",
      "addr_postcode": "44119",
      "addr_street": "East 185th Street",
      "addr_housenumber": "561"
    },
    {
      "id": 126658,
      "geometry": "POINT (-81.571093 41.571232)",
      "poi_name": "Ritual Juicery",
      "osm_id": 7989868787,
      "amenity": "cafe",
      "cuisine": "juice",
      "opening_hours": "Mo-Fr 09:30-17:00; Sa,Su 10:00-14:00",
      "addr_state": "OH",
      "addr_city": "Cleveland",
      "addr_postcode": "44110",
      "addr_street": "Waterloo Road",
      "addr_housenumber": "15619"
    },
    {
      "id": 126771,
      "geometry": "POINT (-81.565049 41.448507)",
      "poi_name": "Clean Eating",
      "osm_id": 7997606022,
      "amenity": "cafe",
      "cuisine": "soup;salad;sandwich;smoothie",
      "takeaway": "yes",
      "addr_state": "OH",
      "addr_city": "Cleveland",
      "addr_street": "Lee Road",
      "addr_housenumber": "4088"
    },
    {
      "id": 128578,
      "geometry": "POINT (-81.621045 41.467578)",
      "poi_name": "Garden Grill",
      "osm_id": 8171709540,
      "amenity": "cafe",
      "cuisine": "sandwich;seafood;salad",
      "takeaway": "yes",
      "outdoor_seating": "no",
      "addr_city": "Cleveland",
      "addr_street": "East 93rd Street",
      "addr_housenumber": "3347"
    },
    {
      "id": 135240,
      "geometry": "POINT (-81.689572 41.50493)",
      "poi_name": "The Break Bread Cafe",
      "osm_id": 11509713082,
      "amenity": "cafe",
      "cuisine": "sandwich",
      "addr_state": "OH",
      "addr_city": "Cleveland",
      "addr_postcode": "44114",
      "addr_street": "East 9th Street",
      "addr_housenumber": "1301"
    },
    {
      "id": 133560,
      "geometry": "POINT (-81.516855 41.08436)",
      "poi_name": "Chameleon Cafe",
      "osm_id": 9998683444,
      "amenity": "cafe",
      "cuisine": "coffee_shop;breakfast;lunch",
      "opening_hours": "Mo-Fr 07:30-16:00",
      "website": "https://www.chameleoncafeakron.com/",
      "phone": "+1-234-334-3603",
      "outdoor_seating": "yes",
      "addr_state": "OH",
      "addr_city": "Akron",
      "addr_postcode": "44308",
      "addr_street": "South Main Street",
      "addr_housenumber": "23"
    },
    {
      "id": 135329,
      "geometry": "POINT (-81.33859 41.525454)",
      "poi_name": "The Coffee Post",
      "osm_id": 11511953779,
      "amenity": "cafe",
      "cuisine": "coffee_shop",
      "phone": "+1 440 729 3130",
      "drive_through": "yes",
      "outdoor_seating": "no",
      "addr_state": "OH",
      "addr_city": "Chesterland",
      "addr_postcode": "44026",
      "addr_street": "Chillicothe Road",
      "addr_housenumber": "12626"
    },
    {
      "id": 135241,
      "geometry": "POINT (-81.68928 41.505624)",
      "poi_name": "The Main Squeeze",
      "osm_id": 11509713097,
      "amenity": "cafe",
      "cuisine": "smoothie",
      "opening_hours": "Mo-Fr 07:00-16:00",
      "addr_state": "OH",
      "addr_city": "Cleveland",
      "addr_postcode": "44114",
      "addr_street": "Erieview Plaza",
      "addr_housenumber": "55"
    },
    {
      "id": 135334,
      "geometry": "POINT (-81.597086 41.48027)",
      "poi_name": "The Tavern Coffee House",
      "osm_id": 11512103327,
      "amenity": "cafe",
      "cuisine": "coffee_shop",
      "opening_hours": "Mo-Fr 08:00-12:00",
      "outdoor_seating": "no",
      "addr_state": "OH",
      "addr_city": "Cleveland",
      "addr_street": "Buckeye Road",
      "addr_housenumber": "12302"
    },
    {
      "id": 137119,
      "geometry": "POINT (-81.521549 41.076484)",
      "poi_name": "Evelyn's Coffee & Banh Mi",
      "osm_id": 6086521085,
      "amenity": "cafe",
      "website": "http://evelynscoffee.com/",
      "phone": "+13308495080",
      "addr_state": "OH",
      "addr_city": "Akron",
      "addr_postcode": "44308",
      "addr_street": "East Exchange Street",
      "addr_housenumber": "11"
    },
    {
      "id": 135804,
      "geometry": "POINT (-81.48281 41.135377)",
      "poi_name": "Asterisk Coffee",
      "osm_id": 11537662365,
      "amenity": "cafe",
      "addr_state": "OH",
      "addr_city": "Cuyahoga Falls",
      "addr_postcode": "44221",
      "addr_street": "Front Street",
      "addr_housenumber": "2101"
    },
    {
      "id": 137770,
      "geometry": "POINT (-81.505685 41.1477)",
      "poi_name": "Boba & Pearl",
      "osm_id": 6112286349,
      "amenity": "cafe",
      "cuisine": "bubble_tea",
      "addr_state": "OH",
      "addr_city": "Cuyahoga Falls",
      "addr_postcode": "44223",
      "addr_street": "Portage Trail",
      "addr_housenumber": "1922"
    },
    {
      "id": 138275,
      "geometry": "POINT (-80.614661 40.361172)",
      "poi_name": "Leonardo's Coffeehouse",
      "osm_id": 6139510599,
      "amenity": "cafe",
      "addr_state": "OH",
      "addr_city": "Steubenville"
    },
    {
      "id": 138573,
      "geometry": "POINT (-81.44154 41.102298)",
      "poi_name": "Crimson Cup",
      "osm_id": 6157164176,
      "amenity": "cafe",
      "cuisine": "coffee_shop",
      "website": "https://www.crimsoncup.com/assets/24x36-_2020_Tallmadge.pdf",
      "internet_access": "wlan",
      "phone": "+12346780917",
      "outdoor_seating": "yes",
      "addr_state": "OH",
      "addr_city": "Tallmadge",
      "addr_postcode": "44278",
      "addr_street": "Tallmadge Circle",
      "addr_housenumber": "116"
    },
    {
      "id": 139479,
      "geometry": "POINT (-81.404078 41.16744)",
      "poi_name": "StowNut Donut & Diner",
      "osm_id": 6198975369,
      "amenity": "cafe",
      "website": "http://www.stownutdonut.com/",
      "takeaway": "yes",
      "outdoor_seating": "yes",
      "addr_state": "OH",
      "addr_city": "Stow",
      "addr_postcode": "44224",
      "addr_street": "Graham Road"
    },
    {
      "id": 140899,
      "geometry": "POINT (-81.69951 41.499314)",
      "poi_name": "Phoenix Coffee",
      "osm_id": 6266396308,
      "amenity": "cafe",
      "cuisine": "coffee_shop",
      "phone": "+1-216-230-2869",
      "addr_state": "OH",
      "addr_city": "Cleveland",
      "addr_street": "West Saint Clair Avenue",
      "addr_housenumber": "826"
    },
    {
      "id": 143374,
      "geometry": "POINT (-82.02154 39.98282)",
      "poi_name": "Starbucks",
      "osm_id": 6338803835,
      "amenity": "cafe",
      "cuisine": "coffee_shop",
      "opening_hours": "Mo-Su 06:00-20:00",
      "website": "https://www.starbucks.com/store-locator/store/17187/kroger-zanesville-891-3387-maple-ave-zanesville-oh-437011338-us",
      "phone": "+1-740-450-5414",
      "takeaway": "yes",
      "official_name": "Starbucks Coffee",
      "outdoor_seating": "no",
      "addr_state": "OH",
      "addr_city": "Zanesville",
      "addr_postcode": "43701",
      "addr_street": "Maple Avenue",
      "addr_housenumber": "3387"
    },
    {
      "id": 142125,
      "geometry": "POINT (-81.537007 41.466175)",
      "poi_name": "Rising Star Coffee",
      "osm_id": 6303370018,
      "amenity": "cafe",
      "cuisine": "coffee_shop",
      "addr_state": "OH",
      "addr_city": "Shaker Heights",
      "addr_postcode": "44122",
      "addr_street": "Tuttle Road",
      "addr_housenumber": "3441"
    },
    {
      "id": 141778,
      "geometry": "POINT (-81.391222 41.430361)",
      "poi_name": "Heartwood Coffee Roastery",
      "osm_id": 6296943994,
      "amenity": "cafe",
      "cuisine": "coffee_shop",
      "opening_hours": "Su 08:00-17:00; Mo-Sa 06:00-17:00",
      "website": "https://www.heartwoodroastery.com",
      "phone": "+1-440-337-0089",
      "addr_state": "OH",
      "addr_city": "Chagrin Falls",
      "addr_postcode": "44022",
      "addr_street": "North Main Street",
      "addr_housenumber": "20"
    },
    {
      "id": 143368,
      "geometry": "POINT (-82.031006 39.993015)",
      "poi_name": "Starbucks",
      "osm_id": 6338763792,
      "amenity": "cafe",
      "cuisine": "coffee_shop",
      "opening_hours": "Mo-Fr 05:00-21:00, Sa 05:30-21:00, Su 06:00-21:00",
      "website": "https://www.starbucks.com/store-locator/store/10159/zanesville-oh-3934-taryn-trace-unit-m-1-northpointe-center-zanes",
      "internet_access": "wlan",
      "phone": "+1-740-453-6858",
      "takeaway": "yes",
      "drive_through": "yes",
      "official_name": "Starbucks Coffee",
      "outdoor_seating": "yes",
      "addr_state": "OH",
      "addr_city": "Zanesville",
      "addr_postcode": "43701",
      "addr_street": "Taryn Trace",
      "addr_housenumber": "3934"
    },
    {
      "id": 143931,
      "geometry": "POINT (-83.47978 40.975196)",
      "poi_name": "The Wildcat Cafe",
      "osm_id": 6356542556,
      "amenity": "cafe",
      "opening_hours": "06:00-20:00",
      "phone": "+1-419-387-7095",
      "outdoor_seating": "no",
      "addr_state": "OH",
      "addr_city": "Vanlue",
      "addr_postcode": "45890"
    },
    {
      "id": 148894,
      "geometry": "POINT (-81.769324 41.45376)",
      "poi_name": "Damas Eatery",
      "osm_id": 3987164724,
      "amenity": "cafe",
      "cuisine": "syrian",
      "opening_hours": "Mo-Fr 10:00-22:00; Sa-Su 12:00-20:00",
      "phone": "+1 216 331 1933",
      "takeaway": "yes",
      "drive_through": "no",
      "addr_state": "OH",
      "addr_city": "Cleveland",
      "addr_postcode": "44111",
      "addr_street": "West 117th Street",
      "addr_housenumber": "3650"
    },
    {
      "id": 148629,
      "geometry": "POINT (-81.616136 41.409505)",
      "poi_name": "Starbucks",
      "osm_id": 3969254128,
      "amenity": "cafe",
      "cuisine": "coffee_shop",
      "takeaway": "yes",
      "official_name": "Starbucks Coffee",
      "addr_state": "OH",
      "addr_city": "Garfield Heights",
      "addr_postcode": "44125",
      "addr_street": "Vista Way",
      "addr_housenumber": "9791"
    },
    {
      "id": 149601,
      "geometry": "POINT (-81.802773 41.484933)",
      "poi_name": "Janna's Deli",
      "osm_id": 4016548523,
      "amenity": "cafe",
      "addr_city": "Lakewood",
      "addr_postcode": "44107",
      "addr_street": "Detroit Avenue",
      "addr_housenumber": "15211"
    },
    {
      "id": 154912,
      "geometry": "POINT (-81.702963 41.484083)",
      "poi_name": "Edda Coffee Roasters",
      "osm_id": 4261132627,
      "amenity": "cafe",
      "cuisine": "coffee_shop",
      "addr_state": "OH",
      "addr_city": "Cleveland",
      "addr_postcode": "44113",
      "addr_street": "West 25th Street",
      "addr_housenumber": "2011"
    },
    {
      "id": 154677,
      "geometry": "POINT (-81.735235 41.380084)",
      "poi_name": "Starbucks",
      "osm_id": 4251794030,
      "amenity": "cafe",
      "cuisine": "coffee_shop",
      "wheelchair": "yes",
      "takeaway": "yes",
      "official_name": "Starbucks Coffee",
      "addr_state": "OH",
      "addr_city": "Parma",
      "addr_postcode": "44129",
      "addr_street": "Ridge Road",
      "addr_housenumber": "6780"
    },
    {
      "id": 156015,
      "geometry": "POINT (-81.348789 41.320073)",
      "poi_name": "Cafe Tandoor",
      "osm_id": 4637260407,
      "amenity": "cafe",
      "addr_state": "OH",
      "addr_city": "Aurora",
      "addr_postcode": "44202",
      "addr_street": "Barrington Town Square",
      "addr_housenumber": "96"
    },
    {
      "id": 156824,
      "geometry": "POINT (-81.764003 41.482567)",
      "poi_name": "Eagles Kafe",
      "osm_id": 4673204732,
      "amenity": "cafe",
      "cuisine": "coffee_shop",
      "outdoor_seating": "yes",
      "addr_state": "OH",
      "addr_city": "Cleveland",
      "addr_street": "Detroit Avenue",
      "addr_housenumber": "11100"
    },
    {
      "id": 157924,
      "geometry": "POINT (-82.828893 40.548338)",
      "poi_name": "Sames & Cook",
      "osm_id": 4729300461,
      "amenity": "cafe",
      "opening_hours": "Mo-Fr 06:00-16:00; Sa 08:00-14:00",
      "website": "https://www.mkt.com/samesandcookcoffee",
      "phone": "+1-419-947-9694",
      "addr_state": "OH",
      "addr_city": "Mount Gilead",
      "addr_postcode": "43338",
      "addr_street": "South Main Street",
      "addr_housenumber": "33"
    },
    {
      "id": 158720,
      "geometry": "POINT (-81.5649 41.107088)",
      "poi_name": "Nervous Dog Coffee Bar",
      "osm_id": 4759750386,
      "amenity": "cafe",
      "cuisine": "coffee_shop",
      "opening_hours": "Mo-Th 06:00-22:00, Fr 06:00-23:00, Sa 07:00-23:00, Su 08:00-20:00",
      "addr_state": "OH",
      "addr_city": "Akron",
      "addr_postcode": "44313",
      "addr_street": "West Market Street",
      "addr_housenumber": "1530"
    },
    {
      "id": 159065,
      "geometry": "POINT (-80.086579 41.160384)",
      "poi_name": "Beans on Broad",
      "osm_id": 4775191238,
      "amenity": "cafe",
      "cuisine": "coffee_shop",
      "internet_access": "wlan",
      "addr_state": "PA",
      "addr_city": "Grove City",
      "addr_postcode": "16127",
      "addr_street": "South Broad Street",
      "addr_housenumber": "141"
    },
    {
      "id": 159590,
      "geometry": "POINT (-82.725889 41.540885)",
      "poi_name": "Avery's Cafe",
      "osm_id": 4799309627,
      "amenity": "cafe",
      "opening_hours": "07:00-15:00",
      "phone": "+1-419-798-1700",
      "addr_state": "OH",
      "addr_city": "Marblehead",
      "addr_postcode": "43440",
      "addr_street": "West Main Street",
      "addr_housenumber": "306"
    },
    {
      "id": 165347,
      "geometry": "POINT (-81.746989 41.464602)",
      "poi_name": "Little Garden",
      "osm_id": 9530463208,
      "amenity": "cafe",
      "takeaway": "yes",
      "addr_state": "OH",
      "addr_city": "Cleveland",
      "addr_street": "Denison Avenue",
      "addr_housenumber": "9107"
    },
    {
      "id": 160962,
      "geometry": "POINT (-81.339938 41.525733)",
      "poi_name": "Fig Leaf Coffee Company",
      "osm_id": 4856268007,
      "amenity": "cafe",
      "cuisine": "coffee",
      "addr_state": "OH",
      "addr_city": "Chesterland",
      "addr_postcode": "44026",
      "addr_street": "Chillicothe Road",
      "addr_housenumber": "12628"
    },
    {
      "id": 161132,
      "geometry": "POINT (-81.705012 41.441154)",
      "poi_name": "Six Shooter Coffee",
      "osm_id": 4868045305,
      "amenity": "cafe",
      "cuisine": "coffee_shop",
      "opening_hours": "Mo-Su 07:00-19:00",
      "outdoor_seating": "no",
      "addr_state": "OH",
      "addr_city": "Cleveland",
      "addr_postcode": "44109",
      "addr_street": "Pearl Road",
      "addr_housenumber": "4193"
    },
    {
      "id": 165895,
      "geometry": "POINT (-81.483682 41.13208)",
      "poi_name": "Yada Yada Coffee",
      "osm_id": 9562464965,
      "amenity": "cafe",
      "cuisine": "coffee_shop",
      "opening_hours": "Mo-Fr 06:00-14:30",
      "website": "https://www.yadayadacoffee.com",
      "internet_access": "yes",
      "phone": "+1-234-542-2252",
      "outdoor_seating": "yes",
      "addr_state": "OH",
      "addr_city": "Cuyahoga Falls",
      "addr_postcode": "44221",
      "addr_street": "Front Street",
      "addr_housenumber": "1884"
    },
    {
      "id": 168641,
      "geometry": "POINT (-81.70856 41.437246)",
      "poi_name": "Gyro Guys",
      "osm_id": 2273740941,
      "amenity": "cafe",
      "cuisine": "greek",
      "drive_through": "no",
      "addr_state": "OH",
      "addr_city": "Cleveland",
      "addr_postcode": "44109",
      "addr_street": "Pearl Road",
      "addr_housenumber": "4348"
    },
    {
      "id": 168650,
      "geometry": "POINT (-81.565006 41.497402)",
      "poi_name": "Phoenix Coffee",
      "osm_id": 2274068780,
      "amenity": "cafe",
      "cuisine": "coffee_shop",
      "internet_access": "yes",
      "addr_city": "Cleveland Heights",
      "addr_street": "Lee Road",
      "addr_housenumber": "2287"
    },
    {
      "id": 168597,
      "geometry": "POINT (-81.735262 41.425387)",
      "poi_name": "Starbucks",
      "osm_id": 2271205432,
      "amenity": "cafe",
      "cuisine": "coffee_shop",
      "takeaway": "yes",
      "official_name": "Starbucks Coffee",
      "addr_state": "OH",
      "addr_city": "Brooklyn",
      "addr_postcode": "44144",
      "addr_street": "Ridge Road",
      "addr_housenumber": "4752"
    },
    {
      "id": 171364,
      "geometry": "POINT (-81.710392 41.489213)",
      "poi_name": "Rising Star Coffee Roasters",
      "osm_id": 2374055891,
      "amenity": "cafe",
      "opening_hours": "Mo-Th 06:00-18:00; Fr-Sa 06:00-20:00; Su 08:00-18:00",
      "website": "http://www.risingstarcoffee.com",
      "internet_access": "no",
      "phone": "+1 (216) 273-3573",
      "addr_city": "Cleveland",
      "addr_postcode": "44113-2960",
      "addr_street": "West 29th Street",
      "addr_housenumber": "1455"
    },
    {
      "id": 170740,
      "geometry": "POINT (-81.57043 41.570986)",
      "poi_name": "Citizen Pie",
      "osm_id": 2347982452,
      "amenity": "cafe",
      "cuisine": "pizza",
      "addr_city": "Cleveland",
      "addr_postcode": "44110",
      "addr_street": "Waterloo Road",
      "addr_housenumber": "15710"
    },
    {
      "id": 173733,
      "geometry": "POINT (-81.348252 41.147297)",
      "poi_name": "snackshop",
      "osm_id": 2452437694,
      "amenity": "cafe",
      "cuisine": "sandwich",
      "internet_access": "yes",
      "addr_state": "OH",
      "addr_city": "Kent"
    },
    {
      "id": 173089,
      "geometry": "POINT (-81.343153 41.147672)",
      "poi_name": "Jazzman's Cyber Cafe",
      "osm_id": 2424924290,
      "amenity": "cafe",
      "cuisine": "coffee_shop",
      "website": "https://www.kent.edu/dining/student-center-lower-level",
      "internet_access": "yes",
      "addr_city": "Kent"
    },
    {
      "id": 177301,
      "geometry": "POINT (-81.538352 41.501763)",
      "poi_name": "Starbucks",
      "osm_id": 2582557337,
      "amenity": "cafe",
      "cuisine": "coffee_shop",
      "internet_access": "wlan",
      "takeaway": "yes",
      "drive_through": "yes",
      "official_name": "Starbucks Coffee",
      "addr_state": "OH",
      "addr_city": "South Euclid",
      "addr_postcode": "44118",
      "addr_street": "Cedar Road",
      "addr_housenumber": "13939"
    },
    {
      "id": 181348,
      "geometry": "POINT (-81.465074 41.613569)",
      "poi_name": "Couchland Coffee House",
      "osm_id": 10844083009,
      "amenity": "cafe",
      "cuisine": "coffee_shop",
      "opening_hours": "Tu-Fr 07:30-15:00; Sa 08:00-15:00; Su 09:00-15:00",
      "website": "couchlandcoffee.com",
      "phone": "(440) 944-3333",
      "drive_through": "yes",
      "addr_state": "OH",
      "addr_city": "Wickliffe",
      "addr_postcode": "44092",
      "addr_street": "Euclid Avenue",
      "addr_housenumber": "29933"
    },
    {
      "id": 179655,
      "geometry": "POINT (-83.53671 41.653872)",
      "poi_name": "Grindhrs Coffee & Community",
      "osm_id": 10773372590,
      "amenity": "cafe",
      "cuisine": "coffee_shop",
      "opening_hours": "Mo-Fr 06:30-18:00; Sa 08:00-16:00; Su 08:00-15:00",
      "website": "https://www.grindhrs.com",
      "phone": "+1 419-214-0168",
      "takeaway": "yes",
      "delivery": "yes",
      "addr_state": "OH",
      "addr_city": "Toledo",
      "addr_postcode": "43604",
      "addr_street": "Adams Street",
      "addr_housenumber": "625"
    },
    {
      "id": 182869,
      "geometry": "POINT (-80.307904 42.006702)",
      "poi_name": "Tim Hortons",
      "osm_id": 10908418710,
      "amenity": "cafe",
      "cuisine": "coffee_shop",
      "takeaway": "yes",
      "addr_state": "PA",
      "addr_city": "Girard",
      "addr_postcode": "16417",
      "addr_street": "East Main Street",
      "addr_housenumber": "808"
    },
    {
      "id": 184636,
      "geometry": "POINT (-82.645347 40.761063)",
      "poi_name": "The Cove Coffee Shop & Pizza Company",
      "osm_id": 7802342241,
      "amenity": "cafe",
      "cuisine": "coffee_shop;pizza",
      "opening_hours": "Mo-Th 06:30-20:00, Fr 06:30-21:00, Sa 07:30-21:00, Su 07:30-20:00",
      "website": "https://www.thecovecoffeeshop.com/",
      "internet_access": "wlan",
      "phone": "+1-567-229-3325",
      "addr_state": "OH",
      "addr_city": "Ontario",
      "addr_postcode": "44906",
      "addr_street": "Shelby-Ontario Road",
      "addr_housenumber": "325"
    },
    {
      "id": 183991,
      "geometry": "POINT (-80.614876 41.023696)",
      "poi_name": "Bake Me Treats",
      "osm_id": 10957346696,
      "amenity": "cafe",
      "cuisine": "bakery",
      "description": "Bake Me Treats is the dream of Gabriele Barnhizer who went to culinary school for baking and pastry and gathered baking experience before opening BMT in 2015.",
      "opening_hours": "Tu-Fr 09:00-17:00; Sa 10:00-15:00",
      "website": "https://bakemetreats.com",
      "phone": "234-254-4005",
      "addr_state": "OH",
      "addr_city": "Poland",
      "addr_postcode": "44514",
      "addr_street": "South Main Street",
      "addr_housenumber": "16"
    },
    {
      "id": 183937,
      "geometry": "POINT (-82.027388 39.98749)",
      "poi_name": "The Chatty Cat Cafe",
      "osm_id": 10951388972,
      "amenity": "cafe",
      "cuisine": "bubble_tea",
      "opening_hours": "Mo-Sa 11:00-14:00,15:00-19:00; Su 12:00-18:00",
      "website": "https://www.thechattycatcafe.com/",
      "outdoor_seating": "no",
      "addr_state": "OH",
      "addr_city": "Zanesville",
      "addr_postcode": "43701",
      "addr_street": "Maple Avenue",
      "addr_housenumber": "3575"
    },
    {
      "id": 185141,
      "geometry": "POINT (-81.569301 41.55803)",
      "poi_name": "Harold's Soul Food Kitchen",
      "osm_id": 7834989861,
      "amenity": "cafe",
      "takeaway": "yes",
      "delivery": "yes",
      "addr_state": "OH",
      "addr_city": "Cleveland",
      "addr_street": "Saint Clair Avenue",
      "addr_housenumber": "15908"
    },
    {
      "id": 185953,
      "geometry": "POINT (-81.585561 41.464645)",
      "poi_name": "Southern Cafe",
      "osm_id": 7897475098,
      "amenity": "cafe",
      "cuisine": "soul_food",
      "takeaway": "yes",
      "outdoor_seating": "yes",
      "addr_state": "OH",
      "addr_city": "Cleveland",
      "addr_postcode": "44120",
      "addr_street": "Kinsman Road",
      "addr_housenumber": "13905"
    },
    {
      "id": 187220,
      "geometry": "POINT (-81.56508 41.451805)",
      "poi_name": "Q's Cafe",
      "osm_id": 7982117918,
      "amenity": "cafe",
      "addr_state": "OH",
      "addr_city": "Cleveland",
      "addr_street": "Lee Road",
      "addr_housenumber": "3954"
    },
    {
      "id": 189267,
      "geometry": "POINT (-81.818907 41.444)",
      "poi_name": "Savor The Moment",
      "osm_id": 1224403721,
      "amenity": "cafe",
      "addr_city": "Cleveland",
      "addr_street": "Rocky River Drive",
      "addr_housenumber": "4080"
    },
    {
      "id": 196229,
      "geometry": "POINT (-81.610984 41.012795)",
      "poi_name": "Kav\u00e9 Coffee Bar",
      "osm_id": 10570515383,
      "amenity": "cafe",
      "cuisine": "coffee_shop",
      "website": "https://kavecoffeebar.com/",
      "internet_access": "wlan",
      "phone": "+1-234-571-2721",
      "outdoor_seating": "yes",
      "toilets": "yes",
      "addr_state": "OH",
      "addr_city": "Barberton",
      "addr_postcode": "44203",
      "addr_street": "West Tuscarawas Avenue",
      "addr_housenumber": "584"
    },
    {
      "id": 192115,
      "geometry": "POINT (-81.703515 41.440974)",
      "poi_name": "KCC: Kelly Catering Company",
      "osm_id": 1422585205,
      "amenity": "cafe",
      "cuisine": "soul_food",
      "takeaway": "yes",
      "addr_city": "Cleveland",
      "addr_postcode": "44109",
      "addr_street": "Broadview Road",
      "addr_housenumber": "3312"
    },
    {
      "id": 194826,
      "geometry": "POINT (-81.359427 41.160841)",
      "poi_name": "HA!TEA Bubble Tea House",
      "osm_id": 10286063629,
      "amenity": "cafe",
      "cuisine": "bubble_tea",
      "opening_hours": "Mo-Sa 11:00-22:00; Su 11:30-21:30",
      "outdoor_seating": "no",
      "addr_state": "OH",
      "addr_city": "Kent",
      "addr_postcode": "44240",
      "addr_street": "North Mantua Street",
      "addr_housenumber": "836"
    },
    {
      "id": 197555,
      "geometry": "POINT (-81.852897 41.368282)",
      "poi_name": "Starbucks",
      "osm_id": 10653006487,
      "amenity": "cafe",
      "cuisine": "coffee_shop",
      "takeaway": "yes",
      "official_name": "Starbucks Coffee",
      "addr_state": "OH",
      "addr_city": "Berea",
      "addr_street": "Front Street",
      "addr_housenumber": "106"
    },
    {
      "id": 205561,
      "geometry": "POINT (-81.594403 41.487798)",
      "poi_name": "UnBar Cafe",
      "osm_id": 7173119758,
      "amenity": "cafe",
      "cuisine": "coffee_shop",
      "internet_access": "wlan",
      "addr_state": "OH",
      "addr_city": "Cleveland",
      "addr_postcode": "44120",
      "addr_street": "Larchmere Boulevard",
      "addr_housenumber": "12635"
    },
    {
      "id": 203758,
      "geometry": "POINT (-81.463704 41.073943)",
      "poi_name": "Rewind Virtual Cafe",
      "osm_id": 7099263568,
      "amenity": "cafe",
      "outdoor_seating": "no",
      "addr_state": "OH",
      "addr_city": "Akron",
      "addr_postcode": "44305",
      "addr_street": "Goodyear Boulevard",
      "addr_housenumber": "1763"
    },
    {
      "id": 205194,
      "geometry": "POINT (-81.700868 41.46018)",
      "poi_name": "Bella Luna",
      "osm_id": 7159610880,
      "amenity": "cafe",
      "cuisine": "empanada",
      "addr_state": "OH",
      "addr_city": "Cleveland",
      "addr_street": "West 25th Street",
      "addr_housenumber": "3460"
    },
    {
      "id": 209531,
      "geometry": "POINT (-81.479672 41.119584)",
      "poi_name": "Starbucks",
      "osm_id": 5042003025,
      "amenity": "cafe",
      "cuisine": "coffee_shop",
      "takeaway": "yes",
      "official_name": "Starbucks Coffee",
      "addr_state": "OH",
      "addr_city": "Cuyahoga Falls",
      "addr_postcode": "44221",
      "addr_street": "Howe Avenue",
      "addr_housenumber": "371"
    },
    {
      "id": 210752,
      "geometry": "POINT (-81.730465 41.483893)",
      "poi_name": "Brewnuts",
      "osm_id": 5118582061,
      "amenity": "cafe",
      "cuisine": "donut",
      "addr_state": "OH",
      "addr_city": "Cleveland",
      "addr_street": "Detroit Avenue",
      "addr_housenumber": "6501"
    },
    {
      "id": 215414,
      "geometry": "POINT (-81.796289 41.485426)",
      "poi_name": "Ohio City Burrito",
      "osm_id": 5299419442,
      "amenity": "cafe",
      "cuisine": "tex-mex",
      "addr_city": "Lakewood",
      "addr_street": "Detroit Avenue",
      "addr_housenumber": "14412"
    },
    {
      "id": 215311,
      "geometry": "POINT (-81.510674 41.076928)",
      "poi_name": "Starbucks",
      "osm_id": 5294863076,
      "amenity": "cafe",
      "cuisine": "coffee_shop",
      "internet_access": "yes",
      "takeaway": "yes",
      "official_name": "Starbucks Coffee",
      "addr_state": "OH",
      "addr_city": "Akron",
      "addr_postcode": "44325",
      "addr_street": "Buchetel Common",
      "addr_housenumber": "302"
    },
    {
      "id": 216060,
      "geometry": "POINT (-82.558329 41.390453)",
      "poi_name": "Lighthouse Nutrition",
      "osm_id": 9152250359,
      "amenity": "cafe",
      "opening_hours": "Mo-Fr 06:00-14:00",
      "internet_access": "yes",
      "phone": "+1-419-688-5210",
      "outdoor_seating": "yes",
      "addr_state": "OH",
      "addr_city": "Huron",
      "addr_postcode": "44839",
      "addr_street": "Main Street",
      "addr_housenumber": "524"
    },
    {
      "id": 216061,
      "geometry": "POINT (-82.402688 41.254531)",
      "poi_name": "Happy Lotus Nutrition",
      "osm_id": 9152250363,
      "amenity": "cafe",
      "description": "Nutritional Shakes and Teas sold Cafe style.",
      "wheelchair": "yes",
      "opening_hours": "Mo-Fr 07:00-17:00",
      "internet_access": "yes",
      "phone": "+1-419-239-3969",
      "outdoor_seating": "yes",
      "addr_state": "OH",
      "addr_city": "Wakeman",
      "addr_postcode": "44889",
      "addr_street": "West Main Street",
      "addr_housenumber": "21"
    },
    {
      "id": 217389,
      "geometry": "POINT (-81.275216 41.699615)",
      "poi_name": "Harmony Cafe",
      "osm_id": 9219109647,
      "amenity": "cafe",
      "cuisine": "coffee_shop",
      "addr_state": "OH",
      "addr_city": "Painesville",
      "addr_postcode": "44077",
      "addr_street": "Mentor Avenue",
      "addr_housenumber": "1507"
    },
    {
      "id": 220524,
      "geometry": "POINT (-81.424504 40.833234)",
      "poi_name": "Starbucks",
      "osm_id": 9376894566,
      "amenity": "cafe",
      "cuisine": "coffee_shop",
      "takeaway": "yes",
      "official_name": "Starbucks Coffee",
      "addr_state": "OH",
      "addr_city": "Canton",
      "addr_postcode": "44708",
      "addr_street": "Hills and Dales Road Northwest",
      "addr_housenumber": "4409"
    },
    {
      "id": 221208,
      "geometry": "POINT (-81.934973 40.822031)",
      "poi_name": "Caribou Coffee",
      "osm_id": 10969581003,
      "amenity": "cafe",
      "cuisine": "coffee_shop",
      "opening_hours": "Mo-Sa 05:30-21:00; Su 06:00-20:00",
      "website": "https://locations.cariboucoffee.com/us/oh/wooster/1840-cleveland-rd",
      "internet_access": "wlan",
      "phone": "+1-330-222-3102",
      "takeaway": "yes",
      "drive_through": "yes",
      "outdoor_seating": "yes",
      "addr_state": "OH",
      "addr_city": "Wooster",
      "addr_postcode": "44691",
      "addr_street": "Cleveland Road",
      "addr_housenumber": "1840"
    },
    {
      "id": 222169,
      "geometry": "POINT (-81.486654 41.452272)",
      "poi_name": "Heartwood Coffee Roasters",
      "osm_id": 11007950490,
      "amenity": "cafe",
      "opening_hours": "Su 08:00-17:00; Mo-Th 07:00-17:00; Fr-Sa 07:00-19:00",
      "website": "https://www.heartwoodroastery.com",
      "addr_state": "OH",
      "addr_city": "Beachwood",
      "addr_postcode": "44122",
      "addr_street": "Park Avenue",
      "addr_housenumber": "311"
    },
    {
      "id": 228537,
      "geometry": "POINT (-81.603251 41.510746)",
      "poi_name": "Kake Kutters",
      "osm_id": 4348018213,
      "amenity": "cafe",
      "cuisine": "bakery",
      "outdoor_seating": "no",
      "addr_state": "OH",
      "addr_city": "Cleveland",
      "addr_postcode": "44106",
      "addr_street": "Euclid Avenue",
      "addr_housenumber": "11607"
    },
    {
      "id": 228684,
      "geometry": "POINT (-81.849421 41.462374)",
      "poi_name": "Starbucks",
      "osm_id": 4351912862,
      "amenity": "cafe",
      "cuisine": "coffee_shop",
      "takeaway": "yes",
      "official_name": "Starbucks Coffee",
      "addr_state": "OH",
      "addr_city": "Fairview Park",
      "addr_postcode": "44126",
      "addr_street": "Center Ridge Road",
      "addr_housenumber": "20645"
    },
    {
      "id": 228870,
      "geometry": "POINT (-83.17666 41.116225)",
      "poi_name": "Phat Cakes & Cafe",
      "osm_id": 4358259716,
      "amenity": "cafe",
      "cuisine": "dessert",
      "outdoor_seating": "no",
      "addr_state": "OH",
      "addr_city": "Tiffin",
      "addr_street": "South Washington Street",
      "addr_housenumber": "45"
    },
    {
      "id": 225367,
      "geometry": "POINT (-81.711373 41.489559)",
      "poi_name": "Patron Saint Cafe + Bar",
      "osm_id": 11124088154,
      "amenity": "cafe",
      "website": "https://www.patronsaintcle.com",
      "internet_access": "wlan",
      "addr_state": "OH",
      "addr_city": "Cleveland",
      "addr_postcode": "44113",
      "addr_street": "Detroit Avenue",
      "addr_housenumber": "2915"
    },
    {
      "id": 228208,
      "geometry": "POINT (-80.678808 40.374822)",
      "poi_name": "Tim Hortons",
      "osm_id": 4334631397,
      "amenity": "cafe",
      "cuisine": "coffee_shop",
      "internet_access": "wlan",
      "phone": "+1-740-266-9877",
      "takeaway": "yes",
      "addr_state": "OH",
      "addr_city": "Steubenville",
      "addr_postcode": "43952",
      "addr_street": "Sunset Boulevard",
      "addr_housenumber": "4234"
    },
    {
      "id": 232013,
      "geometry": "POINT (-81.684771 41.499638)",
      "poi_name": "Restore Cold Pressed",
      "osm_id": 4504963609,
      "amenity": "cafe",
      "cuisine": "juice",
      "opening_hours": "07:00-18:00",
      "takeaway": "yes",
      "addr_state": "OH",
      "addr_city": "Cleveland",
      "addr_postcode": "44115",
      "addr_street": "Huron Road East",
      "addr_housenumber": "1001"
    },
    {
      "id": 232166,
      "geometry": "POINT (-81.803034 41.477451)",
      "poi_name": "Ice Cream Joy",
      "osm_id": 4512860953,
      "amenity": "cafe",
      "cuisine": "ice_cream",
      "addr_city": "Lakewood",
      "addr_street": "Madison Avenue",
      "addr_housenumber": "15210"
    },
    {
      "id": 234489,
      "geometry": "POINT (-81.439988 41.236416)",
      "poi_name": "Starbucks",
      "osm_id": 4624580334,
      "amenity": "cafe",
      "cuisine": "coffee_shop",
      "takeaway": "yes",
      "official_name": "Starbucks Coffee",
      "addr_state": "OH",
      "addr_city": "Hudson",
      "addr_postcode": "44236",
      "addr_street": "South Main Street"
    },
    {
      "id": 232864,
      "geometry": "POINT (-81.716365 41.487466)",
      "poi_name": "Cleveland Bagel Company",
      "osm_id": 4545849217,
      "amenity": "cafe",
      "cuisine": "bagel",
      "opening_hours": "Tu-Su 6:30-13:00",
      "website": "http://clebagelco.com/",
      "phone": "+1 216 600 5652",
      "outdoor_seating": "no",
      "addr_state": "OH",
      "addr_city": "Cleveland",
      "addr_postcode": "44113",
      "addr_street": "Detroit Avenue",
      "addr_housenumber": "4201"
    },
    {
      "id": 234051,
      "geometry": "POINT (-81.704495 41.442695)",
      "poi_name": "Old Brooklyn Nuitrition",
      "osm_id": 4600558419,
      "amenity": "cafe",
      "cuisine": "juice",
      "addr_state": "OH",
      "addr_city": "Cleveland",
      "addr_postcode": "44109",
      "addr_street": "Pearl Road",
      "addr_housenumber": "4138"
    },
    {
      "id": 234625,
      "geometry": "POINT (-81.516409 41.074126)",
      "poi_name": "Starbucks",
      "osm_id": 4630819212,
      "amenity": "cafe",
      "cuisine": "coffee_shop",
      "internet_access": "wlan",
      "takeaway": "yes",
      "official_name": "Starbucks Coffee",
      "addr_state": "OH",
      "addr_city": "Akron",
      "addr_postcode": "44325",
      "addr_street": "East Exchange Street"
    },
    {
      "id": 235331,
      "geometry": "POINT (-81.708124 41.490937)",
      "poi_name": "Lekko Coffee",
      "osm_id": 5751809888,
      "amenity": "cafe",
      "cuisine": "coffee_shop",
      "opening_hours": "Mo-Su 07:00-19:00",
      "outdoor_seating": "no",
      "addr_state": "OH",
      "addr_city": "Cleveland",
      "addr_street": "Detroit Avenue",
      "addr_housenumber": "2529"
    },
    {
      "id": 240655,
      "geometry": "POINT (-81.768749 41.461122)",
      "poi_name": "Ohio Kabob Grill",
      "osm_id": 5983438765,
      "amenity": "cafe",
      "cuisine": "afghan",
      "outdoor_seating": "no",
      "addr_state": "OH",
      "addr_city": "Cleveland",
      "addr_street": "West 117th Street",
      "addr_housenumber": "3359"
    },
    {
      "id": 240901,
      "geometry": "POINT (-82.088116 41.419181)",
      "poi_name": "M Cafe",
      "osm_id": 5998441599,
      "amenity": "cafe",
      "cuisine": "coffee_shop",
      "opening_hours": "Mo-Sa 08:00-18:00",
      "internet_access": "wlan",
      "addr_state": "OH",
      "addr_city": "Sheffield",
      "addr_postcode": "44035",
      "addr_street": "Detroit Road",
      "addr_housenumber": "4900"
    },
    {
      "id": 244493,
      "geometry": "POINT (-81.766799 41.487371)",
      "poi_name": "La Taza Rica",
      "osm_id": 7727240768,
      "amenity": "cafe",
      "cuisine": "coffee_shop",
      "wheelchair": "yes",
      "takeaway": "yes",
      "addr_state": "OH",
      "addr_city": "Cleveland",
      "addr_postcode": "44102",
      "addr_street": "Clifton Boulevard",
      "addr_housenumber": "11514"
    }
  ],
  "answer_type": "loc",
  "question_entities": {
    "[1]": {
      "main_category": "amenity",
      "sub_category": "cafe"
    },
    "[2]": {
      "distance": 150000,
      "text": "150 kilometers"
    },
    "[3]": {
      "main_category": "tourism",
      "sub_category": "theme park",
      "display_name": "Go Ape Treetop Adventure Course, Strongsville, OH",
      "geo_wkt": "POINT (-81.818381 41.322133)",
      "poi": {
        "id": 14029,
        "geometry": "POINT (-81.818381 41.322133)",
        "poi_name": "Go Ape Treetop Adventure Course",
        "osm_id": 4214519779,
        "tourism": "theme_park",
        "operator": "Go Ape",
        "website": "https://goape.com/zip-line/mill-stream-run-reservation",
        "addr_state": "OH",
        "addr_city": "Strongsville",
        "addr_postcode": "44136",
        "addr_street": "Valley Parkway",
        "addr_housenumber": "16200"
      }
    }
  },
  "id": 2003,
  "type": "range+loc"
}