{
  "question": "Looking for a takeout restaurant, preferably within a 60 kilometers radius from Allen Park Civic Arena, Allen Park, MI. Can you assist me with this?",
  "sql": "SELECT * FROM pois\nWHERE ST_DWithin(pois.geometry, ST_GeomFromText('POINT (-83.211376 42.258691)',4326)::geography, 60000)\nAND amenity = 'restaurant'\nAND takeaway ILIKE '%yes%';\n",
  "answers": [
    {
      "id": 48897,
      "geometry": "POINT (-83.740766 42.271611)",
      "poi_name": "Mister Spots",
      "osm_id": 3407105678,
      "amenity": "restaurant",
      "cuisine": "regional",
      "website": "http://mrspotsannarbor.com/",
      "takeaway": "yes",
      "addr_state": "MI",
      "addr_city": "Ann Arbor",
      "addr_street": "South State Street",
      "addr_housenumber": "808"
    },
    {
      "id": 54958,
      "geometry": "POINT (-83.614307 42.511114)",
      "poi_name": "Jonna's Bar & Grill",
      "osm_id": 10164098334,
      "amenity": "restaurant",
      "cuisine": "sandwich;burger;pizza;american;salad",
      "opening_hours": "Mo-Th 11:00-23:00; Fr-Sa 11:00-24:00; Su 12:00-22:00",
      "website": "https://www.jonnasbarandgrill.com/",
      "phone": "+1 248-617-3925",
      "takeaway": "yes",
      "outdoor_seating": "no",
      "addr_street": "Grand River Avenue",
      "addr_housenumber": "56849"
    },
    {
      "id": 55077,
      "geometry": "POINT (-82.990664 42.626049)",
      "poi_name": "Olive Garden",
      "osm_id": 10170278398,
      "amenity": "restaurant",
      "cuisine": "italian",
      "opening_hours": "Mo-Th 11:00-22:00; Fr-Sa 11:00-23:00; Su 11:00-22:00",
      "website": "https://www.olivegarden.com/locations/mi/sterling-heights/sterling-heights-lakeside-circle/1083",
      "phone": "+1-586-247-8880",
      "takeaway": "yes"
    },
    {
      "id": 55078,
      "geometry": "POINT (-82.989822 42.626167)",
      "poi_name": "Red Lobster",
      "osm_id": 10170278399,
      "amenity": "restaurant",
      "cuisine": "seafood",
      "opening_hours": "Mo-Th 11:00-22:00; Fr-Sa 11:00-23:00; Su 11:00-22:00",
      "website": "https://www.redlobster.com/seafood-restaurants/locations/mi/sterling-heights/13800-hall-road",
      "phone": "+1-586-247-6250",
      "takeaway": "yes"
    },
    {
      "id": 57079,
      "geometry": "POINT (-83.718814 42.228313)",
      "poi_name": "Thai Spoon",
      "osm_id": 5323881251,
      "amenity": "restaurant",
      "cuisine": "thai",
      "wheelchair": "yes",
      "website": "https://www.thaispoonannarbor.com/",
      "phone": "+1-734-975-0277",
      "takeaway": "yes",
      "addr_state": "MI",
      "addr_city": "Ann Arbor",
      "addr_postcode": "48108",
      "addr_street": "Stone School Road",
      "addr_housenumber": "4119"
    },
    {
      "id": 58174,
      "geometry": "POINT (-83.04898 42.329232)",
      "poi_name": "Zoom Coney Restaurant",
      "osm_id": 5366564001,
      "amenity": "restaurant",
      "cuisine": "american;greek",
      "opening_hours": "Mo-Fr 07:00-15:00",
      "website": "https://m.facebook.com/pages/Zoom-Grill/116875484997248",
      "phone": "+1-313-964-5030",
      "takeaway": "yes",
      "outdoor_seating": "yes",
      "toilets": "yes",
      "addr_street": "Fort Street West",
      "addr_housenumber": "211"
    },
    {
      "id": 62064,
      "geometry": "POINT (-83.377157 42.500301)",
      "poi_name": "La Kabob Lebanese Grill",
      "osm_id": 5550032013,
      "amenity": "restaurant",
      "opening_hours": "Mo-Su 10:30-21:30",
      "website": "https://www.lakaboblebanesegrill.com/",
      "phone": "+1-248-324-1163",
      "takeaway": "yes",
      "delivery": "yes",
      "addr_state": "MI",
      "addr_city": "Farmington Hills",
      "addr_postcode": "48334",
      "addr_street": "Twelve Mile Road",
      "addr_housenumber": "33320"
    },
    {
      "id": 68199,
      "geometry": "POINT (-83.166812 42.533139)",
      "poi_name": "Penn's Thai Kitchen",
      "osm_id": 11263368298,
      "amenity": "restaurant",
      "cuisine": "thai",
      "opening_hours": "Mo-Su 11:00-21:00",
      "website": "https://www.pennsthai.com",
      "phone": "+12484358378",
      "takeaway": "yes",
      "delivery": "no"
    },
    {
      "id": 72540,
      "geometry": "POINT (-82.945062 42.387492)",
      "poi_name": "Sierra Station",
      "osm_id": 11432473552,
      "amenity": "restaurant",
      "cuisine": "mexican",
      "website": "http://sierrastationgp.com",
      "takeaway": "yes",
      "addr_state": "MI",
      "addr_city": "Detroit",
      "addr_postcode": "48230",
      "addr_street": "Mack Avenue",
      "addr_housenumber": "15110"
    },
    {
      "id": 70173,
      "geometry": "POINT (-82.97512 42.63326)",
      "poi_name": "Buddy's Pizza",
      "osm_id": 11347587180,
      "amenity": "restaurant",
      "cuisine": "pizza",
      "opening_hours": "Mo-Th 11:00-21:00; Fr-Sa 11:00-22:00; Su 11:00-21:00",
      "website": "https://www.buddyspizza.com/shelby-township",
      "phone": "+1-586-566-1233",
      "takeaway": "yes",
      "delivery": "yes",
      "addr_state": "MI",
      "addr_city": "Shelby Township",
      "addr_postcode": "48315",
      "addr_street": "Hayes Road",
      "addr_housenumber": "45841"
    },
    {
      "id": 71685,
      "geometry": "POINT (-82.991462 42.609715)",
      "poi_name": "Jet's Pizza",
      "osm_id": 11397041173,
      "amenity": "restaurant",
      "cuisine": "pizza",
      "opening_hours": "Mo-Th 10:00-22:00; Fr-Sa 10:00-23:00; Su 11:00-22:00",
      "website": "https://www.jetspizza.com/stores/michigan/sterling-heights/42918-schoenherr-rd/",
      "phone": "+1-586-532-5387",
      "takeaway": "yes",
      "delivery": "yes",
      "addr_state": "MI",
      "addr_city": "Sterling Heights",
      "addr_postcode": "48313",
      "addr_street": "Schoenherr Road",
      "addr_housenumber": "42918"
    },
    {
      "id": 81162,
      "geometry": "POINT (-83.178881 42.193272)",
      "poi_name": "China Star",
      "osm_id": 1611197375,
      "amenity": "restaurant",
      "cuisine": "chinese",
      "takeaway": "yes",
      "outdoor_seating": "no",
      "addr_state": "MI",
      "addr_city": "Wyandotte",
      "addr_postcode": "48192",
      "addr_street": "Fort Street",
      "addr_housenumber": "3869"
    },
    {
      "id": 74197,
      "geometry": "POINT (-83.020216 42.339922)",
      "poi_name": "Breadless",
      "osm_id": 9670560042,
      "amenity": "restaurant",
      "cuisine": "american",
      "opening_hours": "Mo-Sa 11:00-18:00",
      "operator": "Breadless Corporation",
      "website": "https://eatbreadless.com/",
      "takeaway": "yes",
      "delivery": "yes",
      "addr_street": "East Jefferson Avenue",
      "addr_housenumber": "2761"
    },
    {
      "id": 92283,
      "geometry": "POINT (-83.600069 42.591936)",
      "poi_name": "Milford House Bar & Grill",
      "osm_id": 2109519479,
      "amenity": "restaurant",
      "cuisine": "american",
      "website": "http://www.themilfordhouse.com",
      "takeaway": "yes",
      "outdoor_seating": "yes",
      "addr_city": "Milford",
      "addr_postcode": "48381",
      "addr_street": "E Commerce Rd",
      "addr_housenumber": "113"
    },
    {
      "id": 88237,
      "geometry": "POINT (-83.738602 42.244371)",
      "poi_name": "Shawarma Shop",
      "osm_id": 8775043747,
      "amenity": "restaurant",
      "cuisine": "lebanese;mediterranean",
      "opening_hours": "Mo-Sa 10:00-21:00",
      "website": "https://shawarmashopaa.com/",
      "phone": "+1-734-369-6552",
      "takeaway": "yes",
      "addr_state": "MI",
      "addr_city": "Ann Arbor",
      "addr_postcode": "48104",
      "addr_street": "South State Street",
      "addr_housenumber": "2993"
    },
    {
      "id": 88238,
      "geometry": "POINT (-83.679896 42.246765)",
      "poi_name": "JJ Crab House",
      "osm_id": 8775045378,
      "amenity": "restaurant",
      "cuisine": "seafood",
      "opening_hours": "Mo-Th 11:00-21:30; Fr-Sa 11:00-22:00; Su 12:00-22:00",
      "website": "https://www.jjcrabhouse.com/",
      "phone": "+1-734-222-1111",
      "takeaway": "yes",
      "delivery": "yes",
      "addr_state": "MI",
      "addr_city": "Ann Arbor",
      "addr_postcode": "48108",
      "addr_street": "Carpenter Road",
      "addr_housenumber": "2871"
    },
    {
      "id": 95452,
      "geometry": "POINT (-83.223032 42.199191)",
      "poi_name": "Black Pine Tree Sushi",
      "osm_id": 6397560977,
      "amenity": "restaurant",
      "cuisine": "sushi",
      "opening_hours": "Tu-Sa 11:00-22:00; Su 13:00-22:00",
      "website": "https://www.blackpinetreesushi.com/",
      "phone": "+1-734-284-8700",
      "takeaway": "yes",
      "addr_state": "MI",
      "addr_city": "Southgate",
      "addr_postcode": "48195",
      "addr_street": "Eureka Road",
      "addr_housenumber": "18700"
    },
    {
      "id": 103837,
      "geometry": "POINT (-83.376986 42.639075)",
      "poi_name": "Motor City Tacos",
      "osm_id": 8529230090,
      "amenity": "restaurant",
      "cuisine": "mexican",
      "takeaway": "yes"
    },
    {
      "id": 103358,
      "geometry": "POINT (-83.416826 42.61663)",
      "poi_name": "Greek Jalapeno",
      "osm_id": 8497690882,
      "amenity": "restaurant",
      "cuisine": "mexican;greek",
      "website": "https://www.greekjalapeno.com/",
      "takeaway": "yes"
    },
    {
      "id": 107863,
      "geometry": "POINT (-83.171479 42.635439)",
      "poi_name": "Pearl's Express",
      "osm_id": 3582144905,
      "amenity": "restaurant",
      "cuisine": "chinese",
      "capacity": "20",
      "phone": "+1-248-852-3566",
      "takeaway": "yes",
      "addr_state": "MI",
      "addr_city": "Rochester Hills",
      "addr_postcode": "48309",
      "addr_street": "West Auburn Road",
      "addr_housenumber": "2028"
    },
    {
      "id": 116692,
      "geometry": "POINT (-83.111 42.330898)",
      "poi_name": "La Noria Bistrot",
      "osm_id": 8954109380,
      "amenity": "restaurant",
      "opening_hours": "Tu-Fr 11:00-14:30; Tu-Th 17:00-21:00; Fr 17:00-22:00; Sa 16:00-22:00; Su 11:00-15:00,17:00-20:00",
      "website": "https://lanoriabistro.com/",
      "phone": "+1 313-338-3545",
      "takeaway": "yes",
      "addr_street": "Michigan Avenue",
      "addr_housenumber": "5517"
    },
    {
      "id": 110968,
      "geometry": "POINT (-82.938791 42.493105)",
      "poi_name": "Seeburger's Cheeseburgers",
      "osm_id": 3725467738,
      "amenity": "restaurant",
      "cuisine": "burger",
      "phone": "+1 586 362 8585",
      "takeaway": "yes",
      "addr_state": "MI",
      "addr_city": "Roseville",
      "addr_postcode": "48066",
      "addr_street": "North Gratiot Avenue",
      "addr_housenumber": "26756"
    },
    {
      "id": 112938,
      "geometry": "POINT (-83.721167 42.298362)",
      "poi_name": "Lucky Kitchen",
      "osm_id": 3810661867,
      "amenity": "restaurant",
      "cuisine": "chinese",
      "opening_hours": "Mo-Th 11:00-22:00; Fr-Sa 11:00-22:30; Su 12:00-22:30",
      "website": "https://luckykitchen.net/",
      "phone": "+1-734-747-9968",
      "takeaway": "yes",
      "delivery": "yes",
      "addr_state": "MI",
      "addr_city": "Ann Arbor",
      "addr_postcode": "48105",
      "addr_street": "Plymouth Road",
      "addr_housenumber": "1753"
    },
    {
      "id": 113143,
      "geometry": "POINT (-83.679939 42.246873)",
      "poi_name": "King Shing",
      "osm_id": 3821488749,
      "amenity": "restaurant",
      "cuisine": "chinese",
      "takeaway": "yes",
      "delivery": "yes",
      "addr_street": "Carpenter Road",
      "addr_housenumber": "2865"
    },
    {
      "id": 127748,
      "geometry": "POINT (-83.653517 42.25102)",
      "poi_name": "Al Basha Grill",
      "osm_id": 8090462301,
      "amenity": "restaurant",
      "cuisine": "arab",
      "opening_hours": "Mo-Fr 10:00-22:00; Sa-Su 11:00-22:00",
      "phone": "+1 734-221-5633",
      "takeaway": "yes",
      "addr_street": "Washtenaw Ave",
      "addr_housenumber": "2722"
    },
    {
      "id": 121727,
      "geometry": "POINT (-83.066781 42.356735)",
      "poi_name": "La Pita Fresh",
      "osm_id": 6776863025,
      "amenity": "restaurant",
      "cuisine": "middle_eastern;mediterranean",
      "website": "http://lapitafresh.com",
      "internet_access": "wlan",
      "phone": "+1-313-831-4550",
      "takeaway": "yes",
      "outdoor_seating": "yes",
      "addr_state": "MI",
      "addr_city": "Detroit",
      "addr_postcode": "48202",
      "addr_street": "Cass Avenue",
      "addr_housenumber": "5056"
    },
    {
      "id": 122344,
      "geometry": "POINT (-83.620132 42.245656)",
      "poi_name": "La Fiesta Mexicana",
      "osm_id": 6797592483,
      "amenity": "restaurant",
      "cuisine": "mexican",
      "opening_hours": "Mo 17:00-21:00; Tu-Th 11:00-21:00; Fr, Sa 11:00-22:00",
      "phone": "+1 734-483-1666",
      "takeaway": "yes",
      "delivery": "no",
      "addr_street": "West Cross Street",
      "addr_housenumber": "529"
    },
    {
      "id": 125137,
      "geometry": "POINT (-83.758942 42.245342)",
      "poi_name": "Momo",
      "osm_id": 6946237529,
      "amenity": "restaurant",
      "cuisine": "japanese",
      "internet_access": "no",
      "phone": "+1 734 800 4909",
      "takeaway": "yes",
      "addr_state": "MI",
      "addr_city": "Ann Arbor",
      "addr_postcode": "48103",
      "addr_street": "West Eisenhower Circle",
      "addr_housenumber": "895"
    },
    {
      "id": 125453,
      "geometry": "POINT (-83.094104 42.695945)",
      "poi_name": "Kerby's Koney Island",
      "osm_id": 6960629424,
      "amenity": "restaurant",
      "cuisine": "diner;hot_dog;chili;pancake",
      "wheelchair": "yes",
      "opening_hours": "Mo-Fr 09:00-21:00; Sa 08:00-21:00; Su 08:00-20:00",
      "website": "https://kerbys.com",
      "phone": "+1-248-651-1900",
      "takeaway": "yes",
      "delivery": "yes",
      "toilets": "yes",
      "addr_state": "MI",
      "addr_city": "Shelby Charter Twp",
      "addr_postcode": "48316",
      "addr_street": "25 Mile Road",
      "addr_housenumber": "1968"
    },
    {
      "id": 127749,
      "geometry": "POINT (-83.64112 42.247463)",
      "poi_name": "Lucky 7 Chinese Food",
      "osm_id": 8090462304,
      "amenity": "restaurant",
      "cuisine": "chinese",
      "opening_hours": "Mo-Th 11:00-22:00; Fr-Sa 11:00-23:00; Su 12:00-22:00",
      "takeaway": "yes",
      "addr_street": "Washtenaw Avenue",
      "addr_housenumber": "1777"
    },
    {
      "id": 127750,
      "geometry": "POINT (-83.6606 42.258507)",
      "poi_name": "Crepe Nation",
      "osm_id": 8090462306,
      "amenity": "restaurant",
      "cuisine": "coffee_shop;crepe",
      "opening_hours": "Mo-Sa 08:30-21:00; Su 08:30-20:00",
      "website": "https://www.crepenation.us/",
      "phone": "+1 734-879-0557",
      "takeaway": "yes",
      "addr_street": "Golfside Road",
      "addr_housenumber": "2063"
    },
    {
      "id": 127751,
      "geometry": "POINT (-83.677227 42.235086)",
      "poi_name": "Pita Express",
      "osm_id": 8090462308,
      "amenity": "restaurant",
      "cuisine": "arab",
      "opening_hours": "Mo-Sa 11:00-21:00; Su 11:00-20:00",
      "website": "https://thepitaexpress.com/",
      "internet_access": "wlan",
      "phone": "+1 734-531-6495",
      "takeaway": "yes",
      "addr_street": "Carpenter Road",
      "addr_housenumber": "3765"
    },
    {
      "id": 134853,
      "geometry": "POINT (-83.093961 42.697962)",
      "poi_name": "Guido's Premium Pizza",
      "osm_id": 11493123372,
      "amenity": "restaurant",
      "cuisine": "pizza",
      "wheelchair": "yes",
      "opening_hours": "Mo-Th 11:00-21:00; Fr-Sa 10:00-22:00; Su 11:00-21:00",
      "website": "https://guidospizzashelby.com",
      "internet_access": "wlan",
      "phone": "+1-248-717-2222",
      "takeaway": "yes",
      "outdoor_seating": "yes",
      "delivery": "yes",
      "addr_state": "MI",
      "addr_city": "Shelby Charter Twp",
      "addr_postcode": "48316",
      "addr_street": "25 Mile Road",
      "addr_housenumber": "1935"
    },
    {
      "id": 134854,
      "geometry": "POINT (-83.094131 42.69796)",
      "poi_name": "Wing On Restaurant",
      "osm_id": 11493123373,
      "amenity": "restaurant",
      "cuisine": "chinese",
      "wheelchair": "yes",
      "opening_hours": "Su 12:00-21:30; Mo-Th 11:00-21:30; Fr-Sa 11:00-22:00",
      "website": "https://wingonrestaurant.com",
      "internet_access": "wlan",
      "phone": "+1-248-601-8989",
      "takeaway": "yes",
      "addr_state": "MI",
      "addr_city": "Shelby Charter Twp",
      "addr_postcode": "48316",
      "addr_street": "25 Mile Road",
      "addr_housenumber": "1921"
    },
    {
      "id": 134316,
      "geometry": "POINT (-83.293776 42.707974)",
      "poi_name": "Texas Roadhouse",
      "osm_id": 11464261149,
      "amenity": "restaurant",
      "cuisine": "steak_house",
      "takeaway": "yes"
    },
    {
      "id": 137441,
      "geometry": "POINT (-83.285764 42.5457)",
      "poi_name": "2941 Street Food",
      "osm_id": 6099299739,
      "amenity": "restaurant",
      "cuisine": "mediterranean",
      "takeaway": "yes",
      "drive_through": "no"
    },
    {
      "id": 151919,
      "geometry": "POINT (-83.057079 42.345761)",
      "poi_name": "Detroit One Coney Island",
      "osm_id": 4119748255,
      "amenity": "restaurant",
      "cuisine": "american;greek",
      "takeaway": "yes",
      "addr_state": "MI",
      "addr_city": "Detroit",
      "addr_postcode": "48201",
      "addr_street": "Woodward Avenue",
      "addr_housenumber": "3433"
    },
    {
      "id": 148416,
      "geometry": "POINT (-83.200344 42.641697)",
      "poi_name": "112 Pizzeria Bistro",
      "osm_id": 3951661157,
      "amenity": "restaurant",
      "cuisine": "pizza",
      "takeaway": "yes",
      "outdoor_seating": "no",
      "addr_state": "MI",
      "addr_city": "Rochester Hills",
      "addr_postcode": "48309",
      "addr_street": "South Adams Road",
      "addr_housenumber": "2528"
    },
    {
      "id": 162573,
      "geometry": "POINT (-83.746578 42.280328)",
      "poi_name": "Aventura",
      "osm_id": 4935570672,
      "amenity": "restaurant",
      "cuisine": "tapas;spanish",
      "wheelchair": "yes",
      "opening_hours": "Tu-Th 15:00-22:00, Fr-Sa 15:00-23:00",
      "website": "https://aventuraannarbor.com/",
      "phone": "7343693153",
      "takeaway": "yes",
      "outdoor_seating": "yes",
      "delivery": "no",
      "addr_state": "Mi",
      "addr_city": "Ann Arbor",
      "addr_postcode": "48104",
      "addr_street": "East Washington Street",
      "addr_housenumber": "216"
    },
    {
      "id": 153566,
      "geometry": "POINT (-83.150337 42.590978)",
      "poi_name": "Breakaway Deli",
      "osm_id": 4202845313,
      "amenity": "restaurant",
      "cuisine": "sandwich",
      "opening_hours": "Mo-Fr 07:00-18:00; Sa 10:00-15:00; Su closed",
      "takeaway": "yes",
      "addr_state": "MI",
      "addr_city": "Troy",
      "addr_postcode": "48098",
      "addr_street": "West Long Lake Road",
      "addr_housenumber": "61"
    },
    {
      "id": 162574,
      "geometry": "POINT (-83.746655 42.279648)",
      "poi_name": "Kanbu Sushi Downtown",
      "osm_id": 4935570686,
      "amenity": "restaurant",
      "cuisine": "japanese",
      "opening_hours": "Mo-Su 11:30-21:30",
      "website": "https://www.kanbusushidowntown.com/",
      "phone": "+1-734-369-3272",
      "takeaway": "yes",
      "delivery": "yes",
      "addr_state": "MI",
      "addr_city": "Ann Arbor",
      "addr_postcode": "48104",
      "addr_street": "East Liberty Street",
      "addr_housenumber": "241"
    },
    {
      "id": 219246,
      "geometry": "POINT (-83.072881 42.370143)",
      "poi_name": "Baobab Fare",
      "osm_id": 9319895009,
      "amenity": "restaurant",
      "cuisine": "african;coffee_shop",
      "wheelchair": "limited",
      "opening_hours": "Tu-Sa 11:00-21:00; Su 11:00-20:00; Mo off",
      "website": "https://www.baobabfare.com/",
      "phone": "+1 313-265-3093",
      "takeaway": "yes",
      "outdoor_seating": "yes",
      "toilets": "yes",
      "addr_street": "Woodward Avenue",
      "addr_housenumber": "6568"
    },
    {
      "id": 172891,
      "geometry": "POINT (-83.063906 42.351536)",
      "poi_name": "Go Sy Thai",
      "osm_id": 2418339543,
      "amenity": "restaurant",
      "cuisine": "thai",
      "opening_hours": "Mo-Sa 11:00-21:00; Su 16:00-21:00",
      "website": "https://www.gosythai.com/",
      "phone": "+1 313 638 1467",
      "takeaway": "yes",
      "outdoor_seating": "no",
      "addr_city": "Detroit",
      "addr_postcode": "48201",
      "addr_street": "Cass Avenue",
      "addr_housenumber": "4240"
    },
    {
      "id": 207336,
      "geometry": "POINT (-83.794385 42.557731)",
      "poi_name": "Honto Restaurant",
      "osm_id": 4945001325,
      "amenity": "restaurant",
      "cuisine": "chinese;thai",
      "takeaway": "yes",
      "outdoor_seating": "no"
    },
    {
      "id": 183817,
      "geometry": "POINT (-83.446176 42.23118)",
      "poi_name": "Mr. Pizza",
      "osm_id": 10947414738,
      "amenity": "restaurant",
      "cuisine": "pizza",
      "opening_hours": "Mo-Th 10:00-22:00; Fr 10:00-24:00; Sa 11:00-24:00; Su 12:00-22:00",
      "website": "https://www.ilovemrpizza.com/haggerty-road/",
      "phone": "+17346970433",
      "takeaway": "yes",
      "addr_state": "MI",
      "addr_city": "Belleville",
      "addr_postcode": "48111",
      "addr_street": "Haggerty Road",
      "addr_housenumber": "9860"
    },
    {
      "id": 209132,
      "geometry": "POINT (-83.742879 42.277718)",
      "poi_name": "Neopapalis",
      "osm_id": 5024950005,
      "amenity": "restaurant",
      "cuisine": "pizza;sandwich",
      "opening_hours": "Mo-Su 11:00-23:00",
      "website": "http://www.neopapalis.com/",
      "phone": "+1-734-929-2227",
      "takeaway": "yes",
      "outdoor_seating": "yes",
      "addr_state": "MI",
      "addr_city": "Ann Arbor",
      "addr_street": "East William Street",
      "addr_housenumber": "500"
    },
    {
      "id": 213704,
      "geometry": "POINT (-83.196394 42.50327)",
      "poi_name": "Cottage Inn Pizza",
      "osm_id": 5257996262,
      "amenity": "restaurant",
      "cuisine": "pizza",
      "website": "https://locations.cottageinn.com/cottage-inn-pizza-75a1eaf3c0ef",
      "phone": "+1-248-268-0000",
      "takeaway": "yes",
      "delivery": "yes",
      "addr_state": "MI",
      "addr_city": "Berkley",
      "addr_street": "12 Mile Road",
      "addr_housenumber": "3642"
    },
    {
      "id": 221486,
      "geometry": "POINT (-83.382223 42.690093)",
      "poi_name": "Panda Garden",
      "osm_id": 10979770549,
      "amenity": "restaurant",
      "cuisine": "chinese",
      "opening_hours": "Tu-Su 15:00-21:00",
      "website": "https://www.pandagardenmi.com/",
      "phone": "+1 248-599-7200",
      "takeaway": "yes",
      "addr_state": "MI",
      "addr_city": "Waterford",
      "addr_postcode": "48329",
      "addr_street": "West Walton Boulevard",
      "addr_housenumber": "4680"
    },
    {
      "id": 223304,
      "geometry": "POINT (-82.944032 42.628829)",
      "poi_name": "Bubba's 33",
      "osm_id": 11050085354,
      "amenity": "restaurant",
      "cuisine": "american",
      "opening_hours": "Mo-Th 11:00-22:00; Fr-Sa 11:00-23:00; Su 11:00-22:00",
      "website": "https://www.bubbas33.com/locations/michigan/macomb",
      "phone": "+1-586-286-2933",
      "takeaway": "yes",
      "delivery": "no",
      "addr_state": "MI",
      "addr_city": "Macomb",
      "addr_postcode": "48044",
      "addr_street": "Hall Road",
      "addr_housenumber": "17757"
    },
    {
      "id": 223131,
      "geometry": "POINT (-82.955798 42.643096)",
      "poi_name": "Joe Jo's",
      "osm_id": 11047371222,
      "amenity": "restaurant",
      "cuisine": "american",
      "opening_hours": "Mo-Fr 07:00-20:00; Sa-Su 08:00-15:00",
      "phone": "+1-586-416-2801",
      "takeaway": "yes",
      "delivery": "yes",
      "addr_state": "MI",
      "addr_city": "Macomb",
      "addr_postcode": "48044",
      "addr_street": "21 Mile Road",
      "addr_housenumber": "16611"
    },
    {
      "id": 223132,
      "geometry": "POINT (-82.955602 42.643098)",
      "poi_name": "Sam's Sorrento Pizza",
      "osm_id": 11047371223,
      "amenity": "restaurant",
      "cuisine": "pizza",
      "opening_hours": "Mo-Th 10:30-22:00; Fr-Sa 10:30-23:00; Su 12:00-22:00",
      "website": "https://sorrentopizza.com/locations/macomb-township",
      "phone": "+1-586-416-2900",
      "takeaway": "yes",
      "delivery": "yes",
      "addr_state": "MI",
      "addr_city": "Macomb",
      "addr_postcode": "48044",
      "addr_street": "21 Mile Road",
      "addr_housenumber": "16631"
    },
    {
      "id": 223134,
      "geometry": "POINT (-82.954081 42.641798)",
      "poi_name": "Jet's Pizza",
      "osm_id": 11047371225,
      "amenity": "restaurant",
      "cuisine": "pizza",
      "opening_hours": "Mo-Th 11:00-22:00; Fr-Sa 11:00-23:00; Su 12:00-22:00",
      "website": "https://www.jetspizza.com/stores/michigan/macomb-township/16852-21-mile-rd/",
      "phone": "+1-586-412-0040",
      "takeaway": "yes",
      "delivery": "yes",
      "addr_state": "MI",
      "addr_city": "Macomb",
      "addr_postcode": "48044",
      "addr_street": "21 Mile Road",
      "addr_housenumber": "16852"
    },
    {
      "id": 231910,
      "geometry": "POINT (-83.171147 42.343949)",
      "poi_name": "CedarLand",
      "osm_id": 4497338317,
      "amenity": "restaurant",
      "cuisine": "middle_eastern",
      "takeaway": "yes",
      "addr_state": "MI",
      "addr_city": "Dearborn",
      "addr_postcode": "48126",
      "addr_street": "Warren Ave",
      "addr_housenumber": "13007"
    },
    {
      "id": 224055,
      "geometry": "POINT (-83.028842 42.594529)",
      "poi_name": "Las Tortugas Taqueria",
      "osm_id": 11072157748,
      "amenity": "restaurant",
      "cuisine": "mexican",
      "website": "https://www.tortugastaqueria.com",
      "internet_access": "wlan",
      "phone": "+1-586-554-7581",
      "takeaway": "yes",
      "addr_state": "MI",
      "addr_city": "Sterling Heights",
      "addr_postcode": "48313",
      "addr_street": "Van Dyke Avenue",
      "addr_housenumber": "40850"
    },
    {
      "id": 227532,
      "geometry": "POINT (-83.361084 42.49989)",
      "poi_name": "Bangkok Sala Cafe",
      "osm_id": 4311787880,
      "amenity": "restaurant",
      "cuisine": "thai",
      "description": "Fine Thai Food; Dine In; Carry Out",
      "phone": "+1 248 553-4220",
      "takeaway": "yes"
    },
    {
      "id": 226033,
      "geometry": "POINT (-83.038935 42.347334)",
      "poi_name": "Mitsos",
      "osm_id": 11147043208,
      "amenity": "restaurant",
      "cuisine": "greek",
      "opening_hours": "Tu-Sa 06:30-16:00; Su 11:00-16:00",
      "website": "https://www.mitsosgreek.com/",
      "phone": "+1-313-338-3981",
      "takeaway": "yes",
      "official_name": "Mitsos Greek Food and Coffee",
      "addr_state": "MI",
      "addr_city": "Detroit",
      "addr_postcode": "48207",
      "addr_street": "Riopelle Street",
      "addr_housenumber": "2614"
    },
    {
      "id": 239395,
      "geometry": "POINT (-83.03457 42.349309)",
      "poi_name": "Louisiana Creole Gumbo",
      "osm_id": 5919582756,
      "amenity": "restaurant",
      "cuisine": "southern",
      "opening_hours": "Tu-Sa 12:00-20:00; Su 12:00-18:00",
      "website": "https://www.detroitgumbo.com/",
      "phone": "+1-313-567-1200",
      "takeaway": "yes",
      "outdoor_seating": "no",
      "addr_state": "MI",
      "addr_city": "Detroit",
      "addr_postcode": "48207",
      "addr_street": "Gratiot Avenue",
      "addr_housenumber": "2051"
    },
    {
      "id": 239327,
      "geometry": "POINT (-83.052685 42.347684)",
      "poi_name": "Chili Mustard Onions",
      "osm_id": 5917152245,
      "amenity": "restaurant",
      "cuisine": "burger",
      "opening_hours": "Mo-Sa 12:00-17:00",
      "capacity": "16",
      "takeaway": "yes",
      "outdoor_seating": "no",
      "addr_state": "MI",
      "addr_city": "Detroit",
      "addr_postcode": "48201",
      "addr_street": "Brush Street",
      "addr_housenumber": "3411"
    },
    {
      "id": 239367,
      "geometry": "POINT (-83.127917 42.331311)",
      "poi_name": "The Telway",
      "osm_id": 5919010304,
      "amenity": "restaurant",
      "cuisine": "burger",
      "opening_hours": "24/7",
      "takeaway": "yes",
      "outdoor_seating": "no",
      "addr_state": "MI",
      "addr_city": "detroit",
      "addr_postcode": "48210",
      "addr_street": "Michigan Avenue",
      "addr_housenumber": "6820"
    },
    {
      "id": 237170,
      "geometry": "POINT (-83.462983 42.321808)",
      "poi_name": "Outback Steakhouse",
      "osm_id": 5821416861,
      "amenity": "restaurant",
      "cuisine": "american",
      "phone": "+1-734-981-4114",
      "takeaway": "yes",
      "outdoor_seating": "no",
      "delivery": "yes",
      "addr_state": "MI",
      "addr_city": "Canton",
      "addr_postcode": "48187",
      "addr_street": "Ford Road",
      "addr_housenumber": "42871"
    },
    {
      "id": 237319,
      "geometry": "POINT (-83.466167 42.525388)",
      "poi_name": "Sizzle It Asian Bistro",
      "osm_id": 5825853056,
      "amenity": "restaurant",
      "cuisine": "japanese;ice_cream;bubble_tea",
      "phone": "+1-248-859-3888",
      "takeaway": "yes",
      "outdoor_seating": "no",
      "addr_state": "MI",
      "addr_city": "Novi",
      "addr_postcode": "48377",
      "addr_street": "Novi Road",
      "addr_housenumber": "31194"
    },
    {
      "id": 239326,
      "geometry": "POINT (-83.017114 42.341144)",
      "poi_name": "Rivertown Pizza Papalis",
      "osm_id": 5917133474,
      "amenity": "restaurant",
      "cuisine": "pizza",
      "takeaway": "yes",
      "addr_state": "MI",
      "addr_city": "Detroit",
      "addr_postcode": "48207",
      "addr_street": "East Jefferson Avenue",
      "addr_housenumber": "3171"
    },
    {
      "id": 240396,
      "geometry": "POINT (-83.003928 42.346628)",
      "poi_name": "Pekin Chinese Food",
      "osm_id": 5972743486,
      "amenity": "restaurant",
      "cuisine": "chinese",
      "takeaway": "yes",
      "addr_state": "MI",
      "addr_city": "Detroit",
      "addr_postcode": "48214",
      "addr_street": "East Jefferson Avenue",
      "addr_housenumber": "6905"
    },
    {
      "id": 240058,
      "geometry": "POINT (-83.05658 42.345059)",
      "poi_name": "Top China 1",
      "osm_id": 5952921801,
      "amenity": "restaurant",
      "cuisine": "chinese",
      "opening_hours": "Mo-Th 11:00-22:30; Fr-Sa 11:00-23:00; Su 12:00-22:30",
      "takeaway": "yes",
      "delivery": "yes",
      "addr_state": "MI",
      "addr_city": "Detroit",
      "addr_postcode": "48201",
      "addr_street": "Woodward Avenue",
      "addr_housenumber": "3157"
    },
    {
      "id": 240397,
      "geometry": "POINT (-82.995777 42.351087)",
      "poi_name": "Belle Isle Pizza",
      "osm_id": 5972743499,
      "amenity": "restaurant",
      "cuisine": "pizza;deli",
      "takeaway": "yes",
      "addr_state": "MI",
      "addr_city": "Detroit",
      "addr_postcode": "48214",
      "addr_street": "East Jefferson Avenue",
      "addr_housenumber": "7869"
    },
    {
      "id": 241386,
      "geometry": "POINT (-83.18072 42.220828)",
      "poi_name": "Kome Sushi Bar",
      "osm_id": 6020901226,
      "amenity": "restaurant",
      "opening_hours": "Mo-Sa 11:30-21:30; Su 12:00-21:30",
      "phone": "+1-734-922-2262",
      "takeaway": "yes",
      "outdoor_seating": "no",
      "delivery": "yes",
      "addr_state": "MI",
      "addr_city": "Wyandotte",
      "addr_postcode": "48192",
      "addr_street": "Fort Street",
      "addr_housenumber": "1217"
    },
    {
      "id": 242649,
      "geometry": "POINT (-83.224212 42.198366)",
      "poi_name": "Suphan Thai Kitchen",
      "osm_id": 7589833850,
      "amenity": "restaurant",
      "cuisine": "thai",
      "phone": "+1-734-225-6664",
      "takeaway": "yes",
      "addr_state": "MI",
      "addr_city": "Southgate",
      "addr_postcode": "48195",
      "addr_street": "Eureka Road",
      "addr_housenumber": "18825"
    }
  ],
  "answer_type": "name",
  "question_entities": {
    "[1]": {
      "main_category": "amenity",
      "sub_category": "restaurant",
      "poi_filter_desc": "takeout restaurant",
      "poi_filter_sql": "takeaway ILIKE '%yes%'"
    },
    "[2]": {
      "distance": 60000,
      "text": "60 kilometers"
    },
    "[3]": {
      "main_category": "leisure",
      "sub_category": "stadium",
      "display_name": "Allen Park Civic Arena, Allen Park, MI",
      "geo_wkt": "POINT (-83.211376 42.258691)",
      "poi": {
        "id": 265370,
        "geometry": "POINT (-83.211376 42.258691)",
        "poi_name": "Allen Park Civic Arena",
        "osm_id": 367815831,
        "leisure": "stadium",
        "addr_state": "MI",
        "addr_city": "Allen Park",
        "addr_postcode": "48101",
        "addr_street": "White Avenue",
        "addr_housenumber": "15800"
      }
    }
  },
  "id": 504,
  "type": "range:non_spat_filter+name"
}