{
  "question": "How distant is a restaurant from Bittersweet Falls, Weybridge, VT within a range of 20 kilometers?",
  "sql": "SELECT *, ST_Distance(ST_GeomFromText('POINT (-73.217661 44.029954)',4326)::geography, pois.geometry) AS distance FROM pois\nWHERE ST_DWithin(pois.geometry, ST_GeomFromText('POINT (-73.217661 44.029954)',4326)::geography, 20000)\nAND amenity = 'restaurant';\n",
  "answers": [
    {
      "id": 39368,
      "geometry": "POINT (-73.460313 44.048376)",
      "poi_name": "George's",
      "osm_id": 2919337162,
      "amenity": "restaurant",
      "cuisine": "pizza",
      "distance": 19556.79054008
    },
    {
      "id": 39366,
      "geometry": "POINT (-73.458956 44.048029)",
      "poi_name": "Foote's Port Henry Diner",
      "osm_id": 2919332650,
      "amenity": "restaurant",
      "cuisine": "american",
      "distance": 19444.64321838
    },
    {
      "id": 39367,
      "geometry": "POINT (-73.45998 44.048365)",
      "poi_name": "Golden Palace",
      "osm_id": 2919336022,
      "amenity": "restaurant",
      "cuisine": "chinese",
      "opening_hours": "We-Fr 11:00-20:30 Sa-Su 12:00-20:00 Mo-Tu closed",
      "addr_state": "NY",
      "addr_city": "Port Henry",
      "addr_postcode": "12974",
      "addr_street": "Broad Street",
      "addr_housenumber": "3266",
      "distance": 19530.14615759
    },
    {
      "id": 39370,
      "geometry": "POINT (-73.455357 44.052835)",
      "poi_name": "Boyea's Lakeside",
      "osm_id": 2919379900,
      "amenity": "restaurant",
      "cuisine": "burger",
      "distance": 19220.29117907
    },
    {
      "id": 39371,
      "geometry": "POINT (-73.459095 44.044667)",
      "poi_name": "The Bistro",
      "osm_id": 2919423352,
      "amenity": "restaurant",
      "cuisine": "american",
      "distance": 19421.29969988
    },
    {
      "id": 39542,
      "geometry": "POINT (-73.427969 43.950655)",
      "poi_name": "Frenchy's",
      "osm_id": 2926842568,
      "amenity": "restaurant",
      "distance": 19033.04342675
    },
    {
      "id": 39543,
      "geometry": "POINT (-73.428377 43.950682)",
      "poi_name": "Frenchman's",
      "osm_id": 2926843337,
      "amenity": "restaurant",
      "distance": 19060.64930495
    },
    {
      "id": 45945,
      "geometry": "POINT (-73.167986 44.01361)",
      "poi_name": "Sabai Sabai",
      "osm_id": 3237128449,
      "amenity": "restaurant",
      "cuisine": "thai",
      "opening_hours": "We-Fr 11:30-14:30,16:30-20:00, Sa,Su 12:30-15:00, Sa 16:30-20:00",
      "website": "https://sabaisabaithai.com/",
      "phone": "+18029897376",
      "addr_state": "VT",
      "addr_city": "Middlebury",
      "addr_postcode": "05753",
      "addr_street": "Merchant's Row",
      "addr_housenumber": "22",
      "distance": 4377.27406623
    },
    {
      "id": 60772,
      "geometry": "POINT (-73.08181 43.921346)",
      "poi_name": "Kampersville Deli",
      "osm_id": 5480037564,
      "amenity": "restaurant",
      "distance": 16261.9514903
    },
    {
      "id": 112181,
      "geometry": "POINT (-73.163798 44.015045)",
      "poi_name": "Green Peppers",
      "osm_id": 3782788092,
      "amenity": "restaurant",
      "distance": 4625.37517531
    },
    {
      "id": 94950,
      "geometry": "POINT (-73.077345 44.133155)",
      "poi_name": "Tandem",
      "osm_id": 6381948007,
      "amenity": "restaurant",
      "addr_state": "VT",
      "addr_city": "Bristol",
      "addr_postcode": "05443",
      "addr_street": "Main Street",
      "addr_housenumber": "26",
      "distance": 16056.26109775
    },
    {
      "id": 94951,
      "geometry": "POINT (-73.077427 44.13317)",
      "poi_name": "Snap's Restaurant",
      "osm_id": 6381948008,
      "amenity": "restaurant",
      "description": "Breakfast, lunch and dinner daily with Sunday brunch from 7am-3pm.  Cocktails available, and the food is delicious!",
      "addr_state": "VT",
      "addr_city": "Bristol",
      "addr_postcode": "05443",
      "addr_street": "Main Street",
      "addr_housenumber": "24",
      "distance": 16052.87801784
    },
    {
      "id": 110163,
      "geometry": "POINT (-73.078138 44.133289)",
      "poi_name": "Cubbers Restaurant",
      "osm_id": 3688766709,
      "amenity": "restaurant",
      "cuisine": "pizza",
      "description": "Located in downtown Bristol, Cubbers has a warm family atmosphere and serves fantastic pizza, sandwiches, quiche, and salads. A popular, friendly, comfortably place.",
      "opening_hours": "Tu-Th 04:00-20:00, Fr-Sa 11:00-20:00",
      "website": "http://www.cubberspizza.com",
      "phone": "+18024532400",
      "addr_state": "VT",
      "addr_city": "Bristol",
      "addr_postcode": "05443",
      "addr_street": "Main Street",
      "addr_housenumber": "8",
      "distance": 16022.51836335
    },
    {
      "id": 112182,
      "geometry": "POINT (-73.166065 44.014361)",
      "poi_name": "Morgan's Tavern",
      "osm_id": 3782788093,
      "amenity": "restaurant",
      "opening_hours": "Mo-Su 07:00-10:00,11:00-17:30, Tu-Su 17:30-21:00",
      "website": "https://www.middleburyinn.com/en-us/morgans-tavern",
      "addr_state": "VT",
      "addr_city": "Middlebury",
      "addr_postcode": "05753",
      "addr_street": "Court Square",
      "addr_housenumber": "14",
      "distance": 4484.93227526
    },
    {
      "id": 120172,
      "geometry": "POINT (-73.077894 44.132871)",
      "poi_name": "Wokky's",
      "osm_id": 9143546019,
      "amenity": "restaurant",
      "cuisine": "chinese",
      "opening_hours": "Mo-Th 10:00-21:00, Fr-Su 11:00-21:00",
      "website": "http://wokkybristol.com/",
      "phone": "+1-802-4534-888",
      "addr_state": "VT",
      "addr_city": "Bristol",
      "addr_postcode": "05443",
      "addr_street": "Main Street",
      "addr_housenumber": "17",
      "distance": 16002.97218612
    },
    {
      "id": 119757,
      "geometry": "POINT (-73.310091 43.934585)",
      "poi_name": "Halfway House Restaurant",
      "osm_id": 9120964217,
      "amenity": "restaurant",
      "cuisine": "american;breakfast;diner",
      "opening_hours": "Mo-Su 05:00-20:00",
      "phone": "+18028975160",
      "addr_postcode": "05770",
      "addr_street": "State Route 22A",
      "addr_housenumber": "450",
      "distance": 12933.69647036
    },
    {
      "id": 125177,
      "geometry": "POINT (-73.170104 44.013218)",
      "poi_name": "The Mad Taco",
      "osm_id": 6948534715,
      "amenity": "restaurant",
      "cuisine": "mexican",
      "opening_hours": "Fr-We 12:00-20:00",
      "website": "https://www.themadtaco.com/middlebury",
      "phone": "+1-802-382-9070",
      "outdoor_seating": "yes",
      "addr_state": "VT",
      "addr_city": "Middlebury",
      "addr_postcode": "05753",
      "addr_street": "Mill Street",
      "addr_housenumber": "3",
      "distance": 4242.26323047
    },
    {
      "id": 131855,
      "geometry": "POINT (-73.170827 44.011827)",
      "poi_name": "ShireTown Marketplace",
      "osm_id": 9932476222,
      "amenity": "restaurant",
      "cuisine": "sandwich;ice_cream;american",
      "opening_hours": "Tu-Sa 07:00-17:30",
      "addr_state": "VT",
      "addr_city": "Middlebury",
      "addr_postcode": "05753",
      "addr_street": "College Street",
      "addr_housenumber": "54",
      "distance": 4261.15885996
    },
    {
      "id": 183880,
      "geometry": "POINT (-73.168381 44.013513)",
      "poi_name": "Crooked Ladle at 51 Main",
      "osm_id": 10948950736,
      "amenity": "restaurant",
      "opening_hours": "We-Fr 16:00-20:00",
      "website": "https://www.51mainvt.com/",
      "phone": "+18023496621",
      "addr_state": "VT",
      "addr_city": "Middlebury",
      "addr_postcode": "05753",
      "addr_street": "Main Street",
      "addr_housenumber": "51",
      "distance": 4353.00967668
    },
    {
      "id": 138193,
      "geometry": "POINT (-73.169827 44.012217)",
      "poi_name": "Two Brother's Tavern",
      "osm_id": 6136090056,
      "amenity": "restaurant",
      "cuisine": "american;burger;bar&grill",
      "opening_hours": "Mo-We 15:00-25:30; Th-Su 11:30-25:30",
      "website": "http://www.twobrotherstavern.com/",
      "phone": "+18023880002",
      "addr_state": "VT",
      "addr_city": "Middlebury",
      "addr_postcode": "05753",
      "addr_street": "Main Street",
      "addr_housenumber": "86",
      "distance": 4311.95478825
    },
    {
      "id": 139309,
      "geometry": "POINT (-73.168825 44.012767)",
      "poi_name": "Marquis Southwest Cafe",
      "osm_id": 6192577525,
      "amenity": "restaurant",
      "cuisine": "tacos;tex-mex;burrito",
      "opening_hours": "We 17:00-20:30; Th-Sa 12:00-20:30; Su 12:00-18:30",
      "website": "https://www.middleburymarquis.com/",
      "phone": "+1-802-388-4841",
      "outdoor_seating": "no",
      "addr_state": "VT",
      "addr_city": "Middlebury",
      "addr_postcode": "05753",
      "addr_street": "Main Street",
      "addr_housenumber": "65",
      "distance": 4356.41971637
    },
    {
      "id": 206344,
      "geometry": "POINT (-73.181411 43.999826)",
      "poi_name": "Tavern on the Tee",
      "osm_id": 7206571776,
      "amenity": "restaurant",
      "cuisine": "burger;sandwich",
      "operator": "Middlebury College",
      "website": "https://www.ralphmyhregolfcourse.com/restaurant-bar/",
      "internet_access": "yes",
      "phone": "+1 802 443 5125",
      "takeaway": "yes",
      "delivery": "no",
      "addr_state": "VT",
      "addr_city": "Middlebury",
      "addr_postcode": "05753",
      "addr_street": "Golf Course Road",
      "addr_housenumber": "317",
      "distance": 4433.41574073
    },
    {
      "id": 194116,
      "geometry": "POINT (-73.16863 44.012951)",
      "poi_name": "The Taste of India",
      "osm_id": 1581860900,
      "amenity": "restaurant",
      "cuisine": "indian",
      "opening_hours": "Tu-Su 11:30-14:00,16:30-20:30",
      "website": "https://www.tasteofindiavt.com/",
      "phone": "+1 802-388-4856",
      "takeaway": "yes",
      "outdoor_seating": "no",
      "addr_state": "VT",
      "addr_city": "Middlebury",
      "addr_street": "Bakery Lane",
      "addr_housenumber": "1",
      "distance": 4361.54597273
    },
    {
      "id": 205302,
      "geometry": "POINT (-73.177349 44.008188)",
      "poi_name": "The Grille",
      "osm_id": 7164715410,
      "amenity": "restaurant",
      "cuisine": "american;burger;pizza;sandwich",
      "wheelchair": "limited",
      "opening_hours": "\"closed due to illness\"",
      "operator": "Middlebury College",
      "internet_access": "yes",
      "takeaway": "yes",
      "distance": 4036.8970199
    },
    {
      "id": 206364,
      "geometry": "POINT (-73.137321 43.989896)",
      "poi_name": "A&W All American Food",
      "osm_id": 7206897441,
      "amenity": "restaurant",
      "cuisine": "burger",
      "website": "https://awrestaurants.com/locations/vermont/middlebury/us-highway-7-south/",
      "phone": "+1 802 388 2876",
      "takeaway": "yes",
      "outdoor_seating": "yes",
      "delivery": "no",
      "addr_state": "VT",
      "addr_city": "Middlebury",
      "addr_postcode": "05753",
      "addr_street": "US Route 7 South",
      "addr_housenumber": "1557",
      "distance": 7830.68665832
    },
    {
      "id": 206335,
      "geometry": "POINT (-73.165214 44.018532)",
      "poi_name": "Jessica's",
      "osm_id": 7206269749,
      "amenity": "restaurant",
      "opening_hours": "Jun-Dec: We-Su 17:30-20:45; Jan-May: Th-Su 17:30-20:45",
      "operator": "Swift House Inn",
      "website": "https://jessicasvermont.com",
      "phone": "+1 802 388 9925",
      "delivery": "no",
      "addr_state": "VT",
      "addr_city": "Middlebury",
      "addr_postcode": "05753",
      "addr_street": "Stewart Lane",
      "addr_housenumber": "25",
      "distance": 4392.2287241
    },
    {
      "id": 206336,
      "geometry": "POINT (-73.092153 43.971813)",
      "poi_name": "Waybury Pub",
      "osm_id": 7206286552,
      "amenity": "restaurant",
      "website": "https://wayburyinn.com/dining/",
      "phone": "+1 802 388 4015",
      "distance": 11961.00573513
    },
    {
      "id": 206296,
      "geometry": "POINT (-73.164662 44.014971)",
      "poi_name": "Middlebury Bagel & Deli",
      "osm_id": 7204627418,
      "amenity": "restaurant",
      "cuisine": "bagel",
      "opening_hours": "Mo-Fr 06:00-14:00, Sa,Su 06:00-13:00",
      "addr_state": "VT",
      "addr_city": "Middlebury",
      "addr_postcode": "05753",
      "addr_street": "Washington Street",
      "addr_housenumber": "11",
      "distance": 4563.73801024
    },
    {
      "id": 206365,
      "geometry": "POINT (-73.138013 43.990386)",
      "poi_name": "Magic Wok",
      "osm_id": 7206897442,
      "amenity": "restaurant",
      "cuisine": "chinese",
      "wheelchair": "yes",
      "opening_hours": "Mo-Th 08:30-21:30, Fr-Sa 11:00-22:00; Su 12:00-21:30",
      "phone": "+1 802 388 0339",
      "takeaway": "yes",
      "addr_state": "VT",
      "addr_city": "Middlebury",
      "addr_postcode": "05753",
      "addr_street": "US Route 7 South",
      "addr_housenumber": "1499",
      "distance": 7754.01455932
    },
    {
      "id": 206368,
      "geometry": "POINT (-73.045717 44.154791)",
      "poi_name": "Mary's Restaurant",
      "osm_id": 7206932354,
      "amenity": "restaurant",
      "cuisine": "american",
      "opening_hours": "Fr-Su 17:30-20:30",
      "website": "http://www.baldwincreek.net/marys",
      "phone": "+1 802 453 2432",
      "addr_state": "VT",
      "addr_city": "Bristol",
      "addr_postcode": "05443",
      "addr_street": "North 116 Road",
      "addr_housenumber": "1868",
      "distance": 19545.09226192
    },
    {
      "id": 215854,
      "geometry": "POINT (-73.24031 44.172783)",
      "poi_name": "Shuen Lee",
      "osm_id": 5315648183,
      "amenity": "restaurant",
      "cuisine": "chinese",
      "opening_hours": "Mo-Su 15:00-21:00",
      "website": "http://www.facebook.com/pages/Shuen-Lee/177422592291329",
      "phone": "+1 802 877 1020",
      "takeaway": "yes",
      "outdoor_seating": "no",
      "delivery": "no",
      "addr_state": "VT",
      "addr_city": "Vergennes",
      "addr_postcode": "05491",
      "addr_street": "Monkton Road",
      "addr_housenumber": "113",
      "distance": 15973.57726678
    },
    {
      "id": 229973,
      "geometry": "POINT (-73.169762 44.015627)",
      "poi_name": "Costello's Market",
      "osm_id": 4408565328,
      "amenity": "restaurant",
      "cuisine": "deli",
      "distance": 4157.20804442
    },
    {
      "id": 229971,
      "geometry": "POINT (-73.16999 44.015053)",
      "poi_name": "Noonie's Deli",
      "osm_id": 4408565326,
      "amenity": "restaurant",
      "cuisine": "sandwich",
      "opening_hours": "Mo-Fr 10:00-14:30",
      "website": "https://www.nooniesdeli.com/",
      "phone": "+1 802 388 0014",
      "takeaway": "yes",
      "delivery": "yes",
      "addr_state": "VT",
      "addr_city": "Middlebury",
      "addr_postcode": "05753",
      "addr_street": "Maple Street",
      "addr_housenumber": "137",
      "distance": 4165.29742139
    },
    {
      "id": 229972,
      "geometry": "POINT (-73.169473 44.015151)",
      "poi_name": "American Flatbread",
      "osm_id": 4408565327,
      "amenity": "restaurant",
      "cuisine": "pizza",
      "opening_hours": "Tu-Sa 17:00-21:00",
      "website": "https://americanflatbread.com/restaurants/middlebury-vt/",
      "phone": "+1-802-388-3300",
      "takeaway": "yes",
      "delivery": "no",
      "addr_state": "VT",
      "addr_city": "Middlebury",
      "addr_postcode": "05753",
      "addr_street": "Maple Street",
      "addr_housenumber": "137",
      "distance": 4199.05586226
    },
    {
      "id": 232774,
      "geometry": "POINT (-73.148895 43.999979)",
      "poi_name": "Grapevine Grille",
      "osm_id": 4541994408,
      "amenity": "restaurant",
      "cuisine": "sandwich",
      "wheelchair": "yes",
      "opening_hours": "Mo-We 11:00-17:00; Th-Sa 11:00-19:00; Su 12:00-17:00",
      "website": "https://grapevinegrillevt.com/",
      "phone": "+1 802 382 8646",
      "takeaway": "yes",
      "addr_state": "VT",
      "addr_city": "Middlebury",
      "addr_postcode": "05753",
      "addr_street": "US Route 7 South",
      "addr_housenumber": "610",
      "distance": 6441.91762332
    },
    {
      "id": 207092,
      "geometry": "POINT (-73.140212 43.990806)",
      "poi_name": "7 South Sandwich Company",
      "osm_id": 7237649204,
      "amenity": "restaurant",
      "cuisine": "sandwich",
      "opening_hours": "Mo-Sa 07:00-15:00",
      "website": "http://www.7southsandwich.com/",
      "phone": "+1 802 388 3354",
      "takeaway": "yes",
      "addr_state": "VT",
      "addr_city": "Middlebury",
      "addr_postcode": "05753",
      "addr_street": "US Route 7 South",
      "addr_housenumber": "1396",
      "distance": 7582.54142947
    },
    {
      "id": 207093,
      "geometry": "POINT (-73.168082 44.013626)",
      "poi_name": "Juice Amour",
      "osm_id": 7237649205,
      "amenity": "restaurant",
      "cuisine": "juice;salad",
      "opening_hours": "Mo-Fr 08:00-17:00; Sa 09:00-17:00; Su 10:00-16:00",
      "website": "https://www.juiceamour.com/",
      "phone": "+1 802-989-7271",
      "addr_state": "VT",
      "addr_city": "Middlebury",
      "addr_postcode": "05753",
      "addr_street": "Merchant's Row",
      "addr_housenumber": "16",
      "distance": 4369.50379905
    },
    {
      "id": 229974,
      "geometry": "POINT (-73.169784 44.012259)",
      "poi_name": "Notte",
      "osm_id": 4408565331,
      "amenity": "restaurant",
      "cuisine": "pizza",
      "opening_hours": "Tu-Sa 17:00-25:00",
      "website": "https://www.nottevt.com/",
      "phone": "+1 802 989 7351",
      "addr_state": "VT",
      "addr_city": "Middlebury",
      "addr_postcode": "05753",
      "addr_street": "Main Street",
      "addr_housenumber": "86",
      "distance": 4312.91323609
    }
  ],
  "answer_type": "distance",
  "question_entities": {
    "[1]": {
      "main_category": "amenity",
      "sub_category": "restaurant"
    },
    "[2]": {
      "distance": 20000,
      "text": "20 kilometers"
    },
    "[3]": {
      "main_category": "tourism",
      "sub_category": "viewpoint",
      "display_name": "Bittersweet Falls, Weybridge, VT",
      "geo_wkt": "POINT (-73.217661 44.029954)",
      "poi": {
        "id": 25384,
        "geometry": "POINT (-73.217661 44.029954)",
        "poi_name": "Bittersweet Falls",
        "osm_id": 4475236640,
        "tourism": "viewpoint",
        "addr_state": "VT",
        "addr_city": "Weybridge",
        "addr_postcode": "05753",
        "addr_street": "Bittersweet Falls Road",
        "addr_housenumber": "617"
      }
    }
  },
  "id": 758,
  "type": "range+distance"
}