{
  "question": "Could you locate an attraction within a 190 kilometers radius of Smoky Mountain Alpine Coaster, Pigeon Forge, TN?",
  "sql": "SELECT * FROM pois\nWHERE ST_DWithin(pois.geometry, ST_GeomFromText('POINT (-83.596543 35.793397)',4326)::geography, 190000)\nAND tourism = 'attraction';\n",
  "answers": [
    {
      "id": 524,
      "geometry": "POINT (-82.050287 35.872594)",
      "poi_name": "Gem Mountain Gemstone Mine",
      "osm_id": 8421455508,
      "tourism": "attraction",
      "opening_hours": "Temporary Closed",
      "addr_state": "NC",
      "addr_city": "Spruce Pine",
      "addr_postcode": "28777",
      "addr_street": "NC-226",
      "addr_housenumber": "13780"
    },
    {
      "id": 2655,
      "geometry": "POINT (-82.398158 34.853578)",
      "poi_name": "Greenville Glides",
      "osm_id": 540291657,
      "tourism": "attraction",
      "website": "https://greenvillesegwaytours.com/",
      "addr_city": "Greenville",
      "addr_postcode": "29601",
      "addr_street": "North Main Street",
      "addr_housenumber": "233"
    },
    {
      "id": 4141,
      "geometry": "POINT (-82.150746 35.748391)",
      "poi_name": "Buck Creek Trout Farm",
      "osm_id": 5693714858,
      "tourism": "attraction",
      "addr_state": "NC",
      "addr_city": "Marion",
      "addr_postcode": "28752",
      "addr_street": "Rainbow Trout Drive",
      "addr_housenumber": "74"
    },
    {
      "id": 4879,
      "geometry": "POINT (-83.519052 35.710359)",
      "poi_name": "Hollywood Star Cars Museum",
      "osm_id": 9662017709,
      "tourism": "attraction",
      "addr_state": "TN",
      "addr_city": "Gatlinburg",
      "addr_postcode": "37738",
      "addr_street": "Parkway",
      "addr_housenumber": "914"
    },
    {
      "id": 4955,
      "geometry": "POINT (-82.376506 35.701212)",
      "poi_name": "Craggy Pinnacle Tunnel",
      "osm_id": 9695401588,
      "tourism": "attraction",
      "addr_state": "NC",
      "addr_city": "Black Mountain",
      "addr_postcode": "28711",
      "addr_street": "Blue Ridge Parkway",
      "addr_housenumber": "3644"
    },
    {
      "id": 5043,
      "geometry": "POINT (-81.710699 35.958664)",
      "poi_name": "House Of Mugs",
      "osm_id": 9733679697,
      "tourism": "attraction",
      "addr_state": "NC",
      "addr_city": "Collettsville",
      "addr_postcode": "28611",
      "addr_street": "Old Johns River Road"
    },
    {
      "id": 5054,
      "geometry": "POINT (-82.181509 35.627772)",
      "poi_name": "McDowell Tourism Authority",
      "osm_id": 9739904209,
      "tourism": "attraction",
      "addr_state": "NC",
      "addr_city": "Old Fort",
      "addr_postcode": "28762",
      "addr_street": "Catawba Avenue",
      "addr_housenumber": "91"
    },
    {
      "id": 6630,
      "geometry": "POINT (-82.588139 35.133686)",
      "poi_name": "Rainbow Falls",
      "osm_id": 1899078856,
      "tourism": "attraction",
      "addr_city": "Cleveland",
      "addr_postcode": "29635"
    },
    {
      "id": 8510,
      "geometry": "POINT (-85.683481 35.6663)",
      "poi_name": "Cumberland Caverns",
      "osm_id": 8518790529,
      "description": "Open Year-Round \u2013 7 Days A Week\nDaily from 9am-5pm CST\nTours are given every hour, on the hour\nClosed Thanksgiving Day, Christmas Eve, Christmas Day\nOpen 1pm Easter Sunday",
      "tourism": "attraction",
      "operator": "Private",
      "website": "https://cumberlandcaverns.com/",
      "phone": "1-931-668-4396",
      "wikidata": "Q5193847",
      "addr_state": "TN",
      "addr_city": "McMinnville",
      "addr_postcode": "37110",
      "addr_street": "Cumberland Caverns Road",
      "addr_housenumber": "1437"
    },
    {
      "id": 11485,
      "geometry": "POINT (-81.704775 35.947377)",
      "poi_name": "The Collettsville Cup House",
      "osm_id": 9984292253,
      "tourism": "attraction",
      "addr_state": "NC",
      "addr_city": "Collettsville",
      "addr_postcode": "28611",
      "addr_street": "Old Johns River Road"
    },
    {
      "id": 14217,
      "geometry": "POINT (-83.77419 35.658059)",
      "poi_name": "Tuckaleechee Caverns",
      "osm_id": 4250456499,
      "tourism": "attraction",
      "website": "https://www.tuckaleecheecaverns.com/",
      "phone": "+1 865-448-2274",
      "wikidata": "Q18217524",
      "addr_state": "TN",
      "addr_city": "Townsend",
      "addr_street": "Cavern Road",
      "addr_housenumber": "825"
    },
    {
      "id": 14218,
      "geometry": "POINT (-83.686018 35.695741)",
      "poi_name": "Next to Heaven Adventure",
      "osm_id": 4250462437,
      "tourism": "attraction",
      "website": "http://www.nexttoheavenmountainadventures.com/",
      "phone": "+1 865-448-6947",
      "addr_state": "TN",
      "addr_city": "Townsend",
      "addr_street": "Wears Valley Road",
      "addr_housenumber": "1239"
    },
    {
      "id": 14846,
      "geometry": "POINT (-83.480094 34.850265)",
      "poi_name": "Stonewall Creek Vineyards Tasting Room",
      "osm_id": 4738359536,
      "amenity": "bar",
      "tourism": "attraction",
      "opening_hours": "May-Nov Th-Sa 12:00-17:00",
      "operator": "Stonewall Creek Vineyards",
      "website": "https://stonewallcreek.com/",
      "outdoor_seating": "no",
      "addr_state": "GA",
      "addr_city": "Tiger",
      "addr_postcode": "30576",
      "addr_street": "Bridge Creek Road"
    },
    {
      "id": 18319,
      "geometry": "POINT (-82.91761 36.96477)",
      "poi_name": "Portal 30",
      "osm_id": 368383665,
      "historic": "mine_adit",
      "tourism": "attraction",
      "wikidata": "Q49441363",
      "addr_state": "KY"
    },
    {
      "id": 18320,
      "geometry": "POINT (-82.917695 36.966213)",
      "poi_name": "Portal 31",
      "osm_id": 368383666,
      "historic": "mine_adit",
      "tourism": "attraction",
      "wikidata": "Q49441364",
      "addr_state": "KY"
    },
    {
      "id": 18713,
      "geometry": "POINT (-81.644171 36.163298)",
      "poi_name": "Mystery Hill",
      "osm_id": 2385806042,
      "tourism": "attraction",
      "addr_state": "NC",
      "addr_city": "Blowing Rock",
      "addr_postcode": "28605",
      "addr_street": "Mystery Hill Lane",
      "addr_housenumber": "129"
    },
    {
      "id": 19317,
      "geometry": "POINT (-83.134745 35.512983)",
      "poi_name": "Soco Craft & Tower Inc",
      "osm_id": 10723640152,
      "tourism": "attraction",
      "addr_state": "NC",
      "addr_city": "Maggie Valley",
      "addr_postcode": "28751",
      "addr_street": "Soco Road",
      "addr_housenumber": "6638"
    },
    {
      "id": 19318,
      "geometry": "POINT (-83.069451 35.56574)",
      "poi_name": "Marvin Popcorn Sutton's Homeplace",
      "osm_id": 10723640157,
      "tourism": "attraction",
      "addr_state": "NC",
      "addr_city": "Waynesville",
      "addr_postcode": "28785",
      "addr_street": "Hemphill Road",
      "addr_housenumber": "3134"
    },
    {
      "id": 19529,
      "geometry": "POINT (-83.130503 35.356615)",
      "poi_name": "Wayehutta OHV Trail System",
      "osm_id": 10800167163,
      "tourism": "attraction",
      "operator": "United States Forest Service",
      "website": "https://www.fs.usda.gov/recarea/nfsnc/recarea/?recid=48662",
      "addr_state": "NC",
      "addr_city": "Cullowhee",
      "addr_postcode": "28723"
    },
    {
      "id": 19786,
      "geometry": "POINT (-83.346851 35.904203)",
      "poi_name": "Forbidden Caverns",
      "osm_id": 10874244606,
      "tourism": "attraction",
      "addr_state": "Tn",
      "addr_city": "Sevierville",
      "addr_postcode": "37876",
      "addr_street": "Blowing Cave Road",
      "addr_housenumber": "455"
    },
    {
      "id": 20309,
      "geometry": "POINT (-83.699315 34.372605)",
      "poi_name": "North Georgia Canopy Tours",
      "osm_id": 1075323427,
      "tourism": "attraction",
      "website": "https://northgeorgiacanopytours.com/",
      "addr_state": "GA",
      "addr_city": "Lula",
      "addr_postcode": "30554",
      "addr_street": "Harris Road",
      "addr_housenumber": "5290"
    },
    {
      "id": 21640,
      "geometry": "POINT (-83.147306 35.818771)",
      "poi_name": "Wildwater Pigeon Rafting and Zipline Canopy Tours",
      "osm_id": 10589371979,
      "leisure": "sports_centre",
      "tourism": "attraction",
      "phone": "+18663198870",
      "addr_state": "NC",
      "addr_city": "Hartford",
      "addr_postcode": "37753",
      "addr_street": "Hartford Road",
      "addr_housenumber": "3555"
    },
    {
      "id": 25504,
      "geometry": "POINT (-84.279432 34.379173)",
      "poi_name": "Gibbs Gardens",
      "osm_id": 4519799389,
      "tourism": "attraction",
      "website": "https://www.gibbsgardens.com/",
      "phone": "+1 770-893-1881",
      "addr_state": "GA",
      "addr_postcode": "30107",
      "addr_street": "Gibbs Drive",
      "addr_housenumber": "1987"
    },
    {
      "id": 25392,
      "geometry": "POINT (-84.569999 34.605844)",
      "poi_name": "Engelheim Vineyards Tasting Room",
      "osm_id": 4480156504,
      "amenity": "bar",
      "tourism": "attraction",
      "building": "yes",
      "opening_hours": "Mo-Su 12:30-18:00",
      "operator": "Engelheim Vineyards",
      "addr_state": "GA",
      "addr_city": "Ellijay",
      "addr_postcode": "30540",
      "addr_street": "Lakeview Road",
      "addr_housenumber": "127"
    }
  ],
  "answer_type": "loc",
  "question_entities": {
    "[1]": {
      "main_category": "tourism",
      "sub_category": "attraction"
    },
    "[2]": {
      "distance": 190000,
      "text": "190 kilometers"
    },
    "[3]": {
      "main_category": "tourism",
      "sub_category": "theme park",
      "display_name": "Smoky Mountain Alpine Coaster, Pigeon Forge, TN",
      "geo_wkt": "POINT (-83.596543 35.793397)",
      "poi": {
        "id": 13057,
        "geometry": "POINT (-83.596543 35.793397)",
        "poi_name": "Smoky Mountain Alpine Coaster",
        "osm_id": 4035710749,
        "tourism": "theme_park",
        "website": "http://www.smokymountainalpinecoaster.com/",
        "wikidata": "Q29831450",
        "addr_state": "TN",
        "addr_city": "Pigeon Forge",
        "addr_postcode": "37863",
        "addr_street": "Wears Valley Road",
        "addr_housenumber": "867"
      }
    }
  },
  "id": 2006,
  "type": "range+loc"
}