{
  "question": "What's the route to a fast food restaurant from St. Anthony, Mustang, OK within 90 kilometers?",
  "sql": "SELECT *, degrees(ST_Azimuth(ST_GeomFromText('POINT (-97.707679 35.390612)',4326)::geography, pois.geometry)) AS angle FROM pois\nWHERE ST_DWithin(pois.geometry, ST_GeomFromText('POINT (-97.707679 35.390612)',4326)::geography, 90000)\nAND amenity = 'fast_food';\n",
  "answers": [
    {
      "id": 33046,
      "geometry": "POINT (-97.491116 35.326596)",
      "poi_name": "Firehouse Subs",
      "osm_id": 2648826532,
      "amenity": "fast_food",
      "cuisine": "sandwich",
      "internet_access": "no",
      "takeaway": "yes",
      "outdoor_seating": "no",
      "angle": 109.77873175108316
    },
    {
      "id": 33187,
      "geometry": "POINT (-97.486535 35.23463)",
      "poi_name": "Jersey Mike's Subs",
      "osm_id": 2656378618,
      "amenity": "fast_food",
      "cuisine": "sandwich",
      "website": "https://www.jerseymikes.com/",
      "phone": "+1 405 321 5100",
      "takeaway": "yes",
      "addr_city": "Norman",
      "addr_postcode": "73072",
      "addr_street": "North Interstate Drive",
      "addr_housenumber": "1204",
      "angle": 130.64844857369854
    },
    {
      "id": 33191,
      "geometry": "POINT (-97.488506 35.233466)",
      "poi_name": "Subway",
      "osm_id": 2656625977,
      "amenity": "fast_food",
      "cuisine": "sandwich",
      "takeaway": "yes",
      "angle": 131.1137602279058
    },
    {
      "id": 33665,
      "geometry": "POINT (-97.724216 35.392699)",
      "poi_name": "Whataburger",
      "osm_id": 2677434377,
      "amenity": "fast_food",
      "cuisine": "burger",
      "phone": "(405) 376-2256",
      "addr_state": "OK",
      "addr_city": "Mustang",
      "addr_postcode": "73064",
      "addr_street": "North Mustang Road",
      "addr_housenumber": "212",
      "angle": 278.7647354962993
    },
    {
      "id": 33931,
      "geometry": "POINT (-97.370344 35.43604)",
      "poi_name": "Long John Silver's",
      "osm_id": 2687586870,
      "amenity": "fast_food",
      "cuisine": "seafood",
      "takeaway": "yes",
      "angle": 80.56072787481037
    },
    {
      "id": 33932,
      "geometry": "POINT (-97.370346 35.435985)",
      "poi_name": "A&W",
      "osm_id": 2687586889,
      "amenity": "fast_food",
      "cuisine": "burger",
      "website": "https://awrestaurants.com/locations/oklahoma/midwest-city/2918-s-douglas-blvd/",
      "takeaway": "yes",
      "angle": 80.57172616645116
    },
    {
      "id": 34449,
      "geometry": "POINT (-97.566414 35.613324)",
      "poi_name": "Panda Express",
      "osm_id": 2700302178,
      "amenity": "fast_food",
      "cuisine": "chinese",
      "takeaway": "yes",
      "angle": 27.373981568134383
    },
    {
      "id": 34451,
      "geometry": "POINT (-97.566425 35.612491)",
      "poi_name": "Taco Bell",
      "osm_id": 2700302180,
      "amenity": "fast_food",
      "cuisine": "tex-mex",
      "website": "https://locations.tacobell.com/ok/oklahoma-city/13920-n--may-ave-.html",
      "takeaway": "yes",
      "angle": 27.460165168862645
    },
    {
      "id": 35161,
      "geometry": "POINT (-97.264519 35.390194)",
      "poi_name": "Sonic",
      "osm_id": 2711797411,
      "amenity": "fast_food",
      "angle": 89.93773201082942
    },
    {
      "id": 37301,
      "geometry": "POINT (-97.596107 35.39506)",
      "poi_name": "Sonic",
      "osm_id": 2806401431,
      "amenity": "fast_food",
      "cuisine": "burger",
      "angle": 87.18058170068576
    },
    {
      "id": 37302,
      "geometry": "POINT (-97.596249 35.395064)",
      "poi_name": "the salt lick",
      "osm_id": 2806401432,
      "amenity": "fast_food",
      "angle": 87.17431532865405
    },
    {
      "id": 37303,
      "geometry": "POINT (-97.596174 35.395062)",
      "poi_name": "Moe's southwest grill",
      "osm_id": 2806429319,
      "amenity": "fast_food",
      "cuisine": "mexican",
      "angle": 87.17754929512981
    },
    {
      "id": 37696,
      "geometry": "POINT (-97.54479 35.392015)",
      "poi_name": "Schlotzsky's",
      "osm_id": 2825639015,
      "amenity": "fast_food",
      "cuisine": "sandwich",
      "phone": "+1-405-681-7393",
      "takeaway": "yes",
      "addr_state": "OK",
      "addr_city": "Oklahoma City",
      "addr_postcode": "73159",
      "addr_street": "Southwest 74th Street",
      "addr_housenumber": "1505",
      "angle": 89.35018942938508
    },
    {
      "id": 41442,
      "geometry": "POINT (-97.46665 35.667691)",
      "poi_name": "braum's",
      "osm_id": 3014619574,
      "amenity": "fast_food",
      "angle": 35.34657314570643
    },
    {
      "id": 43337,
      "geometry": "POINT (-97.401414 35.449397)",
      "poi_name": "Domino's",
      "osm_id": 3106268529,
      "amenity": "fast_food",
      "cuisine": "pizza",
      "addr_state": "OK",
      "addr_city": "Midwest City",
      "addr_postcode": "73110",
      "addr_street": "Southeast 15th Street",
      "addr_housenumber": "7114",
      "angle": 76.71473955701308
    },
    {
      "id": 45880,
      "geometry": "POINT (-97.458662 35.638836)",
      "poi_name": "Panera Bread",
      "osm_id": 3234567070,
      "amenity": "fast_food",
      "angle": 39.28680060774746
    },
    {
      "id": 45881,
      "geometry": "POINT (-97.460992 35.651053)",
      "poi_name": "Sonic",
      "osm_id": 3234567207,
      "amenity": "fast_food",
      "cuisine": "burger",
      "takeaway": "yes",
      "angle": 37.68132955089975
    },
    {
      "id": 46257,
      "geometry": "POINT (-97.461302 35.6519)",
      "poi_name": "Qdoba",
      "osm_id": 3255495819,
      "amenity": "fast_food",
      "cuisine": "mexican",
      "website": "https://locations.qdoba.com/us/ok/edmond/301-s-bryant-st.html",
      "takeaway": "yes",
      "official_name": "Qdoba Mexican Grill",
      "angle": 37.5563555016623
    },
    {
      "id": 46258,
      "geometry": "POINT (-97.454737 35.653229)",
      "poi_name": "Freddy's",
      "osm_id": 3255495820,
      "amenity": "fast_food",
      "cuisine": "ice_cream;burger",
      "takeaway": "yes",
      "official_name": "Freddys Frozen Custard & Steakburgers",
      "angle": 38.14374154274334
    },
    {
      "id": 46260,
      "geometry": "POINT (-97.455352 35.652217)",
      "poi_name": "Jimmy John's",
      "osm_id": 3255496068,
      "amenity": "fast_food",
      "cuisine": "sandwich",
      "takeaway": "yes",
      "official_name": "Jimmy John's Gourmet Sandwiches",
      "angle": 38.18388954041349
    },
    {
      "id": 47103,
      "geometry": "POINT (-97.477169 35.218848)",
      "poi_name": "Freddy's",
      "osm_id": 3306927064,
      "amenity": "fast_food",
      "cuisine": "ice_cream;burger",
      "takeaway": "yes",
      "official_name": "Freddy's Frozen Custard & Steakburgers",
      "angle": 132.2038765976797
    },
    {
      "id": 47131,
      "geometry": "POINT (-97.475486 35.218111)",
      "poi_name": "Little Caesars",
      "osm_id": 3308240841,
      "amenity": "fast_food",
      "cuisine": "pizza",
      "website": "https://littlecaesars.com/en-us/store/2036/",
      "takeaway": "yes",
      "angle": 132.11789047337192
    },
    {
      "id": 47133,
      "geometry": "POINT (-97.476092 35.218784)",
      "poi_name": "Subway",
      "osm_id": 3308265098,
      "amenity": "fast_food",
      "cuisine": "sandwich",
      "takeaway": "yes",
      "angle": 132.08134069156137
    },
    {
      "id": 47621,
      "geometry": "POINT (-97.565353 35.581726)",
      "poi_name": "Camilya's",
      "osm_id": 3337124141,
      "amenity": "fast_food",
      "cuisine": "mediterranean",
      "takeaway": "yes",
      "addr_state": "OK",
      "addr_city": "Oklahoma City",
      "addr_street": "North May Avenue",
      "addr_housenumber": "10942",
      "angle": 31.30433286768031
    },
    {
      "id": 48576,
      "geometry": "POINT (-97.458104 35.649386)",
      "poi_name": "Daylight Donuts",
      "osm_id": 3388666264,
      "amenity": "fast_food",
      "angle": 38.18282886851037
    },
    {
      "id": 48577,
      "geometry": "POINT (-97.45763 35.65314)",
      "poi_name": "Taco Bell",
      "osm_id": 3388666462,
      "amenity": "fast_food",
      "cuisine": "tex-mex",
      "website": "https://locations.tacobell.com/ok/edmond/1709-e--2nd-st-.html",
      "takeaway": "yes",
      "angle": 37.83416182744333
    },
    {
      "id": 48578,
      "geometry": "POINT (-97.466138 35.653164)",
      "poi_name": "McAllister's Deli",
      "osm_id": 3388666778,
      "amenity": "fast_food",
      "angle": 36.876835194190875
    },
    {
      "id": 48972,
      "geometry": "POINT (-97.424116 35.202015)",
      "poi_name": "Daylight Donuts",
      "osm_id": 3411454060,
      "amenity": "fast_food",
      "cuisine": "donut",
      "takeaway": "yes",
      "angle": 128.96881686607406
    },
    {
      "id": 49506,
      "geometry": "POINT (-97.459304 35.653241)",
      "poi_name": "Subway",
      "osm_id": 3438446805,
      "amenity": "fast_food",
      "cuisine": "sandwich",
      "takeaway": "yes",
      "addr_city": "Edmond",
      "addr_postcode": "73034",
      "addr_street": "East 2nd Street",
      "addr_housenumber": "1525",
      "angle": 37.63747852450077
    },
    {
      "id": 48969,
      "geometry": "POINT (-97.417563 35.181584)",
      "poi_name": "Subway",
      "osm_id": 3411417895,
      "amenity": "fast_food",
      "cuisine": "sandwich",
      "takeaway": "yes",
      "angle": 131.22248684558494
    },
    {
      "id": 49525,
      "geometry": "POINT (-97.598562 35.39519)",
      "poi_name": "Oklahoma Station Bakery",
      "osm_id": 3441096574,
      "amenity": "fast_food",
      "angle": 87.03525924560469
    },
    {
      "id": 49507,
      "geometry": "POINT (-97.460864 35.651328)",
      "poi_name": "Panda Express",
      "osm_id": 3438449260,
      "amenity": "fast_food",
      "cuisine": "chinese",
      "takeaway": "yes",
      "angle": 37.6663065026517
    },
    {
      "id": 51056,
      "geometry": "POINT (-97.464394 35.6095)",
      "poi_name": "Jimmy John's",
      "osm_id": 506210649,
      "amenity": "fast_food",
      "cuisine": "sandwich",
      "takeaway": "yes",
      "official_name": "Jimmy John's Gourmet Sandwiches",
      "angle": 42.19703604203643
    },
    {
      "id": 51057,
      "geometry": "POINT (-97.461602 35.608842)",
      "poi_name": "Sonic",
      "osm_id": 506210655,
      "amenity": "fast_food",
      "cuisine": "burger",
      "website": "https://www.sonicdrivein.com/",
      "takeaway": "yes",
      "drive_through": "yes",
      "addr_street": "East Memorial Road",
      "angle": 42.607869712663486
    },
    {
      "id": 53884,
      "geometry": "POINT (-97.745915 35.652143)",
      "poi_name": "Subway",
      "osm_id": 10102730114,
      "amenity": "fast_food",
      "cuisine": "sandwich",
      "takeaway": "yes",
      "angle": 353.1952112887712
    },
    {
      "id": 56257,
      "geometry": "POINT (-96.834536 35.727316)",
      "poi_name": "McDonald's",
      "osm_id": 10229660878,
      "amenity": "fast_food",
      "cuisine": "burger",
      "wheelchair": "yes",
      "operator": "McDonald'ss",
      "takeaway": "yes",
      "delivery": "no",
      "angle": 64.48327068848559
    },
    {
      "id": 55439,
      "geometry": "POINT (-97.494919 35.536253)",
      "poi_name": "Subway",
      "osm_id": 10187493166,
      "amenity": "fast_food",
      "cuisine": "sandwich",
      "takeaway": "yes",
      "angle": 50.018815634805364
    },
    {
      "id": 65128,
      "geometry": "POINT (-96.929195 35.37909)",
      "poi_name": "Chick-fil-A",
      "osm_id": 5686591869,
      "amenity": "fast_food",
      "cuisine": "chicken",
      "takeaway": "yes",
      "drive_through": "yes",
      "angle": 90.80994233882787
    },
    {
      "id": 60913,
      "geometry": "POINT (-97.19411 35.663484)",
      "poi_name": "DJ's BBQ",
      "osm_id": 5487143422,
      "amenity": "fast_food",
      "angle": 56.82874322170035
    },
    {
      "id": 63691,
      "geometry": "POINT (-97.516836 35.652566)",
      "poi_name": "Little Caesars",
      "osm_id": 5627809439,
      "amenity": "fast_food",
      "cuisine": "pizza",
      "website": "https://littlecaesars.com/en-us/store/8770/",
      "takeaway": "yes",
      "drive_through": "yes",
      "angle": 30.722696630708167
    },
    {
      "id": 63692,
      "geometry": "POINT (-97.494925 35.653167)",
      "poi_name": "Sonic",
      "osm_id": 5627814257,
      "amenity": "fast_food",
      "cuisine": "burger",
      "operator": "Sonic",
      "takeaway": "yes",
      "drive_through": "yes",
      "delivery": "no",
      "angle": 33.46112745686815
    },
    {
      "id": 64181,
      "geometry": "POINT (-97.509841 35.666678)",
      "poi_name": "Papa Murphy's",
      "osm_id": 5643026260,
      "amenity": "fast_food",
      "cuisine": "pizza",
      "takeaway": "only",
      "official_name": "Papa Murphy's Take 'N' Bake Pizza",
      "angle": 30.305096506201565
    },
    {
      "id": 64182,
      "geometry": "POINT (-97.512804 35.651592)",
      "poi_name": "Stars and Stripes Pizza",
      "osm_id": 5643026262,
      "amenity": "fast_food",
      "cuisine": "pizza",
      "angle": 31.345716236503428
    },
    {
      "id": 65073,
      "geometry": "POINT (-97.492952 35.666359)",
      "poi_name": "Domino's",
      "osm_id": 5685582782,
      "amenity": "fast_food",
      "cuisine": "pizza",
      "addr_state": "OK",
      "addr_city": "Edmond",
      "addr_postcode": "73003",
      "addr_street": "West Danforth Road",
      "addr_housenumber": "740",
      "angle": 32.41704736509226
    },
    {
      "id": 65105,
      "geometry": "POINT (-97.425494 35.21738)",
      "poi_name": "Schlotzsky's",
      "osm_id": 5686162672,
      "amenity": "fast_food",
      "cuisine": "sandwich",
      "phone": "+1-405-310-2061",
      "takeaway": "yes",
      "addr_state": "OK",
      "addr_city": "Norman",
      "addr_postcode": "73071",
      "addr_street": "East Alameda Street",
      "addr_housenumber": "1000",
      "angle": 126.7468933757862
    },
    {
      "id": 65129,
      "geometry": "POINT (-96.93022 35.381509)",
      "poi_name": "Burger King",
      "osm_id": 5686591870,
      "amenity": "fast_food",
      "cuisine": "burger",
      "takeaway": "yes",
      "angle": 90.5940095766922
    },
    {
      "id": 66749,
      "geometry": "POINT (-97.566564 35.535359)",
      "poi_name": "Drink in the Goodness",
      "osm_id": 11209356681,
      "amenity": "fast_food",
      "cuisine": "juice",
      "operator": "Akin's Natural Foods",
      "angle": 38.53516543135
    },
    {
      "id": 66609,
      "geometry": "POINT (-97.264469 35.4495)",
      "poi_name": "Domino's Pizza",
      "osm_id": 11201184967,
      "amenity": "fast_food",
      "angle": 80.65200220595504
    },
    {
      "id": 66751,
      "geometry": "POINT (-97.565219 35.541727)",
      "poi_name": "Honey Baked Ham",
      "osm_id": 11209454612,
      "amenity": "fast_food",
      "cuisine": "american",
      "takeaway": "yes",
      "official_name": "The Honey Baked Ham Company",
      "addr_state": "OK",
      "addr_city": "Oklahoma City",
      "addr_postcode": "73116",
      "angle": 37.59962335223903
    },
    {
      "id": 66752,
      "geometry": "POINT (-97.565104 35.541726)",
      "poi_name": "Subway",
      "osm_id": 11209454613,
      "amenity": "fast_food",
      "cuisine": "sandwich",
      "opening_hours": "09:00-22:00",
      "website": "https://restaurants.subway.com/united-states/ok/oklahoma-city/12325-n-may-ave",
      "phone": "+1 405 751 9661",
      "takeaway": "yes",
      "delivery": "yes",
      "addr_state": "OK",
      "addr_city": "Oklahoma City",
      "addr_postcode": "73116",
      "addr_street": "North May Avenue",
      "addr_housenumber": "12325",
      "angle": 37.62200009947531
    },
    {
      "id": 67404,
      "geometry": "POINT (-97.619501 35.548295)",
      "poi_name": "Tropical Smoothie Cafe",
      "osm_id": 11234855725,
      "amenity": "fast_food",
      "cuisine": "juice",
      "takeaway": "yes",
      "angle": 24.55709134212953
    },
    {
      "id": 67407,
      "geometry": "POINT (-97.611435 35.546958)",
      "poi_name": "Subway",
      "osm_id": 11234901010,
      "amenity": "fast_food",
      "cuisine": "sandwich",
      "takeaway": "yes",
      "angle": 26.701530860001235
    },
    {
      "id": 67408,
      "geometry": "POINT (-97.616849 35.549112)",
      "poi_name": "Slim Chicken",
      "osm_id": 11234901017,
      "amenity": "fast_food",
      "angle": 25.090721649091773
    },
    {
      "id": 67872,
      "geometry": "POINT (-97.648199 35.462191)",
      "poi_name": "Spirals Hot Dogs & More",
      "osm_id": 11251630775,
      "amenity": "fast_food",
      "cuisine": "hot_dog",
      "addr_state": "OK",
      "addr_city": "Oklahoma City",
      "addr_postcode": "73127",
      "addr_street": "West Reno Avenue",
      "addr_housenumber": "7624",
      "angle": 34.204792586999496
    },
    {
      "id": 67489,
      "geometry": "POINT (-97.611285 35.546911)",
      "poi_name": "WingStreet",
      "osm_id": 11237192178,
      "amenity": "fast_food",
      "cuisine": "wings",
      "takeaway": "yes",
      "angle": 26.74420708662896
    },
    {
      "id": 67490,
      "geometry": "POINT (-97.617066 35.548307)",
      "poi_name": "McDonald's",
      "osm_id": 11237192187,
      "amenity": "fast_food",
      "cuisine": "burger",
      "website": "https://www.mcdonalds.com/us/en-us/location/ok/oklahoma-city/5812-northwest-expy/2634.html",
      "takeaway": "yes",
      "angle": 25.15052911995005
    },
    {
      "id": 67491,
      "geometry": "POINT (-97.616645 35.548146)",
      "poi_name": "Jimmy John's",
      "osm_id": 11237192188,
      "amenity": "fast_food",
      "cuisine": "sandwich",
      "takeaway": "yes",
      "official_name": "Jimmy John's Gourmet Sandwiches",
      "angle": 25.27527399246091
    },
    {
      "id": 67873,
      "geometry": "POINT (-97.648528 35.462202)",
      "poi_name": "Auntie Anne's",
      "osm_id": 11251630776,
      "amenity": "fast_food",
      "cuisine": "pretzel",
      "phone": "+1 405 896 0869",
      "takeaway": "yes",
      "addr_state": "OK",
      "addr_city": "Oklahoma City",
      "addr_postcode": "73127",
      "addr_street": "West Reno Avenue",
      "addr_housenumber": "7624",
      "angle": 34.053151309832856
    },
    {
      "id": 68044,
      "geometry": "POINT (-97.648945 35.46188)",
      "poi_name": "Great American Cookies",
      "osm_id": 11258358433,
      "amenity": "fast_food",
      "cuisine": "cookies",
      "phone": "+1 405 491 0094",
      "takeaway": "yes",
      "drive_through": "no",
      "addr_state": "OK",
      "addr_city": "Oklahoma City",
      "addr_postcode": "73127",
      "addr_street": "West Reno Avenue",
      "addr_housenumber": "7624",
      "angle": 33.98503245913968
    },
    {
      "id": 68076,
      "geometry": "POINT (-97.56604 35.540018)",
      "poi_name": "Jersey Mike's Subs",
      "osm_id": 11259349541,
      "amenity": "fast_food",
      "cuisine": "sandwich",
      "takeaway": "yes",
      "addr_state": "OK",
      "addr_city": "Oklahoma City",
      "addr_postcode": "73116",
      "addr_street": "North May Avenue",
      "angle": 37.755400646045445
    },
    {
      "id": 68637,
      "geometry": "POINT (-97.600728 35.511873)",
      "poi_name": "Taco Bueno",
      "osm_id": 11278570116,
      "amenity": "fast_food",
      "cuisine": "mexican",
      "wheelchair": "yes",
      "opening_hours": "10:30-23:00; Fr,Sa 09:00-12:00",
      "website": "https://www.tacobueno.com",
      "phone": "1-405-947-4789",
      "takeaway": "yes",
      "drive_through": "yes",
      "outdoor_seating": "no",
      "angle": 35.786589747717024
    },
    {
      "id": 68698,
      "geometry": "POINT (-97.599103 35.511001)",
      "poi_name": "Dunkin' Donuts",
      "osm_id": 11281909393,
      "amenity": "fast_food",
      "cuisine": "donut;coffee_shop",
      "wheelchair": "yes",
      "takeaway": "yes",
      "drive_through": "yes",
      "outdoor_seating": "no",
      "angle": 36.39455008212136
    },
    {
      "id": 71052,
      "geometry": "POINT (-97.637917 35.555722)",
      "poi_name": "Wingstop",
      "osm_id": 11380283373,
      "amenity": "fast_food",
      "cuisine": "wings",
      "takeaway": "yes",
      "angle": 19.04658184731905
    },
    {
      "id": 68706,
      "geometry": "POINT (-97.609841 35.511715)",
      "poi_name": "Taco Bell",
      "osm_id": 11282099665,
      "amenity": "fast_food",
      "cuisine": "tex-mex",
      "wheelchair": "yes",
      "website": "https://locations.tacobell.com/ok/oklahoma-city/4839-nw-39th-street.html",
      "phone": "(405) 787-5043",
      "takeaway": "yes",
      "drive_through": "yes",
      "delivery": "yes",
      "angle": 33.43873961741386
    },
    {
      "id": 69082,
      "geometry": "POINT (-97.595414 35.511176)",
      "poi_name": "Sonic",
      "osm_id": 11294521760,
      "amenity": "fast_food",
      "cuisine": "burger",
      "wheelchair": "yes",
      "opening_hours": "07:00-22:00",
      "website": "https://www.sonicdrivein.com/locations/us/ok/oklahoma-city/4216-n-w--39th-street/store-1602/",
      "phone": "(405) 947-0700",
      "takeaway": "yes",
      "drive_through": "yes",
      "outdoor_seating": "yes",
      "delivery": "yes",
      "angle": 37.272567846078154
    },
    {
      "id": 70366,
      "geometry": "POINT (-97.600831 35.522928)",
      "poi_name": "Little Caesars",
      "osm_id": 11360384907,
      "amenity": "fast_food",
      "cuisine": "pizza",
      "wheelchair": "yes",
      "website": "https://littlecaesars.com/en-us/store/2020/",
      "takeaway": "yes",
      "drive_through": "no",
      "outdoor_seating": "no",
      "angle": 33.422132052925214
    },
    {
      "id": 70367,
      "geometry": "POINT (-97.599742 35.537132)",
      "poi_name": "Sonic",
      "osm_id": 11360384914,
      "amenity": "fast_food",
      "cuisine": "burger",
      "takeaway": "yes",
      "drive_through": "yes",
      "outdoor_seating": "yes",
      "angle": 31.045350034439387
    },
    {
      "id": 71053,
      "geometry": "POINT (-97.636697 35.556544)",
      "poi_name": "Qdoba",
      "osm_id": 11380283376,
      "amenity": "fast_food",
      "cuisine": "mexican",
      "website": "https://locations.qdoba.com/us/ok/oklahoma-city/7002-northwest-expressway.html",
      "takeaway": "yes",
      "official_name": "Qdoba Mexican Grill",
      "angle": 19.26603852271956
    },
    {
      "id": 71068,
      "geometry": "POINT (-97.636664 35.595018)",
      "poi_name": "Little Caesars",
      "osm_id": 11380432672,
      "amenity": "fast_food",
      "cuisine": "pizza",
      "website": "https://littlecaesars.com/en-us/store/2026/",
      "takeaway": "yes",
      "angle": 15.840847292027677
    },
    {
      "id": 72370,
      "geometry": "POINT (-97.530706 35.464748)",
      "poi_name": "Laredo Taco Company",
      "osm_id": 11423712719,
      "amenity": "fast_food",
      "cuisine": "tex-mex",
      "website": "https://www.laredotacocompany.com/",
      "takeaway": "yes",
      "angle": 62.845059430866826
    },
    {
      "id": 71202,
      "geometry": "POINT (-97.549866 35.594993)",
      "poi_name": "A&W",
      "osm_id": 11384467347,
      "amenity": "fast_food",
      "cuisine": "burger",
      "website": "https://awrestaurants.com/locations/oklahoma/oklahoma-city/2101-nw-122nd-st/",
      "takeaway": "yes",
      "angle": 32.22606438817744
    },
    {
      "id": 71203,
      "geometry": "POINT (-97.549754 35.594991)",
      "poi_name": "Long John Silver's",
      "osm_id": 11384467348,
      "amenity": "fast_food",
      "cuisine": "seafood",
      "takeaway": "yes",
      "angle": 32.24455008029785
    },
    {
      "id": 75078,
      "geometry": "POINT (-97.396634 35.150685)",
      "poi_name": "Subway",
      "osm_id": 9710028984,
      "amenity": "fast_food",
      "cuisine": "sandwich",
      "takeaway": "yes",
      "angle": 133.1557229813374
    },
    {
      "id": 80280,
      "geometry": "POINT (-97.477173 35.530637)",
      "poi_name": "McDonald's",
      "osm_id": 872147637,
      "amenity": "fast_food",
      "cuisine": "burger",
      "website": "https://www.mcdonalds.com/us/en-us/location/ok/oklahoma-city/5815-north-martin-luther-king-avenue/10325.html",
      "takeaway": "yes",
      "angle": 53.33989407610039
    },
    {
      "id": 80281,
      "geometry": "POINT (-97.477476 35.534014)",
      "poi_name": "Sonic",
      "osm_id": 872147651,
      "amenity": "fast_food",
      "cuisine": "burger",
      "website": "https://www.sonicdrivein.com/",
      "drive_through": "yes",
      "angle": 52.64728725410812
    },
    {
      "id": 81069,
      "geometry": "POINT (-97.49089 35.325441)",
      "poi_name": "Panda Express",
      "osm_id": 1601999718,
      "amenity": "fast_food",
      "cuisine": "chinese",
      "takeaway": "yes",
      "angle": 110.08844028177276
    },
    {
      "id": 80571,
      "geometry": "POINT (-97.651631 35.5633)",
      "poi_name": "WingStreet",
      "osm_id": 883241829,
      "amenity": "fast_food",
      "cuisine": "wings",
      "opening_hours": "Su-Th 11:00-22:00; Fr-Sa11:00-23:00",
      "website": "https://locations.pizzahut.com/ok/oklahoma-city/7720-nw-expressway",
      "phone": "+1-405-722-2300",
      "takeaway": "yes",
      "addr_state": "OK",
      "addr_city": "Oklahoma City",
      "addr_street": "Northwest Expressway",
      "addr_housenumber": "7720",
      "angle": 14.85205267250215
    },
    {
      "id": 80572,
      "geometry": "POINT (-97.619555 35.523207)",
      "poi_name": "Del Rancho Drive inn",
      "osm_id": 883241872,
      "amenity": "fast_food",
      "cuisine": "burger",
      "wheelchair": "no",
      "drive_through": "yes",
      "outdoor_seating": "yes",
      "angle": 28.511003494715144
    },
    {
      "id": 80574,
      "geometry": "POINT (-97.638824 35.556565)",
      "poi_name": "Schlotzsky's",
      "osm_id": 883241904,
      "amenity": "fast_food",
      "cuisine": "sandwich",
      "phone": "+1-405-722-3279",
      "takeaway": "yes",
      "addr_state": "OK",
      "addr_city": "Oklahoma City",
      "addr_postcode": "73132",
      "addr_street": "North Rockwell Avenue",
      "addr_housenumber": "8425",
      "angle": 18.72745057901256
    },
    {
      "id": 81080,
      "geometry": "POINT (-97.242206 34.70856)",
      "poi_name": "Burger King",
      "osm_id": 1603095830,
      "amenity": "fast_food",
      "cuisine": "burger",
      "website": "https://www.bk.com/store-locator/store/restaurant_11699",
      "phone": "+1-405-238-3135",
      "takeaway": "yes",
      "drive_through": "yes",
      "addr_state": "OK",
      "addr_city": "Pauls Valley",
      "addr_postcode": "73075",
      "addr_street": "Airline Road",
      "addr_housenumber": "1601",
      "angle": 150.56391378349542
    },
    {
      "id": 81081,
      "geometry": "POINT (-97.374901 34.981696)",
      "poi_name": "Long John Silver's",
      "osm_id": 1603095831,
      "amenity": "fast_food",
      "cuisine": "fish",
      "angle": 146.15690906384611
    },
    {
      "id": 86174,
      "geometry": "POINT (-97.72415 35.466091)",
      "poi_name": "McDonald's",
      "osm_id": 1922113361,
      "amenity": "fast_food",
      "cuisine": "burger",
      "website": "https://www.mcdonalds.com/us/en-us/location/ok/oklahoma-city/4-s-mustang-rd/27721.html",
      "takeaway": "yes",
      "drive_through": "yes",
      "angle": 349.87804628267287
    },
    {
      "id": 81805,
      "geometry": "POINT (-97.493843 35.260209)",
      "poi_name": "Subway",
      "osm_id": 1666788714,
      "amenity": "fast_food",
      "cuisine": "sandwich",
      "takeaway": "yes",
      "angle": 126.59130315885929
    },
    {
      "id": 81806,
      "geometry": "POINT (-97.493839 35.260558)",
      "poi_name": "Asian Cuisine",
      "osm_id": 1666788817,
      "amenity": "fast_food",
      "cuisine": "chinese",
      "angle": 126.51747339167548
    },
    {
      "id": 86175,
      "geometry": "POINT (-97.723618 35.466159)",
      "poi_name": "Taco Bell",
      "osm_id": 1922113547,
      "amenity": "fast_food",
      "cuisine": "tex-mex",
      "website": "https://locations.tacobell.com/ok/yukon/11303-westmark-drive.html",
      "takeaway": "yes",
      "angle": 350.2070273610378
    },
    {
      "id": 86176,
      "geometry": "POINT (-97.760901 35.489932)",
      "poi_name": "McDonald's",
      "osm_id": 1922113602,
      "amenity": "fast_food",
      "cuisine": "burger",
      "website": "https://www.mcdonalds.com/us/en-us/location/ok/yukon/1252-garth-brooks-blvd/13298.html",
      "takeaway": "yes",
      "drive_through": "yes",
      "angle": 336.3365038309059
    },
    {
      "id": 86178,
      "geometry": "POINT (-97.725514 35.465678)",
      "poi_name": "Braum's",
      "osm_id": 1922113632,
      "amenity": "fast_food",
      "cuisine": "ice_cream",
      "shop": "dairy",
      "takeaway": "yes",
      "angle": 349.0007403064222
    },
    {
      "id": 86298,
      "geometry": "POINT (-97.759543 35.488938)",
      "poi_name": "KFC",
      "osm_id": 1925776808,
      "amenity": "fast_food",
      "cuisine": "chicken",
      "website": "https://locations.kfc.com/ok/yukon/1301-garth-brooks-blvd",
      "takeaway": "yes",
      "angle": 336.6668777450639
    },
    {
      "id": 86299,
      "geometry": "POINT (-97.761174 35.488956)",
      "poi_name": "Braum's",
      "osm_id": 1925776813,
      "amenity": "fast_food",
      "cuisine": "ice_cream",
      "shop": "dairy",
      "takeaway": "yes",
      "angle": 336.018853547921
    },
    {
      "id": 86302,
      "geometry": "POINT (-97.760851 35.480789)",
      "poi_name": "Chick-fil-A",
      "osm_id": 1925784922,
      "amenity": "fast_food",
      "cuisine": "chicken",
      "takeaway": "yes",
      "drive_through": "yes",
      "angle": 334.25515054863456
    },
    {
      "id": 86502,
      "geometry": "POINT (-97.548568 35.623191)",
      "poi_name": "RED BARON PIZZA",
      "osm_id": 1935524142,
      "amenity": "fast_food",
      "cuisine": "pizza",
      "addr_street": "NW 150TH STREET",
      "angle": 29.17594659767848
    },
    {
      "id": 86503,
      "geometry": "POINT (-97.55006 35.637431)",
      "poi_name": "Sonic",
      "osm_id": 1935528244,
      "amenity": "fast_food",
      "cuisine": "burger",
      "takeaway": "yes",
      "addr_postcode": "73013",
      "addr_street": "NORTH PENNSYLVANIA AVE",
      "angle": 27.524497920834563
    },
    {
      "id": 86850,
      "geometry": "POINT (-97.443556 35.211394)",
      "poi_name": "Jimmy John's",
      "osm_id": 1953895008,
      "amenity": "fast_food",
      "cuisine": "sandwich",
      "website": "https://www.jimmyjohns.com/",
      "takeaway": "yes",
      "official_name": "Jimmy John's Gourmet Sandwiches",
      "angle": 129.53812524683087
    },
    {
      "id": 90193,
      "geometry": "POINT (-97.565354 35.506508)",
      "poi_name": "Jersey Mike's Subs",
      "osm_id": 1981758423,
      "amenity": "fast_food",
      "cuisine": "sandwich",
      "takeaway": "yes",
      "angle": 45.09837612440756
    },
    {
      "id": 86807,
      "geometry": "POINT (-97.516907 35.469475)",
      "poi_name": "Ground Floor Cafe",
      "osm_id": 1952802570,
      "amenity": "fast_food",
      "cuisine": "american",
      "internet_access": "wlan",
      "phone": "405-232-2233",
      "addr_postcode": "73102",
      "addr_street": "North Robinson Avenue",
      "addr_housenumber": "211",
      "angle": 63.14753515854547
    },
    {
      "id": 86808,
      "geometry": "POINT (-97.517235 35.469488)",
      "poi_name": "City Bites",
      "osm_id": 1952803225,
      "amenity": "fast_food",
      "cuisine": "sandwich",
      "angle": 63.10422373563031
    },
    {
      "id": 86811,
      "geometry": "POINT (-97.51784 35.469592)",
      "poi_name": "Subway",
      "osm_id": 1952813704,
      "amenity": "fast_food",
      "cuisine": "sandwich",
      "takeaway": "yes",
      "angle": 63.000378438746274
    },
    {
      "id": 86819,
      "geometry": "POINT (-97.515695 35.467846)",
      "poi_name": "Subway",
      "osm_id": 1953043894,
      "amenity": "fast_food",
      "cuisine": "sandwich",
      "takeaway": "yes",
      "angle": 63.76952687296797
    },
    {
      "id": 86826,
      "geometry": "POINT (-97.51784 35.469518)",
      "poi_name": "The Cow Calf-Hay",
      "osm_id": 1953090528,
      "amenity": "fast_food",
      "cuisine": "burger",
      "opening_hours": "Mo-Fr 10:00-15:00",
      "angle": 63.02178274514314
    },
    {
      "id": 86834,
      "geometry": "POINT (-97.444222 35.209637)",
      "poi_name": "Quiznos",
      "osm_id": 1953462761,
      "amenity": "fast_food",
      "cuisine": "sandwich",
      "takeaway": "yes",
      "angle": 129.88398047923323
    },
    {
      "id": 86835,
      "geometry": "POINT (-97.44416 35.209756)",
      "poi_name": "Chick-fil-A",
      "osm_id": 1953464029,
      "amenity": "fast_food",
      "cuisine": "chicken",
      "takeaway": "yes",
      "angle": 129.85893684411775
    },
    {
      "id": 86842,
      "geometry": "POINT (-97.443566 35.211748)",
      "poi_name": "Chipotle",
      "osm_id": 1953639962,
      "amenity": "fast_food",
      "cuisine": "mexican",
      "website": "https://www.chipotle.com/",
      "takeaway": "yes",
      "official_name": "Chipotle Mexican Grill",
      "angle": 129.48355787506893
    },
    {
      "id": 86987,
      "geometry": "POINT (-97.743788 35.508523)",
      "poi_name": "McDonald's",
      "osm_id": 1962203345,
      "amenity": "fast_food",
      "cuisine": "burger",
      "website": "https://www.mcdonalds.com/us/en-us/location/ok/yukon/31-w-main/4181.html",
      "takeaway": "yes",
      "angle": 345.9424773675929
    },
    {
      "id": 86988,
      "geometry": "POINT (-97.75508 35.508196)",
      "poi_name": "Sonic",
      "osm_id": 1962210638,
      "amenity": "fast_food",
      "cuisine": "burger",
      "website": "https://www.sonicdrivein.com/",
      "angle": 341.7577469605887
    },
    {
      "id": 90982,
      "geometry": "POINT (-97.424908 35.862306)",
      "poi_name": "Subways",
      "osm_id": 2031095542,
      "amenity": "fast_food",
      "cuisine": "sandwich",
      "angle": 25.997041941794514
    },
    {
      "id": 91081,
      "geometry": "POINT (-97.396107 35.879002)",
      "poi_name": "Subway",
      "osm_id": 2039337385,
      "amenity": "fast_food",
      "cuisine": "sandwich",
      "opening_hours": "Mo-Su 08:00-22:00",
      "phone": "+1-405-260-0850",
      "takeaway": "yes",
      "drive_through": "no",
      "addr_state": "OK",
      "addr_city": "Guthrie",
      "addr_postcode": "73044",
      "addr_street": "East Noble Avenue",
      "addr_housenumber": "2530",
      "angle": 27.420152062200472
    },
    {
      "id": 91039,
      "geometry": "POINT (-97.540017 35.56524)",
      "poi_name": "Sonic",
      "osm_id": 2036061578,
      "amenity": "fast_food",
      "cuisine": "burger",
      "website": "https://www.sonicdrivein.com/",
      "drive_through": "yes",
      "addr_postcode": "73114",
      "addr_street": "West Britton Road",
      "angle": 38.09572956398235
    },
    {
      "id": 94000,
      "geometry": "POINT (-97.491066 35.324924)",
      "poi_name": "Freddy's",
      "osm_id": 2198922903,
      "amenity": "fast_food",
      "cuisine": "ice_cream;burger",
      "website": "http://www.FreddysUSA.com",
      "internet_access": "no",
      "takeaway": "yes",
      "drive_through": "yes",
      "official_name": "Freddys Frozen Custard & Steakburgers",
      "outdoor_seating": "yes",
      "delivery": "no",
      "addr_city": "Moore",
      "angle": 110.25055085165846
    },
    {
      "id": 91706,
      "geometry": "POINT (-96.942699 35.304703)",
      "poi_name": "Sonic",
      "osm_id": 2084332782,
      "amenity": "fast_food",
      "angle": 97.58338263429576
    },
    {
      "id": 92061,
      "geometry": "POINT (-97.492212 35.420446)",
      "poi_name": "Subway",
      "osm_id": 2103202597,
      "amenity": "fast_food",
      "cuisine": "sandwich",
      "internet_access": "no",
      "takeaway": "yes",
      "outdoor_seating": "no",
      "angle": 80.33856723878823
    },
    {
      "id": 93456,
      "geometry": "POINT (-97.488697 35.233467)",
      "poi_name": "Papa John's",
      "osm_id": 2166228417,
      "amenity": "fast_food",
      "cuisine": "pizza",
      "takeaway": "yes",
      "angle": 131.1382433398428
    },
    {
      "id": 106015,
      "geometry": "POINT (-97.62016 35.461445)",
      "poi_name": "Firehouse Subs",
      "osm_id": 8660034028,
      "amenity": "fast_food",
      "cuisine": "sandwich",
      "takeaway": "yes",
      "addr_state": "OK",
      "addr_city": "Oklahoma City",
      "addr_street": "Southwest 3rd Street",
      "addr_housenumber": "5924",
      "angle": 45.297456805785906
    },
    {
      "id": 95509,
      "geometry": "POINT (-97.423796 35.191313)",
      "poi_name": "Qdoba",
      "osm_id": 6400003536,
      "amenity": "fast_food",
      "cuisine": "mexican",
      "website": "https://locations.qdoba.com/us/ok/norman/2620-classen-blvd.html",
      "takeaway": "yes",
      "drive_through": "no",
      "official_name": "Qdoba Mexican Grill",
      "angle": 130.4902070377018
    },
    {
      "id": 96368,
      "geometry": "POINT (-97.618132 35.462012)",
      "poi_name": "Panda Express",
      "osm_id": 6431098624,
      "amenity": "fast_food",
      "cuisine": "chinese",
      "takeaway": "yes",
      "addr_state": "OK",
      "addr_city": "Oklahoma City",
      "addr_street": "South MacArthur Boulevard",
      "addr_housenumber": "500",
      "angle": 45.724168153338084
    },
    {
      "id": 106945,
      "geometry": "POINT (-97.481242 35.651544)",
      "poi_name": "Arby's",
      "osm_id": 3524686102,
      "amenity": "fast_food",
      "cuisine": "sandwich",
      "angle": 35.288476983850394
    },
    {
      "id": 110335,
      "geometry": "POINT (-96.870608 35.710147)",
      "poi_name": "Sonic",
      "osm_id": 3698041393,
      "amenity": "fast_food",
      "cuisine": "burger",
      "takeaway": "yes",
      "angle": 64.71979106864421
    },
    {
      "id": 109150,
      "geometry": "POINT (-97.545951 35.37643)",
      "poi_name": "Los Tacos",
      "osm_id": 3651965871,
      "amenity": "fast_food",
      "cuisine": "mexican",
      "website": "http://lostacosokctwo.com/",
      "phone": "(405) 691-6007",
      "addr_state": "OK",
      "addr_city": "Oklahoma City",
      "addr_postcode": "73159",
      "addr_street": "Southwest 89th Street",
      "addr_housenumber": "1620",
      "angle": 96.06517985778224
    },
    {
      "id": 113945,
      "geometry": "POINT (-97.258804 34.739874)",
      "poi_name": "Taco Bell",
      "osm_id": 3858500387,
      "amenity": "fast_food",
      "cuisine": "tex-mex",
      "opening_hours": "Su-Th 10:00-21:00; Fr-Sa 19:00-22:00",
      "takeaway": "yes",
      "addr_state": "OK",
      "addr_city": "Pauls Valley",
      "addr_postcode": "73075",
      "addr_street": "West Grant Avenue",
      "addr_housenumber": "2609",
      "angle": 150.3113380881565
    },
    {
      "id": 111000,
      "geometry": "POINT (-97.565909 35.361919)",
      "poi_name": "McDonald's",
      "osm_id": 3726911231,
      "amenity": "fast_food",
      "cuisine": "burger",
      "website": "https://www.mcdonalds.com/us/en-us/location/ok/oklahoma-city/10609-s-may-ave/30172.html",
      "takeaway": "yes",
      "angle": 103.83951488603158
    },
    {
      "id": 113946,
      "geometry": "POINT (-97.258877 34.73988)",
      "poi_name": "KFC",
      "osm_id": 3858516716,
      "amenity": "fast_food",
      "cuisine": "chicken",
      "opening_hours": "Su-Th 10:00-21:00; Fr-Sa 19:00-22:00",
      "takeaway": "yes",
      "addr_state": "OK",
      "addr_city": "Pauls Valley",
      "addr_postcode": "73075",
      "addr_street": "West Grant Avenue",
      "addr_housenumber": "2609",
      "angle": 150.3151131809721
    },
    {
      "id": 113948,
      "geometry": "POINT (-97.4242 35.388296)",
      "poi_name": "Popeyes",
      "osm_id": 3858914398,
      "amenity": "fast_food",
      "cuisine": "chicken",
      "opening_hours": "Su-Th 10:30-21:00; Fr-Sa 10:30-22:00",
      "takeaway": "yes",
      "official_name": "Popeyes Louisiana Kitchen",
      "addr_state": "OK",
      "addr_city": "Oklahoma City",
      "addr_postcode": "73135",
      "addr_street": "South Sooner Road",
      "addr_housenumber": "7801",
      "angle": 90.48942658846192
    },
    {
      "id": 113949,
      "geometry": "POINT (-97.422926 35.388504)",
      "poi_name": "McDonald's",
      "osm_id": 3858932827,
      "amenity": "fast_food",
      "cuisine": "burger",
      "opening_hours": "06:00-22:00",
      "website": "https://www.mcdonalds.com/us/en-us/location/ok/oklahoma-city/7800-s-sooner-rd/20475.html",
      "takeaway": "yes",
      "drive_through": "yes",
      "addr_state": "OK",
      "addr_city": "Oklahoma City",
      "addr_postcode": "73135",
      "addr_street": "South Sooner Road",
      "addr_housenumber": "7800",
      "angle": 90.4353983362322
    },
    {
      "id": 117489,
      "geometry": "POINT (-97.323615 35.663934)",
      "poi_name": "Subway",
      "osm_id": 8997208811,
      "amenity": "fast_food",
      "cuisine": "sandwich",
      "opening_hours": "Mo-Sa 09:00-20:00; Su 10:00-19:00",
      "website": "https://restaurants.subway.com/united-states/ok/arcadia/228-odor-st",
      "phone": "+1 (405) 396-2754",
      "takeaway": "yes",
      "drive_through": "no",
      "outdoor_seating": "yes",
      "addr_state": "OK",
      "addr_city": "Arcadia",
      "addr_postcode": "73007",
      "addr_street": "North Odor Street",
      "addr_housenumber": "228",
      "angle": 48.847000608454366
    },
    {
      "id": 117385,
      "geometry": "POINT (-98.394654 35.840246)",
      "poi_name": "Chester's",
      "osm_id": 8991465864,
      "amenity": "fast_food",
      "cuisine": "chicken",
      "takeaway": "yes",
      "angle": 308.913300925324
    },
    {
      "id": 117386,
      "geometry": "POINT (-98.394652 35.840178)",
      "poi_name": "Subway",
      "osm_id": 8991465865,
      "amenity": "fast_food",
      "cuisine": "sandwich",
      "takeaway": "yes",
      "angle": 308.9091447623159
    },
    {
      "id": 118560,
      "geometry": "POINT (-97.529804 35.492723)",
      "poi_name": "Someplace Else Deli and Bakery",
      "osm_id": 9051354036,
      "amenity": "fast_food",
      "angle": 54.89936557122095
    },
    {
      "id": 130525,
      "geometry": "POINT (-97.597675 34.835179)",
      "poi_name": "McDonald's",
      "osm_id": 9874993324,
      "amenity": "fast_food",
      "cuisine": "burger",
      "website": "https://www.mcdonalds.com/us/en-us/location/ok/lindsay/407-linwood-plz-walmart/18213.html",
      "takeaway": "yes",
      "drive_through": "yes",
      "angle": 170.72500098701653
    },
    {
      "id": 128092,
      "geometry": "POINT (-97.447649 35.201293)",
      "poi_name": "Papa John's",
      "osm_id": 8121225276,
      "amenity": "fast_food",
      "cuisine": "pizza",
      "website": "https://locations.papajohns.com/united-states/ok/73072/norman/1111-elm-ave",
      "phone": "+14055797900",
      "takeaway": "yes",
      "addr_state": "OK",
      "addr_city": "Norman",
      "addr_postcode": "73072",
      "addr_street": "Elm Avenue",
      "addr_housenumber": "1111",
      "angle": 131.53157495115983
    },
    {
      "id": 133748,
      "geometry": "POINT (-97.493416 35.321995)",
      "poi_name": "Taco Bell",
      "osm_id": 10006116294,
      "amenity": "fast_food",
      "cuisine": "tex-mex",
      "takeaway": "yes",
      "angle": 111.28924263846642
    },
    {
      "id": 133268,
      "geometry": "POINT (-97.486086 35.622573)",
      "poi_name": "Schlotzsky's",
      "osm_id": 9984444159,
      "amenity": "fast_food",
      "cuisine": "sandwich",
      "phone": "+1-405-471-5799",
      "takeaway": "yes",
      "addr_state": "OK",
      "addr_city": "Edmond",
      "addr_postcode": "73013",
      "addr_street": "South Broadway",
      "addr_housenumber": "3314",
      "angle": 37.930345400097
    },
    {
      "id": 133289,
      "geometry": "POINT (-97.549166 35.600508)",
      "poi_name": "Schlotzsky's",
      "osm_id": 9986763509,
      "amenity": "fast_food",
      "cuisine": "sandwich",
      "phone": "+1-405-755-8355",
      "takeaway": "yes",
      "addr_state": "OK",
      "addr_city": "Oklahoma City",
      "addr_postcode": "73120",
      "addr_street": "North Pennsylvania Avenue",
      "addr_housenumber": "12824",
      "angle": 31.65342646591206
    },
    {
      "id": 134605,
      "geometry": "POINT (-97.557625 35.613225)",
      "poi_name": "Great American Cookies",
      "osm_id": 11478550715,
      "amenity": "fast_food",
      "cuisine": "cookies",
      "takeaway": "yes",
      "angle": 28.819951309524132
    },
    {
      "id": 134607,
      "geometry": "POINT (-97.55816 35.612908)",
      "poi_name": "Charleys Philly Steaks",
      "osm_id": 11478550735,
      "amenity": "fast_food",
      "cuisine": "sandwich",
      "takeaway": "yes",
      "angle": 28.768180614159782
    },
    {
      "id": 134608,
      "geometry": "POINT (-97.558553 35.612909)",
      "poi_name": "Chick-fil-A",
      "osm_id": 11478550736,
      "amenity": "fast_food",
      "cuisine": "chicken",
      "takeaway": "yes",
      "angle": 28.704585721676168
    },
    {
      "id": 134614,
      "geometry": "POINT (-97.559481 35.61265)",
      "poi_name": "Auntie Anne's",
      "osm_id": 11478550781,
      "amenity": "fast_food",
      "cuisine": "pretzel",
      "takeaway": "yes",
      "angle": 28.582302599914076
    },
    {
      "id": 142757,
      "geometry": "POINT (-97.444225 35.209772)",
      "poi_name": "Baja Fresh",
      "osm_id": 6322065170,
      "amenity": "fast_food",
      "cuisine": "mexican",
      "takeaway": "yes",
      "drive_through": "no",
      "official_name": "Baja Fresh Mexican Grill",
      "angle": 129.863305600949
    },
    {
      "id": 143487,
      "geometry": "POINT (-97.759828 35.49149)",
      "poi_name": "A&W",
      "osm_id": 6342293985,
      "amenity": "fast_food",
      "cuisine": "burger",
      "website": "https://awrestaurants.com/locations/oklahoma/yukon/1109-s-garth-brooks-blvd/",
      "takeaway": "yes",
      "angle": 337.0842896213507
    },
    {
      "id": 143488,
      "geometry": "POINT (-97.759753 35.491504)",
      "poi_name": "Long John Silver's",
      "osm_id": 6342293986,
      "amenity": "fast_food",
      "cuisine": "seafood",
      "takeaway": "yes",
      "angle": 337.11667696612835
    },
    {
      "id": 145560,
      "geometry": "POINT (-97.511932 35.391073)",
      "poi_name": "Jersey Mike's Subs",
      "osm_id": 7367651236,
      "amenity": "fast_food",
      "cuisine": "sandwich",
      "takeaway": "yes",
      "addr_state": "OK",
      "addr_city": "Oklahoma City",
      "addr_postcode": "73139",
      "addr_street": "South Santa Fe Avenue",
      "addr_housenumber": "7500",
      "angle": 89.7784625564591
    },
    {
      "id": 156363,
      "geometry": "POINT (-97.549972 35.494298)",
      "poi_name": "Subway",
      "osm_id": 4650946668,
      "amenity": "fast_food",
      "cuisine": "sandwich",
      "takeaway": "yes",
      "angle": 51.17561038145389
    },
    {
      "id": 147218,
      "geometry": "POINT (-96.929132 35.382277)",
      "poi_name": "McDonald's",
      "osm_id": 7515874342,
      "amenity": "fast_food",
      "cuisine": "burger",
      "website": "https://www.mcdonalds.com/us/en-us/location/ok/shawnee/4849-north-kickapoo-street/10857.html",
      "takeaway": "yes",
      "angle": 90.52352129741325
    },
    {
      "id": 147334,
      "geometry": "POINT (-97.439927 35.585624)",
      "poi_name": "Twisted Pretzel",
      "osm_id": 7523905205,
      "amenity": "fast_food",
      "angle": 48.23678256642437
    },
    {
      "id": 148296,
      "geometry": "POINT (-97.440836 35.227987)",
      "poi_name": "Sonic",
      "osm_id": 3942736913,
      "amenity": "fast_food",
      "cuisine": "burger",
      "takeaway": "yes",
      "angle": 126.55314753419567
    },
    {
      "id": 148733,
      "geometry": "POINT (-97.469282 35.218766)",
      "poi_name": "Dairy Queen",
      "osm_id": 3976960479,
      "amenity": "fast_food",
      "cuisine": "ice_cream;burger",
      "operator": "Dairy Queen",
      "takeaway": "yes",
      "outdoor_seating": "yes",
      "angle": 131.25747218633302
    },
    {
      "id": 154013,
      "geometry": "POINT (-97.653601 35.463898)",
      "poi_name": "Braum's",
      "osm_id": 4219032082,
      "amenity": "fast_food",
      "cuisine": "american;ice_cream",
      "shop": "dairy",
      "angle": 31.11525342566808
    },
    {
      "id": 154014,
      "geometry": "POINT (-97.655151 35.463774)",
      "poi_name": "McDonald's",
      "osm_id": 4219032083,
      "amenity": "fast_food",
      "cuisine": "burger",
      "website": "https://www.mcdonalds.com/us/en-us/location/ok/oklahoma-city/201-s-council/5375.html",
      "takeaway": "yes",
      "angle": 30.425714484944447
    },
    {
      "id": 156408,
      "geometry": "POINT (-97.423176 35.395455)",
      "poi_name": "Sonic",
      "osm_id": 4654612008,
      "amenity": "fast_food",
      "cuisine": "burger",
      "opening_hours": "06:00-22:00",
      "takeaway": "yes",
      "drive_through": "yes",
      "outdoor_seating": "yes",
      "delivery": "no",
      "addr_state": "OK",
      "addr_city": "Oklahoma City",
      "addr_postcode": "73135",
      "addr_street": "South Sooner Road",
      "addr_housenumber": "7040",
      "angle": 88.72664245811987
    },
    {
      "id": 146931,
      "geometry": "POINT (-97.440014 35.585642)",
      "poi_name": "Sweet Caroline's",
      "osm_id": 7487720102,
      "amenity": "fast_food",
      "cuisine": "funnel_cake",
      "angle": 48.224879642535235
    },
    {
      "id": 151211,
      "geometry": "POINT (-97.514404 35.64009)",
      "poi_name": "Arby's",
      "osm_id": 4086035457,
      "amenity": "fast_food",
      "cuisine": "sandwich",
      "opening_hours": "Mo-Sa 10:00-23:00; Su 10:00-22:00",
      "angle": 32.29417645172439
    },
    {
      "id": 159930,
      "geometry": "POINT (-97.370328 35.463255)",
      "poi_name": "Little Caesars",
      "osm_id": 4811835484,
      "amenity": "fast_food",
      "cuisine": "pizza",
      "opening_hours": "11:00-23:00",
      "website": "https://littlecaesars.com/en-us/store/8743/",
      "takeaway": "yes",
      "addr_state": "OK",
      "addr_city": "Midwest City",
      "addr_postcode": "73130",
      "addr_street": "South Douglas Boulevard",
      "addr_housenumber": "108",
      "angle": 75.16277479749425
    },
    {
      "id": 156932,
      "geometry": "POINT (-97.566191 35.530156)",
      "poi_name": "Jimmy John's",
      "osm_id": 4677688272,
      "amenity": "fast_food",
      "cuisine": "sandwich",
      "takeaway": "yes",
      "official_name": "Jimmy John's Gourmet Sandwiches",
      "angle": 39.63662634893365
    },
    {
      "id": 156933,
      "geometry": "POINT (-97.566368 35.511823)",
      "poi_name": "Subway",
      "osm_id": 4677688273,
      "amenity": "fast_food",
      "cuisine": "sandwich",
      "takeaway": "yes",
      "angle": 43.6087336496004
    },
    {
      "id": 159623,
      "geometry": "POINT (-97.510923 35.667923)",
      "poi_name": "KFC",
      "osm_id": 4799985249,
      "amenity": "fast_food",
      "cuisine": "chicken",
      "website": "https://locations.kfc.com/ok/edmond/2107-w-danforth-rd",
      "takeaway": "yes",
      "angle": 30.05626148046116
    },
    {
      "id": 159624,
      "geometry": "POINT (-97.513251 35.66917)",
      "poi_name": "City Bites",
      "osm_id": 4799985253,
      "amenity": "fast_food",
      "cuisine": "sandwich",
      "angle": 29.650900794192783
    },
    {
      "id": 159625,
      "geometry": "POINT (-97.510509 35.667117)",
      "poi_name": "Jack in the Box",
      "osm_id": 4799986222,
      "amenity": "fast_food",
      "cuisine": "burger",
      "takeaway": "yes",
      "angle": 30.181065066468065
    },
    {
      "id": 159631,
      "geometry": "POINT (-97.530949 35.653571)",
      "poi_name": "Subway",
      "osm_id": 4799993006,
      "amenity": "fast_food",
      "cuisine": "sandwich",
      "takeaway": "yes",
      "angle": 28.735007686526128
    },
    {
      "id": 159632,
      "geometry": "POINT (-97.531187 35.653879)",
      "poi_name": "Marco's Pizza",
      "osm_id": 4799993008,
      "amenity": "fast_food",
      "cuisine": "pizza",
      "angle": 28.67418385404619
    },
    {
      "id": 160225,
      "geometry": "POINT (-97.481523 35.621975)",
      "poi_name": "Jason's Deli",
      "osm_id": 4827808716,
      "amenity": "fast_food",
      "angle": 38.569202509435165
    },
    {
      "id": 163502,
      "geometry": "POINT (-97.495996 35.333672)",
      "poi_name": "Dunkin'",
      "osm_id": 9421623795,
      "amenity": "fast_food",
      "cuisine": "donut;coffee_shop",
      "takeaway": "yes",
      "angle": 108.11735200947456
    },
    {
      "id": 160331,
      "geometry": "POINT (-97.724145 35.463387)",
      "poi_name": "Burger King",
      "osm_id": 4831266787,
      "amenity": "fast_food",
      "cuisine": "burger",
      "takeaway": "yes",
      "drive_through": "yes",
      "angle": 349.5129713885993
    },
    {
      "id": 180512,
      "geometry": "POINT (-97.5159 35.461703)",
      "poi_name": "Double Double",
      "osm_id": 10804938880,
      "amenity": "fast_food",
      "cuisine": "burger",
      "takeaway": "only",
      "drive_through": "no",
      "angle": 65.57933880730765
    },
    {
      "id": 163768,
      "geometry": "POINT (-97.510679 35.493568)",
      "poi_name": "Sonic",
      "osm_id": 9435131828,
      "amenity": "fast_food",
      "cuisine": "burger",
      "takeaway": "yes",
      "angle": 57.37959170421869
    },
    {
      "id": 163769,
      "geometry": "POINT (-97.494772 35.492659)",
      "poi_name": "Subway",
      "osm_id": 9435131836,
      "amenity": "fast_food",
      "cuisine": "sandwich",
      "takeaway": "yes",
      "angle": 59.58114508160146
    },
    {
      "id": 171247,
      "geometry": "POINT (-97.618574 35.549674)",
      "poi_name": "Zaxby's",
      "osm_id": 2367619129,
      "amenity": "fast_food",
      "cuisine": "chicken",
      "takeaway": "yes",
      "official_name": "Zaxby's Chicken Fingers & Buffalo Wings",
      "angle": 24.594744584945044
    },
    {
      "id": 171258,
      "geometry": "POINT (-97.575769 35.531166)",
      "poi_name": "Chipotle",
      "osm_id": 2368025680,
      "amenity": "fast_food",
      "cuisine": "mexican",
      "takeaway": "yes",
      "official_name": "Chipotle Mexican Grill",
      "angle": 37.480164493481645
    },
    {
      "id": 171532,
      "geometry": "POINT (-97.745721 35.65093)",
      "poi_name": "Sonic",
      "osm_id": 2377570578,
      "amenity": "fast_food",
      "cuisine": "burger",
      "angle": 353.19812166912277
    },
    {
      "id": 176049,
      "geometry": "POINT (-97.530293 35.529829)",
      "poi_name": "Sonic",
      "osm_id": 2550081828,
      "amenity": "fast_food",
      "cuisine": "burger",
      "website": "https://www.sonicdrivein.com/",
      "drive_through": "yes",
      "addr_street": "North Western Avenue",
      "angle": 46.13986215663715
    },
    {
      "id": 176584,
      "geometry": "POINT (-97.517189 35.469705)",
      "poi_name": "Old School Bagel Shop",
      "osm_id": 2563112895,
      "amenity": "fast_food",
      "cuisine": "sandwich",
      "angle": 63.04621130023589
    },
    {
      "id": 176586,
      "geometry": "POINT (-97.514826 35.468124)",
      "poi_name": "The Buzz",
      "osm_id": 2563315074,
      "amenity": "fast_food",
      "cuisine": "sandwich",
      "angle": 63.79021698566676
    },
    {
      "id": 177787,
      "geometry": "POINT (-97.638004 35.564551)",
      "poi_name": "Sonic",
      "osm_id": 2605399856,
      "amenity": "fast_food",
      "cuisine": "burger",
      "takeaway": "only",
      "angle": 18.121809423204297
    },
    {
      "id": 187251,
      "geometry": "POINT (-97.49262 35.479424)",
      "poi_name": "Chick-fil-A",
      "osm_id": 1044219472,
      "amenity": "fast_food",
      "angle": 63.1626782368988
    },
    {
      "id": 180701,
      "geometry": "POINT (-97.054788 35.681347)",
      "poi_name": "Subway",
      "osm_id": 10815098227,
      "amenity": "fast_food",
      "cuisine": "sandwich",
      "takeaway": "yes",
      "angle": 61.229357062174245
    },
    {
      "id": 215681,
      "geometry": "POINT (-97.607429 35.292301)",
      "poi_name": "Little Caesars",
      "osm_id": 5309507733,
      "amenity": "fast_food",
      "cuisine": "pizza",
      "website": "https://littlecaesars.com/en-us/store/7118/",
      "takeaway": "yes",
      "angle": 140.09089781981893
    },
    {
      "id": 190183,
      "geometry": "POINT (-97.421629 35.203416)",
      "poi_name": "Sonic",
      "osm_id": 1273100753,
      "amenity": "fast_food",
      "cuisine": "burger",
      "takeaway": "yes",
      "angle": 128.51530648254254
    },
    {
      "id": 190197,
      "geometry": "POINT (-97.424118 35.217555)",
      "poi_name": "Quiznos",
      "osm_id": 1275224707,
      "amenity": "fast_food",
      "cuisine": "sandwich",
      "angle": 126.58520931072395
    },
    {
      "id": 202807,
      "geometry": "POINT (-97.935575 35.029917)",
      "poi_name": "Braum's",
      "osm_id": 7048081924,
      "amenity": "fast_food",
      "cuisine": "ice_cream",
      "shop": "dairy",
      "takeaway": "yes",
      "drive_through": "yes",
      "addr_state": "OK",
      "addr_city": "Chickasha",
      "addr_postcode": "73018",
      "addr_street": "South 4th Street",
      "addr_housenumber": "2028",
      "angle": 207.47471748364046
    },
    {
      "id": 202808,
      "geometry": "POINT (-97.934394 35.029898)",
      "poi_name": "McDonald's",
      "osm_id": 7048081925,
      "amenity": "fast_food",
      "cuisine": "burger",
      "website": "https://www.mcdonalds.com/us/en-us/location/ok/chickasha/2027-s-4th-st/5183.html",
      "takeaway": "yes",
      "drive_through": "yes",
      "addr_state": "OK",
      "addr_city": "Chickasha",
      "addr_postcode": "73018",
      "addr_street": "South 4th Street",
      "addr_housenumber": "2027",
      "angle": 207.3517442134314
    },
    {
      "id": 202810,
      "geometry": "POINT (-97.934448 35.031185)",
      "poi_name": "Arby's",
      "osm_id": 7048081927,
      "amenity": "fast_food",
      "cuisine": "sandwich",
      "takeaway": "yes",
      "drive_through": "yes",
      "addr_state": "OK",
      "addr_city": "Chickasha",
      "addr_postcode": "73018",
      "addr_street": "South 4th Street",
      "addr_housenumber": "1823",
      "angle": 207.44056289800994
    },
    {
      "id": 202811,
      "geometry": "POINT (-97.935396 35.032141)",
      "poi_name": "Taco Bell",
      "osm_id": 7048081928,
      "amenity": "fast_food",
      "cuisine": "tex-mex",
      "website": "https://locations.tacobell.com/ok/chickasha/1782-s-4th-st.html",
      "takeaway": "yes",
      "addr_state": "OK",
      "addr_city": "Chickasha",
      "addr_postcode": "73018",
      "addr_street": "South 4th Street",
      "addr_housenumber": "1782",
      "angle": 207.60099185364655
    },
    {
      "id": 202812,
      "geometry": "POINT (-97.937259 35.038124)",
      "poi_name": "KFC",
      "osm_id": 7048081929,
      "amenity": "fast_food",
      "cuisine": "chicken",
      "website": "https://locations.kfc.com/ok/chickasha/1228-s-fourth-street",
      "takeaway": "yes",
      "addr_state": "OK",
      "addr_city": "Chickasha",
      "addr_postcode": "73018",
      "addr_street": "South 4th Street",
      "addr_housenumber": "1228",
      "angle": 208.19155894616418
    },
    {
      "id": 209646,
      "geometry": "POINT (-97.508698 35.464014)",
      "poi_name": "Sonic",
      "osm_id": 5047580042,
      "amenity": "fast_food",
      "cuisine": "burger",
      "takeaway": "yes",
      "angle": 65.68186782294377
    },
    {
      "id": 209647,
      "geometry": "POINT (-97.508923 35.463932)",
      "poi_name": "Fuzzy's Tacos",
      "osm_id": 5047580367,
      "amenity": "fast_food",
      "angle": 65.6815713670016
    },
    {
      "id": 215012,
      "geometry": "POINT (-97.460862 35.610088)",
      "poi_name": "Subway",
      "osm_id": 5284903827,
      "amenity": "fast_food",
      "cuisine": "sandwich",
      "takeaway": "yes",
      "angle": 42.53060578914145
    },
    {
      "id": 188309,
      "geometry": "POINT (-97.5154 35.652573)",
      "poi_name": "Braum's",
      "osm_id": 1138629637,
      "amenity": "fast_food",
      "cuisine": "ice_cream",
      "opening_hours": "Mo-Su 06:00-22:45",
      "shop": "dairy",
      "takeaway": "yes",
      "angle": 30.910750866872945
    },
    {
      "id": 214936,
      "geometry": "POINT (-97.619277 35.522099)",
      "poi_name": "Subway",
      "osm_id": 5283237010,
      "amenity": "fast_food",
      "cuisine": "sandwich",
      "takeaway": "yes",
      "drive_through": "no",
      "addr_state": "OK",
      "addr_city": "Warr Acres",
      "addr_street": "Northwest 50th Street",
      "addr_housenumber": "5900",
      "angle": 28.789476601947214
    },
    {
      "id": 218914,
      "geometry": "POINT (-96.929139 35.361492)",
      "poi_name": "Braum's",
      "osm_id": 9307974653,
      "amenity": "fast_food",
      "cuisine": "ice_cream;burger",
      "shop": "dairy",
      "takeaway": "yes",
      "angle": 92.38936429206791
    },
    {
      "id": 218917,
      "geometry": "POINT (-96.932345 35.360629)",
      "poi_name": "Chick-fil-A",
      "osm_id": 9307974656,
      "amenity": "fast_food",
      "cuisine": "chicken",
      "takeaway": "yes",
      "angle": 92.47879117349962
    },
    {
      "id": 218918,
      "geometry": "POINT (-96.930584 35.362996)",
      "poi_name": "Baker's Dozen",
      "osm_id": 9307974657,
      "amenity": "fast_food",
      "cuisine": "donut",
      "angle": 92.2595443027702
    },
    {
      "id": 228984,
      "geometry": "POINT (-97.585616 35.667992)",
      "poi_name": "Schlotzsky's",
      "osm_id": 4361637607,
      "amenity": "fast_food",
      "cuisine": "sandwich",
      "phone": "+1-405-359-1211",
      "takeaway": "yes",
      "addr_state": "OK",
      "addr_city": "Edmond",
      "addr_postcode": "73012",
      "addr_street": "North Portland Avenue",
      "addr_housenumber": "19417",
      "angle": 19.749466809347588
    },
    {
      "id": 221197,
      "geometry": "POINT (-97.622366 35.460884)",
      "poi_name": "Freddy's",
      "osm_id": 10969264361,
      "amenity": "fast_food",
      "cuisine": "ice_cream;burger",
      "takeaway": "yes",
      "official_name": "Freddy's Frozen Custard & Steakburgers",
      "angle": 44.79443439243442
    },
    {
      "id": 222637,
      "geometry": "POINT (-97.935639 35.027535)",
      "poi_name": "Burger King",
      "osm_id": 11028518865,
      "amenity": "fast_food",
      "cuisine": "burger",
      "takeaway": "yes",
      "addr_state": "OK",
      "addr_city": "Chickasha",
      "addr_postcode": "73018",
      "addr_street": "South 4th Street",
      "addr_housenumber": "2212",
      "angle": 207.32783180491916
    },
    {
      "id": 225974,
      "geometry": "POINT (-97.49072 35.219658)",
      "poi_name": "Chick-fil-A",
      "osm_id": 11145270681,
      "amenity": "fast_food",
      "cuisine": "chicken",
      "opening_hours": "Mo-Sa 10:30-20:00",
      "website": "https://www.chick-fil-a.com/locations/ok/sooner-mall",
      "internet_access": "wlan",
      "phone": "+1-405-364-4364",
      "takeaway": "yes",
      "drive_through": "no",
      "angle": 133.80439961233478
    },
    {
      "id": 237372,
      "geometry": "POINT (-97.43229 35.65343)",
      "poi_name": "Daylight Donuts",
      "osm_id": 5828219715,
      "amenity": "fast_food",
      "cuisine": "donut",
      "takeaway": "yes",
      "angle": 40.50445748121984
    },
    {
      "id": 234039,
      "geometry": "POINT (-97.550036 35.614878)",
      "poi_name": "Chipotle",
      "osm_id": 4600169738,
      "amenity": "fast_food",
      "cuisine": "mexican",
      "takeaway": "yes",
      "official_name": "Chipotle Mexican Grill",
      "angle": 29.844684669728526
    },
    {
      "id": 234313,
      "geometry": "POINT (-97.56786 35.56675)",
      "poi_name": "Papa Murphy's",
      "osm_id": 4615637077,
      "amenity": "fast_food",
      "cuisine": "pizza",
      "takeaway": "only",
      "official_name": "Papa Murphy's Take 'N' Bake Pizza",
      "addr_state": "OK",
      "addr_city": "Oklahoma City",
      "addr_street": "North May Avenue",
      "addr_housenumber": "9501",
      "angle": 32.955407862077955
    },
    {
      "id": 234825,
      "geometry": "POINT (-97.392338 35.879851)",
      "poi_name": "Carl's Jr.",
      "osm_id": 5737856191,
      "amenity": "fast_food",
      "cuisine": "burger",
      "website": "https://locations.carlsjr.com/ok/guthrie/2700-e-highway-33",
      "takeaway": "yes",
      "angle": 27.66110174234448
    },
    {
      "id": 234826,
      "geometry": "POINT (-97.392084 35.877362)",
      "poi_name": "Golden Chick",
      "osm_id": 5737856247,
      "amenity": "fast_food",
      "cuisine": "chicken",
      "takeaway": "yes",
      "angle": 27.801090604387007
    },
    {
      "id": 233930,
      "geometry": "POINT (-97.567635 35.596583)",
      "poi_name": "Subway",
      "osm_id": 4592021668,
      "amenity": "fast_food",
      "cuisine": "sandwich",
      "takeaway": "yes",
      "outdoor_seating": "no",
      "angle": 29.035744401416714
    },
    {
      "id": 233964,
      "geometry": "POINT (-97.56563 35.580492)",
      "poi_name": "Papa John's",
      "osm_id": 4593865031,
      "amenity": "fast_food",
      "cuisine": "pizza",
      "takeaway": "yes",
      "addr_state": "OK",
      "addr_city": "Oklahoma City",
      "addr_street": "North May Avenue",
      "addr_housenumber": "10908",
      "angle": 31.419863932245313
    },
    {
      "id": 233965,
      "geometry": "POINT (-97.550151 35.581618)",
      "poi_name": "Daylight Donuts",
      "osm_id": 4593865032,
      "amenity": "fast_food",
      "cuisine": "donut",
      "takeaway": "yes",
      "angle": 33.95557248253318
    },
    {
      "id": 237552,
      "geometry": "POINT (-97.501369 35.681613)",
      "poi_name": "Qdoba",
      "osm_id": 5838317818,
      "amenity": "fast_food",
      "cuisine": "mexican",
      "opening_hours": "Mo-Sa 10:30-22:00",
      "website": "https://locations.qdoba.com/us/ok/edmond/1300-w-covell-rd.html",
      "takeaway": "yes",
      "official_name": "Qdoba Mexican Grill",
      "addr_street": "W Covell Road",
      "addr_housenumber": "1300 Suite 110",
      "angle": 30.032232512511946
    },
    {
      "id": 240315,
      "geometry": "POINT (-97.599562 35.271562)",
      "poi_name": "Papa John's",
      "osm_id": 5967521299,
      "amenity": "fast_food",
      "cuisine": "pizza",
      "opening_hours": "Su-Th 10:00-0:00, Fr-Sa 10:00-01:00",
      "phone": "+1-405-676-4040",
      "takeaway": "yes",
      "outdoor_seating": "no",
      "delivery": "yes",
      "addr_state": "OK",
      "addr_city": "Newcastle",
      "addr_postcode": "73065",
      "addr_street": "North Main Street",
      "addr_housenumber": "2110",
      "angle": 143.31124834851218
    }
  ],
  "answer_type": "angle",
  "question_entities": {
    "[1]": {
      "main_category": "amenity",
      "sub_category": "fast food restaurant"
    },
    "[2]": {
      "distance": 90000,
      "text": "90 kilometers"
    },
    "[3]": {
      "main_category": "amenity",
      "sub_category": "hospital",
      "display_name": "St. Anthony, Mustang, OK",
      "geo_wkt": "POINT (-97.707679 35.390612)",
      "poi": {
        "id": 88068,
        "geometry": "POINT (-97.707679 35.390612)",
        "poi_name": "St. Anthony",
        "osm_id": 8759154273,
        "amenity": "hospital",
        "operator": "SSM Health",
        "healthcare": "hospital",
        "emergency": "yes",
        "addr_state": "OK",
        "addr_city": "Mustang",
        "addr_postcode": "73064",
        "addr_street": "South Sara Road",
        "addr_housenumber": "200"
      }
    }
  },
  "id": 1064,
  "type": "range+angle"
}