{
  "question": "Where can I find restaurant in the direction of Zagray Farm Museum, Colchester, CT within 140 kilometers from Miley Hall, RI?",
  "sql": "WITH\n    angle AS (SELECT degrees(ST_Azimuth(ST_GeomFromText('POINT (-71.300803 41.474893)',4326)::geography, ST_GeomFromText('POINT (-72.341878 41.597642)',4326)::geography)) AS value)\nSELECT * FROM pois,angle\nWHERE amenity = 'restaurant'\nAND ST_DWithin(pois.geometry, ST_GeomFromText('POINT (-71.300803 41.474893)',4326)::geography, 140000)\nAND (degrees(ST_Azimuth(ST_GeomFromText('POINT (-71.300803 41.474893)',4326)::geography, pois.geometry)) BETWEEN angle.value - 22.5 AND angle.value + 22.5);\n",
  "answers": [
    {
      "id": 27339,
      "geometry": "POINT (-72.482661 41.83019)",
      "poi_name": "Rein's New York Style Deli",
      "osm_id": 413417134,
      "amenity": "restaurant",
      "description": "New York style deli transplanted directly out of New York City.",
      "opening_hours": "Mo-Su 07:00-22:00",
      "website": "https://www.reinsdeli.com/default.aspx",
      "phone": "860-875-1344",
      "outdoor_seating": "no",
      "addr_state": "CT",
      "addr_city": "Vernon",
      "addr_postcode": "06066",
      "addr_street": "Hartford Tpke",
      "addr_housenumber": "435",
      "value": 279.2632172233851
    },
    {
      "id": 28650,
      "geometry": "POINT (-72.198548 41.715432)",
      "poi_name": "Tony's Pizza",
      "osm_id": 8246709064,
      "amenity": "restaurant",
      "cuisine": "pizza",
      "website": "https://www.tonyspizzaplace.com/",
      "phone": "+1 860 423 7717",
      "outdoor_seating": "no",
      "addr_state": "CT",
      "addr_city": "Willimantic",
      "addr_postcode": "06226",
      "addr_street": "Main Street",
      "addr_housenumber": "117",
      "value": 279.2632172233851
    },
    {
      "id": 28149,
      "geometry": "POINT (-72.912834 41.313825)",
      "poi_name": "Modern Apizza",
      "osm_id": 470623969,
      "amenity": "restaurant",
      "cuisine": "pizza",
      "opening_hours": "Mo off;Tu-Th 11:00-22:00; Fr-Sa 11:00-23:00; Su 15:00-22:00",
      "website": "https://modernapizza.com/",
      "phone": "+12037765306",
      "wikidata": "Q6888549",
      "addr_state": "CT",
      "addr_city": "New Haven",
      "addr_postcode": "06511",
      "addr_street": "State Street",
      "addr_housenumber": "874",
      "value": 279.2632172233851
    },
    {
      "id": 28150,
      "geometry": "POINT (-72.914711 41.312607)",
      "poi_name": "L'Orcio",
      "osm_id": 470623970,
      "amenity": "restaurant",
      "cuisine": "italian",
      "website": "https://lorcio.com/",
      "phone": "(203) 777-6670",
      "addr_state": "CT",
      "addr_city": "New Haven",
      "addr_postcode": "06511",
      "addr_street": "State Street",
      "addr_housenumber": "806",
      "value": 279.2632172233851
    },
    {
      "id": 28151,
      "geometry": "POINT (-72.909455 41.313501)",
      "poi_name": "Next Door",
      "osm_id": 470623974,
      "amenity": "restaurant",
      "cuisine": "pizza",
      "outdoor_seating": "no",
      "addr_state": "CT",
      "addr_city": "New Haven",
      "addr_postcode": "06511",
      "addr_street": "Humphrey Street",
      "addr_housenumber": "175",
      "value": 279.2632172233851
    },
    {
      "id": 28160,
      "geometry": "POINT (-72.91198 41.314358)",
      "poi_name": "Blessings II Go",
      "osm_id": 470685037,
      "amenity": "restaurant",
      "cuisine": "chinese",
      "opening_hours": "Mo-Th 11:00-22:30, Fr 11:00-23:00; Sa 11:30-23:00, Su 12:00-22:30",
      "website": "https://www.blessings2go.net/",
      "phone": "+1 203 6242462;+1 203 7850577",
      "addr_state": "CT",
      "addr_city": "New Haven",
      "addr_postcode": "06511",
      "addr_street": "State Street",
      "addr_housenumber": "898",
      "value": 279.2632172233851
    },
    {
      "id": 29695,
      "geometry": "POINT (-72.085402 41.615648)",
      "poi_name": "Sharkey's Pizza",
      "osm_id": 8319896496,
      "amenity": "restaurant",
      "cuisine": "pizza",
      "website": "https://www.facebook.com/Sharkeys-Pizza-108110375897488",
      "phone": "+1 860 822 6036",
      "addr_state": "CT",
      "addr_city": "Sprague",
      "addr_postcode": "06330",
      "addr_street": "High Street",
      "addr_housenumber": "149",
      "value": 279.2632172233851
    },
    {
      "id": 29725,
      "geometry": "POINT (-72.08698 41.616396)",
      "poi_name": "Baltic Pizza",
      "osm_id": 8321825656,
      "amenity": "restaurant",
      "cuisine": "pizza",
      "website": "https://www.balticpizza.com",
      "phone": "+1 860 822 6047",
      "addr_state": "CT",
      "addr_city": "Sprague",
      "addr_postcode": "06330",
      "addr_street": "West Main Street",
      "addr_housenumber": "51",
      "value": 279.2632172233851
    },
    {
      "id": 29757,
      "geometry": "POINT (-72.074148 41.524694)",
      "poi_name": "Mi Casa Mexican Restaurant",
      "osm_id": 8323366102,
      "amenity": "restaurant",
      "cuisine": "mexican",
      "website": "https://www.facebook.com/Micasanorwich",
      "phone": "+1 860 455 4646",
      "addr_state": "CT",
      "addr_city": "Norwich",
      "addr_postcode": "06360",
      "addr_street": "Main Street",
      "addr_housenumber": "252",
      "value": 279.2632172233851
    },
    {
      "id": 29758,
      "geometry": "POINT (-72.074931 41.524787)",
      "poi_name": "Sunrise Chinese Restaurant",
      "osm_id": 8323366252,
      "amenity": "restaurant",
      "cuisine": "chinese",
      "phone": "+1 860 886 0186",
      "addr_state": "CT",
      "addr_city": "Norwich",
      "addr_postcode": "06360",
      "addr_street": "Franklin Street",
      "addr_housenumber": "2",
      "value": 279.2632172233851
    },
    {
      "id": 29783,
      "geometry": "POINT (-72.073462 41.528005)",
      "poi_name": "Melissa's Market",
      "osm_id": 8326629864,
      "amenity": "restaurant",
      "phone": "+1 860 222 3393",
      "addr_state": "CT",
      "addr_city": "Norwich",
      "addr_postcode": "06360",
      "addr_street": "Franklin Street",
      "addr_housenumber": "202",
      "value": 279.2632172233851
    },
    {
      "id": 30679,
      "geometry": "POINT (-72.739574 41.760002)",
      "poi_name": "Kaliubon Ramen",
      "osm_id": 8374103653,
      "amenity": "restaurant",
      "cuisine": "noodle",
      "website": "http://www.kaliubon.com/west-hartford/",
      "phone": "+1-860-906-1678",
      "takeaway": "yes",
      "delivery": "yes",
      "addr_state": "CT",
      "addr_city": "West Hartford",
      "addr_postcode": "06107",
      "addr_street": "Memorial Road",
      "addr_housenumber": "54",
      "value": 279.2632172233851
    },
    {
      "id": 30780,
      "geometry": "POINT (-72.048027 41.567898)",
      "poi_name": "Abare\u2019s Grill and Catering",
      "osm_id": 8381439523,
      "amenity": "restaurant",
      "website": "https://www.facebook.com/abaresgrillcatering",
      "phone": "+1 860 859 3676",
      "addr_state": "CT",
      "addr_city": "Norwich",
      "addr_postcode": "06380",
      "addr_street": "Norwich Avenue",
      "addr_housenumber": "530",
      "value": 279.2632172233851
    },
    {
      "id": 30781,
      "geometry": "POINT (-72.048052 41.56799)",
      "poi_name": "Ponemah Cafe",
      "osm_id": 8381439524,
      "amenity": "restaurant",
      "website": "https://www.facebook.com/ThePonemahCafe",
      "phone": "+1 860 889 5828",
      "addr_state": "CT",
      "addr_city": "Norwich",
      "addr_postcode": "06380",
      "addr_street": "Norwich Avenue",
      "addr_housenumber": "530",
      "value": 279.2632172233851
    },
    {
      "id": 31840,
      "geometry": "POINT (-72.047154 41.566799)",
      "poi_name": "China Moon",
      "osm_id": 8449966102,
      "amenity": "restaurant",
      "cuisine": "chinese",
      "opening_hours": "Mo-Th 10:30-21:30; Fr-Sa 10:30-22:30; Su 11:30-21:30",
      "website": "https://www.chinamoontaftville6665.com",
      "phone": "+1 860 886 6665",
      "addr_state": "CT",
      "addr_city": "Norwich",
      "addr_postcode": "06380",
      "addr_street": "Norwich Avenue",
      "addr_housenumber": "500",
      "value": 279.2632172233851
    },
    {
      "id": 31841,
      "geometry": "POINT (-72.047173 41.567029)",
      "poi_name": "Taftville Pizza",
      "osm_id": 8449966104,
      "amenity": "restaurant",
      "cuisine": "pizza",
      "opening_hours": "Tu-Sa 07:00-21:00; Su 07:00-20:00",
      "website": "https://www.toasttab.com/taftvillepizza/v3/",
      "phone": "+1 860 886 6666",
      "addr_state": "CT",
      "addr_city": "Norwich",
      "addr_postcode": "06380",
      "addr_street": "Norwich Avenue",
      "addr_housenumber": "500",
      "value": 279.2632172233851
    },
    {
      "id": 32558,
      "geometry": "POINT (-71.374774 41.495261)",
      "poi_name": "Ace's Pizza",
      "osm_id": 2629299334,
      "amenity": "restaurant",
      "cuisine": "pizza",
      "addr_city": "Jamestown",
      "addr_postcode": "02835",
      "value": 279.2632172233851
    },
    {
      "id": 30733,
      "geometry": "POINT (-72.088013 41.52361)",
      "poi_name": "Voc's Westside Pizza",
      "osm_id": 8379696739,
      "amenity": "restaurant",
      "cuisine": "pizza",
      "website": "https://www.vocspizza.com",
      "phone": "+1 860 859 0037",
      "takeaway": "yes",
      "addr_state": "CT",
      "addr_city": "Norwich",
      "addr_postcode": "06360",
      "addr_street": "West Main Street",
      "addr_housenumber": "273",
      "value": 279.2632172233851
    },
    {
      "id": 30792,
      "geometry": "POINT (-72.09075 41.546271)",
      "poi_name": "Lori's Deli and Bakeshop",
      "osm_id": 8382371563,
      "amenity": "restaurant",
      "website": "https://lorisdelinorwich.com/",
      "phone": "+1 860 886 4795",
      "addr_state": "CT",
      "addr_city": "Norwich",
      "addr_postcode": "06360",
      "addr_street": "Town Street",
      "addr_housenumber": "31",
      "value": 279.2632172233851
    },
    {
      "id": 31310,
      "geometry": "POINT (-72.073229 41.529152)",
      "poi_name": "D'Elia's Bakery and Grinder Shop",
      "osm_id": 8418742232,
      "amenity": "restaurant",
      "cuisine": "sandwich;bakery",
      "website": "https://www.facebook.com/Delias-Bakery-Grinder-Shop-117286824957179",
      "phone": "+1 860 887 1062",
      "addr_state": "CT",
      "addr_city": "Norwich",
      "addr_postcode": "06360",
      "addr_street": "Franklin Street",
      "addr_housenumber": "272",
      "value": 279.2632172233851
    },
    {
      "id": 31646,
      "geometry": "POINT (-72.090699 41.536396)",
      "poi_name": "Canggio Restaurant and Bar",
      "osm_id": 8439604054,
      "amenity": "restaurant",
      "website": "https://www.canggiorestaurant.com",
      "phone": "+1 860 383 4805",
      "addr_state": "CT",
      "addr_city": "Norwich",
      "addr_postcode": "06360",
      "addr_street": "Lafayette Street",
      "addr_housenumber": "20",
      "value": 279.2632172233851
    },
    {
      "id": 32474,
      "geometry": "POINT (-72.0824 41.426754)",
      "poi_name": "Triple B",
      "osm_id": 2627438711,
      "amenity": "restaurant",
      "cuisine": "burger;beer",
      "website": "http://triplebct.com/default.aspx",
      "phone": "(860) 381-5663",
      "outdoor_seating": "yes",
      "addr_state": "CT",
      "addr_city": "Ledyard",
      "addr_postcode": "06335",
      "addr_street": "Route 12",
      "addr_housenumber": "1649",
      "value": 279.2632172233851
    },
    {
      "id": 32598,
      "geometry": "POINT (-71.961109 41.372757)",
      "poi_name": "Friendly's",
      "osm_id": 2630455079,
      "amenity": "restaurant",
      "cuisine": "american",
      "opening_hours": "Fr-Sa 07:00-23:00; Su-Th 07:00-22:00",
      "website": "https://www.friendlys.com/",
      "phone": "+1 860 536 3909",
      "addr_state": "CT",
      "addr_postcode": "06355",
      "addr_street": "Greenmanville Avenue",
      "addr_housenumber": "247",
      "value": 279.2632172233851
    },
    {
      "id": 35386,
      "geometry": "POINT (-72.930715 41.312009)",
      "poi_name": "Sherkaan",
      "osm_id": 2719765603,
      "amenity": "restaurant",
      "cuisine": "indian",
      "addr_state": "CT",
      "addr_city": "New Haven",
      "addr_postcode": "06511",
      "addr_street": "Broadway",
      "addr_housenumber": "65",
      "value": 279.2632172233851
    },
    {
      "id": 36816,
      "geometry": "POINT (-72.868336 41.670929)",
      "poi_name": "50 West",
      "osm_id": 2786275354,
      "amenity": "restaurant",
      "opening_hours": "We-Sa 16:00-21:00",
      "website": "https://www.50westrestaurant.com/",
      "addr_state": "CT",
      "addr_city": "Plainville",
      "addr_postcode": "06062",
      "addr_street": "West Main Street",
      "addr_housenumber": "50",
      "value": 279.2632172233851
    },
    {
      "id": 36326,
      "geometry": "POINT (-72.927939 41.306832)",
      "poi_name": "ZINC New Haven",
      "osm_id": 2760039206,
      "amenity": "restaurant",
      "cuisine": "american",
      "website": "https://zincnewhaven.com",
      "phone": "203-624-0507",
      "addr_state": "CT",
      "addr_city": "New Haven",
      "addr_postcode": "06510",
      "addr_street": "Chapel Street",
      "addr_housenumber": "964",
      "value": 279.2632172233851
    },
    {
      "id": 36318,
      "geometry": "POINT (-72.929026 41.307291)",
      "poi_name": "Basta Tratoria",
      "osm_id": 2760039182,
      "amenity": "restaurant",
      "cuisine": "italian",
      "opening_hours": "Mo-Th 17:00-21:30; Fr 17:00-22:00; Sa 12:00-15:00,17:00-22:00; Su 12:00-15:00,15:00-21:00",
      "website": "http://www.bastatrattoria.com/#about",
      "phone": "+1-203-772-1715",
      "addr_state": "CT",
      "addr_city": "New Haven",
      "addr_postcode": "06510",
      "addr_street": "Chapel Street",
      "addr_housenumber": "1006",
      "value": 279.2632172233851
    },
    {
      "id": 36319,
      "geometry": "POINT (-72.92754 41.306652)",
      "poi_name": "China King",
      "osm_id": 2760039183,
      "amenity": "restaurant",
      "cuisine": "chinese",
      "phone": "+1-203-776-8807",
      "addr_state": "CT",
      "addr_city": "New Haven",
      "addr_postcode": "06510",
      "addr_street": "Chapel Street",
      "addr_housenumber": "942",
      "value": 279.2632172233851
    },
    {
      "id": 37240,
      "geometry": "POINT (-72.914449 41.296591)",
      "poi_name": "Il Gabbiano",
      "osm_id": 2804774758,
      "amenity": "restaurant",
      "cuisine": "italian",
      "website": "https://www.ilgabbianonewhaven.com/",
      "addr_state": "CT",
      "addr_postcode": "06511",
      "addr_street": "Long Wharf Drive",
      "addr_housenumber": "501",
      "value": 279.2632172233851
    },
    {
      "id": 38898,
      "geometry": "POINT (-72.50367 41.816511)",
      "poi_name": "Elmo's Dockside",
      "osm_id": 2890130524,
      "amenity": "restaurant",
      "cuisine": "seafood",
      "wheelchair": "yes",
      "website": "http://elmosdockside.com/",
      "capacity": "100",
      "phone": "+1 860 646 3474",
      "addr_state": "CT",
      "addr_city": "Vernon",
      "addr_postcode": "06066",
      "addr_street": "Hartford Turnpike",
      "addr_housenumber": "48",
      "value": 279.2632172233851
    },
    {
      "id": 38135,
      "geometry": "POINT (-72.910881 41.31477)",
      "poi_name": "portofino",
      "osm_id": 2846340544,
      "amenity": "restaurant",
      "cuisine": "italian",
      "website": "https://portofinosnewhaven.com/",
      "phone": "(203) 562-1414",
      "addr_state": "CT",
      "addr_city": "New Haven",
      "addr_postcode": "06511",
      "addr_street": "State Street",
      "addr_housenumber": "937",
      "value": 279.2632172233851
    },
    {
      "id": 39170,
      "geometry": "POINT (-72.483913 41.853769)",
      "poi_name": "Utsav Indian Cuisine",
      "osm_id": 2907834085,
      "amenity": "restaurant",
      "cuisine": "indian",
      "addr_state": "CT",
      "addr_city": "Vernon",
      "addr_postcode": "06066",
      "addr_street": "Talcottville Road",
      "addr_housenumber": "575",
      "value": 279.2632172233851
    },
    {
      "id": 39484,
      "geometry": "POINT (-72.805754 41.509117)",
      "poi_name": "Asian Buffet",
      "osm_id": 2924084359,
      "amenity": "restaurant",
      "cuisine": "asian",
      "addr_state": "CT",
      "addr_city": "Meriden",
      "addr_postcode": "06450",
      "addr_street": "South Broad Street",
      "addr_housenumber": "533",
      "value": 279.2632172233851
    },
    {
      "id": 39485,
      "geometry": "POINT (-72.808094 41.507099)",
      "poi_name": "Ting Ho",
      "osm_id": 2924084377,
      "amenity": "restaurant",
      "cuisine": "chinese",
      "takeaway": "yes",
      "addr_state": "CT",
      "addr_city": "Meriden",
      "addr_postcode": "06492",
      "addr_street": "South Broad Street",
      "addr_housenumber": "533",
      "value": 279.2632172233851
    },
    {
      "id": 40010,
      "geometry": "POINT (-72.651528 41.563851)",
      "poi_name": "Cardinal's Pizza Restaurant",
      "osm_id": 2954479168,
      "amenity": "restaurant",
      "cuisine": "pizza",
      "wheelchair": "yes",
      "outdoor_seating": "no",
      "addr_state": "CT",
      "addr_city": "Middletown",
      "addr_postcode": "06457",
      "addr_street": "Main Street",
      "addr_housenumber": "570",
      "value": 279.2632172233851
    },
    {
      "id": 40011,
      "geometry": "POINT (-72.65115 41.561939)",
      "poi_name": "Fujiya Ramen",
      "osm_id": 2954479169,
      "amenity": "restaurant",
      "cuisine": "noodle",
      "wheelchair": "yes",
      "website": "https://www.fujiyaramenmiddletown.com",
      "outdoor_seating": "no",
      "addr_city": "Middletown",
      "addr_street": "Main Street",
      "value": 279.2632172233851
    },
    {
      "id": 40012,
      "geometry": "POINT (-72.651546 41.563888)",
      "poi_name": "Tibetan Kitchen",
      "osm_id": 2954479180,
      "amenity": "restaurant",
      "cuisine": "tibetan",
      "wheelchair": "yes",
      "opening_hours": "Mo-Th 11:30-15:00, 17:00-21:00; Fr-Sa 11:30-15:00, 17:00-21:30; Su off",
      "outdoor_seating": "no",
      "addr_state": "CT",
      "addr_city": "Middletown",
      "addr_postcode": "06457",
      "addr_street": "Main Street",
      "addr_housenumber": "574",
      "value": 279.2632172233851
    },
    {
      "id": 40013,
      "geometry": "POINT (-72.651676 41.564187)",
      "poi_name": "Ion Restaurant",
      "osm_id": 2954479182,
      "amenity": "restaurant",
      "wheelchair": "yes",
      "opening_hours": "Mo 17:00-21:00; Tu-Th 11:30-21:00; Fr-Sa 11:30-22:00; Su 11:30-16:00",
      "outdoor_seating": "yes",
      "addr_state": "CT",
      "addr_city": "Middletown",
      "addr_postcode": "06457",
      "addr_street": "Main Street",
      "addr_housenumber": "606",
      "value": 279.2632172233851
    },
    {
      "id": 40014,
      "geometry": "POINT (-72.65133 41.563536)",
      "poi_name": "The Whey Stationary",
      "osm_id": 2954479183,
      "amenity": "restaurant",
      "cuisine": "grilled_cheese;sandwich",
      "addr_state": "CT",
      "addr_city": "Middletown",
      "addr_postcode": "06457",
      "addr_street": "Main Street",
      "addr_housenumber": "544",
      "value": 279.2632172233851
    },
    {
      "id": 40015,
      "geometry": "POINT (-72.652316 41.565422)",
      "poi_name": "Krust",
      "osm_id": 2954479184,
      "amenity": "restaurant",
      "cuisine": "pizza",
      "outdoor_seating": "no",
      "addr_state": "CT",
      "addr_city": "Middletown",
      "addr_postcode": "06457",
      "addr_street": "Main Street",
      "addr_housenumber": "686",
      "value": 279.2632172233851
    },
    {
      "id": 40016,
      "geometry": "POINT (-72.651562 41.562701)",
      "poi_name": "Luce",
      "osm_id": 2954479190,
      "amenity": "restaurant",
      "outdoor_seating": "yes",
      "addr_city": "Middletown",
      "addr_street": "Main Street",
      "value": 279.2632172233851
    },
    {
      "id": 40017,
      "geometry": "POINT (-72.651234 41.562092)",
      "poi_name": "Esca Restaurant & Wine Bar",
      "osm_id": 2954479199,
      "amenity": "restaurant",
      "addr_city": "Middletown",
      "addr_street": "Main Street",
      "value": 279.2632172233851
    },
    {
      "id": 40449,
      "geometry": "POINT (-72.910141 41.315524)",
      "poi_name": "Jordan's Hot Dogs & Mac",
      "osm_id": 2970459335,
      "amenity": "restaurant",
      "cuisine": "hot_dog",
      "opening_hours": "Mo 11:00-16:00; Tu-Sa 11:00-20:00",
      "website": "http://www.jordanshotdogsandmac.com",
      "phone": "+1 203 789 2244",
      "addr_state": "CT",
      "addr_city": "New Haven",
      "addr_postcode": "06511",
      "addr_street": "State Street",
      "addr_housenumber": "970",
      "value": 279.2632172233851
    },
    {
      "id": 41001,
      "geometry": "POINT (-72.720534 41.696714)",
      "poi_name": "Sophia\u2019s Breakfast and Lunch",
      "osm_id": 2989974436,
      "amenity": "restaurant",
      "phone": "860-666-1942",
      "addr_state": "CT",
      "addr_city": "Newington",
      "addr_postcode": "06111",
      "addr_street": "Market Square",
      "addr_housenumber": "134",
      "value": 279.2632172233851
    },
    {
      "id": 41002,
      "geometry": "POINT (-72.721392 41.696633)",
      "poi_name": "Steve's Place",
      "osm_id": 2989974445,
      "amenity": "restaurant",
      "opening_hours": "Mo-Sa 09:00-20:00; Su 12:00-16:00",
      "website": "http://www.stevesplacect.com",
      "phone": "+1 860 666 5975",
      "addr_state": "CT",
      "addr_city": "Newington",
      "addr_postcode": "06111",
      "addr_street": "Market Square",
      "addr_housenumber": "84",
      "value": 279.2632172233851
    },
    {
      "id": 41003,
      "geometry": "POINT (-72.721531 41.696273)",
      "poi_name": "Newington Pizza & Restaurant",
      "osm_id": 2989974447,
      "amenity": "restaurant",
      "cuisine": "pizza",
      "opening_hours": "Mo-Th 11:00-21:30; Fr,Sa 11:00-22:00; Su 12:00-21:00",
      "website": "http://www.newingtonpizza.com",
      "phone": "+1 860 666 8421",
      "addr_state": "CT",
      "addr_city": "Newington",
      "addr_postcode": "06111",
      "addr_street": "Market Square",
      "addr_housenumber": "75",
      "value": 279.2632172233851
    },
    {
      "id": 41017,
      "geometry": "POINT (-72.724367 41.698271)",
      "poi_name": "Stretch's Pizza",
      "osm_id": 2990881460,
      "amenity": "restaurant",
      "cuisine": "pizza",
      "website": "http://www.stretchspizza.net",
      "phone": "860-667-9100",
      "addr_state": "CT",
      "addr_city": "Newington",
      "addr_postcode": "06111",
      "addr_street": "Main Street",
      "addr_housenumber": "995",
      "value": 279.2632172233851
    },
    {
      "id": 41020,
      "geometry": "POINT (-72.725539 41.712406)",
      "poi_name": "Yanni's Pizza Restaurant",
      "osm_id": 2990902739,
      "amenity": "restaurant",
      "cuisine": "pizza",
      "opening_hours": "Mo-Sa 09:30-22:30; Su 09:30-23:00",
      "website": "http://yannispizzarestaurant.com",
      "phone": "+1 860 667 3500",
      "addr_state": "CT",
      "addr_city": "Newington",
      "addr_postcode": "06111",
      "addr_street": "Main Street",
      "addr_housenumber": "296",
      "value": 279.2632172233851
    },
    {
      "id": 45551,
      "geometry": "POINT (-72.937629 41.306854)",
      "poi_name": "Tikkaway",
      "osm_id": 3216125931,
      "amenity": "restaurant",
      "cuisine": "indian",
      "addr_state": "CT",
      "addr_city": "New Haven",
      "addr_postcode": "06519",
      "addr_street": "Howe Street",
      "addr_housenumber": "2",
      "value": 279.2632172233851
    },
    {
      "id": 49856,
      "geometry": "POINT (-72.73374 41.733022)",
      "poi_name": "Frank Pepe's West Hartford",
      "osm_id": 3451206046,
      "amenity": "restaurant",
      "cuisine": "pizza",
      "website": "https://pepespizzeria.com/store/frank-pepes-west-hartford",
      "capacity": "93",
      "phone": "+1 860-236-7373",
      "addr_state": "CT",
      "addr_city": "West Hartford",
      "addr_postcode": "06110",
      "addr_street": "New Britain Avenue",
      "addr_housenumber": "1148",
      "value": 279.2632172233851
    },
    {
      "id": 49646,
      "geometry": "POINT (-72.557199 41.49516)",
      "poi_name": "Jack's Country Kitchen",
      "osm_id": 3445720233,
      "amenity": "restaurant",
      "website": "https://jackscountryrestaurant.com/",
      "delivery": "no",
      "addr_city": "Higganum",
      "addr_postcode": "06441",
      "addr_street": "Killingworth Road",
      "addr_housenumber": "26",
      "value": 279.2632172233851
    },
    {
      "id": 56859,
      "geometry": "POINT (-72.643817 41.757525)",
      "poi_name": "PHO 501",
      "osm_id": 10250116398,
      "amenity": "restaurant",
      "cuisine": "asian",
      "website": "https://www.pho501.com/",
      "addr_state": "CT",
      "addr_city": "East Hartford",
      "addr_postcode": "06118",
      "addr_street": "Main Street",
      "addr_housenumber": "501",
      "value": 279.2632172233851
    },
    {
      "id": 51505,
      "geometry": "POINT (-72.363046 41.86512)",
      "poi_name": "Papa T's Restaurant",
      "osm_id": 538010093,
      "amenity": "restaurant",
      "cuisine": "pizza;italian",
      "description": "small family restaurant with giant slices of pizza.",
      "opening_hours": "Mo-Th 11:00-21:00; Fr, Sa 07:00-22:00; Su 07:00-14:00",
      "website": "https://papa-t-s.business.site/",
      "phone": "(860) 875-2048",
      "addr_state": "CT",
      "addr_city": "Tolland",
      "addr_postcode": "06084",
      "addr_street": "Merrow Road",
      "addr_housenumber": "64",
      "value": 279.2632172233851
    },
    {
      "id": 55652,
      "geometry": "POINT (-72.756762 41.726594)",
      "poi_name": "Tavern in the Square",
      "osm_id": 10202305835,
      "amenity": "restaurant",
      "website": "https://www.taverninthesquare.com/westhartford",
      "phone": "+1-860-541-5970",
      "outdoor_seating": "yes",
      "addr_state": "CT",
      "addr_city": "West Hartford",
      "addr_postcode": "06110",
      "addr_street": "New Britain Avenue",
      "addr_housenumber": "1393",
      "value": 279.2632172233851
    },
    {
      "id": 58239,
      "geometry": "POINT (-72.738616 41.759653)",
      "poi_name": "Artisan",
      "osm_id": 5368637943,
      "amenity": "restaurant",
      "opening_hours": "Mo-We 07:00-22:30; Th-Sa 07:00-23:00; Su 07:00-10:00,17:00-22:30",
      "delivery": "no",
      "addr_state": "CT",
      "addr_city": "West Hartford",
      "addr_postcode": "06107",
      "addr_street": "Memorial Road",
      "addr_housenumber": "1",
      "value": 279.2632172233851
    },
    {
      "id": 60128,
      "geometry": "POINT (-72.521203 41.773539)",
      "poi_name": "Center Perk",
      "osm_id": 5457022800,
      "amenity": "restaurant",
      "cuisine": "breakfast",
      "description": "Local favorite breakfast cafe, local owners ",
      "opening_hours": "Mo-Fr 07:00-14:30; Sa, Su 07:00-14:00",
      "phone": "+1 (860) 474-5543",
      "addr_state": "CT",
      "addr_city": "Manchester",
      "addr_postcode": "06040",
      "addr_street": "Main Street",
      "addr_housenumber": "639",
      "value": 279.2632172233851
    },
    {
      "id": 59653,
      "geometry": "POINT (-71.914178 41.662688)",
      "poi_name": "New Hong Kong Star",
      "osm_id": 5436350120,
      "amenity": "restaurant",
      "cuisine": "chinese",
      "addr_state": "CT",
      "addr_city": "Plainfield",
      "addr_postcode": "06374",
      "addr_street": "Lathrop Road",
      "addr_housenumber": "69",
      "value": 279.2632172233851
    },
    {
      "id": 61978,
      "geometry": "POINT (-72.867744 41.337058)",
      "poi_name": "Nick's Char Pit",
      "osm_id": 5546110219,
      "amenity": "restaurant",
      "opening_hours": "Mo-We 09:00-22:00; Th 10:00-20:00; Fr,Sa 10:00-21:00",
      "addr_city": "North Haven",
      "addr_postcode": "06473",
      "addr_street": "Middletown Avenue",
      "addr_housenumber": "22",
      "value": 279.2632172233851
    },
    {
      "id": 61979,
      "geometry": "POINT (-72.867771 41.337505)",
      "poi_name": "Bonessess's Apizza",
      "osm_id": 5546111238,
      "amenity": "restaurant",
      "cuisine": "pizza",
      "addr_city": "North Haven",
      "addr_postcode": "06473",
      "value": 279.2632172233851
    },
    {
      "id": 62061,
      "geometry": "POINT (-72.800566 41.261179)",
      "poi_name": "Guacamole's Mexican Cuisine",
      "osm_id": 5549519405,
      "amenity": "restaurant",
      "addr_state": "CT",
      "addr_city": "Branford",
      "addr_postcode": "06405",
      "addr_street": "Sybil Avenue",
      "addr_housenumber": "2",
      "value": 279.2632172233851
    },
    {
      "id": 62202,
      "geometry": "POINT (-72.847906 41.258344)",
      "poi_name": "Rosso Vino",
      "osm_id": 5555798922,
      "amenity": "restaurant",
      "cuisine": "italian",
      "website": "http://rossovino.net/contact/",
      "phone": "203-315-0005",
      "addr_state": "CT",
      "addr_postcode": "06405",
      "addr_street": "Shore Drive",
      "addr_housenumber": "130",
      "value": 279.2632172233851
    },
    {
      "id": 74168,
      "geometry": "POINT (-72.653183 41.678892)",
      "poi_name": "On The Border",
      "osm_id": 9669239291,
      "amenity": "restaurant",
      "cuisine": "tex-mex",
      "official_name": "On The Border Mexican Grill & Cantina",
      "addr_state": "CT",
      "addr_city": "Rocky Hill",
      "addr_postcode": "06067",
      "addr_street": "Silas Deane Highway",
      "addr_housenumber": "1519",
      "value": 279.2632172233851
    },
    {
      "id": 73690,
      "geometry": "POINT (-71.872748 41.43691)",
      "poi_name": "Little Mans Diner",
      "osm_id": 9650398692,
      "amenity": "restaurant",
      "opening_hours": "Mo-Sa 06:00-17:00; Su 06:00-14:00",
      "website": "https://littlemansdinernorthstonington.com",
      "phone": "+1 860 535 2888",
      "addr_state": "CT",
      "addr_city": "North Stonington",
      "addr_postcode": "06359",
      "addr_street": "Norwich Westerly Road",
      "addr_housenumber": "224",
      "value": 279.2632172233851
    },
    {
      "id": 74188,
      "geometry": "POINT (-72.808272 41.480854)",
      "poi_name": "Funju Noodle Bar",
      "osm_id": 9670260007,
      "amenity": "restaurant",
      "opening_hours": "Su-Th 11:00-20:45; Fr-Sa 11:00-21:15",
      "website": "https://funjunoodlebarct.com/",
      "phone": "+12036265715",
      "addr_state": "CT",
      "addr_city": "Wallingford",
      "addr_postcode": "06492",
      "addr_street": "Ives Road",
      "addr_housenumber": "20",
      "value": 279.2632172233851
    },
    {
      "id": 74189,
      "geometry": "POINT (-72.808581 41.480881)",
      "poi_name": "The Chuck Wagon",
      "osm_id": 9670260010,
      "amenity": "restaurant",
      "website": "http://www.thechuckwagonct.com/",
      "phone": "+12036784395",
      "addr_state": "CT",
      "addr_city": "Wallingford",
      "addr_postcode": "06492",
      "addr_street": "Ives Road",
      "addr_housenumber": "20",
      "value": 279.2632172233851
    },
    {
      "id": 74405,
      "geometry": "POINT (-72.642194 41.667972)",
      "poi_name": "Chuck's Steak House",
      "osm_id": 9679310632,
      "amenity": "restaurant",
      "website": "https://chuckssteakhouse.com",
      "phone": "860-529-0222",
      "addr_state": "CT",
      "addr_city": "Rocky Hill",
      "addr_postcode": "06067",
      "addr_street": "2199 Silas Deane Hwy",
      "value": 279.2632172233851
    },
    {
      "id": 75679,
      "geometry": "POINT (-72.741184 41.674056)",
      "poi_name": "Elm Hill Pizza",
      "osm_id": 9740460807,
      "amenity": "restaurant",
      "cuisine": "pizza;sandwich",
      "website": "https://www.elmhillpizza.com/",
      "phone": "+1 860 666-4649",
      "addr_state": "CT",
      "addr_city": "Newington",
      "addr_postcode": "06111",
      "addr_street": "Maple Hill Avenue",
      "addr_housenumber": "625",
      "value": 279.2632172233851
    },
    {
      "id": 76286,
      "geometry": "POINT (-72.56306 41.847209)",
      "poi_name": "Alexia's Pizza and Restaurant",
      "osm_id": 9768282181,
      "amenity": "restaurant",
      "cuisine": "pizza",
      "addr_state": "CT",
      "addr_city": "South Windsor",
      "addr_postcode": "06074",
      "addr_street": "Sullivan Avenue",
      "addr_housenumber": "950",
      "value": 279.2632172233851
    },
    {
      "id": 76287,
      "geometry": "POINT (-72.561898 41.846444)",
      "poi_name": "Bella's Pizza",
      "osm_id": 9768282182,
      "amenity": "restaurant",
      "cuisine": "pizza",
      "addr_state": "CT",
      "addr_city": "South Windsor",
      "addr_postcode": "06074",
      "addr_street": "Sullivan Avenue",
      "addr_housenumber": "982",
      "value": 279.2632172233851
    },
    {
      "id": 78493,
      "geometry": "POINT (-72.925014 41.304714)",
      "poi_name": "Pho Thai",
      "osm_id": 750304033,
      "amenity": "restaurant",
      "cuisine": "thai",
      "description": "Malaysian Cuisine",
      "wheelchair": "limited",
      "opening_hours": "Mo-Fr 11:30-14:30;Mo-Th 17:00-21:30;Fr,Sa 17:00-22:30;Su 15:00-21:30",
      "website": "http://www.bentara.com",
      "phone": "2035622511",
      "takeaway": "yes",
      "addr_state": "CT",
      "addr_city": "New Haven",
      "addr_postcode": "06510",
      "addr_street": "Orange Street",
      "addr_housenumber": "76",
      "value": 279.2632172233851
    },
    {
      "id": 81467,
      "geometry": "POINT (-72.828778 41.819133)",
      "poi_name": "Ekkalak Thai Cuisine",
      "osm_id": 1640544917,
      "amenity": "restaurant",
      "cuisine": "thai",
      "website": "EkkalakThaiCuisine.com",
      "phone": "(860) 470-7822",
      "addr_state": "CT",
      "addr_city": "Avon",
      "addr_postcode": "06001",
      "addr_street": "Simsbury Road",
      "addr_housenumber": "136",
      "value": 279.2632172233851
    },
    {
      "id": 81194,
      "geometry": "POINT (-72.835495 41.733384)",
      "poi_name": "Farmington Gardens",
      "osm_id": 1613552233,
      "amenity": "restaurant",
      "website": "https://www.farmingtongardensct.com/",
      "addr_state": "CT",
      "addr_postcode": "06032",
      "addr_street": "Farmington Ave",
      "addr_housenumber": "999",
      "value": 279.2632172233851
    },
    {
      "id": 81536,
      "geometry": "POINT (-72.652463 41.892822)",
      "poi_name": "Char Koon",
      "osm_id": 1646945936,
      "amenity": "restaurant",
      "cuisine": "chinese",
      "website": "https://windsorcharkoonnoodleexpress.com",
      "phone": "+1 860 285 0818",
      "addr_state": "CT",
      "addr_city": "Windsor",
      "addr_postcode": "06095",
      "addr_street": "Kennedy Road",
      "addr_housenumber": "1095",
      "value": 279.2632172233851
    },
    {
      "id": 83588,
      "geometry": "POINT (-72.767428 41.668568)",
      "poi_name": "East Side Restaurant",
      "osm_id": 1753893823,
      "amenity": "restaurant",
      "cuisine": "german",
      "website": "https://www.eastsiderestaurant.com/",
      "phone": "+1 860 2231188",
      "addr_state": "CT",
      "addr_city": "New Britain",
      "addr_postcode": "06051",
      "addr_street": "Dwight Street",
      "addr_housenumber": "131",
      "value": 279.2632172233851
    },
    {
      "id": 83003,
      "geometry": "POINT (-72.745099 41.742113)",
      "poi_name": "Angelo's on Main - Rockledge",
      "osm_id": 1725231368,
      "amenity": "restaurant",
      "cuisine": "american",
      "website": "http://www.angelosonmain.com/",
      "addr_state": "CT",
      "addr_postcode": "06107",
      "addr_street": "South Main Street",
      "addr_housenumber": "289",
      "value": 279.2632172233851
    },
    {
      "id": 81842,
      "geometry": "POINT (-72.729744 41.755443)",
      "poi_name": "Joey's Pizza Pie",
      "osm_id": 1668158109,
      "amenity": "restaurant",
      "cuisine": "pizza",
      "website": "http://www.joeyspizzapie.com/",
      "addr_state": "CT",
      "addr_postcode": "06119",
      "addr_street": "Park Road",
      "addr_housenumber": "353",
      "value": 279.2632172233851
    },
    {
      "id": 81843,
      "geometry": "POINT (-72.729165 41.755595)",
      "poi_name": "Park Lane Pizza",
      "osm_id": 1668158214,
      "amenity": "restaurant",
      "cuisine": "pizza",
      "website": "http://www.parklanepizza.com/",
      "addr_state": "CT",
      "addr_postcode": "06119",
      "addr_street": "Park Road",
      "addr_housenumber": "337",
      "value": 279.2632172233851
    },
    {
      "id": 83702,
      "geometry": "POINT (-72.574633 41.717714)",
      "poi_name": "Ming Bao Chinese Restaurant",
      "osm_id": 1760517368,
      "amenity": "restaurant",
      "cuisine": "chinese",
      "website": "https://www.mingbaoct.com",
      "phone": "+1 860 657 4888",
      "addr_state": "CT",
      "addr_city": "Glastonbury",
      "addr_postcode": "06033",
      "addr_street": "Hebron Avenue",
      "addr_housenumber": "1007",
      "value": 279.2632172233851
    },
    {
      "id": 83928,
      "geometry": "POINT (-72.731162 41.76418)",
      "poi_name": "Butterfly Chinese Restaurant",
      "osm_id": 1770971369,
      "amenity": "restaurant",
      "cuisine": "chinese",
      "website": "https://www.butterflyrestaurantct.com/",
      "addr_state": "CT",
      "addr_postcode": "06119",
      "addr_street": "Farmington",
      "addr_housenumber": "831",
      "value": 279.2632172233851
    },
    {
      "id": 86438,
      "geometry": "POINT (-72.941966 41.258906)",
      "poi_name": "Stowe's Seafood",
      "osm_id": 1931518694,
      "amenity": "restaurant",
      "cuisine": "seafood",
      "addr_state": "CT",
      "addr_postcode": "06516",
      "addr_street": "Beach Street",
      "addr_housenumber": "347",
      "value": 279.2632172233851
    },
    {
      "id": 87452,
      "geometry": "POINT (-71.989624 41.600053)",
      "poi_name": "Just Breakfast & Things LLC",
      "osm_id": 8713927992,
      "amenity": "restaurant",
      "opening_hours": "Mo-Sa 06:30-14:00; Su 06:30-13:30",
      "phone": "(860) 376-4040",
      "addr_state": "CT",
      "addr_city": "Lisbon",
      "addr_postcode": "06351",
      "addr_street": "River Road",
      "addr_housenumber": "13",
      "value": 279.2632172233851
    },
    {
      "id": 87770,
      "geometry": "POINT (-71.896115 41.719482)",
      "poi_name": "Music Lady Cafe",
      "osm_id": 8740296902,
      "amenity": "restaurant",
      "website": "http://musicladycafe.com",
      "phone": "+1-860-564-0666",
      "addr_state": "CT",
      "addr_city": "Plainfield",
      "addr_postcode": "06354",
      "addr_street": "Green Hollow Road",
      "addr_housenumber": "6",
      "value": 279.2632172233851
    },
    {
      "id": 87500,
      "geometry": "POINT (-72.792586 41.292133)",
      "poi_name": "Hornet's Nest",
      "osm_id": 8716987636,
      "amenity": "restaurant",
      "addr_state": "CT",
      "addr_city": "Branford",
      "addr_postcode": "06405",
      "addr_street": "East Main Street",
      "addr_housenumber": "269",
      "value": 279.2632172233851
    },
    {
      "id": 87428,
      "geometry": "POINT (-72.90122 41.502649)",
      "poi_name": "Cheshire Pizza and Ale",
      "osm_id": 8713330337,
      "amenity": "restaurant",
      "cuisine": "pizza;greek",
      "addr_state": "CT",
      "addr_city": "Cheshire",
      "addr_postcode": "06410",
      "addr_street": "Highland Avenue",
      "addr_housenumber": "127",
      "value": 279.2632172233851
    },
    {
      "id": 87897,
      "geometry": "POINT (-72.105271 41.449464)",
      "poi_name": "Oriental Bar and Grill",
      "osm_id": 8751053221,
      "amenity": "restaurant",
      "cuisine": "chinese",
      "addr_state": "CT",
      "addr_city": "Montville",
      "addr_postcode": "06382",
      "addr_street": "Route 32",
      "addr_housenumber": "867",
      "value": 279.2632172233851
    },
    {
      "id": 89032,
      "geometry": "POINT (-72.606171 41.765394)",
      "poi_name": "Pho House LLC.",
      "osm_id": 8818365650,
      "amenity": "restaurant",
      "cuisine": "vietnamese",
      "addr_state": "CT",
      "addr_city": "East Hartford",
      "addr_postcode": "06118",
      "addr_street": "Silver Lane",
      "addr_housenumber": "834",
      "value": 279.2632172233851
    },
    {
      "id": 88963,
      "geometry": "POINT (-72.201872 41.734219)",
      "poi_name": "Papa Gino's",
      "osm_id": 8812301579,
      "amenity": "restaurant",
      "cuisine": "pizza",
      "outdoor_seating": "no",
      "addr_state": "CT",
      "addr_city": "Mansfield Center",
      "addr_postcode": "06250",
      "addr_street": "Storrs Road",
      "addr_housenumber": "95",
      "value": 279.2632172233851
    },
    {
      "id": 89033,
      "geometry": "POINT (-72.605992 41.765412)",
      "poi_name": "Lucky China",
      "osm_id": 8818365652,
      "amenity": "restaurant",
      "cuisine": "chinese",
      "addr_state": "CT",
      "addr_city": "East Hartford",
      "addr_postcode": "06118",
      "addr_street": "Silver Lane",
      "addr_housenumber": "838",
      "value": 279.2632172233851
    },
    {
      "id": 93569,
      "geometry": "POINT (-72.1997 41.737505)",
      "poi_name": "China East",
      "osm_id": 2172770635,
      "amenity": "restaurant",
      "cuisine": "chinese",
      "outdoor_seating": "no",
      "addr_state": "CT",
      "addr_city": "Mansfield Center",
      "addr_postcode": "06250",
      "addr_street": "Storrs Road",
      "value": 279.2632172233851
    },
    {
      "id": 89554,
      "geometry": "POINT (-72.09545 41.354614)",
      "poi_name": "Kin D Thai and Sushi",
      "osm_id": 8851520383,
      "amenity": "restaurant",
      "cuisine": "thai",
      "website": "https://www.kin-dthaiandsushi.com",
      "phone": "+1 860 574 9097",
      "addr_state": "CT",
      "addr_city": "New London",
      "addr_postcode": "06320",
      "addr_street": "State Street",
      "addr_housenumber": "123",
      "value": 279.2632172233851
    },
    {
      "id": 89558,
      "geometry": "POINT (-72.094399 41.35304)",
      "poi_name": "Noble",
      "osm_id": 8851533584,
      "amenity": "restaurant",
      "website": "https://noblenewlondon.com",
      "phone": "+1 860 574 9013",
      "addr_state": "CT",
      "addr_city": "New London",
      "addr_postcode": "06320",
      "addr_street": "Bank Street",
      "addr_housenumber": "74",
      "value": 279.2632172233851
    },
    {
      "id": 89559,
      "geometry": "POINT (-72.09599 41.354467)",
      "poi_name": "Swad Tandoori",
      "osm_id": 8851536587,
      "amenity": "restaurant",
      "cuisine": "indian",
      "website": "https://www.swadtandoorinewlondon.com",
      "phone": "+1 860 439 1809",
      "addr_state": "CT",
      "addr_city": "New London",
      "addr_postcode": "06320",
      "addr_street": "State Street",
      "addr_housenumber": "150",
      "value": 279.2632172233851
    },
    {
      "id": 89560,
      "geometry": "POINT (-72.095838 41.35239)",
      "poi_name": "Noodles & Rice Bistro",
      "osm_id": 8851536654,
      "amenity": "restaurant",
      "cuisine": "noodle",
      "website": "https://www.facebook.com/noodlesandricebistro",
      "phone": "+1 860 443 4444",
      "addr_state": "CT",
      "addr_city": "New London",
      "addr_postcode": "06320",
      "addr_street": "Bank Street",
      "addr_housenumber": "165",
      "value": 279.2632172233851
    },
    {
      "id": 89561,
      "geometry": "POINT (-72.095622 41.352523)",
      "poi_name": "Right Path Organic Cafe",
      "osm_id": 8851537238,
      "amenity": "restaurant",
      "website": "https://rightpathorganicca.wixsite.com/right-path-food",
      "phone": "+1 860 437 9700",
      "addr_state": "CT",
      "addr_city": "New London",
      "addr_postcode": "06320",
      "addr_street": "Bank Street",
      "addr_housenumber": "147",
      "value": 279.2632172233851
    },
    {
      "id": 89562,
      "geometry": "POINT (-72.093974 41.353558)",
      "poi_name": "Dockside Resort Bar",
      "osm_id": 8851537662,
      "amenity": "restaurant",
      "cuisine": "seafood",
      "website": "https://www.facebook.com/DocksideNewLondon",
      "phone": "+1 860 443 7433",
      "addr_state": "CT",
      "addr_city": "New London",
      "addr_postcode": "06320",
      "addr_street": "Bank Street",
      "addr_housenumber": "32",
      "value": 279.2632172233851
    },
    {
      "id": 89563,
      "geometry": "POINT (-72.099757 41.356053)",
      "poi_name": "Tony D's Italian Restaurant",
      "osm_id": 8851537805,
      "amenity": "restaurant",
      "cuisine": "italian",
      "website": "https://www.tonydsnl.com",
      "phone": "+1 860 443 9900",
      "outdoor_seating": "no",
      "addr_state": "CT",
      "addr_city": "New London",
      "addr_postcode": "06320",
      "addr_street": "Huntington Street",
      "addr_housenumber": "92",
      "value": 279.2632172233851
    },
    {
      "id": 89565,
      "geometry": "POINT (-72.093497 41.353858)",
      "poi_name": "Thames Landing Oyster House",
      "osm_id": 8851545804,
      "amenity": "restaurant",
      "cuisine": "seafood",
      "website": "https://www.thameslandingoysterhouse.com",
      "phone": "+1 860 574 9232",
      "addr_state": "CT",
      "addr_city": "New London",
      "addr_postcode": "06320",
      "addr_street": "State Street",
      "addr_housenumber": "2",
      "value": 279.2632172233851
    },
    {
      "id": 89566,
      "geometry": "POINT (-72.095559 41.354639)",
      "poi_name": "Wings 'n' Pies",
      "osm_id": 8851546450,
      "amenity": "restaurant",
      "cuisine": "pizza",
      "website": "https://www.wingsnpiesnewlondon.com",
      "phone": "+1 860 442 4700",
      "addr_state": "CT",
      "addr_city": "New London",
      "addr_postcode": "06320",
      "addr_street": "State Street",
      "addr_housenumber": "131",
      "value": 279.2632172233851
    },
    {
      "id": 90044,
      "geometry": "POINT (-72.293756 41.766446)",
      "poi_name": "Husky Pizza",
      "osm_id": 8880504194,
      "amenity": "restaurant",
      "cuisine": "pizza",
      "addr_state": "CT",
      "addr_city": "Coventry",
      "addr_postcode": "06238",
      "addr_street": "Main Street",
      "addr_housenumber": "1011",
      "value": 279.2632172233851
    },
    {
      "id": 89866,
      "geometry": "POINT (-72.960395 41.326131)",
      "poi_name": "Camacho Garage",
      "osm_id": 8867834501,
      "amenity": "restaurant",
      "cuisine": "tacos;mexican;street_food",
      "website": "https://www.camachogarage.com/",
      "phone": "203-691-1969",
      "addr_state": "CT",
      "addr_city": "New Haven",
      "addr_postcode": "06515",
      "addr_street": "Fountain Street",
      "addr_housenumber": "36",
      "value": 279.2632172233851
    },
    {
      "id": 92464,
      "geometry": "POINT (-72.930408 41.306474)",
      "poi_name": "Louis' Lunch",
      "osm_id": 2122108492,
      "amenity": "restaurant",
      "cuisine": "burger",
      "opening_hours": "Mo off; Tu-We 11:00-15:45; Th-Sa 12:00-14:00; Su off",
      "website": "http://www.louislunch.com/",
      "phone": "+1 203 562 5507",
      "wikidata": "Q6686356",
      "addr_state": "CT",
      "addr_city": "New Haven",
      "addr_postcode": "06511",
      "addr_street": "Crown Street",
      "addr_housenumber": "161,163",
      "value": 279.2632172233851
    },
    {
      "id": 94646,
      "geometry": "POINT (-72.665663 41.52368)",
      "poi_name": "Haveli India",
      "osm_id": 6371636336,
      "amenity": "restaurant",
      "cuisine": "indian",
      "addr_state": "CT",
      "addr_city": "Middletown",
      "addr_postcode": "06457",
      "addr_street": "South Main Street",
      "addr_housenumber": "1300",
      "value": 279.2632172233851
    },
    {
      "id": 93901,
      "geometry": "POINT (-72.935387 41.30915)",
      "poi_name": "Tandoor",
      "osm_id": 2191965699,
      "amenity": "restaurant",
      "cuisine": "indian",
      "addr_state": "CT",
      "addr_city": "New Haven",
      "addr_postcode": "06511",
      "addr_street": "Chapel Street",
      "addr_housenumber": "1226",
      "value": 279.2632172233851
    },
    {
      "id": 97837,
      "geometry": "POINT (-72.733428 41.733031)",
      "poi_name": "The Hungry Crab",
      "osm_id": 6496880939,
      "amenity": "restaurant",
      "cuisine": "seafood;cajun",
      "opening_hours": "Mo-Th 15:00-23:00; Fr-Sa 12:00-24:00; Su 12:00-22:00",
      "website": "http://www.thehungrycrab.com",
      "phone": "+1-860-937-5738",
      "addr_state": "CT",
      "addr_city": "West Hartford",
      "addr_postcode": "06110",
      "addr_street": "New Britain Avenue",
      "addr_housenumber": "1144",
      "value": 279.2632172233851
    },
    {
      "id": 97269,
      "geometry": "POINT (-72.411141 41.546264)",
      "poi_name": "Diane's Restaurant",
      "osm_id": 6469622084,
      "amenity": "restaurant",
      "cuisine": "breakfast;lunch;brunch",
      "website": "https://www.facebook.com/DianesRestaurantCT",
      "phone": "+1 860 267 2395",
      "addr_state": "CT",
      "addr_city": "Colchester",
      "addr_postcode": "06415",
      "addr_street": "Westchester Road",
      "addr_housenumber": "493",
      "value": 279.2632172233851
    },
    {
      "id": 97270,
      "geometry": "POINT (-72.411359 41.546252)",
      "poi_name": "Germano's Ristorante and Bar",
      "osm_id": 6469622185,
      "amenity": "restaurant",
      "cuisine": "pizza;burger;wings;pasta",
      "website": "https://germanosct.com",
      "phone": "+1 860 267 2018",
      "addr_state": "CT",
      "addr_city": "Colchester",
      "addr_postcode": "06415",
      "addr_street": "Westchester Road",
      "addr_housenumber": "493",
      "value": 279.2632172233851
    },
    {
      "id": 97271,
      "geometry": "POINT (-72.411392 41.546343)",
      "poi_name": "Ming Garden",
      "osm_id": 6469622186,
      "amenity": "restaurant",
      "cuisine": "chinese",
      "website": "https://www.facebook.com/MINGGARDEN5562",
      "phone": "+1 860 267 5562",
      "addr_state": "CT",
      "addr_city": "Colchester",
      "addr_postcode": "06415",
      "addr_street": "Westchester Road",
      "addr_housenumber": "493",
      "value": 279.2632172233851
    },
    {
      "id": 97732,
      "geometry": "POINT (-72.242696 41.804384)",
      "poi_name": "Eat Joy",
      "osm_id": 6491642619,
      "amenity": "restaurant",
      "cuisine": "asian;sushi",
      "wheelchair": "yes",
      "website": "https://eatjoy.business.site/",
      "phone": "+1 (860) 477-0528",
      "takeaway": "yes",
      "outdoor_seating": "no",
      "addr_state": "CT",
      "addr_city": "Storrs",
      "addr_postcode": "06268",
      "addr_street": "Royce Circle",
      "addr_housenumber": "1",
      "value": 279.2632172233851
    },
    {
      "id": 97733,
      "geometry": "POINT (-72.24255 41.804359)",
      "poi_name": "Farmhouse Cr\u00eapes",
      "osm_id": 6491642620,
      "amenity": "restaurant",
      "cuisine": "crepe",
      "website": "https://www.farmhousecrepes.com/",
      "phone": "+1 (860) 477-1025",
      "outdoor_seating": "no",
      "addr_state": "CT",
      "addr_city": "Storrs",
      "addr_postcode": "06268",
      "addr_street": "Royce Circle",
      "addr_housenumber": "1",
      "value": 279.2632172233851
    },
    {
      "id": 97737,
      "geometry": "POINT (-72.241483 41.803857)",
      "poi_name": "Kathmandu Kitchen",
      "osm_id": 6491642632,
      "amenity": "restaurant",
      "cuisine": "indian;nepalese;buffet",
      "description": "Kathmandu Kitchen serves a wide selection of authentic Nepalese and Indian Restaurant dishes prepared in homemade style with our own special recipes. Each dish is prepared from the freshest ingredients available.",
      "website": "https://ktmkitchenandbarct.com/",
      "phone": "+1 (860) 477-1148",
      "takeaway": "yes",
      "delivery": "yes",
      "addr_state": "CT",
      "addr_city": "Storrs",
      "addr_postcode": "06268",
      "addr_street": "Wilbur Cross Way",
      "addr_housenumber": "33",
      "value": 279.2632172233851
    },
    {
      "id": 97738,
      "geometry": "POINT (-72.24134 41.803703)",
      "poi_name": "Tang Karaoke & BBQ",
      "osm_id": 6491642633,
      "amenity": "restaurant",
      "cuisine": "barbecue;noodle",
      "description": "Come and try our delicious barbecue and noodles! You won't regret it!",
      "website": "https://www.tangktvuconn.com/",
      "phone": "+1 (860) 477-1264",
      "addr_state": "CT",
      "addr_city": "Storrs",
      "addr_postcode": "06268",
      "addr_street": "Wilbur Cross Way",
      "addr_housenumber": "33",
      "value": 279.2632172233851
    },
    {
      "id": 97739,
      "geometry": "POINT (-72.241514 41.804309)",
      "poi_name": "Tea More Caf\u00e9",
      "osm_id": 6491642635,
      "amenity": "restaurant",
      "cuisine": "chinese;cafe;bubble_tea;tea",
      "phone": "+1 (860) 477-1447",
      "addr_state": "CT",
      "addr_city": "Storrs",
      "addr_postcode": "06268",
      "addr_street": "Wilbur Cross Way",
      "addr_housenumber": "40",
      "value": 279.2632172233851
    },
    {
      "id": 97758,
      "geometry": "POINT (-72.241727 41.80302)",
      "poi_name": "Oriental Cafe",
      "osm_id": 6493228325,
      "amenity": "restaurant",
      "cuisine": "asian",
      "addr_state": "CT",
      "addr_city": "Storrs",
      "addr_postcode": "06268",
      "addr_street": "Storrs Road",
      "addr_housenumber": "1232",
      "value": 279.2632172233851
    },
    {
      "id": 97759,
      "geometry": "POINT (-72.241583 41.802865)",
      "poi_name": "D.P. Dough",
      "osm_id": 6493228326,
      "amenity": "restaurant",
      "cuisine": "calzone",
      "addr_state": "CT",
      "addr_city": "Storrs",
      "addr_postcode": "06268",
      "addr_street": "Storrs Road",
      "addr_housenumber": "1232",
      "value": 279.2632172233851
    },
    {
      "id": 98302,
      "geometry": "POINT (-72.674395 41.766518)",
      "poi_name": "Dhaba Wala Indian Kitchen",
      "osm_id": 6515128335,
      "amenity": "restaurant",
      "cuisine": "indian",
      "website": "https://www.dhabawalahartford.com/",
      "capacity": "30",
      "takeaway": "yes",
      "outdoor_seating": "no",
      "addr_state": "CT",
      "addr_city": "Hartford",
      "addr_postcode": "06103",
      "addr_street": "Asylum Street",
      "addr_housenumber": "49",
      "value": 279.2632172233851
    },
    {
      "id": 98164,
      "geometry": "POINT (-72.890544 41.823261)",
      "poi_name": "Joe Pizza",
      "osm_id": 6509475226,
      "amenity": "restaurant",
      "cuisine": "pizza",
      "opening_hours": "Mo-Su 11:30-21:00",
      "addr_state": "CT",
      "addr_city": "Canton",
      "addr_postcode": "06019",
      "addr_street": "Albany Turnpike",
      "addr_housenumber": "140",
      "value": 279.2632172233851
    },
    {
      "id": 98298,
      "geometry": "POINT (-72.67965 41.767711)",
      "poi_name": "Black-Eyed Sally's",
      "osm_id": 6515032460,
      "amenity": "restaurant",
      "cuisine": "barbecue",
      "website": "https://www.blackeyedsallys.com/",
      "phone": "+1 860 278 7427",
      "addr_state": "CT",
      "addr_city": "Hartford",
      "addr_postcode": "06103",
      "addr_street": "Asylum Street",
      "addr_housenumber": "350",
      "value": 279.2632172233851
    },
    {
      "id": 98299,
      "geometry": "POINT (-72.67833 41.768519)",
      "poi_name": "Aladdin Mediterranean Cuisine & Pizzeria",
      "osm_id": 6515091816,
      "amenity": "restaurant",
      "website": "https://www.aladdinhalal.com/",
      "phone": "+1 860 278 0202",
      "addr_state": "CT",
      "addr_city": "Hartford",
      "addr_postcode": "06103",
      "addr_street": "Allyn Street",
      "addr_housenumber": "100",
      "value": 279.2632172233851
    },
    {
      "id": 100604,
      "geometry": "POINT (-72.742775 41.75912)",
      "poi_name": "Harry's Pizzeria & Tavern",
      "osm_id": 6593934270,
      "amenity": "restaurant",
      "cuisine": "pizza",
      "website": "https://www.harryspizzawesthartford.com/index.php",
      "phone": "+1-860-231-7166",
      "addr_state": "CT",
      "addr_city": "West Hartford",
      "addr_postcode": "06107",
      "addr_street": "South Main Street",
      "addr_housenumber": "39",
      "value": 279.2632172233851
    },
    {
      "id": 100447,
      "geometry": "POINT (-72.078051 41.524249)",
      "poi_name": "Ice and Fire Asian Cuisine",
      "osm_id": 6586004398,
      "amenity": "restaurant",
      "cuisine": "asian",
      "website": "https://www.icefirenorwichct.com",
      "phone": "+1 860 425 0990",
      "addr_state": "CT",
      "addr_city": "Norwich",
      "addr_postcode": "06360",
      "addr_street": "Main Street",
      "addr_housenumber": "85",
      "value": 279.2632172233851
    },
    {
      "id": 103138,
      "geometry": "POINT (-72.69495 41.803849)",
      "poi_name": "Kennedy Fried Chicken",
      "osm_id": 8484682513,
      "amenity": "restaurant",
      "cuisine": "chicken",
      "website": "https://kennedy-fried-chicken-delivery-service.business.site",
      "phone": "+1 860 242 4818",
      "addr_state": "CT",
      "addr_city": "Hartford",
      "addr_postcode": "06112",
      "addr_street": "Blue Hills Avenue",
      "addr_housenumber": "618",
      "value": 279.2632172233851
    },
    {
      "id": 102939,
      "geometry": "POINT (-71.969641 41.591342)",
      "poi_name": "Mei's Kitchen",
      "osm_id": 8467802219,
      "amenity": "restaurant",
      "cuisine": "chinese",
      "opening_hours": "Tu-Sa 11:00-21:30; Su 12:00-21:30",
      "website": "https://www.meiskitch3n.com",
      "phone": "+1 860 376 1181",
      "addr_state": "CT",
      "addr_city": "Griswold",
      "addr_postcode": "06351",
      "addr_street": "Voluntown Road",
      "addr_housenumber": "461",
      "value": 279.2632172233851
    },
    {
      "id": 103039,
      "geometry": "POINT (-71.981847 41.60597)",
      "poi_name": "Chopstix Chinese Restaurant",
      "osm_id": 8477478971,
      "amenity": "restaurant",
      "cuisine": "chinese",
      "opening_hours": "Tu-Su 11:00-22:00",
      "website": "https://chopstix-chinese.edan.io/",
      "phone": "+1 860 376 8893",
      "addr_state": "CT",
      "addr_city": "Griswold",
      "addr_postcode": "06351",
      "addr_street": "Main Street",
      "addr_housenumber": "61",
      "value": 279.2632172233851
    },
    {
      "id": 103077,
      "geometry": "POINT (-71.983048 41.605305)",
      "poi_name": "Mandarin Garden",
      "osm_id": 8481046682,
      "amenity": "restaurant",
      "cuisine": "chinese",
      "opening_hours": "Su 12:00-21:00; Mo, We-Th 10:00-21:00; Fr-Sa 10:00-22:00",
      "website": "https://www.mandaringardenjc.com",
      "phone": "+1 860 376 1531",
      "addr_state": "CT",
      "addr_city": "Griswold",
      "addr_postcode": "06351",
      "addr_street": "Main Street",
      "addr_housenumber": "31",
      "value": 279.2632172233851
    },
    {
      "id": 103078,
      "geometry": "POINT (-71.982885 41.605403)",
      "poi_name": "Uncle Kranky's Caf\u00e9",
      "osm_id": 8481046683,
      "amenity": "restaurant",
      "opening_hours": "Su 12:00-22:00; Th-Sa 12:00-00:00; Mo 04:00-10:00; We 12:00-23:00",
      "website": "https://uncle-krankys-cafe.business.site/",
      "phone": "+1 860 376 4226",
      "addr_state": "CT",
      "addr_city": "Griswold",
      "addr_postcode": "06351",
      "addr_street": "Main Street",
      "addr_housenumber": "37",
      "value": 279.2632172233851
    },
    {
      "id": 103079,
      "geometry": "POINT (-71.982817 41.60545)",
      "poi_name": "Charlene's Diner",
      "osm_id": 8481046684,
      "amenity": "restaurant",
      "opening_hours": "Tu-Fr 05:00-13:30; Sa-Su 05:00-12:30; Mo 05:00-11:00",
      "website": "https://www.facebook.com/Charlenes-Diner-783597505029639",
      "phone": "+1 860 376 9465",
      "addr_state": "CT",
      "addr_city": "Griswold",
      "addr_postcode": "06351",
      "addr_street": "Main Street",
      "addr_housenumber": "37",
      "value": 279.2632172233851
    },
    {
      "id": 103080,
      "geometry": "POINT (-71.982546 41.605643)",
      "poi_name": "Altone's Italian Restaurant",
      "osm_id": 8481046689,
      "amenity": "restaurant",
      "cuisine": "italian",
      "website": "https://altones-italian.edan.io/",
      "phone": "+1 860 376 5940",
      "addr_state": "CT",
      "addr_city": "Griswold",
      "addr_postcode": "06351",
      "addr_street": "Main Street",
      "addr_housenumber": "47",
      "value": 279.2632172233851
    },
    {
      "id": 103480,
      "geometry": "POINT (-72.688841 41.778834)",
      "poi_name": "Coconut Cafe",
      "osm_id": 8505028461,
      "amenity": "restaurant",
      "cuisine": "jamaican",
      "website": "https://www.facebook.com/Coconut-Cafe-516985061660429",
      "phone": "+1 860 937 2922",
      "addr_state": "CT",
      "addr_city": "Hartford",
      "addr_postcode": "06112",
      "addr_street": "Albany Avenue",
      "addr_housenumber": "719",
      "value": 279.2632172233851
    },
    {
      "id": 103256,
      "geometry": "POINT (-72.697625 41.781234)",
      "poi_name": "Jahm Ske's Restaurant",
      "osm_id": 8493047091,
      "amenity": "restaurant",
      "cuisine": "west_indian",
      "phone": "+1 860 246 7778",
      "addr_state": "CT",
      "addr_city": "Hartford",
      "addr_postcode": "06112",
      "addr_street": "Albany Avenue",
      "addr_housenumber": "1291",
      "value": 279.2632172233851
    },
    {
      "id": 103257,
      "geometry": "POINT (-72.69785 41.781292)",
      "poi_name": "Lok Chung Chinese Restaurant",
      "osm_id": 8493047092,
      "amenity": "restaurant",
      "cuisine": "chinese",
      "phone": "+1 860 249 3357",
      "addr_state": "CT",
      "addr_city": "Hartford",
      "addr_postcode": "06112",
      "addr_street": "Albany Avenue",
      "addr_housenumber": "1291",
      "value": 279.2632172233851
    },
    {
      "id": 103269,
      "geometry": "POINT (-72.69509 41.804111)",
      "poi_name": "Scott's Jamaican Bakery",
      "osm_id": 8493217305,
      "amenity": "restaurant",
      "website": "https://www.scottsjamaicanbakery.com/blue-hills-avenue-branch",
      "phone": "+1 860 243 2609",
      "addr_state": "CT",
      "addr_city": "Hartford",
      "addr_postcode": "06112",
      "addr_street": "Blue Hills Avenue",
      "addr_housenumber": "630",
      "value": 279.2632172233851
    },
    {
      "id": 103481,
      "geometry": "POINT (-72.688246 41.779006)",
      "poi_name": "Albany Avenue Food Mart And Deli",
      "osm_id": 8505028470,
      "amenity": "restaurant",
      "addr_state": "CT",
      "addr_city": "Hartford",
      "addr_postcode": "06112",
      "addr_street": "Albany Avenue",
      "addr_housenumber": "706",
      "value": 279.2632172233851
    },
    {
      "id": 103625,
      "geometry": "POINT (-72.68453 41.739104)",
      "poi_name": "Great Wall",
      "osm_id": 8514929847,
      "amenity": "restaurant",
      "cuisine": "chinese",
      "phone": "+1 860 246 9335",
      "addr_state": "CT",
      "addr_city": "Hartford",
      "addr_postcode": "06114",
      "addr_street": "Maple Avenue",
      "addr_housenumber": "764",
      "value": 279.2632172233851
    },
    {
      "id": 103585,
      "geometry": "POINT (-72.703382 41.75604)",
      "poi_name": "Caf\u00e9 at Fifty-Five",
      "osm_id": 8512116151,
      "amenity": "restaurant",
      "website": "http://www.cafeatfiftyfive.org",
      "phone": "+1 860 706 1523",
      "addr_state": "CT",
      "addr_city": "Hartford",
      "addr_postcode": "06106",
      "addr_street": "Bartholomew Avenue",
      "addr_housenumber": "47",
      "value": 279.2632172233851
    },
    {
      "id": 103631,
      "geometry": "POINT (-72.675228 41.737839)",
      "poi_name": "Sun Splash Bar and Grill",
      "osm_id": 8515368444,
      "amenity": "restaurant",
      "cuisine": "jamaican",
      "website": "https://www.sunsplashbarandgrill.com",
      "phone": "+1 860 904 9310",
      "addr_state": "CT",
      "addr_city": "Hartford",
      "addr_postcode": "06114",
      "addr_street": "Franklin Avenue",
      "addr_housenumber": "428",
      "value": 279.2632172233851
    },
    {
      "id": 103773,
      "geometry": "POINT (-71.981073 41.606783)",
      "poi_name": "Dean's Corner",
      "osm_id": 8522865308,
      "amenity": "restaurant",
      "opening_hours": "Mo-Fr 07:00-14:00; Sa 06:00-13:30; Su 07:00-13:00",
      "website": "https://www.facebook.com/Deans-Corner-136547686438859",
      "phone": "+1 860 376 9141",
      "addr_state": "CT",
      "addr_city": "Griswold",
      "addr_postcode": "06351",
      "addr_street": "East Main Street",
      "addr_housenumber": "1",
      "value": 279.2632172233851
    },
    {
      "id": 104119,
      "geometry": "POINT (-72.087543 41.522863)",
      "poi_name": "King Wah Chinese Restaurant",
      "osm_id": 8550858059,
      "amenity": "restaurant",
      "cuisine": "chinese",
      "phone": "+1 860 889 2262",
      "addr_state": "CT",
      "addr_city": "Norwich",
      "addr_postcode": "06360",
      "addr_street": "West Main Street",
      "addr_housenumber": "276",
      "value": 279.2632172233851
    },
    {
      "id": 103938,
      "geometry": "POINT (-72.09696 41.499693)",
      "poi_name": "Joy's Restaurant",
      "osm_id": 8534136300,
      "amenity": "restaurant",
      "cuisine": "mexican;american;breakfast",
      "opening_hours": "Mo-Sa 06:00-14:00",
      "website": "https://www.joysfamilyrestaurant.com",
      "phone": "+1 860 886 5082",
      "addr_state": "CT",
      "addr_city": "Norwich",
      "addr_postcode": "06360",
      "addr_street": "West Thames Street",
      "addr_housenumber": "671",
      "value": 279.2632172233851
    },
    {
      "id": 104031,
      "geometry": "POINT (-72.064626 41.474674)",
      "poi_name": "David's Cafe",
      "osm_id": 8541510515,
      "amenity": "restaurant",
      "website": "https://www.facebook.com/davidscafe134",
      "phone": "+1 860 889 5659",
      "addr_state": "CT",
      "addr_city": "Preston",
      "addr_postcode": "06365",
      "addr_street": "Route 12",
      "addr_housenumber": "134",
      "value": 279.2632172233851
    },
    {
      "id": 104032,
      "geometry": "POINT (-72.064868 41.47484)",
      "poi_name": "Golden Pizza Restaurant",
      "osm_id": 8541510516,
      "amenity": "restaurant",
      "cuisine": "pizza",
      "website": "https://goldenpizzarestaurant.com",
      "phone": "+1 860 886 5577",
      "addr_state": "CT",
      "addr_city": "Preston",
      "addr_postcode": "06365",
      "addr_street": "Route 12",
      "addr_housenumber": "134",
      "value": 279.2632172233851
    },
    {
      "id": 104085,
      "geometry": "POINT (-72.149882 41.506994)",
      "poi_name": "Bozrah Pizza Restaurant",
      "osm_id": 8544957518,
      "amenity": "restaurant",
      "cuisine": "pizza",
      "website": "https://www.bozrahpizza.com",
      "phone": "+1 860 886 4889",
      "addr_state": "CT",
      "addr_city": "Bozrah",
      "addr_postcode": "06334",
      "addr_street": "Salem Turnpike",
      "addr_housenumber": "426",
      "value": 279.2632172233851
    },
    {
      "id": 104802,
      "geometry": "POINT (-72.640089 41.665132)",
      "poi_name": "Whole Deli",
      "osm_id": 8588102467,
      "amenity": "restaurant",
      "website": "https://www.wholedelirockyhill.com",
      "addr_state": "CT",
      "addr_city": "Rocky Hill",
      "addr_postcode": "06067",
      "addr_street": "Silas Deane Highway",
      "addr_housenumber": "2329",
      "value": 279.2632172233851
    },
    {
      "id": 104806,
      "geometry": "POINT (-72.864935 41.321325)",
      "poi_name": "Gia Marie's Pizzeria",
      "osm_id": 8588191568,
      "amenity": "restaurant",
      "cuisine": "pizza",
      "opening_hours": "Mo-Su 11:00-20:30; Fr,Sa 11:00-21:30",
      "website": "https://www.giamariespizzeriaeasthaven.com/",
      "addr_city": "East Haven",
      "addr_postcode": "06513",
      "addr_street": "Foxon Road",
      "addr_housenumber": "945",
      "value": 279.2632172233851
    },
    {
      "id": 105052,
      "geometry": "POINT (-72.094572 41.520339)",
      "poi_name": "Golden Elegant Sushi and Bar",
      "osm_id": 8599560771,
      "amenity": "restaurant",
      "cuisine": "sushi",
      "phone": "+1 860 213 5913",
      "addr_state": "CT",
      "addr_city": "Norwich",
      "addr_postcode": "06360",
      "addr_street": "West Main Street",
      "addr_housenumber": "437",
      "value": 279.2632172233851
    },
    {
      "id": 105070,
      "geometry": "POINT (-72.088061 41.522741)",
      "poi_name": "India Grill and Mild Curry",
      "osm_id": 8600404328,
      "amenity": "restaurant",
      "cuisine": "indian",
      "website": "https://www.facebook.com/indiagrillandmildcurrynorwich",
      "phone": "+1 860 887 5555",
      "addr_state": "CT",
      "addr_city": "Norwich",
      "addr_postcode": "06360",
      "addr_street": "West Main Street",
      "addr_housenumber": "276",
      "value": 279.2632172233851
    },
    {
      "id": 104996,
      "geometry": "POINT (-72.046281 41.599463)",
      "poi_name": "Excalibur Bar and Grill",
      "osm_id": 8593975548,
      "amenity": "restaurant",
      "cuisine": "grill;bar&grill",
      "website": "https://www.facebook.com/profile.php?id=100011332558764",
      "phone": "+1 860 222 3284",
      "addr_state": "CT",
      "addr_city": "Sprague",
      "addr_postcode": "06330",
      "addr_street": "Main Street",
      "addr_housenumber": "36",
      "value": 279.2632172233851
    },
    {
      "id": 106004,
      "geometry": "POINT (-71.907313 41.723405)",
      "poi_name": "Danny's Depot Diner",
      "osm_id": 8657910082,
      "amenity": "restaurant",
      "website": "https://www.facebook.com/DannysDepotDinerRt12",
      "phone": "+1 860 564 3447",
      "addr_state": "CT",
      "addr_city": "Plainfield",
      "addr_postcode": "06374",
      "addr_street": "Putnam Road",
      "addr_housenumber": "10",
      "value": 279.2632172233851
    },
    {
      "id": 106027,
      "geometry": "POINT (-72.076098 41.337753)",
      "poi_name": "Bamboo House",
      "osm_id": 8660356136,
      "amenity": "restaurant",
      "cuisine": "chinese",
      "website": "https://www.bamboohouse06340.com",
      "phone": "+1 860 449 0088",
      "addr_state": "CT",
      "addr_city": "Groton",
      "addr_postcode": "06340",
      "addr_street": "Eastern Point Road",
      "addr_housenumber": "398",
      "value": 279.2632172233851
    },
    {
      "id": 106484,
      "geometry": "POINT (-71.919357 41.679905)",
      "poi_name": "Day Breaks Diner",
      "osm_id": 8681565053,
      "amenity": "restaurant",
      "opening_hours": "Tu-Su 05:00-14:00",
      "website": "https://www.facebook.com/DayBreaks-Diner-492046600824338",
      "phone": "+1 860 564 5499",
      "addr_state": "CT",
      "addr_city": "Plainfield",
      "addr_postcode": "06374",
      "addr_street": "Railroad Avenue",
      "addr_housenumber": "43",
      "value": 279.2632172233851
    },
    {
      "id": 106059,
      "geometry": "POINT (-72.177781 41.741367)",
      "poi_name": "Illiano's Pizzeria and Restaurant",
      "osm_id": 8662485503,
      "amenity": "restaurant",
      "cuisine": "italian",
      "website": "https://illianosofcolchester.com/",
      "phone": "+1 860 942 8899",
      "outdoor_seating": "no",
      "addr_state": "CT",
      "addr_city": "Windham",
      "addr_postcode": "06256",
      "addr_street": "Boston Post Road",
      "addr_housenumber": "361",
      "value": 279.2632172233851
    },
    {
      "id": 107300,
      "geometry": "POINT (-72.678843 41.288846)",
      "poi_name": "The Place",
      "osm_id": 3551739575,
      "amenity": "restaurant",
      "cuisine": "barbecue",
      "description": "Outdoor dining only weather permitting",
      "opening_hours": "May-Sep: Mo-Th 17:00-21:00; May-Sep: Fr 17:00-22:00; May-Oct: Sa 13:00-22:00; May-Oct: Su 12:00-21:00",
      "addr_state": "CT",
      "addr_city": "Guilford",
      "addr_postcode": "06437",
      "addr_street": "Boston Post Road",
      "addr_housenumber": "901",
      "value": 279.2632172233851
    },
    {
      "id": 107168,
      "geometry": "POINT (-72.593687 41.283306)",
      "poi_name": "Jia Mei Asian Kitchen",
      "osm_id": 3540321706,
      "amenity": "restaurant",
      "opening_hours": "Mo-Th 11:00-21:00; Fr-Sa 11:00-22:00; Su 12:00-21:00",
      "website": "http://jiameiasiankitchen.com/",
      "phone": "203 421 6173",
      "takeaway": "yes",
      "addr_state": "CT",
      "addr_city": "Madison",
      "addr_postcode": "06443",
      "addr_street": "Wall Street",
      "addr_housenumber": "105",
      "value": 279.2632172233851
    },
    {
      "id": 107246,
      "geometry": "POINT (-72.595119 41.279881)",
      "poi_name": "Madison Coffee Shop",
      "osm_id": 3547203353,
      "amenity": "restaurant",
      "addr_state": "CT",
      "addr_city": "Madison",
      "addr_postcode": "06443",
      "addr_street": "Boston Post Road",
      "addr_housenumber": "765",
      "value": 279.2632172233851
    },
    {
      "id": 108866,
      "geometry": "POINT (-72.89894 41.404541)",
      "poi_name": "Midori",
      "osm_id": 3637572914,
      "amenity": "restaurant",
      "cuisine": "asian",
      "addr_state": "CT",
      "addr_city": "Hamden",
      "addr_postcode": "06518",
      "addr_street": "Whitney Avenue",
      "addr_housenumber": "3000",
      "value": 279.2632172233851
    },
    {
      "id": 109031,
      "geometry": "POINT (-72.222426 41.431796)",
      "poi_name": "Cobalt Cafe at Nature's Art Village",
      "osm_id": 3646701863,
      "amenity": "restaurant",
      "cuisine": "sandwich",
      "opening_hours": "10:00-17:00",
      "website": "http://www.naturesartvillage.com",
      "capacity": "100",
      "phone": "860-443-4367",
      "takeaway": "yes",
      "delivery": "no",
      "addr_state": "CT",
      "addr_city": "Montville",
      "addr_postcode": "06370",
      "addr_street": "Hartford-New London Turnpike",
      "addr_housenumber": "1650",
      "value": 279.2632172233851
    },
    {
      "id": 109032,
      "geometry": "POINT (-72.222722 41.432482)",
      "poi_name": "The Ice Cream Shop at Nature's Art Village",
      "osm_id": 3646705786,
      "amenity": "restaurant",
      "cuisine": "ice_cream",
      "opening_hours": "10:00-18:00",
      "capacity": "200",
      "phone": "860-443-4367",
      "takeaway": "yes",
      "delivery": "no",
      "addr_state": "CT",
      "addr_city": "Montville",
      "addr_postcode": "06370",
      "addr_street": "Hartford-New London Turnpike",
      "addr_housenumber": "1650",
      "value": 279.2632172233851
    },
    {
      "id": 109033,
      "geometry": "POINT (-72.224356 41.432439)",
      "poi_name": "Monty's Munchies at The Dinosaur Place",
      "osm_id": 3646708480,
      "amenity": "restaurant",
      "cuisine": "burger",
      "opening_hours": "11:00-17:00",
      "capacity": "200",
      "phone": "860-443-4367",
      "takeaway": "yes",
      "delivery": "no",
      "addr_state": "CT",
      "addr_city": "Montville",
      "addr_postcode": "06370",
      "addr_street": "Hartford-New London Turnpike",
      "addr_housenumber": "1650",
      "value": 279.2632172233851
    },
    {
      "id": 109827,
      "geometry": "POINT (-72.911873 41.507186)",
      "poi_name": "Fuoco Apizza",
      "osm_id": 3676648428,
      "amenity": "restaurant",
      "cuisine": "pizza",
      "addr_state": "CT",
      "addr_postcode": "06410",
      "addr_street": "West Main Street",
      "addr_housenumber": "461",
      "value": 279.2632172233851
    },
    {
      "id": 112830,
      "geometry": "POINT (-72.091913 41.521852)",
      "poi_name": "Fat Cat Grill and Bar",
      "osm_id": 3806777138,
      "amenity": "restaurant",
      "cuisine": "pizza;grill;bar&grill",
      "website": "https://www.fatcatgrillct.com/",
      "phone": "+1 860 886 0054",
      "addr_state": "CT",
      "addr_city": "Norwich",
      "addr_postcode": "06360",
      "addr_street": "West Main Street",
      "addr_housenumber": "381",
      "value": 279.2632172233851
    },
    {
      "id": 112436,
      "geometry": "POINT (-72.593579 41.281948)",
      "poi_name": "Moxie",
      "osm_id": 3791317264,
      "amenity": "restaurant",
      "website": "http://moxie-bar.com",
      "phone": "203 421 6963",
      "addr_state": "CT",
      "addr_city": "Madison",
      "addr_postcode": "06443",
      "addr_street": "Wall Street",
      "addr_housenumber": "52",
      "value": 279.2632172233851
    },
    {
      "id": 110874,
      "geometry": "POINT (-72.676096 41.765438)",
      "poi_name": "Salute",
      "osm_id": 3721787583,
      "amenity": "restaurant",
      "website": "http://salutect.com/",
      "addr_state": "CT",
      "addr_city": "Hartford",
      "addr_postcode": "06103",
      "addr_street": "Trumbull Street",
      "addr_housenumber": "100",
      "value": 279.2632172233851
    },
    {
      "id": 110875,
      "geometry": "POINT (-72.675581 41.766695)",
      "poi_name": "Trumbull Kitchen",
      "osm_id": 3721790450,
      "amenity": "restaurant",
      "website": "https://www.maxrestaurantgroup.com/trumbull/",
      "addr_state": "CT",
      "addr_city": "Hartford",
      "addr_postcode": "06103",
      "addr_street": "Trumbull Street",
      "addr_housenumber": "150",
      "value": 279.2632172233851
    },
    {
      "id": 110876,
      "geometry": "POINT (-72.672953 41.767787)",
      "poi_name": "City Steam Brewery Cafe and Restaurant",
      "osm_id": 3721796482,
      "amenity": "restaurant",
      "website": "https://citysteam.biz/",
      "outdoor_seating": "yes",
      "addr_state": "CT",
      "addr_city": "Hartford",
      "addr_postcode": "06103",
      "addr_street": "Main Street",
      "addr_housenumber": "942",
      "value": 279.2632172233851
    },
    {
      "id": 113000,
      "geometry": "POINT (-72.32343 41.565924)",
      "poi_name": "Toyo",
      "osm_id": 3814046576,
      "amenity": "restaurant",
      "cuisine": "hibachi",
      "addr_state": "CT",
      "addr_city": "Colchester",
      "addr_postcode": "06415",
      "addr_street": "South Main Street",
      "addr_housenumber": "464",
      "value": 279.2632172233851
    },
    {
      "id": 116634,
      "geometry": "POINT (-72.264349 41.47586)",
      "poi_name": "The Plum Tomato",
      "osm_id": 8951899078,
      "amenity": "restaurant",
      "cuisine": "pizza",
      "phone": "(860) 892-5295",
      "addr_state": "CT",
      "addr_city": "Salem",
      "addr_postcode": "06420",
      "addr_street": "New London Road",
      "addr_housenumber": "1",
      "value": 279.2632172233851
    },
    {
      "id": 116635,
      "geometry": "POINT (-72.263988 41.4756)",
      "poi_name": "Sweet Rice",
      "osm_id": 8951906686,
      "amenity": "restaurant",
      "cuisine": "chinese",
      "opening_hours": "Mo-Th 11:00-22:00; Fr,Sa 11:00-22:30; Su 12:00-22:00",
      "phone": "(860) 859-3331",
      "addr_state": "CT",
      "addr_city": "Salem",
      "addr_postcode": "06420",
      "addr_street": "New London Road",
      "addr_housenumber": "1",
      "value": 279.2632172233851
    },
    {
      "id": 116274,
      "geometry": "POINT (-72.765141 41.525999)",
      "poi_name": "Mi Puebla Mexican Cuisine",
      "osm_id": 8934409602,
      "amenity": "restaurant",
      "cuisine": "mexican",
      "addr_state": "CT",
      "addr_city": "Meriden",
      "addr_postcode": "06450",
      "addr_street": "East Main Street",
      "addr_housenumber": "1140",
      "value": 279.2632172233851
    },
    {
      "id": 116286,
      "geometry": "POINT (-72.639846 41.751077)",
      "poi_name": "Frank's Willow Inn Bar and Grill",
      "osm_id": 8934597244,
      "amenity": "restaurant",
      "cuisine": "grill",
      "phone": "+1 860 568 9530",
      "addr_state": "CT",
      "addr_city": "East Hartford",
      "addr_postcode": "06118",
      "addr_street": "Main Street",
      "addr_housenumber": "421",
      "value": 279.2632172233851
    },
    {
      "id": 116598,
      "geometry": "POINT (-72.227012 41.714663)",
      "poi_name": "Trolley Pub on Main",
      "osm_id": 8949314554,
      "amenity": "restaurant",
      "cuisine": "pub",
      "website": "https://www.facebook.com/trolley-pub-157734811051672",
      "phone": "+1 860 456 9994",
      "addr_state": "CT",
      "addr_city": "Willimantic",
      "addr_postcode": "06226",
      "addr_street": "Main Street",
      "addr_housenumber": "1245",
      "value": 279.2632172233851
    },
    {
      "id": 116603,
      "geometry": "POINT (-71.969791 41.354886)",
      "poi_name": "Via Emilia",
      "osm_id": 8949535080,
      "amenity": "restaurant",
      "website": "https://viaemiliamystic.com/",
      "phone": "+1 860 415 4840",
      "addr_city": "Groton",
      "addr_postcode": "06355",
      "addr_street": "West Main Street",
      "addr_housenumber": "24",
      "value": 279.2632172233851
    },
    {
      "id": 117209,
      "geometry": "POINT (-72.546081 41.679232)",
      "poi_name": "Pizzeria Sassano",
      "osm_id": 8981575877,
      "amenity": "restaurant",
      "cuisine": "pizza",
      "addr_state": "CT",
      "addr_city": "South Glastonbury",
      "addr_postcode": "06073",
      "addr_street": "New London Turnpike",
      "addr_housenumber": "2249",
      "value": 279.2632172233851
    },
    {
      "id": 119141,
      "geometry": "POINT (-71.895745 41.447882)",
      "poi_name": "Buon Appetito Ristorante & Pizzeria",
      "osm_id": 9084209463,
      "amenity": "restaurant",
      "cuisine": "italian;pizza",
      "website": "https://buonappetitoristorante.com/",
      "phone": "+1 860 535-2333",
      "addr_state": "CT",
      "addr_city": "North Stonington",
      "addr_postcode": "06359",
      "addr_street": "Norwich-Westerly Road",
      "addr_housenumber": "386",
      "value": 279.2632172233851
    },
    {
      "id": 118656,
      "geometry": "POINT (-72.683433 41.281318)",
      "poi_name": "Vietnoms Caf\u00e9",
      "osm_id": 9057462750,
      "amenity": "restaurant",
      "cuisine": "vietnamese",
      "website": "https://www.vietnomscafe.com/",
      "addr_state": "CT",
      "addr_city": "Guilford",
      "addr_postcode": "06437",
      "addr_street": "Water Street",
      "addr_housenumber": "33",
      "value": 279.2632172233851
    },
    {
      "id": 118657,
      "geometry": "POINT (-72.689624 41.287355)",
      "poi_name": "iThai Restaurant",
      "osm_id": 9057475073,
      "amenity": "restaurant",
      "cuisine": "thai",
      "website": "http://www.ithaiguilford.com/",
      "addr_state": "CT",
      "addr_city": "Guilford",
      "addr_postcode": "06437",
      "addr_street": "Boston Post Road",
      "addr_housenumber": "1200",
      "value": 279.2632172233851
    },
    {
      "id": 120124,
      "geometry": "POINT (-72.853129 41.557372)",
      "poi_name": "Hubbard Park Pizza",
      "osm_id": 9140854744,
      "amenity": "restaurant",
      "cuisine": "pizza",
      "description": "Restaurant - Pizza Place",
      "website": "https://hubbardparkpizza262.com/",
      "phone": "+18606200908",
      "addr_state": "CT",
      "addr_city": "Southington",
      "addr_postcode": "06489",
      "addr_street": "Meriden-Waterbury Turnpike",
      "addr_housenumber": "262",
      "value": 279.2632172233851
    },
    {
      "id": 119327,
      "geometry": "POINT (-72.781426 41.671356)",
      "poi_name": "Capitol Lunch",
      "osm_id": 9098658390,
      "amenity": "restaurant",
      "cuisine": "american",
      "addr_state": "CT",
      "addr_city": "New Britain",
      "addr_postcode": "06051",
      "addr_street": "Main Street",
      "addr_housenumber": "510",
      "value": 279.2632172233851
    },
    {
      "id": 121389,
      "geometry": "POINT (-72.641754 41.551287)",
      "poi_name": "La Placita",
      "osm_id": 6758077956,
      "amenity": "restaurant",
      "cuisine": "mexican",
      "addr_state": "CT",
      "addr_city": "Middletown",
      "addr_postcode": "06457",
      "addr_street": "East Main Street",
      "addr_housenumber": "173",
      "value": 279.2632172233851
    },
    {
      "id": 123456,
      "geometry": "POINT (-72.906031 41.314711)",
      "poi_name": "Bear\u2019s Smokehouse",
      "osm_id": 6855628220,
      "amenity": "restaurant",
      "cuisine": "barbecue",
      "description": "Bear's Smokehouse is the place to go when you have a craving for delicious Kansas City Style BBQ, house-brewed beers and craft cocktails.",
      "wheelchair": "yes",
      "opening_hours": "Su-We 11:00-21:00; Th-Sa 11:00-22:00",
      "website": "https://bearsbbq.com/new-haven",
      "internet_access": "wlan",
      "phone": "+1-203-350-9060",
      "takeaway": "yes",
      "outdoor_seating": "yes",
      "toilets": "yes",
      "addr_state": "CT",
      "addr_city": "New Haven",
      "addr_postcode": "06513",
      "addr_street": "James Street",
      "addr_housenumber": "470",
      "value": 279.2632172233851
    },
    {
      "id": 125828,
      "geometry": "POINT (-72.556215 41.825447)",
      "poi_name": "Sal's Pizza",
      "osm_id": 6978229152,
      "amenity": "restaurant",
      "cuisine": "pizza",
      "opening_hours": "Mo-Fr 11:00-09:00",
      "phone": "860-648-2200",
      "addr_state": "CT",
      "addr_city": "South Windsor",
      "addr_postcode": "06074",
      "addr_street": "Ellington Road",
      "addr_housenumber": "1735",
      "value": 279.2632172233851
    },
    {
      "id": 126043,
      "geometry": "POINT (-72.095501 41.354395)",
      "poi_name": "State Street Diner",
      "osm_id": 6982681619,
      "amenity": "restaurant",
      "addr_state": "CT",
      "addr_city": "New London",
      "addr_postcode": "06320",
      "addr_street": "State Street",
      "addr_housenumber": "138",
      "value": 279.2632172233851
    },
    {
      "id": 126060,
      "geometry": "POINT (-72.099063 41.354233)",
      "poi_name": "2 Wives Brick Oven + Eatery",
      "osm_id": 6983565639,
      "amenity": "restaurant",
      "addr_state": "CT",
      "addr_city": "New London",
      "addr_postcode": "06320",
      "addr_street": "Huntington Street",
      "addr_housenumber": "45",
      "value": 279.2632172233851
    },
    {
      "id": 126066,
      "geometry": "POINT (-72.095892 41.353657)",
      "poi_name": "RD86",
      "osm_id": 6983690785,
      "amenity": "restaurant",
      "outdoor_seating": "yes",
      "addr_state": "CT",
      "addr_city": "New London",
      "addr_postcode": "06320",
      "addr_street": "Golden Street",
      "addr_housenumber": "86",
      "value": 279.2632172233851
    },
    {
      "id": 126145,
      "geometry": "POINT (-72.096218 41.351929)",
      "poi_name": "Mambo Bar & Restaurant",
      "osm_id": 6985796512,
      "amenity": "restaurant",
      "addr_state": "CT",
      "addr_city": "New London",
      "addr_postcode": "06320",
      "addr_street": "Bank Street",
      "addr_housenumber": "200",
      "value": 279.2632172233851
    },
    {
      "id": 126692,
      "geometry": "POINT (-72.603803 41.66619)",
      "poi_name": "Flynn's Grill",
      "osm_id": 7993228941,
      "amenity": "restaurant",
      "cuisine": "breakfast;lunch",
      "website": "https://www.facebook.com/flynnsgrill",
      "phone": "+1 860 657 8159",
      "addr_state": "CT",
      "addr_city": "Glastonbury",
      "addr_postcode": "06073",
      "addr_street": "Main Street",
      "addr_housenumber": "875",
      "value": 279.2632172233851
    },
    {
      "id": 126493,
      "geometry": "POINT (-72.092682 41.532882)",
      "poi_name": "Asylum Street Pizza",
      "osm_id": 7005677921,
      "amenity": "restaurant",
      "cuisine": "pizza;italian;seafood",
      "opening_hours": "Mo-Sa 10:00-21:00",
      "phone": "+1-860-887-4227",
      "addr_state": "CT",
      "addr_city": "Norwich",
      "addr_postcode": "06360",
      "addr_street": "Asylum Street",
      "addr_housenumber": "319",
      "value": 279.2632172233851
    },
    {
      "id": 126203,
      "geometry": "POINT (-72.09475 41.353324)",
      "poi_name": "Mi Casa Mexican Restaurant #2",
      "osm_id": 6988379282,
      "amenity": "restaurant",
      "cuisine": "mexican",
      "addr_state": "CT",
      "addr_city": "New London",
      "addr_postcode": "06320",
      "addr_street": "Golden Street",
      "addr_housenumber": "31",
      "value": 279.2632172233851
    },
    {
      "id": 126693,
      "geometry": "POINT (-72.604048 41.666109)",
      "poi_name": "Thai House Restaurant and Sushi Bar",
      "osm_id": 7993228943,
      "amenity": "restaurant",
      "cuisine": "thai;sushi",
      "website": "https://thaihouseandsushibar.com",
      "phone": "+1 860 430 9500",
      "addr_state": "CT",
      "addr_city": "Glastonbury",
      "addr_postcode": "06073",
      "addr_street": "Main Street",
      "addr_housenumber": "875",
      "value": 279.2632172233851
    },
    {
      "id": 126778,
      "geometry": "POINT (-72.891135 41.823467)",
      "poi_name": "Dish 'n Dat",
      "osm_id": 7998218813,
      "amenity": "restaurant",
      "cuisine": "american",
      "opening_hours": "Mo-Fr 11:00-21:00; Sa 09:00-21:00; Su 09:00-20:00",
      "website": "http://www.dishbarandgrill.com/dishndat/home.html",
      "addr_state": "CT",
      "addr_city": "Canton",
      "addr_postcode": "06019",
      "addr_street": "Albany Turnpike",
      "addr_housenumber": "144",
      "value": 279.2632172233851
    },
    {
      "id": 127298,
      "geometry": "POINT (-72.602372 41.709539)",
      "poi_name": "El Pollo Guapo",
      "osm_id": 8051085171,
      "amenity": "restaurant",
      "cuisine": "mexican",
      "website": "https://www.elpolloguapo.com",
      "phone": "+1 860 781 8356",
      "addr_state": "CT",
      "addr_city": "Glastonbury",
      "addr_postcode": "06033",
      "addr_street": "New London Turnpike",
      "addr_housenumber": "347",
      "value": 279.2632172233851
    },
    {
      "id": 127299,
      "geometry": "POINT (-72.602126 41.709367)",
      "poi_name": "Pick and Mix",
      "osm_id": 8051085176,
      "amenity": "restaurant",
      "cuisine": "korean",
      "website": "https://www.picknmixkr.com",
      "phone": "+1 860 633 1121",
      "addr_state": "CT",
      "addr_city": "Glastonbury",
      "addr_postcode": "06033",
      "addr_street": "New London Turnpike",
      "addr_housenumber": "355",
      "value": 279.2632172233851
    },
    {
      "id": 129187,
      "geometry": "POINT (-72.687185 41.758179)",
      "poi_name": "Aqui Me Quedo Restaurant",
      "osm_id": 8222949793,
      "amenity": "restaurant",
      "cuisine": "spanish;puerto_rican",
      "website": "https://www.facebook.com/Aqui-Me-Quedo-Restaurant-115347251821779",
      "phone": "+1 860 522 1717",
      "addr_state": "CT",
      "addr_city": "Hartford",
      "addr_postcode": "06106",
      "addr_street": "Park Street",
      "addr_housenumber": "622",
      "value": 279.2632172233851
    },
    {
      "id": 128562,
      "geometry": "POINT (-72.187278 41.324735)",
      "poi_name": "Dad's Restaurant",
      "osm_id": 8169645429,
      "amenity": "restaurant",
      "cuisine": "seafood",
      "description": "Seasonal hours",
      "addr_state": "CT",
      "addr_city": "East Lyme",
      "addr_postcode": "06357",
      "addr_street": "Main Street",
      "addr_housenumber": "147",
      "value": 279.2632172233851
    },
    {
      "id": 128604,
      "geometry": "POINT (-72.204781 41.319034)",
      "poi_name": "Black Point Pizza",
      "osm_id": 8173352763,
      "amenity": "restaurant",
      "cuisine": "pizza",
      "addr_state": "CT",
      "addr_city": "Niantic",
      "addr_postcode": "06357",
      "addr_street": "Black Point Road",
      "addr_housenumber": "44",
      "value": 279.2632172233851
    },
    {
      "id": 129188,
      "geometry": "POINT (-72.68735 41.758183)",
      "poi_name": "Broasterant",
      "osm_id": 8222949796,
      "amenity": "restaurant",
      "cuisine": "chicken;fried_chicken",
      "description": "offers party platters for parties and special occasions.",
      "phone": "+1 860 525 1155",
      "addr_state": "CT",
      "addr_city": "Hartford",
      "addr_postcode": "06106",
      "addr_street": "Park Street",
      "addr_housenumber": "630",
      "value": 279.2632172233851
    },
    {
      "id": 129989,
      "geometry": "POINT (-72.58941 41.709308)",
      "poi_name": "Seed Kitchen and Bagelry",
      "osm_id": 9849186945,
      "amenity": "restaurant",
      "opening_hours": "Mo-Fr 07:00-14:00; Sa 08:00-12:00",
      "website": "https://seedbagelshop.com/",
      "phone": "(860) 430-6404",
      "addr_state": "CT",
      "addr_city": "Glastonbury",
      "addr_postcode": "06033",
      "addr_street": "Commerce Street",
      "addr_housenumber": "76",
      "value": 279.2632172233851
    },
    {
      "id": 129160,
      "geometry": "POINT (-72.216386 41.712546)",
      "poi_name": "Pho Delight Thai Restaurant",
      "osm_id": 8221291115,
      "amenity": "restaurant",
      "cuisine": "thai",
      "website": "https://www.facebook.com/taquitosmexicangrill",
      "phone": "+1 860 942 8005",
      "outdoor_seating": "yes",
      "addr_state": "CT",
      "addr_city": "Willimantic",
      "addr_postcode": "06226",
      "addr_street": "Main Street",
      "addr_housenumber": "920",
      "value": 279.2632172233851
    },
    {
      "id": 129164,
      "geometry": "POINT (-72.216912 41.712681)",
      "poi_name": "Stone Row Kitchen + Bar",
      "osm_id": 8221303518,
      "amenity": "restaurant",
      "website": "https://stonerowkb.com",
      "phone": "+1 860 423 4243",
      "outdoor_seating": "yes",
      "addr_state": "CT",
      "addr_city": "Willimantic",
      "addr_postcode": "06226",
      "addr_street": "Main Street",
      "addr_housenumber": "948;956",
      "value": 279.2632172233851
    },
    {
      "id": 129267,
      "geometry": "POINT (-72.361973 41.660105)",
      "poi_name": "Wicked Slice",
      "osm_id": 8228422565,
      "amenity": "restaurant",
      "cuisine": "pizza",
      "website": "https://www.wickedslice.pizza",
      "phone": "+1 860 228 1242",
      "addr_state": "CT",
      "addr_city": "Hebron",
      "addr_postcode": "06248",
      "addr_street": "Main Street",
      "addr_housenumber": "55",
      "value": 279.2632172233851
    },
    {
      "id": 129268,
      "geometry": "POINT (-72.362288 41.66001)",
      "poi_name": "Butterball's Greenleaf Cafe",
      "osm_id": 8228422567,
      "amenity": "restaurant",
      "phone": "+1 860 228 8148",
      "addr_state": "CT",
      "addr_city": "Hebron",
      "addr_postcode": "06248",
      "addr_street": "Main Street",
      "addr_housenumber": "47",
      "value": 279.2632172233851
    },
    {
      "id": 130488,
      "geometry": "POINT (-72.667319 41.72328)",
      "poi_name": "Pizza Time",
      "osm_id": 9873572338,
      "amenity": "restaurant",
      "cuisine": "pizza",
      "website": "https://www.pizzatimeusa.com",
      "phone": "+1 860 529 0078",
      "addr_state": "CT",
      "addr_city": "Wethersfield",
      "addr_postcode": "06109",
      "addr_street": "Silas Deane Highway",
      "addr_housenumber": "152",
      "value": 279.2632172233851
    },
    {
      "id": 130221,
      "geometry": "POINT (-72.897256 41.672451)",
      "poi_name": "San Genarro",
      "osm_id": 9860850533,
      "amenity": "restaurant",
      "cuisine": "pizza",
      "outdoor_seating": "yes",
      "addr_state": "CT",
      "addr_city": "Bristol",
      "addr_postcode": "06010",
      "addr_street": "East Main Street",
      "addr_housenumber": "22",
      "value": 279.2632172233851
    },
    {
      "id": 131633,
      "geometry": "POINT (-71.314293 41.480586)",
      "poi_name": "12 Metre Cafe",
      "osm_id": 9922689114,
      "amenity": "restaurant",
      "cuisine": "american;breakfast",
      "opening_hours": "We-Su 07:00-14:00",
      "website": "https://www.12metrecafe.net/",
      "phone": "+1-401-324-5720",
      "addr_state": "RI",
      "addr_city": "Newport",
      "addr_postcode": "02840",
      "addr_street": "Thames Street",
      "addr_housenumber": "462",
      "value": 279.2632172233851
    },
    {
      "id": 130648,
      "geometry": "POINT (-72.527309 41.814499)",
      "poi_name": "IHOP",
      "osm_id": 9881355291,
      "amenity": "restaurant",
      "cuisine": "breakfast;pancake",
      "addr_state": "CT",
      "addr_city": "Manchester",
      "addr_postcode": "06042",
      "addr_street": "Deming Street",
      "addr_housenumber": "191",
      "value": 279.2632172233851
    },
    {
      "id": 130575,
      "geometry": "POINT (-72.096572 41.352044)",
      "poi_name": "The Social",
      "osm_id": 9876992779,
      "amenity": "restaurant",
      "description": "pub, bar and restaurant.",
      "opening_hours": "Mo 16:00-20:00; Tu-Th 16:00-21:00; Fr 16:00-23:00; Sa 11:00-23:00; Su 11:00-20:00",
      "website": "https://www.socialnewlondon.com",
      "phone": "(860) 442.6900",
      "addr_city": "New London",
      "addr_postcode": "06320",
      "addr_street": "Bank Street",
      "addr_housenumber": "208",
      "value": 279.2632172233851
    },
    {
      "id": 131583,
      "geometry": "POINT (-72.546041 41.679398)",
      "poi_name": "Marina Indian Restaurant",
      "osm_id": 9921524837,
      "amenity": "restaurant",
      "website": "https://marinact.us/",
      "phone": "860-633-7799",
      "addr_city": "Glastonbury",
      "addr_postcode": "06073",
      "addr_street": "New London Tpke, South Glastonbury, Connecticut 06073",
      "addr_housenumber": "2249",
      "value": 279.2632172233851
    },
    {
      "id": 131834,
      "geometry": "POINT (-72.887337 41.673446)",
      "poi_name": "Roma Pizza and Deli",
      "osm_id": 9931100085,
      "amenity": "restaurant",
      "opening_hours": "Mo-Fr,Su 11:00-22:00, Sa 11:00-23:00",
      "website": "https://romapizzadeli.com",
      "phone": "860-793-6666",
      "addr_state": "CT",
      "addr_city": "Plainville",
      "addr_postcode": "06062",
      "addr_street": "95 Forestville Ave, Suite 2",
      "value": 279.2632172233851
    },
    {
      "id": 133816,
      "geometry": "POINT (-72.93934 41.30689)",
      "poi_name": "9 Squared",
      "osm_id": 10010847666,
      "amenity": "restaurant",
      "cuisine": "regional;american",
      "opening_hours": "Mo-Fr 06:30-22:30, Sa-Su 07:30-23:30",
      "website": "https://www.cambrianewhaven.com/amp/dining",
      "phone": "+1-203-903-2999",
      "addr_state": "CT",
      "addr_city": "New Haven",
      "addr_postcode": "06511",
      "addr_street": "Dwight Street",
      "addr_housenumber": "20",
      "value": 279.2632172233851
    },
    {
      "id": 132525,
      "geometry": "POINT (-72.674668 41.914606)",
      "poi_name": "Bear's Smokehouse Barbecue",
      "osm_id": 9958040827,
      "amenity": "restaurant",
      "addr_state": "CT",
      "addr_city": "Windsor",
      "addr_postcode": "06095",
      "addr_street": "Poquonock Avenue",
      "addr_housenumber": "1252",
      "value": 279.2632172233851
    },
    {
      "id": 133275,
      "geometry": "POINT (-72.267707 41.827391)",
      "poi_name": "Toast Four Corners",
      "osm_id": 9986061450,
      "amenity": "restaurant",
      "cuisine": "breads;muffins",
      "opening_hours": "07:00-12:30",
      "website": "http://www.toastfourcorners.com/",
      "phone": "+1-860-477-1557",
      "addr_state": "CT",
      "addr_city": "Storrs-Mansfield",
      "addr_postcode": "06268",
      "addr_street": "Middle Turnpike",
      "addr_housenumber": "625",
      "value": 279.2632172233851
    },
    {
      "id": 133597,
      "geometry": "POINT (-72.61888 41.799784)",
      "poi_name": "Between Rounds",
      "osm_id": 10000264887,
      "amenity": "restaurant",
      "opening_hours": "Mo-Fr 05:30-15:00; Sa 05:30-15:00; Su 07:00-14:00",
      "addr_state": "CT",
      "addr_city": "South Windsor",
      "addr_postcode": "06074",
      "addr_street": "John Fitch Boulevard",
      "addr_housenumber": "19",
      "value": 279.2632172233851
    },
    {
      "id": 134677,
      "geometry": "POINT (-72.404151 41.335701)",
      "poi_name": "E & E Enterprises",
      "osm_id": 11481417560,
      "amenity": "restaurant",
      "cuisine": "italian",
      "addr_state": "CT",
      "addr_city": "Essex",
      "addr_postcode": "06426",
      "addr_street": "Essex Gln Dr",
      "addr_housenumber": "21",
      "value": 279.2632172233851
    },
    {
      "id": 133866,
      "geometry": "POINT (-72.63295 41.744041)",
      "poi_name": "Augie and Ray's",
      "osm_id": 10013347873,
      "amenity": "restaurant",
      "description": "Way back in 1946, two East Hartford cops named Ray Hutt and Augie Bria took a chance and opened Augie & Ray's Drive-in restaurant; a hot dog stand and dairy bar.",
      "opening_hours": "Mo-Sa 05:45-15:00",
      "website": "https://www.augieandrays.com/",
      "phone": "860. 568.3770",
      "addr_city": "East Hartford",
      "addr_postcode": "06118",
      "addr_street": "314 Main Street East Hartford, Connecticut 06118",
      "addr_housenumber": "314",
      "value": 279.2632172233851
    },
    {
      "id": 133933,
      "geometry": "POINT (-72.1069 41.376558)",
      "poi_name": "Jane Addams Dining Hall",
      "osm_id": 10016950794,
      "amenity": "restaurant",
      "cuisine": "sandwich",
      "opening_hours": "Mo-Fr 07:30-10:30, 11:00-14:00",
      "addr_state": "CT",
      "addr_city": "New London",
      "addr_postcode": "06320",
      "value": 279.2632172233851
    },
    {
      "id": 134473,
      "geometry": "POINT (-72.739386 41.760074)",
      "poi_name": "The Place 2 Be",
      "osm_id": 11471923554,
      "amenity": "restaurant",
      "cuisine": "Brunch",
      "addr_state": "CT",
      "addr_city": "West Hartford",
      "addr_postcode": "06107",
      "addr_street": "Memorial Road",
      "addr_housenumber": "50",
      "value": 279.2632172233851
    },
    {
      "id": 138916,
      "geometry": "POINT (-72.712286 41.512816)",
      "poi_name": "Middlefield Pizza Restaurant",
      "osm_id": 6174045655,
      "amenity": "restaurant",
      "cuisine": "pizza",
      "outdoor_seating": "no",
      "addr_state": "CT",
      "addr_city": "Middlefield",
      "addr_postcode": "06455",
      "addr_street": "Main Street",
      "addr_housenumber": "480",
      "value": 279.2632172233851
    },
    {
      "id": 139103,
      "geometry": "POINT (-72.648678 41.981759)",
      "poi_name": "Pacifica",
      "osm_id": 6182060348,
      "amenity": "restaurant",
      "cuisine": "chinese;sushi;thai;japanese",
      "website": "http://www.pacificacuisine.com/",
      "phone": "+1-860-668-1291",
      "addr_state": "CT",
      "addr_city": "Suffield",
      "addr_postcode": "06078",
      "addr_street": "Bridge Street",
      "addr_housenumber": "78",
      "value": 279.2632172233851
    },
    {
      "id": 139497,
      "geometry": "POINT (-72.677784 41.660291)",
      "poi_name": "Ninja Japan",
      "osm_id": 6199418985,
      "amenity": "restaurant",
      "cuisine": "asian",
      "opening_hours": "Jan-Dec: Mo-Sa 11:30-10:00, Su 12:00-10:00",
      "website": "http://www.ninjajapanct.com/",
      "phone": "8605638886",
      "addr_state": "CT",
      "addr_city": "Rocky Hill",
      "addr_postcode": "06067",
      "addr_street": "Cromwell Avenue",
      "addr_housenumber": "396",
      "value": 279.2632172233851
    },
    {
      "id": 140259,
      "geometry": "POINT (-72.584604 41.989479)",
      "poi_name": "LongHorn Steakhouse",
      "osm_id": 6237878754,
      "amenity": "restaurant",
      "cuisine": "steak_house",
      "addr_state": "CT",
      "addr_city": "Enfield",
      "addr_postcode": "06082",
      "addr_street": "Phoenix Avenue",
      "addr_housenumber": "10",
      "value": 279.2632172233851
    },
    {
      "id": 140514,
      "geometry": "POINT (-72.831024 41.473985)",
      "poi_name": "Amore Apizza",
      "osm_id": 6249139477,
      "amenity": "restaurant",
      "cuisine": "pizza",
      "addr_state": "CT",
      "addr_city": "Wallingford",
      "addr_postcode": "06492",
      "addr_street": "North Turnpike Road",
      "addr_housenumber": "83",
      "value": 279.2632172233851
    },
    {
      "id": 142791,
      "geometry": "POINT (-72.793405 41.533937)",
      "poi_name": "Uptown Pizza",
      "osm_id": 6322797928,
      "amenity": "restaurant",
      "cuisine": "pizza",
      "addr_state": "CT",
      "addr_city": "Meriden",
      "addr_postcode": "06450",
      "addr_street": "East Main Street",
      "addr_housenumber": "300",
      "value": 279.2632172233851
    },
    {
      "id": 141717,
      "geometry": "POINT (-72.58677 41.563171)",
      "poi_name": "Eggs Up Restaurant",
      "osm_id": 6295399690,
      "amenity": "restaurant",
      "cuisine": "breakfast",
      "addr_state": "CT",
      "addr_city": "Portland",
      "addr_postcode": "06480",
      "addr_street": "Portland Cobalt Road",
      "addr_housenumber": "1456",
      "value": 279.2632172233851
    },
    {
      "id": 143678,
      "geometry": "POINT (-72.646148 41.593672)",
      "poi_name": "Cromwell Pizza & Pasta",
      "osm_id": 6347018471,
      "amenity": "restaurant",
      "cuisine": "pizza",
      "addr_state": "CT",
      "addr_city": "Cromwell",
      "addr_postcode": "06416",
      "addr_street": "Main Street",
      "addr_housenumber": "307",
      "value": 279.2632172233851
    },
    {
      "id": 146484,
      "geometry": "POINT (-72.928602 41.30417)",
      "poi_name": "Chuan Du Hot Pot",
      "osm_id": 7447486159,
      "amenity": "restaurant",
      "cuisine": "chinese;hotpot",
      "opening_hours": "Mo-Th 11:30-15:00, 16:30-22:00; Fr-Sa 11:30-15:00, 16:30-22:30; Su 12:00-22:00",
      "website": "https://newhavenhotpot.wixsite.com/mysite/",
      "phone": "+1-203-745-4127",
      "addr_state": "CT",
      "addr_city": "New Haven",
      "addr_postcode": "06510",
      "addr_street": "Temple Street",
      "addr_housenumber": "27",
      "value": 279.2632172233851
    },
    {
      "id": 143863,
      "geometry": "POINT (-72.682105 41.556214)",
      "poi_name": "Japanica II",
      "osm_id": 6354079259,
      "amenity": "restaurant",
      "cuisine": "japanese",
      "opening_hours": "Mo-Th 11:30-22:00; Fr-Sa 11:30-23:00; Su 12:30-22:00",
      "website": "http://www.myjapanica.com/",
      "phone": "860-346-4498",
      "addr_state": "CT",
      "addr_city": "Middletown",
      "addr_postcode": "06457",
      "addr_street": "Washington Street",
      "addr_housenumber": "852",
      "value": 279.2632172233851
    },
    {
      "id": 143864,
      "geometry": "POINT (-72.681494 41.556283)",
      "poi_name": "Fortune Wok",
      "osm_id": 6354079261,
      "amenity": "restaurant",
      "cuisine": "chinese",
      "opening_hours": "Tu-Sa 11:00-21:00; Su 12:00-21:00",
      "website": "https://www.myfortunewok.com/",
      "phone": "860-347-0885",
      "addr_state": "CT",
      "addr_city": "Middletown",
      "addr_postcode": "06457",
      "addr_street": "Washington Street",
      "addr_housenumber": "844",
      "value": 279.2632172233851
    },
    {
      "id": 143757,
      "geometry": "POINT (-72.653588 41.618505)",
      "poi_name": "Hot Taco",
      "osm_id": 6349380846,
      "amenity": "restaurant",
      "cuisine": "mexican",
      "addr_state": "CT",
      "addr_city": "Cromwell",
      "addr_postcode": "06416",
      "addr_street": "Main Street",
      "addr_housenumber": "548",
      "value": 279.2632172233851
    },
    {
      "id": 143758,
      "geometry": "POINT (-72.653591 41.618632)",
      "poi_name": "Freddy's Pizza & Grinders",
      "osm_id": 6349380849,
      "amenity": "restaurant",
      "cuisine": "pizza",
      "addr_state": "CT",
      "addr_city": "Cromwell",
      "addr_postcode": "06416",
      "addr_street": "Main Street",
      "addr_housenumber": "550",
      "value": 279.2632172233851
    },
    {
      "id": 143996,
      "geometry": "POINT (-72.677222 41.76732)",
      "poi_name": "OC 2 Go",
      "osm_id": 6358496015,
      "amenity": "restaurant",
      "cuisine": "italian",
      "opening_hours": "Mo-Fr 10:00-19:00",
      "takeaway": "only",
      "outdoor_seating": "no",
      "addr_state": "CT",
      "addr_city": "Hartford",
      "addr_postcode": "06103",
      "addr_street": "Asylum Street",
      "addr_housenumber": "221",
      "value": 279.2632172233851
    },
    {
      "id": 145869,
      "geometry": "POINT (-72.367193 41.796547)",
      "poi_name": "Wicked Slice Pizza",
      "osm_id": 7393820258,
      "amenity": "restaurant",
      "cuisine": "pizza",
      "website": "https://www.wickedslice.pizza",
      "phone": "+1 860 498 7500",
      "addr_state": "CT",
      "addr_city": "Coventry",
      "addr_postcode": "06238",
      "addr_street": "Main Street",
      "addr_housenumber": "3466",
      "value": 279.2632172233851
    },
    {
      "id": 147174,
      "geometry": "POINT (-72.928292 41.304543)",
      "poi_name": "Pho Ketkeo",
      "osm_id": 7511111351,
      "amenity": "restaurant",
      "cuisine": "lao;thai",
      "website": "https://getphoketkeo.com/",
      "addr_state": "CT",
      "addr_city": "New Haven",
      "addr_postcode": "06510",
      "addr_street": "Temple Street",
      "addr_housenumber": "21",
      "value": 279.2632172233851
    },
    {
      "id": 148225,
      "geometry": "POINT (-72.554589 41.356958)",
      "poi_name": "Rosello's Apizza",
      "osm_id": 3937060421,
      "amenity": "restaurant",
      "cuisine": "pizza",
      "opening_hours": "Mo-Fr 15:00-21:00; Sa-Su 12:00-21:00",
      "website": "http://www.rosellos.com",
      "phone": "+1 860 6633999",
      "takeaway": "only",
      "delivery": "yes",
      "addr_state": "CT",
      "addr_city": "Killingworth",
      "addr_postcode": "06419",
      "addr_street": "Deep River Road",
      "addr_housenumber": "206",
      "value": 279.2632172233851
    },
    {
      "id": 148939,
      "geometry": "POINT (-72.783301 41.546876)",
      "poi_name": "Ted's Restaurant Steamed Cheeseburgers",
      "osm_id": 3989381568,
      "amenity": "restaurant",
      "cuisine": "burger",
      "opening_hours": "Mo-We 11:00-21:00; Th-Sa 11:00-22:00; Su 11:00-21:00",
      "website": "https://www.tedsrestaurant.com/",
      "phone": "+1 203 2376660",
      "takeaway": "yes",
      "wikidata": "Q7692932",
      "addr_state": "CT",
      "addr_city": "Meriden",
      "addr_postcode": "06450",
      "addr_street": "Broad Street",
      "addr_housenumber": "1046",
      "value": 279.2632172233851
    },
    {
      "id": 156051,
      "geometry": "POINT (-72.808897 41.496451)",
      "poi_name": "Plaza Azteca",
      "osm_id": 4638410792,
      "amenity": "restaurant",
      "cuisine": "mexican",
      "addr_state": "CT",
      "addr_city": "Wallingford",
      "addr_postcode": "06492",
      "addr_street": "North Colony Road",
      "addr_housenumber": "1088",
      "value": 279.2632172233851
    },
    {
      "id": 151054,
      "geometry": "POINT (-72.675613 41.769262)",
      "poi_name": "M&M Bistro",
      "osm_id": 4079033591,
      "amenity": "restaurant",
      "cuisine": "american",
      "wheelchair": "yes",
      "website": "https://www3.hilton.com/en/hotels/connecticut/hilton-hartford-HFDHHHF/dining/index.html",
      "addr_state": "CT",
      "addr_city": "Hartford",
      "addr_postcode": "06103",
      "addr_street": "Trumbull Street",
      "addr_housenumber": "315",
      "value": 279.2632172233851
    },
    {
      "id": 155038,
      "geometry": "POINT (-72.826528 41.278538)",
      "poi_name": "Branford Townhouse Restaurant",
      "osm_id": 4267009351,
      "amenity": "restaurant",
      "website": "https://branfordtownhouserestaurant.com/",
      "delivery": "unknown",
      "addr_state": "CT",
      "addr_city": "Branford",
      "addr_postcode": "06405",
      "addr_street": "North Main Street",
      "addr_housenumber": "18",
      "value": 279.2632172233851
    },
    {
      "id": 155872,
      "geometry": "POINT (-72.935087 41.309339)",
      "poi_name": "Tibetan Kitchen",
      "osm_id": 4633761520,
      "amenity": "restaurant",
      "cuisine": "tibetan",
      "website": "https://tibetankitchen.us/",
      "addr_state": "CT",
      "addr_city": "New Haven",
      "addr_postcode": "06511",
      "addr_street": "Chapel Street",
      "addr_housenumber": "1217",
      "value": 279.2632172233851
    },
    {
      "id": 161211,
      "geometry": "POINT (-72.734839 41.87892)",
      "poi_name": "Vito's On the Water",
      "osm_id": 4870243522,
      "amenity": "restaurant",
      "addr_state": "CT",
      "addr_postcode": "06095",
      "addr_street": "Blue Hills Avenue",
      "addr_housenumber": "1936",
      "value": 279.2632172233851
    },
    {
      "id": 160115,
      "geometry": "POINT (-72.662109 41.706228)",
      "poi_name": "Vito's Pizzaria",
      "osm_id": 4820407136,
      "amenity": "restaurant",
      "cuisine": "pizza",
      "wheelchair": "no",
      "opening_hours": "Mo-Tu 11:00-21:00; We-Sa 11:00-22:00; Su 00:00-21:00",
      "website": "https://www.vitosct.com",
      "phone": "+1 860 563 3333",
      "takeaway": "yes",
      "outdoor_seating": "no",
      "delivery": "yes",
      "addr_state": "CT",
      "addr_city": "Wethersfield",
      "addr_postcode": "06109",
      "addr_street": "Silas Deane Highway",
      "addr_housenumber": "673",
      "value": 279.2632172233851
    },
    {
      "id": 158019,
      "geometry": "POINT (-72.625858 41.919642)",
      "poi_name": "The Hungry Rhino",
      "osm_id": 4732752096,
      "amenity": "restaurant",
      "outdoor_seating": "no",
      "addr_state": "CT",
      "addr_city": "Town of Windsor Locks",
      "addr_postcode": "06096",
      "addr_street": "South Main Street",
      "addr_housenumber": "47",
      "value": 279.2632172233851
    },
    {
      "id": 161092,
      "geometry": "POINT (-72.492189 41.826983)",
      "poi_name": "Ninety Nine Restaurant & Pub",
      "osm_id": 4866672321,
      "amenity": "restaurant",
      "cuisine": "american",
      "wheelchair": "yes",
      "internet_access": "wlan",
      "outdoor_seating": "no",
      "addr_state": "CT",
      "addr_postcode": "06066",
      "addr_street": "Hartford Turnpike",
      "addr_housenumber": "295",
      "value": 279.2632172233851
    },
    {
      "id": 162884,
      "geometry": "POINT (-72.661881 41.705938)",
      "poi_name": "Great Wall",
      "osm_id": 9387820081,
      "amenity": "restaurant",
      "cuisine": "chinese",
      "website": "https://www.wethersfieldgreatwall.com",
      "phone": "+1 860 257 9933",
      "addr_state": "CT",
      "addr_city": "Wethersfield",
      "addr_postcode": "06109",
      "addr_street": "Silas Deane Highway",
      "addr_housenumber": "685",
      "value": 279.2632172233851
    },
    {
      "id": 162892,
      "geometry": "POINT (-72.665484 41.717499)",
      "poi_name": "Carmela's Pasta Shop",
      "osm_id": 9388660333,
      "amenity": "restaurant",
      "cuisine": "italian",
      "website": "http://carmelaspastashop.com",
      "phone": "+1 860 529 9533",
      "addr_state": "CT",
      "addr_city": "Wethersfield",
      "addr_postcode": "06109",
      "addr_street": "Silas Deane Highway",
      "addr_housenumber": "338",
      "value": 279.2632172233851
    },
    {
      "id": 162893,
      "geometry": "POINT (-72.666524 41.719346)",
      "poi_name": "The Cove Deli",
      "osm_id": 9388662591,
      "amenity": "restaurant",
      "cuisine": "deli",
      "description": "small deli with excellent sandwiches",
      "opening_hours": "Mo-Fr 07:00-15:00; Sa 08:00-15:00; Su 10:00-15:00",
      "website": "https://thecovedeli.com",
      "phone": "+1 860 721 1200",
      "addr_state": "CT",
      "addr_city": "Wethersfield",
      "addr_postcode": "06109",
      "addr_street": "Silas Deane Highway",
      "addr_housenumber": "282",
      "value": 279.2632172233851
    },
    {
      "id": 162894,
      "geometry": "POINT (-72.666653 41.721803)",
      "poi_name": "Far Eastern Buffet",
      "osm_id": 9388663284,
      "amenity": "restaurant",
      "cuisine": "chinese",
      "phone": "+1 860 563 1888",
      "addr_state": "CT",
      "addr_city": "Wethersfield",
      "addr_postcode": "06109",
      "addr_street": "Silas Deane Highway",
      "addr_housenumber": "188",
      "value": 279.2632172233851
    },
    {
      "id": 162896,
      "geometry": "POINT (-72.667536 41.720074)",
      "poi_name": "Wang's Kitchen",
      "osm_id": 9388788673,
      "amenity": "restaurant",
      "cuisine": "chinese",
      "website": "https://www.wangskitchenwethersfield.com",
      "phone": "+1 860 257 3602",
      "addr_state": "CT",
      "addr_city": "Wethersfield",
      "addr_postcode": "06109",
      "addr_street": "Silas Deane Highway",
      "addr_housenumber": "251",
      "value": 279.2632172233851
    },
    {
      "id": 162899,
      "geometry": "POINT (-72.702141 41.703024)",
      "poi_name": "El Pollo Guapo",
      "osm_id": 9388930229,
      "amenity": "restaurant",
      "cuisine": "mexican",
      "addr_state": "CT",
      "addr_city": "Wethersfield",
      "addr_postcode": "06109",
      "addr_street": "Berlin Turnpike",
      "addr_housenumber": "1868",
      "value": 279.2632172233851
    },
    {
      "id": 162901,
      "geometry": "POINT (-72.702257 41.705464)",
      "poi_name": "Makris Diner",
      "osm_id": 9388942780,
      "amenity": "restaurant",
      "addr_state": "CT",
      "addr_city": "Wethersfield",
      "addr_postcode": "06109",
      "addr_street": "Berlin Turnpike",
      "addr_housenumber": "1797",
      "value": 279.2632172233851
    },
    {
      "id": 162902,
      "geometry": "POINT (-72.701344 41.70776)",
      "poi_name": "Hooters",
      "osm_id": 9388943005,
      "amenity": "restaurant",
      "cuisine": "burger",
      "addr_state": "CT",
      "addr_city": "Wethersfield",
      "addr_postcode": "06109",
      "addr_street": "Berlin Turnpike",
      "addr_housenumber": "1731",
      "value": 279.2632172233851
    },
    {
      "id": 162903,
      "geometry": "POINT (-72.693452 41.718362)",
      "poi_name": "Ming Moon Restaurant",
      "osm_id": 9388945821,
      "amenity": "restaurant",
      "cuisine": "chinese",
      "website": "https://www.mingmoonwethersfield.com/",
      "phone": "+1 860 956 2686",
      "addr_state": "CT",
      "addr_city": "Wethersfield",
      "addr_postcode": "06109",
      "addr_street": "Berlin Turnpike",
      "addr_housenumber": "1386",
      "value": 279.2632172233851
    },
    {
      "id": 162905,
      "geometry": "POINT (-72.722198 41.666346)",
      "poi_name": "Chuck E. Cheese",
      "osm_id": 9389106677,
      "amenity": "restaurant",
      "cuisine": "pizza",
      "leisure": "amusement_arcade",
      "website": "https://locations.chuckecheese.com/us/ct/newington/3075-berlin-turnpike",
      "addr_state": "CT",
      "addr_city": "Newington",
      "addr_postcode": "06111",
      "addr_street": "Berlin Turnpike",
      "addr_housenumber": "3075",
      "value": 279.2632172233851
    },
    {
      "id": 162906,
      "geometry": "POINT (-72.722325 41.666127)",
      "poi_name": "Ming Palace",
      "osm_id": 9389106679,
      "amenity": "restaurant",
      "cuisine": "chinese",
      "addr_state": "CT",
      "addr_city": "Newington",
      "addr_postcode": "06111",
      "addr_street": "Berlin Turnpike",
      "addr_housenumber": "3083",
      "value": 279.2632172233851
    },
    {
      "id": 162908,
      "geometry": "POINT (-72.704988 41.693103)",
      "poi_name": "Naija Restaurant",
      "osm_id": 9389130499,
      "amenity": "restaurant",
      "cuisine": "nigerian",
      "addr_state": "CT",
      "addr_city": "Newington",
      "addr_postcode": "06111",
      "addr_street": "Berlin Turnpike",
      "addr_housenumber": "2184",
      "value": 279.2632172233851
    },
    {
      "id": 162910,
      "geometry": "POINT (-72.657419 41.69188)",
      "poi_name": "Sake Cafe",
      "osm_id": 9389156115,
      "amenity": "restaurant",
      "cuisine": "japanese",
      "addr_state": "CT",
      "addr_city": "Wethersfield",
      "addr_postcode": "06109",
      "addr_street": "Silas Deane Highway",
      "addr_housenumber": "1105",
      "value": 279.2632172233851
    },
    {
      "id": 162881,
      "geometry": "POINT (-72.653414 41.711277)",
      "poi_name": "Old Town Cafe",
      "osm_id": 9387783302,
      "amenity": "restaurant",
      "website": "https://www.facebook.com/old-town-cafe-254475354601591",
      "phone": "+1 860 529 4196",
      "addr_state": "CT",
      "addr_city": "Wethersfield",
      "addr_postcode": "06109",
      "addr_street": "Main Street",
      "addr_housenumber": "187",
      "value": 279.2632172233851
    },
    {
      "id": 162882,
      "geometry": "POINT (-72.653046 41.712645)",
      "poi_name": "Village Pizza",
      "osm_id": 9387787574,
      "amenity": "restaurant",
      "cuisine": "pizza;greek",
      "wheelchair": "yes",
      "website": "https://villagepizzact.com",
      "phone": "+1 860 563 1513",
      "takeaway": "yes",
      "outdoor_seating": "yes",
      "addr_state": "CT",
      "addr_city": "Wethersfield",
      "addr_postcode": "06109",
      "addr_street": "Main Street",
      "addr_housenumber": "233",
      "value": 279.2632172233851
    },
    {
      "id": 162883,
      "geometry": "POINT (-72.661833 41.705816)",
      "poi_name": "Max Bibo's",
      "osm_id": 9387817923,
      "amenity": "restaurant",
      "cuisine": "deli",
      "website": "https://www.maxbiboswethersfield.com",
      "phone": "+1 860 529 1209",
      "addr_state": "CT",
      "addr_city": "Wethersfield",
      "addr_postcode": "06109",
      "addr_street": "Silas Deane Highway",
      "addr_housenumber": "691",
      "value": 279.2632172233851
    },
    {
      "id": 162912,
      "geometry": "POINT (-72.65737 41.69172)",
      "poi_name": "Utsav",
      "osm_id": 9389156181,
      "amenity": "restaurant",
      "cuisine": "indian",
      "addr_state": "CT",
      "addr_city": "Wethersfield",
      "addr_postcode": "06109",
      "addr_street": "Silas Deane Highway",
      "addr_housenumber": "1115",
      "value": 279.2632172233851
    },
    {
      "id": 162915,
      "geometry": "POINT (-72.657566 41.694176)",
      "poi_name": "Hungry Pot Korean BBQ & Hot Pot",
      "osm_id": 9389157107,
      "amenity": "restaurant",
      "cuisine": "korean",
      "addr_state": "CT",
      "addr_city": "Wethersfield",
      "addr_postcode": "06109",
      "addr_street": "Silas Deane Highway",
      "addr_housenumber": "1045",
      "value": 279.2632172233851
    },
    {
      "id": 162919,
      "geometry": "POINT (-72.655207 41.685179)",
      "poi_name": "DORO Marketplace",
      "osm_id": 9389282341,
      "amenity": "restaurant",
      "addr_state": "CT",
      "addr_city": "Wethersfield",
      "addr_postcode": "06109",
      "addr_street": "Silas Deane Highway",
      "addr_housenumber": "1301",
      "value": 279.2632172233851
    },
    {
      "id": 162921,
      "geometry": "POINT (-72.655016 41.682686)",
      "poi_name": "Wood-n-tap",
      "osm_id": 9389283558,
      "amenity": "restaurant",
      "addr_state": "CT",
      "addr_city": "Rocky Hill",
      "addr_postcode": "06067",
      "addr_street": "Town Line Road",
      "addr_housenumber": "12",
      "value": 279.2632172233851
    },
    {
      "id": 163398,
      "geometry": "POINT (-72.497182 41.824662)",
      "poi_name": "Anthony's",
      "osm_id": 9414505928,
      "amenity": "restaurant",
      "cuisine": "pizza",
      "website": "https://www.pizzapeoplespizza.com",
      "phone": "+18606437570",
      "addr_state": "CT",
      "addr_city": "Vernon",
      "addr_postcode": "06066",
      "addr_street": "Hartford Turnpike",
      "addr_housenumber": "216",
      "value": 279.2632172233851
    },
    {
      "id": 165748,
      "geometry": "POINT (-72.460404 41.893839)",
      "poi_name": "China Eagle",
      "osm_id": 9555243959,
      "amenity": "restaurant",
      "cuisine": "chinese",
      "phone": "+1-860-875-1221",
      "addr_state": "CT",
      "addr_city": "Ellington",
      "addr_postcode": "06029",
      "addr_street": "West Road",
      "addr_housenumber": "175",
      "value": 279.2632172233851
    },
    {
      "id": 164916,
      "geometry": "POINT (-72.051771 41.372321)",
      "poi_name": "Mr. Crab Cajun Seafood",
      "osm_id": 9506927168,
      "amenity": "restaurant",
      "opening_hours": "Mo-Su 11:00-21:00",
      "addr_state": "CT",
      "addr_city": "Groton",
      "addr_postcode": "06340",
      "addr_street": "Gold Star Highway",
      "addr_housenumber": "507",
      "value": 279.2632172233851
    },
    {
      "id": 164542,
      "geometry": "POINT (-72.236122 41.678912)",
      "poi_name": "Kalamatos Family Pizza",
      "osm_id": 9481585423,
      "amenity": "restaurant",
      "addr_state": "CT",
      "addr_city": "Lebanon",
      "addr_postcode": "06249",
      "addr_street": "Beaumont Highway",
      "addr_housenumber": "385",
      "value": 279.2632172233851
    },
    {
      "id": 168188,
      "geometry": "POINT (-72.614063 41.721884)",
      "poi_name": "Bertucci's",
      "osm_id": 367126661,
      "amenity": "restaurant",
      "cuisine": "pizza;italian",
      "website": "https://locations.bertuccis.com/us/ct/glastonbury/2882-main-street",
      "phone": "+1 860 633 2225",
      "takeaway": "yes",
      "addr_state": "CT",
      "addr_city": "Glastonbury",
      "addr_postcode": "06033",
      "addr_street": "Main Street",
      "addr_housenumber": "2882",
      "value": 279.2632172233851
    },
    {
      "id": 165761,
      "geometry": "POINT (-72.710934 41.491942)",
      "poi_name": "1741 Pub and Grill",
      "osm_id": 9556261473,
      "amenity": "restaurant",
      "description": "Food and drinks at the Lyman Orchard Golf Club",
      "opening_hours": "Mo-Sa 11:00-21:00; Su 09:00-21:00",
      "website": "https://1741pubandgrill.com/",
      "phone": "860-349-6033",
      "addr_city": "Middlefield",
      "addr_postcode": "06455",
      "addr_street": "Lyman Road",
      "addr_housenumber": "72",
      "value": 279.2632172233851
    },
    {
      "id": 167780,
      "geometry": "POINT (-72.035034 41.345712)",
      "poi_name": "Midway Pizza",
      "osm_id": 359280806,
      "amenity": "restaurant",
      "cuisine": "pizza",
      "addr_state": "CT",
      "addr_city": "Groton",
      "addr_postcode": "06340",
      "addr_street": "Fort Hill Road",
      "addr_housenumber": "33",
      "value": 279.2632172233851
    },
    {
      "id": 166037,
      "geometry": "POINT (-72.652334 41.712278)",
      "poi_name": "Lucky Lou's",
      "osm_id": 9571742036,
      "amenity": "restaurant",
      "description": "Modern American flare, in a historic setting.",
      "opening_hours": "Tu-Su 12:00-21:00",
      "website": "https://www.luckylousbarandgrill.com",
      "phone": "8602570700",
      "addr_city": "Wethersfield",
      "addr_postcode": "06109",
      "addr_street": "Main Street",
      "addr_housenumber": "222",
      "value": 279.2632172233851
    },
    {
      "id": 166457,
      "geometry": "POINT (-72.399874 41.422395)",
      "poi_name": "Hadlyme Country Market",
      "osm_id": 9593710359,
      "amenity": "restaurant",
      "website": "https://hadlymecountrymarket.com",
      "phone": "+1 860 526 3188",
      "addr_state": "CT",
      "addr_city": "Lyme",
      "addr_postcode": "06371",
      "addr_street": "Ferry Road",
      "addr_housenumber": "1",
      "value": 279.2632172233851
    },
    {
      "id": 168191,
      "geometry": "POINT (-72.036686 41.346156)",
      "poi_name": "The Barn",
      "osm_id": 367137200,
      "amenity": "restaurant",
      "addr_state": "CT",
      "value": 279.2632172233851
    },
    {
      "id": 171777,
      "geometry": "POINT (-72.931016 41.306815)",
      "poi_name": "Rubamba",
      "osm_id": 2385915953,
      "amenity": "restaurant",
      "cuisine": "mexican",
      "phone": "2037730032",
      "addr_state": "CT",
      "addr_city": "New Haven",
      "addr_postcode": "06510",
      "addr_street": "High Street",
      "addr_housenumber": "25",
      "value": 279.2632172233851
    },
    {
      "id": 171344,
      "geometry": "POINT (-72.932175 41.3081)",
      "poi_name": "Noodle House",
      "osm_id": 2373828310,
      "amenity": "restaurant",
      "cuisine": "noodle",
      "website": "https://www.yorknoodlehouse.com",
      "addr_state": "CT",
      "addr_city": "New Haven",
      "addr_postcode": "06511",
      "addr_street": "York Street",
      "addr_housenumber": "166",
      "value": 279.2632172233851
    },
    {
      "id": 172378,
      "geometry": "POINT (-72.92411 41.30587)",
      "poi_name": "Mediterranea",
      "osm_id": 2400994284,
      "amenity": "restaurant",
      "cuisine": "mediterranean",
      "opening_hours": "Su closed",
      "website": "http://mediterraneanewhaven.com/",
      "delivery": "yes",
      "addr_state": "CT",
      "addr_city": "New Haven",
      "addr_postcode": "06510",
      "addr_street": "Orange Street",
      "addr_housenumber": "140",
      "value": 279.2632172233851
    },
    {
      "id": 172379,
      "geometry": "POINT (-72.922215 41.307976)",
      "poi_name": "Hachiroku",
      "osm_id": 2400994289,
      "amenity": "restaurant",
      "cuisine": "japanese",
      "addr_state": "CT",
      "addr_city": "New Haven",
      "addr_postcode": "06510",
      "addr_street": "Orange Street",
      "addr_housenumber": "261",
      "value": 279.2632172233851
    },
    {
      "id": 172771,
      "geometry": "POINT (-72.928125 41.304749)",
      "poi_name": "Havenly",
      "osm_id": 2412617022,
      "amenity": "restaurant",
      "cuisine": "middle_eastern;falafel",
      "website": "https://havenlynhv.org/",
      "addr_state": "CT",
      "addr_city": "New Haven",
      "addr_postcode": "06510",
      "addr_street": "Temple Street",
      "addr_housenumber": "25",
      "value": 279.2632172233851
    },
    {
      "id": 172774,
      "geometry": "POINT (-72.909997 41.315628)",
      "poi_name": "Ward 9",
      "osm_id": 2412756653,
      "amenity": "restaurant",
      "cuisine": "american",
      "website": "https://ward9newhaven.com/",
      "addr_state": "CT",
      "addr_city": "New Haven",
      "addr_postcode": "06511",
      "addr_street": "State Street",
      "addr_housenumber": "974",
      "value": 279.2632172233851
    },
    {
      "id": 173502,
      "geometry": "POINT (-72.924025 41.30566)",
      "poi_name": "Tikkaway",
      "osm_id": 2441442797,
      "amenity": "restaurant",
      "cuisine": "indian",
      "opening_hours": "Mo-Fr 11:30-22:00; Sa,Su 12:00-20:00",
      "website": "https://www.tikkaway.com/",
      "takeaway": "yes",
      "addr_state": "CT",
      "addr_city": "New Haven",
      "addr_postcode": "06510",
      "addr_street": "Orange Street",
      "addr_housenumber": "135",
      "value": 279.2632172233851
    },
    {
      "id": 173507,
      "geometry": "POINT (-72.917306 41.310934)",
      "poi_name": "Goodfellas",
      "osm_id": 2441481478,
      "amenity": "restaurant",
      "cuisine": "italian",
      "website": "https://www.goodfellasrestaurant.com/",
      "phone": "+1 (203) 785-8722",
      "addr_state": "CT",
      "addr_city": "New Haven",
      "addr_postcode": "06511",
      "addr_street": "State Street",
      "addr_housenumber": "702",
      "value": 279.2632172233851
    },
    {
      "id": 173509,
      "geometry": "POINT (-72.913452 41.31345)",
      "poi_name": "Michelina\u2019s Apizza & Ristorant\u00e9",
      "osm_id": 2441481481,
      "amenity": "restaurant",
      "cuisine": "italian;pizza",
      "website": "https://michelinasapizza.com/",
      "phone": "+14756552141",
      "addr_state": "CT",
      "addr_city": "New Haven",
      "addr_postcode": "06511",
      "addr_street": "State Street",
      "addr_housenumber": "858",
      "value": 279.2632172233851
    },
    {
      "id": 174193,
      "geometry": "POINT (-72.92805 41.305483)",
      "poi_name": "Olives and Oil",
      "osm_id": 2469485882,
      "amenity": "restaurant",
      "cuisine": "italian",
      "addr_state": "CT",
      "addr_city": "New Haven",
      "addr_postcode": "06510",
      "addr_street": "Temple Street",
      "addr_housenumber": "124",
      "value": 279.2632172233851
    },
    {
      "id": 174188,
      "geometry": "POINT (-72.9306 41.306319)",
      "poi_name": "Aladdin Crown Pizza",
      "osm_id": 2469480128,
      "amenity": "restaurant",
      "cuisine": "pizza;middle_eastern;mediterranean",
      "website": "https://www.aladdincrownpizzact.com",
      "addr_state": "CT",
      "addr_city": "New Haven",
      "addr_postcode": "06511",
      "addr_street": "Crown Street",
      "addr_housenumber": "260",
      "value": 279.2632172233851
    },
    {
      "id": 174335,
      "geometry": "POINT (-72.909453 41.315968)",
      "poi_name": "Toka Asian Kitchen",
      "osm_id": 2476950581,
      "amenity": "restaurant",
      "cuisine": "asian",
      "phone": "(203) 624-5558",
      "addr_state": "CT",
      "addr_city": "New Haven",
      "addr_postcode": "06511",
      "addr_street": "State Street",
      "addr_housenumber": "996",
      "value": 279.2632172233851
    },
    {
      "id": 174340,
      "geometry": "POINT (-72.91123 41.31484)",
      "poi_name": "La Carreta",
      "osm_id": 2476964350,
      "amenity": "restaurant",
      "cuisine": "mexican",
      "addr_state": "CT",
      "addr_city": "New Haven",
      "addr_postcode": "06511",
      "addr_street": "State Street",
      "addr_housenumber": "930",
      "value": 279.2632172233851
    },
    {
      "id": 174339,
      "geometry": "POINT (-72.911198 41.314866)",
      "poi_name": "Oak Haven",
      "osm_id": 2476964344,
      "amenity": "restaurant",
      "website": "http://oakhaventableandbar.com/",
      "phone": "(203) 996-1842",
      "addr_state": "CT",
      "addr_city": "New Haven",
      "addr_postcode": "06511",
      "addr_street": "State Street",
      "addr_housenumber": "932",
      "value": 279.2632172233851
    },
    {
      "id": 175637,
      "geometry": "POINT (-72.859582 41.672548)",
      "poi_name": "Sax Restaurant & Pizza",
      "osm_id": 2528690893,
      "amenity": "restaurant",
      "cuisine": "pizza",
      "addr_state": "CT",
      "addr_city": "Plainville",
      "addr_postcode": "06062",
      "addr_street": "East Street",
      "addr_housenumber": "23",
      "value": 279.2632172233851
    },
    {
      "id": 177947,
      "geometry": "POINT (-72.532277 41.765109)",
      "poi_name": "Hartford Road Pizza",
      "osm_id": 2611345760,
      "amenity": "restaurant",
      "cuisine": "pizza",
      "wheelchair": "yes",
      "website": "https://www.hartfordroadpizza.com",
      "phone": "+1 860 432 8800",
      "addr_state": "CT",
      "addr_city": "Manchester",
      "addr_postcode": "06040",
      "addr_street": "Hartford Road",
      "addr_housenumber": "250",
      "value": 279.2632172233851
    },
    {
      "id": 176750,
      "geometry": "POINT (-72.916958 41.302965)",
      "poi_name": "Frank Pepe Pizzeria Napoletana",
      "osm_id": 2567417096,
      "amenity": "restaurant",
      "cuisine": "pizza",
      "website": "https://pepespizzeria.com/store/frank-pepes-new-haven",
      "phone": "+1 203-865-5762",
      "addr_state": "CT",
      "addr_city": "New Haven",
      "addr_postcode": "06511",
      "addr_street": "Wooster Street",
      "addr_housenumber": "157",
      "value": 279.2632172233851
    },
    {
      "id": 176751,
      "geometry": "POINT (-72.920077 41.303057)",
      "poi_name": "Sally's Apizza",
      "osm_id": 2567417097,
      "amenity": "restaurant",
      "cuisine": "pizza",
      "phone": "(203) 624-5271",
      "wikidata": "Q7405017",
      "addr_state": "CT",
      "addr_city": "New Haven",
      "addr_postcode": "06511",
      "addr_street": "Wooster Street",
      "addr_housenumber": "237",
      "value": 279.2632172233851
    },
    {
      "id": 176752,
      "geometry": "POINT (-72.916027 41.303101)",
      "poi_name": "Abat\u00e9",
      "osm_id": 2567417098,
      "amenity": "restaurant",
      "cuisine": "italian",
      "phone": "(203) 776-4334",
      "addr_state": "CT",
      "addr_city": "New Haven",
      "addr_postcode": "06511",
      "addr_street": "Wooster Street",
      "addr_housenumber": "129",
      "value": 279.2632172233851
    },
    {
      "id": 177592,
      "geometry": "POINT (-72.5526 41.765743)",
      "poi_name": "CW Chops & Catch",
      "osm_id": 2595305946,
      "amenity": "restaurant",
      "cuisine": "american",
      "website": "http://chopsandcatch.com/",
      "addr_state": "CT",
      "addr_city": "Manchester",
      "addr_postcode": "06040",
      "addr_street": "Hartford Road",
      "addr_housenumber": "706",
      "value": 279.2632172233851
    },
    {
      "id": 179405,
      "geometry": "POINT (-72.050603 41.345652)",
      "poi_name": "Chester's Barbecue",
      "osm_id": 10761652978,
      "amenity": "restaurant",
      "cuisine": "barbecue",
      "wheelchair": "yes",
      "opening_hours": "Mo-Su 11:00-20:00",
      "website": "https://chestersbbq.com/",
      "phone": "+1 860 449 6868",
      "toilets": "yes",
      "addr_state": "CT",
      "addr_city": "Groton",
      "addr_postcode": "06340",
      "addr_street": "Poquonnock Rd;Poquonnock Road",
      "addr_housenumber": "943",
      "value": 279.2632172233851
    },
    {
      "id": 181170,
      "geometry": "POINT (-72.655586 41.684546)",
      "poi_name": "Kaliabon Ramen",
      "osm_id": 10834379673,
      "amenity": "restaurant",
      "opening_hours": "Tu-Fr 12:00-15:00, 17:00-21:00; Sa 12:00-22:00; Su 12:00-21:00",
      "website": "http://www.kaliubon.com/",
      "phone": "+1-959-230-4533",
      "addr_state": "CT",
      "addr_city": "Wethersfield",
      "addr_postcode": "06109",
      "addr_street": "Silas Deane Highway",
      "addr_housenumber": "13230",
      "value": 279.2632172233851
    },
    {
      "id": 179816,
      "geometry": "POINT (-72.052544 41.539754)",
      "poi_name": "El Traviezo Mexican Restaurant",
      "osm_id": 10778932131,
      "amenity": "restaurant",
      "opening_hours": "Mo,Tu,Th-Sa 12:00-21:30; Su 16:00-22:00",
      "website": "https://traviezocafe.com/",
      "phone": "+1 475 331 0293",
      "addr_state": "CT",
      "addr_city": "Norwich",
      "addr_postcode": "06360",
      "addr_street": "North Main Street",
      "addr_housenumber": "631",
      "value": 279.2632172233851
    },
    {
      "id": 184582,
      "geometry": "POINT (-72.607348 41.711916)",
      "poi_name": "Glastonbury Pizza House",
      "osm_id": 7799463852,
      "amenity": "restaurant",
      "cuisine": "pizza;pasta;salad",
      "website": "https://www.glastonburypizzahousemenu.com",
      "phone": "+1 (860) 652-9900",
      "addr_state": "CT",
      "addr_city": "Glastonbury",
      "addr_postcode": "06033",
      "addr_street": "Hebron Avenue",
      "addr_housenumber": "30",
      "value": 279.2632172233851
    },
    {
      "id": 184583,
      "geometry": "POINT (-72.607279 41.71213)",
      "poi_name": "Ken's Corner Breakfast and Lunch",
      "osm_id": 7799463856,
      "amenity": "restaurant",
      "cuisine": "breakfast",
      "website": "https://www.facebook.com/kenscornerbreakfast",
      "phone": "+1 (860) 657-9811",
      "addr_state": "CT",
      "addr_city": "Glastonbury",
      "addr_postcode": "06033",
      "addr_street": "Hebron Avenue",
      "addr_housenumber": "30",
      "value": 279.2632172233851
    },
    {
      "id": 184585,
      "geometry": "POINT (-72.606157 41.712589)",
      "poi_name": "Bricco Trattoria",
      "osm_id": 7799463863,
      "amenity": "restaurant",
      "cuisine": "italian",
      "website": "https://billygrant.com/bricco-trattoria",
      "phone": "+1 (860) 659-0220",
      "outdoor_seating": "yes",
      "addr_state": "CT",
      "addr_city": "Glastonbury",
      "addr_postcode": "06033",
      "addr_street": "Hebron Avenue",
      "addr_housenumber": "124",
      "value": 279.2632172233851
    },
    {
      "id": 184693,
      "geometry": "POINT (-72.612669 41.716499)",
      "poi_name": "Angelos Restaurant",
      "osm_id": 7807321318,
      "amenity": "restaurant",
      "cuisine": "pizza",
      "website": "https://www.angelospizzact.com",
      "phone": "+1 860 657 4401",
      "takeaway": "yes",
      "addr_state": "CT",
      "addr_city": "Glastonbury",
      "addr_postcode": "06033",
      "addr_street": "Main Street",
      "addr_housenumber": "2705",
      "value": 279.2632172233851
    },
    {
      "id": 184586,
      "geometry": "POINT (-72.605652 41.712053)",
      "poi_name": "Sakura Garden Japanese Steak House",
      "osm_id": 7799463870,
      "amenity": "restaurant",
      "cuisine": "japanese;steak_house;sushi",
      "website": "https://www.sakuragardenglastonbury.com/",
      "phone": "+1 (860) 430-5600",
      "addr_state": "CT",
      "addr_city": "Glastonbury",
      "addr_postcode": "06033",
      "addr_street": "Hebron Avenue",
      "addr_housenumber": "120",
      "value": 279.2632172233851
    },
    {
      "id": 184587,
      "geometry": "POINT (-72.60572 41.711912)",
      "poi_name": "Plan B Burger Bar",
      "osm_id": 7799463872,
      "amenity": "restaurant",
      "cuisine": "burger;bourbon;beer",
      "website": "https://burgersbeerbourbon.com/glastonbury",
      "phone": "+1 (860) 430-9737",
      "outdoor_seating": "yes",
      "addr_state": "CT",
      "addr_city": "Glastonbury",
      "addr_postcode": "06033",
      "addr_street": "Hebron Avenue",
      "addr_housenumber": "120",
      "value": 279.2632172233851
    },
    {
      "id": 184588,
      "geometry": "POINT (-72.605617 41.71188)",
      "poi_name": "Rooftop120",
      "osm_id": 7799463873,
      "amenity": "restaurant",
      "website": "https://rooftop120.com",
      "phone": "+1 (860) 430-9989",
      "addr_state": "CT",
      "addr_city": "Glastonbury",
      "addr_postcode": "06033",
      "addr_street": "Hebron Avenue",
      "addr_housenumber": "120",
      "value": 279.2632172233851
    },
    {
      "id": 184637,
      "geometry": "POINT (-72.607788 41.712785)",
      "poi_name": "Noodles & Company",
      "osm_id": 7802360331,
      "amenity": "restaurant",
      "cuisine": "pasta",
      "wheelchair": "yes",
      "opening_hours": "Su-Th 11:00-21:00; Fr,Sa 11:00-22:00",
      "website": "https://locations.noodles.com/ct/glastonbury/41-hebron-avenue.html",
      "internet_access": "wlan",
      "phone": "+1 860 430 6888",
      "takeaway": "yes",
      "outdoor_seating": "yes",
      "delivery": "yes",
      "addr_state": "CT",
      "addr_city": "Glastonbury",
      "addr_postcode": "06033",
      "addr_street": "Hebron Avenue",
      "addr_housenumber": "41",
      "value": 279.2632172233851
    },
    {
      "id": 184638,
      "geometry": "POINT (-72.607085 41.712945)",
      "poi_name": "Bin228",
      "osm_id": 7802360333,
      "amenity": "restaurant",
      "website": "https://thebin228.com/",
      "phone": "+1 860 430 9699",
      "takeaway": "yes",
      "outdoor_seating": "yes",
      "addr_state": "CT",
      "addr_city": "Glastonbury",
      "addr_postcode": "06033",
      "addr_street": "Hebron Avenue",
      "addr_housenumber": "63",
      "value": 279.2632172233851
    },
    {
      "id": 184639,
      "geometry": "POINT (-72.607316 41.713219)",
      "poi_name": "La Piastra",
      "osm_id": 7802360336,
      "amenity": "restaurant",
      "cuisine": "italian",
      "website": "http://www.lapiastra.com",
      "phone": "+1 860 430 6474",
      "takeaway": "only",
      "outdoor_seating": "no",
      "addr_state": "CT",
      "addr_city": "Glastonbury",
      "addr_postcode": "06033",
      "addr_street": "Hebron Avenue",
      "addr_housenumber": "63",
      "value": 279.2632172233851
    },
    {
      "id": 184640,
      "geometry": "POINT (-72.606538 41.712972)",
      "poi_name": "Giovanni's Brick Oven Pizzaria",
      "osm_id": 7802387345,
      "amenity": "restaurant",
      "cuisine": "pizza",
      "website": "https://giovannisbrickovenpizzeria.wordpress.com",
      "phone": "+1 860 633 0041",
      "takeaway": "yes",
      "outdoor_seating": "yes",
      "addr_state": "CT",
      "addr_city": "Glastonbury",
      "addr_postcode": "06033",
      "addr_street": "Hebron Avenue",
      "addr_housenumber": "113",
      "value": 279.2632172233851
    },
    {
      "id": 184641,
      "geometry": "POINT (-72.606512 41.713364)",
      "poi_name": "Glastonbury Coffee Shop",
      "osm_id": 7802387348,
      "amenity": "restaurant",
      "cuisine": "breakfast;lunch",
      "phone": "+1 860 659 0182",
      "addr_state": "CT",
      "addr_city": "Glastonbury",
      "addr_postcode": "06033",
      "addr_street": "Welles Street",
      "addr_housenumber": "30",
      "value": 279.2632172233851
    },
    {
      "id": 184642,
      "geometry": "POINT (-72.606541 41.713595)",
      "poi_name": "Adriatik's Restaurant and Pizzeria",
      "osm_id": 7802387350,
      "amenity": "restaurant",
      "cuisine": "mediterranean",
      "website": "https://adriatiks.com",
      "phone": "+1 860 633 0599",
      "outdoor_seating": "yes",
      "addr_state": "CT",
      "addr_city": "Glastonbury",
      "addr_postcode": "06033",
      "addr_street": "Welles Street",
      "addr_housenumber": "30",
      "value": 279.2632172233851
    },
    {
      "id": 185366,
      "geometry": "POINT (-72.615756 41.723675)",
      "poi_name": "1000 Degrees Pizza",
      "osm_id": 7850461259,
      "amenity": "restaurant",
      "cuisine": "pizza;salad;wings",
      "website": "https://www.1000degreespizza.com/best-pizza-place-in-glastonbury-connecticut",
      "phone": "+1 860 500 1000",
      "addr_state": "CT",
      "addr_city": "Glastonbury",
      "addr_postcode": "06033",
      "addr_street": "Main Street",
      "addr_housenumber": "2941",
      "value": 279.2632172233851
    },
    {
      "id": 184823,
      "geometry": "POINT (-72.614041 41.721788)",
      "poi_name": "Hot Table",
      "osm_id": 7816250465,
      "amenity": "restaurant",
      "cuisine": "sandwich",
      "website": "https://hottable.com/locations",
      "phone": "+1 860 430 2300",
      "takeaway": "yes",
      "outdoor_seating": "no",
      "addr_state": "CT",
      "addr_city": "Glastonbury",
      "addr_postcode": "06033",
      "addr_street": "Main Street",
      "addr_housenumber": "2876",
      "value": 279.2632172233851
    },
    {
      "id": 184824,
      "geometry": "POINT (-72.614011 41.72166)",
      "poi_name": "MexiPho",
      "osm_id": 7816250467,
      "amenity": "restaurant",
      "cuisine": "mexican;vietnamese",
      "website": "https://www.mexipho.com",
      "phone": "+1 860 633 2198",
      "takeaway": "yes",
      "outdoor_seating": "no",
      "addr_state": "CT",
      "addr_city": "Glastonbury",
      "addr_postcode": "06033",
      "addr_street": "Main Street",
      "addr_housenumber": "2872",
      "value": 279.2632172233851
    },
    {
      "id": 184825,
      "geometry": "POINT (-72.613858 41.721156)",
      "poi_name": "Gourmet Wok",
      "osm_id": 7816250470,
      "amenity": "restaurant",
      "cuisine": "chinese",
      "website": "https://www.gourmetwokglastonburyct.com",
      "phone": "+1 860 659 9922",
      "takeaway": "yes",
      "outdoor_seating": "no",
      "addr_state": "CT",
      "addr_city": "Glastonbury",
      "addr_postcode": "06033",
      "addr_street": "Main Street",
      "addr_housenumber": "2856",
      "value": 279.2632172233851
    },
    {
      "id": 184827,
      "geometry": "POINT (-72.613956 41.721038)",
      "poi_name": "Tisumi Sushi",
      "osm_id": 7816250473,
      "amenity": "restaurant",
      "cuisine": "sushi",
      "website": "https://www.tisumisushict.com",
      "phone": "+1 860 430 2826",
      "takeaway": "yes",
      "addr_state": "CT",
      "addr_city": "Glastonbury",
      "addr_postcode": "06033",
      "addr_street": "Main Street",
      "addr_housenumber": "2850",
      "value": 279.2632172233851
    },
    {
      "id": 184754,
      "geometry": "POINT (-72.606784 41.714988)",
      "poi_name": "Foxy Pizza",
      "osm_id": 7810999620,
      "amenity": "restaurant",
      "cuisine": "pizza",
      "website": "http://www.foxypizza.com",
      "phone": "+1 860 633 4635",
      "addr_state": "CT",
      "addr_city": "Glastonbury",
      "addr_postcode": "06033",
      "addr_street": "Welles Street",
      "addr_housenumber": "37",
      "value": 279.2632172233851
    },
    {
      "id": 184755,
      "geometry": "POINT (-72.607148 41.714942)",
      "poi_name": "Siam Glastonbury",
      "osm_id": 7810999625,
      "amenity": "restaurant",
      "cuisine": "thai",
      "website": "https://siamglastonbury.takeout7.com",
      "phone": "+1 860 659 8511",
      "addr_state": "CT",
      "addr_city": "Glastonbury",
      "addr_postcode": "06033",
      "addr_street": "Welles Street",
      "addr_housenumber": "45",
      "value": 279.2632172233851
    },
    {
      "id": 184770,
      "geometry": "POINT (-72.211726 41.713589)",
      "poi_name": "Wings 'n' Pies",
      "osm_id": 7813620691,
      "amenity": "restaurant",
      "cuisine": "wings;pizza",
      "website": "https://www.wingsnpieswillimantic.com",
      "phone": "+1 860 423 1919",
      "addr_state": "CT",
      "addr_city": "Willimantic",
      "addr_postcode": "06226",
      "addr_street": "Valley Street",
      "addr_housenumber": "109",
      "value": 279.2632172233851
    },
    {
      "id": 184784,
      "geometry": "POINT (-72.226467 41.713848)",
      "poi_name": "Royal Buffet",
      "osm_id": 7814127633,
      "amenity": "restaurant",
      "cuisine": "asian",
      "website": "https://royalbuffetwillimantic.com",
      "phone": "+1 860 423 2858",
      "addr_state": "CT",
      "addr_city": "Willimantic",
      "addr_postcode": "06226",
      "addr_street": "Main Street",
      "addr_housenumber": "1228",
      "value": 279.2632172233851
    },
    {
      "id": 184785,
      "geometry": "POINT (-72.226332 41.713832)",
      "poi_name": "Cinco de Mayo",
      "osm_id": 7814127634,
      "amenity": "restaurant",
      "cuisine": "mexican",
      "website": "https://www.fiestacincodemayoct.com",
      "phone": "+1 860 423 9524",
      "addr_state": "CT",
      "addr_city": "Willimantic",
      "addr_postcode": "06226",
      "addr_street": "Main Street",
      "addr_housenumber": "1228",
      "value": 279.2632172233851
    },
    {
      "id": 184948,
      "geometry": "POINT (-72.525324 41.713917)",
      "poi_name": "Birch Hill Tavern",
      "osm_id": 7821690838,
      "amenity": "restaurant",
      "website": "https://www.birchhilltavern.com",
      "phone": "+1 860 430 5550",
      "takeaway": "yes",
      "outdoor_seating": "no",
      "addr_state": "CT",
      "addr_city": "Glastonbury",
      "addr_postcode": "06033",
      "addr_street": "Manchester Road",
      "addr_housenumber": "1320",
      "value": 279.2632172233851
    },
    {
      "id": 185020,
      "geometry": "POINT (-72.602789 41.665883)",
      "poi_name": "Char Koon",
      "osm_id": 7827910764,
      "amenity": "restaurant",
      "cuisine": "chinese",
      "website": "https://www.charkoon.com",
      "phone": "+1 860 657 3656",
      "takeaway": "yes",
      "addr_state": "CT",
      "addr_city": "Glastonbury",
      "addr_postcode": "06073",
      "addr_street": "Main Street",
      "addr_housenumber": "882",
      "value": 279.2632172233851
    },
    {
      "id": 185315,
      "geometry": "POINT (-72.276592 41.785108)",
      "poi_name": "It's All About The Flavour Restaurant",
      "osm_id": 7844909589,
      "amenity": "restaurant",
      "cuisine": "caribbean;cajun;southern",
      "website": "https://www.facebook.com/itsallabouttheflavour1",
      "phone": "+1 860 477 1547",
      "addr_state": "CT",
      "addr_city": "Storrs",
      "addr_postcode": "06268",
      "addr_street": "Stafford Road",
      "addr_housenumber": "871",
      "value": 279.2632172233851
    },
    {
      "id": 185856,
      "geometry": "POINT (-72.653003 41.712498)",
      "poi_name": "Aroma Bistro",
      "osm_id": 7888112471,
      "amenity": "restaurant",
      "cuisine": "american",
      "website": "https://www.facebook.com/aroma-bistro-156006464452003",
      "phone": "+1 860 436 5772",
      "addr_state": "CT",
      "addr_city": "Wethersfield",
      "addr_postcode": "06109",
      "addr_street": "Main Street",
      "addr_housenumber": "227",
      "value": 279.2632172233851
    },
    {
      "id": 185427,
      "geometry": "POINT (-72.604808 41.713911)",
      "poi_name": "Spicy Green Bean",
      "osm_id": 7855362658,
      "amenity": "restaurant",
      "cuisine": "american",
      "website": "https://www.thespicygreenbean.com",
      "phone": "+1 860 657 3500",
      "addr_state": "CT",
      "addr_city": "Glastonbury",
      "addr_postcode": "06033",
      "addr_street": "New London Turnpike",
      "addr_housenumber": "103",
      "value": 279.2632172233851
    },
    {
      "id": 185441,
      "geometry": "POINT (-72.619806 41.728369)",
      "poi_name": "Ginger Root",
      "osm_id": 7855769401,
      "amenity": "restaurant",
      "cuisine": "chinese",
      "website": "https://www.gingerrooteasthartford.com",
      "phone": "+1 860 568 1583",
      "addr_state": "CT",
      "addr_city": "East Hartford",
      "addr_postcode": "06118",
      "addr_street": "Main Street",
      "addr_housenumber": "9",
      "value": 279.2632172233851
    },
    {
      "id": 185515,
      "geometry": "POINT (-72.662268 41.709577)",
      "poi_name": "Edo Ichi Sushi and Hibachi Steakhouse",
      "osm_id": 7861858373,
      "amenity": "restaurant",
      "cuisine": "sushi",
      "website": "https://www.edoichiwethersfield.com",
      "phone": "+1 860 436 4444",
      "addr_state": "CT",
      "addr_city": "Wethersfield",
      "addr_postcode": "06109",
      "addr_street": "Silas Deane Highway",
      "addr_housenumber": "580",
      "value": 279.2632172233851
    },
    {
      "id": 186251,
      "geometry": "POINT (-72.760365 41.692198)",
      "poi_name": "Ichiban Express Hibachi Grill and Pok\u00e9 Bowl",
      "osm_id": 7923627063,
      "amenity": "restaurant",
      "cuisine": "japanese",
      "website": "http://ichibanexpressct.com",
      "phone": "+1 860 438 7884",
      "addr_state": "CT",
      "addr_city": "New Britain",
      "addr_postcode": "06053",
      "addr_street": "East Street",
      "addr_housenumber": "1460",
      "value": 279.2632172233851
    },
    {
      "id": 185931,
      "geometry": "POINT (-72.574704 41.717417)",
      "poi_name": "Square Peg Pizzeria",
      "osm_id": 7894840814,
      "amenity": "restaurant",
      "cuisine": "pizza",
      "website": "https://squarepegpizzeria.com",
      "phone": "+1 860 286 0415",
      "addr_state": "CT",
      "addr_city": "Glastonbury",
      "addr_postcode": "06033",
      "addr_street": "Hebron Avenue",
      "addr_housenumber": "1001",
      "value": 279.2632172233851
    },
    {
      "id": 186486,
      "geometry": "POINT (-72.590648 41.704054)",
      "poi_name": "The Beamhouse",
      "osm_id": 7932003956,
      "amenity": "restaurant",
      "website": "https://thebeamhousect.com",
      "phone": "+1 860 430 6922",
      "addr_state": "CT",
      "addr_city": "Glastonbury",
      "addr_postcode": "06033",
      "addr_street": "New London Turnpike",
      "addr_housenumber": "917",
      "value": 279.2632172233851
    },
    {
      "id": 189693,
      "geometry": "POINT (-72.00021 41.489609)",
      "poi_name": "Solis Restaurant",
      "osm_id": 1243927177,
      "amenity": "restaurant",
      "cuisine": "pizza",
      "website": "https://www.solisrestaurantmenu.com",
      "phone": "+1 860 383 4530",
      "addr_state": "CT",
      "addr_city": "Preston",
      "addr_postcode": "06365",
      "addr_street": "Route 2",
      "addr_housenumber": "352",
      "value": 279.2632172233851
    },
    {
      "id": 190593,
      "geometry": "POINT (-72.706655 41.760541)",
      "poi_name": "Wood-n-Tap",
      "osm_id": 1306157990,
      "amenity": "restaurant",
      "cuisine": "american",
      "opening_hours": "Su-Th 11:30-01:00; Fr,Sa 11:30-02:00",
      "website": "https://www.woodntap.com/hartford.htm",
      "addr_state": "CT",
      "addr_postcode": "06105",
      "addr_street": "Sission",
      "addr_housenumber": "99",
      "value": 279.2632172233851
    },
    {
      "id": 190594,
      "geometry": "POINT (-72.728317 41.755811)",
      "poi_name": "Quaker Diner",
      "osm_id": 1306161079,
      "amenity": "restaurant",
      "cuisine": "diner",
      "addr_state": "CT",
      "addr_postcode": "06119",
      "addr_street": "Park Road",
      "addr_housenumber": "319",
      "value": 279.2632172233851
    },
    {
      "id": 190428,
      "geometry": "POINT (-72.928957 41.307265)",
      "poi_name": "Claire's Corner Copia",
      "osm_id": 1293332877,
      "amenity": "restaurant",
      "cuisine": "american;sandwich;dessert",
      "opening_hours": "Mo, We-Su 08:30-20:30",
      "website": "https://www.clairescornercopia.com/",
      "wikidata": "Q5125130",
      "addr_state": "CT",
      "addr_postcode": "06510",
      "addr_street": "Chapel Street",
      "addr_housenumber": "1000",
      "value": 279.2632172233851
    },
    {
      "id": 192861,
      "geometry": "POINT (-72.515038 41.809636)",
      "poi_name": "Kumar's South Indian Restaurant",
      "osm_id": 1483343113,
      "amenity": "restaurant",
      "addr_state": "CT",
      "addr_city": "Manchester",
      "addr_postcode": "06042",
      "addr_street": "Tolland Turnpike",
      "addr_housenumber": "238",
      "value": 279.2632172233851
    },
    {
      "id": 193712,
      "geometry": "POINT (-72.929747 41.30618)",
      "poi_name": "Pacifico Restaurant",
      "osm_id": 1557744184,
      "amenity": "restaurant",
      "cuisine": "latin_american;seafood",
      "website": "http://www.pacificorestaurants.com/",
      "addr_state": "CT",
      "addr_postcode": "06511",
      "addr_street": "College",
      "addr_housenumber": "220",
      "value": 279.2632172233851
    },
    {
      "id": 195238,
      "geometry": "POINT (-72.608539 41.717364)",
      "poi_name": "Red Fox Prime Steakhouse",
      "osm_id": 10298381431,
      "amenity": "restaurant",
      "website": "https://www.redfoxglastonbury.com/",
      "phone": "+1-860-430-2184",
      "addr_state": "CT",
      "addr_city": "Glastonbury",
      "addr_postcode": "06033",
      "addr_street": "New London Turnpike, Glastonbury, CT 06033",
      "addr_housenumber": "39",
      "value": 279.2632172233851
    },
    {
      "id": 204214,
      "geometry": "POINT (-71.654686 41.578512)",
      "poi_name": "Little Country Pizza & Restaurant",
      "osm_id": 7117190057,
      "amenity": "restaurant",
      "cuisine": "pizza;barbecue",
      "opening_hours": "Tu-Su 11:00-21:00",
      "website": "https://littlecountrypizza.com/",
      "phone": "401-397-2500",
      "addr_state": "RI",
      "addr_city": "Exeter",
      "addr_street": "Nooseneck Hill Road",
      "addr_housenumber": "349",
      "value": 279.2632172233851
    },
    {
      "id": 210360,
      "geometry": "POINT (-72.351196 41.86)",
      "poi_name": "Tolland Pizza",
      "osm_id": 5099622541,
      "amenity": "restaurant",
      "cuisine": "pizza;greek",
      "opening_hours": "Mo-Sa 11:00-20:30; Su 11:00-20:00",
      "addr_city": "Tolland",
      "addr_postcode": "06084",
      "addr_street": "Merrow Road",
      "addr_housenumber": "225",
      "value": 279.2632172233851
    },
    {
      "id": 209586,
      "geometry": "POINT (-71.971649 41.354591)",
      "poi_name": "Mystic Pizza",
      "osm_id": 5045339322,
      "amenity": "restaurant",
      "cuisine": "pizza",
      "opening_hours": "Mo-Su 10:00-23:00",
      "website": "https://www.mysticpizzaoriginal.com/",
      "phone": "+1 860 536 3700",
      "takeaway": "yes",
      "delivery": "yes",
      "addr_state": "CT",
      "addr_city": "Mystic",
      "addr_postcode": "06355",
      "addr_street": "West Main Street",
      "addr_housenumber": "56",
      "value": 279.2632172233851
    },
    {
      "id": 212758,
      "geometry": "POINT (-72.437982 41.39142)",
      "poi_name": "The Ivory Restaurant & Pub",
      "osm_id": 5219556275,
      "amenity": "restaurant",
      "cuisine": "mexican",
      "website": "https://ivory-restaurant-ct.com/",
      "phone": "860-526-2528",
      "delivery": "no",
      "addr_state": "CT",
      "addr_city": "Deep River",
      "addr_postcode": "06417",
      "addr_street": "Kirtland Street",
      "addr_housenumber": "1",
      "value": 279.2632172233851
    },
    {
      "id": 212257,
      "geometry": "POINT (-72.672424 41.50318)",
      "poi_name": "Our Place Pizza",
      "osm_id": 5196652722,
      "amenity": "restaurant",
      "cuisine": "pizza",
      "addr_state": "CT",
      "addr_city": "Middletown",
      "addr_postcode": "06457",
      "addr_street": "South Main Street Extension",
      "addr_housenumber": "2100",
      "value": 279.2632172233851
    },
    {
      "id": 212267,
      "geometry": "POINT (-72.615214 41.535606)",
      "poi_name": "Nino\u2019s Pizzeria",
      "osm_id": 5196795325,
      "amenity": "restaurant",
      "addr_state": "CT",
      "addr_city": "Middletown",
      "addr_postcode": "06457",
      "addr_street": "Saybrook Road",
      "addr_housenumber": "825",
      "value": 279.2632172233851
    },
    {
      "id": 213002,
      "geometry": "POINT (-72.20985 41.321449)",
      "poi_name": "Village Pizza",
      "osm_id": 5229549026,
      "amenity": "restaurant",
      "cuisine": "pizza",
      "addr_state": "CT",
      "addr_city": "East Lyme",
      "addr_postcode": "06357",
      "addr_street": "West Main Street",
      "addr_housenumber": "53",
      "value": 279.2632172233851
    },
    {
      "id": 215303,
      "geometry": "POINT (-71.917665 41.679482)",
      "poi_name": "Gus's Pizza",
      "osm_id": 5294758962,
      "amenity": "restaurant",
      "addr_state": "CT",
      "addr_city": "Plainfield",
      "addr_postcode": "06374",
      "addr_street": "Babcock Avenue",
      "addr_housenumber": "5",
      "value": 279.2632172233851
    },
    {
      "id": 214741,
      "geometry": "POINT (-72.106201 41.44908)",
      "poi_name": "Uncasville Diner",
      "osm_id": 5279736325,
      "amenity": "restaurant",
      "cuisine": "american;breakfast;lunch;dinner",
      "addr_state": "CT",
      "addr_city": "Uncasville",
      "addr_postcode": "06382",
      "addr_street": "Norwich-New London Turnpike",
      "addr_housenumber": "884",
      "value": 279.2632172233851
    },
    {
      "id": 215171,
      "geometry": "POINT (-71.905148 41.711008)",
      "poi_name": "La Cantina",
      "osm_id": 5289833540,
      "amenity": "restaurant",
      "cuisine": "mexican;regional",
      "opening_hours": "Su-Th 11:00-21:00; Fr-Sa 11:00-22:00",
      "website": "http://www.lacantinabargrill.com",
      "phone": "+1 860 317 1117",
      "addr_state": "CT",
      "addr_city": "Plainfield",
      "addr_postcode": "06374",
      "addr_street": "Norwich Road",
      "addr_housenumber": "123",
      "value": 279.2632172233851
    },
    {
      "id": 215172,
      "geometry": "POINT (-71.902543 41.718146)",
      "poi_name": "Franko's Pizza & Restaurant",
      "osm_id": 5289833554,
      "amenity": "restaurant",
      "cuisine": "pizza;regional",
      "addr_state": "CT",
      "addr_city": "Plainfield",
      "addr_postcode": "06354",
      "addr_street": "Norwich Road",
      "addr_housenumber": "14",
      "value": 279.2632172233851
    },
    {
      "id": 216728,
      "geometry": "POINT (-72.448353 41.503659)",
      "poi_name": "Tavern on the Hill",
      "osm_id": 9181225319,
      "amenity": "restaurant",
      "addr_state": "CT",
      "addr_city": "East Haddam",
      "addr_postcode": "06469",
      "addr_street": "Rae Palmer Road",
      "addr_housenumber": "12",
      "value": 279.2632172233851
    },
    {
      "id": 216138,
      "geometry": "POINT (-72.712858 41.731689)",
      "poi_name": "The Russell Grab & Go",
      "osm_id": 9156685564,
      "amenity": "restaurant",
      "cuisine": "caribbean",
      "website": "https://therussellct.com/grab-go",
      "phone": "+1 860 308 2393",
      "addr_state": "CT",
      "addr_city": "Hartford",
      "addr_postcode": "06106",
      "addr_street": "New Britain Avenue",
      "addr_housenumber": "881",
      "value": 279.2632172233851
    },
    {
      "id": 216139,
      "geometry": "POINT (-72.71226 41.731766)",
      "poi_name": "Empire Pizza House",
      "osm_id": 9156685578,
      "amenity": "restaurant",
      "cuisine": "pizza",
      "website": "https://www.empirepizzahousect.com",
      "phone": "+1 860 953 0596",
      "addr_state": "CT",
      "addr_city": "Hartford",
      "addr_postcode": "06106",
      "addr_street": "New Britain Avenue",
      "addr_housenumber": "861",
      "value": 279.2632172233851
    },
    {
      "id": 216140,
      "geometry": "POINT (-72.670786 41.762556)",
      "poi_name": "Plan B Hartford",
      "osm_id": 9156694965,
      "amenity": "restaurant",
      "cuisine": "burger",
      "opening_hours": "Mo-Tu 11:30-23:00; Fr-Sa 11:30-24:00; Su 11:30-22:00",
      "website": "https://burgersbeerbourbon.com/hartford/",
      "phone": "(860) 726-4890",
      "addr_state": "CT",
      "addr_city": "Hartford",
      "addr_postcode": "06103",
      "addr_street": "Front Street",
      "addr_housenumber": "35",
      "value": 279.2632172233851
    },
    {
      "id": 216142,
      "geometry": "POINT (-72.673609 41.766493)",
      "poi_name": "Ranch House",
      "osm_id": 9156705024,
      "amenity": "restaurant",
      "cuisine": "pizza",
      "phone": "(863) 270-8770",
      "addr_state": "CT",
      "addr_city": "Hartford",
      "addr_postcode": "06103",
      "addr_street": "Asylum Street",
      "addr_housenumber": "17",
      "value": 279.2632172233851
    },
    {
      "id": 218042,
      "geometry": "POINT (-72.2087 41.7108)",
      "poi_name": "Latin Flavor",
      "osm_id": 9254805025,
      "amenity": "restaurant",
      "description": "It is blend of Latin and American food made with authentic herbs and spices.",
      "website": "https://latinflavorct.com/",
      "phone": "+1 (860) 786-7750",
      "takeaway": "only",
      "addr_state": "CT",
      "addr_city": "Willimantic",
      "addr_postcode": "06226",
      "addr_street": "Union Street",
      "addr_housenumber": "81",
      "value": 279.2632172233851
    },
    {
      "id": 218043,
      "geometry": "POINT (-72.222309 41.715795)",
      "poi_name": "La Mexicana Supermercado y Taquer\u00eda",
      "osm_id": 9254805038,
      "amenity": "restaurant",
      "cuisine": "mexican;central_american;south_american",
      "website": "https://www.facebook.com/pages/la-mexicana-taquer%C3%ADa/107680745986214",
      "phone": "+1 860 423 2021",
      "addr_state": "CT",
      "addr_city": "Willimantic",
      "addr_postcode": "06226",
      "addr_street": "Valley Street",
      "addr_housenumber": "385",
      "value": 279.2632172233851
    },
    {
      "id": 218046,
      "geometry": "POINT (-72.217151 41.713139)",
      "poi_name": "Willimantic Brewing Company",
      "osm_id": 9254805098,
      "amenity": "restaurant",
      "cuisine": "regional",
      "website": "https://willimanticbrewingcompany.com/",
      "phone": "+1 (860) 423-6777",
      "outdoor_seating": "yes",
      "addr_state": "CT",
      "addr_city": "Willimantic",
      "addr_postcode": "06226",
      "addr_street": "Main Street",
      "addr_housenumber": "967",
      "value": 279.2632172233851
    },
    {
      "id": 218047,
      "geometry": "POINT (-72.216809 41.714237)",
      "poi_name": "Blarney's Cafe",
      "osm_id": 9254805102,
      "amenity": "restaurant",
      "cuisine": "irish",
      "website": "http://blarneyscafe.com",
      "phone": "+1 860 423 9496",
      "addr_state": "CT",
      "addr_city": "Willimantic",
      "addr_postcode": "06226",
      "addr_street": "High Street",
      "addr_housenumber": "49",
      "value": 279.2632172233851
    },
    {
      "id": 220208,
      "geometry": "POINT (-71.928863 41.65594)",
      "poi_name": "Hank's Dairy Bar",
      "osm_id": 9364734546,
      "amenity": "restaurant",
      "cuisine": "burger;fish_and_chips;hotdog;ice_cream;sandwich;seafood",
      "opening_hours": "Tu-Su 11:00-21:00",
      "website": "https://www.hanksdairybar.com/",
      "phone": "+1 (860) 564-2298",
      "outdoor_seating": "yes",
      "addr_state": "CT",
      "addr_city": "Plainfield",
      "addr_postcode": "06374",
      "addr_street": "Norwich Road",
      "addr_housenumber": "1006",
      "value": 279.2632172233851
    },
    {
      "id": 220416,
      "geometry": "POINT (-72.075842 41.508907)",
      "poi_name": "JoJo\u2019s Breakfast & Mexican Food",
      "osm_id": 9371945258,
      "amenity": "restaurant",
      "cuisine": "mexican;breakfast",
      "website": "https://www.jojosbreakfastmexicanfood.com/?utm_source=gbp",
      "phone": "+1 860 864 4309",
      "addr_state": "CT",
      "addr_city": "Norwich",
      "addr_postcode": "06360",
      "addr_street": "Laurel Hill Avenue",
      "addr_housenumber": "425",
      "value": 279.2632172233851
    },
    {
      "id": 220417,
      "geometry": "POINT (-72.07542 41.524564)",
      "poi_name": "The Royal Punjabi",
      "osm_id": 9372234769,
      "amenity": "restaurant",
      "opening_hours": "Mo-Th 11:30-21:30; Fr-Sa 11:30-22:30",
      "website": "https://theroyalpunjabict.com/",
      "phone": "+1 (860) 934-5469",
      "addr_state": "CT",
      "addr_city": "Norwich",
      "addr_postcode": "06360",
      "addr_street": "Main Street",
      "addr_housenumber": "198",
      "value": 279.2632172233851
    },
    {
      "id": 221915,
      "geometry": "POINT (-72.604557 41.929939)",
      "poi_name": "Jimmy Chen's Asian Cuisine & Cocktail Bar",
      "osm_id": 10996385388,
      "amenity": "restaurant",
      "cuisine": "asian;noodles;ramen;sushi",
      "website": "https://order.online/store/jimmy-chens-asian-cuisine--cocktail-bar-364346",
      "phone": "+18606238886",
      "addr_state": "CT",
      "addr_city": "East Windsor",
      "addr_street": "Prospect Hill Road",
      "addr_housenumber": "122",
      "value": 279.2632172233851
    },
    {
      "id": 217979,
      "geometry": "POINT (-72.542985 41.820752)",
      "poi_name": "Oakland Pizza Co.",
      "osm_id": 9251516868,
      "amenity": "restaurant",
      "description": "Nepoletana style pizza, small plates, seasonal pastas, craft beer and wine.",
      "opening_hours": "We, Th, Su 11:30-20:30; Fr, Sa 11:30-21:00",
      "website": "OaklandPizzaCo.com",
      "phone": "860 644 4789",
      "addr_city": "South Windsor",
      "addr_postcode": "06074",
      "addr_street": "Oakland Road",
      "addr_housenumber": "289",
      "value": 279.2632172233851
    },
    {
      "id": 217980,
      "geometry": "POINT (-72.496129 41.826266)",
      "poi_name": "Jamaican Kitchen",
      "osm_id": 9251533178,
      "amenity": "restaurant",
      "cuisine": "jamaican",
      "wheelchair": "yes",
      "opening_hours": "Mo-Sa 10:00-21:00,Su 10:00-22:00",
      "website": "https://www.jamaicankitchenct.com/",
      "phone": "(860) 375 8048",
      "outdoor_seating": "no",
      "addr_state": "CT",
      "addr_city": "Vernon",
      "addr_postcode": "06066",
      "addr_street": "Hartford Turnpike",
      "addr_housenumber": "243",
      "value": 279.2632172233851
    },
    {
      "id": 222200,
      "geometry": "POINT (-72.046438 41.346323)",
      "poi_name": "JU-SUSHI\u200b",
      "osm_id": 11009403189,
      "amenity": "restaurant",
      "cuisine": "sushi",
      "opening_hours": "Tu-Sa 11:30-21:00",
      "website": "https://ju-sushi.com/",
      "capacity": "20",
      "phone": "+1-860-446-1000",
      "takeaway": "yes",
      "outdoor_seating": "yes",
      "delivery": "no",
      "toilets": "no",
      "addr_state": "CT",
      "addr_city": "Groton",
      "addr_postcode": "06340",
      "addr_street": "Poquonnock Road",
      "addr_housenumber": "1043",
      "value": 279.2632172233851
    },
    {
      "id": 223911,
      "geometry": "POINT (-72.242082 41.725099)",
      "poi_name": "Garo's Place",
      "osm_id": 11067766579,
      "amenity": "restaurant",
      "cuisine": "spanish",
      "addr_state": "CT",
      "addr_city": "Willimantic",
      "addr_postcode": "06226",
      "addr_street": "Trapella Road",
      "addr_housenumber": "31",
      "value": 279.2632172233851
    },
    {
      "id": 222407,
      "geometry": "POINT (-72.49154 41.83568)",
      "poi_name": "Square Peg",
      "osm_id": 11017172995,
      "amenity": "restaurant",
      "cuisine": "pizza",
      "addr_state": "CT",
      "addr_city": "Vernon",
      "addr_postcode": "06066",
      "addr_street": "Talcottville Road",
      "addr_housenumber": "226",
      "value": 279.2632172233851
    },
    {
      "id": 222412,
      "geometry": "POINT (-72.44876 41.866894)",
      "poi_name": "Anthony's",
      "osm_id": 11017179606,
      "amenity": "restaurant",
      "cuisine": "pizza",
      "addr_state": "CT",
      "addr_city": "Vernon",
      "addr_postcode": "06066",
      "addr_street": "West Main Street",
      "addr_housenumber": "27",
      "value": 279.2632172233851
    },
    {
      "id": 222416,
      "geometry": "POINT (-72.496351 41.829435)",
      "poi_name": "Friendly's",
      "osm_id": 11017182431,
      "amenity": "restaurant",
      "cuisine": "american",
      "addr_state": "CT",
      "addr_city": "Vernon",
      "addr_postcode": "06066",
      "addr_street": "Talcottville Road",
      "addr_housenumber": "103",
      "value": 279.2632172233851
    },
    {
      "id": 222747,
      "geometry": "POINT (-72.460505 41.893604)",
      "poi_name": "JRego's Gathering Place",
      "osm_id": 11034663701,
      "amenity": "restaurant",
      "cuisine": "american",
      "website": "https://www.jregosgatheringplace.com/",
      "phone": "+1-860-454-4458",
      "addr_state": "CT",
      "addr_city": "Ellington",
      "addr_postcode": "06029",
      "addr_street": "West Road",
      "addr_housenumber": "175",
      "value": 279.2632172233851
    },
    {
      "id": 222404,
      "geometry": "POINT (-72.463886 41.868757)",
      "poi_name": "Peking House",
      "osm_id": 11017155478,
      "amenity": "restaurant",
      "cuisine": "chinese",
      "addr_state": "CT",
      "addr_city": "Vernon",
      "addr_postcode": "06066",
      "addr_street": "Union Street",
      "addr_housenumber": "176",
      "value": 279.2632172233851
    },
    {
      "id": 222405,
      "geometry": "POINT (-72.463128 41.868616)",
      "poi_name": "Umami",
      "osm_id": 11017172913,
      "amenity": "restaurant",
      "cuisine": "sushi",
      "addr_state": "CT",
      "addr_city": "Vernon",
      "addr_postcode": "06066",
      "addr_street": "Union Street",
      "addr_housenumber": "172",
      "value": 279.2632172233851
    },
    {
      "id": 224794,
      "geometry": "POINT (-71.314271 41.480416)",
      "poi_name": "Wally's Weiners",
      "osm_id": 11099453074,
      "amenity": "restaurant",
      "cuisine": "hot_dog;american;burger",
      "website": "https://wallyswieners.com/",
      "phone": "+1-401-236-1760",
      "addr_state": "RI",
      "addr_city": "Newport",
      "addr_postcode": "02840",
      "addr_street": "Thames Street",
      "addr_housenumber": "464",
      "value": 279.2632172233851
    },
    {
      "id": 231331,
      "geometry": "POINT (-72.708974 41.75659)",
      "poi_name": "Ipanema Cafe",
      "osm_id": 4463310748,
      "amenity": "restaurant",
      "website": "http://ipanemacafe.net",
      "phone": "+1 860 233 7488",
      "addr_state": "CT",
      "addr_city": "Hartford",
      "addr_postcode": "06106",
      "addr_street": "Park Street",
      "addr_housenumber": "1819",
      "value": 279.2632172233851
    },
    {
      "id": 226403,
      "geometry": "POINT (-72.565112 41.989157)",
      "poi_name": "Country Diner",
      "osm_id": 11159083768,
      "amenity": "restaurant",
      "opening_hours": "Mo-Sa 06:00-15:00; Su 07:00-14:00",
      "website": "http://www.thecountrydiner.com/",
      "phone": "+1-860-763-5338",
      "addr_state": "CT",
      "addr_city": "Enfield",
      "addr_postcode": "06082",
      "addr_street": "Hazard Avenue",
      "addr_housenumber": "111",
      "value": 279.2632172233851
    },
    {
      "id": 230874,
      "geometry": "POINT (-72.744828 41.761283)",
      "poi_name": "Elbow Room",
      "osm_id": 4443832461,
      "amenity": "restaurant",
      "cuisine": "american",
      "opening_hours": "11:30-22:00",
      "website": "https://www.elbowroomct.com/",
      "phone": "+1-860-236-6195",
      "addr_state": "CT",
      "addr_city": "West Hartford",
      "addr_postcode": "06107",
      "addr_street": "Farmington Avenue",
      "addr_housenumber": "986",
      "value": 279.2632172233851
    },
    {
      "id": 233458,
      "geometry": "POINT (-72.461736 41.452302)",
      "poi_name": "La Vita Gustosa",
      "osm_id": 4574522227,
      "amenity": "restaurant",
      "cuisine": "pizza",
      "wheelchair": "yes",
      "website": "https://lavita9main.com/",
      "phone": "+1 860-873-8999",
      "addr_state": "CT",
      "addr_city": "East Haddam",
      "addr_postcode": "06423",
      "addr_street": "Main Street",
      "addr_housenumber": "9",
      "value": 279.2632172233851
    },
    {
      "id": 232867,
      "geometry": "POINT (-72.593987 42.010081)",
      "poi_name": "Enfield Pizza Palace",
      "osm_id": 4546056052,
      "amenity": "restaurant",
      "cuisine": "pizza",
      "website": "http://www.enfieldpizzapalace.com",
      "phone": "+1-860-745-0715",
      "delivery": "yes",
      "addr_state": "CT",
      "addr_city": "Enfield",
      "addr_postcode": "06082",
      "addr_street": "Enfield Street",
      "addr_housenumber": "524",
      "value": 279.2632172233851
    },
    {
      "id": 235498,
      "geometry": "POINT (-72.449106 41.402469)",
      "poi_name": "Otto",
      "osm_id": 5757544897,
      "amenity": "restaurant",
      "opening_hours": "Mo-Th 17:00-21:00; Fr, Sa 11:30-22:00; Su 11:30-21:00",
      "website": "http://ottochester.com",
      "phone": "(860)526-9445",
      "addr_state": "CT",
      "addr_city": "Chester",
      "addr_postcode": "06412",
      "addr_street": "Main St",
      "addr_housenumber": "69",
      "value": 279.2632172233851
    },
    {
      "id": 234289,
      "geometry": "POINT (-71.829662 41.380657)",
      "poi_name": "Thong Thai",
      "osm_id": 4614922303,
      "amenity": "restaurant",
      "cuisine": "asian",
      "description": "Gluten Free menu items",
      "addr_state": "RI",
      "addr_city": "Westerly",
      "addr_postcode": "02891",
      "addr_street": "Railroad Avenue",
      "addr_housenumber": "15",
      "value": 279.2632172233851
    },
    {
      "id": 234290,
      "geometry": "POINT (-71.830727 41.380404)",
      "poi_name": "Trattoria Longo Meatballs and Martinis",
      "osm_id": 4614922304,
      "amenity": "restaurant",
      "cuisine": "italian",
      "addr_state": "RI",
      "addr_city": "Westerly",
      "addr_postcode": "02891",
      "addr_street": "Canal Street",
      "addr_housenumber": "12",
      "value": 279.2632172233851
    },
    {
      "id": 234294,
      "geometry": "POINT (-72.676676 41.767156)",
      "poi_name": "Max Downtown",
      "osm_id": 4615190460,
      "amenity": "restaurant",
      "takeaway": "no",
      "outdoor_seating": "no",
      "addr_state": "CT",
      "addr_city": "Hartford",
      "addr_postcode": "06103",
      "addr_street": "Asylum Street",
      "addr_housenumber": "185",
      "value": 279.2632172233851
    },
    {
      "id": 234296,
      "geometry": "POINT (-72.673281 41.767548)",
      "poi_name": "Sorella",
      "osm_id": 4615198197,
      "amenity": "restaurant",
      "cuisine": "italian",
      "outdoor_seating": "no",
      "addr_state": "CT",
      "addr_city": "Hartford",
      "addr_postcode": "06103",
      "addr_street": "Main Street",
      "addr_housenumber": "901",
      "value": 279.2632172233851
    },
    {
      "id": 234298,
      "geometry": "POINT (-72.674927 41.768695)",
      "poi_name": "Vito's To Go",
      "osm_id": 4615204374,
      "amenity": "restaurant",
      "cuisine": "italian",
      "takeaway": "yes",
      "addr_state": "CT",
      "addr_city": "Hartford",
      "addr_postcode": "06103",
      "addr_street": "Trumbull Street",
      "addr_housenumber": "280",
      "value": 279.2632172233851
    },
    {
      "id": 234299,
      "geometry": "POINT (-72.677502 41.766529)",
      "poi_name": "Bin 228",
      "osm_id": 4615205926,
      "amenity": "restaurant",
      "addr_state": "CT",
      "addr_city": "Hartford",
      "addr_postcode": "06103",
      "addr_street": "Pearl Street",
      "addr_housenumber": "228",
      "value": 279.2632172233851
    },
    {
      "id": 234300,
      "geometry": "POINT (-72.674438 41.767637)",
      "poi_name": "Sunberry",
      "osm_id": 4615218245,
      "amenity": "restaurant",
      "cuisine": "italian",
      "takeaway": "yes",
      "outdoor_seating": "yes",
      "addr_state": "CT",
      "addr_city": "Hartford",
      "addr_postcode": "06103",
      "addr_street": "Pratt Street",
      "addr_housenumber": "65",
      "value": 279.2632172233851
    },
    {
      "id": 233420,
      "geometry": "POINT (-72.417449 41.285767)",
      "poi_name": "Cuckoo's Nest Mexican Food",
      "osm_id": 4572952883,
      "amenity": "restaurant",
      "cuisine": "mexican",
      "website": "https://www.cuckoosnest.biz/",
      "phone": "860-399-9060",
      "delivery": "yes",
      "addr_state": "CT",
      "addr_city": "Old Saybrook",
      "addr_postcode": "06475",
      "addr_street": "Boston Post Road",
      "addr_housenumber": "1712",
      "value": 279.2632172233851
    },
    {
      "id": 234543,
      "geometry": "POINT (-72.54278 41.76496)",
      "poi_name": "cosmic omelette",
      "osm_id": 4627643702,
      "amenity": "restaurant",
      "cuisine": "breakfast",
      "opening_hours": "Mo, We-Fr, Su 07:00-13:00",
      "website": "https://www.cosmicomelet.com/",
      "phone": "860-645-1864",
      "addr_city": "Manchester",
      "addr_postcode": "06040",
      "addr_street": "Hartford Rd, Manchester, CT 06040",
      "addr_housenumber": "485",
      "value": 279.2632172233851
    },
    {
      "id": 236960,
      "geometry": "POINT (-72.677956 41.768459)",
      "poi_name": "Agave Restaurant",
      "osm_id": 5813545218,
      "amenity": "restaurant",
      "cuisine": "mexican",
      "addr_state": "CT",
      "addr_city": "Hartford",
      "addr_postcode": "06103",
      "addr_street": "Allyn Street",
      "addr_housenumber": "100",
      "value": 279.2632172233851
    },
    {
      "id": 236961,
      "geometry": "POINT (-72.681565 41.768031)",
      "poi_name": "Chango Rosa",
      "osm_id": 5813546871,
      "amenity": "restaurant",
      "cuisine": "mexican",
      "outdoor_seating": "yes",
      "addr_state": "CT",
      "addr_city": "Hartford",
      "addr_postcode": "06103",
      "addr_street": "Union Place",
      "addr_housenumber": "1",
      "value": 279.2632172233851
    },
    {
      "id": 236963,
      "geometry": "POINT (-72.669624 41.763762)",
      "poi_name": "Vivo",
      "osm_id": 5813555224,
      "amenity": "restaurant",
      "cuisine": "italian",
      "outdoor_seating": "no",
      "addr_state": "CT",
      "addr_city": "Hartford",
      "addr_postcode": "06103",
      "addr_street": "Columbus Boulevard",
      "addr_housenumber": "200",
      "value": 279.2632172233851
    },
    {
      "id": 236965,
      "geometry": "POINT (-72.671461 41.762723)",
      "poi_name": "Bear's Smokehouse BBQ",
      "osm_id": 5813556953,
      "amenity": "restaurant",
      "website": "https://www.bearsbbq.com/hartford",
      "takeaway": "yes",
      "outdoor_seating": "no",
      "addr_state": "CT",
      "addr_city": "Hartford",
      "addr_postcode": "06103",
      "addr_street": "Front Street",
      "addr_housenumber": "25",
      "value": 279.2632172233851
    },
    {
      "id": 238781,
      "geometry": "POINT (-72.945413 41.3175)",
      "poi_name": "Mama Mary's Soul Food",
      "osm_id": 5893811236,
      "amenity": "restaurant",
      "cuisine": "american",
      "website": "https://www.mamamarysoulfood.com/",
      "phone": "+1 203 562 4535",
      "addr_state": "CT",
      "addr_city": "New Haven",
      "addr_postcode": "06511",
      "addr_street": "Whalley Avenue",
      "addr_housenumber": "237",
      "value": 279.2632172233851
    },
    {
      "id": 244145,
      "geometry": "POINT (-72.212928 41.711855)",
      "poi_name": "Trigo Wood Fired Pizza",
      "osm_id": 7703674058,
      "amenity": "restaurant",
      "cuisine": "pizza",
      "website": "https://www.trigokitchen.com/",
      "phone": "+1 (860)-786-7164",
      "outdoor_seating": "yes",
      "addr_state": "CT",
      "addr_city": "Willimantic",
      "addr_postcode": "06226",
      "addr_street": "Main Street",
      "addr_housenumber": "744",
      "value": 279.2632172233851
    },
    {
      "id": 243914,
      "geometry": "POINT (-72.244102 41.80565)",
      "poi_name": "Buckley Dining Unit",
      "osm_id": 7686014914,
      "amenity": "restaurant",
      "cuisine": "dining_hall",
      "website": "https://dining.uconn.edu/locations/",
      "phone": "+1 (860) 486-3128",
      "addr_state": "CT",
      "addr_city": "Storrs",
      "addr_postcode": "06269",
      "addr_street": "Storrs Road",
      "addr_housenumber": "1276",
      "value": 279.2632172233851
    },
    {
      "id": 244022,
      "geometry": "POINT (-72.216609 41.712846)",
      "poi_name": "Thread City Diner",
      "osm_id": 7693473779,
      "amenity": "restaurant",
      "cuisine": "cafe/diner",
      "website": "http://threadcitydiner.com/",
      "phone": "+1 (860) 456-3344",
      "outdoor_seating": "no",
      "addr_state": "CT",
      "addr_city": "Willimantic",
      "addr_postcode": "06226",
      "addr_street": "Main Street",
      "addr_housenumber": "931",
      "value": 279.2632172233851
    },
    {
      "id": 240164,
      "geometry": "POINT (-72.605045 41.928637)",
      "poi_name": "Belvedere of East Windsor",
      "osm_id": 5960633305,
      "amenity": "restaurant",
      "opening_hours": "Tu-Fr 10:00-19:00; Sa 08:00-17:00",
      "website": "https://belvederepolishdeli.com/",
      "phone": "+1-860-654-0008",
      "addr_state": "CT",
      "addr_city": "East Windsor",
      "addr_postcode": "06088",
      "addr_street": "Prospect Hill Road",
      "addr_housenumber": "122",
      "value": 279.2632172233851
    },
    {
      "id": 242879,
      "geometry": "POINT (-72.649815 41.561105)",
      "poi_name": "Shah's Halal Food",
      "osm_id": 7605803253,
      "amenity": "restaurant",
      "cuisine": "middle_eastern",
      "wheelchair": "yes",
      "opening_hours": "Sa-We 10:00-24:00; Th-Fr 10:00-03:00",
      "website": "https://shahshalalfood.com/",
      "phone": "+18603589153",
      "takeaway": "yes",
      "outdoor_seating": "yes",
      "addr_state": "CT",
      "addr_city": "Middletown",
      "addr_postcode": "06457",
      "addr_street": "Main Street",
      "addr_housenumber": "344",
      "value": 279.2632172233851
    },
    {
      "id": 244146,
      "geometry": "POINT (-72.21349 41.711995)",
      "poi_name": "Cambera Farm Bakery",
      "osm_id": 7703674060,
      "amenity": "restaurant",
      "outdoor_seating": "no",
      "addr_state": "CT",
      "addr_city": "Willimantic",
      "addr_postcode": "06226",
      "addr_street": "Main Street",
      "addr_housenumber": "776",
      "value": 279.2632172233851
    },
    {
      "id": 244299,
      "geometry": "POINT (-72.212531 41.712015)",
      "poi_name": "Taqueria Cordoba",
      "osm_id": 7712318485,
      "amenity": "restaurant",
      "cuisine": "mexican",
      "phone": "+1 (860) 786-7188",
      "outdoor_seating": "no",
      "addr_state": "CT",
      "addr_city": "Willimantic",
      "addr_postcode": "06226",
      "addr_street": "Main Street",
      "addr_housenumber": "725",
      "value": 279.2632172233851
    },
    {
      "id": 244869,
      "geometry": "POINT (-72.240626 41.725093)",
      "poi_name": "Blondie's Diner",
      "osm_id": 7746206548,
      "amenity": "restaurant",
      "cuisine": "breakfast",
      "website": "https://www.facebook.com/BlondiesDinerCT",
      "phone": "+1 (860) 423-0557",
      "outdoor_seating": "yes",
      "addr_state": "CT",
      "addr_city": "Willimantic",
      "addr_postcode": "06226",
      "addr_street": "Main Street",
      "addr_housenumber": "1681",
      "value": 279.2632172233851
    },
    {
      "id": 244921,
      "geometry": "POINT (-72.22148 41.710115)",
      "poi_name": "Pleasant Pizza",
      "osm_id": 7748178770,
      "amenity": "restaurant",
      "phone": "+1 (860) 423-5442",
      "addr_state": "CT",
      "addr_city": "Willimantic",
      "addr_postcode": "06226",
      "addr_street": "Pleasant Street",
      "addr_housenumber": "413",
      "value": 279.2632172233851
    },
    {
      "id": 245019,
      "geometry": "POINT (-72.203074 41.721646)",
      "poi_name": "Mama's Pizza",
      "osm_id": 7759749179,
      "amenity": "restaurant",
      "cuisine": "pizza",
      "website": "https://www.facebook.com/Mamas-Pizza-120006768015710",
      "phone": "+1 (860) 423-2320",
      "outdoor_seating": "no",
      "addr_state": "CT",
      "addr_city": "Willimantic",
      "addr_postcode": "06226",
      "addr_street": "Ash Street",
      "addr_housenumber": "277",
      "value": 279.2632172233851
    }
  ],
  "answer_type": "loc",
  "question_entities": {
    "[2]": {
      "distance": 140000,
      "text": "140 kilometers"
    },
    "[3]": {
      "main_category": "amenity",
      "sub_category": "university",
      "display_name": "Miley Hall, RI",
      "geo_wkt": "POINT (-71.300803 41.474893)",
      "poi": {
        "id": 168174,
        "geometry": "POINT (-71.300803 41.474893)",
        "poi_name": "Miley Hall",
        "osm_id": 366689062,
        "amenity": "university",
        "operator": "Salve Regina University",
        "addr_state": "RI"
      }
    },
    "[4]": {
      "main_category": "tourism",
      "sub_category": "museum",
      "display_name": "Zagray Farm Museum, Colchester, CT",
      "geo_wkt": "POINT (-72.341878 41.597642)",
      "poi": {
        "id": 307,
        "geometry": "POINT (-72.341878 41.597642)",
        "poi_name": "Zagray Farm Museum",
        "osm_id": 8300712909,
        "tourism": "museum",
        "website": "https://zagray-farm-museum.edan.io/",
        "phone": "+1 860 982 5158",
        "addr_state": "CT",
        "addr_city": "Colchester",
        "addr_postcode": "06415",
        "addr_street": "Amston Road",
        "addr_housenumber": "544"
      }
    },
    "[1]": {
      "main_category": "amenity",
      "sub_category": "restaurant"
    }
  },
  "id": 1254,
  "type": "range:towards+loc"
}