{
  "question": "Which fast food restaurant can I find northeast of UIS Greenhouse, Springfield, IL, within a radius of 140 kilometers?",
  "sql": "\nWITH origin AS  (SELECT ST_GeomFromText('POINT (-89.6166 39.728376)',4326)::geography AS geometry)\nSELECT * FROM pois, origin\nWHERE ST_DWithin(pois.geometry, ST_GeomFromText('POINT (-89.6166 39.728376)',4326)::geography, 140000)\nAND amenity = 'fast_food'\nAND degrees(ST_Azimuth(origin.geometry, pois.geometry)) BETWEEN 22.5 AND 67.5;\n",
  "answers": [
    {
      "id": 53822,
      "geometry": "POINT (-89.6166 39.728376)",
      "poi_name": "Jimmy John's",
      "osm_id": 10098066093,
      "amenity": "fast_food",
      "cuisine": "sandwich",
      "takeaway": "yes",
      "official_name": "Jimmy John's Gourmet Sandwiches"
    },
    {
      "id": 63416,
      "geometry": "POINT (-89.6166 39.728376)",
      "poi_name": "Arby's",
      "osm_id": 5614502402,
      "amenity": "fast_food",
      "cuisine": "sandwich",
      "opening_hours": "Su-Th 10:00-22:00; Fr-Sa 10:00-23:00",
      "website": "https://locations.arbys.com/us/il/bloomington/1601-morrissey-dr.html",
      "phone": "+1-309-808-2319",
      "takeaway": "yes",
      "drive_through": "yes",
      "addr_state": "IL",
      "addr_city": "Bloomington",
      "addr_postcode": "61704",
      "addr_street": "Morrissey Drive",
      "addr_housenumber": "1601"
    },
    {
      "id": 56581,
      "geometry": "POINT (-89.6166 39.728376)",
      "poi_name": "Arby's",
      "osm_id": 10241571110,
      "amenity": "fast_food",
      "cuisine": "sandwich",
      "takeaway": "yes"
    },
    {
      "id": 63420,
      "geometry": "POINT (-89.6166 39.728376)",
      "poi_name": "Potbelly",
      "osm_id": 5614502418,
      "amenity": "fast_food",
      "cuisine": "sandwich",
      "opening_hours": "11:00-21:00",
      "website": "https://www.potbelly.com/stores/23121",
      "phone": "+1 309 662 9299",
      "takeaway": "yes",
      "drive_through": "no",
      "official_name": "Potbelly Sandwich Works",
      "delivery": "yes",
      "addr_city": "Bloomington",
      "addr_postcode": "61704",
      "addr_street": "North Veterans Parkway",
      "addr_housenumber": "101"
    },
    {
      "id": 86493,
      "geometry": "POINT (-89.6166 39.728376)",
      "poi_name": "Sonic",
      "osm_id": 1934634522,
      "amenity": "fast_food",
      "cuisine": "burger",
      "takeaway": "yes"
    },
    {
      "id": 63587,
      "geometry": "POINT (-89.6166 39.728376)",
      "poi_name": "Subway",
      "osm_id": 5623847088,
      "amenity": "fast_food",
      "cuisine": "sandwich",
      "takeaway": "yes",
      "drive_through": "no"
    },
    {
      "id": 63588,
      "geometry": "POINT (-89.6166 39.728376)",
      "poi_name": "Dunkin'",
      "osm_id": 5623847089,
      "amenity": "fast_food",
      "cuisine": "donut;coffee_shop",
      "takeaway": "yes"
    },
    {
      "id": 101756,
      "geometry": "POINT (-89.6166 39.728376)",
      "poi_name": "Smoothie King",
      "osm_id": 6642215758,
      "amenity": "fast_food",
      "cuisine": "juice",
      "opening_hours": "Mo-Fr 07:00-21:00; Sa 08:00-21:00; Su 10:00-20:00",
      "website": "https://locations.smoothieking.com/ll/US/IL/Bloomington/2205-East-Oakland-Avenue*-Suite-3A",
      "phone": "+1-309-662-0865",
      "takeaway": "yes",
      "drive_through": "no",
      "outdoor_seating": "no",
      "addr_state": "IL",
      "addr_city": "Bloomington",
      "addr_postcode": "61701",
      "addr_street": "East Oakland Avenue",
      "addr_housenumber": "2205"
    },
    {
      "id": 101757,
      "geometry": "POINT (-89.6166 39.728376)",
      "poi_name": "Domino's",
      "osm_id": 6642215759,
      "amenity": "fast_food",
      "cuisine": "pizza",
      "opening_hours": "Mo-Fr 10:30-24:00; Sa,Su 00:00-01:00,10:30-24:00",
      "website": "https://pizza.dominos.com/illinois/bloomington/2205-e-oakland-ave/",
      "takeaway": "yes",
      "drive_through": "no",
      "outdoor_seating": "no",
      "delivery": "yes",
      "addr_state": "IL",
      "addr_city": "Bloomington",
      "addr_postcode": "61701",
      "addr_street": "East Oakland Avenue",
      "addr_housenumber": "2205"
    },
    {
      "id": 102391,
      "geometry": "POINT (-89.6166 39.728376)",
      "poi_name": "Chipotle",
      "osm_id": 6680644641,
      "amenity": "fast_food",
      "cuisine": "mexican",
      "opening_hours": "10:45-22:00",
      "website": "https://locations.chipotle.com/il/bloomington/305-n-veterans-pkwy",
      "phone": "+1 309 661 7850",
      "takeaway": "yes",
      "official_name": "Chipotle Mexican Grill",
      "outdoor_seating": "yes",
      "addr_city": "Bloomington",
      "addr_postcode": "61704",
      "addr_street": "North Veterans Parkway",
      "addr_housenumber": "305"
    },
    {
      "id": 102055,
      "geometry": "POINT (-89.6166 39.728376)",
      "poi_name": "Little Caesars",
      "osm_id": 6654352889,
      "amenity": "fast_food",
      "cuisine": "pizza",
      "opening_hours": "Mo-Su 10:30-22:00; Fr,Sa 10:30-23:00",
      "website": "https://littlecaesars.com/en-us/store/9733/",
      "takeaway": "yes",
      "addr_city": "Bloomington",
      "addr_postcode": "61701",
      "addr_street": "East Oakland Avenue",
      "addr_housenumber": "2507"
    },
    {
      "id": 102392,
      "geometry": "POINT (-89.6166 39.728376)",
      "poi_name": "Jersey Mike's Subs",
      "osm_id": 6680644643,
      "amenity": "fast_food",
      "cuisine": "sandwich",
      "takeaway": "yes",
      "addr_city": "Bloomington",
      "addr_postcode": "61704",
      "addr_street": "North Veterans Parkway",
      "addr_housenumber": "305"
    },
    {
      "id": 116827,
      "geometry": "POINT (-89.6166 39.728376)",
      "poi_name": "Subway",
      "osm_id": 8963780887,
      "amenity": "fast_food",
      "cuisine": "sandwich",
      "opening_hours": "Mo-Th 08:30-20:30, Fr-Sa 08:30-21:00, Su 09:00-20:00",
      "website": "https://restaurants.subway.com/united-states/il/mahomet/703-eastwood-center-dr",
      "phone": "+1-217-586-2728",
      "takeaway": "yes",
      "drive_through": "no",
      "addr_state": "IL",
      "addr_city": "Mahomet",
      "addr_postcode": "61853",
      "addr_street": "Eastwood Drive",
      "addr_housenumber": "703"
    },
    {
      "id": 102674,
      "geometry": "POINT (-89.6166 39.728376)",
      "poi_name": "Wendy's",
      "osm_id": 6689951405,
      "amenity": "fast_food",
      "cuisine": "burger",
      "takeaway": "yes",
      "drive_through": "yes"
    },
    {
      "id": 102297,
      "geometry": "POINT (-89.6166 39.728376)",
      "poi_name": "Potbelly",
      "osm_id": 6672966472,
      "amenity": "fast_food",
      "cuisine": "sandwich",
      "takeaway": "yes",
      "official_name": "Potbelly Sandwich Works"
    },
    {
      "id": 144237,
      "geometry": "POINT (-89.6166 39.728376)",
      "poi_name": "Subway",
      "osm_id": 7252124093,
      "amenity": "fast_food",
      "cuisine": "sandwich",
      "opening_hours": "Mo-Su 09:00-22:00",
      "website": "https://restaurants.subway.com/united-states/il/riverton/1304-n-7th-st",
      "phone": "+1-217-629-7861",
      "takeaway": "yes",
      "drive_through": "yes",
      "addr_state": "IL",
      "addr_city": "Riverton",
      "addr_postcode": "62561",
      "addr_street": "North 7th Street",
      "addr_housenumber": "1304"
    },
    {
      "id": 120506,
      "geometry": "POINT (-89.6166 39.728376)",
      "poi_name": "Subway",
      "osm_id": 6708914260,
      "amenity": "fast_food",
      "cuisine": "sandwich",
      "opening_hours": "Mo-Fr 07:00-21:00; Sa 08:00-21:00; Su 09:00-21:00",
      "website": "https://www.subway.com/",
      "phone": "+1-309-662-4239",
      "takeaway": "yes",
      "drive_through": "yes",
      "outdoor_seating": "no",
      "addr_state": "IL",
      "addr_city": "Bloomington",
      "addr_postcode": "61704",
      "addr_street": "Glasson Street",
      "addr_housenumber": "1602"
    },
    {
      "id": 122054,
      "geometry": "POINT (-89.6166 39.728376)",
      "poi_name": "Domino's",
      "osm_id": 6786514409,
      "amenity": "fast_food",
      "cuisine": "pizza",
      "takeaway": "yes"
    },
    {
      "id": 141059,
      "geometry": "POINT (-89.6166 39.728376)",
      "poi_name": "Subway",
      "osm_id": 6270566486,
      "amenity": "fast_food",
      "cuisine": "sandwich",
      "takeaway": "yes"
    },
    {
      "id": 118844,
      "geometry": "POINT (-89.6166 39.728376)",
      "poi_name": "Marco's Pizza",
      "osm_id": 9067497339,
      "amenity": "fast_food",
      "cuisine": "pizza",
      "takeaway": "yes"
    },
    {
      "id": 129581,
      "geometry": "POINT (-89.6166 39.728376)",
      "poi_name": "Five Guys",
      "osm_id": 9831084839,
      "amenity": "fast_food",
      "cuisine": "burger",
      "takeaway": "yes",
      "official_name": "Five Guys Burgers and Fries"
    },
    {
      "id": 135755,
      "geometry": "POINT (-89.6166 39.728376)",
      "poi_name": "Tropical Smoothie Cafe",
      "osm_id": 11534879494,
      "amenity": "fast_food",
      "cuisine": "juice",
      "takeaway": "yes",
      "addr_state": "IL",
      "addr_city": "Normal",
      "addr_street": "Veterans Parkway",
      "addr_housenumber": "312"
    },
    {
      "id": 157981,
      "geometry": "POINT (-89.6166 39.728376)",
      "poi_name": "Papa Murphy's",
      "osm_id": 4731045175,
      "amenity": "fast_food",
      "cuisine": "pizza",
      "takeaway": "only",
      "official_name": "Papa Murphy's Take 'N' Bake Pizza",
      "addr_state": "IL",
      "addr_city": "Bloomington",
      "addr_postcode": "61704"
    },
    {
      "id": 153155,
      "geometry": "POINT (-89.6166 39.728376)",
      "poi_name": "China Wok",
      "osm_id": 4180800922,
      "amenity": "fast_food",
      "cuisine": "chinese",
      "takeaway": "yes"
    },
    {
      "id": 157982,
      "geometry": "POINT (-89.6166 39.728376)",
      "poi_name": "Chipotle",
      "osm_id": 4731045182,
      "amenity": "fast_food",
      "cuisine": "mexican",
      "takeaway": "yes",
      "official_name": "Chipotle Mexican Grill",
      "addr_state": "IL",
      "addr_city": "Bloomington",
      "addr_postcode": "61704"
    },
    {
      "id": 197301,
      "geometry": "POINT (-89.6166 39.728376)",
      "poi_name": "Panda Express",
      "osm_id": 10628320129,
      "amenity": "fast_food",
      "cuisine": "chinese",
      "takeaway": "yes"
    },
    {
      "id": 163808,
      "geometry": "POINT (-89.6166 39.728376)",
      "poi_name": "DQ Grill & Chill",
      "osm_id": 9437745024,
      "amenity": "fast_food",
      "cuisine": "ice_cream;burger",
      "takeaway": "yes"
    },
    {
      "id": 163824,
      "geometry": "POINT (-89.6166 39.728376)",
      "poi_name": "Hardee's",
      "osm_id": 9438159546,
      "amenity": "fast_food",
      "cuisine": "burger",
      "website": "https://locations.hardees.com/il/clinton/307-s-grant-st",
      "takeaway": "yes"
    },
    {
      "id": 196879,
      "geometry": "POINT (-89.6166 39.728376)",
      "poi_name": "McDonald's",
      "osm_id": 10600548061,
      "amenity": "fast_food",
      "cuisine": "burger",
      "website": "https://www.mcdonalds.com/us/en-us/location/il/chenoa/504-hoselton-dr/17694.html",
      "phone": "+1-815-945-2222",
      "takeaway": "yes",
      "drive_through": "yes",
      "addr_state": "IL",
      "addr_city": "Chenoa",
      "addr_postcode": "61726",
      "addr_street": "Hoselton Drive",
      "addr_housenumber": "504"
    },
    {
      "id": 197020,
      "geometry": "POINT (-89.6166 39.728376)",
      "poi_name": "Dairy Queen",
      "osm_id": 10608763473,
      "amenity": "fast_food",
      "cuisine": "ice_cream;burger",
      "website": "https://www.dairyqueen.com/en-us/locations/il/gibson-city/244-w-1st-st/4892/",
      "takeaway": "yes",
      "drive_through": "yes",
      "addr_state": "IL",
      "addr_city": "Gibson City",
      "addr_postcode": "60936",
      "addr_street": "West 1st Street",
      "addr_housenumber": "244"
    },
    {
      "id": 169338,
      "geometry": "POINT (-89.6166 39.728376)",
      "poi_name": "Little Caesars",
      "osm_id": 2297217413,
      "amenity": "fast_food",
      "cuisine": "pizza",
      "takeaway": "yes"
    },
    {
      "id": 174458,
      "geometry": "POINT (-89.6166 39.728376)",
      "poi_name": "Subway",
      "osm_id": 2482969596,
      "amenity": "fast_food",
      "cuisine": "sandwich",
      "takeaway": "yes"
    },
    {
      "id": 183469,
      "geometry": "POINT (-89.6166 39.728376)",
      "poi_name": "Domino's",
      "osm_id": 10931883545,
      "amenity": "fast_food",
      "cuisine": "pizza",
      "takeaway": "yes",
      "drive_through": "no",
      "addr_state": "IL",
      "addr_city": "Lincoln",
      "addr_postcode": "62656",
      "addr_street": "Keokuk Street",
      "addr_housenumber": "410"
    },
    {
      "id": 183470,
      "geometry": "POINT (-89.6166 39.728376)",
      "poi_name": "Subway",
      "osm_id": 10931883546,
      "amenity": "fast_food",
      "cuisine": "sandwich",
      "takeaway": "yes",
      "drive_through": "no",
      "addr_state": "IL",
      "addr_city": "Lincoln",
      "addr_postcode": "62656",
      "addr_street": "Keokuk Street",
      "addr_housenumber": "405"
    },
    {
      "id": 183471,
      "geometry": "POINT (-89.6166 39.728376)",
      "poi_name": "Hardee's",
      "osm_id": 10931883551,
      "amenity": "fast_food",
      "cuisine": "burger",
      "website": "https://locations.hardees.com/il/lincoln/539-woodlawn-rd",
      "takeaway": "yes",
      "drive_through": "yes"
    },
    {
      "id": 183472,
      "geometry": "POINT (-89.6166 39.728376)",
      "poi_name": "Dairy Queen",
      "osm_id": 10931883552,
      "amenity": "fast_food",
      "cuisine": "ice_cream;burger",
      "takeaway": "yes"
    },
    {
      "id": 183731,
      "geometry": "POINT (-89.6166 39.728376)",
      "poi_name": "Bojangles'",
      "osm_id": 10942990453,
      "amenity": "fast_food",
      "cuisine": "chicken",
      "takeaway": "yes",
      "official_name": "Bojangles' Famous Chicken 'n Biscuits"
    },
    {
      "id": 197790,
      "geometry": "POINT (-89.6166 39.728376)",
      "poi_name": "Chipotle",
      "osm_id": 10675089281,
      "amenity": "fast_food",
      "cuisine": "mexican",
      "takeaway": "yes",
      "official_name": "Chipotle Mexican Grill"
    },
    {
      "id": 197793,
      "geometry": "POINT (-89.6166 39.728376)",
      "poi_name": "Papa John's",
      "osm_id": 10675264327,
      "amenity": "fast_food",
      "cuisine": "pizza",
      "takeaway": "yes"
    },
    {
      "id": 197795,
      "geometry": "POINT (-89.6166 39.728376)",
      "poi_name": "Jersey Mike's Subs",
      "osm_id": 10675339104,
      "amenity": "fast_food",
      "cuisine": "sandwich",
      "takeaway": "yes"
    },
    {
      "id": 227594,
      "geometry": "POINT (-89.6166 39.728376)",
      "poi_name": "McDonald's",
      "osm_id": 4313080925,
      "amenity": "fast_food",
      "cuisine": "burger",
      "website": "https://www.mcdonalds.com/us/en-us/location/il/normal/1607-n-main-street/26619.html",
      "takeaway": "yes",
      "drive_through": "yes"
    },
    {
      "id": 198278,
      "geometry": "POINT (-89.6166 39.728376)",
      "poi_name": "Domino's",
      "osm_id": 10696007752,
      "amenity": "fast_food",
      "cuisine": "pizza",
      "takeaway": "yes"
    },
    {
      "id": 202405,
      "geometry": "POINT (-89.6166 39.728376)",
      "poi_name": "Subway",
      "osm_id": 7023162353,
      "amenity": "fast_food",
      "cuisine": "sandwich",
      "takeaway": "yes"
    },
    {
      "id": 202406,
      "geometry": "POINT (-89.6166 39.728376)",
      "poi_name": "Hardee's",
      "osm_id": 7023162354,
      "amenity": "fast_food",
      "cuisine": "burger",
      "takeaway": "yes",
      "drive_through": "yes"
    },
    {
      "id": 202407,
      "geometry": "POINT (-89.6166 39.728376)",
      "poi_name": "McDonald's",
      "osm_id": 7023162355,
      "amenity": "fast_food",
      "cuisine": "burger",
      "website": "https://www.mcdonalds.com/us/en-us/location/il/el-paso/664-w-main-street/15655.html",
      "takeaway": "yes",
      "drive_through": "yes"
    },
    {
      "id": 206462,
      "geometry": "POINT (-89.6166 39.728376)",
      "poi_name": "Einstein Bros. Bagels",
      "osm_id": 7211960864,
      "amenity": "fast_food",
      "cuisine": "bagel",
      "takeaway": "yes"
    },
    {
      "id": 224624,
      "geometry": "POINT (-89.6166 39.728376)",
      "poi_name": "Nom Nom Noodle",
      "osm_id": 11090618862,
      "amenity": "fast_food",
      "cuisine": "ramen",
      "opening_hours": "Tu-Sa 11:00-16:00",
      "addr_state": "IL",
      "addr_city": "Bloomington",
      "addr_street": "East Lincoln Street",
      "addr_housenumber": "1006"
    },
    {
      "id": 244664,
      "geometry": "POINT (-89.6166 39.728376)",
      "poi_name": "Domino's",
      "osm_id": 7734445235,
      "amenity": "fast_food",
      "cuisine": "pizza",
      "takeaway": "yes"
    },
    {
      "id": 229254,
      "geometry": "POINT (-89.6166 39.728376)",
      "poi_name": "Subway",
      "osm_id": 4374563395,
      "amenity": "fast_food",
      "cuisine": "sandwich",
      "takeaway": "yes",
      "drive_through": "no"
    },
    {
      "id": 232567,
      "geometry": "POINT (-89.6166 39.728376)",
      "poi_name": "Subway",
      "osm_id": 4531649139,
      "amenity": "fast_food",
      "cuisine": "sandwich",
      "takeaway": "yes"
    }
  ],
  "answer_type": "name",
  "question_entities": {
    "[1]": {
      "main_category": "amenity",
      "sub_category": "fast food restaurant"
    },
    "[2]": {
      "distance": 140000,
      "text": "140 kilometers"
    },
    "[3]": {
      "main_category": "leisure",
      "sub_category": "garden",
      "display_name": "UIS Greenhouse, Springfield, IL",
      "geo_wkt": "POINT (-89.6166 39.728376)",
      "poi": {
        "id": 245618,
        "geometry": "POINT (-89.6166 39.728376)",
        "poi_name": "UIS Greenhouse",
        "osm_id": 3214252196,
        "leisure": "garden",
        "wheelchair": "yes",
        "website": "https://www.uis.edu/biology/",
        "phone": "+1-217-206-6630",
        "addr_state": "IL",
        "addr_city": "Springfield",
        "addr_postcode": "62703",
        "addr_street": "University Plaza",
        "addr_housenumber": "1"
      }
    },
    "[4]": {
      "direction_desc": "northeast",
      "direction_predicate": "degrees(ST_Azimuth(origin.geometry, pois.geometry)) BETWEEN 22.5 AND 67.5"
    }
  },
  "id": 2633,
  "type": "range:direction+name"
}