{
  "question": "Seeking an emergency hospital, ideally within 140 kilometers of Children's Museum of the Upstate - Spartanburg, Spartanburg, SC. Can you find one for me?",
  "sql": "SELECT * FROM pois\nWHERE ST_DWithin(pois.geometry, ST_GeomFromText('POINT (-81.933697 34.95007)',4326)::geography, 140000)\nAND amenity = 'hospital'\nAND emergency ILIKE '%yes%';\n",
  "answers": [
    {
      "id": 64374,
      "geometry": "POINT (-80.824345 35.212772)",
      "poi_name": "Hemby Children's Hospital",
      "osm_id": 5650582468,
      "amenity": "hospital",
      "opening_hours": "24/7",
      "operator": "Novant Health",
      "website": "https://www.novanthealth.org/hemby-childrens-hospital.aspx",
      "phone": "+1 704 384 4021",
      "healthcare": "hospital",
      "emergency": "yes",
      "addr_state": "NC",
      "addr_city": "Charlotte",
      "addr_postcode": "28204",
      "addr_street": "Hawthorne Lane",
      "addr_housenumber": "200"
    },
    {
      "id": 171108,
      "geometry": "POINT (-82.628856 34.545478)",
      "poi_name": "AnMed Health Medical Center",
      "osm_id": 2360895792,
      "amenity": "hospital",
      "website": "http://www.anmedhealth.org",
      "healthcare": "hospital",
      "emergency": "yes",
      "wikidata": "Q4749693"
    },
    {
      "id": 167556,
      "geometry": "POINT (-81.965661 35.362621)",
      "poi_name": "Rutherford Regional Health System",
      "osm_id": 357810213,
      "amenity": "hospital",
      "website": "https://www.myrutherfordregional.com/",
      "phone": "+1 828 286 5000",
      "emergency": "yes",
      "addr_city": "Rutherfordton",
      "addr_postcode": "28139",
      "addr_street": "South Ridgecrest Street",
      "addr_housenumber": "288"
    },
    {
      "id": 167681,
      "geometry": "POINT (-83.348036 34.592997)",
      "poi_name": "Stephens County Hospital",
      "osm_id": 358760090,
      "amenity": "hospital",
      "opening_hours": "24/7",
      "website": "https://stephenscountyhospital.com/",
      "phone": "+1 (706) 282-4200",
      "emergency": "yes",
      "addr_state": "GA",
      "addr_city": "Toccoa",
      "addr_postcode": "30577",
      "addr_street": "Hospital Drive",
      "addr_housenumber": "163"
    },
    {
      "id": 190046,
      "geometry": "POINT (-82.942738 35.525231)",
      "poi_name": "Haywood Regional Medical Center",
      "osm_id": 1264230416,
      "amenity": "hospital",
      "opening_hours": "24/7",
      "operator": "Duke Lifepoint",
      "website": "https://www.myhaywoodregional.com/",
      "phone": "+1 828 456 7311",
      "emergency": "yes",
      "addr_city": "Clyde",
      "addr_postcode": "28721",
      "addr_street": "Leroy George Drive",
      "addr_housenumber": "262"
    }
  ],
  "answer_type": "name",
  "question_entities": {
    "[1]": {
      "main_category": "amenity",
      "sub_category": "hospital",
      "poi_filter_desc": "emergency hospital",
      "poi_filter_sql": "emergency ILIKE '%yes%'"
    },
    "[2]": {
      "distance": 140000,
      "text": "140 kilometers"
    },
    "[3]": {
      "main_category": "tourism",
      "sub_category": "museum",
      "display_name": "Children's Museum of the Upstate - Spartanburg, Spartanburg, SC",
      "geo_wkt": "POINT (-81.933697 34.95007)",
      "poi": {
        "id": 3928,
        "geometry": "POINT (-81.933697 34.95007)",
        "poi_name": "Children's Museum of the Upstate - Spartanburg",
        "osm_id": 5635166671,
        "tourism": "museum",
        "website": "https://tcmupstate.org/spartanburg/",
        "addr_state": "SC",
        "addr_city": "Spartanburg",
        "addr_postcode": "29306",
        "addr_street": "Magnolia Street",
        "addr_housenumber": "130"
      }
    }
  },
  "id": 548,
  "type": "range:non_spat_filter+name"
}