{
  "question": "What caf\u00e9 can I find as I head towards House of Air, San Francisco, CA within 20 kilometers from Veterans Plaza, Milpitas, CA?",
  "sql": "WITH\n    angle AS (SELECT degrees(ST_Azimuth(ST_GeomFromText('POINT (-121.898718 37.433082)',4326)::geography, ST_GeomFromText('POINT (-122.468617 37.804932)',4326)::geography)) AS value)\nSELECT * FROM pois,angle\nWHERE amenity = 'cafe'\nAND ST_DWithin(pois.geometry, ST_GeomFromText('POINT (-121.898718 37.433082)',4326)::geography, 20000)\nAND (degrees(ST_Azimuth(ST_GeomFromText('POINT (-121.898718 37.433082)',4326)::geography, pois.geometry)) BETWEEN angle.value - 22.5 AND angle.value + 22.5);\n",
  "answers": [
    {
      "id": 29532,
      "geometry": "POINT (-121.980306 37.553551)",
      "poi_name": "Philz Coffee",
      "osm_id": 8308094821,
      "amenity": "cafe",
      "cuisine": "coffee_shop",
      "internet_access": "yes",
      "takeaway": "yes",
      "outdoor_seating": "yes",
      "delivery": "yes",
      "value": 309.5351493193903
    },
    {
      "id": 54589,
      "geometry": "POINT (-121.971207 37.504989)",
      "poi_name": "iTea",
      "osm_id": 10141649481,
      "amenity": "cafe",
      "cuisine": "bubble_tea",
      "wheelchair": "yes",
      "opening_hours": "Mo-Su 11:30-22:00",
      "internet_access": "wlan",
      "addr_city": "Fremont",
      "addr_postcode": "94538",
      "addr_street": "Christy Street",
      "addr_housenumber": "43421",
      "value": 309.5351493193903
    },
    {
      "id": 41055,
      "geometry": "POINT (-121.976312 37.504352)",
      "poi_name": "Pure Yum",
      "osm_id": 2993278980,
      "amenity": "cafe",
      "addr_city": "Fremont",
      "addr_postcode": "94538",
      "addr_street": "Auto Mall Parkway",
      "addr_housenumber": "5625",
      "value": 309.5351493193903
    },
    {
      "id": 45084,
      "geometry": "POINT (-121.989493 37.545598)",
      "poi_name": "Starbucks",
      "osm_id": 3189720988,
      "amenity": "cafe",
      "cuisine": "coffee_shop",
      "takeaway": "yes",
      "official_name": "Starbucks Coffee",
      "value": 309.5351493193903
    },
    {
      "id": 49549,
      "geometry": "POINT (-122.000727 37.536108)",
      "poi_name": "Vienna Bakery and Cafe",
      "osm_id": 3441945893,
      "amenity": "cafe",
      "addr_state": "CA",
      "addr_city": "Fremont",
      "addr_street": "Mowry Avenue",
      "value": 309.5351493193903
    },
    {
      "id": 52045,
      "geometry": "POINT (-122.023701 37.582568)",
      "poi_name": "Baldie's Cafe",
      "osm_id": 567797554,
      "amenity": "cafe",
      "cuisine": "diner",
      "addr_state": "CA",
      "addr_city": "Union City",
      "addr_postcode": "94587",
      "addr_street": "Decoto Road",
      "addr_housenumber": "2649",
      "value": 309.5351493193903
    },
    {
      "id": 46094,
      "geometry": "POINT (-121.999133 37.536414)",
      "poi_name": "Paradise Biryani Pointe",
      "osm_id": 3245685019,
      "amenity": "cafe",
      "cuisine": "indian",
      "takeaway": "yes",
      "addr_state": "CA",
      "addr_city": "Fremont",
      "addr_street": "Mowry Avenue",
      "value": 309.5351493193903
    },
    {
      "id": 52148,
      "geometry": "POINT (-121.998263 37.534896)",
      "poi_name": "Starbucks",
      "osm_id": 571837074,
      "amenity": "cafe",
      "cuisine": "coffee_shop",
      "takeaway": "yes",
      "addr_state": "CA",
      "addr_city": "Fremont",
      "addr_street": "Mowry Avenue",
      "addr_housenumber": "5034",
      "value": 309.5351493193903
    },
    {
      "id": 65448,
      "geometry": "POINT (-121.973991 37.500297)",
      "poi_name": "Super Cue Cafe",
      "osm_id": 5696083710,
      "amenity": "cafe",
      "value": 309.5351493193903
    },
    {
      "id": 54773,
      "geometry": "POINT (-121.987637 37.519659)",
      "poi_name": "Mr. Sun",
      "osm_id": 10155602294,
      "amenity": "cafe",
      "cuisine": "bubble_tea",
      "value": 309.5351493193903
    },
    {
      "id": 65195,
      "geometry": "POINT (-121.989985 37.518395)",
      "poi_name": "Tea Moment",
      "osm_id": 5689647377,
      "amenity": "cafe",
      "cuisine": "bubble_tea",
      "wheelchair": "yes",
      "internet_access": "wlan",
      "addr_street": "Stevenson Boulevard",
      "addr_housenumber": "6088",
      "value": 309.5351493193903
    },
    {
      "id": 65199,
      "geometry": "POINT (-121.996487 37.521455)",
      "poi_name": "Gong Cha",
      "osm_id": 5690166034,
      "amenity": "cafe",
      "cuisine": "bubble_tea",
      "internet_access": "yes",
      "takeaway": "yes",
      "value": 309.5351493193903
    },
    {
      "id": 90553,
      "geometry": "POINT (-121.987083 37.548822)",
      "poi_name": "Starbucks",
      "osm_id": 2001881579,
      "amenity": "cafe",
      "cuisine": "coffee_shop",
      "takeaway": "yes",
      "official_name": "Starbucks Coffee",
      "value": 309.5351493193903
    },
    {
      "id": 65381,
      "geometry": "POINT (-122.003938 37.522477)",
      "poi_name": "Tea Top",
      "osm_id": 5695219924,
      "amenity": "cafe",
      "value": 309.5351493193903
    },
    {
      "id": 65382,
      "geometry": "POINT (-122.051005 37.550844)",
      "poi_name": "I-Tea",
      "osm_id": 5695221990,
      "amenity": "cafe",
      "value": 309.5351493193903
    },
    {
      "id": 65384,
      "geometry": "POINT (-122.05028 37.551534)",
      "poi_name": "MandRo Teahouse",
      "osm_id": 5695225161,
      "amenity": "cafe",
      "value": 309.5351493193903
    },
    {
      "id": 65386,
      "geometry": "POINT (-121.990272 37.519036)",
      "poi_name": "Taro Taro Tea House",
      "osm_id": 5695227516,
      "amenity": "cafe",
      "value": 309.5351493193903
    },
    {
      "id": 65522,
      "geometry": "POINT (-121.993929 37.551092)",
      "poi_name": "Royal Tea",
      "osm_id": 5700078389,
      "amenity": "cafe",
      "value": 309.5351493193903
    },
    {
      "id": 81643,
      "geometry": "POINT (-122.047353 37.54779)",
      "poi_name": "Tapioca Express",
      "osm_id": 1654048257,
      "amenity": "cafe",
      "value": 309.5351493193903
    },
    {
      "id": 94532,
      "geometry": "POINT (-122.048627 37.550588)",
      "poi_name": "Starbucks",
      "osm_id": 2251342362,
      "amenity": "cafe",
      "cuisine": "coffee_shop",
      "takeaway": "yes",
      "official_name": "Starbucks Coffee",
      "value": 309.5351493193903
    },
    {
      "id": 139213,
      "geometry": "POINT (-122.006837 37.558442)",
      "poi_name": "Slapface Coffee & Tea",
      "osm_id": 6187154318,
      "amenity": "cafe",
      "cuisine": "coffee_shop",
      "internet_access": "wlan",
      "takeaway": "yes",
      "outdoor_seating": "yes",
      "addr_state": "CA",
      "addr_city": "Fremont",
      "addr_postcode": "94536",
      "addr_street": "Fremont Boulevard",
      "addr_housenumber": "37324",
      "value": 309.5351493193903
    },
    {
      "id": 109836,
      "geometry": "POINT (-121.981118 37.553972)",
      "poi_name": "PJ's Bagels",
      "osm_id": 3676760024,
      "amenity": "cafe",
      "cuisine": "bagel",
      "opening_hours": "Mo-Fr 05:30-15:00; Sa 06:30-16:00; Su 06:30-14:30",
      "internet_access": "wlan",
      "addr_city": "Fremont",
      "addr_postcode": "94538",
      "addr_street": "Paseo Padre Parkway",
      "addr_housenumber": "38990B",
      "value": 309.5351493193903
    },
    {
      "id": 116284,
      "geometry": "POINT (-122.047434 37.548105)",
      "poi_name": "85\u00b0C",
      "osm_id": 8934474375,
      "amenity": "cafe",
      "cuisine": "coffee_shop;chinese",
      "website": "https://www.85cbakerycafe.com/",
      "phone": "+1-510-796-8585",
      "takeaway": "yes",
      "addr_state": "CA",
      "addr_city": "Newark",
      "addr_postcode": "94560",
      "addr_street": "Newark Boulevard",
      "addr_housenumber": "35201",
      "value": 309.5351493193903
    },
    {
      "id": 107673,
      "geometry": "POINT (-121.986798 37.546378)",
      "poi_name": "The Posh Bagel",
      "osm_id": 3573799293,
      "amenity": "cafe",
      "cuisine": "sandwich",
      "opening_hours": "Mo-Fr 06:00-17:00; Sa-Su 07:00-18:00",
      "internet_access": "wlan",
      "addr_state": "CA",
      "addr_city": "Fremont",
      "addr_housenumber": "39124",
      "value": 309.5351493193903
    },
    {
      "id": 108481,
      "geometry": "POINT (-121.986819 37.543808)",
      "poi_name": "Tata Teahouse",
      "osm_id": 3621209396,
      "amenity": "cafe",
      "addr_state": "CA",
      "addr_city": "Fremont",
      "addr_street": "Argonaut Way",
      "addr_housenumber": "39230",
      "value": 309.5351493193903
    },
    {
      "id": 138189,
      "geometry": "POINT (-122.009997 37.559872)",
      "poi_name": "Bun App\u00e9tit",
      "osm_id": 6135806888,
      "amenity": "cafe",
      "value": 309.5351493193903
    },
    {
      "id": 172981,
      "geometry": "POINT (-121.976143 37.50414)",
      "poi_name": "Starbucks",
      "osm_id": 2420473006,
      "amenity": "cafe",
      "cuisine": "coffee_shop",
      "takeaway": "yes",
      "official_name": "Starbucks Coffee",
      "value": 309.5351493193903
    },
    {
      "id": 193480,
      "geometry": "POINT (-121.987038 37.548747)",
      "poi_name": "Chaat Cafe",
      "osm_id": 1540268475,
      "amenity": "cafe",
      "value": 309.5351493193903
    },
    {
      "id": 179445,
      "geometry": "POINT (-121.989834 37.519252)",
      "poi_name": "Ume",
      "osm_id": 10763172562,
      "amenity": "cafe",
      "cuisine": "bubble_tea",
      "wheelchair": "yes",
      "website": "https://umeteaca.com/",
      "outdoor_seating": "no",
      "addr_street": "Stevenson Boulevard",
      "addr_housenumber": "6018",
      "value": 309.5351493193903
    },
    {
      "id": 187717,
      "geometry": "POINT (-122.018205 37.552895)",
      "poi_name": "Cabrillo Park Cafe",
      "osm_id": 1099115259,
      "amenity": "cafe",
      "value": 309.5351493193903
    },
    {
      "id": 187732,
      "geometry": "POINT (-121.998374 37.523021)",
      "poi_name": "Starbucks",
      "osm_id": 1100361575,
      "amenity": "cafe",
      "cuisine": "coffee_shop",
      "addr_postcode": "94560",
      "addr_street": "Stevenson Boulevard",
      "addr_housenumber": "5741",
      "value": 309.5351493193903
    },
    {
      "id": 187516,
      "geometry": "POINT (-122.025284 37.567851)",
      "poi_name": "Starbucks",
      "osm_id": 1076069577,
      "amenity": "cafe",
      "cuisine": "coffee_shop",
      "takeaway": "yes",
      "official_name": "Starbucks Coffee",
      "value": 309.5351493193903
    },
    {
      "id": 193288,
      "geometry": "POINT (-122.002255 37.532448)",
      "poi_name": "Starbucks",
      "osm_id": 1518002924,
      "amenity": "cafe",
      "cuisine": "coffee_shop",
      "takeaway": "yes",
      "official_name": "Starbucks Coffee",
      "addr_state": "CA",
      "addr_city": "Fremont",
      "value": 309.5351493193903
    },
    {
      "id": 197276,
      "geometry": "POINT (-121.96797 37.502176)",
      "poi_name": "Starbucks",
      "osm_id": 10627480474,
      "amenity": "cafe",
      "cuisine": "coffee_shop",
      "description": "inside target store",
      "wheelchair": "yes",
      "opening_hours": "Mo-Su 08:00-20:00",
      "takeaway": "yes",
      "official_name": "Starbucks Coffee",
      "toilets": "yes",
      "addr_state": "CA",
      "addr_city": "Fremont",
      "addr_postcode": "94538",
      "addr_street": "Pacific Commons Boulevard",
      "addr_housenumber": "43950",
      "value": 309.5351493193903
    },
    {
      "id": 201329,
      "geometry": "POINT (-121.981779 37.554271)",
      "poi_name": "Peet's Coffee",
      "osm_id": 623822030,
      "amenity": "cafe",
      "cuisine": "coffee_shop;coffee;cake",
      "opening_hours": "Mo-Sa 05:30-21:00; Su 06:30-20:00",
      "takeaway": "yes",
      "addr_street": "Mowry Avenue",
      "addr_housenumber": "2780",
      "value": 309.5351493193903
    },
    {
      "id": 200104,
      "geometry": "POINT (-122.009057 37.562591)",
      "poi_name": "Suju's Coffee & Tea",
      "osm_id": 1014211062,
      "amenity": "cafe",
      "cuisine": "coffee_shop",
      "opening_hours": "Mo-Fr 06:00-24:00, Sa,Su 06:30-24:00",
      "internet_access": "wlan",
      "outdoor_seating": "yes",
      "addr_state": "CA",
      "addr_city": "Fremont",
      "addr_postcode": "94536",
      "addr_street": "Thornton Avenue",
      "addr_housenumber": "3602",
      "value": 309.5351493193903
    },
    {
      "id": 218789,
      "geometry": "POINT (-121.981808 37.554278)",
      "poi_name": "Peets",
      "osm_id": 9294995307,
      "amenity": "cafe",
      "cuisine": "coffee;coffee_shop;pastry;tea",
      "value": 309.5351493193903
    },
    {
      "id": 221295,
      "geometry": "POINT (-122.048967 37.548575)",
      "poi_name": "Feng Cha Teahouse",
      "osm_id": 10970200665,
      "amenity": "cafe",
      "cuisine": "bubble_tea",
      "website": "https://www.fengchabayarea.com/",
      "phone": "+1-510-992-2663",
      "addr_state": "CA",
      "addr_city": "Newark",
      "addr_postcode": "94560",
      "addr_street": "Jarvis Avenue",
      "addr_housenumber": "6180",
      "value": 309.5351493193903
    },
    {
      "id": 223235,
      "geometry": "POINT (-121.97349 37.499996)",
      "poi_name": "Tea Daily",
      "osm_id": 11048899291,
      "amenity": "cafe",
      "cuisine": "bubble_tea",
      "addr_state": "CA",
      "addr_city": "Fremont",
      "addr_street": "Boscell Road",
      "addr_housenumber": "43773",
      "value": 309.5351493193903
    },
    {
      "id": 234932,
      "geometry": "POINT (-122.044965 37.548877)",
      "poi_name": "Who's Tea",
      "osm_id": 5740852019,
      "amenity": "cafe",
      "value": 309.5351493193903
    }
  ],
  "answer_type": "name",
  "question_entities": {
    "[2]": {
      "distance": 20000,
      "text": "20 kilometers"
    },
    "[3]": {
      "main_category": "leisure",
      "sub_category": "park",
      "display_name": "Veterans Plaza, Milpitas, CA",
      "geo_wkt": "POINT (-121.898718 37.433082)",
      "poi": {
        "id": 246969,
        "geometry": "POINT (-121.898718 37.433082)",
        "poi_name": "Veterans Plaza",
        "osm_id": 6682046177,
        "leisure": "park",
        "addr_state": "CA",
        "addr_city": "Milpitas",
        "addr_postcode": "95035",
        "addr_street": "East Calaveras Boulevard",
        "addr_housenumber": "457"
      }
    },
    "[4]": {
      "main_category": "tourism",
      "sub_category": "theme park",
      "display_name": "House of Air, San Francisco, CA",
      "geo_wkt": "POINT (-122.468617 37.804932)",
      "poi": {
        "id": 14569,
        "geometry": "POINT (-122.468617 37.804932)",
        "poi_name": "House of Air",
        "osm_id": 4659836677,
        "tourism": "theme_park",
        "opening_hours": "Su-Mo 10:00-20:00; Tu-Th 14:00-21:00; Fr-Sa 10:00-22:00",
        "website": "https://www.houseofair.com/",
        "phone": "+1 (415) 345-9675",
        "wikidata": "Q5914641",
        "addr_state": "CA",
        "addr_city": "San Francisco",
        "addr_postcode": "94129",
        "addr_street": "Mason Street",
        "addr_housenumber": "926"
      }
    },
    "[1]": {
      "main_category": "amenity",
      "sub_category": "cafe"
    }
  },
  "id": 1636,
  "type": "range:towards+name"
}