{
  "question": "Is there a chance you could find me a carryout restaurant, preferably within 150 kilometers from Nu Arts, Pittsfield, MA?",
  "sql": "SELECT * FROM pois\nWHERE ST_DWithin(pois.geometry, ST_GeomFromText('POINT (-73.252874 42.453084)',4326)::geography, 150000)\nAND amenity = 'restaurant'\nAND takeaway ILIKE '%yes%';\n",
  "answers": [
    {
      "id": 30355,
      "geometry": "POINT (-73.691236 42.726046)",
      "poi_name": "Lucky Corner",
      "osm_id": 8353948164,
      "amenity": "restaurant",
      "cuisine": "chinese",
      "opening_hours": "Mo,We-Sa 11:00-22:00; Su 11:30-21:30",
      "takeaway": "yes",
      "addr_state": "NY",
      "addr_city": "Troy",
      "addr_postcode": "12180",
      "addr_street": "3rd Street",
      "addr_housenumber": "162"
    },
    {
      "id": 30679,
      "geometry": "POINT (-72.739574 41.760002)",
      "poi_name": "Kaliubon Ramen",
      "osm_id": 8374103653,
      "amenity": "restaurant",
      "cuisine": "noodle",
      "website": "http://www.kaliubon.com/west-hartford/",
      "phone": "+1-860-906-1678",
      "takeaway": "yes",
      "delivery": "yes",
      "addr_state": "CT",
      "addr_city": "West Hartford",
      "addr_postcode": "06107",
      "addr_street": "Memorial Road",
      "addr_housenumber": "54"
    },
    {
      "id": 30733,
      "geometry": "POINT (-72.088013 41.52361)",
      "poi_name": "Voc's Westside Pizza",
      "osm_id": 8379696739,
      "amenity": "restaurant",
      "cuisine": "pizza",
      "website": "https://www.vocspizza.com",
      "phone": "+1 860 859 0037",
      "takeaway": "yes",
      "addr_state": "CT",
      "addr_city": "Norwich",
      "addr_postcode": "06360",
      "addr_street": "West Main Street",
      "addr_housenumber": "273"
    },
    {
      "id": 31022,
      "geometry": "POINT (-73.8241 42.676558)",
      "poi_name": "Pizza Express",
      "osm_id": 8399628058,
      "amenity": "restaurant",
      "cuisine": "pizza",
      "opening_hours": "Mo-Th 10:00-02:00; Fr-Sa 10:00-03:00; Su 11:00-02:00",
      "takeaway": "yes",
      "outdoor_seating": "yes",
      "addr_state": "NY",
      "addr_city": "Albany",
      "addr_postcode": "12203",
      "addr_street": "Western Avenue",
      "addr_housenumber": "1178"
    },
    {
      "id": 31168,
      "geometry": "POINT (-73.940055 42.814776)",
      "poi_name": "Tara Kitchen",
      "osm_id": 8408492943,
      "amenity": "restaurant",
      "cuisine": "Moroccan;Mediterranean",
      "opening_hours": "Mo off; Tu-Fr 11:30-14:30,17:00-20:00; Sa-Su 17:00-20:00",
      "website": "https://www.tarakitchen.com/",
      "phone": "518-708-3485",
      "takeaway": "yes",
      "delivery": "yes",
      "addr_state": "NY",
      "addr_city": "Schenectady",
      "addr_postcode": "12305",
      "addr_street": "Liberty Street",
      "addr_housenumber": "431"
    },
    {
      "id": 31505,
      "geometry": "POINT (-73.783368 42.247035)",
      "poi_name": "Food Sing",
      "osm_id": 8427714131,
      "amenity": "restaurant",
      "cuisine": "chinese",
      "phone": "+1-518-828-3003",
      "takeaway": "yes",
      "delivery": "yes",
      "addr_state": "NY",
      "addr_city": "Hudson",
      "addr_postcode": "12534",
      "addr_street": "Warren Street",
      "addr_housenumber": "709"
    },
    {
      "id": 31581,
      "geometry": "POINT (-72.419444 43.645949)",
      "poi_name": "Simon Pearce Restaurant",
      "osm_id": 8433490547,
      "amenity": "restaurant",
      "website": "https://www.simonpearce.com/our-restaurant",
      "phone": "+1-802-295-1470",
      "takeaway": "yes",
      "addr_state": "VT",
      "addr_city": "Quechee",
      "addr_postcode": "05059",
      "addr_street": "Quechee Main Street",
      "addr_housenumber": "1760"
    },
    {
      "id": 31762,
      "geometry": "POINT (-74.116486 42.039825)",
      "poi_name": "Mountain Gate",
      "osm_id": 8446160603,
      "amenity": "restaurant",
      "cuisine": "indian",
      "opening_hours": "Mo-Su 16:00-22:00",
      "website": "https://mountaingaterestaurant.com",
      "phone": "+1-845-679-5100",
      "takeaway": "yes",
      "addr_city": "Woodstock",
      "addr_postcode": "12498",
      "addr_street": "Deming Street",
      "addr_housenumber": "4"
    },
    {
      "id": 31771,
      "geometry": "POINT (-73.990429 41.970538)",
      "poi_name": "Kingston Wok",
      "osm_id": 8446198870,
      "amenity": "restaurant",
      "cuisine": "asian",
      "opening_hours": "Mo-Th 11:00-21:30; Fr-Sa 11:00-22:00",
      "website": "https://kingstonwok.co",
      "phone": "+1-845-336-6979",
      "takeaway": "yes",
      "addr_state": "NY",
      "addr_city": "Kingston",
      "addr_postcode": "12401",
      "addr_street": "Ulster Avenue",
      "addr_housenumber": "1353"
    },
    {
      "id": 31773,
      "geometry": "POINT (-73.983034 41.918148)",
      "poi_name": "Mariner's Harbor",
      "osm_id": 8446199807,
      "amenity": "restaurant",
      "cuisine": "seafood",
      "building": "yes",
      "opening_hours": "Tu-Th 12:00-20:30; Fr-Sa 12:00-21:30; Su 12:00-19:30",
      "operator": "seafood",
      "website": "https://www.marinersharbor.com/",
      "phone": "1-845-340-8051",
      "takeaway": "yes",
      "addr_state": "NY",
      "addr_city": "Kingston",
      "addr_postcode": "12401",
      "addr_street": "Broadway",
      "addr_housenumber": "1"
    },
    {
      "id": 33756,
      "geometry": "POINT (-73.218714 41.255152)",
      "poi_name": "Subway",
      "osm_id": 2681044238,
      "amenity": "restaurant",
      "cuisine": "sandwich",
      "opening_hours": "Su 09:00-21:00; Mo 07:00-21:00; Tu-Sa 07:00-22:00",
      "takeaway": "yes",
      "addr_state": "CT",
      "addr_city": "trumbull",
      "addr_postcode": "06611",
      "addr_street": "Quality Street",
      "addr_housenumber": "20"
    },
    {
      "id": 36246,
      "geometry": "POINT (-72.519353 42.389972)",
      "poi_name": "Greeno Subshop",
      "osm_id": 2757590956,
      "amenity": "restaurant",
      "cuisine": "sandwich;salad",
      "opening_hours": "Su-Th 17:00-23:00",
      "website": "http://www.umass.edu/rso/greenosn/index.html",
      "capacity": "50",
      "takeaway": "yes",
      "delivery": "no",
      "addr_state": "MA",
      "addr_city": "Amherst",
      "addr_postcode": "01003",
      "addr_street": "Orchard Hill Drive",
      "addr_housenumber": "120"
    },
    {
      "id": 36323,
      "geometry": "POINT (-72.929427 41.30743)",
      "poi_name": "Sushi on Chapel",
      "osm_id": 2760039199,
      "amenity": "restaurant",
      "cuisine": "japanese",
      "opening_hours": "Mo-Th 11:30-22:00; Fr,Sa 11:30-23:00",
      "website": "http://www.sushionchapel.com",
      "phone": "+1-203-776-4200",
      "takeaway": "yes"
    },
    {
      "id": 37954,
      "geometry": "POINT (-74.264124 41.648796)",
      "poi_name": "Hoot Owl",
      "osm_id": 2838849631,
      "amenity": "restaurant",
      "cuisine": "indian;american;middle_eastern",
      "opening_hours": "We-Su unknown; Mo,Tu closed",
      "capacity": "40",
      "takeaway": "yes",
      "outdoor_seating": "yes",
      "addr_state": "NY",
      "addr_city": "Pine Bush",
      "addr_postcode": "12566",
      "addr_street": "Awosting Road",
      "addr_housenumber": "26"
    },
    {
      "id": 39485,
      "geometry": "POINT (-72.808094 41.507099)",
      "poi_name": "Ting Ho",
      "osm_id": 2924084377,
      "amenity": "restaurant",
      "cuisine": "chinese",
      "takeaway": "yes",
      "addr_state": "CT",
      "addr_city": "Meriden",
      "addr_postcode": "06492",
      "addr_street": "South Broad Street",
      "addr_housenumber": "533"
    },
    {
      "id": 44799,
      "geometry": "POINT (-73.494069 41.292577)",
      "poi_name": "Gyro On Pita",
      "osm_id": 3177131362,
      "amenity": "restaurant",
      "cuisine": "greek;mediterranean;gyros;burger;wrap;sandwich;breakfast;baklava;hummus;middle_eastern;falafel;shawarma;salad",
      "wheelchair": "yes",
      "opening_hours": "Mo-Sa 11:00-20:00",
      "website": "https://www.gyroonpita.com/",
      "capacity": "45",
      "internet_access": "wlan",
      "phone": "+12034387100",
      "takeaway": "yes",
      "outdoor_seating": "yes",
      "delivery": "yes",
      "addr_state": "CT",
      "addr_city": "Ridgefield",
      "addr_postcode": "06877",
      "addr_street": "Danbury Road",
      "addr_housenumber": "91"
    },
    {
      "id": 46299,
      "geometry": "POINT (-73.783862 42.247357)",
      "poi_name": "La Mision",
      "osm_id": 3258145861,
      "amenity": "restaurant",
      "cuisine": "mexican",
      "website": "https://www.lamisionhud.com/",
      "phone": "+1-518-697-6220",
      "takeaway": "yes",
      "outdoor_seating": "yes",
      "addr_state": "NY",
      "addr_city": "Hudson",
      "addr_postcode": "12534",
      "addr_street": "Warren Street",
      "addr_housenumber": "621"
    },
    {
      "id": 47749,
      "geometry": "POINT (-73.69185 42.730607)",
      "poi_name": "Bacchus Woodfired",
      "osm_id": 3346410247,
      "amenity": "restaurant",
      "cuisine": "pizza",
      "opening_hours": "Mo off; Tu-Th 11:30-22:00; Fr 11:30-24:00; Sa 17:00-24:00; Su 16:00-21:00",
      "website": "https://www.yelp.com/biz/bacchus-troy",
      "phone": "518-687-0345",
      "takeaway": "yes",
      "delivery": "no",
      "addr_state": "NY",
      "addr_city": "Troy",
      "addr_postcode": "12180",
      "addr_street": "2nd Street",
      "addr_housenumber": "33"
    },
    {
      "id": 47750,
      "geometry": "POINT (-73.691027 42.731504)",
      "poi_name": "Bootlegger's on Broadway",
      "osm_id": 3346418066,
      "amenity": "restaurant",
      "cuisine": "american",
      "opening_hours": "Mo-Fr 11:00-00:00; Sa-Su 11:00-02:00",
      "website": "https://www.bootleggerstroy.com/",
      "phone": "+1-518-874-4475",
      "takeaway": "yes",
      "addr_state": "NY",
      "addr_city": "Troy",
      "addr_postcode": "12180",
      "addr_street": "Broadway",
      "addr_housenumber": "200"
    },
    {
      "id": 48278,
      "geometry": "POINT (-73.876242 41.995413)",
      "poi_name": "Bubby's Take Away Kitchen",
      "osm_id": 3374185076,
      "amenity": "restaurant",
      "cuisine": "mexican",
      "phone": "(845) 758-8226",
      "takeaway": "yes",
      "addr_state": "NY",
      "addr_city": "Red Hook",
      "addr_postcode": "12571",
      "addr_street": "West Market Street",
      "addr_housenumber": "19"
    },
    {
      "id": 49610,
      "geometry": "POINT (-71.490848 42.477967)",
      "poi_name": "Oscar's Burritos",
      "osm_id": 3443758980,
      "amenity": "restaurant",
      "cuisine": "mexican",
      "opening_hours": "11:00-21:00",
      "phone": "+1 978-266-0001",
      "takeaway": "yes",
      "addr_state": "MA",
      "addr_city": "Boxborough",
      "addr_postcode": "01719",
      "addr_street": "Massachusetts Avenue",
      "addr_housenumber": "34"
    },
    {
      "id": 49644,
      "geometry": "POINT (-72.557215 41.495046)",
      "poi_name": "AJ's Pizza",
      "osm_id": 3445720225,
      "amenity": "restaurant",
      "cuisine": "pizza",
      "takeaway": "yes",
      "delivery": "no"
    },
    {
      "id": 49645,
      "geometry": "POINT (-72.557356 41.494777)",
      "poi_name": "Brookside Bar & Grill",
      "osm_id": 3445720231,
      "amenity": "restaurant",
      "takeaway": "yes",
      "delivery": "no"
    },
    {
      "id": 49656,
      "geometry": "POINT (-72.648346 41.558899)",
      "poi_name": "Tandoor Indian Restaurant",
      "osm_id": 3445754413,
      "amenity": "restaurant",
      "cuisine": "indian",
      "takeaway": "yes",
      "delivery": "yes"
    },
    {
      "id": 53891,
      "geometry": "POINT (-73.975221 42.08323)",
      "poi_name": "Zicatela's",
      "osm_id": 10103672004,
      "amenity": "restaurant",
      "cuisine": "mexican",
      "opening_hours": "Mo 10:00-22:00; Tu 10:00-21:00; Th-Fr 10:00-22:00; Sa 08:00-22:00; Su 08:00-21:00",
      "website": "https://www.zicatelas.com",
      "phone": "+1-845-247-3235",
      "takeaway": "yes",
      "outdoor_seating": "yes"
    },
    {
      "id": 58605,
      "geometry": "POINT (-72.330543 41.572721)",
      "poi_name": "Illiano's Pizza",
      "osm_id": 5385085433,
      "amenity": "restaurant",
      "cuisine": "pizza;italian",
      "description": "Best Pizza in Town - \"It's in the sauce!\"",
      "capacity": "100",
      "takeaway": "yes",
      "outdoor_seating": "no",
      "delivery": "yes"
    },
    {
      "id": 59058,
      "geometry": "POINT (-73.102027 41.201305)",
      "poi_name": "New Star - Milford Chinese",
      "osm_id": 5408971922,
      "amenity": "restaurant",
      "cuisine": "chinese",
      "opening_hours": "Tu-Th 11:00-22:00, Fr-Su 11:00-22:30",
      "website": "https://www.newstarmilford.com/",
      "phone": "203-882-8867",
      "takeaway": "yes",
      "delivery": "yes",
      "addr_state": "CT",
      "addr_city": "Milford",
      "addr_postcode": "06460",
      "addr_street": "Naugatuck Avenue",
      "addr_housenumber": "548"
    },
    {
      "id": 59059,
      "geometry": "POINT (-73.102107 41.201273)",
      "poi_name": "Milford Pizza and Mexican Food",
      "osm_id": 5408971923,
      "amenity": "restaurant",
      "cuisine": "pizza;italian;mexican",
      "opening_hours": "Mo-Sa 11:00-22:00, Su 11:00-20:00",
      "website": "https://www.milfordpizzact.com/",
      "phone": "203-877-4800",
      "takeaway": "yes",
      "delivery": "yes",
      "addr_state": "CT",
      "addr_city": "Milford",
      "addr_postcode": "06460",
      "addr_street": "Naugatuck Avenue",
      "addr_housenumber": "548"
    },
    {
      "id": 61392,
      "geometry": "POINT (-71.824379 42.249205)",
      "poi_name": "New Wine Pizza",
      "osm_id": 5516750724,
      "amenity": "restaurant",
      "cuisine": "pizza;sandwich",
      "takeaway": "yes",
      "delivery": "yes"
    },
    {
      "id": 61693,
      "geometry": "POINT (-73.0639 41.230516)",
      "poi_name": "GG's Wood Fired Pizza",
      "osm_id": 5532119912,
      "amenity": "restaurant",
      "takeaway": "yes",
      "delivery": "unknown",
      "addr_state": "CT",
      "addr_city": "Milford",
      "addr_postcode": "06460",
      "addr_street": "Boston Post Road",
      "addr_housenumber": "591"
    },
    {
      "id": 62289,
      "geometry": "POINT (-73.881931 42.2144)",
      "poi_name": "Penny's Diner",
      "osm_id": 5561706911,
      "amenity": "restaurant",
      "cuisine": "breakfast;burger",
      "opening_hours": "Mo-Sa 06:00-15:00",
      "takeaway": "yes",
      "outdoor_seating": "no",
      "delivery": "no",
      "addr_state": "NY",
      "addr_city": "Catskill",
      "addr_postcode": "12414",
      "addr_street": "West Bridge Street",
      "addr_housenumber": "261"
    },
    {
      "id": 62614,
      "geometry": "POINT (-74.749887 42.591956)",
      "poi_name": "Cafe 151",
      "osm_id": 5578650468,
      "amenity": "restaurant",
      "opening_hours": "Mo-Sa 07:30-20:00",
      "capacity": "50",
      "takeaway": "yes",
      "outdoor_seating": "yes",
      "delivery": "no",
      "addr_state": "NY",
      "addr_city": "Worcester",
      "addr_postcode": "12197",
      "addr_street": "Main Street",
      "addr_housenumber": "151"
    },
    {
      "id": 64401,
      "geometry": "POINT (-74.011197 41.497258)",
      "poi_name": "Seoul Kitchen",
      "osm_id": 5652463710,
      "amenity": "restaurant",
      "cuisine": "korean",
      "phone": "+1-845-563-0796",
      "takeaway": "yes",
      "addr_state": "NY",
      "addr_city": "Newburgh",
      "addr_postcode": "12550",
      "addr_street": "Liberty Street",
      "addr_housenumber": "71"
    },
    {
      "id": 64478,
      "geometry": "POINT (-73.771724 41.627136)",
      "poi_name": "Sonny's Restaurant & Pizzaria",
      "osm_id": 5654238056,
      "amenity": "restaurant",
      "cuisine": "italian;pizza",
      "website": "http://www.sonnysrestaurantandpizzeria.com/",
      "phone": "+1 845 223 5308",
      "takeaway": "yes",
      "addr_state": "NY",
      "addr_city": "LaGrangeville",
      "addr_postcode": "12540",
      "addr_street": "NY 82",
      "addr_housenumber": "1610"
    },
    {
      "id": 64813,
      "geometry": "POINT (-73.056246 41.221808)",
      "poi_name": "Archie Moore's Bar & Restaurant",
      "osm_id": 5672477937,
      "amenity": "restaurant",
      "cuisine": "burger;sandwich;wings;american",
      "phone": "203-876-5088",
      "takeaway": "yes",
      "addr_state": "CT",
      "addr_city": "Milford",
      "addr_postcode": "06460",
      "addr_street": "Factory Lane",
      "addr_housenumber": "15"
    },
    {
      "id": 68750,
      "geometry": "POINT (-72.083429 43.342735)",
      "poi_name": "Ziggy's Pizza",
      "osm_id": 11283463222,
      "amenity": "restaurant",
      "cuisine": "pizza;sandwich;salad;chicken;burger",
      "opening_hours": "Mo-Su 11:00-21:00",
      "website": "https://ziggys.pizza/sunapee-menu/",
      "phone": "+1-603-865-5154",
      "takeaway": "yes",
      "delivery": "no",
      "addr_state": "NH",
      "addr_city": "Sunapee",
      "addr_postcode": "03782",
      "addr_street": "State Route 103",
      "addr_housenumber": "699"
    },
    {
      "id": 70012,
      "geometry": "POINT (-73.190235 41.746644)",
      "poi_name": "Ollie's Pizza",
      "osm_id": 11340715891,
      "amenity": "restaurant",
      "cuisine": "pizza",
      "takeaway": "yes",
      "outdoor_seating": "no",
      "addr_street": "West Street",
      "addr_housenumber": "19"
    },
    {
      "id": 70021,
      "geometry": "POINT (-73.19164 41.746476)",
      "poi_name": "Difranco's",
      "osm_id": 11340755499,
      "amenity": "restaurant",
      "cuisine": "italian;pizza",
      "takeaway": "yes",
      "outdoor_seating": "yes",
      "toilets": "yes",
      "addr_street": "West Street",
      "addr_housenumber": "51"
    },
    {
      "id": 72104,
      "geometry": "POINT (-73.687878 42.731223)",
      "poi_name": "Naughter's",
      "osm_id": 11413220969,
      "amenity": "restaurant",
      "cuisine": "breakfast;sandwich",
      "takeaway": "yes",
      "outdoor_seating": "yes",
      "toilets": "yes",
      "addr_state": "ny",
      "addr_city": "troy",
      "addr_postcode": "12180",
      "addr_street": "5th Avenue",
      "addr_housenumber": "1809"
    },
    {
      "id": 72555,
      "geometry": "POINT (-73.253482 42.449154)",
      "poi_name": "Espetinho Carioca",
      "osm_id": 11433214085,
      "amenity": "restaurant",
      "cuisine": "brazilian",
      "phone": "(413) 344-9234",
      "takeaway": "yes",
      "addr_state": "MA",
      "addr_city": "Pittsfield",
      "addr_postcode": "01201",
      "addr_street": "North Street",
      "addr_housenumber": "48B"
    },
    {
      "id": 76063,
      "geometry": "POINT (-71.798916 42.213058)",
      "poi_name": "China Sea",
      "osm_id": 9758491983,
      "amenity": "restaurant",
      "cuisine": "chinese",
      "takeaway": "yes",
      "addr_city": "Worcester",
      "addr_postcode": "01607",
      "addr_street": "Southwest Cutoff",
      "addr_housenumber": "566"
    },
    {
      "id": 75994,
      "geometry": "POINT (-71.759041 42.524669)",
      "poi_name": "Bocado Tapas Wine Bar",
      "osm_id": 9754843357,
      "amenity": "restaurant",
      "opening_hours": "Mo-Th 16:30-21:30; Fr,Sa 16:30-23:00; Su 16:30-20:00",
      "website": "https://www.bocadotapasbar.com/leominster",
      "phone": "+1 978-798-1581",
      "takeaway": "yes",
      "delivery": "yes",
      "addr_city": "Leominster",
      "addr_postcode": "01453",
      "addr_street": "Central Street",
      "addr_housenumber": "20"
    },
    {
      "id": 75995,
      "geometry": "POINT (-71.758837 42.524884)",
      "poi_name": "The Columbia Tavern",
      "osm_id": 9754843358,
      "amenity": "restaurant",
      "website": "https://www.columbiatavern.com/",
      "phone": "+1 978-751-8962",
      "takeaway": "yes",
      "addr_city": "Leominster",
      "addr_postcode": "01453",
      "addr_street": "Manning Avenue",
      "addr_housenumber": "28"
    },
    {
      "id": 83160,
      "geometry": "POINT (-73.884202 41.209016)",
      "poi_name": "Hunan Wok III",
      "osm_id": 1731253639,
      "amenity": "restaurant",
      "cuisine": "chinese",
      "opening_hours": "Mo-Th 10:30-22:00; Fr-Sa 10:30-22:30; Su 12:00-22:00",
      "phone": "+1-914-271-1333;+1-914-271-1371",
      "takeaway": "yes",
      "delivery": "yes",
      "addr_state": "NY",
      "addr_city": "Croton-on-Hudson",
      "addr_postcode": "10520",
      "addr_street": "Grand Street",
      "addr_housenumber": "125"
    },
    {
      "id": 77682,
      "geometry": "POINT (-72.630846 42.317925)",
      "poi_name": "Paul & Elizabeth's",
      "osm_id": 705814074,
      "amenity": "restaurant",
      "opening_hours": "Mo-Th 11:30-21:00; Fr,Sa 11:30-21:45; Su 11:00-21:00",
      "website": "https://www.paulandelizabeths.com",
      "phone": "+1 (413) 584-4832",
      "takeaway": "yes",
      "addr_state": "MA",
      "addr_city": "Northampton",
      "addr_postcode": "01060",
      "addr_street": "Main Street",
      "addr_housenumber": "150"
    },
    {
      "id": 78493,
      "geometry": "POINT (-72.925014 41.304714)",
      "poi_name": "Pho Thai",
      "osm_id": 750304033,
      "amenity": "restaurant",
      "cuisine": "thai",
      "description": "Malaysian Cuisine",
      "wheelchair": "limited",
      "opening_hours": "Mo-Fr 11:30-14:30;Mo-Th 17:00-21:30;Fr,Sa 17:00-22:30;Su 15:00-21:30",
      "website": "http://www.bentara.com",
      "phone": "2035622511",
      "takeaway": "yes",
      "addr_state": "CT",
      "addr_city": "New Haven",
      "addr_postcode": "06510",
      "addr_street": "Orange Street",
      "addr_housenumber": "76"
    },
    {
      "id": 83161,
      "geometry": "POINT (-73.884422 41.208887)",
      "poi_name": "Junction JT's Food Market",
      "osm_id": 1731253653,
      "amenity": "restaurant",
      "cuisine": "korean",
      "opening_hours": "Mo-Th 10:30-20:00; Fr-Sa 10:30-21:00; Su 10:30-18:30",
      "takeaway": "yes",
      "addr_state": "NY",
      "addr_city": "Croton-on-Hudson",
      "addr_postcode": "10520"
    },
    {
      "id": 88277,
      "geometry": "POINT (-73.653521 43.334677)",
      "poi_name": "Chopsticks",
      "osm_id": 8777600323,
      "amenity": "restaurant",
      "cuisine": "chinese",
      "wheelchair": "no",
      "website": "http://www.518chopsticks.com",
      "phone": "+1 518 792 6887",
      "takeaway": "yes",
      "outdoor_seating": "no",
      "addr_state": "NY",
      "addr_city": "Queensbury",
      "addr_postcode": "12804",
      "addr_street": "Bay Road",
      "addr_housenumber": "365"
    },
    {
      "id": 86311,
      "geometry": "POINT (-73.919024 41.598646)",
      "poi_name": "County Fare",
      "osm_id": 1925951165,
      "amenity": "restaurant",
      "takeaway": "yes",
      "outdoor_seating": "yes"
    },
    {
      "id": 87055,
      "geometry": "POINT (-73.649761 43.441753)",
      "poi_name": "Dunham's Bay Lake George Resort ",
      "osm_id": 1967750359,
      "amenity": "restaurant",
      "tourism": "motel",
      "website": "www.DunhamsBay,co",
      "phone": "518 656 9242",
      "takeaway": "yes"
    },
    {
      "id": 87056,
      "geometry": "POINT (-73.62704 43.44171)",
      "poi_name": "Ridge Terrace",
      "osm_id": 1967751207,
      "amenity": "restaurant",
      "website": "http://www.theridgeterrace.com/",
      "phone": "518 656 9274",
      "takeaway": "yes"
    },
    {
      "id": 87740,
      "geometry": "POINT (-74.15445 42.040365)",
      "poi_name": "The Bear Cantina",
      "osm_id": 8737203233,
      "amenity": "restaurant",
      "cuisine": "mexican",
      "phone": "+1-845-684-7223",
      "takeaway": "yes"
    },
    {
      "id": 87904,
      "geometry": "POINT (-72.788332 41.953419)",
      "poi_name": "Deep Roots Street Food",
      "osm_id": 8751466664,
      "amenity": "restaurant",
      "opening_hours": "Mo-Sa 11:00-20:00",
      "website": "https://www.grassrootsicecream.com/about-deeproots",
      "takeaway": "yes",
      "outdoor_seating": "yes"
    },
    {
      "id": 90993,
      "geometry": "POINT (-73.287268 41.138336)",
      "poi_name": "The Grey Goose",
      "osm_id": 2032868255,
      "amenity": "restaurant",
      "wheelchair": "yes",
      "takeaway": "yes",
      "outdoor_seating": "yes"
    },
    {
      "id": 88607,
      "geometry": "POINT (-74.326227 41.400762)",
      "poi_name": "El Rancho Mexican Restaurant",
      "osm_id": 8788826857,
      "amenity": "restaurant",
      "cuisine": "mexican",
      "website": "http://elranchomex.wixsite.com/goshen",
      "phone": "+1 845 615 9682",
      "takeaway": "yes",
      "delivery": "yes",
      "addr_state": "NY",
      "addr_city": "Goshen",
      "addr_postcode": "10924",
      "addr_street": "Greenwich Avenue",
      "addr_housenumber": "158"
    },
    {
      "id": 88609,
      "geometry": "POINT (-74.325572 41.401217)",
      "poi_name": "Village Pizza",
      "osm_id": 8788830072,
      "amenity": "restaurant",
      "cuisine": "pizza",
      "website": "https://villagepizzagoshen.com/",
      "phone": "+1 845 294 7923",
      "takeaway": "yes",
      "delivery": "yes",
      "addr_state": "NY",
      "addr_city": "Goshen",
      "addr_postcode": "10924",
      "addr_street": "Greenwich Avenue",
      "addr_housenumber": "100"
    },
    {
      "id": 90003,
      "geometry": "POINT (-73.496975 41.283452)",
      "poi_name": "Dimitris Diner",
      "osm_id": 8875536060,
      "amenity": "restaurant",
      "cuisine": "american;breakfast;diner;greek;international;lunch;mediterranean;mexican;sandwich",
      "wheelchair": "yes",
      "opening_hours": "Mo-Su 08:00-22:00",
      "website": "https://www.dimitrisdiner.com/",
      "capacity": "170",
      "internet_access": "yes",
      "phone": "2034385338",
      "takeaway": "yes",
      "outdoor_seating": "yes",
      "delivery": "yes",
      "addr_state": "CT",
      "addr_city": "Ridgefield",
      "addr_postcode": "06877",
      "addr_street": "Prospect Street",
      "addr_housenumber": "16"
    },
    {
      "id": 92332,
      "geometry": "POINT (-73.225689 41.176889)",
      "poi_name": "Beijing",
      "osm_id": 2112757770,
      "amenity": "restaurant",
      "cuisine": "chinese",
      "opening_hours": "Mo-Th 11:00-22:30; Fr 11:00-23:00; Sa 16:00-23:00; Su 17:00-22:00",
      "phone": "+1 203 3840686",
      "takeaway": "yes",
      "addr_state": "CT",
      "addr_city": "Fairfield",
      "addr_postcode": "06825",
      "addr_street": "Tunxis Hill Rd",
      "addr_housenumber": "131"
    },
    {
      "id": 91098,
      "geometry": "POINT (-73.908834 42.058392)",
      "poi_name": "Santa Fe Tivoli",
      "osm_id": 2041480721,
      "amenity": "restaurant",
      "cuisine": "mexican",
      "website": "https://www.santafetivoli.com/",
      "takeaway": "yes",
      "outdoor_seating": "yes",
      "addr_city": "Tivoli",
      "addr_postcode": "12583",
      "addr_street": "Broadway",
      "addr_housenumber": "52"
    },
    {
      "id": 97153,
      "geometry": "POINT (-74.019222 41.937794)",
      "poi_name": "Super Bowl Cuisine",
      "osm_id": 6465333957,
      "amenity": "restaurant",
      "cuisine": "chinese",
      "opening_hours": "Mo-Th 11:00-22:00; Fr-Sa 11:00-23:00; Su 11:00-22:00",
      "website": "https://www.superbowlcuisine.com",
      "phone": "+1-845-339-6888",
      "takeaway": "yes",
      "addr_state": "NY",
      "addr_city": "Kingston",
      "addr_postcode": "12401",
      "addr_street": "Plaza Road",
      "addr_housenumber": "300"
    },
    {
      "id": 97732,
      "geometry": "POINT (-72.242696 41.804384)",
      "poi_name": "Eat Joy",
      "osm_id": 6491642619,
      "amenity": "restaurant",
      "cuisine": "asian;sushi",
      "wheelchair": "yes",
      "website": "https://eatjoy.business.site/",
      "phone": "+1 (860) 477-0528",
      "takeaway": "yes",
      "outdoor_seating": "no",
      "addr_state": "CT",
      "addr_city": "Storrs",
      "addr_postcode": "06268",
      "addr_street": "Royce Circle",
      "addr_housenumber": "1"
    },
    {
      "id": 97206,
      "geometry": "POINT (-73.89115 42.816492)",
      "poi_name": "Thai Thai Bistro",
      "osm_id": 6467128972,
      "amenity": "restaurant",
      "cuisine": "thai",
      "takeaway": "yes",
      "outdoor_seating": "yes",
      "delivery": "no",
      "addr_state": "NY",
      "addr_city": "Niskayuna",
      "addr_postcode": "12309",
      "addr_street": "Nott Street East",
      "addr_housenumber": "2209"
    },
    {
      "id": 97737,
      "geometry": "POINT (-72.241483 41.803857)",
      "poi_name": "Kathmandu Kitchen",
      "osm_id": 6491642632,
      "amenity": "restaurant",
      "cuisine": "indian;nepalese;buffet",
      "description": "Kathmandu Kitchen serves a wide selection of authentic Nepalese and Indian Restaurant dishes prepared in homemade style with our own special recipes. Each dish is prepared from the freshest ingredients available.",
      "website": "https://ktmkitchenandbarct.com/",
      "phone": "+1 (860) 477-1148",
      "takeaway": "yes",
      "delivery": "yes",
      "addr_state": "CT",
      "addr_city": "Storrs",
      "addr_postcode": "06268",
      "addr_street": "Wilbur Cross Way",
      "addr_housenumber": "33"
    },
    {
      "id": 100505,
      "geometry": "POINT (-73.893096 41.207082)",
      "poi_name": "The Tavern at Croton Landing",
      "osm_id": 6589796231,
      "amenity": "restaurant",
      "website": "https://thetavernatcroton.com/",
      "phone": "+1-914-271-8020",
      "takeaway": "yes",
      "outdoor_seating": "yes",
      "addr_state": "NY",
      "addr_city": "Croton-on-Hudson",
      "addr_postcode": "10520",
      "addr_street": "North Riverside Avenue",
      "addr_housenumber": "41"
    },
    {
      "id": 98302,
      "geometry": "POINT (-72.674395 41.766518)",
      "poi_name": "Dhaba Wala Indian Kitchen",
      "osm_id": 6515128335,
      "amenity": "restaurant",
      "cuisine": "indian",
      "website": "https://www.dhabawalahartford.com/",
      "capacity": "30",
      "takeaway": "yes",
      "outdoor_seating": "no",
      "addr_state": "CT",
      "addr_city": "Hartford",
      "addr_postcode": "06103",
      "addr_street": "Asylum Street",
      "addr_housenumber": "49"
    },
    {
      "id": 100395,
      "geometry": "POINT (-73.081141 41.352356)",
      "poi_name": "Area 143",
      "osm_id": 6583093285,
      "amenity": "restaurant",
      "takeaway": "yes",
      "addr_state": "CT",
      "addr_city": "Ansonia",
      "addr_postcode": "06401",
      "addr_street": "North Main Street",
      "addr_housenumber": "143"
    },
    {
      "id": 103643,
      "geometry": "POINT (-73.885186 41.200508)",
      "poi_name": "Croton Mini Deli",
      "osm_id": 8515828892,
      "amenity": "restaurant",
      "cuisine": "sandwich",
      "opening_hours": "Mo-Sa 6:45-20:00; Su 6:45-15:00",
      "takeaway": "yes",
      "addr_state": "NY",
      "addr_city": "Croton-on-Hudson",
      "addr_postcode": "10520",
      "addr_street": "Maple Street",
      "addr_housenumber": "10"
    },
    {
      "id": 108211,
      "geometry": "POINT (-72.52005 42.375377)",
      "poi_name": "Oriental Flavor",
      "osm_id": 3603214381,
      "amenity": "restaurant",
      "cuisine": "chinese",
      "website": "https://www.orientalflavoramherst.com/",
      "phone": "+1 413 253 7673",
      "takeaway": "yes",
      "outdoor_seating": "no",
      "addr_state": "MA",
      "addr_city": "Amherst",
      "addr_postcode": "01002",
      "addr_street": "South Pleasant Street",
      "addr_housenumber": "25"
    },
    {
      "id": 107168,
      "geometry": "POINT (-72.593687 41.283306)",
      "poi_name": "Jia Mei Asian Kitchen",
      "osm_id": 3540321706,
      "amenity": "restaurant",
      "opening_hours": "Mo-Th 11:00-21:00; Fr-Sa 11:00-22:00; Su 12:00-21:00",
      "website": "http://jiameiasiankitchen.com/",
      "phone": "203 421 6173",
      "takeaway": "yes",
      "addr_state": "CT",
      "addr_city": "Madison",
      "addr_postcode": "06443",
      "addr_street": "Wall Street",
      "addr_housenumber": "105"
    },
    {
      "id": 107828,
      "geometry": "POINT (-74.913334 41.933019)",
      "poi_name": "Raimondo's Restaurant and Pizzeria",
      "osm_id": 3580739811,
      "amenity": "restaurant",
      "cuisine": "italian;pizza",
      "opening_hours": "11:00-23:00",
      "capacity": "150",
      "takeaway": "yes",
      "addr_state": "NY",
      "addr_city": "Roscoe",
      "addr_postcode": "12776",
      "addr_street": "Stewart Avenue",
      "addr_housenumber": "2"
    },
    {
      "id": 108186,
      "geometry": "POINT (-72.520089 42.374755)",
      "poi_name": "La Veracruzana",
      "osm_id": 3600925918,
      "amenity": "restaurant",
      "cuisine": "mexican",
      "opening_hours": "Mo-We 11:00-21:00; Th-Sa 11:00-22:00; Su 11:30-21:00",
      "website": "https://www.laveracruzana.com",
      "phone": "+1 413 253 6900",
      "takeaway": "yes",
      "addr_state": "MA",
      "addr_city": "Amherst",
      "addr_postcode": "01002",
      "addr_street": "South Pleasant Street",
      "addr_housenumber": "63"
    },
    {
      "id": 113277,
      "geometry": "POINT (-72.520898 42.339845)",
      "poi_name": "Sibies Pizza",
      "osm_id": 3827701588,
      "amenity": "restaurant",
      "cuisine": "pizza",
      "website": "https://www.sibiespizza.com/",
      "phone": "+1 413 256 6100",
      "takeaway": "yes",
      "delivery": "yes",
      "addr_state": "MA",
      "addr_city": "Amherst",
      "addr_postcode": "01002",
      "addr_street": "West Street",
      "addr_housenumber": "481"
    },
    {
      "id": 108663,
      "geometry": "POINT (-72.53727 41.276964)",
      "poi_name": "Great Wall",
      "osm_id": 3632111490,
      "amenity": "restaurant",
      "cuisine": "chinese",
      "takeaway": "yes",
      "drive_through": "no",
      "delivery": "yes"
    },
    {
      "id": 108670,
      "geometry": "POINT (-72.56163 41.350082)",
      "poi_name": "The Copper Skillet",
      "osm_id": 3632111601,
      "amenity": "restaurant",
      "cuisine": "breakfast;greek",
      "takeaway": "yes",
      "delivery": "no"
    },
    {
      "id": 109031,
      "geometry": "POINT (-72.222426 41.431796)",
      "poi_name": "Cobalt Cafe at Nature's Art Village",
      "osm_id": 3646701863,
      "amenity": "restaurant",
      "cuisine": "sandwich",
      "opening_hours": "10:00-17:00",
      "website": "http://www.naturesartvillage.com",
      "capacity": "100",
      "phone": "860-443-4367",
      "takeaway": "yes",
      "delivery": "no",
      "addr_state": "CT",
      "addr_city": "Montville",
      "addr_postcode": "06370",
      "addr_street": "Hartford-New London Turnpike",
      "addr_housenumber": "1650"
    },
    {
      "id": 109032,
      "geometry": "POINT (-72.222722 41.432482)",
      "poi_name": "The Ice Cream Shop at Nature's Art Village",
      "osm_id": 3646705786,
      "amenity": "restaurant",
      "cuisine": "ice_cream",
      "opening_hours": "10:00-18:00",
      "capacity": "200",
      "phone": "860-443-4367",
      "takeaway": "yes",
      "delivery": "no",
      "addr_state": "CT",
      "addr_city": "Montville",
      "addr_postcode": "06370",
      "addr_street": "Hartford-New London Turnpike",
      "addr_housenumber": "1650"
    },
    {
      "id": 109033,
      "geometry": "POINT (-72.224356 41.432439)",
      "poi_name": "Monty's Munchies at The Dinosaur Place",
      "osm_id": 3646708480,
      "amenity": "restaurant",
      "cuisine": "burger",
      "opening_hours": "11:00-17:00",
      "capacity": "200",
      "phone": "860-443-4367",
      "takeaway": "yes",
      "delivery": "no",
      "addr_state": "CT",
      "addr_city": "Montville",
      "addr_postcode": "06370",
      "addr_street": "Hartford-New London Turnpike",
      "addr_housenumber": "1650"
    },
    {
      "id": 110719,
      "geometry": "POINT (-73.297119 41.417333)",
      "poi_name": "Burgerritoville",
      "osm_id": 3714338384,
      "amenity": "restaurant",
      "capacity": "10",
      "takeaway": "yes",
      "delivery": "no"
    },
    {
      "id": 111816,
      "geometry": "POINT (-72.000626 43.42352)",
      "poi_name": "China City",
      "osm_id": 3763287188,
      "amenity": "restaurant",
      "cuisine": "asian",
      "takeaway": "yes",
      "addr_state": "NH",
      "addr_city": "New London",
      "addr_postcode": "03257",
      "addr_street": "Newport Road",
      "addr_housenumber": "276"
    },
    {
      "id": 113293,
      "geometry": "POINT (-72.530699 42.388098)",
      "poi_name": "Roots Cafe, UMass Amherst",
      "osm_id": 3828423635,
      "amenity": "restaurant",
      "cuisine": "american",
      "wheelchair": "yes",
      "opening_hours": "Mo-We 07:00-01:00; Th-Fr 07:00-02:00; Sa 08:00-02:00; Su 08:00-01:00",
      "website": "https://umassdining.com/locations-menus/around-campus/roots-cafe",
      "internet_access": "yes",
      "takeaway": "yes",
      "outdoor_seating": "yes"
    },
    {
      "id": 113298,
      "geometry": "POINT (-72.528819 42.388162)",
      "poi_name": "Earthfoods",
      "osm_id": 3829204907,
      "amenity": "restaurant",
      "opening_hours": "Mo-Fr 11:00-15:00 \"only during school session\"",
      "capacity": "100",
      "internet_access": "yes",
      "takeaway": "yes",
      "addr_state": "MA",
      "addr_city": "Amherst",
      "addr_postcode": "01003",
      "addr_street": "Campus Center Way",
      "addr_housenumber": "41"
    },
    {
      "id": 115901,
      "geometry": "POINT (-71.987941 43.416769)",
      "poi_name": "Peter Christian's Tavern",
      "osm_id": 8918094010,
      "amenity": "restaurant",
      "cuisine": "american",
      "website": "https://www.peterchristiansnh.com/",
      "phone": "+1-603-526-2964",
      "takeaway": "yes",
      "addr_state": "NH",
      "addr_city": "New London",
      "addr_postcode": "03257",
      "addr_street": "Main Street",
      "addr_housenumber": "195"
    },
    {
      "id": 120749,
      "geometry": "POINT (-71.957681 43.268924)",
      "poi_name": "Pizza Chef",
      "osm_id": 6721908855,
      "amenity": "restaurant",
      "cuisine": "pizza",
      "opening_hours": "Mo-Th 11:00-21:00; Fr-Sa 11:00-22:00; Su 11:00-21:00",
      "website": "https://pizzachef.com/bradford-nh-pizza/",
      "phone": "+1-603-938-2600",
      "takeaway": "yes",
      "addr_state": "NH",
      "addr_city": "Bradford",
      "addr_postcode": "03221",
      "addr_street": "East Main Street",
      "addr_housenumber": "107"
    },
    {
      "id": 123456,
      "geometry": "POINT (-72.906031 41.314711)",
      "poi_name": "Bear\u2019s Smokehouse",
      "osm_id": 6855628220,
      "amenity": "restaurant",
      "cuisine": "barbecue",
      "description": "Bear's Smokehouse is the place to go when you have a craving for delicious Kansas City Style BBQ, house-brewed beers and craft cocktails.",
      "wheelchair": "yes",
      "opening_hours": "Su-We 11:00-21:00; Th-Sa 11:00-22:00",
      "website": "https://bearsbbq.com/new-haven",
      "internet_access": "wlan",
      "phone": "+1-203-350-9060",
      "takeaway": "yes",
      "outdoor_seating": "yes",
      "toilets": "yes",
      "addr_state": "CT",
      "addr_city": "New Haven",
      "addr_postcode": "06513",
      "addr_street": "James Street",
      "addr_housenumber": "470"
    },
    {
      "id": 129843,
      "geometry": "POINT (-72.632972 42.317948)",
      "poi_name": "T. Roots",
      "osm_id": 9843064062,
      "amenity": "restaurant",
      "cuisine": "taiwanese",
      "website": "https://t-roots.com",
      "phone": "+1 413-582-1880",
      "takeaway": "yes",
      "outdoor_seating": "yes",
      "addr_state": "MA",
      "addr_city": "Northampton",
      "addr_postcode": "01060",
      "addr_street": "Main Street",
      "addr_housenumber": "249"
    },
    {
      "id": 126424,
      "geometry": "POINT (-72.093536 42.110335)",
      "poi_name": "The Thai Place",
      "osm_id": 7001358373,
      "amenity": "restaurant",
      "cuisine": "thai",
      "takeaway": "yes"
    },
    {
      "id": 129888,
      "geometry": "POINT (-72.626923 42.318945)",
      "poi_name": "The Deck",
      "osm_id": 9845426398,
      "amenity": "restaurant",
      "cuisine": "american",
      "wheelchair": "yes",
      "website": "https://www.thedeckbar.org/",
      "phone": "+1 413 326 4151",
      "takeaway": "yes",
      "outdoor_seating": "yes",
      "addr_state": "MA",
      "addr_city": "Northampton",
      "addr_postcode": "01060",
      "addr_street": "Pleasant Street",
      "addr_housenumber": "125"
    },
    {
      "id": 151912,
      "geometry": "POINT (-73.050741 41.232222)",
      "poi_name": "Mac n' Out",
      "osm_id": 4119553293,
      "amenity": "restaurant",
      "cuisine": "macaroni_and_cheese",
      "website": "https://www.mac-n-out.com/",
      "takeaway": "yes",
      "addr_state": "CT",
      "addr_city": "Milford",
      "addr_postcode": "06460",
      "addr_street": "Boston Post Road",
      "addr_housenumber": "900"
    },
    {
      "id": 141263,
      "geometry": "POINT (-72.584335 42.099263)",
      "poi_name": "Ra\u00edces Restaurant",
      "osm_id": 6279309902,
      "amenity": "restaurant",
      "cuisine": "spanish",
      "takeaway": "yes",
      "delivery": "no",
      "toilets": "yes",
      "addr_street": "Main Street"
    },
    {
      "id": 146651,
      "geometry": "POINT (-72.037842 43.321671)",
      "poi_name": "Bubba's Bar & Grille",
      "osm_id": 7468085382,
      "amenity": "restaurant",
      "cuisine": "burger;pizza;american;seafood",
      "website": "https://bubbasbarandgrille.com/",
      "internet_access": "wlan",
      "phone": "+1-603-763-3290",
      "takeaway": "yes",
      "outdoor_seating": "yes",
      "addr_state": "NH",
      "addr_city": "Newbury",
      "addr_postcode": "03255",
      "addr_street": "State Route 103",
      "addr_housenumber": "976"
    },
    {
      "id": 148121,
      "geometry": "POINT (-73.202603 41.186623)",
      "poi_name": "Family Pizza",
      "osm_id": 3931472596,
      "amenity": "restaurant",
      "cuisine": "pizza",
      "phone": "+1 203 3355000",
      "takeaway": "yes"
    },
    {
      "id": 148155,
      "geometry": "POINT (-73.199225 41.173448)",
      "poi_name": "Cafeteria Morla Restaurant",
      "osm_id": 3933072665,
      "amenity": "restaurant",
      "cuisine": "spanish",
      "phone": "+1 203 3358944",
      "takeaway": "yes",
      "addr_state": "CT",
      "addr_city": "Bridgeport",
      "addr_postcode": "06604",
      "addr_street": "State Street",
      "addr_housenumber": "767"
    },
    {
      "id": 148157,
      "geometry": "POINT (-73.202347 41.172448)",
      "poi_name": "Red Apple",
      "osm_id": 3933072679,
      "amenity": "restaurant",
      "cuisine": "chinese",
      "phone": "+1 203 3335088",
      "takeaway": "yes",
      "addr_state": "CT",
      "addr_city": "Bridgeport",
      "addr_postcode": "06605",
      "addr_street": "State Street",
      "addr_housenumber": "957"
    },
    {
      "id": 148770,
      "geometry": "POINT (-72.627272 42.319552)",
      "poi_name": "Notch 8 Grille",
      "osm_id": 3980110474,
      "amenity": "restaurant",
      "cuisine": "steak_house;steak;seafood;wine",
      "wheelchair": "yes",
      "opening_hours": "Th-Mo 16:30-22:00",
      "website": "https://www.notch8grille.com/",
      "internet_access": "wlan",
      "phone": "(413)326-4151",
      "takeaway": "yes",
      "toilets": "yes",
      "addr_state": "MA",
      "addr_city": "Northampton",
      "addr_postcode": "01060",
      "addr_street": "Pleasant Street",
      "addr_housenumber": "125"
    },
    {
      "id": 149039,
      "geometry": "POINT (-71.949269 42.876449)",
      "poi_name": "Aesop's Tables",
      "osm_id": 3993674129,
      "amenity": "restaurant",
      "opening_hours": "Mo-Fr 07:00-16:00; Sa 09:00-16:00",
      "takeaway": "yes",
      "delivery": "no",
      "addr_state": "NH",
      "addr_city": "Peterborough",
      "addr_street": "Depot Square",
      "addr_housenumber": "12"
    },
    {
      "id": 149040,
      "geometry": "POINT (-71.949741 42.876284)",
      "poi_name": "Twelve Pine",
      "osm_id": 3993674130,
      "amenity": "restaurant",
      "cuisine": "coffee_shop",
      "opening_hours": "Mo-Fr 08:00-19:00; Sa 09:00-17:00; Su 09:00-16:00",
      "takeaway": "yes",
      "delivery": "no",
      "addr_state": "NH",
      "addr_city": "Peterborough",
      "addr_street": "School Street",
      "addr_housenumber": "11"
    },
    {
      "id": 136425,
      "geometry": "POINT (-72.481619 43.298803)",
      "poi_name": "Sheri's Place",
      "osm_id": 11583700845,
      "amenity": "restaurant",
      "opening_hours": "Mo,Sa,Su off; Tu-Th,Fr 17:00-20:00",
      "phone": "+1-802-885-4240",
      "takeaway": "yes",
      "addr_state": "VT",
      "addr_city": "Springfield",
      "addr_postcode": "05156",
      "addr_street": "Main Street",
      "addr_housenumber": "30"
    },
    {
      "id": 137666,
      "geometry": "POINT (-72.014976 42.233336)",
      "poi_name": "Subway",
      "osm_id": 6109420286,
      "amenity": "restaurant",
      "cuisine": "sandwich",
      "wheelchair": "yes",
      "opening_hours": "Mo-Sa 08:00-21:00; Su 09:00-21:00",
      "takeaway": "yes",
      "outdoor_seating": "no"
    },
    {
      "id": 140183,
      "geometry": "POINT (-71.476595 42.552221)",
      "poi_name": "Taka",
      "osm_id": 6235130389,
      "amenity": "restaurant",
      "cuisine": "asian;chinese;japanese",
      "opening_hours": "Mo-Th 11:30-22:00; Fr-Sa 11:30-23:00; Su 12:00-22:00",
      "website": "https://www.takalittleton.com/",
      "phone": "+1 978 339 5498",
      "takeaway": "yes",
      "addr_state": "MA",
      "addr_city": "Littleton",
      "addr_postcode": "01460",
      "addr_street": "Constitution Avenue",
      "addr_housenumber": "602"
    },
    {
      "id": 140968,
      "geometry": "POINT (-72.642945 42.106226)",
      "poi_name": "Village Pizza & Restaurant",
      "osm_id": 6268674664,
      "amenity": "restaurant",
      "cuisine": "pizza",
      "opening_hours": "We,Th,Su,Mo 11:00-10:00, Fr,Sa 11:00-11:00",
      "phone": "+1-413-739-3327",
      "takeaway": "yes",
      "outdoor_seating": "no",
      "delivery": "yes",
      "addr_state": "MA",
      "addr_city": "West Springfield",
      "addr_postcode": "01089",
      "addr_street": "Westfield Street",
      "addr_housenumber": "1164"
    },
    {
      "id": 147091,
      "geometry": "POINT (-72.608596 42.477488)",
      "poi_name": "Bueno Y Sano",
      "osm_id": 7504931064,
      "amenity": "restaurant",
      "cuisine": "mexican",
      "description": "Online ordering and app ordering available",
      "opening_hours": "Mo-Sa 11:00-20:00",
      "website": "https://buenoysano.com",
      "phone": "+1 413 665 4241",
      "takeaway": "yes",
      "addr_state": "MA",
      "addr_city": "South Deerfield",
      "addr_postcode": "01373",
      "addr_street": "Elm Street",
      "addr_housenumber": "3"
    },
    {
      "id": 147092,
      "geometry": "POINT (-72.608423 42.477488)",
      "poi_name": "Leo's Table",
      "osm_id": 7504931065,
      "amenity": "restaurant",
      "cuisine": "american;breakfast;lunch",
      "description": "Online ordering available",
      "website": "https://www.leostable.com",
      "phone": "+1 413 397 3095",
      "takeaway": "yes",
      "delivery": "yes",
      "addr_state": "MA",
      "addr_city": "South Deerfield",
      "addr_postcode": "01373",
      "addr_street": "North Main Street",
      "addr_housenumber": "55"
    },
    {
      "id": 147093,
      "geometry": "POINT (-72.608965 42.477553)",
      "poi_name": "Gianni Fig's Ristorante",
      "osm_id": 7504931075,
      "amenity": "restaurant",
      "cuisine": "italian",
      "website": "https://www.giannifigs.com",
      "phone": "+1 413 350 5940",
      "takeaway": "yes",
      "delivery": "yes",
      "addr_state": "MA",
      "addr_city": "South Deerfield",
      "addr_postcode": "01375",
      "addr_street": "Elm Street",
      "addr_housenumber": "6"
    },
    {
      "id": 148106,
      "geometry": "POINT (-73.236184 41.197563)",
      "poi_name": "Dragon 168",
      "osm_id": 3929357214,
      "amenity": "restaurant",
      "cuisine": "chinese",
      "takeaway": "yes"
    },
    {
      "id": 148108,
      "geometry": "POINT (-73.236324 41.197728)",
      "poi_name": "Maione's",
      "osm_id": 3929357217,
      "amenity": "restaurant",
      "cuisine": "italian",
      "phone": "+1 203 3723679",
      "takeaway": "yes"
    },
    {
      "id": 148279,
      "geometry": "POINT (-73.211093 41.172083)",
      "poi_name": "No.1 Restaurant Best Chinese Food Take Out",
      "osm_id": 3940925735,
      "amenity": "restaurant",
      "cuisine": "chinese",
      "takeaway": "yes",
      "addr_state": "CT",
      "addr_city": "Bridgeport",
      "addr_postcode": "06605",
      "addr_street": "Fairfield Avenue",
      "addr_housenumber": "1475"
    },
    {
      "id": 148939,
      "geometry": "POINT (-72.783301 41.546876)",
      "poi_name": "Ted's Restaurant Steamed Cheeseburgers",
      "osm_id": 3989381568,
      "amenity": "restaurant",
      "cuisine": "burger",
      "opening_hours": "Mo-We 11:00-21:00; Th-Sa 11:00-22:00; Su 11:00-21:00",
      "website": "https://www.tedsrestaurant.com/",
      "phone": "+1 203 2376660",
      "takeaway": "yes",
      "wikidata": "Q7692932",
      "addr_state": "CT",
      "addr_city": "Meriden",
      "addr_postcode": "06450",
      "addr_street": "Broad Street",
      "addr_housenumber": "1046"
    },
    {
      "id": 151981,
      "geometry": "POINT (-73.032346 41.24264)",
      "poi_name": "Hong Kong Chinese Food",
      "osm_id": 4121676524,
      "amenity": "restaurant",
      "cuisine": "chinese",
      "phone": "+1 203 8775901",
      "takeaway": "yes"
    },
    {
      "id": 151916,
      "geometry": "POINT (-73.05561 41.232691)",
      "poi_name": "Szechuan Wok",
      "osm_id": 4119567290,
      "amenity": "restaurant",
      "cuisine": "chinese",
      "phone": "+1 203 8779356",
      "takeaway": "yes"
    },
    {
      "id": 156120,
      "geometry": "POINT (-71.476509 42.551791)",
      "poi_name": "Masala Bay Indian Kitchen",
      "osm_id": 4640562031,
      "amenity": "restaurant",
      "cuisine": "indian",
      "wheelchair": "yes",
      "opening_hours": "11:30-15:00,17:00-22:00",
      "website": "https://www.masalabayik.com/",
      "phone": "+1 978 800 0059",
      "takeaway": "yes",
      "addr_state": "MA",
      "addr_city": "Littleton",
      "addr_postcode": "01460",
      "addr_street": "Constitution Avenue",
      "addr_housenumber": "501"
    },
    {
      "id": 152433,
      "geometry": "POINT (-73.125224 41.274637)",
      "poi_name": "DJ's Pizza",
      "osm_id": 4145041092,
      "amenity": "restaurant",
      "cuisine": "pizza",
      "phone": "+1 203 9266848",
      "takeaway": "yes"
    },
    {
      "id": 152666,
      "geometry": "POINT (-72.386816 43.479641)",
      "poi_name": "Windsor Pizza Chef",
      "osm_id": 4153928694,
      "amenity": "restaurant",
      "cuisine": "italian;pizza",
      "description": "Best pizza in the area",
      "opening_hours": "11:00-21:00",
      "capacity": "60",
      "takeaway": "yes",
      "delivery": "no",
      "addr_state": "VT",
      "addr_city": "Windsor",
      "addr_postcode": "05089",
      "addr_street": "Main Street",
      "addr_housenumber": "88"
    },
    {
      "id": 153093,
      "geometry": "POINT (-73.965777 41.502465)",
      "poi_name": "Harry's Hot Sandwiches",
      "osm_id": 4176536895,
      "amenity": "restaurant",
      "cuisine": "sandwich",
      "website": "http://harrysbeacon.com",
      "takeaway": "yes",
      "addr_state": "NY",
      "addr_city": "Beacon",
      "addr_postcode": "12508",
      "addr_street": "Main Street",
      "addr_housenumber": "449"
    },
    {
      "id": 155600,
      "geometry": "POINT (-72.138147 42.780448)",
      "poi_name": "Crossroads Pizza & Subs",
      "osm_id": 4291998282,
      "amenity": "restaurant",
      "cuisine": "pizza",
      "opening_hours": "Mo 15:00-21:00, Tu-Th 11:00-22:00, Fr-Sa 11:00-23:00, Su 11:00-21:00",
      "website": "http://www.crossroadspizzanh.com",
      "capacity": "50",
      "phone": "+1-603-585-7077",
      "takeaway": "yes",
      "delivery": "yes",
      "addr_state": "NH",
      "addr_city": "Fitzwilliam",
      "addr_postcode": "03447",
      "addr_street": "State Route 12",
      "addr_housenumber": "21"
    },
    {
      "id": 155974,
      "geometry": "POINT (-73.324789 42.036794)",
      "poi_name": "Stateline Pizza",
      "osm_id": 4636435549,
      "amenity": "restaurant",
      "cuisine": "pizza",
      "takeaway": "yes",
      "outdoor_seating": "no"
    },
    {
      "id": 155975,
      "geometry": "POINT (-73.329424 42.026764)",
      "poi_name": "Roma's Pizza",
      "osm_id": 4636435550,
      "amenity": "restaurant",
      "cuisine": "pizza",
      "takeaway": "yes",
      "outdoor_seating": "no",
      "delivery": "yes"
    },
    {
      "id": 155976,
      "geometry": "POINT (-73.329174 42.027506)",
      "poi_name": "Zia Maria",
      "osm_id": 4636435551,
      "amenity": "restaurant",
      "cuisine": "pizza",
      "takeaway": "yes",
      "outdoor_seating": "no"
    },
    {
      "id": 155980,
      "geometry": "POINT (-71.720307 42.276036)",
      "poi_name": "Buffalo Wild Wings",
      "osm_id": 4636469195,
      "amenity": "restaurant",
      "cuisine": "wings",
      "description": "BWW Shrewsbury",
      "opening_hours": "Mo-Su 11:00-02:00",
      "capacity": "328",
      "takeaway": "yes",
      "outdoor_seating": "yes",
      "delivery": "no",
      "addr_state": "MA",
      "addr_city": "Shrewsbury",
      "addr_postcode": "01545",
      "addr_street": "Boston Turnpike",
      "addr_housenumber": "476"
    },
    {
      "id": 156121,
      "geometry": "POINT (-71.478003 42.551643)",
      "poi_name": "Anthony\u2019s Coal Fired Pizza",
      "osm_id": 4640569917,
      "amenity": "restaurant",
      "cuisine": "pizza",
      "wheelchair": "yes",
      "opening_hours": "Mo-Th,Su 11:30-22:00; Fr-Sa 11:30-23:00",
      "website": "https://acfp.com/location/littleton",
      "phone": "+1 978 486 4124",
      "takeaway": "yes",
      "outdoor_seating": "yes",
      "addr_state": "MA",
      "addr_city": "Littleton",
      "addr_postcode": "01460",
      "addr_street": "Constitution Avenue",
      "addr_housenumber": "201"
    },
    {
      "id": 158299,
      "geometry": "POINT (-72.531688 42.372674)",
      "poi_name": "The Hangar",
      "osm_id": 4742321640,
      "amenity": "restaurant",
      "cuisine": "burger;wings;bar&grill",
      "website": "https://www.hangarpubandgrill.com/amherst-hangar",
      "takeaway": "yes",
      "addr_state": "MA",
      "addr_city": "Amherst",
      "addr_postcode": "01002",
      "addr_street": "University Drive",
      "addr_housenumber": "10"
    },
    {
      "id": 158355,
      "geometry": "POINT (-71.685394 43.047228)",
      "poi_name": "Stark House Tavern",
      "osm_id": 4744349788,
      "amenity": "restaurant",
      "opening_hours": "Su 08:00-22:00; Mo-We 11:30-22:00; Th-Fr 11:30-24:00; Sa 08:00-24:00",
      "phone": "+1-603-529-0901",
      "takeaway": "yes",
      "outdoor_seating": "yes",
      "delivery": "yes",
      "addr_state": "NH",
      "addr_city": "Weare",
      "addr_postcode": "03281",
      "addr_street": "South Stark Highway",
      "addr_housenumber": "487"
    },
    {
      "id": 158383,
      "geometry": "POINT (-72.146029 41.868908)",
      "poi_name": "Midway Restaurant & Pizza",
      "osm_id": 4745754240,
      "amenity": "restaurant",
      "takeaway": "yes",
      "addr_state": "CT",
      "addr_city": "Ashford",
      "addr_postcode": "06278",
      "addr_street": "Ashford Center Road",
      "addr_housenumber": "174"
    },
    {
      "id": 158387,
      "geometry": "POINT (-72.539523 42.364066)",
      "poi_name": "Chili's",
      "osm_id": 4745858228,
      "amenity": "restaurant",
      "cuisine": "tex-mex",
      "takeaway": "yes",
      "official_name": "Chili's Grill & Bar",
      "outdoor_seating": "no",
      "delivery": "no",
      "addr_state": "MA",
      "addr_city": "Hadley",
      "addr_postcode": "01035",
      "addr_street": "Russell Street",
      "addr_housenumber": "426"
    },
    {
      "id": 159976,
      "geometry": "POINT (-72.854245 41.872916)",
      "poi_name": "Oishi",
      "osm_id": 4812592181,
      "amenity": "restaurant",
      "cuisine": "japanese",
      "website": "http://www.oishijapanesewestsimsbury.com/",
      "takeaway": "yes"
    },
    {
      "id": 158739,
      "geometry": "POINT (-74.346812 43.052503)",
      "poi_name": "New Peking",
      "osm_id": 4760619741,
      "amenity": "restaurant",
      "cuisine": "chinese",
      "phone": "+1(518)725-0338",
      "takeaway": "yes",
      "addr_state": "NY",
      "addr_city": "Gloversville",
      "addr_postcode": "12078",
      "addr_street": "Church Street",
      "addr_housenumber": "40"
    },
    {
      "id": 160115,
      "geometry": "POINT (-72.662109 41.706228)",
      "poi_name": "Vito's Pizzaria",
      "osm_id": 4820407136,
      "amenity": "restaurant",
      "cuisine": "pizza",
      "wheelchair": "no",
      "opening_hours": "Mo-Tu 11:00-21:00; We-Sa 11:00-22:00; Su 00:00-21:00",
      "website": "https://www.vitosct.com",
      "phone": "+1 860 563 3333",
      "takeaway": "yes",
      "outdoor_seating": "no",
      "delivery": "yes",
      "addr_state": "CT",
      "addr_city": "Wethersfield",
      "addr_postcode": "06109",
      "addr_street": "Silas Deane Highway",
      "addr_housenumber": "673"
    },
    {
      "id": 162882,
      "geometry": "POINT (-72.653046 41.712645)",
      "poi_name": "Village Pizza",
      "osm_id": 9387787574,
      "amenity": "restaurant",
      "cuisine": "pizza;greek",
      "wheelchair": "yes",
      "website": "https://villagepizzact.com",
      "phone": "+1 860 563 1513",
      "takeaway": "yes",
      "outdoor_seating": "yes",
      "addr_state": "CT",
      "addr_city": "Wethersfield",
      "addr_postcode": "06109",
      "addr_street": "Main Street",
      "addr_housenumber": "233"
    },
    {
      "id": 162225,
      "geometry": "POINT (-73.991172 43.685992)",
      "poi_name": "becks TAVERN",
      "osm_id": 4921612296,
      "amenity": "restaurant",
      "cuisine": "german;american",
      "wheelchair": "yes",
      "opening_hours": "Th-Su 16:00-22:00",
      "website": "www.beckstavern.com",
      "capacity": "100",
      "phone": "5182515100",
      "takeaway": "yes",
      "outdoor_seating": "no",
      "delivery": "no",
      "addr_state": "NY",
      "addr_city": "North Creek",
      "addr_postcode": "12853",
      "addr_street": "Peaceful Valley Road",
      "addr_housenumber": "881"
    },
    {
      "id": 184693,
      "geometry": "POINT (-72.612669 41.716499)",
      "poi_name": "Angelos Restaurant",
      "osm_id": 7807321318,
      "amenity": "restaurant",
      "cuisine": "pizza",
      "website": "https://www.angelospizzact.com",
      "phone": "+1 860 657 4401",
      "takeaway": "yes",
      "addr_state": "CT",
      "addr_city": "Glastonbury",
      "addr_postcode": "06033",
      "addr_street": "Main Street",
      "addr_housenumber": "2705"
    },
    {
      "id": 168188,
      "geometry": "POINT (-72.614063 41.721884)",
      "poi_name": "Bertucci's",
      "osm_id": 367126661,
      "amenity": "restaurant",
      "cuisine": "pizza;italian",
      "website": "https://locations.bertuccis.com/us/ct/glastonbury/2882-main-street",
      "phone": "+1 860 633 2225",
      "takeaway": "yes",
      "addr_state": "CT",
      "addr_city": "Glastonbury",
      "addr_postcode": "06033",
      "addr_street": "Main Street",
      "addr_housenumber": "2882"
    },
    {
      "id": 168484,
      "geometry": "POINT (-73.646243 43.311758)",
      "poi_name": "Siam Thai Sushi",
      "osm_id": 2262093752,
      "amenity": "restaurant",
      "cuisine": "thai",
      "wheelchair": "yes",
      "opening_hours": "Tu-Sa 11:30-21:00; Su 16:00-21:00",
      "website": "http://www.siamthaisushi.com/",
      "internet_access": "wlan",
      "phone": "+1 518 792 6111",
      "takeaway": "yes",
      "outdoor_seating": "no",
      "delivery": "yes",
      "addr_state": "NY",
      "addr_city": "Glens Falls",
      "addr_postcode": "12801",
      "addr_street": "Maple Street",
      "addr_housenumber": "14"
    },
    {
      "id": 168496,
      "geometry": "POINT (-73.772268 43.09595)",
      "poi_name": "Triangle Diner",
      "osm_id": 2262723704,
      "amenity": "restaurant",
      "cuisine": "american",
      "wheelchair": "yes",
      "internet_access": "no",
      "takeaway": "yes",
      "outdoor_seating": "no",
      "delivery": "no",
      "addr_city": "Saratoga+Springs",
      "addr_postcode": "12866",
      "addr_street": "Maple Avenue",
      "addr_housenumber": "400"
    },
    {
      "id": 168502,
      "geometry": "POINT (-73.809893 42.745868)",
      "poi_name": "Silk's Saratoga Bistro",
      "osm_id": 2263296238,
      "amenity": "restaurant",
      "cuisine": "american",
      "wheelchair": "yes",
      "internet_access": "wlan",
      "takeaway": "yes",
      "outdoor_seating": "no",
      "delivery": "no",
      "addr_city": "Albany"
    },
    {
      "id": 173502,
      "geometry": "POINT (-72.924025 41.30566)",
      "poi_name": "Tikkaway",
      "osm_id": 2441442797,
      "amenity": "restaurant",
      "cuisine": "indian",
      "opening_hours": "Mo-Fr 11:30-22:00; Sa,Su 12:00-20:00",
      "website": "https://www.tikkaway.com/",
      "takeaway": "yes",
      "addr_state": "CT",
      "addr_city": "New Haven",
      "addr_postcode": "06510",
      "addr_street": "Orange Street",
      "addr_housenumber": "135"
    },
    {
      "id": 179416,
      "geometry": "POINT (-71.47389 42.476022)",
      "poi_name": "DiCapri Pizzeria",
      "osm_id": 10762052105,
      "amenity": "restaurant",
      "cuisine": "pizza",
      "opening_hours": "Mo-Sa 11:00-21:00",
      "website": "https://www.dicapripizza.com/",
      "phone": "+1-978-263-4700",
      "takeaway": "yes",
      "outdoor_seating": "yes",
      "delivery": "yes",
      "addr_state": "MA",
      "addr_city": "Acton",
      "addr_postcode": "01720",
      "addr_street": "Massachusetts Avenue",
      "addr_housenumber": "576"
    },
    {
      "id": 184637,
      "geometry": "POINT (-72.607788 41.712785)",
      "poi_name": "Noodles & Company",
      "osm_id": 7802360331,
      "amenity": "restaurant",
      "cuisine": "pasta",
      "wheelchair": "yes",
      "opening_hours": "Su-Th 11:00-21:00; Fr,Sa 11:00-22:00",
      "website": "https://locations.noodles.com/ct/glastonbury/41-hebron-avenue.html",
      "internet_access": "wlan",
      "phone": "+1 860 430 6888",
      "takeaway": "yes",
      "outdoor_seating": "yes",
      "delivery": "yes",
      "addr_state": "CT",
      "addr_city": "Glastonbury",
      "addr_postcode": "06033",
      "addr_street": "Hebron Avenue",
      "addr_housenumber": "41"
    },
    {
      "id": 184638,
      "geometry": "POINT (-72.607085 41.712945)",
      "poi_name": "Bin228",
      "osm_id": 7802360333,
      "amenity": "restaurant",
      "website": "https://thebin228.com/",
      "phone": "+1 860 430 9699",
      "takeaway": "yes",
      "outdoor_seating": "yes",
      "addr_state": "CT",
      "addr_city": "Glastonbury",
      "addr_postcode": "06033",
      "addr_street": "Hebron Avenue",
      "addr_housenumber": "63"
    },
    {
      "id": 184640,
      "geometry": "POINT (-72.606538 41.712972)",
      "poi_name": "Giovanni's Brick Oven Pizzaria",
      "osm_id": 7802387345,
      "amenity": "restaurant",
      "cuisine": "pizza",
      "website": "https://giovannisbrickovenpizzeria.wordpress.com",
      "phone": "+1 860 633 0041",
      "takeaway": "yes",
      "outdoor_seating": "yes",
      "addr_state": "CT",
      "addr_city": "Glastonbury",
      "addr_postcode": "06033",
      "addr_street": "Hebron Avenue",
      "addr_housenumber": "113"
    },
    {
      "id": 163469,
      "geometry": "POINT (-73.824602 42.676682)",
      "poi_name": "DC\u2019s Pizza",
      "osm_id": 9420861935,
      "amenity": "restaurant",
      "cuisine": "pizza",
      "opening_hours": "Mo, Tu 11:00-20:00; We-Fr 09:00-21:00; Sa, Su 11:00-21:00",
      "website": "https://www.dcspizza.com",
      "phone": "+1 518-482-1392",
      "takeaway": "yes",
      "outdoor_seating": "yes",
      "addr_state": "NY",
      "addr_city": "Albany",
      "addr_postcode": "12203",
      "addr_street": "Western Avenue",
      "addr_housenumber": "1182"
    },
    {
      "id": 168531,
      "geometry": "POINT (-73.256242 41.18415)",
      "poi_name": "Chili Bomb",
      "osm_id": 2266420365,
      "amenity": "restaurant",
      "cuisine": "chili",
      "opening_hours": "Mo-Sa 11:00-21:00; Su 11:00-19:00",
      "website": "http://chilibomb.com",
      "phone": "+1 203 3722662",
      "takeaway": "yes",
      "addr_state": "CT",
      "addr_city": "Fairfield",
      "addr_postcode": "06824",
      "addr_street": "Black Rock Turnpike",
      "addr_housenumber": "2445"
    },
    {
      "id": 168532,
      "geometry": "POINT (-73.256273 41.184203)",
      "poi_name": "Whoopi",
      "osm_id": 2266420403,
      "amenity": "restaurant",
      "cuisine": "thai",
      "opening_hours": "Mo-Th 11:30-21:30; Fr-Sa 11:30-22:00; Su 11:30-21:30",
      "website": "https://www.whoopithaicuisine.com/",
      "takeaway": "yes",
      "addr_state": "CT",
      "addr_city": "Fairfield",
      "addr_postcode": "06824",
      "addr_street": "Black Rock Turnpike",
      "addr_housenumber": "2449"
    },
    {
      "id": 172536,
      "geometry": "POINT (-72.617888 42.10717)",
      "poi_name": "Mamma Mia Pizza",
      "osm_id": 2405699593,
      "amenity": "restaurant",
      "cuisine": "pizza",
      "website": "https://www.mammamiaspizzama.com/",
      "phone": "+1 413 732 0400",
      "takeaway": "yes",
      "outdoor_seating": "no",
      "delivery": "yes",
      "addr_state": "MA",
      "addr_city": "West Springfield",
      "addr_postcode": "01089",
      "addr_street": "Park Street",
      "addr_housenumber": "60"
    },
    {
      "id": 184823,
      "geometry": "POINT (-72.614041 41.721788)",
      "poi_name": "Hot Table",
      "osm_id": 7816250465,
      "amenity": "restaurant",
      "cuisine": "sandwich",
      "website": "https://hottable.com/locations",
      "phone": "+1 860 430 2300",
      "takeaway": "yes",
      "outdoor_seating": "no",
      "addr_state": "CT",
      "addr_city": "Glastonbury",
      "addr_postcode": "06033",
      "addr_street": "Main Street",
      "addr_housenumber": "2876"
    },
    {
      "id": 184824,
      "geometry": "POINT (-72.614011 41.72166)",
      "poi_name": "MexiPho",
      "osm_id": 7816250467,
      "amenity": "restaurant",
      "cuisine": "mexican;vietnamese",
      "website": "https://www.mexipho.com",
      "phone": "+1 860 633 2198",
      "takeaway": "yes",
      "outdoor_seating": "no",
      "addr_state": "CT",
      "addr_city": "Glastonbury",
      "addr_postcode": "06033",
      "addr_street": "Main Street",
      "addr_housenumber": "2872"
    },
    {
      "id": 184825,
      "geometry": "POINT (-72.613858 41.721156)",
      "poi_name": "Gourmet Wok",
      "osm_id": 7816250470,
      "amenity": "restaurant",
      "cuisine": "chinese",
      "website": "https://www.gourmetwokglastonburyct.com",
      "phone": "+1 860 659 9922",
      "takeaway": "yes",
      "outdoor_seating": "no",
      "addr_state": "CT",
      "addr_city": "Glastonbury",
      "addr_postcode": "06033",
      "addr_street": "Main Street",
      "addr_housenumber": "2856"
    },
    {
      "id": 184827,
      "geometry": "POINT (-72.613956 41.721038)",
      "poi_name": "Tisumi Sushi",
      "osm_id": 7816250473,
      "amenity": "restaurant",
      "cuisine": "sushi",
      "website": "https://www.tisumisushict.com",
      "phone": "+1 860 430 2826",
      "takeaway": "yes",
      "addr_state": "CT",
      "addr_city": "Glastonbury",
      "addr_postcode": "06033",
      "addr_street": "Main Street",
      "addr_housenumber": "2850"
    },
    {
      "id": 184948,
      "geometry": "POINT (-72.525324 41.713917)",
      "poi_name": "Birch Hill Tavern",
      "osm_id": 7821690838,
      "amenity": "restaurant",
      "website": "https://www.birchhilltavern.com",
      "phone": "+1 860 430 5550",
      "takeaway": "yes",
      "outdoor_seating": "no",
      "addr_state": "CT",
      "addr_city": "Glastonbury",
      "addr_postcode": "06033",
      "addr_street": "Manchester Road",
      "addr_housenumber": "1320"
    },
    {
      "id": 193121,
      "geometry": "POINT (-71.74746 42.238997)",
      "poi_name": "Food Works",
      "osm_id": 1499173953,
      "amenity": "restaurant",
      "cuisine": "chinese",
      "takeaway": "yes"
    },
    {
      "id": 187792,
      "geometry": "POINT (-71.786814 42.26546)",
      "poi_name": "Meze Estiatorio",
      "osm_id": 1104044576,
      "amenity": "restaurant",
      "cuisine": "greek;mediterranean;wine",
      "website": "https://www.mezeestiatorio.com",
      "capacity": "120",
      "internet_access": "wlan",
      "phone": "+1 508-556-4242",
      "takeaway": "yes",
      "outdoor_seating": "yes",
      "addr_state": "MA",
      "addr_city": "Worcester",
      "addr_postcode": "01604",
      "addr_street": "Shrewsbury Street",
      "addr_housenumber": "166"
    },
    {
      "id": 192578,
      "geometry": "POINT (-72.633436 42.317913)",
      "poi_name": "Mama Iguana's",
      "osm_id": 1459218338,
      "amenity": "restaurant",
      "cuisine": "mexican",
      "wheelchair": "yes",
      "opening_hours": "Su-Th 16:00-22:00; Fr-Sa 16:00-22:30",
      "website": "https://www.spoletorestaurants.com/mama_iguanas/mama_iguanas.html",
      "phone": "+1 (413) 586-0400",
      "takeaway": "yes",
      "outdoor_seating": "yes",
      "addr_state": "MA",
      "addr_city": "Northampton",
      "addr_postcode": "01060",
      "addr_street": "Main Street",
      "addr_housenumber": "274"
    },
    {
      "id": 192579,
      "geometry": "POINT (-72.633216 42.317918)",
      "poi_name": "Noodles",
      "osm_id": 1459218339,
      "amenity": "restaurant",
      "cuisine": "asian",
      "opening_hours": "Mo 11:30-20:30; We-Sa 11:30-20:30; Su 12:00-20:30",
      "website": "https://www.noodlesnorthampton.com/",
      "phone": "+1 413-587-4070",
      "takeaway": "yes",
      "outdoor_seating": "yes",
      "addr_state": "MA",
      "addr_city": "Northampton",
      "addr_postcode": "01060",
      "addr_street": "Main Street",
      "addr_housenumber": "257"
    },
    {
      "id": 185020,
      "geometry": "POINT (-72.602789 41.665883)",
      "poi_name": "Char Koon",
      "osm_id": 7827910764,
      "amenity": "restaurant",
      "cuisine": "chinese",
      "website": "https://www.charkoon.com",
      "phone": "+1 860 657 3656",
      "takeaway": "yes",
      "addr_state": "CT",
      "addr_city": "Glastonbury",
      "addr_postcode": "06073",
      "addr_street": "Main Street",
      "addr_housenumber": "882"
    },
    {
      "id": 195120,
      "geometry": "POINT (-72.202872 41.712694)",
      "poi_name": "Tacos La Rosa",
      "osm_id": 10295234411,
      "amenity": "restaurant",
      "cuisine": "mexican",
      "phone": "+1 860-450-0380",
      "takeaway": "yes",
      "outdoor_seating": "no"
    },
    {
      "id": 193559,
      "geometry": "POINT (-73.765505 42.861344)",
      "poi_name": "Saigon Spring",
      "osm_id": 1545348708,
      "amenity": "restaurant",
      "cuisine": "vietnamese",
      "opening_hours": "Tu-Su 11:00-15:00,16:00-21:00, Fr,Sa 21:00-22:00",
      "website": "http://www.saigonspring.com/",
      "capacity": "75",
      "phone": "+1 518 982 0425",
      "takeaway": "yes",
      "addr_city": "Clifton Park",
      "addr_street": "Route 9",
      "addr_housenumber": "1683"
    },
    {
      "id": 193819,
      "geometry": "POINT (-73.110684 42.69589)",
      "poi_name": "Angelina's Subs",
      "osm_id": 1563323698,
      "amenity": "restaurant",
      "cuisine": "sandwich",
      "wheelchair": "limited",
      "phone": "+1 (413) 664-0315",
      "takeaway": "yes",
      "outdoor_seating": "no",
      "delivery": "no",
      "toilets": "yes",
      "addr_postcode": "01247",
      "addr_street": "American Legion Drive",
      "addr_housenumber": "152"
    },
    {
      "id": 193835,
      "geometry": "POINT (-72.629006 42.320206)",
      "poi_name": "Fitzwilly's",
      "osm_id": 1563794965,
      "amenity": "restaurant",
      "cuisine": "burger;sandwich;american",
      "opening_hours": "Mo-Su 11:30-21:00",
      "website": "https://www.fitzwillys.com",
      "phone": "+1 (413) 584-8666",
      "takeaway": "yes",
      "outdoor_seating": "no",
      "addr_state": "MA",
      "addr_city": "Northampton",
      "addr_postcode": "01060",
      "addr_street": "Main Street",
      "addr_housenumber": "23"
    },
    {
      "id": 210045,
      "geometry": "POINT (-71.722102 43.07322)",
      "poi_name": "Dimitri's Pizza & Restaurant",
      "osm_id": 5073868140,
      "amenity": "restaurant",
      "cuisine": "pizza;fried_chicken;sandwich",
      "opening_hours": "Mo-Su 11:00-20:30",
      "website": "https://dimitrispizza.webs.com/",
      "phone": "+1-603-529-4300",
      "takeaway": "yes",
      "delivery": "no",
      "addr_state": "NH",
      "addr_city": "Weare",
      "addr_postcode": "03281",
      "addr_street": "South Stark Highway",
      "addr_housenumber": "1111"
    },
    {
      "id": 196645,
      "geometry": "POINT (-73.914503 41.613447)",
      "poi_name": "Joe Willy's Seafood House",
      "osm_id": 10589678531,
      "amenity": "restaurant",
      "cuisine": "seafood",
      "opening_hours": "Tu-Sa 16:00-21:30, Su 16:00-20:30",
      "website": "https://www.joewillysfishshack.com/",
      "phone": "+1-845-765-0234",
      "takeaway": "yes",
      "addr_state": "NY",
      "addr_city": "Wappingers Falls",
      "addr_postcode": "12590",
      "addr_street": "South Road",
      "addr_housenumber": "1817"
    },
    {
      "id": 199956,
      "geometry": "POINT (-73.813066 42.717365)",
      "poi_name": "Legends Pizza",
      "osm_id": 998867681,
      "amenity": "restaurant",
      "cuisine": "pizza",
      "wheelchair": "yes",
      "opening_hours": "Mo, Tu, We, Th 10:00 - 24:00; Fr, Sa 10:00 - 25:00; Su 10:00 -24:00",
      "website": "www.LegendsPizza.Plus",
      "phone": "+1-518-992-1111",
      "takeaway": "yes",
      "outdoor_seating": "yes",
      "delivery": "yes",
      "toilets": "yes",
      "addr_state": "NY",
      "addr_city": "Albany",
      "addr_postcode": "12205",
      "addr_street": "Wolf Road",
      "addr_housenumber": "96"
    },
    {
      "id": 210079,
      "geometry": "POINT (-71.713751 43.056088)",
      "poi_name": "Generals Sports Bar and Grill",
      "osm_id": 5077381045,
      "amenity": "restaurant",
      "cuisine": "american;regional",
      "opening_hours": "Mo,Tu 15:00-21:00; We 11:00-21:00; Th,Fr 11:00-22:00; Sa 07:00-22:00; Su 07:00-21:00",
      "website": "http://generalsbargrill.comcastbiz.net/",
      "phone": "+1-603-529-3663",
      "takeaway": "yes",
      "outdoor_seating": "yes",
      "addr_state": "NH",
      "addr_city": "Weare",
      "addr_postcode": "03281",
      "addr_street": "South Stark Highway",
      "addr_housenumber": "840"
    },
    {
      "id": 221480,
      "geometry": "POINT (-73.865339 42.690175)",
      "poi_name": "Tara Kitchen",
      "osm_id": 10979446854,
      "amenity": "restaurant",
      "cuisine": "moroccan;mediterranean",
      "opening_hours": "Mo off; Tu-Fr 11:30-14:30,17:00-20:00; Sa-Su 17:00-20:00",
      "website": "https://www.tarakitchen.com/",
      "phone": "518-708-3485",
      "takeaway": "yes",
      "delivery": "yes",
      "addr_state": "NY",
      "addr_city": "Guilderland",
      "addr_postcode": "12203",
      "addr_street": "Western Avenue",
      "addr_housenumber": "1785"
    },
    {
      "id": 210345,
      "geometry": "POINT (-72.620656 43.58692)",
      "poi_name": "Ramuntos",
      "osm_id": 5098401246,
      "amenity": "restaurant",
      "cuisine": "pizza",
      "takeaway": "yes",
      "outdoor_seating": "yes"
    },
    {
      "id": 211016,
      "geometry": "POINT (-72.837866 41.276061)",
      "poi_name": "Da' Carmine Pizzeria & Restaurant",
      "osm_id": 5136291079,
      "amenity": "restaurant",
      "cuisine": "pizza",
      "takeaway": "yes"
    },
    {
      "id": 211446,
      "geometry": "POINT (-71.597412 42.393232)",
      "poi_name": "110 Grill",
      "osm_id": 5157644851,
      "amenity": "restaurant",
      "cuisine": "american",
      "takeaway": "yes",
      "outdoor_seating": "yes",
      "delivery": "no",
      "addr_state": "MA",
      "addr_city": "Berlin",
      "addr_postcode": "01503",
      "addr_street": "Highland Commons East",
      "addr_housenumber": "60"
    },
    {
      "id": 220394,
      "geometry": "POINT (-73.062921 41.551852)",
      "poi_name": "Muyri Indian Bistro",
      "osm_id": 9371247122,
      "amenity": "restaurant",
      "cuisine": "indian",
      "takeaway": "yes",
      "delivery": "yes"
    },
    {
      "id": 210768,
      "geometry": "POINT (-71.432175 42.522882)",
      "poi_name": "Mayuri",
      "osm_id": 5120259932,
      "amenity": "restaurant",
      "cuisine": "indian",
      "wheelchair": "yes",
      "takeaway": "yes"
    },
    {
      "id": 225659,
      "geometry": "POINT (-73.112055 42.699236)",
      "poi_name": "Ramunto's Pizza",
      "osm_id": 11136726008,
      "amenity": "restaurant",
      "cuisine": "pizza",
      "wheelchair": "yes",
      "takeaway": "yes",
      "toilets": "yes"
    },
    {
      "id": 230083,
      "geometry": "POINT (-74.010634 41.444001)",
      "poi_name": "Village Pizzeria & Restaurant",
      "osm_id": 4413702412,
      "amenity": "restaurant",
      "cuisine": "pizza",
      "takeaway": "yes",
      "delivery": "yes"
    },
    {
      "id": 229574,
      "geometry": "POINT (-74.188362 42.972624)",
      "poi_name": "Pizza Hut",
      "osm_id": 4387031896,
      "amenity": "restaurant",
      "cuisine": "pizza",
      "opening_hours": "11:00-22:00",
      "takeaway": "yes",
      "addr_state": "NY",
      "addr_city": "Amsterdam",
      "addr_postcode": "12010",
      "addr_street": "NY-30",
      "addr_housenumber": "4822"
    },
    {
      "id": 230236,
      "geometry": "POINT (-72.558665 42.871886)",
      "poi_name": "Top of the Hill Grill",
      "osm_id": 4418911290,
      "amenity": "restaurant",
      "cuisine": "american",
      "wheelchair": "yes",
      "capacity": "75",
      "takeaway": "yes",
      "outdoor_seating": "yes",
      "delivery": "no"
    },
    {
      "id": 233163,
      "geometry": "POINT (-73.918326 41.622166)",
      "poi_name": "Tilted Kilt Pub & Eatery",
      "osm_id": 4560175774,
      "amenity": "restaurant",
      "cuisine": "american",
      "takeaway": "yes",
      "addr_state": "NY",
      "addr_city": "Poughkeepsie",
      "addr_postcode": "12601",
      "addr_street": "South Road",
      "addr_housenumber": "1955"
    },
    {
      "id": 231191,
      "geometry": "POINT (-73.90894 42.05868)",
      "poi_name": "The Corner",
      "osm_id": 4459657087,
      "amenity": "restaurant",
      "cuisine": "american;international;mediterranean;local",
      "phone": "8457572100",
      "takeaway": "yes",
      "outdoor_seating": "yes",
      "delivery": "no",
      "addr_state": "NY",
      "addr_city": "Tivoli",
      "addr_postcode": "12583",
      "addr_street": "Broadway",
      "addr_housenumber": "53"
    },
    {
      "id": 231509,
      "geometry": "POINT (-72.27792 42.93275)",
      "poi_name": "Taqueria Odelay",
      "osm_id": 4470458845,
      "amenity": "restaurant",
      "opening_hours": "11:00-21:00",
      "takeaway": "yes",
      "delivery": "no",
      "addr_state": "NH",
      "addr_city": "Keene",
      "addr_postcode": "03431",
      "addr_street": "Main Street",
      "addr_housenumber": "44"
    },
    {
      "id": 236145,
      "geometry": "POINT (-73.266686 41.361542)",
      "poi_name": "Burrito Shack",
      "osm_id": 5782248269,
      "amenity": "restaurant",
      "cuisine": "mexican",
      "opening_hours": "Mo-Fr 11:00-20:00; Sa,Su 12:00-19:00",
      "capacity": "30",
      "phone": "+1 203 491 2328",
      "takeaway": "yes",
      "outdoor_seating": "yes",
      "delivery": "yes",
      "addr_state": "CT",
      "addr_city": "Newtown",
      "addr_postcode": "06470",
      "addr_street": "South Main Street",
      "addr_housenumber": "314"
    },
    {
      "id": 233338,
      "geometry": "POINT (-74.00321 41.55924)",
      "poi_name": "Mary Jane's Dairy Bar",
      "osm_id": 4568953429,
      "amenity": "restaurant",
      "cuisine": "ice_cream",
      "takeaway": "yes",
      "delivery": "no"
    },
    {
      "id": 234137,
      "geometry": "POINT (-71.982343 43.412788)",
      "poi_name": "Pizza Chef",
      "osm_id": 4607161881,
      "amenity": "restaurant",
      "cuisine": "pizza",
      "opening_hours": "Su-Th 11:00-21:00; Fr-Sa 11:00-22:00",
      "website": "https://pizzachef.com/new-london-nh-pizza/",
      "phone": "+1-603-526-9201",
      "takeaway": "yes",
      "outdoor_seating": "yes",
      "addr_state": "NH",
      "addr_city": "New London",
      "addr_postcode": "03257",
      "addr_street": "Main Street",
      "addr_housenumber": "394"
    },
    {
      "id": 234298,
      "geometry": "POINT (-72.674927 41.768695)",
      "poi_name": "Vito's To Go",
      "osm_id": 4615204374,
      "amenity": "restaurant",
      "cuisine": "italian",
      "takeaway": "yes",
      "addr_state": "CT",
      "addr_city": "Hartford",
      "addr_postcode": "06103",
      "addr_street": "Trumbull Street",
      "addr_housenumber": "280"
    },
    {
      "id": 234300,
      "geometry": "POINT (-72.674438 41.767637)",
      "poi_name": "Sunberry",
      "osm_id": 4615218245,
      "amenity": "restaurant",
      "cuisine": "italian",
      "takeaway": "yes",
      "outdoor_seating": "yes",
      "addr_state": "CT",
      "addr_city": "Hartford",
      "addr_postcode": "06103",
      "addr_street": "Pratt Street",
      "addr_housenumber": "65"
    },
    {
      "id": 234680,
      "geometry": "POINT (-73.758889 42.654644)",
      "poi_name": "Better Bite",
      "osm_id": 4631402909,
      "amenity": "restaurant",
      "cuisine": "american",
      "website": "http://abetterbitealbany.com",
      "phone": "518-694-4400",
      "takeaway": "yes",
      "addr_state": "NY",
      "addr_city": "Albany",
      "addr_postcode": "12210",
      "addr_street": "Washington Avenue",
      "addr_housenumber": "99"
    },
    {
      "id": 236146,
      "geometry": "POINT (-73.266451 41.360941)",
      "poi_name": "Kolam",
      "osm_id": 5782248272,
      "amenity": "restaurant",
      "cuisine": "indian",
      "opening_hours": "Mo-Fr 11:30-14:30, Mo-Fr 17:00-22:00, Sa-Su 12:00-15:00, Sa-Su 17:00-22:00",
      "website": "http://www.coromandelcuisine.com/newtownmenu/",
      "capacity": "50",
      "phone": "(203) 426 7143",
      "takeaway": "yes",
      "outdoor_seating": "no",
      "addr_state": "CT",
      "addr_city": "Newtown",
      "addr_postcode": "06470",
      "addr_street": "South Main Street",
      "addr_housenumber": "316"
    },
    {
      "id": 236852,
      "geometry": "POINT (-72.921955 41.311792)",
      "poi_name": "Pokemoto",
      "osm_id": 5809271216,
      "amenity": "restaurant",
      "cuisine": "hawaiian;poke",
      "takeaway": "yes"
    },
    {
      "id": 236965,
      "geometry": "POINT (-72.671461 41.762723)",
      "poi_name": "Bear's Smokehouse BBQ",
      "osm_id": 5813556953,
      "amenity": "restaurant",
      "website": "https://www.bearsbbq.com/hartford",
      "takeaway": "yes",
      "outdoor_seating": "no",
      "addr_state": "CT",
      "addr_city": "Hartford",
      "addr_postcode": "06103",
      "addr_street": "Front Street",
      "addr_housenumber": "25"
    },
    {
      "id": 239025,
      "geometry": "POINT (-71.453032 42.432144)",
      "poi_name": "PizzaExpress",
      "osm_id": 5901903044,
      "amenity": "restaurant",
      "cuisine": "pizza",
      "website": "http://pizzaexpressmaynard.com",
      "takeaway": "yes",
      "addr_state": "MA",
      "addr_city": "Maynard",
      "addr_postcode": "01754",
      "addr_street": "Main Street",
      "addr_housenumber": "62"
    },
    {
      "id": 237050,
      "geometry": "POINT (-72.519152 42.376101)",
      "poi_name": "Ricelicious",
      "osm_id": 5816753723,
      "amenity": "restaurant",
      "cuisine": "asian",
      "website": "https://www.ricelicious21.com/",
      "phone": "+1 413 230 3465",
      "takeaway": "yes",
      "delivery": "yes",
      "addr_state": "MA",
      "addr_city": "Amherst",
      "addr_postcode": "01002",
      "addr_street": "Boltwood Walk",
      "addr_housenumber": "31"
    },
    {
      "id": 238367,
      "geometry": "POINT (-74.307203 42.062547)",
      "poi_name": "Phoenicia Pizza 28",
      "osm_id": 5874402975,
      "amenity": "restaurant",
      "cuisine": "pizza",
      "opening_hours": "Mo-Th 11:00-19:00; Fr-Sa 11:00-20:00; Su 11:00-19:00",
      "phone": "+1-845-688-2033",
      "takeaway": "yes",
      "outdoor_seating": "yes",
      "addr_city": "Phoenicia",
      "addr_postcode": "12464",
      "addr_street": "Route 28",
      "addr_housenumber": "5575"
    },
    {
      "id": 242879,
      "geometry": "POINT (-72.649815 41.561105)",
      "poi_name": "Shah's Halal Food",
      "osm_id": 7605803253,
      "amenity": "restaurant",
      "cuisine": "middle_eastern",
      "wheelchair": "yes",
      "opening_hours": "Sa-We 10:00-24:00; Th-Fr 10:00-03:00",
      "website": "https://shahshalalfood.com/",
      "phone": "+18603589153",
      "takeaway": "yes",
      "outdoor_seating": "yes",
      "addr_state": "CT",
      "addr_city": "Middletown",
      "addr_postcode": "06457",
      "addr_street": "Main Street",
      "addr_housenumber": "344"
    },
    {
      "id": 240291,
      "geometry": "POINT (-73.802628 41.188439)",
      "poi_name": "Pizza 238",
      "osm_id": 5965305786,
      "amenity": "restaurant",
      "cuisine": "pizza",
      "website": "https://pizza238millwood.com",
      "phone": "+1 914 941 5300",
      "takeaway": "yes",
      "outdoor_seating": "yes",
      "delivery": "yes",
      "addr_state": "NY",
      "addr_city": "Millwood",
      "addr_postcode": "10546",
      "addr_street": "Saw Mill River Road",
      "addr_housenumber": "238"
    },
    {
      "id": 241557,
      "geometry": "POINT (-73.030978 41.580631)",
      "poi_name": "Pizza Hut",
      "osm_id": 6029587568,
      "amenity": "restaurant",
      "cuisine": "pizza",
      "takeaway": "yes"
    },
    {
      "id": 244555,
      "geometry": "POINT (-73.113548 42.699842)",
      "poi_name": "Tres Ni\u00f1os Taqueria",
      "osm_id": 7729331929,
      "amenity": "restaurant",
      "cuisine": "burrito",
      "wheelchair": "yes",
      "phone": "+1-413-346-4000",
      "takeaway": "yes",
      "toilets": "yes",
      "addr_state": "MA",
      "addr_city": "North Adams",
      "addr_postcode": "01247",
      "addr_street": "Marshall Street",
      "addr_housenumber": "20"
    }
  ],
  "answer_type": "name",
  "question_entities": {
    "[1]": {
      "main_category": "amenity",
      "sub_category": "restaurant",
      "poi_filter_desc": "carryout restaurant",
      "poi_filter_sql": "takeaway ILIKE '%yes%'"
    },
    "[2]": {
      "distance": 150000,
      "text": "150 kilometers"
    },
    "[3]": {
      "main_category": "tourism",
      "sub_category": "gallery",
      "display_name": "Nu Arts, Pittsfield, MA",
      "geo_wkt": "POINT (-73.252874 42.453084)",
      "poi": {
        "id": 11663,
        "geometry": "POINT (-73.252874 42.453084)",
        "poi_name": "Nu Arts",
        "osm_id": 11474130321,
        "tourism": "gallery",
        "addr_state": "MA",
        "addr_city": "Pittsfield",
        "addr_street": "North Street",
        "addr_housenumber": "311"
      }
    }
  },
  "id": 517,
  "type": "range:non_spat_filter+name"
}