{
  "question": "Could you help me find a burger place, preferably within a 20 kilometers radius of S. 15th St. Community Garden, Philadelphia, PA?",
  "sql": "SELECT * FROM pois\nWHERE ST_DWithin(pois.geometry, ST_GeomFromText('POINT (-75.169239 39.933457)',4326)::geography, 20000)\nAND amenity = 'restaurant'\nAND cuisine ILIKE '%burger%';\n",
  "answers": [
    {
      "id": 29877,
      "geometry": "POINT (-75.225273 39.81476)",
      "poi_name": "Cinder Bar",
      "osm_id": 8330933455,
      "amenity": "restaurant",
      "cuisine": "american;pizza;burger",
      "website": "https://cinderbar.com",
      "phone": "(856) 888-4808",
      "addr_state": "NJ",
      "addr_city": "Clarksboro",
      "addr_postcode": "08020",
      "addr_street": "Berkley Road",
      "addr_housenumber": "119"
    },
    {
      "id": 64349,
      "geometry": "POINT (-75.098823 39.831863)",
      "poi_name": "Red Robin",
      "osm_id": 5649226222,
      "amenity": "restaurant",
      "cuisine": "burger",
      "official_name": "Red Robin Gourmet Burgers and Brews"
    },
    {
      "id": 62964,
      "geometry": "POINT (-75.202872 39.953559)",
      "poi_name": "HipCityVeg",
      "osm_id": 5595471757,
      "amenity": "restaurant",
      "cuisine": "american;burger;sandwich;wrap;milkshake;salad",
      "description": "Contemporary counter-serve cafe serving vegan burgers, sandwiches & salads, plus smoothies.",
      "opening_hours": "Mo-Su 11:00-23:00",
      "website": "https://hipcityveg.com/",
      "phone": "+1 267-244-4342",
      "takeaway": "yes",
      "outdoor_seating": "no",
      "delivery": "yes",
      "addr_state": "PA",
      "addr_city": "Philadelphia",
      "addr_postcode": "19104",
      "addr_street": "South 40th Street",
      "addr_housenumber": "214"
    },
    {
      "id": 67176,
      "geometry": "POINT (-75.145883 39.941126)",
      "poi_name": "Bridget Foy's",
      "osm_id": 11226451586,
      "amenity": "restaurant",
      "cuisine": "burger",
      "addr_street": "South 2nd Street",
      "addr_housenumber": "600"
    },
    {
      "id": 100763,
      "geometry": "POINT (-75.174753 39.94572)",
      "poi_name": "Pub & Kitchen",
      "osm_id": 6597367956,
      "amenity": "restaurant",
      "cuisine": "burger;european;american",
      "wheelchair": "no",
      "opening_hours": "Mo-Fr 16:00-02:00; Sa 11:00-02:00; Su 10:00-02:00",
      "website": "https://thepubandkitchen.com",
      "phone": "(215) 545-0350",
      "outdoor_seating": "yes",
      "addr_state": "PA",
      "addr_city": "Philadelphia",
      "addr_postcode": "19146",
      "addr_street": "Lombard Street",
      "addr_housenumber": "1946"
    },
    {
      "id": 107009,
      "geometry": "POINT (-75.162428 39.949972)",
      "poi_name": "DBG",
      "osm_id": 3529171171,
      "amenity": "restaurant",
      "cuisine": "burger",
      "opening_hours": "Mo-Tu off, We-Fr 16:00-26:00, Sa-Su 12:00-26:00",
      "website": "https://dbgphilly.com",
      "phone": "+1 215-545-0170",
      "addr_city": "Philadelphia",
      "addr_postcode": "19107",
      "addr_street": "Sansom Street",
      "addr_housenumber": "1311"
    },
    {
      "id": 159720,
      "geometry": "POINT (-75.154543 39.982939)",
      "poi_name": "Burger Tank",
      "osm_id": 4803982994,
      "amenity": "restaurant",
      "cuisine": "burger",
      "takeaway": "only"
    },
    {
      "id": 196359,
      "geometry": "POINT (-75.143409 39.953741)",
      "poi_name": "Race Street Cafe",
      "osm_id": 10574765233,
      "amenity": "restaurant",
      "cuisine": "burger;american;salad;breakfast",
      "opening_hours": "Mo-Th 11:30-22:00; Fr 11:30-23:00; Sa 10:30-23:00; Su 10:30-22:00",
      "website": "https://www.racestreetcafe.net/",
      "phone": "+1-215-627-6181",
      "addr_state": "PA",
      "addr_city": "Philadelphia",
      "addr_postcode": "19106",
      "addr_street": "Race Street",
      "addr_housenumber": "208"
    },
    {
      "id": 220540,
      "geometry": "POINT (-75.182595 39.974587)",
      "poi_name": "Spot Gourmet Burgers",
      "osm_id": 9377415446,
      "amenity": "restaurant",
      "cuisine": "burger",
      "website": "https://www.spotburgers.com/",
      "addr_state": "PA",
      "addr_city": "Philadelphia",
      "addr_postcode": "19130",
      "addr_street": "West Girard Avenue",
      "addr_housenumber": "2821"
    },
    {
      "id": 110685,
      "geometry": "POINT (-75.16655 39.927144)",
      "poi_name": "P'unk Burger",
      "osm_id": 3713299198,
      "amenity": "restaurant",
      "cuisine": "burger",
      "opening_hours": "Su-Th 10:00-22:00; Fr 10:00-00:00; Sa 10:00-03:00",
      "takeaway": "yes",
      "delivery": "yes",
      "addr_state": "PA",
      "addr_city": "Philadelphia",
      "addr_postcode": "19148",
      "addr_street": "East Passyunk Avenue",
      "addr_housenumber": "1823"
    },
    {
      "id": 149314,
      "geometry": "POINT (-74.991732 39.956612)",
      "poi_name": "Maple Hill Restaurant",
      "osm_id": 4003087650,
      "amenity": "restaurant",
      "cuisine": "burger;regional",
      "takeaway": "yes",
      "addr_state": "NJ",
      "addr_city": "Maple Shade Township",
      "addr_postcode": "08052",
      "addr_street": "East Main Street",
      "addr_housenumber": "701"
    },
    {
      "id": 149315,
      "geometry": "POINT (-75.000476 39.95537)",
      "poi_name": "Maritsas",
      "osm_id": 4003087655,
      "amenity": "restaurant",
      "cuisine": "regional;burger",
      "takeaway": "yes",
      "addr_state": "NJ",
      "addr_city": "Maple Shade Township",
      "addr_postcode": "08052",
      "addr_street": "East Main Street",
      "addr_housenumber": "106"
    }
  ],
  "answer_type": "name",
  "question_entities": {
    "[1]": {
      "main_category": "amenity",
      "sub_category": "restaurant",
      "poi_filter_desc": "burger place",
      "poi_filter_sql": "cuisine ILIKE '%burger%'"
    },
    "[2]": {
      "distance": 20000,
      "text": "20 kilometers"
    },
    "[3]": {
      "main_category": "leisure",
      "sub_category": "garden",
      "display_name": "S. 15th St. Community Garden, Philadelphia, PA",
      "geo_wkt": "POINT (-75.169239 39.933457)",
      "poi": {
        "id": 247115,
        "geometry": "POINT (-75.169239 39.933457)",
        "poi_name": "S. 15th St. Community Garden",
        "osm_id": 3559344406,
        "leisure": "garden",
        "addr_state": "PA",
        "addr_city": "Philadelphia",
        "addr_street": "S. 15th St.",
        "addr_housenumber": "1329"
      }
    }
  },
  "id": 529,
  "type": "range:non_spat_filter+name"
}