{
  "question": "Which caf\u00e9 is on the path towards Suzanne Kramer, Denver, CO within a 30 kilometers radius from Children's Hospital Colorado at Parker Adventist Hospital, Emergency Care, Parker, Parker, CO?",
  "sql": "WITH\n    angle AS (SELECT degrees(ST_Azimuth(ST_GeomFromText('POINT (-104.769926 39.547935)',4326)::geography, ST_GeomFromText('POINT (-104.977037 39.765773)',4326)::geography)) AS value)\nSELECT * FROM pois,angle\nWHERE amenity = 'cafe'\nAND ST_DWithin(pois.geometry, ST_GeomFromText('POINT (-104.769926 39.547935)',4326)::geography, 30000)\nAND (degrees(ST_Azimuth(ST_GeomFromText('POINT (-104.769926 39.547935)',4326)::geography, pois.geometry)) BETWEEN angle.value - 22.5 AND angle.value + 22.5);\n",
  "answers": [
    {
      "id": 27643,
      "geometry": "POINT (-104.961585 39.697838)",
      "poi_name": "Devil's Food",
      "osm_id": 440624971,
      "amenity": "cafe",
      "phone": "+1-303-733-7448",
      "outdoor_seating": "no",
      "addr_city": "Denver",
      "addr_postcode": "80205",
      "addr_street": "South Gaylord Street",
      "addr_housenumber": "1024",
      "value": 323.754134478362
    },
    {
      "id": 36165,
      "geometry": "POINT (-104.873034 39.653338)",
      "poi_name": "Starbucks",
      "osm_id": 2752892213,
      "amenity": "cafe",
      "cuisine": "coffee_shop",
      "phone": "+1-303-369-5081",
      "takeaway": "yes",
      "official_name": "Starbucks Coffee",
      "addr_state": "CO",
      "addr_city": "Denver",
      "addr_postcode": "80231",
      "addr_street": "East Hampden Avenue",
      "addr_housenumber": "9925",
      "value": 323.754134478362
    },
    {
      "id": 34269,
      "geometry": "POINT (-104.9392 39.667571)",
      "poi_name": "Starbucks",
      "osm_id": 2698624686,
      "amenity": "cafe",
      "cuisine": "coffee_shop",
      "opening_hours": "Mo-Sa 05:00-21:00; Su 05:00-20:00",
      "website": "https://www.starbucks.com/store-locator/store/16586/university-hills-2700-s-colorado-blvd-university-hills-mall-denver-",
      "phone": "+1-303-753-6722",
      "takeaway": "yes",
      "official_name": "Starbucks Coffee",
      "addr_state": "CO",
      "addr_city": "Denver",
      "addr_postcode": "80222",
      "addr_street": "South Colorado Boulevard",
      "addr_housenumber": "2700",
      "value": 323.754134478362
    },
    {
      "id": 34406,
      "geometry": "POINT (-104.940975 39.729297)",
      "poi_name": "Starbucks",
      "osm_id": 2699331706,
      "amenity": "cafe",
      "cuisine": "coffee_shop",
      "phone": "+1-303-329-0040",
      "takeaway": "yes",
      "official_name": "Starbucks Coffee",
      "addr_state": "CO",
      "addr_city": "Denver",
      "addr_postcode": "80206",
      "addr_street": "Colorado Boulevard",
      "addr_housenumber": "801",
      "value": 323.754134478362
    },
    {
      "id": 36073,
      "geometry": "POINT (-104.911955 39.702811)",
      "poi_name": "Walton Donuts",
      "osm_id": 2747770618,
      "amenity": "cafe",
      "cuisine": "donut",
      "opening_hours": "05:00-14:00",
      "addr_state": "CO",
      "addr_city": "Denver",
      "addr_postcode": "80224",
      "addr_street": "Leetsdale Drive",
      "addr_housenumber": "6603",
      "value": 323.754134478362
    },
    {
      "id": 36252,
      "geometry": "POINT (-104.86809 39.685936)",
      "poi_name": "Starbucks",
      "osm_id": 2757731993,
      "amenity": "cafe",
      "cuisine": "coffee_shop",
      "opening_hours": "Mo-Su 05:30-19:00",
      "website": "https://www.starbucks.com/store-locator/store/13097/safeway-aurora-2612-1677-s-havana-aurora-co-800125007-us",
      "phone": "+1-303-481-2279",
      "takeaway": "yes",
      "official_name": "Starbucks Coffee",
      "addr_state": "CO",
      "addr_city": "Aurora",
      "addr_postcode": "80012",
      "addr_street": "South Havana Street",
      "addr_housenumber": "1677",
      "value": 323.754134478362
    },
    {
      "id": 36629,
      "geometry": "POINT (-104.972873 39.73698)",
      "poi_name": "Thump Coffee",
      "osm_id": 2776430109,
      "amenity": "cafe",
      "cuisine": "coffee_shop",
      "opening_hours": "Mo-Fr 06:00-18:00; Sa-Su 07:00-18:00",
      "website": "https://www.thumpcoffee.com/",
      "internet_access": "wlan",
      "phone": "+1-720-456-6648",
      "addr_state": "CO",
      "addr_city": "Denver",
      "addr_postcode": "80218",
      "addr_street": "East 13th Avenue",
      "addr_housenumber": "1201",
      "value": 323.754134478362
    },
    {
      "id": 36630,
      "geometry": "POINT (-104.962969 39.743401)",
      "poi_name": "St. Marks Coffee House",
      "osm_id": 2776435854,
      "amenity": "cafe",
      "wheelchair": "yes",
      "opening_hours": "Mo-Su 07:00-23:00",
      "website": "https://stmarkscoffeehouse.com/",
      "internet_access": "wlan",
      "phone": "+1-303-322-8384",
      "outdoor_seating": "yes",
      "addr_city": "Denver",
      "addr_postcode": "80206",
      "addr_street": "East 17th Avenue",
      "addr_housenumber": "2019",
      "value": 323.754134478362
    },
    {
      "id": 36741,
      "geometry": "POINT (-104.911136 39.652643)",
      "poi_name": "Sparks Coffee & Tea",
      "osm_id": 2782657140,
      "amenity": "cafe",
      "cuisine": "coffee_shop",
      "addr_state": "CO",
      "addr_city": "Denver",
      "addr_postcode": "80224",
      "addr_street": "East Hampden Avenue",
      "addr_housenumber": "6660",
      "value": 323.754134478362
    },
    {
      "id": 36728,
      "geometry": "POINT (-104.9 39.654501)",
      "poi_name": "Starbucks",
      "osm_id": 2782396520,
      "amenity": "cafe",
      "cuisine": "coffee_shop",
      "takeaway": "yes",
      "official_name": "Starbucks Coffee",
      "addr_state": "CO",
      "addr_city": "Denver",
      "addr_postcode": "80231",
      "addr_street": "East Hampden Avenue",
      "addr_housenumber": "7777",
      "value": 323.754134478362
    },
    {
      "id": 36824,
      "geometry": "POINT (-104.914483 39.666238)",
      "poi_name": "Starbucks",
      "osm_id": 2786796080,
      "amenity": "cafe",
      "cuisine": "coffee_shop",
      "opening_hours": "Mo-Su 06:00-18:00",
      "phone": "+1-303-691-8870",
      "takeaway": "yes",
      "official_name": "Starbucks Coffee",
      "addr_state": "CO",
      "addr_city": "Denver",
      "addr_postcode": "80222",
      "addr_street": "East Yale Avenue",
      "addr_housenumber": "6440",
      "value": 323.754134478362
    },
    {
      "id": 37016,
      "geometry": "POINT (-104.952771 39.740475)",
      "poi_name": "Starbucks",
      "osm_id": 2794039694,
      "amenity": "cafe",
      "cuisine": "coffee_shop",
      "takeaway": "yes",
      "official_name": "Starbucks Coffee",
      "value": 323.754134478362
    },
    {
      "id": 36909,
      "geometry": "POINT (-104.915839 39.65398)",
      "poi_name": "Kung Fu Tea",
      "osm_id": 2789644279,
      "amenity": "cafe",
      "cuisine": "bubble_tea",
      "takeaway": "yes",
      "addr_state": "CO",
      "addr_city": "Denver",
      "addr_postcode": "80222",
      "addr_street": "East Hampden Avenue",
      "addr_housenumber": "6365",
      "value": 323.754134478362
    },
    {
      "id": 38201,
      "geometry": "POINT (-104.904836 39.746328)",
      "poi_name": "JWU Perk",
      "osm_id": 2847479620,
      "amenity": "cafe",
      "cuisine": "coffee_shop",
      "value": 323.754134478362
    },
    {
      "id": 37005,
      "geometry": "POINT (-104.945713 39.734987)",
      "poi_name": "LambShoppe",
      "osm_id": 2793929037,
      "amenity": "cafe",
      "cuisine": "coffee_shop",
      "website": "https://thelambshoppe.com/",
      "phone": "+1-303-322-2223",
      "addr_state": "CO",
      "addr_city": "Denver",
      "addr_postcode": "80206",
      "addr_street": "East 12th Avenue",
      "addr_housenumber": "3512",
      "value": 323.754134478362
    },
    {
      "id": 37174,
      "geometry": "POINT (-104.929131 39.652359)",
      "poi_name": "The Duffeyroll Cafe",
      "osm_id": 2800063136,
      "amenity": "cafe",
      "cuisine": "coffee_shop",
      "website": "https://www.duffeyrolls.com/",
      "phone": "+1-303-753-9177",
      "addr_postcode": "80222",
      "addr_street": "East Hampden Avenue",
      "addr_housenumber": "4994",
      "value": 323.754134478362
    },
    {
      "id": 37185,
      "geometry": "POINT (-104.928144 39.652764)",
      "poi_name": "Starbucks",
      "osm_id": 2800311722,
      "amenity": "cafe",
      "cuisine": "coffee_shop",
      "takeaway": "yes",
      "official_name": "Starbucks Coffee",
      "addr_postcode": "80222",
      "addr_street": "East Hampden Avenue",
      "addr_housenumber": "5074",
      "value": 323.754134478362
    },
    {
      "id": 37491,
      "geometry": "POINT (-104.901292 39.72066)",
      "poi_name": "Starbucks",
      "osm_id": 2816518572,
      "amenity": "cafe",
      "cuisine": "coffee_shop",
      "takeaway": "yes",
      "official_name": "Starbucks Coffee",
      "addr_state": "CO",
      "addr_city": "Denver",
      "addr_postcode": "80230",
      "addr_street": "Quebec Street",
      "addr_housenumber": "200",
      "value": 323.754134478362
    },
    {
      "id": 37839,
      "geometry": "POINT (-104.978926 39.725491)",
      "poi_name": "Pablo's Coffee",
      "osm_id": 2833269079,
      "amenity": "cafe",
      "cuisine": "coffee_shop",
      "opening_hours": "Mo-Su 06:00-20:00",
      "website": "https://pabloscoffee.com/",
      "internet_access": "no",
      "phone": "+1-303-744-3323",
      "takeaway": "yes",
      "outdoor_seating": "yes",
      "toilets": "yes",
      "addr_state": "CO",
      "addr_city": "Denver",
      "addr_postcode": "80203",
      "addr_street": "East 6th Avenue",
      "addr_housenumber": "630",
      "value": 323.754134478362
    },
    {
      "id": 37899,
      "geometry": "POINT (-104.903182 39.720606)",
      "poi_name": "Starbucks",
      "osm_id": 2837144034,
      "amenity": "cafe",
      "cuisine": "coffee_shop",
      "phone": "+1-303-340-5843",
      "takeaway": "yes",
      "official_name": "Starbucks Coffee",
      "addr_postcode": "80230",
      "addr_street": "Quebec Street",
      "addr_housenumber": "200",
      "value": 323.754134478362
    },
    {
      "id": 40378,
      "geometry": "POINT (-104.840407 39.74223)",
      "poi_name": "Dazbog Coffee",
      "osm_id": 2968411529,
      "amenity": "cafe",
      "cuisine": "coffee_shop",
      "website": "http://www.dazbog.com/",
      "addr_postcode": "80045",
      "addr_street": "Aurora Court",
      "addr_housenumber": "1635",
      "value": 323.754134478362
    },
    {
      "id": 38420,
      "geometry": "POINT (-104.970703 39.65297)",
      "poi_name": "Caribou Coffee",
      "osm_id": 2863367769,
      "amenity": "cafe",
      "cuisine": "coffee_shop",
      "website": "https://www.cariboucoffee.com/",
      "phone": "+1-303-806-0900",
      "takeaway": "yes",
      "addr_postcode": "80113",
      "addr_street": "East Hampden Avenue",
      "addr_housenumber": "1400",
      "value": 323.754134478362
    },
    {
      "id": 38460,
      "geometry": "POINT (-104.972138 39.677125)",
      "poi_name": "Starbucks",
      "osm_id": 2865675257,
      "amenity": "cafe",
      "cuisine": "coffee_shop",
      "phone": "+1-303-722-6117",
      "takeaway": "yes",
      "official_name": "Starbucks Coffee",
      "addr_postcode": "80210",
      "addr_street": "South Downing Street",
      "addr_housenumber": "2150",
      "value": 323.754134478362
    },
    {
      "id": 38931,
      "geometry": "POINT (-104.939256 39.729114)",
      "poi_name": "Steep Tea & Coffee",
      "osm_id": 2892635472,
      "amenity": "cafe",
      "cuisine": "coffee_shop",
      "website": "http://cafesteep.com/",
      "phone": "+1-303-321-0445",
      "addr_postcode": "80220",
      "addr_street": "East 8th Avenue",
      "addr_housenumber": "4100",
      "value": 323.754134478362
    },
    {
      "id": 40209,
      "geometry": "POINT (-104.841882 39.743852)",
      "poi_name": "Dazbog Coffee",
      "osm_id": 2960664617,
      "amenity": "cafe",
      "cuisine": "coffee_shop",
      "opening_hours": "Mo-Fr 06:00-17:00",
      "website": "http://www.dazbog.com/",
      "phone": "+1-720-859-0506",
      "addr_postcode": "80045",
      "addr_street": "East 17th Avenue",
      "addr_housenumber": "12501",
      "value": 323.754134478362
    },
    {
      "id": 40235,
      "geometry": "POINT (-104.837233 39.74665)",
      "poi_name": "Bookstore Brew",
      "osm_id": 2962277309,
      "amenity": "cafe",
      "cuisine": "coffee_shop",
      "addr_postcode": "80045",
      "addr_street": "East Montview Boulevard",
      "addr_housenumber": "12950",
      "value": 323.754134478362
    },
    {
      "id": 40421,
      "geometry": "POINT (-104.834934 39.745186)",
      "poi_name": "Starbucks",
      "osm_id": 2969758172,
      "amenity": "cafe",
      "cuisine": "coffee_shop",
      "takeaway": "yes",
      "official_name": "Starbucks Coffee",
      "addr_postcode": "80045",
      "addr_street": "East 19th Avenue",
      "addr_housenumber": "13120",
      "value": 323.754134478362
    },
    {
      "id": 40875,
      "geometry": "POINT (-104.839798 39.742456)",
      "poi_name": "Lobby Latte",
      "osm_id": 2985234887,
      "amenity": "cafe",
      "cuisine": "coffee_shop",
      "value": 323.754134478362
    },
    {
      "id": 40816,
      "geometry": "POINT (-104.987724 39.720676)",
      "poi_name": "Sugar Bakeshop",
      "osm_id": 2983915173,
      "amenity": "cafe",
      "cuisine": "bakery",
      "shop": "bakery",
      "internet_access": "wlan",
      "pastry_shop": "yes",
      "addr_state": "CO",
      "addr_city": "Denver",
      "addr_postcode": "80203",
      "addr_street": "Broadway",
      "addr_housenumber": "227",
      "value": 323.754134478362
    },
    {
      "id": 40817,
      "geometry": "POINT (-104.987361 39.712252)",
      "poi_name": "The Bardo Coffee House",
      "osm_id": 2983915187,
      "amenity": "cafe",
      "opening_hours": "Su-Sa 06:00-00:00",
      "internet_access": "wlan",
      "phone": "+1-303-629-8331",
      "addr_city": "Denver",
      "addr_postcode": "80209",
      "addr_street": "South Broadway",
      "addr_housenumber": "238",
      "value": 323.754134478362
    },
    {
      "id": 40882,
      "geometry": "POINT (-104.842078 39.742658)",
      "poi_name": "Garden View Cafe",
      "osm_id": 2985267511,
      "amenity": "cafe",
      "cuisine": "coffee_shop",
      "value": 323.754134478362
    },
    {
      "id": 41069,
      "geometry": "POINT (-104.896462 39.720043)",
      "poi_name": "Copper Door Coffee Roasters",
      "osm_id": 2993468197,
      "amenity": "cafe",
      "cuisine": "coffee_shop",
      "opening_hours": "Mo-Th 08:00-21:00, Fr-Sa 08:00-22:00, Su 08:00-20:00",
      "website": "http://www.thelaughinglatte.com/about-the-laughing-latte.html",
      "phone": "+1-303-949-1783",
      "addr_postcode": "80230",
      "addr_street": "East Academy Boulevard",
      "addr_housenumber": "7571",
      "value": 323.754134478362
    },
    {
      "id": 41013,
      "geometry": "POINT (-104.837779 39.749134)",
      "poi_name": "Nu Espresso & Tea Bar",
      "osm_id": 2990422199,
      "amenity": "cafe",
      "cuisine": "coffee_shop",
      "website": "https://www.facebook.com/pages/Nu-Espresso-Tea-Cafe/1456997294529762?ref=nf",
      "phone": "+1-303-505-4226",
      "addr_postcode": "80045",
      "addr_street": "Ursula Street",
      "addr_housenumber": "2101",
      "value": 323.754134478362
    },
    {
      "id": 41031,
      "geometry": "POINT (-104.846891 39.727539)",
      "poi_name": "City Donuts",
      "osm_id": 2991679101,
      "amenity": "cafe",
      "cuisine": "coffee_shop",
      "opening_hours": "Mo-Su 05:00-23:00",
      "website": "citydonutsaurora.com",
      "phone": "+1-303-367-4603",
      "addr_postcode": "80011",
      "addr_street": "Peoria Street",
      "addr_housenumber": "746",
      "value": 323.754134478362
    },
    {
      "id": 41187,
      "geometry": "POINT (-104.847449 39.778455)",
      "poi_name": "Starbucks",
      "osm_id": 3005924548,
      "amenity": "cafe",
      "cuisine": "coffee_shop",
      "phone": "+1-303-371-0089",
      "takeaway": "yes",
      "official_name": "Starbucks Coffee",
      "addr_postcode": "80239",
      "addr_street": "Peoria Street",
      "addr_housenumber": "4505",
      "value": 323.754134478362
    },
    {
      "id": 41645,
      "geometry": "POINT (-104.99178 39.744693)",
      "poi_name": "ink! Coffee",
      "osm_id": 3023251626,
      "amenity": "cafe",
      "cuisine": "coffee_shop",
      "wheelchair": "yes",
      "opening_hours": "Mo-Fr 06:00-18:00; Sa-Su 07:00-18:00",
      "website": "https://www.inkcoffee.com/",
      "phone": "+1-303-825-4422",
      "addr_state": "CO",
      "addr_city": "Denver",
      "addr_postcode": "80202",
      "addr_street": "16th Street Mall",
      "addr_housenumber": "618",
      "value": 323.754134478362
    },
    {
      "id": 42952,
      "geometry": "POINT (-104.99415 39.74688)",
      "poi_name": "Caribou Coffee",
      "osm_id": 3088001701,
      "amenity": "cafe",
      "cuisine": "coffee_shop",
      "wheelchair": "yes",
      "opening_hours": "Permenantly Closed",
      "takeaway": "yes",
      "outdoor_seating": "yes",
      "addr_state": "CO",
      "addr_city": "Denver",
      "addr_postcode": "80202",
      "addr_street": "16th Street Mall",
      "addr_housenumber": "951",
      "value": 323.754134478362
    },
    {
      "id": 42968,
      "geometry": "POINT (-104.997523 39.745729)",
      "poi_name": "Starbucks",
      "osm_id": 3088792765,
      "amenity": "cafe",
      "cuisine": "coffee_shop",
      "takeaway": "yes",
      "official_name": "Starbucks Coffee",
      "addr_state": "CO",
      "addr_city": "Denver",
      "addr_postcode": "80202",
      "addr_street": "14th Street",
      "addr_housenumber": "1031",
      "value": 323.754134478362
    },
    {
      "id": 45631,
      "geometry": "POINT (-104.989639 39.744251)",
      "poi_name": "Novo Coffee",
      "osm_id": 3221218807,
      "amenity": "cafe",
      "wheelchair": "yes",
      "opening_hours": "Mo-Fr 07:00-16:00; Sa,Su 07:00-14:00",
      "website": "https://novocoffee.com/",
      "internet_access": "wlan",
      "phone": "+1-303-999-0077",
      "takeaway": "yes",
      "outdoor_seating": "yes",
      "addr_state": "CO",
      "addr_city": "Denver",
      "addr_postcode": "80202",
      "addr_street": "Glenarm Place",
      "addr_housenumber": "1600",
      "value": 323.754134478362
    },
    {
      "id": 43490,
      "geometry": "POINT (-104.960309 39.764639)",
      "poi_name": "Cole Craft Coffee",
      "osm_id": 3115286878,
      "amenity": "cafe",
      "cuisine": "coffee",
      "website": "https://www.facebook.com/ColeCraftCoffee",
      "internet_access": "yes",
      "phone": "+1-720-389-9544",
      "addr_city": "Denver",
      "addr_postcode": "80205",
      "addr_street": "East Bruce Randolph Avenue",
      "addr_housenumber": "2231",
      "value": 323.754134478362
    },
    {
      "id": 43652,
      "geometry": "POINT (-104.864898 39.681539)",
      "poi_name": "Snowl Snow Bowl",
      "osm_id": 3125184700,
      "amenity": "cafe",
      "cuisine": "ice_cream",
      "opening_hours": "May-Oct Mo-Sa 11:00-23:00, Su 11:00-21:30; Nov-Apr Su 11:00-21:30, Fr-Sa 11:00-23:00, Mo-Th 12:00-22:30",
      "website": "https://www.snowlcafe.com/",
      "internet_access": "wlan",
      "phone": "+1-720-542-9902",
      "addr_state": "CO",
      "addr_city": "Aurora",
      "addr_postcode": "80014",
      "addr_street": "South Havana Street",
      "addr_housenumber": "1930",
      "value": 323.754134478362
    },
    {
      "id": 44097,
      "geometry": "POINT (-104.901354 39.626517)",
      "poi_name": "Front Range Trading Post",
      "osm_id": 3144803028,
      "amenity": "cafe",
      "cuisine": "coffee_shop",
      "website": "https://www.marriott.com/hotels/hotel-information/restaurant/dentc-denver-marriott-tech-center/",
      "phone": "+1-303-779-1100",
      "addr_city": "Denver",
      "addr_postcode": "80237",
      "addr_street": "South Syracuse Street",
      "addr_housenumber": "4900",
      "value": 323.754134478362
    },
    {
      "id": 44104,
      "geometry": "POINT (-104.900042 39.625268)",
      "poi_name": "Caribou Coffee",
      "osm_id": 3144823175,
      "amenity": "cafe",
      "cuisine": "coffee_shop",
      "website": "http://woodycreekcafe.com/",
      "phone": "+1-303-534-6300",
      "takeaway": "yes",
      "addr_city": "Denver",
      "addr_postcode": "80237",
      "addr_street": "South Syracuse Street",
      "addr_housenumber": "5073",
      "value": 323.754134478362
    },
    {
      "id": 45986,
      "geometry": "POINT (-104.982157 39.761226)",
      "poi_name": "(closed)Ink!",
      "osm_id": 3238899446,
      "amenity": "cafe",
      "cuisine": "coffee_shop",
      "addr_state": "CO",
      "addr_city": "Denver",
      "addr_postcode": "80205",
      "addr_street": "Larimer Street",
      "addr_housenumber": "2851",
      "value": 323.754134478362
    },
    {
      "id": 45987,
      "geometry": "POINT (-104.981739 39.761178)",
      "poi_name": "Crema Coffee House",
      "osm_id": 3238899457,
      "amenity": "cafe",
      "opening_hours": "Mo-Su 07:00-17:00",
      "website": "http://cremacoffeehouse.net/",
      "internet_access": "wlan",
      "addr_state": "CO",
      "addr_city": "Denver",
      "addr_postcode": "80205",
      "addr_street": "Larimer Street",
      "addr_housenumber": "2862",
      "value": 323.754134478362
    },
    {
      "id": 47723,
      "geometry": "POINT (-104.940197 39.77341)",
      "poi_name": "Starbucks",
      "osm_id": 3344989196,
      "amenity": "cafe",
      "cuisine": "coffee_shop",
      "phone": "+1-303-320-7610",
      "takeaway": "yes",
      "official_name": "Starbucks Coffee",
      "addr_city": "Denver",
      "addr_postcode": "80216",
      "addr_street": "Colorado Boulevard",
      "addr_housenumber": "4030",
      "value": 323.754134478362
    },
    {
      "id": 46623,
      "geometry": "POINT (-104.959659 39.703402)",
      "poi_name": "Ink! Coffee",
      "osm_id": 3279296817,
      "amenity": "cafe",
      "addr_city": "Denver",
      "addr_postcode": "80209",
      "addr_street": "South University Boulevard",
      "addr_housenumber": "709",
      "value": 323.754134478362
    },
    {
      "id": 48894,
      "geometry": "POINT (-104.985901 39.734192)",
      "poi_name": "Cafe L'abri",
      "osm_id": 3406769486,
      "amenity": "cafe",
      "addr_state": "CO",
      "addr_city": "Denver",
      "addr_postcode": "80203",
      "addr_street": "Lincoln Street",
      "addr_housenumber": "1120",
      "value": 323.754134478362
    },
    {
      "id": 48436,
      "geometry": "POINT (-104.987094 39.743624)",
      "poi_name": "Starbucks",
      "osm_id": 3382283307,
      "amenity": "cafe",
      "cuisine": "coffee_shop",
      "takeaway": "yes",
      "official_name": "Starbucks Coffee",
      "addr_state": "CO",
      "addr_city": "Denver",
      "addr_postcode": "80202",
      "addr_street": "Broadway",
      "addr_housenumber": "1700",
      "value": 323.754134478362
    },
    {
      "id": 48518,
      "geometry": "POINT (-104.983868 39.741886)",
      "poi_name": "Curious Coffee & Catering",
      "osm_id": 3385641167,
      "amenity": "cafe",
      "addr_state": "CO",
      "addr_city": "Denver",
      "addr_postcode": "80203",
      "addr_street": "East 16th Avenue",
      "addr_housenumber": "225",
      "value": 323.754134478362
    },
    {
      "id": 48536,
      "geometry": "POINT (-104.981604 39.743128)",
      "poi_name": "Toasts N Roasts",
      "osm_id": 3386788436,
      "amenity": "cafe",
      "addr_state": "CO",
      "addr_city": "Denver",
      "addr_postcode": "80203",
      "addr_street": "East 17th Avenue",
      "addr_housenumber": "450",
      "value": 323.754134478362
    },
    {
      "id": 48827,
      "geometry": "POINT (-104.986382 39.733028)",
      "poi_name": "Roostercat Coffee House",
      "osm_id": 3401632116,
      "amenity": "cafe",
      "opening_hours": "08:00-20:00",
      "website": "https://www.facebook.com/RoostercatcoffeehouseCO/",
      "phone": "+1-720-388-0356",
      "addr_state": "CO",
      "addr_city": "Denver",
      "addr_postcode": "80203",
      "addr_street": "Lincoln Street",
      "addr_housenumber": "1045",
      "value": 323.754134478362
    },
    {
      "id": 49141,
      "geometry": "POINT (-104.980848 39.737165)",
      "poi_name": "Pablo's Coffee",
      "osm_id": 3417119593,
      "amenity": "cafe",
      "addr_state": "CO",
      "addr_city": "Denver",
      "addr_postcode": "80203",
      "addr_street": "Pennsylvania Street",
      "addr_housenumber": "1300",
      "value": 323.754134478362
    },
    {
      "id": 50212,
      "geometry": "POINT (-104.889953 39.674558)",
      "poi_name": "Even Better Cafe",
      "osm_id": 3472385141,
      "amenity": "cafe",
      "opening_hours": "Mo-Sa 06:00-18:00",
      "phone": "+1-720-535-7240",
      "addr_city": "Denver",
      "addr_postcode": "80231",
      "addr_street": "East Iliff Avenue",
      "addr_housenumber": "8450",
      "value": 323.754134478362
    },
    {
      "id": 49232,
      "geometry": "POINT (-104.979649 39.73861)",
      "poi_name": "Network Christian Coffee House",
      "osm_id": 3420074695,
      "amenity": "cafe",
      "addr_state": "CO",
      "addr_city": "Denver",
      "addr_postcode": "80203",
      "addr_street": "Pearl Street",
      "addr_housenumber": "1402",
      "value": 323.754134478362
    },
    {
      "id": 49244,
      "geometry": "POINT (-104.979726 39.736731)",
      "poi_name": "Jelly Cafe",
      "osm_id": 3421431684,
      "amenity": "cafe",
      "cuisine": "sandwich;salad",
      "wheelchair": "yes",
      "opening_hours": "Tu-Th 07:00-14:00; Mo, Fr-Su 07:00-15:00",
      "website": "https://eatmorejelly.com/",
      "phone": "+1-303-831-6301",
      "takeaway": "yes",
      "delivery": "yes",
      "toilets": "yes",
      "addr_state": "CO",
      "addr_city": "Denver",
      "addr_postcode": "80203",
      "addr_street": "East 13th Avenue",
      "addr_housenumber": "600",
      "value": 323.754134478362
    },
    {
      "id": 49455,
      "geometry": "POINT (-104.975456 39.738558)",
      "poi_name": "The Corner Beet",
      "osm_id": 3433331862,
      "amenity": "cafe",
      "wheelchair": "yes",
      "opening_hours": "Mo-We 07:00-16:00; Th-Fr 07:00-20:00; Sa 09:00-20:00; Su 09:00-14:00",
      "website": "https://cornerbeet.com/",
      "internet_access": "wlan",
      "phone": "+1-720-295-4447",
      "takeaway": "yes",
      "outdoor_seating": "yes",
      "toilets": "yes",
      "addr_state": "CO",
      "addr_city": "Denver",
      "addr_postcode": "80218",
      "addr_street": "Ogden Street",
      "addr_housenumber": "1401",
      "value": 323.754134478362
    },
    {
      "id": 49984,
      "geometry": "POINT (-104.973979 39.730899)",
      "poi_name": "Starbucks",
      "osm_id": 3458670916,
      "amenity": "cafe",
      "cuisine": "coffee_shop;pastries;smoothies",
      "wheelchair": "yes",
      "opening_hours": "Mo-Su 06:00-20:00",
      "takeaway": "yes",
      "official_name": "Starbucks Coffee",
      "outdoor_seating": "no",
      "addr_state": "CO",
      "addr_city": "Denver",
      "addr_postcode": "80218",
      "addr_street": "East 9th Avenue",
      "addr_housenumber": "1155",
      "value": 323.754134478362
    },
    {
      "id": 49995,
      "geometry": "POINT (-104.898755 39.681154)",
      "poi_name": "Alchemy Coffee & Bike Shop",
      "osm_id": 3458876432,
      "amenity": "cafe",
      "cuisine": "coffee_shop",
      "website": "https://alchemybicycles.com/",
      "phone": "+1-720-535-4444",
      "addr_city": "Denver",
      "addr_postcode": "80231",
      "addr_street": "East Cherry Creek South Drive",
      "addr_housenumber": "7700",
      "value": 323.754134478362
    },
    {
      "id": 50683,
      "geometry": "POINT (-104.998485 39.730751)",
      "poi_name": "Paleo Bistro",
      "osm_id": 3499407546,
      "amenity": "cafe",
      "addr_state": "CO",
      "addr_city": "Denver",
      "addr_postcode": "80204",
      "addr_street": "Santa Fe Drive",
      "addr_housenumber": "910",
      "value": 323.754134478362
    },
    {
      "id": 50637,
      "geometry": "POINT (-104.998842 39.730218)",
      "poi_name": "The Drip Caf\u00e9",
      "osm_id": 3496532610,
      "amenity": "cafe",
      "opening_hours": "Mo-Sa 07:00-19:00",
      "addr_state": "CO",
      "addr_city": "Denver",
      "addr_postcode": "80204",
      "addr_street": "Santa Fe Drive",
      "addr_housenumber": "869",
      "value": 323.754134478362
    },
    {
      "id": 50684,
      "geometry": "POINT (-104.998486 39.730819)",
      "poi_name": "Studio 6 Coffee House",
      "osm_id": 3499418788,
      "amenity": "cafe",
      "addr_state": "CO",
      "addr_city": "Denver",
      "addr_postcode": "80204",
      "addr_street": "Santa Fe Drive",
      "addr_housenumber": "910",
      "value": 323.754134478362
    },
    {
      "id": 50788,
      "geometry": "POINT (-104.998391 39.737593)",
      "poi_name": "Starbucks",
      "osm_id": 3507026458,
      "amenity": "cafe",
      "cuisine": "coffee_shop",
      "takeaway": "yes",
      "official_name": "Starbucks Coffee",
      "addr_state": "CO",
      "addr_city": "Denver",
      "addr_postcode": "80204",
      "addr_street": "Speer Boulevard",
      "addr_housenumber": "1331",
      "value": 323.754134478362
    },
    {
      "id": 61291,
      "geometry": "POINT (-104.973118 39.746118)",
      "poi_name": "Dazbog Coffee",
      "osm_id": 5511233694,
      "amenity": "cafe",
      "addr_state": "CO",
      "addr_city": "Denver",
      "addr_postcode": "80218",
      "addr_street": "East 19th Avenue",
      "addr_housenumber": "1375",
      "value": 323.754134478362
    },
    {
      "id": 52385,
      "geometry": "POINT (-104.989781 39.746844)",
      "poi_name": "Starbucks",
      "osm_id": 581275861,
      "amenity": "cafe",
      "cuisine": "coffee_shop",
      "takeaway": "yes",
      "official_name": "Starbucks Coffee",
      "addr_state": "CO",
      "addr_city": "Denver",
      "addr_postcode": "80202",
      "addr_street": "17th Street",
      "addr_housenumber": "633",
      "value": 323.754134478362
    },
    {
      "id": 52386,
      "geometry": "POINT (-104.992422 39.74518)",
      "poi_name": "Starbucks",
      "osm_id": 581276462,
      "amenity": "cafe",
      "cuisine": "coffee_shop",
      "wheelchair": "yes",
      "takeaway": "yes",
      "official_name": "Starbucks Coffee",
      "addr_state": "CO",
      "addr_city": "Denver",
      "addr_postcode": "80202",
      "addr_street": "16th Street Mall",
      "addr_housenumber": "700",
      "value": 323.754134478362
    },
    {
      "id": 52387,
      "geometry": "POINT (-104.989003 39.742966)",
      "poi_name": "Starbucks",
      "osm_id": 581286756,
      "amenity": "cafe",
      "cuisine": "coffee_shop",
      "takeaway": "yes",
      "official_name": "Starbucks Coffee",
      "addr_state": "CO",
      "addr_city": "Denver",
      "addr_postcode": "80202",
      "addr_street": "16th Street Mall",
      "addr_housenumber": "303",
      "value": 323.754134478362
    },
    {
      "id": 52922,
      "geometry": "POINT (-104.862549 39.667047)",
      "poi_name": "Devil and Angel",
      "osm_id": 10054965018,
      "amenity": "cafe",
      "cuisine": "bubble_tea;donut;ice_cream",
      "opening_hours": "Su-Th 12:00-21:00; Fr-Sa 12:00-22:00",
      "website": "https://devilnangel.com/",
      "phone": "+1-303-997-5350",
      "addr_postcode": "80014",
      "value": 323.754134478362
    },
    {
      "id": 57114,
      "geometry": "POINT (-104.987786 39.744186)",
      "poi_name": "Coffee & Tea Co.",
      "osm_id": 5325314009,
      "amenity": "cafe",
      "addr_state": "CO",
      "addr_city": "Denver",
      "addr_postcode": "80202",
      "addr_street": "17th Street",
      "addr_housenumber": "321",
      "value": 323.754134478362
    },
    {
      "id": 57118,
      "geometry": "POINT (-104.992686 39.746348)",
      "poi_name": "Fluid Coffee Bar",
      "osm_id": 5325334458,
      "amenity": "cafe",
      "addr_state": "CO",
      "addr_city": "Denver",
      "addr_postcode": "80202",
      "addr_street": "Stout Street",
      "addr_housenumber": "1667",
      "value": 323.754134478362
    },
    {
      "id": 58661,
      "geometry": "POINT (-104.898442 39.630358)",
      "poi_name": "Perks",
      "osm_id": 5391073351,
      "amenity": "cafe",
      "cuisine": "coffee_shop",
      "addr_state": "CO",
      "addr_city": "Denver",
      "addr_postcode": "80237",
      "addr_street": "East Tufts Avenue",
      "addr_housenumber": "7800",
      "value": 323.754134478362
    },
    {
      "id": 58987,
      "geometry": "POINT (-104.984265 39.750435)",
      "poi_name": "TeaLee\u2019s Teahouse",
      "osm_id": 5405605013,
      "amenity": "cafe",
      "addr_state": "CO",
      "addr_city": "Denver",
      "addr_postcode": "80205",
      "addr_street": "22nd Street",
      "addr_housenumber": "611",
      "value": 323.754134478362
    },
    {
      "id": 59539,
      "geometry": "POINT (-104.99246 39.749667)",
      "poi_name": "Dazbog Coffee",
      "osm_id": 5430545011,
      "amenity": "cafe",
      "addr_state": "CO",
      "addr_city": "Denver",
      "addr_postcode": "80202",
      "addr_street": "18th Street",
      "addr_housenumber": "1099",
      "value": 323.754134478362
    },
    {
      "id": 59540,
      "geometry": "POINT (-104.993256 39.742757)",
      "poi_name": "Dazbog Coffee",
      "osm_id": 5430545046,
      "amenity": "cafe",
      "addr_state": "CO",
      "addr_city": "Denver",
      "addr_postcode": "80204",
      "addr_street": "Welton Street",
      "addr_housenumber": "1400",
      "value": 323.754134478362
    },
    {
      "id": 59541,
      "geometry": "POINT (-104.985856 39.746025)",
      "poi_name": "Emily\u2019s Coffee",
      "osm_id": 5430548334,
      "amenity": "cafe",
      "addr_state": "CO",
      "addr_city": "Denver",
      "addr_postcode": "80203",
      "addr_street": "Lincoln Street",
      "addr_housenumber": "1860",
      "value": 323.754134478362
    },
    {
      "id": 59542,
      "geometry": "POINT (-104.993097 39.747517)",
      "poi_name": "illy Caff\u00e8",
      "osm_id": 5430549711,
      "amenity": "cafe",
      "addr_state": "CO",
      "addr_city": "Denver",
      "addr_postcode": "80202",
      "addr_street": "17th Street",
      "addr_housenumber": "918",
      "value": 323.754134478362
    },
    {
      "id": 59543,
      "geometry": "POINT (-104.990274 39.747721)",
      "poi_name": "Ink! Coffee",
      "osm_id": 5430550347,
      "amenity": "cafe",
      "addr_state": "CO",
      "addr_city": "Denver",
      "addr_postcode": "80202",
      "addr_street": "California Street",
      "addr_housenumber": "1801",
      "value": 323.754134478362
    },
    {
      "id": 59547,
      "geometry": "POINT (-104.99226 39.740216)",
      "poi_name": "Supreme Bean Cafe",
      "osm_id": 5430973155,
      "amenity": "cafe",
      "addr_state": "CO",
      "addr_city": "Denver",
      "addr_postcode": "80204",
      "addr_street": "West Colfax Avenue",
      "addr_housenumber": "303",
      "value": 323.754134478362
    },
    {
      "id": 59548,
      "geometry": "POINT (-104.984056 39.73826)",
      "poi_name": "The Spring Caf\u00e9",
      "osm_id": 5430989021,
      "amenity": "cafe",
      "addr_state": "CO",
      "addr_city": "Denver",
      "addr_postcode": "80203",
      "addr_street": "Grant Street",
      "addr_housenumber": "1373",
      "value": 323.754134478362
    },
    {
      "id": 59549,
      "geometry": "POINT (-104.992727 39.747251)",
      "poi_name": "Tea Cloud",
      "osm_id": 5430994215,
      "amenity": "cafe",
      "cuisine": "asian;bubble_tea",
      "opening_hours": "Mo-Sa 11:00-19:00",
      "website": "https://tea-cloud.business.site/",
      "phone": "+1-303-627-5468",
      "addr_state": "CO",
      "addr_city": "Denver",
      "addr_postcode": "80202",
      "addr_street": "Champa Street",
      "addr_housenumber": "1690",
      "value": 323.754134478362
    },
    {
      "id": 59550,
      "geometry": "POINT (-104.991568 39.746702)",
      "poi_name": "Corner Bakery",
      "osm_id": 5430996818,
      "amenity": "cafe",
      "cuisine": "coffee_shop",
      "opening_hours": "Mon - Fri 7 AM - 3 PM",
      "website": "https://www.cornerbakerycafe.com/",
      "phone": "+1-303-292-5100",
      "takeaway": "yes",
      "addr_state": "CO",
      "addr_city": "Denver",
      "addr_postcode": "80202",
      "addr_street": "17th Street",
      "addr_housenumber": "717",
      "value": 323.754134478362
    },
    {
      "id": 59554,
      "geometry": "POINT (-104.987166 39.744282)",
      "poi_name": "Superfruit Republic",
      "osm_id": 5431022840,
      "amenity": "cafe",
      "addr_state": "CO",
      "addr_city": "Denver",
      "addr_postcode": "80202",
      "addr_street": "Broadway",
      "addr_housenumber": "1776",
      "value": 323.754134478362
    },
    {
      "id": 59555,
      "geometry": "POINT (-104.98633 39.731294)",
      "poi_name": "Drip Denver",
      "osm_id": 5431028037,
      "amenity": "cafe",
      "addr_state": "CO",
      "addr_city": "Denver",
      "addr_postcode": "80203",
      "addr_street": "Lincoln Street",
      "addr_housenumber": "955",
      "value": 323.754134478362
    },
    {
      "id": 59556,
      "geometry": "POINT (-104.977936 39.754506)",
      "poi_name": "Coffee at The Point",
      "osm_id": 5431030959,
      "amenity": "cafe",
      "addr_state": "CO",
      "addr_city": "Denver",
      "addr_postcode": "80205",
      "addr_street": "East 26th Avenue",
      "addr_housenumber": "710",
      "value": 323.754134478362
    },
    {
      "id": 57169,
      "geometry": "POINT (-104.98129 39.718184)",
      "poi_name": "Rosebud Cafe",
      "osm_id": 5327830329,
      "amenity": "cafe",
      "addr_state": "CO",
      "addr_city": "Denver",
      "addr_postcode": "80203",
      "addr_street": "Pennsylvania Street",
      "addr_housenumber": "90",
      "value": 323.754134478362
    },
    {
      "id": 61378,
      "geometry": "POINT (-104.973673 39.6732)",
      "poi_name": "Green Giraffe Bar",
      "osm_id": 5515204140,
      "amenity": "cafe",
      "cuisine": "juice;coffe",
      "opening_hours": "M 10:30 - 4; W - F 9 - 4; Sat and Sun 8 - 4",
      "website": "https://greengiraffebar.com/;https://green-giraffe-bar.square.site/",
      "phone": "+1-719-666-1841",
      "outdoor_seating": "no",
      "addr_state": "CO",
      "addr_city": "Denver",
      "addr_postcode": "80210",
      "addr_street": "South Downing Street",
      "addr_housenumber": "2395",
      "value": 323.754134478362
    },
    {
      "id": 65792,
      "geometry": "POINT (-104.863092 39.674353)",
      "poi_name": "HiRa cafe",
      "osm_id": 5712523654,
      "amenity": "cafe",
      "cuisine": "ethiopian;pastry;coffee_shop;breakfast",
      "website": "https://hiracafe.com/",
      "addr_state": "CO",
      "addr_city": "Aurora",
      "addr_postcode": "80014",
      "addr_street": "East Iliff Avenue",
      "addr_housenumber": "10782",
      "value": 323.754134478362
    },
    {
      "id": 61781,
      "geometry": "POINT (-105.016132 39.738911)",
      "poi_name": "Strong, Smart & Bold Beans",
      "osm_id": 5535704371,
      "amenity": "cafe",
      "addr_state": "CO",
      "addr_city": "Denver",
      "addr_postcode": "80204",
      "addr_street": "Zuni Street",
      "addr_housenumber": "1401",
      "value": 323.754134478362
    },
    {
      "id": 62691,
      "geometry": "POINT (-104.987146 39.735948)",
      "poi_name": "Rendezvous Cafe",
      "osm_id": 5581805758,
      "amenity": "cafe",
      "wheelchair": "yes",
      "addr_state": "CO",
      "addr_city": "Denver",
      "addr_postcode": "80203",
      "addr_street": "Broadway",
      "addr_housenumber": "1200",
      "value": 323.754134478362
    },
    {
      "id": 63107,
      "geometry": "POINT (-104.973165 39.759288)",
      "poi_name": "Joory Donuts and Coffee",
      "osm_id": 5600321440,
      "amenity": "cafe",
      "addr_state": "CO",
      "addr_city": "Denver",
      "addr_postcode": "80205",
      "addr_street": "Downing Street",
      "addr_housenumber": "2958",
      "value": 323.754134478362
    },
    {
      "id": 63470,
      "geometry": "POINT (-104.838477 39.658023)",
      "poi_name": "Grace French Cafe",
      "osm_id": 5616338017,
      "amenity": "cafe",
      "cuisine": "french;coffee",
      "opening_hours": "Mo-Fr 08:30-17:30, Sa-Su closed",
      "website": "https://www.gracefrenchcafe.com/",
      "phone": "+1-720-747-0000",
      "addr_state": "CO",
      "addr_city": "Aurora",
      "addr_postcode": "80014",
      "addr_street": "South Vaughn Way",
      "addr_housenumber": "3191",
      "value": 323.754134478362
    },
    {
      "id": 63719,
      "geometry": "POINT (-104.984939 39.73943)",
      "poi_name": "Capitol Caf\u00e9",
      "osm_id": 5628718421,
      "amenity": "cafe",
      "addr_state": "CO",
      "addr_city": "Denver",
      "addr_postcode": "80203",
      "addr_street": "East Colfax Avenue",
      "addr_housenumber": "200",
      "value": 323.754134478362
    },
    {
      "id": 64074,
      "geometry": "POINT (-104.94024 39.672806)",
      "poi_name": "From The Ground Up",
      "osm_id": 5640722653,
      "amenity": "cafe",
      "cuisine": "coffee_shop",
      "addr_street": "South Colorado Boulevard",
      "addr_housenumber": "2418",
      "value": 323.754134478362
    },
    {
      "id": 64619,
      "geometry": "POINT (-104.999671 39.751318)",
      "poi_name": "The Molecule Effect",
      "osm_id": 5661003387,
      "amenity": "cafe",
      "addr_state": "CO",
      "addr_city": "Denver",
      "addr_postcode": "80202",
      "addr_street": "Wazee Street",
      "addr_housenumber": "1612",
      "value": 323.754134478362
    },
    {
      "id": 64665,
      "geometry": "POINT (-104.991121 39.747171)",
      "poi_name": "Starbucks",
      "osm_id": 5662303088,
      "amenity": "cafe",
      "cuisine": "coffee_shop",
      "takeaway": "yes",
      "official_name": "Starbucks Coffee",
      "addr_state": "CO",
      "addr_city": "Denver",
      "addr_postcode": "80202",
      "addr_street": "17th Street",
      "addr_housenumber": "717",
      "value": 323.754134478362
    },
    {
      "id": 65107,
      "geometry": "POINT (-104.990048 39.747053)",
      "poi_name": "Starbucks",
      "osm_id": 5686214630,
      "amenity": "cafe",
      "cuisine": "coffee_shop",
      "takeaway": "yes",
      "official_name": "Starbucks Coffee",
      "addr_state": "CO",
      "addr_city": "Denver",
      "addr_postcode": "80202",
      "addr_street": "California Street",
      "addr_housenumber": "1701",
      "value": 323.754134478362
    },
    {
      "id": 79116,
      "geometry": "POINT (-104.980287 39.703766)",
      "poi_name": "Vert Restaurant",
      "osm_id": 773937435,
      "amenity": "cafe",
      "addr_state": "CO",
      "addr_city": "Denver",
      "addr_postcode": "80209",
      "addr_street": "South Pearl Street",
      "addr_housenumber": "704",
      "value": 323.754134478362
    },
    {
      "id": 66360,
      "geometry": "POINT (-104.868957 39.753438)",
      "poi_name": "Glissade Coffee Company",
      "osm_id": 11191174488,
      "amenity": "cafe",
      "cuisine": "coffee_shop",
      "description": "Glissade Coffee Company is an inclusive, specialty coffee roastery that was founded on the belief that community is everything.",
      "opening_hours": "Mo-Fr 06:00-18:30; Sa 07:00-18:30; Su 07:00-15:00",
      "website": "https://glissadecoffee.com/",
      "internet_access": "wlan",
      "phone": "+1-303-955-7807",
      "drive_through": "no",
      "outdoor_seating": "yes",
      "toilets": "yes",
      "addr_state": "CO",
      "addr_city": "Aurora",
      "addr_postcode": "80010",
      "addr_street": "Galena Street",
      "addr_housenumber": "2520",
      "value": 323.754134478362
    },
    {
      "id": 66373,
      "geometry": "POINT (-104.98731 39.684862)",
      "poi_name": "Corvus Coffee Roasters",
      "osm_id": 11191592409,
      "amenity": "cafe",
      "cuisine": "coffee_shop",
      "website": "https://www.corvuscoffee.com/",
      "outdoor_seating": "yes",
      "value": 323.754134478362
    },
    {
      "id": 77000,
      "geometry": "POINT (-104.865633 39.675876)",
      "poi_name": "Coffee Story",
      "osm_id": 9800657517,
      "amenity": "cafe",
      "cuisine": "coffee_shop",
      "opening_hours": "Mo-Su 08:00-21:00",
      "website": "https://coffeestoryco.com/",
      "internet_access": "wlan",
      "phone": "+1-720-609-2971",
      "addr_postcode": "80014",
      "addr_street": "South Havana Street",
      "addr_housenumber": "2222",
      "value": 323.754134478362
    },
    {
      "id": 77580,
      "geometry": "POINT (-104.967114 39.678314)",
      "poi_name": "Kaladi Brothers Coffee",
      "osm_id": 701383006,
      "amenity": "cafe",
      "cuisine": "coffee_shop",
      "internet_access": "wlan",
      "value": 323.754134478362
    },
    {
      "id": 66469,
      "geometry": "POINT (-104.985155 39.756809)",
      "poi_name": "Hearth",
      "osm_id": 11196372904,
      "amenity": "cafe",
      "description": "A bakery and coffee shop dedicated to providing the Greater Denver Community with quality artisan sourdough breads, pastries, and coffee.",
      "opening_hours": "Mo-Th 07:00-15:00; Fr-Su 07:00-17:00",
      "website": "https://hearthdenver.com/",
      "phone": "+1-720-927-6443",
      "addr_street": "Lawrence Street",
      "addr_housenumber": "2500, #200",
      "value": 323.754134478362
    },
    {
      "id": 70861,
      "geometry": "POINT (-104.900176 39.619249)",
      "poi_name": "Monk & Mongoose",
      "osm_id": 11375694726,
      "amenity": "cafe",
      "cuisine": "coffee_shop",
      "opening_hours": "Mo-Sa 06:30-17:30; Su 07:00-16:00",
      "website": "http://www.monkandmongoose.com/",
      "phone": "+1 720 456 7623",
      "addr_state": "CO",
      "addr_city": "Greenwood Village",
      "addr_postcode": "80111",
      "addr_street": "Greenwood Plaza Boulevard",
      "addr_housenumber": "5370",
      "value": 323.754134478362
    },
    {
      "id": 71198,
      "geometry": "POINT (-104.987416 39.653274)",
      "poi_name": "Mango Tree",
      "osm_id": 11384453707,
      "amenity": "cafe",
      "cuisine": "coffee_shop",
      "opening_hours": "Mo-Fr 06:00-17:00; Sa 07:00-17:00; Su closed",
      "website": "https://www.mangotreecoffee.org/",
      "phone": "+1 720 532 1648",
      "value": 323.754134478362
    },
    {
      "id": 71922,
      "geometry": "POINT (-104.896815 39.719387)",
      "poi_name": "Woodgrain Bagels",
      "osm_id": 11406121069,
      "amenity": "cafe",
      "cuisine": "bagel",
      "opening_hours": "Mo-Su 07:00-15:00",
      "website": "https://www.woodgrainbagels.com/",
      "internet_access": "wlan",
      "phone": "7205101903",
      "addr_postcode": "80230",
      "addr_street": "East Academy Boulevard",
      "addr_housenumber": "7559",
      "value": 323.754134478362
    },
    {
      "id": 72858,
      "geometry": "POINT (-104.86369 39.667192)",
      "poi_name": "Mocha",
      "osm_id": 11451540816,
      "amenity": "cafe",
      "cuisine": "dessert",
      "website": "https://www.mochausa.com/",
      "value": 323.754134478362
    },
    {
      "id": 73291,
      "geometry": "POINT (-104.933055 39.750934)",
      "poi_name": "Honey Hill Cafe",
      "osm_id": 9624667803,
      "amenity": "cafe",
      "cuisine": "coffee_shop",
      "opening_hours": "Su-Th 7:00-17:00 Fr-Sa 7:00-19:00",
      "website": "https://www.honeyhillcafe.com/",
      "internet_access": "yes",
      "phone": "+1-720-242-6048",
      "outdoor_seating": "yes",
      "addr_state": "CO",
      "addr_city": "Denver",
      "addr_postcode": "80207",
      "addr_street": "East 23rd Avenue",
      "addr_housenumber": "4628",
      "value": 323.754134478362
    },
    {
      "id": 79115,
      "geometry": "POINT (-104.977174 39.702226)",
      "poi_name": "Wash Perk",
      "osm_id": 773937161,
      "amenity": "cafe",
      "cuisine": "coffee_shop",
      "opening_hours": "Mo-Fr 06:00-19:00; Sa-Su 07:00-19:00",
      "website": "https://washperk.com/",
      "internet_access": "wlan",
      "phone": "+1-303-542-9202",
      "outdoor_seating": "yes",
      "addr_state": "CO",
      "addr_city": "Denver",
      "addr_postcode": "80209",
      "addr_street": "East Ohio Avenue",
      "addr_housenumber": "853",
      "value": 323.754134478362
    },
    {
      "id": 80258,
      "geometry": "POINT (-104.897368 39.623196)",
      "poi_name": "Starbucks",
      "osm_id": 869298624,
      "amenity": "cafe",
      "cuisine": "coffee_shop",
      "opening_hours": "Mo-Th 05:00-21:00, Fr-Su 05:00-20:00",
      "website": "https://www.starbucks.com/store-locator/store/16780/belleview-and-ulster-dtc-8000-e-belleview-denver-tech-center-greenwood-vill",
      "internet_access": "wlan",
      "phone": "+1-303-221-6236",
      "takeaway": "yes",
      "official_name": "Starbucks Coffee",
      "addr_state": "CO",
      "addr_city": "Greenwood Village",
      "addr_postcode": "80111",
      "addr_street": "East Belleview Avenue",
      "addr_housenumber": "8000",
      "value": 323.754134478362
    },
    {
      "id": 80577,
      "geometry": "POINT (-104.990275 39.745771)",
      "poi_name": "Ink! Coffee",
      "osm_id": 883603671,
      "amenity": "cafe",
      "phone": "+1-303-292-2374",
      "addr_state": "CO",
      "addr_city": "Denver",
      "addr_postcode": "80202",
      "addr_street": "17th Street",
      "addr_housenumber": "621",
      "value": 323.754134478362
    },
    {
      "id": 81052,
      "geometry": "POINT (-104.956641 39.739832)",
      "poi_name": "The Tattered Cover",
      "osm_id": 1600705503,
      "amenity": "cafe",
      "wheelchair": "yes",
      "opening_hours": "Mo-Sa 09:00-21:00; Su 10:00-18:00",
      "website": "https://www.tatteredcover.com/",
      "shop": "books",
      "internet_access": "wlan",
      "phone": "+1-303-322-7727",
      "addr_state": "CO",
      "addr_city": "Denver",
      "addr_postcode": "80206",
      "addr_street": "East Colfax Avenue",
      "addr_housenumber": "2526",
      "value": 323.754134478362
    },
    {
      "id": 83407,
      "geometry": "POINT (-104.86967 39.674284)",
      "poi_name": "Starbucks",
      "osm_id": 1743778737,
      "amenity": "cafe",
      "cuisine": "coffee_shop",
      "phone": "+1-303-695-5239",
      "takeaway": "yes",
      "official_name": "Starbucks Coffee",
      "addr_state": "CO",
      "addr_city": "Denver",
      "addr_postcode": "80231",
      "addr_street": "South Parker Road",
      "addr_housenumber": "2300",
      "value": 323.754134478362
    },
    {
      "id": 82424,
      "geometry": "POINT (-104.920488 39.707104)",
      "poi_name": "Starbucks",
      "osm_id": 1697100871,
      "amenity": "cafe",
      "cuisine": "coffee_shop",
      "takeaway": "yes",
      "official_name": "Starbucks Coffee",
      "value": 323.754134478362
    },
    {
      "id": 95535,
      "geometry": "POINT (-104.987361 39.707274)",
      "poi_name": "Starbucks",
      "osm_id": 6401314482,
      "amenity": "cafe",
      "cuisine": "coffee_shop",
      "takeaway": "yes",
      "official_name": "Starbucks Coffee",
      "addr_state": "CO",
      "addr_city": "Denver",
      "addr_postcode": "80209",
      "addr_street": "South Broadway",
      "addr_housenumber": "500",
      "value": 323.754134478362
    },
    {
      "id": 83593,
      "geometry": "POINT (-104.804684 39.591752)",
      "poi_name": "Starbucks",
      "osm_id": 1754422972,
      "amenity": "cafe",
      "cuisine": "coffee_shop",
      "takeaway": "yes",
      "official_name": "Starbucks Coffee",
      "addr_state": "CO",
      "addr_city": "Aurora",
      "addr_postcode": "80016",
      "addr_street": "East Briarwood Circle",
      "addr_housenumber": "15700",
      "value": 323.754134478362
    },
    {
      "id": 86365,
      "geometry": "POINT (-104.960632 39.732674)",
      "poi_name": "Offshoots at the Gardens Cafe",
      "osm_id": 1928670727,
      "amenity": "cafe",
      "cuisine": "coffee_shop",
      "description": "Fresh, seasonal eateries located within the beautiful grounds of the Denver Botanic Gardens.",
      "wheelchair": "yes",
      "opening_hours": "Mo-Su 09:00-17:00",
      "website": "https://www.botanicgardens.org/york-street/dining",
      "internet_access": "wlan",
      "phone": "+1-720-865-3501",
      "takeaway": "yes",
      "addr_state": "CO",
      "addr_city": "Denver",
      "addr_postcode": "80206",
      "addr_street": "York Street",
      "addr_housenumber": "1007",
      "value": 323.754134478362
    },
    {
      "id": 90353,
      "geometry": "POINT (-104.985913 39.743531)",
      "poi_name": "Tuscany Coffee And Deli",
      "osm_id": 1991822583,
      "amenity": "cafe",
      "cuisine": "coffee_shop",
      "wheelchair": "yes",
      "website": "https://www.tuscanycoffee.com",
      "internet_access": "wlan",
      "phone": "+1-303-861-4544",
      "takeaway": "yes",
      "outdoor_seating": "no",
      "addr_state": "CO",
      "addr_city": "Denver",
      "addr_postcode": "80203",
      "addr_street": "Lincoln Street",
      "addr_housenumber": "1700",
      "value": 323.754134478362
    },
    {
      "id": 90354,
      "geometry": "POINT (-104.992681 39.745879)",
      "poi_name": "Tuscany Coffee And Deli",
      "osm_id": 1991823857,
      "amenity": "cafe",
      "cuisine": "coffee_shop",
      "wheelchair": "yes",
      "internet_access": "wlan",
      "phone": "+1-720-932-8787",
      "takeaway": "yes",
      "outdoor_seating": "no",
      "addr_state": "CO",
      "addr_city": "Denver",
      "addr_postcode": "80202",
      "addr_street": "Stout Street",
      "addr_housenumber": "1600",
      "value": 323.754134478362
    },
    {
      "id": 90766,
      "geometry": "POINT (-104.939668 39.696398)",
      "poi_name": "Tea Street",
      "osm_id": 2016835448,
      "amenity": "cafe",
      "cuisine": "bubble_tea",
      "website": "https://www.teastreetdenver.com/",
      "phone": "+1-720-863-8636",
      "addr_state": "CO",
      "addr_city": "Glendale",
      "addr_postcode": "80246",
      "addr_street": "East Mississippi Avenue",
      "addr_housenumber": "4090",
      "value": 323.754134478362
    },
    {
      "id": 93151,
      "geometry": "POINT (-104.992787 39.733692)",
      "poi_name": "Gather",
      "osm_id": 2152847740,
      "amenity": "cafe",
      "addr_state": "CO",
      "addr_city": "Denver",
      "addr_postcode": "80204",
      "addr_street": "Delaware Street",
      "addr_housenumber": "1062",
      "value": 323.754134478362
    },
    {
      "id": 83635,
      "geometry": "POINT (-104.802966 39.599953)",
      "poi_name": "Starbucks",
      "osm_id": 1755688696,
      "amenity": "cafe",
      "cuisine": "coffee_shop",
      "takeaway": "yes",
      "official_name": "Starbucks Coffee",
      "addr_state": "CO",
      "addr_city": "Aurora",
      "addr_postcode": "80016",
      "addr_street": "South Parker Road",
      "addr_housenumber": "6412",
      "value": 323.754134478362
    },
    {
      "id": 90224,
      "geometry": "POINT (-104.896401 39.609992)",
      "poi_name": "Cafe De Paris",
      "osm_id": 1985343302,
      "amenity": "cafe",
      "value": 323.754134478362
    },
    {
      "id": 90507,
      "geometry": "POINT (-104.972286 39.725754)",
      "poi_name": "Buzz Cafe",
      "osm_id": 1998926365,
      "amenity": "cafe",
      "cuisine": "coffee_shop",
      "wheelchair": "yes",
      "opening_hours": "Mo-Su 06:00-18:00",
      "website": "https://buzzcafedenver.com/",
      "internet_access": "wlan",
      "phone": "+1-303-831-1077",
      "takeaway": "yes",
      "drive_through": "yes",
      "outdoor_seating": "yes",
      "addr_state": "CO",
      "addr_city": "Denver",
      "addr_postcode": "80218",
      "addr_street": "East 6th Avenue",
      "addr_housenumber": "1229",
      "value": 323.754134478362
    },
    {
      "id": 90513,
      "geometry": "POINT (-105.003446 39.743574)",
      "poi_name": "The Library Caf\u00e9",
      "osm_id": 1999117596,
      "amenity": "cafe",
      "wheelchair": "yes",
      "internet_access": "wlan",
      "outdoor_seating": "yes",
      "addr_state": "CO",
      "addr_city": "Denver",
      "addr_postcode": "80204",
      "addr_street": "Lawrence Street Mall",
      "addr_housenumber": "1100",
      "value": 323.754134478362
    },
    {
      "id": 90514,
      "geometry": "POINT (-105.001381 39.743947)",
      "poi_name": "Intermission Cafe",
      "osm_id": 1999117617,
      "amenity": "cafe",
      "wheelchair": "yes",
      "value": 323.754134478362
    },
    {
      "id": 90516,
      "geometry": "POINT (-104.973326 39.724926)",
      "poi_name": "Starbucks",
      "osm_id": 1999204206,
      "amenity": "cafe",
      "cuisine": "coffee_shop",
      "takeaway": "yes",
      "official_name": "Starbucks Coffee",
      "addr_state": "CO",
      "addr_city": "Denver",
      "addr_postcode": "80218",
      "addr_street": "Corona Street",
      "addr_housenumber": "560",
      "value": 323.754134478362
    },
    {
      "id": 90517,
      "geometry": "POINT (-104.972791 39.730598)",
      "poi_name": "Dazbog Coffee",
      "osm_id": 1999204209,
      "amenity": "cafe",
      "cuisine": "sandwich;pastry;coffee;smoothies",
      "wheelchair": "yes",
      "opening_hours": "Mo-Sa 06:00-18:00; Su 06:30-18:00",
      "website": "https://dazbog.com/",
      "internet_access": "wlan",
      "phone": "+1-303-837-1275",
      "outdoor_seating": "sidewalk",
      "toilets": "yes",
      "addr_state": "CO",
      "addr_city": "Denver",
      "addr_postcode": "80218",
      "addr_street": "East 9th Avenue",
      "addr_housenumber": "1201",
      "value": 323.754134478362
    },
    {
      "id": 90535,
      "geometry": "POINT (-104.940429 39.727554)",
      "poi_name": "Snooze AM Eatery",
      "osm_id": 2000619514,
      "amenity": "cafe",
      "cuisine": "american",
      "website": "https://snoozeeatery.com/",
      "phone": "+1-303-736-6200",
      "addr_postcode": "80206",
      "addr_street": "Colorado Boulevard",
      "addr_housenumber": "700",
      "value": 323.754134478362
    },
    {
      "id": 90536,
      "geometry": "POINT (-104.940151 39.727862)",
      "poi_name": "Stargazer",
      "osm_id": 2000619516,
      "amenity": "cafe",
      "cuisine": "coffee_shop",
      "opening_hours": "Mo-Fr 08:00-18:00; Sa 08:00-16:00; Su closed",
      "addr_state": "CO",
      "addr_city": "Denver",
      "addr_postcode": "80206",
      "addr_street": "Colorado Boulevard",
      "addr_housenumber": "700",
      "value": 323.754134478362
    },
    {
      "id": 90902,
      "geometry": "POINT (-104.870138 39.675146)",
      "poi_name": "Lamar's Donuts",
      "osm_id": 2025829649,
      "amenity": "cafe",
      "cuisine": "coffee_shop",
      "opening_hours": "Mo-Sa 05:00-17:00, Su 06:00-17:00",
      "website": "https://lamars.com/",
      "phone": "+1-303-743-8585",
      "addr_state": "CO",
      "addr_city": "Aurora",
      "addr_postcode": "80247",
      "addr_street": "East Iliff Avenue",
      "addr_housenumber": "10001",
      "value": 323.754134478362
    },
    {
      "id": 94966,
      "geometry": "POINT (-104.866741 39.67437)",
      "poi_name": "Coco",
      "osm_id": 6382134909,
      "amenity": "cafe",
      "cuisine": "bubble_tea",
      "opening_hours": "Mo-Sa 09:30-18:30; Su 11:00-17:00",
      "phone": "+1-303-284-2959",
      "takeaway": "yes",
      "addr_state": "CO",
      "addr_city": "Aurora",
      "addr_postcode": "80014",
      "addr_street": "South Havana Street",
      "addr_housenumber": "2353",
      "value": 323.754134478362
    },
    {
      "id": 106734,
      "geometry": "POINT (-104.998817 39.73541)",
      "poi_name": "The Molecule Effect",
      "osm_id": 3513221712,
      "amenity": "cafe",
      "addr_state": "CO",
      "addr_city": "Denver",
      "addr_postcode": "80204",
      "addr_street": "Santa Fe Drive",
      "addr_housenumber": "1201",
      "value": 323.754134478362
    },
    {
      "id": 96898,
      "geometry": "POINT (-104.973203 39.743081)",
      "poi_name": "Link",
      "osm_id": 6450564366,
      "amenity": "cafe",
      "cuisine": "coffee_shop",
      "website": "https://linkcoffeebar.com/",
      "internet_access": "wlan",
      "phone": "+1-303-830-3967",
      "outdoor_seating": "yes",
      "addr_state": "CO",
      "addr_city": "Denver",
      "addr_postcode": "80203",
      "addr_street": "East 17th Avenue",
      "addr_housenumber": "1100",
      "value": 323.754134478362
    },
    {
      "id": 104298,
      "geometry": "POINT (-104.847064 39.595557)",
      "poi_name": "My Favorite Muffin",
      "osm_id": 8562043475,
      "amenity": "cafe",
      "website": "https://arapahoe.ordermyfavoritemuffin.com",
      "addr_state": "CO",
      "addr_city": "Centennial",
      "addr_postcode": "80112",
      "addr_street": "East Arapahoe Road",
      "addr_housenumber": "12201",
      "value": 323.754134478362
    },
    {
      "id": 106662,
      "geometry": "POINT (-104.911748 39.701565)",
      "poi_name": "Istanbul Cafe and Bakery",
      "osm_id": 8693663567,
      "amenity": "cafe",
      "cuisine": "turkish;mediterranean",
      "description": "Turkish cafe",
      "opening_hours": "Mo-Sa 08:00-18:00; Su 08:00-15:00",
      "website": "https://www.istanbulcafeandbakery.com/",
      "phone": "+1-720-536-5455",
      "addr_state": "CO",
      "addr_city": "Denver",
      "addr_postcode": "80224",
      "addr_street": "South Monaco Parkway",
      "addr_housenumber": "850",
      "value": 323.754134478362
    },
    {
      "id": 96391,
      "geometry": "POINT (-104.876435 39.708232)",
      "poi_name": "The Donut Shop",
      "osm_id": 6431912894,
      "amenity": "cafe",
      "cuisine": "coffee_shop",
      "opening_hours": "Mo-Su 06:00-19:00",
      "website": "https://thedonuthouse.com/contact/",
      "phone": "+1-720-542-9061",
      "delivery": "https://www.grubhub.com/restaurant/donut-house-9660-e-alameda-ave-ste-104-denver/631097",
      "addr_state": "CO",
      "addr_city": "Denver",
      "addr_postcode": "80247",
      "addr_street": "East Alameda Avenue",
      "addr_housenumber": "9660",
      "value": 323.754134478362
    },
    {
      "id": 96392,
      "geometry": "POINT (-104.876771 39.708226)",
      "poi_name": "Cafe Ciboulette",
      "osm_id": 6431912900,
      "amenity": "cafe",
      "cuisine": "coffee_shop",
      "opening_hours": "Mo-Fr 07:00-19:00; Sa 08:00-19:00; Su 08:00-16:00",
      "website": "https://cafe-ciboulette-denver.business.site/",
      "phone": "+1-720-506-1360",
      "addr_state": "CO",
      "addr_city": "Denver",
      "addr_postcode": "80247",
      "addr_street": "East Alameda Avenue",
      "addr_housenumber": "9660",
      "value": 323.754134478362
    },
    {
      "id": 106763,
      "geometry": "POINT (-104.883963 39.63181)",
      "poi_name": "Greenwood Village Cafe",
      "osm_id": 3514093885,
      "amenity": "cafe",
      "cuisine": "coffee_shop",
      "wheelchair": "limited",
      "opening_hours": "Mo-Fr 06:00-15:00, Sa 08:00-13:00, Su closed",
      "outdoor_seating": "yes",
      "addr_state": "CO",
      "addr_city": "Greenwood Village",
      "addr_postcode": "80111",
      "addr_street": "East Union Avenue",
      "addr_housenumber": "8923",
      "value": 323.754134478362
    },
    {
      "id": 106844,
      "geometry": "POINT (-104.923363 39.690418)",
      "poi_name": "Unravel Coffee",
      "osm_id": 3518517327,
      "amenity": "cafe",
      "website": "https://www.unravel.coffee/",
      "phone": "+1-303-537-7773",
      "addr_city": "Denver",
      "addr_postcode": "80222",
      "addr_street": "South Holly Street",
      "addr_housenumber": "1441",
      "value": 323.754134478362
    },
    {
      "id": 106846,
      "geometry": "POINT (-104.922748 39.68926)",
      "poi_name": "Sojourners Coffee & Tea",
      "osm_id": 3518517335,
      "amenity": "cafe",
      "cuisine": "coffee_shop",
      "opening_hours": "Mo-Fr 06:00-18:00, Sa 07:30-18:00",
      "website": "http://sojoscoffee.com/",
      "phone": "+1-303-758-0740",
      "addr_city": "Denver",
      "addr_postcode": "80222",
      "addr_street": "South Holly Street",
      "addr_housenumber": "1501",
      "value": 323.754134478362
    },
    {
      "id": 106928,
      "geometry": "POINT (-105.014786 39.734034)",
      "poi_name": "Coffee Warehouse",
      "osm_id": 3523430747,
      "amenity": "cafe",
      "addr_state": "CO",
      "addr_city": "Denver",
      "addr_postcode": "80204",
      "addr_street": "Yuma Street",
      "addr_housenumber": "1110",
      "value": 323.754134478362
    },
    {
      "id": 106929,
      "geometry": "POINT (-105.014378 39.734233)",
      "poi_name": "The Coffee Joint",
      "osm_id": 3523455004,
      "amenity": "cafe",
      "addr_state": "CO",
      "addr_city": "Denver",
      "addr_postcode": "80204",
      "addr_street": "Yuma Court",
      "addr_housenumber": "1130",
      "value": 323.754134478362
    },
    {
      "id": 107559,
      "geometry": "POINT (-104.810382 39.674244)",
      "poi_name": "The French Press",
      "osm_id": 3567316271,
      "amenity": "cafe",
      "cuisine": "coffee_shop",
      "opening_hours": "Mo-Fr 06:30-15:00, Sa-Su 07:00-15:00",
      "website": "https://www.myfrenchpress.com/",
      "phone": "+1-303-369-3111",
      "addr_city": "Aurora",
      "addr_postcode": "80014",
      "addr_street": "East Iliff Avenue",
      "addr_housenumber": "15290",
      "value": 323.754134478362
    },
    {
      "id": 112237,
      "geometry": "POINT (-104.956937 39.720887)",
      "poi_name": "Starbucks",
      "osm_id": 3784143687,
      "amenity": "cafe",
      "cuisine": "coffee_shop",
      "wheelchair": "yes",
      "opening_hours": "Mo-Fr 05:00-19:30; Sa,Su 05:30-19:30",
      "internet_access": "wlan",
      "takeaway": "yes",
      "official_name": "Starbucks Coffee",
      "outdoor_seating": "yes",
      "addr_street": "Columbine Street",
      "addr_housenumber": "250",
      "value": 323.754134478362
    },
    {
      "id": 118225,
      "geometry": "POINT (-104.941359 39.685974)",
      "poi_name": "Ding Tea",
      "osm_id": 9033525637,
      "amenity": "cafe",
      "cuisine": "bubble_tea",
      "opening_hours": "Su-Th 12:00-21:00; Fr-Sa 12:00-22:00",
      "website": "https://www.dingtea.com/",
      "phone": "+1-720-324-8663",
      "takeaway": "yes",
      "addr_state": "CO",
      "addr_city": "Denver",
      "addr_postcode": "80222",
      "addr_street": "South Colorado Boulevard",
      "addr_housenumber": "1699",
      "value": 323.754134478362
    },
    {
      "id": 118783,
      "geometry": "POINT (-104.810776 39.633212)",
      "poi_name": "Forest Coffee & Ice creams Denver",
      "osm_id": 9064157844,
      "amenity": "cafe",
      "cuisine": "coffee_shop",
      "internet_access": "yes",
      "outdoor_seating": "yes",
      "addr_state": "CO",
      "addr_city": "Aurora",
      "addr_postcode": "80015",
      "addr_street": "East Smoky Hill Road",
      "addr_housenumber": "15285",
      "value": 323.754134478362
    },
    {
      "id": 121412,
      "geometry": "POINT (-104.862292 39.665772)",
      "poi_name": "Volcano Tea House",
      "osm_id": 6760643922,
      "amenity": "cafe",
      "cuisine": "tea",
      "addr_state": "CO",
      "addr_city": "Aurora",
      "addr_postcode": "80014",
      "addr_street": "South Parker Road",
      "value": 323.754134478362
    },
    {
      "id": 127862,
      "geometry": "POINT (-104.901633 39.756392)",
      "poi_name": "Starbucks",
      "osm_id": 8099191193,
      "amenity": "cafe",
      "cuisine": "coffee_shop",
      "takeaway": "yes",
      "official_name": "Starbucks Coffee",
      "value": 323.754134478362
    },
    {
      "id": 121535,
      "geometry": "POINT (-104.840951 39.739903)",
      "poi_name": "Starbucks",
      "osm_id": 6765380083,
      "amenity": "cafe",
      "cuisine": "coffee_shop",
      "takeaway": "yes",
      "official_name": "Starbucks Coffee",
      "value": 323.754134478362
    },
    {
      "id": 123523,
      "geometry": "POINT (-104.844796 39.66151)",
      "poi_name": "Starbucks",
      "osm_id": 6859355195,
      "amenity": "cafe",
      "cuisine": "coffee_shop",
      "takeaway": "yes",
      "official_name": "Starbucks Coffee",
      "addr_state": "CO",
      "addr_city": "Aurora",
      "addr_postcode": "80014",
      "addr_street": "South Peoria Street",
      "addr_housenumber": "3050",
      "value": 323.754134478362
    },
    {
      "id": 132820,
      "geometry": "POINT (-105.025493 39.695934)",
      "poi_name": "Kutea",
      "osm_id": 9968349718,
      "amenity": "cafe",
      "cuisine": "bubble_tea",
      "opening_hours": "Su-Th 11:00-22:00; Fr-Sa 11:00-00:00",
      "website": "http://www.drinkmoreboba.com",
      "value": 323.754134478362
    },
    {
      "id": 128577,
      "geometry": "POINT (-104.901927 39.681648)",
      "poi_name": "MORU Coffee",
      "osm_id": 8171695038,
      "amenity": "cafe",
      "cuisine": "coffee_shop",
      "website": "https://www.morucoffee.com/",
      "internet_access": "yes",
      "value": 323.754134478362
    },
    {
      "id": 129818,
      "geometry": "POINT (-104.942041 39.687976)",
      "poi_name": "Lollicup",
      "osm_id": 9842655239,
      "amenity": "cafe",
      "cuisine": "bubble_tea",
      "wheelchair": "yes",
      "opening_hours": "Mo-Th 11:00-21:00; Fr-Sa 11:00-22:00; Su 12:00-20:00",
      "website": "https://www.lollicupdenver.com/",
      "internet_access": "no",
      "phone": "+1-303-504-6022",
      "outdoor_seating": "no",
      "addr_state": "CO",
      "addr_city": "Denver",
      "addr_postcode": "80222",
      "addr_street": "South Colorado Boulevard",
      "addr_housenumber": "1589",
      "value": 323.754134478362
    },
    {
      "id": 131525,
      "geometry": "POINT (-104.979456 39.693146)",
      "poi_name": "Nixon's Coffee House",
      "osm_id": 9919764523,
      "amenity": "cafe",
      "cuisine": "coffee_shop",
      "website": "https://www.nixonscoffeehouse.com/",
      "internet_access": "yes",
      "phone": "+1-303-504-5224",
      "addr_state": "CO",
      "addr_city": "Denver",
      "addr_postcode": "80210",
      "addr_street": "East Louisiana Avenue",
      "addr_housenumber": "695",
      "value": 323.754134478362
    },
    {
      "id": 134147,
      "geometry": "POINT (-104.845448 39.697656)",
      "poi_name": "Wonder Tea",
      "osm_id": 10032439917,
      "amenity": "cafe",
      "cuisine": "bubble_tea",
      "opening_hours": "Mo-Su 11:00-21:00",
      "phone": "+1-303-362-0512",
      "addr_street": "East Mississippi Avenue",
      "addr_housenumber": "141",
      "value": 323.754134478362
    },
    {
      "id": 137031,
      "geometry": "POINT (-104.971317 39.740233)",
      "poi_name": "Doppio Coffee",
      "osm_id": 6082670351,
      "amenity": "cafe",
      "addr_state": "CO",
      "addr_city": "Denver",
      "addr_postcode": "80218",
      "addr_street": "East Colfax Avenue",
      "addr_housenumber": "1245",
      "value": 323.754134478362
    },
    {
      "id": 137032,
      "geometry": "POINT (-104.992352 39.718526)",
      "poi_name": "Queen City Collective Coffee",
      "osm_id": 6082683460,
      "amenity": "cafe",
      "cuisine": "coffee_shop",
      "opening_hours": "6:30 - 14:30",
      "internet_access": "yes",
      "outdoor_seating": "yes",
      "addr_state": "CO",
      "addr_city": "Denver",
      "addr_postcode": "80223",
      "addr_street": "West 1st Avenue",
      "addr_housenumber": "305",
      "value": 323.754134478362
    },
    {
      "id": 137033,
      "geometry": "POINT (-104.986419 39.718198)",
      "poi_name": "Spur Coffee Denver",
      "osm_id": 6082688837,
      "amenity": "cafe",
      "addr_state": "CO",
      "addr_city": "Denver",
      "addr_postcode": "80203",
      "addr_street": "Lincoln Street",
      "addr_housenumber": "95",
      "value": 323.754134478362
    },
    {
      "id": 137034,
      "geometry": "POINT (-104.998873 39.71815)",
      "poi_name": "Copper Door Coffee - The Yard",
      "osm_id": 6082699927,
      "amenity": "cafe",
      "addr_state": "CO",
      "addr_city": "Denver",
      "addr_postcode": "80223",
      "addr_street": "West 1st Avenue",
      "addr_housenumber": "900",
      "value": 323.754134478362
    },
    {
      "id": 144627,
      "geometry": "POINT (-104.996836 39.752952)",
      "poi_name": "Little Owl Coffee",
      "osm_id": 7277831864,
      "amenity": "cafe",
      "addr_state": "CO",
      "addr_city": "Denver",
      "addr_postcode": "80202",
      "addr_street": "Blake Street",
      "addr_housenumber": "1555",
      "value": 323.754134478362
    },
    {
      "id": 138503,
      "geometry": "POINT (-104.966535 39.743433)",
      "poi_name": "The Weathervane Cafe",
      "osm_id": 6152647001,
      "amenity": "cafe",
      "wheelchair": "no",
      "opening_hours": "Mo-Fr 07:00-17:00; Sa-Su 08:00-17:00",
      "website": "https://weathervanecafe.com/",
      "internet_access": "wlan",
      "phone": "+1-303-355-5863",
      "takeaway": "yes",
      "outdoor_seating": "yes",
      "addr_state": "CO",
      "addr_city": "Denver",
      "addr_postcode": "80218",
      "addr_street": "East 17th Avenue",
      "addr_housenumber": "1725",
      "value": 323.754134478362
    },
    {
      "id": 140273,
      "geometry": "POINT (-104.80425 39.595352)",
      "poi_name": "Starbucks",
      "osm_id": 6238555330,
      "amenity": "cafe",
      "cuisine": "coffee_shop",
      "internet_access": "wlan",
      "phone": "+1-303-627-7441",
      "takeaway": "yes",
      "drive_through": "yes",
      "official_name": "Starbucks Coffee",
      "outdoor_seating": "yes",
      "addr_state": "CO",
      "addr_city": "Centennial",
      "addr_postcode": "80016",
      "addr_street": "East Arapahoe Road",
      "addr_housenumber": "15795",
      "value": 323.754134478362
    },
    {
      "id": 140644,
      "geometry": "POINT (-104.867406 39.688772)",
      "poi_name": "Ifka Cafe",
      "osm_id": 6254873125,
      "amenity": "cafe",
      "phone": "+1-303-745-3770",
      "addr_state": "CO",
      "addr_city": "Aurora",
      "addr_postcode": "80012",
      "addr_street": "South Havana Street",
      "addr_housenumber": "1535",
      "value": 323.754134478362
    },
    {
      "id": 141077,
      "geometry": "POINT (-104.984661 39.750834)",
      "poi_name": "Carbon Cafe and Habit Dispensary",
      "osm_id": 6271771085,
      "amenity": "cafe",
      "addr_state": "CO",
      "addr_city": "Denver",
      "addr_postcode": "80205",
      "addr_street": "California Street",
      "addr_housenumber": "2200",
      "value": 323.754134478362
    },
    {
      "id": 150130,
      "geometry": "POINT (-104.998848 39.751927)",
      "poi_name": "Common Grounds",
      "osm_id": 4044618809,
      "amenity": "cafe",
      "internet_access": "yes",
      "addr_state": "CO",
      "addr_city": "Denver",
      "addr_postcode": "80202",
      "addr_street": "17th Street",
      "addr_housenumber": "1550",
      "value": 323.754134478362
    },
    {
      "id": 144887,
      "geometry": "POINT (-104.968948 39.747434)",
      "poi_name": "Randy\u2019s",
      "osm_id": 7292804848,
      "amenity": "cafe",
      "addr_state": "CO",
      "addr_city": "Denver",
      "addr_postcode": "80205",
      "addr_street": "Franklin Street",
      "addr_housenumber": "2045",
      "value": 323.754134478362
    },
    {
      "id": 144888,
      "geometry": "POINT (-104.968013 39.744683)",
      "poi_name": "Starbucks",
      "osm_id": 7292804858,
      "amenity": "cafe",
      "cuisine": "coffee_shop",
      "takeaway": "yes",
      "official_name": "Starbucks Coffee",
      "addr_state": "CO",
      "addr_city": "Denver",
      "addr_postcode": "80218",
      "addr_street": "East 18th Avenue",
      "addr_housenumber": "1600",
      "value": 323.754134478362
    },
    {
      "id": 146549,
      "geometry": "POINT (-104.895022 39.785323)",
      "poi_name": "Starbucks",
      "osm_id": 7455227486,
      "amenity": "cafe",
      "cuisine": "coffee_shop",
      "takeaway": "yes",
      "official_name": "Starbucks Coffee",
      "addr_state": "CO",
      "addr_city": "Denver",
      "addr_postcode": "80238",
      "addr_street": "Northfield Boulevard",
      "addr_housenumber": "7990",
      "value": 323.754134478362
    },
    {
      "id": 147835,
      "geometry": "POINT (-104.991599 39.749251)",
      "poi_name": "Caf\u00e9 21 Express",
      "osm_id": 7564543860,
      "amenity": "cafe",
      "addr_state": "CO",
      "addr_city": "Denver",
      "addr_postcode": "80202",
      "addr_street": "18th Street",
      "addr_housenumber": "999",
      "value": 323.754134478362
    },
    {
      "id": 162844,
      "geometry": "POINT (-104.837172 39.696021)",
      "poi_name": "Paprika Cafe",
      "osm_id": 4944133021,
      "amenity": "cafe",
      "addr_state": "CO",
      "addr_city": "Aurora",
      "addr_postcode": "80012",
      "addr_street": "East Mississippi Avenue",
      "addr_housenumber": "13160",
      "value": 323.754134478362
    },
    {
      "id": 157285,
      "geometry": "POINT (-104.996879 39.738728)",
      "poi_name": "Starbucks",
      "osm_id": 4698476107,
      "amenity": "cafe",
      "cuisine": "coffee_shop",
      "takeaway": "yes",
      "official_name": "Starbucks Coffee",
      "addr_state": "CO",
      "addr_city": "Denver",
      "addr_postcode": "80204",
      "addr_street": "Speer Boulevard",
      "addr_housenumber": "1410",
      "value": 323.754134478362
    },
    {
      "id": 159826,
      "geometry": "POINT (-105.007662 39.745319)",
      "poi_name": "Dazbog Coffee",
      "osm_id": 4809125854,
      "amenity": "cafe",
      "addr_state": "CO",
      "addr_city": "Denver",
      "addr_postcode": "80204",
      "addr_street": "Auraria Parkway",
      "addr_housenumber": "890",
      "value": 323.754134478362
    },
    {
      "id": 152929,
      "geometry": "POINT (-104.850786 39.660069)",
      "poi_name": "The Donut House",
      "osm_id": 4168570277,
      "amenity": "cafe",
      "cuisine": "coffee_shop",
      "opening_hours": "Mo-Fr 05:00-21:00, Sa-Su 06:00-21:00",
      "phone": "+1-303-337-2771",
      "addr_state": "CO",
      "addr_city": "Aurora",
      "addr_postcode": "80014",
      "addr_street": "South Parker Road",
      "addr_housenumber": "3124",
      "value": 323.754134478362
    },
    {
      "id": 157068,
      "geometry": "POINT (-104.986218 39.757547)",
      "poi_name": "Port Side",
      "osm_id": 4684522796,
      "amenity": "cafe",
      "addr_state": "CO",
      "addr_city": "Denver",
      "addr_postcode": "80205",
      "addr_street": "Larimer Street",
      "addr_housenumber": "2500",
      "value": 323.754134478362
    },
    {
      "id": 157075,
      "geometry": "POINT (-104.986743 39.758637)",
      "poi_name": "Stowaway Kitchen",
      "osm_id": 4685099310,
      "amenity": "cafe",
      "wheelchair": "yes",
      "opening_hours": "Mo, We 07:00-15:00; Th, Fr 07:00-15:00, 17:00-22:00; Sa 08:00-15:00, 17:00-22:00; Su 08:00-15:00",
      "website": "https://stowawaydenver.com/",
      "phone": "+1-720-583-5481",
      "takeaway": "yes",
      "outdoor_seating": "yes",
      "toilets": "yes",
      "addr_state": "CO",
      "addr_city": "Denver",
      "addr_postcode": "80205",
      "addr_street": "Walnut Street",
      "addr_housenumber": "2528",
      "value": 323.754134478362
    },
    {
      "id": 158596,
      "geometry": "POINT (-104.987305 39.716465)",
      "poi_name": "Mutiny Information Cafe",
      "osm_id": 4755543456,
      "amenity": "cafe",
      "cuisine": "coffee_shop",
      "opening_hours": "Su-Th 09:00-21:00, Fr-Sa 09:00-22:00",
      "website": "https://mutinyinfocafe.com/",
      "shop": "music",
      "internet_access": "wlan",
      "outdoor_seating": "no",
      "toilets": "yes",
      "addr_state": "CO",
      "addr_city": "Denver",
      "addr_postcode": "80209",
      "addr_street": "South Broadway",
      "addr_housenumber": "2",
      "value": 323.754134478362
    },
    {
      "id": 182485,
      "geometry": "POINT (-104.974884 39.766459)",
      "poi_name": "Lekker Coffee & Watering Hole",
      "osm_id": 10893743606,
      "amenity": "cafe",
      "cuisine": "coffee_shop",
      "opening_hours": "Mo-Su 06:30-13:00",
      "website": "https://lekkercoffeerino.com",
      "internet_access": "wlan",
      "addr_postcode": "80205",
      "addr_street": "Larimer Street",
      "value": 323.754134478362
    },
    {
      "id": 165213,
      "geometry": "POINT (-104.866862 39.672233)",
      "poi_name": "Sharetea",
      "osm_id": 9523022422,
      "amenity": "cafe",
      "cuisine": "bubble_tea",
      "opening_hours": "Mo-Su 11:00-21:30",
      "website": "https://www.1992sharetea.com/usa",
      "shop": "tea",
      "phone": "+1-303-658-0381",
      "takeaway": "yes",
      "addr_state": "CO",
      "addr_city": "Aurora",
      "addr_postcode": "80014",
      "addr_street": "South Havana Street",
      "addr_housenumber": "2495",
      "value": 323.754134478362
    },
    {
      "id": 172899,
      "geometry": "POINT (-104.987852 39.676404)",
      "poi_name": "Bambu",
      "osm_id": 2418555173,
      "amenity": "cafe",
      "cuisine": "vietnamese;bubble_tea",
      "takeaway": "yes",
      "value": 323.754134478362
    },
    {
      "id": 173137,
      "geometry": "POINT (-104.913243 39.676479)",
      "poi_name": "Starbucks",
      "osm_id": 2427442539,
      "amenity": "cafe",
      "cuisine": "coffee_shop",
      "phone": "+1-303-504-4600",
      "takeaway": "yes",
      "official_name": "Starbucks Coffee",
      "addr_state": "CO",
      "addr_city": "Denver",
      "addr_postcode": "80222",
      "addr_street": "South Monaco Parkway",
      "addr_housenumber": "2223",
      "value": 323.754134478362
    },
    {
      "id": 180983,
      "geometry": "POINT (-104.904987 39.717342)",
      "poi_name": "Logan House Coffee Co.",
      "osm_id": 10826228688,
      "amenity": "cafe",
      "cuisine": "coffee_shop",
      "opening_hours": "Mo-Su 07:00-16:00",
      "website": "https://www.loganhousecoffee.com/",
      "addr_state": "CO",
      "addr_city": "Denver",
      "addr_postcode": "80230",
      "addr_street": "East Lowry Boulevard",
      "addr_housenumber": "7111",
      "value": 323.754134478362
    },
    {
      "id": 169129,
      "geometry": "POINT (-104.987978 39.656176)",
      "poi_name": "Cafe 180",
      "osm_id": 2294993357,
      "amenity": "cafe",
      "takeaway": "yes",
      "addr_state": "CO",
      "addr_city": "Englewood",
      "addr_postcode": "80113",
      "addr_street": "South Broadway",
      "addr_housenumber": "3315",
      "value": 323.754134478362
    },
    {
      "id": 173063,
      "geometry": "POINT (-104.960799 39.653952)",
      "poi_name": "Starbucks",
      "osm_id": 2423636532,
      "amenity": "cafe",
      "cuisine": "coffee_shop",
      "takeaway": "yes",
      "official_name": "Starbucks Coffee",
      "addr_postcode": "80113",
      "addr_street": "South University Boulevard",
      "addr_housenumber": "3495",
      "value": 323.754134478362
    },
    {
      "id": 173086,
      "geometry": "POINT (-104.915772 39.653626)",
      "poi_name": "Starbucks",
      "osm_id": 2424886766,
      "amenity": "cafe",
      "cuisine": "coffee_shop",
      "phone": "+1-303-691-3437",
      "takeaway": "yes",
      "official_name": "Starbucks Coffee",
      "addr_state": "CO",
      "addr_city": "Denver",
      "addr_postcode": "80222",
      "addr_street": "East Hampden Avenue",
      "addr_housenumber": "6395",
      "value": 323.754134478362
    },
    {
      "id": 174905,
      "geometry": "POINT (-104.999666 39.750363)",
      "poi_name": "Little Owl",
      "osm_id": 2500839110,
      "amenity": "cafe",
      "cuisine": "coffee_shop;pastry",
      "wheelchair": "yes",
      "opening_hours": "Mo-Fr 07:00-17:00; Sa 08:00-16:00; Su 08:00-15:00",
      "website": "https://littleowlcoffee.com/",
      "internet_access": "wlan",
      "takeaway": "yes",
      "outdoor_seating": "yes",
      "addr_state": "CO",
      "addr_city": "Denver",
      "addr_postcode": "80202",
      "addr_street": "Blake Street",
      "addr_housenumber": "1555",
      "value": 323.754134478362
    },
    {
      "id": 175542,
      "geometry": "POINT (-104.862705 39.711635)",
      "poi_name": "Starbucks",
      "osm_id": 2525008771,
      "amenity": "cafe",
      "cuisine": "coffee_shop",
      "phone": "+1-303-340-5691",
      "takeaway": "yes",
      "official_name": "Starbucks Coffee",
      "value": 323.754134478362
    },
    {
      "id": 183694,
      "geometry": "POINT (-104.845982 39.697584)",
      "poi_name": "Kung Fu Tea",
      "osm_id": 10941956969,
      "amenity": "cafe",
      "cuisine": "bubble_tea",
      "shop": "tea",
      "takeaway": "yes",
      "value": 323.754134478362
    },
    {
      "id": 187434,
      "geometry": "POINT (-104.99185 39.733705)",
      "poi_name": "Metropolis Coffee",
      "osm_id": 1068483913,
      "amenity": "cafe",
      "wheelchair": "yes",
      "internet_access": "yes",
      "addr_state": "CO",
      "addr_city": "Denver",
      "addr_postcode": "80204",
      "addr_street": "West 11th Avenue",
      "addr_housenumber": "300",
      "value": 323.754134478362
    },
    {
      "id": 187435,
      "geometry": "POINT (-104.951239 39.719582)",
      "poi_name": "Aviano Coffee",
      "osm_id": 1068489057,
      "amenity": "cafe",
      "cuisine": "coffee_shop",
      "addr_state": "CO",
      "addr_city": "Denver",
      "addr_postcode": "80206",
      "addr_street": "East 2nd Avenue",
      "addr_housenumber": "3027",
      "value": 323.754134478362
    },
    {
      "id": 188483,
      "geometry": "POINT (-104.952717 39.73998)",
      "poi_name": "Pete's Greek Town Cafe",
      "osm_id": 1156504025,
      "amenity": "cafe",
      "cuisine": "american",
      "website": "https://www.petesrestaurants.com/",
      "addr_state": "CO",
      "addr_city": "Denver",
      "addr_postcode": "80206",
      "addr_street": "East Colfax Avenue",
      "addr_housenumber": "2910",
      "value": 323.754134478362
    },
    {
      "id": 188200,
      "geometry": "POINT (-104.939341 39.698986)",
      "poi_name": "Starbucks",
      "osm_id": 1129126913,
      "amenity": "cafe",
      "cuisine": "coffee_shop",
      "description": "Starbucks coffee shop in the Barnes and Noble; External entrance to Starbucks",
      "internet_access": "wlan",
      "takeaway": "yes",
      "official_name": "Starbucks Coffee",
      "value": 323.754134478362
    },
    {
      "id": 187713,
      "geometry": "POINT (-104.940972 39.694333)",
      "poi_name": "Starbucks",
      "osm_id": 1098559075,
      "amenity": "cafe",
      "cuisine": "coffee_shop",
      "takeaway": "yes",
      "official_name": "Starbucks Coffee",
      "value": 323.754134478362
    },
    {
      "id": 188522,
      "geometry": "POINT (-104.987069 39.742735)",
      "poi_name": "Starbucks",
      "osm_id": 1158426767,
      "amenity": "cafe",
      "cuisine": "coffee_shop",
      "wheelchair": "yes",
      "takeaway": "yes",
      "official_name": "Starbucks Coffee",
      "addr_state": "CO",
      "addr_city": "Denver",
      "addr_postcode": "80202",
      "addr_street": "Broadway",
      "addr_housenumber": "1670",
      "value": 323.754134478362
    },
    {
      "id": 188503,
      "geometry": "POINT (-104.989424 39.74283)",
      "poi_name": "Peet's Coffee",
      "osm_id": 1158382692,
      "amenity": "cafe",
      "cuisine": "coffee_shop",
      "takeaway": "yes",
      "addr_state": "CO",
      "addr_city": "Denver",
      "addr_postcode": "80202",
      "addr_street": "Court Place",
      "addr_housenumber": "1550",
      "value": 323.754134478362
    },
    {
      "id": 188718,
      "geometry": "POINT (-104.957714 39.719559)",
      "poi_name": "Ink!",
      "osm_id": 1179757821,
      "amenity": "cafe",
      "cuisine": "coffee_shop",
      "addr_state": "CO",
      "addr_city": "Denver",
      "addr_postcode": "80206",
      "addr_street": "East 2nd Avenue",
      "addr_housenumber": "2415",
      "value": 323.754134478362
    },
    {
      "id": 189082,
      "geometry": "POINT (-104.953136 39.719597)",
      "poi_name": "Starbucks",
      "osm_id": 1210959024,
      "amenity": "cafe",
      "cuisine": "coffee_shop",
      "takeaway": "yes",
      "official_name": "Starbucks Coffee",
      "value": 323.754134478362
    },
    {
      "id": 190447,
      "geometry": "POINT (-104.997005 39.748386)",
      "poi_name": "Starbucks",
      "osm_id": 1295168455,
      "amenity": "cafe",
      "cuisine": "coffee_shop",
      "wheelchair": "yes",
      "takeaway": "yes",
      "official_name": "Starbucks Coffee",
      "addr_state": "CO",
      "addr_city": "Denver",
      "addr_postcode": "80202",
      "addr_street": "Larimer Street",
      "addr_housenumber": "1512",
      "value": 323.754134478362
    },
    {
      "id": 191773,
      "geometry": "POINT (-104.996246 39.749431)",
      "poi_name": "Ink Coffee",
      "osm_id": 1393657198,
      "amenity": "cafe",
      "wheelchair": "yes",
      "addr_state": "CO",
      "addr_city": "Denver",
      "addr_postcode": "80202",
      "addr_street": "17th Street",
      "addr_housenumber": "1200",
      "value": 323.754134478362
    },
    {
      "id": 190553,
      "geometry": "POINT (-104.999453 39.747439)",
      "poi_name": "Starbucks",
      "osm_id": 1303797963,
      "amenity": "cafe",
      "cuisine": "coffee_shop",
      "wheelchair": "yes",
      "takeaway": "yes",
      "official_name": "Starbucks Coffee",
      "addr_state": "CO",
      "addr_city": "Denver",
      "addr_postcode": "80202",
      "addr_street": "Larimer Street",
      "addr_housenumber": "1406",
      "value": 323.754134478362
    },
    {
      "id": 192244,
      "geometry": "POINT (-104.949665 39.740338)",
      "poi_name": "Hooked on Colfax",
      "osm_id": 1429329721,
      "amenity": "cafe",
      "cuisine": "pastry;burrito",
      "description": "Local hangout and with two basement meeting spaces. Serves coffee, beer, and light food such as breakfast and snacks on a seasonal patio.",
      "wheelchair": "limited",
      "opening_hours": "Mo-Su 07:00-22:00",
      "website": "https://hookedoncolfax.com/",
      "internet_access": "wlan",
      "phone": "+1-303-398-2665",
      "outdoor_seating": "sidewalk",
      "toilets": "yes",
      "addr_state": "CO",
      "addr_city": "Denver",
      "addr_postcode": "80206",
      "addr_street": "East Colfax Avenue",
      "addr_housenumber": "3213",
      "value": 323.754134478362
    },
    {
      "id": 192274,
      "geometry": "POINT (-105.02467 39.697919)",
      "poi_name": "Lollicup",
      "osm_id": 1431494630,
      "amenity": "cafe",
      "value": 323.754134478362
    },
    {
      "id": 192277,
      "geometry": "POINT (-104.983135 39.72503)",
      "poi_name": "Moe's Broadway Bagel",
      "osm_id": 1431546628,
      "amenity": "cafe",
      "cuisine": "coffee_shop",
      "wheelchair": "yes",
      "opening_hours": "Mo-Fr 05:30-15:00",
      "website": "http://www.moesbagel.com/",
      "phone": "+1-303-733-7331",
      "addr_state": "CO",
      "addr_city": "Denver",
      "addr_postcode": "80203",
      "addr_street": "Grant Street",
      "addr_housenumber": "550",
      "value": 323.754134478362
    },
    {
      "id": 200291,
      "geometry": "POINT (-104.987724 39.716467)",
      "poi_name": "Metropolis Coffee",
      "osm_id": 1030196179,
      "amenity": "cafe",
      "shop": "coffee",
      "addr_street": "South Broadway",
      "value": 323.754134478362
    },
    {
      "id": 199151,
      "geometry": "POINT (-104.959069 39.703016)",
      "poi_name": "Kathryn's Bakery",
      "osm_id": 940469120,
      "amenity": "cafe",
      "value": 323.754134478362
    },
    {
      "id": 198820,
      "geometry": "POINT (-104.902593 39.757906)",
      "poi_name": "Starbucks",
      "osm_id": 920425660,
      "amenity": "cafe",
      "cuisine": "coffee_shop",
      "takeaway": "yes",
      "official_name": "Starbucks Coffee",
      "addr_state": "CO",
      "addr_city": "Denver",
      "addr_postcode": "80238",
      "addr_street": "East 29th Avenue",
      "addr_housenumber": "7304",
      "value": 323.754134478362
    },
    {
      "id": 201432,
      "geometry": "POINT (-104.959626 39.678618)",
      "poi_name": "Peet's Coffee",
      "osm_id": 631828111,
      "amenity": "cafe",
      "cuisine": "coffee_shop",
      "website": "https://www.petesrestaurants.com/university-park-cafe",
      "internet_access": "wlan",
      "phone": "+1-303-733-7376",
      "takeaway": "yes",
      "addr_state": "CO",
      "addr_city": "Denver",
      "addr_postcode": "80210",
      "addr_street": "East Evans Avenue",
      "addr_housenumber": "2345",
      "value": 323.754134478362
    },
    {
      "id": 200500,
      "geometry": "POINT (-104.991376 39.748811)",
      "poi_name": "Starbucks",
      "osm_id": 590800892,
      "amenity": "cafe",
      "cuisine": "coffee_shop",
      "wheelchair": "yes",
      "takeaway": "yes",
      "official_name": "Starbucks Coffee",
      "addr_state": "CO",
      "addr_city": "Denver",
      "addr_postcode": "80202",
      "addr_street": "18th Street",
      "addr_housenumber": "999",
      "value": 323.754134478362
    },
    {
      "id": 201433,
      "geometry": "POINT (-104.95888 39.679939)",
      "poi_name": "Starbucks",
      "osm_id": 631828115,
      "amenity": "cafe",
      "cuisine": "coffee_shop",
      "opening_hours": "Mo-Fr 04:30-20:30; Sa-Su 5:00-20:30",
      "internet_access": "wlan",
      "phone": "+1-303-733-9377",
      "takeaway": "yes",
      "official_name": "Starbucks Coffee",
      "addr_state": "CO",
      "addr_city": "Denver",
      "addr_postcode": "80210",
      "addr_street": "South University Boulevard",
      "addr_housenumber": "2000",
      "value": 323.754134478362
    },
    {
      "id": 201431,
      "geometry": "POINT (-104.973065 39.711279)",
      "poi_name": "Starbucks",
      "osm_id": 631827906,
      "amenity": "cafe",
      "cuisine": "coffee_shop",
      "takeaway": "yes",
      "official_name": "Starbucks Coffee",
      "addr_postcode": "80209",
      "addr_street": "East Alameda Avenue",
      "addr_housenumber": "1209",
      "value": 323.754134478362
    },
    {
      "id": 201791,
      "geometry": "POINT (-104.977377 39.755092)",
      "poi_name": "Welton Street Cafe",
      "osm_id": 659623733,
      "amenity": "cafe",
      "cuisine": "regional",
      "opening_hours": "Mo-We 11:00-20:00, Th-Sa 11:00-22:00, Su 11:00-18:00",
      "website": "https://cityseeker.com/denver/967965-welton-street-cafe",
      "internet_access": "wlan",
      "phone": "+1-303-296-6602",
      "outdoor_seating": "no",
      "addr_state": "CO",
      "addr_city": "Denver",
      "addr_postcode": "80205",
      "addr_street": "Welton Street",
      "addr_housenumber": "2736",
      "value": 323.754134478362
    },
    {
      "id": 201541,
      "geometry": "POINT (-104.980939 39.746308)",
      "poi_name": "Fluid Coffee Bar",
      "osm_id": 637817508,
      "amenity": "cafe",
      "addr_state": "CO",
      "addr_city": "Denver",
      "addr_postcode": "80203",
      "addr_street": "East 19th Avenue",
      "addr_housenumber": "501",
      "value": 323.754134478362
    },
    {
      "id": 201794,
      "geometry": "POINT (-104.980263 39.693124)",
      "poi_name": "Duffeyroll Cafe",
      "osm_id": 659910589,
      "amenity": "cafe",
      "addr_city": "Denver",
      "addr_street": "South Pearl Street",
      "addr_housenumber": "1290",
      "value": 323.754134478362
    },
    {
      "id": 202857,
      "geometry": "POINT (-104.947618 39.717662)",
      "poi_name": "Olive & Finch",
      "osm_id": 7052516857,
      "amenity": "cafe",
      "outdoor_seating": "yes",
      "addr_state": "CO",
      "addr_city": "Denver",
      "addr_postcode": "80206",
      "addr_street": "East 1st Avenue",
      "addr_housenumber": "3390",
      "value": 323.754134478362
    },
    {
      "id": 201887,
      "geometry": "POINT (-104.995047 39.745341)",
      "poi_name": "Leela European Cafe",
      "osm_id": 663847783,
      "amenity": "cafe",
      "cuisine": "coffee_shop",
      "wheelchair": "limited",
      "opening_hours": "24/7",
      "internet_access": "wlan",
      "addr_state": "CO",
      "addr_city": "Denver",
      "addr_postcode": "80202",
      "addr_street": "15th Street",
      "addr_housenumber": "820",
      "value": 323.754134478362
    },
    {
      "id": 204065,
      "geometry": "POINT (-104.992763 39.693713)",
      "poi_name": "Starbucks",
      "osm_id": 7112609761,
      "amenity": "cafe",
      "cuisine": "coffee_shop",
      "takeaway": "yes",
      "official_name": "Starbucks Coffee",
      "value": 323.754134478362
    },
    {
      "id": 205592,
      "geometry": "POINT (-104.913965 39.652007)",
      "poi_name": "Starbucks",
      "osm_id": 7175411110,
      "amenity": "cafe",
      "cuisine": "coffee_shop",
      "takeaway": "yes",
      "official_name": "Starbucks Coffee",
      "value": 323.754134478362
    },
    {
      "id": 204638,
      "geometry": "POINT (-105.00565 39.732454)",
      "poi_name": "Choice Market Cafe",
      "osm_id": 7137577467,
      "amenity": "cafe",
      "value": 323.754134478362
    },
    {
      "id": 210555,
      "geometry": "POINT (-104.876932 39.752832)",
      "poi_name": "Rosenberg's Bagels & Delicatessen",
      "osm_id": 5108827974,
      "amenity": "cafe",
      "cuisine": "bagel",
      "opening_hours": "Tu-Su 06:00-15:00, Mo closed",
      "operator": "Josh Schwab",
      "website": "http://rosenbergs.ryanachtman.com",
      "phone": "+1-720-440-9880",
      "addr_state": "CO",
      "addr_city": "Aurora",
      "addr_postcode": "80010",
      "addr_street": "Dallas Street",
      "addr_housenumber": "2501",
      "value": 323.754134478362
    },
    {
      "id": 205632,
      "geometry": "POINT (-104.966929 39.725433)",
      "poi_name": "Novo Coffee",
      "osm_id": 7176428866,
      "amenity": "cafe",
      "cuisine": "coffee_shop",
      "opening_hours": "Mo-Fr 06:30-18:00; Sa-Su 07:00-18:00",
      "addr_state": "CO",
      "addr_city": "Denver",
      "addr_postcode": "80218",
      "addr_street": "East 6th Avenue",
      "addr_housenumber": "1700",
      "value": 323.754134478362
    },
    {
      "id": 206358,
      "geometry": "POINT (-104.986443 39.725368)",
      "poi_name": "Starbucks",
      "osm_id": 7206797584,
      "amenity": "cafe",
      "cuisine": "coffee_shop",
      "takeaway": "yes",
      "official_name": "Starbucks Coffee",
      "addr_state": "CO",
      "addr_city": "Denver",
      "addr_postcode": "80203",
      "addr_street": "Lincoln Street",
      "addr_housenumber": "575",
      "value": 323.754134478362
    },
    {
      "id": 209310,
      "geometry": "POINT (-104.939497 39.704704)",
      "poi_name": "Native Foods Cafe",
      "osm_id": 5031469994,
      "amenity": "cafe",
      "cuisine": "regional",
      "opening_hours": "Mo-Su 11:00-22:00",
      "website": "https://www.nativefoods.com/locations/colorado/glendale/",
      "phone": "+1-303-758-3440",
      "addr_state": "CO",
      "addr_city": "Glendale",
      "addr_postcode": "80246",
      "addr_street": "South Colorado Boulevard",
      "addr_housenumber": "680",
      "value": 323.754134478362
    },
    {
      "id": 209312,
      "geometry": "POINT (-104.939228 39.704721)",
      "poi_name": "Platform T",
      "osm_id": 5031469996,
      "amenity": "cafe",
      "cuisine": "coffee_shop",
      "opening_hours": "08:00-20:00",
      "website": "https://www.platformt.com/locations/",
      "phone": "+1-303-756-1464",
      "addr_state": "CO",
      "addr_city": "Glendale",
      "addr_postcode": "80246",
      "addr_street": "South Colorado Boulevard",
      "addr_housenumber": "682",
      "value": 323.754134478362
    },
    {
      "id": 209990,
      "geometry": "POINT (-104.865352 39.691731)",
      "poi_name": "Starbucks",
      "osm_id": 5070574488,
      "amenity": "cafe",
      "cuisine": "coffee_shop",
      "takeaway": "yes",
      "official_name": "Starbucks Coffee",
      "value": 323.754134478362
    },
    {
      "id": 210213,
      "geometry": "POINT (-104.919102 39.731126)",
      "poi_name": "Copper Door Coffee Roasters",
      "osm_id": 5086747345,
      "amenity": "cafe",
      "cuisine": "coffee_shop;pastry",
      "opening_hours": "Mo-Fr 06:00-17:00, Sa-Su 07:00-16:00",
      "addr_state": "CO",
      "addr_city": "Denver",
      "addr_postcode": "80220",
      "addr_street": "Jersey Street",
      "addr_housenumber": "932",
      "value": 323.754134478362
    },
    {
      "id": 210214,
      "geometry": "POINT (-104.920836 39.739856)",
      "poi_name": "BluNozer Cafe",
      "osm_id": 5086747346,
      "amenity": "cafe",
      "cuisine": "coffee_shop;breakfast;burrito;quiche;pie",
      "opening_hours": "Tu-Sa 07:00-14:00",
      "outdoor_seating": "yes",
      "addr_state": "CO",
      "addr_city": "Denver",
      "addr_postcode": "80220",
      "addr_street": "Ivy Street",
      "addr_housenumber": "1475",
      "value": 323.754134478362
    },
    {
      "id": 210556,
      "geometry": "POINT (-104.877566 39.752997)",
      "poi_name": "Churreria de Madrid",
      "osm_id": 5108827975,
      "amenity": "cafe",
      "website": "https://www.churreriademadrid.com/",
      "phone": "+1 720 637 7399",
      "addr_state": "CO",
      "addr_city": "Aurora",
      "addr_postcode": "80010",
      "addr_street": "Dallas Street",
      "addr_housenumber": "2501",
      "value": 323.754134478362
    },
    {
      "id": 210558,
      "geometry": "POINT (-104.877161 39.752889)",
      "poi_name": "Logan House Coffee Co.",
      "osm_id": 5108827977,
      "amenity": "cafe",
      "cuisine": "coffee_shop",
      "opening_hours": "Mo-Fr 07:00-18:00, Sa-Su 07:00-20:00",
      "website": "https://www.loganhousecoffee.com/",
      "phone": "+1-720-515-7752",
      "addr_state": "CO",
      "addr_city": "Aurora",
      "addr_postcode": "80010",
      "addr_street": "Dallas Street",
      "addr_housenumber": "2501",
      "value": 323.754134478362
    },
    {
      "id": 212219,
      "geometry": "POINT (-104.956915 39.719274)",
      "poi_name": "Peet's Coffee",
      "osm_id": 5195385378,
      "amenity": "cafe",
      "cuisine": "coffee_shop",
      "internet_access": "yes",
      "takeaway": "yes",
      "addr_city": "Denver",
      "addr_postcode": "80206",
      "addr_street": "East 2nd Avenue",
      "addr_housenumber": "2500",
      "value": 323.754134478362
    },
    {
      "id": 210687,
      "geometry": "POINT (-104.979951 39.762433)",
      "poi_name": "Novo Coffee",
      "osm_id": 5114018833,
      "amenity": "cafe",
      "addr_state": "CO",
      "addr_city": "Denver",
      "addr_postcode": "80205",
      "addr_street": "Larimer Street",
      "addr_housenumber": "3008",
      "value": 323.754134478362
    },
    {
      "id": 211164,
      "geometry": "POINT (-104.996 39.746038)",
      "poi_name": "15th Street Cafe",
      "osm_id": 5143270964,
      "amenity": "cafe",
      "addr_state": "CO",
      "addr_city": "Denver",
      "addr_postcode": "80202",
      "addr_street": "15th Street",
      "addr_housenumber": "930",
      "value": 323.754134478362
    },
    {
      "id": 213351,
      "geometry": "POINT (-105.003548 39.741739)",
      "poi_name": "Vanilla Bean Coffee House",
      "osm_id": 5246654270,
      "amenity": "cafe",
      "addr_state": "CO",
      "addr_city": "Denver",
      "addr_postcode": "80204",
      "addr_street": "9th Street",
      "addr_housenumber": "1041",
      "value": 323.754134478362
    },
    {
      "id": 213354,
      "geometry": "POINT (-105.005838 39.744677)",
      "poi_name": "Starbucks",
      "osm_id": 5246704164,
      "amenity": "cafe",
      "cuisine": "coffee_shop",
      "takeaway": "yes",
      "official_name": "Starbucks Coffee",
      "addr_state": "CO",
      "addr_city": "Denver",
      "addr_postcode": "80204",
      "addr_street": "Auraria Parkway",
      "addr_housenumber": "900",
      "value": 323.754134478362
    },
    {
      "id": 213352,
      "geometry": "POINT (-105.009183 39.741714)",
      "poi_name": "ZGo's Cafe",
      "osm_id": 5246654271,
      "amenity": "cafe",
      "website": "https://zgosco.com/",
      "internet_access": "wlan",
      "outdoor_seating": "no",
      "addr_state": "CO",
      "addr_city": "Denver",
      "addr_postcode": "80204",
      "addr_street": "5th Street",
      "addr_housenumber": "1201",
      "value": 323.754134478362
    },
    {
      "id": 215691,
      "geometry": "POINT (-104.937155 39.666482)",
      "poi_name": "Starbucks",
      "osm_id": 5309574019,
      "amenity": "cafe",
      "cuisine": "coffee_shop",
      "takeaway": "yes",
      "official_name": "Starbucks Coffee",
      "addr_city": "Denver",
      "addr_postcode": "80222",
      "addr_street": "South Colorado Boulevard",
      "addr_housenumber": "2750",
      "value": 323.754134478362
    },
    {
      "id": 214940,
      "geometry": "POINT (-104.875152 39.675364)",
      "poi_name": "Sonder Coffee & Tea",
      "osm_id": 5283324060,
      "amenity": "cafe",
      "cuisine": "coffee_shop",
      "opening_hours": "Mo-Su 06:30-18:30",
      "website": "https://sondercoffee.co/",
      "phone": "+1-720-295-4674",
      "addr_state": "CO",
      "addr_city": "Denver",
      "addr_postcode": "80231",
      "addr_street": "East Iliff Avenue",
      "addr_housenumber": "9731",
      "value": 323.754134478362
    },
    {
      "id": 214398,
      "geometry": "POINT (-104.884566 39.626391)",
      "poi_name": "Starbucks",
      "osm_id": 5271276952,
      "amenity": "cafe",
      "cuisine": "coffee_shop",
      "takeaway": "yes",
      "official_name": "Starbucks Coffee",
      "addr_state": "CO",
      "addr_city": "Greenwood Village",
      "addr_postcode": "80111",
      "addr_street": "South Yosemite Street",
      "addr_housenumber": "4910",
      "value": 323.754134478362
    },
    {
      "id": 215245,
      "geometry": "POINT (-104.88468 39.63182)",
      "poi_name": "Tea+",
      "osm_id": 5292558419,
      "amenity": "cafe",
      "cuisine": "bubble_tea;wings;asian",
      "opening_hours": "Mo-Su 10:30-20:30",
      "website": "https://teaplus.getrestaurantops.com",
      "internet_access": "no",
      "phone": "+1-303-770-5957",
      "addr_state": "CO",
      "addr_city": "Greenwood Village",
      "addr_postcode": "80111",
      "addr_street": "South Yosemite Street",
      "addr_housenumber": "4690",
      "value": 323.754134478362
    },
    {
      "id": 215247,
      "geometry": "POINT (-104.88466 39.632306)",
      "poi_name": "The French Press",
      "osm_id": 5292558823,
      "amenity": "cafe",
      "cuisine": "coffee_shop",
      "opening_hours": "Mo-Fr 06:30-15:00, Sa-Su 07:00-15:00",
      "addr_state": "CO",
      "addr_city": "Greenwood Village",
      "addr_postcode": "80111",
      "addr_street": "South Yosemite Street",
      "addr_housenumber": "4668",
      "value": 323.754134478362
    },
    {
      "id": 219945,
      "geometry": "POINT (-104.937154 39.69992)",
      "poi_name": "Cafe Typica",
      "osm_id": 9351409059,
      "amenity": "cafe",
      "value": 323.754134478362
    },
    {
      "id": 215993,
      "geometry": "POINT (-104.988593 39.710419)",
      "poi_name": "Starbucks",
      "osm_id": 9146354594,
      "amenity": "cafe",
      "cuisine": "coffee_shop",
      "takeaway": "yes",
      "official_name": "Starbucks Coffee",
      "value": 323.754134478362
    },
    {
      "id": 222000,
      "geometry": "POINT (-104.822586 39.624886)",
      "poi_name": "New Day Cafe",
      "osm_id": 11001557874,
      "amenity": "cafe",
      "addr_state": "CO",
      "addr_city": "Aurora",
      "addr_postcode": "80015",
      "addr_street": "South Parker Road",
      "addr_housenumber": "5001",
      "value": 323.754134478362
    },
    {
      "id": 221514,
      "geometry": "POINT (-104.987928 39.734146)",
      "poi_name": "Cherry Bean",
      "osm_id": 10981434337,
      "amenity": "cafe",
      "cuisine": "coffee_shop",
      "wheelchair": "yes",
      "addr_state": "CO",
      "addr_city": "Denver",
      "addr_postcode": "80203",
      "addr_street": "Broadway",
      "addr_housenumber": "1111",
      "value": 323.754134478362
    },
    {
      "id": 221862,
      "geometry": "POINT (-104.865513 39.721012)",
      "poi_name": "Cozy Cafe",
      "osm_id": 10993266439,
      "amenity": "cafe",
      "value": 323.754134478362
    },
    {
      "id": 229025,
      "geometry": "POINT (-104.87 39.673295)",
      "poi_name": "Grounds for Dismissal Coffee",
      "osm_id": 4363720357,
      "amenity": "cafe",
      "cuisine": "breakfast;coffee_shop;lunch",
      "opening_hours": "Mo-Fr 07:00-13:30",
      "website": "https://gfdcoffee.com",
      "phone": "+1-720-437-1120",
      "outdoor_seating": "yes",
      "addr_state": "CO",
      "addr_city": "Denver",
      "addr_postcode": "80231",
      "addr_street": "East Harvard Avenue",
      "addr_housenumber": "10065",
      "value": 323.754134478362
    },
    {
      "id": 224914,
      "geometry": "POINT (-104.977041 39.759411)",
      "poi_name": "Rivers and Roads Coffee",
      "osm_id": 11103481462,
      "amenity": "cafe",
      "cuisine": "coffee_shop",
      "opening_hours": "Mo-Fr 07:00-15:00; Sa,Su 08:00-15:00",
      "website": "https://riversandroadscoffee.com",
      "addr_state": "CO",
      "addr_city": "Denver",
      "addr_postcode": "80205",
      "addr_street": "Champa Street",
      "addr_housenumber": "2960",
      "value": 323.754134478362
    },
    {
      "id": 227942,
      "geometry": "POINT (-104.990106 39.743284)",
      "poi_name": "Corner Bakery",
      "osm_id": 4323700577,
      "amenity": "cafe",
      "cuisine": "coffee_shop",
      "wheelchair": "yes",
      "takeaway": "yes",
      "addr_state": "CO",
      "addr_city": "Denver",
      "addr_postcode": "80202",
      "addr_street": "16th Street Mall",
      "addr_housenumber": "500",
      "value": 323.754134478362
    },
    {
      "id": 228094,
      "geometry": "POINT (-104.974416 39.757418)",
      "poi_name": "Queen City Collective Coffee",
      "osm_id": 4330697271,
      "amenity": "cafe",
      "addr_state": "CO",
      "addr_city": "Denver",
      "addr_postcode": "80205",
      "addr_street": "Welton Street",
      "addr_housenumber": "2962",
      "value": 323.754134478362
    },
    {
      "id": 225886,
      "geometry": "POINT (-104.809028 39.594039)",
      "poi_name": "Gong Cha",
      "osm_id": 11142080454,
      "amenity": "cafe",
      "cuisine": "bubble_tea",
      "website": "https://www.gongchacolorado.online/",
      "takeaway": "yes",
      "addr_state": "CO",
      "addr_city": "Aurora",
      "addr_postcode": "80016",
      "addr_street": "East Briarwood Circle",
      "addr_housenumber": "15405",
      "value": 323.754134478362
    },
    {
      "id": 233525,
      "geometry": "POINT (-104.98458 39.759393)",
      "poi_name": "Crema Bodega",
      "osm_id": 4577581282,
      "amenity": "cafe",
      "addr_state": "CO",
      "addr_city": "Denver",
      "addr_postcode": "80205",
      "addr_street": "Larimer Street",
      "addr_housenumber": "2669",
      "value": 323.754134478362
    },
    {
      "id": 233414,
      "geometry": "POINT (-104.987123 39.717838)",
      "poi_name": "Moxie Eatery",
      "osm_id": 4572561790,
      "amenity": "cafe",
      "cuisine": "breakfast;sandwich",
      "opening_hours": "Mo-Sa 09:00-19:00; Su 09:00-17:00",
      "addr_street": "Broadway",
      "addr_housenumber": "70",
      "value": 323.754134478362
    },
    {
      "id": 233552,
      "geometry": "POINT (-104.889388 39.610067)",
      "poi_name": "Starbucks",
      "osm_id": 4578576587,
      "amenity": "cafe",
      "cuisine": "coffee_shop",
      "opening_hours": "Mo-Fr 05:00-19:00, Sa-Su 06:00-16:00",
      "website": "https://www.starbucks.com/store-locator/store/9236/orchard-willow-8745-e-orchard-road-greenwood-village-co-801115025",
      "internet_access": "wlan",
      "phone": "+1-720-493-1996",
      "takeaway": "yes",
      "official_name": "Starbucks Coffee",
      "addr_state": "CO",
      "addr_city": "Greenwood Village",
      "addr_postcode": "80111",
      "addr_street": "East Orchard Road",
      "addr_housenumber": "8745",
      "value": 323.754134478362
    },
    {
      "id": 239103,
      "geometry": "POINT (-104.980305 39.689681)",
      "poi_name": "Stella's Gourmet Coffee and Such",
      "osm_id": 5905499262,
      "amenity": "cafe",
      "cuisine": "breakfast;coffee_shop",
      "wheelchair": "no",
      "website": "https://stellascoffee.com/",
      "internet_access": "wlan",
      "phone": "+1-303-777-1031",
      "outdoor_seating": "yes",
      "addr_state": "CO",
      "addr_city": "Denver",
      "addr_postcode": "80210",
      "addr_street": "South Pearl Street",
      "addr_housenumber": "1476",
      "value": 323.754134478362
    },
    {
      "id": 239559,
      "geometry": "POINT (-104.782239 39.560063)",
      "poi_name": "Starbucks",
      "osm_id": 5926916404,
      "amenity": "cafe",
      "cuisine": "coffee_shop",
      "takeaway": "yes",
      "official_name": "Starbucks Coffee",
      "value": 323.754134478362
    },
    {
      "id": 233987,
      "geometry": "POINT (-104.846605 39.675222)",
      "poi_name": "Beantree Coffee",
      "osm_id": 4595256158,
      "amenity": "cafe",
      "opening_hours": "Mo-Sa 06:30-20:30; Su 07:00-20:00",
      "website": "https://www.facebook.com/BeanTree-coffee-213488708765557/",
      "internet_access": "wlan",
      "phone": "+1-303-396-6178",
      "outdoor_seating": "yes",
      "addr_state": "CO",
      "addr_city": "Aurora",
      "addr_postcode": "80014",
      "addr_street": "East Iliff Avenue",
      "addr_housenumber": "12101",
      "value": 323.754134478362
    },
    {
      "id": 242189,
      "geometry": "POINT (-104.89917 39.733894)",
      "poi_name": "Regal Bakery & Cafe",
      "osm_id": 6059045987,
      "amenity": "cafe",
      "opening_hours": "Mo-Fr 07:00-14:00; Sa-Su 08:00-14:00 \"private chess parties\"",
      "website": "http://www.regalbakeryandcafe.com",
      "phone": "+1-720-389-7796",
      "addr_state": "CO",
      "addr_city": "Denver",
      "addr_postcode": "80220",
      "addr_street": "Syracuse Street",
      "addr_housenumber": "1141",
      "value": 323.754134478362
    }
  ],
  "answer_type": "name",
  "question_entities": {
    "[2]": {
      "distance": 30000,
      "text": "30 kilometers"
    },
    "[3]": {
      "main_category": "amenity",
      "sub_category": "hospital",
      "display_name": "Children's Hospital Colorado at Parker Adventist Hospital, Emergency Care, Parker, Parker, CO",
      "geo_wkt": "POINT (-104.769926 39.547935)",
      "poi": {
        "id": 46398,
        "geometry": "POINT (-104.769926 39.547935)",
        "poi_name": "Children's Hospital Colorado at Parker Adventist Hospital, Emergency Care, Parker",
        "osm_id": 3262306022,
        "amenity": "hospital",
        "opening_hours": "24/7",
        "operator": "Children's Hospital Colorado",
        "website": "https://www.childrenscolorado.org/your-visit/locations/parker-adventist-hospital/",
        "phone": "+1-720-777-1350",
        "healthcare": "hospital",
        "emergency": "yes",
        "addr_state": "CO",
        "addr_city": "Parker",
        "addr_postcode": "80138",
        "addr_street": "Crown Crest Boulevard",
        "addr_housenumber": "9395"
      }
    },
    "[4]": {
      "main_category": "tourism",
      "sub_category": "gallery",
      "display_name": "Suzanne Kramer, Denver, CO",
      "geo_wkt": "POINT (-104.977037 39.765773)",
      "poi": {
        "id": 14952,
        "geometry": "POINT (-104.977037 39.765773)",
        "poi_name": "Suzanne Kramer",
        "osm_id": 4769116439,
        "tourism": "gallery",
        "addr_state": "CO",
        "addr_city": "Denver",
        "addr_postcode": "80205",
        "addr_street": "Walnut Street",
        "addr_housenumber": "3300"
      }
    },
    "[1]": {
      "main_category": "amenity",
      "sub_category": "cafe"
    }
  },
  "id": 1601,
  "type": "range:towards+name"
}