{
  "question": "Could you track down a takeaway restaurant and is conveniently situated within 140 kilometers from All Creatures Memorial Park, Tesuque, NM?",
  "sql": "SELECT * FROM pois\nWHERE ST_DWithin(pois.geometry, ST_GeomFromText('POINT (-105.919623 35.743705)',4326)::geography, 140000)\nAND amenity = 'restaurant'\nAND takeaway ILIKE '%yes%';\n",
  "answers": [
    {
      "id": 29166,
      "geometry": "POINT (-106.370448 35.123784)",
      "poi_name": "Greenside Cafe",
      "osm_id": 8285303426,
      "amenity": "restaurant",
      "cuisine": "american",
      "wheelchair": "yes",
      "opening_hours": "Mo-Tu 16:00-19:00, We-Sa 11:00-19:00, Su 11:00-14:00",
      "website": "https://www.greenside.cafe/",
      "phone": "+1 (505) 286-2684",
      "takeaway": "yes",
      "delivery": "no",
      "addr_state": "NM",
      "addr_city": "Cedar Crest",
      "addr_postcode": "87008",
      "addr_street": "North Highway 14",
      "addr_housenumber": "12165"
    },
    {
      "id": 42633,
      "geometry": "POINT (-105.962926 35.672777)",
      "poi_name": "Counter Culture Cafe",
      "osm_id": 3073680993,
      "amenity": "restaurant",
      "cuisine": "american;new_mexican;mexican",
      "wheelchair": "yes",
      "opening_hours": "Mo-Su 08:00-15:00",
      "website": "http://www.counterculturesantafe.com/home",
      "phone": "+15059951105",
      "takeaway": "yes",
      "outdoor_seating": "yes",
      "addr_state": "NM",
      "addr_city": "Santa Fe",
      "addr_postcode": "87501",
      "addr_street": "Baca Street",
      "addr_housenumber": "930"
    },
    {
      "id": 62511,
      "geometry": "POINT (-106.579156 35.131846)",
      "poi_name": "Rex's Burgers",
      "osm_id": 5572360141,
      "amenity": "restaurant",
      "cuisine": "breakfast;burger;sandwich",
      "opening_hours": "Mo-Su 09:00-21:00",
      "phone": "(505) 837-2827",
      "takeaway": "yes",
      "outdoor_seating": "yes",
      "addr_state": "NM",
      "addr_city": "Albuquerque",
      "addr_street": "Montgomery Boulevard NE",
      "addr_housenumber": "5555"
    },
    {
      "id": 62765,
      "geometry": "POINT (-105.943376 35.683961)",
      "poi_name": "Pizza Centro",
      "osm_id": 5585491375,
      "amenity": "restaurant",
      "cuisine": "pizza;italian",
      "opening_hours": "Mo-Su 11:30-20:30",
      "website": "https://www.pizzacentronys.com/downtown-menu.html",
      "phone": "+1-505-988-8825",
      "takeaway": "yes",
      "outdoor_seating": "yes",
      "addr_state": "NM",
      "addr_city": "Santa Fe",
      "addr_postcode": "87501",
      "addr_street": "Cerrillos Road",
      "addr_housenumber": "418"
    },
    {
      "id": 62766,
      "geometry": "POINT (-105.943652 35.684)",
      "poi_name": "Cleopatra Cafe",
      "osm_id": 5585491376,
      "amenity": "restaurant",
      "cuisine": "greek;mediterranean;gyros",
      "opening_hours": "11:00-20:00",
      "website": "https://www.cleopatrasantafe.com/",
      "phone": "+1-505-820-7381",
      "takeaway": "yes",
      "outdoor_seating": "no",
      "addr_state": "NM",
      "addr_city": "Santa Fe",
      "addr_postcode": "87501",
      "addr_street": "Cerrillos Road",
      "addr_housenumber": "418"
    },
    {
      "id": 75258,
      "geometry": "POINT (-106.753224 34.813537)",
      "poi_name": "Pizza9",
      "osm_id": 9721690049,
      "amenity": "restaurant",
      "cuisine": "pizza",
      "wheelchair": "yes",
      "opening_hours": "Su-Th 09:30-23:00,Fr-Sa 09:30-24:00",
      "website": "https://pizzanine.com/los-lunas",
      "phone": "+1-505-866-6463",
      "takeaway": "yes",
      "outdoor_seating": "no",
      "delivery": "yes",
      "addr_state": "NM",
      "addr_city": "Los Lunas",
      "addr_postcode": "87031",
      "addr_street": "Main Street Southwest",
      "addr_housenumber": "1603"
    },
    {
      "id": 85330,
      "geometry": "POINT (-106.564135 35.130481)",
      "poi_name": "Yeller Sub",
      "osm_id": 1858009770,
      "amenity": "restaurant",
      "cuisine": "sandwich;ice_cream",
      "wheelchair": "yes",
      "website": "https://yellersub.com/",
      "phone": "+1-505-888-9784",
      "takeaway": "yes",
      "drive_through": "no",
      "outdoor_seating": "yes",
      "addr_state": "NM",
      "addr_city": "Albuquerque",
      "addr_postcode": "87109",
      "addr_street": "Montgomery Boulevard Northeast",
      "addr_housenumber": "7200"
    },
    {
      "id": 91580,
      "geometry": "POINT (-106.648392 35.083252)",
      "poi_name": "Pizza 9",
      "osm_id": 2074560280,
      "amenity": "restaurant",
      "cuisine": "pizza",
      "opening_hours": "Mo-Th 09:00-23:00; Fr 09:00-24:00; Sa 10:00-24:00; Su 10:00-23:00",
      "website": "https://pizzanine.com/",
      "phone": "+1-505-843-6463",
      "takeaway": "yes",
      "outdoor_seating": "no",
      "delivery": "yes",
      "addr_state": "NM",
      "addr_city": "Albuquerque",
      "addr_postcode": "87102",
      "addr_street": "Gold Ave SW",
      "addr_housenumber": "101"
    },
    {
      "id": 95894,
      "geometry": "POINT (-106.56385 35.096993)",
      "poi_name": "Crackin' Crab Seafood Boil",
      "osm_id": 6415311245,
      "amenity": "restaurant",
      "cuisine": "seafood",
      "description": "casual dine in restaurant specializing in quality Cajun seafood boil cuisine in the southwest",
      "opening_hours": "Su-Th 12:00-21:00; Fr-Sa 12:00-22:00",
      "website": "https://www.crackincrab.com/",
      "phone": "+1-505-433-4611",
      "takeaway": "yes",
      "outdoor_seating": "yes",
      "delivery": "yes",
      "addr_state": "NM",
      "addr_city": "Albuquerque",
      "addr_postcode": "87110",
      "addr_street": "Louisiana Boulevard Northeast",
      "addr_housenumber": "2100"
    },
    {
      "id": 97747,
      "geometry": "POINT (-105.996878 35.655562)",
      "poi_name": "MAMA's World Take-Out",
      "osm_id": 6492284741,
      "amenity": "restaurant",
      "cuisine": "american;asian;mediterranean;mexican",
      "phone": "+1 505 989 8028",
      "takeaway": "yes",
      "outdoor_seating": "yes",
      "addr_state": "NM",
      "addr_city": "Santa Fe",
      "addr_postcode": "87507",
      "addr_street": "Agua Fria Street",
      "addr_housenumber": "3134"
    },
    {
      "id": 98866,
      "geometry": "POINT (-105.939238 35.686523)",
      "poi_name": "Rooftop Pizzeria",
      "osm_id": 6534336601,
      "amenity": "restaurant",
      "cuisine": "pizza",
      "opening_hours": "closed",
      "takeaway": "yes",
      "outdoor_seating": "yes",
      "addr_state": "NM",
      "addr_city": "Santa Fe",
      "addr_postcode": "87501",
      "addr_street": "East San Francisco Street",
      "addr_housenumber": "60"
    },
    {
      "id": 112625,
      "geometry": "POINT (-106.592061 35.078864)",
      "poi_name": "Taco Tote! Albuquerque",
      "osm_id": 3798356456,
      "amenity": "restaurant",
      "cuisine": "mexican",
      "opening_hours": "Mo-Su 10:00 -20:00",
      "website": "https://tacotote.com",
      "phone": "505-265-5188",
      "takeaway": "yes",
      "delivery": "yes",
      "addr_state": "NM",
      "addr_city": "Albuquerque",
      "addr_postcode": "87108",
      "addr_street": "Central Avenue Northeast",
      "addr_housenumber": "4701"
    },
    {
      "id": 107813,
      "geometry": "POINT (-106.349056 35.161573)",
      "poi_name": "Lazy Lizard Grill",
      "osm_id": 3579363491,
      "amenity": "restaurant",
      "cuisine": "american",
      "phone": "+1-505-281-9122",
      "takeaway": "yes",
      "addr_state": "NM",
      "addr_city": "Sandia Park",
      "addr_postcode": "87008",
      "addr_street": "NM-14",
      "addr_housenumber": "12480"
    },
    {
      "id": 111382,
      "geometry": "POINT (-106.516049 35.098363)",
      "poi_name": "Szechwan Chinese Restaurant",
      "osm_id": 3744889126,
      "amenity": "restaurant",
      "cuisine": "chinese",
      "wheelchair": "yes",
      "opening_hours": "Mo-Th 11:00-20:30; Fr 11:00-21:30; Sa 12:00-21:30; Su 16:00-20:30",
      "website": "www.szechwanabq.com",
      "phone": "5052999133",
      "takeaway": "yes",
      "outdoor_seating": "no",
      "delivery": "no",
      "addr_state": "NM",
      "addr_city": "Albuquerque",
      "addr_postcode": "87112",
      "addr_street": "Juan Tabo Boulevard Northeast",
      "addr_housenumber": "1605"
    },
    {
      "id": 128590,
      "geometry": "POINT (-106.497026 35.07345)",
      "poi_name": "Sushi Xuan Asian Grill",
      "osm_id": 8172334553,
      "amenity": "restaurant",
      "cuisine": "japanese",
      "website": "https://www.sushixuannm.com/",
      "internet_access": "wlan",
      "takeaway": "yes",
      "outdoor_seating": "no",
      "addr_state": "NM",
      "addr_city": "Albuquerque",
      "addr_postcode": "87123",
      "addr_street": "417 Tramway Blvd NE"
    },
    {
      "id": 155963,
      "geometry": "POINT (-106.939469 35.034832)",
      "poi_name": "Laguna Burger",
      "osm_id": 4636291961,
      "amenity": "restaurant",
      "cuisine": "burger",
      "opening_hours": "06:00-22:00",
      "takeaway": "yes",
      "outdoor_seating": "yes",
      "addr_state": "NM",
      "addr_city": "Albuquerque",
      "addr_postcode": "87121",
      "addr_street": "Central Avenue Northwest",
      "addr_housenumber": "14311"
    },
    {
      "id": 134952,
      "geometry": "POINT (-106.535078 35.117138)",
      "poi_name": "Michelle's Italian and Pizzeria",
      "osm_id": 11497638305,
      "amenity": "restaurant",
      "cuisine": "pizza;italian",
      "opening_hours": "Tu-Th 15:00-20:00; Fr 15:00-21:00; Sa 12:00-19:00; Su 12:00-19:00",
      "website": "https://www.michellesitalianpizzeriamenu.com",
      "phone": "+1-505-357-2161",
      "takeaway": "yes",
      "delivery": "yes",
      "addr_state": "NM",
      "addr_city": "Albuquerque",
      "addr_postcode": "87111",
      "addr_street": "Eubank Boulevard Northeast",
      "addr_housenumber": "3107"
    },
    {
      "id": 134955,
      "geometry": "POINT (-106.551239 35.123363)",
      "poi_name": "Poki Poki Cevicheria",
      "osm_id": 11497652078,
      "amenity": "restaurant",
      "opening_hours": "Su-Mo 11:00-20:30; Tu-Sa 11:00-21:00",
      "website": "https://www.pokipokinm.net",
      "phone": "+1-505-503-6806",
      "takeaway": "yes",
      "outdoor_seating": "yes",
      "delivery": "yes",
      "toilets": "yes",
      "addr_state": "NM",
      "addr_city": "Albuquerque",
      "addr_postcode": "87111",
      "addr_street": "Wyoming Boulevard Northeast",
      "addr_housenumber": "3517"
    },
    {
      "id": 153886,
      "geometry": "POINT (-105.949422 35.673247)",
      "poi_name": "Pyramid Cafe",
      "osm_id": 4215678089,
      "amenity": "restaurant",
      "cuisine": "mediterranean",
      "description": "Mediterranean, Greek, Tunisian",
      "website": "https://www.pyramidcafesf.com/",
      "phone": "+1 505-989-1378",
      "takeaway": "yes",
      "addr_state": "NM",
      "addr_city": "Santa Fe",
      "addr_postcode": "87501",
      "addr_street": "West Cordova Road",
      "addr_housenumber": "505"
    },
    {
      "id": 158326,
      "geometry": "POINT (-105.93797 35.689532)",
      "poi_name": "Tres Colores",
      "osm_id": 4743191470,
      "amenity": "restaurant",
      "cuisine": "regional;mexican",
      "opening_hours": "Mo-Sa 08:30-19:00; Su 11:00-19:00",
      "website": "http://facebook.com/Tres-Colores-992159257485682/",
      "phone": "1-505-490-0296",
      "takeaway": "yes",
      "outdoor_seating": "yes",
      "addr_state": "NM",
      "addr_city": "Santa Fe",
      "addr_postcode": "87501",
      "addr_street": "West Marcy Street",
      "addr_housenumber": "101"
    },
    {
      "id": 157179,
      "geometry": "POINT (-105.965066 35.662764)",
      "poi_name": "Back Roads Pizza",
      "osm_id": 4691618623,
      "amenity": "restaurant",
      "cuisine": "pizza",
      "opening_hours": "11:30-21:00; Fr,Sa 11:30-22:00",
      "website": "https://backroadpizza.com/menus/",
      "phone": "+1-505-955-9055",
      "takeaway": "yes",
      "outdoor_seating": "yes",
      "addr_state": "NM",
      "addr_city": "Santa Fe",
      "addr_postcode": "87505",
      "addr_street": "2nd Street",
      "addr_housenumber": "1807"
    },
    {
      "id": 157329,
      "geometry": "POINT (-105.936644 35.689176)",
      "poi_name": "Izmi Sushi",
      "osm_id": 4702458223,
      "amenity": "restaurant",
      "cuisine": "japanese",
      "website": "http://www.izmisantafe.com/",
      "phone": "+1-505-424-1311",
      "takeaway": "yes",
      "addr_state": "NM",
      "addr_city": "Santa Fe",
      "addr_postcode": "87501",
      "addr_street": "East Marcy Street",
      "addr_housenumber": "105"
    },
    {
      "id": 158334,
      "geometry": "POINT (-105.937387 35.687954)",
      "poi_name": "Burrito Company",
      "osm_id": 4743376394,
      "amenity": "restaurant",
      "cuisine": "burrito;mexican",
      "opening_hours": "Mo-Fr 07:30-16:00; Sa,Su 08:00-16:30",
      "website": "https://www.burritocompanysf.com/",
      "phone": "+1-505-982-4453",
      "takeaway": "yes",
      "addr_state": "NM",
      "addr_city": "Santa Fe",
      "addr_postcode": "87501",
      "addr_street": "Washington Avenue",
      "addr_housenumber": "111"
    },
    {
      "id": 184578,
      "geometry": "POINT (-106.524548 35.070804)",
      "poi_name": "Dion's",
      "osm_id": 7799363896,
      "amenity": "restaurant",
      "cuisine": "pizza",
      "website": "https://www.dions.com/locations/albuquerque/central-elizabeth/",
      "phone": "+1 505 2960771",
      "takeaway": "yes",
      "outdoor_seating": "no",
      "addr_city": "Albuquerque",
      "addr_postcode": "87123",
      "addr_street": "Central Avenue",
      "addr_housenumber": "11000"
    },
    {
      "id": 159019,
      "geometry": "POINT (-105.949268 35.673222)",
      "poi_name": "Saigon Cafe",
      "osm_id": 4773385435,
      "amenity": "restaurant",
      "cuisine": "vietnamese",
      "opening_hours": "Mo-Fr 11:00-21:00; Sa 12:00-21:00",
      "website": "http://saigoncafe-sf.com",
      "takeaway": "yes",
      "outdoor_seating": "no",
      "addr_state": "NM",
      "addr_city": "Santa Fe",
      "addr_postcode": "87501",
      "addr_street": "Cordova Road",
      "addr_housenumber": "501"
    },
    {
      "id": 178062,
      "geometry": "POINT (-106.608844 35.078962)",
      "poi_name": "Ajiaco Colombian Bistro",
      "osm_id": 2613035346,
      "amenity": "restaurant",
      "cuisine": "colombian",
      "description": "Colombian restaurant with unique food. Pet Friendly",
      "opening_hours": "Tu-Th 11:00-15:00,17:00-20:00, Fr-Sa 11:00-20:00",
      "website": "https://www.ajiacobistro.com/",
      "phone": "+1 505 266-2305",
      "takeaway": "yes",
      "outdoor_seating": "yes",
      "delivery": "yes",
      "addr_state": "NM",
      "addr_city": "Albuquerque",
      "addr_postcode": "87108",
      "addr_street": "Silver Avenue Southeast",
      "addr_housenumber": "3216"
    },
    {
      "id": 185638,
      "geometry": "POINT (-106.532482 35.093389)",
      "poi_name": "Pizza Castle",
      "osm_id": 7873531152,
      "amenity": "restaurant",
      "cuisine": "pizza",
      "website": "https://pizza-castle.com/",
      "phone": "+1-505-292-8358",
      "takeaway": "yes",
      "outdoor_seating": "no",
      "delivery": "no",
      "addr_state": "NM",
      "addr_city": "Albuquerque",
      "addr_street": "Eubank Boulevard Northeast",
      "addr_housenumber": "1220"
    },
    {
      "id": 200911,
      "geometry": "POINT (-106.55005 35.09533)",
      "poi_name": "Cafe Istanbul",
      "osm_id": 600451405,
      "amenity": "restaurant",
      "cuisine": "mediterranean",
      "phone": "1-505-294-9900",
      "takeaway": "yes",
      "outdoor_seating": "no",
      "addr_state": "NM",
      "addr_city": "Albuquerque",
      "addr_postcode": "87112",
      "addr_street": "Wyoming Boulevard Northeast",
      "addr_housenumber": "1410"
    },
    {
      "id": 196442,
      "geometry": "POINT (-106.615032 35.080728)",
      "poi_name": "A Taste of the Caribbean",
      "osm_id": 10578090946,
      "amenity": "restaurant",
      "cuisine": "caribbean",
      "description": "Best Food, Great Value",
      "opening_hours": "Tu-Th 11:30-19:00, Fr-Sa 11:30-20:00",
      "website": "https://atasteofthecaribbeannm.com/",
      "phone": "+15055038428",
      "takeaway": "yes",
      "delivery": "yes",
      "addr_state": "NM",
      "addr_city": "Albuquerque",
      "addr_postcode": "87106",
      "addr_street": "Central Avenue Southeast",
      "addr_housenumber": "2720"
    },
    {
      "id": 188908,
      "geometry": "POINT (-106.606772 35.080266)",
      "poi_name": "Il Vicino",
      "osm_id": 209399249,
      "amenity": "restaurant",
      "cuisine": "pizza",
      "description": "Lively, laid-back eatery doling out traditional pizzas, pastas, and salads, plus beer and wine.",
      "wheelchair": "yes",
      "opening_hours": "Su-Th 11:00-22:00; Fr-Sa 11:00-23:00",
      "website": "https://ilvicino.com/",
      "phone": "+1-505-266-7855",
      "takeaway": "yes",
      "outdoor_seating": "yes",
      "addr_state": "NM",
      "addr_city": "Albuquerque",
      "addr_postcode": "87106",
      "addr_street": "Central Avenue Southeast",
      "addr_housenumber": "3403"
    },
    {
      "id": 188909,
      "geometry": "POINT (-106.606152 35.079774)",
      "poi_name": "Flying Star",
      "osm_id": 209511652,
      "amenity": "restaurant",
      "cuisine": "coffee_shop;regional;american",
      "internet_access": "wlan",
      "phone": "(505) 255-6633",
      "takeaway": "yes",
      "outdoor_seating": "no",
      "addr_state": "NM",
      "addr_city": "Albuquerque",
      "addr_postcode": "87106",
      "addr_street": "Central Avenue Southeast",
      "addr_housenumber": "3416"
    },
    {
      "id": 238716,
      "geometry": "POINT (-106.240328 34.52216)",
      "poi_name": "Alpine Alley",
      "osm_id": 5892353175,
      "amenity": "restaurant",
      "takeaway": "yes",
      "delivery": "no",
      "addr_state": "NM",
      "addr_city": "Mountainair",
      "addr_postcode": "87036",
      "addr_street": "North Summit Avenue",
      "addr_housenumber": "210"
    },
    {
      "id": 209973,
      "geometry": "POINT (-106.572057 35.106571)",
      "poi_name": "The Cheesecake Factory",
      "osm_id": 5070416490,
      "amenity": "restaurant",
      "cuisine": "american",
      "opening_hours": "Mo-Th 11:00-23:00, Fr-Sa 11:00-24:00, Su 10:00-23:00",
      "website": "https://locations.thecheesecakefactory.com/nm/albuquerque-193.html",
      "phone": "+1-505-883-2539",
      "takeaway": "yes",
      "outdoor_seating": "yes",
      "delivery": "no",
      "addr_state": "NM",
      "addr_city": "Albuquerque",
      "addr_postcode": "87110",
      "addr_street": "Menaul Boulevard Northeast",
      "addr_housenumber": "6600"
    },
    {
      "id": 211250,
      "geometry": "POINT (-106.611279 35.080866)",
      "poi_name": "Crazy Fish",
      "osm_id": 5148609429,
      "amenity": "restaurant",
      "cuisine": "japanese",
      "description": "Intimate Japanese eatery with a sushi bar, offering bento boxes at lunch and a sake menu.",
      "opening_hours": "Mo-Th 11:00-21:30; Fr 11:00-22:00; Sa 12:00-22:30; Su 12:00-21:30",
      "website": "https://crazyfishabq.com",
      "phone": "505-232-3474",
      "takeaway": "yes",
      "outdoor_seating": "no",
      "addr_state": "NM",
      "addr_city": "Albuquerque",
      "addr_postcode": "87106",
      "addr_street": "Central Avenue Northeast",
      "addr_housenumber": "3015"
    },
    {
      "id": 211251,
      "geometry": "POINT (-106.610581 35.081297)",
      "poi_name": "Guava Tree Cafe",
      "osm_id": 5148612044,
      "amenity": "restaurant",
      "cuisine": "caribbean",
      "description": "Relaxed eatery serving Caribbean soups and stews, homemade arepas, flan, Cuban sandwiches, Cuban coffee and more!",
      "opening_hours": "Mo-Sa 11:00-16:00; Su 11:00-15:00",
      "phone": "505-990-2599",
      "takeaway": "yes",
      "outdoor_seating": "yes",
      "addr_state": "NM",
      "addr_city": "Albuquerque",
      "addr_postcode": "87106",
      "addr_street": "Richmond Drive Northeast",
      "addr_housenumber": "118"
    },
    {
      "id": 225052,
      "geometry": "POINT (-106.599952 35.140518)",
      "poi_name": "Crackin' Crab Seafood Boil",
      "osm_id": 11109003897,
      "amenity": "restaurant",
      "cuisine": "seafood",
      "description": "casual dine in restaurant specializing in quality Cajun seafood boil cuisine in the southwest",
      "opening_hours": "Su-Th 12:00-21:00, Fr-Sa 12:00-21:30",
      "website": "https://www.crackincrab.com/",
      "phone": "+15053444469",
      "takeaway": "yes",
      "outdoor_seating": "no",
      "delivery": "yes",
      "addr_state": "NM",
      "addr_city": "Albuquerque",
      "addr_postcode": "87109",
      "addr_street": "Pan American Freeway NE",
      "addr_housenumber": "4959"
    },
    {
      "id": 225053,
      "geometry": "POINT (-106.698601 35.211726)",
      "poi_name": "Crackin' Crab Seafood Boil",
      "osm_id": 11109003898,
      "amenity": "restaurant",
      "cuisine": "seafood",
      "description": "casual dine in restaurant specializing in quality Cajun seafood boil cuisine in the southwest",
      "opening_hours": "Su-Th 12:00-21:00, Fr-Sa 12:00-22:00",
      "website": "https://www.crackincrab.com/",
      "phone": "(505) 897-5790",
      "takeaway": "yes",
      "delivery": "yes",
      "addr_state": "NM",
      "addr_city": "Albuquerque",
      "addr_postcode": "87114",
      "addr_street": "Unser Blvd NW",
      "addr_housenumber": "10600"
    },
    {
      "id": 226051,
      "geometry": "POINT (-106.602195 35.138481)",
      "poi_name": "Fuddruckers",
      "osm_id": 11147419929,
      "amenity": "restaurant",
      "cuisine": "burger",
      "opening_hours": "Su-Th 11:00-20:00, Fr-Sa 11:00-21:00",
      "website": "https://www.fuddruckers.com/albuquerque-yale-blvd",
      "phone": "15052242841",
      "takeaway": "yes",
      "outdoor_seating": "yes",
      "delivery": "yes",
      "addr_state": "NM",
      "addr_city": "Albuquerque",
      "addr_postcode": "87109",
      "addr_street": "Pan American Fwy NE",
      "addr_housenumber": "4855"
    },
    {
      "id": 231770,
      "geometry": "POINT (-106.652558 35.068546)",
      "poi_name": "El Modelo",
      "osm_id": 4486197607,
      "amenity": "restaurant",
      "cuisine": "new_mexican;mexican",
      "takeaway": "yes",
      "outdoor_seating": "yes",
      "wikidata": "Q17442194",
      "addr_state": "NM",
      "addr_city": "Albuquerque",
      "addr_postcode": "87102",
      "addr_street": "2nd Street Southwest",
      "addr_housenumber": "1715"
    },
    {
      "id": 208370,
      "geometry": "POINT (-105.950881 35.6726)",
      "poi_name": "The New Baking Company",
      "osm_id": 4988257544,
      "amenity": "restaurant",
      "cuisine": "american;mexican;cafe;bakery;burrito",
      "opening_hours": "Mo-Sa 07:00-19:00; Su 07:00-17:00",
      "website": "http://thenewbakingco.com",
      "phone": "+1-505-557-6435",
      "takeaway": "yes",
      "outdoor_seating": "yes",
      "addr_state": "NM",
      "addr_city": "Santa Fe",
      "addr_postcode": "87505",
      "addr_street": "West Cordova Road",
      "addr_housenumber": "504"
    },
    {
      "id": 233379,
      "geometry": "POINT (-105.9393 35.68648)",
      "poi_name": "The Wrap",
      "osm_id": 4571036859,
      "amenity": "restaurant",
      "cuisine": "sandwich",
      "takeaway": "yes",
      "outdoor_seating": "yes",
      "addr_state": "NM",
      "addr_city": "Santa Fe",
      "addr_postcode": "87501",
      "addr_street": "East Water Street",
      "addr_housenumber": "113"
    },
    {
      "id": 238717,
      "geometry": "POINT (-106.247683 34.516683)",
      "poi_name": "Mustang Diner",
      "osm_id": 5892353192,
      "amenity": "restaurant",
      "takeaway": "yes",
      "outdoor_seating": "no",
      "delivery": "no",
      "addr_state": "NM",
      "addr_city": "Mountainair",
      "addr_postcode": "87036",
      "addr_street": "US 60 (NM)",
      "addr_housenumber": "511"
    },
    {
      "id": 244941,
      "geometry": "POINT (-106.5557 35.175271)",
      "poi_name": "Azuma",
      "osm_id": 7752495862,
      "amenity": "restaurant",
      "cuisine": "sushi",
      "website": "https://www.azuma-sushi-teppan-abq.com/wyoming",
      "phone": "+1-505-821-3583",
      "takeaway": "yes",
      "addr_state": "NM",
      "addr_city": "Albuquerque",
      "addr_postcode": "87113",
      "addr_street": "Wymong Blvd NE",
      "addr_housenumber": "8401"
    }
  ],
  "answer_type": "loc",
  "question_entities": {
    "[1]": {
      "main_category": "amenity",
      "sub_category": "restaurant",
      "poi_filter_desc": "takeaway restaurant",
      "poi_filter_sql": "takeaway ILIKE '%yes%'"
    },
    "[2]": {
      "distance": 140000,
      "text": "140 kilometers"
    },
    "[3]": {
      "main_category": "leisure",
      "sub_category": "park",
      "display_name": "All Creatures Memorial Park, Tesuque, NM",
      "geo_wkt": "POINT (-105.919623 35.743705)",
      "poi": {
        "id": 246830,
        "geometry": "POINT (-105.919623 35.743705)",
        "poi_name": "All Creatures Memorial Park",
        "osm_id": 6485115112,
        "leisure": "park",
        "addr_state": "NM",
        "addr_city": "Tesuque",
        "addr_postcode": "87501",
        "addr_street": "Bishops Lodge Road",
        "addr_housenumber": "1406"
      }
    }
  },
  "id": 476,
  "type": "range:non_spat_filter+loc"
}