{
  "question": "What's the distance to a museum from Forest Glen Woods, IL within a 60 kilometers span?",
  "sql": "SELECT *, ST_Distance(ST_GeomFromText('POINT (-87.754949 41.980626)',4326)::geography, pois.geometry) AS distance FROM pois\nWHERE ST_DWithin(pois.geometry, ST_GeomFromText('POINT (-87.754949 41.980626)',4326)::geography, 60000)\nAND tourism = 'museum';\n",
  "answers": [
    {
      "id": 513,
      "geometry": "POINT (-87.743631 42.02596)",
      "poi_name": "Exploratorium",
      "osm_id": 8410829689,
      "tourism": "museum",
      "operator": "Skokie Park District",
      "website": "https://www.skokieparks.org/exploritorium/",
      "museum": "children",
      "addr_state": "IL",
      "addr_city": "Skokie",
      "addr_postcode": "60076",
      "addr_street": "Oakton Street",
      "addr_housenumber": "4701",
      "distance": 5121.94462744
    },
    {
      "id": 1419,
      "geometry": "POINT (-87.632568 41.87833)",
      "poi_name": "Money Museum",
      "osm_id": 2979738790,
      "tourism": "museum",
      "fee": "no",
      "opening_hours": "Mo-Fr 08:30-17:00",
      "operator": "Federal Reserve Bank of Chicago",
      "website": "https://www.chicagofed.org/education/money-museum/",
      "wikidata": "Q965251",
      "addr_state": "IL",
      "addr_city": "Chicago",
      "addr_postcode": "60604",
      "addr_street": "South LaSalle Street",
      "addr_housenumber": "230",
      "distance": 15235.92334669
    },
    {
      "id": 1497,
      "geometry": "POINT (-88.361518 41.870347)",
      "poi_name": "Peck Farm",
      "osm_id": 3013704433,
      "tourism": "museum",
      "opening_hours": "Mo-Sa 09:00-17:00; Su 12:00-17:00",
      "website": "https://www.genevaparks.org/facilities/peck-farm-park/",
      "distance": 51782.70651803
    },
    {
      "id": 1715,
      "geometry": "POINT (-88.142282 41.717878)",
      "poi_name": "McDonald Farm",
      "osm_id": 3121509000,
      "tourism": "museum",
      "website": "https://www.theconservationfoundation.org/",
      "phone": "630-428-4500",
      "museum": "nature",
      "addr_state": "IL",
      "addr_city": "Naperville",
      "addr_postcode": "60565",
      "addr_street": "Knoch Knolls Road",
      "addr_housenumber": "10S404",
      "distance": 43432.15081473
    },
    {
      "id": 2130,
      "geometry": "POINT (-88.107526 42.260034)",
      "poi_name": "Lake County Discovery Museum",
      "osm_id": 3269928614,
      "tourism": "museum",
      "website": "https://www.lcfpd.org/museum/",
      "phone": "+1-847-367-6640",
      "wikidata": "Q6475496",
      "addr_state": "IL",
      "addr_city": "Libertyville",
      "addr_postcode": "60048",
      "addr_street": "Winchester Road",
      "addr_housenumber": "1899",
      "distance": 42582.56637239
    },
    {
      "id": 6258,
      "geometry": "POINT (-87.67971 42.034765)",
      "poi_name": "American Toby Jug Museum",
      "osm_id": 1799777867,
      "tourism": "museum",
      "website": "https://www.tobyjugmuseum.com/",
      "shop": "department_store",
      "addr_state": "IL",
      "addr_city": "Evanston",
      "addr_postcode": "60202",
      "addr_street": "Chicago Avenue",
      "addr_housenumber": "910",
      "distance": 8660.7900066
    },
    {
      "id": 7823,
      "geometry": "POINT (-87.623623 41.888013)",
      "poi_name": "Chicago Architecture Center",
      "osm_id": 6423952898,
      "tourism": "museum",
      "wheelchair": "yes",
      "fee": "yes",
      "opening_hours": "Su-Tu 10:00-17:00; We-Sa 10:00-19:00",
      "operator": "Chicago Architecture Foundation",
      "website": "https://www.architecture.org/",
      "museum": "local",
      "wikidata": "Q2963292",
      "addr_state": "IL",
      "addr_city": "Chicago",
      "addr_postcode": "60601",
      "addr_street": "East Wacker Drive",
      "addr_housenumber": "111",
      "distance": 14981.46526578
    },
    {
      "id": 7838,
      "geometry": "POINT (-87.640721 41.892756)",
      "poi_name": "National Public Housing Museum",
      "osm_id": 6431592713,
      "tourism": "museum",
      "website": "https://www.nphm.org/",
      "museum": "history",
      "addr_state": "IL",
      "addr_city": "Chicago",
      "addr_postcode": "60654",
      "addr_street": "North Kingsbury Street",
      "addr_housenumber": "625",
      "distance": 13601.37535874
    },
    {
      "id": 8473,
      "geometry": "POINT (-87.673737 42.043018)",
      "poi_name": "Evanston History Center",
      "osm_id": 8488846385,
      "tourism": "museum",
      "website": "https://www.evanstonhistorycenter.org/",
      "phone": "+1-847-475-3410",
      "museum": "local",
      "addr_state": "IL",
      "addr_city": "Evanston",
      "addr_postcode": "60201",
      "addr_street": "Greenwood Street",
      "addr_housenumber": "225",
      "distance": 9658.19948282
    },
    {
      "id": 8516,
      "geometry": "POINT (-87.684007 41.894607)",
      "poi_name": "Ukrainian National Museum",
      "osm_id": 8520355484,
      "tourism": "museum",
      "opening_hours": "Th-Su 11:00-16:00",
      "website": "https://ukrainiannationalmuseum.org/",
      "phone": "+1 312 421 8020",
      "wikidata": "Q7878483",
      "distance": 11220.46005299
    },
    {
      "id": 8566,
      "geometry": "POINT (-87.716192 42.087014)",
      "poi_name": "Kenilworth Historical Society",
      "osm_id": 8559680934,
      "tourism": "museum",
      "opening_hours": "Tu 09:00-17:00; Th 09:00-17:00",
      "website": "https://kenilworthhistory.org/",
      "museum": "local",
      "addr_state": "IL",
      "addr_city": "Kenilworth",
      "addr_postcode": "60043",
      "addr_street": "Kenilworth Avenue",
      "addr_housenumber": "415",
      "distance": 12245.00479589
    },
    {
      "id": 8921,
      "geometry": "POINT (-87.624686 41.888495)",
      "poi_name": "McCormick Bridgehouse & Chicago River Museum",
      "osm_id": 3572913469,
      "tourism": "museum",
      "website": "https://www.bridgehousemuseum.org/",
      "museum": "local",
      "wikidata": "Q1928112",
      "addr_state": "IL",
      "addr_city": "Chicago",
      "addr_postcode": "60601",
      "addr_street": "North Michigan Avenue",
      "addr_housenumber": "376",
      "distance": 14880.58136368
    },
    {
      "id": 8924,
      "geometry": "POINT (-87.667816 41.718745)",
      "poi_name": "Vanderpoel Art Museum",
      "osm_id": 3574822039,
      "tourism": "museum",
      "opening_hours": "Tu,Th 13:00-16:00; Sa 10:00-12:00",
      "operator": "Vanderpoel Art Association",
      "website": "https://vanderpoelartmuseum.org/",
      "phone": "+1-773-779-0007",
      "museum": "art",
      "addr_state": "IL",
      "addr_city": "Chicago",
      "addr_postcode": "60643",
      "addr_street": "South Longwood Drive",
      "addr_housenumber": "9625",
      "distance": 29973.72117049
    },
    {
      "id": 8926,
      "geometry": "POINT (-87.703187 41.902311)",
      "poi_name": "National Museum of Puerto Rican Arts & Culture",
      "osm_id": 3575515095,
      "tourism": "museum",
      "opening_hours": "Tu-Fr 10:00-17:00; Sa 10:00-14:00",
      "website": "https://nmprac.org/",
      "phone": "+1-773-486-8345",
      "museum": "art",
      "wikidata": "Q15228725",
      "addr_state": "IL",
      "addr_city": "Chicago",
      "addr_postcode": "60622",
      "addr_street": "West Division Street",
      "addr_housenumber": "3015",
      "distance": 9700.08214771
    },
    {
      "id": 9019,
      "geometry": "POINT (-87.60102 41.789142)",
      "poi_name": "The Renaissance Society",
      "osm_id": 3629670300,
      "tourism": "museum",
      "website": "https://www.renaissancesociety.org/",
      "wikidata": "Q2143255",
      "addr_state": "IL",
      "addr_city": "Chicago",
      "addr_postcode": "60637",
      "addr_street": "South Ellis Avenue",
      "addr_housenumber": "5811",
      "distance": 24810.6798428
    },
    {
      "id": 9060,
      "geometry": "POINT (-87.66105 41.899674)",
      "poi_name": "Polish Museum of America",
      "osm_id": 3652936567,
      "tourism": "museum",
      "website": "https://www.polishmuseumofamerica.org/",
      "museum": "history",
      "wikidata": "Q3394265",
      "addr_state": "IL",
      "addr_city": "Chicago",
      "addr_postcode": "60642",
      "addr_street": "North Milwaukee Avenue",
      "addr_housenumber": "984",
      "distance": 11894.6821371
    },
    {
      "id": 9071,
      "geometry": "POINT (-87.625067 41.897316)",
      "poi_name": "Loyola University Museum of Art",
      "osm_id": 3660898208,
      "tourism": "museum",
      "website": "https://www.luc.edu/luma/",
      "museum": "art",
      "wikidata": "Q6694613",
      "addr_state": "IL",
      "addr_city": "Chicago",
      "addr_postcode": "60611",
      "addr_street": "North Michigan Avenue",
      "addr_housenumber": "820",
      "distance": 14200.09600756
    },
    {
      "id": 9330,
      "geometry": "POINT (-87.624514 41.874207)",
      "poi_name": "The Museum of Contemporary Photography",
      "osm_id": 3744841481,
      "tourism": "museum",
      "website": "https://www.mocp.org/",
      "wikidata": "Q3328434",
      "distance": 16023.86422408
    },
    {
      "id": 9401,
      "geometry": "POINT (-87.795994 41.983597)",
      "poi_name": "Norwood Park Historical Society",
      "osm_id": 3785693441,
      "tourism": "museum",
      "website": "https://www.norwoodparkhistoricalsociety.org",
      "museum": "local",
      "addr_state": "IL",
      "addr_city": "Chicago",
      "addr_postcode": "60631",
      "addr_street": "North Newark Avenue",
      "addr_housenumber": "5624",
      "distance": 3417.53748786
    },
    {
      "id": 9636,
      "geometry": "POINT (-88.348843 41.682608)",
      "poi_name": "Little White School Museum",
      "osm_id": 8898839293,
      "tourism": "museum",
      "website": "https://littlewhiteschoolmuseum.org/",
      "addr_state": "IL",
      "addr_city": "Oswego",
      "addr_postcode": "60543",
      "addr_street": "Polk Street",
      "addr_housenumber": "72",
      "distance": 59409.49781506
    },
    {
      "id": 9762,
      "geometry": "POINT (-87.626843 41.88306)",
      "poi_name": "Museum of Illusions",
      "osm_id": 8978674855,
      "tourism": "museum",
      "fee": "yes",
      "website": "https://moichicago.com/",
      "distance": 15176.51201362
    },
    {
      "id": 12962,
      "geometry": "POINT (-87.748637 41.954384)",
      "poi_name": "National Veterans Art Museum",
      "osm_id": 3988653236,
      "tourism": "museum",
      "website": "https://www.nvam.org/",
      "museum": "art",
      "wikidata": "Q6979302",
      "addr_state": "IL",
      "addr_city": "Chicago",
      "addr_postcode": "60641",
      "addr_street": "North Milwaukee Avenue",
      "addr_housenumber": "4041",
      "distance": 2961.30665627
    },
    {
      "id": 13010,
      "geometry": "POINT (-87.863996 41.992185)",
      "poi_name": "Museum of Hummels",
      "osm_id": 4012150293,
      "tourism": "museum",
      "website": "https://rosemont.com/museum-of-hummels/",
      "museum": "art",
      "addr_state": "IL",
      "addr_city": "Rosemont",
      "addr_postcode": "60018",
      "addr_street": "West Higgins Road",
      "addr_housenumber": "9513",
      "distance": 9127.33607946
    },
    {
      "id": 13121,
      "geometry": "POINT (-87.626503 41.894285)",
      "poi_name": "Richard H. Driehaus Museum",
      "osm_id": 4060205627,
      "tourism": "museum",
      "website": "https://driehausmuseum.org/",
      "museum": "art",
      "wikidata": "Q14687486",
      "distance": 14333.20653142
    },
    {
      "id": 15873,
      "geometry": "POINT (-88.156335 41.881999)",
      "poi_name": "Hedges Station",
      "osm_id": 9576071164,
      "tourism": "museum",
      "operator": "Winfield Park District",
      "website": "https://www.winfieldhistory.org/",
      "distance": 35046.92096488
    },
    {
      "id": 17832,
      "geometry": "POINT (-88.082789 41.527933)",
      "poi_name": "Joliet Area Historical Society Museum",
      "osm_id": 368074552,
      "tourism": "museum",
      "website": "https://www.jolietmuseum.org/",
      "museum": "history",
      "addr_state": "IL",
      "distance": 57196.99144296
    },
    {
      "id": 17841,
      "geometry": "POINT (-87.781532 41.574706)",
      "poi_name": "Old Zion Museum",
      "osm_id": 368074620,
      "tourism": "museum",
      "addr_state": "IL",
      "distance": 45139.25138657
    },
    {
      "id": 18882,
      "geometry": "POINT (-87.951116 42.492724)",
      "poi_name": "Russell Military Museum",
      "osm_id": 2430095887,
      "tourism": "museum",
      "website": "http://www.russellmilitarymuseum.com/",
      "museum": "military",
      "wikidata": "Q26828456",
      "addr_state": "IL",
      "addr_city": "Russell",
      "addr_postcode": "60075",
      "addr_street": "Old Highway 41",
      "addr_housenumber": "43363",
      "distance": 59142.43534241
    },
    {
      "id": 19757,
      "geometry": "POINT (-87.622078 41.898026)",
      "poi_name": "Chicago Sports Museum",
      "osm_id": 10873137225,
      "tourism": "museum",
      "website": "https://www.chicagosportsmuseum.com/",
      "museum": "local",
      "wikidata": "Q24037234",
      "addr_state": "IL",
      "addr_city": "Chicago",
      "addr_postcode": "60611",
      "addr_street": "North Michigan Avenue",
      "addr_housenumber": "835",
      "distance": 14338.35468842
    },
    {
      "id": 19916,
      "geometry": "POINT (-87.636015 41.878359)",
      "poi_name": "Color Factory",
      "osm_id": 10945307458,
      "tourism": "museum",
      "website": "https://www.colorfactory.co/locations/chicago",
      "museum": "art",
      "distance": 15044.53383814
    },
    {
      "id": 19930,
      "geometry": "POINT (-87.624663 41.88062)",
      "poi_name": "Pritzker Military Museum & Library",
      "osm_id": 10958109386,
      "tourism": "museum",
      "opening_hours": "Mo-Sa 10:00-16:00; Tu-Th 10:00-18:00; Su 12:00-16:00",
      "operator": "Colonel IL James N Pritzker Library for the Citizen Soldier",
      "website": "https://www.pritzkermilitary.org/",
      "museum": "military",
      "wikidata": "Q588030",
      "addr_state": "IL",
      "addr_city": "Chicago",
      "addr_postcode": "60603",
      "addr_street": "South Michigan Avenue",
      "addr_housenumber": "104",
      "distance": 15496.92533484
    },
    {
      "id": 20105,
      "geometry": "POINT (-87.609203 41.891472)",
      "poi_name": "Chicago Children's Museum",
      "osm_id": 7874287865,
      "tourism": "museum",
      "website": "https://www.chicagochildrensmuseum.org/",
      "museum": "children",
      "wikidata": "Q2963300",
      "addr_state": "IL",
      "addr_city": "Chicago",
      "addr_postcode": "60611",
      "addr_street": "East Grand Avenue",
      "addr_housenumber": "700",
      "distance": 15625.66848572
    },
    {
      "id": 20296,
      "geometry": "POINT (-88.402701 42.032002)",
      "poi_name": "Plato Park Depot Museum",
      "osm_id": 1066755478,
      "tourism": "museum",
      "website": "https://www.platotownship.com/content/park/",
      "distance": 53963.8927388
    },
    {
      "id": 20950,
      "geometry": "POINT (-88.040147 42.345583)",
      "poi_name": "Grayslake Historical Museum",
      "osm_id": 1317376653,
      "tourism": "museum",
      "operator": "Grayslake Historical Society",
      "website": "https://grayslakehistory.org/",
      "museum": "local",
      "wikidata": "Q113484352",
      "addr_state": "IL",
      "addr_city": "Grayslake",
      "addr_postcode": "60030",
      "addr_street": "Hawley Street",
      "addr_housenumber": "164",
      "distance": 46891.43234352
    },
    {
      "id": 22918,
      "geometry": "POINT (-87.794108 41.890414)",
      "poi_name": "Ernest Hemmingway Foundation",
      "osm_id": 4971240031,
      "tourism": "museum",
      "operator": "Earnest Hemmingway Foundation",
      "website": "https://www.hemingwaybirthplace.com/",
      "museum": "person",
      "addr_state": "IL",
      "addr_city": "Oak Park",
      "addr_postcode": "60302",
      "addr_street": "North Oak Park Avenue",
      "addr_housenumber": "200",
      "distance": 10533.14391644
    },
    {
      "id": 23186,
      "geometry": "POINT (-87.601343 41.891434)",
      "poi_name": "Dreihaus Gallery of Stained Glass",
      "osm_id": 5062541126,
      "tourism": "museum",
      "museum": "art",
      "addr_state": "IL",
      "addr_city": "Chicago",
      "addr_postcode": "60611",
      "addr_street": "East Grand Avenue",
      "addr_housenumber": "700",
      "distance": 16137.75730963
    },
    {
      "id": 23256,
      "geometry": "POINT (-88.057378 41.590223)",
      "poi_name": "Illinois & Michigan Canal Museum",
      "osm_id": 5084832375,
      "tourism": "museum",
      "website": "https://www.explorelockport.org/179/Illinois-Michigan-Canal-Museum",
      "museum": "history",
      "addr_state": "IL",
      "addr_city": "Lockport",
      "addr_postcode": "60441",
      "addr_street": "South State Street",
      "addr_housenumber": "838",
      "distance": 50122.60058626
    },
    {
      "id": 23397,
      "geometry": "POINT (-87.624991 41.885561)",
      "poi_name": "American Writers Museum",
      "osm_id": 5169949885,
      "tourism": "museum",
      "website": "https://americanwritersmuseum.org/",
      "phone": "+1 312.374.8790",
      "wikidata": "Q19864096",
      "addr_state": "IL",
      "addr_city": "Chicago",
      "addr_postcode": "60601",
      "addr_street": "North Michigan Avenue",
      "addr_housenumber": "180",
      "distance": 15088.66974119
    },
    {
      "id": 23776,
      "geometry": "POINT (-88.402154 41.911202)",
      "poi_name": "Garfield Farm Museum",
      "osm_id": 5309561488,
      "tourism": "museum",
      "website": "http://www.garfieldfarm.org/",
      "addr_state": "IL",
      "addr_city": "Campton Hills",
      "addr_street": "Garfield Road",
      "distance": 54217.82663773
    },
    {
      "id": 24549,
      "geometry": "POINT (-87.873414 41.822972)",
      "poi_name": "La Grange Park Fire History Museum",
      "osm_id": 11108815780,
      "tourism": "museum",
      "operator": "La Grange Park Fire History",
      "museum": "history",
      "distance": 20081.26491224
    },
    {
      "id": 24665,
      "geometry": "POINT (-87.622862 41.89034)",
      "poi_name": "Museum of Ice Cream",
      "osm_id": 11163553579,
      "tourism": "museum",
      "distance": 14851.54791954
    },
    {
      "id": 25498,
      "geometry": "POINT (-88.152034 42.32262)",
      "poi_name": "Hippocampus",
      "osm_id": 4516129084,
      "tourism": "museum",
      "distance": 50201.79384572
    },
    {
      "id": 25565,
      "geometry": "POINT (-87.712271 41.91719)",
      "poi_name": "Busy Beaver Button Museum",
      "osm_id": 4541428858,
      "tourism": "museum",
      "opening_hours": "Mo-Fr 10:00-16:00",
      "website": "https://www.buttonmuseum.org/",
      "addr_state": "IL",
      "addr_city": "Chicago",
      "addr_postcode": "60647",
      "addr_street": "West Armitage Avenue",
      "addr_housenumber": "3407",
      "distance": 7884.72016377
    },
    {
      "id": 26494,
      "geometry": "POINT (-87.82001 41.827884)",
      "poi_name": "Riverside Historical Museum",
      "osm_id": 5905978457,
      "tourism": "museum",
      "opening_hours": "Sa 10:00-14:00",
      "operator": "Riverside Historical Commission",
      "website": "http://www.riversidemuseum.net",
      "addr_state": "IL",
      "addr_city": "Riverside",
      "addr_postcode": "60546",
      "addr_street": "Pine Avenue",
      "addr_housenumber": "10",
      "distance": 17803.49729561
    },
    {
      "id": 26506,
      "geometry": "POINT (-87.62372 41.897768)",
      "poi_name": "The Art of Dr.Seuss",
      "osm_id": 5910546385,
      "tourism": "museum",
      "website": "https://www.experienceseuss.com/",
      "museum": "art",
      "addr_state": "IL",
      "addr_city": "Chicago",
      "addr_postcode": "60611",
      "addr_street": "North Michigan Avenue",
      "addr_housenumber": "835",
      "distance": 14252.537118
    }
  ],
  "answer_type": "distance",
  "question_entities": {
    "[1]": {
      "main_category": "tourism",
      "sub_category": "museum"
    },
    "[2]": {
      "distance": 60000,
      "text": "60 kilometers"
    },
    "[3]": {
      "main_category": "leisure",
      "sub_category": "nature reserve",
      "display_name": "Forest Glen Woods, IL",
      "geo_wkt": "POINT (-87.754949 41.980626)",
      "poi": {
        "id": 265401,
        "geometry": "POINT (-87.754949 41.980626)",
        "poi_name": "Forest Glen Woods",
        "osm_id": 369050715,
        "leisure": "nature_reserve",
        "opening_hours": "sunrise-sunset",
        "operator": "Forest Preserve District of Cook County",
        "website": "https://fpdcc.com/places/locations/forest-glen-woods/",
        "addr_state": "IL"
      }
    }
  },
  "id": 712,
  "type": "range+distance"
}