{
  "question": "Could you locate a restaurant within a 180 kilometers radius of Summer Lake State Wildlife Area, OR?",
  "sql": "SELECT * FROM pois\nWHERE ST_DWithin(pois.geometry, ST_GeomFromText('POINT (-120.763315 42.951537)',4326)::geography, 180000)\nAND amenity = 'restaurant';\n",
  "answers": [
    {
      "id": 28379,
      "geometry": "POINT (-121.301452 44.057718)",
      "poi_name": "Pizza Hut",
      "osm_id": 477126235,
      "amenity": "restaurant",
      "cuisine": "pizza",
      "opening_hours": "Mo-Su 11:00-23:00; Fr,Sa 11:00-24:00",
      "phone": "+1-541-382-1191",
      "delivery": "yes",
      "addr_state": "OR",
      "addr_city": "Bend",
      "addr_postcode": "97701",
      "addr_street": "Northeast 3rd Street",
      "addr_housenumber": "740"
    },
    {
      "id": 28553,
      "geometry": "POINT (-120.345601 42.188443)",
      "poi_name": "Burger Queen",
      "osm_id": 490511451,
      "amenity": "restaurant",
      "cuisine": "burger",
      "operator": "Samples Family",
      "addr_state": "OR",
      "addr_city": "Lakeview",
      "addr_postcode": "97630",
      "addr_street": "South F Street",
      "addr_housenumber": "109"
    },
    {
      "id": 38662,
      "geometry": "POINT (-121.43731 43.874358)",
      "poi_name": "The Fold Craft Pizza",
      "osm_id": 2875290326,
      "amenity": "restaurant",
      "cuisine": "pizza",
      "website": "https://www.thefoldkitchen.com/",
      "phone": "+1-541-598-3040",
      "addr_state": "OR",
      "addr_city": "Sunriver",
      "addr_postcode": "97707",
      "addr_street": "Beaver Drive",
      "addr_housenumber": "57100"
    },
    {
      "id": 39271,
      "geometry": "POINT (-119.076242 43.57218)",
      "poi_name": "The Apple Peddler",
      "osm_id": 2913087738,
      "amenity": "restaurant",
      "cuisine": "american",
      "opening_hours": "Mo-Su 06:00-20:00",
      "phone": "+15415732820",
      "addr_state": "Oregon",
      "addr_city": "Hines",
      "addr_postcode": "97738",
      "addr_street": "US 20",
      "addr_housenumber": "540"
    },
    {
      "id": 45592,
      "geometry": "POINT (-121.265837 44.065453)",
      "poi_name": "Jackson's Corner",
      "osm_id": 3219054791,
      "amenity": "restaurant",
      "cuisine": "american",
      "opening_hours": "Mo-Th,Sa,Su 07:00-21:00; Fr 07:00-22:00",
      "phone": "+1 541 647 2198",
      "addr_state": "OR",
      "addr_city": "Bend",
      "addr_postcode": "97701",
      "addr_street": "Northeast Cushing Drive",
      "addr_housenumber": "1500"
    },
    {
      "id": 48838,
      "geometry": "POINT (-122.693513 42.186945)",
      "poi_name": "Sammich",
      "osm_id": 3402538389,
      "amenity": "restaurant",
      "cuisine": "sandwich",
      "takeaway": "yes",
      "addr_state": "OR",
      "addr_city": "Ashland",
      "addr_street": "Bridge Street",
      "addr_housenumber": "424"
    },
    {
      "id": 52862,
      "geometry": "POINT (-121.50112 43.672612)",
      "poi_name": "Hunan Chinese Restaurant",
      "osm_id": 10051016029,
      "amenity": "restaurant",
      "cuisine": "chinese",
      "addr_state": "OR",
      "addr_city": "La Pine",
      "addr_postcode": "97739",
      "addr_street": "The Dalles-California Highway",
      "addr_housenumber": "51538"
    },
    {
      "id": 88643,
      "geometry": "POINT (-119.054612 43.588523)",
      "poi_name": "Bella Java & Bistro",
      "osm_id": 8789710444,
      "amenity": "restaurant",
      "cuisine": "coffee_shop",
      "phone": "+1 541 573 3077",
      "addr_state": "OR",
      "addr_city": "Burns",
      "addr_postcode": "97720",
      "addr_street": "North Broadway Avenue",
      "addr_housenumber": "314"
    },
    {
      "id": 84503,
      "geometry": "POINT (-122.67088 42.185567)",
      "poi_name": "Bonsai Teryaki Sushi",
      "osm_id": 1797392943,
      "amenity": "restaurant",
      "cuisine": "sushi",
      "opening_hours": "Mo-Th 11:00-21:00; Fr-Sa 11:00-23:45",
      "phone": "+1 541-772-4120",
      "addr_state": "OR",
      "addr_city": "Ashland",
      "addr_street": "Ashland Street"
    },
    {
      "id": 84507,
      "geometry": "POINT (-122.694322 42.18699)",
      "poi_name": "La Casa Del Pueblo",
      "osm_id": 1797435895,
      "amenity": "restaurant",
      "cuisine": "mexican",
      "opening_hours": "Mo-Th 10:30-21:30; Fr 10:30-22:30; Sa 11:00-22:30; Su 11:00-21:30",
      "website": "https://www.facebook.com/pages/La-Casa-Del-Pueblo/196046983766725",
      "phone": "+1 541-482-5092",
      "addr_state": "OR",
      "addr_city": "Ashland",
      "addr_street": "Siskiyou Boulevard",
      "addr_housenumber": "1209"
    },
    {
      "id": 91105,
      "geometry": "POINT (-121.77637 42.228036)",
      "poi_name": "Klamath Basin Brewing Company",
      "osm_id": 2041961953,
      "amenity": "restaurant",
      "cuisine": "regional",
      "addr_state": "OR",
      "addr_city": "Klamath Falls",
      "addr_postcode": "97601",
      "addr_street": "Main Street",
      "addr_housenumber": "1320"
    },
    {
      "id": 112672,
      "geometry": "POINT (-122.689078 42.18487)",
      "poi_name": "Martoli's Hand Tossed Pizza",
      "osm_id": 3800137716,
      "amenity": "restaurant",
      "cuisine": "pizza",
      "addr_state": "OR",
      "addr_city": "Ashland",
      "addr_postcode": "97520",
      "addr_street": "Siskiyou Boulevard",
      "addr_housenumber": "1469"
    },
    {
      "id": 112513,
      "geometry": "POINT (-122.690054 42.184944)",
      "poi_name": "Golden Dynasty",
      "osm_id": 3793756401,
      "amenity": "restaurant",
      "cuisine": "chinese",
      "addr_state": "OR",
      "addr_city": "Ashland",
      "addr_postcode": "97520",
      "addr_street": "Siskiyou Boulevard",
      "addr_housenumber": "1415"
    },
    {
      "id": 113856,
      "geometry": "POINT (-121.311179 44.058062)",
      "poi_name": "Jackalope Grill",
      "osm_id": 3851865157,
      "amenity": "restaurant",
      "opening_hours": "16:30+",
      "operator": "Tim Garling",
      "website": "https://www.jackalopegrill.com/",
      "phone": "+1-541-318-8435",
      "outdoor_seating": "yes",
      "delivery": "no",
      "addr_state": "OR",
      "addr_city": "Bend",
      "addr_postcode": "97703",
      "addr_street": "Northwest Lava Road",
      "addr_housenumber": "750"
    },
    {
      "id": 113857,
      "geometry": "POINT (-121.312197 44.057512)",
      "poi_name": "Brickhouse",
      "osm_id": 3851921357,
      "amenity": "restaurant",
      "cuisine": "steak_house",
      "opening_hours": "16:30+",
      "phone": "+1-541-728-0334",
      "addr_state": "OR",
      "addr_city": "Bend",
      "addr_postcode": "97703",
      "addr_street": "Northwest Minnesota Avenue",
      "addr_housenumber": "5"
    },
    {
      "id": 114569,
      "geometry": "POINT (-121.355276 44.059009)",
      "poi_name": "The Sparrow Bakery Northwest",
      "osm_id": 3886301564,
      "amenity": "restaurant",
      "cuisine": "french",
      "opening_hours": "Mo-Fr 07:00-17:00, Sa-Su 07:00-15:00",
      "website": "https://www.thesparrowbakery.net/",
      "capacity": "50",
      "phone": "541-280-4508",
      "takeaway": "yes",
      "addr_state": "OR",
      "addr_city": "Bend",
      "addr_postcode": "97701",
      "addr_street": "Northwest Crossing Drive #110",
      "addr_housenumber": "2748"
    },
    {
      "id": 118292,
      "geometry": "POINT (-121.437626 43.873374)",
      "poi_name": "South Bend Bistro",
      "osm_id": 9037245246,
      "amenity": "restaurant",
      "website": "https://www.southbendbistro.com/",
      "phone": "+1-541-593-3881",
      "outdoor_seating": "yes",
      "addr_state": "OR",
      "addr_city": "Sunriver",
      "addr_postcode": "97707",
      "addr_street": "Abbot Drive",
      "addr_housenumber": "57080"
    },
    {
      "id": 118569,
      "geometry": "POINT (-121.437164 43.874126)",
      "poi_name": "El Caporal",
      "osm_id": 9051895992,
      "amenity": "restaurant",
      "cuisine": "mexican",
      "website": "https://www.elcaporalco.com/sunriver",
      "phone": "+1-541-593-3335",
      "addr_state": "OR",
      "addr_city": "Sunriver",
      "addr_postcode": "97707",
      "addr_street": "Beaver Drive",
      "addr_housenumber": "57100"
    },
    {
      "id": 118570,
      "geometry": "POINT (-121.435581 43.8719)",
      "poi_name": "Marcello's Cucina Italiana",
      "osm_id": 9051895993,
      "amenity": "restaurant",
      "cuisine": "italian",
      "website": "https://marcellos-sunriver.net/",
      "phone": "+1-541-593-8300",
      "addr_state": "OR",
      "addr_city": "Sunriver",
      "addr_postcode": "97707",
      "addr_street": "Ponderosa Road",
      "addr_housenumber": "57031"
    },
    {
      "id": 118571,
      "geometry": "POINT (-121.436109 43.873696)",
      "poi_name": "Village Bar & Grill",
      "osm_id": 9051895995,
      "amenity": "restaurant",
      "cuisine": "american",
      "website": "https://sunrivervbag.com/",
      "phone": "+1-541-593-1100",
      "outdoor_seating": "yes",
      "addr_state": "OR",
      "addr_city": "Sunriver",
      "addr_postcode": "97707",
      "addr_street": "Beaver Drive",
      "addr_housenumber": "57100"
    },
    {
      "id": 118582,
      "geometry": "POINT (-121.43474 43.873695)",
      "poi_name": "Blondie's Pizza",
      "osm_id": 9052358168,
      "amenity": "restaurant",
      "cuisine": "pizza",
      "website": "https://blondiespizzasunriver.com/",
      "phone": "+1-541-593-1019",
      "addr_state": "OR",
      "addr_city": "Sunriver",
      "addr_postcode": "97707",
      "addr_street": "Beaver Drive",
      "addr_housenumber": "57195"
    },
    {
      "id": 120411,
      "geometry": "POINT (-121.295951 44.091591)",
      "poi_name": "Backyard Pizza",
      "osm_id": 6702110837,
      "amenity": "restaurant",
      "cuisine": "burger;pizza;pub",
      "opening_hours": "Su-Th 11:00-21:00; Fr-Sa 11:00-22:00",
      "website": "https://thebackyardpizza.com/",
      "phone": "+1-541-306-6393",
      "official_name": "Backyard Brick Oven Pizza & Sports Pub",
      "addr_state": "OR",
      "addr_city": "Bend",
      "addr_postcode": "97701",
      "addr_street": "Lancaster Street",
      "addr_housenumber": "63130"
    },
    {
      "id": 120730,
      "geometry": "POINT (-121.192512 44.268968)",
      "poi_name": "Cibelli's Pizza",
      "osm_id": 6721338579,
      "amenity": "restaurant",
      "cuisine": "pizza",
      "website": "https://cibellis.com/",
      "phone": "541-923-7388",
      "addr_city": "Redmond",
      "addr_street": "Southwest Rimrock Drive",
      "addr_housenumber": "885"
    },
    {
      "id": 126500,
      "geometry": "POINT (-121.323347 44.054142)",
      "poi_name": "Active Culture",
      "osm_id": 7006709613,
      "amenity": "restaurant",
      "website": "https://activeculturecafe.com/",
      "phone": "541.241.2926",
      "addr_state": "OR",
      "addr_city": "Bend",
      "addr_postcode": "97701",
      "addr_street": "Northwest Riverside Boulevard",
      "addr_housenumber": "285"
    },
    {
      "id": 132111,
      "geometry": "POINT (-121.436391 43.865463)",
      "poi_name": "Big Belly Burgers & Brew",
      "osm_id": 9941493001,
      "amenity": "restaurant",
      "phone": "+1 541 639 8929",
      "addr_state": "OR",
      "addr_city": "Sunriver",
      "addr_postcode": "97707",
      "addr_street": "Venture Lane",
      "addr_housenumber": "56815"
    },
    {
      "id": 138594,
      "geometry": "POINT (-120.346716 42.193375)",
      "poi_name": "El Aguila Real",
      "osm_id": 6157522509,
      "amenity": "restaurant",
      "cuisine": "mexican",
      "addr_city": "Lakeview",
      "addr_postcode": "97630",
      "addr_street": "North G Street",
      "addr_housenumber": "406"
    },
    {
      "id": 153352,
      "geometry": "POINT (-121.758559 42.211674)",
      "poi_name": "Sizzler",
      "osm_id": 4192261687,
      "amenity": "restaurant",
      "cuisine": "steak_house",
      "addr_state": "OR",
      "addr_city": "Klamath Falls",
      "addr_postcode": "97601",
      "addr_street": "South 6th Street",
      "addr_housenumber": "2506"
    },
    {
      "id": 153362,
      "geometry": "POINT (-121.55145 44.291471)",
      "poi_name": "Martolli's of Sisters",
      "osm_id": 4193698932,
      "amenity": "restaurant",
      "cuisine": "pizza",
      "wheelchair": "yes",
      "opening_hours": "Mo-Su 11:00-21:00",
      "website": "http://www.sistersmartollis.com/",
      "phone": "+1 541 549 8356",
      "outdoor_seating": "yes",
      "addr_state": "OR",
      "addr_city": "Sisters",
      "addr_postcode": "97759",
      "addr_street": "West Cascade Avenue",
      "addr_housenumber": "220"
    },
    {
      "id": 154685,
      "geometry": "POINT (-121.315193 44.058271)",
      "poi_name": "Drake",
      "osm_id": 4251943916,
      "amenity": "restaurant",
      "cuisine": "american",
      "opening_hours": "Mo-Su 11:00-21:30; Fr,Sa 11:00-22:30",
      "website": "https://www.drakebend.com/",
      "phone": "+1-541-306-3366",
      "outdoor_seating": "yes",
      "addr_state": "OR",
      "addr_city": "Bend",
      "addr_postcode": "97703",
      "addr_street": "Northwest Wall Street",
      "addr_housenumber": "801"
    },
    {
      "id": 156870,
      "geometry": "POINT (-121.314079 44.05927)",
      "poi_name": "Taj Palace",
      "osm_id": 4675615792,
      "amenity": "restaurant",
      "cuisine": "indian",
      "opening_hours": "11:00-14:30,17:00-21:00",
      "website": "https://www.tajpalacebend.us/",
      "phone": "+1-541-330-0774",
      "addr_state": "OR",
      "addr_city": "Bend",
      "addr_postcode": "97703",
      "addr_street": "Northwest Wall Street",
      "addr_housenumber": "917"
    },
    {
      "id": 156871,
      "geometry": "POINT (-121.314158 44.059199)",
      "poi_name": "Barrio",
      "osm_id": 4675615800,
      "amenity": "restaurant",
      "cuisine": "mexican",
      "opening_hours": "Mo-Sa 11:00+",
      "website": "https://www.barriobend.com/",
      "phone": "+1-541-389-2025",
      "addr_state": "OR",
      "addr_city": "Bend",
      "addr_postcode": "97703",
      "addr_street": "Northwest Wall Street",
      "addr_housenumber": "915"
    },
    {
      "id": 156873,
      "geometry": "POINT (-121.312977 44.060792)",
      "poi_name": "Super Burrito",
      "osm_id": 4675725671,
      "amenity": "restaurant",
      "cuisine": "mexican",
      "phone": "+1-541-312-2009",
      "takeaway": "yes",
      "outdoor_seating": "yes",
      "delivery": "no",
      "addr_state": "OR",
      "addr_city": "Bend",
      "addr_postcode": "97703",
      "addr_street": "Northwest Wall Street",
      "addr_housenumber": "1133"
    },
    {
      "id": 161513,
      "geometry": "POINT (-120.351291 42.193392)",
      "poi_name": "Snack Shack Burgers",
      "osm_id": 4884928645,
      "amenity": "restaurant",
      "addr_city": "Lakeview",
      "addr_postcode": "97630",
      "addr_street": "North J Street",
      "addr_housenumber": "405"
    },
    {
      "id": 161514,
      "geometry": "POINT (-120.35182 42.193374)",
      "poi_name": "Town Hall Cafe and Bakery",
      "osm_id": 4884928646,
      "amenity": "restaurant",
      "addr_city": "Lakeview",
      "addr_postcode": "97630",
      "addr_street": "North 4th Street",
      "addr_housenumber": "1028"
    },
    {
      "id": 159929,
      "geometry": "POINT (-121.312981 44.059549)",
      "poi_name": "Wild Rose",
      "osm_id": 4811813324,
      "amenity": "restaurant",
      "cuisine": "thai",
      "opening_hours": "Mo-Su 11:00-21:00; Fr,Sa 11:00-22:00",
      "website": "https://wildrosethai.com/",
      "phone": "+1-541-382-0441",
      "addr_state": "OR",
      "addr_city": "Bend",
      "addr_postcode": "97703",
      "addr_street": "Northwest Oregon Avenue",
      "addr_housenumber": "150"
    },
    {
      "id": 162800,
      "geometry": "POINT (-121.305926 44.079759)",
      "poi_name": "Currents",
      "osm_id": 4941524666,
      "amenity": "restaurant",
      "opening_hours": "Mo-Fr 06:00-23:00; Sa,Su 07:00-23:00",
      "website": "https://www.currentsbend.com/",
      "phone": "+1-541-389-8810",
      "outdoor_seating": "yes",
      "addr_state": "OR",
      "addr_city": "Bend",
      "addr_postcode": "97703",
      "addr_street": "North Highway 97",
      "addr_housenumber": "3075"
    },
    {
      "id": 168950,
      "geometry": "POINT (-121.787496 42.250567)",
      "poi_name": "Applebee's",
      "osm_id": 2287608858,
      "amenity": "restaurant",
      "cuisine": "american",
      "opening_hours": "Su-Th 11:00-22:00; Fr,Sa 11:00-23:00",
      "official_name": "Applebee's Neighborhood Grill & Bar",
      "outdoor_seating": "no",
      "addr_state": "OR"
    },
    {
      "id": 181452,
      "geometry": "POINT (-121.178067 44.260141)",
      "poi_name": "Pho House",
      "osm_id": 10847061353,
      "amenity": "restaurant",
      "addr_state": "OR",
      "addr_city": "Redmond",
      "addr_postcode": "97756",
      "addr_street": "The Dalles-California Highway"
    },
    {
      "id": 171362,
      "geometry": "POINT (-122.691126 42.185304)",
      "poi_name": "Happy Bowl",
      "osm_id": 2374003842,
      "amenity": "restaurant",
      "cuisine": "vietnamese",
      "addr_state": "OR",
      "addr_city": "Ashland",
      "addr_postcode": "97520",
      "addr_street": "Siskiyou Boulevard",
      "addr_housenumber": "1401"
    },
    {
      "id": 171291,
      "geometry": "POINT (-121.546088 44.290311)",
      "poi_name": "The Cotton Wood Cafe",
      "osm_id": 2370167056,
      "amenity": "restaurant",
      "wheelchair": "yes",
      "internet_access": "no",
      "takeaway": "no",
      "outdoor_seating": "no",
      "delivery": "no",
      "addr_city": "Sisters",
      "addr_postcode": "97759",
      "addr_street": "East Hood Avenue",
      "addr_housenumber": "408"
    },
    {
      "id": 177705,
      "geometry": "POINT (-121.781694 42.225785)",
      "poi_name": "Klamath Grill",
      "osm_id": 2603549263,
      "amenity": "restaurant",
      "opening_hours": "Mo-Fr 6:00-14:30; Sa, Su 7:00-14:00",
      "website": "http://www.klamathgrill.com/",
      "phone": "+1-541-882-1427",
      "addr_state": "OR",
      "addr_city": "Klamath Falls",
      "addr_street": "Main Street",
      "addr_housenumber": "715"
    },
    {
      "id": 181535,
      "geometry": "POINT (-121.174928 44.282252)",
      "poi_name": "Bogey's Burgers",
      "osm_id": 10855619411,
      "amenity": "restaurant",
      "cuisine": "burger",
      "addr_state": "OR",
      "addr_city": "Redmond",
      "addr_postcode": "97756",
      "addr_street": "Northwest 6th Street",
      "addr_housenumber": "655"
    },
    {
      "id": 183216,
      "geometry": "POINT (-121.546616 44.291475)",
      "poi_name": "Chops Bistro",
      "osm_id": 10917225368,
      "amenity": "restaurant",
      "phone": "+1 541 549 6015",
      "addr_state": "OR",
      "addr_city": "Sisters",
      "addr_postcode": "97759",
      "addr_street": "East Cascade Avenue",
      "addr_housenumber": "370"
    },
    {
      "id": 183219,
      "geometry": "POINT (-121.172956 44.27852)",
      "poi_name": "Black Bear Diner",
      "osm_id": 10917441960,
      "amenity": "restaurant",
      "addr_state": "OR",
      "addr_city": "Redmond",
      "addr_postcode": "97756"
    },
    {
      "id": 188615,
      "geometry": "POINT (-121.548922 44.291511)",
      "poi_name": "Sisters Saloon & Ranch Grill",
      "osm_id": 1166664298,
      "amenity": "restaurant",
      "cuisine": "regional",
      "website": "https://sisterssaloon.net/",
      "phone": "+1 541 549 7427",
      "addr_state": "OR",
      "addr_city": "Sisters",
      "addr_postcode": "97759",
      "addr_street": "East Cascade Avenue",
      "addr_housenumber": "190"
    },
    {
      "id": 188620,
      "geometry": "POINT (-121.549222 44.291456)",
      "poi_name": "Rancho Viejo Mexican Restaurant",
      "osm_id": 1166676948,
      "amenity": "restaurant",
      "cuisine": "mexican",
      "website": "https://www.ranchoviejosistersoregon.com/",
      "phone": "+1 541 549 3594",
      "outdoor_seating": "yes",
      "addr_state": "OR",
      "addr_city": "Sisters",
      "addr_postcode": "97759",
      "addr_street": "East Cascade Avenue",
      "addr_housenumber": "150"
    },
    {
      "id": 208814,
      "geometry": "POINT (-121.312376 44.057912)",
      "poi_name": "Mother's Downtown Kitchen",
      "osm_id": 5006047214,
      "amenity": "restaurant",
      "cuisine": "american",
      "opening_hours": "Mo,Su 08:00-15:00; Tu-Sa 08:00-20:00",
      "operator": "Mother's Juice Cafe",
      "website": "https://mothersjuicecafe.com/",
      "phone": "+1-541-382-1870",
      "addr_state": "OR",
      "addr_city": "Bend",
      "addr_postcode": "97703",
      "addr_street": "Northwest Minnesota Avenue",
      "addr_housenumber": "10"
    },
    {
      "id": 207525,
      "geometry": "POINT (-121.310214 44.059585)",
      "poi_name": "Unofficial Logging Company",
      "osm_id": 4950292796,
      "amenity": "restaurant",
      "addr_state": "OR",
      "addr_city": "Bend",
      "addr_postcode": "97703",
      "addr_street": "Northwest Harriman Street",
      "addr_housenumber": "910"
    },
    {
      "id": 207704,
      "geometry": "POINT (-121.306396 44.081935)",
      "poi_name": "Real Taste of India Bend",
      "osm_id": 4957948677,
      "amenity": "restaurant",
      "cuisine": "cajun",
      "description": "Nepalese food.",
      "opening_hours": "Tu-Su 11:00-21:30",
      "website": "http://www.fattuesdaysbend.com/",
      "phone": "+1-541-815-9477",
      "addr_state": "OR",
      "addr_city": "Bend",
      "addr_postcode": "97703",
      "addr_street": "O B Riley Road, Bend, OR, 97703",
      "addr_housenumber": "3105"
    },
    {
      "id": 208249,
      "geometry": "POINT (-121.314572 44.04661)",
      "poi_name": "Rapa Nui",
      "osm_id": 4984090611,
      "amenity": "restaurant",
      "addr_state": "OR",
      "addr_city": "Bend",
      "addr_postcode": "97702",
      "addr_street": "Southwest Powerhouse Drive",
      "addr_housenumber": "360"
    },
    {
      "id": 208815,
      "geometry": "POINT (-121.31218 44.057808)",
      "poi_name": "Roam",
      "osm_id": 5006047215,
      "amenity": "restaurant",
      "cuisine": "american",
      "opening_hours": "Mo-Su 07:00-22:00",
      "website": "https://www.roambend.com/",
      "phone": "+1-541-382-7626",
      "addr_state": "OR",
      "addr_city": "Bend",
      "addr_postcode": "97703",
      "addr_street": "Northwest Minnesota Avenue",
      "addr_housenumber": "10"
    },
    {
      "id": 209097,
      "geometry": "POINT (-121.314006 44.061059)",
      "poi_name": "CHI",
      "osm_id": 5022945287,
      "amenity": "restaurant",
      "cuisine": "chinese",
      "opening_hours": "Tu-Su 16:00-21:00",
      "website": "https://www.bendchi.com/",
      "phone": "+1-541-323-3931",
      "addr_state": "OR",
      "addr_city": "Bend",
      "addr_postcode": "97703",
      "addr_street": "Northwest Newport Avenue",
      "addr_housenumber": "70"
    },
    {
      "id": 209048,
      "geometry": "POINT (-121.312534 44.058548)",
      "poi_name": "J-Dub",
      "osm_id": 5020812958,
      "amenity": "restaurant",
      "cuisine": "american",
      "opening_hours": "Mo-Fr 10:30-22:30; Sa,Su 09:00-22:30",
      "website": "https://jdubbend.com/",
      "phone": "+1-541-797-6335",
      "addr_state": "OR",
      "addr_city": "Bend",
      "addr_postcode": "97703",
      "addr_street": "Northwest Bond Street",
      "addr_housenumber": "932"
    },
    {
      "id": 209049,
      "geometry": "POINT (-121.312984 44.058578)",
      "poi_name": "Zydeco",
      "osm_id": 5020812962,
      "amenity": "restaurant",
      "cuisine": "american",
      "wheelchair": "limited",
      "opening_hours": "Mo-Fr 11:30-14:30,17:00+; Sa,Su 17:00+",
      "website": "https://zydecokitchen.com/",
      "phone": "+1-541-312-2899",
      "addr_state": "OR",
      "addr_city": "Bend",
      "addr_postcode": "97703",
      "addr_street": "Northwest Bond Street",
      "addr_housenumber": "919"
    },
    {
      "id": 209050,
      "geometry": "POINT (-121.312811 44.058174)",
      "poi_name": "Hola!",
      "osm_id": 5020812963,
      "amenity": "restaurant",
      "cuisine": "mexican",
      "website": "https://www.holabend.com/",
      "phone": "+1-541-728-0069",
      "addr_state": "OR",
      "addr_city": "Bend",
      "addr_postcode": "97703",
      "addr_street": "Northwest Bond Street",
      "addr_housenumber": "920"
    },
    {
      "id": 209067,
      "geometry": "POINT (-121.311784 44.059253)",
      "poi_name": "Cafe Sintra",
      "osm_id": 5021241345,
      "amenity": "restaurant",
      "cuisine": "portuguese",
      "opening_hours": "Mo-Sa 07:00-15:00; Su 07:00-14:00",
      "website": "https://cafesintra.com/",
      "phone": "+1-541-382-8004",
      "addr_state": "OR",
      "addr_city": "Bend",
      "addr_postcode": "97703",
      "addr_street": "Northwest Bond Street",
      "addr_housenumber": "1024"
    },
    {
      "id": 209125,
      "geometry": "POINT (-121.313484 44.057698)",
      "poi_name": "Noi Thai Cuisine",
      "osm_id": 5024837036,
      "amenity": "restaurant",
      "cuisine": "thai",
      "website": "https://www.noithaicuisine.com/",
      "phone": "+1-541-647-6904",
      "addr_state": "OR",
      "addr_city": "Bend",
      "addr_postcode": "97703",
      "addr_street": "Northwest Franklin Avenue",
      "addr_housenumber": "550"
    },
    {
      "id": 228267,
      "geometry": "POINT (-121.314975 44.058466)",
      "poi_name": "5 Fusion",
      "osm_id": 4337350500,
      "amenity": "restaurant",
      "cuisine": "sushi",
      "opening_hours": "16:00+",
      "website": "https://www.5fusion.com/",
      "phone": "+1-541-323-2328",
      "addr_state": "OR",
      "addr_city": "Bend",
      "addr_postcode": "97703",
      "addr_street": "Northwest Wall Street",
      "addr_housenumber": "821"
    },
    {
      "id": 228908,
      "geometry": "POINT (-121.315492 44.058445)",
      "poi_name": "The Lemon Tree",
      "osm_id": 4359376220,
      "amenity": "restaurant",
      "cuisine": "breakfast",
      "opening_hours": "We-Su 9:00-1:00",
      "website": "https://lemontreebend.com/",
      "phone": "+1-541-241-5306",
      "drive_through": "no",
      "addr_state": "OR",
      "addr_city": "Bend",
      "addr_postcode": "97703",
      "addr_street": "Northwest Franklin Avenue",
      "addr_housenumber": "718"
    },
    {
      "id": 222125,
      "geometry": "POINT (-121.174544 44.274877)",
      "poi_name": "Richard's Sliders",
      "osm_id": 11006337749,
      "amenity": "restaurant",
      "cuisine": "sandwich;burger",
      "opening_hours": "Mo-Sa 08:00-20:00",
      "website": "https://www.richardssliders.com",
      "addr_state": "OR",
      "addr_city": "Redmond",
      "addr_postcode": "97756",
      "addr_street": "Southwest 6th Street",
      "addr_housenumber": "245"
    },
    {
      "id": 222126,
      "geometry": "POINT (-121.174606 44.274877)",
      "poi_name": "El Imperio Mexican Food",
      "osm_id": 11006337750,
      "amenity": "restaurant",
      "cuisine": "mexican",
      "addr_state": "OR",
      "addr_city": "Redmond",
      "addr_postcode": "97756",
      "addr_street": "Southwest 6th Street",
      "addr_housenumber": "245"
    },
    {
      "id": 222132,
      "geometry": "POINT (-121.193018 44.24099)",
      "poi_name": "Xalisco Latin Cuisine",
      "osm_id": 11006395595,
      "amenity": "restaurant",
      "cuisine": "mexican",
      "phone": "541-923-3943",
      "addr_state": "OR",
      "addr_city": "Redmond",
      "addr_postcode": "97756",
      "addr_street": "Southwest 21st Street",
      "addr_housenumber": "3835"
    },
    {
      "id": 222136,
      "geometry": "POINT (-121.32682 44.056505)",
      "poi_name": "BOSA",
      "osm_id": 11006406409,
      "amenity": "restaurant",
      "cuisine": "italian;french",
      "opening_hours": "Mo-Sa 16:30-22:00",
      "website": "https://www.bosabend.com",
      "phone": "541-241-2727",
      "addr_state": "OR",
      "addr_city": "Bend",
      "addr_postcode": "97703",
      "addr_street": "Northwest Galveston Avenue",
      "addr_housenumber": "1005"
    },
    {
      "id": 229495,
      "geometry": "POINT (-121.330648 44.0505)",
      "poi_name": "Bo's Falafel Bar",
      "osm_id": 4382828189,
      "amenity": "restaurant",
      "cuisine": "mediterranean;middle_eastern;bagel",
      "opening_hours": "We-Su 08:00-20:00",
      "website": "https://order.toasttab.com/online/bo-s-70-sw-century-dr/",
      "addr_state": "OR",
      "addr_city": "Bend",
      "addr_postcode": "97702",
      "addr_street": "Southwest Century Drive",
      "addr_housenumber": "70"
    },
    {
      "id": 234448,
      "geometry": "POINT (-122.602673 42.073885)",
      "poi_name": "Callahan's Restaurant",
      "osm_id": 4622858380,
      "amenity": "restaurant",
      "cuisine": "italian",
      "opening_hours": "08:00-22:00",
      "website": "https://callahanslodge.com/dining-html/",
      "capacity": "500",
      "takeaway": "yes",
      "outdoor_seating": "yes",
      "delivery": "no",
      "addr_state": "OR",
      "addr_city": "Ashland",
      "addr_postcode": "97520",
      "addr_street": "Old Highway 99 South",
      "addr_housenumber": "7100"
    },
    {
      "id": 233834,
      "geometry": "POINT (-121.313904 44.058993)",
      "poi_name": "Joolz",
      "osm_id": 4589530077,
      "amenity": "restaurant",
      "cuisine": "middle_eastern",
      "opening_hours": "Mo-Sa 16:00-21:00",
      "website": "https://joolzbend.com/",
      "phone": "+1-541-388-5094",
      "addr_state": "OR",
      "addr_city": "Bend",
      "addr_postcode": "97703",
      "addr_street": "Northwest Wall Street",
      "addr_housenumber": "916"
    },
    {
      "id": 238201,
      "geometry": "POINT (-121.446637 43.87408)",
      "poi_name": "Lodge Kitchen",
      "osm_id": 5866472289,
      "amenity": "restaurant",
      "cuisine": "regional;american",
      "website": "https://www.sunriverresort.com/dining-eat-drink/restaurants/lodge-kitchen",
      "takeaway": "yes",
      "outdoor_seating": "yes",
      "addr_state": "OR",
      "addr_city": "Sunriver",
      "addr_postcode": "97707",
      "addr_street": "Center Drive"
    }
  ],
  "answer_type": "loc",
  "question_entities": {
    "[1]": {
      "main_category": "amenity",
      "sub_category": "restaurant"
    },
    "[2]": {
      "distance": 180000,
      "text": "180 kilometers"
    },
    "[3]": {
      "main_category": "leisure",
      "sub_category": "park",
      "display_name": "Summer Lake State Wildlife Area, OR",
      "geo_wkt": "POINT (-120.763315 42.951537)",
      "poi": {
        "id": 253984,
        "geometry": "POINT (-120.763315 42.951537)",
        "poi_name": "Summer Lake State Wildlife Area",
        "osm_id": 357306334,
        "leisure": "park",
        "addr_state": "OR"
      }
    }
  },
  "id": 2074,
  "type": "range+loc"
}