{
  "question": "Where can I find a caf\u00e9 within 120 kilometers from BW Gallery, Nashville, TN?",
  "sql": "SELECT * FROM pois\nWHERE ST_DWithin(pois.geometry, ST_GeomFromText('POINT (-86.758107 36.132515)',4326)::geography, 120000)\nAND amenity = 'cafe';\n",
  "answers": [
    {
      "id": 36119,
      "geometry": "POINT (-86.713416 36.321006)",
      "poi_name": "Flourgirls",
      "osm_id": 2750713604,
      "amenity": "cafe",
      "cuisine": "coffee_shop",
      "internet_access": "yes",
      "addr_city": "Goodlettsville",
      "addr_postcode": "37072",
      "addr_street": "South Main Street",
      "addr_housenumber": "201"
    },
    {
      "id": 51065,
      "geometry": "POINT (-86.881071 35.892699)",
      "poi_name": "Starbucks",
      "osm_id": 506398562,
      "amenity": "cafe",
      "cuisine": "coffee_shop",
      "takeaway": "yes",
      "official_name": "Starbucks Coffee",
      "addr_city": "Franklin",
      "addr_postcode": "37064",
      "addr_street": "Columbia Ave",
      "addr_housenumber": "3064"
    },
    {
      "id": 69834,
      "geometry": "POINT (-85.46772 36.149648)",
      "poi_name": "Red House Coffee",
      "osm_id": 11332567308,
      "amenity": "cafe",
      "website": "https://www.redhousecookeville.com/",
      "phone": "9317541198",
      "addr_state": "TN",
      "addr_city": "Cookeville",
      "addr_postcode": "38506",
      "addr_street": "East Spring Street",
      "addr_housenumber": "1590"
    },
    {
      "id": 63673,
      "geometry": "POINT (-86.752827 36.127139)",
      "poi_name": "Red Bicycle",
      "osm_id": 5627359121,
      "amenity": "cafe",
      "website": "https://www.redbicyclecoffee.com/woodbine.html",
      "internet_access": "yes",
      "outdoor_seating": "yes",
      "addr_state": "TN",
      "addr_city": "Nashville",
      "addr_postcode": "37211",
      "addr_street": "Nolensville Pike",
      "addr_housenumber": "2190"
    },
    {
      "id": 66692,
      "geometry": "POINT (-86.838813 35.372428)",
      "poi_name": "Crave Energy + Nutrition",
      "osm_id": 11206340517,
      "amenity": "cafe",
      "cuisine": "coffee_shop;energy_drinks",
      "opening_hours": "Mo-Fr 06:00-18:00; Sa-Su 08:00-14:00",
      "outdoor_seating": "no",
      "addr_state": "TN",
      "addr_city": "Cornersville",
      "addr_postcode": "37047",
      "addr_street": "North Main Street",
      "addr_housenumber": "503"
    },
    {
      "id": 69449,
      "geometry": "POINT (-86.714017 36.257938)",
      "poi_name": "Madtown Coffee",
      "osm_id": 11305114941,
      "amenity": "cafe",
      "cuisine": "coffee_shop",
      "addr_state": "TN",
      "addr_city": "Nashville",
      "addr_postcode": "37115",
      "addr_street": "Gallatin Pike",
      "addr_housenumber": "516"
    },
    {
      "id": 72921,
      "geometry": "POINT (-87.034324 35.614456)",
      "poi_name": "Muletown Coffee Roasters",
      "osm_id": 9595666346,
      "amenity": "cafe",
      "addr_state": "TN",
      "addr_city": "Columbia",
      "addr_postcode": "38401",
      "addr_street": "Public Square",
      "addr_housenumber": "23"
    },
    {
      "id": 86932,
      "geometry": "POINT (-86.800726 36.136432)",
      "poi_name": "Fido",
      "osm_id": 1960587442,
      "amenity": "cafe",
      "addr_state": "TN",
      "addr_city": "Nashville",
      "addr_street": "21st Avenue South"
    },
    {
      "id": 90020,
      "geometry": "POINT (-86.812353 36.144776)",
      "poi_name": "Three Brothers Coffee",
      "osm_id": 8875900233,
      "amenity": "cafe",
      "addr_state": "TN",
      "addr_city": "Nashville",
      "addr_postcode": "37203",
      "addr_street": "West End Avenue",
      "addr_housenumber": "2813"
    },
    {
      "id": 104004,
      "geometry": "POINT (-86.440034 35.841634)",
      "poi_name": "Catfeine Cat Cafe",
      "osm_id": 8539234787,
      "amenity": "cafe",
      "website": "https://www.catfeine.net/",
      "addr_state": "TN",
      "addr_city": "Murfreesboro",
      "addr_postcode": "37128",
      "addr_street": "Cason Lane",
      "addr_housenumber": "517"
    },
    {
      "id": 100629,
      "geometry": "POINT (-87.293392 36.591015)",
      "poi_name": "Joe Muggs",
      "osm_id": 6594242063,
      "amenity": "cafe",
      "cuisine": "coffee_shop",
      "wheelchair": "yes",
      "operator": "Books-A-Million",
      "website": "https://www.booksamillion.com/joemuggs",
      "internet_access": "yes",
      "phone": "+1 931-648-1100",
      "takeaway": "yes",
      "outdoor_seating": "yes",
      "delivery": "no",
      "addr_state": "TN",
      "addr_city": "Clarksville",
      "addr_postcode": "37040",
      "addr_street": "South Hampton Place",
      "addr_housenumber": "125"
    },
    {
      "id": 104005,
      "geometry": "POINT (-86.439837 35.842023)",
      "poi_name": "SaBaiDee Cafe",
      "osm_id": 8539234788,
      "amenity": "cafe",
      "addr_state": "TN",
      "addr_city": "Murfreesboro",
      "addr_postcode": "37128",
      "addr_street": "Cason Lane",
      "addr_housenumber": "505"
    },
    {
      "id": 111598,
      "geometry": "POINT (-86.354538 35.58948)",
      "poi_name": "Bell Buckle Coffee Shop",
      "osm_id": 3756221238,
      "amenity": "cafe",
      "cuisine": "coffee_shop",
      "opening_hours": "Mo-Sa 7:30-17:00",
      "internet_access": "yes",
      "addr_state": "TN",
      "addr_city": "Bell Buckle",
      "addr_postcode": "37020",
      "addr_street": "Webb Road East",
      "addr_housenumber": "1"
    },
    {
      "id": 123785,
      "geometry": "POINT (-86.290031 36.207678)",
      "poi_name": "Split Bean Roasting Co.",
      "osm_id": 6879028922,
      "amenity": "cafe",
      "cuisine": "coffee_shop",
      "internet_access": "yes",
      "outdoor_seating": "yes",
      "addr_state": "TN",
      "addr_city": "Lebanon",
      "addr_postcode": "37087",
      "addr_street": "East Main Street",
      "addr_housenumber": "110"
    },
    {
      "id": 123831,
      "geometry": "POINT (-86.779988 36.165751)",
      "poi_name": "Bowtie Barista",
      "osm_id": 6883099691,
      "amenity": "cafe",
      "cuisine": "coffee",
      "wheelchair": "limited",
      "outdoor_seating": "yes",
      "addr_state": "TN",
      "addr_city": "Nashville",
      "addr_postcode": "37238",
      "addr_street": "Dea",
      "addr_housenumber": "315"
    },
    {
      "id": 128410,
      "geometry": "POINT (-86.771866 36.194911)",
      "poi_name": "Retrograde Coffee",
      "osm_id": 8155695668,
      "amenity": "cafe",
      "cuisine": "coffee_shop",
      "outdoor_seating": "yes",
      "addr_state": "TN",
      "addr_city": "Nashville",
      "addr_postcode": "37203",
      "addr_street": "Dickerson Pike",
      "addr_housenumber": "1305"
    },
    {
      "id": 129069,
      "geometry": "POINT (-86.78502 36.181773)",
      "poi_name": "Yin Yang Tea",
      "osm_id": 8207422849,
      "amenity": "cafe",
      "cuisine": "bubble_tea",
      "website": "https://www.instagram.com/drinkyinyangtea/tagged/?hl=en",
      "outdoor_seating": "yes",
      "addr_state": "TN",
      "addr_city": "Nashville",
      "addr_postcode": "37208",
      "addr_street": "Van Buren Street",
      "addr_housenumber": "83"
    },
    {
      "id": 145321,
      "geometry": "POINT (-86.919104 36.073531)",
      "poi_name": "Starbucks",
      "osm_id": 7338850993,
      "amenity": "cafe",
      "cuisine": "coffee_shop",
      "opening_hours": "Mo-Su 05:00-21:00",
      "internet_access": "yes",
      "phone": "+1-615-673-0235",
      "takeaway": "yes",
      "official_name": "Starbucks Coffee",
      "outdoor_seating": "yes",
      "addr_state": "TN",
      "addr_city": "Nashville",
      "addr_postcode": "37221",
      "addr_street": "Highway 70 S",
      "addr_housenumber": "7083"
    },
    {
      "id": 149869,
      "geometry": "POINT (-87.367322 36.539682)",
      "poi_name": "Freeze Pleeze Ice Cream",
      "osm_id": 4030456191,
      "amenity": "cafe",
      "cuisine": "ice_cream",
      "wheelchair": "yes",
      "website": "https://www.facebook.com/freezepleeze",
      "internet_access": "no",
      "phone": "+1 931-472-5757",
      "takeaway": "yes",
      "outdoor_seating": "yes",
      "addr_state": "TN",
      "addr_city": "Clarksville",
      "addr_postcode": "37040",
      "addr_street": "North Riverside Drive",
      "addr_housenumber": "700B"
    },
    {
      "id": 150745,
      "geometry": "POINT (-86.88902 36.845598)",
      "poi_name": "Poppable's - Mini Cupcakes & More",
      "osm_id": 4065341689,
      "amenity": "cafe",
      "cuisine": "coffee_shop",
      "opening_hours": "Mo-Fr 08:00-18:00",
      "internet_access": "no",
      "addr_state": "KY",
      "addr_city": "Russellville",
      "addr_postcode": "42276",
      "addr_street": "Winter Street",
      "addr_housenumber": "114"
    },
    {
      "id": 158987,
      "geometry": "POINT (-86.374654 37.004049)",
      "poi_name": "Corvette Caf\u00e9",
      "osm_id": 4771873185,
      "amenity": "cafe",
      "opening_hours": "Mo-Sa 08:30-15:30; Su 10:30-15:30",
      "website": "https://www.corvettecafe.org/",
      "addr_state": "KY",
      "addr_city": "Bowling Green",
      "addr_postcode": "42101",
      "addr_street": "Corvette Drive",
      "addr_housenumber": "350"
    },
    {
      "id": 164387,
      "geometry": "POINT (-86.801126 36.135823)",
      "poi_name": "Barista Parlor  Hillsboro Village",
      "osm_id": 9469541937,
      "amenity": "cafe",
      "internet_access": "wlan",
      "addr_state": "TN",
      "addr_city": "Nashville",
      "addr_street": "21st Avenue South",
      "addr_housenumber": "1817"
    },
    {
      "id": 166427,
      "geometry": "POINT (-87.55193 35.548602)",
      "poi_name": "Rockin, Chair Cafe",
      "osm_id": 9592641699,
      "amenity": "cafe",
      "addr_state": "TN",
      "addr_city": "Hohenwald",
      "addr_postcode": "38462",
      "addr_street": "North Park Street",
      "addr_housenumber": "27"
    },
    {
      "id": 176589,
      "geometry": "POINT (-87.261614 36.722805)",
      "poi_name": "Trenton Market and Cafe",
      "osm_id": 2563478198,
      "amenity": "cafe",
      "opening_hours": "Mo-We 10:00-14:30; Th-Fr 10:00-20:00; Sa 10:00-14:30",
      "website": "https://www.facebook.com/pages/Trenton-Market-and-Cafe/123151621100442",
      "phone": "+1 270-466-0999",
      "addr_state": "KY",
      "addr_city": "Trenton"
    },
    {
      "id": 177194,
      "geometry": "POINT (-86.780218 36.163582)",
      "poi_name": "Starbucks",
      "osm_id": 2577118812,
      "amenity": "cafe",
      "cuisine": "coffee_shop",
      "internet_access": "yes",
      "phone": "615-248-3339",
      "takeaway": "yes",
      "official_name": "Starbucks Coffee",
      "addr_city": "Nashville",
      "addr_postcode": "37219",
      "addr_street": "Church Street",
      "addr_housenumber": "424"
    },
    {
      "id": 179634,
      "geometry": "POINT (-86.799869 36.151402)",
      "poi_name": "Poindexter Coffee",
      "osm_id": 10771753856,
      "amenity": "cafe",
      "cuisine": "coffee_shop;breakfast",
      "opening_hours": "Mo-Su 06:30-18:00",
      "website": "https://www.graduatehotels.com/nashville/restaurant/poindexter/",
      "outdoor_seating": "no",
      "addr_state": "TN",
      "addr_city": "Nashville",
      "addr_postcode": "37203",
      "addr_street": "20th Avenue North",
      "addr_housenumber": "101"
    },
    {
      "id": 180531,
      "geometry": "POINT (-87.219762 36.106911)",
      "poi_name": "Petals Nutrition",
      "osm_id": 10805601346,
      "amenity": "cafe",
      "addr_state": "TN",
      "addr_city": "White Bluff",
      "addr_postcode": "37187",
      "addr_street": "Highway 70E",
      "addr_housenumber": "4509"
    },
    {
      "id": 181209,
      "geometry": "POINT (-86.650231 35.741892)",
      "poi_name": "Grindstone Cowboy",
      "osm_id": 10835731358,
      "amenity": "cafe",
      "cuisine": "coffee_shop",
      "website": "https://thegrindstonecowboy.com/",
      "phone": "+16156409040",
      "outdoor_seating": "yes",
      "addr_state": "TN",
      "addr_city": "Eagleville",
      "addr_postcode": "37060",
      "addr_street": "North Main Street",
      "addr_housenumber": "115"
    },
    {
      "id": 186247,
      "geometry": "POINT (-86.927362 35.752049)",
      "poi_name": "Old School Cafe",
      "osm_id": 7923511287,
      "amenity": "cafe",
      "addr_state": "TN",
      "addr_city": "Spring Hill",
      "addr_postcode": "37174",
      "addr_street": "School Street",
      "addr_housenumber": "1220"
    },
    {
      "id": 187155,
      "geometry": "POINT (-86.939314 36.064164)",
      "poi_name": "City Limits Bakery & Cafe",
      "osm_id": 7977468798,
      "amenity": "cafe",
      "description": "Popular local coffee shop and bakery serving a variety of coffee drinks, teas, hot breakfasts, sandwiches, and salads.",
      "opening_hours": "Mo-Fr 07:00-14:00; Sa 07:00-15:00; Su 08:00-15:00",
      "website": "https://citylimitsbakerycafe.com/",
      "phone": "+1-615-646-0062",
      "takeaway": "yes",
      "outdoor_seating": "no",
      "addr_state": "TN",
      "addr_city": "Nashville",
      "addr_postcode": "37221",
      "addr_street": "Clofton Drive",
      "addr_housenumber": "361"
    },
    {
      "id": 204867,
      "geometry": "POINT (-87.064285 36.275073)",
      "poi_name": "Sheyegirl Coffee",
      "osm_id": 7146935587,
      "amenity": "cafe",
      "cuisine": "coffee_shop",
      "website": "https://sheyegirlcoffee.co/",
      "addr_state": "TN",
      "addr_city": "Ashland City",
      "addr_postcode": "37015",
      "addr_street": "North Main Street",
      "addr_housenumber": "201"
    },
    {
      "id": 204353,
      "geometry": "POINT (-86.770324 36.137476)",
      "poi_name": "Crest Coffee",
      "osm_id": 7123518171,
      "amenity": "cafe",
      "cuisine": "coffee_shop",
      "website": "https://crestcoffeehouse.com/",
      "outdoor_seating": "yes",
      "addr_state": "TN",
      "addr_city": "Nashville",
      "addr_postcode": "37203",
      "addr_street": "Martin Street",
      "addr_housenumber": "1601"
    },
    {
      "id": 204355,
      "geometry": "POINT (-86.773161 36.13112)",
      "poi_name": "Loading Dock",
      "osm_id": 7123633360,
      "amenity": "cafe",
      "cuisine": "coffee_shop;breakfast",
      "outdoor_seating": "yes",
      "addr_state": "TN",
      "addr_city": "Nashville",
      "addr_postcode": "37203",
      "addr_street": "Lindell Avenue",
      "addr_housenumber": "2028"
    },
    {
      "id": 217504,
      "geometry": "POINT (-86.597115 35.997787)",
      "poi_name": "White Bison Coffee",
      "osm_id": 9228304846,
      "amenity": "cafe",
      "cuisine": "coffee_shop",
      "addr_state": "TN",
      "addr_city": "La Vergne",
      "addr_postcode": "37086",
      "addr_street": "Waldron Road",
      "addr_housenumber": "522"
    },
    {
      "id": 230412,
      "geometry": "POINT (-87.10941 35.986068)",
      "poi_name": "First District Coffee",
      "osm_id": 4425361996,
      "amenity": "cafe",
      "cuisine": "coffee_shop",
      "internet_access": "wlan",
      "addr_state": "TN",
      "addr_city": "Fairview",
      "addr_postcode": "37062",
      "addr_street": "Fairview Blvd",
      "addr_housenumber": "1880"
    },
    {
      "id": 223406,
      "geometry": "POINT (-86.766687 36.142952)",
      "poi_name": "Americano Coffee Lounge",
      "osm_id": 11051992703,
      "amenity": "cafe",
      "cuisine": "coffee_shop",
      "website": "https://americanolounge.com/",
      "internet_access": "wlan",
      "addr_state": "TN",
      "addr_city": "Nashville",
      "addr_postcode": "37203",
      "addr_street": "Houston Street",
      "addr_housenumber": "434"
    },
    {
      "id": 224895,
      "geometry": "POINT (-86.541642 35.729722)",
      "poi_name": "Fried Tater Cafe",
      "osm_id": 11102993508,
      "amenity": "cafe",
      "website": "https://boropulse.com/2022/01/the-fried-tater-a-country-cafe-serving-burgers-catfish-biscuits-and-gravy-banana-pudding-and-more/",
      "phone": "615-722-1151",
      "addr_state": "TN",
      "addr_city": "Rockvale",
      "addr_street": "Versailles Road",
      "addr_housenumber": "11088"
    },
    {
      "id": 235396,
      "geometry": "POINT (-86.41709 35.861281)",
      "poi_name": "The Sodabar",
      "osm_id": 5754677428,
      "amenity": "cafe",
      "cuisine": "ice_cream",
      "opening_hours": "Mo-Th 11:00-21:00; Fr-Sa 11:00-22:00; Su 13:00-21:00",
      "outdoor_seating": "yes",
      "addr_state": "TN",
      "addr_city": "Murfreesboro",
      "addr_postcode": "37129",
      "addr_street": "Medical Center Parkway",
      "addr_housenumber": "1500"
    },
    {
      "id": 232188,
      "geometry": "POINT (-86.442094 36.993715)",
      "poi_name": "Spencer's Coffee",
      "osm_id": 4514482623,
      "amenity": "cafe",
      "internet_access": "yes",
      "addr_state": "KY",
      "addr_city": "Bowling Green",
      "addr_postcode": "42101",
      "addr_street": "College Street",
      "addr_housenumber": "915"
    },
    {
      "id": 235024,
      "geometry": "POINT (-87.033678 35.19783)",
      "poi_name": "The Yellow Deli",
      "osm_id": 5742973562,
      "amenity": "cafe",
      "cuisine": "sandwich;coffee_shop",
      "internet_access": "wlan",
      "outdoor_seating": "yes",
      "addr_state": "TN",
      "addr_city": "Pulaski",
      "addr_postcode": "38478",
      "addr_street": "South 3rd Street",
      "addr_housenumber": "219"
    }
  ],
  "answer_type": "loc",
  "question_entities": {
    "[1]": {
      "main_category": "amenity",
      "sub_category": "cafe"
    },
    "[2]": {
      "distance": 120000,
      "text": "120 kilometers"
    },
    "[3]": {
      "main_category": "tourism",
      "sub_category": "gallery",
      "display_name": "BW Gallery, Nashville, TN",
      "geo_wkt": "POINT (-86.758107 36.132515)",
      "poi": {
        "id": 23407,
        "geometry": "POINT (-86.758107 36.132515)",
        "poi_name": "BW Gallery",
        "osm_id": 5176685584,
        "tourism": "gallery",
        "opening_hours": "Mo-Sa 07:00-20:00",
        "operator": "Barber Woodworking",
        "website": "https://bwgallery.business.site/",
        "addr_state": "TN",
        "addr_city": "Nashville",
        "addr_postcode": "37211",
        "addr_street": "4th Avenue South",
        "addr_housenumber": "1911"
      }
    }
  },
  "id": 2065,
  "type": "range+loc"
}