{
  "question": "In which direction should I proceed to reach a restaurant from ABQ BioPark (Aquarium), Albuquerque, NM within 30 kilometers?",
  "sql": "SELECT *, degrees(ST_Azimuth(ST_GeomFromText('POINT (-106.678998 35.093235)',4326)::geography, pois.geometry)) AS angle FROM pois\nWHERE ST_DWithin(pois.geometry, ST_GeomFromText('POINT (-106.678998 35.093235)',4326)::geography, 30000)\nAND amenity = 'restaurant';\n",
  "answers": [
    {
      "id": 29166,
      "geometry": "POINT (-106.370448 35.123784)",
      "poi_name": "Greenside Cafe",
      "osm_id": 8285303426,
      "amenity": "restaurant",
      "cuisine": "american",
      "wheelchair": "yes",
      "opening_hours": "Mo-Tu 16:00-19:00, We-Sa 11:00-19:00, Su 11:00-14:00",
      "website": "https://www.greenside.cafe/",
      "phone": "+1 (505) 286-2684",
      "takeaway": "yes",
      "delivery": "no",
      "addr_state": "NM",
      "addr_city": "Cedar Crest",
      "addr_postcode": "87008",
      "addr_street": "North Highway 14",
      "addr_housenumber": "12165",
      "angle": 83.04115329649544
    },
    {
      "id": 31656,
      "geometry": "POINT (-106.514707 35.090083)",
      "poi_name": "Pizza Hut",
      "osm_id": 8439882371,
      "amenity": "restaurant",
      "cuisine": "pizza",
      "angle": 91.28993524869863
    },
    {
      "id": 32280,
      "geometry": "POINT (-106.532815 35.076688)",
      "poi_name": "Bob's Burgers",
      "osm_id": 2623137197,
      "amenity": "restaurant",
      "cuisine": "burger",
      "phone": "+1 505 3320818",
      "angle": 97.79842478783924
    },
    {
      "id": 36221,
      "geometry": "POINT (-106.648134 35.201208)",
      "poi_name": "Rudy's Country Store & Bar-B-Q",
      "osm_id": 2755106916,
      "amenity": "restaurant",
      "cuisine": "barbecue",
      "phone": "(505) 890-7113",
      "addr_state": "NM",
      "addr_city": "Albuquerque",
      "addr_postcode": "87114",
      "addr_street": "Coors Boulevard Northwest",
      "addr_housenumber": "10136",
      "angle": 13.204125491422085
    },
    {
      "id": 36225,
      "geometry": "POINT (-106.649958 35.198902)",
      "poi_name": "Hong Kong Buffet",
      "osm_id": 2755122459,
      "amenity": "restaurant",
      "cuisine": "chinese",
      "addr_city": "Albuquerque",
      "addr_postcode": "87114",
      "addr_street": "Coors Boulevard Northwest",
      "addr_housenumber": "10100",
      "angle": 12.711990835691207
    },
    {
      "id": 38951,
      "geometry": "POINT (-106.611475 35.08089)",
      "poi_name": "Zinc Wine Bar and Bistro",
      "osm_id": 2893528777,
      "amenity": "restaurant",
      "cuisine": "international",
      "description": "Upscale eats made with seasonal ingredients along with a varied wine list in a hip, airy space.",
      "opening_hours": "Mo-Th 17:00-21:30; Fr 17:00-23:00; Sa 11:00-14:30,17:00-23:00; Su 11:00-14:30,17:00-21:00",
      "website": "https://www.zincabq.com/",
      "phone": "505-254-9462",
      "addr_state": "NM",
      "addr_city": "Albuquerque",
      "addr_postcode": "87106",
      "addr_street": "Central Avenue Northeast",
      "addr_housenumber": "3009",
      "angle": 102.52007596301573
    },
    {
      "id": 39276,
      "geometry": "POINT (-106.620617 35.079405)",
      "poi_name": "El Patio",
      "osm_id": 2913631601,
      "amenity": "restaurant",
      "cuisine": "mexican",
      "addr_street": "Harvard Drive Southeast",
      "addr_housenumber": "142",
      "angle": 106.05966328549351
    },
    {
      "id": 39528,
      "geometry": "POINT (-106.518093 35.131019)",
      "poi_name": "Farina Alto",
      "osm_id": 2925333638,
      "amenity": "restaurant",
      "angle": 74.00522160536184
    },
    {
      "id": 39713,
      "geometry": "POINT (-106.681868 35.065203)",
      "poi_name": "Pupuseria y Restaurant Salvadoreno",
      "osm_id": 2936253915,
      "amenity": "restaurant",
      "opening_hours": "Su, Tu-Sa 09:00-20:00",
      "phone": "+1-505-243-8194",
      "addr_postcode": "87105",
      "addr_street": "Bridge Boulevard SW",
      "addr_housenumber": "1701",
      "angle": 184.811552124274
    },
    {
      "id": 40199,
      "geometry": "POINT (-106.623766 35.183494)",
      "poi_name": "Farm and Table",
      "osm_id": 2960354928,
      "amenity": "restaurant",
      "angle": 26.671257951779253
    },
    {
      "id": 40201,
      "geometry": "POINT (-106.626102 35.180114)",
      "poi_name": "El Bruno's Restaurante y Cantina",
      "osm_id": 2960356959,
      "amenity": "restaurant",
      "angle": 26.55654562595492
    },
    {
      "id": 40319,
      "geometry": "POINT (-106.642742 35.083214)",
      "poi_name": "2G's Bistro",
      "osm_id": 2966746202,
      "amenity": "restaurant",
      "addr_street": "Central Avenue Southeast",
      "addr_housenumber": "414",
      "angle": 108.576206561123
    },
    {
      "id": 41735,
      "geometry": "POINT (-106.667732 35.092212)",
      "poi_name": "Vinaigrette",
      "osm_id": 3024758370,
      "amenity": "restaurant",
      "cuisine": "salad;soup;sandwich;wine",
      "addr_state": "NM",
      "addr_city": "Albuquerque",
      "addr_street": "Central Avenue Southwest",
      "angle": 96.29955580902373
    },
    {
      "id": 42371,
      "geometry": "POINT (-106.645539 35.061065)",
      "poi_name": "El Dorado Bakery",
      "osm_id": 3058056727,
      "amenity": "restaurant",
      "cuisine": "mexican",
      "angle": 139.45971249444068
    },
    {
      "id": 42075,
      "geometry": "POINT (-106.699126 35.114085)",
      "poi_name": "Perico's Burritos & Tacos",
      "osm_id": 3040318927,
      "amenity": "restaurant",
      "cuisine": "mexican",
      "website": "https://www.pericosmexicanrestaurant.com/",
      "phone": "+1 505 8394762",
      "addr_city": "Albuquerque",
      "addr_postcode": "87120",
      "addr_street": "Coors Boulevard Northwest",
      "addr_housenumber": "2810",
      "angle": 321.579499359151
    },
    {
      "id": 43597,
      "geometry": "POINT (-106.613335 35.098524)",
      "poi_name": "Piatanzi",
      "osm_id": 3121346680,
      "amenity": "restaurant",
      "cuisine": "italian",
      "website": "http://www.piatanzi.com/",
      "phone": "505-792-1700",
      "addr_state": "NM",
      "addr_city": "Albuquerque",
      "addr_postcode": "87106",
      "addr_street": "Girard Boulevard Northeast",
      "addr_housenumber": "1403",
      "angle": 84.38372066762777
    },
    {
      "id": 42535,
      "geometry": "POINT (-106.594115 35.078396)",
      "poi_name": "Loyola's",
      "osm_id": 3066579780,
      "amenity": "restaurant",
      "cuisine": "mexican",
      "addr_state": "NM",
      "addr_city": "Albuquerque",
      "addr_postcode": "87108",
      "addr_street": "Central Avenue Southeast",
      "addr_housenumber": "4500",
      "angle": 101.98258637167562
    },
    {
      "id": 45295,
      "geometry": "POINT (-106.619357 35.080521)",
      "poi_name": "Gyros Mediterranean",
      "osm_id": 3199898224,
      "amenity": "restaurant",
      "angle": 104.52222370951246
    },
    {
      "id": 46431,
      "geometry": "POINT (-106.603681 35.080329)",
      "poi_name": "Salathai",
      "osm_id": 3264569636,
      "amenity": "restaurant",
      "cuisine": "thai",
      "addr_state": "NM",
      "addr_city": "Albuquerque",
      "addr_postcode": "87106",
      "addr_street": "Campus Boulevard Northeast",
      "addr_housenumber": "3619",
      "angle": 101.75375836208799
    },
    {
      "id": 45411,
      "geometry": "POINT (-106.502037 35.086864)",
      "poi_name": "Red Rock Deli",
      "osm_id": 3206501461,
      "amenity": "restaurant",
      "takeaway": "yes",
      "outdoor_seating": "no",
      "angle": 92.45717181282109
    },
    {
      "id": 46018,
      "geometry": "POINT (-106.629421 35.058971)",
      "poi_name": "Denny's",
      "osm_id": 3241461963,
      "amenity": "restaurant",
      "cuisine": "american",
      "angle": 130.03990068303855
    },
    {
      "id": 46252,
      "geometry": "POINT (-106.585107 35.145428)",
      "poi_name": "Thai Vegan",
      "osm_id": 3255294393,
      "amenity": "restaurant",
      "cuisine": "thai",
      "website": "https://www.thaivegannm.net/;https://www.thaiveganonosuna.com/",
      "phone": "+1-505-884-4610",
      "addr_state": "NM",
      "addr_city": "Albuquerque",
      "addr_postcode": "87109",
      "addr_street": "Osuna Road Northeast",
      "addr_housenumber": "5505",
      "angle": 55.892515829423665
    },
    {
      "id": 48550,
      "geometry": "POINT (-106.583397 35.058714)",
      "poi_name": "Stripes & Burritos Co",
      "osm_id": 3387871543,
      "amenity": "restaurant",
      "cuisine": "tex-mex;mexican;american;burger",
      "phone": "505.265.9200",
      "addr_state": "NM",
      "addr_city": "Albuquerque",
      "addr_postcode": "87109",
      "addr_street": "Gibson Blvd SE Albuquerque",
      "addr_housenumber": "5211",
      "angle": 113.68588879837398
    },
    {
      "id": 46514,
      "geometry": "POINT (-106.595148 35.075515)",
      "poi_name": "Frank's Famous Chicken & Waffles",
      "osm_id": 3269830033,
      "amenity": "restaurant",
      "cuisine": "chicken",
      "addr_state": "NM",
      "addr_city": "Albuquerque",
      "addr_postcode": "87108",
      "addr_street": "Washington Street Southeast",
      "addr_housenumber": "400",
      "angle": 104.39387931341474
    },
    {
      "id": 48650,
      "geometry": "POINT (-106.54903 35.073421)",
      "poi_name": "Vick's Vittles",
      "osm_id": 3393421959,
      "amenity": "restaurant",
      "cuisine": "regional",
      "phone": "+1 505 2985143",
      "addr_state": "NM",
      "addr_city": "Albuquerque",
      "addr_street": "Central Avenue Southeast",
      "addr_housenumber": "8810",
      "angle": 100.46959316020813
    },
    {
      "id": 48726,
      "geometry": "POINT (-106.62201 35.114606)",
      "poi_name": "Pho 79",
      "osm_id": 3397771232,
      "amenity": "restaurant",
      "cuisine": "vietnamese",
      "angle": 65.45505658941994
    },
    {
      "id": 54744,
      "geometry": "POINT (-106.676756 35.094726)",
      "poi_name": "Fit and Fabulous",
      "osm_id": 10153348374,
      "amenity": "restaurant",
      "angle": 51.024878107010956
    },
    {
      "id": 50556,
      "geometry": "POINT (-106.584577 35.149626)",
      "poi_name": "Budai Gourmet Chinese",
      "osm_id": 3490097267,
      "amenity": "restaurant",
      "cuisine": "chinese",
      "angle": 53.95983730488698
    },
    {
      "id": 51980,
      "geometry": "POINT (-106.668574 35.243135)",
      "poi_name": "Black Olive",
      "osm_id": 566693543,
      "amenity": "restaurant",
      "angle": 3.2651937112440894
    },
    {
      "id": 52006,
      "geometry": "POINT (-106.653018 35.249691)",
      "poi_name": "Applebee's",
      "osm_id": 566896092,
      "amenity": "restaurant",
      "cuisine": "american",
      "official_name": "Applebee's Neighborhood Grill & Bar",
      "addr_state": "NM",
      "angle": 7.7568257529039
    },
    {
      "id": 52008,
      "geometry": "POINT (-106.653447 35.249228)",
      "poi_name": "Dion''s",
      "osm_id": 566896099,
      "amenity": "restaurant",
      "angle": 7.652549766265821
    },
    {
      "id": 54745,
      "geometry": "POINT (-106.673288 35.095047)",
      "poi_name": "Federico's",
      "osm_id": 10153348383,
      "amenity": "restaurant",
      "cuisine": "mexican",
      "angle": 68.88557859259399
    },
    {
      "id": 54746,
      "geometry": "POINT (-106.67118 35.095526)",
      "poi_name": "Old Town Pizza Parlor",
      "osm_id": 10153348384,
      "amenity": "restaurant",
      "cuisine": "pizza",
      "angle": 70.37251712573696
    },
    {
      "id": 59223,
      "geometry": "POINT (-106.622479 35.070146)",
      "poi_name": "La Sirenita",
      "osm_id": 5415309851,
      "amenity": "restaurant",
      "angle": 116.40976288522003
    },
    {
      "id": 54817,
      "geometry": "POINT (-106.67104 35.096866)",
      "poi_name": "Fat T's Barbecue",
      "osm_id": 10158072789,
      "amenity": "restaurant",
      "cuisine": "barbecue",
      "angle": 60.96093237386468
    },
    {
      "id": 63684,
      "geometry": "POINT (-106.59376 35.076637)",
      "poi_name": "Vibrance",
      "osm_id": 5627694184,
      "amenity": "restaurant",
      "angle": 103.30276958838773
    },
    {
      "id": 62511,
      "geometry": "POINT (-106.579156 35.131846)",
      "poi_name": "Rex's Burgers",
      "osm_id": 5572360141,
      "amenity": "restaurant",
      "cuisine": "breakfast;burger;sandwich",
      "opening_hours": "Mo-Su 09:00-21:00",
      "phone": "(505) 837-2827",
      "takeaway": "yes",
      "outdoor_seating": "yes",
      "addr_state": "NM",
      "addr_city": "Albuquerque",
      "addr_street": "Montgomery Boulevard NE",
      "addr_housenumber": "5555",
      "angle": 64.76834529987028
    },
    {
      "id": 74815,
      "geometry": "POINT (-106.593672 35.14359)",
      "poi_name": "Saigon City Restaurant",
      "osm_id": 9696814903,
      "amenity": "restaurant",
      "cuisine": "vietnamese",
      "opening_hours": "Mo,Tu,Th-Sa 11:00-21:00, Su 11:00-20:00",
      "website": "https://saigoncityrestaurantnm.com",
      "phone": "505-255-7408",
      "addr_state": "NM",
      "addr_city": "Albuquerque",
      "addr_postcode": "87109",
      "addr_street": "4320 The 25 Way, Ste 300",
      "angle": 54.28771316388938
    },
    {
      "id": 74445,
      "geometry": "POINT (-106.546265 35.073083)",
      "poi_name": "Pho Linh",
      "osm_id": 9680942204,
      "amenity": "restaurant",
      "angle": 100.42627754678314
    },
    {
      "id": 74469,
      "geometry": "POINT (-106.575968 35.184168)",
      "poi_name": "Amore Pizza",
      "osm_id": 9681371825,
      "amenity": "restaurant",
      "angle": 42.915539646804014
    },
    {
      "id": 74470,
      "geometry": "POINT (-106.575962 35.184204)",
      "poi_name": "On The Flip",
      "osm_id": 9681381356,
      "amenity": "restaurant",
      "angle": 42.905826268118446
    },
    {
      "id": 65258,
      "geometry": "POINT (-106.515439 35.090455)",
      "poi_name": "Jambo Cafe",
      "osm_id": 5691565678,
      "amenity": "restaurant",
      "angle": 91.13770391717999
    },
    {
      "id": 85270,
      "geometry": "POINT (-106.585585 35.087134)",
      "poi_name": "Caesar's Mexican & Greek",
      "osm_id": 1855120355,
      "amenity": "restaurant",
      "angle": 94.51643093246953
    },
    {
      "id": 74920,
      "geometry": "POINT (-106.366003 35.130622)",
      "poi_name": "El Mariachi",
      "osm_id": 9703402328,
      "amenity": "restaurant",
      "cuisine": "mexican",
      "addr_housenumber": "1",
      "angle": 81.63909351848022
    },
    {
      "id": 77479,
      "geometry": "POINT (-106.745573 35.079504)",
      "poi_name": "Denny's",
      "osm_id": 693356633,
      "amenity": "restaurant",
      "cuisine": "american",
      "addr_postcode": "87121",
      "addr_street": "Avalon Road Northwest",
      "addr_housenumber": "9911",
      "angle": 255.9339429049176
    },
    {
      "id": 81579,
      "geometry": "POINT (-106.513983 35.114783)",
      "poi_name": "Sushiya",
      "osm_id": 1647985817,
      "amenity": "restaurant",
      "cuisine": "sushi",
      "internet_access": "wlan",
      "takeaway": "yes",
      "outdoor_seating": "no",
      "angle": 80.92377688523158
    },
    {
      "id": 84632,
      "geometry": "POINT (-106.668878 35.099055)",
      "poi_name": "Seasons",
      "osm_id": 1802985511,
      "amenity": "restaurant",
      "cuisine": "steak_house",
      "angle": 55.014624724254936
    },
    {
      "id": 84635,
      "geometry": "POINT (-106.658708 35.095468)",
      "poi_name": "Cocina Azul",
      "osm_id": 1803094649,
      "amenity": "restaurant",
      "cuisine": "regional",
      "addr_street": "Mountain Road Northwest",
      "addr_housenumber": "1134",
      "angle": 82.36628260236044
    },
    {
      "id": 84637,
      "geometry": "POINT (-106.687994 35.084716)",
      "poi_name": "Marisco's Alta Mar",
      "osm_id": 1803121441,
      "amenity": "restaurant",
      "cuisine": "mexican",
      "angle": 220.96103879887488
    },
    {
      "id": 85159,
      "geometry": "POINT (-106.595079 35.07511)",
      "poi_name": "Pizza Hut",
      "osm_id": 1842858831,
      "amenity": "restaurant",
      "cuisine": "pizza",
      "angle": 104.69789348285443
    },
    {
      "id": 85173,
      "geometry": "POINT (-106.560976 35.108826)",
      "poi_name": "IHOP",
      "osm_id": 1843951696,
      "amenity": "restaurant",
      "cuisine": "breakfast;pancake",
      "angle": 80.83452731554314
    },
    {
      "id": 85196,
      "geometry": "POINT (-106.601932 35.079321)",
      "poi_name": "Thai Heritage and Vegan",
      "osm_id": 1845922096,
      "amenity": "restaurant",
      "cuisine": "thai",
      "website": "https://www.thaiheritageandvegan.com/;https://www.thaiveganalbuquerque.com/",
      "phone": "+1-505-200-2290",
      "addr_state": "NM",
      "addr_city": "Albuquerque",
      "addr_postcode": "87108",
      "addr_street": "Central Avenue Southeast",
      "addr_housenumber": "3804",
      "angle": 102.36598372865463
    },
    {
      "id": 77116,
      "geometry": "POINT (-106.651414 35.084849)",
      "poi_name": "Baca Boys Cafe",
      "osm_id": 9808044836,
      "amenity": "restaurant",
      "addr_street": "4th Street Northwest",
      "addr_housenumber": "102",
      "angle": 110.28985873951218
    },
    {
      "id": 78790,
      "geometry": "POINT (-106.499363 35.152687)",
      "poi_name": "Golden Chopstix",
      "osm_id": 762940258,
      "amenity": "restaurant",
      "cuisine": "chinese",
      "opening_hours": "Tu-Th 10:30-21:00; Fr-Sa 10:30-21:30; Su 16:00-21:00",
      "website": "https://goldenchopsticksabq.com",
      "phone": "+1-505-275-0888",
      "takeaway": "only",
      "addr_state": "NM",
      "addr_city": "Albuquerque",
      "addr_postcode": "87111",
      "addr_street": "Academy Road Northeast",
      "addr_housenumber": "12251",
      "angle": 68.00777344766762
    },
    {
      "id": 78791,
      "geometry": "POINT (-106.526781 35.148145)",
      "poi_name": "Mykono's",
      "osm_id": 762947001,
      "amenity": "restaurant",
      "cuisine": "greek",
      "website": "http://www.mykonoscafeandtaverna.com/",
      "addr_postcode": "87111",
      "addr_street": "Eubank Northeast Ste E-18",
      "addr_housenumber": "5900",
      "angle": 66.25258952999836
    },
    {
      "id": 85576,
      "geometry": "POINT (-106.596262 35.087075)",
      "poi_name": "Hurricane's Restaurant and Drive-In",
      "osm_id": 1882847976,
      "amenity": "restaurant",
      "cuisine": "american",
      "opening_hours": "Su 06:30-16:00; Mo-Th 06:30-15:00; Fr, Sa 06:30-20:00",
      "phone": "+1-505-255-4248",
      "takeaway": "yes",
      "toilets": "yes",
      "addr_street": "Lomas Boulevard NE",
      "addr_housenumber": "4330",
      "angle": 95.15202694063362
    },
    {
      "id": 85507,
      "geometry": "POINT (-106.596246 35.07867)",
      "poi_name": "Orchid Thai",
      "osm_id": 1873435569,
      "amenity": "restaurant",
      "angle": 102.0618164564001
    },
    {
      "id": 85318,
      "geometry": "POINT (-106.603915 35.096256)",
      "poi_name": "Taj Mahal",
      "osm_id": 1857053518,
      "amenity": "restaurant",
      "cuisine": "indian",
      "addr_state": "NM",
      "addr_city": "Albuquerque",
      "addr_postcode": "87110",
      "addr_street": "Carlisle Boulevard Northeast",
      "addr_housenumber": "1430",
      "angle": 87.1760450987372
    },
    {
      "id": 85330,
      "geometry": "POINT (-106.564135 35.130481)",
      "poi_name": "Yeller Sub",
      "osm_id": 1858009770,
      "amenity": "restaurant",
      "cuisine": "sandwich;ice_cream",
      "wheelchair": "yes",
      "website": "https://yellersub.com/",
      "phone": "+1-505-888-9784",
      "takeaway": "yes",
      "drive_through": "no",
      "outdoor_seating": "yes",
      "addr_state": "NM",
      "addr_city": "Albuquerque",
      "addr_postcode": "87109",
      "addr_street": "Montgomery Boulevard Northeast",
      "addr_housenumber": "7200",
      "angle": 68.43215475076825
    },
    {
      "id": 85336,
      "geometry": "POINT (-106.605439 35.079644)",
      "poi_name": "Scalo",
      "osm_id": 1859669285,
      "amenity": "restaurant",
      "cuisine": "italian",
      "addr_state": "NM",
      "addr_city": "Albuquerque",
      "addr_postcode": "87106",
      "addr_street": "Central Avenue Southeast",
      "addr_housenumber": "3500",
      "angle": 102.64708108082408
    },
    {
      "id": 85501,
      "geometry": "POINT (-106.602352 35.079355)",
      "poi_name": "The Farmacy",
      "osm_id": 1872788537,
      "amenity": "restaurant",
      "angle": 102.40239952063013
    },
    {
      "id": 85502,
      "geometry": "POINT (-106.606 35.079751)",
      "poi_name": "Poki Poki Cevicheria",
      "osm_id": 1872788772,
      "amenity": "restaurant",
      "cuisine": "asian;seafood",
      "addr_state": "NM",
      "addr_city": "Albuquerque",
      "addr_postcode": "87106",
      "addr_street": "Central Avenue Southeast",
      "addr_housenumber": "3422",
      "angle": 102.64449615530599
    },
    {
      "id": 85577,
      "geometry": "POINT (-106.604772 35.080017)",
      "poi_name": "Fan-Tang",
      "osm_id": 1882848290,
      "amenity": "restaurant",
      "cuisine": "asian",
      "website": "https://fan-tang.com/",
      "phone": "+1 505 2663566",
      "angle": 102.20276695988834
    },
    {
      "id": 85590,
      "geometry": "POINT (-106.612449 35.206092)",
      "poi_name": "El Pinto",
      "osm_id": 1883346937,
      "amenity": "restaurant",
      "cuisine": "mexican",
      "opening_hours": "Mo-Th 11:00-21:00; Fr,Sa 11:00-22:00; Su 10:30-21:00",
      "angle": 25.822670981344253
    },
    {
      "id": 85737,
      "geometry": "POINT (-106.611119 35.135124)",
      "poi_name": "IHOP",
      "osm_id": 1890880974,
      "amenity": "restaurant",
      "cuisine": "breakfast;pancake",
      "angle": 53.07289362019402
    },
    {
      "id": 86114,
      "geometry": "POINT (-106.607885 35.080055)",
      "poi_name": "Shogun Sushi",
      "osm_id": 1915967208,
      "amenity": "restaurant",
      "angle": 102.68605590317829
    },
    {
      "id": 85822,
      "geometry": "POINT (-106.642408 35.083183)",
      "poi_name": "Artichoke Cafe",
      "osm_id": 1899154257,
      "amenity": "restaurant",
      "addr_street": "Central Avenue Southeast",
      "addr_housenumber": "424",
      "angle": 108.47040715927042
    },
    {
      "id": 85877,
      "geometry": "POINT (-106.56635 35.102148)",
      "poi_name": "The Melting Pot",
      "osm_id": 1905779715,
      "amenity": "restaurant",
      "cuisine": "fondue",
      "angle": 84.4686405437589
    },
    {
      "id": 85852,
      "geometry": "POINT (-106.586703 35.072614)",
      "poi_name": "2000 Vietnam Restaurant",
      "osm_id": 1903432744,
      "amenity": "restaurant",
      "angle": 105.17929219847413
    },
    {
      "id": 85853,
      "geometry": "POINT (-106.586994 35.117503)",
      "poi_name": "Peter Piper Pizza",
      "osm_id": 1903432899,
      "amenity": "restaurant",
      "cuisine": "pizza",
      "angle": 72.17818116059168
    },
    {
      "id": 86132,
      "geometry": "POINT (-106.654048 35.070983)",
      "poi_name": "Barelas Coffee House",
      "osm_id": 1918912229,
      "amenity": "restaurant",
      "angle": 137.3257810390476
    },
    {
      "id": 86475,
      "geometry": "POINT (-106.613259 35.108758)",
      "poi_name": "Applebee's",
      "osm_id": 1934209148,
      "amenity": "restaurant",
      "cuisine": "american",
      "official_name": "Applebee's Neighborhood Grill & Bar",
      "addr_state": "NM",
      "angle": 73.95040582653998
    },
    {
      "id": 86409,
      "geometry": "POINT (-106.588212 35.145389)",
      "poi_name": "Delicias Cafe",
      "osm_id": 1929944271,
      "amenity": "restaurant",
      "opening_hours": "Su-Sa 07:00-20:00",
      "website": "http://deliciascafe.com/",
      "phone": "+1 505 8306561",
      "addr_state": "NM",
      "addr_city": "Albuquerque",
      "addr_postcode": "87109",
      "addr_street": "San Mateo Boulevard Northeast",
      "addr_housenumber": "6001",
      "angle": 55.01381094771718
    },
    {
      "id": 86410,
      "geometry": "POINT (-106.694316 35.153786)",
      "poi_name": "Pizza Hut",
      "osm_id": 1929985354,
      "amenity": "restaurant",
      "cuisine": "pizza",
      "addr_state": "NM",
      "addr_city": "Albuquerque",
      "addr_postcode": "87120",
      "addr_street": "Monta\u00f1o Road Northwest",
      "addr_housenumber": "4801",
      "angle": 348.2632290202278
    },
    {
      "id": 86786,
      "geometry": "POINT (-106.574887 35.07638)",
      "poi_name": "El Zarandeado",
      "osm_id": 1951619953,
      "amenity": "restaurant",
      "angle": 101.11208458532961
    },
    {
      "id": 86653,
      "geometry": "POINT (-106.619808 35.080477)",
      "poi_name": "Saggio's",
      "osm_id": 1942907664,
      "amenity": "restaurant",
      "angle": 104.67691943357354
    },
    {
      "id": 91076,
      "geometry": "POINT (-106.578037 35.105637)",
      "poi_name": "Mario's Pizzeria & Ristorante",
      "osm_id": 2039087482,
      "amenity": "restaurant",
      "cuisine": "italian",
      "addr_street": "San Pedro Drive Northeast",
      "addr_housenumber": "2401",
      "angle": 81.4698350686645
    },
    {
      "id": 90506,
      "geometry": "POINT (-106.621355 35.080839)",
      "poi_name": "Olympia Cafe",
      "osm_id": 1998773950,
      "amenity": "restaurant",
      "angle": 104.6447912961926
    },
    {
      "id": 91018,
      "geometry": "POINT (-106.697541 35.241121)",
      "poi_name": "Chili's",
      "osm_id": 2034438736,
      "amenity": "restaurant",
      "cuisine": "tex-mex",
      "official_name": "Chili's Grill & Bar",
      "angle": 354.12672644782555
    },
    {
      "id": 91030,
      "geometry": "POINT (-106.516088 35.12334)",
      "poi_name": "Garcia's",
      "osm_id": 2035566457,
      "amenity": "restaurant",
      "angle": 77.27956178019755
    },
    {
      "id": 91117,
      "geometry": "POINT (-106.514193 35.131604)",
      "poi_name": "Zorba's",
      "osm_id": 2043296092,
      "amenity": "restaurant",
      "cuisine": "greek",
      "angle": 74.13373101180458
    },
    {
      "id": 90387,
      "geometry": "POINT (-106.65423 35.08298)",
      "poi_name": "Cecilia's Cafe",
      "osm_id": 1993947743,
      "amenity": "restaurant",
      "cuisine": "new_mexican;mexican",
      "addr_state": "NM",
      "addr_city": "Albuquerque",
      "addr_street": "6th Street Southwest",
      "addr_housenumber": "230",
      "angle": 116.72861359919663
    },
    {
      "id": 90388,
      "geometry": "POINT (-106.655634 35.068403)",
      "poi_name": "La Fonda del Bosque",
      "osm_id": 1993947789,
      "amenity": "restaurant",
      "angle": 142.2734882478153
    },
    {
      "id": 90389,
      "geometry": "POINT (-106.652987 35.084584)",
      "poi_name": "Lindy's Diner",
      "osm_id": 1993948225,
      "amenity": "restaurant",
      "addr_state": "NM",
      "addr_city": "Albuquerque",
      "addr_street": "Central Avenue Northwest",
      "addr_housenumber": "500",
      "angle": 112.02297717565054
    },
    {
      "id": 90609,
      "geometry": "POINT (-106.630199 35.059093)",
      "poi_name": "Dion's Pizza",
      "osm_id": 2004768885,
      "amenity": "restaurant",
      "cuisine": "pizza",
      "capacity": "100",
      "addr_street": "Gibson Boulevard Southeast",
      "angle": 130.38589799531772
    },
    {
      "id": 90655,
      "geometry": "POINT (-106.648225 35.204417)",
      "poi_name": "Il Vicino",
      "osm_id": 2010106579,
      "amenity": "restaurant",
      "cuisine": "pizza",
      "addr_city": "Albuquerque",
      "addr_postcode": "87114",
      "addr_street": "Corrales Road Northwest",
      "addr_housenumber": "10701",
      "angle": 12.798641307842576
    },
    {
      "id": 90656,
      "geometry": "POINT (-106.545727 35.108785)",
      "poi_name": "Los Cuates",
      "osm_id": 2010116073,
      "amenity": "restaurant",
      "angle": 81.88131483460305
    },
    {
      "id": 91229,
      "geometry": "POINT (-106.670546 35.24207)",
      "poi_name": "Joe's Pasta House",
      "osm_id": 2052292879,
      "amenity": "restaurant",
      "angle": 2.667498981085478
    },
    {
      "id": 91186,
      "geometry": "POINT (-106.569759 35.100332)",
      "poi_name": "Jason's Deli",
      "osm_id": 2049313241,
      "amenity": "restaurant",
      "cuisine": "sandwich",
      "angle": 85.44880156835329
    },
    {
      "id": 91279,
      "geometry": "POINT (-106.550578 35.128387)",
      "poi_name": "Sakura Sushi and Grill",
      "osm_id": 2055980693,
      "amenity": "restaurant",
      "angle": 71.53975049757992
    },
    {
      "id": 91566,
      "geometry": "POINT (-106.667862 35.138186)",
      "poi_name": "Flying Star",
      "osm_id": 2073777394,
      "amenity": "restaurant",
      "phone": "+1 505 344 6714",
      "addr_city": "Albuquerque",
      "addr_postcode": "87107",
      "addr_street": "Rio Grande Boulevard Northwest",
      "addr_housenumber": "4026",
      "angle": 11.502258600095935
    },
    {
      "id": 91280,
      "geometry": "POINT (-106.530916 35.131235)",
      "poi_name": "Flamez Burgers and More",
      "osm_id": 2055980733,
      "amenity": "restaurant",
      "angle": 72.61415586447802
    },
    {
      "id": 91311,
      "geometry": "POINT (-106.671097 35.102774)",
      "poi_name": "St. Clair Winery & Bistro",
      "osm_id": 2058932917,
      "amenity": "restaurant",
      "opening_hours": "Su-Th 09:00-21:00, Fr-Sa 11:00-22:00",
      "website": "https://stclairwinery.com/",
      "phone": "+1-505-243-9916",
      "addr_state": "NM",
      "addr_city": "Albuquerque",
      "addr_postcode": "87104",
      "addr_street": "Rio Grande Boulevard Northwest",
      "addr_housenumber": "901",
      "angle": 34.24200909458321
    },
    {
      "id": 91580,
      "geometry": "POINT (-106.648392 35.083252)",
      "poi_name": "Pizza 9",
      "osm_id": 2074560280,
      "amenity": "restaurant",
      "cuisine": "pizza",
      "opening_hours": "Mo-Th 09:00-23:00; Fr 09:00-24:00; Sa 10:00-24:00; Su 10:00-23:00",
      "website": "https://pizzanine.com/",
      "phone": "+1-505-843-6463",
      "takeaway": "yes",
      "outdoor_seating": "no",
      "delivery": "yes",
      "addr_state": "NM",
      "addr_city": "Albuquerque",
      "addr_postcode": "87102",
      "addr_street": "Gold Ave SW",
      "addr_housenumber": "101",
      "angle": 111.63595612388924
    },
    {
      "id": 92295,
      "geometry": "POINT (-106.641825 35.083157)",
      "poi_name": "Farina",
      "osm_id": 2110804066,
      "amenity": "restaurant",
      "cuisine": "pizza",
      "addr_street": "Central Avenue Southeast",
      "addr_housenumber": "510",
      "angle": 108.24363999185117
    },
    {
      "id": 91995,
      "geometry": "POINT (-106.597508 35.141748)",
      "poi_name": "Nick & Jimmy's",
      "osm_id": 2099117910,
      "amenity": "restaurant",
      "cuisine": "sandwich",
      "angle": 54.05147287441164
    },
    {
      "id": 92250,
      "geometry": "POINT (-106.608672 35.109886)",
      "poi_name": "Richard's Mexican Restaurant",
      "osm_id": 2108098199,
      "amenity": "restaurant",
      "angle": 73.908027255445
    },
    {
      "id": 92604,
      "geometry": "POINT (-106.567537 35.102908)",
      "poi_name": "California Pizza Kitchen",
      "osm_id": 2127555896,
      "amenity": "restaurant",
      "cuisine": "pizza",
      "angle": 83.93994243894471
    },
    {
      "id": 93104,
      "geometry": "POINT (-106.640403 35.082941)",
      "poi_name": "The Grove Cafe",
      "osm_id": 2149898396,
      "amenity": "restaurant",
      "addr_street": "Central Avenue Southeast",
      "addr_housenumber": "600",
      "angle": 107.96631638885644
    },
    {
      "id": 92533,
      "geometry": "POINT (-106.568392 35.102557)",
      "poi_name": "McAlister's Deli",
      "osm_id": 2124159794,
      "amenity": "restaurant",
      "cuisine": "sandwich",
      "angle": 84.11308678823664
    },
    {
      "id": 92712,
      "geometry": "POINT (-106.655099 35.091337)",
      "poi_name": "Pasi\u00f3n Latin Fusion",
      "osm_id": 2131725699,
      "amenity": "restaurant",
      "angle": 95.5133543193415
    },
    {
      "id": 92831,
      "geometry": "POINT (-106.599954 35.139955)",
      "poi_name": "M'tucci's Twenty Five",
      "osm_id": 2137646176,
      "amenity": "restaurant",
      "cuisine": "italian",
      "phone": "+1-505-554-2660",
      "angle": 54.24806981745393
    },
    {
      "id": 93054,
      "geometry": "POINT (-106.586016 35.062272)",
      "poi_name": "Tia Betty Blue's",
      "osm_id": 2147134560,
      "amenity": "restaurant",
      "cuisine": "new_mexican",
      "capacity": "40",
      "addr_city": "Albuquerque",
      "addr_street": "San Mateo Boulevard Southeast",
      "angle": 112.02518363189702
    },
    {
      "id": 93364,
      "geometry": "POINT (-106.570732 35.10087)",
      "poi_name": "Japanese Kitchen Sushi Bar",
      "osm_id": 2161320432,
      "amenity": "restaurant",
      "cuisine": "japanese",
      "takeaway": "yes",
      "outdoor_seating": "no",
      "angle": 85.0643810633866
    },
    {
      "id": 93551,
      "geometry": "POINT (-106.596845 35.109461)",
      "poi_name": "Duran House",
      "osm_id": 2170346499,
      "amenity": "restaurant",
      "angle": 76.46308453188058
    },
    {
      "id": 93407,
      "geometry": "POINT (-106.550034 35.129868)",
      "poi_name": "India Palace",
      "osm_id": 2163184014,
      "amenity": "restaurant",
      "angle": 70.89331567779779
    },
    {
      "id": 93408,
      "geometry": "POINT (-106.550517 35.129166)",
      "poi_name": "Bull Chicks",
      "osm_id": 2163184021,
      "amenity": "restaurant",
      "cuisine": "burger;wings",
      "angle": 71.16775775223817
    },
    {
      "id": 93982,
      "geometry": "POINT (-106.569295 35.101238)",
      "poi_name": "Le Peep Restaurant",
      "osm_id": 2196670340,
      "amenity": "restaurant",
      "opening_hours": "Su 07:00-14:00; Mo-Fr 06:30-14:00; Sa 07:00-14:00",
      "website": "https://lepeepabq.com/",
      "phone": "+1-505-881-7272",
      "addr_postcode": "87110",
      "addr_street": "Louisiana Boulevard Northeast",
      "addr_housenumber": "2215",
      "angle": 84.89627473104234
    },
    {
      "id": 99549,
      "geometry": "POINT (-106.711286 35.080891)",
      "poi_name": "Dion's Pizza",
      "osm_id": 6556306173,
      "amenity": "restaurant",
      "cuisine": "pizza",
      "addr_street": "Coors Boulevard Northwest",
      "addr_housenumber": "121",
      "angle": 245.06576323492862
    },
    {
      "id": 94098,
      "geometry": "POINT (-106.600085 35.14046)",
      "poi_name": "Plum Cafe Asian Grill",
      "osm_id": 2206049478,
      "amenity": "restaurant",
      "cuisine": "asian",
      "angle": 53.91028303415941
    },
    {
      "id": 94099,
      "geometry": "POINT (-106.600175 35.14039)",
      "poi_name": "Sushi King",
      "osm_id": 2206049479,
      "amenity": "restaurant",
      "cuisine": "sushi",
      "angle": 53.91955935360269
    },
    {
      "id": 99342,
      "geometry": "POINT (-106.653255 35.084922)",
      "poi_name": "Red Door Brewing",
      "osm_id": 6548409938,
      "amenity": "restaurant",
      "addr_state": "NM",
      "addr_city": "Albuquerque",
      "addr_street": "Central Avenue Northwest",
      "addr_housenumber": "509",
      "angle": 111.44129780102632
    },
    {
      "id": 99343,
      "geometry": "POINT (-106.651048 35.084614)",
      "poi_name": "Aldo's New York Style Pizzeria",
      "osm_id": 6548409941,
      "amenity": "restaurant",
      "cuisine": "pizza",
      "addr_state": "NM",
      "addr_city": "Albuquerque",
      "addr_street": "Central Avenue Northwest",
      "addr_housenumber": "313A",
      "angle": 110.56049621982253
    },
    {
      "id": 95894,
      "geometry": "POINT (-106.56385 35.096993)",
      "poi_name": "Crackin' Crab Seafood Boil",
      "osm_id": 6415311245,
      "amenity": "restaurant",
      "cuisine": "seafood",
      "description": "casual dine in restaurant specializing in quality Cajun seafood boil cuisine in the southwest",
      "opening_hours": "Su-Th 12:00-21:00; Fr-Sa 12:00-22:00",
      "website": "https://www.crackincrab.com/",
      "phone": "+1-505-433-4611",
      "takeaway": "yes",
      "outdoor_seating": "yes",
      "delivery": "yes",
      "addr_state": "NM",
      "addr_city": "Albuquerque",
      "addr_postcode": "87110",
      "addr_street": "Louisiana Boulevard Northeast",
      "addr_housenumber": "2100",
      "angle": 87.69294665408158
    },
    {
      "id": 98359,
      "geometry": "POINT (-106.60383 35.101229)",
      "poi_name": "Thai House Restaurant",
      "osm_id": 6515529834,
      "amenity": "restaurant",
      "cuisine": "thai",
      "addr_state": "NM",
      "addr_city": "Albuquerque",
      "addr_postcode": "87110",
      "addr_street": "Carlisle Boulevard Northeast",
      "addr_housenumber": "2000",
      "angle": 82.60505976376172
    },
    {
      "id": 98513,
      "geometry": "POINT (-106.604886 35.07963)",
      "poi_name": "Cinnamon Cafe",
      "osm_id": 6522023812,
      "amenity": "restaurant",
      "addr_state": "NM",
      "addr_city": "Albuquerque",
      "addr_postcode": "87106",
      "addr_street": "Central Avenue Southeast",
      "addr_housenumber": "3500",
      "angle": 102.56810151941335
    },
    {
      "id": 103192,
      "geometry": "POINT (-106.655985 35.196292)",
      "poi_name": "BJ's",
      "osm_id": 8489792824,
      "amenity": "restaurant",
      "cuisine": "american",
      "official_name": "BJ's Restaurant & Brewhouse",
      "addr_city": "Albuquerque",
      "addr_postcode": "87114",
      "angle": 10.386829128927685
    },
    {
      "id": 100910,
      "geometry": "POINT (-106.651094 35.086464)",
      "poi_name": "Forque",
      "osm_id": 6604146471,
      "amenity": "restaurant",
      "angle": 106.44067135418486
    },
    {
      "id": 100912,
      "geometry": "POINT (-106.651131 35.084629)",
      "poi_name": "Anatolia",
      "osm_id": 6604146475,
      "amenity": "restaurant",
      "cuisine": "mediterranean;turkish",
      "angle": 110.58372874398474
    },
    {
      "id": 100913,
      "geometry": "POINT (-106.649872 35.084502)",
      "poi_name": "JC's New York Pizza Department",
      "osm_id": 6604146476,
      "amenity": "restaurant",
      "cuisine": "pizza",
      "addr_state": "NM",
      "addr_city": "Albuquerque",
      "addr_street": "Central Avenue Northwest",
      "addr_housenumber": "215",
      "angle": 110.03297600861806
    },
    {
      "id": 100914,
      "geometry": "POINT (-106.651225 35.084366)",
      "poi_name": "Asia Noodle Bar",
      "osm_id": 6604146480,
      "amenity": "restaurant",
      "cuisine": "asian",
      "addr_state": "NM",
      "addr_city": "Albuquerque",
      "addr_street": "Central Avenue Northwest",
      "addr_housenumber": "318",
      "angle": 111.22404462716717
    },
    {
      "id": 100915,
      "geometry": "POINT (-106.656223 35.08502)",
      "poi_name": "Capo's",
      "osm_id": 6604147694,
      "amenity": "restaurant",
      "cuisine": "pizza;italian",
      "angle": 113.68793583325385
    },
    {
      "id": 100919,
      "geometry": "POINT (-106.651603 35.080154)",
      "poi_name": "La Mexicana",
      "osm_id": 6604167069,
      "amenity": "restaurant",
      "cuisine": "mexican",
      "addr_street": "Coal Avenue Southwest",
      "addr_housenumber": "304",
      "angle": 120.14514684384143
    },
    {
      "id": 101046,
      "geometry": "POINT (-106.621137 35.080853)",
      "poi_name": "Brickyard Pizza",
      "osm_id": 6611187039,
      "amenity": "restaurant",
      "cuisine": "pizza",
      "angle": 104.57637074365971
    },
    {
      "id": 101053,
      "geometry": "POINT (-106.62266 35.080844)",
      "poi_name": "Bandido Hideout",
      "osm_id": 6611205158,
      "amenity": "restaurant",
      "cuisine": "mexican",
      "addr_state": "NM",
      "addr_city": "Albuquerque",
      "addr_postcode": "87106",
      "addr_street": "Central Avenue Southeast",
      "addr_housenumber": "2128",
      "angle": 104.96316875567446
    },
    {
      "id": 101054,
      "geometry": "POINT (-106.623184 35.080851)",
      "poi_name": "O Ramen",
      "osm_id": 6611205161,
      "amenity": "restaurant",
      "cuisine": "asian",
      "addr_state": "NM",
      "addr_city": "Albuquerque",
      "addr_postcode": "87106",
      "addr_street": "Central Avenue Southeast",
      "addr_housenumber": "2114",
      "angle": 105.08951266204393
    },
    {
      "id": 101056,
      "geometry": "POINT (-106.62334 35.080852)",
      "poi_name": "Naruto Ramen",
      "osm_id": 6611205164,
      "amenity": "restaurant",
      "cuisine": "asian",
      "addr_state": "NM",
      "addr_city": "Albuquerque",
      "addr_postcode": "87106",
      "addr_street": "Central Avenue Southeast",
      "addr_housenumber": "2110",
      "angle": 105.12948682835072
    },
    {
      "id": 101057,
      "geometry": "POINT (-106.623558 35.080815)",
      "poi_name": "Asahi Express",
      "osm_id": 6611205165,
      "amenity": "restaurant",
      "cuisine": "japanese",
      "addr_state": "NM",
      "addr_city": "Albuquerque",
      "addr_postcode": "87106",
      "addr_street": "Central Avenue Southeast",
      "addr_housenumber": "2106",
      "angle": 105.22909017180625
    },
    {
      "id": 101061,
      "geometry": "POINT (-106.628939 35.08147)",
      "poi_name": "Yasmine's Cafe",
      "osm_id": 6611213792,
      "amenity": "restaurant",
      "cuisine": "mediterranean",
      "addr_street": "Central Avenue Southeast",
      "addr_housenumber": "1600",
      "angle": 105.94288517694474
    },
    {
      "id": 102497,
      "geometry": "POINT (-106.648461 35.083964)",
      "poi_name": "Tucanos",
      "osm_id": 6682068982,
      "amenity": "restaurant",
      "opening_hours": "Mo-We 11:00-22:00; Fr,Sa 11:00-23:00; Su 11:00-21:00",
      "addr_street": "Central Avenue Northwest",
      "addr_housenumber": "110",
      "angle": 110.2641032043558
    },
    {
      "id": 102498,
      "geometry": "POINT (-106.648774 35.08406)",
      "poi_name": "Sushi King",
      "osm_id": 6682068983,
      "amenity": "restaurant",
      "cuisine": "sushi",
      "addr_street": "Central Avenue Northwest",
      "addr_housenumber": "118",
      "angle": 110.26264057071293
    },
    {
      "id": 102501,
      "geometry": "POINT (-106.667138 35.092521)",
      "poi_name": "Duran's Central Pharmacy",
      "osm_id": 6682123133,
      "amenity": "restaurant",
      "cuisine": "new_mexican;mexican",
      "opening_hours": "Mo-Tu 09:00-18:30; We-Su 09:00-20:00",
      "website": "https://duransrx.com/",
      "addr_state": "NM",
      "addr_city": "Albuquerque",
      "addr_postcode": "87104",
      "addr_street": "Central Avenue Northwest",
      "addr_housenumber": "1815",
      "angle": 94.18741036670937
    },
    {
      "id": 107443,
      "geometry": "POINT (-106.578433 35.131937)",
      "poi_name": "Red Lobster",
      "osm_id": 3561724593,
      "amenity": "restaurant",
      "cuisine": "seafood",
      "outdoor_seating": "no",
      "angle": 64.87528236199259
    },
    {
      "id": 107203,
      "geometry": "POINT (-106.639689 35.082683)",
      "poi_name": "Holy Cow",
      "osm_id": 3542879646,
      "amenity": "restaurant",
      "angle": 108.07509114748997
    },
    {
      "id": 107258,
      "geometry": "POINT (-106.66606 35.091161)",
      "poi_name": "5 Star Burgers",
      "osm_id": 3548085310,
      "amenity": "restaurant",
      "cuisine": "burger",
      "addr_state": "NM",
      "addr_city": "Albuquerque",
      "addr_street": "Central Avenue Southwest",
      "angle": 101.0328464512321
    },
    {
      "id": 111382,
      "geometry": "POINT (-106.516049 35.098363)",
      "poi_name": "Szechwan Chinese Restaurant",
      "osm_id": 3744889126,
      "amenity": "restaurant",
      "cuisine": "chinese",
      "wheelchair": "yes",
      "opening_hours": "Mo-Th 11:00-20:30; Fr 11:00-21:30; Sa 12:00-21:30; Su 16:00-20:30",
      "website": "www.szechwanabq.com",
      "phone": "5052999133",
      "takeaway": "yes",
      "outdoor_seating": "no",
      "delivery": "no",
      "addr_state": "NM",
      "addr_city": "Albuquerque",
      "addr_postcode": "87112",
      "addr_street": "Juan Tabo Boulevard Northeast",
      "addr_housenumber": "1605",
      "angle": 87.76036986602854
    },
    {
      "id": 107999,
      "geometry": "POINT (-106.577345 35.091113)",
      "poi_name": "Christy Mae's Restaurant",
      "osm_id": 3588014469,
      "amenity": "restaurant",
      "angle": 91.42551486184031
    },
    {
      "id": 108657,
      "geometry": "POINT (-106.62191 35.079252)",
      "poi_name": "Annapurna's World Vegetarian Cafe",
      "osm_id": 3632111072,
      "amenity": "restaurant",
      "cuisine": "indian;oriental;international",
      "website": "https://www.chaishoppe.com/",
      "addr_state": "NM",
      "addr_city": "Albuquerque",
      "addr_postcode": "87106",
      "addr_street": "Silver Avenue Southeast",
      "addr_housenumber": "2201",
      "angle": 106.57717946539468
    },
    {
      "id": 110606,
      "geometry": "POINT (-106.643787 35.083255)",
      "poi_name": "Standard Diner",
      "osm_id": 3710080882,
      "amenity": "restaurant",
      "cuisine": "american",
      "opening_hours": "Mo-Su 08:00-21:00",
      "website": "http://www.standarddiner.com/",
      "phone": "+1-505-243-1440",
      "toilets": "yes",
      "addr_street": "Central Avenue SE",
      "addr_housenumber": "320",
      "angle": 109.01495791466918
    },
    {
      "id": 107977,
      "geometry": "POINT (-106.616541 35.084821)",
      "poi_name": "Outtakes",
      "osm_id": 3586877958,
      "amenity": "restaurant",
      "angle": 99.28996569522951
    },
    {
      "id": 111385,
      "geometry": "POINT (-106.515898 35.098528)",
      "poi_name": "Beto's Cocina",
      "osm_id": 3744927425,
      "amenity": "restaurant",
      "cuisine": "mexican",
      "opening_hours": "Tu-Fr 8:00-20:00; Sa 8:00-14:00",
      "addr_state": "NM",
      "addr_city": "Albuquerque",
      "addr_postcode": "87112",
      "addr_street": "Juan Tabo Boulevard Northeast",
      "addr_housenumber": "1605",
      "angle": 87.69193509741065
    },
    {
      "id": 114074,
      "geometry": "POINT (-106.658611 35.110579)",
      "poi_name": "Pueblo Harvest Cafe",
      "osm_id": 3864250629,
      "amenity": "restaurant",
      "angle": 44.00378529961519
    },
    {
      "id": 112625,
      "geometry": "POINT (-106.592061 35.078864)",
      "poi_name": "Taco Tote! Albuquerque",
      "osm_id": 3798356456,
      "amenity": "restaurant",
      "cuisine": "mexican",
      "opening_hours": "Mo-Su 10:00 -20:00",
      "website": "https://tacotote.com",
      "phone": "505-265-5188",
      "takeaway": "yes",
      "delivery": "yes",
      "addr_state": "NM",
      "addr_city": "Albuquerque",
      "addr_postcode": "87108",
      "addr_street": "Central Avenue Northeast",
      "addr_housenumber": "4701",
      "angle": 101.34603818336
    },
    {
      "id": 112662,
      "geometry": "POINT (-106.591149 35.078768)",
      "poi_name": "Kasbah",
      "osm_id": 3799435704,
      "amenity": "restaurant",
      "cuisine": "mediterranean",
      "angle": 101.30398928809441
    },
    {
      "id": 115532,
      "geometry": "POINT (-106.568404 35.102256)",
      "poi_name": "Sushi Freak",
      "osm_id": 8902239377,
      "amenity": "restaurant",
      "cuisine": "sushi",
      "angle": 84.30055270170557
    },
    {
      "id": 115414,
      "geometry": "POINT (-106.564129 35.130279)",
      "poi_name": "Filipino Hawaiian Food",
      "osm_id": 8893347907,
      "amenity": "restaurant",
      "cuisine": "filipino;hawaiian",
      "opening_hours": "Tu-Sa 11:00-18:00; Su 12:00-17:00",
      "website": "https://filipinohawaiianfood.com/",
      "phone": "+1-505-263-8442",
      "addr_state": "NM",
      "addr_city": "Albuquerque",
      "addr_postcode": "87109",
      "addr_street": "Montgomery Boulevard Northeast",
      "addr_housenumber": "7200",
      "angle": 68.5389693290776
    },
    {
      "id": 115533,
      "geometry": "POINT (-106.567619 35.103175)",
      "poi_name": "Sahara Express",
      "osm_id": 8902239387,
      "amenity": "restaurant",
      "angle": 83.77042721838355
    },
    {
      "id": 117487,
      "geometry": "POINT (-106.624872 35.10831)",
      "poi_name": "Stockman's Grill",
      "osm_id": 8997147620,
      "amenity": "restaurant",
      "angle": 71.26286545542321
    },
    {
      "id": 119793,
      "geometry": "POINT (-106.650129 35.102295)",
      "poi_name": "Kosmos",
      "osm_id": 9122815732,
      "amenity": "restaurant",
      "addr_state": "NM",
      "addr_city": "Albuquerque",
      "addr_street": "5th Street Northwest",
      "addr_housenumber": "1715",
      "angle": 69.09237591329531
    },
    {
      "id": 117486,
      "geometry": "POINT (-106.624872 35.107985)",
      "poi_name": "Cantina",
      "osm_id": 8997147619,
      "amenity": "restaurant",
      "description": "yes, that's the real name",
      "angle": 71.63898777747576
    },
    {
      "id": 122530,
      "geometry": "POINT (-106.708997 35.080554)",
      "poi_name": "Western View Diner & Steak House",
      "osm_id": 6810141885,
      "amenity": "restaurant",
      "opening_hours": "Mo-Sa 06:00-22:00; Su 06:00-15:00",
      "angle": 242.79359568063174
    },
    {
      "id": 120429,
      "geometry": "POINT (-106.578534 35.058556)",
      "poi_name": "Stripes",
      "osm_id": 6703293391,
      "amenity": "restaurant",
      "angle": 112.74804345560163
    },
    {
      "id": 122687,
      "geometry": "POINT (-106.662318 34.936781)",
      "poi_name": "Tiwa",
      "osm_id": 6814773330,
      "amenity": "restaurant",
      "addr_state": "NM",
      "addr_city": "Isleta",
      "addr_postcode": "87105",
      "angle": 174.98273851407552
    },
    {
      "id": 123905,
      "geometry": "POINT (-106.603881 35.079078)",
      "poi_name": "Soo Bak",
      "osm_id": 6887290518,
      "amenity": "restaurant",
      "cuisine": "asian",
      "angle": 102.89250117549659
    },
    {
      "id": 123911,
      "geometry": "POINT (-106.619238 35.080787)",
      "poi_name": "Frontier Restaurant",
      "osm_id": 6887319156,
      "amenity": "restaurant",
      "cuisine": "new_mexican;mexican;american",
      "opening_hours": "Su-Sa 05:00-01:00",
      "addr_state": "NM",
      "addr_city": "Albuquerque",
      "addr_postcode": "87106",
      "addr_street": "Central Avenue Southeast",
      "addr_housenumber": "2400",
      "angle": 104.20336212894333
    },
    {
      "id": 128470,
      "geometry": "POINT (-106.588904 35.086772)",
      "poi_name": "Duke City Kitchen",
      "osm_id": 8158692466,
      "amenity": "restaurant",
      "angle": 94.9622491574376
    },
    {
      "id": 123902,
      "geometry": "POINT (-106.605214 35.080066)",
      "poi_name": "Frenchish",
      "osm_id": 6887290505,
      "amenity": "restaurant",
      "cuisine": "french",
      "opening_hours": "Tu-Sa 17:00-22:00; Su-Mo closed",
      "website": "https://frenchish.co/",
      "phone": "505-433-5911",
      "outdoor_seating": "no",
      "addr_state": "NM",
      "addr_city": "Albuquerque",
      "addr_postcode": "87106",
      "addr_street": "Central Avenue Northeast",
      "addr_housenumber": "3509",
      "angle": 102.22917347772588
    },
    {
      "id": 126464,
      "geometry": "POINT (-106.590473 35.087718)",
      "poi_name": "Los Cuates Del Norte",
      "osm_id": 7004557381,
      "amenity": "restaurant",
      "website": "https://loscuatesrestaurants.com/loscuates/Los_Cuates.html",
      "phone": "+1 505 255 5079",
      "addr_state": "NM",
      "addr_city": "Albuquerque",
      "addr_postcode": "87110-6339",
      "addr_street": "Lomas Boulevard Northeast",
      "addr_housenumber": "4901",
      "angle": 94.31016728166414
    },
    {
      "id": 125260,
      "geometry": "POINT (-106.578948 35.08886)",
      "poi_name": "Chopstix",
      "osm_id": 6952590091,
      "amenity": "restaurant",
      "cuisine": "asian",
      "angle": 93.01679734324152
    },
    {
      "id": 129258,
      "geometry": "POINT (-106.583762 35.109998)",
      "poi_name": "Havana Restaurant",
      "osm_id": 8226116367,
      "amenity": "restaurant",
      "cuisine": "cuban",
      "angle": 77.88366048239553
    },
    {
      "id": 128590,
      "geometry": "POINT (-106.497026 35.07345)",
      "poi_name": "Sushi Xuan Asian Grill",
      "osm_id": 8172334553,
      "amenity": "restaurant",
      "cuisine": "japanese",
      "website": "https://www.sushixuannm.com/",
      "internet_access": "wlan",
      "takeaway": "yes",
      "outdoor_seating": "no",
      "addr_state": "NM",
      "addr_city": "Albuquerque",
      "addr_postcode": "87123",
      "addr_street": "417 Tramway Blvd NE",
      "angle": 97.48231992641203
    },
    {
      "id": 134952,
      "geometry": "POINT (-106.535078 35.117138)",
      "poi_name": "Michelle's Italian and Pizzeria",
      "osm_id": 11497638305,
      "amenity": "restaurant",
      "cuisine": "pizza;italian",
      "opening_hours": "Tu-Th 15:00-20:00; Fr 15:00-21:00; Sa 12:00-19:00; Su 12:00-19:00",
      "website": "https://www.michellesitalianpizzeriamenu.com",
      "phone": "+1-505-357-2161",
      "takeaway": "yes",
      "delivery": "yes",
      "addr_state": "NM",
      "addr_city": "Albuquerque",
      "addr_postcode": "87111",
      "addr_street": "Eubank Boulevard Northeast",
      "addr_housenumber": "3107",
      "angle": 78.53311887898936
    },
    {
      "id": 131674,
      "geometry": "POINT (-106.581303 35.108757)",
      "poi_name": "Magokoro Japanese",
      "osm_id": 9923251348,
      "amenity": "restaurant",
      "cuisine": "japanese",
      "opening_hours": "We-Sa 11:00-15:00, We-Sa 17:30-20:00",
      "website": "www.magokoroabq.com",
      "phone": "1-505-830-2061",
      "addr_state": "NM",
      "addr_city": "Albuquerque",
      "addr_postcode": "87110",
      "addr_street": "Menaul Boulevard Northeast",
      "addr_housenumber": "5614",
      "angle": 79.03015770694391
    },
    {
      "id": 134955,
      "geometry": "POINT (-106.551239 35.123363)",
      "poi_name": "Poki Poki Cevicheria",
      "osm_id": 11497652078,
      "amenity": "restaurant",
      "opening_hours": "Su-Mo 11:00-20:30; Tu-Sa 11:00-21:00",
      "website": "https://www.pokipokinm.net",
      "phone": "+1-505-503-6806",
      "takeaway": "yes",
      "outdoor_seating": "yes",
      "delivery": "yes",
      "toilets": "yes",
      "addr_state": "NM",
      "addr_city": "Albuquerque",
      "addr_postcode": "87111",
      "addr_street": "Wyoming Boulevard Northeast",
      "addr_housenumber": "3517",
      "angle": 73.95135240652992
    },
    {
      "id": 154455,
      "geometry": "POINT (-106.654895 35.087283)",
      "poi_name": "Cafe Lush",
      "osm_id": 4238473636,
      "amenity": "restaurant",
      "addr_street": "Tijeras Avenue Northwest",
      "addr_housenumber": "700",
      "angle": 106.7149637207113
    },
    {
      "id": 136477,
      "geometry": "POINT (-106.531388 35.138044)",
      "poi_name": "Dave's High Desert Grill",
      "osm_id": 11585808628,
      "amenity": "restaurant",
      "addr_state": "NM",
      "addr_city": "Albuquerque",
      "addr_street": "Eubank Boulevard Northeast",
      "addr_housenumber": "5200",
      "angle": 69.68096242387024
    },
    {
      "id": 144719,
      "geometry": "POINT (-106.591775 35.154263)",
      "poi_name": "Einstein Bagels",
      "osm_id": 7282903851,
      "amenity": "restaurant",
      "angle": 49.55726642029715
    },
    {
      "id": 151213,
      "geometry": "POINT (-106.650506 35.083277)",
      "poi_name": "Le Troquet",
      "osm_id": 4086488891,
      "amenity": "restaurant",
      "angle": 113.02796113038342
    },
    {
      "id": 137496,
      "geometry": "POINT (-106.55162 35.10752)",
      "poi_name": "Slice & Dice Pizza",
      "osm_id": 6102814667,
      "amenity": "restaurant",
      "opening_hours": "Mo-Th,Su 11:00-21:00; Fr,Sa 11:00-22:00",
      "addr_state": "NM",
      "addr_city": "Albuquerque",
      "addr_postcode": "87112",
      "addr_street": "Wyoming Blvd",
      "addr_housenumber": "2225",
      "angle": 82.19292066642413
    },
    {
      "id": 142570,
      "geometry": "POINT (-106.67734 35.094031)",
      "poi_name": "Buen Provecho",
      "osm_id": 6317281076,
      "amenity": "restaurant",
      "cuisine": "international",
      "angle": 59.70455987928513
    },
    {
      "id": 142571,
      "geometry": "POINT (-106.677133 35.094025)",
      "poi_name": "Sandia Crest Pizza",
      "osm_id": 6317281077,
      "amenity": "restaurant",
      "cuisine": "pizza",
      "angle": 62.728845772247524
    },
    {
      "id": 142572,
      "geometry": "POINT (-106.677192 35.09403)",
      "poi_name": "Bosque Burger",
      "osm_id": 6317281078,
      "amenity": "restaurant",
      "cuisine": "burger",
      "addr_state": "NM",
      "addr_city": "Albuquerque",
      "addr_street": "Central Avenue Southwest",
      "angle": 61.831972164073115
    },
    {
      "id": 143337,
      "geometry": "POINT (-106.60469 35.126952)",
      "poi_name": "Mandarin",
      "osm_id": 6336830288,
      "amenity": "restaurant",
      "cuisine": "chinese",
      "angle": 61.07206804142415
    },
    {
      "id": 143338,
      "geometry": "POINT (-106.604628 35.126415)",
      "poi_name": "Vegos",
      "osm_id": 6336830290,
      "amenity": "restaurant",
      "cuisine": "new_mexican",
      "website": "https://www.vegosabq.com/",
      "addr_state": "NM",
      "addr_city": "Albuquerque",
      "addr_postcode": "87107",
      "addr_street": "Carlisle Boulevard Northeast",
      "addr_housenumber": "4003",
      "angle": 61.479367193463496
    },
    {
      "id": 145166,
      "geometry": "POINT (-106.714011 35.030875)",
      "poi_name": "Pizza Hut",
      "osm_id": 7321412877,
      "amenity": "restaurant",
      "cuisine": "pizza",
      "angle": 204.79054829466054
    },
    {
      "id": 145167,
      "geometry": "POINT (-106.71414 35.029887)",
      "poi_name": "Amadeo's Pizza",
      "osm_id": 7321412878,
      "amenity": "restaurant",
      "cuisine": "pizza",
      "website": "https://www.amadeospizzamenu.com/",
      "phone": "+1 505 873-2035",
      "addr_state": "NM",
      "addr_city": "Albuquerque",
      "addr_street": "Coors Boulevard Southwest",
      "addr_housenumber": "3109",
      "angle": 204.52903186163894
    },
    {
      "id": 152731,
      "geometry": "POINT (-106.600965 35.139457)",
      "poi_name": "Cheddar's",
      "osm_id": 4156466867,
      "amenity": "restaurant",
      "cuisine": "american",
      "official_name": "Cheddar's Scratch Kitchen",
      "angle": 54.18976013134445
    },
    {
      "id": 152733,
      "geometry": "POINT (-106.60157 35.139131)",
      "poi_name": "Bubba's 33",
      "osm_id": 4156499138,
      "amenity": "restaurant",
      "angle": 54.17087117455085
    },
    {
      "id": 155963,
      "geometry": "POINT (-106.939469 35.034832)",
      "poi_name": "Laguna Burger",
      "osm_id": 4636291961,
      "amenity": "restaurant",
      "cuisine": "burger",
      "opening_hours": "06:00-22:00",
      "takeaway": "yes",
      "outdoor_seating": "yes",
      "addr_state": "NM",
      "addr_city": "Albuquerque",
      "addr_postcode": "87121",
      "addr_street": "Central Avenue Northwest",
      "addr_housenumber": "14311",
      "angle": 254.8208862219967
    },
    {
      "id": 155982,
      "geometry": "POINT (-106.581214 35.059446)",
      "poi_name": "Antonio's Cafe & Cantina",
      "osm_id": 4636484640,
      "amenity": "restaurant",
      "angle": 112.7702086277365
    },
    {
      "id": 155983,
      "geometry": "POINT (-106.582738 35.058949)",
      "poi_name": "Asian Grill",
      "osm_id": 4636484641,
      "amenity": "restaurant",
      "angle": 113.39783604030458
    },
    {
      "id": 165170,
      "geometry": "POINT (-106.564445 35.13008)",
      "poi_name": "Neo Szechuan",
      "osm_id": 9522259107,
      "amenity": "restaurant",
      "cuisine": "chinese",
      "opening_hours": "Tu-Su 11:00-21:00",
      "website": "https://www.neoszechuan.com",
      "phone": "+1-505-881-0165",
      "addr_state": "NM",
      "addr_city": "Albuquerque",
      "addr_postcode": "87109",
      "addr_street": "Montgomery Boulevard Northeast",
      "addr_housenumber": "7200",
      "angle": 68.59028102734024
    },
    {
      "id": 156590,
      "geometry": "POINT (-106.514624 35.081028)",
      "poi_name": "Weck's",
      "osm_id": 4666284124,
      "amenity": "restaurant",
      "opening_hours": "Mo-Su 07:00-14:00",
      "website": "https://wecksinc.com",
      "takeaway": "no",
      "outdoor_seating": "no",
      "delivery": "no",
      "addr_state": "NM",
      "addr_city": "Albuquerque",
      "addr_postcode": "87123",
      "addr_street": "Juan Tabo Boulevard Northeast",
      "addr_housenumber": "730",
      "angle": 95.11529017264155
    },
    {
      "id": 159175,
      "geometry": "POINT (-106.551773 35.073117)",
      "poi_name": "Bea's Mexican Restaurant 2",
      "osm_id": 4781953523,
      "amenity": "restaurant",
      "cuisine": "mexican",
      "opening_hours": "Mo-Su 07:00-15:30",
      "internet_access": "wlan",
      "phone": "5052320507",
      "addr_postcode": "87108",
      "addr_street": "Zuni Road Southeast",
      "addr_housenumber": "8603",
      "angle": 100.85229411146861
    },
    {
      "id": 160056,
      "geometry": "POINT (-106.661374 35.087786)",
      "poi_name": "Dog House",
      "osm_id": 4815993842,
      "amenity": "restaurant",
      "angle": 110.61090100093085
    },
    {
      "id": 160057,
      "geometry": "POINT (-106.653966 35.091708)",
      "poi_name": "Pizza Hut",
      "osm_id": 4816006528,
      "amenity": "restaurant",
      "cuisine": "pizza",
      "addr_street": "Lomas Boulevard Northwest",
      "addr_housenumber": "700",
      "angle": 94.23889657539199
    },
    {
      "id": 156543,
      "geometry": "POINT (-106.531352 35.085739)",
      "poi_name": "The Burrito Lady",
      "osm_id": 4664390590,
      "amenity": "restaurant",
      "cuisine": "mexican",
      "opening_hours": "Tu-Fr 06:30-14:00",
      "phone": "+1-505-271-2268",
      "addr_postcode": "87112",
      "addr_street": "Eubank Boulevard Northeast",
      "addr_housenumber": "938",
      "angle": 93.49198652857906
    },
    {
      "id": 156998,
      "geometry": "POINT (-106.653227 35.08461)",
      "poi_name": "Asian Pear",
      "osm_id": 4680898307,
      "amenity": "restaurant",
      "cuisine": "asian",
      "opening_hours": "Mo-Fr 10:00-16:00",
      "website": "https://www.facebook.com/AsianPearAbq/",
      "addr_state": "NM",
      "addr_city": "Albuquerque",
      "addr_postcode": "87102",
      "addr_street": "Central Avenue Southwest",
      "addr_housenumber": "508",
      "angle": 112.14703669403848
    },
    {
      "id": 156999,
      "geometry": "POINT (-106.653785 35.085002)",
      "poi_name": "Sushi Hana",
      "osm_id": 4680904462,
      "amenity": "restaurant",
      "cuisine": "japanese",
      "website": "https://www.sushihananm.com/menus.html",
      "outdoor_seating": "no",
      "addr_state": "NM",
      "addr_city": "Albuquerque",
      "addr_postcode": "87102",
      "addr_street": "Central Avenue Northwest",
      "addr_housenumber": "521",
      "angle": 111.65855672178957
    },
    {
      "id": 157000,
      "geometry": "POINT (-106.652153 35.084757)",
      "poi_name": "Mak's Quick Fire Kitchen",
      "osm_id": 4680927165,
      "amenity": "restaurant",
      "cuisine": "chinese",
      "opening_hours": "Mo-Fr 10:30-19:00",
      "website": "https://maksquickfirekitchenabq.wordpress.com",
      "addr_state": "NM",
      "addr_city": "Albuquerque",
      "addr_postcode": "87102",
      "addr_street": "Central Avenue Northwest",
      "addr_housenumber": "411",
      "angle": 111.01118109275828
    },
    {
      "id": 157544,
      "geometry": "POINT (-106.650633 35.082528)",
      "poi_name": "Holmes Pizza and Arcade",
      "osm_id": 4712221797,
      "amenity": "restaurant",
      "cuisine": "pizza",
      "website": "https://www.holmespizzaarcade.com/",
      "phone": "+1-505-308-4765",
      "addr_state": "NM",
      "addr_city": "Albuquerque",
      "addr_postcode": "87102",
      "addr_street": "Silver Avenue Southwest",
      "addr_housenumber": "205",
      "angle": 114.65714547367014
    },
    {
      "id": 157559,
      "geometry": "POINT (-106.651314 35.083616)",
      "poi_name": "Lulu's Kitchen",
      "osm_id": 4712626462,
      "amenity": "restaurant",
      "cuisine": "chinese",
      "angle": 112.90543436262453
    },
    {
      "id": 158190,
      "geometry": "POINT (-106.59474 35.073984)",
      "poi_name": "Barbacoa El Primo",
      "osm_id": 4738849657,
      "amenity": "restaurant",
      "angle": 105.50908969918493
    },
    {
      "id": 159868,
      "geometry": "POINT (-106.568163 35.07391)",
      "poi_name": "Banh Mi Coda",
      "osm_id": 4810583222,
      "amenity": "restaurant",
      "cuisine": "vietnamese",
      "opening_hours": "Mo-Sa 08:30-19:00; Su 10:30-17:00",
      "internet_access": "wlan",
      "phone": "+15052320085",
      "addr_postcode": "87108",
      "angle": 101.94399181662244
    },
    {
      "id": 163829,
      "geometry": "POINT (-106.729327 35.103152)",
      "poi_name": "Xuan Asian",
      "osm_id": 9438239108,
      "amenity": "restaurant",
      "cuisine": "asian",
      "angle": 283.49668091272054
    },
    {
      "id": 165198,
      "geometry": "POINT (-106.566584 35.129868)",
      "poi_name": "Richie B's Pizza",
      "osm_id": 9522752151,
      "amenity": "restaurant",
      "cuisine": "pizza",
      "phone": "+1-505-312-8579",
      "addr_state": "NM",
      "addr_city": "Albuquerque",
      "addr_postcode": "87109",
      "addr_street": "Montgomery Boulevard Northeast",
      "addr_housenumber": "7200",
      "angle": 68.33576170165662
    },
    {
      "id": 169008,
      "geometry": "POINT (-106.669492 35.098293)",
      "poi_name": "High Noon Restaurant & Saloon",
      "osm_id": 2291213181,
      "amenity": "restaurant",
      "cuisine": "mexican",
      "angle": 57.07740183961934
    },
    {
      "id": 169699,
      "geometry": "POINT (-106.583628 35.146846)",
      "poi_name": "Buffet King",
      "osm_id": 2315367988,
      "amenity": "restaurant",
      "angle": 55.5942558097221
    },
    {
      "id": 169236,
      "geometry": "POINT (-106.6139 35.226195)",
      "poi_name": "Perea's Restaurant and Bar",
      "osm_id": 2295923916,
      "amenity": "restaurant",
      "cuisine": "new_mexican",
      "phone": "505-898-2442",
      "addr_city": "Corrales",
      "addr_postcode": "87048",
      "addr_street": "corrales Road",
      "addr_housenumber": "4590",
      "angle": 21.8854168173128
    },
    {
      "id": 169238,
      "geometry": "POINT (-106.611887 35.23081)",
      "poi_name": "Oasis Desert Bistro",
      "osm_id": 2295930121,
      "amenity": "restaurant",
      "cuisine": "coffee_shop",
      "phone": "505-792-4720",
      "addr_city": "Corrales",
      "addr_postcode": "87048",
      "addr_street": "Corrales Road",
      "addr_housenumber": "4940",
      "angle": 21.81166234183897
    },
    {
      "id": 169240,
      "geometry": "POINT (-106.61457 35.225168)",
      "poi_name": "Indigo Crow",
      "osm_id": 2295943192,
      "amenity": "restaurant",
      "cuisine": "american",
      "website": "https://www.indigocrowcafe.net/",
      "phone": "+1-505-898-7000",
      "addr_state": "NM",
      "addr_city": "Corrales",
      "addr_postcode": "87048",
      "addr_street": "Corrales Road",
      "addr_housenumber": "4515",
      "angle": 21.834361047555188
    },
    {
      "id": 169242,
      "geometry": "POINT (-106.65639 35.235323)",
      "poi_name": "Namaste",
      "osm_id": 2295971137,
      "amenity": "restaurant",
      "cuisine": "indian",
      "phone": "505-896-3126",
      "addr_city": "Rio Rancho",
      "addr_postcode": "87124",
      "addr_street": "Deborah Road Southeast",
      "addr_housenumber": "1520",
      "angle": 7.437565155008058
    },
    {
      "id": 172323,
      "geometry": "POINT (-106.51989 35.131009)",
      "poi_name": "The Savoy",
      "osm_id": 2399974287,
      "amenity": "restaurant",
      "angle": 73.83920761091613
    },
    {
      "id": 171305,
      "geometry": "POINT (-106.479416 35.191041)",
      "poi_name": "Sandiago's",
      "osm_id": 2371025552,
      "amenity": "restaurant",
      "cuisine": "mexican",
      "outdoor_seating": "yes",
      "angle": 59.12236461348715
    },
    {
      "id": 176642,
      "geometry": "POINT (-106.628502 35.058948)",
      "poi_name": "Buffalo Wild Wings",
      "osm_id": 2565660099,
      "amenity": "restaurant",
      "cuisine": "wings",
      "website": "https://www.buffalowildwings.com/",
      "capacity": "200",
      "phone": "+1 505 2479464",
      "addr_state": "NM",
      "addr_city": "Albuquerque",
      "addr_postcode": "87106",
      "addr_street": "Towne Center Lane Southeast",
      "addr_housenumber": "1700",
      "angle": 129.54107898406096
    },
    {
      "id": 175251,
      "geometry": "POINT (-106.597397 35.079179)",
      "poi_name": "Thai Cuisine II",
      "osm_id": 2510097438,
      "amenity": "restaurant",
      "opening_hours": "Su 17:00-21:00; Mo-Fr 11:00-21:00; Sa 16:00-21:00",
      "website": "Http://thaicuisinenm.com/",
      "phone": "+1-505-232-3200",
      "addr_postcode": "87108",
      "addr_street": "Central Avenue NE",
      "addr_housenumber": "4201",
      "angle": 101.81170654073652
    },
    {
      "id": 175254,
      "geometry": "POINT (-106.586115 35.14249)",
      "poi_name": "Thai Street",
      "osm_id": 2510097745,
      "amenity": "restaurant",
      "cuisine": "thai",
      "angle": 57.13563309073033
    },
    {
      "id": 175255,
      "geometry": "POINT (-106.644872 35.056734)",
      "poi_name": "Grandma Warner's K&I Diner",
      "osm_id": 2510097990,
      "amenity": "restaurant",
      "opening_hours": "Su-Sa 6:00-15:00",
      "angle": 142.44363115391315
    },
    {
      "id": 175694,
      "geometry": "POINT (-106.596924 35.1048)",
      "poi_name": "The Daily Grind",
      "osm_id": 2533108372,
      "amenity": "restaurant",
      "wheelchair": "yes",
      "angle": 80.24746917897583
    },
    {
      "id": 173580,
      "geometry": "POINT (-106.577254 35.058589)",
      "poi_name": "Cervantes",
      "osm_id": 2445158262,
      "amenity": "restaurant",
      "cuisine": "new_mexican",
      "angle": 112.47072560520958
    },
    {
      "id": 175388,
      "geometry": "POINT (-106.514551 35.086443)",
      "poi_name": "AA Buffet Grill and Sushi",
      "osm_id": 2518940733,
      "amenity": "restaurant",
      "cuisine": "asian",
      "angle": 92.82938112870978
    },
    {
      "id": 176157,
      "geometry": "POINT (-106.551362 35.124258)",
      "poi_name": "Ortega's New Mexican Food Restaurant",
      "osm_id": 2551905141,
      "amenity": "restaurant",
      "cuisine": "mexican",
      "phone": "+1 505 298 0223",
      "addr_state": "NM",
      "addr_city": "Albuquerque",
      "addr_postcode": "87110",
      "addr_street": "Wyoming Boulevard Northeast",
      "addr_housenumber": "3617",
      "angle": 73.48624543533865
    },
    {
      "id": 176644,
      "geometry": "POINT (-106.609397 35.080696)",
      "poi_name": "Monte Vista Fire Station",
      "osm_id": 2565675218,
      "amenity": "restaurant",
      "cuisine": "american",
      "opening_hours": "Mo-Fr 15:00-02:00, Sa 11:00-02:00, Su 12:00-24:00",
      "website": "https://montevistafirestation.com/",
      "phone": "505-255-2424",
      "outdoor_seating": "yes",
      "addr_state": "NM",
      "addr_city": "Albuquerque",
      "addr_postcode": "87106",
      "addr_street": "Central Avenue Northeast",
      "addr_housenumber": "3201",
      "angle": 102.342449587317
    },
    {
      "id": 176645,
      "geometry": "POINT (-106.610242 35.080777)",
      "poi_name": "Yanni's",
      "osm_id": 2565675763,
      "amenity": "restaurant",
      "cuisine": "greek",
      "opening_hours": "Tu-Th 11:00-21:30; Fr-Sa 11:00-22:30; Su 11:30-20:30; Mo 11:00-20:30",
      "outdoor_seating": "yes",
      "addr_state": "NM",
      "addr_city": "Albuquerque",
      "addr_postcode": "87106",
      "addr_street": "Central Avenue Northeast",
      "addr_housenumber": "3109",
      "angle": 102.4112797647386
    },
    {
      "id": 183800,
      "geometry": "POINT (-106.68886 35.177505)",
      "poi_name": "Koyama Sushi",
      "osm_id": 10945580299,
      "amenity": "restaurant",
      "cuisine": "sushi",
      "addr_state": "NM",
      "addr_city": "Albuquerque",
      "addr_postcode": "87120",
      "addr_street": "Golf Course Road Northwest",
      "addr_housenumber": "8201",
      "angle": 354.51141634232835
    },
    {
      "id": 176786,
      "geometry": "POINT (-106.677248 35.095083)",
      "poi_name": "Los Compadres",
      "osm_id": 2567989949,
      "amenity": "restaurant",
      "cuisine": "mexican",
      "angle": 37.89346340235635
    },
    {
      "id": 178833,
      "geometry": "POINT (-106.667434 35.101359)",
      "poi_name": "Little Madrid",
      "osm_id": 10742025605,
      "amenity": "restaurant",
      "addr_street": "Bellamah Avenue Northwest",
      "addr_housenumber": "1909",
      "angle": 49.472327543690255
    },
    {
      "id": 183747,
      "geometry": "POINT (-106.712856 35.081802)",
      "poi_name": "China Casa",
      "osm_id": 10943547331,
      "amenity": "restaurant",
      "cuisine": "chinese",
      "addr_state": "NM",
      "addr_city": "Albuquerque",
      "addr_postcode": "87121",
      "addr_street": "Coors Boulevard Northwest",
      "addr_housenumber": "111",
      "angle": 247.67653000176557
    },
    {
      "id": 183770,
      "geometry": "POINT (-106.685551 35.086117)",
      "poi_name": "Peter Piper Pizza",
      "osm_id": 10945066149,
      "amenity": "restaurant",
      "cuisine": "pizza",
      "addr_street": "Central Avenue Northwest",
      "addr_housenumber": "4101",
      "angle": 217.1183546297359
    },
    {
      "id": 178042,
      "geometry": "POINT (-106.606486 35.079871)",
      "poi_name": "Slice Parlor",
      "osm_id": 2612690015,
      "amenity": "restaurant",
      "cuisine": "pizza",
      "website": "https://www.sliceparlor.com/",
      "phone": "+1-505-232-2808",
      "addr_state": "NM",
      "addr_city": "Albuquerque",
      "addr_postcode": "87106",
      "addr_street": "Central Avenue Southeast",
      "addr_housenumber": "3410",
      "angle": 102.6168238670642
    },
    {
      "id": 178062,
      "geometry": "POINT (-106.608844 35.078962)",
      "poi_name": "Ajiaco Colombian Bistro",
      "osm_id": 2613035346,
      "amenity": "restaurant",
      "cuisine": "colombian",
      "description": "Colombian restaurant with unique food. Pet Friendly",
      "opening_hours": "Tu-Th 11:00-15:00,17:00-20:00, Fr-Sa 11:00-20:00",
      "website": "https://www.ajiacobistro.com/",
      "phone": "+1 505 266-2305",
      "takeaway": "yes",
      "outdoor_seating": "yes",
      "delivery": "yes",
      "addr_state": "NM",
      "addr_city": "Albuquerque",
      "addr_postcode": "87108",
      "addr_street": "Silver Avenue Southeast",
      "addr_housenumber": "3216",
      "angle": 103.8818729067723
    },
    {
      "id": 178065,
      "geometry": "POINT (-106.608707 35.078958)",
      "poi_name": "P'tit Louis Bistro",
      "osm_id": 2613040634,
      "amenity": "restaurant",
      "cuisine": "french",
      "opening_hours": "Tu-We 17:30-22:00; Th-Sa 11:00-14:00,17:30-22:00; Su 11:00-14:30; Mo closed",
      "phone": "+1 505 314-1110",
      "outdoor_seating": "yes",
      "addr_state": "NM",
      "addr_city": "Albuquerque",
      "addr_postcode": "87106",
      "addr_street": "Silver Avenue Southeast",
      "addr_housenumber": "3218",
      "angle": 103.85956048253243
    },
    {
      "id": 178694,
      "geometry": "POINT (-106.573914 35.058625)",
      "poi_name": "Pollitos con papas",
      "osm_id": 10736051006,
      "amenity": "restaurant",
      "cuisine": "chicken;peruvian",
      "angle": 111.80228520617605
    },
    {
      "id": 180377,
      "geometry": "POINT (-106.716299 35.013382)",
      "poi_name": "Arriba Chihuas Taqueria Restaurant",
      "osm_id": 10798850182,
      "amenity": "restaurant",
      "cuisine": "mexican",
      "addr_state": "NM",
      "addr_city": "Albuquerque",
      "addr_postcode": "87121",
      "addr_street": "Coors Boulevard Southwest",
      "addr_housenumber": "4351",
      "angle": 201.02340001228666
    },
    {
      "id": 184341,
      "geometry": "POINT (-106.614115 35.224989)",
      "poi_name": "Hannah & Nate's",
      "osm_id": 7782609944,
      "amenity": "restaurant",
      "cuisine": "breakfast",
      "opening_hours": "Mo-Su 07:00-14:00",
      "phone": "+1-505-898-2370",
      "addr_state": "NM",
      "addr_city": "Corrales",
      "addr_postcode": "87048",
      "addr_street": "Corrales Road",
      "addr_housenumber": "4512",
      "angle": 22.000870222441527
    },
    {
      "id": 184348,
      "geometry": "POINT (-106.681372 35.158417)",
      "poi_name": "Thai Boran",
      "osm_id": 7783156219,
      "amenity": "restaurant",
      "cuisine": "thai",
      "opening_hours": "Mo-Th 11:00-21:30; Fr 11:00-22:30; Sa 12:00-22:30; Su 12:00-21:30",
      "website": "https://www.thaiborannm.com/",
      "phone": "+1 505 492 2244",
      "addr_state": "NM",
      "addr_city": "Albuquerque",
      "addr_postcode": "87120",
      "addr_street": "La Orilla Road Northwest",
      "addr_housenumber": "3236",
      "angle": 358.2867514039521
    },
    {
      "id": 183945,
      "geometry": "POINT (-106.550118 35.096291)",
      "poi_name": "Eloy's New Mexican Restaurant",
      "osm_id": 10951850223,
      "amenity": "restaurant",
      "phone": "+1-505-293-6018",
      "addr_state": "NM",
      "addr_city": "Albuquerque",
      "addr_postcode": "87112",
      "addr_street": "Wyoming Boulevard Northeast",
      "addr_housenumber": "1508",
      "angle": 88.31040214720248
    },
    {
      "id": 184029,
      "geometry": "POINT (-106.533228 35.092559)",
      "poi_name": "La Salita",
      "osm_id": 7768358130,
      "amenity": "restaurant",
      "cuisine": "mexican",
      "angle": 90.28132315427835
    },
    {
      "id": 184030,
      "geometry": "POINT (-106.533228 35.092717)",
      "poi_name": "Basil Leaf",
      "osm_id": 7768358131,
      "amenity": "restaurant",
      "cuisine": "vietnamese",
      "angle": 90.20576651516612
    },
    {
      "id": 184031,
      "geometry": "POINT (-106.533319 35.093338)",
      "poi_name": "Pizza Castle",
      "osm_id": 7768358132,
      "amenity": "restaurant",
      "cuisine": "pizza",
      "angle": 89.90874043802822
    },
    {
      "id": 184342,
      "geometry": "POINT (-106.616436 35.22205)",
      "poi_name": "Village Pizza",
      "osm_id": 7782613358,
      "amenity": "restaurant",
      "cuisine": "pizza",
      "opening_hours": "Su-Th 11:00-19:30, Fr-Sa 11:00-20:00",
      "website": "https://www.villagepizzanm.com/",
      "phone": "+1-505-898-0045",
      "addr_state": "NM",
      "addr_city": "Corrales",
      "addr_postcode": "87048",
      "addr_street": "Corrales Road",
      "addr_housenumber": "4266",
      "angle": 21.727138719425064
    },
    {
      "id": 184346,
      "geometry": "POINT (-106.680719 35.159659)",
      "poi_name": "Village Pizza",
      "osm_id": 7783102853,
      "amenity": "restaurant",
      "cuisine": "pizza",
      "opening_hours": "Su-Th 11:00-19:30, Fr-Sa 11:00-20:00",
      "website": "https://www.villagepizzanm.com/",
      "phone": "+1 505 219 3766",
      "addr_state": "NM",
      "addr_city": "Albuquerque",
      "addr_postcode": "87120",
      "addr_street": "La Orilla Road Northwest",
      "addr_housenumber": "3200",
      "angle": 358.7813462638382
    },
    {
      "id": 184578,
      "geometry": "POINT (-106.524548 35.070804)",
      "poi_name": "Dion's",
      "osm_id": 7799363896,
      "amenity": "restaurant",
      "cuisine": "pizza",
      "website": "https://www.dions.com/locations/albuquerque/central-elizabeth/",
      "phone": "+1 505 2960771",
      "takeaway": "yes",
      "outdoor_seating": "no",
      "addr_city": "Albuquerque",
      "addr_postcode": "87123",
      "addr_street": "Central Avenue",
      "addr_housenumber": "11000",
      "angle": 99.97502284005766
    },
    {
      "id": 185324,
      "geometry": "POINT (-106.639422 35.154005)",
      "poi_name": "Dave's",
      "osm_id": 7845202342,
      "amenity": "restaurant",
      "addr_street": "4th Street Northwest",
      "addr_housenumber": "6601",
      "angle": 28.138150542064075
    },
    {
      "id": 185115,
      "geometry": "POINT (-106.569211 35.104308)",
      "poi_name": "Pei Wei",
      "osm_id": 7833812601,
      "amenity": "restaurant",
      "cuisine": "asian",
      "opening_hours": "Su 11:00-21:00; Mo-Th 11:00-21:00; Fr-Sa 11:00-21:30",
      "phone": "+1-505-883-1570",
      "addr_state": "NM",
      "addr_city": "Albuquerque",
      "addr_postcode": "87114",
      "addr_street": "Louisiana Boulevard Northeast",
      "addr_housenumber": "2201",
      "angle": 82.97223081029497
    },
    {
      "id": 185325,
      "geometry": "POINT (-106.639812 35.154062)",
      "poi_name": "El Papatura",
      "osm_id": 7845202347,
      "amenity": "restaurant",
      "addr_street": "4th Street Northwest",
      "addr_housenumber": "6601",
      "angle": 27.880541166741775
    },
    {
      "id": 185638,
      "geometry": "POINT (-106.532482 35.093389)",
      "poi_name": "Pizza Castle",
      "osm_id": 7873531152,
      "amenity": "restaurant",
      "cuisine": "pizza",
      "website": "https://pizza-castle.com/",
      "phone": "+1-505-292-8358",
      "takeaway": "yes",
      "outdoor_seating": "no",
      "delivery": "no",
      "addr_state": "NM",
      "addr_city": "Albuquerque",
      "addr_street": "Eubank Boulevard Northeast",
      "addr_housenumber": "1220",
      "angle": 89.8844691615374
    },
    {
      "id": 185380,
      "geometry": "POINT (-106.640598 35.140009)",
      "poi_name": "Mario's",
      "osm_id": 7851329360,
      "amenity": "restaurant",
      "cuisine": "italian",
      "angle": 33.99128127791364
    },
    {
      "id": 185382,
      "geometry": "POINT (-106.638522 35.155268)",
      "poi_name": "Weck's",
      "osm_id": 7851355618,
      "amenity": "restaurant",
      "angle": 28.18365123343102
    },
    {
      "id": 186232,
      "geometry": "POINT (-106.605634 35.079199)",
      "poi_name": "Mata G Vegetarian Kitchen",
      "osm_id": 7921017092,
      "amenity": "restaurant",
      "cuisine": "international",
      "opening_hours": "Mo-Sa 10:00-18:00",
      "website": "https://www.mata-g.com/",
      "phone": "+1 505-266-6374",
      "addr_state": "NM",
      "addr_city": "Albuquerque",
      "addr_postcode": "87106",
      "addr_street": "Amherst Drive Southeast",
      "addr_housenumber": "116",
      "angle": 103.0815876466618
    },
    {
      "id": 194542,
      "geometry": "POINT (-106.688618 35.147176)",
      "poi_name": "Sushi Freak",
      "osm_id": 10276992838,
      "amenity": "restaurant",
      "cuisine": "japanese",
      "addr_state": "NM",
      "addr_city": "Albuquerque",
      "addr_postcode": "87120",
      "addr_street": "Coors Boulevard Northwest",
      "addr_housenumber": "5600",
      "angle": 351.66625584181395
    },
    {
      "id": 188904,
      "geometry": "POINT (-106.516496 35.13225)",
      "poi_name": "Flying Star",
      "osm_id": 207072862,
      "amenity": "restaurant",
      "toilets": "yes",
      "angle": 73.66563351412957
    },
    {
      "id": 188908,
      "geometry": "POINT (-106.606772 35.080266)",
      "poi_name": "Il Vicino",
      "osm_id": 209399249,
      "amenity": "restaurant",
      "cuisine": "pizza",
      "description": "Lively, laid-back eatery doling out traditional pizzas, pastas, and salads, plus beer and wine.",
      "wheelchair": "yes",
      "opening_hours": "Su-Th 11:00-22:00; Fr-Sa 11:00-23:00",
      "website": "https://ilvicino.com/",
      "phone": "+1-505-266-7855",
      "takeaway": "yes",
      "outdoor_seating": "yes",
      "addr_state": "NM",
      "addr_city": "Albuquerque",
      "addr_postcode": "87106",
      "addr_street": "Central Avenue Southeast",
      "addr_housenumber": "3403",
      "angle": 102.30234886601559
    },
    {
      "id": 188909,
      "geometry": "POINT (-106.606152 35.079774)",
      "poi_name": "Flying Star",
      "osm_id": 209511652,
      "amenity": "restaurant",
      "cuisine": "coffee_shop;regional;american",
      "internet_access": "wlan",
      "phone": "(505) 255-6633",
      "takeaway": "yes",
      "outdoor_seating": "no",
      "addr_state": "NM",
      "addr_city": "Albuquerque",
      "addr_postcode": "87106",
      "addr_street": "Central Avenue Southeast",
      "addr_housenumber": "3416",
      "angle": 102.64934863948828
    },
    {
      "id": 189741,
      "geometry": "POINT (-106.631805 35.174831)",
      "poi_name": "Casa de Benevites",
      "osm_id": 1248859717,
      "amenity": "restaurant",
      "cuisine": "mexican",
      "angle": 25.400016446679516
    },
    {
      "id": 194349,
      "geometry": "POINT (-106.697584 35.221012)",
      "poi_name": "M'tucci's Moderno",
      "osm_id": 10270490009,
      "amenity": "restaurant",
      "cuisine": "italian",
      "angle": 353.19322478333584
    },
    {
      "id": 194366,
      "geometry": "POINT (-106.656967 35.208281)",
      "poi_name": "Chuck E. Cheese",
      "osm_id": 10270744741,
      "amenity": "restaurant",
      "cuisine": "pizza",
      "leisure": "amusement_arcade",
      "website": "https://locations.chuckecheese.com/us/nm/albuquerque/10510-coors-boulevard",
      "angle": 8.932167148332324
    },
    {
      "id": 194367,
      "geometry": "POINT (-106.657554 35.208521)",
      "poi_name": "Red Lobster",
      "osm_id": 10270744742,
      "amenity": "restaurant",
      "cuisine": "seafood",
      "angle": 8.680035062382727
    },
    {
      "id": 194368,
      "geometry": "POINT (-106.657569 35.208089)",
      "poi_name": "Olive Garden",
      "osm_id": 10270744743,
      "amenity": "restaurant",
      "cuisine": "italian",
      "angle": 8.706038161688603
    },
    {
      "id": 194371,
      "geometry": "POINT (-106.648387 35.204818)",
      "poi_name": "Thai Kitchen",
      "osm_id": 10270744867,
      "amenity": "restaurant",
      "cuisine": "thai",
      "addr_street": "Corrales Road Northwest",
      "addr_housenumber": "10701",
      "angle": 12.689146784340181
    },
    {
      "id": 194375,
      "geometry": "POINT (-106.726066 35.193486)",
      "poi_name": "Rose Garden Chinese Cuisine",
      "osm_id": 10270760665,
      "amenity": "restaurant",
      "cuisine": "chinese",
      "angle": 338.9244404101083
    },
    {
      "id": 194392,
      "geometry": "POINT (-106.69628 35.242979)",
      "poi_name": "Saigon 2 Restaurant",
      "osm_id": 10270860579,
      "amenity": "restaurant",
      "cuisine": "vietnamese",
      "angle": 354.5914204757582
    },
    {
      "id": 194394,
      "geometry": "POINT (-106.694443 35.242865)",
      "poi_name": "Nori Ramen & Sushi Bar",
      "osm_id": 10270860584,
      "amenity": "restaurant",
      "cuisine": "japanese;sushi;ramen",
      "angle": 355.15966842380084
    },
    {
      "id": 194395,
      "geometry": "POINT (-106.692654 35.242659)",
      "poi_name": "Slate Street",
      "osm_id": 10270860590,
      "amenity": "restaurant",
      "cuisine": "american",
      "angle": 355.7120767386816
    },
    {
      "id": 194550,
      "geometry": "POINT (-106.65387 35.193996)",
      "poi_name": "Outback Steakhouse",
      "osm_id": 10277071270,
      "amenity": "restaurant",
      "cuisine": "american;steak",
      "angle": 11.569236750007496
    },
    {
      "id": 186429,
      "geometry": "POINT (-106.596822 35.078723)",
      "poi_name": "Korean BBQ",
      "osm_id": 7929589041,
      "amenity": "restaurant",
      "cuisine": "asian",
      "angle": 102.10124471817159
    },
    {
      "id": 191241,
      "geometry": "POINT (-106.623882 35.080535)",
      "poi_name": "V Wang Cafe",
      "osm_id": 1350457279,
      "amenity": "restaurant",
      "cuisine": "chinese",
      "addr_state": "NM",
      "addr_city": "Albuquerque",
      "addr_postcode": "87106",
      "addr_street": "Buena Vista",
      "addr_housenumber": "106",
      "angle": 105.64352946235856
    },
    {
      "id": 193892,
      "geometry": "POINT (-106.559317 35.173764)",
      "poi_name": "Flying Star",
      "osm_id": 1568583107,
      "amenity": "restaurant",
      "cuisine": "american",
      "angle": 50.6459236383076
    },
    {
      "id": 194418,
      "geometry": "POINT (-106.586805 35.142424)",
      "poi_name": "Pizza Hut",
      "osm_id": 10272135736,
      "amenity": "restaurant",
      "cuisine": "pizza",
      "angle": 56.975567365071406
    },
    {
      "id": 194419,
      "geometry": "POINT (-106.586073 35.140562)",
      "poi_name": "Mariscos La Playa",
      "osm_id": 10272135737,
      "amenity": "restaurant",
      "cuisine": "seafood;mexican",
      "angle": 58.18117227085213
    },
    {
      "id": 194420,
      "geometry": "POINT (-106.58896 35.131342)",
      "poi_name": "Tako Ten",
      "osm_id": 10272162753,
      "amenity": "restaurant",
      "angle": 62.72324529031481
    },
    {
      "id": 194596,
      "geometry": "POINT (-106.575281 35.326757)",
      "poi_name": "Pizza Hut",
      "osm_id": 10278575024,
      "amenity": "restaurant",
      "cuisine": "pizza",
      "angle": 19.99776730719824
    },
    {
      "id": 196941,
      "geometry": "POINT (-106.605459 35.080084)",
      "poi_name": "Lucky Goose",
      "osm_id": 10605103798,
      "amenity": "restaurant",
      "phone": "+1-505-226-4796",
      "addr_state": "NM",
      "addr_city": "Albuquerque",
      "addr_postcode": "87106",
      "addr_street": "Central Avenue Northeast",
      "addr_housenumber": "3503",
      "angle": 102.25263683134563
    },
    {
      "id": 194821,
      "geometry": "POINT (-106.570005 35.107069)",
      "poi_name": "Fogo de Ch\u00e3o",
      "osm_id": 10285733831,
      "amenity": "restaurant",
      "cuisine": "brazilian;steak_house",
      "angle": 81.18909224000525
    },
    {
      "id": 194822,
      "geometry": "POINT (-106.570056 35.106666)",
      "poi_name": "Saggio's",
      "osm_id": 10285733856,
      "amenity": "restaurant",
      "cuisine": "italian",
      "angle": 81.43702461497298
    },
    {
      "id": 194823,
      "geometry": "POINT (-106.570064 35.106784)",
      "poi_name": "Fuddruckers",
      "osm_id": 10285733857,
      "amenity": "restaurant",
      "cuisine": "burger",
      "angle": 81.36265581334243
    },
    {
      "id": 194825,
      "geometry": "POINT (-106.57085 35.108205)",
      "poi_name": "Blaze Pizza",
      "osm_id": 10285733875,
      "amenity": "restaurant",
      "cuisine": "pizza",
      "angle": 80.40837373635786
    },
    {
      "id": 194856,
      "geometry": "POINT (-106.574683 35.106419)",
      "poi_name": "Nori Japan",
      "osm_id": 10286764072,
      "amenity": "restaurant",
      "cuisine": "japanese",
      "angle": 81.22750053762233
    },
    {
      "id": 194793,
      "geometry": "POINT (-106.657021 35.110532)",
      "poi_name": "12th Street Tavern",
      "osm_id": 10285234653,
      "amenity": "restaurant",
      "addr_city": "Albuquerque",
      "addr_postcode": "87104",
      "addr_street": "12th Street Northwest",
      "addr_housenumber": "2500",
      "angle": 46.231412471909515
    },
    {
      "id": 194794,
      "geometry": "POINT (-106.657116 35.110676)",
      "poi_name": "Itality",
      "osm_id": 10285234654,
      "amenity": "restaurant",
      "website": "https://www.italitynm.com/",
      "addr_city": "Albuquerque",
      "addr_postcode": "87104",
      "addr_street": "12th Street Northwest",
      "addr_housenumber": "2500",
      "angle": 45.870249835420026
    },
    {
      "id": 194795,
      "geometry": "POINT (-106.531986 35.13855)",
      "poi_name": "Annapurna's World Vegetarian Caf\u00e9",
      "osm_id": 10285251058,
      "amenity": "restaurant",
      "cuisine": "indian;oriental;international",
      "website": "https://www.chaishoppe.com/",
      "phone": "+1-505-275-2424",
      "addr_state": "NM",
      "addr_city": "Albuquerque",
      "addr_postcode": "87111",
      "addr_street": "Eubank Boulevard Northeast",
      "addr_housenumber": "5200",
      "angle": 69.395045310232
    },
    {
      "id": 196442,
      "geometry": "POINT (-106.615032 35.080728)",
      "poi_name": "A Taste of the Caribbean",
      "osm_id": 10578090946,
      "amenity": "restaurant",
      "cuisine": "caribbean",
      "description": "Best Food, Great Value",
      "opening_hours": "Tu-Th 11:30-19:00, Fr-Sa 11:30-20:00",
      "website": "https://atasteofthecaribbeannm.com/",
      "phone": "+15055038428",
      "takeaway": "yes",
      "delivery": "yes",
      "addr_state": "NM",
      "addr_city": "Albuquerque",
      "addr_postcode": "87106",
      "addr_street": "Central Avenue Southeast",
      "addr_housenumber": "2720",
      "angle": 103.36240841085767
    },
    {
      "id": 197386,
      "geometry": "POINT (-106.591078 35.165668)",
      "poi_name": "Sticky Rice Grilled Chicken",
      "osm_id": 10647415128,
      "amenity": "restaurant",
      "cuisine": "noodle;laotian;rice",
      "addr_street": "Jefferson Street Northeast",
      "addr_housenumber": "7600",
      "angle": 44.8942216273389
    },
    {
      "id": 197393,
      "geometry": "POINT (-106.647704 35.205268)",
      "poi_name": "Ichi Ban Japanese Restaurant",
      "osm_id": 10647739597,
      "amenity": "restaurant",
      "cuisine": "japanese",
      "addr_street": "Corrales Road Northwest",
      "addr_housenumber": "10701",
      "angle": 12.912162584457656
    },
    {
      "id": 197400,
      "geometry": "POINT (-106.646164 35.203746)",
      "poi_name": "Dragon House Chinese Cuisine",
      "osm_id": 10647769452,
      "amenity": "restaurant",
      "cuisine": "chinese",
      "addr_street": "Corrales Road Northwest",
      "addr_housenumber": "10200",
      "angle": 13.704527925707005
    },
    {
      "id": 197401,
      "geometry": "POINT (-106.64583 35.20329)",
      "poi_name": "Pho Kobe",
      "osm_id": 10647769456,
      "amenity": "restaurant",
      "cuisine": "vietnamese",
      "addr_state": "NM",
      "addr_city": "Albuquerque",
      "addr_postcode": "87114",
      "addr_street": "Corrales Road Northwest",
      "addr_housenumber": "10200",
      "angle": 13.893519304698849
    },
    {
      "id": 197402,
      "geometry": "POINT (-106.64527 35.202659)",
      "poi_name": "Cafe Nom Nom",
      "osm_id": 10647769483,
      "amenity": "restaurant",
      "cuisine": "vietnamese",
      "addr_state": "NM",
      "addr_city": "Albuquerque",
      "addr_postcode": "87114",
      "addr_street": "Corrales Road Northwest",
      "addr_housenumber": "10200",
      "angle": 14.197301614841226
    },
    {
      "id": 197603,
      "geometry": "POINT (-106.65417 35.084697)",
      "poi_name": "Oni",
      "osm_id": 10656227299,
      "amenity": "restaurant",
      "cuisine": "noodle;ramen;regional",
      "opening_hours": "Tu-Th 11:30-20:00; Fr-Sa 11:30-21:00",
      "website": "https://oniabq.com/",
      "phone": "+1 505 503 6722",
      "addr_state": "NM",
      "addr_city": "Albuquerque",
      "addr_postcode": "87102",
      "addr_street": "Central Ave SW",
      "addr_housenumber": "600",
      "angle": 112.69664211215269
    },
    {
      "id": 198024,
      "geometry": "POINT (-106.567097 35.160301)",
      "poi_name": "Rising Star Chinese Eatery",
      "osm_id": 10686389305,
      "amenity": "restaurant",
      "cuisine": "chinese",
      "opening_hours": "Mo-Sa 11:00-21:00",
      "phone": "+1 505-821-6595",
      "addr_postcode": "87109",
      "addr_street": "San Antonio Drive Northeast",
      "addr_housenumber": "7001",
      "angle": 53.85699877141325
    },
    {
      "id": 207105,
      "geometry": "POINT (-106.54432 35.175263)",
      "poi_name": "Jinja Bar and Bistro",
      "osm_id": 7237748946,
      "amenity": "restaurant",
      "angle": 53.407417378225546
    },
    {
      "id": 200949,
      "geometry": "POINT (-106.608569 35.080067)",
      "poi_name": "M'Tucci's Bar Roma",
      "osm_id": 601599339,
      "amenity": "restaurant",
      "cuisine": "italian",
      "opening_hours": "Mo-Th 11:00-22:00; Fr 11:00-23:00; Sa 08:00-23:00; Su 08:00-22:00",
      "phone": "505-262-2739",
      "outdoor_seating": "yes",
      "addr_state": "NM",
      "addr_city": "Albuquerque",
      "addr_postcode": "87106",
      "addr_street": "Central Avenue Southeast",
      "addr_housenumber": "3222",
      "angle": 102.794714388551
    },
    {
      "id": 200979,
      "geometry": "POINT (-106.593884 35.143462)",
      "poi_name": "Pars Cuisine",
      "osm_id": 602873866,
      "amenity": "restaurant",
      "cuisine": "persian",
      "angle": 54.2894231107777
    },
    {
      "id": 203776,
      "geometry": "POINT (-106.654345 35.09119)",
      "poi_name": "Pizza Hut",
      "osm_id": 7099981091,
      "amenity": "restaurant",
      "cuisine": "pizza",
      "angle": 95.75563450637668
    },
    {
      "id": 204047,
      "geometry": "POINT (-106.651082 35.084622)",
      "poi_name": "Foodtopia",
      "osm_id": 7111702431,
      "amenity": "restaurant",
      "addr_state": "NM",
      "addr_city": "Albuquerque",
      "addr_street": "Central Avenue Northwest",
      "addr_housenumber": "313B",
      "angle": 110.56573106757526
    },
    {
      "id": 205103,
      "geometry": "POINT (-106.616289 35.080613)",
      "poi_name": "Sahara Middle Eastern Eatery",
      "osm_id": 7157312275,
      "amenity": "restaurant",
      "opening_hours": "Mo-Sa 10:30-21:30; Su 12:00-19:00",
      "addr_street": "Central Avenue Southeast",
      "addr_housenumber": "2622",
      "angle": 103.74139801609434
    },
    {
      "id": 205911,
      "geometry": "POINT (-106.57021 35.130017)",
      "poi_name": "Curry Leaf",
      "osm_id": 7188495513,
      "amenity": "restaurant",
      "cuisine": "indian",
      "website": "https://www.curryleafrestaurant.us",
      "addr_state": "NM",
      "addr_city": "Albuquerque",
      "addr_postcode": "87109-1424",
      "addr_street": "Montgomery Boulevard Northeast",
      "addr_housenumber": "6910",
      "angle": 67.60338205181996
    },
    {
      "id": 200911,
      "geometry": "POINT (-106.55005 35.09533)",
      "poi_name": "Cafe Istanbul",
      "osm_id": 600451405,
      "amenity": "restaurant",
      "cuisine": "mediterranean",
      "phone": "1-505-294-9900",
      "takeaway": "yes",
      "outdoor_seating": "no",
      "addr_state": "NM",
      "addr_city": "Albuquerque",
      "addr_postcode": "87112",
      "addr_street": "Wyoming Boulevard Northeast",
      "addr_housenumber": "1410",
      "angle": 88.83037787589875
    },
    {
      "id": 200912,
      "geometry": "POINT (-106.550241 35.09675)",
      "poi_name": "Thai Tip",
      "osm_id": 600451406,
      "amenity": "restaurant",
      "cuisine": "thai",
      "angle": 88.06058526908907
    },
    {
      "id": 200919,
      "geometry": "POINT (-106.514296 35.131556)",
      "poi_name": "Il Vicino",
      "osm_id": 600524730,
      "amenity": "restaurant",
      "cuisine": "pizza",
      "toilets": "yes",
      "angle": 74.14310050288493
    },
    {
      "id": 200932,
      "geometry": "POINT (-106.515079 35.109458)",
      "poi_name": "Mr. Sushi",
      "osm_id": 601150706,
      "amenity": "restaurant",
      "cuisine": "sushi",
      "toilets": "yes",
      "angle": 83.08598442510835
    },
    {
      "id": 200935,
      "geometry": "POINT (-106.551337 35.129952)",
      "poi_name": "The Range Caf\u00e9",
      "osm_id": 601171914,
      "amenity": "restaurant",
      "cuisine": "new_mexican;dessert",
      "opening_hours": "Su-Th 07:00-21:00, Fr-Sa 07:00-21:00",
      "website": "https://www.rangecafe.com/",
      "phone": "+1-505-293-2633",
      "addr_state": "NM",
      "addr_city": "Albuquerque",
      "addr_postcode": "87111",
      "addr_street": "Wyoming Boulevard Northeast",
      "addr_housenumber": "4401",
      "angle": 70.67263177808287
    },
    {
      "id": 207155,
      "geometry": "POINT (-106.555632 35.109628)",
      "poi_name": "Krung Thai",
      "osm_id": 7239247350,
      "amenity": "restaurant",
      "cuisine": "thai",
      "phone": "+1-505-292-9319",
      "addr_state": "NM",
      "addr_city": "Albuquerque",
      "addr_postcode": "87110",
      "addr_street": "Menaul Boulevard Northeast",
      "addr_housenumber": "7923",
      "angle": 80.78011327761811
    },
    {
      "id": 210033,
      "geometry": "POINT (-106.712929 35.023275)",
      "poi_name": "Poki Poki Cevicheria",
      "osm_id": 5072769163,
      "amenity": "restaurant",
      "opening_hours": "Su-Th 11:00-21:00, Fr-Sa 11:00-21:30",
      "website": "https://www.pokipokinm.com/",
      "phone": "+1-505-873-3731",
      "addr_state": "NM",
      "addr_city": "Albuquerque",
      "addr_postcode": "87121",
      "addr_street": "Las Estancias Court Southwest",
      "addr_housenumber": "3715",
      "angle": 201.7517581468261
    },
    {
      "id": 209493,
      "geometry": "POINT (-106.57718 35.116935)",
      "poi_name": "Pacific Paradise",
      "osm_id": 5040236228,
      "amenity": "restaurant",
      "cuisine": "asian",
      "opening_hours": "Mo-Th 10:30-21:00, Fr 10:30-21:30, Sa 11:30-21:30, Su 16:00-21:00; Mo-Sa 15:00-16:00 off",
      "website": "http://www.pacific-paradise-restaurant-abq.com/",
      "phone": "+1-505-881-0999",
      "outdoor_seating": "yes",
      "delivery": "no",
      "addr_state": "NM",
      "addr_city": "Albuquerque",
      "addr_postcode": "87110",
      "addr_street": "San Pedro Drive Northeast",
      "addr_housenumber": "3000",
      "angle": 74.15633458425631
    },
    {
      "id": 209973,
      "geometry": "POINT (-106.572057 35.106571)",
      "poi_name": "The Cheesecake Factory",
      "osm_id": 5070416490,
      "amenity": "restaurant",
      "cuisine": "american",
      "opening_hours": "Mo-Th 11:00-23:00, Fr-Sa 11:00-24:00, Su 10:00-23:00",
      "website": "https://locations.thecheesecakefactory.com/nm/albuquerque-193.html",
      "phone": "+1-505-883-2539",
      "takeaway": "yes",
      "outdoor_seating": "yes",
      "delivery": "no",
      "addr_state": "NM",
      "addr_city": "Albuquerque",
      "addr_postcode": "87110",
      "addr_street": "Menaul Boulevard Northeast",
      "addr_housenumber": "6600",
      "angle": 81.34138790606127
    },
    {
      "id": 210370,
      "geometry": "POINT (-106.693424 35.242671)",
      "poi_name": "Best Lee's",
      "osm_id": 5099845482,
      "amenity": "restaurant",
      "cuisine": "chinese",
      "opening_hours": "Mo-Sa 08:00-21:00",
      "outdoor_seating": "no",
      "addr_state": "NM",
      "addr_city": "Rio Rancho",
      "addr_postcode": "87124",
      "addr_street": "Southern Boulevard Southeast",
      "addr_housenumber": "2003",
      "angle": 355.47170245143604
    },
    {
      "id": 211219,
      "geometry": "POINT (-106.606532 35.080243)",
      "poi_name": "99 Degrees Seafood Kitchen",
      "osm_id": 5146039252,
      "amenity": "restaurant",
      "cuisine": "cajun;seafood",
      "description": "Cajun and Creole cuisines",
      "opening_hours": "closed",
      "website": "99degreesseafoodkitchennm.com/",
      "addr_state": "NM",
      "addr_city": "Albuquerque",
      "addr_postcode": "87106",
      "addr_street": "Central Avenue Northeast",
      "addr_housenumber": "3409",
      "angle": 102.28364337791832
    },
    {
      "id": 210978,
      "geometry": "POINT (-106.593289 35.143763)",
      "poi_name": "Dickey's Barbecue Pit",
      "osm_id": 5133576387,
      "amenity": "restaurant",
      "cuisine": "barbecue",
      "angle": 54.31634521289046
    },
    {
      "id": 211249,
      "geometry": "POINT (-106.610635 35.080985)",
      "poi_name": "Sala Thai",
      "osm_id": 5148601509,
      "amenity": "restaurant",
      "cuisine": "asian",
      "addr_state": "NM",
      "addr_city": "Albuquerque",
      "addr_postcode": "87106",
      "addr_street": "Richmond Drive Northeast",
      "addr_housenumber": "102",
      "angle": 102.27850172035764
    },
    {
      "id": 211250,
      "geometry": "POINT (-106.611279 35.080866)",
      "poi_name": "Crazy Fish",
      "osm_id": 5148609429,
      "amenity": "restaurant",
      "cuisine": "japanese",
      "description": "Intimate Japanese eatery with a sushi bar, offering bento boxes at lunch and a sake menu.",
      "opening_hours": "Mo-Th 11:00-21:30; Fr 11:00-22:00; Sa 12:00-22:30; Su 12:00-21:30",
      "website": "https://crazyfishabq.com",
      "phone": "505-232-3474",
      "takeaway": "yes",
      "outdoor_seating": "no",
      "addr_state": "NM",
      "addr_city": "Albuquerque",
      "addr_postcode": "87106",
      "addr_street": "Central Avenue Northeast",
      "addr_housenumber": "3015",
      "angle": 102.50899987720464
    },
    {
      "id": 211251,
      "geometry": "POINT (-106.610581 35.081297)",
      "poi_name": "Guava Tree Cafe",
      "osm_id": 5148612044,
      "amenity": "restaurant",
      "cuisine": "caribbean",
      "description": "Relaxed eatery serving Caribbean soups and stews, homemade arepas, flan, Cuban sandwiches, Cuban coffee and more!",
      "opening_hours": "Mo-Sa 11:00-16:00; Su 11:00-15:00",
      "phone": "505-990-2599",
      "takeaway": "yes",
      "outdoor_seating": "yes",
      "addr_state": "NM",
      "addr_city": "Albuquerque",
      "addr_postcode": "87106",
      "addr_street": "Richmond Drive Northeast",
      "addr_housenumber": "118",
      "angle": 101.96531957864788
    },
    {
      "id": 211265,
      "geometry": "POINT (-106.610125 35.080342)",
      "poi_name": "Mesa Provisions",
      "osm_id": 5150031349,
      "amenity": "restaurant",
      "addr_state": "NM",
      "addr_city": "Albuquerque",
      "addr_postcode": "87106",
      "addr_street": "Central Avenue Southeast",
      "addr_housenumber": "3120",
      "angle": 102.8104164591756
    },
    {
      "id": 214768,
      "geometry": "POINT (-106.565494 35.101127)",
      "poi_name": "Takumi Restaurant",
      "osm_id": 5280632631,
      "amenity": "restaurant",
      "cuisine": "japanese",
      "opening_hours": "Su-Th 11:00-21:30, Fr-Sa 11:00-22:30",
      "website": "https://www.takumibbq.com/",
      "phone": "+1-505-508-3091",
      "addr_state": "NM",
      "addr_city": "Albuquerque",
      "addr_postcode": "87110",
      "addr_street": "Louisiana Boulevard Northeast",
      "addr_housenumber": "2100",
      "angle": 85.13187979880625
    },
    {
      "id": 211273,
      "geometry": "POINT (-106.612477 35.081672)",
      "poi_name": "The Shop",
      "osm_id": 5150153028,
      "amenity": "restaurant",
      "description": "Hip, unpretentious joint offering locally sourced American bites with a twist, plus outdoor seating.",
      "opening_hours": "Tu-Th 08:00-15:00; Fr 08:00-15:00,17:30-22:00; Sa 08:00-13:00,17:30-22:00; Su 08:00-13:00",
      "website": "https://www.facebook.com/TheShopBreakfastandLunch/",
      "phone": "(505) 433-2795",
      "outdoor_seating": "yes",
      "addr_state": "NM",
      "addr_city": "Albuquerque",
      "addr_postcode": "87106",
      "addr_street": "Monte Vista Boulevard Northeast",
      "addr_housenumber": "2933",
      "angle": 101.92151579147993
    },
    {
      "id": 212289,
      "geometry": "POINT (-106.550376 35.302296)",
      "poi_name": "Range Caf\u00e9",
      "osm_id": 5197384585,
      "amenity": "restaurant",
      "cuisine": "dessert;new_mexican",
      "wheelchair": "yes",
      "opening_hours": "Su-Th 07:00-21:00, Fr-Sa 07:00-21:00",
      "website": "https://www.rangecafe.com/",
      "phone": "+1-505-867-1700",
      "addr_state": "NM",
      "addr_city": "Bernalillo",
      "addr_postcode": "87004",
      "addr_street": "Camino del Pueblo",
      "addr_housenumber": "925",
      "angle": 26.75742705085517
    },
    {
      "id": 213521,
      "geometry": "POINT (-106.628474 35.057897)",
      "poi_name": "Chili's",
      "osm_id": 5253337882,
      "amenity": "restaurant",
      "cuisine": "tex-mex",
      "official_name": "Chili's Grill & Bar",
      "angle": 130.37648133435766
    },
    {
      "id": 220135,
      "geometry": "POINT (-106.603595 35.130588)",
      "poi_name": "Fiesta\u2019s New Mexican Food",
      "osm_id": 9360807414,
      "amenity": "restaurant",
      "cuisine": "mexican",
      "addr_state": "NM",
      "addr_city": "Albuquerque",
      "addr_postcode": "87107",
      "addr_street": "Carlisle Boulevard Northeast",
      "addr_housenumber": "4400",
      "angle": 58.894745896131504
    },
    {
      "id": 217336,
      "geometry": "POINT (-106.649503 35.08864)",
      "poi_name": "Icon Bistro",
      "osm_id": 9217019145,
      "amenity": "restaurant",
      "addr_state": "NM",
      "addr_city": "Albuquerque",
      "addr_street": "Marquette Avenue Northwest",
      "addr_housenumber": "201",
      "angle": 100.72450435658044
    },
    {
      "id": 220432,
      "geometry": "POINT (-106.666478 35.091114)",
      "poi_name": "Feed and Seed Modern General",
      "osm_id": 9373472863,
      "amenity": "restaurant",
      "description": "local Cafe Restaurant, good for breakfast",
      "phone": "+15052426928",
      "addr_street": "Central Ave SW",
      "addr_housenumber": "1720 suite B",
      "angle": 101.6430094139555
    },
    {
      "id": 221894,
      "geometry": "POINT (-106.643982 35.085881)",
      "poi_name": "La Finca Bowls",
      "osm_id": 10995901511,
      "amenity": "restaurant",
      "angle": 104.32271110905872
    },
    {
      "id": 223475,
      "geometry": "POINT (-106.532872 35.115986)",
      "poi_name": "Ruben's Grill Mexican Restaurant",
      "osm_id": 11054999899,
      "amenity": "restaurant",
      "opening_hours": "Mo-Sa 09:00-20:00; Su 09:00-15:00",
      "website": "https://rubensgrillmexicanrestaurant.com",
      "phone": "+1-505-294-1900",
      "addr_state": "NM",
      "addr_city": "Albuquerque",
      "addr_postcode": "87112",
      "addr_street": "Candelaria Road Norteast",
      "addr_housenumber": "9708",
      "angle": 79.23024797041823
    },
    {
      "id": 226051,
      "geometry": "POINT (-106.602195 35.138481)",
      "poi_name": "Fuddruckers",
      "osm_id": 11147419929,
      "amenity": "restaurant",
      "cuisine": "burger",
      "opening_hours": "Su-Th 11:00-20:00, Fr-Sa 11:00-21:00",
      "website": "https://www.fuddruckers.com/albuquerque-yale-blvd",
      "phone": "15052242841",
      "takeaway": "yes",
      "outdoor_seating": "yes",
      "delivery": "yes",
      "addr_state": "NM",
      "addr_city": "Albuquerque",
      "addr_postcode": "87109",
      "addr_street": "Pan American Fwy NE",
      "addr_housenumber": "4855",
      "angle": 54.338857995302696
    },
    {
      "id": 224513,
      "geometry": "POINT (-106.585536 35.152523)",
      "poi_name": "Garduno's",
      "osm_id": 11084903059,
      "amenity": "restaurant",
      "cuisine": "mexican",
      "addr_state": "NM",
      "addr_city": "Albuquerque",
      "addr_postcode": "87109",
      "addr_street": "Pan American Northeast",
      "addr_housenumber": "6000",
      "angle": 52.30187846901351
    },
    {
      "id": 225051,
      "geometry": "POINT (-106.650016 35.254521)",
      "poi_name": "K'Lynn's Southern & Cajun Fusion",
      "osm_id": 11108956273,
      "amenity": "restaurant",
      "cuisine": "cajun;soul_food;southern;seafood",
      "description": "From fried catfish, collard greens and plantain  to etouffee,  gumbo and  po boys.",
      "website": "https://www.klynnsfusion.com/",
      "phone": "505-453-3068",
      "outdoor_seating": "no",
      "delivery": "yes",
      "addr_state": "NM",
      "addr_city": "Rio Rancho",
      "addr_postcode": "87124",
      "addr_street": "Ridgecrest Dr SE",
      "addr_housenumber": "4300",
      "angle": 8.384740324888101
    },
    {
      "id": 225052,
      "geometry": "POINT (-106.599952 35.140518)",
      "poi_name": "Crackin' Crab Seafood Boil",
      "osm_id": 11109003897,
      "amenity": "restaurant",
      "cuisine": "seafood",
      "description": "casual dine in restaurant specializing in quality Cajun seafood boil cuisine in the southwest",
      "opening_hours": "Su-Th 12:00-21:00, Fr-Sa 12:00-21:30",
      "website": "https://www.crackincrab.com/",
      "phone": "+15053444469",
      "takeaway": "yes",
      "outdoor_seating": "no",
      "delivery": "yes",
      "addr_state": "NM",
      "addr_city": "Albuquerque",
      "addr_postcode": "87109",
      "addr_street": "Pan American Freeway NE",
      "addr_housenumber": "4959",
      "angle": 53.92296049220236
    },
    {
      "id": 225053,
      "geometry": "POINT (-106.698601 35.211726)",
      "poi_name": "Crackin' Crab Seafood Boil",
      "osm_id": 11109003898,
      "amenity": "restaurant",
      "cuisine": "seafood",
      "description": "casual dine in restaurant specializing in quality Cajun seafood boil cuisine in the southwest",
      "opening_hours": "Su-Th 12:00-21:00, Fr-Sa 12:00-22:00",
      "website": "https://www.crackincrab.com/",
      "phone": "(505) 897-5790",
      "takeaway": "yes",
      "delivery": "yes",
      "addr_state": "NM",
      "addr_city": "Albuquerque",
      "addr_postcode": "87114",
      "addr_street": "Unser Blvd NW",
      "addr_housenumber": "10600",
      "angle": 352.26802372705106
    },
    {
      "id": 225369,
      "geometry": "POINT (-106.498236 35.116058)",
      "poi_name": "The Burrow Cafe",
      "osm_id": 11124101036,
      "amenity": "restaurant",
      "cuisine": "brunch;breakfast;coffee_shop;crepe",
      "opening_hours": "Mo-Sa 08:00-15:00; Tu off; Su 08:00-14:00",
      "website": "https://www.abqbrunch.com/",
      "phone": "+1-505-508-0075",
      "addr_state": "NM",
      "addr_city": "Albuquerque",
      "addr_postcode": "87111",
      "addr_street": "Candelaria Road Northeast",
      "addr_housenumber": "12501",
      "angle": 81.21326447282955
    },
    {
      "id": 225370,
      "geometry": "POINT (-106.498242 35.116255)",
      "poi_name": "Tako Ten",
      "osm_id": 11124101038,
      "amenity": "restaurant",
      "cuisine": "mexican",
      "phone": "+1-505-508-0262",
      "addr_state": "NM",
      "addr_city": "Albuquerque",
      "addr_street": "Candelaria Road Northeast",
      "addr_housenumber": "12501",
      "angle": 81.13898202618779
    },
    {
      "id": 229292,
      "geometry": "POINT (-106.563672 35.130043)",
      "poi_name": "Savory Fare Cafe, Bakery & Catering",
      "osm_id": 4375792715,
      "amenity": "restaurant",
      "cuisine": "cafe",
      "angle": 68.73999772411089
    },
    {
      "id": 226301,
      "geometry": "POINT (-106.657398 35.232056)",
      "poi_name": "Aldo's New York Style Pizzeria",
      "osm_id": 11155367792,
      "amenity": "restaurant",
      "cuisine": "pizza_restaurant;catering;new_york_style_pizza",
      "opening_hours": "Mo-Su 11:00-21:00",
      "website": "https://aldosnypizza.com",
      "phone": "+1-505-892-2026",
      "addr_state": "NM",
      "addr_city": "Rio Rancho",
      "addr_postcode": "87124",
      "addr_street": "Rio Rancho Boulevard Southeast,",
      "addr_housenumber": "1690",
      "angle": 7.275492395108845
    },
    {
      "id": 230678,
      "geometry": "POINT (-106.580428 35.109495)",
      "poi_name": "Viet Taste",
      "osm_id": 4434977685,
      "amenity": "restaurant",
      "cuisine": "vietnamese",
      "addr_state": "NM",
      "addr_city": "Albuquerque",
      "addr_postcode": "87110",
      "addr_street": "Menaul Boulevard Northeast",
      "addr_housenumber": "5721",
      "angle": 78.62172857438613
    },
    {
      "id": 230407,
      "geometry": "POINT (-106.604732 35.080255)",
      "poi_name": "El Cotorro",
      "osm_id": 4425276871,
      "amenity": "restaurant",
      "cuisine": "mexican;ice_cream",
      "addr_state": "NM",
      "addr_city": "Albuquerque",
      "addr_street": "Carlisle Boulevard Northeast",
      "angle": 101.98253525836691
    },
    {
      "id": 230408,
      "geometry": "POINT (-106.549438 35.128649)",
      "poi_name": "Down N Dirty Seafood Boil",
      "osm_id": 4425276876,
      "amenity": "restaurant",
      "angle": 71.56357566567571
    },
    {
      "id": 231769,
      "geometry": "POINT (-106.652032 35.068311)",
      "poi_name": "El Modelo Carry Out Mexian Food",
      "osm_id": 4486195550,
      "amenity": "restaurant",
      "cuisine": "mexican",
      "takeaway": "yes",
      "angle": 138.34196575302485
    },
    {
      "id": 231770,
      "geometry": "POINT (-106.652558 35.068546)",
      "poi_name": "El Modelo",
      "osm_id": 4486197607,
      "amenity": "restaurant",
      "cuisine": "new_mexican;mexican",
      "takeaway": "yes",
      "outdoor_seating": "yes",
      "wikidata": "Q17442194",
      "addr_state": "NM",
      "addr_city": "Albuquerque",
      "addr_postcode": "87102",
      "addr_street": "2nd Street Southwest",
      "addr_housenumber": "1715",
      "angle": 138.6338933210509
    },
    {
      "id": 244219,
      "geometry": "POINT (-106.560321 35.174779)",
      "poi_name": "Guaca Guaca Tacos",
      "osm_id": 7708042071,
      "amenity": "restaurant",
      "cuisine": "tacos",
      "opening_hours": "Mo-Su 11:00-19:00",
      "website": "https://www.guacaguacatacos.com",
      "phone": "+1-505-407-2308",
      "addr_state": "NM",
      "addr_city": "Albuquerque",
      "addr_postcode": "87113",
      "addr_street": "Wyoming Boulevard Northeast",
      "addr_housenumber": "8001",
      "angle": 50.05625763261768
    },
    {
      "id": 237546,
      "geometry": "POINT (-106.515467 35.085388)",
      "poi_name": "Stripes & Burritos Co",
      "osm_id": 5838020150,
      "amenity": "restaurant",
      "cuisine": "mexican;tex-mex;american;burger;burrito;enchilada",
      "phone": "505.308.5194",
      "addr_state": "NM",
      "addr_city": "Albuquerque",
      "addr_postcode": "87123",
      "addr_street": "Juan Tabo Boulevard Northeast",
      "addr_housenumber": "801",
      "angle": 93.293959881179
    },
    {
      "id": 241110,
      "geometry": "POINT (-106.582875 35.148083)",
      "poi_name": "Trombino's Bistro Italiano",
      "osm_id": 6007151515,
      "amenity": "restaurant",
      "opening_hours": "Mo-Th 16:00-22:00; Fr 16:00-22:30; Sa 15:00-22:30; Su 15:00-21:00",
      "website": "http://bistroitaliano.com",
      "phone": "+1 505-821-5974",
      "addr_state": "NM",
      "addr_city": "Albuquerque",
      "addr_postcode": "87109",
      "addr_street": "Academy Rd NE",
      "addr_housenumber": "5415",
      "angle": 55.193342852860525
    },
    {
      "id": 244090,
      "geometry": "POINT (-106.576655 35.172641)",
      "poi_name": "China Luck",
      "osm_id": 7700222022,
      "amenity": "restaurant",
      "cuisine": "chinese",
      "angle": 46.60641768867335
    },
    {
      "id": 244093,
      "geometry": "POINT (-106.576705 35.172046)",
      "poi_name": "Squeezed! Juice Bar",
      "osm_id": 7700311591,
      "amenity": "restaurant",
      "cuisine": "juice",
      "opening_hours": "Mo-Fr 07:30-18:00; Sa 08:00-18:00; Su 09:00-17:00",
      "website": "https://squeezedjuicebars.com",
      "phone": "505-821-1437",
      "addr_state": "NM",
      "addr_city": "Albuquerque",
      "addr_postcode": "87109",
      "addr_street": "San Pedro Drive Northeast",
      "addr_housenumber": "7900",
      "angle": 46.80773805783479
    },
    {
      "id": 233442,
      "geometry": "POINT (-106.51763 35.131168)",
      "poi_name": "Applebee's",
      "osm_id": 4574111670,
      "amenity": "restaurant",
      "cuisine": "american",
      "official_name": "Applebee's Neighborhood Grill & Bar",
      "addr_state": "NM",
      "angle": 73.98909438595825
    },
    {
      "id": 233604,
      "geometry": "POINT (-106.66592 35.090997)",
      "poi_name": "Amore Neapolitan Pizzeria",
      "osm_id": 4581469155,
      "amenity": "restaurant",
      "cuisine": "pizza",
      "addr_state": "NM",
      "addr_city": "Albuquerque",
      "addr_street": "Central Avenue Southwest",
      "angle": 101.75528958358517
    },
    {
      "id": 238740,
      "geometry": "POINT (-106.549266 35.129895)",
      "poi_name": "Chuck E. Cheese",
      "osm_id": 5893359933,
      "amenity": "restaurant",
      "cuisine": "pizza",
      "leisure": "amusement_arcade",
      "opening_hours": "Su-Th 11:00-21:00, Fr 11:00-22:00, Sa 10:00-22:00",
      "website": "https://locations.chuckecheese.com/us/nm/albuquerque/4418-wyoming-blvd.-ne",
      "phone": "+1-505-296-3110",
      "outdoor_seating": "no",
      "delivery": "yes",
      "addr_state": "NM",
      "addr_city": "Albuquerque",
      "addr_postcode": "87111",
      "addr_street": "Wyoming Boulevard Northeast",
      "addr_housenumber": "4418",
      "angle": 70.98505314517641
    },
    {
      "id": 239002,
      "geometry": "POINT (-106.517152 35.130342)",
      "poi_name": "Weck's Select",
      "osm_id": 5900887265,
      "amenity": "restaurant",
      "opening_hours": "Mo-Su 07:00-14:00",
      "website": "https://wecksinc.com/wecks-select/",
      "phone": "+1-505-888-7002",
      "addr_state": "NM",
      "addr_city": "Albuquerque",
      "addr_postcode": "87111",
      "addr_street": "Montgomery Boulevard Northeast",
      "addr_housenumber": "11004",
      "angle": 74.36347474119144
    },
    {
      "id": 240083,
      "geometry": "POINT (-106.566142 35.100899)",
      "poi_name": "Burger 21",
      "osm_id": 5954931414,
      "amenity": "restaurant",
      "cuisine": "burger",
      "opening_hours": "Su-Th 11:00-21:00, Fr-Sa 11:00-22:00",
      "website": "https://www.burger21.com/locations/albuquerque/",
      "phone": "+1-505-208-0759",
      "drive_through": "no",
      "outdoor_seating": "yes",
      "addr_state": "NM",
      "addr_city": "Albuquerque",
      "addr_postcode": "87110",
      "addr_street": "Louisiana Boulevard Northeast",
      "addr_housenumber": "2100",
      "angle": 85.24404503904813
    },
    {
      "id": 244221,
      "geometry": "POINT (-106.560817 35.175069)",
      "poi_name": "Jade Chinese Restaurant",
      "osm_id": 7708042077,
      "amenity": "restaurant",
      "cuisine": "chinese",
      "opening_hours": "Mo-Th 11:00-20:30; Fr-Sa 11:00-21:00; Su 16:30-20:30",
      "website": "http://www.jadechineserestaurantnm.com/Menu.asp",
      "phone": "+1-505-822-8802",
      "addr_state": "NM",
      "addr_city": "Albuquerque",
      "addr_postcode": "87113",
      "addr_street": "Wyoming Boulevard Northeast",
      "addr_housenumber": "8001",
      "angle": 49.83816890791597
    },
    {
      "id": 244224,
      "geometry": "POINT (-106.561139 35.174821)",
      "poi_name": "Starry Moon",
      "osm_id": 7708164802,
      "amenity": "restaurant",
      "cuisine": "tea",
      "opening_hours": "Mo-Su 11:00-22:00",
      "website": "https://www.pwbportal.us/starry-moon",
      "phone": "+1-505-507-7029",
      "addr_state": "NM",
      "addr_city": "Albuquerque",
      "addr_postcode": "87113",
      "addr_street": "Wyoming Boulevard Northeast",
      "addr_housenumber": "8001",
      "angle": 49.84692137889823
    },
    {
      "id": 244940,
      "geometry": "POINT (-106.555706 35.175477)",
      "poi_name": "Kabob House",
      "osm_id": 7752495861,
      "amenity": "restaurant",
      "cuisine": "kebab",
      "opening_hours": "Mo-Sa 11:00-21:00",
      "website": "https://kabobhouseabq.com",
      "phone": "+1-505-312-8949",
      "addr_state": "NM",
      "addr_city": "Albuquerque",
      "addr_postcode": "87113",
      "addr_street": "Wyoming Blvd NE",
      "addr_housenumber": "8401",
      "angle": 50.88788416149634
    },
    {
      "id": 244480,
      "geometry": "POINT (-106.557604 35.173701)",
      "poi_name": "Vintage 423",
      "osm_id": 7726842824,
      "amenity": "restaurant",
      "opening_hours": "Mo-Th 11:00-24:00, Fr-Sa 11:00-02:00, Su 11:00-22:00",
      "website": "http://www.vintage-423.com/",
      "phone": "+1-505-821-1918",
      "outdoor_seating": "yes",
      "addr_state": "NM",
      "addr_city": "Albuquerque",
      "addr_postcode": "87122",
      "addr_street": "Paseo del Norte Boulevard Northeast",
      "addr_housenumber": "8000",
      "angle": 51.06601098144671
    },
    {
      "id": 244484,
      "geometry": "POINT (-106.562613 35.174857)",
      "poi_name": "Thai Spice",
      "osm_id": 7726890501,
      "amenity": "restaurant",
      "cuisine": "thai",
      "opening_hours": "Mo-Sa 11:00-21:00; Su 12:00-20:00",
      "website": "https://www.thaispiceabq.com/",
      "phone": "+1-505-503-1521",
      "addr_state": "NM",
      "addr_city": "Albuquerque",
      "addr_postcode": "87113",
      "addr_street": "Paseo del Norte Boulevard Northeast",
      "addr_housenumber": "7441",
      "angle": 49.47924436129178
    },
    {
      "id": 244941,
      "geometry": "POINT (-106.5557 35.175271)",
      "poi_name": "Azuma",
      "osm_id": 7752495862,
      "amenity": "restaurant",
      "cuisine": "sushi",
      "website": "https://www.azuma-sushi-teppan-abq.com/wyoming",
      "phone": "+1-505-821-3583",
      "takeaway": "yes",
      "addr_state": "NM",
      "addr_city": "Albuquerque",
      "addr_postcode": "87113",
      "addr_street": "Wymong Blvd NE",
      "addr_housenumber": "8401",
      "angle": 50.95978563214638
    }
  ],
  "answer_type": "angle",
  "question_entities": {
    "[1]": {
      "main_category": "amenity",
      "sub_category": "restaurant"
    },
    "[2]": {
      "distance": 30000,
      "text": "30 kilometers"
    },
    "[3]": {
      "main_category": "tourism",
      "sub_category": "aquarium",
      "display_name": "ABQ BioPark (Aquarium), Albuquerque, NM",
      "geo_wkt": "POINT (-106.678998 35.093235)",
      "poi": {
        "id": 6226,
        "geometry": "POINT (-106.678998 35.093235)",
        "poi_name": "ABQ BioPark (Aquarium)",
        "osm_id": 1788029735,
        "tourism": "aquarium",
        "wikidata": "Q4712807",
        "addr_state": "NM",
        "addr_city": "Albuquerque"
      }
    }
  },
  "id": 1054,
  "type": "range+angle"
}