{
  "question": "Could you track down a Sushi restaurant that is conveniently situated within 40 kilometers from Bowditch Middle School Auditorium, Foster City, CA?",
  "sql": "SELECT * FROM pois\nWHERE ST_DWithin(pois.geometry, ST_GeomFromText('POINT (-122.248613 37.559053)',4326)::geography, 40000)\nAND amenity = 'restaurant'\nAND cuisine ILIKE '%Sushi%';\n",
  "answers": [
    {
      "id": 27388,
      "geometry": "POINT (-122.442275 37.799938)",
      "poi_name": "Asa Sushi",
      "osm_id": 416683850,
      "amenity": "restaurant",
      "cuisine": "sushi",
      "opening_hours": "Mo-Th 11:30-14:30,17:30-22:00;Fr 11:30-14:30,17:30-23:00;Sa 14:30-15:00,17:30-23:00",
      "website": "http://www.asasushisf.com/",
      "phone": "+1 415-345-8263",
      "addr_state": "CA",
      "addr_city": "San Francisco",
      "addr_street": "Chestnut Street",
      "addr_housenumber": "2365"
    },
    {
      "id": 27481,
      "geometry": "POINT (-122.421718 37.765092)",
      "poi_name": "v16 Sushi Lounge",
      "osm_id": 423739999,
      "amenity": "restaurant",
      "cuisine": "sushi"
    },
    {
      "id": 27558,
      "geometry": "POINT (-122.420622 37.783047)",
      "poi_name": "Ike's Kitchen",
      "osm_id": 432817745,
      "amenity": "restaurant",
      "cuisine": "sushi",
      "opening_hours": "Mo-Th 11:00-14:30,17:00-21:30; Fr,Sa 11:00-14:30,17:00-22:30; Su 17:00-21:00",
      "website": "https://www.ikeskitchensf.com/",
      "phone": "+1 415 7755800",
      "takeaway": "yes",
      "outdoor_seating": "no",
      "addr_state": "CA",
      "addr_city": "San Francisco",
      "addr_postcode": "94109",
      "addr_street": "Van Ness Avenue",
      "addr_housenumber": "800"
    },
    {
      "id": 27922,
      "geometry": "POINT (-122.182977 37.453332)",
      "poi_name": "Kyosho",
      "osm_id": 458678255,
      "amenity": "restaurant",
      "cuisine": "sushi;japanese;seafood",
      "addr_state": "CA",
      "addr_city": "Menlo Park",
      "addr_postcode": "94025",
      "addr_street": "Santa Cruz Avenue",
      "addr_housenumber": "605"
    },
    {
      "id": 30673,
      "geometry": "POINT (-121.978235 37.315409)",
      "poi_name": "Tomisushi",
      "osm_id": 8373627257,
      "amenity": "restaurant",
      "cuisine": "sushi",
      "operator": "North Village International inc",
      "addr_state": "CA",
      "addr_city": "San Jose",
      "addr_postcode": "95129",
      "addr_street": "Moorpark Avenue",
      "addr_housenumber": "4336"
    },
    {
      "id": 33184,
      "geometry": "POINT (-122.492877 37.781523)",
      "poi_name": "Oyaji",
      "osm_id": 2655525658,
      "amenity": "restaurant",
      "cuisine": "sushi",
      "phone": "(415) 379-3604",
      "addr_city": "San Francisco",
      "addr_postcode": "94121",
      "addr_street": "Clement Street",
      "addr_housenumber": "3123"
    },
    {
      "id": 37540,
      "geometry": "POINT (-122.423883 37.771221)",
      "poi_name": "Sushi Zone",
      "osm_id": 2819234080,
      "amenity": "restaurant",
      "cuisine": "sushi"
    },
    {
      "id": 39463,
      "geometry": "POINT (-122.027865 37.366086)",
      "poi_name": "Katana Sushi & Sake",
      "osm_id": 2922934101,
      "amenity": "restaurant",
      "cuisine": "sushi",
      "addr_state": "CA",
      "addr_city": "Sunnyvale",
      "addr_postcode": "94087",
      "addr_street": "East El Camino Real",
      "addr_housenumber": "411"
    },
    {
      "id": 44744,
      "geometry": "POINT (-121.973394 37.499905)",
      "poi_name": "Toro Sushi & Stone Grill & Bar",
      "osm_id": 3173594964,
      "amenity": "restaurant",
      "cuisine": "sushi;japanesefood;partyrestaurant;grillrestaurant;barbecue_restaurant;sushirestaurant;sushi_and_grill",
      "wheelchair": "limited",
      "opening_hours": "Mo-Fr 11:00-14:30,17:00-21:30; Sa 11:30-22:30; Su 11:30-21:30",
      "website": "https://www.torofremont.com",
      "phone": "(510) 683-8800",
      "takeaway": "yes",
      "delivery": "yes",
      "addr_state": "CA",
      "addr_city": "Fremont",
      "addr_postcode": "94538",
      "addr_street": "Boscell Road",
      "addr_housenumber": "43785"
    },
    {
      "id": 45206,
      "geometry": "POINT (-122.26967 37.881638)",
      "poi_name": "Kamado Sushi",
      "osm_id": 3194482961,
      "amenity": "restaurant",
      "cuisine": "japanese;sushi",
      "addr_state": "CA",
      "addr_city": "Berkeley",
      "addr_street": "Shattuck Avenue",
      "addr_housenumber": "1400"
    },
    {
      "id": 45398,
      "geometry": "POINT (-122.426804 37.743111)",
      "poi_name": "Oki Sushi",
      "osm_id": 3204993510,
      "amenity": "restaurant",
      "cuisine": "sushi",
      "addr_city": "San Francisco",
      "addr_street": "Church Street",
      "addr_housenumber": "1740"
    },
    {
      "id": 48725,
      "geometry": "POINT (-122.406788 37.783157)",
      "poi_name": "Kaisen Sushi",
      "osm_id": 3397768268,
      "amenity": "restaurant",
      "cuisine": "japanese;sushi",
      "website": "https://kaisensushi.com",
      "takeaway": "yes",
      "addr_state": "CA",
      "addr_city": "San Francisco",
      "addr_street": "5th Street",
      "addr_housenumber": "71"
    },
    {
      "id": 49287,
      "geometry": "POINT (-122.263942 37.832014)",
      "poi_name": "Kansai",
      "osm_id": 3424329197,
      "amenity": "restaurant",
      "cuisine": "sushi;japanese",
      "wheelchair": "yes",
      "opening_hours": "Mo-Th,Su 11:30-23:30; Fr-Sa 11:30-24:30",
      "website": "http://www.orderkansai.com",
      "capacity": "98",
      "phone": "(510) 658-7273",
      "takeaway": "yes",
      "outdoor_seating": "no",
      "addr_housenumber": "4345"
    },
    {
      "id": 50798,
      "geometry": "POINT (-122.035364 37.591563)",
      "poi_name": "Fishday",
      "osm_id": 3507563065,
      "amenity": "restaurant",
      "cuisine": "sushi;korean;ramen;fish_and_chips",
      "addr_state": "CA",
      "addr_city": "Union City",
      "addr_postcode": "94587",
      "addr_street": "Alvarado-Niles Road",
      "addr_housenumber": "33592"
    },
    {
      "id": 51840,
      "geometry": "POINT (-121.945979 37.410898)",
      "poi_name": "Sendo Sushi",
      "osm_id": 563360022,
      "amenity": "restaurant",
      "cuisine": "sushi",
      "addr_city": "San Jose",
      "addr_postcode": "95134",
      "addr_street": "North 1st Street",
      "addr_housenumber": "3730"
    },
    {
      "id": 52868,
      "geometry": "POINT (-122.428655 37.765944)",
      "poi_name": "Warakubune Sushi",
      "osm_id": 10051891853,
      "amenity": "restaurant",
      "cuisine": "sushi",
      "phone": "+1 415 252 8383",
      "addr_street": "Church Street",
      "addr_housenumber": "301"
    },
    {
      "id": 54275,
      "geometry": "POINT (-122.403674 37.77987)",
      "poi_name": "Izakaya Hon",
      "osm_id": 10124769381,
      "amenity": "restaurant",
      "cuisine": "sushi",
      "opening_hours": "Th 17:00-22:00; Fr 17:00-24:00; Sa 00:00-01:30,17:00-25:30; Su 00:00-01:30,17:00-22:00; Mo 17:00-22:00",
      "website": "https://www.izakayahonsf.com/",
      "phone": "+1 415 787 7842",
      "addr_postcode": "94107",
      "addr_street": "Folsom Street",
      "addr_housenumber": "917"
    },
    {
      "id": 56391,
      "geometry": "POINT (-121.875676 37.677096)",
      "poi_name": "Meiko Sushi",
      "osm_id": 10234937217,
      "amenity": "restaurant",
      "cuisine": "sushi",
      "website": "https://meikosushi.com/",
      "phone": "+1-925-462-3321",
      "addr_street": "Valley Avenue",
      "addr_housenumber": "4301"
    },
    {
      "id": 62946,
      "geometry": "POINT (-122.412178 37.788891)",
      "poi_name": "Sanraku",
      "osm_id": 5595106442,
      "amenity": "restaurant",
      "cuisine": "japanese;sushi",
      "opening_hours": "Su-Th 11:30-21:00; Fr,Sa 11:30-22:00",
      "website": "https://www.sanraku.com/sanraku-on-sutter/",
      "phone": "+1 415 7710803",
      "addr_state": "CA",
      "addr_city": "San Francisco",
      "addr_postcode": "94109",
      "addr_street": "Sutter Street",
      "addr_housenumber": "704"
    },
    {
      "id": 58901,
      "geometry": "POINT (-121.910788 37.70478)",
      "poi_name": "Yanagi Sushi & Grill",
      "osm_id": 5402288571,
      "amenity": "restaurant",
      "cuisine": "sushi",
      "opening_hours": "Mo-Su 11:30-14:30,17:00-22:00",
      "addr_street": "Dublin Boulevard",
      "addr_housenumber": "6599"
    },
    {
      "id": 67565,
      "geometry": "POINT (-121.96303 37.510605)",
      "poi_name": "Kaku a Sushi",
      "osm_id": 11240215650,
      "amenity": "restaurant",
      "cuisine": "sushi;japanese",
      "takeaway": "yes",
      "addr_state": "CA",
      "addr_city": "Fremont",
      "addr_street": "Grimmer Boulevard",
      "addr_housenumber": "43472"
    },
    {
      "id": 63550,
      "geometry": "POINT (-122.019302 37.358055)",
      "poi_name": "Ariake Sushi Boat",
      "osm_id": 5621056925,
      "amenity": "restaurant",
      "cuisine": "sushi"
    },
    {
      "id": 65505,
      "geometry": "POINT (-122.045671 37.547382)",
      "poi_name": "Zenzen Sushi Express",
      "osm_id": 5698955071,
      "amenity": "restaurant",
      "cuisine": "sushi"
    },
    {
      "id": 73168,
      "geometry": "POINT (-122.420728 37.63968)",
      "poi_name": "Mijouri SushiBune",
      "osm_id": 9611822734,
      "amenity": "restaurant",
      "cuisine": "sushi"
    },
    {
      "id": 67966,
      "geometry": "POINT (-122.420629 37.806154)",
      "poi_name": "Grandeho\u2019s Kamekyo",
      "osm_id": 11254215583,
      "amenity": "restaurant",
      "cuisine": "sushi",
      "addr_street": "Hyde Street",
      "addr_housenumber": "2721"
    },
    {
      "id": 69480,
      "geometry": "POINT (-122.487879 37.633114)",
      "poi_name": "Go Sushi Japanese Restaurant",
      "osm_id": 11306544480,
      "amenity": "restaurant",
      "cuisine": "japanese;sushi",
      "website": "https://gosushitogo.com/",
      "phone": "+1-650-738-9389",
      "addr_state": "CA",
      "addr_city": "Pacifica",
      "addr_postcode": "94044",
      "addr_street": "Eureka Drive",
      "addr_housenumber": "190"
    },
    {
      "id": 70326,
      "geometry": "POINT (-121.979776 37.780977)",
      "poi_name": "Golden Sushi",
      "osm_id": 11359314693,
      "amenity": "restaurant",
      "cuisine": "sushi"
    },
    {
      "id": 71799,
      "geometry": "POINT (-122.274981 37.801684)",
      "poi_name": "Delage",
      "osm_id": 11401519142,
      "amenity": "restaurant",
      "cuisine": "sushi",
      "opening_hours": "Tu-Sa 17:30-21:30"
    },
    {
      "id": 74101,
      "geometry": "POINT (-122.403714 37.796486)",
      "poi_name": "Roka Akor",
      "osm_id": 9667113769,
      "amenity": "restaurant",
      "cuisine": "japanese;sushi;steak_house",
      "wheelchair": "yes",
      "website": "https://www.rokaakor.com/san-francisco/",
      "phone": "+1 415 362 8887"
    },
    {
      "id": 74281,
      "geometry": "POINT (-122.428257 37.786871)",
      "poi_name": "Aoba",
      "osm_id": 9673465967,
      "amenity": "restaurant",
      "cuisine": "sushi;japanese",
      "opening_hours": "Tu-Sa 17:00-21:30",
      "website": "https://www.sushiaoba.com/",
      "phone": "415 - 658 - 7388",
      "addr_state": "CA",
      "addr_city": "San Francisco",
      "addr_postcode": "94115",
      "addr_street": "Laguna Street",
      "addr_housenumber": "1700"
    },
    {
      "id": 74287,
      "geometry": "POINT (-122.491081 37.753456)",
      "poi_name": "Sushi Genki",
      "osm_id": 9673724595,
      "amenity": "restaurant",
      "cuisine": "sushi",
      "wheelchair": "yes",
      "website": "https://www.sushigenkisf.com/",
      "phone": "+1-415-753-9383",
      "addr_state": "CA",
      "addr_city": "San Francisco",
      "addr_postcode": "94122",
      "addr_street": "Noriega Street",
      "addr_housenumber": "2543"
    },
    {
      "id": 74369,
      "geometry": "POINT (-122.420501 37.782457)",
      "poi_name": "Kitchen Aloha",
      "osm_id": 9677975765,
      "amenity": "restaurant",
      "cuisine": "poke;sushi;japanese",
      "opening_hours": "Su-Fr 11:00-14:00,17:30-21:00; PH,Sa off",
      "addr_state": "CA",
      "addr_city": "San Francisco",
      "addr_street": "Van Ness Avenue",
      "addr_housenumber": "752"
    },
    {
      "id": 75239,
      "geometry": "POINT (-122.418281 37.765037)",
      "poi_name": "Maruya",
      "osm_id": 9719772830,
      "amenity": "restaurant",
      "cuisine": "sushi",
      "wheelchair": "yes",
      "opening_hours": "Mo,Tu off; We,Th 17:30-19:00; Fr,Sa 17:30-20:00; Su 17:30-19:00",
      "website": "https://www.maruyasf.org/",
      "phone": "+1 415 5030702",
      "takeaway": "no",
      "outdoor_seating": "no",
      "addr_state": "CA",
      "addr_city": "San Francisco",
      "addr_postcode": "94103",
      "addr_street": "16th Street",
      "addr_housenumber": "2931"
    },
    {
      "id": 75033,
      "geometry": "POINT (-121.919405 37.799846)",
      "poi_name": "Blue Gingko Blackhawk",
      "osm_id": 9708070948,
      "amenity": "restaurant",
      "cuisine": "sushi",
      "addr_street": "Blackhawk Plaza Circle",
      "addr_housenumber": "3496"
    },
    {
      "id": 76863,
      "geometry": "POINT (-122.081293 37.425908)",
      "poi_name": "Sushi Confidential",
      "osm_id": 9795735563,
      "amenity": "restaurant",
      "cuisine": "sushi"
    },
    {
      "id": 76342,
      "geometry": "POINT (-122.41977 37.786708)",
      "poi_name": "Kuma Sushi + Sake",
      "osm_id": 9771155020,
      "amenity": "restaurant",
      "cuisine": "japanese;sushi",
      "wheelchair": "yes",
      "opening_hours": "Mo-Su 12:00-14:00,17:30-22:00",
      "website": "https://www.kumasf.com/",
      "phone": "+1 415 9627400",
      "outdoor_seating": "no",
      "addr_state": "CA",
      "addr_city": "San Francisco",
      "addr_postcode": "94109",
      "addr_street": "Polk Street",
      "addr_housenumber": "1040"
    },
    {
      "id": 77964,
      "geometry": "POINT (-122.420415 37.786891)",
      "poi_name": "Sushi Sato",
      "osm_id": 732009029,
      "amenity": "restaurant",
      "cuisine": "sushi;japanese",
      "website": "https://www.sushisatosf.com/",
      "phone": "+1 415 8518830",
      "addr_state": "CA",
      "addr_city": "San Francisco",
      "addr_street": "Post Street",
      "addr_housenumber": "1122"
    },
    {
      "id": 77904,
      "geometry": "POINT (-122.410396 37.78721)",
      "poi_name": "Katana-Ya",
      "osm_id": 725096410,
      "amenity": "restaurant",
      "cuisine": "sushi",
      "website": "http://www.katanayausa.com/",
      "addr_state": "CA",
      "addr_city": "San Francisco",
      "addr_postcode": "94102",
      "addr_street": "Geary Street",
      "addr_housenumber": "430"
    },
    {
      "id": 78900,
      "geometry": "POINT (-122.407671 37.783044)",
      "poi_name": "Sushi Hashiri",
      "osm_id": 765404278,
      "amenity": "restaurant",
      "cuisine": "sushi",
      "addr_postcode": "94103",
      "addr_street": "Mint Plaza",
      "addr_housenumber": "4"
    },
    {
      "id": 81723,
      "geometry": "POINT (-122.241995 37.764912)",
      "poi_name": "Yume Sushi",
      "osm_id": 1659564529,
      "amenity": "restaurant",
      "cuisine": "sushi"
    },
    {
      "id": 79488,
      "geometry": "POINT (-122.408949 37.785717)",
      "poi_name": "Miyabiya Sushi and Grill",
      "osm_id": 808884850,
      "amenity": "restaurant",
      "cuisine": "japanese;sushi",
      "opening_hours": "Mo-Su 11:00-23:00",
      "website": "https://www.miyabiyasf.com/",
      "internet_access": "wlan",
      "phone": "+1 415 9893288",
      "addr_city": "San Francisco",
      "addr_street": "Cyril Magnin Street",
      "addr_housenumber": "115"
    },
    {
      "id": 80812,
      "geometry": "POINT (-122.250803 37.808882)",
      "poi_name": "Coach Sushi",
      "osm_id": 897722651,
      "amenity": "restaurant",
      "cuisine": "sushi",
      "opening_hours": "Tu-Th 17:00-21:30; Fr,Sa 17:00-22:00; Su 17:00-21:30",
      "phone": "+1 510-834-7866",
      "addr_postcode": "94610",
      "addr_street": "Grand Avenue",
      "addr_housenumber": "532"
    },
    {
      "id": 81909,
      "geometry": "POINT (-122.232126 37.484888)",
      "poi_name": "Little Madfish",
      "osm_id": 1669545498,
      "amenity": "restaurant",
      "cuisine": "japanese;sushi",
      "phone": "(650) 299-9800",
      "addr_city": "Redwood City",
      "addr_postcode": "94063",
      "addr_street": "El Camino Real",
      "addr_housenumber": "1021"
    },
    {
      "id": 83137,
      "geometry": "POINT (-122.081029 37.673834)",
      "poi_name": "Kokyo Sushi Buffet",
      "osm_id": 1729958936,
      "amenity": "restaurant",
      "cuisine": "sushi"
    },
    {
      "id": 90372,
      "geometry": "POINT (-122.004597 37.388878)",
      "poi_name": "Sushi Blvd",
      "osm_id": 1993236250,
      "amenity": "restaurant",
      "cuisine": "sushi",
      "website": "http://www.sushiblvd.com/",
      "phone": "4087377183",
      "addr_street": "East Duane Avenue",
      "addr_housenumber": "903"
    },
    {
      "id": 83450,
      "geometry": "POINT (-122.193256 37.402002)",
      "poi_name": "Koma Sushi",
      "osm_id": 1745100453,
      "amenity": "restaurant",
      "cuisine": "sushi",
      "opening_hours": "Mo-Th 11:30-14:00, 16:30-20:00; Fr 11:30-14:00, 16:30-20:30; Sa 16:30-20:30",
      "website": "https://www.komasushiportolavalley.com/",
      "phone": "+1 650 367 6547",
      "outdoor_seating": "yes",
      "addr_city": "Portola Valley",
      "addr_postcode": "94028",
      "addr_street": "Alpine Road",
      "addr_housenumber": "3130"
    },
    {
      "id": 83731,
      "geometry": "POINT (-122.272781 37.871107)",
      "poi_name": "Sushi California",
      "osm_id": 1762442382,
      "amenity": "restaurant",
      "cuisine": "japanese;sushi",
      "wheelchair": "yes",
      "opening_hours": "We-Sa 16:30-21:00",
      "website": "https://www.sushicalif.com/",
      "phone": "+1-510-548-0737",
      "addr_state": "CA",
      "addr_city": "Berkeley",
      "addr_postcode": "94704",
      "addr_street": "Martin Luther King Junior Way",
      "addr_housenumber": "2033"
    },
    {
      "id": 83766,
      "geometry": "POINT (-122.463523 37.777129)",
      "poi_name": "Sushi Bistro",
      "osm_id": 1765718671,
      "amenity": "restaurant",
      "cuisine": "sushi",
      "opening_hours": "We-Mo 17:00-22:30; Tu off",
      "addr_city": "San Francisco",
      "addr_postcode": "94118",
      "addr_street": "Balboa Street",
      "addr_housenumber": "431"
    },
    {
      "id": 85146,
      "geometry": "POINT (-122.43 37.785852)",
      "poi_name": "Kippu",
      "osm_id": 1840697756,
      "amenity": "restaurant",
      "cuisine": "sushi",
      "opening_hours": "Mo,We-Fr 11:00-21:00; Sa,Su 11:00-21:00; Tu off",
      "website": "https://www.kippusushi.com/",
      "phone": "+1 415 3461212"
    },
    {
      "id": 84127,
      "geometry": "POINT (-122.057446 37.371929)",
      "poi_name": "Hanamaru",
      "osm_id": 1777779988,
      "amenity": "restaurant",
      "cuisine": "sushi",
      "opening_hours": "Mo-Fr 11:30-14:30,17:00-22:00; Sa 11:30-22:00; Su 16:30-21:30",
      "outdoor_seating": "no",
      "addr_state": "CA",
      "addr_city": "Sunnyvale",
      "addr_postcode": "94087",
      "addr_street": "South Bernardo Avenue",
      "addr_housenumber": "675"
    },
    {
      "id": 90612,
      "geometry": "POINT (-122.42585 37.770218)",
      "poi_name": "Sushi Delight",
      "osm_id": 2005894112,
      "amenity": "restaurant",
      "cuisine": "sushi",
      "opening_hours": "Th-Mo 17:00-22:00"
    },
    {
      "id": 92236,
      "geometry": "POINT (-122.222609 37.807447)",
      "poi_name": "Sushi Park",
      "osm_id": 2107715322,
      "amenity": "restaurant",
      "cuisine": "sushi",
      "addr_postcode": "94602",
      "addr_street": "Park Boulevard",
      "addr_housenumber": "4209"
    },
    {
      "id": 91038,
      "geometry": "POINT (-122.462105 37.72197)",
      "poi_name": "Yama Sushi",
      "osm_id": 2035873117,
      "amenity": "restaurant",
      "cuisine": "sushi"
    },
    {
      "id": 96873,
      "geometry": "POINT (-121.995888 37.817256)",
      "poi_name": "Sushi Yokohama",
      "osm_id": 6448835981,
      "amenity": "restaurant",
      "cuisine": "sushi"
    },
    {
      "id": 92657,
      "geometry": "POINT (-122.467502 37.73954)",
      "poi_name": "Sushi Sheng",
      "osm_id": 2129923219,
      "amenity": "restaurant",
      "cuisine": "sushi"
    },
    {
      "id": 100718,
      "geometry": "POINT (-122.019018 37.589235)",
      "poi_name": "Sushi Go Go",
      "osm_id": 6595761870,
      "amenity": "restaurant",
      "cuisine": "sushi",
      "opening_hours": "Mo-Su 11:30-21:00",
      "website": "https://unioncity.sushigogo11.com/",
      "phone": "510-952-0098",
      "addr_state": "CA",
      "addr_city": "Union City",
      "addr_postcode": "94587",
      "addr_street": "Decoto Road",
      "addr_housenumber": "1672"
    },
    {
      "id": 106048,
      "geometry": "POINT (-122.402961 37.770606)",
      "poi_name": "Okane",
      "osm_id": 8660771080,
      "amenity": "restaurant",
      "cuisine": "sushi",
      "opening_hours": "Su-Th 11:30-14:00, 16:30-21:00; Fr-Sa 12:00-14:00, 17:00-22:00",
      "website": "https://www.okanesf.com/",
      "phone": "+1 415-865-9788",
      "outdoor_seating": "yes",
      "addr_street": "Townsend Street",
      "addr_housenumber": "669"
    },
    {
      "id": 102474,
      "geometry": "POINT (-121.909973 37.455446)",
      "poi_name": "Ichika",
      "osm_id": 6681957675,
      "amenity": "restaurant",
      "cuisine": "sushi;japanese",
      "website": "https://www.ichikamilpitas.com/",
      "addr_state": "CA",
      "addr_city": "Milpitas",
      "addr_postcode": "95035",
      "addr_street": "North Milpitas Boulevard",
      "addr_housenumber": "1728"
    },
    {
      "id": 101621,
      "geometry": "POINT (-122.476904 37.728003)",
      "poi_name": "Poke Bowl",
      "osm_id": 6635787021,
      "amenity": "restaurant",
      "cuisine": "sushi"
    },
    {
      "id": 104414,
      "geometry": "POINT (-121.985113 37.35204)",
      "poi_name": "Happy Sushi",
      "osm_id": 8568450645,
      "amenity": "restaurant",
      "cuisine": "sushi",
      "addr_state": "CA",
      "addr_city": "Santa Clara",
      "addr_postcode": "95051",
      "addr_street": "El Camino Real",
      "addr_housenumber": "3216"
    },
    {
      "id": 107335,
      "geometry": "POINT (-121.905042 37.33158)",
      "poi_name": "Bluefin",
      "osm_id": 3553393406,
      "amenity": "restaurant",
      "cuisine": "sushi",
      "website": "http://bluefinsanjose.com/",
      "addr_city": "San Jose",
      "addr_postcode": "95126",
      "addr_street": "The Alameda",
      "addr_housenumber": "754"
    },
    {
      "id": 107051,
      "geometry": "POINT (-121.892869 37.349487)",
      "poi_name": "Sushi Maru",
      "osm_id": 3532017127,
      "amenity": "restaurant",
      "cuisine": "sushi",
      "wheelchair": "yes",
      "opening_hours": "Mo,We-Th 11:30-14:00,17:30-20:30; Tu off; Fr-Sa 11:30-14:00,17:30-20:45; Su 11:30-14:00,17:30-20:15",
      "website": "https://sushimarusj.com",
      "phone": "+1 408-998-8170",
      "outdoor_seating": "no",
      "addr_city": "San Jose",
      "addr_postcode": "95112",
      "addr_street": "Jackson Street",
      "addr_housenumber": "262"
    },
    {
      "id": 108334,
      "geometry": "POINT (-122.41881 37.798649)",
      "poi_name": "Elephant Sushi",
      "osm_id": 3609369894,
      "amenity": "restaurant",
      "cuisine": "sushi",
      "outdoor_seating": "no",
      "addr_state": "CA",
      "addr_city": "San Francisco",
      "addr_street": "Hyde Street",
      "addr_housenumber": "1916"
    },
    {
      "id": 107623,
      "geometry": "POINT (-122.402891 37.770661)",
      "poi_name": "Omakase",
      "osm_id": 3570918495,
      "amenity": "restaurant",
      "cuisine": "sushi",
      "website": "http://www.omakasesf.com/",
      "takeaway": "yes",
      "outdoor_seating": "no",
      "addr_street": "Townsend Street",
      "addr_housenumber": "665"
    },
    {
      "id": 109305,
      "geometry": "POINT (-122.466099 37.762624)",
      "poi_name": "Will Sushi",
      "osm_id": 3657172991,
      "amenity": "restaurant",
      "cuisine": "sushi",
      "website": "http://www.willsushisf.com/",
      "addr_state": "CA",
      "addr_city": "San Francisco",
      "addr_postcode": "94122",
      "addr_street": "9th Avenue",
      "addr_housenumber": "1378"
    },
    {
      "id": 109760,
      "geometry": "POINT (-122.29158 37.846544)",
      "poi_name": "Kyu 2 Sushi",
      "osm_id": 3673389760,
      "amenity": "restaurant",
      "cuisine": "sushi"
    },
    {
      "id": 116714,
      "geometry": "POINT (-121.980708 37.323774)",
      "poi_name": "Omee J Fusion Sushi Bar & Grill",
      "osm_id": 8955569093,
      "amenity": "restaurant",
      "cuisine": "sushi",
      "operator": "Omee J, Inc",
      "addr_state": "CA",
      "addr_city": "Santa Clara",
      "addr_postcode": "95051",
      "addr_street": "Stevens Creek Boulevard",
      "addr_housenumber": "4477"
    },
    {
      "id": 111847,
      "geometry": "POINT (-122.061369 37.396619)",
      "poi_name": "Joy Sushi",
      "osm_id": 3764833760,
      "amenity": "restaurant",
      "cuisine": "sushi",
      "takeaway": "yes",
      "addr_state": "CA",
      "addr_city": "Mountain View",
      "addr_postcode": "94043",
      "addr_street": "E Middlefield Rd",
      "addr_housenumber": "225-1B"
    },
    {
      "id": 112564,
      "geometry": "POINT (-122.267888 37.805797)",
      "poi_name": "Sushi Villa",
      "osm_id": 3796598571,
      "amenity": "restaurant",
      "cuisine": "sushi",
      "addr_street": "17th Street",
      "addr_housenumber": "367"
    },
    {
      "id": 120470,
      "geometry": "POINT (-122.426374 37.625704)",
      "poi_name": "Sunny Sushi",
      "osm_id": 6704967529,
      "amenity": "restaurant",
      "cuisine": "sushi",
      "website": "http://www.sunnysushi.us/",
      "phone": "+1-650-873-8518"
    },
    {
      "id": 118464,
      "geometry": "POINT (-122.430728 37.764066)",
      "poi_name": "Eiji",
      "osm_id": 9046814949,
      "amenity": "restaurant",
      "cuisine": "japanese;tofu;sushi",
      "opening_hours": "Tu-Fr 16:00-21:30; Sa-Su 11:30-21:30",
      "phone": "+1 415 558 8149",
      "addr_state": "CA",
      "addr_city": "San Francisco",
      "addr_postcode": "94114",
      "addr_street": "Sanchez Street",
      "addr_housenumber": "317"
    },
    {
      "id": 117753,
      "geometry": "POINT (-122.283386 37.891289)",
      "poi_name": "Mainichi",
      "osm_id": 9008685685,
      "amenity": "restaurant",
      "cuisine": "japanese;sushi;ramen",
      "wheelchair": "yes",
      "opening_hours": "Tu-Su 11:45-21:30",
      "website": "https://mainichisushi.menu11.com",
      "phone": "(510) 280-5037",
      "outdoor_seating": "no",
      "addr_state": "CA",
      "addr_city": "Berkeley",
      "addr_street": "Solano Avenue",
      "addr_housenumber": "1647"
    },
    {
      "id": 117777,
      "geometry": "POINT (-122.034491 37.852084)",
      "poi_name": "Ha-La Sushi",
      "osm_id": 9008922859,
      "amenity": "restaurant",
      "cuisine": "sushi"
    },
    {
      "id": 120375,
      "geometry": "POINT (-122.458293 37.775721)",
      "poi_name": "Okina Sushi",
      "osm_id": 6700788013,
      "amenity": "restaurant",
      "cuisine": "sushi",
      "opening_hours": "Th-Sa 17:30-21:00; PH closed",
      "addr_state": "CA",
      "addr_city": "San Francisco",
      "addr_postcode": "94118",
      "addr_street": "Arguello Boulevard",
      "addr_housenumber": "776"
    },
    {
      "id": 120972,
      "geometry": "POINT (-122.192392 37.885477)",
      "poi_name": "Hanazen",
      "osm_id": 6736576875,
      "amenity": "restaurant",
      "cuisine": "sushi",
      "addr_state": "CA",
      "addr_city": "Orinda",
      "addr_postcode": "94563",
      "addr_street": "Orinda Way"
    },
    {
      "id": 120539,
      "geometry": "POINT (-122.087976 37.614003)",
      "poi_name": "Katsuo Sushi and Grill",
      "osm_id": 6709375251,
      "amenity": "restaurant",
      "cuisine": "sushi",
      "opening_hours": "Mo-Su 11:00-21:00",
      "phone": "+1 510-963-5921",
      "addr_state": "CA",
      "addr_city": "Hayward",
      "addr_postcode": "94545",
      "addr_street": "Hesperian Boulevard",
      "addr_housenumber": "28569"
    },
    {
      "id": 120990,
      "geometry": "POINT (-122.191682 37.884264)",
      "poi_name": "Niwa Sushi Bar",
      "osm_id": 6737352370,
      "amenity": "restaurant",
      "cuisine": "sushi",
      "addr_state": "CA",
      "addr_city": "Orinda",
      "addr_postcode": "94563",
      "addr_street": "Camino Sobrante"
    },
    {
      "id": 123543,
      "geometry": "POINT (-122.308998 37.547833)",
      "poi_name": "Daiki Sushi",
      "osm_id": 6861293085,
      "amenity": "restaurant",
      "cuisine": "japanese;sushi",
      "opening_hours": "Mo-Fr 11:00-15:00, 17:00-21:30; Sa-Su 12:00-21:30",
      "website": "http://daikisushi.com",
      "internet_access": "wlan",
      "phone": "6505229698",
      "addr_postcode": "94403",
      "addr_street": "El Camino Real",
      "addr_housenumber": "2075"
    },
    {
      "id": 123125,
      "geometry": "POINT (-122.423212 37.777278)",
      "poi_name": "Tsubasa Sushi",
      "osm_id": 6835893289,
      "amenity": "restaurant",
      "cuisine": "sushi;japanese",
      "opening_hours": "Tu-Th 17:30-22:00; Fr,Sa 17:30-22:30; Su 17:30-21:30",
      "phone": "+1-415-551-9688",
      "addr_state": "CA",
      "addr_city": "San Francisco",
      "addr_postcode": "94102",
      "addr_street": "Gough Street",
      "addr_housenumber": "429"
    },
    {
      "id": 122742,
      "geometry": "POINT (-122.296648 37.883796)",
      "poi_name": "Yo Sushi",
      "osm_id": 6816373538,
      "amenity": "restaurant",
      "cuisine": "sushi",
      "wheelchair": "yes",
      "opening_hours": "Tu-Su 11:00-21:00",
      "website": "https://www.grubhub.com/restaurant/yo-sushi-1107-san-pablo-ave-albany/2053385",
      "phone": "5105589500",
      "outdoor_seating": "yes",
      "addr_state": "CA",
      "addr_city": "Albany",
      "addr_postcode": "94706",
      "addr_street": "San Pablo Avenue",
      "addr_housenumber": "1107"
    },
    {
      "id": 125469,
      "geometry": "POINT (-122.406051 37.793478)",
      "poi_name": "Sushi Boat Restaurant",
      "osm_id": 6960980686,
      "amenity": "restaurant",
      "cuisine": "japanese;sushi",
      "wheelchair": "yes",
      "phone": "+1 415-872-9008",
      "addr_street": "Grant Avenue",
      "addr_housenumber": "700"
    },
    {
      "id": 126076,
      "geometry": "POINT (-122.48582 37.78211)",
      "poi_name": "Shoshin Sushi",
      "osm_id": 6983819344,
      "amenity": "restaurant",
      "cuisine": "japanese;sushi",
      "opening_hours": "Mo,We-Su 17:00-21:00; Tu off",
      "website": "https://www.shoshinsushi.com",
      "phone": "+1 415-386-8008",
      "addr_state": "CA",
      "addr_city": "San Francisco",
      "addr_postcode": "94121",
      "addr_street": "Clement Street",
      "addr_housenumber": "2450"
    },
    {
      "id": 131985,
      "geometry": "POINT (-121.977351 37.773728)",
      "poi_name": "Senro Sushi",
      "osm_id": 9936988745,
      "amenity": "restaurant",
      "cuisine": "sushi"
    },
    {
      "id": 130581,
      "geometry": "POINT (-122.419765 37.807497)",
      "poi_name": "Flying Ninja",
      "osm_id": 9877596415,
      "amenity": "restaurant",
      "cuisine": "sushi",
      "opening_hours": "Mo-Th,Su 11:00-21:00; Fr-Sa 11:00-22:00",
      "website": "https://www.flyingninjasf.com/",
      "phone": "+1 415 2926255",
      "outdoor_seating": "yes",
      "addr_state": "CA",
      "addr_city": "San Francisco",
      "addr_postcode": "94133",
      "addr_street": "Jefferson Street",
      "addr_housenumber": "461"
    },
    {
      "id": 131970,
      "geometry": "POINT (-121.951556 37.764155)",
      "poi_name": "Sachi Sushi",
      "osm_id": 9936345019,
      "amenity": "restaurant",
      "cuisine": "sushi",
      "addr_street": "Market Place",
      "addr_housenumber": "390"
    },
    {
      "id": 130351,
      "geometry": "POINT (-122.424007 37.761662)",
      "poi_name": "Handroll Project",
      "osm_id": 9867164488,
      "amenity": "restaurant",
      "cuisine": "sushi",
      "opening_hours": "We-Su 17:00-21:00",
      "website": "https://www.handrollproject.com/",
      "takeaway": "no",
      "addr_state": "CA",
      "addr_city": "San Francisco",
      "addr_postcode": "94110",
      "addr_street": "Guerrero Street",
      "addr_housenumber": "598"
    },
    {
      "id": 149666,
      "geometry": "POINT (-122.481148 37.763515)",
      "poi_name": "Sushi Uma",
      "osm_id": 4018792713,
      "amenity": "restaurant",
      "cuisine": "sushi",
      "website": "https://www.thesushiuma.com/",
      "takeaway": "only",
      "addr_state": "CA",
      "addr_city": "San Francisco",
      "addr_postcode": "94122",
      "addr_street": "Irving Street",
      "addr_housenumber": "2146"
    },
    {
      "id": 132480,
      "geometry": "POINT (-122.417264 37.786315)",
      "poi_name": "Fishmandu Sushi",
      "osm_id": 9956008708,
      "amenity": "restaurant",
      "cuisine": "sushi",
      "website": "https://www.fishmandusushi.com/",
      "phone": "+1 415 8008777",
      "takeaway": "yes",
      "outdoor_seating": "no",
      "addr_state": "CA",
      "addr_city": "San Francisco",
      "addr_postcode": "94109",
      "addr_street": "Geary Street",
      "addr_housenumber": "846"
    },
    {
      "id": 133449,
      "geometry": "POINT (-122.422202 37.778068)",
      "poi_name": "Zenpo Sushi",
      "osm_id": 9994039368,
      "amenity": "restaurant",
      "cuisine": "sushi",
      "description": "Bullet train sushi"
    },
    {
      "id": 141617,
      "geometry": "POINT (-122.40987 37.654973)",
      "poi_name": "Izanami",
      "osm_id": 6291812183,
      "amenity": "restaurant",
      "cuisine": "sushi"
    },
    {
      "id": 132623,
      "geometry": "POINT (-122.001439 37.822411)",
      "poi_name": "Sushi Bar Hana",
      "osm_id": 9960370102,
      "amenity": "restaurant",
      "cuisine": "sushi"
    },
    {
      "id": 138496,
      "geometry": "POINT (-122.473584 37.780409)",
      "poi_name": "Ariake",
      "osm_id": 6152485455,
      "amenity": "restaurant",
      "cuisine": "japanese;sushi",
      "opening_hours": "Mo-Th 11:30-14:30,17:00-22:00; Fr 11:30-14:30,17:00-23:00; Sa 12:00-15:00,17:00-23:00; Su off",
      "addr_street": "Geary Boulevard",
      "addr_housenumber": "5041"
    },
    {
      "id": 148042,
      "geometry": "POINT (-121.897003 37.677202)",
      "poi_name": "Sato Japanese",
      "osm_id": 3926051703,
      "amenity": "restaurant",
      "cuisine": "sushi",
      "opening_hours": "Tu-Fr 11:30-14:00,17:00-21:15;Sa-Su 17:00-21:45",
      "addr_state": "CA",
      "addr_city": "Pleasanton",
      "addr_postcode": "94566",
      "addr_street": "Hopyard Road",
      "addr_housenumber": "3015"
    },
    {
      "id": 149717,
      "geometry": "POINT (-122.420977 37.792654)",
      "poi_name": "Fish N Gari",
      "osm_id": 4022663820,
      "amenity": "restaurant",
      "cuisine": "sushi",
      "addr_city": "San Francisco",
      "addr_street": "Polk Street",
      "addr_housenumber": "1718"
    },
    {
      "id": 150466,
      "geometry": "POINT (-122.422105 37.772637)",
      "poi_name": "Rocket Sushi",
      "osm_id": 4055719117,
      "amenity": "restaurant",
      "cuisine": "sushi",
      "phone": "+1 415-872-9368",
      "takeaway": "yes",
      "addr_state": "CA",
      "addr_city": "San Francisco",
      "addr_postcode": "94103",
      "addr_street": "Market Street",
      "addr_housenumber": "1695"
    },
    {
      "id": 150404,
      "geometry": "POINT (-122.079424 37.416302)",
      "poi_name": "Hon Sushi",
      "osm_id": 4053643839,
      "amenity": "restaurant",
      "cuisine": "japanese;sushi",
      "wheelchair": "yes",
      "opening_hours": "Mo 10:30-14:30; Tu-Su 10:30-21:00",
      "website": "https://honsushi.eat24hour.com/",
      "drive_through": "no",
      "addr_state": "CA",
      "addr_city": "Mountain View",
      "addr_postcode": "94043",
      "addr_street": "Plymouth Street",
      "addr_housenumber": "1477"
    },
    {
      "id": 150926,
      "geometry": "POINT (-122.263096 37.832101)",
      "poi_name": "Koryo",
      "osm_id": 4073823480,
      "amenity": "restaurant",
      "cuisine": "sushi",
      "takeaway": "yes",
      "delivery": "no",
      "addr_street": "Telegraph Avenue",
      "addr_housenumber": "4390"
    },
    {
      "id": 152639,
      "geometry": "POINT (-121.976022 37.352822)",
      "poi_name": "Hana Sushi",
      "osm_id": 4152403889,
      "amenity": "restaurant",
      "cuisine": "sushi",
      "website": "Hanasushitogo.com",
      "phone": "(408)-554-0852",
      "addr_street": "El Camino Real"
    },
    {
      "id": 151092,
      "geometry": "POINT (-122.423355 37.777941)",
      "poi_name": "Elephant Sushi",
      "osm_id": 4081574783,
      "amenity": "restaurant",
      "cuisine": "sushi",
      "wheelchair": "yes",
      "addr_state": "CA",
      "addr_city": "San Francisco",
      "addr_postcode": "94102",
      "addr_street": "Grove Street",
      "addr_housenumber": "400"
    },
    {
      "id": 152410,
      "geometry": "POINT (-122.404679 37.79058)",
      "poi_name": "Akiko's",
      "osm_id": 4143689799,
      "amenity": "restaurant",
      "cuisine": "sushi",
      "opening_hours": "Mo-Fr 11:30-14:30, 17:30-21:00; Sa 17:30-21:00",
      "website": "http://akikosrestaurant.com/",
      "phone": "+1 415-397-3218",
      "addr_state": "CA",
      "addr_city": "San Francisco",
      "addr_postcode": "94108",
      "addr_street": "Bush Street",
      "addr_housenumber": "431"
    },
    {
      "id": 170818,
      "geometry": "POINT (-122.26846 37.870824)",
      "poi_name": "Sushi Secrets",
      "osm_id": 2350137845,
      "amenity": "restaurant",
      "cuisine": "sushi",
      "opening_hours": "Mo-Sa 11:00-20:00",
      "addr_state": "CA",
      "addr_city": "Berkeley",
      "addr_street": "Shattuck Avenue",
      "addr_housenumber": "2110"
    },
    {
      "id": 160931,
      "geometry": "POINT (-121.925664 37.366026)",
      "poi_name": "Sushi Boat",
      "osm_id": 4853674929,
      "amenity": "restaurant",
      "cuisine": "sushi",
      "opening_hours": "Su-Fr 10:30-24:00"
    },
    {
      "id": 164810,
      "geometry": "POINT (-122.428729 37.766755)",
      "poi_name": "Sancha Sushi",
      "osm_id": 9501894310,
      "amenity": "restaurant",
      "cuisine": "sushi",
      "opening_hours": "Th-Su 13:00-18:00 open \"Lunch\", We-Su 18:00-21:00 open \"Dinner\"",
      "website": "https://sanchasushi.com/",
      "phone": "+1 415 8749335",
      "takeaway": "yes",
      "addr_state": "CA",
      "addr_city": "San Francisco",
      "addr_street": "Church Street",
      "addr_housenumber": "253"
    },
    {
      "id": 166116,
      "geometry": "POINT (-122.258034 37.868215)",
      "poi_name": "Katsumi Sushi",
      "osm_id": 9574578737,
      "amenity": "restaurant",
      "cuisine": "sushi",
      "outdoor_seating": "yes",
      "addr_state": "CA",
      "addr_city": "Berkeley",
      "addr_street": "Durant Avenue",
      "addr_housenumber": "2521"
    },
    {
      "id": 166658,
      "geometry": "POINT (-122.144204 37.427865)",
      "poi_name": "Homma\u2019s Brown Rice Sushi",
      "osm_id": 303809254,
      "amenity": "restaurant",
      "cuisine": "sushi"
    },
    {
      "id": 166838,
      "geometry": "POINT (-122.088367 37.37195)",
      "poi_name": "Shiba Sushi",
      "osm_id": 314150535,
      "amenity": "restaurant",
      "cuisine": "sushi"
    },
    {
      "id": 167178,
      "geometry": "POINT (-122.28456 37.891223)",
      "poi_name": "Kyoto",
      "osm_id": 343610946,
      "amenity": "restaurant",
      "cuisine": "sushi",
      "wheelchair": "yes",
      "opening_hours": "Mo-Fr 11:00-19:30; Sa 11:00-18:30; Su 11:00-16:00",
      "website": "http://www.kyotosushiberkeley.com/",
      "phone": "(510) 527 3288",
      "takeaway": "only",
      "addr_state": "CA",
      "addr_city": "Berkeley",
      "addr_street": "Solano Avenue",
      "addr_housenumber": "1599"
    },
    {
      "id": 169828,
      "geometry": "POINT (-122.435147 37.760412)",
      "poi_name": "All Season Sushi Bar",
      "osm_id": 2321299176,
      "amenity": "restaurant",
      "cuisine": "sushi",
      "phone": "+1 (415) 626-3605",
      "addr_postcode": "94114",
      "addr_street": "Castro Street",
      "addr_housenumber": "524"
    },
    {
      "id": 170534,
      "geometry": "POINT (-122.437972 37.800212)",
      "poi_name": "Ace Wasabi's",
      "osm_id": 2340083046,
      "amenity": "restaurant",
      "cuisine": "sushi",
      "wheelchair": "no",
      "takeaway": "no",
      "outdoor_seating": "no",
      "addr_city": "San Francisco",
      "addr_street": "Steiner Street",
      "addr_housenumber": "3339"
    },
    {
      "id": 161511,
      "geometry": "POINT (-122.428949 37.772392)",
      "poi_name": "Kibatsu",
      "osm_id": 4884686006,
      "amenity": "restaurant",
      "cuisine": "sushi",
      "website": "https://www.kibatsusushi.com/",
      "phone": "+1 415 872 9636",
      "addr_state": "CA",
      "addr_city": "San Francisco",
      "addr_postcode": "94117",
      "addr_street": "Haight Street",
      "addr_housenumber": "400"
    },
    {
      "id": 162000,
      "geometry": "POINT (-122.421598 37.742717)",
      "poi_name": "ICHI Sushi + NI Bar",
      "osm_id": 4909881786,
      "amenity": "restaurant",
      "cuisine": "sushi",
      "phone": "1-415-525-4750",
      "outdoor_seating": "no",
      "delivery": "no",
      "addr_state": "CA",
      "addr_city": "San Francisco",
      "addr_postcode": "94110",
      "addr_street": "Mission Street",
      "addr_housenumber": "3369"
    },
    {
      "id": 162029,
      "geometry": "POINT (-122.398624 37.793193)",
      "poi_name": "Pabu",
      "osm_id": 4911568322,
      "amenity": "restaurant",
      "cuisine": "japanese;sushi",
      "opening_hours": "Mo-Sa 16:00-21:00",
      "website": "https://www.michaelmina.net/restaurants/pabu/san-francisco/",
      "phone": "+1 415 5350184",
      "takeaway": "yes",
      "outdoor_seating": "yes",
      "addr_state": "CA",
      "addr_city": "San Francisco",
      "addr_postcode": "94111",
      "addr_street": "California Street",
      "addr_housenumber": "101"
    },
    {
      "id": 164218,
      "geometry": "POINT (-122.403464 37.784526)",
      "poi_name": "Bonchon Chicken",
      "osm_id": 9456812856,
      "amenity": "restaurant",
      "cuisine": "chicken;korean;sushi",
      "website": "https://order.bonchon.com/web/3882"
    },
    {
      "id": 166481,
      "geometry": "POINT (-122.337463 37.578208)",
      "poi_name": "Yamo Yamo",
      "osm_id": 265711287,
      "amenity": "restaurant",
      "cuisine": "sushi"
    },
    {
      "id": 166790,
      "geometry": "POINT (-122.239546 37.767638)",
      "poi_name": "Sushi King",
      "osm_id": 310973117,
      "amenity": "restaurant",
      "cuisine": "sushi",
      "website": "sushiking-alameda.com",
      "phone": "1-510-523-9888",
      "addr_city": "Alameda",
      "addr_postcode": "94501",
      "addr_street": "Park Street",
      "addr_housenumber": "1650"
    },
    {
      "id": 166827,
      "geometry": "POINT (-122.268925 37.875258)",
      "poi_name": "Party Sushi",
      "osm_id": 314115617,
      "amenity": "restaurant",
      "cuisine": "sushi",
      "website": "https://partysushisf.com/",
      "phone": "(510) 841-1776",
      "addr_state": "CA",
      "addr_street": "Shattuck Avenue",
      "addr_housenumber": "1776"
    },
    {
      "id": 170524,
      "geometry": "POINT (-122.437928 37.800782)",
      "poi_name": "Naked Fish Sushi",
      "osm_id": 2340005269,
      "amenity": "restaurant",
      "cuisine": "sushi"
    },
    {
      "id": 173662,
      "geometry": "POINT (-122.45238 37.73137)",
      "poi_name": "K's Kitchen",
      "osm_id": 2449308055,
      "amenity": "restaurant",
      "cuisine": "sushi",
      "website": "http://www.kssushisf.com",
      "phone": "+1 (415) 333-8500",
      "addr_postcode": "94127",
      "addr_street": "Monterey Boulevard",
      "addr_housenumber": "757"
    },
    {
      "id": 174440,
      "geometry": "POINT (-122.259598 37.47135)",
      "poi_name": "Asya",
      "osm_id": 2481418723,
      "amenity": "restaurant",
      "cuisine": "thai;sushi;bento",
      "opening_hours": "Mo-Sa 12:00-14:00, 17:00-21:00; Su 17:00-21:00",
      "website": "https://asya.edan.io/",
      "phone": "+1 650 549 8526",
      "addr_city": "Redwood City",
      "addr_street": "Oak Knoll Drive",
      "addr_housenumber": "3215"
    },
    {
      "id": 182008,
      "geometry": "POINT (-122.395786 37.780255)",
      "poi_name": "Wabi-Sabi SF",
      "osm_id": 10874867132,
      "amenity": "restaurant",
      "cuisine": "sushi",
      "opening_hours": "Mo-Fr 11:00-14:30, 17:00-21:30; Sa-Su 12:00-14:30, 17:00-21:30",
      "website": "https://www.wabisabisf.com/",
      "addr_street": "Ritch Street",
      "addr_housenumber": "246"
    },
    {
      "id": 175220,
      "geometry": "POINT (-122.010508 37.56281)",
      "poi_name": "Satomi Sushi",
      "osm_id": 2509015643,
      "amenity": "restaurant",
      "cuisine": "sushi",
      "opening_hours": "Mo,Tu 11:30-14:30,17:00-21:30; We-Fr 11:30-14:30,17:00-22:00; Sa 11:30-22:00; Su 11:30-21:30",
      "phone": "510-792-0700"
    },
    {
      "id": 175611,
      "geometry": "POINT (-122.423814 37.796552)",
      "poi_name": "Wasabi & Ginger",
      "osm_id": 2527519135,
      "amenity": "restaurant",
      "cuisine": "japanese;sushi",
      "addr_city": "San Francisco",
      "addr_postcode": "94109",
      "addr_street": "Van Ness Avenue",
      "addr_housenumber": "2299"
    },
    {
      "id": 177721,
      "geometry": "POINT (-121.983616 37.38938)",
      "poi_name": "yo yo sushi",
      "osm_id": 2603733600,
      "amenity": "restaurant",
      "cuisine": "sushi",
      "phone": "4085679899",
      "addr_housenumber": "3147"
    },
    {
      "id": 179966,
      "geometry": "POINT (-122.210299 37.826185)",
      "poi_name": "TGI Oni Sushi",
      "osm_id": 10783580949,
      "amenity": "restaurant",
      "cuisine": "sushi"
    },
    {
      "id": 181821,
      "geometry": "POINT (-122.290854 37.865931)",
      "poi_name": "Daruma Sushi",
      "osm_id": 10866297164,
      "amenity": "restaurant",
      "cuisine": "sushi"
    },
    {
      "id": 177655,
      "geometry": "POINT (-122.077031 37.377162)",
      "poi_name": "Sushi 85",
      "osm_id": 2600782850,
      "amenity": "restaurant",
      "cuisine": "sushi",
      "addr_street": "Grant Road",
      "addr_housenumber": "1350 #7-8"
    },
    {
      "id": 183398,
      "geometry": "POINT (-121.974288 37.77119)",
      "poi_name": "Yayume Sushi",
      "osm_id": 10927686289,
      "amenity": "restaurant",
      "cuisine": "sushi"
    },
    {
      "id": 186341,
      "geometry": "POINT (-122.252885 37.856626)",
      "poi_name": "Manpuku",
      "osm_id": 7926250588,
      "amenity": "restaurant",
      "cuisine": "sushi",
      "opening_hours": "Mo-Sa 11:30-14:00, 16:00-20:00",
      "website": "https://manpukuorder.com",
      "phone": "(510) 848-2536",
      "addr_state": "CA",
      "addr_city": "Berkeley",
      "addr_postcode": "94705",
      "addr_street": "College Avenue",
      "addr_housenumber": "2977"
    },
    {
      "id": 189083,
      "geometry": "POINT (-122.470584 37.70212)",
      "poi_name": "Tomo Sushi & Teriyaki",
      "osm_id": 1211455624,
      "amenity": "restaurant",
      "cuisine": "sushi;japanese"
    },
    {
      "id": 187626,
      "geometry": "POINT (-122.251857 37.826676)",
      "poi_name": "Ebiko",
      "osm_id": 1086779696,
      "amenity": "restaurant",
      "cuisine": "sushi",
      "opening_hours": "Mo-Sa 11:00-17:00"
    },
    {
      "id": 187670,
      "geometry": "POINT (-121.978238 37.305012)",
      "poi_name": "Suro Sushi Bar & Grill",
      "osm_id": 1092485042,
      "amenity": "restaurant",
      "cuisine": "sushi",
      "addr_state": "CA",
      "addr_city": "San Jose",
      "addr_postcode": "95129",
      "addr_street": "Saratoga Avenue",
      "addr_housenumber": "1102"
    },
    {
      "id": 188820,
      "geometry": "POINT (-122.260661 37.82077)",
      "poi_name": "Judoku Sushi",
      "osm_id": 1186357746,
      "amenity": "restaurant",
      "cuisine": "sushi",
      "website": "https://www.judokusushi.com/",
      "phone": "15106451912",
      "addr_postcode": "94611",
      "addr_street": "Piedmont Avenue",
      "addr_housenumber": "3314"
    },
    {
      "id": 189526,
      "geometry": "POINT (-122.071125 37.591689)",
      "poi_name": "Maneki Sushi",
      "osm_id": 1235440583,
      "amenity": "restaurant",
      "cuisine": "sushi",
      "opening_hours": "Mo-Th 11:30-21:30; Fr-Sa 11:30-22:00; Su 11:30-21:00",
      "phone": "+1-510-489-1077",
      "addr_state": "CA",
      "addr_city": "Fremont",
      "addr_postcode": "94587",
      "addr_street": "Alvarado Boulevard",
      "addr_housenumber": "31810"
    },
    {
      "id": 191095,
      "geometry": "POINT (-122.156801 37.465776)",
      "poi_name": "My Tasties",
      "osm_id": 1339130094,
      "amenity": "restaurant",
      "cuisine": "sushi",
      "addr_street": "Willow Road",
      "addr_housenumber": "888"
    },
    {
      "id": 189730,
      "geometry": "POINT (-121.977231 37.353069)",
      "poi_name": "Sushi O Sushi",
      "osm_id": 1247816266,
      "amenity": "restaurant",
      "cuisine": "sushi;japanese",
      "website": "https://sushiosushi.com/",
      "addr_city": "Santa Clara",
      "addr_postcode": "95051",
      "addr_street": "El Camino Real",
      "addr_housenumber": "2789"
    },
    {
      "id": 190706,
      "geometry": "POINT (-122.276456 37.519738)",
      "poi_name": "Yama Sushi",
      "osm_id": 1312456464,
      "amenity": "restaurant",
      "cuisine": "sushi",
      "addr_street": "Ralston Avenue",
      "addr_housenumber": "889"
    },
    {
      "id": 190707,
      "geometry": "POINT (-122.27687 37.519394)",
      "poi_name": "Sushi Monster",
      "osm_id": 1312459537,
      "amenity": "restaurant",
      "cuisine": "sushi",
      "addr_street": "Ralston Avenue",
      "addr_housenumber": "955"
    },
    {
      "id": 191248,
      "geometry": "POINT (-122.223112 37.486907)",
      "poi_name": "Ahisushi Habachi",
      "osm_id": 1350903727,
      "amenity": "restaurant",
      "cuisine": "sushi",
      "opening_hours": "PH,Mo-Su 11:00-21:30",
      "addr_city": "Redwood City",
      "addr_street": "Broadway",
      "addr_housenumber": "1784"
    },
    {
      "id": 189650,
      "geometry": "POINT (-122.249387 37.828533)",
      "poi_name": "Shimizu",
      "osm_id": 1241643749,
      "amenity": "restaurant",
      "cuisine": "sushi",
      "website": "http://shimizucuisine.com",
      "internet_access": "no",
      "phone": "+1 (510) 653-7672",
      "takeaway": "yes",
      "outdoor_seating": "no",
      "delivery": "no",
      "addr_city": "Oakland",
      "addr_postcode": "94611",
      "addr_street": "Piedmont Avenue",
      "addr_housenumber": "4290"
    },
    {
      "id": 193144,
      "geometry": "POINT (-122.459445 37.747324)",
      "poi_name": "Yogi Sushi House",
      "osm_id": 1501456789,
      "amenity": "restaurant",
      "cuisine": "sushi",
      "website": "http://www.sushishoh.com",
      "addr_state": "CA",
      "addr_city": "San Francisco",
      "addr_postcode": "94116",
      "addr_street": "Dewey Boulevard",
      "addr_housenumber": "406"
    },
    {
      "id": 191468,
      "geometry": "POINT (-122.438854 37.77667)",
      "poi_name": "Ju-ni Sushi Bar",
      "osm_id": 1369329144,
      "amenity": "restaurant",
      "cuisine": "sushi",
      "addr_postcode": "94117",
      "addr_street": "Fulton Street",
      "addr_housenumber": "1335"
    },
    {
      "id": 191930,
      "geometry": "POINT (-122.411891 37.788203)",
      "poi_name": "Ryoko's",
      "osm_id": 1406188020,
      "amenity": "restaurant",
      "cuisine": "japanese;sushi",
      "wheelchair": "no",
      "opening_hours": "Mo-Sa 18:00-23:30; Su 18:00-22:30",
      "website": "https://www.ryokos.com/",
      "phone": "+1 415 7751028",
      "outdoor_seating": "no",
      "addr_city": "San Francisco",
      "addr_postcode": "94102",
      "addr_street": "Taylor Street",
      "addr_housenumber": "619"
    },
    {
      "id": 193030,
      "geometry": "POINT (-122.279576 37.830876)",
      "poi_name": "Miyozen",
      "osm_id": 1491017831,
      "amenity": "restaurant",
      "cuisine": "sushi",
      "wheelchair": "yes",
      "opening_hours": "Mo-Th 11:30-14:30,16:30-22:30; Fr-Su 11:30-22:30",
      "phone": "+1 510 9230311",
      "outdoor_seating": "no",
      "addr_state": "CA",
      "addr_city": "Emeryville",
      "addr_postcode": "94608",
      "addr_street": "40th Street",
      "addr_housenumber": "1147"
    },
    {
      "id": 195608,
      "geometry": "POINT (-122.269922 37.807538)",
      "poi_name": "Yonsei Handrolls",
      "osm_id": 10313432689,
      "amenity": "restaurant",
      "cuisine": "sushi"
    },
    {
      "id": 197503,
      "geometry": "POINT (-122.413363 37.752659)",
      "poi_name": "Basa Seafood Express",
      "osm_id": 10650775710,
      "amenity": "restaurant",
      "cuisine": "seafood;sushi",
      "phone": "+1 415-550-2388",
      "addr_street": "24th Street",
      "addr_housenumber": "3064"
    },
    {
      "id": 195667,
      "geometry": "POINT (-121.934911 37.705029)",
      "poi_name": "MaO Izakaya & Sushi",
      "osm_id": 10314139968,
      "amenity": "restaurant",
      "cuisine": "japanese;sushi",
      "website": "https://www.maoizakaya.com",
      "phone": "+1 925 361-5555",
      "addr_street": "Regional Street",
      "addr_housenumber": "7222"
    },
    {
      "id": 195928,
      "geometry": "POINT (-121.897056 37.435469)",
      "poi_name": "Yoshi Sushi",
      "osm_id": 10553695782,
      "amenity": "restaurant",
      "cuisine": "sushi",
      "description": "Japanese sushi restaurant",
      "opening_hours": "Mo-Su 11:00-23:30",
      "website": "https://www.yoshisushimilpitas.com/",
      "phone": "+14086492888",
      "addr_state": "CA",
      "addr_city": "Milpitas",
      "addr_postcode": "95035",
      "addr_street": "East Calaveras Blvd",
      "addr_housenumber": "599"
    },
    {
      "id": 196077,
      "geometry": "POINT (-122.27704 37.771611)",
      "poi_name": "Waki",
      "osm_id": 10563187988,
      "amenity": "restaurant",
      "cuisine": "sushi"
    },
    {
      "id": 196949,
      "geometry": "POINT (-121.964178 37.294964)",
      "poi_name": "Sushi Zono Inc",
      "osm_id": 10605468865,
      "amenity": "restaurant",
      "cuisine": "japanese;sushi",
      "addr_state": "CA",
      "addr_city": "Campbell",
      "addr_postcode": "95008",
      "addr_street": "West Hamilton Avenue",
      "addr_housenumber": "831"
    },
    {
      "id": 200444,
      "geometry": "POINT (-122.435255 37.761539)",
      "poi_name": "Osaka Sushi",
      "osm_id": 586756670,
      "amenity": "restaurant",
      "cuisine": "sushi",
      "phone": "+1 (415) 255-8828",
      "addr_postcode": "94114",
      "addr_street": "Castro Street",
      "addr_housenumber": "460"
    },
    {
      "id": 201296,
      "geometry": "POINT (-122.411919 37.787742)",
      "poi_name": "Sakana",
      "osm_id": 621793525,
      "amenity": "restaurant",
      "cuisine": "sushi",
      "opening_hours": "Tu-Sa 17:30-22:00; Su,Mo off",
      "website": "https://sakanasf.com/",
      "addr_city": "San Francisco",
      "addr_street": "Post Street",
      "addr_housenumber": "605"
    },
    {
      "id": 201298,
      "geometry": "POINT (-122.410067 37.788716)",
      "poi_name": "Akiko's Sushi Bar",
      "osm_id": 621818322,
      "amenity": "restaurant",
      "cuisine": "sushi",
      "opening_hours": "Mo-Fr 11:00-15:00,17:00-22:00; Sa-Su 16:30-22:00",
      "website": "https://akikossushibar.com/",
      "phone": "+1 415-989-8218",
      "addr_state": "CA",
      "addr_city": "San Francisco",
      "addr_postcode": "94102",
      "addr_street": "Mason Street",
      "addr_housenumber": "542"
    },
    {
      "id": 206998,
      "geometry": "POINT (-122.116084 37.69666)",
      "poi_name": "Angry Fish Sushi",
      "osm_id": 7235678685,
      "amenity": "restaurant",
      "cuisine": "sushi"
    },
    {
      "id": 209103,
      "geometry": "POINT (-122.042435 37.339577)",
      "poi_name": "Bay Sushi",
      "osm_id": 5023139771,
      "amenity": "restaurant",
      "cuisine": "sushi",
      "opening_hours": "Tu-Fr 00:00-14:30,17:00-21:00; Sa 17:00-21:00",
      "addr_state": "CA",
      "addr_city": "Sunnyvale",
      "addr_postcode": "94087",
      "addr_street": "Hollenbeck Avenue",
      "addr_housenumber": "1647"
    },
    {
      "id": 219653,
      "geometry": "POINT (-122.438124 37.800474)",
      "poi_name": "World Wrapps",
      "osm_id": 9341171153,
      "amenity": "restaurant",
      "cuisine": "mexican;indian;asian;sushi;thai",
      "opening_hours": "Mo-Su 11:00-20:00",
      "website": "https://worldwrapps.com/",
      "phone": "+1 415 6545313",
      "delivery": "yes",
      "addr_state": "CA",
      "addr_city": "San Francisco",
      "addr_postcode": "94123",
      "addr_street": "Chestnut Street",
      "addr_housenumber": "2105"
    },
    {
      "id": 210023,
      "geometry": "POINT (-122.26643 37.864019)",
      "poi_name": "Musashi",
      "osm_id": 5072636672,
      "amenity": "restaurant",
      "cuisine": "japanese;sushi",
      "opening_hours": "Tu-Sa 17:00-21:00",
      "website": "https://musashiofberkeley.com/",
      "phone": "+1-510-8432017",
      "outdoor_seating": "no",
      "addr_state": "CA",
      "addr_city": "Berkeley",
      "addr_postcode": "94704",
      "addr_street": "Dwight Way",
      "addr_housenumber": "2126"
    },
    {
      "id": 215043,
      "geometry": "POINT (-121.873879 37.665965)",
      "poi_name": "Sushi Hanabi",
      "osm_id": 5285404588,
      "amenity": "restaurant",
      "cuisine": "sushi;japanese",
      "takeaway": "yes",
      "outdoor_seating": "no",
      "delivery": "no"
    },
    {
      "id": 216910,
      "geometry": "POINT (-122.410371 37.786266)",
      "poi_name": "Oma Sushi",
      "osm_id": 9194418332,
      "amenity": "restaurant",
      "cuisine": "sushi",
      "wheelchair": "yes",
      "opening_hours": "Tu,We,Th 11:30-22:00; Fr,Sa 11:30-22:30; Su 16:00-22:00; Mo off",
      "website": "https://www.omasushisf.com/",
      "phone": "+1 415 7570066",
      "addr_street": "O'Farrell Street",
      "addr_housenumber": "330"
    },
    {
      "id": 217037,
      "geometry": "POINT (-122.430431 37.785319)",
      "poi_name": "Izumi Sushi",
      "osm_id": 9200430820,
      "amenity": "restaurant",
      "cuisine": "sushi",
      "website": "https://www.izumikaitensushi.com/",
      "phone": "+1 415 8729545"
    },
    {
      "id": 209371,
      "geometry": "POINT (-122.126656 37.860428)",
      "poi_name": "Sushi Fighter",
      "osm_id": 5035404823,
      "amenity": "restaurant",
      "cuisine": "sushi",
      "website": "http://sushifighter.net",
      "internet_access": "wlan",
      "phone": "9253767350",
      "addr_state": "CA",
      "addr_city": "Moraga",
      "addr_postcode": "94556",
      "addr_street": "Park Street",
      "addr_housenumber": "356"
    },
    {
      "id": 233959,
      "geometry": "POINT (-122.498902 37.760872)",
      "poi_name": "Tazaki Sushi",
      "osm_id": 4593719022,
      "amenity": "restaurant",
      "cuisine": "sushi",
      "wheelchair": "yes",
      "opening_hours": "Mo off; Tu-Su 17:00-22:00",
      "website": "https://tazakisushisf.com",
      "addr_street": "Judah Street",
      "addr_housenumber": "3420"
    },
    {
      "id": 220812,
      "geometry": "POINT (-121.988904 37.292559)",
      "poi_name": "Kuma Sushi",
      "osm_id": 10958632092,
      "amenity": "restaurant",
      "cuisine": "sushi"
    },
    {
      "id": 228157,
      "geometry": "POINT (-122.28564 37.848234)",
      "poi_name": "Mujiri",
      "osm_id": 4332528879,
      "amenity": "restaurant",
      "cuisine": "sushi"
    },
    {
      "id": 229697,
      "geometry": "POINT (-122.079415 37.402744)",
      "poi_name": "Momoya Sushi",
      "osm_id": 4395482133,
      "amenity": "restaurant",
      "cuisine": "sushi",
      "opening_hours": "Mo-Th 11:00-14:00,17:00-21:00; Fr 11:00-14:00,17:00-21:30; Sa 17:00-21:00",
      "addr_state": "CA",
      "addr_city": "Mountain View",
      "addr_postcode": "94043",
      "addr_street": "North Shoreline Boulevard",
      "addr_housenumber": "570"
    },
    {
      "id": 219887,
      "geometry": "POINT (-122.409409 37.789974)",
      "poi_name": "SushiToni",
      "osm_id": 9349946416,
      "amenity": "restaurant",
      "cuisine": "sushi",
      "wheelchair": "yes",
      "addr_street": "Bush Street",
      "addr_housenumber": "733"
    },
    {
      "id": 220419,
      "geometry": "POINT (-122.432004 37.764565)",
      "poi_name": "Sushi Time",
      "osm_id": 9372879897,
      "amenity": "restaurant",
      "cuisine": "sushi",
      "addr_state": "CA",
      "addr_city": "San Francisco",
      "addr_postcode": "94114",
      "addr_street": "Market Street",
      "addr_housenumber": "2275"
    },
    {
      "id": 221571,
      "geometry": "POINT (-122.392964 37.601656)",
      "poi_name": "Sushi Kei",
      "osm_id": 10981827541,
      "amenity": "restaurant",
      "cuisine": "sushi",
      "opening_hours": "Tu-Sa 16:30-20:30",
      "addr_street": "Broadway",
      "addr_housenumber": "407"
    },
    {
      "id": 222471,
      "geometry": "POINT (-122.391978 37.792866)",
      "poi_name": "Ozuma",
      "osm_id": 11019019889,
      "amenity": "restaurant",
      "cuisine": "sushi",
      "outdoor_seating": "yes"
    },
    {
      "id": 224573,
      "geometry": "POINT (-122.157301 37.724805)",
      "poi_name": "Bonchon Chicken",
      "osm_id": 11087796977,
      "amenity": "restaurant",
      "cuisine": "chicken;korean;sushi"
    },
    {
      "id": 226933,
      "geometry": "POINT (-121.929719 37.492999)",
      "poi_name": "Amami Sushi",
      "osm_id": 11173299146,
      "amenity": "restaurant",
      "cuisine": "japanese;sushi",
      "wheelchair": "yes",
      "opening_hours": "Tu-Su 11:30-14:30,16:30-21:00",
      "addr_state": "CA",
      "addr_city": "Fremont",
      "addr_postcode": "95035",
      "addr_street": "Warm Springs Boulevard",
      "addr_housenumber": "46228"
    },
    {
      "id": 227056,
      "geometry": "POINT (-121.911736 37.455609)",
      "poi_name": "My No.1 Sushi & Tofu",
      "osm_id": 11178029627,
      "amenity": "restaurant",
      "cuisine": "sushi;asian;korean",
      "opening_hours": "Mo-Sa 11:30-20:45; Su 11:30-15:00",
      "addr_state": "CA",
      "addr_city": "Milpitas",
      "addr_postcode": "95035",
      "addr_street": "North Milpitas Boulevard",
      "addr_housenumber": "1747"
    },
    {
      "id": 227896,
      "geometry": "POINT (-122.268878 37.803581)",
      "poi_name": "Elephant Sushi",
      "osm_id": 4320499686,
      "amenity": "restaurant",
      "cuisine": "sushi"
    },
    {
      "id": 233992,
      "geometry": "POINT (-122.48593 37.85876)",
      "poi_name": "Sushi Ran",
      "osm_id": 4595556508,
      "amenity": "restaurant",
      "cuisine": "sushi",
      "opening_hours": "Su-Th 11:45-14:30, 17:00-22:00; Fr 11:45-14:30, 17:00-23:00; Sa 17:00-23:00",
      "website": "https://www.sushiran.com/",
      "phone": "+14153323620",
      "addr_postcode": "94965",
      "addr_street": "Caledonia Street",
      "addr_housenumber": "107"
    },
    {
      "id": 234486,
      "geometry": "POINT (-122.421668 37.768282)",
      "poi_name": "Shizen",
      "osm_id": 4624481516,
      "amenity": "restaurant",
      "cuisine": "sushi;japanese;ramen",
      "description": "Vegan sushi bar & izakaya",
      "opening_hours": "Mo-Th 17:00-21:30; Fr,Sa 16:00-21:30; Su 16:00-21:00",
      "website": "https://www.shizensf.com/",
      "phone": "+1 415 6785767",
      "addr_state": "CA",
      "addr_city": "San Francisco",
      "addr_postcode": "94103",
      "addr_street": "14th Street",
      "addr_housenumber": "370"
    },
    {
      "id": 234165,
      "geometry": "POINT (-122.112981 37.401289)",
      "poi_name": "Mizu Sushi Bar & Grill",
      "osm_id": 4609012006,
      "amenity": "restaurant",
      "cuisine": "sushi",
      "opening_hours": "Mo-Th 11:30-02:30,17:00-22:00; Fr-Sa 11:30-02:30,17:00-23:00; Su 17:00-22:00",
      "website": "https://mizusbg.com/mtnview/",
      "phone": "+1 650 397 7700",
      "outdoor_seating": "yes",
      "addr_state": "CA",
      "addr_city": "Mountain View",
      "addr_postcode": "94040",
      "addr_street": "West El Camino Real",
      "addr_housenumber": "2590"
    },
    {
      "id": 234562,
      "geometry": "POINT (-122.430462 37.785607)",
      "poi_name": "Hikari",
      "osm_id": 4628529933,
      "amenity": "restaurant",
      "cuisine": "sushi;japanese",
      "opening_hours": "Su,Mo-Th 11:30-20:30; Fr,Sa 11:30-21:00",
      "website": "https://www.hikarisushibarsf.com/",
      "phone": "+1 415 8729116",
      "addr_state": "CA",
      "addr_city": "San Francisco",
      "addr_street": "Post Street",
      "addr_housenumber": "1734"
    },
    {
      "id": 234563,
      "geometry": "POINT (-122.430044 37.785655)",
      "poi_name": "Sanppo Sushi",
      "osm_id": 4628566830,
      "amenity": "restaurant",
      "cuisine": "sushi;japanese",
      "opening_hours": "Mo-Th 11:30-24:00; Fr,Sa 11:30-25:00; Su 12:00-22:00",
      "website": "http://sanpposushisf.com",
      "phone": "+1 415 3463486",
      "addr_state": "CA",
      "addr_city": "San Francisco",
      "addr_street": "Post Street",
      "addr_housenumber": "1702"
    },
    {
      "id": 237565,
      "geometry": "POINT (-122.403686 37.764606)",
      "poi_name": "Live Sushi Bar",
      "osm_id": 5839056765,
      "amenity": "restaurant",
      "cuisine": "sushi",
      "addr_street": "17th Street",
      "addr_housenumber": "2001"
    },
    {
      "id": 235369,
      "geometry": "POINT (-122.453408 37.650197)",
      "poi_name": "Kamameshi",
      "osm_id": 5753077923,
      "amenity": "restaurant",
      "cuisine": "sushi"
    },
    {
      "id": 241463,
      "geometry": "POINT (-121.852004 37.706152)",
      "poi_name": "Hisui Express Sushi & Ramen",
      "osm_id": 6025861376,
      "amenity": "restaurant",
      "cuisine": "sushi",
      "opening_hours": "Mo-Su 11:00-21:00",
      "addr_state": "CA",
      "addr_city": "Dublin",
      "addr_postcode": "94568",
      "addr_street": "Dublin Boulevard",
      "addr_housenumber": "2700"
    }
  ],
  "answer_type": "name",
  "question_entities": {
    "[1]": {
      "main_category": "amenity",
      "sub_category": "restaurant",
      "poi_filter_desc": "Sushi restaurant",
      "poi_filter_sql": "cuisine ILIKE '%Sushi%'"
    },
    "[2]": {
      "distance": 40000,
      "text": "40 kilometers"
    },
    "[3]": {
      "main_category": "leisure",
      "sub_category": "stadium",
      "display_name": "Bowditch Middle School Auditorium, Foster City, CA",
      "geo_wkt": "POINT (-122.248613 37.559053)",
      "poi": {
        "id": 246975,
        "geometry": "POINT (-122.248613 37.559053)",
        "poi_name": "Bowditch Middle School Auditorium",
        "osm_id": 8468035653,
        "leisure": "stadium",
        "sport": "basketball;volleyball",
        "addr_state": "CA",
        "addr_city": "Foster City",
        "addr_postcode": "94404",
        "addr_street": "Tarpon Street",
        "addr_housenumber": "1450"
      }
    }
  },
  "id": 566,
  "type": "range:non_spat_filter+name"
}