{
  "question": "Where can I find restaurant as you progress towards Courtyard San Diego El Cajon, El Cajon, CA within 70 kilometers from Sugarplum Zoo, Temecula, CA?",
  "sql": "WITH\n    angle AS (SELECT degrees(ST_Azimuth(ST_GeomFromText('POINT (-117.055191 33.546915)',4326)::geography, ST_GeomFromText('POINT (-116.961896 32.796079)',4326)::geography)) AS value)\nSELECT * FROM pois,angle\nWHERE amenity = 'restaurant'\nAND ST_DWithin(pois.geometry, ST_GeomFromText('POINT (-117.055191 33.546915)',4326)::geography, 70000)\nAND (degrees(ST_Azimuth(ST_GeomFromText('POINT (-117.055191 33.546915)',4326)::geography, pois.geometry)) BETWEEN angle.value - 22.5 AND angle.value + 22.5);\n",
  "answers": [
    {
      "id": 31785,
      "geometry": "POINT (-116.977175 33.303009)",
      "poi_name": "El Rey",
      "osm_id": 8446689372,
      "amenity": "restaurant",
      "cuisine": "mexican",
      "phone": "+17607423343",
      "addr_state": "CA",
      "addr_city": "Pauma Valley",
      "addr_postcode": "92061",
      "addr_street": "CA-76",
      "addr_housenumber": "16220",
      "value": 174.00885110298293
    },
    {
      "id": 33075,
      "geometry": "POINT (-117.246259 32.949682)",
      "poi_name": "Kotija Jr Taco Shop",
      "osm_id": 2651320782,
      "amenity": "restaurant",
      "cuisine": "mexican",
      "addr_state": "CA",
      "addr_city": "Del Mar",
      "addr_postcode": "92014",
      "addr_street": "Del Mar Heights Road",
      "addr_housenumber": "2668",
      "value": 174.00885110298293
    },
    {
      "id": 42139,
      "geometry": "POINT (-117.121573 32.919068)",
      "poi_name": "The Kebab Shop",
      "osm_id": 3046966112,
      "amenity": "restaurant",
      "opening_hours": "Mo-Sa 10:30-22:00; Su 10:30-21:00",
      "website": "https://www.thekebabshop.com",
      "shop": "supermarket",
      "phone": "+1-858-586-0499",
      "addr_city": "San Diego",
      "addr_postcode": "92126",
      "addr_street": "Mira Mesa Boulevard",
      "addr_housenumber": "9450",
      "value": 174.00885110298293
    },
    {
      "id": 51690,
      "geometry": "POINT (-117.114174 33.020263)",
      "poi_name": "Capri Blu",
      "osm_id": 550876837,
      "amenity": "restaurant",
      "cuisine": "italian",
      "addr_state": "CA",
      "addr_city": "San Diego",
      "addr_postcode": "92127",
      "addr_street": "Craftsman Way",
      "addr_housenumber": "10436",
      "value": 174.00885110298293
    },
    {
      "id": 53589,
      "geometry": "POINT (-117.033101 32.939187)",
      "poi_name": "Addy's Bistro",
      "osm_id": 10087436745,
      "amenity": "restaurant",
      "website": "https://addysbistro.com",
      "internet_access": "wlan",
      "phone": "+1 858-883-4556",
      "addr_city": "Poway",
      "addr_street": "Danielson Street",
      "addr_housenumber": "13771",
      "value": 174.00885110298293
    },
    {
      "id": 54894,
      "geometry": "POINT (-117.203276 33.124424)",
      "poi_name": "The Grill",
      "osm_id": 10160848398,
      "amenity": "restaurant",
      "addr_state": "CA",
      "addr_city": "San Marcos",
      "addr_postcode": "92078",
      "addr_street": "San Pablo Drive",
      "addr_housenumber": "1750",
      "value": 174.00885110298293
    },
    {
      "id": 54988,
      "geometry": "POINT (-117.199787 33.09764)",
      "poi_name": "San Elijo Vine & Tap",
      "osm_id": 10164930456,
      "amenity": "restaurant",
      "addr_state": "CA",
      "addr_city": "San Marcos",
      "addr_postcode": "92078",
      "addr_street": "Elfin Forest Road West",
      "addr_housenumber": "1231",
      "value": 174.00885110298293
    },
    {
      "id": 54989,
      "geometry": "POINT (-117.200228 33.097083)",
      "poi_name": "Shane's Pizza and Pints",
      "osm_id": 10164930457,
      "amenity": "restaurant",
      "cuisine": "pizza",
      "addr_state": "CA",
      "addr_city": "San Marcos",
      "addr_postcode": "92078",
      "addr_street": "San Elijo Road",
      "addr_housenumber": "1523",
      "value": 174.00885110298293
    },
    {
      "id": 54993,
      "geometry": "POINT (-117.185446 33.134902)",
      "poi_name": "Up in Smoke BBQ",
      "osm_id": 10164930467,
      "amenity": "restaurant",
      "cuisine": "barbecue",
      "addr_state": "CA",
      "addr_city": "San Marcos",
      "addr_postcode": "92078",
      "addr_street": "West San Marcos Boulevard",
      "addr_housenumber": "925",
      "value": 174.00885110298293
    },
    {
      "id": 93757,
      "geometry": "POINT (-117.230013 32.953887)",
      "poi_name": "Katana Sushi",
      "osm_id": 2184818612,
      "amenity": "restaurant",
      "cuisine": "japanese",
      "addr_state": "CA",
      "addr_city": "San Diego",
      "addr_postcode": "92130",
      "addr_street": "Carmel Country Road",
      "addr_housenumber": "12750",
      "value": 174.00885110298293
    },
    {
      "id": 81132,
      "geometry": "POINT (-117.188782 33.133971)",
      "poi_name": "Inland Tavern",
      "osm_id": 1607978309,
      "amenity": "restaurant",
      "website": "https://www.inlandtavern.com/",
      "addr_state": "CA",
      "addr_city": "San Marcos",
      "addr_postcode": "92078",
      "addr_street": "West San Marcos Boulevard",
      "addr_housenumber": "1001",
      "value": 174.00885110298293
    },
    {
      "id": 92598,
      "geometry": "POINT (-117.232786 32.951344)",
      "poi_name": "Mendocino Farms Sandwich Market",
      "osm_id": 2127109488,
      "amenity": "restaurant",
      "cuisine": "sandwich",
      "website": "https://www.mendocinofarms.com/",
      "takeaway": "yes",
      "outdoor_seating": "yes",
      "addr_state": "CA",
      "addr_city": "San Diego",
      "addr_postcode": "92130",
      "addr_street": "El Camino Real",
      "addr_housenumber": "12873",
      "value": 174.00885110298293
    },
    {
      "id": 92599,
      "geometry": "POINT (-117.232872 32.951151)",
      "poi_name": "Urban Plates",
      "osm_id": 2127109489,
      "amenity": "restaurant",
      "opening_hours": "Mo-Su 11:00-21:30; Fr,Sa 11:00-22:00",
      "website": "https://urbanplates.com/",
      "phone": "8585091800",
      "takeaway": "yes",
      "outdoor_seating": "yes",
      "addr_state": "CA",
      "addr_city": "San Diego",
      "addr_postcode": "92130",
      "addr_street": "El Camino Real",
      "addr_housenumber": "12857",
      "value": 174.00885110298293
    },
    {
      "id": 83410,
      "geometry": "POINT (-117.076034 33.023462)",
      "poi_name": "Incredible Caf\u00e9",
      "osm_id": 1743961163,
      "amenity": "restaurant",
      "addr_state": "CA",
      "addr_city": "San Diego",
      "addr_postcode": "92128",
      "addr_street": "Bernardo Center Drive",
      "value": 174.00885110298293
    },
    {
      "id": 87829,
      "geometry": "POINT (-117.026765 33.208008)",
      "poi_name": "Shawii Kitchen",
      "osm_id": 8744139346,
      "amenity": "restaurant",
      "website": "https://shawiikitchen.com/",
      "addr_state": "CA",
      "addr_city": "Valley Center",
      "addr_postcode": "92082",
      "addr_street": "Woods Valley Road",
      "addr_housenumber": "14616",
      "value": 174.00885110298293
    },
    {
      "id": 93768,
      "geometry": "POINT (-117.230429 32.938429)",
      "poi_name": "Spices Thai Cafe of San Diego",
      "osm_id": 2184863605,
      "amenity": "restaurant",
      "operator": "thai",
      "addr_city": "San Diego",
      "addr_postcode": "92130",
      "addr_street": "Valley Centre Drive",
      "addr_housenumber": "3810",
      "value": 174.00885110298293
    },
    {
      "id": 93769,
      "geometry": "POINT (-117.232283 32.938549)",
      "poi_name": "Villa Capri",
      "osm_id": 2184863606,
      "amenity": "restaurant",
      "cuisine": "italian",
      "addr_city": "San Diego",
      "addr_postcode": "92130",
      "addr_street": "Valley Centre Drive",
      "addr_housenumber": "3870",
      "value": 174.00885110298293
    },
    {
      "id": 93916,
      "geometry": "POINT (-117.078533 33.011785)",
      "poi_name": "Passage To India",
      "osm_id": 2192939530,
      "amenity": "restaurant",
      "cuisine": "indian",
      "addr_state": "CA",
      "addr_housenumber": "16411",
      "value": 174.00885110298293
    },
    {
      "id": 98110,
      "geometry": "POINT (-117.074211 32.98298)",
      "poi_name": "Yesenia\u2019s Mexican Food",
      "osm_id": 6507154457,
      "amenity": "restaurant",
      "cuisine": "mexican",
      "addr_state": "CA",
      "addr_city": "San Diego",
      "addr_postcode": "92128",
      "addr_street": "Carmel Mountain Road",
      "addr_housenumber": "12075",
      "value": 174.00885110298293
    },
    {
      "id": 110569,
      "geometry": "POINT (-117.232687 32.953131)",
      "poi_name": "Snooze an AM Eatery",
      "osm_id": 3708711425,
      "amenity": "restaurant",
      "cuisine": "breakfast",
      "opening_hours": "Mo-Su 06:30-14:30",
      "phone": "+18587035300",
      "addr_state": "CA",
      "addr_city": "San Diego",
      "addr_street": "Del Mar Heights Road",
      "addr_housenumber": "33435",
      "value": 174.00885110298293
    },
    {
      "id": 121138,
      "geometry": "POINT (-117.124532 33.021132)",
      "poi_name": "Burger Lounge",
      "osm_id": 6744125899,
      "amenity": "restaurant",
      "addr_state": "CA",
      "addr_city": "San Diego",
      "addr_postcode": "92127",
      "addr_street": "Paseo del Sur",
      "addr_housenumber": "16491",
      "value": 174.00885110298293
    },
    {
      "id": 121139,
      "geometry": "POINT (-117.124317 33.021052)",
      "poi_name": "Gor Gai Thai Eatery",
      "osm_id": 6744125901,
      "amenity": "restaurant",
      "cuisine": "thai",
      "addr_state": "CA",
      "addr_city": "San Diego",
      "addr_postcode": "92127",
      "addr_street": "Paseo del Sur",
      "addr_housenumber": "16490",
      "value": 174.00885110298293
    },
    {
      "id": 121141,
      "geometry": "POINT (-117.124265 33.020728)",
      "poi_name": "Sushi Ren",
      "osm_id": 6744125926,
      "amenity": "restaurant",
      "cuisine": "sushi",
      "description": "Sushi and happy hour",
      "addr_state": "CA",
      "addr_city": "San Diego",
      "addr_postcode": "92127",
      "addr_street": "Paseo del Sur",
      "addr_housenumber": "16480",
      "value": 174.00885110298293
    },
    {
      "id": 121378,
      "geometry": "POINT (-117.060892 32.979413)",
      "poi_name": "Luna Grill",
      "osm_id": 6757875547,
      "amenity": "restaurant",
      "cuisine": "fast_food;mediterranean",
      "opening_hours": "Mo-Su 11:00-21:00",
      "website": "https://locations.lunagrill.com/luna-grill-f44656b3fdce",
      "phone": "+1 (858) 679-5862",
      "addr_state": "CA",
      "addr_city": "Poway",
      "addr_postcode": "92064",
      "addr_street": "Pomerado Road",
      "addr_housenumber": "14727",
      "value": 174.00885110298293
    },
    {
      "id": 121391,
      "geometry": "POINT (-117.075504 32.983201)",
      "poi_name": "The Stand",
      "osm_id": 6758166096,
      "amenity": "restaurant",
      "cuisine": "burger;american",
      "opening_hours": "Mo-Th 11:00-22:00; Fr-Su 11:00-23:00",
      "phone": "+1 619 430-4782",
      "addr_state": "CA",
      "addr_city": "San Diego",
      "addr_postcode": "92128",
      "addr_street": "Carmel Mountain Road",
      "addr_housenumber": "12045",
      "value": 174.00885110298293
    },
    {
      "id": 130110,
      "geometry": "POINT (-117.075428 32.982356)",
      "poi_name": "Delhi Kitchen",
      "osm_id": 9854580284,
      "amenity": "restaurant",
      "cuisine": "indian",
      "opening_hours": "Mo-Su 11:00-21:00",
      "website": "http://www.delhikitchen.com/",
      "phone": "+1 858 3850165",
      "addr_state": "CA",
      "addr_city": "San Diego",
      "addr_postcode": "92128",
      "addr_street": "Carmel Mountain Road",
      "addr_housenumber": "11975",
      "value": 174.00885110298293
    },
    {
      "id": 131295,
      "geometry": "POINT (-117.035946 32.969122)",
      "poi_name": "The Hop Stop",
      "osm_id": 9908210874,
      "amenity": "restaurant",
      "opening_hours": "Mo-Th 12:00-21:00; Fr 11:00-22:00; Sa 10:00-22:00; Su 10:00-20:00",
      "website": "https://thehopstopsd.com/",
      "phone": "+1-858-883-4645",
      "addr_state": "CA",
      "addr_city": "Poway",
      "addr_postcode": "92064",
      "addr_street": "Midland Road",
      "addr_housenumber": "14055",
      "value": 174.00885110298293
    },
    {
      "id": 146198,
      "geometry": "POINT (-117.19254 33.13404)",
      "poi_name": "Pokewaii",
      "osm_id": 7418055332,
      "amenity": "restaurant",
      "cuisine": "hawaiian",
      "opening_hours": "Mo-Sa 12:00-19:00",
      "phone": "(760) 736-9388",
      "addr_state": "CA",
      "addr_city": "San Marcos",
      "addr_postcode": "92078",
      "addr_street": "West San Marcos Boulevard",
      "addr_housenumber": "1158",
      "value": 174.00885110298293
    },
    {
      "id": 145394,
      "geometry": "POINT (-117.150844 32.963756)",
      "poi_name": "Fresco Pizzeria",
      "osm_id": 7345384056,
      "amenity": "restaurant",
      "cuisine": "pizza;pasta",
      "opening_hours": "Mo-Su 11:00-20:00",
      "website": "https://frescosd.com/",
      "phone": "+1-858-538-3333",
      "addr_state": "CA",
      "addr_city": "San Diego",
      "addr_postcode": "92129",
      "addr_street": "Camino Del Sur",
      "addr_housenumber": "13350",
      "value": 174.00885110298293
    },
    {
      "id": 144662,
      "geometry": "POINT (-117.192972 32.99649)",
      "poi_name": "067 Eatery",
      "osm_id": 7279792326,
      "amenity": "restaurant",
      "cuisine": "regional",
      "website": "http://www.067eatery.com/",
      "phone": "(858) 832-8150",
      "addr_state": "CA",
      "addr_city": "Rancho Santa Fe",
      "addr_postcode": "92067",
      "addr_street": "San Dieguito Road",
      "addr_housenumber": "16236",
      "value": 174.00885110298293
    },
    {
      "id": 146199,
      "geometry": "POINT (-117.189918 33.134796)",
      "poi_name": "Katsu Sushi and Teppan Grill",
      "osm_id": 7418055333,
      "amenity": "restaurant",
      "cuisine": "japanese",
      "website": "https://www.katsuseafoodandsteakhouse.com",
      "phone": "(760) 744-7156",
      "addr_state": "CA",
      "addr_city": "San Marcos",
      "addr_postcode": "92078",
      "addr_street": "West San Marcos Boulevard",
      "addr_housenumber": "1020",
      "value": 174.00885110298293
    },
    {
      "id": 146200,
      "geometry": "POINT (-117.190439 33.134608)",
      "poi_name": "IHOP",
      "osm_id": 7418055354,
      "amenity": "restaurant",
      "cuisine": "breakfast;pancake",
      "phone": "(760) 471-2180",
      "addr_state": "CA",
      "addr_city": "San Marcos",
      "addr_postcode": "92078",
      "addr_street": "West San Marcos Boulevard",
      "addr_housenumber": "1020",
      "value": 174.00885110298293
    },
    {
      "id": 150155,
      "geometry": "POINT (-117.12169 33.132967)",
      "poi_name": "Pizza Hut",
      "osm_id": 4044981852,
      "amenity": "restaurant",
      "cuisine": "pizza",
      "delivery": "yes",
      "addr_state": "CA",
      "addr_city": "San Marcos",
      "addr_postcode": "92069",
      "addr_street": "Center Drive",
      "addr_housenumber": "705",
      "value": 174.00885110298293
    },
    {
      "id": 150089,
      "geometry": "POINT (-117.165181 33.131376)",
      "poi_name": "Basic Bar Pizza",
      "osm_id": 4041725554,
      "amenity": "restaurant",
      "opening_hours": "Su-Th 11:00-21:00; Fr,Sa 11:00-22:00",
      "delivery": "yes",
      "addr_state": "CA",
      "addr_city": "San Marcos",
      "addr_postcode": "92078",
      "addr_street": "S Twin Oaks Valley Road",
      "addr_housenumber": "342",
      "value": 174.00885110298293
    },
    {
      "id": 150091,
      "geometry": "POINT (-117.166694 33.13115)",
      "poi_name": "FroYo Love",
      "osm_id": 4041747699,
      "amenity": "restaurant",
      "cuisine": "frozen_yogurt",
      "addr_state": "CA",
      "addr_city": "San Marcos",
      "addr_postcode": "92078",
      "addr_street": "S Twin Oaks Valley Road",
      "addr_housenumber": "300",
      "value": 174.00885110298293
    },
    {
      "id": 150092,
      "geometry": "POINT (-117.182298 33.135366)",
      "poi_name": "Casa Angelo Pizza",
      "osm_id": 4041798689,
      "amenity": "restaurant",
      "cuisine": "pizza;italian",
      "opening_hours": "Mo-Sa 11:00-21:00",
      "addr_state": "CA",
      "addr_city": "San Marcos",
      "addr_postcode": "92078",
      "addr_street": "West San Marcos Boulevard",
      "addr_housenumber": "823",
      "value": 174.00885110298293
    },
    {
      "id": 150156,
      "geometry": "POINT (-117.122332 33.133145)",
      "poi_name": "Pan Asia Buffet",
      "osm_id": 4044985209,
      "amenity": "restaurant",
      "addr_state": "CA",
      "addr_city": "San Marcos",
      "addr_postcode": "92069",
      "addr_street": "Center Drive",
      "addr_housenumber": "707",
      "value": 174.00885110298293
    },
    {
      "id": 150698,
      "geometry": "POINT (-117.19387 33.150807)",
      "poi_name": "Station Pizza",
      "osm_id": 4063678512,
      "amenity": "restaurant",
      "addr_state": "CA",
      "addr_city": "San Marcos",
      "addr_postcode": "92069",
      "addr_street": "West Mission Road",
      "addr_housenumber": "1531",
      "value": 174.00885110298293
    },
    {
      "id": 158031,
      "geometry": "POINT (-117.125364 32.957142)",
      "poi_name": "Wonderful Sushi",
      "osm_id": 4733097335,
      "amenity": "restaurant",
      "cuisine": "sushi",
      "website": "https://wonderfulsushipq.com",
      "phone": "+1-858-538-0166",
      "outdoor_seating": "yes",
      "addr_state": "CA",
      "addr_city": "San Diego",
      "addr_postcode": "92129",
      "addr_street": "Black Mountain Road",
      "addr_housenumber": "13185",
      "value": 174.00885110298293
    },
    {
      "id": 150744,
      "geometry": "POINT (-117.102224 33.113415)",
      "poi_name": "Pieology Pizzeria",
      "osm_id": 4065299375,
      "amenity": "restaurant",
      "cuisine": "pizza",
      "addr_city": "Escondido",
      "addr_postcode": "92029",
      "addr_street": "West Valley Parkway",
      "addr_housenumber": "1334",
      "value": 174.00885110298293
    },
    {
      "id": 150747,
      "geometry": "POINT (-117.098128 33.117392)",
      "poi_name": "Chuck E. Cheese",
      "osm_id": 4065379256,
      "amenity": "restaurant",
      "cuisine": "pizza",
      "leisure": "amusement_arcade",
      "opening_hours": "Su-Th 11:00-21:00; Fr 11:00-22:00; Sa 10:00-22:00",
      "website": "https://locations.chuckecheese.com/us/ca/escondido/1126-w.-valley-pkwy.",
      "addr_state": "CA",
      "addr_city": "Escondido",
      "addr_postcode": "92025",
      "addr_street": "West Valley Parkway",
      "addr_housenumber": "1126",
      "value": 174.00885110298293
    },
    {
      "id": 150749,
      "geometry": "POINT (-117.075964 33.104476)",
      "poi_name": "Pizza Hut",
      "osm_id": 4065399037,
      "amenity": "restaurant",
      "cuisine": "pizza",
      "delivery": "yes",
      "addr_state": "CA",
      "addr_city": "Escondido",
      "addr_postcode": "92025",
      "addr_street": "West Felicita Avenue",
      "addr_housenumber": "410",
      "value": 174.00885110298293
    },
    {
      "id": 150764,
      "geometry": "POINT (-117.165685 33.123381)",
      "poi_name": "Thai Thai San Marcos",
      "osm_id": 4066097114,
      "amenity": "restaurant",
      "cuisine": "thai",
      "addr_state": "CA",
      "addr_city": "San Marcos",
      "addr_postcode": "92078",
      "addr_street": "S Twin Oaks Valley Road",
      "addr_housenumber": "801",
      "value": 174.00885110298293
    },
    {
      "id": 150765,
      "geometry": "POINT (-117.165701 33.123267)",
      "poi_name": "Los Primos",
      "osm_id": 4066097115,
      "amenity": "restaurant",
      "cuisine": "mexican",
      "addr_state": "CA",
      "addr_city": "San Marcos",
      "addr_postcode": "92078",
      "addr_street": "S Twin Oaks Valley Road",
      "addr_housenumber": "801",
      "value": 174.00885110298293
    },
    {
      "id": 150766,
      "geometry": "POINT (-117.165621 33.122927)",
      "poi_name": "The Bellows",
      "osm_id": 4066097116,
      "amenity": "restaurant",
      "addr_state": "CA",
      "addr_city": "San Marcos",
      "addr_postcode": "92078",
      "addr_street": "S Twin Oaks Valley Road",
      "addr_housenumber": "803",
      "value": 174.00885110298293
    },
    {
      "id": 150924,
      "geometry": "POINT (-117.107848 33.146652)",
      "poi_name": "Pita King",
      "osm_id": 4073791411,
      "amenity": "restaurant",
      "cuisine": "greek",
      "addr_state": "CA",
      "addr_city": "Escondido",
      "addr_postcode": "92026",
      "addr_street": "West El Norte Parkway",
      "addr_housenumber": "1061",
      "value": 174.00885110298293
    },
    {
      "id": 162858,
      "geometry": "POINT (-117.038581 32.957411)",
      "poi_name": "City Dragon",
      "osm_id": 9386915646,
      "amenity": "restaurant",
      "cuisine": "chinese",
      "addr_city": "Poway",
      "addr_postcode": "92064",
      "addr_street": "Poway Road",
      "addr_housenumber": "13516",
      "value": 174.00885110298293
    },
    {
      "id": 163085,
      "geometry": "POINT (-117.159604 33.134674)",
      "poi_name": "Umami Japanese",
      "osm_id": 9398187794,
      "amenity": "restaurant",
      "cuisine": "japanese",
      "website": "https://www.umamijp.com/",
      "phone": "760-566-3671",
      "addr_state": "CA",
      "addr_city": "San Marcos",
      "addr_postcode": "92078",
      "addr_street": "North City Drive",
      "addr_housenumber": "251",
      "value": 174.00885110298293
    },
    {
      "id": 163086,
      "geometry": "POINT (-117.159543 33.135102)",
      "poi_name": "Buona Forchetta",
      "osm_id": 9398218320,
      "amenity": "restaurant",
      "cuisine": "italian",
      "website": "https://buonaforchettasd.com/",
      "phone": "442 515 3147",
      "addr_state": "CA",
      "addr_city": "San Marcos",
      "addr_postcode": "92078",
      "addr_street": "North City Drive",
      "addr_housenumber": "250",
      "value": 174.00885110298293
    },
    {
      "id": 163887,
      "geometry": "POINT (-117.039051 32.954978)",
      "poi_name": "Crazy Duck",
      "osm_id": 9440306321,
      "amenity": "restaurant",
      "website": "https://www.lwcrazyduck.com/",
      "addr_state": "CA",
      "addr_city": "Poway",
      "addr_postcode": "92064",
      "addr_street": "Poway Road",
      "addr_housenumber": "13487",
      "value": 174.00885110298293
    },
    {
      "id": 172094,
      "geometry": "POINT (-117.074045 33.019121)",
      "poi_name": "New Panda Buffet",
      "osm_id": 2393592190,
      "amenity": "restaurant",
      "cuisine": "chinese",
      "website": "https://www.newpandabuffet.com/",
      "phone": "858-592-9555",
      "addr_state": "CA",
      "addr_city": "San Diego",
      "addr_postcode": "92128",
      "addr_street": "Bernardo Center Drive",
      "addr_housenumber": "16785",
      "value": 174.00885110298293
    },
    {
      "id": 172148,
      "geometry": "POINT (-117.075042 33.024402)",
      "poi_name": "Chef Chin",
      "osm_id": 2397160486,
      "amenity": "restaurant",
      "cuisine": "chinese",
      "website": "www.chef-chin.com",
      "phone": "858-613-3846",
      "addr_state": "CA",
      "addr_city": "San Diego",
      "addr_postcode": "92128",
      "addr_street": "Rancho Bernardo Road",
      "addr_housenumber": "11828",
      "value": 174.00885110298293
    },
    {
      "id": 168007,
      "geometry": "POINT (-117.07655 33.023295)",
      "poi_name": "Curry and More",
      "osm_id": 365356731,
      "amenity": "restaurant",
      "cuisine": "curry",
      "addr_state": "CA",
      "addr_city": "San Diego",
      "addr_postcode": "92128",
      "addr_street": "Rancho Bernardo Road",
      "addr_housenumber": "11808",
      "value": 174.00885110298293
    },
    {
      "id": 172150,
      "geometry": "POINT (-117.075047 33.017185)",
      "poi_name": "Ginza Sushi",
      "osm_id": 2397160520,
      "amenity": "restaurant",
      "cuisine": "sushi",
      "addr_state": "CA",
      "addr_city": "San Diego",
      "addr_postcode": "92128",
      "addr_street": "Bernardo Center Drive",
      "addr_housenumber": "16715",
      "value": 174.00885110298293
    },
    {
      "id": 172095,
      "geometry": "POINT (-117.076551 33.023157)",
      "poi_name": "Pho Ca Dao & Grill",
      "osm_id": 2393592195,
      "amenity": "restaurant",
      "cuisine": "vietnamese",
      "phone": "+1-858-451-8820",
      "addr_state": "CA",
      "addr_city": "San Diego",
      "addr_postcode": "92128",
      "addr_street": "Rancho Bernardo Road",
      "addr_housenumber": "11808",
      "value": 174.00885110298293
    },
    {
      "id": 172151,
      "geometry": "POINT (-117.075008 33.017259)",
      "poi_name": "Hunan",
      "osm_id": 2397160529,
      "amenity": "restaurant",
      "cuisine": "chinese",
      "addr_state": "CA",
      "addr_city": "San Diego",
      "addr_postcode": "92128",
      "addr_street": "Bernardo Center Drive",
      "value": 174.00885110298293
    },
    {
      "id": 172154,
      "geometry": "POINT (-117.075169 33.016972)",
      "poi_name": "Mama Cella's",
      "osm_id": 2397160561,
      "amenity": "restaurant",
      "cuisine": "italian",
      "phone": "858-613-7770",
      "addr_state": "CA",
      "addr_city": "San Diego",
      "addr_postcode": "92128",
      "addr_street": "Bernardo Center Drive",
      "addr_housenumber": "16707",
      "value": 174.00885110298293
    },
    {
      "id": 174639,
      "geometry": "POINT (-116.875693 33.038995)",
      "poi_name": "Nuevo Grill & Cantina",
      "osm_id": 2494029700,
      "amenity": "restaurant",
      "cuisine": "mexican",
      "opening_hours": "Su-Th 11:00-20:00, Fr-Sa 11:00-20:30",
      "website": "https://www.nuevogrill.com/menu",
      "phone": "+17607892801",
      "addr_state": "CA",
      "addr_city": "Ramona",
      "addr_postcode": "92065",
      "addr_street": "Main Street",
      "addr_housenumber": "1413",
      "value": 174.00885110298293
    },
    {
      "id": 172155,
      "geometry": "POINT (-117.074928 33.01735)",
      "poi_name": "Burma Place",
      "osm_id": 2397160584,
      "amenity": "restaurant",
      "cuisine": "asian",
      "addr_state": "CA",
      "addr_city": "San Diego",
      "addr_postcode": "92128",
      "addr_street": "Bernardo Center Drive",
      "addr_housenumber": "16719a",
      "value": 174.00885110298293
    },
    {
      "id": 172156,
      "geometry": "POINT (-117.072603 33.019965)",
      "poi_name": "Casa Lahori",
      "osm_id": 2397160592,
      "amenity": "restaurant",
      "cuisine": "pakistani",
      "addr_state": "CA",
      "addr_city": "San Diego",
      "addr_postcode": "92128",
      "addr_street": "Bernardo Plaza Drive",
      "addr_housenumber": "11975",
      "value": 174.00885110298293
    },
    {
      "id": 172147,
      "geometry": "POINT (-117.077472 33.014934)",
      "poi_name": "Borrelli's",
      "osm_id": 2397160484,
      "amenity": "restaurant",
      "cuisine": "italian",
      "website": "https://www.borrellis.com/",
      "phone": "858-673-1234",
      "addr_state": "CA",
      "addr_city": "San Diego",
      "addr_postcode": "92128",
      "addr_street": "Bernardo Center Drive",
      "addr_housenumber": "16588",
      "value": 174.00885110298293
    },
    {
      "id": 190586,
      "geometry": "POINT (-117.083111 33.288269)",
      "poi_name": "The Yellow Deli",
      "osm_id": 1305812074,
      "amenity": "restaurant",
      "cuisine": "deli",
      "opening_hours": "Su 12:00-20:00, Mo-Th 07:00-20:00, Fr 07:00-15:00",
      "website": "https://yellowdeli.com/valley-center",
      "phone": "(760) 742-2064",
      "addr_state": "CA",
      "addr_city": "Valley Center",
      "addr_postcode": "92082",
      "addr_street": "Lilac Road",
      "addr_housenumber": "32011",
      "value": 174.00885110298293
    },
    {
      "id": 190385,
      "geometry": "POINT (-117.084477 33.365185)",
      "poi_name": "Mis Cuates Taco Shop",
      "osm_id": 1291363657,
      "amenity": "restaurant",
      "cuisine": "mexican",
      "opening_hours": "We-Mo 09:00-21:00",
      "addr_state": "CA",
      "addr_city": "Pala",
      "addr_postcode": "92059",
      "addr_street": "Pala Mission Road",
      "addr_housenumber": "11194",
      "value": 174.00885110298293
    },
    {
      "id": 192460,
      "geometry": "POINT (-117.084926 33.126887)",
      "poi_name": "Ph\u1edf Saigon Express",
      "osm_id": 1449262247,
      "amenity": "restaurant",
      "cuisine": "asian",
      "website": "https://www.phosaigonexpress.com/",
      "addr_city": "Escondido",
      "addr_postcode": "92025",
      "addr_street": "East Washington Avenue",
      "addr_housenumber": "605",
      "value": 174.00885110298293
    },
    {
      "id": 200575,
      "geometry": "POINT (-117.126338 32.957982)",
      "poi_name": "Rice Chicken",
      "osm_id": 596016694,
      "amenity": "restaurant",
      "cuisine": "chicken",
      "addr_state": "CA",
      "addr_city": "San Diego",
      "addr_postcode": "92129",
      "addr_street": "Black Mountain Road",
      "addr_housenumber": "13219",
      "value": 174.00885110298293
    },
    {
      "id": 193728,
      "geometry": "POINT (-117.089835 33.128745)",
      "poi_name": "Chicken Plus",
      "osm_id": 1558775272,
      "amenity": "restaurant",
      "cuisine": "greek",
      "website": "http://www.chickenplus.net/",
      "addr_city": "Escondido",
      "addr_postcode": "92025",
      "addr_street": "West Mission Avenue",
      "addr_housenumber": "309",
      "value": 174.00885110298293
    },
    {
      "id": 194007,
      "geometry": "POINT (-117.061923 32.97898)",
      "poi_name": "Outback Steakhouse",
      "osm_id": 1576252835,
      "amenity": "restaurant",
      "cuisine": "american;steak",
      "addr_state": "CA",
      "addr_street": "Pomerado Road",
      "addr_housenumber": "14701",
      "value": 174.00885110298293
    },
    {
      "id": 196042,
      "geometry": "POINT (-117.094593 32.962399)",
      "poi_name": "Crafted Culture",
      "osm_id": 10560115481,
      "amenity": "restaurant",
      "cuisine": "american",
      "phone": "+1 858-324-1060",
      "addr_state": "CA",
      "addr_city": "San Diego",
      "addr_postcode": "92128",
      "addr_street": "Evening Creek Drive North",
      "addr_housenumber": "13480",
      "value": 174.00885110298293
    },
    {
      "id": 196565,
      "geometry": "POINT (-117.179417 33.136057)",
      "poi_name": "Sushi Huku",
      "osm_id": 10586158335,
      "amenity": "restaurant",
      "cuisine": "sushi",
      "addr_state": "CA",
      "addr_city": "San Marcos",
      "addr_postcode": "92078",
      "addr_street": "West San Marcos Boulevard",
      "addr_housenumber": "731;727",
      "value": 174.00885110298293
    },
    {
      "id": 200655,
      "geometry": "POINT (-117.084115 33.110277)",
      "poi_name": "Westside Cafe",
      "osm_id": 596509340,
      "amenity": "restaurant",
      "addr_city": "Escondido",
      "addr_postcode": "92025",
      "addr_street": "South Redwood Street",
      "addr_housenumber": "912",
      "value": 174.00885110298293
    },
    {
      "id": 192436,
      "geometry": "POINT (-117.079517 33.107671)",
      "poi_name": "Marie Callender's",
      "osm_id": 1446003020,
      "amenity": "restaurant",
      "cuisine": "american",
      "website": "https://www.mcpies.com/",
      "shop": "bakery",
      "official_name": "Marie Callender's Restaurant & Bakery",
      "addr_city": "Escondido",
      "addr_postcode": "92025",
      "addr_street": "West 13th Avenue",
      "addr_housenumber": "515",
      "value": 174.00885110298293
    },
    {
      "id": 200612,
      "geometry": "POINT (-117.076051 32.986179)",
      "poi_name": "Islands",
      "osm_id": 596203281,
      "amenity": "restaurant",
      "addr_state": "CA",
      "addr_city": "San Diego",
      "addr_postcode": "92128",
      "addr_street": "Carmel Mountain Road",
      "addr_housenumber": "12224",
      "value": 174.00885110298293
    },
    {
      "id": 200614,
      "geometry": "POINT (-116.863386 33.044646)",
      "poi_name": "Amerient Restaurant",
      "osm_id": 596206426,
      "amenity": "restaurant",
      "cuisine": "american;asian;chinese;sandwich",
      "opening_hours": "Tu-Su 11:00-20:00",
      "website": "https://amerientrestaurant.com/",
      "phone": "760-789-6855",
      "addr_city": "Ramona",
      "addr_postcode": "92065",
      "addr_street": "Main Street",
      "addr_housenumber": "668",
      "value": 174.00885110298293
    },
    {
      "id": 200586,
      "geometry": "POINT (-117.074625 33.017952)",
      "poi_name": "IHOP",
      "osm_id": 596075295,
      "amenity": "restaurant",
      "cuisine": "breakfast;pancake",
      "opening_hours": "Su-Th 06:00-23:00; Fr,Sa 06:00-24:00",
      "takeaway": "yes",
      "outdoor_seating": "yes",
      "delivery": "no",
      "addr_state": "CA",
      "addr_city": "San Diego",
      "addr_postcode": "92128",
      "addr_street": "Bernardo Center Drive",
      "addr_housenumber": "16759",
      "value": 174.00885110298293
    },
    {
      "id": 200643,
      "geometry": "POINT (-116.874949 33.038939)",
      "poi_name": "D'Carlo's",
      "osm_id": 596400422,
      "amenity": "restaurant",
      "cuisine": "steak_house;burger;italian",
      "phone": "+17609040299",
      "addr_city": "Ramona",
      "addr_postcode": "92065",
      "addr_street": "Main Street",
      "addr_housenumber": "1347",
      "value": 174.00885110298293
    },
    {
      "id": 200715,
      "geometry": "POINT (-117.045655 32.957289)",
      "poi_name": "Lumpia House",
      "osm_id": 596829188,
      "amenity": "restaurant",
      "addr_state": "CA",
      "addr_city": "Poway",
      "addr_street": "Poway Road",
      "addr_housenumber": "13160",
      "value": 174.00885110298293
    },
    {
      "id": 200683,
      "geometry": "POINT (-117.089795 32.965495)",
      "poi_name": "Oggi's Pizza and Brewing Co.",
      "osm_id": 596649040,
      "amenity": "restaurant",
      "website": "http://cmr.oggis.com/",
      "addr_state": "CA",
      "addr_city": "San Diego",
      "addr_postcode": "92128",
      "addr_street": "Rancho Carmel Drive",
      "addr_housenumber": "10155",
      "value": 174.00885110298293
    },
    {
      "id": 200684,
      "geometry": "POINT (-117.076921 32.979741)",
      "poi_name": "Boto Sushi",
      "osm_id": 596650054,
      "amenity": "restaurant",
      "cuisine": "sushi",
      "website": "https://www.botosushi.com",
      "phone": "+1-858-451-7800",
      "addr_city": "San Diego",
      "addr_postcode": "92128",
      "addr_street": "Carmel Mountain Road",
      "addr_housenumber": "11835",
      "value": 174.00885110298293
    },
    {
      "id": 200690,
      "geometry": "POINT (-117.097482 32.935611)",
      "poi_name": "Nutmeg Cafe",
      "osm_id": 596685302,
      "amenity": "restaurant",
      "cuisine": "coffee_shop",
      "addr_state": "CA",
      "addr_city": "San Diego",
      "addr_postcode": "92131",
      "addr_street": "Scripps Poway Parkway",
      "addr_housenumber": "10755",
      "value": 174.00885110298293
    },
    {
      "id": 201251,
      "geometry": "POINT (-117.251013 32.980681)",
      "poi_name": "Milton's",
      "osm_id": 619523126,
      "amenity": "restaurant",
      "cuisine": "deli",
      "opening_hours": "Mo-Fr 09:30-19:30; Su 08:30-19:30; Sa 08:30-20:00",
      "website": "https://miltonsdeli.com/",
      "phone": "+18587922225",
      "addr_state": "CA",
      "addr_city": "Del Mar",
      "addr_postcode": "92014",
      "addr_street": "Via De La Valle",
      "addr_housenumber": "2660",
      "value": 174.00885110298293
    },
    {
      "id": 204679,
      "geometry": "POINT (-117.110854 33.015952)",
      "poi_name": "Los Primos Mexican Food",
      "osm_id": 7139649264,
      "amenity": "restaurant",
      "website": "https://primosmex.com/",
      "phone": "8585920960",
      "addr_state": "CA",
      "addr_city": "San Diego",
      "addr_postcode": "92127",
      "addr_street": "Dove Canyon Road",
      "addr_housenumber": "16621",
      "value": 174.00885110298293
    },
    {
      "id": 214898,
      "geometry": "POINT (-117.036874 32.96966)",
      "poi_name": "Hamburger Factory",
      "osm_id": 5282924756,
      "amenity": "restaurant",
      "cuisine": "burger;sandwich;american",
      "opening_hours": "Mo off; Tu 11:00-20:00; We-Su 07:00-20:00",
      "website": "https://www.hamburgerfactory.com/",
      "phone": "+1 858 4864575",
      "addr_state": "CA",
      "addr_city": "Poway",
      "addr_postcode": "92064",
      "addr_street": "Midland Road",
      "addr_housenumber": "14122",
      "value": 174.00885110298293
    },
    {
      "id": 213307,
      "geometry": "POINT (-116.868549 33.042272)",
      "poi_name": "Pete's BBQ & Burgers",
      "osm_id": 5246206396,
      "amenity": "restaurant",
      "cuisine": "burger;barbecue",
      "opening_hours": "Mo-Su 08:30-21:00",
      "website": "https://petesbbqsd.com",
      "phone": "+17607890584",
      "takeaway": "yes",
      "outdoor_seating": "no",
      "addr_state": "CA",
      "addr_city": "Ramona",
      "addr_postcode": "92065",
      "addr_street": "Main Street",
      "addr_housenumber": "997",
      "value": 174.00885110298293
    },
    {
      "id": 213308,
      "geometry": "POINT (-116.866616 33.043337)",
      "poi_name": "Marinade on Main",
      "osm_id": 5246207323,
      "amenity": "restaurant",
      "cuisine": "farm-to-table;american",
      "opening_hours": "Tu-Fr 11:00-15:00, 17:00-21:00; Sa, Su 09:00-21:00",
      "addr_state": "CA",
      "addr_city": "Ramona",
      "addr_postcode": "92065",
      "addr_street": "Main Street",
      "addr_housenumber": "865",
      "value": 174.00885110298293
    },
    {
      "id": 216685,
      "geometry": "POINT (-117.03883 32.957564)",
      "poi_name": "In The Mix Yogurt",
      "osm_id": 9179215671,
      "amenity": "restaurant",
      "cuisine": "yogurt",
      "building": "yes",
      "opening_hours": "11:00-21:00",
      "shop": "yes",
      "addr_state": "CA",
      "addr_city": "Poway",
      "addr_postcode": "92064",
      "addr_street": "Poway Road",
      "addr_housenumber": "13450",
      "value": 174.00885110298293
    },
    {
      "id": 216686,
      "geometry": "POINT (-117.040183 32.959659)",
      "poi_name": "Players Sports Bar",
      "osm_id": 9179215678,
      "amenity": "restaurant",
      "building": "yes",
      "addr_state": "CA",
      "addr_city": "Poway",
      "addr_postcode": "92064",
      "addr_street": "Community Road",
      "addr_housenumber": "13437",
      "value": 174.00885110298293
    },
    {
      "id": 218562,
      "geometry": "POINT (-117.062916 32.95093)",
      "poi_name": "369 Ramen. Poke. Chinese.",
      "osm_id": 9284416967,
      "amenity": "restaurant",
      "cuisine": "poke;ramen;chinese",
      "opening_hours": "Mo-Th 10:30-21:30; Fr,Sa 10:30-22:00; Su 10:30-21:00",
      "website": "https://www.369ramenpokechinese.com/",
      "phone": "+1 858 668 2887",
      "takeaway": "yes",
      "addr_state": "CA",
      "addr_city": "Poway",
      "addr_postcode": "92064",
      "addr_street": "Poway Road",
      "addr_housenumber": "12373",
      "value": 174.00885110298293
    },
    {
      "id": 218638,
      "geometry": "POINT (-117.061112 32.982214)",
      "poi_name": "Pacific Pizza",
      "osm_id": 9288998853,
      "amenity": "restaurant",
      "cuisine": "pizza",
      "opening_hours": "Mo-Tu 10:00-20:00; We-Sa 10:00-21:00; Su 12:00-20:00",
      "website": "https://www.pacificpizza.net/",
      "phone": "+1 858 8426600",
      "addr_state": "CA",
      "addr_city": "Poway",
      "addr_postcode": "92064",
      "addr_street": "Pomerado Road",
      "addr_housenumber": "14897",
      "value": 174.00885110298293
    },
    {
      "id": 218639,
      "geometry": "POINT (-117.061006 32.982136)",
      "poi_name": "Chopsticks Chinese Cuisine",
      "osm_id": 9288998854,
      "amenity": "restaurant",
      "cuisine": "chinese",
      "phone": "+1 858 748 2488",
      "addr_state": "CA",
      "addr_city": "Poway",
      "addr_postcode": "92064",
      "addr_street": "Pomerado Road",
      "addr_housenumber": "14885",
      "value": 174.00885110298293
    },
    {
      "id": 218662,
      "geometry": "POINT (-117.11077 33.019959)",
      "poi_name": "Joyee's Dumpling House",
      "osm_id": 9289258737,
      "amenity": "restaurant",
      "cuisine": "asian",
      "opening_hours": "Mo-Su 11:30-19:30",
      "addr_state": "CA",
      "addr_city": "San Diego",
      "addr_postcode": "92127",
      "addr_street": "Craftsman Way",
      "addr_housenumber": "10550",
      "value": 174.00885110298293
    },
    {
      "id": 216744,
      "geometry": "POINT (-117.038201 32.956652)",
      "poi_name": "Baba Kabob Poway",
      "osm_id": 9181471361,
      "amenity": "restaurant",
      "cuisine": "mediterranean",
      "website": "https://babakabobsd.com/",
      "phone": "+18586687097",
      "addr_state": "CA",
      "addr_city": "Poway",
      "addr_postcode": "92064",
      "addr_street": "Poway Road",
      "addr_housenumber": "13538",
      "value": 174.00885110298293
    },
    {
      "id": 216745,
      "geometry": "POINT (-117.038202 32.95675)",
      "poi_name": "Iron Pan Thai Kitchen",
      "osm_id": 9181471363,
      "amenity": "restaurant",
      "cuisine": "thai",
      "website": "https://ironpanthaikitchen.com/",
      "phone": "+1 858-668-0888",
      "addr_state": "CA",
      "addr_city": "Poway",
      "addr_postcode": "92064",
      "addr_street": "Poway Road",
      "addr_housenumber": "13538",
      "value": 174.00885110298293
    },
    {
      "id": 216747,
      "geometry": "POINT (-117.042703 32.955958)",
      "poi_name": "Ichizen Sushi and Japanese Cuisine",
      "osm_id": 9181471382,
      "amenity": "restaurant",
      "cuisine": "japanese",
      "phone": "+1 858-486-4558",
      "addr_state": "CA",
      "addr_city": "Poway",
      "addr_postcode": "92064",
      "addr_street": "Poway Road",
      "addr_housenumber": "13307,13309",
      "value": 174.00885110298293
    },
    {
      "id": 218816,
      "geometry": "POINT (-117.038563 32.957181)",
      "poi_name": "Round Table Pizza",
      "osm_id": 9297517210,
      "amenity": "restaurant",
      "cuisine": "pizza",
      "addr_city": "Poway",
      "addr_postcode": "92064",
      "addr_street": "Poway Road",
      "addr_housenumber": "13510",
      "value": 174.00885110298293
    },
    {
      "id": 219041,
      "geometry": "POINT (-117.082685 32.979926)",
      "poi_name": "China Fun",
      "osm_id": 9313377559,
      "amenity": "restaurant",
      "cuisine": "chinese;noodle",
      "addr_state": "CA",
      "addr_city": "San Diego",
      "addr_postcode": "92128",
      "addr_street": "Rancho Carmel Drive",
      "addr_housenumber": "11134",
      "value": 174.00885110298293
    },
    {
      "id": 219043,
      "geometry": "POINT (-117.083521 32.977747)",
      "poi_name": "Urban Thai",
      "osm_id": 9313389724,
      "amenity": "restaurant",
      "cuisine": "thai",
      "addr_state": "CA",
      "addr_city": "San Diego",
      "addr_postcode": "92128",
      "addr_housenumber": "11493",
      "value": 174.00885110298293
    },
    {
      "id": 219390,
      "geometry": "POINT (-117.072652 33.019938)",
      "poi_name": "The Shop Pizza + Cocktails",
      "osm_id": 9328178758,
      "amenity": "restaurant",
      "cuisine": "pizza",
      "website": "https://www.theshop858.com/",
      "phone": "+1 858 524 6565",
      "addr_state": "CA",
      "addr_city": "San Diego",
      "addr_postcode": "92128",
      "addr_street": "Bernardo Plaza Drive",
      "addr_housenumber": "11967",
      "value": 174.00885110298293
    },
    {
      "id": 238252,
      "geometry": "POINT (-117.04204 32.957029)",
      "poi_name": "Bongiorno's New York Pizza",
      "osm_id": 5869689455,
      "amenity": "restaurant",
      "cuisine": "pizza;italian",
      "opening_hours": "Mo-Th 11:00-21:00; Fr, Sa 11:00-21:30; Su 11:30-20:30",
      "website": "https://www.bongiornospizzapoway.com/index.html",
      "phone": "858-679-3278",
      "takeaway": "yes",
      "outdoor_seating": "no",
      "delivery": "yes",
      "addr_state": "CA",
      "addr_city": "Poway",
      "addr_postcode": "92064",
      "addr_street": "Poway Road",
      "addr_housenumber": "13332",
      "value": 174.00885110298293
    },
    {
      "id": 242487,
      "geometry": "POINT (-117.083527 32.97798)",
      "poi_name": "Best Pizza and Brew",
      "osm_id": 7573433228,
      "amenity": "restaurant",
      "cuisine": "pizza",
      "website": "https://www.bestpizzaandbrew.com/",
      "phone": "+18589273900",
      "addr_state": "CA",
      "addr_city": "San Diego",
      "addr_postcode": "92128",
      "addr_street": "Carmel Mountain Road",
      "addr_housenumber": "11489",
      "value": 174.00885110298293
    },
    {
      "id": 244412,
      "geometry": "POINT (-117.0742 32.983097)",
      "poi_name": "Dragon",
      "osm_id": 7722508690,
      "amenity": "restaurant",
      "cuisine": "chinese",
      "opening_hours": "Mo-Tu,Th-Fr 10:30-21:00; We off; Sa 11:00-21:00; Su 12:00-21:00",
      "website": "https://www.dragonsandiego.com/",
      "phone": "+1-858-592-9898",
      "addr_state": "CA",
      "addr_city": "San Diego",
      "addr_postcode": "92128",
      "addr_street": "Carmel Mountain Road",
      "addr_housenumber": "12075",
      "value": 174.00885110298293
    },
    {
      "id": 244258,
      "geometry": "POINT (-117.120843 32.91906)",
      "poi_name": "El Patron Traditional Mexican Grill",
      "osm_id": 7709105850,
      "amenity": "restaurant",
      "cuisine": "mexican",
      "website": "http://elpatron.menutoeat.com/",
      "phone": "+1-858-549-3467",
      "outdoor_seating": "yes",
      "addr_state": "CA",
      "addr_city": "San Diego",
      "addr_postcode": "92126",
      "addr_street": "Mira Mesa Boulevard",
      "addr_housenumber": "9460",
      "value": 174.00885110298293
    },
    {
      "id": 244259,
      "geometry": "POINT (-117.114588 32.959283)",
      "poi_name": "Sushi Hana",
      "osm_id": 7709403654,
      "amenity": "restaurant",
      "cuisine": "sushi",
      "website": "http://www.sdsushihana.com/",
      "phone": "+1-858-484-5300",
      "addr_state": "CA",
      "addr_city": "San Diego",
      "addr_postcode": "92129",
      "addr_street": "Carmel Mountain Road",
      "addr_housenumber": "9869",
      "value": 174.00885110298293
    },
    {
      "id": 244382,
      "geometry": "POINT (-117.122504 32.918376)",
      "poi_name": "Go Go Sushi & Ramen",
      "osm_id": 7718924379,
      "amenity": "restaurant",
      "cuisine": "sushi",
      "opening_hours": "Su-Th 11:00-21:00; Fr-Sa 11:00-21:30",
      "website": "https://www.gogosushisd.com",
      "phone": "+1-858-530-8600",
      "addr_state": "CA",
      "addr_city": "San Diego",
      "addr_postcode": "92126",
      "addr_street": "Mira Mesa Boulevard",
      "addr_housenumber": "9430",
      "value": 174.00885110298293
    },
    {
      "id": 244405,
      "geometry": "POINT (-117.07425 32.982869)",
      "poi_name": "Sushi Kyodai",
      "osm_id": 7722437593,
      "amenity": "restaurant",
      "cuisine": "sushi",
      "opening_hours": "Mo-Th 11:30-20:30; Fr-Sa 11:30-21:00; Su off",
      "website": "https://www.sushikyodai.com/",
      "phone": "+1-858-451-2255",
      "takeaway": "yes",
      "addr_state": "CA",
      "addr_city": "San Diego",
      "addr_postcode": "92128",
      "addr_street": "Carmel Mountain Road",
      "addr_housenumber": "12075",
      "value": 174.00885110298293
    }
  ],
  "answer_type": "loc",
  "question_entities": {
    "[2]": {
      "distance": 70000,
      "text": "70 kilometers"
    },
    "[3]": {
      "main_category": "tourism",
      "sub_category": "zoo",
      "display_name": "Sugarplum Zoo, Temecula, CA",
      "geo_wkt": "POINT (-117.055191 33.546915)",
      "poi": {
        "id": 24034,
        "geometry": "POINT (-117.055191 33.546915)",
        "poi_name": "Sugarplum Zoo",
        "osm_id": 9270599265,
        "tourism": "zoo",
        "fee": "yes",
        "opening_hours": "Mo-Sa 08:00-18:00",
        "addr_state": "CA",
        "addr_city": "Temecula",
        "addr_postcode": "92591",
        "addr_street": "Berenda Rd",
        "addr_housenumber": "39695"
      }
    },
    "[4]": {
      "main_category": "tourism",
      "sub_category": "hotel",
      "display_name": "Courtyard San Diego El Cajon, El Cajon, CA",
      "geo_wkt": "POINT (-116.961896 32.796079)",
      "poi": {
        "id": 22187,
        "geometry": "POINT (-116.961896 32.796079)",
        "poi_name": "Courtyard San Diego El Cajon",
        "osm_id": 596434306,
        "tourism": "hotel",
        "website": "https://www.marriott.com/en-us/hotels/sanec-courtyard-san-diego-el-cajon/overview/",
        "phone": "+1 619 334 6999",
        "official_name": "Courtyard by Marriott",
        "addr_state": "CA",
        "addr_city": "El Cajon",
        "addr_postcode": "92020",
        "addr_street": "North Magnolia Avenue",
        "addr_housenumber": "141"
      }
    },
    "[1]": {
      "main_category": "amenity",
      "sub_category": "restaurant"
    }
  },
  "id": 1215,
  "type": "range:towards+loc"
}