{
  "question": "Could you assist me in locating an emergency hospital within a 150 kilometers radius originating from Tackapausha Museum Library, NY?",
  "sql": "SELECT * FROM pois\nWHERE ST_DWithin(pois.geometry, ST_GeomFromText('POINT (-73.483382 40.667664)',4326)::geography, 150000)\nAND amenity = 'hospital'\nAND emergency ILIKE '%yes%';\n",
  "answers": [
    {
      "id": 59057,
      "geometry": "POINT (-73.804937 41.086049)",
      "poi_name": "Maria Fareri Children's Hospital",
      "osm_id": 5408870771,
      "amenity": "hospital",
      "opening_hours": "24/7",
      "operator": "Westchester Medical Center Health Network",
      "website": "https://www.mariafarerichildrens.org/",
      "phone": "+1 914 493 7000",
      "healthcare": "hospital",
      "emergency": "yes",
      "wikidata": "Q17020173",
      "addr_city": "Valhalla",
      "addr_postcode": "10595",
      "addr_street": "Woods Road",
      "addr_housenumber": "100"
    },
    {
      "id": 64145,
      "geometry": "POINT (-75.242538 40.687207)",
      "poi_name": "Easton Hospital",
      "osm_id": 5641614323,
      "amenity": "hospital",
      "healthcare": "hospital",
      "emergency": "yes",
      "addr_state": "PA",
      "addr_city": "Easton",
      "addr_postcode": "18042",
      "addr_street": "South 21st Street",
      "addr_housenumber": "250"
    },
    {
      "id": 64233,
      "geometry": "POINT (-74.58506 39.977622)",
      "poi_name": "Capital Health at Deborah - Emergency Department",
      "osm_id": 5645807821,
      "amenity": "hospital",
      "opening_hours": "24/7",
      "operator": "Capital Health",
      "website": "https://demanddeborah.org/capital-health-at-deborah-emergency-services/",
      "healthcare": "hospital",
      "emergency": "yes",
      "addr_state": "NJ",
      "addr_city": "Browns Mills",
      "addr_postcode": "08015",
      "addr_street": "Trenton Road",
      "addr_housenumber": "200"
    },
    {
      "id": 167483,
      "geometry": "POINT (-73.879844 40.880085)",
      "poi_name": "Montefiore Medical Center West Campus Moses Division Hospital",
      "osm_id": 357571909,
      "amenity": "hospital",
      "opening_hours": "24/7",
      "operator": "Montefiore Health System",
      "website": "https://www.montefiore.org/west",
      "phone": "+1 718 920 4321",
      "healthcare": "hospital",
      "emergency": "yes",
      "wikidata": "Q6905066",
      "addr_city": "Bronx",
      "addr_postcode": "10467",
      "addr_street": "East 210th Street",
      "addr_housenumber": "111"
    },
    {
      "id": 146605,
      "geometry": "POINT (-74.138705 40.057417)",
      "poi_name": "Immediate Care Medical Walk-In of Brick",
      "osm_id": 7461102674,
      "amenity": "hospital",
      "healthcare": "hospital",
      "emergency": "yes",
      "addr_state": "NJ",
      "addr_city": "Brick Township",
      "addr_postcode": "08723",
      "addr_street": "Brick Plaza",
      "addr_housenumber": "8"
    },
    {
      "id": 167507,
      "geometry": "POINT (-73.881396 40.880358)",
      "poi_name": "North Central Bronx Hospital",
      "osm_id": 357611253,
      "amenity": "hospital",
      "opening_hours": "24/7",
      "operator": "NYC Health + Hospitals",
      "website": "https://www.nychealthandhospitals.org/northcentralbronx/",
      "phone": "+1 718 519 5000",
      "healthcare": "hospital",
      "emergency": "yes",
      "wikidata": "Q96396296",
      "addr_city": "Bronx",
      "addr_postcode": "10467",
      "addr_street": "Kossuth Avenue",
      "addr_housenumber": "3424"
    },
    {
      "id": 167511,
      "geometry": "POINT (-73.708333 40.753889)",
      "poi_name": "Cohen\u2019s Children\u2019s Medical Center",
      "osm_id": 357616936,
      "amenity": "hospital",
      "opening_hours": "24/7",
      "operator": "Northwell Health",
      "website": "https://childrenshospital.northwell.edu/",
      "healthcare": "hospital",
      "emergency": "yes",
      "addr_city": "New Hyde Park",
      "addr_postcode": "11040",
      "addr_street": "76th Avenue",
      "addr_housenumber": "269-01"
    },
    {
      "id": 167513,
      "geometry": "POINT (-74.000833 40.737778)",
      "poi_name": "Lenox Health Greenwich Village",
      "osm_id": 357620244,
      "amenity": "hospital",
      "opening_hours": "24/7",
      "operator": "Northwell Health",
      "website": "https://www.northwell.edu/lenox-health-greenwich-village",
      "phone": "+1 646 665 6000",
      "healthcare": "hospital",
      "emergency": "yes",
      "addr_city": "New York",
      "addr_postcode": "10011",
      "addr_street": "7th Avenue",
      "addr_housenumber": "30"
    },
    {
      "id": 167781,
      "geometry": "POINT (-72.936331 41.304241)",
      "poi_name": "Yale New Haven Children's Hospital",
      "osm_id": 359283462,
      "amenity": "hospital",
      "opening_hours": "24/7",
      "operator": "Yale New Haven Health",
      "website": "https://www.ynhh.org/childrens-hospital.aspx",
      "phone": "+1 203 688 4242",
      "healthcare": "hospital",
      "emergency": "yes",
      "wikidata": "Q91153398",
      "addr_state": "CT",
      "addr_city": "New Haven",
      "addr_postcode": "06510",
      "addr_street": "Park Street",
      "addr_housenumber": "1"
    },
    {
      "id": 222206,
      "geometry": "POINT (-74.49608 40.862231)",
      "poi_name": "True Life Care Center",
      "osm_id": 11009629478,
      "amenity": "hospital",
      "description": "Our team at True Life Care is dedicated to helping you take control of your mental health through a personalized healing approach and compassionate care.",
      "opening_hours": "Mo-Fr 08:30-17:30",
      "website": "https://truelifecarementalhealth.com",
      "phone": "+1-973-490-4563",
      "healthcare": "hospital",
      "emergency": "yes",
      "addr_state": "NJ",
      "addr_city": "Morris Plains",
      "addr_postcode": "07950",
      "addr_street": "NJ-10",
      "addr_housenumber": "3000"
    }
  ],
  "answer_type": "loc",
  "question_entities": {
    "[1]": {
      "main_category": "amenity",
      "sub_category": "hospital",
      "poi_filter_desc": "emergency hospital",
      "poi_filter_sql": "emergency ILIKE '%yes%'"
    },
    "[2]": {
      "distance": 150000,
      "text": "150 kilometers"
    },
    "[3]": {
      "main_category": "tourism",
      "sub_category": "museum",
      "display_name": "Tackapausha Museum Library, NY",
      "geo_wkt": "POINT (-73.483382 40.667664)",
      "poi": {
        "id": 17800,
        "geometry": "POINT (-73.483382 40.667664)",
        "poi_name": "Tackapausha Museum Library",
        "osm_id": 368061562,
        "tourism": "museum",
        "addr_state": "NY"
      }
    }
  },
  "id": 420,
  "type": "range:non_spat_filter+loc"
}