{
  "question": "Within a radius of 90 kilometers, where can I find  a restaurant along the way to Sugarplum Zoo, Temecula, CA from Giant Wheel at Irvine Spectrum Center, Irvine, CA?",
  "sql": "WITH\n    angle AS (SELECT degrees(ST_Azimuth(ST_GeomFromText('POINT (-117.742558 33.649409)',4326)::geography, ST_GeomFromText('POINT (-117.055191 33.546915)',4326)::geography)) AS value)\nSELECT * FROM pois,angle\nWHERE amenity = 'restaurant'\nAND ST_DWithin(pois.geometry, ST_GeomFromText('POINT (-117.742558 33.649409)',4326)::geography, 90000)\nAND (degrees(ST_Azimuth(ST_GeomFromText('POINT (-117.742558 33.649409)',4326)::geography, pois.geometry)) BETWEEN angle.value - 22.5 AND angle.value + 22.5);\n",
  "answers": [
    {
      "id": 31785,
      "geometry": "POINT (-116.977175 33.303009)",
      "poi_name": "El Rey",
      "osm_id": 8446689372,
      "amenity": "restaurant",
      "cuisine": "mexican",
      "phone": "+17607423343",
      "addr_state": "CA",
      "addr_city": "Pauma Valley",
      "addr_postcode": "92061",
      "addr_street": "CA-76",
      "addr_housenumber": "16220",
      "value": 99.91289788802388
    },
    {
      "id": 53055,
      "geometry": "POINT (-117.194922 33.550653)",
      "poi_name": "Wingz and Mi",
      "osm_id": 10061825030,
      "amenity": "restaurant",
      "cuisine": "vietnamese",
      "opening_hours": "Mo, Tu, Th-Su 11:00-20:00",
      "addr_state": "CA",
      "addr_city": "Murrieta",
      "addr_postcode": "92562",
      "addr_street": "Madison Avenue",
      "addr_housenumber": "25395",
      "value": 99.91289788802388
    },
    {
      "id": 40102,
      "geometry": "POINT (-117.151176 33.496589)",
      "poi_name": "E.A.T.",
      "osm_id": 2957300429,
      "amenity": "restaurant",
      "cuisine": "cafe",
      "website": "https://eatmarketplace.com/",
      "phone": "951 694 3663",
      "addr_city": "Temecula",
      "addr_postcode": "92590",
      "addr_street": "Old Town Front Street",
      "addr_housenumber": "28410",
      "value": 99.91289788802388
    },
    {
      "id": 53056,
      "geometry": "POINT (-117.194812 33.550736)",
      "poi_name": "Spicy Noodle",
      "osm_id": 10061848545,
      "amenity": "restaurant",
      "cuisine": "vietnamese",
      "opening_hours": "Mo, Th-Su 11:00-20:00",
      "addr_state": "CA",
      "addr_city": "Murrieta",
      "addr_postcode": "92562",
      "addr_street": "Madison Avenue",
      "addr_housenumber": "25395",
      "value": 99.91289788802388
    },
    {
      "id": 56999,
      "geometry": "POINT (-117.740735 33.649117)",
      "poi_name": "Little Sister",
      "osm_id": 10258410475,
      "amenity": "restaurant",
      "cuisine": "vietnamese",
      "opening_hours": "11:00-22:00",
      "website": "https://www.littlesisteroc.com/",
      "phone": "+19498008798",
      "addr_state": "CA",
      "addr_city": "Irvine",
      "addr_postcode": "92618",
      "addr_street": "Spectrum Center Drive",
      "addr_housenumber": "896",
      "value": 99.91289788802388
    },
    {
      "id": 63569,
      "geometry": "POINT (-117.583015 33.650174)",
      "poi_name": "The Trough Sandwich Kitchen",
      "osm_id": 5623012061,
      "amenity": "restaurant",
      "cuisine": "sandwich;american;breakfast",
      "website": "http://thetroughoc.com",
      "phone": "(949) 709-5545",
      "outdoor_seating": "yes",
      "addr_state": "CA",
      "addr_city": "Rancho Santa Margarita",
      "addr_postcode": "92688",
      "addr_street": "Santa Margarita Pkwy",
      "addr_housenumber": "31431",
      "value": 99.91289788802388
    },
    {
      "id": 68653,
      "geometry": "POINT (-117.702716 33.654302)",
      "poi_name": "Good Time Cafe",
      "osm_id": 11279878055,
      "amenity": "restaurant",
      "cuisine": "chinese",
      "description": "Lunch special active Monday thru Friday, 11:00 am - 2:30 pm except holidays. Delivers by Chowbus, Fantuan, Uber Eats, and DoorDash.",
      "wheelchair": "yes",
      "opening_hours": "Mo-We 11:30-14:30, 16:00-20:00; Th-Su 11:30-20:00",
      "takeaway": "yes",
      "addr_state": "CA",
      "addr_city": "Lake Forest",
      "addr_postcode": "92630",
      "addr_street": "Bake Parkway",
      "addr_housenumber": "21212",
      "value": 99.91289788802388
    },
    {
      "id": 79675,
      "geometry": "POINT (-116.865557 33.314363)",
      "poi_name": "Mother's Kitchen",
      "osm_id": 822324565,
      "amenity": "restaurant",
      "website": "https://www.motherskitchenpalomar.com/",
      "phone": "760-742-4233",
      "addr_state": "CA",
      "addr_city": "Palomar Mountain",
      "addr_postcode": "92060",
      "addr_street": "Canfield Road",
      "addr_housenumber": "33120",
      "value": 99.91289788802388
    },
    {
      "id": 107981,
      "geometry": "POINT (-117.634032 33.627623)",
      "poi_name": "Sabatino",
      "osm_id": 3587082099,
      "amenity": "restaurant",
      "cuisine": "italian",
      "opening_hours": "11:30-21:30",
      "website": "http://www.sabatinomissionviejo.info",
      "phone": "+1-(949) 470-4605",
      "addr_state": "CA",
      "addr_city": "Mission Viejo",
      "addr_postcode": "92692",
      "addr_street": "Alicia Pkwy",
      "addr_housenumber": "23032",
      "value": 99.91289788802388
    },
    {
      "id": 108039,
      "geometry": "POINT (-117.608525 33.636869)",
      "poi_name": "Celinda's",
      "osm_id": 3591233679,
      "amenity": "restaurant",
      "cuisine": "mexican",
      "opening_hours": "Mo-Sa 08:00-20:00; Su off",
      "website": "www.celindas.com",
      "phone": "+1-949-589-0354",
      "takeaway": "yes",
      "addr_state": "CA",
      "addr_city": "Rancho Santa Margarita",
      "addr_street": "Aventura",
      "addr_housenumber": "29941",
      "value": 99.91289788802388
    },
    {
      "id": 107984,
      "geometry": "POINT (-117.644936 33.631912)",
      "poi_name": "Peppinos",
      "osm_id": 3587162405,
      "amenity": "restaurant",
      "cuisine": "italian",
      "opening_hours": "Mo-Th 16:00-21:30; Fr-Su 11:00-21:30",
      "website": "https://www.peppinosonline.com/locations_missionviejo.html",
      "phone": "+1-949-859-9556",
      "addr_state": "CA",
      "addr_city": "Mission Viejo",
      "addr_postcode": "92692",
      "addr_street": "Vista Del Lago # 26",
      "addr_housenumber": "27782",
      "value": 99.91289788802388
    },
    {
      "id": 107985,
      "geometry": "POINT (-117.644695 33.632233)",
      "poi_name": "Hacienda on the Lake",
      "osm_id": 3587162406,
      "amenity": "restaurant",
      "cuisine": "mexican",
      "opening_hours": "11am-10pm weekdays, 11am-11pm weekend",
      "website": "https://www.haciendaonthelake.com/dinner-menu/",
      "phone": "+1-949-472-8100",
      "addr_state": "CA",
      "addr_city": "Mission Viejo",
      "addr_postcode": "92692",
      "addr_street": "Vista Del Lago",
      "addr_housenumber": "27792",
      "value": 99.91289788802388
    },
    {
      "id": 146643,
      "geometry": "POINT (-117.175101 33.681868)",
      "poi_name": "BJ's",
      "osm_id": 7467578632,
      "amenity": "restaurant",
      "cuisine": "american",
      "official_name": "BJ's Restaurant & Brewhouse",
      "addr_state": "CA",
      "addr_city": "Menifee",
      "addr_postcode": "92584",
      "addr_street": "Haun Road",
      "addr_housenumber": "30208",
      "value": 99.91289788802388
    },
    {
      "id": 123396,
      "geometry": "POINT (-117.25266 33.672967)",
      "poi_name": "The Urban Craft Eatery",
      "osm_id": 6852863677,
      "amenity": "restaurant",
      "cuisine": "american;breakfast",
      "website": "https://theurban-crafteatery.com/",
      "phone": "+1-951-244-5657",
      "addr_state": "CA",
      "addr_city": "Canyon Lake",
      "addr_postcode": "92587",
      "addr_street": "Railroad Canyon Road",
      "addr_housenumber": "31652",
      "value": 99.91289788802388
    },
    {
      "id": 123401,
      "geometry": "POINT (-117.251425 33.672943)",
      "poi_name": "Canyon Cowboy",
      "osm_id": 6852914404,
      "amenity": "restaurant",
      "cuisine": "american",
      "phone": "+1-951-723-2201",
      "outdoor_seating": "yes",
      "addr_state": "CA",
      "addr_city": "Canyon Lake",
      "addr_postcode": "92587",
      "addr_street": "Railroad Canyon Road",
      "addr_housenumber": "31504",
      "value": 99.91289788802388
    },
    {
      "id": 123406,
      "geometry": "POINT (-117.25357 33.671368)",
      "poi_name": "Sports Stop Pub and Grill",
      "osm_id": 6853020156,
      "amenity": "restaurant",
      "cuisine": "american",
      "opening_hours": "11:00-02:00",
      "website": "https://www.thesportsstoppub.com/",
      "phone": "+1-951-244-3369",
      "outdoor_seating": "yes",
      "addr_state": "CA",
      "addr_city": "Canyon Lake",
      "addr_postcode": "92587",
      "addr_street": "Railroad Canyon Road",
      "addr_housenumber": "31586",
      "value": 99.91289788802388
    },
    {
      "id": 146574,
      "geometry": "POINT (-117.175865 33.683533)",
      "poi_name": "Buffalo Wild Wings",
      "osm_id": 7455528016,
      "amenity": "restaurant",
      "cuisine": "wings",
      "addr_state": "CA",
      "addr_city": "Menifee",
      "addr_postcode": "92584",
      "addr_street": "Haun Road",
      "addr_housenumber": "30123",
      "value": 99.91289788802388
    },
    {
      "id": 151692,
      "geometry": "POINT (-117.203752 33.567384)",
      "poi_name": "Jade's Chinese Cuisine",
      "osm_id": 4109913715,
      "amenity": "restaurant",
      "cuisine": "chinese",
      "takeaway": "yes",
      "delivery": "no",
      "addr_state": "CA",
      "addr_city": "Murrieta",
      "addr_postcode": "92562",
      "addr_street": "California Oaks Road",
      "addr_housenumber": "40982",
      "value": 99.91289788802388
    },
    {
      "id": 146741,
      "geometry": "POINT (-117.208 33.686104)",
      "poi_name": "Pizza Factory",
      "osm_id": 7472523275,
      "amenity": "restaurant",
      "cuisine": "pizza",
      "opening_hours": "Mo-Su 11:00-20:00; Fr,Sa 11:00-21:00",
      "addr_city": "Menifee",
      "addr_postcode": "92584",
      "addr_street": "Newport Road",
      "addr_housenumber": "25908",
      "value": 99.91289788802388
    },
    {
      "id": 151390,
      "geometry": "POINT (-117.202272 33.57542)",
      "poi_name": "Panda Palace",
      "osm_id": 4096451160,
      "amenity": "restaurant",
      "cuisine": "chinese",
      "takeaway": "yes",
      "delivery": "no",
      "addr_state": "CA",
      "addr_city": "Murrieta",
      "addr_postcode": "92562",
      "addr_street": "California Oaks Road",
      "addr_housenumber": "40525",
      "value": 99.91289788802388
    },
    {
      "id": 151391,
      "geometry": "POINT (-117.202326 33.575425)",
      "poi_name": "Donut Star",
      "osm_id": 4096451161,
      "amenity": "restaurant",
      "cuisine": "donut",
      "phone": "+19516986430",
      "delivery": "no",
      "addr_state": "CA",
      "addr_city": "Murrieta",
      "addr_postcode": "92562",
      "addr_street": "California Oaks Road",
      "addr_housenumber": "40525",
      "value": 99.91289788802388
    },
    {
      "id": 151392,
      "geometry": "POINT (-117.203973 33.574284)",
      "poi_name": "MSR Mexican Food",
      "osm_id": 4096451163,
      "amenity": "restaurant",
      "cuisine": "mexican",
      "addr_state": "CA",
      "addr_city": "Murrieta",
      "addr_postcode": "92562",
      "addr_street": "California Oaks Road",
      "addr_housenumber": "40575",
      "value": 99.91289788802388
    },
    {
      "id": 151693,
      "geometry": "POINT (-117.20383 33.567834)",
      "poi_name": "Poke Port",
      "osm_id": 4109913717,
      "amenity": "restaurant",
      "cuisine": "poke",
      "website": "https://www.pokeportus.com/cal-oaks",
      "outdoor_seating": "yes",
      "addr_state": "CA",
      "addr_city": "Murrieta",
      "addr_postcode": "92562",
      "addr_street": "California Oaks Road",
      "addr_housenumber": "40952",
      "value": 99.91289788802388
    },
    {
      "id": 180203,
      "geometry": "POINT (-117.701276 33.655465)",
      "poi_name": "Curry Pizza House",
      "osm_id": 10795657689,
      "amenity": "restaurant",
      "wheelchair": "yes",
      "opening_hours": "Mo-Su 11:00-22:00",
      "website": "https://currypizzahouse.com/",
      "phone": "+1 949-859-2336",
      "addr_state": "CA",
      "addr_city": "Lake Forest",
      "addr_postcode": "92630",
      "addr_street": "Trabuco Road",
      "addr_housenumber": "24531",
      "value": 99.91289788802388
    },
    {
      "id": 180205,
      "geometry": "POINT (-117.701345 33.655512)",
      "poi_name": "Pho Tam Cali Vietnamese Cuisine",
      "osm_id": 10795753842,
      "amenity": "restaurant",
      "cuisine": "vietnamese",
      "wheelchair": "yes",
      "opening_hours": "Mo-Sa 11:00-20:00; Su off",
      "website": "https://www.yelp.com/biz/pho-t%C3%A1m-cali-lake-forest-5",
      "capacity": "26",
      "phone": "+1 949-215-9552",
      "takeaway": "yes",
      "outdoor_seating": "no",
      "delivery": "yes",
      "toilets": "yes",
      "addr_state": "CA",
      "addr_city": "Lake Forest",
      "addr_postcode": "92630",
      "addr_street": "Trabuco Road",
      "addr_housenumber": "24531",
      "value": 99.91289788802388
    },
    {
      "id": 180206,
      "geometry": "POINT (-117.701496 33.655591)",
      "poi_name": "Umma's K-BBQ",
      "osm_id": 10795755076,
      "amenity": "restaurant",
      "cuisine": "barbecue;korean",
      "wheelchair": "yes",
      "opening_hours": "Mo-Sa 11:00-15:00, 17:00-20:00; Su off",
      "website": "https://www.ummaskbbq.com/",
      "phone": "+1 949-716-2244",
      "takeaway": "yes",
      "outdoor_seating": "yes",
      "delivery": "yes",
      "toilets": "yes",
      "addr_state": "CA",
      "addr_city": "Lake Forest",
      "addr_postcode": "92630",
      "addr_street": "Trabuco Road",
      "addr_housenumber": "24531",
      "value": 99.91289788802388
    },
    {
      "id": 180215,
      "geometry": "POINT (-117.701591 33.655665)",
      "poi_name": "Lupes Mexican Eatery",
      "osm_id": 10795766394,
      "amenity": "restaurant",
      "cuisine": "mexican",
      "wheelchair": "yes",
      "opening_hours": "Mo-Su 08:00-21:00",
      "website": "https://www.eatlupes.com/",
      "phone": "+1 949-446-6011",
      "takeaway": "yes",
      "delivery": "yes",
      "toilets": "yes",
      "addr_state": "CA",
      "addr_city": "Lake Forest",
      "addr_postcode": "92630",
      "addr_street": "Trabuco Road",
      "addr_housenumber": "24531",
      "value": 99.91289788802388
    },
    {
      "id": 180216,
      "geometry": "POINT (-117.688687 33.646826)",
      "poi_name": "Brizio Pizza",
      "osm_id": 10795888597,
      "amenity": "restaurant",
      "cuisine": "pizza",
      "wheelchair": "yes",
      "opening_hours": "Su-Th 09:00-22:00; Fr-Sa 09:00-23:00",
      "website": "https://briziopizza.com/",
      "phone": "+1 949-951-7333",
      "takeaway": "yes",
      "outdoor_seating": "yes",
      "delivery": "yes",
      "addr_state": "CA",
      "addr_city": "Lake Forest",
      "addr_postcode": "92630",
      "addr_street": "Lake Forest Drive",
      "addr_housenumber": "21771",
      "value": 99.91289788802388
    },
    {
      "id": 190385,
      "geometry": "POINT (-117.084477 33.365185)",
      "poi_name": "Mis Cuates Taco Shop",
      "osm_id": 1291363657,
      "amenity": "restaurant",
      "cuisine": "mexican",
      "opening_hours": "We-Mo 09:00-21:00",
      "addr_state": "CA",
      "addr_city": "Pala",
      "addr_postcode": "92059",
      "addr_street": "Pala Mission Road",
      "addr_housenumber": "11194",
      "value": 99.91289788802388
    },
    {
      "id": 199916,
      "geometry": "POINT (-117.150231 33.49522)",
      "poi_name": "Havana Kitchen",
      "osm_id": 995003804,
      "amenity": "restaurant",
      "cuisine": "cuban",
      "website": "https://www.havanakitchen.com/",
      "phone": "951 699 7300",
      "addr_city": "Temecula",
      "addr_postcode": "92590",
      "addr_street": "5th Street",
      "addr_housenumber": "41955",
      "value": 99.91289788802388
    },
    {
      "id": 213994,
      "geometry": "POINT (-117.645852 33.654052)",
      "poi_name": "Olamendis Mission Viejo",
      "osm_id": 5263508321,
      "amenity": "restaurant",
      "cuisine": "mexican",
      "opening_hours": "Mo-Su 10:00-21:00",
      "takeaway": "yes",
      "delivery": "no",
      "addr_state": "CA",
      "addr_city": "Mission Viejo",
      "addr_postcode": "92691",
      "addr_street": "Santa Margarita Parkway",
      "addr_housenumber": "27775",
      "value": 99.91289788802388
    },
    {
      "id": 228000,
      "geometry": "POINT (-117.594666 33.640378)",
      "poi_name": "Round Table Pizza",
      "osm_id": 4326413864,
      "amenity": "restaurant",
      "cuisine": "pizza",
      "takeaway": "yes",
      "addr_state": "CA",
      "addr_city": "Rancho Santa Margarita",
      "addr_postcode": "92688",
      "addr_street": "El Paseo",
      "value": 99.91289788802388
    },
    {
      "id": 230942,
      "geometry": "POINT (-117.25269 33.588691)",
      "poi_name": "Pho Tyc",
      "osm_id": 4448957943,
      "amenity": "restaurant",
      "website": "http://phoinmurrietaca.com",
      "phone": "951-609-1636",
      "takeaway": "yes",
      "addr_state": "CA",
      "addr_city": "Wildomar",
      "addr_postcode": "92595",
      "addr_street": "Clinton Keith Road",
      "addr_housenumber": "32475",
      "value": 99.91289788802388
    },
    {
      "id": 235552,
      "geometry": "POINT (-117.174705 33.641148)",
      "poi_name": "Marco's Pizza",
      "osm_id": 5759410004,
      "amenity": "restaurant",
      "cuisine": "pizza",
      "takeaway": "yes",
      "drive_through": "no",
      "delivery": "yes",
      "addr_state": "CA",
      "addr_city": "Menifee",
      "addr_postcode": "92584",
      "addr_street": "Scott Road",
      "addr_housenumber": "27701",
      "value": 99.91289788802388
    },
    {
      "id": 235553,
      "geometry": "POINT (-117.175171 33.64101)",
      "poi_name": "Breakfast House Los Tejabanes",
      "osm_id": 5759410005,
      "amenity": "restaurant",
      "cuisine": "mexican",
      "opening_hours": "Mo-Su 06:00-21:00",
      "addr_state": "CA",
      "addr_city": "Menifee",
      "addr_postcode": "92584",
      "addr_street": "Scott Road",
      "addr_housenumber": "27701",
      "value": 99.91289788802388
    }
  ],
  "answer_type": "loc",
  "question_entities": {
    "[2]": {
      "distance": 90000,
      "text": "90 kilometers"
    },
    "[3]": {
      "main_category": "tourism",
      "sub_category": "attraction",
      "display_name": "Giant Wheel at Irvine Spectrum Center, Irvine, CA",
      "geo_wkt": "POINT (-117.742558 33.649409)",
      "poi": {
        "id": 20202,
        "geometry": "POINT (-117.742558 33.649409)",
        "poi_name": "Giant Wheel at Irvine Spectrum Center",
        "osm_id": 7929313045,
        "tourism": "attraction",
        "opening_hours": "Mo-Su 10:00-23:00",
        "addr_state": "CA",
        "addr_city": "Irvine",
        "addr_postcode": "92618",
        "addr_street": "Spectrum Center Drive",
        "addr_housenumber": "805"
      }
    },
    "[4]": {
      "main_category": "tourism",
      "sub_category": "zoo",
      "display_name": "Sugarplum Zoo, Temecula, CA",
      "geo_wkt": "POINT (-117.055191 33.546915)",
      "poi": {
        "id": 24034,
        "geometry": "POINT (-117.055191 33.546915)",
        "poi_name": "Sugarplum Zoo",
        "osm_id": 9270599265,
        "tourism": "zoo",
        "fee": "yes",
        "opening_hours": "Mo-Sa 08:00-18:00",
        "addr_state": "CA",
        "addr_city": "Temecula",
        "addr_postcode": "92591",
        "addr_street": "Berenda Rd",
        "addr_housenumber": "39695"
      }
    },
    "[1]": {
      "main_category": "amenity",
      "sub_category": "restaurant"
    }
  },
  "id": 1299,
  "type": "range:towards+loc"
}