{
  "question": "What fast food restaurant is available in the direction of Riverfront Stadium, Wichita, KS within 150 kilometers from Rock Regional Hospital, Derby, KS?",
  "sql": "WITH\n    angle AS (SELECT degrees(ST_Azimuth(ST_GeomFromText('POINT (-97.247136 37.582925)',4326)::geography, ST_GeomFromText('POINT (-97.345485 37.681386)',4326)::geography)) AS value)\nSELECT * FROM pois,angle\nWHERE amenity = 'fast_food'\nAND ST_DWithin(pois.geometry, ST_GeomFromText('POINT (-97.247136 37.582925)',4326)::geography, 150000)\nAND (degrees(ST_Azimuth(ST_GeomFromText('POINT (-97.247136 37.582925)',4326)::geography, pois.geometry)) BETWEEN angle.value - 22.5 AND angle.value + 22.5);\n",
  "answers": [
    {
      "id": 35355,
      "geometry": "POINT (-97.299502 37.694988)",
      "poi_name": "McDonald's",
      "osm_id": 2718316463,
      "amenity": "fast_food",
      "cuisine": "burger",
      "website": "https://www.mcdonalds.com/us/en-us/location/ks/wichita/545-n-hillside/18521.html",
      "takeaway": "yes",
      "value": 321.5667408823923
    },
    {
      "id": 35356,
      "geometry": "POINT (-97.299333 37.694296)",
      "poi_name": "Jimmy John's",
      "osm_id": 2718317360,
      "amenity": "fast_food",
      "cuisine": "sandwich",
      "takeaway": "yes",
      "official_name": "Jimmy John's Gourmet Sandwiches",
      "value": 321.5667408823923
    },
    {
      "id": 35358,
      "geometry": "POINT (-97.299365 37.693976)",
      "poi_name": "Chipotle",
      "osm_id": 2718318617,
      "amenity": "fast_food",
      "cuisine": "mexican",
      "takeaway": "yes",
      "official_name": "Chipotle Mexican Grill",
      "value": 321.5667408823923
    },
    {
      "id": 50967,
      "geometry": "POINT (-97.326 37.796191)",
      "poi_name": "Subway",
      "osm_id": 497420571,
      "amenity": "fast_food",
      "cuisine": "sandwich",
      "takeaway": "yes",
      "value": 321.5667408823923
    },
    {
      "id": 46843,
      "geometry": "POINT (-97.425621 37.677785)",
      "poi_name": "Freddy's",
      "osm_id": 3295942861,
      "amenity": "fast_food",
      "cuisine": "ice_cream;burger",
      "takeaway": "yes",
      "official_name": "Freddys Frozen Custard & Steakburgers",
      "addr_postcode": "67209",
      "addr_street": "South Ridge Road",
      "addr_housenumber": "420",
      "value": 321.5667408823923
    },
    {
      "id": 50968,
      "geometry": "POINT (-97.325794 37.795554)",
      "poi_name": "Spangles",
      "osm_id": 497420573,
      "amenity": "fast_food",
      "value": 321.5667408823923
    },
    {
      "id": 51148,
      "geometry": "POINT (-97.629192 38.370032)",
      "poi_name": "Subway",
      "osm_id": 514970246,
      "amenity": "fast_food",
      "cuisine": "sandwich",
      "opening_hours": "Mo-Su 10:00-21:00",
      "takeaway": "yes",
      "addr_city": "McPherson",
      "addr_postcode": "67460",
      "addr_street": "East Kansas Avenue",
      "addr_housenumber": "2104",
      "value": 321.5667408823923
    },
    {
      "id": 63446,
      "geometry": "POINT (-97.939284 38.014968)",
      "poi_name": "McDonald's",
      "osm_id": 5615528801,
      "amenity": "fast_food",
      "cuisine": "burger",
      "website": "https://www.mcdonalds.com/us/en-us/location/ks/south-hutchinson/1006-s-main-st/19012.html",
      "takeaway": "yes",
      "addr_state": "KS",
      "addr_city": "South Hutchinson",
      "addr_postcode": "67505",
      "addr_street": "South Main Street",
      "addr_housenumber": "1006",
      "value": 321.5667408823923
    },
    {
      "id": 56922,
      "geometry": "POINT (-97.363571 37.720024)",
      "poi_name": "Freddy's",
      "osm_id": 10253345386,
      "amenity": "fast_food",
      "cuisine": "ice_cream;burger",
      "phone": "+1-316-290-9901",
      "takeaway": "yes",
      "official_name": "Freddy's Frozen Custard & Steakburgers",
      "addr_street": "North Amidon Avenue",
      "addr_housenumber": "2021",
      "value": 321.5667408823923
    },
    {
      "id": 63455,
      "geometry": "POINT (-97.941293 38.014027)",
      "poi_name": "Sonic",
      "osm_id": 5615841003,
      "amenity": "fast_food",
      "cuisine": "burger",
      "takeaway": "yes",
      "drive_through": "yes",
      "value": 321.5667408823923
    },
    {
      "id": 68107,
      "geometry": "POINT (-97.364972 37.723449)",
      "poi_name": "Little Caesars",
      "osm_id": 11261332477,
      "amenity": "fast_food",
      "cuisine": "pizza",
      "website": "https://littlecaesars.com/en-us/store/7768/",
      "takeaway": "yes",
      "value": 321.5667408823923
    },
    {
      "id": 65062,
      "geometry": "POINT (-97.896925 38.086944)",
      "poi_name": "Sonic",
      "osm_id": 5683576267,
      "amenity": "fast_food",
      "cuisine": "burger",
      "wheelchair": "limited",
      "addr_city": "Hutchinson",
      "addr_street": "East 30th Avenue",
      "addr_housenumber": "1600",
      "value": 321.5667408823923
    },
    {
      "id": 68109,
      "geometry": "POINT (-97.364812 37.722371)",
      "poi_name": "Domino's",
      "osm_id": 11261332636,
      "amenity": "fast_food",
      "cuisine": "pizza",
      "takeaway": "yes",
      "drive_through": "no",
      "value": 321.5667408823923
    },
    {
      "id": 80604,
      "geometry": "POINT (-97.446742 37.694492)",
      "poi_name": "Arby's",
      "osm_id": 886645755,
      "amenity": "fast_food",
      "cuisine": "sandwich",
      "value": 321.5667408823923
    },
    {
      "id": 69245,
      "geometry": "POINT (-97.443953 37.691544)",
      "poi_name": "McDonald's",
      "osm_id": 11298392509,
      "amenity": "fast_food",
      "cuisine": "burger",
      "website": "https://www.mcdonalds.com/us/en-us/location/ks/wichita/506-north-tyler-road/5198.html",
      "takeaway": "yes",
      "addr_street": "North Tyler Road",
      "addr_housenumber": "506",
      "value": 321.5667408823923
    },
    {
      "id": 72446,
      "geometry": "POINT (-97.372599 37.781006)",
      "poi_name": "Braum's",
      "osm_id": 11427245111,
      "amenity": "fast_food",
      "cuisine": "ice_cream;burger",
      "operator": "06:00-22:45",
      "website": "https://www.braums.com/store/store-309-5343-n-meridian-ave-wichita-kansas/",
      "shop": "dairy",
      "phone": "+1 316 223 4660",
      "takeaway": "yes",
      "addr_state": "KS",
      "addr_city": "Wichita",
      "addr_postcode": "67204",
      "addr_street": "North Meridian Avenue",
      "addr_housenumber": "5343",
      "value": 321.5667408823923
    },
    {
      "id": 78631,
      "geometry": "POINT (-97.285372 37.665024)",
      "poi_name": "Arby's",
      "osm_id": 761332394,
      "amenity": "fast_food",
      "cuisine": "sandwich",
      "takeaway": "yes",
      "value": 321.5667408823923
    },
    {
      "id": 78632,
      "geometry": "POINT (-97.285952 37.665109)",
      "poi_name": "Burger King",
      "osm_id": 761332497,
      "amenity": "fast_food",
      "cuisine": "burger",
      "takeaway": "yes",
      "value": 321.5667408823923
    },
    {
      "id": 78634,
      "geometry": "POINT (-97.286478 37.664991)",
      "poi_name": "Louisiana's Famous Fried Chicken",
      "osm_id": 761334657,
      "amenity": "fast_food",
      "cuisine": "chicken",
      "drive_through": "yes",
      "addr_state": "KS",
      "addr_city": "Wichita",
      "addr_postcode": "67218",
      "addr_street": "East Harry Street",
      "addr_housenumber": "4206",
      "value": 321.5667408823923
    },
    {
      "id": 79954,
      "geometry": "POINT (-97.443624 37.67204)",
      "poi_name": "Mr. Goodcents Subs & Pastas",
      "osm_id": 838291948,
      "amenity": "fast_food",
      "cuisine": "sandwich",
      "value": 321.5667408823923
    },
    {
      "id": 134364,
      "geometry": "POINT (-97.389073 37.67694)",
      "poi_name": "McDonald's",
      "osm_id": 11466027788,
      "amenity": "fast_food",
      "cuisine": "burger",
      "website": "https://www.mcdonalds.com/us/en-us/location/ks/wichita/456-s-west/4298.html",
      "takeaway": "yes",
      "value": 321.5667408823923
    },
    {
      "id": 81706,
      "geometry": "POINT (-97.293899 37.66427)",
      "poi_name": "Wendy's",
      "osm_id": 1657292790,
      "amenity": "fast_food",
      "cuisine": "burger",
      "website": "http://Wendys.com",
      "takeaway": "yes",
      "drive_through": "yes",
      "addr_postcode": "67218",
      "addr_street": "East Harry Street",
      "addr_housenumber": "3601",
      "value": 321.5667408823923
    },
    {
      "id": 81711,
      "geometry": "POINT (-97.353575 37.685336)",
      "poi_name": "Braum's",
      "osm_id": 1658619162,
      "amenity": "fast_food",
      "cuisine": "ice_cream;burger",
      "opening_hours": "Mo-Su 06:00-22:45",
      "website": "https://www.braums.com/store/201-n-seneca-wichita-ks/",
      "shop": "dairy",
      "phone": "+1-316-265-0563",
      "takeaway": "yes",
      "drive_through": "yes",
      "addr_state": "KS",
      "addr_city": "Wichita",
      "addr_postcode": "67203",
      "addr_street": "North Seneca Street",
      "addr_housenumber": "201",
      "value": 321.5667408823923
    },
    {
      "id": 84927,
      "geometry": "POINT (-97.4256 37.677616)",
      "poi_name": "Panera Bread",
      "osm_id": 1825862005,
      "amenity": "fast_food",
      "cuisine": "sandwich;bakery",
      "takeaway": "yes",
      "value": 321.5667408823923
    },
    {
      "id": 84929,
      "geometry": "POINT (-97.425835 37.692973)",
      "poi_name": "Bionic Burger",
      "osm_id": 1825862012,
      "amenity": "fast_food",
      "value": 321.5667408823923
    },
    {
      "id": 134207,
      "geometry": "POINT (-97.462142 37.721169)",
      "poi_name": "Papa Murphy's",
      "osm_id": 11460314199,
      "amenity": "fast_food",
      "cuisine": "pizza",
      "takeaway": "only",
      "official_name": "Papa Murphy's Take 'N' Bake Pizza",
      "addr_state": "KS",
      "addr_city": "Wichita",
      "addr_postcode": "67212",
      "addr_street": "North Maize Road",
      "addr_housenumber": "2110",
      "value": 321.5667408823923
    },
    {
      "id": 134173,
      "geometry": "POINT (-97.462115 37.745467)",
      "poi_name": "Braum's",
      "osm_id": 11458648827,
      "amenity": "fast_food",
      "cuisine": "ice_cream;burger",
      "shop": "dairy",
      "takeaway": "yes",
      "addr_state": "KS",
      "addr_city": "Wichita",
      "addr_postcode": "67205",
      "addr_street": "North Maize Road",
      "addr_housenumber": "3420",
      "value": 321.5667408823923
    },
    {
      "id": 134330,
      "geometry": "POINT (-97.352115 37.646158)",
      "poi_name": "Papa Murphy's",
      "osm_id": 11464495320,
      "amenity": "fast_food",
      "cuisine": "pizza",
      "takeaway": "only",
      "official_name": "Papa Murphy's Take 'N' Bake Pizza",
      "addr_state": "KS",
      "addr_city": "Wichita",
      "addr_postcode": "67217",
      "addr_street": "South Seneca Street",
      "addr_housenumber": "2712",
      "value": 321.5667408823923
    },
    {
      "id": 134333,
      "geometry": "POINT (-97.36897 37.651077)",
      "poi_name": "Sonic",
      "osm_id": 11464527834,
      "amenity": "fast_food",
      "cuisine": "burger",
      "takeaway": "yes",
      "value": 321.5667408823923
    },
    {
      "id": 134335,
      "geometry": "POINT (-97.447474 37.693656)",
      "poi_name": "Taco Bell",
      "osm_id": 11464571272,
      "amenity": "fast_food",
      "cuisine": "tex-mex",
      "takeaway": "yes",
      "value": 321.5667408823923
    },
    {
      "id": 134336,
      "geometry": "POINT (-97.443939 37.690816)",
      "poi_name": "Braum's",
      "osm_id": 11464571294,
      "amenity": "fast_food",
      "cuisine": "ice_cream;burger",
      "shop": "dairy",
      "takeaway": "yes",
      "addr_state": "KS",
      "addr_city": "Wichita",
      "addr_postcode": "67212",
      "addr_street": "North Tyler Road",
      "addr_housenumber": "440",
      "value": 321.5667408823923
    },
    {
      "id": 134339,
      "geometry": "POINT (-97.426724 37.721746)",
      "poi_name": "Braum's",
      "osm_id": 11464597718,
      "amenity": "fast_food",
      "cuisine": "ice_cream;burger",
      "shop": "dairy",
      "takeaway": "yes",
      "addr_state": "KS",
      "addr_city": "Wichita",
      "addr_postcode": "67212",
      "addr_street": "North Ridge Road",
      "addr_housenumber": "2121",
      "value": 321.5667408823923
    },
    {
      "id": 134758,
      "geometry": "POINT (-97.931407 38.080252)",
      "poi_name": "Papa Murphy's",
      "osm_id": 11486405990,
      "amenity": "fast_food",
      "cuisine": "pizza",
      "takeaway": "only",
      "official_name": "Papa Murphy's Take 'N' Bake Pizza",
      "addr_state": "KS",
      "addr_city": "Hutchinson",
      "addr_postcode": "67502",
      "addr_street": "North Main Street",
      "addr_housenumber": "2404",
      "value": 321.5667408823923
    },
    {
      "id": 141505,
      "geometry": "POINT (-97.626894 38.370185)",
      "poi_name": "KFC",
      "osm_id": 6286898138,
      "amenity": "fast_food",
      "cuisine": "chicken",
      "website": "https://locations.kfc.com/ks/mcpherson/2118-east-kansas-ave",
      "takeaway": "yes",
      "value": 321.5667408823923
    },
    {
      "id": 136370,
      "geometry": "POINT (-97.462096 37.730432)",
      "poi_name": "Jersey Mike's Subs",
      "osm_id": 11582186342,
      "amenity": "fast_food",
      "cuisine": "sandwich",
      "opening_hours": "Mo-Su 10:00-21:00",
      "website": "https://www.jerseymikes.com/",
      "phone": "+13162016864",
      "takeaway": "yes",
      "drive_through": "no",
      "addr_state": "KS",
      "addr_city": "Wichita",
      "addr_postcode": "67205",
      "addr_street": "North Maize Road",
      "addr_housenumber": "2616",
      "value": 321.5667408823923
    },
    {
      "id": 141506,
      "geometry": "POINT (-97.626872 38.370079)",
      "poi_name": "Long John Silver's",
      "osm_id": 6286898139,
      "amenity": "fast_food",
      "cuisine": "seafood",
      "takeaway": "yes",
      "value": 321.5667408823923
    },
    {
      "id": 143811,
      "geometry": "POINT (-97.352262 37.647928)",
      "poi_name": "Little Caesars",
      "osm_id": 6351447946,
      "amenity": "fast_food",
      "cuisine": "pizza",
      "website": "https://littlecaesars.com/en-us/store/8123/",
      "takeaway": "yes",
      "value": 321.5667408823923
    },
    {
      "id": 143812,
      "geometry": "POINT (-97.353447 37.650725)",
      "poi_name": "Domino's",
      "osm_id": 6351447947,
      "amenity": "fast_food",
      "cuisine": "pizza",
      "takeaway": "yes",
      "value": 321.5667408823923
    },
    {
      "id": 178562,
      "geometry": "POINT (-97.325998 37.664595)",
      "poi_name": "Taco Shop",
      "osm_id": 10731029205,
      "amenity": "fast_food",
      "value": 321.5667408823923
    },
    {
      "id": 170719,
      "geometry": "POINT (-97.424466 37.680234)",
      "poi_name": "Chipotle",
      "osm_id": 2346726293,
      "amenity": "fast_food",
      "cuisine": "mexican",
      "opening_hours": "11:00-22:00",
      "phone": "+1-316-942-0263",
      "takeaway": "yes",
      "official_name": "Chipotle Mexican Grill",
      "addr_city": "Wichita",
      "addr_postcode": "67209",
      "addr_street": "West Maple Street",
      "addr_housenumber": "7130",
      "value": 321.5667408823923
    },
    {
      "id": 173912,
      "geometry": "POINT (-97.895758 38.086826)",
      "poi_name": "Subway",
      "osm_id": 2458960177,
      "amenity": "fast_food",
      "cuisine": "sandwich",
      "wheelchair": "yes",
      "takeaway": "yes",
      "addr_state": "KS",
      "addr_city": "Hutchinson",
      "value": 321.5667408823923
    },
    {
      "id": 173913,
      "geometry": "POINT (-97.918322 38.08608)",
      "poi_name": "McDonald's",
      "osm_id": 2458960180,
      "amenity": "fast_food",
      "cuisine": "burger",
      "wheelchair": "yes",
      "website": "https://www.mcdonalds.com/us/en-us/location/ks/hutchinson/603-e-30th-st/3667.html",
      "takeaway": "yes",
      "drive_through": "yes",
      "addr_state": "KS",
      "addr_city": "Hutchinson",
      "value": 321.5667408823923
    },
    {
      "id": 193078,
      "geometry": "POINT (-97.297576 37.693235)",
      "poi_name": "Panera Bread",
      "osm_id": 1494066034,
      "amenity": "fast_food",
      "cuisine": "sandwich;bakery",
      "takeaway": "yes",
      "value": 321.5667408823923
    },
    {
      "id": 183789,
      "geometry": "POINT (-97.333394 37.650116)",
      "poi_name": "Braum's",
      "osm_id": 10945306228,
      "amenity": "fast_food",
      "cuisine": "ice_cream;burger",
      "shop": "dairy",
      "phone": "+1-316-267-3711",
      "takeaway": "yes",
      "addr_state": "KS",
      "addr_city": "Wichita",
      "addr_postcode": "67211",
      "addr_street": "East Pawnee Street",
      "addr_housenumber": "444",
      "value": 321.5667408823923
    },
    {
      "id": 186551,
      "geometry": "POINT (-97.279708 37.668259)",
      "poi_name": "Pizza Hut Delivery",
      "osm_id": 7935137176,
      "amenity": "fast_food",
      "cuisine": "pizza",
      "takeaway": "yes",
      "delivery": "yes",
      "value": 321.5667408823923
    },
    {
      "id": 191215,
      "geometry": "POINT (-97.463271 37.724127)",
      "poi_name": "Chipotle",
      "osm_id": 1348334007,
      "amenity": "fast_food",
      "cuisine": "mexican",
      "phone": "+1-316-722-4300",
      "takeaway": "yes",
      "official_name": "Chipotle Mexican Grill",
      "addr_city": "Wichita",
      "addr_street": "North Maize Road",
      "addr_housenumber": "2241",
      "value": 321.5667408823923
    },
    {
      "id": 224493,
      "geometry": "POINT (-97.427053 37.677465)",
      "poi_name": "Chick-fil-A",
      "osm_id": 11084372449,
      "amenity": "fast_food",
      "cuisine": "chicken",
      "takeaway": "yes",
      "value": 321.5667408823923
    },
    {
      "id": 213377,
      "geometry": "POINT (-97.899679 38.0645)",
      "poi_name": "Arby's",
      "osm_id": 5248005309,
      "amenity": "fast_food",
      "cuisine": "sandwich",
      "wheelchair": "yes",
      "takeaway": "yes",
      "value": 321.5667408823923
    },
    {
      "id": 213378,
      "geometry": "POINT (-97.901066 38.06451)",
      "poi_name": "McDonald's",
      "osm_id": 5248005310,
      "amenity": "fast_food",
      "cuisine": "burger",
      "wheelchair": "yes",
      "website": "https://www.mcdonalds.com/us/en-us/location/ks/hutchinson/1407-e-11th-ave/10030.html",
      "phone": "+1-620-662-4014",
      "takeaway": "yes",
      "addr_postcode": "67501",
      "addr_street": "East 11th Avenue",
      "addr_housenumber": "1407",
      "value": 321.5667408823923
    },
    {
      "id": 216371,
      "geometry": "POINT (-97.332354 37.648306)",
      "poi_name": "McDonald's",
      "osm_id": 9170021596,
      "amenity": "fast_food",
      "cuisine": "burger",
      "takeaway": "yes",
      "value": 321.5667408823923
    },
    {
      "id": 216373,
      "geometry": "POINT (-97.413914 37.675157)",
      "poi_name": "Subway",
      "osm_id": 9170039386,
      "amenity": "fast_food",
      "cuisine": "sandwich",
      "takeaway": "yes",
      "value": 321.5667408823923
    },
    {
      "id": 227124,
      "geometry": "POINT (-97.33587 37.705559)",
      "poi_name": "Donut Palace",
      "osm_id": 11181093407,
      "amenity": "fast_food",
      "cuisine": "donut",
      "website": "https://www.facebook.com/people/Donut-Palace-Wichita/100064530203480/",
      "phone": "+1-316-352-7218",
      "drive_through": "yes",
      "addr_state": "KS",
      "addr_city": "Wichita",
      "addr_postcode": "67214",
      "addr_street": "North Broadway Street",
      "addr_housenumber": "1235",
      "value": 321.5667408823923
    },
    {
      "id": 226689,
      "geometry": "POINT (-97.298704 37.707494)",
      "poi_name": "Popeyes Louisiana Kitchen",
      "osm_id": 11165629013,
      "amenity": "fast_food",
      "phone": "+1-316-682-6567",
      "addr_street": "North Hillside Street",
      "addr_housenumber": "1350",
      "value": 321.5667408823923
    },
    {
      "id": 230001,
      "geometry": "POINT (-97.329009 37.68579)",
      "poi_name": "Smoothie King",
      "osm_id": 4411521329,
      "amenity": "fast_food",
      "cuisine": "juice",
      "opening_hours": "07:00-21:00",
      "phone": "+1-316-613-3503",
      "takeaway": "no",
      "drive_through": "yes",
      "delivery": "no",
      "addr_state": "KS",
      "addr_city": "Wichita",
      "addr_postcode": "67202",
      "addr_street": "East Douglas Avenue",
      "addr_housenumber": "711",
      "value": 321.5667408823923
    },
    {
      "id": 228013,
      "geometry": "POINT (-97.354291 37.64892)",
      "poi_name": "Subway",
      "osm_id": 4326830891,
      "amenity": "fast_food",
      "cuisine": "sandwich",
      "takeaway": "yes",
      "value": 321.5667408823923
    },
    {
      "id": 231908,
      "geometry": "POINT (-97.614857 38.370146)",
      "poi_name": "Hardee's",
      "osm_id": 4497332428,
      "amenity": "fast_food",
      "cuisine": "burger",
      "website": "https://locations.hardees.com/ks/mcpherson/2400-e-kansas-ave",
      "takeaway": "yes",
      "value": 321.5667408823923
    },
    {
      "id": 231477,
      "geometry": "POINT (-97.461603 37.722082)",
      "poi_name": "Subway",
      "osm_id": 4469455690,
      "amenity": "fast_food",
      "cuisine": "sandwich",
      "takeaway": "yes",
      "value": 321.5667408823923
    },
    {
      "id": 231478,
      "geometry": "POINT (-97.462095 37.722154)",
      "poi_name": "McDonald's",
      "osm_id": 4469465190,
      "amenity": "fast_food",
      "cuisine": "burger",
      "website": "https://www.mcdonalds.com/us/en-us/location/ks/wichita/10321-w-21st/20840.html",
      "takeaway": "yes",
      "value": 321.5667408823923
    },
    {
      "id": 231909,
      "geometry": "POINT (-97.390172 37.69382)",
      "poi_name": "Wendy's",
      "osm_id": 4497333290,
      "amenity": "fast_food",
      "cuisine": "burger",
      "takeaway": "yes",
      "drive_through": "yes",
      "value": 321.5667408823923
    }
  ],
  "answer_type": "name",
  "question_entities": {
    "[2]": {
      "distance": 150000,
      "text": "150 kilometers"
    },
    "[3]": {
      "main_category": "amenity",
      "sub_category": "hospital",
      "display_name": "Rock Regional Hospital, Derby, KS",
      "geo_wkt": "POINT (-97.247136 37.582925)",
      "poi": {
        "id": 182307,
        "geometry": "POINT (-97.247136 37.582925)",
        "poi_name": "Rock Regional Hospital",
        "osm_id": 10888128905,
        "amenity": "hospital",
        "website": "https://rockregionalhospitalderby.com",
        "phone": "+1-833-345-7625",
        "healthcare": "hospital",
        "addr_state": "KS",
        "addr_city": "Derby",
        "addr_postcode": "67037",
        "addr_street": "North Rock Road",
        "addr_housenumber": "3251"
      }
    },
    "[4]": {
      "main_category": "leisure",
      "sub_category": "stadium",
      "display_name": "Riverfront Stadium, Wichita, KS",
      "geo_wkt": "POINT (-97.345485 37.681386)",
      "poi": {
        "id": 260589,
        "geometry": "POINT (-97.345485 37.681386)",
        "poi_name": "Riverfront Stadium",
        "osm_id": 358627835,
        "leisure": "stadium",
        "website": "https://www.milb.com/wichita/ballpark",
        "phone": "+1-316-221-8000",
        "addr_state": "KS",
        "addr_city": "Wichita",
        "addr_postcode": "67213",
        "addr_street": "South McLean Boulevard",
        "addr_housenumber": "275"
      }
    },
    "[1]": {
      "main_category": "amenity",
      "sub_category": "fast_food"
    }
  },
  "id": 1680,
  "type": "range:towards+name"
}