{
  "question": "Within a radius of 50 kilometers, where can I find  a fast food restaurant in the direction of Candlewood Suites Erie, Erie, PA from Glenhill Farmhouse, Erie, PA?",
  "sql": "WITH\n    angle AS (SELECT degrees(ST_Azimuth(ST_GeomFromText('POINT (-79.985748 42.119196)',4326)::geography, ST_GeomFromText('POINT (-80.097662 42.06499)',4326)::geography)) AS value)\nSELECT * FROM pois,angle\nWHERE amenity = 'fast_food'\nAND ST_DWithin(pois.geometry, ST_GeomFromText('POINT (-79.985748 42.119196)',4326)::geography, 50000)\nAND (degrees(ST_Azimuth(ST_GeomFromText('POINT (-79.985748 42.119196)',4326)::geography, pois.geometry)) BETWEEN angle.value - 22.5 AND angle.value + 22.5);\n",
  "answers": [
    {
      "id": 28840,
      "geometry": "POINT (-80.304514 42.008017)",
      "poi_name": "Taco Bell",
      "osm_id": 8262936954,
      "amenity": "fast_food",
      "cuisine": "tex-mex",
      "website": "https://locations.tacobell.com/pa/girard/1017-e-main-street.html",
      "takeaway": "yes",
      "addr_state": "PA",
      "addr_city": "Girard",
      "addr_postcode": "16417",
      "addr_street": "East Main Street",
      "addr_housenumber": "1017",
      "value": 237.0017801239895
    },
    {
      "id": 78066,
      "geometry": "POINT (-80.039827 42.071163)",
      "poi_name": "McDonald's",
      "osm_id": 737071940,
      "amenity": "fast_food",
      "cuisine": "burger",
      "website": "https://www.mcdonalds.com/us/en-us/location/pa/erie/7855-perry-hwy/6172.html",
      "takeaway": "yes",
      "addr_state": "PA",
      "addr_city": "Erie",
      "addr_postcode": "16509",
      "addr_street": "Perry Highway",
      "addr_housenumber": "7855",
      "value": 237.0017801239895
    },
    {
      "id": 48281,
      "geometry": "POINT (-80.050789 42.108363)",
      "poi_name": "Arby's",
      "osm_id": 3374410647,
      "amenity": "fast_food",
      "cuisine": "sandwich",
      "takeaway": "yes",
      "addr_state": "PA",
      "addr_city": "Erie",
      "addr_postcode": "16504",
      "addr_street": "Pine Avenue",
      "addr_housenumber": "3720",
      "value": 237.0017801239895
    },
    {
      "id": 48282,
      "geometry": "POINT (-80.035235 42.107057)",
      "poi_name": "Dairy Queen",
      "osm_id": 3374410652,
      "amenity": "fast_food",
      "cuisine": "ice_cream;burger",
      "takeaway": "yes",
      "addr_state": "PA",
      "addr_city": "Erie",
      "addr_postcode": "16504",
      "addr_street": "Pine Avenue",
      "addr_housenumber": "4501",
      "value": 237.0017801239895
    },
    {
      "id": 75821,
      "geometry": "POINT (-80.0884 42.056566)",
      "poi_name": "Jersey Mike's Subs",
      "osm_id": 9749048231,
      "amenity": "fast_food",
      "cuisine": "sandwich",
      "takeaway": "yes",
      "addr_state": "PA",
      "addr_city": "Erie",
      "addr_postcode": "16509",
      "addr_street": "Peach Street",
      "addr_housenumber": "6825",
      "value": 237.0017801239895
    },
    {
      "id": 103651,
      "geometry": "POINT (-80.07359 42.10648)",
      "poi_name": "Dee's Delicatessen",
      "osm_id": 8517852412,
      "amenity": "fast_food",
      "cuisine": "sandwich",
      "addr_state": "PA",
      "addr_city": "Erie",
      "addr_postcode": "16508",
      "addr_street": "Glenwood Park Avenue",
      "addr_housenumber": "3049",
      "value": 237.0017801239895
    },
    {
      "id": 80935,
      "geometry": "POINT (-80.04191 42.072194)",
      "poi_name": "Arby's",
      "osm_id": 1589494894,
      "amenity": "fast_food",
      "cuisine": "sandwich",
      "takeaway": "yes",
      "addr_state": "PA",
      "addr_city": "Erie",
      "addr_postcode": "16509",
      "addr_street": "Perry Highway",
      "addr_housenumber": "7521",
      "value": 237.0017801239895
    },
    {
      "id": 91323,
      "geometry": "POINT (-80.255426 42.030893)",
      "poi_name": "Burger King",
      "osm_id": 2060506016,
      "amenity": "fast_food",
      "cuisine": "burger",
      "website": "https://www.bk.com/",
      "takeaway": "yes",
      "addr_state": "PA",
      "addr_city": "Fairview",
      "addr_postcode": "16415",
      "addr_street": "West Ridge Road",
      "addr_housenumber": "7517",
      "value": 237.0017801239895
    },
    {
      "id": 102798,
      "geometry": "POINT (-80.093611 42.071773)",
      "poi_name": "Dunkin'",
      "osm_id": 8459258839,
      "amenity": "fast_food",
      "cuisine": "donut;coffee_shop",
      "takeaway": "yes",
      "addr_state": "PA",
      "addr_city": "Erie",
      "addr_postcode": "16565",
      "addr_street": "Millcreek Square",
      "addr_housenumber": "22",
      "value": 237.0017801239895
    },
    {
      "id": 91349,
      "geometry": "POINT (-80.083145 42.050212)",
      "poi_name": "Burger King",
      "osm_id": 2061708215,
      "amenity": "fast_food",
      "cuisine": "burger",
      "website": "https://www.bk.com/",
      "takeaway": "yes",
      "addr_state": "PA",
      "addr_city": "Erie",
      "addr_postcode": "16509",
      "addr_street": "Peach Street",
      "addr_housenumber": "7800",
      "value": 237.0017801239895
    },
    {
      "id": 91351,
      "geometry": "POINT (-80.084001 42.052543)",
      "poi_name": "Krispy Kreme",
      "osm_id": 2061739599,
      "amenity": "fast_food",
      "cuisine": "donut",
      "website": "https://www.krispykreme.com/",
      "takeaway": "yes",
      "addr_state": "PA",
      "addr_city": "Erie",
      "addr_postcode": "16509",
      "addr_street": "Peach Street",
      "addr_housenumber": "7501",
      "value": 237.0017801239895
    },
    {
      "id": 91352,
      "geometry": "POINT (-80.08657 42.053161)",
      "poi_name": "McDonald's",
      "osm_id": 2061740347,
      "amenity": "fast_food",
      "cuisine": "burger",
      "wheelchair": "yes",
      "opening_hours": "Su-Th 06:00-23:00; Fr, Sa 06:00-24:00",
      "website": "https://www.mcdonalds.com/us/en-us/location/pa/erie/7200-peach-st/12018.html",
      "internet_access": "wlan",
      "phone": "+1-814-866-2416",
      "takeaway": "yes",
      "drive_through": "yes",
      "delivery": "yes",
      "addr_state": "PA",
      "addr_city": "Erie",
      "addr_postcode": "16509",
      "addr_street": "Peach Street",
      "addr_housenumber": "7200",
      "value": 237.0017801239895
    },
    {
      "id": 91354,
      "geometry": "POINT (-80.087612 42.055722)",
      "poi_name": "Taco Bell",
      "osm_id": 2061744569,
      "amenity": "fast_food",
      "cuisine": "tex-mex",
      "website": "https://locations.tacobell.com/pa/erie/6935-peach-street.html",
      "takeaway": "yes",
      "drive_through": "yes",
      "addr_state": "PA",
      "addr_city": "Erie",
      "addr_postcode": "16509",
      "addr_street": "Peach Street",
      "addr_housenumber": "6935",
      "value": 237.0017801239895
    },
    {
      "id": 91355,
      "geometry": "POINT (-80.086669 42.05602)",
      "poi_name": "Panera Bread",
      "osm_id": 2061746725,
      "amenity": "fast_food",
      "cuisine": "sandwich;bakery",
      "website": "http://www.panerabread.com/",
      "takeaway": "yes",
      "addr_state": "PA",
      "addr_city": "Erie",
      "addr_postcode": "16509",
      "addr_street": "Keystone Drive",
      "addr_housenumber": "1935",
      "value": 237.0017801239895
    },
    {
      "id": 91356,
      "geometry": "POINT (-80.086462 42.054927)",
      "poi_name": "Dunkin'",
      "osm_id": 2061747800,
      "amenity": "fast_food",
      "cuisine": "donut;coffee_shop",
      "takeaway": "yes",
      "addr_state": "PA",
      "addr_city": "Erie",
      "addr_postcode": "16509",
      "addr_street": "Peach Street",
      "addr_housenumber": "7165",
      "value": 237.0017801239895
    },
    {
      "id": 91362,
      "geometry": "POINT (-80.087584 42.054092)",
      "poi_name": "Chick-fil-A",
      "osm_id": 2061753917,
      "amenity": "fast_food",
      "cuisine": "chicken",
      "website": "https://www.chick-fil-a.com/",
      "takeaway": "yes",
      "drive_through": "yes",
      "addr_state": "PA",
      "addr_city": "Erie",
      "addr_postcode": "16509",
      "addr_street": "Peach Street",
      "addr_housenumber": "7160",
      "value": 237.0017801239895
    },
    {
      "id": 91365,
      "geometry": "POINT (-80.089102 42.058793)",
      "poi_name": "Five Guys",
      "osm_id": 2061773972,
      "amenity": "fast_food",
      "cuisine": "burger",
      "website": "https://www.fiveguys.com/",
      "takeaway": "yes",
      "official_name": "Five Guys Burgers and Fries",
      "addr_state": "PA",
      "addr_city": "Erie",
      "addr_postcode": "16509",
      "addr_street": "Rotunda Drive",
      "addr_housenumber": "1940",
      "value": 237.0017801239895
    },
    {
      "id": 91367,
      "geometry": "POINT (-80.090157 42.058026)",
      "poi_name": "Chipotle",
      "osm_id": 2061783952,
      "amenity": "fast_food",
      "cuisine": "mexican",
      "website": "https://www.chipotle.com/",
      "takeaway": "yes",
      "official_name": "Chipotle Mexican Grill",
      "addr_state": "PA",
      "addr_city": "Erie",
      "addr_postcode": "16509",
      "addr_street": "Peach Street",
      "addr_housenumber": "6611",
      "value": 237.0017801239895
    },
    {
      "id": 91368,
      "geometry": "POINT (-80.092795 42.064512)",
      "poi_name": "KFC",
      "osm_id": 2061788902,
      "amenity": "fast_food",
      "cuisine": "chicken",
      "website": "https://locations.kfc.com/pa/erie/5933-peach-street",
      "takeaway": "yes",
      "addr_state": "PA",
      "addr_city": "Erie",
      "addr_postcode": "16509",
      "addr_street": "Peach Street",
      "addr_housenumber": "5933",
      "value": 237.0017801239895
    },
    {
      "id": 91369,
      "geometry": "POINT (-80.092598 42.06596)",
      "poi_name": "Wendy's",
      "osm_id": 2061789818,
      "amenity": "fast_food",
      "cuisine": "burger",
      "website": "https://www.wendys.com/",
      "takeaway": "yes",
      "drive_through": "yes",
      "addr_state": "PA",
      "addr_city": "Erie",
      "addr_postcode": "16509",
      "addr_street": "Peach Street",
      "addr_housenumber": "5901",
      "value": 237.0017801239895
    },
    {
      "id": 91370,
      "geometry": "POINT (-80.098437 42.065673)",
      "poi_name": "Arby's",
      "osm_id": 2061794057,
      "amenity": "fast_food",
      "cuisine": "sandwich",
      "wheelchair": "yes",
      "opening_hours": "Su-Sa 10:00-23:00",
      "website": "https://www.arbys.com/",
      "phone": "814-864-5817",
      "takeaway": "yes",
      "drive_through": "yes",
      "addr_state": "PA",
      "addr_city": "Erie",
      "addr_postcode": "16565",
      "addr_street": "Edinboro Road",
      "addr_housenumber": "2022",
      "value": 237.0017801239895
    },
    {
      "id": 91371,
      "geometry": "POINT (-80.09987 42.06375)",
      "poi_name": "Moe's Southwest Grill",
      "osm_id": 2061794338,
      "amenity": "fast_food",
      "cuisine": "mexican",
      "website": "https://www.moes.com/",
      "phone": "+1 814 868 2121",
      "takeaway": "yes",
      "drive_through": "no",
      "addr_state": "PA",
      "addr_city": "Erie",
      "addr_postcode": "16509",
      "addr_street": "Edinboro Road",
      "addr_housenumber": "2052",
      "value": 237.0017801239895
    },
    {
      "id": 91372,
      "geometry": "POINT (-80.1008 42.064022)",
      "poi_name": "McDonald's",
      "osm_id": 2061795161,
      "amenity": "fast_food",
      "cuisine": "burger",
      "website": "https://www.mcdonalds.com/us/en-us/location/pa/erie/2065-interchange-rd/32211.html",
      "takeaway": "yes",
      "addr_state": "PA",
      "addr_city": "Erie",
      "addr_postcode": "16509",
      "addr_street": "Interchange Road",
      "addr_housenumber": "2065",
      "value": 237.0017801239895
    },
    {
      "id": 92138,
      "geometry": "POINT (-80.137557 42.088697)",
      "poi_name": "Burger King",
      "osm_id": 2104895252,
      "amenity": "fast_food",
      "cuisine": "burger",
      "website": "https://www.bk.com/",
      "takeaway": "yes",
      "addr_state": "PA",
      "addr_city": "Erie",
      "addr_postcode": "16506",
      "addr_street": "West 26th Street",
      "addr_housenumber": "2872",
      "value": 237.0017801239895
    },
    {
      "id": 92139,
      "geometry": "POINT (-80.13556 42.089302)",
      "poi_name": "Arby's",
      "osm_id": 2104900613,
      "amenity": "fast_food",
      "cuisine": "sandwich",
      "website": "https://www.arbys.com/",
      "takeaway": "yes",
      "addr_state": "PA",
      "addr_city": "Erie",
      "addr_postcode": "16506",
      "addr_street": "West 26th Street",
      "addr_housenumber": "2812",
      "value": 237.0017801239895
    },
    {
      "id": 92140,
      "geometry": "POINT (-80.1368 42.088717)",
      "poi_name": "Long John Silver's",
      "osm_id": 2104909633,
      "amenity": "fast_food",
      "cuisine": "seafood",
      "website": "https://www.ljsilvers.com/",
      "takeaway": "yes",
      "addr_state": "PA",
      "addr_city": "Erie",
      "addr_postcode": "16506",
      "addr_street": "W 26th Street",
      "addr_housenumber": "2840",
      "value": 237.0017801239895
    },
    {
      "id": 118831,
      "geometry": "POINT (-80.089013 42.057127)",
      "poi_name": "Pita Pit",
      "osm_id": 9067103451,
      "amenity": "fast_food",
      "cuisine": "pita",
      "takeaway": "yes",
      "addr_state": "PA",
      "addr_city": "Erie",
      "addr_postcode": "16509",
      "addr_street": "Peach Street",
      "addr_housenumber": "6803",
      "value": 237.0017801239895
    },
    {
      "id": 104627,
      "geometry": "POINT (-80.116953 42.08117)",
      "poi_name": "Subway",
      "osm_id": 8579509298,
      "amenity": "fast_food",
      "cuisine": "sandwich",
      "takeaway": "yes",
      "addr_state": "PA",
      "addr_city": "Erie",
      "addr_postcode": "16506",
      "addr_street": "West 38th Street",
      "addr_housenumber": "2251",
      "value": 237.0017801239895
    },
    {
      "id": 116073,
      "geometry": "POINT (-80.092679 42.07856)",
      "poi_name": "Domino's",
      "osm_id": 8927316260,
      "amenity": "fast_food",
      "cuisine": "pizza",
      "takeaway": "yes",
      "addr_state": "PA",
      "addr_city": "Erie",
      "addr_postcode": "16509",
      "addr_street": "Peach Street",
      "addr_housenumber": "5158",
      "value": 237.0017801239895
    },
    {
      "id": 129855,
      "geometry": "POINT (-80.089614 42.080681)",
      "poi_name": "Erie Donut Factory",
      "osm_id": 9844359044,
      "amenity": "fast_food",
      "cuisine": "donut",
      "addr_state": "PA",
      "addr_city": "Erie",
      "addr_postcode": "16509",
      "addr_street": "Peach Street",
      "addr_housenumber": "5033",
      "value": 237.0017801239895
    },
    {
      "id": 141596,
      "geometry": "POINT (-80.255197 42.032156)",
      "poi_name": "Domino's",
      "osm_id": 6291534756,
      "amenity": "fast_food",
      "cuisine": "pizza",
      "takeaway": "yes",
      "drive_through": "no",
      "addr_state": "PA",
      "addr_city": "Fairview",
      "addr_postcode": "16415",
      "addr_street": "West Ridge Road",
      "addr_housenumber": "7470",
      "value": 237.0017801239895
    },
    {
      "id": 184406,
      "geometry": "POINT (-80.303549 42.008595)",
      "poi_name": "Wendy's",
      "osm_id": 7788163606,
      "amenity": "fast_food",
      "cuisine": "burger",
      "takeaway": "yes",
      "addr_state": "PA",
      "addr_city": "Girard",
      "addr_postcode": "16417",
      "addr_street": "West Ridge Road",
      "addr_housenumber": "9175",
      "value": 237.0017801239895
    },
    {
      "id": 147379,
      "geometry": "POINT (-80.083458 42.095578)",
      "poi_name": "Little Caesars",
      "osm_id": 7527800836,
      "amenity": "fast_food",
      "cuisine": "pizza",
      "website": "https://littlecaesars.com/en-us/store/2498/",
      "takeaway": "yes",
      "addr_state": "PA",
      "addr_city": "Erie",
      "addr_postcode": "16508",
      "addr_street": "West 38th Street",
      "addr_housenumber": "725",
      "value": 237.0017801239895
    },
    {
      "id": 147857,
      "geometry": "POINT (-80.138204 42.086186)",
      "poi_name": "Little Caesars",
      "osm_id": 7567377480,
      "amenity": "fast_food",
      "cuisine": "pizza",
      "website": "https://littlecaesars.com/en-us/store/2497/",
      "takeaway": "yes",
      "addr_state": "PA",
      "addr_city": "Erie",
      "addr_postcode": "16506",
      "addr_street": "West 26th Street",
      "addr_housenumber": "2897",
      "value": 237.0017801239895
    },
    {
      "id": 147906,
      "geometry": "POINT (-80.090266 42.050583)",
      "poi_name": "Honey Baked Ham",
      "osm_id": 7570782503,
      "amenity": "fast_food",
      "cuisine": "american",
      "takeaway": "yes",
      "official_name": "The Honey Baked Ham Company",
      "addr_state": "PA",
      "addr_city": "Erie",
      "addr_postcode": "16509",
      "addr_street": "Summit Towne Center",
      "addr_housenumber": "120",
      "value": 237.0017801239895
    },
    {
      "id": 184270,
      "geometry": "POINT (-80.093837 42.067676)",
      "poi_name": "Sonic",
      "osm_id": 7779173065,
      "amenity": "fast_food",
      "cuisine": "burger",
      "takeaway": "yes",
      "addr_state": "PA",
      "addr_city": "Erie",
      "addr_postcode": "16565",
      "addr_street": "Peach Street",
      "addr_housenumber": "5854",
      "value": 237.0017801239895
    },
    {
      "id": 184284,
      "geometry": "POINT (-80.133047 42.089344)",
      "poi_name": "McDonald's",
      "osm_id": 7779487192,
      "amenity": "fast_food",
      "cuisine": "burger",
      "website": "https://www.mcdonalds.com/us/en-us/location/pa/erie/2643-west-26th-street/26927.html",
      "takeaway": "yes",
      "addr_state": "PA",
      "addr_city": "Erie",
      "addr_postcode": "16506",
      "addr_street": "West 26th Street",
      "addr_housenumber": "2643",
      "value": 237.0017801239895
    },
    {
      "id": 184408,
      "geometry": "POINT (-80.303694 42.007854)",
      "poi_name": "Dairy Queen",
      "osm_id": 7788272477,
      "amenity": "fast_food",
      "cuisine": "ice_cream;burger",
      "takeaway": "yes",
      "addr_state": "PA",
      "addr_city": "Girard",
      "addr_postcode": "16417",
      "addr_street": "Westgate Drive",
      "addr_housenumber": "5085",
      "value": 237.0017801239895
    },
    {
      "id": 184409,
      "geometry": "POINT (-80.301702 42.009743)",
      "poi_name": "McDonald's",
      "osm_id": 7788331567,
      "amenity": "fast_food",
      "cuisine": "burger",
      "website": "https://www.mcdonalds.com/us/en-us/location/pa/girard/9123-west-ridge-rd/4277.html",
      "takeaway": "yes",
      "addr_state": "PA",
      "addr_city": "Girard",
      "addr_postcode": "16417",
      "addr_street": "West Ridge Road",
      "addr_housenumber": "9123",
      "value": 237.0017801239895
    },
    {
      "id": 184411,
      "geometry": "POINT (-80.302562 42.008306)",
      "poi_name": "Little Caesars",
      "osm_id": 7788395746,
      "amenity": "fast_food",
      "cuisine": "pizza",
      "website": "https://littlecaesars.com/en-us/store/6769/",
      "takeaway": "yes",
      "addr_city": "Girard",
      "addr_postcode": "16417",
      "addr_street": "West Ridge Road",
      "addr_housenumber": "9125",
      "value": 237.0017801239895
    },
    {
      "id": 184412,
      "geometry": "POINT (-80.302528 42.008244)",
      "poi_name": "Subway",
      "osm_id": 7788395747,
      "amenity": "fast_food",
      "cuisine": "sandwich",
      "takeaway": "yes",
      "addr_state": "PA",
      "addr_city": "Girard",
      "addr_postcode": "16417",
      "addr_street": "West Ridge Road",
      "addr_housenumber": "9125",
      "value": 237.0017801239895
    },
    {
      "id": 242529,
      "geometry": "POINT (-80.106733 42.100599)",
      "poi_name": "Subway",
      "osm_id": 7576461325,
      "amenity": "fast_food",
      "cuisine": "sandwich",
      "takeaway": "yes",
      "addr_state": "PA",
      "addr_city": "Erie",
      "addr_postcode": "16508",
      "addr_street": "West 26th Street",
      "addr_housenumber": "1522",
      "value": 237.0017801239895
    },
    {
      "id": 185895,
      "geometry": "POINT (-80.181464 42.073556)",
      "poi_name": "Marco's Pizza",
      "osm_id": 7890516736,
      "amenity": "fast_food",
      "cuisine": "pizza",
      "takeaway": "yes",
      "addr_state": "PA",
      "addr_city": "Erie",
      "addr_postcode": "16506",
      "addr_street": "Asbury Road",
      "addr_housenumber": "2421",
      "value": 237.0017801239895
    },
    {
      "id": 242464,
      "geometry": "POINT (-80.032359 42.108128)",
      "poi_name": "Little Caesars",
      "osm_id": 7572869959,
      "amenity": "fast_food",
      "cuisine": "pizza",
      "opening_hours": "Mo-Su 11:00-22:00",
      "website": "https://littlecaesars.com/en-us/store/2505/",
      "phone": "+1 (814) 825-9434",
      "takeaway": "yes",
      "addr_state": "PA",
      "addr_city": "Erie",
      "addr_postcode": "16504",
      "addr_street": "East Grandview Boulevard",
      "addr_housenumber": "1332",
      "value": 237.0017801239895
    },
    {
      "id": 242469,
      "geometry": "POINT (-80.083293 42.095014)",
      "poi_name": "Papa John's",
      "osm_id": 7573265557,
      "amenity": "fast_food",
      "cuisine": "pizza",
      "takeaway": "yes",
      "addr_state": "PA",
      "addr_city": "Erie",
      "addr_postcode": "16509",
      "addr_street": "Peach Street",
      "addr_housenumber": "3870",
      "value": 237.0017801239895
    },
    {
      "id": 242470,
      "geometry": "POINT (-80.084476 42.09102)",
      "poi_name": "Burger King",
      "osm_id": 7573281377,
      "amenity": "fast_food",
      "cuisine": "burger",
      "takeaway": "yes",
      "addr_state": "PA",
      "addr_city": "Erie",
      "addr_postcode": "16509",
      "addr_street": "Peach Street",
      "addr_housenumber": "4205",
      "value": 237.0017801239895
    },
    {
      "id": 242471,
      "geometry": "POINT (-80.085242 42.08982)",
      "poi_name": "Taco Bell",
      "osm_id": 7573290546,
      "amenity": "fast_food",
      "cuisine": "tex-mex",
      "website": "https://locations.tacobell.com/pa/erie/4305-peach-street.html",
      "takeaway": "yes",
      "addr_state": "PA",
      "addr_city": "Erie",
      "addr_postcode": "16509",
      "addr_street": "Peach Street",
      "addr_housenumber": "4305",
      "value": 237.0017801239895
    },
    {
      "id": 242472,
      "geometry": "POINT (-80.084118 42.09206)",
      "poi_name": "Arby's",
      "osm_id": 7573292081,
      "amenity": "fast_food",
      "cuisine": "sandwich",
      "takeaway": "yes",
      "addr_state": "PA",
      "addr_city": "Erie",
      "addr_postcode": "16509",
      "addr_street": "Peach Street",
      "addr_housenumber": "4105",
      "value": 237.0017801239895
    },
    {
      "id": 242474,
      "geometry": "POINT (-80.085483 42.089322)",
      "poi_name": "McDonald's",
      "osm_id": 7573305924,
      "amenity": "fast_food",
      "cuisine": "burger",
      "website": "https://www.mcdonalds.com/us/en-us/location/pa/erie/4319-peach-st/110.html",
      "takeaway": "yes",
      "addr_state": "PA",
      "addr_city": "Erie",
      "addr_postcode": "16509",
      "addr_street": "Peach Street",
      "addr_housenumber": "4319",
      "value": 237.0017801239895
    },
    {
      "id": 242476,
      "geometry": "POINT (-80.088436 42.08355)",
      "poi_name": "Steel City Sandwich",
      "osm_id": 7573342776,
      "amenity": "fast_food",
      "cuisine": "sandwich",
      "addr_state": "PA",
      "addr_city": "Erie",
      "addr_postcode": "16509",
      "addr_street": "Peach Street",
      "addr_housenumber": "4801",
      "value": 237.0017801239895
    },
    {
      "id": 242477,
      "geometry": "POINT (-80.08432 42.093101)",
      "poi_name": "Panera Bread",
      "osm_id": 7573345230,
      "amenity": "fast_food",
      "cuisine": "sandwich;bakery",
      "takeaway": "yes",
      "addr_state": "PA",
      "addr_city": "Erie",
      "addr_postcode": "16509",
      "addr_street": "Peach Street",
      "addr_housenumber": "4014",
      "value": 237.0017801239895
    },
    {
      "id": 242531,
      "geometry": "POINT (-80.147714 42.084789)",
      "poi_name": "Dunkin'",
      "osm_id": 7576501969,
      "amenity": "fast_food",
      "cuisine": "donut;coffee_shop",
      "takeaway": "yes",
      "addr_state": "PA",
      "addr_city": "Erie",
      "addr_postcode": "16506",
      "addr_street": "West 26th Street",
      "addr_housenumber": "3310",
      "value": 237.0017801239895
    },
    {
      "id": 242479,
      "geometry": "POINT (-80.091381 42.080172)",
      "poi_name": "Subway",
      "osm_id": 7573384330,
      "amenity": "fast_food",
      "cuisine": "sandwich",
      "takeaway": "yes",
      "addr_state": "PA",
      "addr_city": "Erie",
      "addr_postcode": "16509",
      "addr_street": "Peach Street",
      "addr_housenumber": "5046",
      "value": 237.0017801239895
    },
    {
      "id": 242532,
      "geometry": "POINT (-80.142508 42.086651)",
      "poi_name": "Subway",
      "osm_id": 7576512613,
      "amenity": "fast_food",
      "cuisine": "sandwich",
      "takeaway": "yes",
      "addr_state": "PA",
      "addr_city": "Erie",
      "addr_postcode": "16506",
      "addr_street": "West 26th Street",
      "addr_housenumber": "3104",
      "value": 237.0017801239895
    },
    {
      "id": 242490,
      "geometry": "POINT (-80.081562 42.098178)",
      "poi_name": "Dairy Queen",
      "osm_id": 7573509939,
      "amenity": "fast_food",
      "cuisine": "ice_cream;burger",
      "takeaway": "yes",
      "addr_state": "PA",
      "addr_city": "Erie",
      "addr_postcode": "16508",
      "addr_street": "Peach Street",
      "addr_housenumber": "3710",
      "value": 237.0017801239895
    },
    {
      "id": 243115,
      "geometry": "POINT (-80.03852 42.069463)",
      "poi_name": "Subway",
      "osm_id": 7626366789,
      "amenity": "fast_food",
      "cuisine": "sandwich",
      "phone": "+1 814 864 8897",
      "takeaway": "yes",
      "addr_state": "PA",
      "addr_city": "Erie",
      "addr_postcode": "16509",
      "addr_street": "Perry Highway",
      "addr_housenumber": "8035",
      "value": 237.0017801239895
    },
    {
      "id": 243120,
      "geometry": "POINT (-80.039052 42.06803)",
      "poi_name": "Taco Bell",
      "osm_id": 7626451281,
      "amenity": "fast_food",
      "cuisine": "tex-mex",
      "website": "https://locations.tacobell.com/pa/erie/8056-perry-highway.html",
      "takeaway": "yes",
      "addr_state": "PA",
      "addr_city": "Erie",
      "addr_postcode": "16509",
      "addr_street": "Perry Highway",
      "addr_housenumber": "8056",
      "value": 237.0017801239895
    },
    {
      "id": 243586,
      "geometry": "POINT (-80.080395 42.052096)",
      "poi_name": "Subway",
      "osm_id": 7660976821,
      "amenity": "fast_food",
      "cuisine": "sandwich",
      "takeaway": "yes",
      "addr_state": "PA",
      "addr_city": "Erie",
      "addr_postcode": "16509",
      "addr_street": "Downs Drive",
      "addr_housenumber": "1825",
      "value": 237.0017801239895
    },
    {
      "id": 244347,
      "geometry": "POINT (-80.00837 42.094705)",
      "poi_name": "Wendy's",
      "osm_id": 7716985124,
      "amenity": "fast_food",
      "cuisine": "burger",
      "takeaway": "yes",
      "addr_state": "PA",
      "addr_city": "Erie",
      "addr_postcode": "16509",
      "addr_street": "Wattsburg Road",
      "addr_housenumber": "5902",
      "value": 237.0017801239895
    },
    {
      "id": 242927,
      "geometry": "POINT (-80.097371 42.066548)",
      "poi_name": "Picasso's",
      "osm_id": 7609604199,
      "amenity": "fast_food",
      "cuisine": "sandwich",
      "addr_state": "PA",
      "addr_city": "Erie",
      "addr_postcode": "16565",
      "addr_street": "Millcreek Mall Boulevard",
      "addr_housenumber": "960",
      "value": 237.0017801239895
    }
  ],
  "answer_type": "loc",
  "question_entities": {
    "[2]": {
      "distance": 50000,
      "text": "50 kilometers"
    },
    "[3]": {
      "main_category": "tourism",
      "sub_category": "viewpoint",
      "display_name": "Glenhill Farmhouse, Erie, PA",
      "geo_wkt": "POINT (-79.985748 42.119196)",
      "poi": {
        "id": 241,
        "geometry": "POINT (-79.985748 42.119196)",
        "poi_name": "Glenhill Farmhouse",
        "osm_id": 8255522795,
        "tourism": "viewpoint",
        "opening_hours": "Mo-Fr 08:00-17:00",
        "operator": "Penn State Behrend",
        "addr_state": "PA",
        "addr_city": "Erie",
        "addr_postcode": "16563",
        "addr_street": "College Drive",
        "addr_housenumber": "4701"
      }
    },
    "[4]": {
      "main_category": "tourism",
      "sub_category": "hotel",
      "display_name": "Candlewood Suites Erie, Erie, PA",
      "geo_wkt": "POINT (-80.097662 42.06499)",
      "poi": {
        "id": 13197,
        "geometry": "POINT (-80.097662 42.06499)",
        "poi_name": "Candlewood Suites Erie",
        "osm_id": 4076413961,
        "tourism": "hotel",
        "addr_state": "PA",
        "addr_city": "Erie",
        "addr_postcode": "16565",
        "addr_street": "Edinboro Road",
        "addr_housenumber": "2020"
      }
    },
    "[1]": {
      "main_category": "amenity",
      "sub_category": "fast_food"
    }
  },
  "id": 1268,
  "type": "range:towards+loc"
}