{
  "question": "Where can I find restaurant located en route to Steinhart Aquarium, CA from House of Air, San Francisco, CA, within a radius of 40 kilometers?",
  "sql": "WITH\n    angle AS (SELECT degrees(ST_Azimuth(ST_GeomFromText('POINT (-122.468617 37.804932)',4326)::geography, ST_GeomFromText('POINT (-122.465976 37.769485)',4326)::geography)) AS value)\nSELECT * FROM pois,angle\nWHERE amenity = 'restaurant'\nAND ST_DWithin(pois.geometry, ST_GeomFromText('POINT (-122.468617 37.804932)',4326)::geography, 40000)\nAND (degrees(ST_Azimuth(ST_GeomFromText('POINT (-122.468617 37.804932)',4326)::geography, pois.geometry)) BETWEEN angle.value - 22.5 AND angle.value + 22.5);\n",
  "answers": [
    {
      "id": 27574,
      "geometry": "POINT (-122.424922 37.626301)",
      "poi_name": "Hashes & Brews",
      "osm_id": 434788700,
      "amenity": "restaurant",
      "cuisine": "american",
      "website": "https://hashesandbrews.com",
      "phone": "+1 (650) 952-3189",
      "addr_state": "CA",
      "addr_city": "San Bruno",
      "addr_postcode": "94066",
      "addr_street": "Cherry Avenue",
      "addr_housenumber": "811",
      "value": 176.6152880408665
    },
    {
      "id": 27771,
      "geometry": "POINT (-122.467787 37.782933)",
      "poi_name": "Hamburger Heaven",
      "osm_id": 448038877,
      "amenity": "restaurant",
      "cuisine": "burger",
      "addr_state": "CA",
      "addr_city": "San Francisco",
      "addr_postcode": "94118",
      "addr_street": "Clement Street",
      "addr_housenumber": "800",
      "value": 176.6152880408665
    },
    {
      "id": 27772,
      "geometry": "POINT (-122.461084 37.782984)",
      "poi_name": "Giorgio's Pizza",
      "osm_id": 448038881,
      "amenity": "restaurant",
      "cuisine": "pizza",
      "wheelchair": "yes",
      "website": "http://www.giorgiospizza.com/",
      "phone": "(415) 668-1266",
      "addr_city": "San Francisco",
      "addr_postcode": "94118",
      "addr_street": "Clement Street",
      "addr_housenumber": "151",
      "value": 176.6152880408665
    },
    {
      "id": 27774,
      "geometry": "POINT (-122.45922 37.783064)",
      "poi_name": "Village Pizzeria",
      "osm_id": 448038883,
      "amenity": "restaurant",
      "cuisine": "pizza",
      "addr_state": "CA",
      "addr_city": "San Francisco",
      "addr_street": "Clement Street",
      "addr_housenumber": "1",
      "value": 176.6152880408665
    },
    {
      "id": 28514,
      "geometry": "POINT (-122.434191 37.469266)",
      "poi_name": "Round Table Pizza",
      "osm_id": 487628973,
      "amenity": "restaurant",
      "cuisine": "pizza",
      "addr_city": "Half Moon Bay",
      "addr_postcode": "94019",
      "addr_street": "Cabrillo Highway North",
      "addr_housenumber": "50",
      "value": 176.6152880408665
    },
    {
      "id": 32351,
      "geometry": "POINT (-122.469869 37.687061)",
      "poi_name": "CyBelles Pizza",
      "osm_id": 2624313649,
      "amenity": "restaurant",
      "cuisine": "pizza",
      "website": "https://www.cybellespizzadalycity.com/",
      "addr_city": "Daly City",
      "addr_postcode": "94014",
      "addr_street": "Junipero Serra Boulevard",
      "addr_housenumber": "2985",
      "value": 176.6152880408665
    },
    {
      "id": 31962,
      "geometry": "POINT (-122.465469 37.764217)",
      "poi_name": "Pasquale's",
      "osm_id": 2615864296,
      "amenity": "restaurant",
      "cuisine": "italian",
      "phone": "+1 415 661 2140",
      "addr_city": "San Francisco",
      "addr_postcode": "94122",
      "addr_street": "Irving Street",
      "addr_housenumber": "700",
      "value": 176.6152880408665
    },
    {
      "id": 32414,
      "geometry": "POINT (-122.453721 37.743841)",
      "poi_name": "Taqueria Miraloma",
      "osm_id": 2625322062,
      "amenity": "restaurant",
      "cuisine": "mexican",
      "addr_state": "CA",
      "addr_city": "San Francisco",
      "addr_postcode": "94127",
      "addr_street": "Portola Drive",
      "addr_housenumber": "755",
      "value": 176.6152880408665
    },
    {
      "id": 32415,
      "geometry": "POINT (-122.45361 37.74394)",
      "poi_name": "Round Table Pizza",
      "osm_id": 2625322098,
      "amenity": "restaurant",
      "cuisine": "pizza",
      "website": "https://www.roundtablepizza.com/rtp/store.asp?store_num=753",
      "phone": "1-415-681-9595",
      "addr_state": "CA",
      "addr_city": "San Francisco",
      "addr_postcode": "94127",
      "addr_street": "Portola Drive",
      "addr_housenumber": "737",
      "value": 176.6152880408665
    },
    {
      "id": 33179,
      "geometry": "POINT (-122.466293 37.765424)",
      "poi_name": "Underdogs Tres",
      "osm_id": 2655525579,
      "amenity": "restaurant",
      "cuisine": "mexican;bar&grill;fish;tacos",
      "website": "https://underdogstres.com/",
      "phone": "+1 415-566-8700",
      "addr_city": "San Francisco",
      "addr_postcode": "94122",
      "addr_street": "9th Avenue",
      "addr_housenumber": "1224",
      "value": 176.6152880408665
    },
    {
      "id": 33180,
      "geometry": "POINT (-122.476787 37.776794)",
      "poi_name": "Wen Chang Dumplings",
      "osm_id": 2655525593,
      "amenity": "restaurant",
      "cuisine": "asian",
      "wheelchair": "yes",
      "opening_hours": "Tu-Su 16:00-21:00; Tu-Su 11:30-14:30",
      "website": "https://wenchangusa.com/",
      "phone": "+1 415-702-6156",
      "addr_city": "San Francisco",
      "addr_postcode": "94121",
      "addr_street": "Balboa Street",
      "addr_housenumber": "1650",
      "value": 176.6152880408665
    },
    {
      "id": 33181,
      "geometry": "POINT (-122.478281 37.77676)",
      "poi_name": "Han Il Kwan",
      "osm_id": 2655525613,
      "amenity": "restaurant",
      "cuisine": "korean",
      "website": "https://www.facebook.com/pages/Han-Il-Kwan-Korean-Restaurant/116350931710296",
      "addr_city": "San Francisco",
      "addr_postcode": "94121-3131",
      "addr_street": "Balboa Street",
      "addr_housenumber": "1802",
      "value": 176.6152880408665
    },
    {
      "id": 35180,
      "geometry": "POINT (-122.465591 37.764213)",
      "poi_name": "La Fonda",
      "osm_id": 2712078675,
      "amenity": "restaurant",
      "cuisine": "mexican",
      "phone": "+1 415 6819205",
      "addr_city": "San Francisco",
      "addr_postcode": "94122",
      "addr_street": "Irving Street",
      "addr_housenumber": "712",
      "value": 176.6152880408665
    },
    {
      "id": 35259,
      "geometry": "POINT (-122.466434 37.763541)",
      "poi_name": "Nabe",
      "osm_id": 2715014432,
      "amenity": "restaurant",
      "cuisine": "japanese;nabe;hotpot",
      "opening_hours": "Mo-Th 17:00-22:00; Fr 17:00-22:45; Sa 11:30-14:45,17:00-22:45; Su 11:30-14:45,17:00-22:00",
      "website": "https://www.nabesf.com/",
      "addr_state": "CA",
      "addr_city": "San Francisco",
      "addr_postcode": "94122",
      "addr_street": "9th Avenue",
      "addr_housenumber": "1325",
      "value": 176.6152880408665
    },
    {
      "id": 35634,
      "geometry": "POINT (-122.478659 37.722087)",
      "poi_name": "Nizario's",
      "osm_id": 2726201090,
      "amenity": "restaurant",
      "cuisine": "pizza",
      "opening_hours": "11:00-15:00",
      "phone": "+1 415-337-5555",
      "addr_city": "San Francisco",
      "addr_postcode": "94132",
      "addr_street": "Holloway Avenue",
      "addr_housenumber": "1650",
      "value": 176.6152880408665
    },
    {
      "id": 45056,
      "geometry": "POINT (-122.454906 37.781163)",
      "poi_name": "Mel's Drive-In",
      "osm_id": 3189444970,
      "amenity": "restaurant",
      "cuisine": "american",
      "wheelchair": "yes",
      "internet_access": "wlan",
      "outdoor_seating": "yes",
      "addr_state": "CA",
      "addr_city": "San Francisco",
      "addr_postcode": "94118",
      "addr_street": "Geary Boulevard",
      "addr_housenumber": "3355",
      "value": 176.6152880408665
    },
    {
      "id": 36746,
      "geometry": "POINT (-122.456055 37.781618)",
      "poi_name": "Native Burger",
      "osm_id": 2783222076,
      "amenity": "restaurant",
      "cuisine": "burger",
      "opening_hours": "Mo-Sa 11:00-21:00; Su 11:00-15:30; PH closed",
      "addr_state": "CA",
      "addr_city": "San Francisco",
      "addr_postcode": "94118",
      "addr_street": "Geary Boulevard",
      "addr_housenumber": "3420",
      "value": 176.6152880408665
    },
    {
      "id": 40646,
      "geometry": "POINT (-122.323303 37.56323)",
      "poi_name": "Champagne Seafood Restaurant",
      "osm_id": 2975371309,
      "amenity": "restaurant",
      "cuisine": "chinese",
      "outdoor_seating": "no",
      "addr_state": "CA",
      "addr_city": "San Mateo",
      "addr_postcode": "94401",
      "addr_street": "East 4th Avenue",
      "addr_housenumber": "88",
      "value": 176.6152880408665
    },
    {
      "id": 43949,
      "geometry": "POINT (-122.462442 37.764356)",
      "poi_name": "Koo",
      "osm_id": 3137696598,
      "amenity": "restaurant",
      "cuisine": "japanese",
      "opening_hours": "Tu-Th 17:30-22:00, Fr-Sa 17:30-22:30, Su 17:30-21:30",
      "website": "http://www.sushikoo.com/",
      "phone": "+1 415 731 7077",
      "addr_city": "San Francisco",
      "addr_postcode": "94122",
      "addr_street": "Irving Street",
      "addr_housenumber": "408",
      "value": 176.6152880408665
    },
    {
      "id": 43950,
      "geometry": "POINT (-122.467135 37.764141)",
      "poi_name": "Perilla",
      "osm_id": 3137707281,
      "amenity": "restaurant",
      "cuisine": "vietnamese",
      "opening_hours": "11:00-21:00",
      "website": "http://perillasf.com",
      "phone": "+1 415 564 9980",
      "addr_city": "San Francisco",
      "addr_postcode": "94122",
      "addr_street": "Irving Street",
      "addr_housenumber": "836",
      "value": 176.6152880408665
    },
    {
      "id": 44122,
      "geometry": "POINT (-122.364326 37.586321)",
      "poi_name": "The Duo Entourage",
      "osm_id": 3145890670,
      "amenity": "restaurant",
      "cuisine": "regional",
      "wheelchair": "yes",
      "opening_hours": "11:00-21:00",
      "website": "http://magdalunacafe.com/",
      "capacity": "30",
      "phone": "(650) 393-4207",
      "addr_city": "Burlingame",
      "addr_postcode": "94010",
      "addr_street": "Broadway",
      "addr_housenumber": "1199 #2",
      "value": 176.6152880408665
    },
    {
      "id": 40985,
      "geometry": "POINT (-122.337178 37.521207)",
      "poi_name": "Rainbow Pizza",
      "osm_id": 2989648456,
      "amenity": "restaurant",
      "cuisine": "greek",
      "website": "http://www.rainbowpizza.com",
      "phone": "+1 (650) 571-1848",
      "addr_city": "San Mateo",
      "addr_postcode": "94402",
      "addr_street": "Crystal Springs Shopping Center",
      "addr_housenumber": "112",
      "value": 176.6152880408665
    },
    {
      "id": 44897,
      "geometry": "POINT (-122.36459 37.586066)",
      "poi_name": "Village Host",
      "osm_id": 3181851851,
      "amenity": "restaurant",
      "cuisine": "pizza",
      "addr_state": "CA",
      "addr_city": "Burlingame",
      "addr_street": "Broadway",
      "addr_housenumber": "1201",
      "value": 176.6152880408665
    },
    {
      "id": 44898,
      "geometry": "POINT (-122.364668 37.585998)",
      "poi_name": "Rocca Ristorante",
      "osm_id": 3181851852,
      "amenity": "restaurant",
      "cuisine": "italian",
      "addr_state": "CA",
      "addr_city": "Burlingame",
      "addr_street": "Broadway",
      "addr_housenumber": "1205",
      "value": 176.6152880408665
    },
    {
      "id": 48405,
      "geometry": "POINT (-122.491978 37.649562)",
      "poi_name": "Tam's Cuisine of China",
      "osm_id": 3381660971,
      "amenity": "restaurant",
      "cuisine": "chinese",
      "phone": "+1 650 359 7575",
      "takeaway": "yes",
      "addr_state": "CA",
      "addr_city": "Pacifica",
      "addr_postcode": "94044",
      "addr_street": "Manor Plaza",
      "addr_housenumber": "494",
      "value": 176.6152880408665
    },
    {
      "id": 47252,
      "geometry": "POINT (-122.475728 37.763503)",
      "poi_name": "King of Noodles",
      "osm_id": 3315447461,
      "amenity": "restaurant",
      "cuisine": "chinese",
      "opening_hours": "Mo,Th-Su 11:00-15:00,17:00-20:30; Tu-We off",
      "addr_state": "CA",
      "addr_city": "San Francisco",
      "addr_postcode": "94122",
      "addr_street": "Irving Street",
      "addr_housenumber": "1649",
      "value": 176.6152880408665
    },
    {
      "id": 48383,
      "geometry": "POINT (-122.494358 37.589025)",
      "poi_name": "Luigi's Pizza & Pasta",
      "osm_id": 3380626325,
      "amenity": "restaurant",
      "cuisine": "italian",
      "opening_hours": "We-Mo 12:00-21:00",
      "takeaway": "yes",
      "delivery": "yes",
      "addr_state": "CA",
      "addr_city": "Pacifica",
      "addr_postcode": "94044",
      "addr_street": "Linda Mar Boulevard",
      "addr_housenumber": "950",
      "value": 176.6152880408665
    },
    {
      "id": 46590,
      "geometry": "POINT (-122.324809 37.564014)",
      "poi_name": "Amici\u2019s East Coast Pizzeria",
      "osm_id": 3277256390,
      "amenity": "restaurant",
      "website": "https://www.amicis.com/",
      "addr_state": "CA",
      "addr_city": "San Mateo",
      "addr_postcode": "94401",
      "addr_street": "East 3rd Avenue",
      "addr_housenumber": "69",
      "value": 176.6152880408665
    },
    {
      "id": 48333,
      "geometry": "POINT (-122.442863 37.71458)",
      "poi_name": "Taqueria Mi Sazon",
      "osm_id": 3376890738,
      "amenity": "restaurant",
      "cuisine": "mexican",
      "opening_hours": "Mo off; Tu-Su 10:30-22:30",
      "phone": "+1 415 585 8243",
      "takeaway": "yes",
      "delivery": "yes",
      "addr_state": "CA",
      "addr_city": "San Francisco",
      "addr_postcode": "94112",
      "addr_street": "Mission Street",
      "addr_housenumber": "5300",
      "value": 176.6152880408665
    },
    {
      "id": 48407,
      "geometry": "POINT (-122.491785 37.650893)",
      "poi_name": "The Green Enchilada",
      "osm_id": 3381660977,
      "amenity": "restaurant",
      "cuisine": "mexican",
      "opening_hours": "Mo-Su 10:00-21:00",
      "phone": "+1 650 557 0841",
      "takeaway": "yes",
      "addr_state": "CA",
      "addr_city": "Pacifica",
      "addr_postcode": "94044",
      "addr_street": "Manor Plaza",
      "addr_housenumber": "444",
      "value": 176.6152880408665
    },
    {
      "id": 48408,
      "geometry": "POINT (-122.491984 37.649207)",
      "poi_name": "Camelot Fish & Chips",
      "osm_id": 3381661406,
      "amenity": "restaurant",
      "cuisine": "seafood",
      "opening_hours": "Mo-Sa 11:00-20:00",
      "phone": "+1 650 355 1555",
      "takeaway": "yes",
      "addr_state": "CA",
      "addr_city": "Pacifica",
      "addr_postcode": "94044",
      "addr_street": "West Manor Drive",
      "addr_housenumber": "70",
      "value": 176.6152880408665
    },
    {
      "id": 50895,
      "geometry": "POINT (-122.466809 37.764152)",
      "poi_name": "Inle",
      "osm_id": 493884683,
      "amenity": "restaurant",
      "cuisine": "burmese",
      "opening_hours": "Mo off; Tu-Su 11:00-15:00,16:00-21:00",
      "addr_state": "CA",
      "addr_city": "San Francisco",
      "addr_postcode": "94122",
      "addr_street": "Irving Street",
      "addr_housenumber": "822",
      "value": 176.6152880408665
    },
    {
      "id": 48799,
      "geometry": "POINT (-122.466458 37.763766)",
      "poi_name": "Dumpling Park",
      "osm_id": 3400374101,
      "amenity": "restaurant",
      "cuisine": "chinese",
      "opening_hours": "11:00-15:00,16:30-21:30",
      "addr_state": "CA",
      "addr_city": "San Francisco",
      "addr_postcode": "94122",
      "addr_street": "9th Avenue",
      "addr_housenumber": "1309",
      "value": 176.6152880408665
    },
    {
      "id": 49550,
      "geometry": "POINT (-122.49179 37.650856)",
      "poi_name": "Redeye Grill",
      "osm_id": 3441955464,
      "amenity": "restaurant",
      "cuisine": "mediterranean",
      "phone": "+1 650 359 5188",
      "takeaway": "yes",
      "addr_state": "CA",
      "addr_city": "Pacifica",
      "addr_postcode": "94044",
      "addr_street": "Manor Plaza",
      "addr_housenumber": "446",
      "value": 176.6152880408665
    },
    {
      "id": 49477,
      "geometry": "POINT (-122.491782 37.651276)",
      "poi_name": "Viva Italiano Pizzeria",
      "osm_id": 3436306980,
      "amenity": "restaurant",
      "cuisine": "italian",
      "website": "http://www.vivaitalianopizzeria.com/",
      "phone": "+1 650 355 9006",
      "takeaway": "yes",
      "delivery": "yes",
      "addr_state": "CA",
      "addr_city": "Pacifica",
      "addr_postcode": "94044",
      "addr_street": "Bill Drake Way",
      "addr_housenumber": "67",
      "value": 176.6152880408665
    },
    {
      "id": 50708,
      "geometry": "POINT (-122.49034 37.634179)",
      "poi_name": "Pacifica Thai Cuisine",
      "osm_id": 3500325424,
      "amenity": "restaurant",
      "cuisine": "thai",
      "website": "https://pacificathai.com/",
      "phone": "+1-650-355-1678",
      "addr_state": "CA",
      "addr_city": "Pacifica",
      "addr_postcode": "94044",
      "addr_street": "Francisco Boulevard",
      "addr_housenumber": "1966",
      "value": 176.6152880408665
    },
    {
      "id": 54884,
      "geometry": "POINT (-122.412215 37.655778)",
      "poi_name": "Taqueria El Farolito",
      "osm_id": 10160492593,
      "amenity": "restaurant",
      "cuisine": "mexican",
      "addr_state": "CA",
      "addr_city": "South San Francisco",
      "addr_postcode": "94080",
      "addr_street": "Grand Avenue",
      "addr_housenumber": "394",
      "value": 176.6152880408665
    },
    {
      "id": 56057,
      "geometry": "POINT (-122.471858 37.646104)",
      "poi_name": "Soul Rice",
      "osm_id": 10222980816,
      "amenity": "restaurant",
      "opening_hours": "We-Mo 11:00-20:30",
      "website": "https://soulriceca.com",
      "phone": "650-735-8479",
      "addr_state": "CA",
      "addr_city": "Pacifica",
      "addr_postcode": "94044",
      "addr_street": "Manor Drive",
      "addr_housenumber": "683",
      "value": 176.6152880408665
    },
    {
      "id": 55016,
      "geometry": "POINT (-122.463617 37.764288)",
      "poi_name": "Loving Hut",
      "osm_id": 10167729989,
      "amenity": "restaurant",
      "cuisine": "international;asian",
      "wheelchair": "yes",
      "opening_hours": "11:00-21:00",
      "phone": "+1 415 731-1957",
      "addr_state": "CA",
      "addr_city": "San Francisco",
      "addr_postcode": "94122",
      "addr_street": "Irving Street",
      "addr_housenumber": "524",
      "value": 176.6152880408665
    },
    {
      "id": 56108,
      "geometry": "POINT (-122.450051 37.769491)",
      "poi_name": "Dragoneats",
      "osm_id": 10224656844,
      "amenity": "restaurant",
      "cuisine": "vietnamese",
      "phone": "+14155226689",
      "addr_state": "CA",
      "addr_city": "San Francisco",
      "addr_postcode": "94117",
      "addr_street": "Haight Street",
      "addr_housenumber": "1671",
      "value": 176.6152880408665
    },
    {
      "id": 59851,
      "geometry": "POINT (-122.364293 37.586396)",
      "poi_name": "Yaprak Doner",
      "osm_id": 5446511507,
      "amenity": "restaurant",
      "cuisine": "turkish",
      "opening_hours": "Mo-Su 10:00-21:00",
      "addr_state": "CA",
      "addr_city": "Burlingame",
      "addr_postcode": "94010",
      "addr_street": "Broadway",
      "addr_housenumber": "1199 #1",
      "value": 176.6152880408665
    },
    {
      "id": 59852,
      "geometry": "POINT (-122.364172 37.586581)",
      "poi_name": "Royal Donut Cafe",
      "osm_id": 5446511509,
      "amenity": "restaurant",
      "cuisine": "donut;breakfast;burger",
      "opening_hours": "Mo-Su 07:00-15:00",
      "addr_state": "CA",
      "addr_city": "Burlingame",
      "addr_postcode": "94010",
      "addr_street": "Broadway",
      "addr_housenumber": "1165",
      "value": 176.6152880408665
    },
    {
      "id": 69627,
      "geometry": "POINT (-122.491935 37.633871)",
      "poi_name": "Seahorse Brewing Company",
      "osm_id": 11316355834,
      "amenity": "restaurant",
      "cuisine": "american;barbecue",
      "website": "http://seahorsebrewingcompany.com/",
      "addr_state": "CA",
      "addr_city": "Pacifica",
      "addr_postcode": "94044",
      "addr_street": "Palmetto Avenue",
      "addr_housenumber": "2017",
      "value": 176.6152880408665
    },
    {
      "id": 69472,
      "geometry": "POINT (-122.490416 37.635778)",
      "poi_name": "Taqueria Pacifica",
      "osm_id": 11306506498,
      "amenity": "restaurant",
      "cuisine": "mexican",
      "phone": "+1-650-735-9983",
      "addr_state": "CA",
      "addr_city": "Pacifica",
      "addr_postcode": "94044",
      "addr_street": "Francisco Boulevard",
      "addr_housenumber": "1710",
      "value": 176.6152880408665
    },
    {
      "id": 69473,
      "geometry": "POINT (-122.490546 37.635423)",
      "poi_name": "El Toro Loco",
      "osm_id": 11306506499,
      "amenity": "restaurant",
      "cuisine": "peruvian;mexican",
      "website": "https://eltoroloco2.com/",
      "phone": "+1-650-355-5548",
      "addr_state": "CA",
      "addr_city": "Pacifica",
      "addr_postcode": "94044",
      "addr_street": "Francisco Boulevard",
      "addr_housenumber": "1780",
      "value": 176.6152880408665
    },
    {
      "id": 69474,
      "geometry": "POINT (-122.490384 37.636197)",
      "poi_name": "Buona Italia Caffe",
      "osm_id": 11306506500,
      "amenity": "restaurant",
      "cuisine": "italian",
      "phone": "+1-650-733-7159",
      "takeaway": "yes",
      "addr_state": "CA",
      "addr_city": "Pacifica",
      "addr_postcode": "94044",
      "addr_street": "Francisco Boulevard",
      "addr_housenumber": "1608",
      "value": 176.6152880408665
    },
    {
      "id": 69475,
      "geometry": "POINT (-122.491932 37.635793)",
      "poi_name": "Raymond's Chinese Restaurant",
      "osm_id": 11306506501,
      "amenity": "restaurant",
      "cuisine": "chinese",
      "website": "https://raymondpacifica.com/",
      "phone": "+1-650-359-6088",
      "addr_state": "CA",
      "addr_city": "Pacifica",
      "addr_postcode": "94044",
      "addr_street": "Palmetto Avenue",
      "addr_housenumber": "1709",
      "value": 176.6152880408665
    },
    {
      "id": 69476,
      "geometry": "POINT (-122.49181 37.635494)",
      "poi_name": "Kitten & Pinky",
      "osm_id": 11306506502,
      "amenity": "restaurant",
      "cuisine": "vietnamese;sandwich",
      "phone": "+1-650-290-8153",
      "addr_state": "CA",
      "addr_city": "Pacifica",
      "addr_postcode": "94044",
      "addr_street": "Palmetto Avenue",
      "addr_housenumber": "1715",
      "value": 176.6152880408665
    },
    {
      "id": 69478,
      "geometry": "POINT (-122.490383 37.636073)",
      "poi_name": "Loco Burger",
      "osm_id": 11306538546,
      "amenity": "restaurant",
      "cuisine": "peruvian;burger",
      "phone": "+1-650-290-8111",
      "addr_state": "CA",
      "addr_city": "Pacifica",
      "addr_postcode": "94044",
      "addr_street": "Francisco Boulevard",
      "addr_housenumber": "1624",
      "value": 176.6152880408665
    },
    {
      "id": 69480,
      "geometry": "POINT (-122.487879 37.633114)",
      "poi_name": "Go Sushi Japanese Restaurant",
      "osm_id": 11306544480,
      "amenity": "restaurant",
      "cuisine": "japanese;sushi",
      "website": "https://gosushitogo.com/",
      "phone": "+1-650-738-9389",
      "addr_state": "CA",
      "addr_city": "Pacifica",
      "addr_postcode": "94044",
      "addr_street": "Eureka Drive",
      "addr_housenumber": "190",
      "value": 176.6152880408665
    },
    {
      "id": 74203,
      "geometry": "POINT (-122.36484 37.586192)",
      "poi_name": "Curry Hyuga",
      "osm_id": 9670772224,
      "amenity": "restaurant",
      "cuisine": "curry;japanese",
      "opening_hours": "We-Su 11:30-15:00,17:30-22:00",
      "website": "https://curryhyuga.com/",
      "phone": "+1 650-458-3082",
      "addr_state": "CA",
      "addr_city": "Burlingame",
      "addr_postcode": "94010",
      "addr_street": "Broadway",
      "addr_housenumber": "1204",
      "value": 176.6152880408665
    },
    {
      "id": 73429,
      "geometry": "POINT (-122.411105 37.622957)",
      "poi_name": "Isla Restaurant",
      "osm_id": 9632385952,
      "amenity": "restaurant",
      "cuisine": "filipino",
      "wheelchair": "yes",
      "opening_hours": "Mo-Fr 11:00-21:00; Sa-Su 10:00-21:00",
      "website": "https://myislarestaurant.com",
      "phone": "+1 650 8725008",
      "takeaway": "yes",
      "outdoor_seating": "no",
      "addr_state": "CA",
      "addr_city": "San Bruno",
      "addr_postcode": "94066",
      "addr_street": "San Mateo Avenue",
      "addr_housenumber": "448",
      "value": 176.6152880408665
    },
    {
      "id": 71421,
      "geometry": "POINT (-122.491803 37.634555)",
      "poi_name": "Golden Sol Wellness Bar (coming soon....)",
      "osm_id": 11389265206,
      "amenity": "restaurant",
      "addr_state": "CA",
      "addr_city": "Pacifica",
      "addr_postcode": "94044",
      "addr_street": "Palmetto Avenue",
      "addr_housenumber": "1905",
      "value": 176.6152880408665
    },
    {
      "id": 74287,
      "geometry": "POINT (-122.491081 37.753456)",
      "poi_name": "Sushi Genki",
      "osm_id": 9673724595,
      "amenity": "restaurant",
      "cuisine": "sushi",
      "wheelchair": "yes",
      "website": "https://www.sushigenkisf.com/",
      "phone": "+1-415-753-9383",
      "addr_state": "CA",
      "addr_city": "San Francisco",
      "addr_postcode": "94122",
      "addr_street": "Noriega Street",
      "addr_housenumber": "2543",
      "value": 176.6152880408665
    },
    {
      "id": 74345,
      "geometry": "POINT (-122.441984 37.715519)",
      "poi_name": "El Pollo Supremo",
      "osm_id": 9677345650,
      "amenity": "restaurant",
      "cuisine": "mexican",
      "opening_hours": "Mo-Su 11:00-21:30",
      "website": "https://elpollosupremosf.com",
      "phone": "+1-415-337-5750",
      "addr_state": "CA",
      "addr_city": "San Francisco",
      "addr_postcode": "94112",
      "addr_street": "Mission Street",
      "addr_housenumber": "5210",
      "value": 176.6152880408665
    },
    {
      "id": 83852,
      "geometry": "POINT (-122.462565 37.782913)",
      "poi_name": "Burma Superstar",
      "osm_id": 1769223515,
      "amenity": "restaurant",
      "cuisine": "asian",
      "website": "https://www.burmasuperstar.com/",
      "phone": "+1 415 387 2147",
      "addr_city": "San Francisco",
      "addr_postcode": "94118",
      "addr_street": "Clement Street",
      "addr_housenumber": "309",
      "value": 176.6152880408665
    },
    {
      "id": 83853,
      "geometry": "POINT (-122.476576 37.780656)",
      "poi_name": "Hong Kong Lounge",
      "osm_id": 1769223517,
      "amenity": "restaurant",
      "cuisine": "chinese",
      "opening_hours": "Mo-Fr 10:30-14:30,17:00-20:30; Sa-Su 10:00-14:30,17:00-20:30",
      "phone": "+1 415 668 8836",
      "outdoor_seating": "no",
      "delivery": "no",
      "addr_state": "CA",
      "addr_city": "San Francisco",
      "addr_postcode": "94121",
      "addr_street": "Geary Boulevard",
      "addr_housenumber": "5322",
      "value": 176.6152880408665
    },
    {
      "id": 80122,
      "geometry": "POINT (-122.485554 37.503972)",
      "poi_name": "Half Moon Bay Brewing Company",
      "osm_id": 853385579,
      "amenity": "restaurant",
      "opening_hours": "Mo-Fr 11:00-21:00;Sa-Su 09:00-22:00",
      "website": "https://www.hmbbrewingco.com/",
      "phone": "+1 650-728-2739",
      "outdoor_seating": "yes",
      "addr_state": "CA",
      "addr_city": "Half Moon Bay",
      "addr_street": "Capistrano Road",
      "addr_housenumber": "390",
      "value": 176.6152880408665
    },
    {
      "id": 80123,
      "geometry": "POINT (-122.486734 37.505072)",
      "poi_name": "Mezza Luna",
      "osm_id": 853387034,
      "amenity": "restaurant",
      "cuisine": "italian",
      "opening_hours": "Mo-Th 11:30-14:30, 17:00-21:30; Fr 11:30-14:30, 17:00-22:00; Sa 11:30-22:00; Su 11:30-21:30",
      "website": "https://www.mezzalunabythesea.com/",
      "phone": "+1 650-728-8108",
      "addr_state": "CA",
      "addr_city": "Half Moon Bay",
      "addr_street": "Prospect Way",
      "addr_housenumber": "459",
      "value": 176.6152880408665
    },
    {
      "id": 82810,
      "geometry": "POINT (-122.436193 37.751495)",
      "poi_name": "Bacco",
      "osm_id": 1713256857,
      "amenity": "restaurant",
      "cuisine": "italian",
      "addr_city": "San Francisco",
      "addr_street": "Diamond Street",
      "addr_housenumber": "737",
      "value": 176.6152880408665
    },
    {
      "id": 83742,
      "geometry": "POINT (-122.462515 37.7813)",
      "poi_name": "Genki Ramen",
      "osm_id": 1763183949,
      "amenity": "restaurant",
      "cuisine": "japanese;ramen",
      "opening_hours": "Mo 17:00-20:30; We-Su 17:00-20:30; Tu off",
      "website": "http://genkiramen.com",
      "phone": "+1 415 7522663",
      "addr_city": "San Francisco",
      "addr_postcode": "94118",
      "addr_street": "Geary Boulevard",
      "addr_housenumber": "4014",
      "value": 176.6152880408665
    },
    {
      "id": 83765,
      "geometry": "POINT (-122.463092 37.777154)",
      "poi_name": "Muguboka",
      "osm_id": 1765718669,
      "amenity": "restaurant",
      "cuisine": "korean",
      "wheelchair": "yes",
      "opening_hours": "Mo,We-Sa 11:00-21:00; Tu,Su off",
      "phone": "+1 415 668 6007",
      "addr_city": "San Francisco",
      "addr_postcode": "94118",
      "addr_street": "Balboa Street",
      "addr_housenumber": "401",
      "value": 176.6152880408665
    },
    {
      "id": 83766,
      "geometry": "POINT (-122.463523 37.777129)",
      "poi_name": "Sushi Bistro",
      "osm_id": 1765718671,
      "amenity": "restaurant",
      "cuisine": "sushi",
      "opening_hours": "We-Mo 17:00-22:30; Tu off",
      "addr_city": "San Francisco",
      "addr_postcode": "94118",
      "addr_street": "Balboa Street",
      "addr_housenumber": "431",
      "value": 176.6152880408665
    },
    {
      "id": 84720,
      "geometry": "POINT (-122.48955 37.733571)",
      "poi_name": "King of Thai Noodles",
      "osm_id": 1809594281,
      "amenity": "restaurant",
      "cuisine": "thai",
      "addr_state": "CA",
      "addr_city": "San Francisco",
      "addr_postcode": "94132",
      "addr_street": "Sloat Boulevard",
      "addr_housenumber": "1507",
      "value": 176.6152880408665
    },
    {
      "id": 86469,
      "geometry": "POINT (-122.452022 37.769233)",
      "poi_name": "Cha Cha Cha",
      "osm_id": 1932984609,
      "amenity": "restaurant",
      "wheelchair": "yes",
      "opening_hours": "12:00-22:00",
      "website": "http://chachachasf.com/",
      "phone": "+1 415-386-7670",
      "addr_state": "CA",
      "addr_city": "San Francisco",
      "addr_postcode": "94117",
      "addr_street": "Haight Street",
      "addr_housenumber": "1801",
      "value": 176.6152880408665
    },
    {
      "id": 84842,
      "geometry": "POINT (-122.460679 37.783004)",
      "poi_name": "B Star",
      "osm_id": 1819811580,
      "amenity": "restaurant",
      "website": "https://www.bstarbar.com/",
      "phone": "415-933-9900",
      "outdoor_seating": "yes",
      "addr_state": "CA",
      "addr_city": "San Francisco",
      "addr_street": "Clement Street",
      "addr_housenumber": "127",
      "value": 176.6152880408665
    },
    {
      "id": 84871,
      "geometry": "POINT (-122.476618 37.780267)",
      "poi_name": "Buffalo Burgers",
      "osm_id": 1822506136,
      "amenity": "restaurant",
      "opening_hours": "Mo-Su 11:00-22:00",
      "phone": "+1 415 668 1267",
      "wikidata": "Q64166160",
      "addr_city": "San Francisco",
      "addr_postcode": "94121",
      "addr_street": "Geary Boulevard",
      "addr_housenumber": "5317",
      "value": 176.6152880408665
    },
    {
      "id": 84872,
      "geometry": "POINT (-122.479133 37.780543)",
      "poi_name": "Gaspare's",
      "osm_id": 1822506137,
      "amenity": "restaurant",
      "cuisine": "italian",
      "website": "https://www.gasparespizza.com/",
      "addr_state": "CA",
      "addr_city": "San Francisco",
      "addr_postcode": "94121",
      "addr_street": "Geary Boulevard",
      "addr_housenumber": "5546",
      "value": 176.6152880408665
    },
    {
      "id": 84873,
      "geometry": "POINT (-122.478079 37.780587)",
      "poi_name": "Gordo Taqueria",
      "osm_id": 1822506138,
      "amenity": "restaurant",
      "cuisine": "mexican",
      "wheelchair": "yes",
      "opening_hours": "Su-We 10:00-21:00; Th-Sa 10:00-22:00",
      "website": "https://gordotaqueria.co/",
      "outdoor_seating": "no",
      "addr_state": "CA",
      "addr_city": "San Francisco",
      "addr_street": "Geary Boulevard",
      "addr_housenumber": "5450",
      "value": 176.6152880408665
    },
    {
      "id": 89796,
      "geometry": "POINT (-122.402584 37.68405)",
      "poi_name": "Chef Reina",
      "osm_id": 8861982508,
      "amenity": "restaurant",
      "cuisine": "filipino",
      "website": "https://www.chefreina.com/",
      "phone": "+1-650-989-8606",
      "takeaway": "only",
      "addr_state": "CA",
      "addr_city": "Brisbane",
      "addr_postcode": "94005",
      "addr_street": "Visitacion Avenue",
      "addr_housenumber": "33",
      "value": 176.6152880408665
    },
    {
      "id": 89797,
      "geometry": "POINT (-122.400216 37.685435)",
      "poi_name": "Round N Round Pot",
      "osm_id": 8862082054,
      "amenity": "restaurant",
      "cuisine": "hotpot",
      "phone": "+1-415-715-8419",
      "addr_state": "CA",
      "addr_city": "Brisbane",
      "addr_postcode": "94005",
      "addr_street": "Old County Road",
      "addr_housenumber": "182",
      "value": 176.6152880408665
    },
    {
      "id": 89798,
      "geometry": "POINT (-122.399529 37.685892)",
      "poi_name": "Ichika Sushi House",
      "osm_id": 8862101227,
      "amenity": "restaurant",
      "cuisine": "japanese",
      "website": "https://ichikasushi.com/",
      "phone": "+1-415-825-5790",
      "addr_state": "CA",
      "addr_city": "Brisbane",
      "addr_postcode": "94005",
      "addr_street": "Old County Road",
      "addr_housenumber": "118",
      "value": 176.6152880408665
    },
    {
      "id": 89799,
      "geometry": "POINT (-122.403312 37.683355)",
      "poi_name": "Melissa's Taqueria",
      "osm_id": 8862111465,
      "amenity": "restaurant",
      "cuisine": "mexican",
      "phone": "+1-415-656-1369",
      "addr_state": "CA",
      "addr_city": "Brisbane",
      "addr_postcode": "94005",
      "addr_street": "Visitacion Avenue",
      "addr_housenumber": "160",
      "value": 176.6152880408665
    },
    {
      "id": 89983,
      "geometry": "POINT (-122.3368 37.521337)",
      "poi_name": "Wakuriya Japanese Kitchen",
      "osm_id": 8873474044,
      "amenity": "restaurant",
      "cuisine": "japanese",
      "addr_state": "CA",
      "addr_city": "San Mateo",
      "addr_postcode": "94402",
      "addr_street": "De Anza Boulevard",
      "addr_housenumber": "115",
      "value": 176.6152880408665
    },
    {
      "id": 89834,
      "geometry": "POINT (-122.403283 37.683417)",
      "poi_name": "Lucky House Restaurant",
      "osm_id": 8864728388,
      "amenity": "restaurant",
      "cuisine": "chinese",
      "phone": "+1-415-467-0836",
      "addr_state": "CA",
      "addr_city": "Brisbane",
      "addr_postcode": "94005",
      "addr_street": "Visitacion Avenue",
      "addr_housenumber": "148",
      "value": 176.6152880408665
    },
    {
      "id": 89835,
      "geometry": "POINT (-122.403564 37.68228)",
      "poi_name": "Na Na's Kitchen",
      "osm_id": 8864749917,
      "amenity": "restaurant",
      "cuisine": "chinese",
      "website": "http://www.nanaskitchenbrisbane.com/",
      "phone": "+1-415-467-5370",
      "addr_state": "CA",
      "addr_city": "Brisbane",
      "addr_postcode": "94005",
      "addr_street": "Visitacion Avenue",
      "addr_housenumber": "301",
      "value": 176.6152880408665
    },
    {
      "id": 90084,
      "geometry": "POINT (-122.466023 37.763927)",
      "poi_name": "Art's Cafe",
      "osm_id": 1976983015,
      "amenity": "restaurant",
      "cuisine": "korean;american;breakfast;burger",
      "opening_hours": "Tu-Su 07:30-15:00",
      "website": "https://www.sfartscafe.com/index.php",
      "phone": "+1-415-665-7440",
      "outdoor_seating": "no",
      "addr_city": "San Francisco",
      "addr_postcode": "94122",
      "addr_street": "Irving Street",
      "addr_housenumber": "747",
      "value": 176.6152880408665
    },
    {
      "id": 91266,
      "geometry": "POINT (-122.433604 37.726579)",
      "poi_name": "Zabb Cuisine",
      "osm_id": 2054109922,
      "amenity": "restaurant",
      "cuisine": "thai",
      "addr_state": "CA",
      "addr_city": "San Francisco",
      "addr_postcode": "94112",
      "addr_street": "Mission Street",
      "addr_housenumber": "4440",
      "value": 176.6152880408665
    },
    {
      "id": 94675,
      "geometry": "POINT (-122.455549 37.781252)",
      "poi_name": "Kaiju Eats",
      "osm_id": 6373019258,
      "amenity": "restaurant",
      "cuisine": "japanese",
      "addr_state": "CA",
      "addr_city": "San Francisco",
      "addr_postcode": "94118",
      "addr_street": "Geary Boulevard",
      "addr_housenumber": "3409",
      "value": 176.6152880408665
    },
    {
      "id": 94681,
      "geometry": "POINT (-122.456251 37.781578)",
      "poi_name": "Panchos",
      "osm_id": 6373068174,
      "amenity": "restaurant",
      "cuisine": "mexican",
      "addr_state": "CA",
      "addr_city": "San Francisco",
      "addr_postcode": "94118",
      "addr_street": "Geary Boulevard",
      "addr_housenumber": "3440",
      "value": 176.6152880408665
    },
    {
      "id": 97017,
      "geometry": "POINT (-122.459854 37.781045)",
      "poi_name": "Dumpling Baby",
      "osm_id": 6456405229,
      "amenity": "restaurant",
      "cuisine": "asian",
      "addr_state": "CA",
      "addr_city": "San Francisco",
      "addr_street": "Geary Boulevard",
      "addr_housenumber": "3751",
      "value": 176.6152880408665
    },
    {
      "id": 96915,
      "geometry": "POINT (-122.468711 37.780641)",
      "poi_name": "Noodle In A Haystack",
      "osm_id": 6451131325,
      "amenity": "restaurant",
      "cuisine": "noodle",
      "website": "https://www.exploretock.com/noodleinahaystack",
      "addr_state": "CA",
      "addr_city": "San Francisco",
      "addr_street": "Geary Boulevard",
      "addr_housenumber": "4601",
      "value": 176.6152880408665
    },
    {
      "id": 96965,
      "geometry": "POINT (-122.450655 37.773461)",
      "poi_name": "Manitas Cafe",
      "osm_id": 6453199911,
      "amenity": "restaurant",
      "cuisine": "regional",
      "addr_state": "CA",
      "addr_city": "San Francisco",
      "addr_postcode": "94117",
      "addr_street": "Hayes Street",
      "addr_housenumber": "2078",
      "value": 176.6152880408665
    },
    {
      "id": 96966,
      "geometry": "POINT (-122.450506 37.773271)",
      "poi_name": "Hayes Pizza",
      "osm_id": 6453202203,
      "amenity": "restaurant",
      "cuisine": "pizza",
      "addr_state": "CA",
      "addr_city": "San Francisco",
      "addr_postcode": "94117",
      "addr_street": "Hayes Street",
      "addr_housenumber": "2077",
      "value": 176.6152880408665
    },
    {
      "id": 106905,
      "geometry": "POINT (-122.465108 37.76424)",
      "poi_name": "Cafe Rain Tree",
      "osm_id": 3522863339,
      "amenity": "restaurant",
      "cuisine": "american",
      "addr_state": "CA",
      "addr_city": "San Francisco",
      "addr_postcode": "94122",
      "addr_street": "Irving Street",
      "addr_housenumber": "654",
      "value": 176.6152880408665
    },
    {
      "id": 105772,
      "geometry": "POINT (-122.462887 37.725338)",
      "poi_name": "Emmy's Restaurant",
      "osm_id": 8641835224,
      "amenity": "restaurant",
      "cuisine": "chinese",
      "phone": "+14155858887",
      "addr_state": "CA",
      "addr_city": "San Francisco",
      "addr_postcode": "94112",
      "addr_street": "Ocean Avenue",
      "addr_housenumber": "1923",
      "value": 176.6152880408665
    },
    {
      "id": 105773,
      "geometry": "POINT (-122.462807 37.725312)",
      "poi_name": "Joyful Kitchen",
      "osm_id": 8641835225,
      "amenity": "restaurant",
      "cuisine": "chinese",
      "phone": "+14152392388",
      "addr_state": "CA",
      "addr_city": "San Francisco",
      "addr_postcode": "94112",
      "addr_street": "Ocean Avenue",
      "addr_housenumber": "1919",
      "value": 176.6152880408665
    },
    {
      "id": 105775,
      "geometry": "POINT (-122.457468 37.72434)",
      "poi_name": "Sakesan Sushi & Robata",
      "osm_id": 8641835238,
      "amenity": "restaurant",
      "cuisine": "japanese",
      "phone": "+14153477898",
      "addr_state": "CA",
      "addr_city": "San Francisco",
      "addr_postcode": "94112",
      "addr_street": "Ocean Avenue",
      "addr_housenumber": "1400",
      "value": 176.6152880408665
    },
    {
      "id": 98853,
      "geometry": "POINT (-122.440048 37.743856)",
      "poi_name": "Choice Yakiniku",
      "osm_id": 6534021358,
      "amenity": "restaurant",
      "wheelchair": "yes",
      "phone": "+1 (415) 206-9755",
      "addr_state": "CA",
      "addr_city": "San Francisco",
      "addr_postcode": "94131",
      "addr_street": "Diamond Heights Boulevard",
      "addr_housenumber": "5214A",
      "value": 176.6152880408665
    },
    {
      "id": 106926,
      "geometry": "POINT (-122.439432 37.743715)",
      "poi_name": "Harbor Villa Restaurant",
      "osm_id": 3523031627,
      "amenity": "restaurant",
      "cuisine": "chinese",
      "website": "https://www.harborvillasf.com",
      "phone": "+1 (415) 282-8883",
      "addr_state": "CA",
      "addr_city": "San Francisco",
      "addr_postcode": "94131",
      "addr_street": "Diamond Heights Boulevard",
      "addr_housenumber": "5238",
      "value": 176.6152880408665
    },
    {
      "id": 106906,
      "geometry": "POINT (-122.464908 37.764247)",
      "poi_name": "Wow Naan 'n Curry",
      "osm_id": 3522863340,
      "amenity": "restaurant",
      "cuisine": "indian",
      "wheelchair": "limited",
      "opening_hours": "Mo-Sa 11:00-02:00; Su 11:00-23:00",
      "website": "https://wownaanncurry.com/",
      "phone": "+1 415-664-7225",
      "addr_state": "CA",
      "addr_city": "San Francisco",
      "addr_postcode": "94122",
      "addr_street": "Irving Street",
      "addr_housenumber": "642",
      "value": 176.6152880408665
    },
    {
      "id": 107377,
      "geometry": "POINT (-122.433909 37.734763)",
      "poi_name": "Manzoni",
      "osm_id": 3557413732,
      "amenity": "restaurant",
      "cuisine": "italian",
      "opening_hours": "17:30-22:00",
      "phone": "415 334 2251",
      "addr_state": "CA",
      "addr_city": "San Francisco",
      "addr_postcode": "94131",
      "addr_street": "Diamond Street",
      "addr_housenumber": "2788",
      "value": 176.6152880408665
    },
    {
      "id": 107170,
      "geometry": "POINT (-122.466289 37.740642)",
      "poi_name": "Franco's Latin Table",
      "osm_id": 3540394727,
      "amenity": "restaurant",
      "cuisine": "latin_american",
      "outdoor_seating": "no",
      "addr_state": "CA",
      "addr_city": "San Francisco",
      "addr_postcode": "94127",
      "addr_street": "West Portal Avenue",
      "addr_housenumber": "24",
      "value": 176.6152880408665
    },
    {
      "id": 107202,
      "geometry": "POINT (-122.47013 37.737412)",
      "poi_name": "Suki Sushi",
      "osm_id": 3542728899,
      "amenity": "restaurant",
      "cuisine": "japanese",
      "outdoor_seating": "no",
      "addr_state": "CA",
      "addr_city": "San Francisco",
      "addr_postcode": "94127",
      "addr_street": "West Portal Avenue",
      "addr_housenumber": "360C",
      "value": 176.6152880408665
    },
    {
      "id": 107158,
      "geometry": "POINT (-122.466672 37.740268)",
      "poi_name": "Bursa",
      "osm_id": 3540104223,
      "amenity": "restaurant",
      "cuisine": "mediterranean",
      "website": "https://bursasf.com/",
      "outdoor_seating": "no",
      "addr_state": "CA",
      "addr_city": "San Francisco",
      "addr_postcode": "94127",
      "addr_street": "West Portal Avenue",
      "addr_housenumber": "60",
      "value": 176.6152880408665
    },
    {
      "id": 107163,
      "geometry": "POINT (-122.46826 37.738431)",
      "poi_name": "Orexi",
      "osm_id": 3540255596,
      "amenity": "restaurant",
      "cuisine": "greek",
      "outdoor_seating": "no",
      "addr_state": "CA",
      "addr_city": "San Francisco",
      "addr_postcode": "94127",
      "addr_street": "West Portal Avenue",
      "addr_housenumber": "243",
      "value": 176.6152880408665
    },
    {
      "id": 107164,
      "geometry": "POINT (-122.466568 37.740375)",
      "poi_name": "El Toreador",
      "osm_id": 3540255693,
      "amenity": "restaurant",
      "cuisine": "mexican",
      "outdoor_seating": "no",
      "addr_state": "CA",
      "addr_city": "San Francisco",
      "addr_postcode": "94127",
      "addr_street": "West Portal Avenue",
      "addr_housenumber": "50",
      "value": 176.6152880408665
    },
    {
      "id": 107165,
      "geometry": "POINT (-122.469272 37.737587)",
      "poi_name": "L'Amour de Saigon",
      "osm_id": 3540255697,
      "amenity": "restaurant",
      "cuisine": "vietnamese",
      "opening_hours": "Mo-Su 11:00-21:00",
      "outdoor_seating": "no",
      "addr_state": "CA",
      "addr_city": "San Francisco",
      "addr_postcode": "94127",
      "addr_street": "West Portal Avenue",
      "addr_housenumber": "321A",
      "value": 176.6152880408665
    },
    {
      "id": 107166,
      "geometry": "POINT (-122.470294 37.736672)",
      "poi_name": "Clay Oven",
      "osm_id": 3540255793,
      "amenity": "restaurant",
      "cuisine": "indian",
      "website": "https://clayovensf.com/",
      "outdoor_seating": "no",
      "addr_state": "CA",
      "addr_city": "San Francisco",
      "addr_postcode": "94127",
      "addr_street": "West Portal Avenue",
      "addr_housenumber": "385",
      "value": 176.6152880408665
    },
    {
      "id": 107393,
      "geometry": "POINT (-122.466007 37.74041)",
      "poi_name": "Spiazzo",
      "osm_id": 3559526793,
      "amenity": "restaurant",
      "cuisine": "italian",
      "outdoor_seating": "no",
      "addr_state": "CA",
      "addr_city": "San Francisco",
      "addr_postcode": "94127",
      "addr_street": "West Portal Avenue",
      "addr_housenumber": "33",
      "value": 176.6152880408665
    },
    {
      "id": 109879,
      "geometry": "POINT (-122.469124 37.760318)",
      "poi_name": "Enjoy Vegetarian Restaurant",
      "osm_id": 3677063192,
      "amenity": "restaurant",
      "opening_hours": "Tu-Su 11:00-14:30,17:00-21:00",
      "operator": "vegetarian",
      "website": "https://www.enjoyveggie.com/",
      "addr_state": "CA",
      "addr_city": "San Francisco",
      "addr_postcode": "94122",
      "addr_street": "Kirkham Street",
      "addr_housenumber": "754",
      "value": 176.6152880408665
    },
    {
      "id": 107493,
      "geometry": "POINT (-122.477387 37.74284)",
      "poi_name": "Made in China",
      "osm_id": 3564511113,
      "amenity": "restaurant",
      "cuisine": "chinese",
      "phone": "+1 415 661-6888",
      "addr_state": "CA",
      "addr_city": "San Francisco",
      "addr_postcode": "94116",
      "addr_street": "Taraval Street",
      "addr_housenumber": "1033",
      "value": 176.6152880408665
    },
    {
      "id": 107494,
      "geometry": "POINT (-122.47737 37.743106)",
      "poi_name": "Smile House Cafe",
      "osm_id": 3564515771,
      "amenity": "restaurant",
      "cuisine": "chinese",
      "website": "http://www.smilehousecafe.com/",
      "phone": "+1 415 230-0388",
      "addr_state": "CA",
      "addr_city": "San Francisco",
      "addr_postcode": "94116",
      "addr_street": "Taraval Street",
      "addr_housenumber": "1030",
      "value": 176.6152880408665
    },
    {
      "id": 107495,
      "geometry": "POINT (-122.477497 37.743102)",
      "poi_name": "Shandong Deluxe",
      "osm_id": 3564515772,
      "amenity": "restaurant",
      "cuisine": "chinese",
      "phone": "+1  415 592-8801",
      "addr_state": "CA",
      "addr_city": "San Francisco",
      "addr_postcode": "94116",
      "addr_street": "Taraval Street",
      "addr_housenumber": "1042",
      "value": 176.6152880408665
    },
    {
      "id": 107497,
      "geometry": "POINT (-122.477712 37.743099)",
      "poi_name": "New Taraval Cafe",
      "osm_id": 3564515774,
      "amenity": "restaurant",
      "phone": "+1 415 731-3816",
      "addr_state": "CA",
      "addr_city": "San Francisco",
      "addr_postcode": "94116",
      "addr_street": "Taraval Street",
      "addr_housenumber": "1054",
      "value": 176.6152880408665
    },
    {
      "id": 107499,
      "geometry": "POINT (-122.478102 37.742826)",
      "poi_name": "Banhwich",
      "osm_id": 3564521987,
      "amenity": "restaurant",
      "phone": "+1 415 665-2233",
      "addr_state": "CA",
      "addr_city": "San Francisco",
      "addr_postcode": "94116",
      "addr_street": "Taraval Street",
      "addr_housenumber": "1105",
      "value": 176.6152880408665
    },
    {
      "id": 108498,
      "geometry": "POINT (-122.465465 37.740592)",
      "poi_name": "New Tsing Tao",
      "osm_id": 3622507295,
      "amenity": "restaurant",
      "cuisine": "chinese",
      "addr_state": "CA",
      "addr_city": "San Francisco",
      "addr_postcode": "94127",
      "addr_street": "Ulloa Street",
      "addr_housenumber": "811",
      "value": 176.6152880408665
    },
    {
      "id": 108499,
      "geometry": "POINT (-122.466242 37.740182)",
      "poi_name": "Roti India Bistro",
      "osm_id": 3622507894,
      "amenity": "restaurant",
      "cuisine": "indian",
      "addr_state": "CA",
      "addr_city": "San Francisco",
      "addr_postcode": "94127",
      "addr_street": "West Portal Avenue",
      "addr_housenumber": "53",
      "value": 176.6152880408665
    },
    {
      "id": 108500,
      "geometry": "POINT (-122.468764 37.738466)",
      "poi_name": "Xiao Loong",
      "osm_id": 3622533493,
      "amenity": "restaurant",
      "cuisine": "chinese",
      "addr_state": "CA",
      "addr_city": "San Francisco",
      "addr_postcode": "94127",
      "addr_street": "West Portal Avenue",
      "addr_housenumber": "250",
      "value": 176.6152880408665
    },
    {
      "id": 108502,
      "geometry": "POINT (-122.464995 37.741056)",
      "poi_name": "Chaiya",
      "osm_id": 3622668125,
      "amenity": "restaurant",
      "operator": "thai",
      "website": "http://www.chaiyathairestaurant.com/",
      "addr_state": "CA",
      "addr_city": "San Francisco",
      "addr_postcode": "94127",
      "addr_street": "Claremont Boulevard",
      "addr_housenumber": "272",
      "value": 176.6152880408665
    },
    {
      "id": 109156,
      "geometry": "POINT (-122.416386 37.627323)",
      "poi_name": "Spiral",
      "osm_id": 3652123225,
      "amenity": "restaurant",
      "cuisine": "japanese",
      "addr_state": "CA",
      "addr_city": "San Bruno",
      "addr_street": "Camino Plaza",
      "addr_housenumber": "705",
      "value": 176.6152880408665
    },
    {
      "id": 109301,
      "geometry": "POINT (-122.466707 37.764155)",
      "poi_name": "Qing Shu",
      "osm_id": 3657105280,
      "amenity": "restaurant",
      "cuisine": "chinese",
      "opening_hours": "11:00-15:00,16:00-20:30",
      "addr_state": "CA",
      "addr_city": "San Francisco",
      "addr_postcode": "94122",
      "addr_street": "Irving Street",
      "addr_housenumber": "816",
      "value": 176.6152880408665
    },
    {
      "id": 109302,
      "geometry": "POINT (-122.466169 37.763447)",
      "poi_name": "Baiano Pizzeria",
      "osm_id": 3657172970,
      "amenity": "restaurant",
      "cuisine": "pizza",
      "website": "https://baianopizzeria.com",
      "addr_state": "CA",
      "addr_city": "San Francisco",
      "addr_postcode": "94122",
      "addr_street": "9th Avenue",
      "addr_housenumber": "1330",
      "value": 176.6152880408665
    },
    {
      "id": 109304,
      "geometry": "POINT (-122.466101 37.762665)",
      "poi_name": "Mahalo!",
      "osm_id": 3657172990,
      "amenity": "restaurant",
      "cuisine": "asian",
      "addr_state": "CA",
      "addr_city": "San Francisco",
      "addr_postcode": "94122",
      "addr_street": "9th Avenue",
      "addr_housenumber": "1376",
      "value": 176.6152880408665
    },
    {
      "id": 109305,
      "geometry": "POINT (-122.466099 37.762624)",
      "poi_name": "Will Sushi",
      "osm_id": 3657172991,
      "amenity": "restaurant",
      "cuisine": "sushi",
      "website": "http://www.willsushisf.com/",
      "addr_state": "CA",
      "addr_city": "San Francisco",
      "addr_postcode": "94122",
      "addr_street": "9th Avenue",
      "addr_housenumber": "1378",
      "value": 176.6152880408665
    },
    {
      "id": 109306,
      "geometry": "POINT (-122.466094 37.762561)",
      "poi_name": "Sandy's Cafe & Deli",
      "osm_id": 3657172993,
      "amenity": "restaurant",
      "cuisine": "ramen;tapas",
      "addr_state": "CA",
      "addr_city": "San Francisco",
      "addr_postcode": "94122",
      "addr_street": "9th Avenue",
      "addr_housenumber": "1382",
      "value": 176.6152880408665
    },
    {
      "id": 109307,
      "geometry": "POINT (-122.466083 37.762487)",
      "poi_name": "Ghorkha Kitchen",
      "osm_id": 3657172995,
      "amenity": "restaurant",
      "cuisine": "indian",
      "takeaway": "yes",
      "addr_state": "CA",
      "addr_city": "San Francisco",
      "addr_postcode": "94122",
      "addr_street": "9th Avenue",
      "addr_housenumber": "1386",
      "value": 176.6152880408665
    },
    {
      "id": 109348,
      "geometry": "POINT (-122.467665 37.763852)",
      "poi_name": "New Eritrean Restaurant & Bar",
      "osm_id": 3658310527,
      "amenity": "restaurant",
      "cuisine": "eritrean",
      "phone": "+1 415-681-1288",
      "addr_state": "CA",
      "addr_city": "San Francisco",
      "addr_postcode": "94122",
      "addr_street": "Irving Street",
      "addr_housenumber": "907",
      "value": 176.6152880408665
    },
    {
      "id": 109350,
      "geometry": "POINT (-122.466446 37.763635)",
      "poi_name": "Sriracha Thai Cuisine",
      "osm_id": 3658310639,
      "amenity": "restaurant",
      "cuisine": "thai",
      "opening_hours": "11:00-21:00",
      "website": "http://srirachathaicuisine.com",
      "phone": "+1 415-564-7722",
      "takeaway": "yes",
      "delivery": "yes",
      "addr_state": "CA",
      "addr_city": "San Francisco",
      "addr_postcode": "94122",
      "addr_street": "9th Avenue",
      "addr_housenumber": "1319",
      "value": 176.6152880408665
    },
    {
      "id": 109351,
      "geometry": "POINT (-122.46636 37.762445)",
      "poi_name": "Cybelle's Front Room",
      "osm_id": 3658310646,
      "amenity": "restaurant",
      "cuisine": "regional",
      "addr_state": "CA",
      "addr_city": "San Francisco",
      "addr_postcode": "94122",
      "addr_street": "9th Avenue",
      "addr_housenumber": "1385",
      "value": 176.6152880408665
    },
    {
      "id": 109352,
      "geometry": "POINT (-122.467113 37.763889)",
      "poi_name": "Sushi Kazu",
      "osm_id": 3658328825,
      "amenity": "restaurant",
      "cuisine": "japanese",
      "addr_state": "CA",
      "addr_city": "San Francisco",
      "addr_postcode": "94122",
      "addr_street": "Irving Street",
      "addr_housenumber": "841",
      "value": 176.6152880408665
    },
    {
      "id": 109353,
      "geometry": "POINT (-122.466371 37.762654)",
      "poi_name": "Masala Dosa",
      "osm_id": 3658328828,
      "amenity": "restaurant",
      "cuisine": "indian",
      "website": "https://masaladosasf.com/",
      "addr_state": "CA",
      "addr_city": "San Francisco",
      "addr_postcode": "94122",
      "addr_street": "9th Avenue",
      "addr_housenumber": "1375",
      "value": 176.6152880408665
    },
    {
      "id": 109626,
      "geometry": "POINT (-122.465588 37.763942)",
      "poi_name": "Yumma's Mediterranean Grill",
      "osm_id": 3667880726,
      "amenity": "restaurant",
      "cuisine": "mediterranean",
      "addr_state": "CA",
      "addr_city": "San Francisco",
      "addr_postcode": "94122",
      "addr_street": "Irving Street",
      "addr_housenumber": "721",
      "value": 176.6152880408665
    },
    {
      "id": 109628,
      "geometry": "POINT (-122.46611 37.762903)",
      "poi_name": "Nan King Road Bistro",
      "osm_id": 3667881125,
      "amenity": "restaurant",
      "cuisine": "chinese",
      "website": "http://nankingroadbistro.net/",
      "addr_state": "CA",
      "addr_city": "San Francisco",
      "addr_postcode": "94122",
      "addr_street": "9th Avenue",
      "addr_housenumber": "1360",
      "value": 176.6152880408665
    },
    {
      "id": 109629,
      "geometry": "POINT (-122.465848 37.762063)",
      "poi_name": "Hing Wang Bakery",
      "osm_id": 3667881526,
      "amenity": "restaurant",
      "cuisine": "chinese",
      "addr_state": "CA",
      "addr_city": "San Francisco",
      "addr_postcode": "94122",
      "addr_street": "Judah Street",
      "addr_housenumber": "339",
      "value": 176.6152880408665
    },
    {
      "id": 109793,
      "geometry": "POINT (-122.466585 37.765217)",
      "poi_name": "Gordo Taqueria",
      "osm_id": 3674255642,
      "amenity": "restaurant",
      "cuisine": "mexican",
      "addr_state": "CA",
      "addr_city": "San Francisco",
      "addr_postcode": "94122",
      "addr_street": "9th Avenue",
      "addr_housenumber": "1239",
      "value": 176.6152880408665
    },
    {
      "id": 109794,
      "geometry": "POINT (-122.466581 37.76513)",
      "poi_name": "Marnee Thai",
      "osm_id": 3674255646,
      "amenity": "restaurant",
      "cuisine": "thai",
      "opening_hours": "Mo-Su 11:30-22:00",
      "website": "https://www.marneethaisf.com/",
      "phone": "+1 415-731-9999",
      "addr_state": "CA",
      "addr_city": "San Francisco",
      "addr_postcode": "94122",
      "addr_street": "9th Avenue",
      "addr_housenumber": "1243",
      "value": 176.6152880408665
    },
    {
      "id": 109796,
      "geometry": "POINT (-122.46653 37.764651)",
      "poi_name": "Kiki",
      "osm_id": 3674255666,
      "amenity": "restaurant",
      "cuisine": "japanese",
      "opening_hours": "Mo off; Tu-Su 12:00-20:00",
      "website": "https://kikisushi.com",
      "phone": "+1 415-661-5522",
      "takeaway": "yes",
      "addr_state": "CA",
      "addr_city": "San Francisco",
      "addr_postcode": "94122",
      "addr_street": "9th Avenue",
      "addr_housenumber": "1269",
      "value": 176.6152880408665
    },
    {
      "id": 109797,
      "geometry": "POINT (-122.46652 37.764448)",
      "poi_name": "Ebisu",
      "osm_id": 3674255675,
      "amenity": "restaurant",
      "cuisine": "japanese",
      "opening_hours": "Tu-Sa 11:30-14:00, 17:00-20:30",
      "website": "https://ebisusushi.com/",
      "phone": "+1 (415) 566-1770",
      "addr_state": "CA",
      "addr_city": "San Francisco",
      "addr_postcode": "94122",
      "addr_street": "9th Avenue",
      "addr_housenumber": "1283",
      "value": 176.6152880408665
    },
    {
      "id": 107474,
      "geometry": "POINT (-122.478345 37.743054)",
      "poi_name": "Tennessee Grill",
      "osm_id": 3562973394,
      "amenity": "restaurant",
      "addr_state": "CA",
      "addr_city": "San Francisco",
      "addr_postcode": "94116",
      "addr_street": "Taraval Street",
      "addr_housenumber": "1128",
      "value": 176.6152880408665
    },
    {
      "id": 109300,
      "geometry": "POINT (-122.46725 37.763884)",
      "poi_name": "Manna Korean Cuisine",
      "osm_id": 3656998554,
      "amenity": "restaurant",
      "cuisine": "korean",
      "website": "https://mannasf.com/",
      "phone": "+1-415-665-5969",
      "addr_state": "CA",
      "addr_city": "San Francisco",
      "addr_postcode": "94122",
      "addr_street": "Irving Street",
      "addr_housenumber": "845",
      "value": 176.6152880408665
    },
    {
      "id": 109861,
      "geometry": "POINT (-122.462736 37.762458)",
      "poi_name": "You See Sushi",
      "osm_id": 3676928331,
      "amenity": "restaurant",
      "cuisine": "japanese",
      "website": "https://www.youseesushi.com/",
      "addr_state": "CA",
      "addr_city": "San Francisco",
      "addr_postcode": "94122",
      "addr_street": "Judah Street",
      "addr_housenumber": "94",
      "value": 176.6152880408665
    },
    {
      "id": 109862,
      "geometry": "POINT (-122.462838 37.762458)",
      "poi_name": "Tikka Masala",
      "osm_id": 3676928332,
      "amenity": "restaurant",
      "cuisine": "indian",
      "addr_state": "CA",
      "addr_city": "San Francisco",
      "addr_postcode": "94122",
      "addr_street": "Judah Street",
      "addr_housenumber": "98",
      "value": 176.6152880408665
    },
    {
      "id": 110462,
      "geometry": "POINT (-122.40979 37.655734)",
      "poi_name": "Flavas Jamaican Grill",
      "osm_id": 3703935625,
      "amenity": "restaurant",
      "cuisine": "jamaican",
      "opening_hours": "Mo-Th 11:00-15:00,17:00-20:00; Fr 11:00-21:00; Sa 12:00-21:00",
      "website": "http://flavasjamaicangrill.com/",
      "outdoor_seating": "yes",
      "addr_state": "CA",
      "addr_city": "South San Francisco",
      "addr_postcode": "94080",
      "addr_street": "Linden Avenue",
      "addr_housenumber": "314",
      "value": 176.6152880408665
    },
    {
      "id": 110256,
      "geometry": "POINT (-122.463942 37.764028)",
      "poi_name": "Local Food Hall",
      "osm_id": 3692778026,
      "amenity": "restaurant",
      "takeaway": "yes",
      "addr_state": "CA",
      "addr_city": "San Francisco",
      "addr_postcode": "94122",
      "addr_street": "Irving Street",
      "addr_housenumber": "549",
      "value": 176.6152880408665
    },
    {
      "id": 110276,
      "geometry": "POINT (-122.46272 37.764366)",
      "poi_name": "Lime Tree",
      "osm_id": 3694663515,
      "amenity": "restaurant",
      "cuisine": "asian",
      "addr_state": "CA",
      "addr_city": "San Francisco",
      "addr_postcode": "94122",
      "addr_street": "Irving Street",
      "addr_housenumber": "450A",
      "value": 176.6152880408665
    },
    {
      "id": 110080,
      "geometry": "POINT (-122.468808 37.763804)",
      "poi_name": "Yummy Yummy",
      "osm_id": 3686447508,
      "amenity": "restaurant",
      "cuisine": "vietnamese",
      "opening_hours": "Mo-Tu off; We-Th,Su 10:30-20:00; Fr-Sa 10:30-20:30",
      "phone": "+1 415-566-4722",
      "addr_state": "CA",
      "addr_city": "San Francisco",
      "addr_postcode": "94122",
      "addr_street": "Irving Street",
      "addr_housenumber": "1015",
      "value": 176.6152880408665
    },
    {
      "id": 110081,
      "geometry": "POINT (-122.46906 37.763795)",
      "poi_name": "Gurung Kitchen",
      "osm_id": 3686447516,
      "amenity": "restaurant",
      "cuisine": "indian",
      "wheelchair": "yes",
      "opening_hours": "11:00-22:00",
      "website": "https://gurungkitchensf.com/",
      "phone": "+1 415-379-4674",
      "addr_state": "CA",
      "addr_city": "San Francisco",
      "addr_postcode": "94122",
      "addr_street": "Irving Street",
      "addr_housenumber": "1033",
      "value": 176.6152880408665
    },
    {
      "id": 112134,
      "geometry": "POINT (-122.47585 37.742907)",
      "poi_name": "Sushi Raw",
      "osm_id": 3781683167,
      "amenity": "restaurant",
      "cuisine": "japanese",
      "website": "sushiraw.net",
      "addr_state": "CA",
      "addr_city": "San Francisco",
      "addr_postcode": "94116",
      "addr_street": "Taraval Street",
      "addr_housenumber": "901",
      "value": 176.6152880408665
    },
    {
      "id": 112136,
      "geometry": "POINT (-122.478726 37.742789)",
      "poi_name": "One Boiling Pot Mixian Noodles",
      "osm_id": 3781718467,
      "amenity": "restaurant",
      "cuisine": "asian",
      "addr_state": "CA",
      "addr_city": "San Francisco",
      "addr_postcode": "94116",
      "addr_street": "Taraval Street",
      "addr_housenumber": "1155",
      "value": 176.6152880408665
    },
    {
      "id": 112424,
      "geometry": "POINT (-122.452894 37.764367)",
      "poi_name": "Taboun",
      "osm_id": 3790822659,
      "amenity": "restaurant",
      "cuisine": "mediterranean",
      "opening_hours": "Mo-Sa 11:00-21:30",
      "takeaway": "yes",
      "addr_state": "CA",
      "addr_city": "San Francisco",
      "addr_postcode": "94117",
      "addr_street": "Parnassus Avenue",
      "addr_housenumber": "203",
      "value": 176.6152880408665
    },
    {
      "id": 112370,
      "geometry": "POINT (-122.457226 37.76573)",
      "poi_name": "Kezar Pizzetta",
      "osm_id": 3788437471,
      "amenity": "restaurant",
      "cuisine": "pizza",
      "opening_hours": "Su-Th 16:00-22:00; Fr-Sa 12:00-22:00",
      "phone": "4156657700",
      "addr_state": "CA",
      "addr_city": "San Francisco",
      "addr_postcode": "94117",
      "addr_street": "Frederick Street",
      "addr_housenumber": "775",
      "value": 176.6152880408665
    },
    {
      "id": 112425,
      "geometry": "POINT (-122.449784 37.765712)",
      "poi_name": "Cole Valley Tavern",
      "osm_id": 3790822661,
      "amenity": "restaurant",
      "cuisine": "californian",
      "addr_state": "CA",
      "addr_city": "San Francisco",
      "addr_postcode": "94117",
      "addr_street": "Cole Street",
      "addr_housenumber": "900",
      "value": 176.6152880408665
    },
    {
      "id": 112426,
      "geometry": "POINT (-122.450149 37.765909)",
      "poi_name": "Crepes on Cole",
      "osm_id": 3790822662,
      "amenity": "restaurant",
      "cuisine": "regional",
      "wheelchair": "yes",
      "website": "https://crepesoncole.com/",
      "outdoor_seating": "yes",
      "addr_state": "CA",
      "addr_city": "San Francisco",
      "addr_postcode": "94117",
      "addr_street": "Carl Street",
      "addr_housenumber": "100",
      "value": 176.6152880408665
    },
    {
      "id": 112427,
      "geometry": "POINT (-122.449998 37.765185)",
      "poi_name": "Kamekyo",
      "osm_id": 3790822674,
      "amenity": "restaurant",
      "cuisine": "japanese",
      "addr_state": "CA",
      "addr_city": "San Francisco",
      "addr_postcode": "94117",
      "addr_street": "Cole Street",
      "addr_housenumber": "943",
      "value": 176.6152880408665
    },
    {
      "id": 112428,
      "geometry": "POINT (-122.449991 37.765155)",
      "poi_name": "Bambino's Ristorante",
      "osm_id": 3790822675,
      "amenity": "restaurant",
      "cuisine": "italian",
      "addr_state": "CA",
      "addr_city": "San Francisco",
      "addr_postcode": "94117",
      "addr_street": "Cole Street",
      "addr_housenumber": "945",
      "value": 176.6152880408665
    },
    {
      "id": 112429,
      "geometry": "POINT (-122.452816 37.766295)",
      "poi_name": "CreoLa",
      "osm_id": 3790822678,
      "amenity": "restaurant",
      "addr_state": "CA",
      "addr_city": "San Francisco",
      "addr_postcode": "94117",
      "addr_street": "Stanyan Street",
      "addr_housenumber": "900",
      "value": 176.6152880408665
    },
    {
      "id": 112430,
      "geometry": "POINT (-122.450019 37.765262)",
      "poi_name": "Zazie",
      "osm_id": 3790822863,
      "amenity": "restaurant",
      "cuisine": "french",
      "phone": "4155645332",
      "outdoor_seating": "yes",
      "wikidata": "Q28403620",
      "addr_state": "CA",
      "addr_city": "San Francisco",
      "addr_postcode": "94117",
      "addr_street": "Cole Street",
      "addr_housenumber": "941",
      "value": 176.6152880408665
    },
    {
      "id": 112432,
      "geometry": "POINT (-122.450431 37.765876)",
      "poi_name": "Inovino",
      "osm_id": 3790868380,
      "amenity": "restaurant",
      "cuisine": "italian",
      "opening_hours": "Mo-Su 15:00-21:00",
      "website": "https://www.inovinosanfrancisco.com/",
      "phone": "+1 415-681-3770",
      "addr_state": "CA",
      "addr_city": "San Francisco",
      "addr_postcode": "94117",
      "addr_street": "Carl Street",
      "addr_housenumber": "108B",
      "value": 176.6152880408665
    },
    {
      "id": 113371,
      "geometry": "POINT (-122.482323 37.699534)",
      "poi_name": "Nick the Greek",
      "osm_id": 3833169022,
      "amenity": "restaurant",
      "cuisine": "greek",
      "website": "https://www.nickthegreeksj.com/daly-city",
      "phone": "+1 (415) 347-7538",
      "addr_state": "CA",
      "addr_city": "Daly City",
      "addr_postcode": "94015",
      "addr_street": "Westlake Center",
      "addr_housenumber": "507",
      "value": 176.6152880408665
    },
    {
      "id": 113295,
      "geometry": "POINT (-122.349197 37.57724)",
      "poi_name": "Sixto's Cantina",
      "osm_id": 3828652577,
      "amenity": "restaurant",
      "cuisine": "mexican",
      "website": "http://sixtoscantina.com/",
      "phone": "+1 (650) 342-7600",
      "addr_state": "CA",
      "addr_city": "Burlingame",
      "addr_postcode": "94010",
      "addr_street": "Burlingame Avenue",
      "addr_housenumber": "1448",
      "value": 176.6152880408665
    },
    {
      "id": 113296,
      "geometry": "POINT (-122.349112 37.57731)",
      "poi_name": "Pizzeria Delfina",
      "osm_id": 3828652578,
      "amenity": "restaurant",
      "cuisine": "pizza;italian",
      "wheelchair": "yes",
      "website": "http://pizzeriadelfina.com/burlingame/",
      "phone": "+1 (650) 288-1041",
      "takeaway": "yes",
      "outdoor_seating": "yes",
      "delivery": "no",
      "addr_state": "CA",
      "addr_city": "Burlingame",
      "addr_postcode": "94010",
      "addr_street": "Burlingame Avenue",
      "addr_housenumber": "1444",
      "value": 176.6152880408665
    },
    {
      "id": 113372,
      "geometry": "POINT (-122.482246 37.699367)",
      "poi_name": "Blue Line Pizza",
      "osm_id": 3833169023,
      "amenity": "restaurant",
      "cuisine": "pizza",
      "addr_state": "CA",
      "addr_city": "Daly City",
      "addr_postcode": "94015",
      "addr_street": "Westlake Center",
      "addr_housenumber": "511",
      "value": 176.6152880408665
    },
    {
      "id": 113373,
      "geometry": "POINT (-122.482187 37.699266)",
      "poi_name": "Spiral Japanese Cuisine",
      "osm_id": 3833169024,
      "amenity": "restaurant",
      "addr_state": "CA",
      "addr_city": "Daly City",
      "addr_postcode": "94015",
      "addr_street": "Westlake Center",
      "addr_housenumber": "515",
      "value": 176.6152880408665
    },
    {
      "id": 114358,
      "geometry": "POINT (-122.462174 37.764098)",
      "poi_name": "Savor",
      "osm_id": 3879146157,
      "amenity": "restaurant",
      "cuisine": "arab",
      "wheelchair": "yes",
      "opening_hours": "Tu-Su 09:00-15:30",
      "phone": "+1 415-702-6048",
      "outdoor_seating": "yes",
      "addr_state": "CA",
      "addr_city": "San Francisco",
      "addr_postcode": "94122",
      "addr_street": "Irving Street",
      "addr_housenumber": "401",
      "value": 176.6152880408665
    },
    {
      "id": 114864,
      "geometry": "POINT (-122.460211 37.76515)",
      "poi_name": "Yo Tambi\u00e9n Cantina",
      "osm_id": 3899202707,
      "amenity": "restaurant",
      "opening_hours": "We-Fr 07:00-15:00; Sa,Su 08:00-15:00",
      "operator": "venezuelan",
      "website": "https://yotambientropical.com/",
      "takeaway": "yes",
      "addr_state": "CA",
      "addr_city": "San Francisco",
      "addr_postcode": "94122",
      "addr_street": "Hugo Street",
      "addr_housenumber": "205",
      "value": 176.6152880408665
    },
    {
      "id": 115406,
      "geometry": "POINT (-122.456662 37.723853)",
      "poi_name": "Chase Luck Bakery",
      "osm_id": 8893270524,
      "amenity": "restaurant",
      "cuisine": "chinese",
      "phone": "+1 415 769-5983",
      "addr_state": "CA",
      "addr_city": "San Francisco",
      "addr_street": "Ocean Avenue",
      "addr_housenumber": "1325",
      "value": 176.6152880408665
    },
    {
      "id": 120235,
      "geometry": "POINT (-122.4888 37.624969)",
      "poi_name": "Sharp Park Restaurant",
      "osm_id": 6697459237,
      "amenity": "restaurant",
      "cuisine": "american",
      "phone": "(650) 355-7900",
      "addr_state": "CA",
      "addr_city": "Pacifica",
      "addr_postcode": "94044",
      "addr_street": "Francisco Boulevard",
      "addr_housenumber": "2600",
      "value": 176.6152880408665
    },
    {
      "id": 120375,
      "geometry": "POINT (-122.458293 37.775721)",
      "poi_name": "Okina Sushi",
      "osm_id": 6700788013,
      "amenity": "restaurant",
      "cuisine": "sushi",
      "opening_hours": "Th-Sa 17:30-21:00; PH closed",
      "addr_state": "CA",
      "addr_city": "San Francisco",
      "addr_postcode": "94118",
      "addr_street": "Arguello Boulevard",
      "addr_housenumber": "776",
      "value": 176.6152880408665
    },
    {
      "id": 121280,
      "geometry": "POINT (-122.452043 37.712664)",
      "poi_name": "Patio Espa\u00f1ol",
      "osm_id": 6751151032,
      "amenity": "restaurant",
      "cuisine": "spanish",
      "phone": "+1-415-587-5117",
      "addr_state": "CA",
      "addr_city": "San Francisco",
      "addr_postcode": "94112",
      "addr_street": "Alemany Boulevard",
      "addr_housenumber": "2850",
      "value": 176.6152880408665
    },
    {
      "id": 121284,
      "geometry": "POINT (-122.446249 37.720904)",
      "poi_name": "Crazy Pepper",
      "osm_id": 6751183546,
      "amenity": "restaurant",
      "cuisine": "chinese",
      "website": "https://www.crazypepperchinese.com/",
      "phone": "+1-415-337-1888",
      "addr_state": "CA",
      "addr_city": "San Francisco",
      "addr_postcode": "94112",
      "addr_street": "San Jose Avenue",
      "addr_housenumber": "2257",
      "value": 176.6152880408665
    },
    {
      "id": 122184,
      "geometry": "POINT (-122.463872 37.777361)",
      "poi_name": "6th & B",
      "osm_id": 6791643584,
      "amenity": "restaurant",
      "opening_hours": "We-Mo 16:30-21:30",
      "addr_city": "San Francisco",
      "addr_postcode": "94118",
      "addr_street": "Balboa Street",
      "addr_housenumber": "452",
      "value": 176.6152880408665
    },
    {
      "id": 122362,
      "geometry": "POINT (-122.449309 37.76982)",
      "poi_name": "Brioche",
      "osm_id": 6797853293,
      "amenity": "restaurant",
      "cuisine": "regional",
      "outdoor_seating": "yes",
      "addr_state": "CA",
      "addr_city": "San Francisco",
      "addr_postcode": "94117",
      "addr_street": "Haight Street",
      "addr_housenumber": "1640",
      "value": 176.6152880408665
    },
    {
      "id": 122363,
      "geometry": "POINT (-122.449725 37.769772)",
      "poi_name": "Om Indian Cuisine",
      "osm_id": 6797853295,
      "amenity": "restaurant",
      "cuisine": "indian",
      "addr_state": "CA",
      "addr_city": "San Francisco",
      "addr_postcode": "94117",
      "addr_street": "Haight Street",
      "addr_housenumber": "1668",
      "value": 176.6152880408665
    },
    {
      "id": 122820,
      "geometry": "POINT (-122.3246 37.567288)",
      "poi_name": "Wursthall",
      "osm_id": 6818990138,
      "amenity": "restaurant",
      "website": "https://www.wursthall.com/",
      "addr_state": "CA",
      "addr_city": "San Mateo",
      "addr_postcode": "94401",
      "addr_street": "Baldwin Avenue",
      "addr_housenumber": "310",
      "value": 176.6152880408665
    },
    {
      "id": 123181,
      "geometry": "POINT (-122.464661 37.780819)",
      "poi_name": "Honey Pig",
      "osm_id": 6839009632,
      "amenity": "restaurant",
      "cuisine": "korean;barbecue",
      "description": "Korean BBQ",
      "opening_hours": "Tu-Sa 11:00-15:00,17:00-21:00; Su,Mo off",
      "website": "https://sfhoneypig.com/",
      "phone": "+1 415 7026565",
      "takeaway": "yes",
      "addr_state": "CA",
      "addr_city": "San Francisco",
      "addr_postcode": "94118",
      "addr_street": "Geary Boulevard",
      "addr_housenumber": "4217",
      "value": 176.6152880408665
    },
    {
      "id": 128873,
      "geometry": "POINT (-122.39745 37.685296)",
      "poi_name": "Brisbane Lunch Truck",
      "osm_id": 8192868034,
      "amenity": "restaurant",
      "website": "https://www.brisbanelunchtruck.com/",
      "phone": "415-660-6320",
      "addr_state": "CA",
      "addr_city": "Brisbane",
      "addr_postcode": "94005",
      "addr_street": "Bayshore Boulevard",
      "addr_housenumber": "3501",
      "value": 176.6152880408665
    },
    {
      "id": 131737,
      "geometry": "POINT (-122.442053 37.715369)",
      "poi_name": "Venice Pizza",
      "osm_id": 9925762711,
      "amenity": "restaurant",
      "cuisine": "pizza",
      "opening_hours": "Mo-Su 13:00-23:00",
      "website": "https://venicesfpizza.com",
      "phone": "+1 415 333 5500",
      "takeaway": "yes",
      "delivery": "yes",
      "addr_state": "CA",
      "addr_city": "San Francisco",
      "addr_postcode": "94112",
      "addr_street": "Mission Street",
      "addr_housenumber": "5228",
      "value": 176.6152880408665
    },
    {
      "id": 131760,
      "geometry": "POINT (-122.444289 37.712893)",
      "poi_name": "Reina's Restaurant",
      "osm_id": 9927614851,
      "amenity": "restaurant",
      "cuisine": "mexican;salvadoran",
      "opening_hours": "Mo-Su 09:00-22:00",
      "website": "https://www.reinasrestaurant.com",
      "phone": "+1 415 585 7694",
      "takeaway": "yes",
      "delivery": "no",
      "addr_state": "CA",
      "addr_city": "San Francisco",
      "addr_postcode": "94112",
      "addr_street": "Mission Street",
      "addr_housenumber": "5479",
      "value": 176.6152880408665
    },
    {
      "id": 133106,
      "geometry": "POINT (-122.381805 37.600356)",
      "poi_name": "Stick & Steam",
      "osm_id": 9980619891,
      "amenity": "restaurant",
      "cuisine": "chinese;dim_sum",
      "website": "https://www.stickxsteam.com/",
      "phone": "+1 650 2399240",
      "takeaway": "yes",
      "addr_state": "CA",
      "addr_city": "Millbrae",
      "addr_postcode": "94030",
      "addr_street": "Adrian Road",
      "addr_housenumber": "350",
      "value": 176.6152880408665
    },
    {
      "id": 141614,
      "geometry": "POINT (-122.408564 37.6545)",
      "poi_name": "Dumpling Empire",
      "osm_id": 6291812178,
      "amenity": "restaurant",
      "cuisine": "dumpling;chinese",
      "opening_hours": "Mo-Su 11:30-21:30",
      "phone": "6507420838",
      "addr_state": "CA",
      "addr_city": "South San Francisco",
      "addr_postcode": "94080",
      "addr_street": "Cypress Avenue",
      "addr_housenumber": "216",
      "value": 176.6152880408665
    },
    {
      "id": 144087,
      "geometry": "POINT (-122.409195 37.655108)",
      "poi_name": "Cafe Bunn Mi",
      "osm_id": 6363158737,
      "amenity": "restaurant",
      "cuisine": "vietnamese",
      "phone": "+1 650 745 8883",
      "addr_state": "CA",
      "addr_city": "South San Francisco",
      "addr_street": "Grand Avenue",
      "addr_housenumber": "226",
      "value": 176.6152880408665
    },
    {
      "id": 148479,
      "geometry": "POINT (-122.429239 37.462727)",
      "poi_name": "Main Street Grill",
      "osm_id": 3956130259,
      "amenity": "restaurant",
      "cuisine": "american",
      "addr_state": "CA",
      "addr_city": "Half Moon Bay",
      "addr_postcode": "94019",
      "addr_street": "Main Street",
      "addr_housenumber": "547",
      "value": 176.6152880408665
    },
    {
      "id": 149017,
      "geometry": "POINT (-122.481265 37.763512)",
      "poi_name": "Wok Station",
      "osm_id": 3993039684,
      "amenity": "restaurant",
      "cuisine": "chinese",
      "addr_state": "CA",
      "addr_city": "San Francisco",
      "addr_postcode": "94122",
      "addr_street": "Irving Street",
      "addr_housenumber": "2154",
      "value": 176.6152880408665
    },
    {
      "id": 149019,
      "geometry": "POINT (-122.480671 37.763536)",
      "poi_name": "Yuanbao Jiaozi",
      "osm_id": 3993039686,
      "amenity": "restaurant",
      "cuisine": "chinese",
      "addr_state": "CA",
      "addr_city": "San Francisco",
      "addr_postcode": "94122",
      "addr_street": "Irving Street",
      "addr_housenumber": "2110",
      "value": 176.6152880408665
    },
    {
      "id": 149020,
      "geometry": "POINT (-122.481022 37.763518)",
      "poi_name": "Qu\u00ea Huong Vietnamese Deli",
      "osm_id": 3993039688,
      "amenity": "restaurant",
      "cuisine": "vietnamese",
      "opening_hours": "08:00-17:00",
      "phone": "+1 415-682-3828",
      "takeaway": "only",
      "addr_state": "CA",
      "addr_city": "San Francisco",
      "addr_postcode": "94122",
      "addr_street": "Irving Street",
      "addr_housenumber": "2138",
      "value": 176.6152880408665
    },
    {
      "id": 149236,
      "geometry": "POINT (-122.463711 37.764044)",
      "poi_name": "Hahn's Hibachi",
      "osm_id": 4000105174,
      "amenity": "restaurant",
      "cuisine": "korean",
      "wheelchair": "yes",
      "opening_hours": "Mo-Fr 11:00-22:00, Sa 11:30-22:00",
      "phone": "+1 415-731-3721",
      "addr_city": "San Francisco",
      "addr_postcode": "94122",
      "addr_street": "Irving Street",
      "addr_housenumber": "535",
      "value": 176.6152880408665
    },
    {
      "id": 149111,
      "geometry": "POINT (-122.479865 37.739011)",
      "poi_name": "Riverside Seafood Restaurant",
      "osm_id": 3996613640,
      "amenity": "restaurant",
      "operator": "dim_sum",
      "phone": "+1 (415) 759-8828",
      "addr_state": "CA",
      "addr_city": "San Francisco",
      "addr_postcode": "94116",
      "addr_street": "Vicente Street",
      "addr_housenumber": "1201",
      "value": 176.6152880408665
    },
    {
      "id": 149112,
      "geometry": "POINT (-122.451583 37.731367)",
      "poi_name": "Big Joe's",
      "osm_id": 3996620946,
      "amenity": "restaurant",
      "cuisine": "diner",
      "addr_state": "CA",
      "addr_city": "San Francisco",
      "addr_postcode": "94127",
      "addr_street": "Monterey Boulevard",
      "addr_housenumber": "717",
      "value": 176.6152880408665
    },
    {
      "id": 150105,
      "geometry": "POINT (-122.487706 37.742393)",
      "poi_name": "Shin To Bul Yi",
      "osm_id": 4042516789,
      "amenity": "restaurant",
      "cuisine": "korean",
      "addr_state": "CA",
      "addr_city": "San Francisco",
      "addr_street": "Taraval Street",
      "addr_housenumber": "2001",
      "value": 176.6152880408665
    },
    {
      "id": 149657,
      "geometry": "POINT (-122.483208 37.763178)",
      "poi_name": "Lam Hoa Thun",
      "osm_id": 4018792601,
      "amenity": "restaurant",
      "cuisine": "vietnamese",
      "addr_state": "CA",
      "addr_city": "San Francisco",
      "addr_postcode": "94122",
      "addr_street": "Irving Street",
      "addr_housenumber": "2337",
      "value": 176.6152880408665
    },
    {
      "id": 149660,
      "geometry": "POINT (-122.482002 37.763475)",
      "poi_name": "Pho Hang Dieu - Loi's Vietnamese Restaurant",
      "osm_id": 4018792610,
      "amenity": "restaurant",
      "cuisine": "vietnamese",
      "addr_state": "CA",
      "addr_city": "San Francisco",
      "addr_postcode": "94122",
      "addr_street": "Irving Street",
      "addr_housenumber": "2228",
      "value": 176.6152880408665
    },
    {
      "id": 149662,
      "geometry": "POINT (-122.481259 37.763245)",
      "poi_name": "Guangdong Barbecue Restaurant",
      "osm_id": 4018792617,
      "amenity": "restaurant",
      "cuisine": "chinese",
      "opening_hours": "10:00-19:00",
      "phone": "+1 415-731-9948",
      "takeaway": "only",
      "addr_state": "CA",
      "addr_city": "San Francisco",
      "addr_postcode": "94122",
      "addr_street": "Irving Street",
      "addr_housenumber": "2191",
      "value": 176.6152880408665
    },
    {
      "id": 149663,
      "geometry": "POINT (-122.481873 37.763231)",
      "poi_name": "Marnee Thai",
      "osm_id": 4018792691,
      "amenity": "restaurant",
      "cuisine": "thai",
      "wheelchair": "yes",
      "opening_hours": "Mo-Su 11:30-22:00",
      "phone": "+1 415-665-9500",
      "addr_state": "CA",
      "addr_city": "San Francisco",
      "addr_postcode": "94122",
      "addr_street": "Irving Street",
      "addr_housenumber": "2225",
      "value": 176.6152880408665
    },
    {
      "id": 149665,
      "geometry": "POINT (-122.481826 37.763481)",
      "poi_name": "Bei Fang Style",
      "osm_id": 4018792707,
      "amenity": "restaurant",
      "cuisine": "chinese",
      "addr_state": "CA",
      "addr_city": "San Francisco",
      "addr_postcode": "94122",
      "addr_street": "Irving Street",
      "addr_housenumber": "2218",
      "value": 176.6152880408665
    },
    {
      "id": 149666,
      "geometry": "POINT (-122.481148 37.763515)",
      "poi_name": "Sushi Uma",
      "osm_id": 4018792713,
      "amenity": "restaurant",
      "cuisine": "sushi",
      "website": "https://www.thesushiuma.com/",
      "takeaway": "only",
      "addr_state": "CA",
      "addr_city": "San Francisco",
      "addr_postcode": "94122",
      "addr_street": "Irving Street",
      "addr_housenumber": "2146",
      "value": 176.6152880408665
    },
    {
      "id": 149669,
      "geometry": "POINT (-122.48081 37.763282)",
      "poi_name": "Bangkok House",
      "osm_id": 4018792797,
      "amenity": "restaurant",
      "cuisine": "thai",
      "wheelchair": "yes",
      "opening_hours": "Mo-Tu,Th-Fr 12:00-16:00,17:00-22:00; We off; Sa-Su 11:00-16:00,17:00-22:00",
      "website": "https://www.bangkokhousesf.com/",
      "phone": "+1 415-753-3347",
      "takeaway": "yes",
      "addr_state": "CA",
      "addr_city": "San Francisco",
      "addr_postcode": "94122",
      "addr_street": "Irving Street",
      "addr_housenumber": "2123",
      "value": 176.6152880408665
    },
    {
      "id": 149620,
      "geometry": "POINT (-122.464089 37.764889)",
      "poi_name": "May Lee's Restaurant",
      "osm_id": 4017206890,
      "amenity": "restaurant",
      "cuisine": "chinese",
      "phone": "+1 415 242 1006",
      "takeaway": "yes",
      "addr_state": "CA",
      "addr_city": "San Francisco",
      "addr_postcode": "94122",
      "addr_street": "7th Avenue",
      "addr_housenumber": "1256",
      "value": 176.6152880408665
    },
    {
      "id": 149622,
      "geometry": "POINT (-122.477578 37.763686)",
      "poi_name": "PPQ (Ph\u1edf Ph\u00fa Qu\u1ed1c) Beef Noodle House",
      "osm_id": 4017234497,
      "amenity": "restaurant",
      "cuisine": "vietnamese",
      "addr_state": "CA",
      "addr_city": "San Francisco",
      "addr_postcode": "94122",
      "addr_street": "Irving Street",
      "addr_housenumber": "1816",
      "value": 176.6152880408665
    },
    {
      "id": 149623,
      "geometry": "POINT (-122.477647 37.763683)",
      "poi_name": "The Taco Shop at Underdogs",
      "osm_id": 4017234498,
      "amenity": "restaurant",
      "cuisine": "mexican",
      "addr_state": "CA",
      "addr_city": "San Francisco",
      "addr_postcode": "94122",
      "addr_street": "Irving Street",
      "addr_housenumber": "1824",
      "value": 176.6152880408665
    },
    {
      "id": 149625,
      "geometry": "POINT (-122.478896 37.763609)",
      "poi_name": "Saigon BBQ Noodle House",
      "osm_id": 4017234503,
      "amenity": "restaurant",
      "cuisine": "vietnamese",
      "opening_hours": "Mo-Sa 11:00-21:00; Su 11:00-20:00",
      "addr_state": "CA",
      "addr_city": "San Francisco",
      "addr_postcode": "94122",
      "addr_street": "Irving Street",
      "addr_housenumber": "1936",
      "value": 176.6152880408665
    },
    {
      "id": 149626,
      "geometry": "POINT (-122.479881 37.763572)",
      "poi_name": "Sun Maxim's",
      "osm_id": 4017234506,
      "amenity": "restaurant",
      "cuisine": "chinese",
      "opening_hours": "Mo 10:00-19:00; Tu-Su 08:00-19:00",
      "phone": "+1 415-463-2603",
      "takeaway": "yes",
      "outdoor_seating": "no",
      "addr_state": "CA",
      "addr_city": "San Francisco",
      "addr_postcode": "94122",
      "addr_street": "Irving Street",
      "addr_housenumber": "2034",
      "value": 176.6152880408665
    },
    {
      "id": 149627,
      "geometry": "POINT (-122.477624 37.763415)",
      "poi_name": "SF Hole In The Wall Pizza",
      "osm_id": 4017234689,
      "amenity": "restaurant",
      "cuisine": "pizza",
      "website": "https://sfhole.com",
      "outdoor_seating": "yes",
      "addr_state": "CA",
      "addr_city": "San Francisco",
      "addr_postcode": "94122",
      "addr_street": "Irving Street",
      "addr_housenumber": "1825",
      "value": 176.6152880408665
    },
    {
      "id": 149629,
      "geometry": "POINT (-122.478659 37.763631)",
      "poi_name": "Szechuan Cuisine",
      "osm_id": 4017234793,
      "amenity": "restaurant",
      "cuisine": "chinese",
      "opening_hours": "Mo-Su 11:00-21:00",
      "website": "https://www.szechuancuisinesf.com/",
      "phone": "+1-415-661-8322",
      "addr_state": "CA",
      "addr_city": "San Francisco",
      "addr_postcode": "94122",
      "addr_street": "Irving Street",
      "addr_housenumber": "1920",
      "value": 176.6152880408665
    },
    {
      "id": 149630,
      "geometry": "POINT (-122.47869 37.763621)",
      "poi_name": "Noori",
      "osm_id": 4017234794,
      "amenity": "restaurant",
      "cuisine": "indian",
      "opening_hours": "Tu-Su 11:00-15:00,16:00-21:30",
      "addr_state": "CA",
      "addr_city": "San Francisco",
      "addr_postcode": "94122",
      "addr_street": "Irving Street",
      "addr_housenumber": "1924",
      "value": 176.6152880408665
    },
    {
      "id": 150808,
      "geometry": "POINT (-122.474152 37.742996)",
      "poi_name": "Tonight Soju Bar",
      "osm_id": 4069432001,
      "amenity": "restaurant",
      "cuisine": "soju",
      "addr_state": "CA",
      "addr_city": "San Francisco",
      "addr_postcode": "94116",
      "addr_street": "Taraval Street",
      "addr_housenumber": "733",
      "value": 176.6152880408665
    },
    {
      "id": 150850,
      "geometry": "POINT (-122.474368 37.763812)",
      "poi_name": "Goemon",
      "osm_id": 4071080693,
      "amenity": "restaurant",
      "cuisine": "japanese",
      "addr_state": "CA",
      "addr_city": "San Francisco",
      "addr_postcode": "94122",
      "addr_street": "Irving Street",
      "addr_housenumber": "1524",
      "value": 176.6152880408665
    },
    {
      "id": 150809,
      "geometry": "POINT (-122.475444 37.742841)",
      "poi_name": "S & E Cafe",
      "osm_id": 4069432014,
      "amenity": "restaurant",
      "cuisine": "chinese",
      "takeaway": "yes",
      "addr_state": "CA",
      "addr_city": "San Francisco",
      "addr_postcode": "94116",
      "addr_street": "19th Avenue",
      "addr_housenumber": "2406",
      "value": 176.6152880408665
    },
    {
      "id": 150810,
      "geometry": "POINT (-122.475829 37.742704)",
      "poi_name": "Seniore's Pizza",
      "osm_id": 4069432015,
      "amenity": "restaurant",
      "cuisine": "pizza",
      "addr_state": "CA",
      "addr_city": "San Francisco",
      "addr_postcode": "94116",
      "addr_street": "19th Avenue",
      "addr_housenumber": "2415",
      "value": 176.6152880408665
    },
    {
      "id": 150811,
      "geometry": "POINT (-122.476364 37.742904)",
      "poi_name": "House of Pancakes",
      "osm_id": 4069462417,
      "amenity": "restaurant",
      "cuisine": "chinese",
      "takeaway": "yes",
      "addr_state": "CA",
      "addr_city": "San Francisco",
      "addr_postcode": "94116",
      "addr_street": "Taraval Street",
      "addr_housenumber": "937",
      "value": 176.6152880408665
    },
    {
      "id": 153489,
      "geometry": "POINT (-122.485174 37.742514)",
      "poi_name": "T-28 Bakery & Cafe",
      "osm_id": 4199676097,
      "amenity": "restaurant",
      "opening_hours": "Mo 08:30-21:00; Tu off; We-Th 08:30-21:00; Fr-Sa 08:30-21:30; Su 08:30-21:00",
      "phone": "+1 415 682 8200",
      "addr_state": "CA",
      "addr_city": "San Francisco",
      "addr_street": "Taraval Street",
      "addr_housenumber": "1757",
      "value": 176.6152880408665
    },
    {
      "id": 152424,
      "geometry": "POINT (-122.487042 37.742426)",
      "poi_name": "Dumpling Kitchen",
      "osm_id": 4144742094,
      "amenity": "restaurant",
      "operator": "Dumpling Kitchen",
      "phone": "+1 415 662 8938",
      "takeaway": "yes",
      "addr_state": "CA",
      "addr_street": "Taraval Street",
      "addr_housenumber": "1935",
      "value": 176.6152880408665
    },
    {
      "id": 153492,
      "geometry": "POINT (-122.483735 37.742814)",
      "poi_name": "Fiery",
      "osm_id": 4199679895,
      "amenity": "restaurant",
      "cuisine": "hotpot;buffet",
      "addr_state": "CA",
      "addr_city": "San Francisco",
      "addr_street": "Taraval Street",
      "addr_housenumber": "1626",
      "value": 176.6152880408665
    },
    {
      "id": 153500,
      "geometry": "POINT (-122.477193 37.754341)",
      "poi_name": "Green Bamboo",
      "osm_id": 4199804592,
      "amenity": "restaurant",
      "cuisine": "asian",
      "addr_state": "CA",
      "addr_city": "San Francisco",
      "addr_postcode": "94122",
      "addr_street": "Noriega Street",
      "addr_housenumber": "1240",
      "value": 176.6152880408665
    },
    {
      "id": 153501,
      "geometry": "POINT (-122.478481 37.754027)",
      "poi_name": "HD Rice Noodle",
      "osm_id": 4199804595,
      "amenity": "restaurant",
      "addr_state": "CA",
      "addr_city": "San Francisco",
      "addr_postcode": "94122",
      "addr_street": "Noriega Street",
      "addr_housenumber": "1395",
      "value": 176.6152880408665
    },
    {
      "id": 153503,
      "geometry": "POINT (-122.477295 37.754093)",
      "poi_name": "Lanna Thai Cuisine",
      "osm_id": 4199804695,
      "amenity": "restaurant",
      "cuisine": "thai",
      "addr_state": "CA",
      "addr_city": "San Francisco",
      "addr_postcode": "94122",
      "addr_street": "Noriega Street",
      "addr_housenumber": "1245",
      "value": 176.6152880408665
    },
    {
      "id": 153505,
      "geometry": "POINT (-122.477132 37.754344)",
      "poi_name": "Fujimaya-ya",
      "osm_id": 4199813791,
      "amenity": "restaurant",
      "cuisine": "japanese",
      "addr_state": "CA",
      "addr_city": "San Francisco",
      "addr_postcode": "94122",
      "addr_street": "Noriega Street",
      "addr_housenumber": "1234",
      "value": 176.6152880408665
    },
    {
      "id": 153507,
      "geometry": "POINT (-122.478392 37.75403)",
      "poi_name": "Peking Restaurant",
      "osm_id": 4199813893,
      "amenity": "restaurant",
      "cuisine": "chinese",
      "takeaway": "yes",
      "addr_state": "CA",
      "addr_city": "San Francisco",
      "addr_postcode": "94122",
      "addr_street": "Noriega Street",
      "addr_housenumber": "1375",
      "value": 176.6152880408665
    },
    {
      "id": 153509,
      "geometry": "POINT (-122.478145 37.754295)",
      "poi_name": "The Crew",
      "osm_id": 4199814290,
      "amenity": "restaurant",
      "cuisine": "korean",
      "wheelchair": "yes",
      "opening_hours": "Mo-Th 17:00-24:00; Fr-Sa 17:00-01:00; Su 17:00-21:00",
      "phone": "+1 415 665 8548",
      "outdoor_seating": "no",
      "addr_state": "CA",
      "addr_city": "San Francisco",
      "addr_postcode": "94122",
      "addr_street": "Noriega Street",
      "addr_housenumber": "1330",
      "value": 176.6152880408665
    },
    {
      "id": 153510,
      "geometry": "POINT (-122.477923 37.754054)",
      "poi_name": "China North Dumpling",
      "osm_id": 4199814489,
      "amenity": "restaurant",
      "cuisine": "chinese",
      "opening_hours": "Mo-Su 11:00-15:30, 17:00-22:00; Su 11:00-15:30, 17:00-21:30",
      "addr_state": "CA",
      "addr_city": "San Francisco",
      "addr_postcode": "94122",
      "addr_street": "Noriega Street",
      "addr_housenumber": "1311",
      "value": 176.6152880408665
    },
    {
      "id": 154443,
      "geometry": "POINT (-122.473686 37.731505)",
      "poi_name": "Villa d' Este",
      "osm_id": 4238376595,
      "amenity": "restaurant",
      "cuisine": "italian",
      "addr_state": "CA",
      "addr_city": "San Francisco",
      "addr_postcode": "94127",
      "addr_street": "Ocean Avenue",
      "addr_housenumber": "2623",
      "value": 176.6152880408665
    },
    {
      "id": 154450,
      "geometry": "POINT (-122.473331 37.731884)",
      "poi_name": "Shabu House",
      "osm_id": 4238458993,
      "amenity": "restaurant",
      "cuisine": "japanese",
      "addr_state": "CA",
      "addr_city": "San Francisco",
      "addr_postcode": "94127",
      "addr_street": "Ocean Avenue",
      "addr_housenumber": "2608",
      "value": 176.6152880408665
    },
    {
      "id": 154452,
      "geometry": "POINT (-122.473834 37.732097)",
      "poi_name": "Wang Dae Bak",
      "osm_id": 4238459391,
      "amenity": "restaurant",
      "cuisine": "korean",
      "addr_state": "CA",
      "addr_city": "San Francisco",
      "addr_postcode": "94127",
      "addr_street": "Ocean Avenue",
      "addr_housenumber": "2642",
      "value": 176.6152880408665
    },
    {
      "id": 154453,
      "geometry": "POINT (-122.47438 37.732045)",
      "poi_name": "Lucho's",
      "osm_id": 4238459492,
      "amenity": "restaurant",
      "cuisine": "american;mexican",
      "takeaway": "yes",
      "outdoor_seating": "yes",
      "addr_state": "CA",
      "addr_city": "San Francisco",
      "addr_postcode": "94127",
      "addr_street": "Ocean Avenue",
      "addr_housenumber": "2675",
      "value": 176.6152880408665
    },
    {
      "id": 154445,
      "geometry": "POINT (-122.472975 37.731414)",
      "poi_name": "Jitra",
      "osm_id": 4238377200,
      "amenity": "restaurant",
      "cuisine": "thai",
      "addr_state": "CA",
      "addr_city": "San Francisco",
      "addr_postcode": "94127",
      "addr_street": "Ocean Avenue",
      "addr_housenumber": "2545",
      "value": 176.6152880408665
    },
    {
      "id": 156739,
      "geometry": "POINT (-122.482359 37.753831)",
      "poi_name": "Sunset Reservoir Brewing Company",
      "osm_id": 4669461314,
      "amenity": "restaurant",
      "website": "http://sunsetbeersf.com/",
      "phone": "+1-415-571-8452",
      "outdoor_seating": "no",
      "addr_state": "CA",
      "addr_city": "San Francisco",
      "addr_postcode": "94122",
      "addr_street": "Noriega Street",
      "addr_housenumber": "1735",
      "value": 176.6152880408665
    },
    {
      "id": 155398,
      "geometry": "POINT (-122.433649 37.734566)",
      "poi_name": "Tekka House",
      "osm_id": 4284575918,
      "amenity": "restaurant",
      "cuisine": "japanese",
      "takeaway": "yes",
      "addr_state": "CA",
      "addr_city": "San Francisco",
      "addr_postcode": "94131",
      "addr_street": "Chenery Street",
      "addr_housenumber": "678",
      "value": 176.6152880408665
    },
    {
      "id": 155399,
      "geometry": "POINT (-122.434184 37.73399)",
      "poi_name": "Gialina",
      "osm_id": 4284609495,
      "amenity": "restaurant",
      "cuisine": "italian_pizza",
      "takeaway": "yes",
      "addr_state": "CA",
      "addr_city": "San Francisco",
      "addr_postcode": "94131",
      "addr_street": "Diamond Street",
      "addr_housenumber": "2842",
      "value": 176.6152880408665
    },
    {
      "id": 155400,
      "geometry": "POINT (-122.434155 37.734082)",
      "poi_name": "La Corneta Taqueria",
      "osm_id": 4284609496,
      "amenity": "restaurant",
      "cuisine": "mexican",
      "opening_hours": "Mo-Sa 10:00-22:00; Su 11:00-21:00",
      "takeaway": "yes",
      "addr_state": "CA",
      "addr_city": "San Francisco",
      "addr_postcode": "94131",
      "addr_street": "Diamond Street",
      "addr_housenumber": "2834",
      "value": 176.6152880408665
    },
    {
      "id": 158556,
      "geometry": "POINT (-122.464612 37.783275)",
      "poi_name": "Spices",
      "osm_id": 4753964005,
      "amenity": "restaurant",
      "cuisine": "chinese",
      "opening_hours": "Mo-Su 11:00-23:00",
      "addr_state": "CA",
      "addr_city": "San Francisco",
      "addr_postcode": "94118",
      "addr_street": "6th Avenue",
      "addr_housenumber": "291",
      "value": 176.6152880408665
    },
    {
      "id": 158562,
      "geometry": "POINT (-122.463893 37.785233)",
      "poi_name": "Cafe Europa",
      "osm_id": 4753982895,
      "amenity": "restaurant",
      "cuisine": "polish;german",
      "addr_state": "CA",
      "addr_city": "San Francisco",
      "addr_postcode": "94118",
      "addr_street": "California Street",
      "addr_housenumber": "4318",
      "value": 176.6152880408665
    },
    {
      "id": 159093,
      "geometry": "POINT (-122.460005 37.706646)",
      "poi_name": "Round Table Pizza",
      "osm_id": 4776277164,
      "amenity": "restaurant",
      "cuisine": "pizza",
      "building": "yes",
      "opening_hours": "11:00-22:00",
      "addr_state": "CA",
      "addr_city": "Daly City",
      "addr_postcode": "94014",
      "addr_street": "Mission Street",
      "addr_housenumber": "6222",
      "value": 176.6152880408665
    },
    {
      "id": 163223,
      "geometry": "POINT (-122.294212 37.512445)",
      "poi_name": "Capo Mediterranean Kitchen",
      "osm_id": 9407143104,
      "amenity": "restaurant",
      "opening_hours": "Mo-Th 11:00-20:30, Fr-Sa 11:00-21:00, Su 11:00-20:00",
      "website": "https://capobelmont.com/",
      "phone": "650-508-1000",
      "addr_state": "CA",
      "addr_city": "Belmont",
      "addr_postcode": "94002",
      "addr_street": "Ralston Ave, #C",
      "addr_housenumber": "2040",
      "value": 176.6152880408665
    },
    {
      "id": 163414,
      "geometry": "POINT (-122.476918 37.78064)",
      "poi_name": "Super Pan",
      "osm_id": 9416858436,
      "amenity": "restaurant",
      "cuisine": "japanese;ramen;hotpot",
      "description": "Japanese teppan, ramen, and hot pot",
      "opening_hours": "Mo,We-Su 11:30-20:00; Tu off",
      "website": "https://superpansanfrancisco.com/",
      "phone": "+1 415 6685354",
      "takeaway": "yes",
      "delivery": "yes",
      "addr_state": "CA",
      "addr_city": "San Francisco",
      "addr_street": "Geary Boulevard",
      "addr_housenumber": "5344",
      "value": 176.6152880408665
    },
    {
      "id": 164873,
      "geometry": "POINT (-122.420874 37.639628)",
      "poi_name": "Got Pho",
      "osm_id": 9503803151,
      "amenity": "restaurant",
      "cuisine": "vietnamese;noodle;pho",
      "wheelchair": "yes",
      "opening_hours": "Mo,We-Su 11:00-20:00; Tu off",
      "phone": "+1 650 6348711",
      "takeaway": "yes",
      "addr_state": "CA",
      "addr_city": "San Bruno",
      "addr_postcode": "94066",
      "addr_street": "El Camino Real",
      "addr_housenumber": "1230",
      "value": 176.6152880408665
    },
    {
      "id": 166508,
      "geometry": "POINT (-122.349022 37.578322)",
      "poi_name": "Barracuda",
      "osm_id": 267482798,
      "amenity": "restaurant",
      "cuisine": "japanese",
      "wheelchair": "yes",
      "opening_hours": "Mo 11:30-14:30, 17:00-22:00; Tu 11:30-02:30, 17:00-22:00; We-Th 11:30-14:30, 17:00-22:00; Fr-Sa 11:30-14:30, 17:00-23:00; Su 11:30-14:30, 17:00-22:00",
      "website": "https://barracudasushi.com/",
      "phone": "+1 650-548-0300",
      "addr_state": "CA",
      "addr_city": "Burlingame",
      "addr_postcode": "94010",
      "addr_street": "Primrose Road",
      "addr_housenumber": "347",
      "value": 176.6152880408665
    },
    {
      "id": 167121,
      "geometry": "POINT (-122.349533 37.578774)",
      "poi_name": "Stella Alpina",
      "osm_id": 339270049,
      "amenity": "restaurant",
      "cuisine": "italian",
      "website": "http://www.stellaalpinaosteria.com/",
      "addr_state": "CA",
      "addr_city": "Burlingame",
      "addr_postcode": "94010",
      "addr_street": "Primrose Road",
      "addr_housenumber": "401",
      "value": 176.6152880408665
    },
    {
      "id": 167802,
      "geometry": "POINT (-122.438209 37.751123)",
      "poi_name": "Firefly",
      "osm_id": 360451646,
      "amenity": "restaurant",
      "cuisine": "regional",
      "addr_city": "San Francisco",
      "addr_street": "24th Street",
      "addr_housenumber": "4288",
      "value": 176.6152880408665
    },
    {
      "id": 172020,
      "geometry": "POINT (-122.466265 37.765146)",
      "poi_name": "Fiorella Sunset",
      "osm_id": 2392286219,
      "amenity": "restaurant",
      "cuisine": "pizza",
      "opening_hours": "Mo-Th 17:30-21:00; Fr 17:00-22:00; Sa 16:30-22:00; Su 16:30-21:30",
      "website": "http://www.fiorella-sf.com/",
      "phone": "+1 415 404 6997",
      "addr_state": "CA",
      "addr_city": "San Francisco",
      "addr_postcode": "94122",
      "addr_street": "9th Avenue",
      "addr_housenumber": "1240",
      "value": 176.6152880408665
    },
    {
      "id": 169526,
      "geometry": "POINT (-122.467743 37.739335)",
      "poi_name": "Trattoria da Vittorio",
      "osm_id": 2306305536,
      "amenity": "restaurant",
      "cuisine": "italian",
      "addr_state": "CA",
      "addr_city": "San Francisco",
      "addr_postcode": "94127",
      "addr_street": "West Portal Avenue",
      "addr_housenumber": "150",
      "value": 176.6152880408665
    },
    {
      "id": 172026,
      "geometry": "POINT (-122.47408 37.763826)",
      "poi_name": "Izakaya Sozai",
      "osm_id": 2392300373,
      "amenity": "restaurant",
      "cuisine": "japanese",
      "website": "https://www.izakayasozai.com/",
      "phone": "+1 415-742-5122",
      "outdoor_seating": "yes",
      "addr_state": "CA",
      "addr_city": "San Francisco",
      "addr_postcode": "94122",
      "addr_street": "Irving Street",
      "addr_housenumber": "1500",
      "value": 176.6152880408665
    },
    {
      "id": 172027,
      "geometry": "POINT (-122.4663 37.765762)",
      "poi_name": "Pacific Catch",
      "osm_id": 2392311612,
      "amenity": "restaurant",
      "cuisine": "seafood",
      "website": "https://pacificcatch.com/",
      "phone": "415 5046905",
      "addr_state": "CA",
      "addr_city": "San Francisco",
      "addr_postcode": "94122",
      "addr_street": "9th Avenue",
      "addr_housenumber": "1200",
      "value": 176.6152880408665
    },
    {
      "id": 173483,
      "geometry": "POINT (-122.4663 37.765501)",
      "poi_name": "um.ma",
      "osm_id": 2441003265,
      "amenity": "restaurant",
      "cuisine": "japanese;korean",
      "addr_city": "San Francisco",
      "addr_postcode": "94122",
      "addr_street": "9th Avenue",
      "addr_housenumber": "1220",
      "value": 176.6152880408665
    },
    {
      "id": 172422,
      "geometry": "POINT (-122.464713 37.763987)",
      "poi_name": "El Rancho Grande",
      "osm_id": 2402096155,
      "amenity": "restaurant",
      "cuisine": "mexican",
      "opening_hours": "Su-Th 10:00-22:00; Fr-Sa 10:00-23:59",
      "website": "https://elranchograndetaqueriasf.com/",
      "takeaway": "yes",
      "addr_state": "CA",
      "addr_city": "San Francisco",
      "addr_postcode": "94122",
      "addr_street": "Irving Street",
      "addr_housenumber": "627",
      "value": 176.6152880408665
    },
    {
      "id": 179492,
      "geometry": "POINT (-122.395598 37.603627)",
      "poi_name": "Millbrae Kebabs & Gyros",
      "osm_id": 10765149244,
      "amenity": "restaurant",
      "cuisine": "mediterranean",
      "opening_hours": "Mo-Su 10:30-21:30",
      "website": "https://www.millbraekebabsgyros.com/",
      "phone": "+1 650 231 8092",
      "takeaway": "yes",
      "outdoor_seating": "yes",
      "addr_city": "Milbrae",
      "addr_postcode": "94030",
      "addr_street": "Broadway",
      "addr_housenumber": "675",
      "value": 176.6152880408665
    },
    {
      "id": 180928,
      "geometry": "POINT (-122.462999 37.703711)",
      "poi_name": "Kings West Coast Pizzeria",
      "osm_id": 10823387226,
      "amenity": "restaurant",
      "cuisine": "pizza;brazilian",
      "opening_hours": "Mo-Su 11:00-22:00",
      "website": "https://www.kingswcpizza.com/",
      "phone": "+1-415-605-4242",
      "takeaway": "yes",
      "delivery": "yes",
      "addr_state": "CA",
      "addr_city": "Daly City",
      "addr_postcode": "94014",
      "addr_street": "Mission Street",
      "addr_housenumber": "6450",
      "value": 176.6152880408665
    },
    {
      "id": 185691,
      "geometry": "POINT (-122.446583 37.767096)",
      "poi_name": "Bacon Bacon",
      "osm_id": 7876589380,
      "amenity": "restaurant",
      "cuisine": "bacon;breakfast;cookie;burrito",
      "opening_hours": "Mo-Su 08:00-14:00",
      "website": "https://baconbaconsf.com",
      "phone": "+14152184347",
      "addr_state": "CA",
      "addr_city": "San Francisco",
      "addr_street": "Frederick Street",
      "addr_housenumber": "205A",
      "value": 176.6152880408665
    },
    {
      "id": 189228,
      "geometry": "POINT (-122.451303 37.731698)",
      "poi_name": "Ming Garden",
      "osm_id": 1221102795,
      "amenity": "restaurant",
      "cuisine": "asian",
      "addr_state": "CA",
      "addr_city": "San Francisco",
      "addr_postcode": "94127",
      "addr_street": "Monterey Boulevard",
      "addr_housenumber": "700",
      "value": 176.6152880408665
    },
    {
      "id": 189349,
      "geometry": "POINT (-122.454417 37.723386)",
      "poi_name": "21 Taste House",
      "osm_id": 1229133824,
      "amenity": "restaurant",
      "cuisine": "noodle;ramen",
      "website": "https://21tastehouse.com/",
      "addr_state": "CA",
      "addr_city": "San Francisco",
      "addr_street": "Ocean Avenue",
      "addr_housenumber": "1109",
      "value": 176.6152880408665
    },
    {
      "id": 189358,
      "geometry": "POINT (-122.440657 37.716714)",
      "poi_name": "Bravo Pizza",
      "osm_id": 1229920563,
      "amenity": "restaurant",
      "cuisine": "pizza",
      "phone": "(415)585-8500",
      "addr_city": "San Francisco",
      "addr_postcode": "94112",
      "addr_street": "Mission Street",
      "addr_housenumber": "5145",
      "value": 176.6152880408665
    },
    {
      "id": 193144,
      "geometry": "POINT (-122.459445 37.747324)",
      "poi_name": "Yogi Sushi House",
      "osm_id": 1501456789,
      "amenity": "restaurant",
      "cuisine": "sushi",
      "website": "http://www.sushishoh.com",
      "addr_state": "CA",
      "addr_city": "San Francisco",
      "addr_postcode": "94116",
      "addr_street": "Dewey Boulevard",
      "addr_housenumber": "406",
      "value": 176.6152880408665
    },
    {
      "id": 193145,
      "geometry": "POINT (-122.459336 37.747402)",
      "poi_name": "Chouchou",
      "osm_id": 1501456791,
      "amenity": "restaurant",
      "cuisine": "french",
      "website": "http://www.chouchoubistro.com",
      "phone": "415 242 960",
      "addr_city": "San Francisco",
      "addr_street": "Dewey Boulevard",
      "addr_housenumber": "400",
      "value": 176.6152880408665
    },
    {
      "id": 196609,
      "geometry": "POINT (-122.442326 37.71469)",
      "poi_name": "JjamPpong",
      "osm_id": 10587994279,
      "amenity": "restaurant",
      "cuisine": "asian;korean;chinese;seafood",
      "opening_hours": "Tu off; We-Mo 11:00-20:30",
      "phone": "+1 415 347 7412",
      "takeaway": "yes",
      "toilets": "yes",
      "addr_state": "CA",
      "addr_city": "San Francisco",
      "addr_postcode": "94112",
      "addr_street": "Mission Street",
      "addr_housenumber": "5249",
      "value": 176.6152880408665
    },
    {
      "id": 199588,
      "geometry": "POINT (-122.449667 37.765945)",
      "poi_name": "Beit Rima",
      "osm_id": 974267676,
      "amenity": "restaurant",
      "cuisine": "middle_eastern",
      "website": "http://beitrimasf.com/",
      "phone": "+14155661274",
      "outdoor_seating": "yes",
      "addr_state": "CA",
      "addr_city": "San Francisco",
      "addr_postcode": "94117",
      "addr_street": "Carl Street",
      "addr_housenumber": "86",
      "value": 176.6152880408665
    },
    {
      "id": 196995,
      "geometry": "POINT (-122.464977 37.726509)",
      "poi_name": "Muscle Maker Grill",
      "osm_id": 10607521288,
      "amenity": "restaurant",
      "website": "https://musclemakergrill.com",
      "phone": "628-250-8578",
      "addr_state": "CA",
      "addr_city": "San Francisco",
      "addr_postcode": "94127",
      "addr_street": "Ocean Avenue",
      "addr_housenumber": "2040",
      "value": 176.6152880408665
    },
    {
      "id": 196697,
      "geometry": "POINT (-122.453946 37.723579)",
      "poi_name": "Pakwan",
      "osm_id": 10592504204,
      "amenity": "restaurant",
      "cuisine": "pakistani;curry",
      "opening_hours": "Mo-Su 11:00-22:00",
      "website": "https://pakwanrestaurant.com/pakwan-san-francisco-ocean/",
      "phone": "+14158418400",
      "outdoor_seating": "yes",
      "addr_state": "CA",
      "addr_city": "San Francisco",
      "addr_postcode": "94112",
      "addr_street": "Ocean Avenue",
      "addr_housenumber": "1140",
      "value": 176.6152880408665
    },
    {
      "id": 199146,
      "geometry": "POINT (-122.430613 37.467413)",
      "poi_name": "The Flying Fish Grill",
      "osm_id": 939615296,
      "amenity": "restaurant",
      "opening_hours": "Mo-Su 11:30-20:00",
      "website": "https://www.flyingfishgrill.net/",
      "addr_city": "Half Moon Bay",
      "addr_postcode": "94019",
      "addr_street": "San Mateo Road",
      "addr_housenumber": "211",
      "value": 176.6152880408665
    },
    {
      "id": 199898,
      "geometry": "POINT (-122.438613 37.750955)",
      "poi_name": "Rin's Thai",
      "osm_id": 994218560,
      "amenity": "restaurant",
      "cuisine": "thai",
      "addr_city": "San Francisco",
      "addr_street": "24th Street",
      "addr_housenumber": "4301",
      "value": 176.6152880408665
    },
    {
      "id": 206583,
      "geometry": "POINT (-122.433687 37.734414)",
      "poi_name": "Higher Grounds Coffee House and Restaurant",
      "osm_id": 7215665716,
      "amenity": "restaurant",
      "cuisine": "italian;crepe",
      "opening_hours": "08:00-17:00",
      "capacity": "35",
      "phone": "415 587 2933",
      "takeaway": "yes",
      "delivery": "no",
      "addr_state": "CA",
      "addr_city": "San Francisco",
      "addr_street": "Chenery Street",
      "addr_housenumber": "691",
      "value": 176.6152880408665
    },
    {
      "id": 200002,
      "geometry": "POINT (-122.456606 37.724145)",
      "poi_name": "Go Go 7",
      "osm_id": 1003279922,
      "amenity": "restaurant",
      "cuisine": "korean",
      "phone": "+1 415 333-4344",
      "addr_state": "CA",
      "addr_city": "San Francisco",
      "addr_postcode": "94112",
      "addr_street": "Ocean Avenue",
      "addr_housenumber": "1300",
      "value": 176.6152880408665
    },
    {
      "id": 201442,
      "geometry": "POINT (-122.467811 37.739278)",
      "poi_name": "Toast Eatery",
      "osm_id": 632741467,
      "amenity": "restaurant",
      "addr_state": "CA",
      "addr_city": "San Francisco",
      "addr_postcode": "94127",
      "addr_street": "West Portal Avenue",
      "addr_housenumber": "160",
      "value": 176.6152880408665
    },
    {
      "id": 201445,
      "geometry": "POINT (-122.469822 37.737091)",
      "poi_name": "Tsing\u2019s Chinese Restaurant",
      "osm_id": 632873440,
      "amenity": "restaurant",
      "cuisine": "chinese",
      "addr_state": "CA",
      "addr_city": "San Francisco",
      "addr_postcode": "94127",
      "addr_street": "West Portal Avenue",
      "addr_housenumber": "351",
      "value": 176.6152880408665
    },
    {
      "id": 201450,
      "geometry": "POINT (-122.470344 37.736584)",
      "poi_name": "Little Original Joe's",
      "osm_id": 632874790,
      "amenity": "restaurant",
      "cuisine": "italian",
      "wheelchair": "yes",
      "opening_hours": "Mo-Su 10:00-22:00",
      "website": "https://www.littleoriginaljoes.com/",
      "shop": "deli",
      "takeaway": "only",
      "addr_state": "CA",
      "addr_city": "San Francisco",
      "addr_postcode": "94127",
      "addr_street": "West Portal Avenue",
      "addr_housenumber": "393",
      "value": 176.6152880408665
    },
    {
      "id": 202464,
      "geometry": "POINT (-122.459389 37.724706)",
      "poi_name": "Wang Wah",
      "osm_id": 7027943590,
      "amenity": "restaurant",
      "cuisine": "chinese;asian;seafood",
      "wheelchair": "yes",
      "opening_hours": "Mo-Sa 11:00-21:00",
      "website": "https://www.wangwahsf.com/",
      "phone": "(415) 585-4953",
      "takeaway": "yes",
      "addr_state": "CA",
      "addr_city": "San Francisco",
      "addr_postcode": "94112",
      "addr_street": "Ocean Avenue",
      "addr_housenumber": "1612",
      "value": 176.6152880408665
    },
    {
      "id": 200818,
      "geometry": "POINT (-122.485102 37.503465)",
      "poi_name": "Barbara's Fish Trap",
      "osm_id": 598480402,
      "amenity": "restaurant",
      "opening_hours": "Su-Th 11:00-20:30, Fr-Sa 11:00-21:00",
      "website": "https://www.barbarasfishtrap.com/",
      "phone": "+1 650-728-7049",
      "outdoor_seating": "yes",
      "addr_state": "CA",
      "addr_city": "Half Moon Bay",
      "addr_postcode": "94019",
      "addr_street": "Capistrano Road",
      "addr_housenumber": "281",
      "value": 176.6152880408665
    },
    {
      "id": 207436,
      "geometry": "POINT (-122.435402 37.722736)",
      "poi_name": "The Salad Place",
      "osm_id": 4947832728,
      "amenity": "restaurant",
      "cuisine": "salad;sandwich",
      "opening_hours": "Mo-Fr 06:30-16:00, Sa 8:00-16:00",
      "website": "https://thesaladplace.weebly.com/",
      "phone": "+1-415-333-4030",
      "takeaway": "yes",
      "delivery": "yes",
      "addr_state": "CA",
      "addr_city": "San Francisco",
      "addr_postcode": "94112",
      "addr_street": "London Street",
      "addr_housenumber": "400",
      "value": 176.6152880408665
    },
    {
      "id": 207443,
      "geometry": "POINT (-122.43566 37.722862)",
      "poi_name": "Los Planes de Renderos",
      "osm_id": 4947842912,
      "amenity": "restaurant",
      "cuisine": "salvadoran",
      "opening_hours": "Mo-Sa 11:00-20:00, Su 11:00-19:00",
      "phone": "+1-415-585-8645",
      "takeaway": "yes",
      "outdoor_seating": "yes",
      "addr_state": "CA",
      "addr_city": "San Francisco",
      "addr_postcode": "94112",
      "addr_street": "Persia Avenue",
      "addr_housenumber": "12",
      "value": 176.6152880408665
    },
    {
      "id": 218027,
      "geometry": "POINT (-122.460275 37.78102)",
      "poi_name": "Geary Kebab House",
      "osm_id": 9254592436,
      "amenity": "restaurant",
      "cuisine": "kebab",
      "opening_hours": "Mo-Su 11:00-21:30",
      "website": "https://www.gearykebabhouse.com/",
      "phone": "+1 415 941 7285",
      "addr_state": "CA",
      "addr_city": "San Francisco",
      "addr_postcode": "94118",
      "addr_street": "Geary Boulevard",
      "addr_housenumber": "3809",
      "value": 176.6152880408665
    },
    {
      "id": 227411,
      "geometry": "POINT (-122.293588 37.511341)",
      "poi_name": "Village Host Pizza & Grill",
      "osm_id": 4306966970,
      "amenity": "restaurant",
      "cuisine": "pizza",
      "addr_state": "CA",
      "addr_city": "Belmont",
      "addr_postcode": "94002",
      "addr_street": "Alameda de Las Pulgas",
      "addr_housenumber": "1017",
      "value": 176.6152880408665
    },
    {
      "id": 223328,
      "geometry": "POINT (-122.482759 37.504258)",
      "poi_name": "La Costanera",
      "osm_id": 11050232837,
      "amenity": "restaurant",
      "cuisine": "peruvian",
      "website": "https://lacostanerarestaurant.com/",
      "phone": "+1-650-728-1600",
      "addr_state": "CA",
      "addr_city": "Half Moon Bay",
      "addr_postcode": "94019",
      "addr_street": "Capistrano Road",
      "addr_housenumber": "260",
      "value": 176.6152880408665
    },
    {
      "id": 228136,
      "geometry": "POINT (-122.455792 37.723942)",
      "poi_name": "Poke Bowl",
      "osm_id": 4331553336,
      "amenity": "restaurant",
      "cuisine": "hawaiian;japanese",
      "takeaway": "yes",
      "addr_state": "CA",
      "addr_city": "San Francisco",
      "addr_postcode": "94112",
      "addr_street": "Ocean Avenue",
      "addr_housenumber": "1250",
      "value": 176.6152880408665
    },
    {
      "id": 230473,
      "geometry": "POINT (-122.463767 37.781243)",
      "poi_name": "Brothers Restaurant",
      "osm_id": 4427146019,
      "amenity": "restaurant",
      "cuisine": "barbecue;korean",
      "addr_city": "San Francisco",
      "addr_street": "Geary Boulevard",
      "addr_housenumber": "4128",
      "value": 176.6152880408665
    },
    {
      "id": 230475,
      "geometry": "POINT (-122.463688 37.781247)",
      "poi_name": "Bella Pizza",
      "osm_id": 4427181915,
      "amenity": "restaurant",
      "cuisine": "pizza",
      "addr_city": "San Francisco",
      "addr_street": "Geary Boulevard",
      "addr_housenumber": "4124",
      "value": 176.6152880408665
    },
    {
      "id": 233456,
      "geometry": "POINT (-122.408454 37.654601)",
      "poi_name": "Pronto's",
      "osm_id": 4574469912,
      "amenity": "restaurant",
      "website": "http://prontosfo.com",
      "phone": "+1-650-873-1324",
      "addr_state": "CA",
      "addr_city": "South San Francisco",
      "addr_postcode": "94080",
      "addr_street": "Grand Avenue",
      "addr_housenumber": "113",
      "value": 176.6152880408665
    },
    {
      "id": 231465,
      "geometry": "POINT (-122.324816 37.567123)",
      "poi_name": "31st Union",
      "osm_id": 4469401950,
      "amenity": "restaurant",
      "description": "Menu",
      "addr_city": "San Mateo",
      "addr_street": "South Ellsworth Avenue",
      "addr_housenumber": "5",
      "value": 176.6152880408665
    },
    {
      "id": 231466,
      "geometry": "POINT (-122.323099 37.565952)",
      "poi_name": "Bonchon San Mateo",
      "osm_id": 4469401952,
      "amenity": "restaurant",
      "description": "Menu",
      "addr_city": "San Mateo",
      "addr_street": "South B Street",
      "addr_housenumber": "220",
      "value": 176.6152880408665
    },
    {
      "id": 231467,
      "geometry": "POINT (-122.323595 37.566822)",
      "poi_name": "Inchin's Bamboo Garden",
      "osm_id": 4469402645,
      "amenity": "restaurant",
      "description": "Menu",
      "addr_city": "San Mateo",
      "addr_street": "South B Street",
      "addr_housenumber": "139",
      "value": 176.6152880408665
    },
    {
      "id": 231469,
      "geometry": "POINT (-122.32427 37.567435)",
      "poi_name": "China Bee",
      "osm_id": 4469410887,
      "amenity": "restaurant",
      "description": "Menu",
      "addr_city": "San Mateo",
      "addr_street": "South B Street",
      "addr_housenumber": "31",
      "value": 176.6152880408665
    },
    {
      "id": 231470,
      "geometry": "POINT (-122.323283 37.566099)",
      "poi_name": "New Thai Elephant",
      "osm_id": 4469410888,
      "amenity": "restaurant",
      "cuisine": "thai",
      "opening_hours": "Mo-Su 11:00-21:20",
      "website": "https://www.newthaielephant.com/",
      "addr_city": "San Mateo",
      "addr_street": "South B Street",
      "addr_housenumber": "200",
      "value": 176.6152880408665
    },
    {
      "id": 231472,
      "geometry": "POINT (-122.32473 37.568035)",
      "poi_name": "La Cumbre",
      "osm_id": 4469410990,
      "amenity": "restaurant",
      "cuisine": "mexican",
      "description": "Menu",
      "addr_city": "San Mateo",
      "addr_street": "North B Street",
      "addr_housenumber": "28",
      "value": 176.6152880408665
    },
    {
      "id": 231473,
      "geometry": "POINT (-122.323722 37.566937)",
      "poi_name": "Curry Up Now",
      "osm_id": 4469410991,
      "amenity": "restaurant",
      "cuisine": "indian",
      "description": "Menu",
      "addr_state": "CA",
      "addr_city": "San Mateo",
      "addr_postcode": "94401",
      "addr_street": "South B Street",
      "addr_housenumber": "129",
      "value": 176.6152880408665
    },
    {
      "id": 231857,
      "geometry": "POINT (-122.431353 37.468074)",
      "poi_name": "Straw Hat Pizza",
      "osm_id": 4491739568,
      "amenity": "restaurant",
      "cuisine": "pizza",
      "opening_hours": "Mo-Su 11:00-22:00",
      "addr_city": "Half Moon Bay",
      "addr_postcode": "94019",
      "addr_street": "San Mateo Road",
      "addr_housenumber": "186",
      "value": 176.6152880408665
    },
    {
      "id": 233385,
      "geometry": "POINT (-122.478285 37.782181)",
      "poi_name": "Tia Margarita",
      "osm_id": 4571199077,
      "amenity": "restaurant",
      "cuisine": "mexican",
      "addr_state": "CA",
      "addr_city": "San Francisco",
      "addr_postcode": "94121",
      "addr_street": "19th Avenue",
      "addr_housenumber": "300",
      "value": 176.6152880408665
    },
    {
      "id": 234325,
      "geometry": "POINT (-122.440292 37.715883)",
      "poi_name": "B&W Kitchen",
      "osm_id": 4616065752,
      "amenity": "restaurant",
      "cuisine": "chinese",
      "opening_hours": "Mo off; Tu-Su 10:30-14:30,16:30-21:30",
      "website": "http://bwkitchensf.com/",
      "phone": "+1 415 825 5511",
      "takeaway": "yes",
      "addr_state": "CA",
      "addr_city": "San Francisco",
      "addr_postcode": "94112",
      "addr_street": "Geneva Avenue",
      "addr_housenumber": "958",
      "value": 176.6152880408665
    },
    {
      "id": 234567,
      "geometry": "POINT (-122.402614 37.683985)",
      "poi_name": "Mama Mia Pizza",
      "osm_id": 4628830044,
      "amenity": "restaurant",
      "website": "http://mamamiapizzas.com",
      "phone": "+1-415-468-1032",
      "addr_state": "CA",
      "addr_city": "Brisbane",
      "addr_postcode": "94005",
      "addr_street": "Visitacion Avenue",
      "addr_housenumber": "35",
      "value": 176.6152880408665
    },
    {
      "id": 238759,
      "geometry": "POINT (-122.468552 37.782896)",
      "poi_name": "Zajang Grill",
      "osm_id": 5893590043,
      "amenity": "restaurant",
      "cuisine": "barbecue;asian",
      "opening_hours": "Mo-Fr 17:00-23:00; Sa-Su 12:00-23:00",
      "addr_state": "CA",
      "addr_city": "San Francisco",
      "addr_postcode": "94118",
      "addr_street": "Clement Street",
      "addr_housenumber": "852",
      "value": 176.6152880408665
    },
    {
      "id": 235865,
      "geometry": "POINT (-122.313867 37.550379)",
      "poi_name": "Esposto's Borel Deli",
      "osm_id": 5771526703,
      "amenity": "restaurant",
      "cuisine": "deli",
      "website": "http://www.espostos.com/",
      "addr_state": "CA",
      "addr_city": "San Mateo",
      "addr_postcode": "94402",
      "addr_street": "Bovet Road",
      "addr_housenumber": "59",
      "value": 176.6152880408665
    },
    {
      "id": 238760,
      "geometry": "POINT (-122.468295 37.782916)",
      "poi_name": "Lime Tree",
      "osm_id": 5893590044,
      "amenity": "restaurant",
      "cuisine": "asian",
      "opening_hours": "Mo off; Tu-Fr 11:00-14:00,17:00-20:00; Sa-Su 11:00-15:00,17:00-20:00",
      "phone": "+1 415 831 8811",
      "addr_state": "CA",
      "addr_postcode": "94118",
      "addr_street": "Clement Street",
      "addr_housenumber": "836",
      "value": 176.6152880408665
    },
    {
      "id": 238761,
      "geometry": "POINT (-122.466715 37.782974)",
      "poi_name": "Venus Cafe",
      "osm_id": 5893590047,
      "amenity": "restaurant",
      "cuisine": "chinese",
      "phone": "+1 415 964 8888",
      "addr_state": "CA",
      "addr_city": "San Francisco",
      "addr_postcode": "94118",
      "addr_street": "Clement Street",
      "addr_housenumber": "700",
      "value": 176.6152880408665
    },
    {
      "id": 238762,
      "geometry": "POINT (-122.467184 37.782717)",
      "poi_name": "Steins",
      "osm_id": 5893590057,
      "amenity": "restaurant",
      "cuisine": "german",
      "addr_state": "CA",
      "addr_city": "San Francisco",
      "addr_postcode": "94118",
      "addr_street": "Clement Street",
      "addr_housenumber": "731",
      "value": 176.6152880408665
    },
    {
      "id": 238766,
      "geometry": "POINT (-122.467098 37.782959)",
      "poi_name": "Chili House",
      "osm_id": 5893605746,
      "amenity": "restaurant",
      "cuisine": "chinese",
      "addr_state": "CA",
      "addr_city": "San Francisco",
      "addr_postcode": "94118",
      "addr_street": "Clement Street",
      "addr_housenumber": "726",
      "value": 176.6152880408665
    },
    {
      "id": 238742,
      "geometry": "POINT (-122.482709 37.75382)",
      "poi_name": "Noriega Teriyaki House",
      "osm_id": 5893378709,
      "amenity": "restaurant",
      "cuisine": "japanese",
      "addr_state": "CA",
      "addr_city": "San Francisco",
      "addr_postcode": "94122",
      "addr_street": "Noriega Street",
      "addr_housenumber": "1755",
      "value": 176.6152880408665
    },
    {
      "id": 238767,
      "geometry": "POINT (-122.467183 37.782956)",
      "poi_name": "Good Luck",
      "osm_id": 5893605749,
      "amenity": "restaurant",
      "cuisine": "dim_sum",
      "phone": "+1 415 386 3388",
      "addr_state": "CA",
      "addr_city": "San Francisco",
      "addr_postcode": "94118",
      "addr_street": "Clement Street",
      "addr_housenumber": "736",
      "value": 176.6152880408665
    },
    {
      "id": 238953,
      "geometry": "POINT (-122.467988 37.782666)",
      "poi_name": "Tasty Pot",
      "osm_id": 5898151212,
      "amenity": "restaurant",
      "cuisine": "taiwanese",
      "addr_state": "CA",
      "addr_city": "San Francisco",
      "addr_postcode": "94118",
      "addr_street": "Clement Street",
      "addr_housenumber": "815",
      "value": 176.6152880408665
    },
    {
      "id": 243067,
      "geometry": "POINT (-122.480439 37.738985)",
      "poi_name": "Just Won Ton",
      "osm_id": 7621257251,
      "amenity": "restaurant",
      "cuisine": "chinese",
      "phone": "+1 (415) 681-2999",
      "addr_state": "CA",
      "addr_city": "San Francisco",
      "addr_postcode": "94116",
      "addr_street": "Vicente Street",
      "addr_housenumber": "1241",
      "value": 176.6152880408665
    }
  ],
  "answer_type": "loc",
  "question_entities": {
    "[2]": {
      "distance": 40000,
      "text": "40 kilometers"
    },
    "[3]": {
      "main_category": "tourism",
      "sub_category": "theme park",
      "display_name": "House of Air, San Francisco, CA",
      "geo_wkt": "POINT (-122.468617 37.804932)",
      "poi": {
        "id": 14569,
        "geometry": "POINT (-122.468617 37.804932)",
        "poi_name": "House of Air",
        "osm_id": 4659836677,
        "tourism": "theme_park",
        "opening_hours": "Su-Mo 10:00-20:00; Tu-Th 14:00-21:00; Fr-Sa 10:00-22:00",
        "website": "https://www.houseofair.com/",
        "phone": "+1 (415) 345-9675",
        "wikidata": "Q5914641",
        "addr_state": "CA",
        "addr_city": "San Francisco",
        "addr_postcode": "94129",
        "addr_street": "Mason Street",
        "addr_housenumber": "926"
      }
    },
    "[4]": {
      "main_category": "tourism",
      "sub_category": "aquarium",
      "display_name": "Steinhart Aquarium, CA",
      "geo_wkt": "POINT (-122.465976 37.769485)",
      "poi": {
        "id": 18181,
        "geometry": "POINT (-122.465976 37.769485)",
        "poi_name": "Steinhart Aquarium",
        "osm_id": 368173914,
        "tourism": "aquarium",
        "addr_state": "CA"
      }
    },
    "[1]": {
      "main_category": "amenity",
      "sub_category": "restaurant"
    }
  },
  "id": 1237,
  "type": "range:towards+loc"
}