{
  "question": "Within a radius of 160 kilometers, where can I find  a restaurant in the direction of Gallery 19C, Westlake, TX from Trusted Medical Centers Mansfield, Mansfield, TX?",
  "sql": "WITH\n    angle AS (SELECT degrees(ST_Azimuth(ST_GeomFromText('POINT (-97.140264 32.590567)',4326)::geography, ST_GeomFromText('POINT (-97.174004 32.983278)',4326)::geography)) AS value)\nSELECT * FROM pois,angle\nWHERE amenity = 'restaurant'\nAND ST_DWithin(pois.geometry, ST_GeomFromText('POINT (-97.140264 32.590567)',4326)::geography, 160000)\nAND (degrees(ST_Azimuth(ST_GeomFromText('POINT (-97.140264 32.590567)',4326)::geography, pois.geometry)) BETWEEN angle.value - 22.5 AND angle.value + 22.5);\n",
  "answers": [
    {
      "id": 29271,
      "geometry": "POINT (-97.203302 33.014082)",
      "poi_name": "Marco\u2019s Pizza",
      "osm_id": 8292018239,
      "amenity": "restaurant",
      "cuisine": "pizza",
      "wheelchair": "yes",
      "website": "https://www.marcos.com/",
      "phone": "+1 (817) 497-8000",
      "takeaway": "yes",
      "delivery": "yes",
      "addr_state": "TX",
      "addr_city": "Trophy Club",
      "addr_postcode": "76262",
      "addr_street": "Bobcat Boulevard",
      "addr_housenumber": "2550",
      "value": 355.8583097850698
    },
    {
      "id": 29273,
      "geometry": "POINT (-97.203508 33.014014)",
      "poi_name": "Deja Bru Caf\u00e9 & Bistro",
      "osm_id": 8292018254,
      "amenity": "restaurant",
      "cuisine": "breakfast;brunch",
      "opening_hours": "Sa-Su 8:00-15:00; We-Fr 9:30-17:00",
      "website": "https://thedejabru.com",
      "phone": "+1 (682) 502-4922",
      "takeaway": "yes",
      "outdoor_seating": "yes",
      "delivery": "yes",
      "addr_state": "TX",
      "addr_city": "Trophy Club",
      "addr_postcode": "76262",
      "addr_street": "Bobcat Boulevard",
      "addr_housenumber": "2550",
      "value": 355.8583097850698
    },
    {
      "id": 30952,
      "geometry": "POINT (-97.181073 33.126876)",
      "poi_name": "Snooty Pig",
      "osm_id": 8397385515,
      "amenity": "restaurant",
      "website": "https://snootypig.com/",
      "phone": "940-464-0748",
      "addr_city": "Argyle",
      "addr_postcode": "76226",
      "addr_street": "Country Club Road",
      "addr_housenumber": "160",
      "value": 355.8583097850698
    },
    {
      "id": 40294,
      "geometry": "POINT (-97.308838 32.957321)",
      "poi_name": "IHOP",
      "osm_id": 2965415126,
      "amenity": "restaurant",
      "cuisine": "breakfast;pancake",
      "addr_state": "TX",
      "addr_city": "Fort Worth",
      "addr_postcode": "76177",
      "addr_street": "North Freeway",
      "addr_housenumber": "12750",
      "value": 355.8583097850698
    },
    {
      "id": 37372,
      "geometry": "POINT (-97.201876 32.844492)",
      "poi_name": "Japanese Grill",
      "osm_id": 2809654523,
      "amenity": "restaurant",
      "cuisine": "sushi",
      "website": "http://japanesegrillsushi.com/",
      "addr_state": "TX",
      "addr_city": "North Richland Hills",
      "addr_postcode": "76180",
      "addr_street": "Blvd 26 North",
      "addr_housenumber": "8427",
      "value": 355.8583097850698
    },
    {
      "id": 52095,
      "geometry": "POINT (-97.292712 32.860237)",
      "poi_name": "Skillman Wok-Grill",
      "osm_id": 570270097,
      "amenity": "restaurant",
      "cuisine": "asian",
      "addr_city": "Fort Worth",
      "addr_postcode": "76137",
      "addr_street": "Western Center Boulevard",
      "addr_housenumber": "4310",
      "value": 355.8583097850698
    },
    {
      "id": 52096,
      "geometry": "POINT (-97.292714 32.860111)",
      "poi_name": "Los Molcajetes",
      "osm_id": 570272186,
      "amenity": "restaurant",
      "cuisine": "mexican",
      "addr_city": "Fort Worth",
      "addr_postcode": "76137",
      "addr_street": "Western Center Boulevard",
      "addr_housenumber": "4320",
      "value": 355.8583097850698
    },
    {
      "id": 52097,
      "geometry": "POINT (-97.291947 32.859548)",
      "poi_name": "Wild Sushi",
      "osm_id": 570293213,
      "amenity": "restaurant",
      "cuisine": "asian",
      "addr_city": "Fort Worth",
      "addr_postcode": "76137",
      "addr_street": "Western Center Boulevard",
      "addr_housenumber": "4386",
      "value": 355.8583097850698
    },
    {
      "id": 52098,
      "geometry": "POINT (-97.290966 32.85953)",
      "poi_name": "Boopa's Bagel and Deli",
      "osm_id": 570297424,
      "amenity": "restaurant",
      "cuisine": "deli;mediterranean",
      "addr_city": "Fort Worth",
      "addr_postcode": "76137",
      "addr_street": "North Beach Street",
      "addr_housenumber": "6513",
      "value": 355.8583097850698
    },
    {
      "id": 64213,
      "geometry": "POINT (-97.18801 32.822676)",
      "poi_name": "Moe's Gyro",
      "osm_id": 5644894312,
      "amenity": "restaurant",
      "cuisine": "mediterranean",
      "wheelchair": "yes",
      "opening_hours": "Mo-Th 10:30-21:00; Fr-Sa 10:30-22:00; Su 11:00-20:00",
      "phone": "+1 682-626-5889",
      "takeaway": "yes",
      "addr_state": "TX",
      "addr_city": "Hurst",
      "addr_postcode": "76053",
      "addr_street": "West Pipeline Road",
      "addr_housenumber": "819",
      "value": 355.8583097850698
    },
    {
      "id": 101382,
      "geometry": "POINT (-97.161392 33.228486)",
      "poi_name": "Chinatown Cafe",
      "osm_id": 6625107210,
      "amenity": "restaurant",
      "cuisine": "chinese",
      "addr_state": "TX",
      "addr_city": "Denton",
      "addr_postcode": "76201",
      "addr_street": "West University Drive",
      "addr_housenumber": "2317",
      "value": 355.8583097850698
    },
    {
      "id": 127277,
      "geometry": "POINT (-97.178687 33.365442)",
      "poi_name": "Pizza Hut",
      "osm_id": 8048924449,
      "amenity": "restaurant",
      "cuisine": "pizza",
      "addr_state": "TX",
      "addr_city": "Sanger",
      "addr_postcode": "76266",
      "addr_street": "Maple Street",
      "addr_housenumber": "1004",
      "value": 355.8583097850698
    },
    {
      "id": 117202,
      "geometry": "POINT (-97.145646 33.213775)",
      "poi_name": "Plow Burger",
      "osm_id": 8981406497,
      "amenity": "restaurant",
      "cuisine": "burger;wings",
      "addr_state": "TX",
      "addr_city": "Denton",
      "addr_postcode": "76201",
      "addr_street": "West Mulberry Street",
      "addr_housenumber": "1212",
      "value": 355.8583097850698
    },
    {
      "id": 128054,
      "geometry": "POINT (-97.187892 32.823343)",
      "poi_name": "Taqueria Burritos Locos #2",
      "osm_id": 8119329224,
      "amenity": "restaurant",
      "cuisine": "tex-mex;mexican",
      "wheelchair": "yes",
      "opening_hours": "Mo-Th,Su 07:00-23:00; Fr-Sa 07:00-24:00",
      "phone": "+1 817-616-3400",
      "takeaway": "yes",
      "addr_state": "TX",
      "addr_city": "Hurst",
      "addr_postcode": "76053",
      "addr_street": "West Pipeline Road",
      "addr_housenumber": "821",
      "value": 355.8583097850698
    },
    {
      "id": 127407,
      "geometry": "POINT (-97.177288 33.369529)",
      "poi_name": "Roma's Italian Restaurant",
      "osm_id": 8063260482,
      "amenity": "restaurant",
      "cuisine": "italian",
      "addr_state": "TX",
      "addr_city": "Sanger",
      "addr_postcode": "76266",
      "addr_street": "North Stemmons Street",
      "addr_housenumber": "1108",
      "value": 355.8583097850698
    },
    {
      "id": 133869,
      "geometry": "POINT (-97.230445 32.931391)",
      "poi_name": "Ms. Saigon Pho and Grill",
      "osm_id": 10013657693,
      "amenity": "restaurant",
      "cuisine": "vietnamese",
      "website": "https://ms-saigon-pho-sushi-grill.business.site/",
      "addr_state": "TX",
      "addr_city": "Keller",
      "addr_postcode": "76248",
      "addr_street": "Rufe Snow Drive",
      "addr_housenumber": "242",
      "value": 355.8583097850698
    },
    {
      "id": 128491,
      "geometry": "POINT (-97.146401 32.890501)",
      "poi_name": "Gloria's Latin Cuisine",
      "osm_id": 8163182302,
      "amenity": "restaurant",
      "cuisine": "mexican",
      "wheelchair": "yes",
      "website": "https://gloriascuisine.com/locations/colleyville.html",
      "phone": "817-656-1784",
      "takeaway": "yes",
      "outdoor_seating": "yes",
      "delivery": "yes",
      "addr_state": "TX",
      "addr_city": "Colleyville",
      "addr_postcode": "76034",
      "addr_street": "Colleyville Boulevard",
      "addr_housenumber": "5611",
      "value": 355.8583097850698
    },
    {
      "id": 128380,
      "geometry": "POINT (-97.148048 32.891312)",
      "poi_name": "McAlister's Deli",
      "osm_id": 8152964994,
      "amenity": "restaurant",
      "cuisine": "sandwich",
      "wheelchair": "yes",
      "opening_hours": "Mo-Su 10:00-21:00",
      "website": "https://www.mcalistersdeli.com/locations/tx/colleyville/deli-1251",
      "internet_access": "wlan",
      "phone": "+1 817-485-5191",
      "takeaway": "yes",
      "outdoor_seating": "yes",
      "delivery": "yes",
      "toilets": "yes",
      "addr_state": "TX",
      "addr_city": "Colleyville",
      "addr_postcode": "76034",
      "addr_street": "Colleyville Boulevard",
      "addr_housenumber": "5615",
      "value": 355.8583097850698
    },
    {
      "id": 139717,
      "geometry": "POINT (-97.21159 32.833827)",
      "poi_name": "Red Lobster",
      "osm_id": 6213074886,
      "amenity": "restaurant",
      "cuisine": "fish;seafood",
      "opening_hours": "Mo-Th 11:00-22:15; Fr,Sa 11:00-23:00; Su 11:00-22:00",
      "addr_city": "North Richland Hills",
      "addr_postcode": "76053",
      "addr_street": "Bedford Euless Road",
      "addr_housenumber": "7800",
      "value": 355.8583097850698
    },
    {
      "id": 146106,
      "geometry": "POINT (-97.191649 32.905896)",
      "poi_name": "Mi Pueblo",
      "osm_id": 7412523706,
      "amenity": "restaurant",
      "cuisine": "mexican",
      "addr_state": "TX",
      "addr_city": "North Richland Hills",
      "value": 355.8583097850698
    },
    {
      "id": 156891,
      "geometry": "POINT (-97.185561 32.83805)",
      "poi_name": "Pei Wei",
      "osm_id": 4676725517,
      "amenity": "restaurant",
      "cuisine": "asian",
      "opening_hours": "Mo-Su 11:00-20:30; Fr,Sa 11:00-21:00",
      "addr_city": "Hurst",
      "addr_postcode": "76053",
      "addr_street": "Precinct Line Road",
      "addr_housenumber": "1460",
      "value": 355.8583097850698
    },
    {
      "id": 163214,
      "geometry": "POINT (-97.166249 33.23086)",
      "poi_name": "Villa Grande",
      "osm_id": 9406986599,
      "amenity": "restaurant",
      "cuisine": "mexican",
      "addr_state": "TX",
      "addr_city": "Denton",
      "addr_postcode": "76201",
      "addr_street": "West University Drive",
      "addr_housenumber": "2530",
      "value": 355.8583097850698
    },
    {
      "id": 162304,
      "geometry": "POINT (-97.322758 32.900013)",
      "poi_name": "Luna Grill Alliance",
      "osm_id": 4924834528,
      "amenity": "restaurant",
      "cuisine": "mediterranean",
      "addr_state": "TX",
      "addr_city": "Fort Worth",
      "addr_postcode": "76177",
      "addr_street": "Tehama Ridge Parkway",
      "addr_housenumber": "8825",
      "value": 355.8583097850698
    },
    {
      "id": 163215,
      "geometry": "POINT (-97.166263 33.230549)",
      "poi_name": "Dickey's Barbecue Pit",
      "osm_id": 9406986602,
      "amenity": "restaurant",
      "cuisine": "barbecue",
      "addr_state": "TX",
      "addr_city": "Denton",
      "addr_postcode": "76201",
      "addr_street": "West University Drive",
      "addr_housenumber": "2530",
      "value": 355.8583097850698
    },
    {
      "id": 163217,
      "geometry": "POINT (-97.165627 33.230351)",
      "poi_name": "Cowboy Chicken",
      "osm_id": 9406986609,
      "amenity": "restaurant",
      "cuisine": "chicken",
      "addr_state": "TX",
      "addr_city": "Denton",
      "addr_postcode": "76201",
      "addr_street": "West University Drive",
      "addr_housenumber": "2520",
      "value": 355.8583097850698
    },
    {
      "id": 163219,
      "geometry": "POINT (-97.158214 33.23013)",
      "poi_name": "McAlister's Deli",
      "osm_id": 9407045343,
      "amenity": "restaurant",
      "cuisine": "sandwich",
      "opening_hours": "Mo-Su 10:00-21:00",
      "website": "https://www.mcalistersdeli.com/",
      "phone": "+19407353364",
      "addr_state": "TX",
      "addr_city": "Denton",
      "addr_postcode": "76207",
      "addr_street": "West University Drive",
      "addr_housenumber": "2200",
      "value": 355.8583097850698
    },
    {
      "id": 163333,
      "geometry": "POINT (-97.14871 33.230033)",
      "poi_name": "Egg House Cafe",
      "osm_id": 9412662520,
      "amenity": "restaurant",
      "addr_state": "TX",
      "addr_city": "Denton",
      "addr_postcode": "76201",
      "addr_street": "West University Drive",
      "addr_housenumber": "1622",
      "value": 355.8583097850698
    },
    {
      "id": 163335,
      "geometry": "POINT (-97.140806 33.230542)",
      "poi_name": "Blue Fish",
      "osm_id": 9412745621,
      "amenity": "restaurant",
      "cuisine": "sushi",
      "addr_state": "TX",
      "addr_city": "Denton",
      "addr_postcode": "76201",
      "addr_street": "West University Drive",
      "addr_housenumber": "828",
      "value": 355.8583097850698
    },
    {
      "id": 163337,
      "geometry": "POINT (-97.140546 33.229446)",
      "poi_name": "Two Charlies",
      "osm_id": 9412960019,
      "amenity": "restaurant",
      "addr_state": "TX",
      "addr_city": "Denton",
      "addr_postcode": "76201",
      "addr_street": "Sunset Street",
      "addr_housenumber": "809",
      "value": 355.8583097850698
    },
    {
      "id": 166159,
      "geometry": "POINT (-97.155473 33.211188)",
      "poi_name": "The Taste",
      "osm_id": 9577881265,
      "amenity": "restaurant",
      "cuisine": "korean",
      "addr_state": "TX",
      "addr_city": "Denton",
      "addr_postcode": "76201",
      "addr_street": "North Texas Boulevard",
      "addr_housenumber": "408",
      "value": 355.8583097850698
    },
    {
      "id": 179030,
      "geometry": "POINT (-97.187599 32.906674)",
      "poi_name": "Baja Cantina",
      "osm_id": 10746339538,
      "amenity": "restaurant",
      "cuisine": "mexican",
      "addr_state": "TX",
      "addr_city": "North Richland Hills",
      "addr_postcode": "76182",
      "addr_street": "Precinct Line Road",
      "addr_housenumber": "8245",
      "value": 355.8583097850698
    },
    {
      "id": 183755,
      "geometry": "POINT (-97.230897 32.995351)",
      "poi_name": "Anderson Distillery & Grill",
      "osm_id": 10944294191,
      "amenity": "restaurant",
      "opening_hours": "tu-th 11--22, fr-sa 10-24, su 10-20",
      "website": "https://www.andersondistillery.com/",
      "addr_state": "TX",
      "addr_city": "Roanoke",
      "addr_postcode": "76262",
      "addr_street": "South Oak Street",
      "addr_housenumber": "400",
      "value": 355.8583097850698
    },
    {
      "id": 197633,
      "geometry": "POINT (-97.318876 32.915084)",
      "poi_name": "Kyodai Handroll Bar",
      "osm_id": 10659298448,
      "amenity": "restaurant",
      "cuisine": "sushi;japanese",
      "opening_hours": "Mo, We-Sa 11:00-14:30,17:00-22:00; Su 12:00-14:30,17:00-21:00",
      "website": "https://www.kyodaihandroll.com/location/kyodai-handroll-bar-fort-worth",
      "phone": "+1-682-708-3054",
      "addr_state": "TX",
      "addr_city": "Fort Worth",
      "addr_postcode": "76177",
      "addr_street": "Heritage Trace Parkway",
      "addr_housenumber": "2825",
      "value": 355.8583097850698
    },
    {
      "id": 197635,
      "geometry": "POINT (-97.271555 32.893535)",
      "poi_name": "SWAD Indian & Nepal Cuisine",
      "osm_id": 10659598959,
      "amenity": "restaurant",
      "cuisine": "indian;nepalese",
      "opening_hours": "Mo,We-Fr 11:00-14:30,16:30-21:00; Sa,Su 11:00-21:00",
      "website": "https://swadindianfw.site/",
      "phone": "+1-817-587-1575",
      "addr_state": "TX",
      "addr_city": "Fort Worth",
      "addr_postcode": "76137",
      "addr_street": "Sohi Drive",
      "addr_housenumber": "8333",
      "value": 355.8583097850698
    },
    {
      "id": 197636,
      "geometry": "POINT (-97.273941 32.89352)",
      "poi_name": "JJ's Taco Shop",
      "osm_id": 10659598960,
      "amenity": "restaurant",
      "cuisine": "mexican;american",
      "opening_hours": "Su-Mo 11:00-21:00; Tu-Sa 11:00-22:00",
      "website": "https://www.jjstacoshop.com/fort-worth-location",
      "phone": "+1-817-479-6821",
      "outdoor_seating": "yes",
      "addr_state": "TX",
      "addr_city": "Fort Worth",
      "addr_postcode": "76244",
      "addr_street": "North Tarrant Parkway",
      "addr_housenumber": "5040",
      "value": 355.8583097850698
    },
    {
      "id": 197640,
      "geometry": "POINT (-97.306421 32.915269)",
      "poi_name": "Don Taco",
      "osm_id": 10659686241,
      "amenity": "restaurant",
      "cuisine": "mexican",
      "opening_hours": "Mo-Th 11:00-21:30; Fr 11:00-22:00; Sa 8:00-22:00; Su 8:00-21:00",
      "website": "https://dontacogrill.com/",
      "phone": "+1-817-741-6644",
      "addr_state": "TX",
      "addr_city": "Fort Worth",
      "addr_postcode": "76244",
      "addr_street": "Heritage Trace Parkway",
      "addr_housenumber": "3529",
      "value": 355.8583097850698
    },
    {
      "id": 197642,
      "geometry": "POINT (-97.323572 32.902666)",
      "poi_name": "Kyushu",
      "osm_id": 10659686244,
      "amenity": "restaurant",
      "cuisine": "japanese;hibachi;sushi",
      "opening_hours": "Mo-Th 11:00-14:30,16:30-22:00; Fr 11:00-14:30,16:30-22:30; Sa 12:00-22:30; Su 12:00-21:00",
      "website": "http://www.kyushuhibachi.com/",
      "phone": "+1-817-232-8777",
      "addr_state": "TX",
      "addr_city": "Fort Worth",
      "addr_postcode": "76177",
      "addr_street": "Tehama Ridge Parkway",
      "addr_housenumber": "8933",
      "value": 355.8583097850698
    },
    {
      "id": 203952,
      "geometry": "POINT (-97.205259 32.999254)",
      "poi_name": "Hong Kong Express",
      "osm_id": 7106536361,
      "amenity": "restaurant",
      "cuisine": "chinese",
      "wheelchair": "yes",
      "opening_hours": "Mo-Su 11:00-22:00",
      "website": "http://www.hong-kong-express-roanoke.com/",
      "phone": "+1-817-491-6000",
      "outdoor_seating": "no",
      "addr_state": "TX",
      "addr_city": "Trophy Club",
      "addr_postcode": "76262",
      "addr_street": "Trophy Lake Drive",
      "addr_housenumber": "301",
      "value": 355.8583097850698
    },
    {
      "id": 202907,
      "geometry": "POINT (-97.144125 32.720635)",
      "poi_name": "David's Barbecue",
      "osm_id": 7054875105,
      "amenity": "restaurant",
      "cuisine": "barbecue",
      "addr_state": "TX",
      "addr_city": "Pantego",
      "addr_postcode": "76013",
      "addr_street": "West Park Row Drive",
      "addr_housenumber": "2224",
      "value": 355.8583097850698
    },
    {
      "id": 204981,
      "geometry": "POINT (-97.169461 32.979949)",
      "poi_name": "Mar Cosina",
      "osm_id": 7152458629,
      "amenity": "restaurant",
      "cuisine": "mexican",
      "website": "https://www.marcosina.com",
      "phone": "+1-817-490-6115",
      "addr_state": "TX",
      "addr_city": "Westlake",
      "addr_postcode": "76262",
      "addr_street": "Solana Boulevard",
      "addr_housenumber": "1301",
      "value": 355.8583097850698
    },
    {
      "id": 204982,
      "geometry": "POINT (-97.169634 32.979681)",
      "poi_name": "La Scala Pizzeria",
      "osm_id": 7152458631,
      "amenity": "restaurant",
      "cuisine": "pizza",
      "website": "https://lascalapizza.com",
      "phone": "+1-817-491-3779",
      "addr_state": "TX",
      "addr_city": "Westlake",
      "addr_postcode": "76262",
      "addr_street": "Village Circle",
      "addr_housenumber": "3",
      "value": 355.8583097850698
    },
    {
      "id": 217432,
      "geometry": "POINT (-97.186903 32.937485)",
      "poi_name": "Mikoto Ramen Bar & Sushi",
      "osm_id": 9221871040,
      "amenity": "restaurant",
      "cuisine": "noodle",
      "wheelchair": "yes",
      "opening_hours": "11:00-20:30",
      "website": "https://www.mikotoramensushi.com",
      "internet_access": "wlan",
      "phone": "+1-682-593-0170",
      "takeaway": "yes",
      "outdoor_seating": "no",
      "delivery": "yes",
      "addr_state": "TX",
      "addr_city": "Southlake",
      "addr_postcode": "76092",
      "addr_street": "West Southlake Boulevard",
      "addr_housenumber": "2310",
      "value": 355.8583097850698
    },
    {
      "id": 211594,
      "geometry": "POINT (-97.14607 33.213991)",
      "poi_name": "Po-K Loco",
      "osm_id": 5164079552,
      "amenity": "restaurant",
      "cuisine": "poke",
      "addr_state": "TX",
      "addr_city": "Denton",
      "addr_postcode": "76201",
      "addr_street": "Avenue A",
      "value": 355.8583097850698
    },
    {
      "id": 213962,
      "geometry": "POINT (-97.199891 32.809557)",
      "poi_name": "Proper Pasta and Pizza",
      "osm_id": 5262660832,
      "amenity": "restaurant",
      "cuisine": "italian;pizza;pasta",
      "opening_hours": "Tu-Th 11:00-21:30, Fr-Sa 11:00-22:00, Su 11:00-21:30",
      "website": "https://www.properpastapizza.com/",
      "phone": "+1-817-616-3356",
      "takeaway": "yes",
      "outdoor_seating": "no",
      "delivery": "yes",
      "addr_state": "TX",
      "addr_city": "Hurst",
      "addr_postcode": "76053",
      "addr_street": "W Hurst Boulevard",
      "addr_housenumber": "1222",
      "value": 355.8583097850698
    },
    {
      "id": 217340,
      "geometry": "POINT (-97.313722 32.91513)",
      "poi_name": "Pei Wei",
      "osm_id": 9217111364,
      "amenity": "restaurant",
      "cuisine": "asian",
      "addr_state": "TX",
      "addr_city": "Fort Worth",
      "addr_postcode": "76177",
      "addr_street": "Heritage Trace Parkway",
      "addr_housenumber": "2901",
      "value": 355.8583097850698
    },
    {
      "id": 217344,
      "geometry": "POINT (-97.311709 32.91506)",
      "poi_name": "Hopdoddy",
      "osm_id": 9217128839,
      "amenity": "restaurant",
      "cuisine": "burger;sandwich;salad;shakes;bar",
      "opening_hours": "Su-Th 11:00-22:00; Fr-Sa 11:00-23:00",
      "website": "https://www.hopdoddy.com/locations/alliance",
      "phone": "+1-682-204-0111",
      "addr_state": "TX",
      "addr_city": "Fort Worth",
      "addr_postcode": "76177",
      "addr_street": "Heritage Trace Parkway",
      "addr_housenumber": "3101",
      "value": 355.8583097850698
    },
    {
      "id": 217353,
      "geometry": "POINT (-97.309065 32.913424)",
      "poi_name": "Piada Italian Street Food",
      "osm_id": 9217185698,
      "amenity": "restaurant",
      "cuisine": "italian",
      "opening_hours": "Mo-Su 10:45-22:00",
      "website": "https://mypiada.com/menu/alliance",
      "phone": "+1-817-741-6484",
      "takeaway": "yes",
      "outdoor_seating": "yes",
      "addr_state": "TX",
      "addr_city": "Fort Worth",
      "addr_postcode": "76177",
      "addr_street": "Heritage Trace Parkway",
      "addr_housenumber": "3300",
      "value": 355.8583097850698
    },
    {
      "id": 217354,
      "geometry": "POINT (-97.308341 32.911794)",
      "poi_name": "Green Tea House",
      "osm_id": 9217195927,
      "amenity": "restaurant",
      "cuisine": "asian",
      "opening_hours": "Su-Th 11:00-21:30; Fr-Sa 11:00-22:00",
      "website": "https://www.greenteahouseonline.com/",
      "phone": "+1-817-750-8888",
      "addr_state": "TX",
      "addr_city": "Fort Worth",
      "addr_postcode": "76177",
      "addr_street": "Texas Sage Trail",
      "addr_housenumber": "3400",
      "value": 355.8583097850698
    },
    {
      "id": 220316,
      "geometry": "POINT (-97.183386 32.801438)",
      "poi_name": "Tom's Asian Bistro",
      "osm_id": 9368884896,
      "amenity": "restaurant",
      "cuisine": "asian",
      "opening_hours": "Th-Tu 10:00-10:00",
      "website": "http://places.singleplatform.com/toms-asian-bistro/menu?ref=google",
      "phone": "+1-817-284-3883",
      "addr_state": "TX",
      "addr_city": "Fort Worth",
      "addr_postcode": "76118",
      "addr_street": "South Precinct Line Road",
      "addr_housenumber": "2977",
      "value": 355.8583097850698
    },
    {
      "id": 232697,
      "geometry": "POINT (-97.187823 32.838029)",
      "poi_name": "Outback Steakhouse",
      "osm_id": 4539465691,
      "amenity": "restaurant",
      "cuisine": "american;steak",
      "opening_hours": "Mo-Th 11:00-22:00; Fr,Sa 11:00-23:00; Su 11:00-21:00",
      "addr_city": "Hurst",
      "addr_postcode": "76053",
      "addr_street": "Airport Freeway",
      "addr_housenumber": "813",
      "value": 355.8583097850698
    },
    {
      "id": 242488,
      "geometry": "POINT (-97.23038 32.99624)",
      "poi_name": "Heimbaker's Market & Deli",
      "osm_id": 7573446558,
      "amenity": "restaurant",
      "cuisine": "sandwich;deli;dessert;ice_cream;regional",
      "opening_hours": "Mo-Th 11:00-19:00, Fr-Sa 10:00-22:00, Su 10:00-17:00",
      "website": "https://heimbakers.com/",
      "phone": "18179171628",
      "drive_through": "no",
      "addr_state": "TX",
      "addr_city": "Roanoke",
      "addr_postcode": "76262",
      "addr_street": "South Oak Street",
      "addr_housenumber": "310",
      "value": 355.8583097850698
    }
  ],
  "answer_type": "loc",
  "question_entities": {
    "[2]": {
      "distance": 160000,
      "text": "160 kilometers"
    },
    "[3]": {
      "main_category": "amenity",
      "sub_category": "hospital",
      "display_name": "Trusted Medical Centers Mansfield, Mansfield, TX",
      "geo_wkt": "POINT (-97.140264 32.590567)",
      "poi": {
        "id": 183178,
        "geometry": "POINT (-97.140264 32.590567)",
        "poi_name": "Trusted Medical Centers Mansfield",
        "osm_id": 10917011336,
        "amenity": "hospital",
        "phone": "+1 817 225 4810",
        "healthcare": "hospital",
        "addr_state": "TX",
        "addr_city": "Mansfield",
        "addr_postcode": "76063",
        "addr_street": "Highway 287 North",
        "addr_housenumber": "1710"
      }
    },
    "[4]": {
      "main_category": "tourism",
      "sub_category": "gallery",
      "display_name": "Gallery 19C, Westlake, TX",
      "geo_wkt": "POINT (-97.174004 32.983278)",
      "poi": {
        "id": 11867,
        "geometry": "POINT (-97.174004 32.983278)",
        "poi_name": "Gallery 19C",
        "osm_id": 11592998741,
        "tourism": "gallery",
        "addr_state": "TX",
        "addr_city": "Westlake",
        "addr_postcode": "76262",
        "addr_street": "Solana Boulevard",
        "addr_housenumber": "1500"
      }
    },
    "[1]": {
      "main_category": "amenity",
      "sub_category": "restaurant"
    }
  },
  "id": 1283,
  "type": "range:towards+loc"
}