{
  "question": "Is there a chance you could find me an italian restaurant, preferably within 110 kilometers from Mentor Civic Arena, Mentor, OH?",
  "sql": "SELECT * FROM pois\nWHERE ST_DWithin(pois.geometry, ST_GeomFromText('POINT (-81.332139 41.698458)',4326)::geography, 110000)\nAND amenity = 'restaurant'\nAND cuisine ILIKE '%italian%';\n",
  "answers": [
    {
      "id": 28619,
      "geometry": "POINT (-81.499024 41.113832)",
      "poi_name": "Dontinos",
      "osm_id": 8244978201,
      "amenity": "restaurant",
      "cuisine": "italian"
    },
    {
      "id": 28838,
      "geometry": "POINT (-80.315312 42.001386)",
      "poi_name": "Mike N Dangelo's Italian",
      "osm_id": 8262841798,
      "amenity": "restaurant",
      "cuisine": "italian",
      "addr_state": "PA",
      "addr_city": "Girard",
      "addr_postcode": "16417",
      "addr_street": "East Main Street",
      "addr_housenumber": "137"
    },
    {
      "id": 29837,
      "geometry": "POINT (-81.843414 41.464101)",
      "poi_name": "Piada Italian Street Food",
      "osm_id": 8327693729,
      "amenity": "restaurant",
      "cuisine": "italian",
      "opening_hours": "Mo-Su 10:45-22:00",
      "website": "https://mypiada.com/",
      "phone": "+1-440-333-1530",
      "addr_state": "OH",
      "addr_city": "Rocky River",
      "addr_postcode": "44116",
      "addr_street": "Center Ridge Road",
      "addr_housenumber": "19925"
    },
    {
      "id": 31433,
      "geometry": "POINT (-81.745377 41.384092)",
      "poi_name": "Piada Italian Street",
      "osm_id": 8423653250,
      "amenity": "restaurant",
      "cuisine": "italian",
      "addr_state": "OH",
      "addr_city": "Parma",
      "addr_postcode": "44129",
      "addr_street": "West Ridgewood Drive",
      "addr_housenumber": "8659"
    },
    {
      "id": 31443,
      "geometry": "POINT (-82.174302 41.463669)",
      "poi_name": "Campana's International Cafe",
      "osm_id": 8423691895,
      "amenity": "restaurant",
      "cuisine": "pizza;italian",
      "addr_street": "W 8th",
      "addr_housenumber": "203"
    },
    {
      "id": 36978,
      "geometry": "POINT (-81.356752 41.152533)",
      "poi_name": "Bricco",
      "osm_id": 2793639793,
      "amenity": "restaurant",
      "cuisine": "italian"
    },
    {
      "id": 45395,
      "geometry": "POINT (-82.542621 41.389492)",
      "poi_name": "Marconi's",
      "osm_id": 3204931470,
      "amenity": "restaurant",
      "cuisine": "italian"
    },
    {
      "id": 48585,
      "geometry": "POINT (-81.437532 41.539541)",
      "poi_name": "Tommy Pastaria",
      "osm_id": 3388679793,
      "amenity": "restaurant",
      "cuisine": "italian"
    },
    {
      "id": 50749,
      "geometry": "POINT (-81.589684 41.483216)",
      "poi_name": "EDWINS Too",
      "osm_id": 3503892410,
      "amenity": "restaurant",
      "cuisine": "french;italian"
    },
    {
      "id": 57829,
      "geometry": "POINT (-81.569572 41.111023)",
      "poi_name": "Piada",
      "osm_id": 5353293226,
      "amenity": "restaurant",
      "cuisine": "italian",
      "wheelchair": "yes",
      "outdoor_seating": "yes"
    },
    {
      "id": 62292,
      "geometry": "POINT (-81.736272 41.344527)",
      "poi_name": "Carrie Cerino's",
      "osm_id": 5562226360,
      "amenity": "restaurant",
      "cuisine": "italian"
    },
    {
      "id": 61592,
      "geometry": "POINT (-81.834093 41.483098)",
      "poi_name": "Stino da Napoli",
      "osm_id": 5525622525,
      "amenity": "restaurant",
      "cuisine": "italian"
    },
    {
      "id": 70154,
      "geometry": "POINT (-81.296132 41.681626)",
      "poi_name": "Zappitelli's",
      "osm_id": 11346900646,
      "amenity": "restaurant",
      "cuisine": "italian;pizza;pasta",
      "website": "https://www.zappitellismentor.com/",
      "phone": "+1 440 352 1185",
      "addr_state": "OH",
      "addr_city": "Mentor",
      "addr_postcode": "44060",
      "addr_street": "Mentor Avenue",
      "addr_housenumber": "9570"
    },
    {
      "id": 65570,
      "geometry": "POINT (-81.694374 41.50148)",
      "poi_name": "Il Venetian",
      "osm_id": 5703125574,
      "amenity": "restaurant",
      "cuisine": "italian"
    },
    {
      "id": 66990,
      "geometry": "POINT (-80.646944 41.024943)",
      "poi_name": "PaPa GeGe's Italian Villa",
      "osm_id": 11218601136,
      "amenity": "restaurant",
      "cuisine": "italian"
    },
    {
      "id": 70216,
      "geometry": "POINT (-81.442415 41.587578)",
      "poi_name": "Dynamic Duo Beverage & Deli",
      "osm_id": 11351262964,
      "amenity": "restaurant",
      "cuisine": "pizza;italian",
      "opening_hours": "Su 10:00-16:00; Mo-Sa 09:00-19:00",
      "phone": "+1 440 585 9000",
      "takeaway": "only",
      "addr_state": "OH",
      "addr_city": "Willoughby Hills",
      "addr_postcode": "44094",
      "addr_street": "Chardon Road",
      "addr_housenumber": "34351"
    },
    {
      "id": 72363,
      "geometry": "POINT (-82.104125 41.367872)",
      "poi_name": "Pasquale's Pasta House",
      "osm_id": 11423466736,
      "amenity": "restaurant",
      "cuisine": "italian"
    },
    {
      "id": 99426,
      "geometry": "POINT (-81.405263 40.886984)",
      "poi_name": "Mama Guzzardi's Italian Restaurant",
      "osm_id": 6551564368,
      "amenity": "restaurant",
      "cuisine": "italian"
    },
    {
      "id": 73106,
      "geometry": "POINT (-80.733449 41.236991)",
      "poi_name": "Salvatore's Italian Grill",
      "osm_id": 9607565169,
      "amenity": "restaurant",
      "cuisine": "italian",
      "website": "https://salvatoreshowland.com",
      "phone": "+1-330-609-7777",
      "addr_state": "OH",
      "addr_city": "Warren",
      "addr_postcode": "44484",
      "addr_street": "East Market Street",
      "addr_housenumber": "8720"
    },
    {
      "id": 73208,
      "geometry": "POINT (-81.499497 40.820654)",
      "poi_name": "Bugsy's Italian Cuisine",
      "osm_id": 9615839000,
      "amenity": "restaurant",
      "cuisine": "italian"
    },
    {
      "id": 88644,
      "geometry": "POINT (-81.452064 41.520856)",
      "poi_name": "Gaetano's",
      "osm_id": 8789740735,
      "amenity": "restaurant",
      "cuisine": "italian",
      "addr_state": "OH",
      "addr_city": "Mayfield Heights",
      "addr_postcode": "44124",
      "addr_street": "Mayfield Road",
      "addr_housenumber": "6261"
    },
    {
      "id": 108852,
      "geometry": "POINT (-81.565005 41.497349)",
      "poi_name": "Marotta's",
      "osm_id": 3637399651,
      "amenity": "restaurant",
      "cuisine": "italian",
      "phone": "+1-216-932-9264",
      "addr_state": "OH",
      "addr_city": "Cleveland Heights",
      "addr_postcode": "44118",
      "addr_street": "Lee Road",
      "addr_housenumber": "2289"
    },
    {
      "id": 106118,
      "geometry": "POINT (-81.364204 41.659673)",
      "poi_name": "Olive Garden",
      "osm_id": 8665518700,
      "amenity": "restaurant",
      "cuisine": "italian",
      "addr_state": "OH",
      "addr_city": "Mentor",
      "addr_postcode": "44060",
      "addr_street": "Mentor Avenue",
      "addr_housenumber": "7740"
    },
    {
      "id": 108910,
      "geometry": "POINT (-81.565158 41.500042)",
      "poi_name": "Joey's Bistro Bar",
      "osm_id": 3639502342,
      "amenity": "restaurant",
      "cuisine": "italian",
      "website": "http://www.joeysbistrobar.com/",
      "phone": "+1-216-932-7777",
      "addr_state": "OH",
      "addr_city": "Cleveland Heights",
      "addr_postcode": "44118",
      "addr_street": "Lee Road",
      "addr_housenumber": "2195"
    },
    {
      "id": 110596,
      "geometry": "POINT (-81.556714 41.313763)",
      "poi_name": "The Tuscan Vine - Italian Restaurant",
      "osm_id": 3709924771,
      "amenity": "restaurant",
      "cuisine": "italian;pizza",
      "opening_hours": "Mo-Su 11:30-21:00",
      "website": "https://www.thetuscanvine.com/",
      "phone": "330-748-0004",
      "addr_state": "Ohio",
      "addr_city": "Sagamore Hills",
      "addr_postcode": "44067",
      "addr_street": "West Aurora Road",
      "addr_housenumber": "500"
    },
    {
      "id": 110709,
      "geometry": "POINT (-81.680974 41.500851)",
      "poi_name": "Cibr\u00e9o Italian Kitchen",
      "osm_id": 3714106977,
      "amenity": "restaurant",
      "cuisine": "italian",
      "wheelchair": "yes",
      "addr_state": "OH",
      "addr_city": "Cleveland",
      "addr_postcode": "44115",
      "addr_street": "Euclid Avenue",
      "addr_housenumber": "1438"
    },
    {
      "id": 110713,
      "geometry": "POINT (-81.597762 41.508545)",
      "poi_name": "Mia Bella",
      "osm_id": 3714130085,
      "amenity": "restaurant",
      "cuisine": "italian",
      "opening_hours": "Mo-Th 16:30-22:00, Fr-Sa 12:00-23:00, Su 12:00-21:00",
      "addr_state": "OH",
      "addr_city": "Cleveland",
      "addr_postcode": "44106",
      "addr_street": "Mayfield Road",
      "addr_housenumber": "12200"
    },
    {
      "id": 116491,
      "geometry": "POINT (-81.901081 41.422172)",
      "poi_name": "Frankie's Italian Cuisine",
      "osm_id": 8944760249,
      "amenity": "restaurant",
      "cuisine": "italian",
      "addr_state": "OH",
      "addr_city": "North Olmsted",
      "addr_postcode": "44070",
      "addr_street": "Great Northern Boulevard",
      "addr_housenumber": "4641"
    },
    {
      "id": 116028,
      "geometry": "POINT (-81.472128 41.640465)",
      "poi_name": "Tuscan Italian Restaurant & Pizzeria",
      "osm_id": 8925115406,
      "amenity": "restaurant",
      "cuisine": "italian",
      "addr_state": "OH",
      "addr_city": "Willowick",
      "addr_postcode": "44095",
      "addr_street": "Lakeshore Boulevard",
      "addr_housenumber": "30610"
    },
    {
      "id": 114886,
      "geometry": "POINT (-81.775227 41.484096)",
      "poi_name": "Pepper's",
      "osm_id": 3900574097,
      "amenity": "restaurant",
      "cuisine": "italian",
      "outdoor_seating": "yes",
      "addr_city": "Lakewood",
      "addr_street": "Detroit Avenue",
      "addr_housenumber": "12401"
    },
    {
      "id": 118840,
      "geometry": "POINT (-81.633161 41.496346)",
      "poi_name": "Chelsey's Restaurant & Carryout",
      "osm_id": 9067340520,
      "amenity": "restaurant",
      "cuisine": "soul_food;seafood;italian",
      "takeaway": "yes",
      "addr_state": "OH",
      "addr_city": "Cleveland",
      "addr_street": "Central Avenue",
      "addr_housenumber": "7907"
    },
    {
      "id": 116645,
      "geometry": "POINT (-81.900233 41.41507)",
      "poi_name": "Romano's Macaroni Grill",
      "osm_id": 8952217543,
      "amenity": "restaurant",
      "cuisine": "italian",
      "addr_state": "OH",
      "addr_city": "North Olmsted",
      "addr_postcode": "44070",
      "addr_street": "Country Club Boulevard",
      "addr_housenumber": "25001"
    },
    {
      "id": 117122,
      "geometry": "POINT (-82.106491 41.397515)",
      "poi_name": "Olive Garden",
      "osm_id": 8977646392,
      "amenity": "restaurant",
      "cuisine": "italian",
      "addr_state": "OH",
      "addr_city": "Elyria",
      "addr_postcode": "44035",
      "addr_street": "West River Road North",
      "addr_housenumber": "1635"
    },
    {
      "id": 117698,
      "geometry": "POINT (-81.498446 41.454672)",
      "poi_name": "Piada Italian Street Food",
      "osm_id": 9006911045,
      "amenity": "restaurant",
      "cuisine": "italian",
      "takeaway": "yes"
    },
    {
      "id": 116590,
      "geometry": "POINT (-81.342813 41.521301)",
      "poi_name": "Gino's",
      "osm_id": 8947854567,
      "amenity": "restaurant",
      "cuisine": "italian",
      "opening_hours": "Mo-Th 16:00-22:00; Fr-Sa 16:00-23:00",
      "website": "https://ginositaliangrill.com/",
      "phone": "+1-440-688-4483",
      "addr_state": "OH",
      "addr_city": "Chesterland",
      "addr_postcode": "44026",
      "addr_street": "Mayfield Road",
      "addr_housenumber": "8389"
    },
    {
      "id": 116738,
      "geometry": "POINT (-81.819102 41.31234)",
      "poi_name": "Romano's Macaroni Grill",
      "osm_id": 8957960554,
      "amenity": "restaurant",
      "cuisine": "italian",
      "addr_state": "OH",
      "addr_city": "Strongsville",
      "addr_postcode": "44136",
      "addr_street": "Southpark Center",
      "addr_housenumber": "17095"
    },
    {
      "id": 116739,
      "geometry": "POINT (-81.81626 41.310134)",
      "poi_name": "Buca di Beppo",
      "osm_id": 8957960592,
      "amenity": "restaurant",
      "cuisine": "italian",
      "addr_state": "OH",
      "addr_city": "Strongsville",
      "addr_postcode": "44136",
      "addr_street": "Southpark Center",
      "addr_housenumber": "16677"
    },
    {
      "id": 117605,
      "geometry": "POINT (-81.497052 41.449024)",
      "poi_name": "Olive Garden",
      "osm_id": 9002181992,
      "amenity": "restaurant",
      "cuisine": "italian",
      "addr_state": "OH",
      "addr_city": "Warrensville Heights",
      "addr_postcode": "44122",
      "addr_street": "Harvard Road",
      "addr_housenumber": "26000"
    },
    {
      "id": 118854,
      "geometry": "POINT (-82.049283 41.503617)",
      "poi_name": "Ibiza",
      "osm_id": 9068022585,
      "amenity": "restaurant",
      "cuisine": "italian",
      "addr_state": "OH",
      "addr_city": "Avon Lake",
      "addr_postcode": "44012",
      "addr_street": "Lake Rd",
      "addr_housenumber": "33481"
    },
    {
      "id": 128664,
      "geometry": "POINT (-81.742829 41.379988)",
      "poi_name": "Olive Garden",
      "osm_id": 8176987324,
      "amenity": "restaurant",
      "cuisine": "italian",
      "addr_state": "OH",
      "addr_city": "Parma",
      "addr_postcode": "44129",
      "addr_street": "Day Drive",
      "addr_housenumber": "8383"
    },
    {
      "id": 119501,
      "geometry": "POINT (-81.478326 41.118615)",
      "poi_name": "Olive Garden",
      "osm_id": 9105684222,
      "amenity": "restaurant",
      "cuisine": "italian",
      "addr_state": "OH",
      "addr_city": "Cuyahoga Falls",
      "addr_postcode": "44221",
      "addr_street": "Howe Avenue",
      "addr_housenumber": "480"
    },
    {
      "id": 131323,
      "geometry": "POINT (-81.526231 40.797348)",
      "poi_name": "Bella Sera",
      "osm_id": 9909951646,
      "amenity": "restaurant",
      "cuisine": "italian"
    },
    {
      "id": 141202,
      "geometry": "POINT (-81.700959 41.459493)",
      "poi_name": "Gargano's",
      "osm_id": 6276876784,
      "amenity": "restaurant",
      "cuisine": "italian"
    },
    {
      "id": 134882,
      "geometry": "POINT (-81.482389 41.13759)",
      "poi_name": "Leo's Italian Social",
      "osm_id": 11494757903,
      "amenity": "restaurant",
      "cuisine": "italian"
    },
    {
      "id": 142127,
      "geometry": "POINT (-81.536997 41.466298)",
      "poi_name": "Scorpacciata Pasta Co.",
      "osm_id": 6303385480,
      "amenity": "restaurant",
      "cuisine": "italian;pasta",
      "opening_hours": "Mo-Sa 11:00-20:00; Su 11:00-16:00",
      "addr_state": "OH",
      "addr_city": "Shaker Heights",
      "addr_postcode": "44122",
      "addr_street": "Tuttle Road",
      "addr_housenumber": "3441"
    },
    {
      "id": 142401,
      "geometry": "POINT (-81.223829 41.283157)",
      "poi_name": "italiano's",
      "osm_id": 6313525522,
      "amenity": "restaurant",
      "cuisine": "italian",
      "phone": "+1-330-274-3152"
    },
    {
      "id": 152398,
      "geometry": "POINT (-81.743575 41.439691)",
      "poi_name": "Aldo's",
      "osm_id": 4142851750,
      "amenity": "restaurant",
      "cuisine": "italian"
    },
    {
      "id": 150291,
      "geometry": "POINT (-81.814719 41.359158)",
      "poi_name": "Santo's",
      "osm_id": 4048902197,
      "amenity": "restaurant",
      "cuisine": "italian"
    },
    {
      "id": 160969,
      "geometry": "POINT (-81.438193 41.643015)",
      "poi_name": "Severino's Restaurant & Lounge",
      "osm_id": 4856509212,
      "amenity": "restaurant",
      "cuisine": "italian",
      "addr_state": "OH",
      "addr_city": "Eastlake",
      "addr_postcode": "44095",
      "addr_street": "Vine Street",
      "addr_housenumber": "35125"
    },
    {
      "id": 173366,
      "geometry": "POINT (-81.343231 41.147864)",
      "poi_name": "Olives",
      "osm_id": 2434607396,
      "amenity": "restaurant",
      "cuisine": "italian",
      "opening_hours": "Mo-Th 08:00-20:00; Fr 08:00-14:00; PH off",
      "website": "https://www.kent.edu/dining/kent-markets",
      "takeaway": "yes",
      "delivery": "no",
      "addr_state": "OH",
      "addr_city": "Kent"
    },
    {
      "id": 166001,
      "geometry": "POINT (-81.84526 41.483486)",
      "poi_name": "Danny Boy's",
      "osm_id": 9569992670,
      "amenity": "restaurant",
      "cuisine": "italian",
      "addr_state": "OH",
      "addr_city": "Rocky River",
      "addr_postcode": "44116",
      "addr_street": "Lake Road",
      "addr_housenumber": "20251"
    },
    {
      "id": 168791,
      "geometry": "POINT (-81.550033 41.583422)",
      "poi_name": "Scotti's Italian Eatery",
      "osm_id": 2278423546,
      "amenity": "restaurant",
      "cuisine": "italian",
      "addr_postcode": "44119",
      "addr_street": "East 185th Street",
      "addr_housenumber": "882"
    },
    {
      "id": 168793,
      "geometry": "POINT (-81.44186 41.586874)",
      "poi_name": "Mario Fazio's Italian Restaurant",
      "osm_id": 2278440343,
      "amenity": "restaurant",
      "cuisine": "italian",
      "addr_state": "OH",
      "addr_city": "Willoughby Hills",
      "addr_postcode": "44094",
      "addr_street": "Chardon Road",
      "addr_housenumber": "34400"
    },
    {
      "id": 171664,
      "geometry": "POINT (-81.704239 41.500747)",
      "poi_name": "Lago East Bank",
      "osm_id": 2383674273,
      "amenity": "restaurant",
      "cuisine": "italian",
      "addr_state": "OH",
      "addr_city": "Cleveland",
      "addr_postcode": "44113",
      "addr_street": "West 10th Street",
      "addr_housenumber": "1091"
    },
    {
      "id": 188330,
      "geometry": "POINT (-81.209753 41.582863)",
      "poi_name": "Joey's Italian Grille",
      "osm_id": 1141044644,
      "amenity": "restaurant",
      "cuisine": "italian"
    },
    {
      "id": 177305,
      "geometry": "POINT (-81.537901 41.502448)",
      "poi_name": "Piada Italian Street Food",
      "osm_id": 2582557345,
      "amenity": "restaurant",
      "cuisine": "italian",
      "takeaway": "yes",
      "addr_state": "OH",
      "addr_city": "South Euclid",
      "addr_postcode": "44118",
      "addr_street": "Cedar Road",
      "addr_housenumber": "13947"
    },
    {
      "id": 177322,
      "geometry": "POINT (-80.141808 42.080314)",
      "poi_name": "Ringside",
      "osm_id": 2583051316,
      "amenity": "restaurant",
      "cuisine": "italian",
      "addr_state": "PA",
      "addr_city": "Erie",
      "addr_postcode": "16506",
      "addr_street": "Sterrettania Road",
      "addr_housenumber": "3202"
    },
    {
      "id": 189323,
      "geometry": "POINT (-81.499125 41.463954)",
      "poi_name": "Giovanni's",
      "osm_id": 1226822906,
      "amenity": "restaurant",
      "cuisine": "italian"
    },
    {
      "id": 192450,
      "geometry": "POINT (-81.909994 41.420904)",
      "poi_name": "Olive Garden",
      "osm_id": 1447446980,
      "amenity": "restaurant",
      "cuisine": "italian",
      "addr_state": "OH",
      "addr_city": "North Olmsted",
      "addr_postcode": "44070",
      "addr_street": "Lorain Road",
      "addr_housenumber": "25984"
    },
    {
      "id": 192452,
      "geometry": "POINT (-81.282704 41.673878)",
      "poi_name": "PnP Pizzeria",
      "osm_id": 1447449409,
      "amenity": "restaurant",
      "cuisine": "italian"
    },
    {
      "id": 211947,
      "geometry": "POINT (-81.608466 41.036426)",
      "poi_name": "Tomaso's",
      "osm_id": 5180845226,
      "amenity": "restaurant",
      "cuisine": "italian"
    },
    {
      "id": 202367,
      "geometry": "POINT (-81.393442 41.432322)",
      "poi_name": "M Italian",
      "osm_id": 7021948284,
      "amenity": "restaurant",
      "cuisine": "italian;italian_pizza",
      "opening_hours": "Mo-Fr 11:00-22:00; Sa,Su 10:00-22:00",
      "website": "https://www.mitalian.com/",
      "phone": "+1 440 247 7474",
      "addr_state": "OH",
      "addr_city": "Chagrin Falls",
      "addr_postcode": "44022",
      "addr_street": "West Orange Street",
      "addr_housenumber": "22"
    },
    {
      "id": 211471,
      "geometry": "POINT (-81.598069 41.508542)",
      "poi_name": "La Dolce Vita",
      "osm_id": 5159109239,
      "amenity": "restaurant",
      "cuisine": "italian",
      "wheelchair": "limited",
      "website": "http://ladolcevitamurrayhill.com/",
      "phone": "+1 216 721 8155",
      "addr_state": "OH",
      "addr_city": "Cleveland",
      "addr_postcode": "44106",
      "addr_street": "Mayfield Road",
      "addr_housenumber": "12112"
    },
    {
      "id": 192494,
      "geometry": "POINT (-81.442233 41.242032)",
      "poi_name": "Tomato Grill",
      "osm_id": 1455179687,
      "amenity": "restaurant",
      "cuisine": "italian"
    },
    {
      "id": 203759,
      "geometry": "POINT (-81.46308 41.073088)",
      "poi_name": "Italian Garden",
      "osm_id": 7099276815,
      "amenity": "restaurant",
      "cuisine": "italian;pizza;chicken",
      "outdoor_seating": "no",
      "addr_state": "OH",
      "addr_city": "Akron",
      "addr_postcode": "44305",
      "addr_street": "Goodyear Boulevard",
      "addr_housenumber": "1730"
    },
    {
      "id": 207770,
      "geometry": "POINT (-81.821383 41.137916)",
      "poi_name": "Santo Suossos",
      "osm_id": 4960581721,
      "amenity": "restaurant",
      "cuisine": "italian_pizza;italian",
      "internet_access": "wlan"
    },
    {
      "id": 211708,
      "geometry": "POINT (-80.648581 41.100301)",
      "poi_name": "Bistro 1907",
      "osm_id": 5168435320,
      "amenity": "restaurant",
      "cuisine": "italian"
    },
    {
      "id": 225416,
      "geometry": "POINT (-80.662142 40.992023)",
      "poi_name": "Belleria Pizza & Italian Restaurant",
      "osm_id": 11126141113,
      "amenity": "restaurant",
      "cuisine": "italian;pizza",
      "phone": "+1-330-879-8916",
      "takeaway": "yes",
      "delivery": "yes",
      "addr_state": "OH",
      "addr_city": "Boardman",
      "addr_postcode": "44512",
      "addr_street": "Market Street",
      "addr_housenumber": "8485"
    },
    {
      "id": 212417,
      "geometry": "POINT (-81.713512 41.47136)",
      "poi_name": "Bruno's",
      "osm_id": 5206532720,
      "amenity": "restaurant",
      "cuisine": "italian"
    },
    {
      "id": 214769,
      "geometry": "POINT (-81.8531 41.389933)",
      "poi_name": "Donte's Restaurant & Pizza",
      "osm_id": 5280700557,
      "amenity": "restaurant",
      "cuisine": "italian",
      "opening_hours": "Mo-Sa 10:00-00:30; Su 12:00-23:30",
      "takeaway": "yes",
      "addr_state": "OH",
      "addr_city": "Berea",
      "addr_postcode": "44017",
      "addr_street": "Sheldon Road",
      "addr_housenumber": "20850"
    },
    {
      "id": 216378,
      "geometry": "POINT (-81.360636 41.657514)",
      "poi_name": "Villa Fresh Italian Kitchen",
      "osm_id": 9170095794,
      "amenity": "restaurant",
      "cuisine": "italian"
    },
    {
      "id": 231918,
      "geometry": "POINT (-81.517845 41.600012)",
      "poi_name": "Mama Catena Vino e Cucina",
      "osm_id": 4497467967,
      "amenity": "restaurant",
      "cuisine": "italian",
      "phone": "+1-216-261-1168",
      "addr_state": "OH",
      "addr_city": "Euclid",
      "addr_postcode": "44123",
      "addr_street": "Babbitt Road",
      "addr_housenumber": "711"
    },
    {
      "id": 227873,
      "geometry": "POINT (-81.683581 41.366792)",
      "poi_name": "Eddie Cerino's",
      "osm_id": 4320098656,
      "amenity": "restaurant",
      "cuisine": "italian"
    },
    {
      "id": 233744,
      "geometry": "POINT (-81.717716 41.36493)",
      "poi_name": "Stancato's",
      "osm_id": 4585637274,
      "amenity": "restaurant",
      "cuisine": "italian"
    },
    {
      "id": 233378,
      "geometry": "POINT (-81.735327 41.383466)",
      "poi_name": "Antonio's",
      "osm_id": 4570963090,
      "amenity": "restaurant",
      "cuisine": "italian",
      "website": "https://www.antoniosparmatown.net/",
      "addr_state": "OH",
      "addr_city": "Parma",
      "addr_postcode": "44129",
      "addr_street": "West Ridgewood Drive",
      "addr_housenumber": "7401"
    },
    {
      "id": 237521,
      "geometry": "POINT (-80.151868 41.638118)",
      "poi_name": "Mannino Italian Garden",
      "osm_id": 5837050693,
      "amenity": "restaurant",
      "cuisine": "italian",
      "addr_state": "PA",
      "addr_city": "Meadville",
      "addr_postcode": "16335",
      "addr_street": "Chestnut Street",
      "addr_housenumber": "283"
    },
    {
      "id": 235472,
      "geometry": "POINT (-81.952354 41.459787)",
      "poi_name": "Brio",
      "osm_id": 5757227220,
      "amenity": "restaurant",
      "cuisine": "italian"
    },
    {
      "id": 239812,
      "geometry": "POINT (-81.374263 41.65499)",
      "poi_name": "TJ\u2019s on the Avenue",
      "osm_id": 5939968095,
      "amenity": "restaurant",
      "cuisine": "italian",
      "opening_hours": "Mo-Th 11:00-21:30; Fr 12:00-22:00; Sa 12:00-22:00; Su 12:00-21:00",
      "addr_street": "Mentor Avenue",
      "addr_housenumber": "7485"
    }
  ],
  "answer_type": "name",
  "question_entities": {
    "[1]": {
      "main_category": "amenity",
      "sub_category": "restaurant",
      "poi_filter_desc": "italian restaurant",
      "poi_filter_sql": "cuisine ILIKE '%italian%'"
    },
    "[2]": {
      "distance": 110000,
      "text": "110 kilometers"
    },
    "[3]": {
      "main_category": "leisure",
      "sub_category": "stadium",
      "display_name": "Mentor Civic Arena, Mentor, OH",
      "geo_wkt": "POINT (-81.332139 41.698458)",
      "poi": {
        "id": 246704,
        "geometry": "POINT (-81.332139 41.698458)",
        "poi_name": "Mentor Civic Arena",
        "osm_id": 8842654476,
        "leisure": "stadium",
        "operator": "City of Mentor",
        "addr_state": "OH",
        "addr_city": "Mentor",
        "addr_postcode": "44060",
        "addr_street": "Munson Road",
        "addr_housenumber": "8600"
      }
    }
  },
  "id": 531,
  "type": "range:non_spat_filter+name"
}