{
  "question": "How distant can I find a hospital positioned from Cal, Sr.'s Yard, Aberdeen, MD within 150 kilometers?",
  "sql": "SELECT *, ST_Distance(ST_GeomFromText('POINT (-76.186327 39.533089)',4326)::geography, pois.geometry) AS distance FROM pois\nWHERE ST_DWithin(pois.geometry, ST_GeomFromText('POINT (-76.186327 39.533089)',4326)::geography, 150000)\nAND amenity = 'hospital';\n",
  "answers": [
    {
      "id": 32557,
      "geometry": "POINT (-77.097203 40.097515)",
      "poi_name": "Shipley Health Lodge",
      "osm_id": 2629289562,
      "amenity": "hospital",
      "operator": "Camp Tuckahoe",
      "healthcare": "centre",
      "emergency": "no",
      "distance": 100049.90464197
    },
    {
      "id": 41532,
      "geometry": "POINT (-76.663402 39.458755)",
      "poi_name": "Mays Chapel Medical Care Center",
      "osm_id": 3019370509,
      "amenity": "hospital",
      "operator": "Lifebridge Health",
      "website": "https://www.lifebridgehealth.org/Main/MaysChapelMedicalCareCenters.aspx",
      "addr_state": "MD",
      "addr_city": "Lutherville",
      "addr_postcode": "21093",
      "addr_street": "Tullamore Road",
      "addr_housenumber": "12221",
      "distance": 41858.8202416
    },
    {
      "id": 58090,
      "geometry": "POINT (-75.170242 39.926551)",
      "poi_name": "Kindred Hospital South Philadelphia",
      "osm_id": 5363966655,
      "amenity": "hospital",
      "operator": "Kindred Healthcare",
      "website": "https://www.kindredhealthcare.com/locations/transitional-care-hospitals/kindred-hospital-south-philadelphia",
      "phone": "+1 267 570 5200",
      "healthcare": "hospital",
      "emergency": "no",
      "addr_city": "Philadelphia",
      "addr_postcode": "19145",
      "addr_street": "South Broad Street",
      "addr_housenumber": "1930",
      "distance": 97448.26129024
    },
    {
      "id": 59789,
      "geometry": "POINT (-77.263504 39.179645)",
      "poi_name": "Germantown Emergency Center",
      "osm_id": 5443163302,
      "amenity": "hospital",
      "healthcare": "hospital",
      "addr_street": "Germantown Road",
      "addr_housenumber": "19731",
      "distance": 100793.12185441
    },
    {
      "id": 64233,
      "geometry": "POINT (-74.58506 39.977622)",
      "poi_name": "Capital Health at Deborah - Emergency Department",
      "osm_id": 5645807821,
      "amenity": "hospital",
      "opening_hours": "24/7",
      "operator": "Capital Health",
      "website": "https://demanddeborah.org/capital-health-at-deborah-emergency-services/",
      "healthcare": "hospital",
      "emergency": "yes",
      "addr_state": "NJ",
      "addr_city": "Browns Mills",
      "addr_postcode": "08015",
      "addr_street": "Trenton Road",
      "addr_housenumber": "200",
      "distance": 145828.59424835
    },
    {
      "id": 64240,
      "geometry": "POINT (-74.918049 39.881595)",
      "poi_name": "Weisman Children's Rehabilitation Hospital",
      "osm_id": 5646128627,
      "amenity": "hospital",
      "operator": "Weisman Children's",
      "website": "https://www.weismanchildrens.com/",
      "phone": "+1 856 489 4520",
      "healthcare": "hospital",
      "emergency": "no",
      "addr_city": "Marlton",
      "addr_postcode": "08053",
      "addr_street": "Brick Road",
      "addr_housenumber": "92",
      "distance": 115440.7791036
    },
    {
      "id": 64769,
      "geometry": "POINT (-75.134636 39.981762)",
      "poi_name": "Kensington Hospital",
      "osm_id": 5670226220,
      "amenity": "hospital",
      "website": "https://kensingtonhospital.org/",
      "phone": "+1-215-426-8100",
      "healthcare": "hospital",
      "emergency": "no",
      "addr_city": "Philadelphia",
      "addr_postcode": "19122",
      "addr_street": "Diamond Street",
      "addr_housenumber": "136",
      "distance": 102975.33754239
    },
    {
      "id": 64814,
      "geometry": "POINT (-74.885055 40.181013)",
      "poi_name": "Barix Clinics",
      "osm_id": 5672721040,
      "amenity": "hospital",
      "website": "https://www.barixclinics.com/bariatric-surgery-pennsylvania",
      "phone": "+1 267 572 3100",
      "healthcare": "hospital",
      "emergency": "no",
      "addr_city": "Langhorne",
      "addr_postcode": "19047",
      "addr_street": "Middletown Boulevard",
      "addr_housenumber": "280",
      "distance": 132567.1040555
    },
    {
      "id": 94858,
      "geometry": "POINT (-77.01478 38.92995)",
      "poi_name": "Washington Hospital",
      "osm_id": 6377041085,
      "amenity": "hospital",
      "healthcare": "hospital",
      "distance": 97980.9673805
    },
    {
      "id": 95401,
      "geometry": "POINT (-77.234714 39.825123)",
      "poi_name": "Gettysburg Hospital ER Entrance",
      "osm_id": 6394945930,
      "amenity": "hospital",
      "operator": "WellSpan Health",
      "healthcare": "hospital",
      "emergency": "yes",
      "addr_state": "PA",
      "addr_city": "Gettysburg",
      "addr_postcode": "17325",
      "addr_street": "Gettys Street",
      "addr_housenumber": "147",
      "distance": 95608.56450288
    },
    {
      "id": 102561,
      "geometry": "POINT (-76.697845 39.284338)",
      "poi_name": "Former Gundry/Glass Hospital (Grand Gundry Sanitarium)",
      "osm_id": 6684786152,
      "amenity": "hospital",
      "healthcare": "hospital",
      "addr_state": "MD",
      "addr_city": "Baltimore",
      "addr_postcode": "21229",
      "addr_street": "North Wickham",
      "addr_housenumber": "2",
      "distance": 51995.47658024
    },
    {
      "id": 115288,
      "geometry": "POINT (-75.747899 40.810354)",
      "poi_name": "Lehigh Valley Hospital - Carbon",
      "osm_id": 8888300330,
      "amenity": "hospital",
      "operator": "Lehigh Valley Health Network",
      "healthcare": "hospital",
      "emergency": "yes",
      "addr_state": "PA",
      "addr_city": "Lehighton",
      "addr_postcode": "18235",
      "addr_street": "E Blakeslee BLVD DR",
      "addr_housenumber": "2128",
      "distance": 146658.67597888
    },
    {
      "id": 115289,
      "geometry": "POINT (-75.725971 40.833095)",
      "poi_name": "St Luke's Hospital - Lehighton Campus",
      "osm_id": 8888314655,
      "amenity": "hospital",
      "operator": "St Luke's University Health Network",
      "healthcare": "hospital",
      "emergency": "yes",
      "addr_state": "PA",
      "addr_city": "Lehighton",
      "addr_postcode": "18235",
      "addr_street": "N 12th ST",
      "addr_housenumber": "211",
      "distance": 149579.14952157
    },
    {
      "id": 115290,
      "geometry": "POINT (-75.725738 40.833943)",
      "poi_name": "The Summit Nursing & Rehabilitation Center",
      "osm_id": 8888314656,
      "amenity": "hospital",
      "operator": "St Luke's University Health Network",
      "healthcare": "hospital",
      "emergency": "no",
      "addr_state": "PA",
      "addr_city": "Lehighton",
      "addr_postcode": "18235",
      "addr_street": "N 12th ST",
      "addr_housenumber": "211",
      "distance": 149675.20526359
    },
    {
      "id": 120254,
      "geometry": "POINT (-76.179388 40.179812)",
      "poi_name": "Align Pregnancy Services Ephrata",
      "osm_id": 6697951088,
      "amenity": "hospital",
      "description": "Pregnancy resource center in Ephrata, PA. All services are 100% free: Free pregnancy tests, limited 1st trimester ultrasounds, abortion info, and practical help.",
      "wheelchair": "limited",
      "opening_hours": "Mo-Tu 09:00-20:00, We 9:00-12:00, Th 9:00-17:00",
      "operator": "Align Pregnancy Services",
      "website": "https://alignpregnancyservices.com/locations/ephrata-pregnancy-services/",
      "phone": "+1-717-733-9440",
      "healthcare": "hospital",
      "addr_state": "PA",
      "addr_city": "Ephrata",
      "addr_postcode": "17522",
      "addr_street": "West Main Street",
      "addr_housenumber": "112",
      "distance": 71809.32362289
    },
    {
      "id": 123316,
      "geometry": "POINT (-75.599564 39.969582)",
      "poi_name": "West Chester Cardiology",
      "osm_id": 6848366733,
      "amenity": "hospital",
      "website": "https://westchestercardiology.com",
      "phone": "+1 610-692-4382",
      "healthcare": "hospital",
      "addr_state": "PA",
      "addr_city": "West Chester",
      "addr_postcode": "19380",
      "addr_street": "Maple Avenue",
      "addr_housenumber": "531",
      "distance": 69839.07282519
    },
    {
      "id": 130141,
      "geometry": "POINT (-76.478714 39.351819)",
      "poi_name": "MedStar Franklin Square Medical Center",
      "osm_id": 9856193250,
      "amenity": "hospital",
      "healthcare": "hospital",
      "addr_state": "Maryland",
      "addr_city": "Rosedale",
      "addr_postcode": "21237",
      "addr_street": "Franklin Square Drive",
      "addr_housenumber": "9000",
      "distance": 32226.56981433
    },
    {
      "id": 144995,
      "geometry": "POINT (-75.32534 40.36419)",
      "poi_name": "Penn Foundation",
      "osm_id": 7299435868,
      "amenity": "hospital",
      "healthcare": "hospital",
      "distance": 118021.33966287
    },
    {
      "id": 145309,
      "geometry": "POINT (-77.310262 38.838116)",
      "poi_name": "INOVA Emergency Room",
      "osm_id": 7337767657,
      "amenity": "hospital",
      "healthcare": "hospital",
      "distance": 124025.55629717
    },
    {
      "id": 147646,
      "geometry": "POINT (-74.777678 40.230248)",
      "poi_name": "Capital Health Mercer Campus (former)",
      "osm_id": 7551913197,
      "amenity": "hospital",
      "healthcare": "hospital",
      "distance": 143215.37264155
    },
    {
      "id": 167461,
      "geometry": "POINT (-75.155019 39.94802)",
      "poi_name": "Wills Eye Hospital",
      "osm_id": 357374314,
      "amenity": "hospital",
      "opening_hours": "24/7",
      "website": "https://www.willseye.org/",
      "phone": "+1 215 928 3000",
      "healthcare": "hospital",
      "emergency": "yes",
      "wikidata": "Q8022473",
      "addr_city": "Philadelphia",
      "addr_postcode": "19107",
      "addr_street": "Walnut Street",
      "addr_housenumber": "840",
      "distance": 99683.20426557
    },
    {
      "id": 167462,
      "geometry": "POINT (-75.922219 40.403232)",
      "poi_name": "KidsPeace Berks Campus",
      "osm_id": 357382533,
      "amenity": "hospital",
      "website": "https://www.kidspeace.org/pa-community-programs/",
      "phone": "+1 610 929 4670",
      "healthcare": "hospital",
      "emergency": "no",
      "addr_city": "Temple",
      "addr_postcode": "19560",
      "addr_street": "Hay Road",
      "addr_housenumber": "704",
      "distance": 99215.06823056
    },
    {
      "id": 167595,
      "geometry": "POINT (-76.06468 38.540962)",
      "poi_name": "Eastern Shore Hospital Center",
      "osm_id": 358244539,
      "amenity": "hospital",
      "website": "http://dhmh.maryland.gov/ESHC/",
      "phone": "+1 410 221 2300",
      "healthcare": "hospital",
      "emergency": "no",
      "wikidata": "Q5330450",
      "addr_city": "Cambridge",
      "addr_postcode": "21613",
      "addr_street": "Woods Road",
      "addr_housenumber": "5262",
      "distance": 110644.59439103
    },
    {
      "id": 167750,
      "geometry": "POINT (-77.059422 38.903445)",
      "poi_name": "Mule Hospital",
      "osm_id": 358955146,
      "amenity": "hospital",
      "healthcare": "hospital",
      "distance": 102817.1988045
    },
    {
      "id": 167751,
      "geometry": "POINT (-76.9954 38.8923)",
      "poi_name": "The Specialty Hospital of Washington",
      "osm_id": 358961249,
      "amenity": "hospital",
      "historic": "yes",
      "healthcare": "hospital",
      "addr_state": "DC",
      "addr_city": "Washington",
      "addr_postcode": "20002",
      "addr_street": "Constitution Avenue Northeast",
      "addr_housenumber": "700",
      "distance": 99717.05741733
    },
    {
      "id": 181048,
      "geometry": "POINT (-77.553152 38.939234)",
      "poi_name": "Encompass Health Rehabilitation Hospital of Northern Virginia",
      "osm_id": 10830711476,
      "amenity": "hospital",
      "website": "https://encompasshealth.com/northernvirginiarehab",
      "phone": "+1 703-957-2000",
      "healthcare": "rehabilitation",
      "distance": 135174.32308114
    },
    {
      "id": 181081,
      "geometry": "POINT (-76.767275 39.192561)",
      "poi_name": "Sheppard Pratt - Baltimore - Washington Campus",
      "osm_id": 10832075078,
      "amenity": "hospital",
      "website": "https://www.sheppardpratt.org",
      "phone": "+1 410 465 3322",
      "addr_state": "MD",
      "addr_city": "Elkridge",
      "addr_postcode": "21075",
      "addr_street": "Discovery Drive",
      "addr_housenumber": "7220",
      "distance": 62737.74129855
    },
    {
      "id": 181082,
      "geometry": "POINT (-75.548624 38.369241)",
      "poi_name": "Encompass Health Rehab Hospital Of Salisbury",
      "osm_id": 10832075153,
      "amenity": "hospital",
      "website": "https://encompasshealth.com/locations/salisburyrehab",
      "phone": "+1 410 546 4600",
      "healthcare": "rehabilitation",
      "addr_city": "Salisbury",
      "addr_postcode": "21804",
      "addr_street": "Tilghman Road",
      "addr_housenumber": "220",
      "distance": 140531.93076714
    },
    {
      "id": 181083,
      "geometry": "POINT (-76.057991 38.549454)",
      "poi_name": "A H C Behavioral Health And Wellness Services - Es",
      "osm_id": 10832109898,
      "amenity": "hospital",
      "phone": "+1 410 221 0288",
      "addr_city": "Cambridge",
      "addr_postcode": "21613",
      "addr_street": "Fieldcrest Drive",
      "addr_housenumber": "821",
      "distance": 109763.29091536
    },
    {
      "id": 181085,
      "geometry": "POINT (-76.55768 38.978327)",
      "poi_name": "Luminis Health J Kent Mcnew Family Medical Center",
      "osm_id": 10832110093,
      "amenity": "hospital",
      "website": "https://aahs.org/locations/j--kent-mcnew-family-medical-center",
      "phone": "+1 443 481 1000",
      "distance": 69431.04443697
    },
    {
      "id": 181221,
      "geometry": "POINT (-75.677522 39.453434)",
      "poi_name": "Encompass Health Rehabilitation Hospital Of Middletown",
      "osm_id": 10836136519,
      "amenity": "hospital",
      "website": "https://encompasshealth.com/locations/middletownrehab",
      "phone": "+1 484 889 9815",
      "healthcare": "rehabilitation",
      "addr_state": "DE",
      "addr_city": "Middletown",
      "addr_postcode": "19709",
      "addr_street": "East Hampden Road",
      "addr_housenumber": "250",
      "distance": 44652.71298311
    },
    {
      "id": 181223,
      "geometry": "POINT (-75.408034 38.699082)",
      "poi_name": "Sun Behavioral Delaware",
      "osm_id": 10836137936,
      "amenity": "hospital",
      "phone": "+1 302 604 5600",
      "healthcare": "rehabilitation",
      "distance": 114469.42163204
    },
    {
      "id": 181224,
      "geometry": "POINT (-75.629344 39.639728)",
      "poi_name": "Meadowwood Behavioral Health System",
      "osm_id": 10836152451,
      "amenity": "hospital",
      "phone": "+1 302 328 3330",
      "addr_city": "New Castle",
      "addr_postcode": "19720",
      "addr_street": "South Dupont Highway",
      "addr_housenumber": "575",
      "distance": 49291.65599198
    },
    {
      "id": 181225,
      "geometry": "POINT (-75.555492 39.177084)",
      "poi_name": "Pam Rehab Hospital Of Dover",
      "osm_id": 10836155513,
      "amenity": "hospital",
      "phone": "+1 302 672 5800",
      "healthcare": "rehabilitation",
      "addr_state": "DE",
      "addr_city": "Dover",
      "addr_postcode": "19904",
      "addr_street": "McKee Road",
      "addr_housenumber": "1240",
      "distance": 67220.04636201
    },
    {
      "id": 181226,
      "geometry": "POINT (-75.549662 39.751464)",
      "poi_name": "Christiana Care Health Services - Wilmington Hospital",
      "osm_id": 10836162788,
      "amenity": "hospital",
      "operator": "ChristianaCare",
      "phone": "+1 302 320 2229",
      "healthcare": "hospital",
      "addr_state": "DE",
      "addr_city": "Wilmington",
      "addr_postcode": "19899",
      "addr_street": "West 14th Street",
      "addr_housenumber": "501",
      "distance": 59786.65764833
    },
    {
      "id": 181331,
      "geometry": "POINT (-75.420109 40.657591)",
      "poi_name": "Lehigh Valley Hospital-Muhlenberg",
      "osm_id": 10840896225,
      "amenity": "hospital",
      "website": "https://www.lvhn.org/facilities_directions/hospital_locations/lehigh_valley_hospital_muhlenberg",
      "phone": "+1 484 888 5845",
      "addr_state": "PA",
      "addr_city": "Bethlehem",
      "addr_postcode": "18017",
      "addr_street": "Schoenersville Road",
      "addr_housenumber": "2545",
      "distance": 140921.82739966
    },
    {
      "id": 181335,
      "geometry": "POINT (-75.509187 40.008376)",
      "poi_name": "Devereux Children's Behavioral Health Institute",
      "osm_id": 10840923890,
      "amenity": "hospital",
      "phone": "+1 610 296 6820",
      "addr_state": "PA",
      "addr_city": "Malvern",
      "addr_postcode": "19355",
      "addr_street": "Sugartown Road",
      "addr_housenumber": "655",
      "distance": 78426.03569747
    },
    {
      "id": 181337,
      "geometry": "POINT (-75.463855 40.592608)",
      "poi_name": "The Good Shepherd Rehabilitation Hospital",
      "osm_id": 10840926126,
      "amenity": "hospital",
      "website": "https://www.goodshepherdrehab.org",
      "phone": "+1 610 776 3100",
      "healthcare": "rehabilitation",
      "addr_state": "PA",
      "addr_city": "Allentown",
      "addr_postcode": "18103",
      "addr_street": "South Fifth Street",
      "addr_housenumber": "850",
      "distance": 132812.46456293
    },
    {
      "id": 181369,
      "geometry": "POINT (-75.683505 40.012309)",
      "poi_name": "Saint John Vianney Center",
      "osm_id": 10844645658,
      "amenity": "hospital",
      "website": "https://www.sjvcenter.org",
      "phone": "+1 610-269-2600",
      "healthcare": "hospital",
      "addr_state": "PA",
      "addr_city": "Downingtown",
      "addr_postcode": "19335",
      "addr_street": "Woodbine Road",
      "addr_housenumber": "151",
      "distance": 68461.13036084
    },
    {
      "id": 181371,
      "geometry": "POINT (-76.686928 40.272998)",
      "poi_name": "Penn State Health Rehabilitation Hospital",
      "osm_id": 10844680376,
      "amenity": "hospital",
      "website": "https://www.psh-rehab.com",
      "phone": "+1 717 832 2600",
      "healthcare": "rehabilitation",
      "addr_state": "PA",
      "addr_city": "Hummelstown",
      "addr_postcode": "17036",
      "addr_street": "West Old Chocolate Avenue",
      "addr_housenumber": "1135",
      "distance": 92637.98125629
    },
    {
      "id": 181372,
      "geometry": "POINT (-75.613466 40.648775)",
      "poi_name": "Kidspeace Orchard Hills Campus",
      "osm_id": 10844680518,
      "amenity": "hospital",
      "website": "https://www.kidspeace.org/pa-psychiatric-hospital",
      "phone": "+1 610 799 8490",
      "addr_state": "PA",
      "addr_city": "Orefield",
      "addr_postcode": "18069",
      "addr_street": "Kids Peace Drive",
      "addr_housenumber": "5300",
      "distance": 133165.85503601
    },
    {
      "id": 181375,
      "geometry": "POINT (-76.092002 40.641724)",
      "poi_name": "Geisinger Saint Luke's Hospital",
      "osm_id": 10844701772,
      "amenity": "hospital",
      "phone": "+1 272 639 4990",
      "healthcare": "hospital",
      "addr_state": "PA",
      "addr_city": "Orwigsburg",
      "addr_postcode": "17961",
      "addr_street": "Paramount Boulevard",
      "addr_housenumber": "100",
      "distance": 123361.29584159
    },
    {
      "id": 181376,
      "geometry": "POINT (-75.184168 40.011821)",
      "poi_name": "Haven Behavioral Hospital Of Philadelphia",
      "osm_id": 10844708981,
      "amenity": "hospital",
      "website": "https://www.havenphiladelphia.com",
      "phone": "+1 215 475 3400",
      "addr_state": "PA",
      "addr_city": "Philadelphia",
      "addr_postcode": "19129",
      "addr_street": "Henry Avenue",
      "addr_housenumber": "3300",
      "distance": 100981.79983038
    },
    {
      "id": 181380,
      "geometry": "POINT (-76.984018 40.283975)",
      "poi_name": "PAM Specialty Hospital Of Rocky Mount",
      "osm_id": 10844721972,
      "amenity": "hospital",
      "website": "https://pamhealth.com/facilities/find-facility/specialty-hospitals/PAM-Specialty-Hospital-of-Rocky-Mount",
      "phone": "+1 252 451 2300",
      "addr_state": "PA",
      "addr_city": "Enola",
      "addr_postcode": "17025",
      "addr_street": "Good Hope Road",
      "addr_housenumber": "1828",
      "distance": 107718.40910069
    },
    {
      "id": 181381,
      "geometry": "POINT (-76.973968 40.211206)",
      "poi_name": "Encompass Health Rehabilitation Hospital Of Mechanicsburg",
      "osm_id": 10844725885,
      "amenity": "hospital",
      "website": "https://encompasshealth.com/locations/mechanicsburgrehab",
      "phone": "+1 717 691 3700",
      "healthcare": "rehabilitation",
      "addr_state": "PA",
      "addr_city": "Mechanicsburg",
      "addr_postcode": "17055",
      "addr_street": "Lancaster Boulevard",
      "addr_housenumber": "175",
      "distance": 101042.30986519
    },
    {
      "id": 181383,
      "geometry": "POINT (-75.529233 40.612754)",
      "poi_name": "LVH Coordinated Allentown",
      "osm_id": 10844729895,
      "amenity": "hospital",
      "website": "https://www.lvhn.org/locations/lehigh-valley-health-network-1503-n-cedar-crest",
      "phone": "+1 610 871 9110",
      "addr_state": "PA",
      "addr_city": "Allentown",
      "addr_postcode": "18104",
      "addr_street": "Cedar Crest Boulevard",
      "addr_housenumber": "1503",
      "distance": 132337.31652913
    },
    {
      "id": 181386,
      "geometry": "POINT (-75.925389 40.338004)",
      "poi_name": "Haven Behavioral Hospital Of Eastern Pennsylvania",
      "osm_id": 10844735246,
      "amenity": "hospital",
      "website": "https://www.havenreading.com",
      "phone": "+1 610 406 4340",
      "addr_state": "PA",
      "addr_city": "Reading",
      "addr_postcode": "19601",
      "addr_street": "North 6th Street",
      "addr_housenumber": "145",
      "distance": 92113.27990414
    },
    {
      "id": 185512,
      "geometry": "POINT (-77.910266 39.414484)",
      "poi_name": "Hope Center",
      "osm_id": 7861653984,
      "amenity": "hospital",
      "healthcare": "hospital",
      "distance": 148918.52664711
    },
    {
      "id": 182639,
      "geometry": "POINT (-75.073496 39.789539)",
      "poi_name": "Northbrook Behavioral Health Hospital",
      "osm_id": 10897778441,
      "amenity": "hospital",
      "website": "https://www.northbrookbhh.com",
      "phone": "+1 856 374 6500",
      "healthcare": "hospital",
      "addr_state": "NJ",
      "addr_city": "Blackwood",
      "addr_postcode": "08012",
      "addr_street": "Woodbury Turnersville Road",
      "addr_housenumber": "425",
      "distance": 99650.36875047
    },
    {
      "id": 185513,
      "geometry": "POINT (-77.909263 39.414448)",
      "poi_name": "Post Theatre",
      "osm_id": 7861665686,
      "amenity": "hospital",
      "healthcare": "hospital",
      "distance": 148832.99425315
    },
    {
      "id": 186883,
      "geometry": "POINT (-76.003751 40.562666)",
      "poi_name": "st. lukes",
      "osm_id": 7952356821,
      "amenity": "hospital",
      "healthcare": "hospital",
      "addr_state": "PA",
      "addr_city": "Hamburg",
      "addr_postcode": "19526",
      "addr_street": "daves way",
      "addr_housenumber": "9",
      "distance": 115376.36512618
    },
    {
      "id": 187687,
      "geometry": "POINT (-75.35217 40.136712)",
      "poi_name": "Montgomery County Emergency Service - Crisis Services",
      "osm_id": 1096960819,
      "amenity": "hospital",
      "opening_hours": "24/7",
      "website": "http://www.mces.org/",
      "phone": "+1 610 279 6100",
      "healthcare": "hospital",
      "emergency": "no",
      "addr_city": "Norristown",
      "addr_postcode": "19401",
      "addr_street": "Beech Drive",
      "addr_housenumber": "50",
      "distance": 97928.90360863
    },
    {
      "id": 203231,
      "geometry": "POINT (-74.585063 39.978436)",
      "poi_name": "Medical Office Building - Browns Mills",
      "osm_id": 7071449029,
      "amenity": "hospital",
      "opening_hours": "Mo-Fr 09:00-20:00; Sa-Su 09:00-18:00",
      "website": "https://cjurgentcarebrownsmills.com/",
      "phone": "+1-609-757-1717",
      "healthcare": "hospital",
      "addr_state": "NJ",
      "addr_city": "Browns Mills",
      "addr_postcode": "08015",
      "addr_street": "Earlin Avenue",
      "addr_housenumber": "6",
      "distance": 145858.24200898
    },
    {
      "id": 204829,
      "geometry": "POINT (-77.222205 38.878159)",
      "poi_name": "Dominion Plastic Surgery",
      "osm_id": 7143550380,
      "amenity": "hospital",
      "opening_hours": "Mo-Fr 09:00-17:00",
      "website": "https://www.dominionplasticsurgery.com/",
      "phone": "+1 703-544-8971",
      "healthcare": "hospital",
      "emergency": "yes",
      "addr_state": "VA",
      "addr_city": "Falls Church",
      "addr_postcode": "22043",
      "addr_street": "Hartland Road",
      "addr_housenumber": "2755",
      "distance": 115290.93442734
    },
    {
      "id": 240413,
      "geometry": "POINT (-76.346498 39.519421)",
      "poi_name": "Upper Chesapeake Hospital",
      "osm_id": 5973533451,
      "amenity": "hospital",
      "healthcare": "hospital",
      "emergency": "yes",
      "distance": 13855.04964082
    },
    {
      "id": 206489,
      "geometry": "POINT (-77.717549 39.665617)",
      "poi_name": "Western Maryland Hospital Center",
      "osm_id": 7212509205,
      "amenity": "hospital",
      "healthcare": "hospital",
      "addr_state": "MD",
      "addr_city": "Hagerstown",
      "addr_postcode": "21742",
      "addr_street": "Pennsylvania Avenue",
      "addr_housenumber": "1500",
      "distance": 132336.80860228
    },
    {
      "id": 234454,
      "geometry": "POINT (-76.718936 39.926176)",
      "poi_name": "WellSpan Surgery and Rehabilitation Hospital",
      "osm_id": 4623740758,
      "amenity": "hospital",
      "wheelchair": "yes",
      "operator": "WellSpan Health",
      "healthcare": "hospital",
      "emergency": "no",
      "addr_state": "PA",
      "addr_city": "York",
      "addr_postcode": "17403",
      "addr_street": "Monument Rd",
      "addr_housenumber": "55",
      "distance": 63163.82529755
    },
    {
      "id": 241922,
      "geometry": "POINT (-75.358215 40.042502)",
      "poi_name": "Penn Medicine Radnor",
      "osm_id": 6045118778,
      "amenity": "hospital",
      "healthcare": "hospital",
      "distance": 90722.55593771
    }
  ],
  "answer_type": "distance",
  "question_entities": {
    "[1]": {
      "main_category": "amenity",
      "sub_category": "hospital"
    },
    "[2]": {
      "distance": 150000,
      "text": "150 kilometers"
    },
    "[3]": {
      "main_category": "leisure",
      "sub_category": "stadium",
      "display_name": "Cal, Sr.'s Yard, Aberdeen, MD",
      "geo_wkt": "POINT (-76.186327 39.533089)",
      "poi": {
        "id": 246798,
        "geometry": "POINT (-76.186327 39.533089)",
        "poi_name": "Cal, Sr.'s Yard",
        "osm_id": 6441911494,
        "leisure": "stadium",
        "sport": "baseball",
        "website": "https://www.ripkenfoundation.org/park/cal-srs-yard",
        "addr_state": "MD",
        "addr_city": "Aberdeen",
        "addr_postcode": "21001",
        "addr_street": "Long Drive",
        "addr_housenumber": "873"
      }
    }
  },
  "id": 756,
  "type": "range+distance"
}