{
  "question": "Within a radius of 90 kilometers, where can I find  a fast food restaurant on the path leading to Embassy Suites, Altamonte Springs, FL from Central Florida Zoo & Botanical Gardens, Sanford, FL?",
  "sql": "WITH\n    angle AS (SELECT degrees(ST_Azimuth(ST_GeomFromText('POINT (-81.314867 28.825462)',4326)::geography, ST_GeomFromText('POINT (-81.385792 28.664796)',4326)::geography)) AS value)\nSELECT * FROM pois,angle\nWHERE amenity = 'fast_food'\nAND ST_DWithin(pois.geometry, ST_GeomFromText('POINT (-81.314867 28.825462)',4326)::geography, 90000)\nAND (degrees(ST_Azimuth(ST_GeomFromText('POINT (-81.314867 28.825462)',4326)::geography, pois.geometry)) BETWEEN angle.value - 22.5 AND angle.value + 22.5);\n",
  "answers": [
    {
      "id": 33317,
      "geometry": "POINT (-81.450232 28.14757)",
      "poi_name": "Wendy's",
      "osm_id": 2661568704,
      "amenity": "fast_food",
      "cuisine": "burger",
      "takeaway": "yes",
      "drive_through": "yes",
      "addr_state": "FL",
      "addr_city": "Kissimmee",
      "addr_postcode": "34759",
      "addr_street": "Cypress Parkway",
      "addr_housenumber": "881",
      "value": 201.2755258731748
    },
    {
      "id": 35767,
      "geometry": "POINT (-81.453 28.671136)",
      "poi_name": "McDonald's",
      "osm_id": 2731406903,
      "amenity": "fast_food",
      "cuisine": "burger",
      "wheelchair": "yes",
      "website": "https://www.mcdonalds.com/us/en-us/location/fl/apopka/3141-e-semoran-blvd-fl-436/6465.html",
      "takeaway": "yes",
      "addr_city": "Apopka",
      "addr_postcode": "32703",
      "addr_street": "East Semoran Boulevard",
      "addr_housenumber": "3141",
      "value": 201.2755258731748
    },
    {
      "id": 41137,
      "geometry": "POINT (-81.579888 28.419348)",
      "poi_name": "Cosmic Ray's Starlight Caf\u00e9",
      "osm_id": 3000102895,
      "amenity": "fast_food",
      "cuisine": "american",
      "website": "https://disneyworld.disney.go.com/dining/magic-kingdom/cosmic-ray-starlight-cafe/",
      "drive_through": "no",
      "addr_state": "FL",
      "addr_city": "Lake Buena Vista",
      "value": 201.2755258731748
    },
    {
      "id": 44272,
      "geometry": "POINT (-81.49679 28.333586)",
      "poi_name": "Dunkin'",
      "osm_id": 3153818396,
      "amenity": "fast_food",
      "cuisine": "donut;coffee_shop",
      "takeaway": "yes",
      "addr_state": "FL",
      "addr_city": "Kissimmee",
      "addr_postcode": "34746",
      "addr_street": "West Irlo Bronson Memorial Highway",
      "addr_housenumber": "5314",
      "value": 201.2755258731748
    },
    {
      "id": 44120,
      "geometry": "POINT (-81.345642 28.755564)",
      "poi_name": "BurgerFi",
      "osm_id": 3145765077,
      "amenity": "fast_food",
      "cuisine": "burger",
      "wheelchair": "yes",
      "opening_hours": "Su-Th 11:00-22:00; Fr-Sa 11:00-23:00",
      "website": "https://www.burgerfi.com/",
      "phone": "+1 (407) 545-6488",
      "takeaway": "yes",
      "addr_city": "Lake Mary",
      "addr_postcode": "32746",
      "addr_street": "Lake Mary Boulevard",
      "addr_housenumber": "3801",
      "value": 201.2755258731748
    },
    {
      "id": 44159,
      "geometry": "POINT (-81.438941 28.306015)",
      "poi_name": "Dunkin'",
      "osm_id": 3146893964,
      "amenity": "fast_food",
      "cuisine": "donut;coffee_shop",
      "takeaway": "yes",
      "addr_state": "FL",
      "addr_city": "Kissimmee",
      "addr_postcode": "34741",
      "addr_street": "West Vine Street",
      "addr_housenumber": "3501",
      "value": 201.2755258731748
    },
    {
      "id": 44273,
      "geometry": "POINT (-81.497282 28.3336)",
      "poi_name": "Papa John's",
      "osm_id": 3153818397,
      "amenity": "fast_food",
      "cuisine": "pizza",
      "takeaway": "yes",
      "addr_state": "FL",
      "addr_city": "Kissimmee",
      "addr_postcode": "34746",
      "addr_street": "West Irlo Bronson Memorial Highway",
      "addr_housenumber": "5345",
      "value": 201.2755258731748
    },
    {
      "id": 44274,
      "geometry": "POINT (-81.487464 28.345365)",
      "poi_name": "Dunkin' Donuts",
      "osm_id": 3153897158,
      "amenity": "fast_food",
      "cuisine": "donut;coffee_shop",
      "opening_hours": "24/7",
      "takeaway": "yes",
      "addr_state": "FL",
      "addr_city": "Kissimmee",
      "addr_postcode": "34746",
      "addr_street": "Vineland Road",
      "addr_housenumber": "3270",
      "value": 201.2755258731748
    },
    {
      "id": 44502,
      "geometry": "POINT (-81.383143 28.662716)",
      "poi_name": "Panda Express",
      "osm_id": 3161269014,
      "amenity": "fast_food",
      "cuisine": "chinese",
      "wheelchair": "yes",
      "opening_hours": "Mo-Th 11:00-21:00; Fr,Sa 11:00-21:30; Su 12:00-21:00",
      "takeaway": "yes",
      "addr_state": "FL",
      "addr_city": "Altamonte Springs",
      "addr_postcode": "32701",
      "addr_street": "East Altamonte Drive",
      "addr_housenumber": "275",
      "value": 201.2755258731748
    },
    {
      "id": 44503,
      "geometry": "POINT (-81.467386 28.6512)",
      "poi_name": "Panda Express",
      "osm_id": 3161275795,
      "amenity": "fast_food",
      "cuisine": "chinese",
      "wheelchair": "yes",
      "addr_state": "FL",
      "addr_city": "Apopka",
      "addr_postcode": "32703",
      "addr_street": "Orange Blossom Trail",
      "addr_housenumber": "1710 South",
      "value": 201.2755258731748
    },
    {
      "id": 44504,
      "geometry": "POINT (-81.308645 28.467395)",
      "poi_name": "Panda Express",
      "osm_id": 3161288011,
      "amenity": "fast_food",
      "cuisine": "chinese",
      "wheelchair": "yes",
      "opening_hours": "Mo-Fr 11:00-21:30; Sa-Su 11:00-21:00",
      "internet_access": "wlan",
      "takeaway": "yes",
      "addr_state": "FL",
      "addr_city": "Orlando",
      "addr_postcode": "32822",
      "addr_street": "Semoran Boulevard",
      "addr_housenumber": "6651 South",
      "value": 201.2755258731748
    },
    {
      "id": 44505,
      "geometry": "POINT (-81.416124 28.341438)",
      "poi_name": "Panda Express",
      "osm_id": 3161298880,
      "amenity": "fast_food",
      "cuisine": "chinese",
      "internet_access": "wlan",
      "takeaway": "yes",
      "addr_state": "FL",
      "addr_city": "Kissimmee",
      "addr_postcode": "34741",
      "addr_street": "Osceola Parkway",
      "addr_housenumber": "1190 West",
      "value": 201.2755258731748
    },
    {
      "id": 44509,
      "geometry": "POINT (-81.310134 28.538713)",
      "poi_name": "Popeyes",
      "osm_id": 3161618787,
      "amenity": "fast_food",
      "cuisine": "chicken",
      "wheelchair": "yes",
      "opening_hours": "Su 10:00-22:00; Mo-Th 10:00-23:00; Fr-Sa 10:00-00:00",
      "website": "https://popeyes.com/",
      "phone": "+1 407 275 3110",
      "takeaway": "yes",
      "official_name": "Popeyes Louisiana Kitchen",
      "addr_state": "FL",
      "addr_city": "Orlando",
      "addr_postcode": "32807",
      "addr_street": "Lake Underhill Road",
      "addr_housenumber": "5700",
      "value": 201.2755258731748
    },
    {
      "id": 44510,
      "geometry": "POINT (-81.355244 28.756756)",
      "poi_name": "Chick-fil-A",
      "osm_id": 3161619373,
      "amenity": "fast_food",
      "cuisine": "chicken",
      "wheelchair": "no",
      "operator": "Dennis Kramer",
      "website": "https://www.chick-fil-a.com/lakemaryblvd",
      "phone": "+1 407 333 8875",
      "takeaway": "yes",
      "drive_through": "yes",
      "addr_state": "FL",
      "addr_city": "Lake Mary",
      "addr_postcode": "32746",
      "addr_street": "Lake Mary Boulevard",
      "addr_housenumber": "4420",
      "value": 201.2755258731748
    },
    {
      "id": 44656,
      "geometry": "POINT (-81.67707 28.356633)",
      "poi_name": "Chick-fil-A",
      "osm_id": 3168006348,
      "amenity": "fast_food",
      "cuisine": "chicken",
      "takeaway": "yes",
      "addr_state": "FL",
      "addr_city": "Clermont",
      "addr_postcode": "34714",
      "addr_street": "US Highway 27",
      "addr_housenumber": "644",
      "value": 201.2755258731748
    },
    {
      "id": 44672,
      "geometry": "POINT (-81.543029 28.350225)",
      "poi_name": "Everything Pop",
      "osm_id": 3170167283,
      "amenity": "fast_food",
      "cuisine": "american",
      "opening_hours": "Mo-Su 07:00-23:00",
      "website": "https://disneyworld.disney.go.com/dining/pop-century-resort/everything-pop-dining/",
      "takeaway": "yes",
      "drive_through": "no",
      "delivery": "no",
      "addr_state": "FL",
      "value": 201.2755258731748
    },
    {
      "id": 58243,
      "geometry": "POINT (-81.372651 28.574006)",
      "poi_name": "Panera Bread",
      "osm_id": 5368777627,
      "amenity": "fast_food",
      "cuisine": "sandwich;bakery",
      "takeaway": "yes",
      "drive_through": "no",
      "delivery": "yes",
      "addr_state": "FL",
      "addr_city": "Orlando",
      "addr_postcode": "32804",
      "addr_street": "North Orange Avenue",
      "addr_housenumber": "2415",
      "value": 201.2755258731748
    },
    {
      "id": 45255,
      "geometry": "POINT (-81.405468 28.420773)",
      "poi_name": "Dunkin'",
      "osm_id": 3196608053,
      "amenity": "fast_food",
      "cuisine": "donut;coffee_shop",
      "takeaway": "yes",
      "addr_state": "FL",
      "addr_city": "Orlando",
      "addr_postcode": "32837",
      "addr_street": "South Orange Blossom Trail",
      "addr_housenumber": "9520",
      "value": 201.2755258731748
    },
    {
      "id": 45883,
      "geometry": "POINT (-81.307713 28.431022)",
      "poi_name": "Panda Express",
      "osm_id": 3234594406,
      "amenity": "fast_food",
      "cuisine": "chinese",
      "wheelchair": "yes",
      "takeaway": "yes",
      "addr_state": "FL",
      "addr_city": "Orlando",
      "addr_postcode": "32827",
      "addr_street": "Airport Boulevard",
      "addr_housenumber": "9333",
      "value": 201.2755258731748
    },
    {
      "id": 45884,
      "geometry": "POINT (-81.307745 28.43138)",
      "poi_name": "McDonald's",
      "osm_id": 3234602914,
      "amenity": "fast_food",
      "cuisine": "burger",
      "wheelchair": "yes",
      "website": "https://www.mcdonalds.com/us/en-us/location/fl/orlando/orlando-airport---mco-food-court/27503.html",
      "takeaway": "yes",
      "addr_state": "FL",
      "addr_city": "Orlando",
      "addr_postcode": "32827",
      "addr_street": "Jeff Fuqua Boulevard",
      "addr_housenumber": "9303",
      "value": 201.2755258731748
    },
    {
      "id": 48814,
      "geometry": "POINT (-81.501778 28.367553)",
      "poi_name": "Dunkin'",
      "osm_id": 3401271159,
      "amenity": "fast_food",
      "cuisine": "donut;coffee_shop",
      "opening_hours": "Mo-Su 05:00-23:00",
      "internet_access": "wlan",
      "takeaway": "yes",
      "addr_state": "FL",
      "addr_city": "Orlando",
      "addr_postcode": "32821",
      "addr_street": "South Apopka Vineland Road",
      "addr_housenumber": "13605",
      "value": 201.2755258731748
    },
    {
      "id": 48994,
      "geometry": "POINT (-81.35047 28.593647)",
      "poi_name": "BurgerFi",
      "osm_id": 3411777776,
      "amenity": "fast_food",
      "cuisine": "burger",
      "phone": "(407) 622-2010",
      "takeaway": "yes",
      "addr_city": "Winter Park",
      "addr_postcode": "32789",
      "addr_street": "Park Avenue",
      "addr_housenumber": "538",
      "value": 201.2755258731748
    },
    {
      "id": 58071,
      "geometry": "POINT (-81.56212 28.449886)",
      "poi_name": "Panera Bread",
      "osm_id": 5362620601,
      "amenity": "fast_food",
      "cuisine": "sandwich;bakery",
      "wheelchair": "yes",
      "takeaway": "yes",
      "addr_state": "FL",
      "addr_city": "Windermere",
      "addr_postcode": "34786",
      "addr_street": "Old Brick Road",
      "value": 201.2755258731748
    },
    {
      "id": 66361,
      "geometry": "POINT (-81.364953 28.363597)",
      "poi_name": "Panda Express",
      "osm_id": 11191205964,
      "amenity": "fast_food",
      "cuisine": "chinese",
      "wheelchair": "yes",
      "opening_hours": "Mo-Su 10:00- 22:00",
      "phone": "+13217882783",
      "takeaway": "yes",
      "addr_state": "FL",
      "addr_city": "Orlando",
      "addr_postcode": "32824",
      "addr_street": "Landstar Boulevard",
      "addr_housenumber": "13947",
      "value": 201.2755258731748
    },
    {
      "id": 65930,
      "geometry": "POINT (-81.329144 28.480055)",
      "poi_name": "Subway",
      "osm_id": 5721013681,
      "amenity": "fast_food",
      "cuisine": "sandwich",
      "phone": "+1-407-851-4980",
      "takeaway": "yes",
      "addr_city": "Orlando",
      "addr_postcode": "32812",
      "addr_street": "Hoffner Avenue",
      "addr_housenumber": "4434",
      "value": 201.2755258731748
    },
    {
      "id": 66385,
      "geometry": "POINT (-81.647239 28.22686)",
      "poi_name": "Dunkin'",
      "osm_id": 11191884438,
      "amenity": "fast_food",
      "cuisine": "donut;coffee_shop",
      "opening_hours": "Mo-Su 05:00-21:00",
      "takeaway": "yes",
      "addr_state": "FL",
      "addr_city": "Davenport",
      "addr_postcode": "33837",
      "addr_street": "US Highway 27",
      "addr_housenumber": "43450",
      "value": 201.2755258731748
    },
    {
      "id": 74581,
      "geometry": "POINT (-81.309556 28.481594)",
      "poi_name": "McDonald's",
      "osm_id": 9686364285,
      "amenity": "fast_food",
      "cuisine": "burger",
      "opening_hours": "24/7",
      "website": "https://www.mcdonalds.com/us/en-us/location/fl/orlando/5685-south-semoran-blvd/2972.html",
      "internet_access": "wlan",
      "phone": "+1 407-275-3827",
      "takeaway": "yes",
      "drive_through": "yes",
      "addr_city": "Orlando",
      "addr_postcode": "32822",
      "addr_street": "Semoran Boulevard",
      "addr_housenumber": "5685",
      "value": 201.2755258731748
    },
    {
      "id": 66386,
      "geometry": "POINT (-81.647531 28.227194)",
      "poi_name": "Panda Express",
      "osm_id": 11191907858,
      "amenity": "fast_food",
      "cuisine": "chinese",
      "opening_hours": "Mo-Su 10:30-21:30",
      "takeaway": "yes",
      "addr_state": "FL",
      "addr_city": "Davenport",
      "addr_postcode": "33837",
      "addr_street": "US Highway 27",
      "addr_housenumber": "43470",
      "value": 201.2755258731748
    },
    {
      "id": 69862,
      "geometry": "POINT (-81.609838 28.34766)",
      "poi_name": "Portillo's",
      "osm_id": 11334723306,
      "amenity": "fast_food",
      "cuisine": "hot_dog;burger",
      "takeaway": "yes",
      "addr_state": "FL",
      "addr_city": "Kissimmee",
      "addr_postcode": "34747",
      "addr_street": "West Irlo Bronson Memorial Highway",
      "addr_housenumber": "8041",
      "value": 201.2755258731748
    },
    {
      "id": 72887,
      "geometry": "POINT (-81.366251 28.552955)",
      "poi_name": "Dunkin'",
      "osm_id": 11455380628,
      "amenity": "fast_food",
      "cuisine": "donut;coffee_shop",
      "opening_hours": "Mo-Su 05:00-20:00",
      "website": "https://dunkindonuts.com",
      "phone": "+1-407-723-8103",
      "takeaway": "yes",
      "addr_state": "FL",
      "addr_city": "Orlando",
      "addr_postcode": "32803",
      "addr_street": "East Colonial Drive",
      "addr_housenumber": "1018",
      "value": 201.2755258731748
    },
    {
      "id": 74494,
      "geometry": "POINT (-81.42193 28.494614)",
      "poi_name": "Culver's",
      "osm_id": 9682428807,
      "amenity": "fast_food",
      "cuisine": "burger",
      "opening_hours": "Mo-Th,Su 10:00-23:00; Fr-Sa 10:00-24:00",
      "website": "https://www.culvers.com",
      "phone": "321-247-5704",
      "takeaway": "yes",
      "addr_state": "FL",
      "addr_city": "Orlando",
      "addr_postcode": "32839",
      "addr_street": "4591 Power Center Lane",
      "value": 201.2755258731748
    },
    {
      "id": 80692,
      "geometry": "POINT (-81.504428 28.391899)",
      "poi_name": "Papa John's",
      "osm_id": 892054094,
      "amenity": "fast_food",
      "cuisine": "pizza",
      "takeaway": "yes",
      "addr_state": "FL",
      "addr_city": "Orlando",
      "addr_street": "Apopka Vineland Road",
      "addr_housenumber": "11989",
      "value": 201.2755258731748
    },
    {
      "id": 78574,
      "geometry": "POINT (-81.353897 28.755674)",
      "poi_name": "Burger King",
      "osm_id": 757511261,
      "amenity": "fast_food",
      "cuisine": "burger",
      "wheelchair": "yes",
      "website": "https://www.bk.com/",
      "takeaway": "yes",
      "addr_state": "FL",
      "value": 201.2755258731748
    },
    {
      "id": 86805,
      "geometry": "POINT (-81.403983 28.428056)",
      "poi_name": "Joel's Pizza & Subs",
      "osm_id": 1952772465,
      "amenity": "fast_food",
      "cuisine": "pizza",
      "takeaway": "yes",
      "addr_state": "FL",
      "addr_city": "Orlando",
      "addr_postcode": "32837",
      "addr_street": "South Orange Blossom Trail",
      "value": 201.2755258731748
    },
    {
      "id": 80681,
      "geometry": "POINT (-81.507648 28.385358)",
      "poi_name": "Qdoba",
      "osm_id": 892018386,
      "amenity": "fast_food",
      "cuisine": "mexican",
      "website": "https://locations.qdoba.com/us/fl/lake-buena-vista/12376-apopka-vineland-rd.html",
      "phone": "+1 407 238 4787",
      "takeaway": "yes",
      "official_name": "Qdoba Mexican Grill",
      "addr_state": "FL",
      "addr_city": "Orlando",
      "addr_postcode": "32836",
      "addr_street": "Apopka Vineland Road",
      "addr_housenumber": "12376",
      "value": 201.2755258731748
    },
    {
      "id": 80683,
      "geometry": "POINT (-81.507234 28.384901)",
      "poi_name": "Subway",
      "osm_id": 892018402,
      "amenity": "fast_food",
      "cuisine": "sandwich",
      "takeaway": "yes",
      "addr_state": "FL",
      "addr_street": "Apopka Vineland Road",
      "addr_housenumber": "12390",
      "value": 201.2755258731748
    },
    {
      "id": 86385,
      "geometry": "POINT (-81.421395 28.344749)",
      "poi_name": "Panera Bread",
      "osm_id": 1929232578,
      "amenity": "fast_food",
      "cuisine": "sandwich;bakery",
      "wheelchair": "yes",
      "opening_hours": "06:30-21:30",
      "phone": "+1 407 483-1096",
      "takeaway": "yes",
      "addr_state": "FL",
      "addr_city": "Kissimmee",
      "addr_postcode": "34741",
      "addr_street": "North John Young Parkway",
      "addr_housenumber": "3270",
      "value": 201.2755258731748
    },
    {
      "id": 95973,
      "geometry": "POINT (-81.454652 28.552902)",
      "poi_name": "New Orleans Cajun Seafood",
      "osm_id": 6417163236,
      "amenity": "fast_food",
      "cuisine": "seafood",
      "addr_state": "FL",
      "addr_city": "Pine Hills",
      "addr_postcode": "32808",
      "addr_street": "West Colonial Drive",
      "addr_housenumber": "5503",
      "value": 201.2755258731748
    },
    {
      "id": 89293,
      "geometry": "POINT (-81.450904 28.551456)",
      "poi_name": "Banh Mi Cali",
      "osm_id": 8837015160,
      "amenity": "fast_food",
      "cuisine": "sandwich",
      "opening_hours": "Mo-Su 08:00-19:30",
      "phone": "407-866-0208",
      "drive_through": "no",
      "addr_state": "FL",
      "addr_city": "Orlando",
      "addr_street": "West Colonial Drive",
      "value": 201.2755258731748
    },
    {
      "id": 96957,
      "geometry": "POINT (-81.608702 28.346353)",
      "poi_name": "BurgerFi",
      "osm_id": 6452953892,
      "amenity": "fast_food",
      "cuisine": "burger",
      "phone": "+1-321-888-3434",
      "takeaway": "yes",
      "addr_state": "FL",
      "addr_city": "Kissimmee",
      "addr_postcode": "34747",
      "addr_street": "Margaritaville Boulevard",
      "addr_housenumber": "3298",
      "value": 201.2755258731748
    },
    {
      "id": 105142,
      "geometry": "POINT (-81.424501 28.366696)",
      "poi_name": "Dunkin'",
      "osm_id": 8604435867,
      "amenity": "fast_food",
      "cuisine": "donut;coffee_shop",
      "opening_hours": "Mo-Sa 05:00-23:00",
      "phone": "407-240-3737",
      "takeaway": "yes",
      "drive_through": "yes",
      "addr_state": "FL",
      "addr_city": "Orlando",
      "addr_postcode": "32837",
      "addr_street": "John Young Parkway",
      "addr_housenumber": "13781",
      "value": 201.2755258731748
    },
    {
      "id": 103816,
      "geometry": "POINT (-81.402434 28.662339)",
      "poi_name": "Taco Bell",
      "osm_id": 8526783121,
      "amenity": "fast_food",
      "cuisine": "tex-mex",
      "opening_hours": "Mo-Su 08:00-03:00",
      "website": "https://locations.tacobell.com/fl/altamonte-springs/495-w-state-rd-436.html",
      "phone": "4078655808",
      "takeaway": "yes",
      "drive_through": "yes",
      "addr_state": "FL",
      "addr_city": "Altamonte Springs",
      "addr_postcode": "32714",
      "addr_street": "W State Rd 436",
      "addr_housenumber": "495",
      "value": 201.2755258731748
    },
    {
      "id": 104261,
      "geometry": "POINT (-81.349169 28.553687)",
      "poi_name": "Panda Express",
      "osm_id": 8558583296,
      "amenity": "fast_food",
      "cuisine": "chinese",
      "internet_access": "wlan",
      "takeaway": "yes",
      "addr_state": "FL",
      "addr_city": "Orlando",
      "addr_postcode": "32803",
      "addr_street": "East Colonial Drive",
      "addr_housenumber": "2655",
      "value": 201.2755258731748
    },
    {
      "id": 105145,
      "geometry": "POINT (-81.615588 28.260786)",
      "poi_name": "Wendy's",
      "osm_id": 8604509285,
      "amenity": "fast_food",
      "cuisine": "burger",
      "opening_hours": "Mo-Su 07:00-23:00",
      "takeaway": "yes",
      "addr_city": "Davenport",
      "addr_postcode": "33896",
      "addr_street": "Berwick Drive",
      "addr_housenumber": "1575",
      "value": 201.2755258731748
    },
    {
      "id": 105790,
      "geometry": "POINT (-81.335465 28.323766)",
      "poi_name": "Dunkin'",
      "osm_id": 8644185825,
      "amenity": "fast_food",
      "cuisine": "donut;coffee_shop",
      "takeaway": "yes",
      "addr_state": "FL",
      "addr_city": "Kissimmee",
      "addr_postcode": "34744",
      "addr_street": "Simpson Road",
      "addr_housenumber": "2705",
      "value": 201.2755258731748
    },
    {
      "id": 106012,
      "geometry": "POINT (-81.584766 28.551522)",
      "poi_name": "Wendy's",
      "osm_id": 8659466211,
      "amenity": "fast_food",
      "cuisine": "burger",
      "takeaway": "yes",
      "drive_through": "yes",
      "addr_state": "FL",
      "addr_city": "Winter Garden",
      "addr_postcode": "34787",
      "addr_street": "West Colonial Drive",
      "addr_housenumber": "13549",
      "value": 201.2755258731748
    },
    {
      "id": 106636,
      "geometry": "POINT (-81.451975 28.473343)",
      "poi_name": "Wetzel's Pretzels",
      "osm_id": 8691941720,
      "amenity": "fast_food",
      "cuisine": "pretzel",
      "phone": "+1 407 352 6385",
      "takeaway": "yes",
      "drive_through": "no",
      "addr_state": "FL",
      "addr_city": "Orlando",
      "addr_postcode": "32819",
      "addr_street": "International Drive",
      "value": 201.2755258731748
    },
    {
      "id": 106637,
      "geometry": "POINT (-81.452943 28.4742)",
      "poi_name": "Nestle Toll House | Edy's Ice Cream",
      "osm_id": 8691941846,
      "amenity": "fast_food",
      "phone": "+1 407 352 0007",
      "drive_through": "no",
      "addr_state": "FL",
      "addr_city": "Orlando",
      "addr_postcode": "32819",
      "addr_street": "International Drive",
      "value": 201.2755258731748
    },
    {
      "id": 106643,
      "geometry": "POINT (-81.451182 28.474998)",
      "poi_name": "Auntie Anne's",
      "osm_id": 8692016520,
      "amenity": "fast_food",
      "cuisine": "pretzel",
      "phone": "+1 407 351 1575",
      "takeaway": "yes",
      "addr_state": "FL",
      "addr_city": "Orlando",
      "addr_postcode": "32819",
      "addr_street": "International Drive",
      "value": 201.2755258731748
    },
    {
      "id": 106656,
      "geometry": "POINT (-81.451135 28.475673)",
      "poi_name": "Panera Bread",
      "osm_id": 8693593365,
      "amenity": "fast_food",
      "cuisine": "sandwich;bakery",
      "phone": "+1 407 412 6775",
      "takeaway": "yes",
      "drive_through": "no",
      "addr_state": "FL",
      "addr_city": "Orlando",
      "addr_postcode": "32819",
      "addr_street": "International Drive",
      "value": 201.2755258731748
    },
    {
      "id": 106657,
      "geometry": "POINT (-81.450978 28.475594)",
      "poi_name": "Sarku Japan",
      "osm_id": 8693593367,
      "amenity": "fast_food",
      "cuisine": "japanese",
      "phone": "+1 813 260 6470",
      "takeaway": "yes",
      "drive_through": "no",
      "addr_state": "FL",
      "addr_city": "Orlando",
      "addr_postcode": "32819",
      "addr_street": "International Drive",
      "value": 201.2755258731748
    },
    {
      "id": 106658,
      "geometry": "POINT (-81.450882 28.475515)",
      "poi_name": "Five Guys",
      "osm_id": 8693593368,
      "amenity": "fast_food",
      "cuisine": "burger",
      "phone": "+1 407 352 8362",
      "takeaway": "yes",
      "drive_through": "no",
      "official_name": "Five Guys Burgers and Fries",
      "addr_state": "FL",
      "addr_city": "Orlando",
      "addr_postcode": "32819",
      "addr_street": "International Drive",
      "value": 201.2755258731748
    },
    {
      "id": 106659,
      "geometry": "POINT (-81.45085 28.475777)",
      "poi_name": "Subway",
      "osm_id": 8693593369,
      "amenity": "fast_food",
      "cuisine": "sandwich",
      "phone": "+1 407 226 0308",
      "takeaway": "yes",
      "drive_through": "no",
      "addr_state": "FL",
      "addr_city": "Orlando",
      "addr_postcode": "32819",
      "addr_street": "International Drive",
      "value": 201.2755258731748
    },
    {
      "id": 106661,
      "geometry": "POINT (-81.450719 28.475677)",
      "poi_name": "Charleys Philly Steaks",
      "osm_id": 8693593371,
      "amenity": "fast_food",
      "cuisine": "sandwich",
      "phone": "+1 302 510 2884",
      "takeaway": "yes",
      "addr_state": "FL",
      "addr_city": "Orlando",
      "addr_postcode": "32819",
      "addr_street": "International Drive",
      "value": 201.2755258731748
    },
    {
      "id": 112355,
      "geometry": "POINT (-81.351474 28.755602)",
      "poi_name": "Boston Market",
      "osm_id": 3788241163,
      "amenity": "fast_food",
      "cuisine": "american;chicken",
      "website": "https://www.bostonmarket.com/",
      "takeaway": "yes",
      "addr_city": "Lake Mary",
      "addr_postcode": "32746",
      "addr_street": "W. Lake Mary Blvd",
      "addr_housenumber": "4335",
      "value": 201.2755258731748
    },
    {
      "id": 112356,
      "geometry": "POINT (-81.352055 28.754)",
      "poi_name": "Jeremiah's Italian Ice",
      "osm_id": 3788262554,
      "amenity": "fast_food",
      "cuisine": "ice_cream",
      "addr_city": "Lake Mary",
      "value": 201.2755258731748
    },
    {
      "id": 116066,
      "geometry": "POINT (-81.611084 28.347626)",
      "poi_name": "Tijuana Flats",
      "osm_id": 8926930545,
      "amenity": "fast_food",
      "cuisine": "mexican",
      "addr_state": "FL",
      "addr_city": "Kissimmee",
      "addr_postcode": "34747",
      "addr_street": "West Irlo Bronson Memorial Highway",
      "addr_housenumber": "8085",
      "value": 201.2755258731748
    },
    {
      "id": 117688,
      "geometry": "POINT (-81.420153 28.657054)",
      "poi_name": "Subway",
      "osm_id": 9006723079,
      "amenity": "fast_food",
      "cuisine": "sandwich",
      "takeaway": "yes",
      "addr_city": "Altamonte Springs",
      "value": 201.2755258731748
    },
    {
      "id": 123352,
      "geometry": "POINT (-81.582196 28.479179)",
      "poi_name": "BurgerFi",
      "osm_id": 6851182143,
      "amenity": "fast_food",
      "cuisine": "burger",
      "wheelchair": "yes",
      "phone": "+1-407-614-3476",
      "takeaway": "yes",
      "addr_state": "FL",
      "addr_city": "Windermere",
      "addr_postcode": "34786",
      "addr_street": "Winter Garden Vineland Road",
      "addr_housenumber": "5845",
      "value": 201.2755258731748
    },
    {
      "id": 122650,
      "geometry": "POINT (-81.458293 28.48476)",
      "poi_name": "Domino's",
      "osm_id": 6814285901,
      "amenity": "fast_food",
      "cuisine": "pizza",
      "wheelchair": "yes",
      "opening_hours": "Su-Th 10:00-03:00, Fr-Sa 10:00-04:00",
      "phone": "(407) 248-8434",
      "takeaway": "yes",
      "drive_through": "no",
      "addr_state": "FL",
      "addr_city": "Orlando",
      "addr_postcode": "32819",
      "addr_street": "Kirkman Road",
      "addr_housenumber": "5389",
      "value": 201.2755258731748
    },
    {
      "id": 122651,
      "geometry": "POINT (-81.458293 28.484638)",
      "poi_name": "Arepas el Cacao",
      "osm_id": 6814285903,
      "amenity": "fast_food",
      "cuisine": "venezuelan",
      "wheelchair": "limited",
      "phone": "(321) 252-2226",
      "drive_through": "no",
      "addr_state": "FL",
      "addr_city": "Orlando",
      "addr_postcode": "32819",
      "addr_street": "Kirkman Road",
      "addr_housenumber": "5389",
      "value": 201.2755258731748
    },
    {
      "id": 122652,
      "geometry": "POINT (-81.458291 28.48481)",
      "poi_name": "Junior Colombian Burger",
      "osm_id": 6814285905,
      "amenity": "fast_food",
      "cuisine": "colombian",
      "wheelchair": "limited",
      "opening_hours": "Su-Th 11:00-03:00, Fr-Sa 11:00-04:00",
      "website": "https://www.juniorcb.com/",
      "phone": "(407) 745-9216",
      "drive_through": "no",
      "addr_state": "FL",
      "addr_city": "Orlando",
      "addr_postcode": "32819",
      "addr_street": "Kirkman Road",
      "addr_housenumber": "5389",
      "value": 201.2755258731748
    },
    {
      "id": 124124,
      "geometry": "POINT (-81.590431 28.564323)",
      "poi_name": "BurgerFi",
      "osm_id": 6900724795,
      "amenity": "fast_food",
      "cuisine": "burger",
      "wheelchair": "yes",
      "phone": "+1-407-554-3210",
      "takeaway": "yes",
      "addr_state": "FL",
      "addr_city": "Winter Garden",
      "addr_postcode": "34787",
      "addr_street": "Plant Street",
      "addr_housenumber": "360",
      "value": 201.2755258731748
    },
    {
      "id": 124201,
      "geometry": "POINT (-81.450932 28.475555)",
      "poi_name": "Sbarro",
      "osm_id": 6903802644,
      "amenity": "fast_food",
      "cuisine": "pizza",
      "phone": "+1 407 351 8447",
      "takeaway": "yes",
      "addr_state": "FL",
      "addr_city": "Orlando",
      "addr_postcode": "32819",
      "addr_street": "International Drive",
      "value": 201.2755258731748
    },
    {
      "id": 125179,
      "geometry": "POINT (-81.628475 28.471738)",
      "poi_name": "McDonald's",
      "osm_id": 6948580115,
      "amenity": "fast_food",
      "cuisine": "burger",
      "opening_hours": "Mo-Su 05:30-21:00",
      "website": "https://www.mcdonalds.com/us/en-us/location/fl/winter-garden/5426-hamlin-groves-trail/39381.html",
      "takeaway": "yes",
      "drive_through": "yes",
      "addr_state": "FL",
      "addr_city": "Winter Garden",
      "addr_postcode": "34787",
      "addr_street": "Hamlin Groves Tr",
      "addr_housenumber": "5426",
      "value": 201.2755258731748
    },
    {
      "id": 144898,
      "geometry": "POINT (-81.390643 28.304803)",
      "poi_name": "Subway",
      "osm_id": 7293457216,
      "amenity": "fast_food",
      "cuisine": "sandwich",
      "opening_hours": "Mo-Fr 07:00-22:00,Sa 08:00-22:00,Su 09:00-22:00",
      "phone": "+1 407-518-9306",
      "takeaway": "yes",
      "addr_state": "FL",
      "addr_city": "Kissimmee",
      "addr_postcode": "34744",
      "addr_street": "East Vine Street",
      "addr_housenumber": "1321",
      "value": 201.2755258731748
    },
    {
      "id": 144914,
      "geometry": "POINT (-81.607058 28.347526)",
      "poi_name": "Pollo Tropical",
      "osm_id": 7294968962,
      "amenity": "fast_food",
      "cuisine": "chicken",
      "opening_hours": "Mo-Su 10:30-24:00",
      "takeaway": "yes",
      "addr_state": "FL",
      "addr_city": "Kissimmee",
      "addr_postcode": "34747",
      "addr_street": "West Irlo Bronson Memorial Highway",
      "addr_housenumber": "7901",
      "value": 201.2755258731748
    },
    {
      "id": 144915,
      "geometry": "POINT (-81.607474 28.347615)",
      "poi_name": "Panda Express",
      "osm_id": 7294968963,
      "amenity": "fast_food",
      "cuisine": "chinese",
      "opening_hours": "Mo-Th 11:00-21:30, Fr-Sa 11:00-22:00, Su 11:00-21:30",
      "internet_access": "wlan",
      "phone": "+1 407-390-1938",
      "takeaway": "yes",
      "addr_state": "FL",
      "addr_city": "Kissimmee",
      "addr_postcode": "34747",
      "addr_street": "West Irlo Bronson Memorial Highway",
      "addr_housenumber": "7945",
      "value": 201.2755258731748
    },
    {
      "id": 150650,
      "geometry": "POINT (-81.345306 28.663703)",
      "poi_name": "McDonald's",
      "osm_id": 4060934125,
      "amenity": "fast_food",
      "cuisine": "burger",
      "website": "https://www.mcdonalds.com/us/en-us/location/fl/fern-park/1415-e-state-rd/11266.html",
      "phone": "+1 (407) 831-1636",
      "takeaway": "yes",
      "addr_state": "FL",
      "addr_city": "Casselberry",
      "addr_postcode": "32730",
      "addr_street": "East Altamonte Drive",
      "addr_housenumber": "1415",
      "value": 201.2755258731748
    },
    {
      "id": 150654,
      "geometry": "POINT (-81.35909 28.662894)",
      "poi_name": "Subway",
      "osm_id": 4060952326,
      "amenity": "fast_food",
      "cuisine": "sandwich",
      "phone": "+1 (407) 265-1508",
      "takeaway": "yes",
      "addr_state": "FL",
      "addr_city": "Altamonte Springs",
      "addr_postcode": "32701",
      "addr_street": "East Altamonte Drive",
      "addr_housenumber": "954",
      "value": 201.2755258731748
    },
    {
      "id": 156505,
      "geometry": "POINT (-81.314068 28.427915)",
      "poi_name": "Qdoba",
      "osm_id": 4661189231,
      "amenity": "fast_food",
      "cuisine": "mexican",
      "wheelchair": "yes",
      "opening_hours": "Mo-Su 07:00-15:00",
      "website": "https://locations.qdoba.com/us/fl/orlando/one-airport-blvd--airside-3.html",
      "phone": "(407) 506-7379",
      "takeaway": "yes",
      "drive_through": "no",
      "official_name": "Qdoba Mexican Grill",
      "addr_state": "FL",
      "addr_postcode": "32827",
      "value": 201.2755258731748
    },
    {
      "id": 166736,
      "geometry": "POINT (-81.459596 28.511117)",
      "poi_name": "Panda Express",
      "osm_id": 309780523,
      "amenity": "fast_food",
      "cuisine": "chinese",
      "wheelchair": "yes",
      "opening_hours": "Mo-Th 10:30-21:00; Fr,Sa 10:30-21:30; Su 10:30-20:30",
      "takeaway": "yes",
      "addr_city": "Orlando",
      "addr_postcode": "32811",
      "addr_street": "Kirkman Road",
      "addr_housenumber": "2972",
      "value": 201.2755258731748
    },
    {
      "id": 168519,
      "geometry": "POINT (-81.586718 28.520846)",
      "poi_name": "Chipotle",
      "osm_id": 2265500659,
      "amenity": "fast_food",
      "cuisine": "mexican",
      "takeaway": "yes",
      "drive_through": "no",
      "official_name": "Chipotle Mexican Grill",
      "outdoor_seating": "yes",
      "addr_state": "FL",
      "addr_city": "Winter Garden",
      "addr_postcode": "34787",
      "addr_street": "Daniels Road",
      "addr_housenumber": "3317",
      "value": 201.2755258731748
    },
    {
      "id": 175771,
      "geometry": "POINT (-81.331714 28.80071)",
      "poi_name": "Panda Express",
      "osm_id": 2538041067,
      "amenity": "fast_food",
      "cuisine": "chinese",
      "website": "https://www.pandaexpress.com/",
      "takeaway": "yes",
      "addr_city": "Sanford",
      "addr_postcode": "32771",
      "addr_street": "Rinehart Road",
      "addr_housenumber": "1460",
      "value": 201.2755258731748
    },
    {
      "id": 176330,
      "geometry": "POINT (-81.382528 28.662843)",
      "poi_name": "Steak 'n Shake",
      "osm_id": 2555846993,
      "amenity": "fast_food",
      "cuisine": "burger",
      "wheelchair": "yes",
      "opening_hours": "Mo-Su 10:00-04:00",
      "internet_access": "no",
      "takeaway": "yes",
      "outdoor_seating": "no",
      "delivery": "no",
      "addr_city": "Altamonte Springs",
      "addr_postcode": "32701",
      "addr_street": "East Altamonte Drive",
      "addr_housenumber": "295",
      "value": 201.2755258731748
    },
    {
      "id": 180343,
      "geometry": "POINT (-81.430359 28.488884)",
      "poi_name": "Greens & Grille",
      "osm_id": 10798169264,
      "amenity": "fast_food",
      "cuisine": "salad",
      "opening_hours": "Mo-Su 11:00-20:00",
      "website": "https://greensandgrille.com",
      "phone": "+1-407-770-1407",
      "takeaway": "yes",
      "drive_through": "no",
      "addr_state": "FL",
      "addr_city": "Orlando",
      "addr_postcode": "32839",
      "addr_street": "Millenia Boulevard",
      "addr_housenumber": "4104",
      "value": 201.2755258731748
    },
    {
      "id": 180376,
      "geometry": "POINT (-81.371154 28.513281)",
      "poi_name": "SoDough Square",
      "osm_id": 10798843900,
      "amenity": "fast_food",
      "cuisine": "pizza",
      "wheelchair": "yes",
      "opening_hours": "Tu-Su 12:00-21:00",
      "website": "https://sodoughsquare.com",
      "internet_access": "no",
      "phone": "+1-407-237-0699",
      "takeaway": "yes",
      "drive_through": "no",
      "delivery": "yes",
      "addr_state": "FL",
      "addr_city": "Orlando",
      "addr_postcode": "32806",
      "addr_street": "East Michigan Street",
      "addr_housenumber": "419",
      "value": 201.2755258731748
    },
    {
      "id": 180350,
      "geometry": "POINT (-81.452678 28.551217)",
      "poi_name": "Zero Degrees",
      "osm_id": 10798192671,
      "amenity": "fast_food",
      "cuisine": "asian_fusion;bubble_tea;quick_bite",
      "wheelchair": "yes",
      "opening_hours": "Mo-Su 11:00-20:00",
      "website": "https://zerodegreescompany.com",
      "takeaway": "yes",
      "drive_through": "no",
      "delivery": "yes",
      "addr_state": "FL",
      "addr_city": "Orlando",
      "addr_postcode": "32808",
      "addr_street": "West Colonial Drive",
      "addr_housenumber": "5282",
      "value": 201.2755258731748
    },
    {
      "id": 180364,
      "geometry": "POINT (-81.37684 28.507876)",
      "poi_name": "Panera Bread",
      "osm_id": 10798267810,
      "amenity": "fast_food",
      "cuisine": "sandwich;bakery",
      "wheelchair": "yes",
      "opening_hours": "Mo-Sa 06:30-21:00; Su 07:00-20:00",
      "website": "https://panerabread.com",
      "internet_access": "wlan",
      "phone": "+1-407-481-9880",
      "takeaway": "yes",
      "drive_through": "yes",
      "outdoor_seating": "yes",
      "delivery": "yes",
      "addr_state": "FL",
      "addr_city": "Orlando",
      "addr_postcode": "32806",
      "addr_street": "South Orange Avenue",
      "addr_housenumber": "3138",
      "value": 201.2755258731748
    },
    {
      "id": 184154,
      "geometry": "POINT (-81.420647 28.660306)",
      "poi_name": "Panera Bread",
      "osm_id": 7775854181,
      "amenity": "fast_food",
      "cuisine": "sandwich;bakery",
      "website": "http://www.panerabread.com",
      "takeaway": "yes",
      "addr_city": "Altamonte Springs",
      "value": 201.2755258731748
    },
    {
      "id": 186027,
      "geometry": "POINT (-81.595257 28.339746)",
      "poi_name": "Wendy's",
      "osm_id": 7903474138,
      "amenity": "fast_food",
      "cuisine": "burger",
      "takeaway": "yes",
      "drive_through": "yes",
      "delivery": "no",
      "addr_state": "FL",
      "addr_city": "Kissimmee",
      "addr_postcode": "34747",
      "addr_street": "West Irlo Bronson Memorial Highway",
      "addr_housenumber": "7765",
      "value": 201.2755258731748
    },
    {
      "id": 190112,
      "geometry": "POINT (-81.581329 28.417939)",
      "poi_name": "Casey's Corner",
      "osm_id": 1270691473,
      "amenity": "fast_food",
      "cuisine": "hot_dog",
      "wheelchair": "yes",
      "addr_state": "FL",
      "addr_city": "Lake Buena Vista",
      "addr_postcode": "32830",
      "addr_street": "Main Street",
      "addr_housenumber": "211",
      "value": 201.2755258731748
    },
    {
      "id": 193461,
      "geometry": "POINT (-81.455641 28.461981)",
      "poi_name": "Sebastian's Pizza",
      "osm_id": 1540263517,
      "amenity": "fast_food",
      "addr_state": "FL",
      "addr_city": "Orlando",
      "addr_street": "International Drive",
      "addr_housenumber": "5576",
      "value": 201.2755258731748
    },
    {
      "id": 193462,
      "geometry": "POINT (-81.456793 28.462761)",
      "poi_name": "Quiznos",
      "osm_id": 1540263534,
      "amenity": "fast_food",
      "cuisine": "sandwich",
      "takeaway": "yes",
      "addr_state": "FL",
      "addr_city": "Orlando",
      "addr_street": "International Drive",
      "addr_housenumber": "5615",
      "value": 201.2755258731748
    },
    {
      "id": 193465,
      "geometry": "POINT (-81.45802 28.461615)",
      "poi_name": "Subway",
      "osm_id": 1540263601,
      "amenity": "fast_food",
      "cuisine": "sandwich",
      "takeaway": "yes",
      "addr_state": "FL",
      "addr_city": "Orlando",
      "addr_street": "International Drive",
      "addr_housenumber": "5740",
      "value": 201.2755258731748
    },
    {
      "id": 193468,
      "geometry": "POINT (-81.468052 28.46101)",
      "poi_name": "Dairy Queen",
      "osm_id": 1540263663,
      "amenity": "fast_food",
      "cuisine": "ice_cream;burger",
      "takeaway": "yes",
      "addr_state": "FL",
      "addr_city": "Orlando",
      "addr_street": "International Drive",
      "addr_housenumber": "6301",
      "value": 201.2755258731748
    },
    {
      "id": 193476,
      "geometry": "POINT (-81.470385 28.453319)",
      "poi_name": "Edy's Ice Cream",
      "osm_id": 1540263925,
      "amenity": "fast_food",
      "addr_state": "FL",
      "addr_city": "Orlando",
      "addr_street": "International Drive",
      "addr_housenumber": "7527",
      "value": 201.2755258731748
    },
    {
      "id": 193490,
      "geometry": "POINT (-81.469987 28.44563)",
      "poi_name": "Charleys Philly Steaks",
      "osm_id": 1540389715,
      "amenity": "fast_food",
      "cuisine": "sandwich",
      "opening_hours": "Su-Th 17:00-21:30, Fr-Sa 17:00-22:00",
      "website": "https://www.charleys.com/",
      "phone": "+1 407 351 9200",
      "takeaway": "yes",
      "drive_through": "no",
      "addr_state": "FL",
      "addr_city": "Orlando",
      "addr_postcode": "32819",
      "addr_street": "International Drive",
      "addr_housenumber": "4951",
      "value": 201.2755258731748
    },
    {
      "id": 193575,
      "geometry": "POINT (-81.461246 28.420199)",
      "poi_name": "Flippers Pizza",
      "osm_id": 1546493944,
      "amenity": "fast_food",
      "addr_state": "FL",
      "addr_city": "Orlando",
      "addr_street": "Westwood Boulevard",
      "addr_housenumber": "6125",
      "value": 201.2755258731748
    },
    {
      "id": 186026,
      "geometry": "POINT (-81.591834 28.336666)",
      "poi_name": "McDonald's",
      "osm_id": 7903474137,
      "amenity": "fast_food",
      "cuisine": "burger",
      "website": "https://www.mcdonalds.com/us/en-us/location/fl/kissimmee/7627-w-irlo-bronson-memorial-pkwy/6514.html",
      "takeaway": "yes",
      "addr_state": "FL",
      "addr_city": "Kissimmee",
      "addr_postcode": "34747",
      "addr_street": "West Irlo Bronson Memorial Highway",
      "addr_housenumber": "7627",
      "value": 201.2755258731748
    },
    {
      "id": 190252,
      "geometry": "POINT (-81.459776 28.511824)",
      "poi_name": "Dunkin'",
      "osm_id": 1279386805,
      "amenity": "fast_food",
      "cuisine": "donut;coffee_shop",
      "opening_hours": "Mo-Sa 05:00-20:00; Su 06:00-14:00",
      "takeaway": "yes",
      "addr_city": "Orlando",
      "addr_postcode": "32811",
      "addr_street": "Kirkman Road",
      "addr_housenumber": "2900",
      "value": 201.2755258731748
    },
    {
      "id": 193525,
      "geometry": "POINT (-81.457056 28.463452)",
      "poi_name": "Mrs. B's Pizza & Wings",
      "osm_id": 1543100140,
      "amenity": "fast_food",
      "addr_state": "FL",
      "addr_city": "Orlando",
      "addr_street": "Kirkman Road",
      "addr_housenumber": "6849",
      "value": 201.2755258731748
    },
    {
      "id": 193547,
      "geometry": "POINT (-81.461652 28.420254)",
      "poi_name": "Subway",
      "osm_id": 1545052954,
      "amenity": "fast_food",
      "cuisine": "sandwich",
      "takeaway": "yes",
      "addr_state": "FL",
      "addr_city": "Orlando",
      "addr_street": "Westwood Boulevard",
      "addr_housenumber": "6143",
      "value": 201.2755258731748
    },
    {
      "id": 193649,
      "geometry": "POINT (-81.500981 28.384192)",
      "poi_name": "Domino's",
      "osm_id": 1551588986,
      "amenity": "fast_food",
      "cuisine": "pizza",
      "website": "https://www.dominos.com",
      "takeaway": "yes",
      "addr_state": "FL",
      "addr_city": "Orlando",
      "addr_postcode": "32836",
      "addr_street": "Palm Parkway",
      "addr_housenumber": "8542",
      "value": 201.2755258731748
    },
    {
      "id": 198932,
      "geometry": "POINT (-81.403893 28.38567)",
      "poi_name": "Burger King",
      "osm_id": 925286685,
      "amenity": "fast_food",
      "cuisine": "burger",
      "takeaway": "yes",
      "drive_through": "yes",
      "outdoor_seating": "no",
      "addr_state": "FL",
      "addr_postcode": "32837",
      "addr_street": "South Orange Blossom Trail",
      "value": 201.2755258731748
    },
    {
      "id": 198935,
      "geometry": "POINT (-81.457093 28.551678)",
      "poi_name": "Dunkin'",
      "osm_id": 925286694,
      "amenity": "fast_food",
      "cuisine": "donut;coffee_shop",
      "takeaway": "yes",
      "addr_state": "FL",
      "addr_city": "Orlando",
      "addr_postcode": "32807",
      "addr_street": "West Colonial Drive",
      "addr_housenumber": "5598",
      "value": 201.2755258731748
    },
    {
      "id": 198941,
      "geometry": "POINT (-81.405319 28.427562)",
      "poi_name": "Burger King",
      "osm_id": 925286797,
      "amenity": "fast_food",
      "cuisine": "burger",
      "takeaway": "yes",
      "drive_through": "yes",
      "addr_state": "FL",
      "addr_city": "Orlando",
      "addr_postcode": "32837",
      "addr_street": "Consulate Drive",
      "value": 201.2755258731748
    },
    {
      "id": 198912,
      "geometry": "POINT (-81.405193 28.399951)",
      "poi_name": "McDonald's",
      "osm_id": 923988597,
      "amenity": "fast_food",
      "cuisine": "burger",
      "wheelchair": "yes",
      "website": "https://www.mcdonalds.com/us/en-us/location/fl/orlando/11382-us-hwy-441/10751.html",
      "takeaway": "yes",
      "addr_state": "FL",
      "addr_city": "Orlando",
      "addr_postcode": "32837",
      "addr_street": "South Orange Blossom Trail",
      "addr_housenumber": "11382",
      "value": 201.2755258731748
    },
    {
      "id": 199193,
      "geometry": "POINT (-81.489534 28.4494)",
      "poi_name": "Panera Bread",
      "osm_id": 943639994,
      "amenity": "fast_food",
      "cuisine": "sandwich;bakery",
      "opening_hours": "Mo-Su 08:00-20:00",
      "phone": "+1 407 226 6992",
      "takeaway": "yes",
      "addr_state": "FL",
      "addr_city": "Orlando",
      "addr_street": "Sand Lake Road",
      "addr_housenumber": "7826",
      "value": 201.2755258731748
    },
    {
      "id": 199131,
      "geometry": "POINT (-81.405174 28.379633)",
      "poi_name": "Wendy's",
      "osm_id": 938288820,
      "amenity": "fast_food",
      "cuisine": "burger",
      "wheelchair": "yes",
      "opening_hours": "Mo-Su 07:00-22:00",
      "takeaway": "yes",
      "drive_through": "yes",
      "addr_state": "FL",
      "addr_city": "Orlando",
      "addr_postcode": "32837",
      "addr_street": "South Orange Blossom Trail",
      "addr_housenumber": "12820",
      "value": 201.2755258731748
    },
    {
      "id": 199156,
      "geometry": "POINT (-81.379258 28.540854)",
      "poi_name": "Gitto's Pizza",
      "osm_id": 940615468,
      "amenity": "fast_food",
      "cuisine": "pizza",
      "wheelchair": "no",
      "opening_hours": "11:00-03:00",
      "website": "https://www.gittospizza.com/",
      "phone": "+1 407 203 8889",
      "takeaway": "yes",
      "addr_state": "FL",
      "addr_city": "Orlando",
      "addr_postcode": "32801",
      "addr_street": "South Orange Avenue",
      "addr_housenumber": "120",
      "value": 201.2755258731748
    },
    {
      "id": 199158,
      "geometry": "POINT (-81.379169 28.541578)",
      "poi_name": "Dan's Sandwich Shoppe & Midnite Pizza",
      "osm_id": 940630935,
      "amenity": "fast_food",
      "addr_state": "FL",
      "addr_city": "Orlando",
      "addr_street": "South Orange Avenue",
      "addr_housenumber": "28",
      "value": 201.2755258731748
    },
    {
      "id": 199169,
      "geometry": "POINT (-81.377371 28.545164)",
      "poi_name": "Philly Style Hoagies",
      "osm_id": 940891043,
      "amenity": "fast_food",
      "addr_state": "FL",
      "addr_city": "Orlando",
      "addr_street": "Magnolia Avenue",
      "addr_housenumber": "223",
      "value": 201.2755258731748
    },
    {
      "id": 202984,
      "geometry": "POINT (-81.426481 28.449179)",
      "poi_name": "Panda Express",
      "osm_id": 7056556445,
      "amenity": "fast_food",
      "cuisine": "chinese",
      "opening_hours": "Mo-Su 11:00-21:00",
      "internet_access": "wlan",
      "phone": "+1 407-734-1818",
      "takeaway": "yes",
      "addr_state": "FL",
      "addr_city": "Orlando",
      "addr_postcode": "32819",
      "addr_street": "John Young Parkway",
      "addr_housenumber": "8025 South",
      "value": 201.2755258731748
    },
    {
      "id": 204271,
      "geometry": "POINT (-81.602093 28.345406)",
      "poi_name": "Chick-fil-A",
      "osm_id": 7120597634,
      "amenity": "fast_food",
      "cuisine": "chicken",
      "takeaway": "yes",
      "drive_through": "yes",
      "addr_state": "FL",
      "addr_city": "Kissimmee",
      "addr_postcode": "34747",
      "addr_street": "W Irlo Bronson Memorial Highway",
      "addr_housenumber": "7891",
      "value": 201.2755258731748
    },
    {
      "id": 211618,
      "geometry": "POINT (-81.511155 28.492637)",
      "poi_name": "BurgerFi",
      "osm_id": 5165885390,
      "amenity": "fast_food",
      "cuisine": "burger",
      "wheelchair": "yes",
      "phone": "(407) 217-7612",
      "takeaway": "yes",
      "addr_city": "Windermere",
      "addr_postcode": "34786",
      "addr_street": "The Grove Drive",
      "addr_housenumber": "4750",
      "value": 201.2755258731748
    },
    {
      "id": 210912,
      "geometry": "POINT (-81.485041 28.346287)",
      "poi_name": "Five Guys",
      "osm_id": 5127542116,
      "amenity": "fast_food",
      "cuisine": "burger",
      "wheelchair": "yes",
      "takeaway": "yes",
      "official_name": "Five Guys Burgers and Fries",
      "addr_city": "Kissimmee",
      "addr_postcode": "34746",
      "addr_street": "Vineland Road",
      "addr_housenumber": "3261",
      "value": 201.2755258731748
    },
    {
      "id": 211658,
      "geometry": "POINT (-81.40904 28.339534)",
      "poi_name": "BurgerFi",
      "osm_id": 5166700683,
      "amenity": "fast_food",
      "cuisine": "burger",
      "wheelchair": "yes",
      "phone": "(407) 933-5557",
      "takeaway": "yes",
      "addr_city": "Kissimmee",
      "addr_postcode": "34741",
      "addr_street": "Osceola Parkway",
      "addr_housenumber": "765",
      "value": 201.2755258731748
    },
    {
      "id": 213705,
      "geometry": "POINT (-81.43454 28.30651)",
      "poi_name": "Domino's",
      "osm_id": 5258052407,
      "amenity": "fast_food",
      "cuisine": "pizza",
      "takeaway": "yes",
      "addr_state": "FL",
      "addr_city": "Kissimmee",
      "addr_street": "West Vine Street",
      "value": 201.2755258731748
    },
    {
      "id": 214489,
      "geometry": "POINT (-81.562214 28.450248)",
      "poi_name": "Dunkin'",
      "osm_id": 5273005970,
      "amenity": "fast_food",
      "cuisine": "donut;coffee_shop",
      "wheelchair": "yes",
      "opening_hours": "05:00-22:00",
      "takeaway": "yes",
      "drive_through": "yes",
      "delivery": "no",
      "addr_state": "FL",
      "addr_city": "Windermere",
      "addr_postcode": "34786",
      "addr_street": "Old Brick Road",
      "addr_housenumber": "6527",
      "value": 201.2755258731748
    },
    {
      "id": 221112,
      "geometry": "POINT (-81.485765 28.386234)",
      "poi_name": "Subway",
      "osm_id": 10968086560,
      "amenity": "fast_food",
      "cuisine": "sandwich",
      "takeaway": "yes",
      "addr_state": "FL",
      "addr_city": "Orlando",
      "addr_postcode": "32821",
      "addr_street": "Vineland Avenue",
      "addr_housenumber": "8127",
      "value": 201.2755258731748
    },
    {
      "id": 232578,
      "geometry": "POINT (-81.343211 28.553077)",
      "poi_name": "Smashburger",
      "osm_id": 4532955761,
      "amenity": "fast_food",
      "cuisine": "burger",
      "takeaway": "yes",
      "addr_state": "FL",
      "addr_city": "Orlando",
      "addr_postcode": "32803",
      "addr_street": "E Colonial Dr",
      "addr_housenumber": "3162",
      "value": 201.2755258731748
    },
    {
      "id": 244176,
      "geometry": "POINT (-81.357211 28.75666)",
      "poi_name": "Arby's",
      "osm_id": 7706122899,
      "amenity": "fast_food",
      "cuisine": "sandwich",
      "takeaway": "yes",
      "addr_state": "FL",
      "value": 201.2755258731748
    },
    {
      "id": 244083,
      "geometry": "POINT (-81.665918 28.30451)",
      "poi_name": "Wendy's",
      "osm_id": 7700124915,
      "amenity": "fast_food",
      "cuisine": "burger",
      "opening_hours": "Mo-Su 09:00-22:00",
      "takeaway": "yes",
      "drive_through": "yes",
      "addr_state": "FL",
      "addr_city": "Davenport",
      "addr_postcode": "33897",
      "addr_street": "Student Drive",
      "addr_housenumber": "105",
      "value": 201.2755258731748
    }
  ],
  "answer_type": "loc",
  "question_entities": {
    "[2]": {
      "distance": 90000,
      "text": "90 kilometers"
    },
    "[3]": {
      "main_category": "tourism",
      "sub_category": "zoo",
      "display_name": "Central Florida Zoo & Botanical Gardens, Sanford, FL",
      "geo_wkt": "POINT (-81.314867 28.825462)",
      "poi": {
        "id": 9137,
        "geometry": "POINT (-81.314867 28.825462)",
        "poi_name": "Central Florida Zoo & Botanical Gardens",
        "osm_id": 3683164539,
        "tourism": "zoo",
        "fee": "yes",
        "addr_state": "FL",
        "addr_city": "Sanford",
        "addr_postcode": "32771",
        "addr_street": "W Seminole Blvd",
        "addr_housenumber": "3755"
      }
    },
    "[4]": {
      "main_category": "tourism",
      "sub_category": "hotel",
      "display_name": "Embassy Suites, Altamonte Springs, FL",
      "geo_wkt": "POINT (-81.385792 28.664796)",
      "poi": {
        "id": 9908,
        "geometry": "POINT (-81.385792 28.664796)",
        "poi_name": "Embassy Suites",
        "osm_id": 9054969924,
        "tourism": "hotel",
        "official_name": "Embassy Suites by Hilton",
        "addr_state": "FL",
        "addr_city": "Altamonte Springs",
        "addr_postcode": "32701",
        "addr_street": "Shorecrest Drive",
        "addr_housenumber": "255"
      }
    },
    "[1]": {
      "main_category": "amenity",
      "sub_category": "fast_food"
    }
  },
  "id": 1260,
  "type": "range:towards+loc"
}