{
  "question": "Within a radius of 160 kilometers, where can I find  a restaurant on the path leading to Golden Gate Bridge Lookout, Sausalito, CA from Rebecca Camacho Presents, San Francisco, CA?",
  "sql": "WITH\n    angle AS (SELECT degrees(ST_Azimuth(ST_GeomFromText('POINT (-122.413378 37.788732)',4326)::geography, ST_GeomFromText('POINT (-122.486003 37.82872)',4326)::geography)) AS value)\nSELECT * FROM pois,angle\nWHERE amenity = 'restaurant'\nAND ST_DWithin(pois.geometry, ST_GeomFromText('POINT (-122.413378 37.788732)',4326)::geography, 160000)\nAND (degrees(ST_Azimuth(ST_GeomFromText('POINT (-122.413378 37.788732)',4326)::geography, pois.geometry)) BETWEEN angle.value - 22.5 AND angle.value + 22.5);\n",
  "answers": [
    {
      "id": 27329,
      "geometry": "POINT (-122.422531 37.79891)",
      "poi_name": "Little Kitchen",
      "osm_id": 412086707,
      "amenity": "restaurant",
      "cuisine": "chinese",
      "phone": "+1 4159225526",
      "addr_city": "San Francisco",
      "addr_street": "Polk Street",
      "addr_housenumber": "2401",
      "value": 304.782900321189
    },
    {
      "id": 27388,
      "geometry": "POINT (-122.442275 37.799938)",
      "poi_name": "Asa Sushi",
      "osm_id": 416683850,
      "amenity": "restaurant",
      "cuisine": "sushi",
      "opening_hours": "Mo-Th 11:30-14:30,17:30-22:00;Fr 11:30-14:30,17:30-23:00;Sa 14:30-15:00,17:30-23:00",
      "website": "http://www.asasushisf.com/",
      "phone": "+1 415-345-8263",
      "addr_state": "CA",
      "addr_city": "San Francisco",
      "addr_street": "Chestnut Street",
      "addr_housenumber": "2365",
      "value": 304.782900321189
    },
    {
      "id": 33131,
      "geometry": "POINT (-122.432207 37.806886)",
      "poi_name": "Greens Restaurant",
      "osm_id": 2653235898,
      "amenity": "restaurant",
      "opening_hours": "Tu-Th 11:30-14:30,17:30-21:00; Fr 11:30-14:30,17:00-21:00; Sa,Su 10:30-14:30,17:00-21:00; Mo off",
      "website": "https://greensrestaurant.com/",
      "phone": "+1 415 7716222",
      "outdoor_seating": "yes",
      "wikidata": "Q5364825",
      "addr_state": "CA",
      "addr_city": "San Francisco",
      "addr_postcode": "94123",
      "addr_street": "Marina Boulevard",
      "addr_housenumber": "2",
      "value": 304.782900321189
    },
    {
      "id": 35508,
      "geometry": "POINT (-122.50193 37.868547)",
      "poi_name": "Louie\u2019s Delicatessen",
      "osm_id": 2723913162,
      "amenity": "restaurant",
      "cuisine": "sandwich",
      "website": "https://louiesdelisausalito.com/",
      "phone": "+1 415 3326070",
      "addr_city": "Sausalito",
      "addr_postcode": "94965",
      "addr_street": "Bridgeway",
      "addr_housenumber": "2656",
      "value": 304.782900321189
    },
    {
      "id": 37620,
      "geometry": "POINT (-122.485383 37.859783)",
      "poi_name": "Salito's Crab House and Prime Rib",
      "osm_id": 2823281301,
      "amenity": "restaurant",
      "cuisine": "seafood",
      "wheelchair": "yes",
      "internet_access": "wlan",
      "takeaway": "yes",
      "outdoor_seating": "yes",
      "delivery": "no",
      "addr_city": "Sausalito ",
      "addr_postcode": "94965",
      "addr_street": "Bridgeway",
      "addr_housenumber": "1200",
      "value": 304.782900321189
    },
    {
      "id": 38731,
      "geometry": "POINT (-122.807413 38.068577)",
      "poi_name": "Side Street Kitchen",
      "osm_id": 2881625207,
      "amenity": "restaurant",
      "description": "Family-friendly menu featuring rotisserie chicken with choice of sides. Outdoor and indoor seating.",
      "opening_hours": "We-Su 11:00-18:00",
      "website": "https://sidestreet-prs.com",
      "phone": "+1 415 663 0303",
      "wikidata": "Q111309216",
      "addr_state": "CA",
      "addr_city": "Point Reyes Station",
      "addr_postcode": "94956",
      "addr_street": "4th Street",
      "addr_housenumber": "60",
      "value": 304.782900321189
    },
    {
      "id": 40247,
      "geometry": "POINT (-122.422196 37.79604)",
      "poi_name": "Berber",
      "osm_id": 2963068434,
      "amenity": "restaurant",
      "addr_city": "San Francisco",
      "addr_postcode": "94109",
      "addr_street": "Broadway",
      "addr_housenumber": "1516",
      "value": 304.782900321189
    },
    {
      "id": 33196,
      "geometry": "POINT (-122.421069 37.793169)",
      "poi_name": "Sorella",
      "osm_id": 2656720873,
      "amenity": "restaurant",
      "addr_city": "San Francisco",
      "addr_postcode": "94109",
      "addr_street": "Polk Street",
      "addr_housenumber": "1760",
      "value": 304.782900321189
    },
    {
      "id": 33838,
      "geometry": "POINT (-122.494616 37.861886)",
      "poi_name": "Fred's Coffee Shop",
      "osm_id": 2684689895,
      "amenity": "restaurant",
      "cuisine": "burger",
      "capacity": "50",
      "addr_city": "Sausalito",
      "addr_postcode": "94965",
      "addr_street": "Bridgeway",
      "addr_housenumber": "1917",
      "value": 304.782900321189
    },
    {
      "id": 37434,
      "geometry": "POINT (-123.032924 38.317527)",
      "poi_name": "Drakes Sonoma Coast",
      "osm_id": 2810330701,
      "amenity": "restaurant",
      "cuisine": "american",
      "website": "https://drakesbodegabay.com",
      "internet_access": "wlan",
      "phone": "+1-707-377-5010",
      "takeaway": "yes",
      "outdoor_seating": "yes",
      "delivery": "no",
      "addr_state": "CA",
      "addr_city": "Bodega Bay",
      "addr_postcode": "94923",
      "addr_street": "Bay Highway",
      "addr_housenumber": "103",
      "value": 304.782900321189
    },
    {
      "id": 39715,
      "geometry": "POINT (-122.486766 37.859175)",
      "poi_name": "Sausalito Gourmet Delicatessen",
      "osm_id": 2936291077,
      "amenity": "restaurant",
      "opening_hours": "Mo-Su 11:00-18:00",
      "website": "http://www.sausalitogourmet.com/",
      "addr_state": "CA",
      "addr_city": "Sausalito",
      "addr_postcode": "94965",
      "addr_street": "Caledonia Street",
      "addr_housenumber": "209",
      "value": 304.782900321189
    },
    {
      "id": 46825,
      "geometry": "POINT (-122.535451 37.897887)",
      "poi_name": "Sol Food Puerto Rican",
      "osm_id": 3295135985,
      "amenity": "restaurant",
      "addr_city": "Mill Valley",
      "addr_street": "Miller Avenue",
      "addr_housenumber": "401",
      "value": 304.782900321189
    },
    {
      "id": 48361,
      "geometry": "POINT (-122.436595 37.800657)",
      "poi_name": "United Dumplings",
      "osm_id": 3379321524,
      "amenity": "restaurant",
      "cuisine": "chinese;dumpling",
      "website": "https://www.uniteddumplings.com/",
      "phone": "+1 415-757-0008",
      "addr_state": "CA",
      "addr_city": "San Francisco",
      "addr_postcode": "94123",
      "addr_street": "Chestnut street",
      "addr_housenumber": "2015",
      "value": 304.782900321189
    },
    {
      "id": 48363,
      "geometry": "POINT (-122.43763 37.800045)",
      "poi_name": "Toma Mexican Restaurant",
      "osm_id": 3379321536,
      "amenity": "restaurant",
      "cuisine": "mexican",
      "opening_hours": "Mo-Th 11:00-22:00;Fr 11:00-23:00;Sa 10:30-23:00;Su 10:30-21:30",
      "website": "http://www.tomasf.com/",
      "phone": "+1 415-921-8662",
      "addr_state": "CA",
      "addr_city": "San Francisco",
      "addr_street": "Steiner Street",
      "addr_housenumber": "3318",
      "value": 304.782900321189
    },
    {
      "id": 48369,
      "geometry": "POINT (-122.440464 37.800184)",
      "poi_name": "Bonita Taqueria Y Rotisserie",
      "osm_id": 3379996809,
      "amenity": "restaurant",
      "cuisine": "mexican",
      "opening_hours": "Mo-Su 11:00-22:00",
      "website": "http://sfbonita.com/",
      "phone": "+1 415-801-5599",
      "addr_state": "CA",
      "addr_city": "San Francisco",
      "addr_street": "Chestnut Street",
      "addr_housenumber": "2257",
      "value": 304.782900321189
    },
    {
      "id": 48372,
      "geometry": "POINT (-122.440066 37.800234)",
      "poi_name": "Tipsy Pig",
      "osm_id": 3380023324,
      "amenity": "restaurant",
      "wheelchair": "yes",
      "website": "https://www.thetipsypigsf.com/",
      "phone": "+1 415-292-2300",
      "outdoor_seating": "yes",
      "addr_city": "San Francisco",
      "addr_postcode": "94123",
      "addr_street": "Chestnut Street",
      "addr_housenumber": "2231",
      "value": 304.782900321189
    },
    {
      "id": 48391,
      "geometry": "POINT (-122.442104 37.79996)",
      "poi_name": "A16",
      "osm_id": 3380825006,
      "amenity": "restaurant",
      "cuisine": "italian",
      "opening_hours": "Mo-Th 17:00-21:00; Sa 12:00-21:30; Su 12:00-21:00",
      "website": "https://www.a16pizza.com/",
      "phone": "+1 415-771-2216",
      "wikidata": "Q19863966",
      "addr_state": "CA",
      "addr_city": "San Francisco",
      "addr_postcode": "94123",
      "addr_street": "Chestnut Street",
      "addr_housenumber": "2355",
      "value": 304.782900321189
    },
    {
      "id": 48392,
      "geometry": "POINT (-122.441494 37.800037)",
      "poi_name": "Mamacita",
      "osm_id": 3380825008,
      "amenity": "restaurant",
      "cuisine": "mexican",
      "website": "http://www.mamacitasf.com/",
      "phone": "415-346-8494",
      "outdoor_seating": "yes",
      "addr_state": "CA",
      "addr_city": "San Francisco",
      "addr_street": "Chestnut Street",
      "addr_housenumber": "2317",
      "value": 304.782900321189
    },
    {
      "id": 48393,
      "geometry": "POINT (-122.442376 37.799925)",
      "poi_name": "Mezes Kitchen & Wine Bar",
      "osm_id": 3380825010,
      "amenity": "restaurant",
      "cuisine": "greek",
      "opening_hours": "Mo-Th 17:00-21:00;Fr-Sa 17:00-22:00;Su 17:00-21:00",
      "website": "https://mezessf.com/",
      "phone": "+1 415-409-7111",
      "addr_state": "CA",
      "addr_city": "San Francisco",
      "addr_street": "Chestnut Street",
      "addr_housenumber": "2373",
      "value": 304.782900321189
    },
    {
      "id": 49108,
      "geometry": "POINT (-122.421065 37.791608)",
      "poi_name": "Toast eatery",
      "osm_id": 3416689789,
      "amenity": "restaurant",
      "cuisine": "american",
      "addr_state": "CA",
      "addr_city": "San Francisco",
      "addr_postcode": "94109",
      "addr_street": "Polk Street",
      "addr_housenumber": "1601",
      "value": 304.782900321189
    },
    {
      "id": 49258,
      "geometry": "POINT (-122.421471 37.793649)",
      "poi_name": "Lush Gelato",
      "osm_id": 3422101418,
      "amenity": "restaurant",
      "cuisine": "gelato",
      "capacity": "10",
      "takeaway": "yes",
      "addr_state": "CA",
      "addr_city": "San Francisco",
      "addr_postcode": "94109",
      "addr_street": "Polk Street",
      "addr_housenumber": "1817",
      "value": 304.782900321189
    },
    {
      "id": 78463,
      "geometry": "POINT (-122.421809 37.79681)",
      "poi_name": "Hummus Mediterranean Kitchen",
      "osm_id": 747853234,
      "amenity": "restaurant",
      "cuisine": "mediterranean",
      "addr_city": "San Francisco",
      "addr_postcode": "94109",
      "addr_street": "Polk Street",
      "addr_housenumber": "2164",
      "value": 304.782900321189
    },
    {
      "id": 77480,
      "geometry": "POINT (-122.429532 37.797963)",
      "poi_name": "KAIY\u014c",
      "osm_id": 693507981,
      "amenity": "restaurant",
      "cuisine": "japanese;peruvian;asian",
      "website": "https://kaiyosf.com",
      "phone": "+1-415-525-4804",
      "addr_state": "CA",
      "addr_city": "San Francisco",
      "addr_postcode": "94123",
      "addr_street": "Union Street",
      "addr_housenumber": "1838",
      "value": 304.782900321189
    },
    {
      "id": 78939,
      "geometry": "POINT (-122.422225 37.798904)",
      "poi_name": "Leopold's",
      "osm_id": 766264586,
      "amenity": "restaurant",
      "cuisine": "german",
      "website": "http://www.leopoldssf.com/",
      "phone": "+1 415 4742000",
      "addr_city": "San Francisco",
      "addr_street": "Polk Street",
      "addr_housenumber": "2400",
      "value": 304.782900321189
    },
    {
      "id": 79741,
      "geometry": "POINT (-122.420879 37.790779)",
      "poi_name": "Ti Piacera",
      "osm_id": 825966983,
      "amenity": "restaurant",
      "cuisine": "mediterranean;italian",
      "wheelchair": "yes",
      "internet_access": "wlan",
      "addr_state": "CA",
      "addr_city": "San Francisco",
      "addr_street": "Polk Street",
      "addr_housenumber": "1507",
      "value": 304.782900321189
    },
    {
      "id": 79742,
      "geometry": "POINT (-122.420904 37.790876)",
      "poi_name": "Nara Sushi",
      "osm_id": 825966994,
      "amenity": "restaurant",
      "opening_hours": "Su-Th 17:00-23:00; Fr,Sa 17:00-24:00",
      "website": "https://www.sfnarasushi.com/",
      "phone": "415-567-1515",
      "addr_state": "CA",
      "addr_city": "San Francisco",
      "addr_postcode": "94109",
      "addr_street": "Polk Street",
      "addr_housenumber": "1515",
      "value": 304.782900321189
    },
    {
      "id": 79748,
      "geometry": "POINT (-122.420718 37.790134)",
      "poi_name": "Bamboo",
      "osm_id": 825967069,
      "amenity": "restaurant",
      "cuisine": "chinese",
      "opening_hours": "Mo-Sa 11:00-22:45; Su 12:00-21:45",
      "phone": "415-775-3679",
      "outdoor_seating": "no",
      "addr_state": "CA",
      "addr_city": "San Francisco",
      "addr_street": "Polk Street",
      "addr_housenumber": "1441",
      "value": 304.782900321189
    },
    {
      "id": 79767,
      "geometry": "POINT (-122.42079 37.7917)",
      "poi_name": "Hoi.An",
      "osm_id": 826961082,
      "amenity": "restaurant",
      "cuisine": "vietnamese",
      "opening_hours": "Mo-Sa 11:00-21:30; Su 11:00-21:00",
      "addr_state": "CA",
      "addr_city": "San Francisco",
      "addr_street": "Polk Street",
      "addr_housenumber": "1608",
      "value": 304.782900321189
    },
    {
      "id": 108647,
      "geometry": "POINT (-122.420236 37.790789)",
      "poi_name": "Cordon Bleu",
      "osm_id": 3631917186,
      "amenity": "restaurant",
      "cuisine": "vietnamese",
      "phone": "+1 415-673-5637",
      "addr_state": "CA",
      "addr_city": "San Francisco",
      "addr_postcode": "94109",
      "addr_street": "California Street",
      "addr_housenumber": "1574",
      "value": 304.782900321189
    },
    {
      "id": 93487,
      "geometry": "POINT (-122.422043 37.79637)",
      "poi_name": "Mac'd",
      "osm_id": 2167562336,
      "amenity": "restaurant",
      "description": "Fast-casual mac and cheese",
      "wheelchair": "yes",
      "opening_hours": "Su,Mo-Th 11:30-21:00; Fr,Sa 11:30-24:00",
      "website": "https://getmacd.com/sf-russian-hill",
      "outdoor_seating": "parklet",
      "addr_state": "CA",
      "addr_city": "San Francisco",
      "addr_postcode": "94109",
      "addr_street": "Polk Street",
      "addr_housenumber": "2127",
      "value": 304.782900321189
    },
    {
      "id": 93488,
      "geometry": "POINT (-122.421924 37.79579)",
      "poi_name": "Lord Stanley",
      "osm_id": 2167584999,
      "amenity": "restaurant",
      "website": "http://www.t2joldlittlethai.com/",
      "phone": "(415) 771-5544",
      "addr_city": "San Francisco",
      "addr_street": "Polk Street",
      "addr_housenumber": "2065",
      "value": 304.782900321189
    },
    {
      "id": 102337,
      "geometry": "POINT (-122.99991 38.501307)",
      "poi_name": "La bodeguita #2",
      "osm_id": 6678133315,
      "amenity": "restaurant",
      "cuisine": "mexican",
      "opening_hours": "Mo-Su 11:00-20:30",
      "phone": "(707) 869-1919",
      "addr_state": "CA",
      "addr_city": "Guerneville",
      "addr_postcode": "95446",
      "addr_street": "Mill Street",
      "addr_housenumber": "16380",
      "value": 304.782900321189
    },
    {
      "id": 115128,
      "geometry": "POINT (-122.490915 37.863858)",
      "poi_name": "Le Garage Bistro",
      "osm_id": 3912186535,
      "amenity": "restaurant",
      "cuisine": "french",
      "opening_hours": "Mo-Su 07:30-11:30; Mo-Fr 11:30-14:30; Mo-Sa 17:30-21:30; Sa-Su 10:00-14:30",
      "phone": "+1 415 332 5625",
      "addr_state": "CA",
      "addr_city": "Sausalito",
      "addr_postcode": "94965",
      "addr_street": "Liberty Ship Way",
      "addr_housenumber": "85",
      "value": 304.782900321189
    },
    {
      "id": 108824,
      "geometry": "POINT (-122.419954 37.790819)",
      "poi_name": "The Village",
      "osm_id": 3635727242,
      "amenity": "restaurant",
      "description": "\"Home of pancake tacos\"",
      "addr_state": "CA",
      "addr_city": "San Francisco",
      "addr_postcode": "94109",
      "addr_street": "California Street",
      "addr_housenumber": "1550",
      "value": 304.782900321189
    },
    {
      "id": 115129,
      "geometry": "POINT (-122.485107 37.858306)",
      "poi_name": "Fast Food Francais",
      "osm_id": 3912186536,
      "amenity": "restaurant",
      "cuisine": "french",
      "opening_hours": "Mo-Fr 11:30-22:00; Sa-Su 10:00-22:00",
      "phone": "+1 415 887 9047",
      "delivery": "yes",
      "addr_state": "CA",
      "addr_city": "Sausalito",
      "addr_postcode": "94965",
      "addr_street": "Caledonia Street",
      "addr_housenumber": "39",
      "value": 304.782900321189
    },
    {
      "id": 123116,
      "geometry": "POINT (-122.422318 37.797507)",
      "poi_name": "Blue Barn",
      "osm_id": 6835870427,
      "amenity": "restaurant",
      "cuisine": "deli",
      "website": "http://www.bluebarngourmet.com/",
      "phone": "+1-415-655-9438",
      "addr_state": "CA",
      "addr_city": "San Francisco",
      "addr_postcode": "94109",
      "addr_street": "Polk Street",
      "addr_housenumber": "2237",
      "value": 304.782900321189
    },
    {
      "id": 116741,
      "geometry": "POINT (-123.043974 38.329718)",
      "poi_name": "Bay View Restaurant & Lounge",
      "osm_id": 8958101396,
      "amenity": "restaurant",
      "cuisine": "italian;seafood",
      "description": "Located in the main lodge of The Inn at the Tides, The Bay View Restaurant & Lounge features classic Italian cuisine with an unforgettable view of Bodega Bay. Friendly and professional service accompanied by award-winning wines from our extensive cellar w",
      "wheelchair": "yes",
      "opening_hours": "Th,Su 17:00-21:00; Fr,Sa 17:00-22:00",
      "website": "https://www.innatthetides.com/bay-view-restaurant-lounge/",
      "phone": "+1-707-875-2751",
      "takeaway": "no",
      "outdoor_seating": "yes",
      "addr_state": "CA",
      "addr_city": "Bodega Bay",
      "addr_postcode": "94923",
      "addr_street": "Bay Highway",
      "addr_housenumber": "800",
      "value": 304.782900321189
    },
    {
      "id": 123127,
      "geometry": "POINT (-122.438884 37.80065)",
      "poi_name": "Blackwood",
      "osm_id": 6835905512,
      "amenity": "restaurant",
      "cuisine": "american",
      "website": "https://www.blackwoodsf.com",
      "phone": "+1-415-931-9663",
      "addr_state": "CA",
      "addr_city": "San Francisco",
      "addr_postcode": "94123",
      "addr_street": "Chestnut Street",
      "addr_housenumber": "2150",
      "value": 304.782900321189
    },
    {
      "id": 130898,
      "geometry": "POINT (-122.589763 37.987063)",
      "poi_name": "Amelie",
      "osm_id": 9894061623,
      "amenity": "restaurant",
      "cuisine": "french",
      "outdoor_seating": "yes",
      "addr_state": "CA",
      "addr_street": "Broadway Boulevard",
      "addr_housenumber": "71",
      "value": 304.782900321189
    },
    {
      "id": 130053,
      "geometry": "POINT (-122.42547 37.800971)",
      "poi_name": "Torraku Ramen",
      "osm_id": 9852445285,
      "amenity": "restaurant",
      "cuisine": "ramen;japanese",
      "wheelchair": "yes",
      "opening_hours": "Tu-Th,Su 11:00-15:00,17:00-20:00; Fr,Sa 11:00-15:00,17:00-21:00",
      "website": "https://torrakuramen.com/",
      "capacity": "49",
      "phone": "+1 415 9363641",
      "outdoor_seating": "yes",
      "addr_state": "CA",
      "addr_city": "San Francisco",
      "addr_postcode": "94123",
      "addr_street": "Lombard Street",
      "addr_housenumber": "1449",
      "value": 304.782900321189
    },
    {
      "id": 127207,
      "geometry": "POINT (-122.523192 37.880627)",
      "poi_name": "The Junction Beer Garden",
      "osm_id": 8041345059,
      "amenity": "restaurant",
      "cuisine": "pizza",
      "website": "thejunc.com",
      "phone": "(415) 888-3544",
      "outdoor_seating": "yes",
      "addr_state": "CA",
      "addr_city": "Mill Valley",
      "addr_postcode": "94941",
      "addr_street": "Shoreline Highway",
      "addr_housenumber": "226",
      "value": 304.782900321189
    },
    {
      "id": 127208,
      "geometry": "POINT (-122.531401 37.893141)",
      "poi_name": "Antone's East Coast Sub Shop",
      "osm_id": 8041361091,
      "amenity": "restaurant",
      "cuisine": "sandwich",
      "phone": "(415) 888-3585",
      "addr_state": "CA",
      "addr_city": "Mill Valley",
      "addr_postcode": "94941",
      "addr_street": "Miller Avenue",
      "addr_housenumber": "558",
      "value": 304.782900321189
    },
    {
      "id": 127210,
      "geometry": "POINT (-122.515101 37.897802)",
      "poi_name": "New York Bagels",
      "osm_id": 8041430943,
      "amenity": "restaurant",
      "cuisine": "bagel",
      "phone": "(415) 381-3599",
      "addr_state": "CA",
      "addr_city": "Mill Valley",
      "addr_postcode": "94941",
      "addr_street": "Redwood Highway Frontage Road",
      "addr_housenumber": "800",
      "value": 304.782900321189
    },
    {
      "id": 132404,
      "geometry": "POINT (-122.509065 37.873664)",
      "poi_name": "Show de Carnes Brazilian Steakhouse",
      "osm_id": 9953402605,
      "amenity": "restaurant",
      "cuisine": "steak_house;brazilian",
      "addr_state": "CA",
      "addr_city": "Sausalito",
      "addr_postcode": "94965",
      "addr_street": "Donahue Street",
      "addr_housenumber": "196",
      "value": 304.782900321189
    },
    {
      "id": 132361,
      "geometry": "POINT (-123.048233 38.338936)",
      "poi_name": "Terrapin Creek",
      "osm_id": 9951826297,
      "amenity": "restaurant",
      "opening_hours": "Th-Mo 16:30-20:30",
      "website": "https://www.terrapincreekcafe.com/",
      "phone": "707 875 2700",
      "addr_state": "CA",
      "addr_city": "Bodega Bay",
      "addr_postcode": "94923",
      "addr_street": "Eastshore Road",
      "addr_housenumber": "1580",
      "value": 304.782900321189
    },
    {
      "id": 142560,
      "geometry": "POINT (-122.486406 37.859698)",
      "poi_name": "The Lighthouse Caf\u00e9",
      "osm_id": 6317144100,
      "amenity": "restaurant",
      "phone": "+1 415 331 3034",
      "addr_city": "Sausalito",
      "addr_postcode": "94965",
      "addr_street": "Bridgeway",
      "addr_housenumber": "1311",
      "value": 304.782900321189
    },
    {
      "id": 137988,
      "geometry": "POINT (-122.526265 37.902309)",
      "poi_name": "Rocco's Pizza",
      "osm_id": 6124996526,
      "amenity": "restaurant",
      "cuisine": "pizza",
      "website": "http://roccospizzamillvalley.com/",
      "phone": "+1 415 388 4444",
      "outdoor_seating": "yes",
      "delivery": "yes",
      "addr_state": "CA",
      "addr_city": "Mill Valley",
      "addr_postcode": "94941",
      "addr_street": "East Blithedale Avenue",
      "addr_housenumber": "711",
      "value": 304.782900321189
    },
    {
      "id": 132430,
      "geometry": "POINT (-122.51129 37.87307)",
      "poi_name": "Oha Hawaiian BBQ",
      "osm_id": 9953857528,
      "amenity": "restaurant",
      "cuisine": "hawaiian",
      "website": "https://ohabbq.com/",
      "phone": "+1-415-729-9384",
      "addr_state": "CA",
      "addr_city": "Sausalito",
      "addr_postcode": "94965",
      "addr_street": "Donahue Street",
      "addr_housenumber": "160",
      "value": 304.782900321189
    },
    {
      "id": 132752,
      "geometry": "POINT (-122.574932 37.86469)",
      "poi_name": "Pelican inn",
      "osm_id": 9966557460,
      "amenity": "restaurant",
      "cuisine": "british",
      "opening_hours": "Mo-Su 08:00-20:00",
      "website": "https://www.pelicaninn.com/eat/",
      "phone": "415.383.6000",
      "addr_state": "CA",
      "addr_city": "Muir Beach",
      "addr_postcode": "94965",
      "addr_street": "Pacific Way",
      "addr_housenumber": "10",
      "value": 304.782900321189
    },
    {
      "id": 148275,
      "geometry": "POINT (-122.501837 37.868469)",
      "poi_name": "Avatar's",
      "osm_id": 3940890113,
      "amenity": "restaurant",
      "cuisine": "indian",
      "opening_hours": "Mo-Sa 11:00-15:00,17:00-21:30",
      "phone": "+1 415 332 8083",
      "addr_state": "CA",
      "addr_city": "Sausalito",
      "addr_postcode": "94965",
      "addr_street": "Bridgeway",
      "addr_housenumber": "2656",
      "value": 304.782900321189
    },
    {
      "id": 149716,
      "geometry": "POINT (-122.420959 37.792592)",
      "poi_name": "Korean Soul Chicken",
      "osm_id": 4022663819,
      "amenity": "restaurant",
      "cuisine": "korean;chicken",
      "wheelchair": "yes",
      "opening_hours": "Mo-Th 11:30-21:00; Fr 11:30-22:00; Sa 13:00-22:00; Su 14:00-21:30",
      "website": "https://koreansoulchicken.com/",
      "phone": "+1 415 7963538",
      "takeaway": "yes",
      "outdoor_seating": "no",
      "addr_state": "CA",
      "addr_city": "San Francisco",
      "addr_street": "Polk Street",
      "addr_housenumber": "1710",
      "value": 304.782900321189
    },
    {
      "id": 149717,
      "geometry": "POINT (-122.420977 37.792654)",
      "poi_name": "Fish N Gari",
      "osm_id": 4022663820,
      "amenity": "restaurant",
      "cuisine": "sushi",
      "addr_city": "San Francisco",
      "addr_street": "Polk Street",
      "addr_housenumber": "1718",
      "value": 304.782900321189
    },
    {
      "id": 149720,
      "geometry": "POINT (-122.421008 37.792815)",
      "poi_name": "Thai Spice",
      "osm_id": 4022671471,
      "amenity": "restaurant",
      "website": "https://www.thaispiceonpolkstreet.com/new/",
      "phone": "415 775 4777",
      "addr_city": "San Francisco",
      "addr_postcode": "94109",
      "addr_street": "Polk Street",
      "addr_housenumber": "1730",
      "value": 304.782900321189
    },
    {
      "id": 151170,
      "geometry": "POINT (-122.421932 37.797323)",
      "poi_name": "SSAL",
      "osm_id": 4085672797,
      "amenity": "restaurant",
      "cuisine": "korean",
      "opening_hours": "We-Su 17:15-21:00",
      "website": "https://ssalsf.com/",
      "addr_city": "San Francisco",
      "addr_postcode": "94109",
      "addr_street": "Polk Street",
      "addr_housenumber": "2226",
      "value": 304.782900321189
    },
    {
      "id": 151172,
      "geometry": "POINT (-122.421961 37.797552)",
      "poi_name": "Fiorella Polk Street",
      "osm_id": 4085672799,
      "amenity": "restaurant",
      "cuisine": "pizza",
      "opening_hours": "Mo-Th 17:30-21:00; Fr 17:00-22:00; Sa 16:30-22:00; Su 16:30-21:30",
      "website": "http://www.fiorella-sf.com/",
      "phone": "+1 415 829 7097",
      "addr_state": "CA",
      "addr_city": "San Francisco",
      "addr_postcode": "94109",
      "addr_street": "Polk Street",
      "addr_housenumber": "2238;2240",
      "value": 304.782900321189
    },
    {
      "id": 150709,
      "geometry": "POINT (-122.437 37.797008)",
      "poi_name": "Rose's Caf\u00e9",
      "osm_id": 4064166469,
      "amenity": "restaurant",
      "cuisine": "italian",
      "phone": "+1 (415) 775-2200",
      "addr_city": "San Francisco",
      "addr_street": "Union Street",
      "addr_housenumber": "2298",
      "value": 304.782900321189
    },
    {
      "id": 160429,
      "geometry": "POINT (-122.421996 37.796304)",
      "poi_name": "Ramen Sho Ryu",
      "osm_id": 4833836651,
      "amenity": "restaurant",
      "cuisine": "ramen",
      "wheelchair": "yes",
      "phone": "+1 415 4004732",
      "addr_state": "CA",
      "addr_city": "San Francisco",
      "addr_postcode": "94109",
      "addr_street": "Polk Street",
      "addr_housenumber": "2123",
      "value": 304.782900321189
    },
    {
      "id": 161920,
      "geometry": "POINT (-122.535732 37.895814)",
      "poi_name": "Super Duper Burgers",
      "osm_id": 4907005441,
      "amenity": "restaurant",
      "cuisine": "burger;ice_cream",
      "takeaway": "yes",
      "outdoor_seating": "yes",
      "addr_state": "CA",
      "addr_city": "Mill Valley",
      "addr_postcode": "94941",
      "addr_street": "Miller Avenue",
      "addr_housenumber": "430",
      "value": 304.782900321189
    },
    {
      "id": 161922,
      "geometry": "POINT (-122.546187 37.906038)",
      "poi_name": "Kitchen Sunnyside",
      "osm_id": 4907005447,
      "amenity": "restaurant",
      "cuisine": "american;breakfast;lunch",
      "outdoor_seating": "no",
      "addr_state": "CA",
      "addr_city": "Mill Valley",
      "addr_postcode": "94941",
      "addr_street": "Sunnyside Avenue",
      "addr_housenumber": "31",
      "value": 304.782900321189
    },
    {
      "id": 161923,
      "geometry": "POINT (-122.545207 37.905797)",
      "poi_name": "Amberjack",
      "osm_id": 4907005448,
      "amenity": "restaurant",
      "cuisine": "sushi",
      "addr_state": "CA",
      "addr_city": "Mill Valley",
      "addr_postcode": "94941",
      "addr_street": "East Blithedale Avenue",
      "addr_housenumber": "72",
      "value": 304.782900321189
    },
    {
      "id": 161924,
      "geometry": "POINT (-122.544878 37.905899)",
      "poi_name": "Lam's Kitchen",
      "osm_id": 4907005449,
      "amenity": "restaurant",
      "cuisine": "chinese",
      "addr_state": "CA",
      "addr_city": "Mill Valley",
      "addr_postcode": "94941",
      "addr_street": "East Blithedale Avenue",
      "addr_housenumber": "89",
      "value": 304.782900321189
    },
    {
      "id": 161925,
      "geometry": "POINT (-122.545939 37.90658)",
      "poi_name": "Stefano's Pizza",
      "osm_id": 4907005451,
      "amenity": "restaurant",
      "cuisine": "italian_pizza",
      "takeaway": "yes",
      "outdoor_seating": "no",
      "addr_state": "CA",
      "addr_city": "Mill Valley",
      "addr_postcode": "94941",
      "addr_street": "East Blithedale Avenue",
      "addr_housenumber": "11",
      "value": 304.782900321189
    },
    {
      "id": 161939,
      "geometry": "POINT (-122.535195 37.89616)",
      "poi_name": "Samurai",
      "osm_id": 4907746161,
      "amenity": "restaurant",
      "cuisine": "japanese;sushi",
      "phone": "(415) 381-3680",
      "addr_state": "CA",
      "addr_city": "Mill Valley",
      "addr_postcode": "94941",
      "addr_street": "Miller Avenue",
      "addr_housenumber": "425",
      "value": 304.782900321189
    },
    {
      "id": 161940,
      "geometry": "POINT (-122.533677 37.89515)",
      "poi_name": "Tamalpie",
      "osm_id": 4907746163,
      "amenity": "restaurant",
      "cuisine": "pizza;italian",
      "outdoor_seating": "yes",
      "addr_state": "CA",
      "addr_city": "Mill Valley",
      "addr_postcode": "94941",
      "addr_street": "Miller Avenue",
      "addr_housenumber": "477",
      "value": 304.782900321189
    },
    {
      "id": 163118,
      "geometry": "POINT (-122.417245 37.790818)",
      "poi_name": "Golden Horse Restaurant",
      "osm_id": 9401048617,
      "amenity": "restaurant",
      "cuisine": "chinese",
      "opening_hours": "Mo-Su 11:00-20:00",
      "website": "https://www.goldenhorsesfca.com/",
      "phone": "+1 415 4418889",
      "takeaway": "yes",
      "delivery": "yes",
      "addr_state": "CA",
      "addr_city": "San Francisco",
      "addr_street": "Hyde Street",
      "addr_housenumber": "1060",
      "value": 304.782900321189
    },
    {
      "id": 164914,
      "geometry": "POINT (-122.448415 37.797376)",
      "poi_name": "Presidio Social Club",
      "osm_id": 9506876476,
      "amenity": "restaurant",
      "website": "https://www.presidiosocialclub.com",
      "phone": "+1 415 885 1888",
      "addr_state": "CA",
      "addr_city": "San Francisco",
      "addr_postcode": "94129",
      "addr_street": "Ruger Street",
      "addr_housenumber": "563",
      "value": 304.782900321189
    },
    {
      "id": 165977,
      "geometry": "POINT (-122.414206 37.789585)",
      "poi_name": "Almadura",
      "osm_id": 9567663733,
      "amenity": "restaurant",
      "cuisine": "spanish",
      "description": "Tapas and beer",
      "opening_hours": "Tu-Sa 16:00-21:00; Su,Mo off",
      "website": "https://www.almadurasfdining.com/",
      "phone": "+1 415 8171100",
      "takeaway": "yes",
      "addr_state": "CA",
      "addr_city": "San Francisco",
      "addr_street": "Bush Street",
      "addr_housenumber": "1022",
      "value": 304.782900321189
    },
    {
      "id": 180678,
      "geometry": "POINT (-122.459184 37.797625)",
      "poi_name": "Colibri Mexican Bistro",
      "osm_id": 10814627845,
      "amenity": "restaurant",
      "cuisine": "mexican",
      "website": "https://www.colibrimexicanbistro.com/",
      "outdoor_seating": "yes",
      "addr_state": "CA",
      "addr_street": "Moraga Avenue",
      "addr_housenumber": "50",
      "value": 304.782900321189
    },
    {
      "id": 170534,
      "geometry": "POINT (-122.437972 37.800212)",
      "poi_name": "Ace Wasabi's",
      "osm_id": 2340083046,
      "amenity": "restaurant",
      "cuisine": "sushi",
      "wheelchair": "no",
      "takeaway": "no",
      "outdoor_seating": "no",
      "addr_city": "San Francisco",
      "addr_street": "Steiner Street",
      "addr_housenumber": "3339",
      "value": 304.782900321189
    },
    {
      "id": 170559,
      "geometry": "POINT (-122.43679 37.800633)",
      "poi_name": "Asian Box",
      "osm_id": 2340884147,
      "amenity": "restaurant",
      "cuisine": "asian",
      "outdoor_seating": "yes",
      "addr_city": "San Francisco",
      "addr_street": "Chestnut Street",
      "value": 304.782900321189
    },
    {
      "id": 170560,
      "geometry": "POINT (-122.425253 37.80239)",
      "poi_name": "Chestnut Diner",
      "osm_id": 2340886392,
      "amenity": "restaurant",
      "cuisine": "diner",
      "addr_city": "San Francisco",
      "addr_street": "Chestnut Street",
      "addr_housenumber": "1312",
      "value": 304.782900321189
    },
    {
      "id": 170198,
      "geometry": "POINT (-122.43886 37.799658)",
      "poi_name": "Home Plate",
      "osm_id": 2328579239,
      "amenity": "restaurant",
      "cuisine": "regional",
      "opening_hours": "07:00-15:00",
      "addr_city": "San Francisco",
      "addr_postcode": "94123",
      "addr_street": "Lombard Street",
      "addr_housenumber": "2274",
      "value": 304.782900321189
    },
    {
      "id": 170214,
      "geometry": "POINT (-122.440682 37.799429)",
      "poi_name": "Phat Thai",
      "osm_id": 2328928015,
      "amenity": "restaurant",
      "cuisine": "thai",
      "website": "https://www.phatthaisf.com/",
      "addr_city": "San Francisco",
      "addr_postcode": "94123",
      "addr_street": "Lombard Street",
      "addr_housenumber": "2380",
      "value": 304.782900321189
    },
    {
      "id": 170525,
      "geometry": "POINT (-122.437624 37.800015)",
      "poi_name": "Ristorante Parma",
      "osm_id": 2340006084,
      "amenity": "restaurant",
      "cuisine": "italian",
      "opening_hours": "Mo-Sa 17:00-22:30",
      "website": "http://www.sfparma.com/",
      "phone": "+1 415-567-0500",
      "addr_state": "CA",
      "addr_city": "San Francisco",
      "addr_street": "Steiner Street",
      "addr_housenumber": "3314",
      "value": 304.782900321189
    },
    {
      "id": 170527,
      "geometry": "POINT (-122.436481 37.800671)",
      "poi_name": "The Dorian",
      "osm_id": 2340007153,
      "amenity": "restaurant",
      "opening_hours": "Tu-We 16:00-22:00; Th 16:00-24:00; Fr 16:00-26:00; Sa 10:30-26:00; Su 10:30-20:00",
      "website": "https://www.doriansf.com/",
      "phone": "+1 415 3587054",
      "outdoor_seating": "sidewalk",
      "addr_state": "CA",
      "addr_city": "San Francisco",
      "addr_postcode": "94123",
      "addr_street": "Chestnut Street",
      "addr_housenumber": "2001",
      "value": 304.782900321189
    },
    {
      "id": 170528,
      "geometry": "POINT (-122.436346 37.800512)",
      "poi_name": "Nippon Curry",
      "osm_id": 2340007195,
      "amenity": "restaurant",
      "cuisine": "japanese;curry",
      "opening_hours": "Tu 17:00-21:00; We-Fr 11:00-15:00,17:00-21:00; Sa 11:00-21:00; Su 11:00-15:00",
      "website": "https://www.nipponcurry.com/",
      "phone": "+1 415 6605170",
      "outdoor_seating": "sidewalk",
      "addr_state": "CA",
      "addr_city": "San Francisco",
      "addr_postcode": "94123",
      "addr_street": "Fillmore Street",
      "addr_housenumber": "3347",
      "value": 304.782900321189
    },
    {
      "id": 170529,
      "geometry": "POINT (-122.436704 37.800644)",
      "poi_name": "Pacific Catch",
      "osm_id": 2340007197,
      "amenity": "restaurant",
      "cuisine": "seafood",
      "opening_hours": "11:00 -22:00",
      "website": "https://pacificcatch.com/location/marina/",
      "phone": "415.440.1950",
      "outdoor_seating": "yes",
      "addr_state": "CA",
      "addr_city": "San Francisco",
      "addr_street": "Chestnut Street",
      "addr_housenumber": "2027",
      "value": 304.782900321189
    },
    {
      "id": 175611,
      "geometry": "POINT (-122.423814 37.796552)",
      "poi_name": "Wasabi & Ginger",
      "osm_id": 2527519135,
      "amenity": "restaurant",
      "cuisine": "japanese;sushi",
      "addr_city": "San Francisco",
      "addr_postcode": "94109",
      "addr_street": "Van Ness Avenue",
      "addr_housenumber": "2299",
      "value": 304.782900321189
    },
    {
      "id": 194651,
      "geometry": "POINT (-122.432397 37.797596)",
      "poi_name": "Wildseed",
      "osm_id": 10279460824,
      "amenity": "restaurant",
      "opening_hours": "Mo-Th 11:30-21:30, Fr 11:30-22:30, Sa 11:00-22:30, Su 11:00-21:30",
      "website": "https://www.wildseedsf.com",
      "phone": "+1 415-872-7350",
      "addr_state": "CA",
      "addr_city": "San Francisco",
      "addr_street": "Union Street",
      "addr_housenumber": "2000",
      "value": 304.782900321189
    },
    {
      "id": 192382,
      "geometry": "POINT (-123.041063 38.32637)",
      "poi_name": "Fishetarian Fish Market",
      "osm_id": 1438451157,
      "amenity": "restaurant",
      "cuisine": "seafood",
      "opening_hours": "Mo-Th 11:00-18:00; Fr-Su 11:00-19:00",
      "website": "https://fishetarianfishmarket.com",
      "phone": "707-875-9092",
      "takeaway": "yes",
      "addr_state": "CA",
      "addr_city": "Bodega Bay",
      "addr_postcode": "94923",
      "addr_street": "South Highway One",
      "addr_housenumber": "599",
      "value": 304.782900321189
    },
    {
      "id": 192383,
      "geometry": "POINT (-123.058817 38.329517)",
      "poi_name": "Spud Point Crab Company",
      "osm_id": 1438459107,
      "amenity": "restaurant",
      "cuisine": "seafood",
      "opening_hours": "09:00-17:00",
      "website": "https://www.spudpointcrabco.com/",
      "phone": "(707) 875-9472",
      "takeaway": "yes",
      "outdoor_seating": "yes",
      "addr_city": "Bodega Bay",
      "addr_postcode": "94923",
      "addr_street": "Westshore Road",
      "addr_housenumber": "1910",
      "value": 304.782900321189
    },
    {
      "id": 201971,
      "geometry": "POINT (-122.478571 37.853576)",
      "poi_name": "The Trident",
      "osm_id": 669137812,
      "amenity": "restaurant",
      "cuisine": "seafood;burger",
      "wikidata": "Q7770212",
      "addr_state": "CA",
      "addr_city": "Sausalito",
      "addr_postcode": "94965",
      "addr_street": "Bridgeway",
      "addr_housenumber": "558",
      "value": 304.782900321189
    },
    {
      "id": 213475,
      "geometry": "POINT (-122.43567 37.798579)",
      "poi_name": "Mixt",
      "osm_id": 5251259531,
      "amenity": "restaurant",
      "cuisine": "salad",
      "website": "https://www.mixt.com",
      "addr_state": "CA",
      "addr_city": "San Francisco",
      "addr_postcode": "94123",
      "addr_street": "Fillmore Street",
      "addr_housenumber": "3130",
      "value": 304.782900321189
    },
    {
      "id": 214083,
      "geometry": "POINT (-122.525508 37.882146)",
      "poi_name": "Bahn Mi Zon",
      "osm_id": 5265429359,
      "amenity": "restaurant",
      "cuisine": "sandwich;vietnamese;bubble_tea",
      "website": "https://www.banhmizonus.com/",
      "phone": "+1 415-521-5289",
      "takeaway": "yes",
      "outdoor_seating": "no",
      "addr_state": "CA",
      "addr_city": "Mill Valley",
      "addr_postcode": "94941",
      "addr_street": "Shoreline Highway",
      "addr_housenumber": "256",
      "value": 304.782900321189
    },
    {
      "id": 215690,
      "geometry": "POINT (-122.43244 37.79929)",
      "poi_name": "The Brazen Head",
      "osm_id": 5309536560,
      "amenity": "restaurant",
      "website": "https://www.brazenheadsf.com/",
      "phone": "+1 (415) 921-7600",
      "addr_city": "San Francisco",
      "addr_postcode": "94123",
      "addr_street": "Buchanan Street",
      "addr_housenumber": "3166",
      "value": 304.782900321189
    },
    {
      "id": 232098,
      "geometry": "POINT (-122.43448 37.797319)",
      "poi_name": "Contrada",
      "osm_id": 4509844217,
      "amenity": "restaurant",
      "cuisine": "italian",
      "website": "https://contradasf.com/",
      "phone": "+1 (415) 926-8916",
      "addr_city": "San Francisco",
      "addr_postcode": "94123",
      "addr_street": "Union Street",
      "addr_housenumber": "2136",
      "value": 304.782900321189
    },
    {
      "id": 215881,
      "geometry": "POINT (-122.431304 37.797729)",
      "poi_name": "Perry's",
      "osm_id": 5317135196,
      "amenity": "restaurant",
      "website": "https://www.perryssf.com/location/union-street/",
      "phone": "+1 (415) 922-9022",
      "addr_state": "CA",
      "addr_city": "San Francisco",
      "addr_postcode": "94123",
      "addr_street": "Union Street",
      "addr_housenumber": "1944",
      "value": 304.782900321189
    },
    {
      "id": 219653,
      "geometry": "POINT (-122.438124 37.800474)",
      "poi_name": "World Wrapps",
      "osm_id": 9341171153,
      "amenity": "restaurant",
      "cuisine": "mexican;indian;asian;sushi;thai",
      "opening_hours": "Mo-Su 11:00-20:00",
      "website": "https://worldwrapps.com/",
      "phone": "+1 415 6545313",
      "delivery": "yes",
      "addr_state": "CA",
      "addr_city": "San Francisco",
      "addr_postcode": "94123",
      "addr_street": "Chestnut Street",
      "addr_housenumber": "2105",
      "value": 304.782900321189
    },
    {
      "id": 226238,
      "geometry": "POINT (-122.440996 37.799905)",
      "poi_name": "Hole in the Wall Pizza",
      "osm_id": 11152518865,
      "amenity": "restaurant",
      "cuisine": "pizza",
      "website": "https://sfholewallpizza.com/",
      "addr_state": "CA",
      "addr_city": "San Francisco",
      "addr_postcode": "94123",
      "addr_street": "Scott Street",
      "addr_housenumber": "3244",
      "value": 304.782900321189
    },
    {
      "id": 234506,
      "geometry": "POINT (-122.435962 37.797884)",
      "poi_name": "Rooster & Rice",
      "osm_id": 4625198260,
      "amenity": "restaurant",
      "website": "https://www.roosterandrice.com/",
      "phone": "+1 (415) 776-3647",
      "addr_state": "CA",
      "addr_city": "San Francisco",
      "addr_postcode": "94123",
      "addr_street": "Filbert Street",
      "addr_housenumber": "2211",
      "value": 304.782900321189
    },
    {
      "id": 235016,
      "geometry": "POINT (-122.947318 38.406711)",
      "poi_name": "Howard Station Cafe",
      "osm_id": 5742780221,
      "amenity": "restaurant",
      "description": "Cash only. No reservations. Closed only on Thanksgiving and Christmas Day. Breakfast and cafe fare, using organic ingredients as often as possible.",
      "opening_hours": "Mo-Fr 07:00-14:30; Sa,Su 07:00-15:00",
      "website": "https://www.howardstationcafe.com/",
      "outdoor_seating": "yes",
      "addr_city": "Occidental",
      "addr_postcode": "95465",
      "addr_street": "Bohemian Highway",
      "addr_housenumber": "3611",
      "value": 304.782900321189
    }
  ],
  "answer_type": "loc",
  "question_entities": {
    "[2]": {
      "distance": 160000,
      "text": "160 kilometers"
    },
    "[3]": {
      "main_category": "tourism",
      "sub_category": "gallery",
      "display_name": "Rebecca Camacho Presents, San Francisco, CA",
      "geo_wkt": "POINT (-122.413378 37.788732)",
      "poi": {
        "id": 11081,
        "geometry": "POINT (-122.413378 37.788732)",
        "poi_name": "Rebecca Camacho Presents",
        "osm_id": 9849528027,
        "tourism": "gallery",
        "wheelchair": "yes",
        "addr_state": "CA",
        "addr_city": "San Francisco",
        "addr_street": "Sutter Street",
        "addr_housenumber": "794"
      }
    },
    "[4]": {
      "main_category": "tourism",
      "sub_category": "viewpoint",
      "display_name": "Golden Gate Bridge Lookout, Sausalito, CA",
      "geo_wkt": "POINT (-122.486003 37.82872)",
      "poi": {
        "id": 20450,
        "geometry": "POINT (-122.486003 37.82872)",
        "poi_name": "Golden Gate Bridge Lookout",
        "osm_id": 1183476394,
        "tourism": "viewpoint",
        "addr_state": "CA",
        "addr_city": "Sausalito",
        "addr_street": "Conzelman Road"
      }
    },
    "[1]": {
      "main_category": "amenity",
      "sub_category": "restaurant"
    }
  },
  "id": 1241,
  "type": "range:towards+loc"
}