{
  "question": "Within 80 kilometers, which caf\u00e9 can I find from Cassidy Farm Conservation Land, Millis, MA on the way to Joppa Hill Farm, Bedford, NH?",
  "sql": "WITH\n    angle AS (SELECT degrees(ST_Azimuth(ST_GeomFromText('POINT (-71.362131 42.184482)',4326)::geography, ST_GeomFromText('POINT (-71.575992 42.931889)',4326)::geography)) AS value)\nSELECT * FROM pois,angle\nWHERE amenity = 'cafe'\nAND ST_DWithin(pois.geometry, ST_GeomFromText('POINT (-71.362131 42.184482)',4326)::geography, 80000)\nAND (degrees(ST_Azimuth(ST_GeomFromText('POINT (-71.362131 42.184482)',4326)::geography, pois.geometry)) BETWEEN angle.value - 22.5 AND angle.value + 22.5);\n",
  "answers": [
    {
      "id": 28760,
      "geometry": "POINT (-71.573179 42.809933)",
      "poi_name": "Aroma Joe's",
      "osm_id": 8257750188,
      "amenity": "cafe",
      "cuisine": "coffee_shop",
      "building": "yes",
      "opening_hours": "Mo-Sa 05:15-21:00; Su 05:45-21:00",
      "takeaway": "only",
      "addr_state": "NH",
      "addr_city": "Amherst",
      "addr_street": "Paul's Way",
      "addr_housenumber": "2",
      "value": 348.12814394655084
    },
    {
      "id": 35135,
      "geometry": "POINT (-71.585193 42.498563)",
      "poi_name": "Cafeteria",
      "osm_id": 2711284846,
      "amenity": "cafe",
      "value": 348.12814394655084
    },
    {
      "id": 35832,
      "geometry": "POINT (-71.444715 42.542335)",
      "poi_name": "Snack Bar",
      "osm_id": 2733140652,
      "amenity": "cafe",
      "value": 348.12814394655084
    },
    {
      "id": 52399,
      "geometry": "POINT (-71.45447 42.43181)",
      "poi_name": "Boston Bean House",
      "osm_id": 581974847,
      "amenity": "cafe",
      "opening_hours": "Mo-Fr 06:00-14:00; Sa 07:00-14:00",
      "website": "http://web.maynard.ma.us/biz/bbhouse/",
      "internet_access": "wlan",
      "phone": "+1 978 897 8907",
      "addr_state": "MA",
      "addr_city": "Maynard",
      "addr_postcode": "01754",
      "addr_street": "Main Street",
      "addr_housenumber": "102",
      "value": 348.12814394655084
    },
    {
      "id": 68503,
      "geometry": "POINT (-71.430609 42.360545)",
      "poi_name": "New City Microcreamery",
      "osm_id": 11272411290,
      "amenity": "cafe",
      "value": 348.12814394655084
    },
    {
      "id": 61022,
      "geometry": "POINT (-71.396676 42.456641)",
      "poi_name": "Tea Firte",
      "osm_id": 5494285001,
      "amenity": "cafe",
      "addr_state": "MA",
      "addr_city": "Concord",
      "addr_postcode": "01742",
      "addr_street": "Bradford Street",
      "addr_housenumber": "23",
      "value": 348.12814394655084
    },
    {
      "id": 61023,
      "geometry": "POINT (-71.394005 42.456478)",
      "poi_name": "Concord Teacakes",
      "osm_id": 5494285002,
      "amenity": "cafe",
      "wheelchair": "yes",
      "shop": "pastry",
      "internet_access": "yes",
      "addr_state": "MA",
      "addr_city": "Concord",
      "addr_postcode": "01742",
      "addr_street": "Commonwealth Avenue",
      "addr_housenumber": "59",
      "value": 348.12814394655084
    },
    {
      "id": 64474,
      "geometry": "POINT (-71.420722 42.502001)",
      "poi_name": "Blackbird",
      "osm_id": 5653843488,
      "amenity": "cafe",
      "value": 348.12814394655084
    },
    {
      "id": 66590,
      "geometry": "POINT (-71.48633 42.813714)",
      "poi_name": "Aroma Joe's",
      "osm_id": 11200692127,
      "amenity": "cafe",
      "cuisine": "coffee_shop",
      "takeaway": "yes",
      "drive_through": "yes",
      "value": 348.12814394655084
    },
    {
      "id": 67596,
      "geometry": "POINT (-71.441373 42.437816)",
      "poi_name": "Maynard Village Pizza",
      "osm_id": 11242001951,
      "amenity": "cafe",
      "value": 348.12814394655084
    },
    {
      "id": 55532,
      "geometry": "POINT (-71.39265 42.363884)",
      "poi_name": "Karma Coffee",
      "osm_id": 10197396694,
      "amenity": "cafe",
      "cuisine": "coffee_shop",
      "value": 348.12814394655084
    },
    {
      "id": 66770,
      "geometry": "POINT (-71.455493 42.43183)",
      "poi_name": "Family Delicatessen",
      "osm_id": 11210482901,
      "amenity": "cafe",
      "opening_hours": "Mo-Fr 09:45-19:00; Sa 09:45-17:00",
      "website": "https://familydelicatessen.com/",
      "phone": "+1 978 298 5147",
      "value": 348.12814394655084
    },
    {
      "id": 74626,
      "geometry": "POINT (-71.447062 42.417738)",
      "poi_name": "Bueno Y Sano",
      "osm_id": 9689462205,
      "amenity": "cafe",
      "addr_state": "MA",
      "addr_city": "Maynard",
      "addr_postcode": "01742",
      "addr_street": "DIgital Way",
      "addr_housenumber": "2",
      "value": 348.12814394655084
    },
    {
      "id": 101322,
      "geometry": "POINT (-71.620621 42.825111)",
      "poi_name": "Bookside Cafe",
      "osm_id": 6621628331,
      "amenity": "cafe",
      "cuisine": "coffee_shop",
      "opening_hours": "Mo-Sa 10:00-18:00; Th 10:00-20:00; Su 10:00-16:00",
      "website": "https://www.toadbooks.com/",
      "phone": "+1-603-673-1734",
      "addr_state": "NH",
      "addr_city": "Milford",
      "addr_postcode": "03055",
      "addr_street": "Nashua Street",
      "addr_housenumber": "614",
      "value": 348.12814394655084
    },
    {
      "id": 82207,
      "geometry": "POINT (-71.421682 42.56673)",
      "poi_name": "Starbucks",
      "osm_id": 1687438202,
      "amenity": "cafe",
      "cuisine": "coffee_shop",
      "takeaway": "yes",
      "official_name": "Starbucks Coffee",
      "value": 348.12814394655084
    },
    {
      "id": 91327,
      "geometry": "POINT (-71.586351 42.619542)",
      "poi_name": "Blackbird Cafe",
      "osm_id": 2060890727,
      "amenity": "cafe",
      "cuisine": "coffee_shop;sandwich",
      "website": "https://myblackbirdcafe.com/",
      "value": 348.12814394655084
    },
    {
      "id": 96766,
      "geometry": "POINT (-71.397822 42.305761)",
      "poi_name": "Starbucks",
      "osm_id": 6443973264,
      "amenity": "cafe",
      "cuisine": "coffee_shop",
      "takeaway": "yes",
      "official_name": "Starbucks Coffee",
      "value": 348.12814394655084
    },
    {
      "id": 115137,
      "geometry": "POINT (-71.47686 42.55157)",
      "poi_name": "Starbucks",
      "osm_id": 3913138259,
      "amenity": "cafe",
      "cuisine": "coffee_shop",
      "opening_hours": "Mo-Th 04:30-21:00; Fr 04:30-21:30; Sa 05:30-21:30; Su 05:30-21:00",
      "internet_access": "wlan",
      "phone": "+1 978 440 0729",
      "takeaway": "yes",
      "official_name": "Starbucks Coffee",
      "addr_state": "MA",
      "addr_city": "Littleton",
      "addr_postcode": "01460",
      "addr_street": "Constitution Avenue",
      "addr_housenumber": "495",
      "value": 348.12814394655084
    },
    {
      "id": 112036,
      "geometry": "POINT (-71.395029 42.457139)",
      "poi_name": "Salt Box Kitchen",
      "osm_id": 3777481852,
      "amenity": "cafe",
      "cuisine": "ice_cream",
      "opening_hours": "Mo-Su 07:00-19:00",
      "value": 348.12814394655084
    },
    {
      "id": 140976,
      "geometry": "POINT (-71.5059 42.82422)",
      "poi_name": "Starbucks",
      "osm_id": 6268905785,
      "amenity": "cafe",
      "cuisine": "coffee_shop",
      "opening_hours": "Mo-Th 05:30-20:00; Fr 05:30-20:30; Sa 06:30-21:00; Su 05:30-19:30",
      "phone": "+1 603 429 0448",
      "takeaway": "yes",
      "official_name": "Starbucks Coffee",
      "addr_state": "NH",
      "addr_city": "Merrimack",
      "addr_postcode": "03054",
      "addr_street": "Premium Outlets Boulevard",
      "addr_housenumber": "17A",
      "value": 348.12814394655084
    },
    {
      "id": 116830,
      "geometry": "POINT (-71.565121 42.805581)",
      "poi_name": "A&E Coffee and Tea",
      "osm_id": 8963863811,
      "amenity": "cafe",
      "cuisine": "coffee_shop;cafe",
      "opening_hours": "Mo-Fr 07:00-17:00, Sa 09:00-17:00, Su 09:00-17:00",
      "website": "https://aeroastery.com",
      "internet_access": "wlan",
      "phone": "+1 603 578-3338",
      "outdoor_seating": "yes",
      "addr_state": "NH",
      "addr_city": "Amherst",
      "addr_postcode": "03031",
      "addr_street": "NH 101A",
      "addr_housenumber": "135",
      "value": 348.12814394655084
    },
    {
      "id": 116831,
      "geometry": "POINT (-71.570805 42.80874)",
      "poi_name": "Etagere",
      "osm_id": 8963943259,
      "amenity": "cafe",
      "cuisine": "coffee_shop;tea",
      "opening_hours": "We-Fr 8:00-18:00, Sa 9:00-18:00, Su 10:00-16:00",
      "website": "https://sipshopsoak.com",
      "phone": "+1 603 417-3121",
      "addr_state": "NH",
      "addr_city": "Amherst",
      "addr_postcode": "03031",
      "addr_street": "NH 101A",
      "addr_housenumber": "114",
      "value": 348.12814394655084
    },
    {
      "id": 120485,
      "geometry": "POINT (-71.41614 42.279882)",
      "poi_name": "Sofa Cafe",
      "osm_id": 6708117927,
      "amenity": "cafe",
      "cuisine": "coffee_shop;brazilian",
      "internet_access": "yes",
      "outdoor_seating": "no",
      "addr_state": "MA",
      "addr_city": "Framingham",
      "addr_postcode": "01702",
      "addr_street": "Concord Street",
      "addr_housenumber": "181",
      "value": 348.12814394655084
    },
    {
      "id": 125244,
      "geometry": "POINT (-71.451904 42.432643)",
      "poi_name": "Open Table",
      "osm_id": 6952179888,
      "amenity": "cafe",
      "value": 348.12814394655084
    },
    {
      "id": 126904,
      "geometry": "POINT (-71.5406 42.699997)",
      "poi_name": "Soda Machine",
      "osm_id": 8011093914,
      "amenity": "cafe",
      "opening_hours": "24/7",
      "value": 348.12814394655084
    },
    {
      "id": 118322,
      "geometry": "POINT (-71.426172 42.731495)",
      "poi_name": "Starbucks",
      "osm_id": 9039488742,
      "amenity": "cafe",
      "cuisine": "coffee_shop",
      "takeaway": "yes",
      "official_name": "Starbucks Coffee",
      "value": 348.12814394655084
    },
    {
      "id": 127653,
      "geometry": "POINT (-71.496609 42.435485)",
      "poi_name": "Nan's",
      "osm_id": 8081671824,
      "amenity": "cafe",
      "value": 348.12814394655084
    },
    {
      "id": 155648,
      "geometry": "POINT (-71.442902 42.710832)",
      "poi_name": "Barnes & Noble Cafe",
      "osm_id": 4295448814,
      "amenity": "cafe",
      "cuisine": "coffee_shop",
      "opening_hours": "Mo-Th 09:00-21:00; Fr,Sa 09:00-23:00; Su 10:00-21:00",
      "operator": "Barnes & Noble",
      "website": "https://www.barnesandnoble.com/",
      "phone": "+1-603-888-0533",
      "addr_state": "NH",
      "addr_city": "Nashua",
      "addr_postcode": "03060",
      "addr_street": "Daniel Webster Highway",
      "addr_housenumber": "235",
      "value": 348.12814394655084
    },
    {
      "id": 148030,
      "geometry": "POINT (-71.368236 42.364601)",
      "poi_name": "vacant store",
      "osm_id": 3925961954,
      "amenity": "cafe",
      "value": 348.12814394655084
    },
    {
      "id": 148031,
      "geometry": "POINT (-71.368157 42.36461)",
      "poi_name": "vacant store",
      "osm_id": 3925964358,
      "amenity": "cafe",
      "value": 348.12814394655084
    },
    {
      "id": 144822,
      "geometry": "POINT (-71.391084 42.60581)",
      "poi_name": "Country Creamery and Coffeehouse",
      "osm_id": 7289524193,
      "amenity": "cafe",
      "cuisine": "coffee_shop;ice_cream",
      "addr_state": "MA",
      "addr_city": "Chelmsford",
      "addr_postcode": "01824",
      "addr_street": "Old Westford Road",
      "addr_housenumber": "272",
      "value": 348.12814394655084
    },
    {
      "id": 168361,
      "geometry": "POINT (-71.451705 42.474926)",
      "poi_name": "Starbucks",
      "osm_id": 392156345,
      "amenity": "cafe",
      "cuisine": "coffee_shop",
      "wheelchair": "limited",
      "takeaway": "yes",
      "official_name": "Starbucks Coffee",
      "outdoor_seating": "yes",
      "value": 348.12814394655084
    },
    {
      "id": 167118,
      "geometry": "POINT (-71.488682 42.433836)",
      "poi_name": "Stow House of Pizza",
      "osm_id": 339057878,
      "amenity": "cafe",
      "cuisine": "pizza",
      "wheelchair": "yes",
      "opening_hours": "Su-Th 11:00-21:00; Fr,Sa 11:00-22:00",
      "addr_city": "Stow",
      "addr_postcode": "01775",
      "addr_street": "Great Road",
      "addr_housenumber": "156",
      "value": 348.12814394655084
    },
    {
      "id": 175759,
      "geometry": "POINT (-71.387002 42.298001)",
      "poi_name": "Starbucks",
      "osm_id": 2537293631,
      "amenity": "cafe",
      "cuisine": "coffee_shop",
      "wheelchair": "yes",
      "internet_access": "yes",
      "phone": "+1 (508) 650-2081",
      "takeaway": "yes",
      "official_name": "Starbucks Coffee",
      "addr_city": "Natick",
      "addr_postcode": "01760",
      "addr_street": "Worcester Street",
      "addr_housenumber": "1346",
      "value": 348.12814394655084
    },
    {
      "id": 173668,
      "geometry": "POINT (-71.396524 42.458446)",
      "poi_name": "Nashoba Brook Bakery",
      "osm_id": 2449782044,
      "amenity": "cafe",
      "opening_hours": "Mo-Su 08:00-16:00",
      "value": 348.12814394655084
    },
    {
      "id": 173669,
      "geometry": "POINT (-71.395765 42.457472)",
      "poi_name": "Reasons to be Cheerful",
      "osm_id": 2449782049,
      "amenity": "cafe",
      "cuisine": "coffee;ice_cream",
      "wheelchair": "yes",
      "opening_hours": "11:00-21:00",
      "website": "https://www.cheerful-reasons.com/",
      "phone": "+1-978-610-6248",
      "addr_state": "MA",
      "addr_city": "Concord",
      "addr_postcode": "01742",
      "addr_street": "Commonwealth Avenue",
      "addr_housenumber": "110",
      "value": 348.12814394655084
    },
    {
      "id": 172725,
      "geometry": "POINT (-71.58647 42.619642)",
      "poi_name": "Cafe at Groton Wellness",
      "osm_id": 2411563915,
      "amenity": "cafe",
      "cuisine": "sandwich;coffee_shop;chicken;pizza;international;burger;greek;italian;american",
      "opening_hours": "Mo-Th 08:00-18:00,Fr 08:00-17:00,Sa 10:00-15:00",
      "website": "https://gwcafe.revelup.com/weborder/?establishment",
      "capacity": "25",
      "phone": "+1 978-449-9919",
      "takeaway": "no",
      "outdoor_seating": "yes",
      "addr_state": "MA",
      "addr_city": "Groton",
      "addr_postcode": "01450",
      "addr_street": "Main Street",
      "addr_housenumber": "493",
      "value": 348.12814394655084
    },
    {
      "id": 203487,
      "geometry": "POINT (-71.364054 42.317064)",
      "poi_name": "Starbucks",
      "osm_id": 7089482023,
      "amenity": "cafe",
      "cuisine": "coffee_shop",
      "takeaway": "yes",
      "official_name": "Starbucks Coffee",
      "value": 348.12814394655084
    },
    {
      "id": 203328,
      "geometry": "POINT (-71.430033 42.359164)",
      "poi_name": "Starbucks",
      "osm_id": 7078544811,
      "amenity": "cafe",
      "cuisine": "coffee_shop",
      "takeaway": "yes",
      "official_name": "Starbucks Coffee",
      "addr_state": "MA",
      "addr_city": "Sudbury",
      "addr_postcode": "01776",
      "addr_street": "Boston Post Road",
      "addr_housenumber": "513",
      "value": 348.12814394655084
    },
    {
      "id": 180762,
      "geometry": "POINT (-71.399907 42.324919)",
      "poi_name": "Saxonville Mills Cafe and Roastery",
      "osm_id": 10816914430,
      "amenity": "cafe",
      "cuisine": "coffee_shop",
      "website": "https://saxonvillecafe.com/",
      "internet_access": "wlan",
      "value": 348.12814394655084
    },
    {
      "id": 201575,
      "geometry": "POINT (-71.414153 42.48258)",
      "poi_name": "KJ's Caffe",
      "osm_id": 639236209,
      "amenity": "cafe",
      "value": 348.12814394655084
    },
    {
      "id": 203289,
      "geometry": "POINT (-71.430658 42.360486)",
      "poi_name": "Peet's Coffee",
      "osm_id": 7076472690,
      "amenity": "cafe",
      "cuisine": "coffee_shop",
      "opening_hours": "Mo-Su 6:30-17:00",
      "internet_access": "wlan",
      "takeaway": "yes",
      "addr_city": "Sudbury",
      "addr_street": "Boston Post Road",
      "addr_housenumber": "534",
      "value": 348.12814394655084
    },
    {
      "id": 205396,
      "geometry": "POINT (-71.649256 42.835214)",
      "poi_name": "Caf\u00e9 on the Oval",
      "osm_id": 7167606651,
      "amenity": "cafe",
      "opening_hours": "Mo,We-Fr 05:00-14:00; Sa 05:00-13:00; Su 06:00-13:00",
      "value": 348.12814394655084
    },
    {
      "id": 205914,
      "geometry": "POINT (-71.521649 42.792893)",
      "poi_name": "Kung Fu Tea",
      "osm_id": 7188768313,
      "amenity": "cafe",
      "cuisine": "bubble_tea",
      "shop": "tea",
      "takeaway": "yes",
      "addr_state": "NH",
      "addr_city": "Nashua",
      "addr_postcode": "03063",
      "addr_street": "Amherst Street",
      "addr_housenumber": "493",
      "value": 348.12814394655084
    },
    {
      "id": 215660,
      "geometry": "POINT (-71.648903 42.834883)",
      "poi_name": "Union Coffee Company",
      "osm_id": 5308725599,
      "amenity": "cafe",
      "opening_hours": "Su-Th 07:00-18:00; Fr-Sa 07:00-22:00",
      "internet_access": "yes",
      "toilets": "yes",
      "addr_state": "NH",
      "addr_city": "Milford",
      "addr_postcode": "03055",
      "addr_street": "South St",
      "addr_housenumber": "42",
      "value": 348.12814394655084
    },
    {
      "id": 230548,
      "geometry": "POINT (-71.364366 42.623776)",
      "poi_name": "Starbucks",
      "osm_id": 4430599872,
      "amenity": "cafe",
      "cuisine": "coffee_shop",
      "takeaway": "yes",
      "official_name": "Starbucks Coffee",
      "value": 348.12814394655084
    },
    {
      "id": 227346,
      "geometry": "POINT (-71.436085 42.699701)",
      "poi_name": "Starbucks",
      "osm_id": 4305086556,
      "amenity": "cafe",
      "cuisine": "coffee_shop",
      "opening_hours": "Mo-Sa 08:00-21:00; Su 10:30-18:00",
      "internet_access": "wlan",
      "phone": "+1-603-897-1860",
      "takeaway": "yes",
      "official_name": "Starbucks Coffee",
      "addr_state": "NH",
      "addr_city": "Nashua",
      "addr_postcode": "03060",
      "addr_street": "Daniel Webster Highway",
      "addr_housenumber": "310",
      "value": 348.12814394655084
    },
    {
      "id": 227355,
      "geometry": "POINT (-71.437074 42.700942)",
      "poi_name": "Nature's Nectar",
      "osm_id": 4305086954,
      "amenity": "cafe",
      "cuisine": "smoothie",
      "opening_hours": "Mo-Sa 10:00-21:00; Su 12:00-18:00",
      "website": "https://naturesnectarsmoothies.wordpress.com/",
      "addr_state": "NH",
      "addr_city": "Nashua",
      "addr_postcode": "03060",
      "addr_street": "Daniel Webster Highway",
      "addr_housenumber": "310",
      "value": 348.12814394655084
    },
    {
      "id": 227281,
      "geometry": "POINT (-71.588005 42.559639)",
      "poi_name": "Union Coffee Roasters",
      "osm_id": 11186729373,
      "amenity": "cafe",
      "cuisine": "coffee_shop",
      "value": 348.12814394655084
    },
    {
      "id": 231160,
      "geometry": "POINT (-71.470837 42.476234)",
      "poi_name": "Acton Coffee House",
      "osm_id": 4458228669,
      "amenity": "cafe",
      "cuisine": "coffee_shop",
      "wheelchair": "limited",
      "website": "https://www.actoncoffeehouse.com/",
      "phone": "+1 978-263-3700",
      "addr_state": "MA",
      "addr_city": "Acton",
      "addr_street": "Massachusetts Avenue",
      "addr_housenumber": "525",
      "value": 348.12814394655084
    },
    {
      "id": 244305,
      "geometry": "POINT (-71.427929 42.442483)",
      "poi_name": "Sweet Tomatoes",
      "osm_id": 7714438797,
      "amenity": "cafe",
      "cuisine": "pizza",
      "opening_hours": "Su-Th 11:00-20:30; Fr,Sa 11:00-21:00",
      "value": 348.12814394655084
    }
  ],
  "answer_type": "name",
  "question_entities": {
    "[2]": {
      "distance": 80000,
      "text": "80 kilometers"
    },
    "[3]": {
      "main_category": "leisure",
      "sub_category": "nature reserve",
      "display_name": "Cassidy Farm Conservation Land, Millis, MA",
      "geo_wkt": "POINT (-71.362131 42.184482)",
      "poi": {
        "id": 246987,
        "geometry": "POINT (-71.362131 42.184482)",
        "poi_name": "Cassidy Farm Conservation Land",
        "osm_id": 8514477080,
        "leisure": "nature_reserve",
        "opening_hours": "sunrise-sunset",
        "operator": "Millis Conservation Commission",
        "addr_state": "MA",
        "addr_city": "Millis",
        "addr_postcode": "02054",
        "addr_street": "Exchange Street",
        "addr_housenumber": "433"
      }
    },
    "[4]": {
      "main_category": "tourism",
      "sub_category": "zoo",
      "display_name": "Joppa Hill Farm, Bedford, NH",
      "geo_wkt": "POINT (-71.575992 42.931889)",
      "poi": {
        "id": 10743,
        "geometry": "POINT (-71.575992 42.931889)",
        "poi_name": "Joppa Hill Farm",
        "osm_id": 8014170407,
        "tourism": "zoo",
        "zoo": "petting_zoo",
        "addr_state": "NH",
        "addr_city": "Bedford",
        "addr_postcode": "03110"
      }
    },
    "[1]": {
      "main_category": "amenity",
      "sub_category": "cafe"
    }
  },
  "id": 1655,
  "type": "range:towards+name"
}