{
  "question": "Which restaurant is available as you move towards Aquatic Zoo Tropical Fish, Thousand Oaks, CA from Homewood Suites by Hilton Los Angeles International Airport, Los Angeles, CA, within a radius of 70 kilometers?",
  "sql": "WITH\n    angle AS (SELECT degrees(ST_Azimuth(ST_GeomFromText('POINT (-118.392895 33.946054)',4326)::geography, ST_GeomFromText('POINT (-118.840161 34.172588)',4326)::geography)) AS value)\nSELECT * FROM pois,angle\nWHERE amenity = 'restaurant'\nAND ST_DWithin(pois.geometry, ST_GeomFromText('POINT (-118.392895 33.946054)',4326)::geography, 70000)\nAND (degrees(ST_Azimuth(ST_GeomFromText('POINT (-118.392895 33.946054)',4326)::geography, pois.geometry)) BETWEEN angle.value - 22.5 AND angle.value + 22.5);\n",
  "answers": [
    {
      "id": 27299,
      "geometry": "POINT (-118.962464 34.05324)",
      "poi_name": "Neptune's Net",
      "osm_id": 410083164,
      "amenity": "restaurant",
      "cuisine": "seafood",
      "website": "https://www.neptunesnet.com",
      "phone": "+1 310 457-3095",
      "wikidata": "Q19630333",
      "addr_state": "CA",
      "addr_city": "Malibu",
      "addr_postcode": "90265",
      "addr_street": "Pacific Coast Highway",
      "addr_housenumber": "42505",
      "value": 301.44749403728974
    },
    {
      "id": 27391,
      "geometry": "POINT (-118.473412 33.987132)",
      "poi_name": "Danny's Bistro and Cafe",
      "osm_id": 416766635,
      "amenity": "restaurant",
      "cuisine": "american",
      "value": 301.44749403728974
    },
    {
      "id": 27608,
      "geometry": "POINT (-118.492493 34.034196)",
      "poi_name": "17th Street Cafe",
      "osm_id": 439931638,
      "amenity": "restaurant",
      "cuisine": "american",
      "value": 301.44749403728974
    },
    {
      "id": 27609,
      "geometry": "POINT (-118.493283 34.033527)",
      "poi_name": "Margo's",
      "osm_id": 439931915,
      "amenity": "restaurant",
      "cuisine": "american",
      "website": "https://www.margossantamonica.com/",
      "phone": "+1-310-829-3990",
      "addr_state": "CA",
      "addr_city": "Santa Monica",
      "addr_postcode": "90403",
      "addr_street": "Montana Avenue",
      "addr_housenumber": "1534",
      "value": 301.44749403728974
    },
    {
      "id": 27612,
      "geometry": "POINT (-118.495067 34.032451)",
      "poi_name": "Pradeep's",
      "osm_id": 439932752,
      "amenity": "restaurant",
      "cuisine": "indian",
      "value": 301.44749403728974
    },
    {
      "id": 27614,
      "geometry": "POINT (-118.498666 34.029058)",
      "poi_name": "Art's Table",
      "osm_id": 439949411,
      "amenity": "restaurant",
      "cuisine": "american;seafood;salad",
      "website": "https://www.artstablesm.com/",
      "phone": "+1-310-395-2500",
      "addr_state": "CA",
      "addr_city": "Santa Monica",
      "addr_postcode": "90403",
      "addr_street": "Montana Avenue",
      "addr_housenumber": "1002",
      "value": 301.44749403728974
    },
    {
      "id": 27615,
      "geometry": "POINT (-118.498578 34.029267)",
      "poi_name": "Louise's Trattoria",
      "osm_id": 439949561,
      "amenity": "restaurant",
      "cuisine": "italian",
      "value": 301.44749403728974
    },
    {
      "id": 27616,
      "geometry": "POINT (-118.499196 34.029139)",
      "poi_name": "Rosti",
      "osm_id": 439949564,
      "amenity": "restaurant",
      "value": 301.44749403728974
    },
    {
      "id": 27617,
      "geometry": "POINT (-118.500585 34.027628)",
      "poi_name": "Panda Express and Pioneer Boulangerie",
      "osm_id": 439949674,
      "amenity": "restaurant",
      "value": 301.44749403728974
    },
    {
      "id": 28458,
      "geometry": "POINT (-118.875078 34.183824)",
      "poi_name": "Mimi's Cafe",
      "osm_id": 484173313,
      "amenity": "restaurant",
      "cuisine": "french",
      "value": 301.44749403728974
    },
    {
      "id": 28462,
      "geometry": "POINT (-118.878547 34.178338)",
      "poi_name": "Camboni",
      "osm_id": 484173321,
      "amenity": "restaurant",
      "value": 301.44749403728974
    },
    {
      "id": 28702,
      "geometry": "POINT (-118.760515 34.279272)",
      "poi_name": "Topper's Pizza Place",
      "osm_id": 8252581917,
      "amenity": "restaurant",
      "cuisine": "pizza",
      "value": 301.44749403728974
    },
    {
      "id": 29720,
      "geometry": "POINT (-118.496294 34.013078)",
      "poi_name": "Joe's Pizza",
      "osm_id": 8321579217,
      "amenity": "restaurant",
      "cuisine": "pizza",
      "value": 301.44749403728974
    },
    {
      "id": 31748,
      "geometry": "POINT (-118.491895 34.048177)",
      "poi_name": "Amici",
      "osm_id": 8444258546,
      "amenity": "restaurant",
      "cuisine": "italian",
      "value": 301.44749403728974
    },
    {
      "id": 31752,
      "geometry": "POINT (-118.479556 34.034122)",
      "poi_name": "Bru's Wiffle",
      "osm_id": 8444283948,
      "amenity": "restaurant",
      "value": 301.44749403728974
    },
    {
      "id": 31753,
      "geometry": "POINT (-118.479853 34.034307)",
      "poi_name": "Calif. Chicken Cafe",
      "osm_id": 8444283949,
      "amenity": "restaurant",
      "value": 301.44749403728974
    },
    {
      "id": 32193,
      "geometry": "POINT (-118.489187 34.01798)",
      "poi_name": "Bay Cities Italian Deli",
      "osm_id": 2622898579,
      "amenity": "restaurant",
      "cuisine": "deli;bakery",
      "website": "https://www.baycitiesitaliandeli.com/",
      "phone": "+1-310-395-8279",
      "addr_city": "Santa Monica",
      "addr_postcode": "90401",
      "addr_street": "Lincoln Boulevard",
      "addr_housenumber": "1517",
      "value": 301.44749403728974
    },
    {
      "id": 31927,
      "geometry": "POINT (-118.868016 34.197616)",
      "poi_name": "Toppers Pizza Place",
      "osm_id": 2614065774,
      "amenity": "restaurant",
      "cuisine": "pizza",
      "opening_hours": "Su-Th 11:00-23:00; Fr-Sa 11:00-00:00",
      "website": "https://www.topperspizzaplace.com/",
      "internet_access": "wlan",
      "phone": "+1 805 495-4444",
      "addr_city": "Thousand Oaks",
      "addr_postcode": "91360",
      "addr_street": "North Moorpark Road",
      "addr_housenumber": "1416",
      "value": 301.44749403728974
    },
    {
      "id": 32146,
      "geometry": "POINT (-118.466511 33.979438)",
      "poi_name": "Hinano Cafe",
      "osm_id": 2622744117,
      "amenity": "restaurant",
      "cuisine": "burger",
      "website": "https://www.hinanocafevenice.com/",
      "addr_postcode": "90292",
      "addr_street": "Washington Boulevard",
      "addr_housenumber": "15",
      "value": 301.44749403728974
    },
    {
      "id": 33513,
      "geometry": "POINT (-119.039435 34.163317)",
      "poi_name": "Pizza 3.14",
      "osm_id": 2670806881,
      "amenity": "restaurant",
      "wheelchair": "yes",
      "website": "http://www.universityglencorp.csuci.edu/pizza314/",
      "phone": "(805) 437-3674",
      "addr_city": "Camarillo",
      "addr_postcode": "93012",
      "addr_street": "45 Rincon Drive",
      "addr_housenumber": "101",
      "value": 301.44749403728974
    },
    {
      "id": 38900,
      "geometry": "POINT (-118.460544 33.982678)",
      "poi_name": "Frankie & Johnnie's New York Pizza",
      "osm_id": 2890308001,
      "amenity": "restaurant",
      "cuisine": "pizza",
      "addr_state": "CA",
      "addr_city": "Marina Del Rey",
      "addr_postcode": "90292",
      "addr_street": "Washington Blvd",
      "addr_housenumber": "534",
      "value": 301.44749403728974
    },
    {
      "id": 33725,
      "geometry": "POINT (-118.78515 34.182715)",
      "poi_name": "Kids World",
      "osm_id": 2679640375,
      "amenity": "restaurant",
      "cuisine": "american",
      "website": "https://www.kidsworldla.com/",
      "phone": "818-338-8888",
      "addr_city": "Oak Park",
      "addr_postcode": "91377",
      "addr_street": "Lindero Canyon Rd",
      "addr_housenumber": "618",
      "value": 301.44749403728974
    },
    {
      "id": 37959,
      "geometry": "POINT (-118.556611 34.038331)",
      "poi_name": "Gladstones",
      "osm_id": 2838988353,
      "amenity": "restaurant",
      "value": 301.44749403728974
    },
    {
      "id": 37960,
      "geometry": "POINT (-118.603795 34.090029)",
      "poi_name": "Canyon Bistro and Wine Bar",
      "osm_id": 2838988383,
      "amenity": "restaurant",
      "cuisine": "french;burger;salad",
      "opening_hours": "Mo-Th 11:30-15:30,16:00-21:00; Fr-Sa 11:30-15:30,16:00-22:00; Su 11:00-15:00,16:00-21:00",
      "website": "https://www.canyonbistrotopanga.com/",
      "phone": "(310) 455-7800",
      "addr_state": "CA",
      "addr_city": "Topanga",
      "addr_postcode": "90290",
      "addr_street": "North Topanga Canyon Boulevard #119",
      "addr_housenumber": "120",
      "value": 301.44749403728974
    },
    {
      "id": 38906,
      "geometry": "POINT (-118.457394 33.982499)",
      "poi_name": "Beachside Restaurant - Bar",
      "osm_id": 2890444651,
      "amenity": "restaurant",
      "value": 301.44749403728974
    },
    {
      "id": 38908,
      "geometry": "POINT (-118.456691 33.98318)",
      "poi_name": "Killer Shrimp",
      "osm_id": 2890444653,
      "amenity": "restaurant",
      "cuisine": "american;seafood",
      "opening_hours": "Mo-Su 11:30-24:00",
      "website": "https://www.killershrimp.com",
      "phone": "+1-310-578-2293",
      "addr_state": "CA",
      "addr_city": "Marina Del Rey",
      "addr_postcode": "90292",
      "addr_street": "Admiralty Way",
      "addr_housenumber": "4211",
      "value": 301.44749403728974
    },
    {
      "id": 38909,
      "geometry": "POINT (-118.447721 33.983672)",
      "poi_name": "TonyP's Dockside Grill",
      "osm_id": 2890465829,
      "amenity": "restaurant",
      "value": 301.44749403728974
    },
    {
      "id": 38945,
      "geometry": "POINT (-118.457451 33.983691)",
      "poi_name": "Marina Grill",
      "osm_id": 2892740319,
      "amenity": "restaurant",
      "value": 301.44749403728974
    },
    {
      "id": 38901,
      "geometry": "POINT (-118.460871 33.983189)",
      "poi_name": "Tahntawan",
      "osm_id": 2890308218,
      "amenity": "restaurant",
      "cuisine": "thai",
      "wheelchair": "yes",
      "website": "https://www.tahntawanthai.com/",
      "internet_access": "wlan",
      "phone": "+1 310 578 4199",
      "takeaway": "yes",
      "outdoor_seating": "yes",
      "delivery": "yes",
      "addr_state": "CA",
      "addr_city": "Marina Del Rey",
      "addr_postcode": "90292",
      "addr_street": "Washington Boulevard",
      "addr_housenumber": "523",
      "value": 301.44749403728974
    },
    {
      "id": 42923,
      "geometry": "POINT (-118.794311 34.281776)",
      "poi_name": "The Dugout Sports Grill",
      "osm_id": 3086901456,
      "amenity": "restaurant",
      "value": 301.44749403728974
    },
    {
      "id": 42192,
      "geometry": "POINT (-118.456476 33.996256)",
      "poi_name": "Superba",
      "osm_id": 3050879734,
      "amenity": "restaurant",
      "value": 301.44749403728974
    },
    {
      "id": 42219,
      "geometry": "POINT (-118.810508 34.253809)",
      "poi_name": "Atlas Mediterranean Kitchen",
      "osm_id": 3051290266,
      "amenity": "restaurant",
      "cuisine": "mediterranean",
      "phone": "805 522-8527",
      "addr_city": "Simi Valley",
      "addr_postcode": "93065",
      "addr_street": "Madera Road",
      "addr_housenumber": "1368",
      "value": 301.44749403728974
    },
    {
      "id": 42220,
      "geometry": "POINT (-118.76426 34.271043)",
      "poi_name": "Indian Haweli",
      "osm_id": 3051299126,
      "amenity": "restaurant",
      "cuisine": "indian",
      "phone": "805 520-1236",
      "addr_city": "Simi Valley",
      "addr_street": "East Los Angeles Avenue",
      "addr_housenumber": "1750",
      "value": 301.44749403728974
    },
    {
      "id": 42221,
      "geometry": "POINT (-118.764842 34.271422)",
      "poi_name": "Taqueria Jalisco",
      "osm_id": 3051299127,
      "amenity": "restaurant",
      "cuisine": "mexican",
      "addr_city": "Simi Valley",
      "addr_postcode": "93065",
      "addr_street": "East Los Angeles Avenue",
      "addr_housenumber": "1742",
      "value": 301.44749403728974
    },
    {
      "id": 42924,
      "geometry": "POINT (-118.795068 34.282227)",
      "poi_name": "Chili's",
      "osm_id": 3086901587,
      "amenity": "restaurant",
      "cuisine": "tex-mex",
      "official_name": "Chili's Grill & Bar",
      "value": 301.44749403728974
    },
    {
      "id": 48158,
      "geometry": "POINT (-118.916044 34.183338)",
      "poi_name": "Cronies Sports Grill",
      "osm_id": 3368973868,
      "amenity": "restaurant",
      "cuisine": "burger",
      "opening_hours": "Mo-Fr 08:00-22:00; Sa,Su 09:00-22:00",
      "phone": "+1-805-498-7888",
      "addr_city": "Thousand Oaks",
      "addr_postcode": "91320",
      "addr_street": "Newbury Road",
      "addr_housenumber": "1620",
      "value": 301.44749403728974
    },
    {
      "id": 43010,
      "geometry": "POINT (-118.700641 34.144669)",
      "poi_name": "Mediterranean Pita Grill",
      "osm_id": 3091961503,
      "amenity": "restaurant",
      "cuisine": "kebab",
      "wheelchair": "yes",
      "opening_hours": "Mo-Su 11:00-20:00",
      "website": "www.mediterraneanpitagrill.com",
      "phone": "+1 818 871 0167",
      "outdoor_seating": "yes",
      "addr_state": "CA",
      "addr_city": "Calabasas",
      "addr_postcode": "91302",
      "addr_street": "Agoura Road",
      "addr_housenumber": "26527",
      "value": 301.44749403728974
    },
    {
      "id": 46640,
      "geometry": "POINT (-118.999238 34.229035)",
      "poi_name": "curry leaf",
      "osm_id": 3279699078,
      "amenity": "restaurant",
      "cuisine": "indian",
      "value": 301.44749403728974
    },
    {
      "id": 46641,
      "geometry": "POINT (-118.999179 34.228946)",
      "poi_name": "double play pizza",
      "osm_id": 3279699079,
      "amenity": "restaurant",
      "cuisine": "pizza",
      "value": 301.44749403728974
    },
    {
      "id": 44994,
      "geometry": "POINT (-118.758346 34.146318)",
      "poi_name": "Currying Flavors",
      "osm_id": 3187741263,
      "amenity": "restaurant",
      "cuisine": "indian",
      "website": "http://curryingflavors.site",
      "phone": "+1 818-532-7108",
      "addr_state": "CA",
      "addr_city": "Agoura Hills",
      "addr_postcode": "91301",
      "addr_street": "Canwood Street",
      "addr_housenumber": "29125",
      "value": 301.44749403728974
    },
    {
      "id": 44995,
      "geometry": "POINT (-118.758916 34.146533)",
      "poi_name": "Urbane Cafe",
      "osm_id": 3187741264,
      "amenity": "restaurant",
      "website": "https://urbanecafe.com/",
      "phone": "+1 818 597 9000",
      "addr_state": "CA",
      "addr_city": "Agoura Hills",
      "addr_postcode": "91301",
      "addr_street": "Canwood Street",
      "addr_housenumber": "29145",
      "value": 301.44749403728974
    },
    {
      "id": 49188,
      "geometry": "POINT (-118.466357 33.979143)",
      "poi_name": "Mercede's Grille",
      "osm_id": 3418063699,
      "amenity": "restaurant",
      "website": "http://www.mercedesgrille.com/",
      "phone": "+1 310 827 6209",
      "addr_state": "CA",
      "addr_city": "Marina Del Rey",
      "addr_postcode": "90292",
      "addr_street": "Washington Boulevard",
      "addr_housenumber": "14",
      "value": 301.44749403728974
    },
    {
      "id": 48719,
      "geometry": "POINT (-118.465942 33.979768)",
      "poi_name": "Simmzy's",
      "osm_id": 3397608468,
      "amenity": "restaurant",
      "cuisine": "burger;american",
      "opening_hours": "Su 10:00-23:00; Mo-Th 11:00-23:00; Fr 11:00-24:00; Sa 10:00-24:00",
      "website": "https://www.simmzys.com/",
      "phone": "+1 310 823 7547",
      "addr_state": "CA",
      "addr_city": "Marina Del Rey",
      "addr_postcode": "90292",
      "addr_street": "Washington Boulevard",
      "addr_housenumber": "37",
      "value": 301.44749403728974
    },
    {
      "id": 49189,
      "geometry": "POINT (-118.465865 33.979392)",
      "poi_name": "Cabo Cantina",
      "osm_id": 3418072340,
      "amenity": "restaurant",
      "cuisine": "mexican",
      "website": "https://www.cabocantina.com/",
      "phone": "+1 310 306 2500",
      "addr_state": "CA",
      "addr_city": "Marina Del Rey",
      "addr_postcode": "90292",
      "addr_street": "Washington Boulevard",
      "addr_housenumber": "30",
      "value": 301.44749403728974
    },
    {
      "id": 49205,
      "geometry": "POINT (-118.423461 33.972594)",
      "poi_name": "Gulp",
      "osm_id": 3418373761,
      "amenity": "restaurant",
      "outdoor_seating": "yes",
      "value": 301.44749403728974
    },
    {
      "id": 49206,
      "geometry": "POINT (-118.422814 33.97287)",
      "poi_name": "Sweet Fish",
      "osm_id": 3418373763,
      "amenity": "restaurant",
      "cuisine": "sushi",
      "value": 301.44749403728974
    },
    {
      "id": 49512,
      "geometry": "POINT (-118.499717 34.007681)",
      "poi_name": "Mariasol",
      "osm_id": 3439710000,
      "amenity": "restaurant",
      "value": 301.44749403728974
    },
    {
      "id": 49515,
      "geometry": "POINT (-118.495698 34.010395)",
      "poi_name": "Victorio's Pizzeria",
      "osm_id": 3439778860,
      "amenity": "restaurant",
      "value": 301.44749403728974
    },
    {
      "id": 51502,
      "geometry": "POINT (-118.484024 34.030222)",
      "poi_name": "Fromin's Deli",
      "osm_id": 537893661,
      "amenity": "restaurant",
      "value": 301.44749403728974
    },
    {
      "id": 52994,
      "geometry": "POINT (-118.464952 34.021699)",
      "poi_name": "Z Garden",
      "osm_id": 10059092907,
      "amenity": "restaurant",
      "cuisine": "mediterranean",
      "value": 301.44749403728974
    },
    {
      "id": 52995,
      "geometry": "POINT (-118.463653 34.022435)",
      "poi_name": "Lunetta",
      "osm_id": 10059092910,
      "amenity": "restaurant",
      "value": 301.44749403728974
    },
    {
      "id": 54322,
      "geometry": "POINT (-118.643059 34.15516)",
      "poi_name": "Crossroads Kitchen Calabasas",
      "osm_id": 10127227791,
      "amenity": "restaurant",
      "cuisine": "mediterranean",
      "website": "https://www.crossroadscalabasas.com/",
      "phone": "+1 747-230-4210",
      "value": 301.44749403728974
    },
    {
      "id": 54212,
      "geometry": "POINT (-118.441956 33.986165)",
      "poi_name": "MidiCi - Wood Fired Pizza",
      "osm_id": 10121684582,
      "amenity": "restaurant",
      "cuisine": "pizza",
      "opening_hours": "Mo-Th 12:00-21:00, Fr-Sa 12:00-22:00, Su 10:00-21:00",
      "website": "https://www.midicimdr.com/",
      "phone": "(424) 289-8485",
      "addr_state": "CA",
      "addr_city": "Marina Del Rey",
      "addr_postcode": "90292",
      "addr_street": "Maxella Avenue",
      "addr_housenumber": "13488",
      "value": 301.44749403728974
    },
    {
      "id": 53087,
      "geometry": "POINT (-118.419133 33.960052)",
      "poi_name": "The Manchester",
      "osm_id": 10064726203,
      "amenity": "restaurant",
      "opening_hours": "16:00-24:00",
      "website": "https://www.themanchester.la/",
      "phone": "+1 (424) 541-7097",
      "addr_state": "CA",
      "addr_city": "Los Angeles",
      "addr_postcode": "90045",
      "addr_street": "Lincoln Boulevard",
      "addr_housenumber": "8522",
      "value": 301.44749403728974
    },
    {
      "id": 53088,
      "geometry": "POINT (-118.416894 33.960011)",
      "poi_name": "Benny's Tacos & Rotisserie Chicken",
      "osm_id": 10064959436,
      "amenity": "restaurant",
      "cuisine": "mexican",
      "opening_hours": "Mo-Su 08:30-22:00",
      "website": "https://bennystacos.com/bennys-tacos-westchester/",
      "phone": "+1 310-670-8226",
      "addr_state": "CA",
      "addr_city": "Los Angeles",
      "addr_postcode": "90045",
      "addr_street": "West Manchester Avenue",
      "addr_housenumber": "7101",
      "value": 301.44749403728974
    },
    {
      "id": 53555,
      "geometry": "POINT (-118.495759 34.015172)",
      "poi_name": "Bruxie",
      "osm_id": 10085738616,
      "amenity": "restaurant",
      "cuisine": "belgian",
      "value": 301.44749403728974
    },
    {
      "id": 60233,
      "geometry": "POINT (-118.49592 34.012587)",
      "poi_name": "Blue Plate Taco",
      "osm_id": 5458174065,
      "amenity": "restaurant",
      "cuisine": "mexican",
      "opening_hours": "Mo-Fr 11:30-22:00; Sa-Su 11:00-22:00",
      "website": "https://www.blueplatesantamonica.com/",
      "phone": "+1-310-458-2985",
      "addr_state": "CA",
      "addr_city": "Santa Monica",
      "addr_postcode": "90401",
      "addr_street": "Ocean Avenue",
      "addr_housenumber": "1515",
      "value": 301.44749403728974
    },
    {
      "id": 55140,
      "geometry": "POINT (-118.457434 33.974842)",
      "poi_name": "Brizo",
      "osm_id": 10173690995,
      "amenity": "restaurant",
      "value": 301.44749403728974
    },
    {
      "id": 55141,
      "geometry": "POINT (-118.441412 33.98045)",
      "poi_name": "KazuNori",
      "osm_id": 10173690996,
      "amenity": "restaurant",
      "cuisine": "sushi",
      "value": 301.44749403728974
    },
    {
      "id": 59596,
      "geometry": "POINT (-118.43825 33.98559)",
      "poi_name": "J Nichols Kitchen",
      "osm_id": 5433911236,
      "amenity": "restaurant",
      "value": 301.44749403728974
    },
    {
      "id": 60136,
      "geometry": "POINT (-118.446027 33.988936)",
      "poi_name": "IHOP",
      "osm_id": 5457125619,
      "amenity": "restaurant",
      "cuisine": "breakfast;pancake",
      "value": 301.44749403728974
    },
    {
      "id": 54641,
      "geometry": "POINT (-118.604694 34.18412)",
      "poi_name": "Sweetfin",
      "osm_id": 10144822374,
      "amenity": "restaurant",
      "cuisine": "poke;hawaiian",
      "value": 301.44749403728974
    },
    {
      "id": 60234,
      "geometry": "POINT (-118.497213 34.015386)",
      "poi_name": "SUGARFISH by sushi nozawa",
      "osm_id": 5458174079,
      "amenity": "restaurant",
      "cuisine": "sushi;japanese",
      "opening_hours": "Mo-Sa 11:30-22:00; Su 12:00-21:00",
      "website": "https://sugarfishsushi.com/",
      "phone": "+1-310-393-3338",
      "addr_state": "CA",
      "addr_city": "Santa Monica",
      "addr_postcode": "90401",
      "addr_street": "2nd Street",
      "addr_housenumber": "1345",
      "value": 301.44749403728974
    },
    {
      "id": 60536,
      "geometry": "POINT (-118.484082 34.011882)",
      "poi_name": "Reds Pizza",
      "osm_id": 5470071123,
      "amenity": "restaurant",
      "addr_street": "Pico Boulevard",
      "addr_housenumber": "707",
      "value": 301.44749403728974
    },
    {
      "id": 70393,
      "geometry": "POINT (-118.480795 34.033109)",
      "poi_name": "Earth, Wind, and Flour",
      "osm_id": 11360839078,
      "amenity": "restaurant",
      "cuisine": "italian",
      "value": 301.44749403728974
    },
    {
      "id": 60636,
      "geometry": "POINT (-118.451478 33.988289)",
      "poi_name": "Scopa Italian Roots",
      "osm_id": 5474432221,
      "amenity": "restaurant",
      "cuisine": "italian;pasta;tapas",
      "opening_hours": "Mo-Su 17:00-01:00; Sa-Su 11:00-15:00",
      "website": "https://www.scopaitalianroots.com/",
      "phone": "+1-310-821-1100",
      "addr_state": "CA",
      "addr_city": "Venice",
      "addr_postcode": "90292",
      "addr_street": "W Washington Boulevard",
      "addr_housenumber": "2905",
      "value": 301.44749403728974
    },
    {
      "id": 60637,
      "geometry": "POINT (-118.451845 33.988053)",
      "poi_name": "Nueva",
      "osm_id": 5474434421,
      "amenity": "restaurant",
      "cuisine": "tacos;breakfast;brunch;lunch",
      "opening_hours": "Mo-Th 11:00-22:00; Fr 11:00-01:00; Sa 09:30-01:00; Su 09:30-22:00",
      "website": "http://www.sunnyspotvenice.com/",
      "phone": "+1-310-448-8884",
      "addr_state": "CA",
      "addr_city": "Venice",
      "addr_postcode": "90292",
      "addr_street": "Washington Boulevard",
      "addr_housenumber": "822",
      "value": 301.44749403728974
    },
    {
      "id": 60662,
      "geometry": "POINT (-118.493019 34.017973)",
      "poi_name": "Tar and Roses",
      "osm_id": 5475557224,
      "amenity": "restaurant",
      "addr_street": "6th Street",
      "value": 301.44749403728974
    },
    {
      "id": 63706,
      "geometry": "POINT (-119.055104 34.218578)",
      "poi_name": "Wood ranch",
      "osm_id": 5628066322,
      "amenity": "restaurant",
      "value": 301.44749403728974
    },
    {
      "id": 64274,
      "geometry": "POINT (-118.473258 33.987264)",
      "poi_name": "Surfside",
      "osm_id": 5646833317,
      "amenity": "restaurant",
      "value": 301.44749403728974
    },
    {
      "id": 66936,
      "geometry": "POINT (-118.605501 34.15717)",
      "poi_name": "Tomato Pie Pizza Joint",
      "osm_id": 11216891928,
      "amenity": "restaurant",
      "cuisine": "pizza",
      "opening_hours": "Su-Th 12:00 - 20:00; Fr-Sa 12:00-21:00",
      "website": "https://www.tomatopiepizzajoint.com/location/woodland-hills/",
      "phone": "+1-747-888-9400",
      "takeaway": "only",
      "outdoor_seating": "yes",
      "delivery": "yes",
      "addr_state": "CA",
      "addr_city": "Woodland Hills",
      "addr_postcode": "91364",
      "addr_street": "Topanga Canyon Boulevard",
      "addr_housenumber": "4902",
      "value": 301.44749403728974
    },
    {
      "id": 69620,
      "geometry": "POINT (-118.480402 34.010437)",
      "poi_name": "Piccolo Santa Monica",
      "osm_id": 11315868234,
      "amenity": "restaurant",
      "cuisine": "italian",
      "value": 301.44749403728974
    },
    {
      "id": 69622,
      "geometry": "POINT (-118.480204 34.009784)",
      "poi_name": "Satdha",
      "osm_id": 11315868247,
      "amenity": "restaurant",
      "cuisine": "thai",
      "value": 301.44749403728974
    },
    {
      "id": 61478,
      "geometry": "POINT (-118.953647 34.180341)",
      "poi_name": "Three Amigos Restaurant",
      "osm_id": 5519749025,
      "amenity": "restaurant",
      "cuisine": "mexican",
      "website": "https://www.3amigosonline.com/",
      "phone": "+1-805-499-7200",
      "addr_state": "CA",
      "addr_city": "Newbury Park",
      "addr_postcode": "91320",
      "addr_street": "North Reino Road",
      "addr_housenumber": "139",
      "value": 301.44749403728974
    },
    {
      "id": 61481,
      "geometry": "POINT (-118.937961 34.191325)",
      "poi_name": "Islands Restaurant Newbury Park",
      "osm_id": 5519764438,
      "amenity": "restaurant",
      "value": 301.44749403728974
    },
    {
      "id": 61482,
      "geometry": "POINT (-118.917937 34.183559)",
      "poi_name": "SUMO Japanese Restaurant",
      "osm_id": 5519767680,
      "amenity": "restaurant",
      "value": 301.44749403728974
    },
    {
      "id": 61872,
      "geometry": "POINT (-118.493369 34.023388)",
      "poi_name": "Benny's Tacos",
      "osm_id": 5540580323,
      "amenity": "restaurant",
      "cuisine": "mexican",
      "phone": "+18186123875",
      "addr_postcode": "90401",
      "addr_street": "Wilshire Boulevard",
      "addr_housenumber": "915",
      "value": 301.44749403728974
    },
    {
      "id": 62711,
      "geometry": "POINT (-118.884831 34.27857)",
      "poi_name": "Don Cuco Mexican Restaurant",
      "osm_id": 5583553352,
      "amenity": "restaurant",
      "cuisine": "mexican",
      "takeaway": "yes",
      "delivery": "no",
      "value": 301.44749403728974
    },
    {
      "id": 62850,
      "geometry": "POINT (-118.498327 34.0173)",
      "poi_name": "Cabo Cantina",
      "osm_id": 5589649319,
      "amenity": "restaurant",
      "cuisine": "mexican",
      "opening_hours": "Mo-Su 16:00-20:00,22:30-24:00 open \"Happy Hour \";PH closed",
      "outdoor_seating": "yes",
      "toilets": "yes",
      "value": 301.44749403728974
    },
    {
      "id": 66806,
      "geometry": "POINT (-118.467964 34.001634)",
      "poi_name": "Casablanca",
      "osm_id": 11211469455,
      "amenity": "restaurant",
      "cuisine": "mexican",
      "value": 301.44749403728974
    },
    {
      "id": 66809,
      "geometry": "POINT (-118.466841 34.001053)",
      "poi_name": "Willie Mae's",
      "osm_id": 11211469458,
      "amenity": "restaurant",
      "cuisine": "american;southern",
      "value": 301.44749403728974
    },
    {
      "id": 70110,
      "geometry": "POINT (-118.442015 33.999174)",
      "poi_name": "Angel City Pizza",
      "osm_id": 11345417058,
      "amenity": "restaurant",
      "cuisine": "pizza",
      "value": 301.44749403728974
    },
    {
      "id": 70394,
      "geometry": "POINT (-118.481063 34.032899)",
      "poi_name": "Kanpai",
      "osm_id": 11360839079,
      "amenity": "restaurant",
      "cuisine": "japanese",
      "value": 301.44749403728974
    },
    {
      "id": 70395,
      "geometry": "POINT (-118.476639 34.036472)",
      "poi_name": "Thai Dishes Wilshire",
      "osm_id": 11360839082,
      "amenity": "restaurant",
      "cuisine": "thai",
      "value": 301.44749403728974
    },
    {
      "id": 75855,
      "geometry": "POINT (-118.491406 34.024461)",
      "poi_name": "Citrin",
      "osm_id": 9750179096,
      "amenity": "restaurant",
      "website": "https://www.citrinandmelisse.com/",
      "value": 301.44749403728974
    },
    {
      "id": 74456,
      "geometry": "POINT (-119.039383 34.162983)",
      "poi_name": "Tortillas",
      "osm_id": 9681030016,
      "amenity": "restaurant",
      "cuisine": "mexican",
      "value": 301.44749403728974
    },
    {
      "id": 74741,
      "geometry": "POINT (-118.480868 34.025633)",
      "poi_name": "18th Street Cafe",
      "osm_id": 9694113780,
      "amenity": "restaurant",
      "addr_street": "Broadway",
      "addr_housenumber": "1725",
      "value": 301.44749403728974
    },
    {
      "id": 74977,
      "geometry": "POINT (-119.062004 34.215556)",
      "poi_name": "China Max",
      "osm_id": 9704831067,
      "amenity": "restaurant",
      "cuisine": "chinese",
      "opening_hours": "Mo-Sa 11:00-19:00; Su 11:00-18:00",
      "phone": "+1-805-388-1370",
      "addr_state": "CA",
      "addr_city": "Camarillo",
      "addr_postcode": "93010",
      "addr_street": "Ventura Boulevard",
      "addr_housenumber": "740",
      "value": 301.44749403728974
    },
    {
      "id": 75702,
      "geometry": "POINT (-118.43944 33.984478)",
      "poi_name": "Sharky's Woodfired Mexican Grill",
      "osm_id": 9740741817,
      "amenity": "restaurant",
      "cuisine": "mexican",
      "opening_hours": "Mo-Th 10:30-21:00; Fr-Sa 10:30-22:00",
      "website": "https://www.sharkys.com/en-us/locations/ca/marina-del-ray/4371-glencoe-ave/",
      "phone": "+1-310-301-4441",
      "takeaway": "yes",
      "outdoor_seating": "yes",
      "delivery": "yes",
      "addr_state": "CA",
      "addr_city": "Marina Del Rey",
      "addr_postcode": "90292",
      "addr_street": "Glencoe Ave",
      "addr_housenumber": "4371",
      "value": 301.44749403728974
    },
    {
      "id": 70630,
      "geometry": "POINT (-118.941189 34.188653)",
      "poi_name": "Mama's Hummus",
      "osm_id": 11369156467,
      "amenity": "restaurant",
      "cuisine": "mediterranean",
      "opening_hours": "Mo off; Tu-Sa 11:00-20:00; Su 12:00-20:00",
      "website": "https://www.mamashummus.com/",
      "phone": "+1-805-480-0888",
      "addr_state": "CA",
      "addr_city": "Newbury Park",
      "addr_postcode": "91320",
      "addr_street": "North Wendy Drive",
      "addr_housenumber": "779",
      "value": 301.44749403728974
    },
    {
      "id": 70631,
      "geometry": "POINT (-118.94219 34.1885)",
      "poi_name": "Pizza Twist",
      "osm_id": 11369158669,
      "amenity": "restaurant",
      "cuisine": "pizza",
      "value": 301.44749403728974
    },
    {
      "id": 70632,
      "geometry": "POINT (-118.941516 34.188493)",
      "poi_name": "The Waffle Experience",
      "osm_id": 11369158670,
      "amenity": "restaurant",
      "cuisine": "breakfast",
      "opening_hours": "Mo-Th 08:00-14:00; Fr 08:00-15:00; Sa-Su 07:30-15:30",
      "website": "https://honey-and-herb.com/",
      "phone": "+1-805-375-9998",
      "addr_state": "CA",
      "addr_city": "Newbury Park",
      "addr_postcode": "91320",
      "addr_street": "North Wendy Drive",
      "addr_housenumber": "765",
      "value": 301.44749403728974
    },
    {
      "id": 70633,
      "geometry": "POINT (-118.94131 34.188585)",
      "poi_name": "Tomodachi",
      "osm_id": 11369158671,
      "amenity": "restaurant",
      "cuisine": "sushi",
      "value": 301.44749403728974
    },
    {
      "id": 70778,
      "geometry": "POINT (-118.824202 34.163227)",
      "poi_name": "El Sancho Loco Taqueria",
      "osm_id": 11374214526,
      "amenity": "restaurant",
      "cuisine": "mexican",
      "value": 301.44749403728974
    },
    {
      "id": 72288,
      "geometry": "POINT (-118.833808 34.167111)",
      "poi_name": "Phil's",
      "osm_id": 11419386112,
      "amenity": "restaurant",
      "cuisine": "american",
      "wheelchair": "yes",
      "website": "https://www.phils1000oaks.com/",
      "phone": "(805)371-7773",
      "addr_state": "CA",
      "addr_city": "Thousand Oaks",
      "addr_postcode": "91362",
      "addr_street": "E Thousand Oaks Blvd.",
      "addr_housenumber": "3316",
      "value": 301.44749403728974
    },
    {
      "id": 74535,
      "geometry": "POINT (-118.526431 34.046584)",
      "poi_name": "Beech Street Cafe",
      "osm_id": 9684453824,
      "amenity": "restaurant",
      "cuisine": "pizza",
      "website": "http://www.beechstreetcafe.com/",
      "phone": "310-573-1940",
      "addr_state": "CA",
      "addr_city": "Pacific Palisades",
      "addr_postcode": "90272",
      "addr_street": "Swarthmore Avenue",
      "addr_housenumber": "863",
      "value": 301.44749403728974
    },
    {
      "id": 75856,
      "geometry": "POINT (-118.492094 34.023915)",
      "poi_name": "Huckleberry",
      "osm_id": 9750179101,
      "amenity": "restaurant",
      "addr_street": "Wilshire Boulevard",
      "addr_housenumber": "1014",
      "value": 301.44749403728974
    },
    {
      "id": 75873,
      "geometry": "POINT (-118.491017 34.024774)",
      "poi_name": "Rock'n'Pies Pizza Co.",
      "osm_id": 9750362249,
      "amenity": "restaurant",
      "cuisine": "pizza",
      "addr_street": "Wilshire Boulevard",
      "addr_housenumber": "1120",
      "value": 301.44749403728974
    },
    {
      "id": 75966,
      "geometry": "POINT (-118.493039 34.013775)",
      "poi_name": "The Curious Palate",
      "osm_id": 9753410368,
      "amenity": "restaurant",
      "value": 301.44749403728974
    },
    {
      "id": 75881,
      "geometry": "POINT (-118.488863 34.026501)",
      "poi_name": "Sushi King",
      "osm_id": 9750530097,
      "amenity": "restaurant",
      "cuisine": "sushi",
      "addr_street": "Wilshire Boulevard",
      "addr_housenumber": "1330",
      "value": 301.44749403728974
    },
    {
      "id": 75886,
      "geometry": "POINT (-118.477348 34.031106)",
      "poi_name": "Thai Vegan",
      "osm_id": 9750616202,
      "amenity": "restaurant",
      "cuisine": "thai",
      "value": 301.44749403728974
    },
    {
      "id": 76163,
      "geometry": "POINT (-118.497432 34.01744)",
      "poi_name": "Lemonade",
      "osm_id": 9762912117,
      "amenity": "restaurant",
      "opening_hours": "Mo-Su 10:00-21:00",
      "website": "https://lemonadela.com",
      "phone": "+1 (310) 409-2435",
      "addr_postcode": "90401",
      "addr_street": "Arizona Avenue",
      "addr_housenumber": "301",
      "value": 301.44749403728974
    },
    {
      "id": 76164,
      "geometry": "POINT (-118.49781 34.015307)",
      "poi_name": "Flower Child",
      "osm_id": 9762933517,
      "amenity": "restaurant",
      "cuisine": "regional",
      "opening_hours": "Mo-Su 11:00-20:00",
      "website": "https://iamaflowerchild.com",
      "phone": "+1 (310) 382-2901",
      "addr_postcode": "90401",
      "addr_street": "2nd Street",
      "addr_housenumber": "1332",
      "value": 301.44749403728974
    },
    {
      "id": 80250,
      "geometry": "POINT (-118.584052 34.039074)",
      "poi_name": "Cholada Thai Beach Cuisine",
      "osm_id": 867822937,
      "amenity": "restaurant",
      "cuisine": "thai",
      "opening_hours": "Mo-Su 11:30-21:30",
      "website": "https://www.choladathaicuisine.com/",
      "phone": "+1 310 317 0025",
      "addr_state": "CA",
      "addr_city": "Malibu",
      "addr_postcode": "90265",
      "addr_street": "Pacific Coast Highway",
      "addr_housenumber": "18763",
      "value": 301.44749403728974
    },
    {
      "id": 76681,
      "geometry": "POINT (-118.442362 33.98649)",
      "poi_name": "Tender Greens",
      "osm_id": 9787160117,
      "amenity": "restaurant",
      "opening_hours": "Mo-Su 11:00-21:00",
      "website": "https://www.tendergreens.com/locations/marina-del-rey",
      "phone": "+1 (310)827-3777",
      "addr_postcode": "90292",
      "addr_street": "Maxella Avenue",
      "addr_housenumber": "13455",
      "value": 301.44749403728974
    },
    {
      "id": 79160,
      "geometry": "POINT (-118.822757 34.160148)",
      "poi_name": "Paul Martin's American Grill",
      "osm_id": 775860481,
      "amenity": "restaurant",
      "addr_state": "CA",
      "addr_city": "Westlake Village",
      "addr_postcode": "91362",
      "addr_street": "South Westlake Boulevard",
      "addr_housenumber": "100",
      "value": 301.44749403728974
    },
    {
      "id": 79161,
      "geometry": "POINT (-118.82233 34.160207)",
      "poi_name": "Social monk",
      "osm_id": 775860584,
      "amenity": "restaurant",
      "cuisine": "asian",
      "website": "https://www.socialmonk.com/",
      "internet_access": "wlan",
      "value": 301.44749403728974
    },
    {
      "id": 79162,
      "geometry": "POINT (-118.821539 34.158603)",
      "poi_name": "Farfalla Tratoria",
      "osm_id": 775861385,
      "amenity": "restaurant",
      "value": 301.44749403728974
    },
    {
      "id": 79163,
      "geometry": "POINT (-118.821317 34.158694)",
      "poi_name": "Marmalade",
      "osm_id": 775861386,
      "amenity": "restaurant",
      "value": 301.44749403728974
    },
    {
      "id": 79164,
      "geometry": "POINT (-118.845443 34.174277)",
      "poi_name": "P.F. Chang's",
      "osm_id": 775861771,
      "amenity": "restaurant",
      "cuisine": "asian",
      "official_name": "P.F. Chang's China Bistro",
      "value": 301.44749403728974
    },
    {
      "id": 79165,
      "geometry": "POINT (-118.845733 34.174111)",
      "poi_name": "California Pizza Kitchen",
      "osm_id": 775862004,
      "amenity": "restaurant",
      "cuisine": "pizza",
      "opening_hours": "Fr-Su 11:00-22:00; Mo-Th 11:00-21:30",
      "outdoor_seating": "yes",
      "value": 301.44749403728974
    },
    {
      "id": 80249,
      "geometry": "POINT (-118.635836 34.036344)",
      "poi_name": "Duke's",
      "osm_id": 867822558,
      "amenity": "restaurant",
      "value": 301.44749403728974
    },
    {
      "id": 80495,
      "geometry": "POINT (-118.58166 34.039808)",
      "poi_name": "Reel Inn",
      "osm_id": 878829181,
      "amenity": "restaurant",
      "cuisine": "seafood",
      "opening_hours": "Mo-Su 11:00-21:00",
      "website": "http://www.reelinnmalibu.com/",
      "shop": "seafood",
      "phone": "(310) 456-8221",
      "addr_state": "CA",
      "addr_city": "Malibu",
      "addr_postcode": "90265",
      "addr_street": "Pacific Coast Highway",
      "addr_housenumber": "18661",
      "value": 301.44749403728974
    },
    {
      "id": 82984,
      "geometry": "POINT (-118.450478 33.98933)",
      "poi_name": "C&O Cucina",
      "osm_id": 1724460346,
      "amenity": "restaurant",
      "cuisine": "italian",
      "value": 301.44749403728974
    },
    {
      "id": 80553,
      "geometry": "POINT (-118.735097 34.03379)",
      "poi_name": "Malibu Seafood",
      "osm_id": 881778066,
      "amenity": "restaurant",
      "cuisine": "seafood",
      "value": 301.44749403728974
    },
    {
      "id": 80554,
      "geometry": "POINT (-118.742422 34.033507)",
      "poi_name": "Beaurivage",
      "osm_id": 881778177,
      "amenity": "restaurant",
      "cuisine": "mediterranean",
      "value": 301.44749403728974
    },
    {
      "id": 80555,
      "geometry": "POINT (-118.769829 34.025312)",
      "poi_name": "Geoffrey's Malibu",
      "osm_id": 882189672,
      "amenity": "restaurant",
      "cuisine": "seafood;steak",
      "phone": "+1 310 457 1519",
      "addr_state": "CA",
      "addr_city": "Malibu",
      "addr_postcode": "90265",
      "addr_street": "Pacific Coast Highway",
      "addr_housenumber": "27400",
      "value": 301.44749403728974
    },
    {
      "id": 80556,
      "geometry": "POINT (-118.787122 34.020236)",
      "poi_name": "Paradise Cove Beach Cafe",
      "osm_id": 882190437,
      "amenity": "restaurant",
      "addr_state": "CA",
      "addr_city": "Malibu",
      "addr_postcode": "90265",
      "addr_street": "Pacific Coast Highway",
      "addr_housenumber": "28128",
      "value": 301.44749403728974
    },
    {
      "id": 80581,
      "geometry": "POINT (-118.802279 34.021762)",
      "poi_name": "Gravina",
      "osm_id": 884225818,
      "amenity": "restaurant",
      "cuisine": "italian",
      "addr_state": "CA",
      "addr_city": "Malibu",
      "addr_postcode": "90265",
      "addr_street": "Pacific Coast Highway",
      "addr_housenumber": "28915",
      "value": 301.44749403728974
    },
    {
      "id": 80582,
      "geometry": "POINT (-118.819014 34.016826)",
      "poi_name": "Spruzzo",
      "osm_id": 884226172,
      "amenity": "restaurant",
      "value": 301.44749403728974
    },
    {
      "id": 82985,
      "geometry": "POINT (-118.46613 33.979658)",
      "poi_name": "C& O Trattoria",
      "osm_id": 1724460350,
      "amenity": "restaurant",
      "cuisine": "italian",
      "value": 301.44749403728974
    },
    {
      "id": 86894,
      "geometry": "POINT (-119.039277 34.22138)",
      "poi_name": "Toppers Pizza",
      "osm_id": 1957500261,
      "amenity": "restaurant",
      "cuisine": "pizza",
      "addr_postcode": "93010",
      "addr_street": "Arneill Road",
      "addr_housenumber": "425",
      "value": 301.44749403728974
    },
    {
      "id": 83066,
      "geometry": "POINT (-118.44327 33.992915)",
      "poi_name": "Maxwell's",
      "osm_id": 1727169649,
      "amenity": "restaurant",
      "cuisine": "american",
      "value": 301.44749403728974
    },
    {
      "id": 83833,
      "geometry": "POINT (-119.03769 34.236393)",
      "poi_name": "Little Thai Fine Dining",
      "osm_id": 1769129661,
      "amenity": "restaurant",
      "cuisine": "thai",
      "website": "www.littlethaifinedining.com",
      "addr_postcode": "93010",
      "addr_street": "Las Posas Road",
      "addr_housenumber": "2500",
      "value": 301.44749403728974
    },
    {
      "id": 83835,
      "geometry": "POINT (-119.037969 34.235898)",
      "poi_name": "Me-n-Ed's Pizza",
      "osm_id": 1769144881,
      "amenity": "restaurant",
      "cuisine": "pizza",
      "value": 301.44749403728974
    },
    {
      "id": 83837,
      "geometry": "POINT (-119.037906 34.236349)",
      "poi_name": "Ric's Restaurant",
      "osm_id": 1769144883,
      "amenity": "restaurant",
      "value": 301.44749403728974
    },
    {
      "id": 83838,
      "geometry": "POINT (-119.03757 34.236427)",
      "poi_name": "Mika Sushi",
      "osm_id": 1769144887,
      "amenity": "restaurant",
      "cuisine": "sushi",
      "value": 301.44749403728974
    },
    {
      "id": 83844,
      "geometry": "POINT (-119.037797 34.235156)",
      "poi_name": "Ameci's Pizza & Pasta",
      "osm_id": 1769150695,
      "amenity": "restaurant",
      "cuisine": "pizza",
      "value": 301.44749403728974
    },
    {
      "id": 83845,
      "geometry": "POINT (-119.038079 34.223975)",
      "poi_name": "Happy Bowl",
      "osm_id": 1769167057,
      "amenity": "restaurant",
      "value": 301.44749403728974
    },
    {
      "id": 83846,
      "geometry": "POINT (-119.038063 34.22433)",
      "poi_name": "Yama Sushi",
      "osm_id": 1769167061,
      "amenity": "restaurant",
      "value": 301.44749403728974
    },
    {
      "id": 83847,
      "geometry": "POINT (-119.037239 34.225682)",
      "poi_name": "Round Table Pizza",
      "osm_id": 1769167089,
      "amenity": "restaurant",
      "cuisine": "pizza",
      "value": 301.44749403728974
    },
    {
      "id": 85722,
      "geometry": "POINT (-118.462597 33.989304)",
      "poi_name": "Lemonade",
      "osm_id": 1889393057,
      "amenity": "restaurant",
      "cuisine": "sandwich",
      "opening_hours": "Mo-Su 11:00-21:05",
      "website": "https://www.lemonadela.com/",
      "phone": "+1 310 452 6200",
      "addr_state": "CA",
      "addr_city": "Venice",
      "addr_postcode": "90291",
      "addr_street": "Abbot Kinney Boulevard",
      "addr_housenumber": "1661",
      "value": 301.44749403728974
    },
    {
      "id": 86895,
      "geometry": "POINT (-119.039694 34.221413)",
      "poi_name": "Sushi Fujiya",
      "osm_id": 1957500266,
      "amenity": "restaurant",
      "cuisine": "sushi",
      "addr_postcode": "93010",
      "addr_street": "Pickwick Drive",
      "addr_housenumber": "2272",
      "value": 301.44749403728974
    },
    {
      "id": 86896,
      "geometry": "POINT (-119.039251 34.21883)",
      "poi_name": "Great Central Steak & Hoagie",
      "osm_id": 1957500285,
      "amenity": "restaurant",
      "cuisine": "american",
      "addr_postcode": "93010",
      "addr_street": "Arneill Road",
      "addr_housenumber": "235",
      "value": 301.44749403728974
    },
    {
      "id": 86897,
      "geometry": "POINT (-119.038763 34.218524)",
      "poi_name": "Pizza Hut",
      "osm_id": 1957500324,
      "amenity": "restaurant",
      "cuisine": "pizza",
      "addr_postcode": "93010",
      "addr_street": "Arneill Road",
      "addr_housenumber": "210",
      "value": 301.44749403728974
    },
    {
      "id": 91169,
      "geometry": "POINT (-118.486804 34.027726)",
      "poi_name": "UCLA Hospital Cafeteria",
      "osm_id": 2048544111,
      "amenity": "restaurant",
      "cuisine": "american",
      "value": 301.44749403728974
    },
    {
      "id": 87588,
      "geometry": "POINT (-118.468575 34.027128)",
      "poi_name": "Birdie G's",
      "osm_id": 8723792762,
      "amenity": "restaurant",
      "cuisine": "american",
      "opening_hours": "Mo-Su 17:00-21:00",
      "website": "https://www.birdiegsla.com",
      "phone": "+13103103616",
      "addr_state": "CA",
      "addr_city": "Santa Monica",
      "addr_postcode": "90404",
      "addr_street": "Michigan Avenue",
      "addr_housenumber": "2421",
      "value": 301.44749403728974
    },
    {
      "id": 91171,
      "geometry": "POINT (-118.496907 34.016586)",
      "poi_name": "Silver Lake Ramen",
      "osm_id": 2048544120,
      "amenity": "restaurant",
      "cuisine": "noodle",
      "value": 301.44749403728974
    },
    {
      "id": 91172,
      "geometry": "POINT (-118.483952 34.031016)",
      "poi_name": "Chandni",
      "osm_id": 2048544134,
      "amenity": "restaurant",
      "cuisine": "indian",
      "opening_hours": "Mo-Fr 11:30-14:30; Sa-Su 12:00-15:00",
      "website": "https://chandnivegrestaurant.com/",
      "capacity": "75",
      "phone": "+1 310 828 7060",
      "takeaway": "yes",
      "addr_state": "CA",
      "addr_city": "Santa Monica",
      "addr_postcode": "90403",
      "addr_street": "Wilshire Boulevard",
      "addr_housenumber": "1909",
      "value": 301.44749403728974
    },
    {
      "id": 91592,
      "geometry": "POINT (-118.47028 33.985024)",
      "poi_name": "Ospi",
      "osm_id": 2076727530,
      "amenity": "restaurant",
      "cuisine": "italian",
      "outdoor_seating": "yes",
      "value": 301.44749403728974
    },
    {
      "id": 100812,
      "geometry": "POINT (-118.497888 34.015358)",
      "poi_name": "Elephante",
      "osm_id": 6600053327,
      "amenity": "restaurant",
      "cuisine": "italian",
      "website": "https://www.elephantela.com/",
      "phone": "+1-424-320-2384",
      "addr_state": "CA",
      "addr_city": "Santa Monica",
      "addr_postcode": "90401",
      "addr_street": "2nd Street",
      "addr_housenumber": "1332",
      "value": 301.44749403728974
    },
    {
      "id": 98041,
      "geometry": "POINT (-118.864188 34.279263)",
      "poi_name": "Brick Oven",
      "osm_id": 6505213056,
      "amenity": "restaurant",
      "cuisine": "pizza",
      "value": 301.44749403728974
    },
    {
      "id": 98043,
      "geometry": "POINT (-118.863944 34.279449)",
      "poi_name": "Kiku",
      "osm_id": 6505213059,
      "amenity": "restaurant",
      "cuisine": "japanese",
      "value": 301.44749403728974
    },
    {
      "id": 98115,
      "geometry": "POINT (-118.755149 34.144153)",
      "poi_name": "La Plata",
      "osm_id": 6507196376,
      "amenity": "restaurant",
      "cuisine": "mexican",
      "phone": "+1-818-735-9982",
      "addr_state": "CA",
      "addr_city": "Agoura Hills",
      "addr_postcode": "91301",
      "addr_street": "Cornell Road",
      "addr_housenumber": "5046",
      "value": 301.44749403728974
    },
    {
      "id": 98116,
      "geometry": "POINT (-118.755079 34.143656)",
      "poi_name": "Blue Table",
      "osm_id": 6507196377,
      "amenity": "restaurant",
      "cuisine": "deli;sandwich",
      "phone": "+1- 818-597-2583",
      "addr_state": "CA",
      "addr_city": "Agoura Hills",
      "addr_postcode": "91301",
      "addr_street": "Roadside Drive",
      "addr_housenumber": "28912",
      "value": 301.44749403728974
    },
    {
      "id": 98118,
      "geometry": "POINT (-118.756259 34.144113)",
      "poi_name": "Boar Dough Tasting Room",
      "osm_id": 6507200651,
      "amenity": "restaurant",
      "cuisine": "american",
      "website": "https://www.boardoughtastingroom.com",
      "phone": "+1-818-889-2387",
      "addr_state": "CA",
      "addr_city": "Agoura Hills",
      "addr_postcode": "91301",
      "addr_street": "Cornell Road",
      "addr_housenumber": "5015",
      "value": 301.44749403728974
    },
    {
      "id": 98121,
      "geometry": "POINT (-118.756544 34.144091)",
      "poi_name": "Sushi Su",
      "osm_id": 6507205781,
      "amenity": "restaurant",
      "cuisine": "japanese;sushi",
      "website": "https://www.sushisuagoura.com",
      "phone": "+1-818-865-8622",
      "addr_state": "CA",
      "addr_city": "Agoura Hills",
      "addr_postcode": "91301",
      "addr_street": "Cornell Road",
      "addr_housenumber": "5015",
      "value": 301.44749403728974
    },
    {
      "id": 98122,
      "geometry": "POINT (-118.754999 34.14441)",
      "poi_name": "Plata Taqueria & Cantina",
      "osm_id": 6507213369,
      "amenity": "restaurant",
      "cuisine": "mexican",
      "website": "https://www.platacantina.com",
      "phone": "+1-818-735-9982",
      "addr_state": "CA",
      "addr_city": "Agoura Hills",
      "addr_postcode": "91301",
      "addr_street": "Roadside Drive",
      "addr_housenumber": "28914",
      "value": 301.44749403728974
    },
    {
      "id": 98140,
      "geometry": "POINT (-118.823064 34.138612)",
      "poi_name": "Boccaccio's",
      "osm_id": 6507550683,
      "amenity": "restaurant",
      "value": 301.44749403728974
    },
    {
      "id": 98141,
      "geometry": "POINT (-118.823353 34.139188)",
      "poi_name": "Zin Bistro Americana",
      "osm_id": 6507550684,
      "amenity": "restaurant",
      "value": 301.44749403728974
    },
    {
      "id": 99454,
      "geometry": "POINT (-118.852723 34.177761)",
      "poi_name": "Moqueca",
      "osm_id": 6552186296,
      "amenity": "restaurant",
      "cuisine": "brazilian",
      "website": "http://www.moquecarestaurant.com/",
      "value": 301.44749403728974
    },
    {
      "id": 97108,
      "geometry": "POINT (-118.471628 33.986645)",
      "poi_name": "Tocaya Organica",
      "osm_id": 6462832678,
      "amenity": "restaurant",
      "cuisine": "mexican",
      "website": "https://www.tocayaorganica.com",
      "phone": "+1-424-744-8692",
      "addr_state": "CA",
      "addr_city": "Venice",
      "addr_postcode": "90291",
      "addr_street": "Pacific Avenue",
      "addr_housenumber": "1715",
      "value": 301.44749403728974
    },
    {
      "id": 98276,
      "geometry": "POINT (-118.757098 34.144011)",
      "poi_name": "Exotic Thai",
      "osm_id": 6513905470,
      "amenity": "restaurant",
      "cuisine": "thai",
      "value": 301.44749403728974
    },
    {
      "id": 98277,
      "geometry": "POINT (-118.592285 34.167019)",
      "poi_name": "Poquito Mas",
      "osm_id": 6513980127,
      "amenity": "restaurant",
      "cuisine": "mexican",
      "value": 301.44749403728974
    },
    {
      "id": 100814,
      "geometry": "POINT (-118.498226 34.015657)",
      "poi_name": "HiHo Cheeseburger",
      "osm_id": 6600418515,
      "amenity": "restaurant",
      "cuisine": "new_american;american;burger",
      "website": "https://www.hiho.la/",
      "phone": "+1-310-469-7250",
      "addr_state": "CA",
      "addr_city": "Santa Monica",
      "addr_postcode": "90401",
      "addr_street": "2nd Street",
      "addr_housenumber": "1320",
      "value": 301.44749403728974
    },
    {
      "id": 101345,
      "geometry": "POINT (-118.495445 34.012249)",
      "poi_name": "Ivy at the Shore",
      "osm_id": 6622667117,
      "amenity": "restaurant",
      "cuisine": "american",
      "website": "http://theivyrestaurants.com/ivy-at-the-shore/",
      "phone": "+1-310-393-3113",
      "addr_state": "CA",
      "addr_city": "Santa Monica",
      "addr_postcode": "90401",
      "addr_street": "Ocean Avenue",
      "addr_housenumber": "1535",
      "value": 301.44749403728974
    },
    {
      "id": 101347,
      "geometry": "POINT (-118.496504 34.012988)",
      "poi_name": "Ma'kai Restaurant & Lounge",
      "osm_id": 6622700150,
      "amenity": "restaurant",
      "cuisine": "sushi;asian;japanese",
      "website": "https://www.makailounge.com/",
      "phone": "+1-310-434-1511",
      "addr_state": "CA",
      "addr_city": "Santa Monica",
      "addr_postcode": "90401",
      "addr_street": "Broadway",
      "addr_housenumber": "101",
      "value": 301.44749403728974
    },
    {
      "id": 101349,
      "geometry": "POINT (-118.49611 34.013884)",
      "poi_name": "North Italia",
      "osm_id": 6622714842,
      "amenity": "restaurant",
      "cuisine": "italian",
      "website": "https://www.northitaliarestaurant.com/locations/santa-monica-ca/",
      "internet_access": "wlan",
      "phone": "+1-310-382-2460",
      "addr_state": "CA",
      "addr_city": "Santa Monica",
      "addr_postcode": "90401",
      "addr_street": "2nd Street",
      "addr_housenumber": "1442",
      "value": 301.44749403728974
    },
    {
      "id": 101350,
      "geometry": "POINT (-118.495799 34.013111)",
      "poi_name": "KazuNori",
      "osm_id": 6622747029,
      "amenity": "restaurant",
      "cuisine": "sushi;japanese;asian",
      "website": "https://www.handrollbar.com/locations/santa-monica/",
      "phone": "+1-424-999-4594",
      "addr_state": "CA",
      "addr_city": "Santa Monica",
      "addr_postcode": "90401",
      "addr_street": "Broadway",
      "addr_housenumber": "120",
      "value": 301.44749403728974
    },
    {
      "id": 101351,
      "geometry": "POINT (-118.495048 34.011052)",
      "poi_name": "The Lobster",
      "osm_id": 6622844810,
      "amenity": "restaurant",
      "cuisine": "seafood;american",
      "website": "https://thelobster.com/",
      "phone": "+1-310-458-9294",
      "addr_state": "CA",
      "addr_city": "Santa Monica",
      "addr_postcode": "90401",
      "addr_street": "Ocean Avenue",
      "addr_housenumber": "1602",
      "value": 301.44749403728974
    },
    {
      "id": 101352,
      "geometry": "POINT (-118.495072 34.011833)",
      "poi_name": "Red O - Taste of Mexico",
      "osm_id": 6622855535,
      "amenity": "restaurant",
      "cuisine": "mexican",
      "website": "https://www.redorestaurant.com/",
      "phone": "+1-310-458-1600",
      "outdoor_seating": "yes",
      "addr_state": "CA",
      "addr_city": "Santa Monica",
      "addr_postcode": "90401",
      "addr_street": "Ocean Avenue",
      "addr_housenumber": "1541",
      "value": 301.44749403728974
    },
    {
      "id": 101353,
      "geometry": "POINT (-118.493908 34.010299)",
      "poi_name": "Bruno's Italian Restaurant",
      "osm_id": 6622855913,
      "amenity": "restaurant",
      "cuisine": "italian",
      "website": "https://brunossantamonica.com/",
      "phone": "+1-310-395-5589",
      "addr_state": "CA",
      "addr_city": "Santa Monica",
      "addr_postcode": "90401",
      "addr_street": "Ocean Avenue",
      "addr_housenumber": "1652",
      "value": 301.44749403728974
    },
    {
      "id": 101354,
      "geometry": "POINT (-118.493787 34.010208)",
      "poi_name": "Casa Martin",
      "osm_id": 6622856060,
      "amenity": "restaurant",
      "cuisine": "mexican",
      "website": "https://www.casamartinsm.com/",
      "phone": "+1-310-663-1732",
      "addr_state": "CA",
      "addr_city": "Santa Monica",
      "addr_postcode": "90401",
      "addr_street": "Ocean Avenue",
      "addr_housenumber": "1654",
      "value": 301.44749403728974
    },
    {
      "id": 111586,
      "geometry": "POINT (-118.45863 33.97991)",
      "poi_name": "The Cheesecake Factory",
      "osm_id": 3755307025,
      "amenity": "restaurant",
      "cuisine": "american",
      "value": 301.44749403728974
    },
    {
      "id": 101802,
      "geometry": "POINT (-118.496978 34.016657)",
      "poi_name": "Azul\u00e9 Taqueria",
      "osm_id": 6644552485,
      "amenity": "restaurant",
      "cuisine": "mexican",
      "opening_hours": "Mo-Su 11:00-22:00",
      "website": "https://azuletaqueria.com",
      "phone": "+1 310 598 5598",
      "addr_postcode": "90401",
      "addr_street": "Third Street Promenade",
      "addr_housenumber": "1315",
      "value": 301.44749403728974
    },
    {
      "id": 104897,
      "geometry": "POINT (-118.553426 34.040362)",
      "poi_name": "Thai Vegan",
      "osm_id": 8591490881,
      "amenity": "restaurant",
      "cuisine": "thai",
      "value": 301.44749403728974
    },
    {
      "id": 104899,
      "geometry": "POINT (-118.553379 34.040575)",
      "poi_name": "Rocco's",
      "osm_id": 8591490883,
      "amenity": "restaurant",
      "value": 301.44749403728974
    },
    {
      "id": 111943,
      "geometry": "POINT (-118.816654 34.011108)",
      "poi_name": "The Sunset",
      "osm_id": 3771727961,
      "amenity": "restaurant",
      "cuisine": "seafood",
      "website": "https://www.thesunsetrestaurant.com/",
      "addr_state": "CA",
      "addr_city": "Malibu",
      "addr_postcode": "90265",
      "addr_street": "Westward Beach Road",
      "addr_housenumber": "6800",
      "value": 301.44749403728974
    },
    {
      "id": 112295,
      "geometry": "POINT (-118.605336 34.183865)",
      "poi_name": "Eureka",
      "osm_id": 3785830192,
      "amenity": "restaurant",
      "value": 301.44749403728974
    },
    {
      "id": 112365,
      "geometry": "POINT (-118.607194 34.183088)",
      "poi_name": "Old New York Deli & Bakery Co.",
      "osm_id": 3788378020,
      "amenity": "restaurant",
      "cuisine": "deli",
      "website": "https://www.oldnewyork.com/",
      "phone": "+1 818-887-3354",
      "addr_state": "CA",
      "addr_city": "Woodland Hills",
      "addr_postcode": "91367",
      "addr_street": "Topanga Canyon Boulevard",
      "addr_housenumber": "6209",
      "value": 301.44749403728974
    },
    {
      "id": 112366,
      "geometry": "POINT (-118.606897 34.183195)",
      "poi_name": "Sharky's Woodfired Mexican Grill",
      "osm_id": 3788378021,
      "amenity": "restaurant",
      "cuisine": "mexican",
      "value": 301.44749403728974
    },
    {
      "id": 112367,
      "geometry": "POINT (-118.606373 34.183065)",
      "poi_name": "Hook Burger",
      "osm_id": 3788378022,
      "amenity": "restaurant",
      "cuisine": "burger",
      "value": 301.44749403728974
    },
    {
      "id": 112296,
      "geometry": "POINT (-118.605196 34.183458)",
      "poi_name": "Sushi Katsuya",
      "osm_id": 3785830195,
      "amenity": "restaurant",
      "cuisine": "sushi",
      "value": 301.44749403728974
    },
    {
      "id": 112298,
      "geometry": "POINT (-118.604986 34.184981)",
      "poi_name": "Wokcano",
      "osm_id": 3785830197,
      "amenity": "restaurant",
      "cuisine": "asian",
      "value": 301.44749403728974
    },
    {
      "id": 112299,
      "geometry": "POINT (-118.605304 34.185869)",
      "poi_name": "Il Fornaio",
      "osm_id": 3785830200,
      "amenity": "restaurant",
      "value": 301.44749403728974
    },
    {
      "id": 112300,
      "geometry": "POINT (-118.604672 34.185721)",
      "poi_name": "Xoc Tequila Grill",
      "osm_id": 3785830201,
      "amenity": "restaurant",
      "value": 301.44749403728974
    },
    {
      "id": 112900,
      "geometry": "POINT (-118.599672 34.178868)",
      "poi_name": "Trejo's Cantina",
      "osm_id": 3809578441,
      "amenity": "restaurant",
      "cuisine": "mexican",
      "value": 301.44749403728974
    },
    {
      "id": 112939,
      "geometry": "POINT (-118.602085 34.184462)",
      "poi_name": "Michelle's Trimana",
      "osm_id": 3810663991,
      "amenity": "restaurant",
      "value": 301.44749403728974
    },
    {
      "id": 112814,
      "geometry": "POINT (-118.605021 34.184802)",
      "poi_name": "EMC Sea Food",
      "osm_id": 3806218313,
      "amenity": "restaurant",
      "value": 301.44749403728974
    },
    {
      "id": 112815,
      "geometry": "POINT (-118.604684 34.184732)",
      "poi_name": "Modern Bread and Bagel",
      "osm_id": 3806218314,
      "amenity": "restaurant",
      "cuisine": "breakfast",
      "value": 301.44749403728974
    },
    {
      "id": 112816,
      "geometry": "POINT (-118.604971 34.184595)",
      "poi_name": "Pitfire Pizza",
      "osm_id": 3806218316,
      "amenity": "restaurant",
      "value": 301.44749403728974
    },
    {
      "id": 112817,
      "geometry": "POINT (-118.604502 34.185868)",
      "poi_name": "Xoc Taco",
      "osm_id": 3806218325,
      "amenity": "restaurant",
      "cuisine": "mexican",
      "value": 301.44749403728974
    },
    {
      "id": 112818,
      "geometry": "POINT (-118.60523 34.186145)",
      "poi_name": "Joey",
      "osm_id": 3806218327,
      "amenity": "restaurant",
      "value": 301.44749403728974
    },
    {
      "id": 112819,
      "geometry": "POINT (-118.604667 34.18385)",
      "poi_name": "Larson Steakhouse",
      "osm_id": 3806218330,
      "amenity": "restaurant",
      "cuisine": "steak_house",
      "value": 301.44749403728974
    },
    {
      "id": 112820,
      "geometry": "POINT (-118.606383 34.186375)",
      "poi_name": "Roys",
      "osm_id": 3806255564,
      "amenity": "restaurant",
      "cuisine": "asian",
      "value": 301.44749403728974
    },
    {
      "id": 112821,
      "geometry": "POINT (-118.606378 34.186568)",
      "poi_name": "Fleming's",
      "osm_id": 3806255565,
      "amenity": "restaurant",
      "cuisine": "steak_house",
      "official_name": "Fleming's Prime Steakhouse & Wine Bar",
      "value": 301.44749403728974
    },
    {
      "id": 112954,
      "geometry": "POINT (-118.492332 34.02368)",
      "poi_name": "Santa Monica Seafood",
      "osm_id": 3812003952,
      "amenity": "restaurant",
      "cuisine": "seafood",
      "wheelchair": "yes",
      "value": 301.44749403728974
    },
    {
      "id": 112901,
      "geometry": "POINT (-118.59902 34.178832)",
      "poi_name": "Earth Bar",
      "osm_id": 3809578442,
      "amenity": "restaurant",
      "value": 301.44749403728974
    },
    {
      "id": 112906,
      "geometry": "POINT (-118.605047 34.183643)",
      "poi_name": "Lucille's Smokehouse BBQ",
      "osm_id": 3810125741,
      "amenity": "restaurant",
      "cuisine": "barbecue",
      "official_name": "Lucille's Smokehouse Bar-B-Que",
      "value": 301.44749403728974
    },
    {
      "id": 113352,
      "geometry": "POINT (-118.603548 34.168653)",
      "poi_name": "Urban Plates",
      "osm_id": 3832225184,
      "amenity": "restaurant",
      "value": 301.44749403728974
    },
    {
      "id": 112996,
      "geometry": "POINT (-118.604686 34.184232)",
      "poi_name": "CAVA",
      "osm_id": 3813477997,
      "amenity": "restaurant",
      "cuisine": "mediterranean",
      "value": 301.44749403728974
    },
    {
      "id": 113431,
      "geometry": "POINT (-118.590599 34.16685)",
      "poi_name": "HQ Gastropub",
      "osm_id": 3834396931,
      "amenity": "restaurant",
      "value": 301.44749403728974
    },
    {
      "id": 113432,
      "geometry": "POINT (-118.590157 34.16678)",
      "poi_name": "Nicola's",
      "osm_id": 3834396932,
      "amenity": "restaurant",
      "value": 301.44749403728974
    },
    {
      "id": 113413,
      "geometry": "POINT (-118.646227 34.153181)",
      "poi_name": "Marmalade Cafe",
      "osm_id": 3833716280,
      "amenity": "restaurant",
      "value": 301.44749403728974
    },
    {
      "id": 113414,
      "geometry": "POINT (-118.645021 34.153234)",
      "poi_name": "Tata y Mami",
      "osm_id": 3833716281,
      "amenity": "restaurant",
      "value": 301.44749403728974
    },
    {
      "id": 113417,
      "geometry": "POINT (-118.615144 34.168149)",
      "poi_name": "Leo & Lily's",
      "osm_id": 3834333238,
      "amenity": "restaurant",
      "value": 301.44749403728974
    },
    {
      "id": 113419,
      "geometry": "POINT (-118.615425 34.16899)",
      "poi_name": "Juicy Ladies",
      "osm_id": 3834333240,
      "amenity": "restaurant",
      "value": 301.44749403728974
    },
    {
      "id": 113355,
      "geometry": "POINT (-118.604351 34.168225)",
      "poi_name": "Curry Up Cafe",
      "osm_id": 3832225193,
      "amenity": "restaurant",
      "cuisine": "indian",
      "value": 301.44749403728974
    },
    {
      "id": 113420,
      "geometry": "POINT (-118.61359 34.169252)",
      "poi_name": "California Chicken",
      "osm_id": 3834333242,
      "amenity": "restaurant",
      "value": 301.44749403728974
    },
    {
      "id": 113452,
      "geometry": "POINT (-118.639336 34.1572)",
      "poi_name": "The Six",
      "osm_id": 3835008425,
      "amenity": "restaurant",
      "value": 301.44749403728974
    },
    {
      "id": 113422,
      "geometry": "POINT (-118.622717 34.166496)",
      "poi_name": "Brandywine",
      "osm_id": 3834333247,
      "amenity": "restaurant",
      "value": 301.44749403728974
    },
    {
      "id": 113567,
      "geometry": "POINT (-118.602047 34.168602)",
      "poi_name": "Lotus Inn",
      "osm_id": 3839971780,
      "amenity": "restaurant",
      "cuisine": "chinese",
      "value": 301.44749403728974
    },
    {
      "id": 113425,
      "geometry": "POINT (-118.621678 34.166807)",
      "poi_name": "Anarbagh",
      "osm_id": 3834396895,
      "amenity": "restaurant",
      "cuisine": "indian",
      "value": 301.44749403728974
    },
    {
      "id": 113426,
      "geometry": "POINT (-118.62529 34.165637)",
      "poi_name": "Local Peasant",
      "osm_id": 3834396896,
      "amenity": "restaurant",
      "cuisine": "gastropub",
      "value": 301.44749403728974
    },
    {
      "id": 113427,
      "geometry": "POINT (-118.602576 34.168193)",
      "poi_name": "Something Fishy",
      "osm_id": 3834396902,
      "amenity": "restaurant",
      "cuisine": "seafood",
      "value": 301.44749403728974
    },
    {
      "id": 113428,
      "geometry": "POINT (-118.602977 34.168184)",
      "poi_name": "Shirin",
      "osm_id": 3834396903,
      "amenity": "restaurant",
      "cuisine": "persian",
      "value": 301.44749403728974
    },
    {
      "id": 113429,
      "geometry": "POINT (-118.591681 34.166505)",
      "poi_name": "Soup's Sports Grill",
      "osm_id": 3834396925,
      "amenity": "restaurant",
      "value": 301.44749403728974
    },
    {
      "id": 113430,
      "geometry": "POINT (-118.591505 34.166467)",
      "poi_name": "Paoli's",
      "osm_id": 3834396926,
      "amenity": "restaurant",
      "value": 301.44749403728974
    },
    {
      "id": 113587,
      "geometry": "POINT (-118.606312 34.167927)",
      "poi_name": "Monty's Steakhouse",
      "osm_id": 3840262204,
      "amenity": "restaurant",
      "cuisine": "steak_house",
      "value": 301.44749403728974
    },
    {
      "id": 113600,
      "geometry": "POINT (-118.643566 34.156594)",
      "poi_name": "Rosti",
      "osm_id": 3840406257,
      "amenity": "restaurant",
      "value": 301.44749403728974
    },
    {
      "id": 113568,
      "geometry": "POINT (-118.602249 34.168728)",
      "poi_name": "California Pita",
      "osm_id": 3839971781,
      "amenity": "restaurant",
      "value": 301.44749403728974
    },
    {
      "id": 113661,
      "geometry": "POINT (-118.883652 34.181939)",
      "poi_name": "Olive Garden",
      "osm_id": 3842242301,
      "amenity": "restaurant",
      "cuisine": "italian",
      "value": 301.44749403728974
    },
    {
      "id": 113569,
      "geometry": "POINT (-118.601418 34.168129)",
      "poi_name": "Blvd Burgers",
      "osm_id": 3840001742,
      "amenity": "restaurant",
      "cuisine": "burger",
      "value": 301.44749403728974
    },
    {
      "id": 113570,
      "geometry": "POINT (-118.600621 34.168048)",
      "poi_name": "Tatsuki",
      "osm_id": 3840002057,
      "amenity": "restaurant",
      "cuisine": "sushi",
      "value": 301.44749403728974
    },
    {
      "id": 113571,
      "geometry": "POINT (-118.60027 34.168074)",
      "poi_name": "Little Orchids",
      "osm_id": 3840002058,
      "amenity": "restaurant",
      "cuisine": "thai",
      "value": 301.44749403728974
    },
    {
      "id": 113572,
      "geometry": "POINT (-118.600421 34.16807)",
      "poi_name": "China Garden",
      "osm_id": 3840002059,
      "amenity": "restaurant",
      "cuisine": "chinese",
      "value": 301.44749403728974
    },
    {
      "id": 113631,
      "geometry": "POINT (-118.885396 34.182806)",
      "poi_name": "Lazy Dog",
      "osm_id": 3841925356,
      "amenity": "restaurant",
      "cuisine": "american",
      "value": 301.44749403728974
    },
    {
      "id": 113632,
      "geometry": "POINT (-118.885654 34.182506)",
      "poi_name": "Red Robin",
      "osm_id": 3841926157,
      "amenity": "restaurant",
      "cuisine": "burger",
      "official_name": "Red Robin Gourmet Burgers and Brews",
      "value": 301.44749403728974
    },
    {
      "id": 113573,
      "geometry": "POINT (-118.6002 34.167865)",
      "poi_name": "Zanos Pizza",
      "osm_id": 3840002061,
      "amenity": "restaurant",
      "cuisine": "pizza",
      "value": 301.44749403728974
    },
    {
      "id": 113633,
      "geometry": "POINT (-118.878892 34.182838)",
      "poi_name": "Greco's",
      "osm_id": 3841947560,
      "amenity": "restaurant",
      "cuisine": "pizza",
      "value": 301.44749403728974
    },
    {
      "id": 113685,
      "geometry": "POINT (-118.876171 34.178253)",
      "poi_name": "doghaus",
      "osm_id": 3843776308,
      "amenity": "restaurant",
      "opening_hours": "Mo-Su 11:00-22:00",
      "addr_state": "CA",
      "addr_city": "Thousand Oaks",
      "addr_postcode": "91360",
      "addr_street": "East Thousand Oaks Boulevard",
      "addr_housenumber": "50",
      "value": 301.44749403728974
    },
    {
      "id": 113688,
      "geometry": "POINT (-118.916744 34.183625)",
      "poi_name": "Chili's",
      "osm_id": 3843852267,
      "amenity": "restaurant",
      "cuisine": "tex-mex",
      "official_name": "Chili's Grill & Bar",
      "value": 301.44749403728974
    },
    {
      "id": 113635,
      "geometry": "POINT (-118.87876 34.182888)",
      "poi_name": "Gourmet Salads",
      "osm_id": 3841947562,
      "amenity": "restaurant",
      "cuisine": "salad",
      "value": 301.44749403728974
    },
    {
      "id": 113581,
      "geometry": "POINT (-118.594502 34.167044)",
      "poi_name": "My Brothers BBQ",
      "osm_id": 3840203853,
      "amenity": "restaurant",
      "value": 301.44749403728974
    },
    {
      "id": 113637,
      "geometry": "POINT (-118.87851 34.182691)",
      "poi_name": "Sunset Terrace",
      "osm_id": 3841947564,
      "amenity": "restaurant",
      "value": 301.44749403728974
    },
    {
      "id": 113638,
      "geometry": "POINT (-118.877324 34.181788)",
      "poi_name": "Karma",
      "osm_id": 3841947580,
      "amenity": "restaurant",
      "cuisine": "indian",
      "value": 301.44749403728974
    },
    {
      "id": 113639,
      "geometry": "POINT (-118.876745 34.18368)",
      "poi_name": "Sharky's",
      "osm_id": 3841947582,
      "amenity": "restaurant",
      "cuisine": "mexican",
      "value": 301.44749403728974
    },
    {
      "id": 113640,
      "geometry": "POINT (-118.876965 34.183352)",
      "poi_name": "Buca di Beppo",
      "osm_id": 3841947583,
      "amenity": "restaurant",
      "cuisine": "italian",
      "value": 301.44749403728974
    },
    {
      "id": 113641,
      "geometry": "POINT (-118.874158 34.18358)",
      "poi_name": "Draughts",
      "osm_id": 3841947586,
      "amenity": "restaurant",
      "value": 301.44749403728974
    },
    {
      "id": 113689,
      "geometry": "POINT (-118.921484 34.183614)",
      "poi_name": "Sharky's",
      "osm_id": 3843852268,
      "amenity": "restaurant",
      "value": 301.44749403728974
    },
    {
      "id": 113690,
      "geometry": "POINT (-118.92189 34.183496)",
      "poi_name": "Pickles Deli",
      "osm_id": 3843852269,
      "amenity": "restaurant",
      "value": 301.44749403728974
    },
    {
      "id": 113692,
      "geometry": "POINT (-118.921494 34.183473)",
      "poi_name": "Exotic Thai",
      "osm_id": 3843852271,
      "amenity": "restaurant",
      "value": 301.44749403728974
    },
    {
      "id": 113694,
      "geometry": "POINT (-118.92386 34.182324)",
      "poi_name": "Baba's",
      "osm_id": 3843852274,
      "amenity": "restaurant",
      "value": 301.44749403728974
    },
    {
      "id": 113695,
      "geometry": "POINT (-118.924904 34.181838)",
      "poi_name": "Jeanette's Edelweiss",
      "osm_id": 3843852275,
      "amenity": "restaurant",
      "cuisine": "german",
      "value": 301.44749403728974
    },
    {
      "id": 113696,
      "geometry": "POINT (-118.924823 34.182017)",
      "poi_name": "Sushi Oaks",
      "osm_id": 3843852276,
      "amenity": "restaurant",
      "value": 301.44749403728974
    },
    {
      "id": 113697,
      "geometry": "POINT (-118.928772 34.182344)",
      "poi_name": "Alamo",
      "osm_id": 3843852335,
      "amenity": "restaurant",
      "value": 301.44749403728974
    },
    {
      "id": 113698,
      "geometry": "POINT (-118.929057 34.182405)",
      "poi_name": "Red Wok",
      "osm_id": 3843852336,
      "amenity": "restaurant",
      "value": 301.44749403728974
    },
    {
      "id": 113699,
      "geometry": "POINT (-118.925834 34.182416)",
      "poi_name": "Roma",
      "osm_id": 3843852337,
      "amenity": "restaurant",
      "cuisine": "italian",
      "value": 301.44749403728974
    },
    {
      "id": 113701,
      "geometry": "POINT (-118.91463 34.183152)",
      "poi_name": "Ameci",
      "osm_id": 3843852564,
      "amenity": "restaurant",
      "cuisine": "pizza",
      "value": 301.44749403728974
    },
    {
      "id": 113702,
      "geometry": "POINT (-118.915906 34.183332)",
      "poi_name": "Gino's Bistro",
      "osm_id": 3843852567,
      "amenity": "restaurant",
      "cuisine": "italian",
      "value": 301.44749403728974
    },
    {
      "id": 113703,
      "geometry": "POINT (-118.876278 34.185589)",
      "poi_name": "Bandits BBQ",
      "osm_id": 3843852588,
      "amenity": "restaurant",
      "value": 301.44749403728974
    },
    {
      "id": 113642,
      "geometry": "POINT (-118.880788 34.179981)",
      "poi_name": "Marcello",
      "osm_id": 3841947616,
      "amenity": "restaurant",
      "cuisine": "italian",
      "value": 301.44749403728974
    },
    {
      "id": 113643,
      "geometry": "POINT (-118.880617 34.179931)",
      "poi_name": "Yomama",
      "osm_id": 3841947618,
      "amenity": "restaurant",
      "cuisine": "sushi",
      "value": 301.44749403728974
    },
    {
      "id": 113708,
      "geometry": "POINT (-118.912411 34.186854)",
      "poi_name": "Saffron Indian Cuisine",
      "osm_id": 3843911097,
      "amenity": "restaurant",
      "cuisine": "indian",
      "value": 301.44749403728974
    },
    {
      "id": 113709,
      "geometry": "POINT (-118.870428 34.218493)",
      "poi_name": "Imperial Garden Chinese Cuisine",
      "osm_id": 3843952232,
      "amenity": "restaurant",
      "cuisine": "chinese",
      "value": 301.44749403728974
    },
    {
      "id": 113710,
      "geometry": "POINT (-118.870414 34.218738)",
      "poi_name": "3 Amigos",
      "osm_id": 3843952233,
      "amenity": "restaurant",
      "cuisine": "mexican",
      "opening_hours": "Mo-Su 10:30-21:00",
      "website": "https://www.3amigosonline.com/",
      "phone": "+1-805-493-1033",
      "addr_state": "CA",
      "addr_city": "Thousand Oaks",
      "addr_postcode": "91360",
      "addr_street": "East Avenida de Los Arboles",
      "addr_housenumber": "365",
      "value": 301.44749403728974
    },
    {
      "id": 113711,
      "geometry": "POINT (-118.846991 34.210553)",
      "poi_name": "Jinky's Cafe",
      "osm_id": 3843952363,
      "amenity": "restaurant",
      "value": 301.44749403728974
    },
    {
      "id": 113586,
      "geometry": "POINT (-118.594033 34.166963)",
      "poi_name": "Angel City Cafe",
      "osm_id": 3840261444,
      "amenity": "restaurant",
      "value": 301.44749403728974
    },
    {
      "id": 113712,
      "geometry": "POINT (-118.841844 34.210412)",
      "poi_name": "Fusion Grill",
      "osm_id": 3843952372,
      "amenity": "restaurant",
      "opening_hours": "Mo-Sa 11:00-15:00,16:30-20:00; Su 11:00-15:00",
      "website": "http://www.fusiongrill1.com/",
      "phone": "+1-805-241-0449",
      "takeaway": "yes",
      "value": 301.44749403728974
    },
    {
      "id": 113715,
      "geometry": "POINT (-118.825347 34.163544)",
      "poi_name": "Veggie",
      "osm_id": 3843957344,
      "amenity": "restaurant",
      "value": 301.44749403728974
    },
    {
      "id": 113716,
      "geometry": "POINT (-118.825586 34.163702)",
      "poi_name": "Urban",
      "osm_id": 3843957345,
      "amenity": "restaurant",
      "cuisine": "pizza",
      "value": 301.44749403728974
    },
    {
      "id": 113769,
      "geometry": "POINT (-118.881036 34.180058)",
      "poi_name": "Establos Meat Market & Taqueria",
      "osm_id": 3845987976,
      "amenity": "restaurant",
      "shop": "butcher",
      "value": 301.44749403728974
    },
    {
      "id": 113772,
      "geometry": "POINT (-118.876182 34.178087)",
      "poi_name": "Urbane Cafe",
      "osm_id": 3846051368,
      "amenity": "restaurant",
      "opening_hours": "Mo-Sa 11:00-21:00; Su 11:00-20:00",
      "addr_state": "CA",
      "addr_city": "Thousand Oaks",
      "addr_postcode": "91360",
      "addr_street": "East Thousand Oaks Boulevard",
      "addr_housenumber": "50",
      "value": 301.44749403728974
    },
    {
      "id": 113814,
      "geometry": "POINT (-118.87551 34.185957)",
      "poi_name": "Pieology Pizzeria",
      "osm_id": 3847841502,
      "amenity": "restaurant",
      "cuisine": "pizza",
      "value": 301.44749403728974
    },
    {
      "id": 113774,
      "geometry": "POINT (-118.846561 34.174243)",
      "poi_name": "Umami",
      "osm_id": 3846053817,
      "amenity": "restaurant",
      "value": 301.44749403728974
    },
    {
      "id": 113775,
      "geometry": "POINT (-118.844267 34.174096)",
      "poi_name": "Donut Depot",
      "osm_id": 3846053828,
      "amenity": "restaurant",
      "value": 301.44749403728974
    },
    {
      "id": 113718,
      "geometry": "POINT (-118.877607 34.182711)",
      "poi_name": "Crazy Kong",
      "osm_id": 3843980262,
      "amenity": "restaurant",
      "cuisine": "sushi",
      "value": 301.44749403728974
    },
    {
      "id": 113719,
      "geometry": "POINT (-118.877644 34.18257)",
      "poi_name": "Lucky's Dog House",
      "osm_id": 3843980263,
      "amenity": "restaurant",
      "cuisine": "hot_dog",
      "value": 301.44749403728974
    },
    {
      "id": 113720,
      "geometry": "POINT (-118.889056 34.184808)",
      "poi_name": "Iron Grill Mongolian BBQ",
      "osm_id": 3843990887,
      "amenity": "restaurant",
      "cuisine": "mongolian_grill",
      "website": "https://www.shoptheoaksmall.com/Directory/Details/681699",
      "value": 301.44749403728974
    },
    {
      "id": 113721,
      "geometry": "POINT (-118.888956 34.184737)",
      "poi_name": "StoneOven",
      "osm_id": 3843990888,
      "amenity": "restaurant",
      "value": 301.44749403728974
    },
    {
      "id": 113722,
      "geometry": "POINT (-118.888904 34.184654)",
      "poi_name": "Sarku",
      "osm_id": 3843990890,
      "amenity": "restaurant",
      "cuisine": "japanese",
      "value": 301.44749403728974
    },
    {
      "id": 113723,
      "geometry": "POINT (-118.889141 34.184781)",
      "poi_name": "Tacone",
      "osm_id": 3843990891,
      "amenity": "restaurant",
      "value": 301.44749403728974
    },
    {
      "id": 113724,
      "geometry": "POINT (-118.888777 34.184523)",
      "poi_name": "Hummus",
      "osm_id": 3843990892,
      "amenity": "restaurant",
      "cuisine": "greek",
      "value": 301.44749403728974
    },
    {
      "id": 113728,
      "geometry": "POINT (-118.888744 34.184502)",
      "poi_name": "Hot Dog",
      "osm_id": 3843990900,
      "amenity": "restaurant",
      "cuisine": "hot_dog",
      "value": 301.44749403728974
    },
    {
      "id": 113776,
      "geometry": "POINT (-118.842652 34.173606)",
      "poi_name": "Harold's House of Omelettes",
      "osm_id": 3846053960,
      "amenity": "restaurant",
      "value": 301.44749403728974
    },
    {
      "id": 113803,
      "geometry": "POINT (-118.604045 34.178471)",
      "poi_name": "Breeze",
      "osm_id": 3847799464,
      "amenity": "restaurant",
      "value": 301.44749403728974
    },
    {
      "id": 113804,
      "geometry": "POINT (-118.592986 34.167648)",
      "poi_name": "Bistro",
      "osm_id": 3847799466,
      "amenity": "restaurant",
      "value": 301.44749403728974
    },
    {
      "id": 114120,
      "geometry": "POINT (-118.60483 34.183934)",
      "poi_name": "Slawdogs",
      "osm_id": 3866227486,
      "amenity": "restaurant",
      "outdoor_seating": "yes",
      "value": 301.44749403728974
    },
    {
      "id": 113901,
      "geometry": "POINT (-118.464958 33.990504)",
      "poi_name": "Gjelina",
      "osm_id": 3855955434,
      "amenity": "restaurant",
      "value": 301.44749403728974
    },
    {
      "id": 113729,
      "geometry": "POINT (-118.887597 34.184306)",
      "poi_name": "The Cheesecake Factory",
      "osm_id": 3843990901,
      "amenity": "restaurant",
      "cuisine": "american",
      "value": 301.44749403728974
    },
    {
      "id": 113730,
      "geometry": "POINT (-118.88777 34.184483)",
      "poi_name": "Stacked",
      "osm_id": 3843990902,
      "amenity": "restaurant",
      "value": 301.44749403728974
    },
    {
      "id": 114169,
      "geometry": "POINT (-118.602841 34.178445)",
      "poi_name": "Cafe Valentino",
      "osm_id": 3870409262,
      "amenity": "restaurant",
      "value": 301.44749403728974
    },
    {
      "id": 114665,
      "geometry": "POINT (-118.643308 34.155422)",
      "poi_name": "Kings",
      "osm_id": 3890744391,
      "amenity": "restaurant",
      "cuisine": "seafood",
      "value": 301.44749403728974
    },
    {
      "id": 114305,
      "geometry": "POINT (-118.437776 33.977829)",
      "poi_name": "California Pizza Kitchen",
      "osm_id": 3877034397,
      "amenity": "restaurant",
      "cuisine": "pizza",
      "value": 301.44749403728974
    },
    {
      "id": 114580,
      "geometry": "POINT (-118.624773 34.165805)",
      "poi_name": "Adagio",
      "osm_id": 3887073532,
      "amenity": "restaurant",
      "cuisine": "italian",
      "value": 301.44749403728974
    },
    {
      "id": 114581,
      "geometry": "POINT (-118.624109 34.165943)",
      "poi_name": "Bobby's",
      "osm_id": 3887073533,
      "amenity": "restaurant",
      "cuisine": "coffee_shop",
      "value": 301.44749403728974
    },
    {
      "id": 114582,
      "geometry": "POINT (-118.626676 34.16447)",
      "poi_name": "Topanga",
      "osm_id": 3887073534,
      "amenity": "restaurant",
      "cuisine": "pizza",
      "value": 301.44749403728974
    },
    {
      "id": 114583,
      "geometry": "POINT (-118.626436 34.164605)",
      "poi_name": "Red Ginger",
      "osm_id": 3887073535,
      "amenity": "restaurant",
      "cuisine": "thai",
      "value": 301.44749403728974
    },
    {
      "id": 114585,
      "geometry": "POINT (-118.619199 34.16701)",
      "poi_name": "Lukes",
      "osm_id": 3887073543,
      "amenity": "restaurant",
      "value": 301.44749403728974
    },
    {
      "id": 114586,
      "geometry": "POINT (-118.616019 34.168584)",
      "poi_name": "Barone's",
      "osm_id": 3887073549,
      "amenity": "restaurant",
      "cuisine": "pizza",
      "value": 301.44749403728974
    },
    {
      "id": 114589,
      "geometry": "POINT (-118.596977 34.174946)",
      "poi_name": "The Stand",
      "osm_id": 3887073556,
      "amenity": "restaurant",
      "value": 301.44749403728974
    },
    {
      "id": 114590,
      "geometry": "POINT (-118.596976 34.17474)",
      "poi_name": "Daphne's",
      "osm_id": 3887073957,
      "amenity": "restaurant",
      "cuisine": "greek",
      "value": 301.44749403728974
    },
    {
      "id": 114591,
      "geometry": "POINT (-118.596977 34.174846)",
      "poi_name": "Salad Farm",
      "osm_id": 3887073958,
      "amenity": "restaurant",
      "value": 301.44749403728974
    },
    {
      "id": 114599,
      "geometry": "POINT (-118.623803 34.179362)",
      "poi_name": "Alborz",
      "osm_id": 3887251654,
      "amenity": "restaurant",
      "value": 301.44749403728974
    },
    {
      "id": 114386,
      "geometry": "POINT (-118.445585 33.961487)",
      "poi_name": "Szechuan Palace",
      "osm_id": 3880792929,
      "amenity": "restaurant",
      "cuisine": "chinese",
      "value": 301.44749403728974
    },
    {
      "id": 114577,
      "geometry": "POINT (-118.62298 34.165685)",
      "poi_name": "Exotic Thai",
      "osm_id": 3887073511,
      "amenity": "restaurant",
      "cuisine": "thai",
      "value": 301.44749403728974
    },
    {
      "id": 114578,
      "geometry": "POINT (-118.626622 34.165186)",
      "poi_name": "Hugo's",
      "osm_id": 3887073512,
      "amenity": "restaurant",
      "cuisine": "mexican",
      "value": 301.44749403728974
    },
    {
      "id": 114579,
      "geometry": "POINT (-118.627294 34.164926)",
      "poi_name": "Shalimar",
      "osm_id": 3887073513,
      "amenity": "restaurant",
      "cuisine": "indian",
      "website": "http://shalimarindian.com",
      "phone": "+1-818-225-7794",
      "addr_state": "CA",
      "addr_city": "Woodland Hills",
      "addr_postcode": "91364",
      "addr_street": "Ventura Blvd",
      "addr_housenumber": "23011",
      "value": 301.44749403728974
    },
    {
      "id": 114731,
      "geometry": "POINT (-118.607145 34.18315)",
      "poi_name": "Poke Bar",
      "osm_id": 3893005474,
      "amenity": "restaurant",
      "cuisine": "hawaiian",
      "value": 301.44749403728974
    },
    {
      "id": 114844,
      "geometry": "POINT (-118.888842 34.184595)",
      "poi_name": "Salsa",
      "osm_id": 3897652692,
      "amenity": "restaurant",
      "cuisine": "mexican",
      "value": 301.44749403728974
    },
    {
      "id": 120420,
      "geometry": "POINT (-118.497218 34.016374)",
      "poi_name": "Johnny Rockets",
      "osm_id": 6702620627,
      "amenity": "restaurant",
      "cuisine": "burger",
      "opening_hours": "Mo-Th, Su 08:00-23:00; Fr, Sa 08:00-00:00",
      "value": 301.44749403728974
    },
    {
      "id": 116874,
      "geometry": "POINT (-118.496293 34.016001)",
      "poi_name": "Barney's Beanery",
      "osm_id": 8968918705,
      "amenity": "restaurant",
      "value": 301.44749403728974
    },
    {
      "id": 116875,
      "geometry": "POINT (-118.49666 34.00979)",
      "poi_name": "The Albright",
      "osm_id": 8968918708,
      "amenity": "restaurant",
      "value": 301.44749403728974
    },
    {
      "id": 116876,
      "geometry": "POINT (-118.496593 34.0099)",
      "poi_name": "Rusty's",
      "osm_id": 8968918709,
      "amenity": "restaurant",
      "value": 301.44749403728974
    },
    {
      "id": 116877,
      "geometry": "POINT (-118.496481 34.009988)",
      "poi_name": "Seaside on the Pier",
      "osm_id": 8968918710,
      "amenity": "restaurant",
      "opening_hours": "Mo-Fr 11:00-19:00; Sa-Su 11:00-20:30",
      "website": "https://www.seasideonthepier.com",
      "phone": "+1 310 857 5073",
      "addr_state": "CA",
      "addr_city": "Santa Monica",
      "addr_postcode": "90401",
      "addr_street": "Santa Monica Pier",
      "addr_housenumber": "250",
      "value": 301.44749403728974
    },
    {
      "id": 116878,
      "geometry": "POINT (-118.494455 34.013008)",
      "poi_name": "True Food Kitchen",
      "osm_id": 8968918713,
      "amenity": "restaurant",
      "cuisine": "american",
      "website": "https://www.truefoodkitchen.com/",
      "phone": "+1(310)593-8300",
      "value": 301.44749403728974
    },
    {
      "id": 117761,
      "geometry": "POINT (-118.485932 34.004063)",
      "poi_name": "Thai Vegan",
      "osm_id": 9008819957,
      "amenity": "restaurant",
      "cuisine": "thai",
      "value": 301.44749403728974
    },
    {
      "id": 119586,
      "geometry": "POINT (-118.471782 33.987724)",
      "poi_name": "Great White",
      "osm_id": 9108369817,
      "amenity": "restaurant",
      "value": 301.44749403728974
    },
    {
      "id": 115238,
      "geometry": "POINT (-118.700546 34.144679)",
      "poi_name": "Hanami Sushi",
      "osm_id": 8882907565,
      "amenity": "restaurant",
      "cuisine": "sushi",
      "wheelchair": "yes",
      "website": "https://www.hanamisushiusa.com/",
      "phone": "+1 818 880 0073",
      "addr_state": "CA",
      "addr_city": "Calabasas",
      "addr_postcode": "91302",
      "addr_street": "Agoura Road",
      "addr_housenumber": "26527",
      "value": 301.44749403728974
    },
    {
      "id": 117723,
      "geometry": "POINT (-118.490375 34.007152)",
      "poi_name": "Cha Cha Chicken",
      "osm_id": 9007608753,
      "amenity": "restaurant",
      "cuisine": "caribbean",
      "value": 301.44749403728974
    },
    {
      "id": 124537,
      "geometry": "POINT (-118.796007 34.14784)",
      "poi_name": "The Gallery",
      "osm_id": 6919372966,
      "amenity": "restaurant",
      "value": 301.44749403728974
    },
    {
      "id": 120779,
      "geometry": "POINT (-118.498426 34.017851)",
      "poi_name": "Silverlake Ramen",
      "osm_id": 6722569685,
      "amenity": "restaurant",
      "opening_hours": "Mo-Sa 11:30-22:00; Su 11:30-21:00",
      "website": "https://silverlakeramen.com/",
      "addr_postcode": "90401",
      "addr_street": "3rd Street Promenade",
      "addr_housenumber": "1319",
      "value": 301.44749403728974
    },
    {
      "id": 121745,
      "geometry": "POINT (-118.395457 33.948887)",
      "poi_name": "Sealegs",
      "osm_id": 6778276407,
      "amenity": "restaurant",
      "value": 301.44749403728974
    },
    {
      "id": 123122,
      "geometry": "POINT (-118.493545 34.033264)",
      "poi_name": "Kye's",
      "osm_id": 6835884682,
      "amenity": "restaurant",
      "cuisine": "health_food",
      "website": "https://www.kyesmontana.com/",
      "phone": "+1-310-395-5937",
      "addr_state": "CA",
      "addr_city": "Santa Monica",
      "addr_postcode": "90403",
      "addr_street": "Montana Avenue",
      "addr_housenumber": "1518",
      "value": 301.44749403728974
    },
    {
      "id": 123409,
      "geometry": "POINT (-118.881847 34.27925)",
      "poi_name": "El Pollo Corona",
      "osm_id": 6853364159,
      "amenity": "restaurant",
      "cuisine": "mexican",
      "value": 301.44749403728974
    },
    {
      "id": 124120,
      "geometry": "POINT (-118.604678 34.090292)",
      "poi_name": "Inn of the Seventh Ray",
      "osm_id": 6900524643,
      "amenity": "restaurant",
      "cuisine": "brunch;breakfast;buffet;organic",
      "opening_hours": "Mo-Th 09:00-15:00,17:30-21:30; Fr-Su 09:00-15:00,17:30-22:00",
      "website": "https://www.innoftheseventhray.com/",
      "phone": "(310) 455-1311",
      "addr_state": "CA",
      "addr_city": "Topanga",
      "addr_postcode": "90290",
      "addr_street": "Old Topanga Canyon Road",
      "addr_housenumber": "128",
      "value": 301.44749403728974
    },
    {
      "id": 121104,
      "geometry": "POINT (-118.466262 33.979208)",
      "poi_name": "Mercedes",
      "osm_id": 6742742778,
      "amenity": "restaurant",
      "value": 301.44749403728974
    },
    {
      "id": 123131,
      "geometry": "POINT (-118.492795 34.033948)",
      "poi_name": "Forma Restaurant & Cheese Bar",
      "osm_id": 6835921793,
      "amenity": "restaurant",
      "cuisine": "italian",
      "website": "https://www.formarestaurant.com/",
      "phone": "+1-424-231-2868",
      "addr_state": "CA",
      "addr_city": "Santa Monica",
      "addr_postcode": "90403",
      "addr_street": "Montana Avenue",
      "addr_housenumber": "1610",
      "value": 301.44749403728974
    },
    {
      "id": 123134,
      "geometry": "POINT (-118.449004 33.99152)",
      "poi_name": "NIGHT + MARKET Sahm",
      "osm_id": 6835928211,
      "amenity": "restaurant",
      "cuisine": "thai;asian",
      "website": "http://www.nightmarketsong.com/nm-sahm/",
      "phone": "+1-310-301-0333",
      "addr_state": "CA",
      "addr_city": "Los Angeles",
      "addr_postcode": "90291",
      "addr_street": "Lincoln Boulevard",
      "addr_housenumber": "2533",
      "value": 301.44749403728974
    },
    {
      "id": 123137,
      "geometry": "POINT (-118.49185 34.006771)",
      "poi_name": "1 Pico",
      "osm_id": 6835949718,
      "amenity": "restaurant",
      "cuisine": "seafood",
      "website": "https://www.shuttersonthebeach.com/dining/1-pico",
      "phone": "+1-310-587-1717",
      "addr_state": "CA",
      "addr_city": "Santa Monica",
      "addr_postcode": "90405",
      "addr_street": "West Pico Boulevard",
      "addr_housenumber": "1",
      "value": 301.44749403728974
    },
    {
      "id": 123138,
      "geometry": "POINT (-118.491734 34.006651)",
      "poi_name": "Coast",
      "osm_id": 6835949882,
      "amenity": "restaurant",
      "cuisine": "american",
      "website": "https://www.shuttersonthebeach.com/dining/coast",
      "phone": "+1-310-587-1707",
      "addr_state": "CA",
      "addr_city": "Santa Monica",
      "addr_postcode": "90405",
      "addr_street": "West Pico Boulevard",
      "addr_housenumber": "1",
      "value": 301.44749403728974
    },
    {
      "id": 123463,
      "geometry": "POINT (-118.770194 34.284221)",
      "poi_name": "Larsen's Grill",
      "osm_id": 6856215971,
      "amenity": "restaurant",
      "cuisine": "steak_house",
      "value": 301.44749403728974
    },
    {
      "id": 124552,
      "geometry": "POINT (-118.591907 34.116346)",
      "poi_name": "Topanga Living Cafe",
      "osm_id": 6919529512,
      "amenity": "restaurant",
      "cuisine": "salad;smoothie;sandwich;bakery;coffee;cafe;organic",
      "opening_hours": "Su-Fr 08:00-18:00; Sa 08:00-21:00",
      "website": "https://www.topangalivingcafe.com/",
      "phone": "(310) 455-9888",
      "addr_state": "CA",
      "addr_city": "Topanga",
      "addr_postcode": "90290",
      "addr_street": "North Topanga Canyon Boulevard",
      "addr_housenumber": "1704",
      "value": 301.44749403728974
    },
    {
      "id": 125206,
      "geometry": "POINT (-118.496444 34.014582)",
      "poi_name": "Ippudo",
      "osm_id": 6949976090,
      "amenity": "restaurant",
      "cuisine": "ramen",
      "value": 301.44749403728974
    },
    {
      "id": 130023,
      "geometry": "POINT (-118.419548 33.959578)",
      "poi_name": "Beach Pizza",
      "osm_id": 9851069945,
      "amenity": "restaurant",
      "cuisine": "pizza",
      "addr_city": "Los Angeles",
      "addr_postcode": "90045",
      "addr_street": "Lincoln Boulevard",
      "addr_housenumber": "8601",
      "value": 301.44749403728974
    },
    {
      "id": 125575,
      "geometry": "POINT (-118.489359 34.018736)",
      "poi_name": "Sweetfin",
      "osm_id": 6965181985,
      "amenity": "restaurant",
      "value": 301.44749403728974
    },
    {
      "id": 126365,
      "geometry": "POINT (-118.465714 33.990694)",
      "poi_name": "Abbot's Pizza Company",
      "osm_id": 6994355885,
      "amenity": "restaurant",
      "cuisine": "pizza",
      "addr_street": "Abbot Kinney Boulevard",
      "addr_housenumber": "1407",
      "value": 301.44749403728974
    },
    {
      "id": 129294,
      "geometry": "POINT (-118.953584 34.180758)",
      "poi_name": "Bollywood Spice Indian Cuisine",
      "osm_id": 8231764291,
      "amenity": "restaurant",
      "value": 301.44749403728974
    },
    {
      "id": 130024,
      "geometry": "POINT (-118.419291 33.960146)",
      "poi_name": "Italy's Little Kitchen",
      "osm_id": 9851069946,
      "amenity": "restaurant",
      "cuisine": "italian",
      "value": 301.44749403728974
    },
    {
      "id": 130030,
      "geometry": "POINT (-118.483241 34.025736)",
      "poi_name": "Lee's",
      "osm_id": 9851482470,
      "amenity": "restaurant",
      "cuisine": "chinese",
      "value": 301.44749403728974
    },
    {
      "id": 131259,
      "geometry": "POINT (-118.491698 34.016853)",
      "poi_name": "Blue Daisy",
      "osm_id": 9906973038,
      "amenity": "restaurant",
      "value": 301.44749403728974
    },
    {
      "id": 130146,
      "geometry": "POINT (-118.685691 34.037909)",
      "poi_name": "Real Coconut",
      "osm_id": 9856612220,
      "amenity": "restaurant",
      "opening_hours": "Mo-Th 10:00-19:00; Fr 10:00-20:00; Sa 10:00-21:00; Su 10:00-20:00",
      "website": "https://www.realcoconutkitchen.com/malibu",
      "phone": "+1-424-644-0535",
      "addr_state": "CA",
      "addr_city": "Malibu",
      "addr_postcode": "90265",
      "addr_street": "Civic Center Way",
      "addr_housenumber": "23401",
      "value": 301.44749403728974
    },
    {
      "id": 130729,
      "geometry": "POINT (-118.48834 34.002245)",
      "poi_name": "Perry's Beach Caf\u00e9 and Rentals",
      "osm_id": 9887754903,
      "amenity": "restaurant",
      "value": 301.44749403728974
    },
    {
      "id": 130483,
      "geometry": "POINT (-118.482622 34.032131)",
      "poi_name": "Noma",
      "osm_id": 9873447617,
      "amenity": "restaurant",
      "cuisine": "japanese;sushi",
      "addr_street": "Wilshire Boulevard",
      "value": 301.44749403728974
    },
    {
      "id": 130487,
      "geometry": "POINT (-118.49513 34.0324)",
      "poi_name": "Prima Baja Cantina",
      "osm_id": 9873504517,
      "amenity": "restaurant",
      "cuisine": "mexican",
      "addr_street": "Montana Avenue",
      "value": 301.44749403728974
    },
    {
      "id": 131260,
      "geometry": "POINT (-118.491357 34.016722)",
      "poi_name": "Crimson",
      "osm_id": 9906973040,
      "amenity": "restaurant",
      "cuisine": "mediterranean",
      "value": 301.44749403728974
    },
    {
      "id": 131262,
      "geometry": "POINT (-118.493699 34.017444)",
      "poi_name": "Heroic Italian",
      "osm_id": 9906973044,
      "amenity": "restaurant",
      "cuisine": "italian",
      "value": 301.44749403728974
    },
    {
      "id": 131263,
      "geometry": "POINT (-118.498319 34.018877)",
      "poi_name": "Lotus Dim Sum",
      "osm_id": 9906973050,
      "amenity": "restaurant",
      "cuisine": "chinese",
      "value": 301.44749403728974
    },
    {
      "id": 131264,
      "geometry": "POINT (-118.498248 34.01957)",
      "poi_name": "Osteria del Fornaio",
      "osm_id": 9906973053,
      "amenity": "restaurant",
      "cuisine": "italian",
      "value": 301.44749403728974
    },
    {
      "id": 131265,
      "geometry": "POINT (-118.498158 34.014455)",
      "poi_name": "Blue Plate Oysterette",
      "osm_id": 9906973055,
      "amenity": "restaurant",
      "cuisine": "seafood",
      "value": 301.44749403728974
    },
    {
      "id": 131266,
      "geometry": "POINT (-118.496426 34.012984)",
      "poi_name": "The Whaler",
      "osm_id": 9906973057,
      "amenity": "restaurant",
      "value": 301.44749403728974
    },
    {
      "id": 131267,
      "geometry": "POINT (-118.49615 34.012747)",
      "poi_name": "Meat on Ocean",
      "osm_id": 9906973058,
      "amenity": "restaurant",
      "cuisine": "steak_house",
      "value": 301.44749403728974
    },
    {
      "id": 133897,
      "geometry": "POINT (-119.04302 34.21673)",
      "poi_name": "Old Town Cafe",
      "osm_id": 10014421852,
      "amenity": "restaurant",
      "opening_hours": "Mo-Su 08:00-21:00",
      "website": "https://www.myoldtowncafe.com/",
      "phone": "+1-805-484-5500",
      "value": 301.44749403728974
    },
    {
      "id": 133898,
      "geometry": "POINT (-119.044153 34.216881)",
      "poi_name": "Bandits Grill & Bar",
      "osm_id": 10014421853,
      "amenity": "restaurant",
      "cuisine": "barbecue",
      "opening_hours": "Mo,We-Su 11:30-21:00",
      "website": "http://banditsbbq.com/",
      "phone": "+1-805-445-4742",
      "addr_state": "CA",
      "addr_city": "Camarillo",
      "addr_postcode": "93010",
      "addr_street": "Ventura Boulevard",
      "addr_housenumber": "1980",
      "value": 301.44749403728974
    },
    {
      "id": 139000,
      "geometry": "POINT (-119.078278 34.209289)",
      "poi_name": "Waypoint Cafe",
      "osm_id": 6177878849,
      "amenity": "restaurant",
      "description": "American breakfast & lunch standards, plus a patio with close-up views of Camarillo Airport traffic.",
      "opening_hours": "Tu-Su 08:00-15:00",
      "website": "https://thewaypointcafe.com",
      "phone": "+1 (805) 388-2535",
      "addr_state": "CA",
      "addr_city": "Camarillo",
      "addr_postcode": "93010",
      "addr_street": "Durley Avenue",
      "addr_housenumber": "325",
      "value": 301.44749403728974
    },
    {
      "id": 137444,
      "geometry": "POINT (-118.49978 34.01767)",
      "poi_name": "Wally's Santa Monica",
      "osm_id": 6099921321,
      "amenity": "restaurant",
      "cuisine": "american;wine;lunch;brunch",
      "opening_hours": "Mo-Su 10:00-02:00",
      "website": "https://www.wallywine.com/",
      "phone": "+1-310-475-0606",
      "addr_state": "CA",
      "addr_city": "Santa Monica",
      "addr_postcode": "90401",
      "addr_street": "Wilshire Boulevard",
      "addr_housenumber": "214",
      "value": 301.44749403728974
    },
    {
      "id": 137446,
      "geometry": "POINT (-118.501552 34.017534)",
      "poi_name": "The Bungalow",
      "osm_id": 6099996319,
      "amenity": "restaurant",
      "cuisine": "american;small_plates",
      "opening_hours": "Mo-Fr 17:00-02:00; Sa 12:00-02:00; Su 12:00-22:00",
      "website": "https://www.thebungalow.com/thebungalowsm/",
      "phone": "+1-310-899-8530",
      "outdoor_seating": "yes",
      "addr_state": "CA",
      "addr_city": "Santa Monica",
      "addr_postcode": "90401",
      "addr_street": "Wilshire Boulevard",
      "addr_housenumber": "101",
      "value": 301.44749403728974
    },
    {
      "id": 137447,
      "geometry": "POINT (-118.501179 34.018114)",
      "poi_name": "FIG",
      "osm_id": 6100016226,
      "amenity": "restaurant",
      "cuisine": "bistro;seasonal;farm-to-table",
      "opening_hours": "07:00-14:00,17:00-22:00",
      "website": "http://www.figsantamonica.com/",
      "phone": "+1-310-319-3111",
      "addr_state": "CA",
      "addr_city": "Santa Monica",
      "addr_postcode": "90401",
      "addr_street": "Wilshire Boulevard",
      "addr_housenumber": "101",
      "value": 301.44749403728974
    },
    {
      "id": 138834,
      "geometry": "POINT (-118.465257 33.980162)",
      "poi_name": "Leona",
      "osm_id": 6171149585,
      "amenity": "restaurant",
      "addr_postcode": "90292",
      "addr_street": "Washington Boulevard",
      "addr_housenumber": "123",
      "value": 301.44749403728974
    },
    {
      "id": 134037,
      "geometry": "POINT (-119.0658 34.217021)",
      "poi_name": "Latitude 34",
      "osm_id": 10026192240,
      "amenity": "restaurant",
      "cuisine": "california;fusion",
      "website": "https://www.l34camarillo.com/",
      "phone": "+1-805-388-4734",
      "addr_state": "CA",
      "addr_city": "Camarillo",
      "addr_postcode": "93010",
      "addr_street": "Ventura Boulevard",
      "addr_housenumber": "660",
      "value": 301.44749403728974
    },
    {
      "id": 134953,
      "geometry": "POINT (-118.491367 34.024518)",
      "poi_name": "Melisse",
      "osm_id": 11497641915,
      "amenity": "restaurant",
      "website": "https://www.citrinandmelisse.com/",
      "value": 301.44749403728974
    },
    {
      "id": 135059,
      "geometry": "POINT (-118.758366 34.154748)",
      "poi_name": "Maria's Italian Restaurant",
      "osm_id": 11502476545,
      "amenity": "restaurant",
      "cuisine": "italian",
      "value": 301.44749403728974
    },
    {
      "id": 135455,
      "geometry": "POINT (-118.692136 34.272673)",
      "poi_name": "Chi-Chi's Pizza",
      "osm_id": 11515504420,
      "amenity": "restaurant",
      "cuisine": "pizza;italian",
      "opening_hours": "su-th 11:00-2100; Fr-Sa 11:00-22:00",
      "website": "https://www.chichispizza.com/",
      "phone": "(805) 526-3393",
      "addr_state": "CA",
      "addr_city": "Simi Valley",
      "addr_postcode": "93063",
      "addr_street": "East Los Angeles Avenue",
      "addr_housenumber": "5145",
      "value": 301.44749403728974
    },
    {
      "id": 135456,
      "geometry": "POINT (-118.679243 34.270565)",
      "poi_name": "Imperial Chinese Restaurant",
      "osm_id": 11515504440,
      "amenity": "restaurant",
      "cuisine": "chinese",
      "opening_hours": "Mo-Sa 11:00-15:00,16:30-20:45; Su 11:00-15:00, 16:30-21:00",
      "website": "http://www.imperialrestaurantonline.com/",
      "phone": "8055220667",
      "addr_state": "CA",
      "addr_city": "Simi Valley",
      "addr_postcode": "93063",
      "addr_street": "East Los Angeles Avenue",
      "addr_housenumber": "5772",
      "value": 301.44749403728974
    },
    {
      "id": 136223,
      "geometry": "POINT (-118.497804 34.017318)",
      "poi_name": "Casa Martin",
      "osm_id": 11571542269,
      "amenity": "restaurant",
      "cuisine": "mexican",
      "website": "http://casamartinsm.com",
      "phone": "(424) 268-4756",
      "addr_postcode": "90401",
      "addr_street": "3rd Street Promenade",
      "addr_housenumber": "1251",
      "value": 301.44749403728974
    },
    {
      "id": 150470,
      "geometry": "POINT (-118.882415 34.279364)",
      "poi_name": "Grinder",
      "osm_id": 4055832778,
      "amenity": "restaurant",
      "value": 301.44749403728974
    },
    {
      "id": 142667,
      "geometry": "POINT (-118.622016 34.166766)",
      "poi_name": "Nat's Early Bite Coffee Shop",
      "osm_id": 6319962454,
      "amenity": "restaurant",
      "cuisine": "indian",
      "value": 301.44749403728974
    },
    {
      "id": 145506,
      "geometry": "POINT (-118.465373 34.000337)",
      "poi_name": "Baby Blues BBQ",
      "osm_id": 7361695385,
      "amenity": "restaurant",
      "website": "https://babybluesbbq.com/",
      "phone": "3103967675",
      "addr_postcode": "90291",
      "addr_street": "Lincoln Boulevard",
      "addr_housenumber": "444",
      "value": 301.44749403728974
    },
    {
      "id": 145507,
      "geometry": "POINT (-118.477414 33.996746)",
      "poi_name": "La Fiesta Brava",
      "osm_id": 7361695485,
      "amenity": "restaurant",
      "cuisine": "mexican",
      "phone": "3103998005",
      "addr_postcode": "90291",
      "addr_street": "Hampton Drive",
      "addr_housenumber": "259",
      "value": 301.44749403728974
    },
    {
      "id": 148346,
      "geometry": "POINT (-118.600898 34.178772)",
      "poi_name": "Gateway Newstand",
      "osm_id": 3947002640,
      "amenity": "restaurant",
      "value": 301.44749403728974
    },
    {
      "id": 148481,
      "geometry": "POINT (-118.623906 34.186066)",
      "poi_name": "Tapatio",
      "osm_id": 3956135632,
      "amenity": "restaurant",
      "cuisine": "mexican",
      "value": 301.44749403728974
    },
    {
      "id": 148486,
      "geometry": "POINT (-118.626018 34.193315)",
      "poi_name": "Pho So 1",
      "osm_id": 3956160632,
      "amenity": "restaurant",
      "value": 301.44749403728974
    },
    {
      "id": 148487,
      "geometry": "POINT (-118.626214 34.193322)",
      "poi_name": "Kyoto Sushi",
      "osm_id": 3956160633,
      "amenity": "restaurant",
      "cuisine": "sushi",
      "value": 301.44749403728974
    },
    {
      "id": 151843,
      "geometry": "POINT (-118.917804 34.183538)",
      "poi_name": "Holdren's",
      "osm_id": 4115268335,
      "amenity": "restaurant",
      "cuisine": "steak_house",
      "value": 301.44749403728974
    },
    {
      "id": 151844,
      "geometry": "POINT (-118.918082 34.18355)",
      "poi_name": "Spumoni",
      "osm_id": 4115268336,
      "amenity": "restaurant",
      "cuisine": "italian",
      "value": 301.44749403728974
    },
    {
      "id": 154581,
      "geometry": "POINT (-118.60604 34.157291)",
      "poi_name": "Rib Ranch BBQ",
      "osm_id": 4244752040,
      "amenity": "restaurant",
      "cuisine": "barbecue",
      "outdoor_seating": "patio",
      "value": 301.44749403728974
    },
    {
      "id": 152003,
      "geometry": "POINT (-118.471361 34.018692)",
      "poi_name": "Prime Pizza",
      "osm_id": 4121804024,
      "amenity": "restaurant",
      "cuisine": "pizza",
      "value": 301.44749403728974
    },
    {
      "id": 152698,
      "geometry": "POINT (-118.603412 34.16865)",
      "poi_name": "Dickey's Barbecue Pit",
      "osm_id": 4154763919,
      "amenity": "restaurant",
      "cuisine": "barbecue",
      "value": 301.44749403728974
    },
    {
      "id": 152699,
      "geometry": "POINT (-118.602252 34.16958)",
      "poi_name": "Anantra",
      "osm_id": 4154763920,
      "amenity": "restaurant",
      "cuisine": "thai",
      "value": 301.44749403728974
    },
    {
      "id": 154367,
      "geometry": "POINT (-118.471871 33.999424)",
      "poi_name": "Wallflower",
      "osm_id": 4234987094,
      "amenity": "restaurant",
      "cuisine": "indonesian",
      "value": 301.44749403728974
    },
    {
      "id": 154583,
      "geometry": "POINT (-118.605455 34.156518)",
      "poi_name": "Bibi Sara",
      "osm_id": 4244752043,
      "amenity": "restaurant",
      "cuisine": "persian",
      "value": 301.44749403728974
    },
    {
      "id": 154584,
      "geometry": "POINT (-118.605455 34.156473)",
      "poi_name": "Italian Deli",
      "osm_id": 4244752044,
      "amenity": "restaurant",
      "cuisine": "deli",
      "value": 301.44749403728974
    },
    {
      "id": 154586,
      "geometry": "POINT (-118.606016 34.156228)",
      "poi_name": "Ameci",
      "osm_id": 4244807681,
      "amenity": "restaurant",
      "cuisine": "pizza",
      "value": 301.44749403728974
    },
    {
      "id": 154587,
      "geometry": "POINT (-118.606292 34.156748)",
      "poi_name": "Guido's",
      "osm_id": 4244808499,
      "amenity": "restaurant",
      "cuisine": "italian",
      "value": 301.44749403728974
    },
    {
      "id": 154588,
      "geometry": "POINT (-118.605637 34.157257)",
      "poi_name": "Yogi's Grill",
      "osm_id": 4244808517,
      "amenity": "restaurant",
      "cuisine": "japanese",
      "takeaway": "yes",
      "value": 301.44749403728974
    },
    {
      "id": 154866,
      "geometry": "POINT (-118.472389 33.988049)",
      "poi_name": "Mao's Kitchen",
      "osm_id": 4259744398,
      "amenity": "restaurant",
      "cuisine": "chinese",
      "addr_street": "Pacific Avenue",
      "addr_housenumber": "1512",
      "value": 301.44749403728974
    },
    {
      "id": 154873,
      "geometry": "POINT (-118.480579 33.999294)",
      "poi_name": "Tsukiji Sushi",
      "osm_id": 4259746596,
      "amenity": "restaurant",
      "cuisine": "sushi",
      "addr_city": "Santa Monica",
      "addr_postcode": "90405",
      "addr_street": "Main Street",
      "addr_housenumber": "2915",
      "value": 301.44749403728974
    },
    {
      "id": 154888,
      "geometry": "POINT (-118.472199 33.985368)",
      "poi_name": "Poke poke ",
      "osm_id": 4259747297,
      "amenity": "restaurant",
      "addr_street": "Ocean Front Walk",
      "addr_housenumber": "1827",
      "value": 301.44749403728974
    },
    {
      "id": 154897,
      "geometry": "POINT (-118.495932 34.013389)",
      "poi_name": "Thai Dishes on Broadway",
      "osm_id": 4259756489,
      "amenity": "restaurant",
      "cuisine": "thai",
      "phone": "+1-310-394-6189",
      "addr_state": "CA",
      "addr_city": "Santa Monica",
      "addr_postcode": "90401",
      "addr_street": "Broadway",
      "addr_housenumber": "123",
      "value": 301.44749403728974
    },
    {
      "id": 155298,
      "geometry": "POINT (-118.465865 34.000179)",
      "poi_name": "Clutch",
      "osm_id": 4280190228,
      "amenity": "restaurant",
      "opening_hours": "Mo 11:30-22:00; Tu-Th 11:30-23:00; Fr 11:30-00:00; Sa 10:30-00:00; Su 10:30-22:00",
      "website": "https://www.clutchcalimex.com/",
      "phone": "+1 310 396 8749",
      "outdoor_seating": "yes",
      "addr_state": "CA",
      "addr_city": "Venice",
      "addr_postcode": "90291",
      "addr_street": "Lincoln Boulevard",
      "addr_housenumber": "427",
      "value": 301.44749403728974
    },
    {
      "id": 155268,
      "geometry": "POINT (-118.468349 33.991385)",
      "poi_name": "Greenleaf",
      "osm_id": 4278753911,
      "amenity": "restaurant",
      "website": "https://www.greenleafchopshop.com/",
      "phone": "+1 310 399 9400",
      "takeaway": "yes",
      "addr_state": "CA",
      "addr_city": "Venice",
      "addr_postcode": "90291",
      "addr_street": "Abbot Kinney Boulevard",
      "addr_housenumber": "1239",
      "value": 301.44749403728974
    },
    {
      "id": 155269,
      "geometry": "POINT (-118.469208 33.991604)",
      "poi_name": "The Butcher's Daughter",
      "osm_id": 4278753916,
      "amenity": "restaurant",
      "opening_hours": "Mo-Su 08:00-22:00",
      "website": "https://www.thebutchersdaughter.com/",
      "phone": "+1 310 981 3004",
      "addr_state": "CA",
      "addr_city": "Venice",
      "addr_postcode": "90291",
      "addr_street": "Abbot Kinney Boulevard",
      "addr_housenumber": "1205",
      "value": 301.44749403728974
    },
    {
      "id": 160083,
      "geometry": "POINT (-118.481001 33.998705)",
      "poi_name": "Enterprise cafe",
      "osm_id": 4817064723,
      "amenity": "restaurant",
      "value": 301.44749403728974
    },
    {
      "id": 157671,
      "geometry": "POINT (-118.474433 33.987932)",
      "poi_name": "The Sidewalk Cafe",
      "osm_id": 4718972691,
      "amenity": "restaurant",
      "cuisine": "american",
      "website": "http://www.thesidewalkcafe.co/?utm_source=reachlocal&utm_medium=ppc&utm_campaign=thesidewalkcafe&scid=2959727&cid=2975126&tc=20021811150662517&rl_key=b9436adfe377e88e25495d870953c7bd&kw=24363242:148079&pub_cr_id=75935084617329&dynamic_proxy=1&primary_serv",
      "phone": "+1-424-543-0093",
      "outdoor_seating": "yes",
      "addr_postcode": "90291",
      "addr_street": "Ocean Front Walk",
      "addr_housenumber": "1401",
      "value": 301.44749403728974
    },
    {
      "id": 163161,
      "geometry": "POINT (-118.48009 33.994755)",
      "poi_name": "Dudley Markey",
      "osm_id": 9403926517,
      "amenity": "restaurant",
      "value": 301.44749403728974
    },
    {
      "id": 165211,
      "geometry": "POINT (-118.675797 34.038141)",
      "poi_name": "Fish Grill",
      "osm_id": 9522994625,
      "amenity": "restaurant",
      "cuisine": "seafood",
      "value": 301.44749403728974
    },
    {
      "id": 164141,
      "geometry": "POINT (-118.644282 34.153458)",
      "poi_name": "Rosa y Jos\u00e9",
      "osm_id": 9451449847,
      "amenity": "restaurant",
      "value": 301.44749403728974
    },
    {
      "id": 164142,
      "geometry": "POINT (-118.646231 34.153095)",
      "poi_name": "Marmalade Cafe - Calabasas",
      "osm_id": 9451449848,
      "amenity": "restaurant",
      "value": 301.44749403728974
    },
    {
      "id": 164824,
      "geometry": "POINT (-118.446578 33.960588)",
      "poi_name": "Se\u00f1or G's",
      "osm_id": 9502039912,
      "amenity": "restaurant",
      "cuisine": "mexican",
      "value": 301.44749403728974
    },
    {
      "id": 164140,
      "geometry": "POINT (-118.645956 34.152896)",
      "poi_name": "Fresh Brothers Pizza Calabasas",
      "osm_id": 9451449846,
      "amenity": "restaurant",
      "value": 301.44749403728974
    },
    {
      "id": 165278,
      "geometry": "POINT (-118.909311 34.186828)",
      "poi_name": "Twisted Meats",
      "osm_id": 9525784262,
      "amenity": "restaurant",
      "opening_hours": "Mo-Sa 11:00-24:00; Su 12:00-20:00",
      "website": "https://www.twisted-meats.com/",
      "value": 301.44749403728974
    },
    {
      "id": 165279,
      "geometry": "POINT (-118.909466 34.187042)",
      "poi_name": "Habanero Mexican Grill",
      "osm_id": 9525784264,
      "amenity": "restaurant",
      "cuisine": "mexican",
      "value": 301.44749403728974
    },
    {
      "id": 165280,
      "geometry": "POINT (-118.909339 34.186877)",
      "poi_name": "Dong Ting Spring",
      "osm_id": 9525784265,
      "amenity": "restaurant",
      "value": 301.44749403728974
    },
    {
      "id": 166146,
      "geometry": "POINT (-118.493397 34.016269)",
      "poi_name": "Riva's Gate of India",
      "osm_id": 9576863037,
      "amenity": "restaurant",
      "cuisine": "indian",
      "value": 301.44749403728974
    },
    {
      "id": 172813,
      "geometry": "POINT (-118.872163 34.278647)",
      "poi_name": "Wood Ranch BBQ",
      "osm_id": 2414138417,
      "amenity": "restaurant",
      "value": 301.44749403728974
    },
    {
      "id": 169388,
      "geometry": "POINT (-118.518121 34.028033)",
      "poi_name": "Tallula's",
      "osm_id": 2299663760,
      "amenity": "restaurant",
      "cuisine": "mexican",
      "opening_hours": "Mo-Th 16:00-22:00; Fr-Su 16:00-21:00",
      "website": "https://www.tallulasrestaurant.com/",
      "phone": "3105260027",
      "outdoor_seating": "no",
      "addr_state": "CA",
      "addr_city": "Santa Monica",
      "addr_street": "Entrada Drive",
      "addr_housenumber": "118",
      "value": 301.44749403728974
    },
    {
      "id": 171526,
      "geometry": "POINT (-118.44956 33.957524)",
      "poi_name": "Caff\u00e9 Pinguini",
      "osm_id": 2377441483,
      "amenity": "restaurant",
      "cuisine": "italian",
      "website": "https://www.caffepinguini.com/",
      "addr_postcode": "90293",
      "addr_street": "Pacific Ave",
      "addr_housenumber": "6935",
      "value": 301.44749403728974
    },
    {
      "id": 171529,
      "geometry": "POINT (-118.448569 33.95896)",
      "poi_name": "Cantalini's Salerno Beach Restaurant",
      "osm_id": 2377552686,
      "amenity": "restaurant",
      "cuisine": "italian",
      "website": "https://salernobeach.com/",
      "addr_state": "CA",
      "addr_city": "Playa Del Rey",
      "addr_postcode": "90293",
      "addr_street": "Culver Boulevard",
      "addr_housenumber": "193",
      "value": 301.44749403728974
    },
    {
      "id": 171533,
      "geometry": "POINT (-118.442574 33.956013)",
      "poi_name": "Del Rey Deli Co.",
      "osm_id": 2377597014,
      "amenity": "restaurant",
      "cuisine": "sandwich",
      "website": "http://www.delreydeli.com/",
      "addr_postcode": "90293",
      "addr_street": "Pershing Drive",
      "addr_housenumber": "8501",
      "value": 301.44749403728974
    },
    {
      "id": 177008,
      "geometry": "POINT (-118.473783 33.998013)",
      "poi_name": "Cafe Gratitude",
      "osm_id": 2570992272,
      "amenity": "restaurant",
      "opening_hours": "Su-Th 08:00-22:00, Fr-Sa 08:00-23:00",
      "phone": "+1 424 231 8000",
      "addr_street": "Rose Avenue",
      "addr_housenumber": "512",
      "value": 301.44749403728974
    },
    {
      "id": 178547,
      "geometry": "POINT (-118.461858 33.989101)",
      "poi_name": "Paloma",
      "osm_id": 10728948006,
      "amenity": "restaurant",
      "value": 301.44749403728974
    },
    {
      "id": 178550,
      "geometry": "POINT (-118.463663 33.989671)",
      "poi_name": "Piccolo",
      "osm_id": 10728948014,
      "amenity": "restaurant",
      "cuisine": "italian",
      "value": 301.44749403728974
    },
    {
      "id": 178551,
      "geometry": "POINT (-118.469211 33.991337)",
      "poi_name": "Sweetfin",
      "osm_id": 10728948050,
      "amenity": "restaurant",
      "cuisine": "poke",
      "value": 301.44749403728974
    },
    {
      "id": 180097,
      "geometry": "POINT (-118.469226 34.019464)",
      "poi_name": "Campos",
      "osm_id": 10790742928,
      "amenity": "restaurant",
      "cuisine": "mexican",
      "value": 301.44749403728974
    },
    {
      "id": 180100,
      "geometry": "POINT (-118.475138 34.027108)",
      "poi_name": "Salt and Tart",
      "osm_id": 10790742938,
      "amenity": "restaurant",
      "value": 301.44749403728974
    },
    {
      "id": 180103,
      "geometry": "POINT (-118.469158 34.031968)",
      "poi_name": "Tiato",
      "osm_id": 10790742947,
      "amenity": "restaurant",
      "cuisine": "asian",
      "value": 301.44749403728974
    },
    {
      "id": 183345,
      "geometry": "POINT (-118.472859 33.988034)",
      "poi_name": "Market Venice",
      "osm_id": 10925637406,
      "amenity": "restaurant",
      "value": 301.44749403728974
    },
    {
      "id": 183347,
      "geometry": "POINT (-118.482021 34.000233)",
      "poi_name": "pasjoli",
      "osm_id": 10925637705,
      "amenity": "restaurant",
      "cuisine": "french",
      "value": 301.44749403728974
    },
    {
      "id": 183356,
      "geometry": "POINT (-118.497341 34.030685)",
      "poi_name": "The Courtyard Kitchen",
      "osm_id": 10925656505,
      "amenity": "restaurant",
      "value": 301.44749403728974
    },
    {
      "id": 183357,
      "geometry": "POINT (-118.480216 34.034014)",
      "poi_name": "Snug Harbor",
      "osm_id": 10925656606,
      "amenity": "restaurant",
      "value": 301.44749403728974
    },
    {
      "id": 183631,
      "geometry": "POINT (-118.488163 34.006198)",
      "poi_name": "Cobi's at Dhaba",
      "osm_id": 10938996326,
      "amenity": "restaurant",
      "value": 301.44749403728974
    },
    {
      "id": 183633,
      "geometry": "POINT (-118.486279 34.004729)",
      "poi_name": "Alfalfa",
      "osm_id": 10938996347,
      "amenity": "restaurant",
      "cuisine": "salad",
      "value": 301.44749403728974
    },
    {
      "id": 183634,
      "geometry": "POINT (-118.486327 34.004778)",
      "poi_name": "Urban Skillet",
      "osm_id": 10938996348,
      "amenity": "restaurant",
      "value": 301.44749403728974
    },
    {
      "id": 183635,
      "geometry": "POINT (-118.485974 34.00403)",
      "poi_name": "Narita Vegan Sushi",
      "osm_id": 10938996351,
      "amenity": "restaurant",
      "cuisine": "sushi",
      "value": 301.44749403728974
    },
    {
      "id": 183637,
      "geometry": "POINT (-118.485607 34.003806)",
      "poi_name": "JINYA Ramen Bar",
      "osm_id": 10938996354,
      "amenity": "restaurant",
      "cuisine": "ramen",
      "value": 301.44749403728974
    },
    {
      "id": 183639,
      "geometry": "POINT (-118.485162 34.00337)",
      "poi_name": "The Galley",
      "osm_id": 10938996361,
      "amenity": "restaurant",
      "cuisine": "steak_house",
      "value": 301.44749403728974
    },
    {
      "id": 183641,
      "geometry": "POINT (-118.483392 34.001511)",
      "poi_name": "The Victorian",
      "osm_id": 10938996373,
      "amenity": "restaurant",
      "website": "https://www.thevictorian.com/",
      "value": 301.44749403728974
    },
    {
      "id": 183643,
      "geometry": "POINT (-118.482192 34.000817)",
      "poi_name": "Chinois on Main",
      "osm_id": 10938996390,
      "amenity": "restaurant",
      "cuisine": "asian;french",
      "value": 301.44749403728974
    },
    {
      "id": 183644,
      "geometry": "POINT (-118.482208 34.000419)",
      "poi_name": "Lula",
      "osm_id": 10938996393,
      "amenity": "restaurant",
      "cuisine": "mexican",
      "value": 301.44749403728974
    },
    {
      "id": 183645,
      "geometry": "POINT (-118.482129 34.000354)",
      "poi_name": "Crudo e Nudo",
      "osm_id": 10938996394,
      "amenity": "restaurant",
      "cuisine": "seafood",
      "value": 301.44749403728974
    },
    {
      "id": 183650,
      "geometry": "POINT (-118.478862 33.997036)",
      "poi_name": "The Anchor",
      "osm_id": 10939018016,
      "amenity": "restaurant",
      "cuisine": "seafood",
      "value": 301.44749403728974
    },
    {
      "id": 187619,
      "geometry": "POINT (-118.493251 34.010464)",
      "poi_name": "Chez Jay",
      "osm_id": 1086097965,
      "amenity": "restaurant",
      "cuisine": "steak_house;steak;seafood",
      "phone": "+1-310-395-1741",
      "addr_state": "CA",
      "addr_city": "Santa Monica",
      "addr_postcode": "90401",
      "addr_street": "Ocean Avenue",
      "addr_housenumber": "1657",
      "value": 301.44749403728974
    },
    {
      "id": 192016,
      "geometry": "POINT (-118.660736 34.039722)",
      "poi_name": "Amore Pizza",
      "osm_id": 1414402954,
      "amenity": "restaurant",
      "cuisine": "pizza",
      "value": 301.44749403728974
    },
    {
      "id": 189093,
      "geometry": "POINT (-118.897853 34.304418)",
      "poi_name": "Moorpark Country Club",
      "osm_id": 1211580293,
      "amenity": "restaurant",
      "cuisine": "american",
      "takeaway": "no",
      "addr_state": "CA",
      "addr_city": "Moorpark",
      "addr_street": "Championship Drive",
      "addr_housenumber": "11800",
      "value": 301.44749403728974
    },
    {
      "id": 195339,
      "geometry": "POINT (-118.477652 34.035647)",
      "poi_name": "Jonah's",
      "osm_id": 10301566262,
      "amenity": "restaurant",
      "value": 301.44749403728974
    },
    {
      "id": 195088,
      "geometry": "POINT (-118.47326 33.998332)",
      "poi_name": "Wabi",
      "osm_id": 10294383020,
      "amenity": "restaurant",
      "cuisine": "sushi",
      "value": 301.44749403728974
    },
    {
      "id": 195090,
      "geometry": "POINT (-118.474541 33.998098)",
      "poi_name": "American Beauty",
      "osm_id": 10294383023,
      "amenity": "restaurant",
      "cuisine": "steak_house",
      "value": 301.44749403728974
    },
    {
      "id": 195091,
      "geometry": "POINT (-118.477656 33.996339)",
      "poi_name": "The Firehouse",
      "osm_id": 10294383030,
      "amenity": "restaurant",
      "value": 301.44749403728974
    },
    {
      "id": 194335,
      "geometry": "POINT (-118.633816 34.156471)",
      "poi_name": "Blu Jam Cafe",
      "osm_id": 10270293950,
      "amenity": "restaurant",
      "cuisine": "brunch",
      "value": 301.44749403728974
    },
    {
      "id": 194993,
      "geometry": "POINT (-118.912403 34.186907)",
      "poi_name": "The Nook Restaurant",
      "osm_id": 10291841037,
      "amenity": "restaurant",
      "cuisine": "breakfast;american",
      "value": 301.44749403728974
    },
    {
      "id": 195340,
      "geometry": "POINT (-118.47827 34.035136)",
      "poi_name": "Dono",
      "osm_id": 10301566264,
      "amenity": "restaurant",
      "value": 301.44749403728974
    },
    {
      "id": 195341,
      "geometry": "POINT (-118.47848 34.035007)",
      "poi_name": "Fia",
      "osm_id": 10301566265,
      "amenity": "restaurant",
      "value": 301.44749403728974
    },
    {
      "id": 195342,
      "geometry": "POINT (-118.48046 34.033841)",
      "poi_name": "Flapjax Diner",
      "osm_id": 10301566267,
      "amenity": "restaurant",
      "value": 301.44749403728974
    },
    {
      "id": 195344,
      "geometry": "POINT (-118.480055 34.028432)",
      "poi_name": "Socalo",
      "osm_id": 10301566273,
      "amenity": "restaurant",
      "value": 301.44749403728974
    },
    {
      "id": 195354,
      "geometry": "POINT (-118.497466 34.01433)",
      "poi_name": "King and Queen Cantina",
      "osm_id": 10301705594,
      "amenity": "restaurant",
      "cuisine": "mexican",
      "value": 301.44749403728974
    },
    {
      "id": 195356,
      "geometry": "POINT (-118.49663 34.015444)",
      "poi_name": "The Misfit Restaurant + Bar",
      "osm_id": 10301705597,
      "amenity": "restaurant",
      "cuisine": "american",
      "opening_hours": "Mo-We 12:00-00:00; Th-Fr 12:00-01:00; Sa 11:00-01:00; Su 10:30-23:00",
      "website": "http://www.themisfitrestaurant.com/",
      "capacity": "120",
      "phone": "+1-310-656-9800",
      "takeaway": "yes",
      "delivery": "no",
      "addr_state": "CA",
      "addr_city": "Santa Monica",
      "addr_postcode": "90401",
      "addr_street": "Santa Monica Boulevard",
      "addr_housenumber": "225",
      "value": 301.44749403728974
    },
    {
      "id": 197225,
      "geometry": "POINT (-118.867675 34.199261)",
      "poi_name": "Eggs-N-Things",
      "osm_id": 10617505946,
      "amenity": "restaurant",
      "cuisine": "breakfast",
      "opening_hours": "Mo-Su 07:00-14:00",
      "website": "https://www.eggsnthings.net/",
      "phone": "+1-805-497-1711",
      "outdoor_seating": "yes",
      "addr_state": "CA",
      "addr_city": "Thousand Oaks",
      "addr_postcode": "91360",
      "addr_street": "North Moorpark Road",
      "addr_housenumber": "1542",
      "value": 301.44749403728974
    },
    {
      "id": 196686,
      "geometry": "POINT (-118.46574 34.01297)",
      "poi_name": "Local Kitchen",
      "osm_id": 10592457267,
      "amenity": "restaurant",
      "value": 301.44749403728974
    },
    {
      "id": 196688,
      "geometry": "POINT (-118.467882 34.011715)",
      "poi_name": "Ghisallo",
      "osm_id": 10592457284,
      "amenity": "restaurant",
      "cuisine": "italian",
      "value": 301.44749403728974
    },
    {
      "id": 196953,
      "geometry": "POINT (-118.860668 34.214707)",
      "poi_name": "Color Oaks Chinese Food",
      "osm_id": 10605661823,
      "amenity": "restaurant",
      "cuisine": "chinese",
      "website": "https://www.coloroakschinesefood.com/",
      "addr_state": "CA",
      "addr_city": "Thousand Oaks",
      "addr_postcode": "91360",
      "addr_street": "East Avenida de Los Arboles",
      "addr_housenumber": "1032",
      "value": 301.44749403728974
    },
    {
      "id": 196954,
      "geometry": "POINT (-118.86054 34.214768)",
      "poi_name": "Manny's Mexican Grill",
      "osm_id": 10605661824,
      "amenity": "restaurant",
      "cuisine": "mexican",
      "addr_state": "CA",
      "addr_city": "Thousand Oaks",
      "addr_postcode": "91360",
      "addr_street": "East Avenida de Los Arboles",
      "addr_housenumber": "1038",
      "value": 301.44749403728974
    },
    {
      "id": 196955,
      "geometry": "POINT (-118.860401 34.214704)",
      "poi_name": "Cajun Crab Shack",
      "osm_id": 10605661825,
      "amenity": "restaurant",
      "cuisine": "seafood;cajun",
      "website": "https://www.seafoodrestaurantthousandoaks.com/",
      "addr_state": "CA",
      "addr_city": "Thousand Oaks",
      "addr_postcode": "91360",
      "addr_street": "East Avenida de Los Arboles",
      "addr_housenumber": "1074",
      "value": 301.44749403728974
    },
    {
      "id": 195697,
      "geometry": "POINT (-118.646742 34.1536)",
      "poi_name": "Porta Via",
      "osm_id": 10315806129,
      "amenity": "restaurant",
      "cuisine": "bistro",
      "value": 301.44749403728974
    },
    {
      "id": 195698,
      "geometry": "POINT (-118.646701 34.153522)",
      "poi_name": "Pick Up Sticks",
      "osm_id": 10315806130,
      "amenity": "restaurant",
      "cuisine": "asian",
      "value": 301.44749403728974
    },
    {
      "id": 195699,
      "geometry": "POINT (-118.64666 34.153469)",
      "poi_name": "Sugarfish",
      "osm_id": 10315806131,
      "amenity": "restaurant",
      "cuisine": "sushi",
      "value": 301.44749403728974
    },
    {
      "id": 195701,
      "geometry": "POINT (-118.646582 34.153318)",
      "poi_name": "Tosconova",
      "osm_id": 10315806133,
      "amenity": "restaurant",
      "cuisine": "italian",
      "value": 301.44749403728974
    },
    {
      "id": 195859,
      "geometry": "POINT (-118.462724 34.022924)",
      "poi_name": "Gilbert's El Indio",
      "osm_id": 10543794289,
      "amenity": "restaurant",
      "cuisine": "mexican",
      "value": 301.44749403728974
    },
    {
      "id": 195861,
      "geometry": "POINT (-118.461714 34.02333)",
      "poi_name": "Tandoor Indian",
      "osm_id": 10543794292,
      "amenity": "restaurant",
      "cuisine": "indian",
      "value": 301.44749403728974
    },
    {
      "id": 195862,
      "geometry": "POINT (-118.46175 34.023239)",
      "poi_name": "Mandarin",
      "osm_id": 10543794295,
      "amenity": "restaurant",
      "cuisine": "asian",
      "value": 301.44749403728974
    },
    {
      "id": 196422,
      "geometry": "POINT (-118.441125 34.00017)",
      "poi_name": "BBQ + Rice",
      "osm_id": 10577430611,
      "amenity": "restaurant",
      "cuisine": "asian",
      "value": 301.44749403728974
    },
    {
      "id": 197229,
      "geometry": "POINT (-118.867014 34.200156)",
      "poi_name": "Minato Sushi",
      "osm_id": 10617505992,
      "amenity": "restaurant",
      "cuisine": "sushi",
      "website": "https://www.iloveminato.com/",
      "value": 301.44749403728974
    },
    {
      "id": 198132,
      "geometry": "POINT (-118.603312 34.169553)",
      "poi_name": "Saigon Brothers",
      "osm_id": 10689694289,
      "amenity": "restaurant",
      "cuisine": "vietnamese",
      "value": 301.44749403728974
    },
    {
      "id": 198133,
      "geometry": "POINT (-118.602363 34.169557)",
      "poi_name": "Crazy Tokyo",
      "osm_id": 10689694290,
      "amenity": "restaurant",
      "cuisine": "sushi",
      "value": 301.44749403728974
    },
    {
      "id": 198427,
      "geometry": "POINT (-118.466236 34.020957)",
      "poi_name": "Lazy Daisy Cafe",
      "osm_id": 10705119274,
      "amenity": "restaurant",
      "value": 301.44749403728974
    },
    {
      "id": 200239,
      "geometry": "POINT (-118.483101 34.001292)",
      "poi_name": "La Vecchia Cucina",
      "osm_id": 1028734933,
      "amenity": "restaurant",
      "cuisine": "italian",
      "value": 301.44749403728974
    },
    {
      "id": 200240,
      "geometry": "POINT (-118.491143 34.019048)",
      "poi_name": "Solidarity",
      "osm_id": 1028757198,
      "amenity": "restaurant",
      "cuisine": "polish",
      "value": 301.44749403728974
    },
    {
      "id": 200241,
      "geometry": "POINT (-118.490151 34.015495)",
      "poi_name": "Fritto Misto",
      "osm_id": 1028757208,
      "amenity": "restaurant",
      "value": 301.44749403728974
    },
    {
      "id": 200244,
      "geometry": "POINT (-118.47314 34.004329)",
      "poi_name": "Lattitude Thai",
      "osm_id": 1028759135,
      "amenity": "restaurant",
      "value": 301.44749403728974
    },
    {
      "id": 200245,
      "geometry": "POINT (-118.480616 34.010143)",
      "poi_name": "Poom Thai",
      "osm_id": 1028759145,
      "amenity": "restaurant",
      "cuisine": "thai",
      "value": 301.44749403728974
    },
    {
      "id": 201587,
      "geometry": "POINT (-118.480173 34.01975)",
      "poi_name": "Tacos por Favor",
      "osm_id": 640768126,
      "amenity": "restaurant",
      "cuisine": "mexican",
      "wheelchair": "yes",
      "value": 301.44749403728974
    },
    {
      "id": 201321,
      "geometry": "POINT (-118.492077 34.024414)",
      "poi_name": "El Cholo",
      "osm_id": 623431546,
      "amenity": "restaurant",
      "value": 301.44749403728974
    },
    {
      "id": 208290,
      "geometry": "POINT (-118.918345 34.395774)",
      "poi_name": "IHOP",
      "osm_id": 4986032457,
      "amenity": "restaurant",
      "cuisine": "breakfast;pancake",
      "wheelchair": "yes",
      "value": 301.44749403728974
    },
    {
      "id": 204167,
      "geometry": "POINT (-118.716451 34.286718)",
      "poi_name": "The Flying Yolk",
      "osm_id": 7115166253,
      "amenity": "restaurant",
      "cuisine": "breakfast",
      "opening_hours": "Mo-Su 6:30-15:30",
      "website": "https://www.theflyingyolk.com",
      "phone": "+1 805-210-5015",
      "addr_state": "CA",
      "addr_city": "Simi Valley",
      "addr_postcode": "93063",
      "addr_street": "Tapo Canyon Road",
      "addr_housenumber": "2902",
      "value": 301.44749403728974
    },
    {
      "id": 204168,
      "geometry": "POINT (-118.716371 34.286682)",
      "poi_name": "O2 Sushi",
      "osm_id": 7115166254,
      "amenity": "restaurant",
      "cuisine": "sushi",
      "opening_hours": "Mo-Sa 11:30-15:00, 17:00-20:00; Su 16:30-21:30",
      "website": "https://ww.sushi-tomodachi.com",
      "phone": "+1 805-527-0202",
      "addr_state": "CA",
      "addr_city": "Simi Valley",
      "addr_postcode": "93063",
      "addr_street": "Tapo Canyon Road",
      "addr_housenumber": "2902",
      "value": 301.44749403728974
    },
    {
      "id": 204172,
      "geometry": "POINT (-118.716821 34.285633)",
      "poi_name": "Ameci Pizza & Pasta",
      "osm_id": 7115166268,
      "amenity": "restaurant",
      "cuisine": "pizza",
      "opening_hours": "Su-Th 11:00-21:00; Fr-Sa 11:00-22:00",
      "website": "https://www.amecipizzapastasimivalley.com",
      "phone": "+1 805-581-9770",
      "addr_state": "CA",
      "addr_city": "Simi Valley",
      "addr_postcode": "93063",
      "addr_street": "Tapo Canyon Road",
      "addr_housenumber": "2780",
      "value": 301.44749403728974
    },
    {
      "id": 204174,
      "geometry": "POINT (-118.717273 34.285129)",
      "poi_name": "Luna llena Restaurant",
      "osm_id": 7115166275,
      "amenity": "restaurant",
      "cuisine": "mexican",
      "opening_hours": "Tu-Th 08:00-21:00; Fr-Sa 08:00-21:30; Su 08:00-20:00",
      "website": "https://www.lunallenasimi.com",
      "phone": "+1 805-210-5022",
      "outdoor_seating": "yes",
      "addr_state": "CA",
      "addr_city": "Simi Valley",
      "addr_postcode": "93063",
      "addr_street": "Tapo Canyon Road",
      "addr_housenumber": "2760",
      "value": 301.44749403728974
    },
    {
      "id": 204175,
      "geometry": "POINT (-118.717254 34.285055)",
      "poi_name": "Select Employment;Romano's Macaroni Grill",
      "osm_id": 7115166276,
      "amenity": "restaurant",
      "cuisine": "italian",
      "opening_hours": "Mo-Fr 08:00-17:00;Mo-Th 11:00-20:00;Fr-Sa 11:00-21:00;Su 11:00-20:00",
      "website": "https://www.select.com;https://www.macaronigrill.com",
      "phone": "+1 805-522-8311;+1 805-306-1303",
      "addr_state": "CA",
      "addr_city": "Simi Valley",
      "addr_postcode": "93063",
      "addr_street": "Tapo Canyon Road",
      "addr_housenumber": "2760;2920",
      "value": 301.44749403728974
    },
    {
      "id": 204180,
      "geometry": "POINT (-118.718182 34.285832)",
      "poi_name": "TGI Friday's",
      "osm_id": 7115175286,
      "amenity": "restaurant",
      "cuisine": "american",
      "opening_hours": "Su-Th 11:00-24:00; Fr-Sa 11:00-02:00",
      "website": "https://www.locations.tgifridays.com",
      "phone": "+1 805-306-9073",
      "addr_state": "CA",
      "addr_city": "Simi Valley",
      "addr_postcode": "93063",
      "addr_street": "Tapo Canyon Road",
      "addr_housenumber": "2795",
      "value": 301.44749403728974
    },
    {
      "id": 204548,
      "geometry": "POINT (-118.768644 34.284144)",
      "poi_name": "Red Robin",
      "osm_id": 7132006689,
      "amenity": "restaurant",
      "cuisine": "burger",
      "takeaway": "yes",
      "official_name": "Red Robin Gourmet Burgers and Brews",
      "outdoor_seating": "yes",
      "toilets": "yes",
      "value": 301.44749403728974
    },
    {
      "id": 204549,
      "geometry": "POINT (-118.768318 34.284221)",
      "poi_name": "California Pizza Kitchen",
      "osm_id": 7132006694,
      "amenity": "restaurant",
      "cuisine": "pizza",
      "outdoor_seating": "yes",
      "toilets": "yes",
      "value": 301.44749403728974
    },
    {
      "id": 204573,
      "geometry": "POINT (-118.778452 34.272062)",
      "poi_name": "Black Bear Diner",
      "osm_id": 7132366167,
      "amenity": "restaurant",
      "cuisine": "american",
      "internet_access": "yes",
      "takeaway": "no",
      "delivery": "no",
      "toilets": "yes",
      "value": 301.44749403728974
    },
    {
      "id": 204574,
      "geometry": "POINT (-118.778074 34.273954)",
      "poi_name": "Hai Sushi",
      "osm_id": 7132367086,
      "amenity": "restaurant",
      "cuisine": "seafood",
      "value": 301.44749403728974
    },
    {
      "id": 204576,
      "geometry": "POINT (-118.793933 34.281637)",
      "poi_name": "Panda Wok",
      "osm_id": 7132367095,
      "amenity": "restaurant",
      "cuisine": "chinese",
      "internet_access": "no",
      "takeaway": "yes",
      "toilets": "yes",
      "value": 301.44749403728974
    },
    {
      "id": 204577,
      "geometry": "POINT (-118.778483 34.27307)",
      "poi_name": "Pizza Hut",
      "osm_id": 7132367100,
      "amenity": "restaurant",
      "cuisine": "pizza",
      "takeaway": "yes",
      "value": 301.44749403728974
    },
    {
      "id": 204578,
      "geometry": "POINT (-118.778401 34.273982)",
      "poi_name": "Thai Noodles",
      "osm_id": 7132367104,
      "amenity": "restaurant",
      "cuisine": "thai",
      "value": 301.44749403728974
    },
    {
      "id": 204579,
      "geometry": "POINT (-118.778557 34.273982)",
      "poi_name": "Great Central Steak & Hoagie",
      "osm_id": 7132367106,
      "amenity": "restaurant",
      "cuisine": "sandwich",
      "internet_access": "no",
      "takeaway": "yes",
      "delivery": "no",
      "toilets": "yes",
      "value": 301.44749403728974
    },
    {
      "id": 203145,
      "geometry": "POINT (-118.604911 34.183805)",
      "poi_name": "Protini Bar",
      "osm_id": 7065276312,
      "amenity": "restaurant",
      "cuisine": "juice",
      "value": 301.44749403728974
    },
    {
      "id": 203901,
      "geometry": "POINT (-118.47294 33.987107)",
      "poi_name": "Larry\u2019s",
      "osm_id": 7103760585,
      "amenity": "restaurant",
      "value": 301.44749403728974
    },
    {
      "id": 204183,
      "geometry": "POINT (-118.719164 34.283512)",
      "poi_name": "Daphne's",
      "osm_id": 7115175299,
      "amenity": "restaurant",
      "cuisine": "greek",
      "opening_hours": "Mo-Sa 11:00-21:00; Su 11:00-20:00",
      "website": "https://www.daphnes.biz",
      "phone": "+1 805-526-0450",
      "addr_state": "CA",
      "addr_city": "Simi Valley",
      "addr_postcode": "93063",
      "addr_street": "Tapo Canyon Road",
      "addr_housenumber": "2667",
      "value": 301.44749403728974
    },
    {
      "id": 204185,
      "geometry": "POINT (-118.719133 34.283786)",
      "poi_name": "The East Coast Pizza Company Inc.",
      "osm_id": 7115175301,
      "amenity": "restaurant",
      "cuisine": "pizza",
      "opening_hours": "Mo-Su 11:00-21:00",
      "website": "https://www.theeastcoastpizzacompany.com",
      "phone": "+1 805-520-3500",
      "addr_state": "CA",
      "addr_city": "Simi Valley",
      "addr_postcode": "93063",
      "addr_street": "Tapo Canyon Road",
      "addr_housenumber": "2667",
      "value": 301.44749403728974
    },
    {
      "id": 204186,
      "geometry": "POINT (-118.719105 34.28385)",
      "poi_name": "Natural Cafe Simi Valley",
      "osm_id": 7115175302,
      "amenity": "restaurant",
      "cuisine": "health_food",
      "opening_hours": "Mo-Su 11:00-21:00",
      "website": "https://www.thenaturalcafe.com",
      "phone": "+1 805-527-2272",
      "addr_state": "CA",
      "addr_city": "Simi Valley",
      "addr_postcode": "93063",
      "addr_street": "Tapo Canyon Road",
      "addr_housenumber": "2667",
      "value": 301.44749403728974
    },
    {
      "id": 204520,
      "geometry": "POINT (-118.739289 34.279893)",
      "poi_name": "Love Sushi",
      "osm_id": 7130279574,
      "amenity": "restaurant",
      "cuisine": "seafood;sushi",
      "wheelchair": "yes",
      "value": 301.44749403728974
    },
    {
      "id": 208705,
      "geometry": "POINT (-118.465016 33.999811)",
      "poi_name": "Wurstk\u00fcche",
      "osm_id": 5002094846,
      "amenity": "restaurant",
      "cuisine": "german;international",
      "opening_hours": "Mo-Su 11:00-24:00",
      "website": "https://www.wurstkuche.com/",
      "phone": "+1-213-687-4444 ext 2",
      "addr_state": "CA",
      "addr_city": "Los Angeles",
      "addr_postcode": "90291",
      "addr_street": "Lincoln Boulevard",
      "addr_housenumber": "625",
      "value": 301.44749403728974
    },
    {
      "id": 208707,
      "geometry": "POINT (-118.460765 33.983207)",
      "poi_name": "Venice Ramen",
      "osm_id": 5002110495,
      "amenity": "restaurant",
      "cuisine": "noodle",
      "opening_hours": "Mo-Sa 11:30-14:30,17:00-21:00",
      "website": "https://www.veniceramen.com/",
      "phone": "+1-310-448-8886",
      "addr_state": "CA",
      "addr_city": "Marina Del Rey",
      "addr_postcode": "90292",
      "addr_street": "Washington Boulevard",
      "addr_housenumber": "515",
      "value": 301.44749403728974
    },
    {
      "id": 208765,
      "geometry": "POINT (-118.497792 34.018842)",
      "poi_name": "T's Thai Restaurant",
      "osm_id": 5003990303,
      "amenity": "restaurant",
      "cuisine": "thai",
      "opening_hours": "Mo-Th 11:00-22:00, Fr-Sa 11:00-22:30, Su 12:00-22:00",
      "website": "http://tsthaiforyou.com/",
      "phone": "+1-310-395-4106",
      "addr_state": "CA",
      "addr_city": "Santa Monica",
      "addr_postcode": "90401",
      "addr_street": "4th Street",
      "addr_housenumber": "1211",
      "value": 301.44749403728974
    },
    {
      "id": 209320,
      "geometry": "POINT (-118.499947 34.017584)",
      "poi_name": "Hillstone Restaurant",
      "osm_id": 5032115122,
      "amenity": "restaurant",
      "cuisine": "american",
      "website": "https://hillstonerestaurant.com/",
      "phone": "+1(310)576-7558",
      "addr_street": "Wilshire Boulevard",
      "addr_housenumber": "202",
      "value": 301.44749403728974
    },
    {
      "id": 210280,
      "geometry": "POINT (-118.669816 34.038994)",
      "poi_name": "Nobu Malibu",
      "osm_id": 5090871079,
      "amenity": "restaurant",
      "cuisine": "sushi",
      "opening_hours": "Mo-Th 12:00-22:00; Fr 12:00-23:00; Sa 11:00-23:00; Su 11:00-22:00",
      "website": "https://www.noburestaurants.com/malibu/",
      "phone": "+1-310-317-9140",
      "outdoor_seating": "yes",
      "addr_state": "CA",
      "addr_city": "Malibu",
      "addr_postcode": "90265",
      "addr_street": "Pacific Coast Highway",
      "addr_housenumber": "22706",
      "value": 301.44749403728974
    },
    {
      "id": 210289,
      "geometry": "POINT (-118.634463 34.159866)",
      "poi_name": "The Boiling Crab",
      "osm_id": 5092543670,
      "amenity": "restaurant",
      "cuisine": "seafood",
      "value": 301.44749403728974
    },
    {
      "id": 210291,
      "geometry": "POINT (-118.675638 34.035632)",
      "poi_name": "Malibu Farm Pier Cafe",
      "osm_id": 5092573622,
      "amenity": "restaurant",
      "cuisine": "salad;burger;sandwich",
      "description": "Counter Service",
      "opening_hours": "Mo-Th 09:00-16:00; Fr 09:00-18:00; Sa,Su 08:00-20:00",
      "outdoor_seating": "yes",
      "delivery": "no",
      "value": 301.44749403728974
    },
    {
      "id": 210292,
      "geometry": "POINT (-118.67667 34.037142)",
      "poi_name": "Malibu Farm Restaurant",
      "osm_id": 5092573623,
      "amenity": "restaurant",
      "description": "Full-Service",
      "outdoor_seating": "yes",
      "value": 301.44749403728974
    },
    {
      "id": 210837,
      "geometry": "POINT (-118.477105 33.99629)",
      "poi_name": "Rose Cafe",
      "osm_id": 5124572329,
      "amenity": "restaurant",
      "opening_hours": "Mo-Su 08:00-14:30; Su-Th 17:30-22:00; Fr,Sa 17:30-23:00",
      "website": "http://rosecafevenice.com/locations/venice/",
      "addr_state": "CA",
      "addr_city": "Venice",
      "addr_postcode": "90291",
      "addr_street": "Rose Avenue",
      "addr_housenumber": "220",
      "value": 301.44749403728974
    },
    {
      "id": 210498,
      "geometry": "POINT (-118.618583 34.037499)",
      "poi_name": "Moonshadows Malibu",
      "osm_id": 5106670922,
      "amenity": "restaurant",
      "cuisine": "seafood",
      "opening_hours": "Su-Th 11:30-22:00; Fr 11:30-23:00; Sa 11:00-23:00",
      "website": "https://moonshadowsmalibu.com/",
      "phone": "+1 310-456-3010",
      "addr_postcode": "90265",
      "addr_street": "Pacific Coast Highway",
      "addr_housenumber": "20356",
      "value": 301.44749403728974
    },
    {
      "id": 210621,
      "geometry": "POINT (-118.494667 34.013982)",
      "poi_name": "The Cheesecake Factory",
      "osm_id": 5111888228,
      "amenity": "restaurant",
      "cuisine": "american",
      "value": 301.44749403728974
    },
    {
      "id": 210631,
      "geometry": "POINT (-118.493953 34.013189)",
      "poi_name": "Johnny Rockets",
      "osm_id": 5111896523,
      "amenity": "restaurant",
      "cuisine": "burger",
      "value": 301.44749403728974
    },
    {
      "id": 210839,
      "geometry": "POINT (-118.470105 34.002612)",
      "poi_name": "Star of Siam",
      "osm_id": 5124574923,
      "amenity": "restaurant",
      "value": 301.44749403728974
    },
    {
      "id": 212608,
      "geometry": "POINT (-118.497628 34.013972)",
      "poi_name": "Water Grill",
      "osm_id": 5215424223,
      "amenity": "restaurant",
      "value": 301.44749403728974
    },
    {
      "id": 211310,
      "geometry": "POINT (-118.463159 33.989665)",
      "poi_name": "The Tasting Kitchen",
      "osm_id": 5152834034,
      "amenity": "restaurant",
      "value": 301.44749403728974
    },
    {
      "id": 212061,
      "geometry": "POINT (-118.450958 33.989042)",
      "poi_name": "East Wind Thai Food",
      "osm_id": 5187396921,
      "amenity": "restaurant",
      "value": 301.44749403728974
    },
    {
      "id": 212645,
      "geometry": "POINT (-118.458885 33.98776)",
      "poi_name": "French Market Caf\u00e9",
      "osm_id": 5216761521,
      "amenity": "restaurant",
      "value": 301.44749403728974
    },
    {
      "id": 212767,
      "geometry": "POINT (-118.684221 34.035329)",
      "poi_name": "Marmalade",
      "osm_id": 5220492626,
      "amenity": "restaurant",
      "cuisine": "regional",
      "opening_hours": "Mo-Su 10:00-22:00",
      "value": 301.44749403728974
    },
    {
      "id": 212708,
      "geometry": "POINT (-118.845238 34.175141)",
      "poi_name": "Uba Tuba",
      "osm_id": 5218629621,
      "amenity": "restaurant",
      "value": 301.44749403728974
    },
    {
      "id": 212768,
      "geometry": "POINT (-118.685692 34.036061)",
      "poi_name": "Johns Garden",
      "osm_id": 5220492630,
      "amenity": "restaurant",
      "value": 301.44749403728974
    },
    {
      "id": 215047,
      "geometry": "POINT (-118.493562 34.019515)",
      "poi_name": "Cassia",
      "osm_id": 5285595859,
      "amenity": "restaurant",
      "cuisine": "asian",
      "takeaway": "yes",
      "addr_state": "CA",
      "addr_city": "Santa Monica",
      "addr_postcode": "90401",
      "addr_street": "7th Street",
      "addr_housenumber": "1314",
      "value": 301.44749403728974
    },
    {
      "id": 219968,
      "geometry": "POINT (-119.064382 34.217019)",
      "poi_name": "Johnny Rockets",
      "osm_id": 9351959384,
      "amenity": "restaurant",
      "cuisine": "burger",
      "opening_hours": "Mo-Th 11:30-19:00; Fr-Su 11:30-20:00",
      "website": "https://locations.johnnyrockets.com/ll/US/CA/Camarillo/640-E_-Ventura-Blvd-",
      "phone": "+1-805-383-1888",
      "addr_state": "CA",
      "addr_city": "Camarillo",
      "addr_postcode": "93010",
      "addr_street": "Ventura Boulevard",
      "addr_housenumber": "640",
      "value": 301.44749403728974
    },
    {
      "id": 218463,
      "geometry": "POINT (-118.493196 34.014949)",
      "poi_name": "Mon Roll House",
      "osm_id": 9280781008,
      "amenity": "restaurant",
      "cuisine": "sushi",
      "value": 301.44749403728974
    },
    {
      "id": 218465,
      "geometry": "POINT (-118.493986 34.015606)",
      "poi_name": "Massilia",
      "osm_id": 9280781012,
      "amenity": "restaurant",
      "addr_street": "4th Street",
      "addr_housenumber": "1445",
      "value": 301.44749403728974
    },
    {
      "id": 218466,
      "geometry": "POINT (-118.493848 34.015489)",
      "poi_name": "Benihana",
      "osm_id": 9280781013,
      "amenity": "restaurant",
      "cuisine": "japanese;teppanyaki;steak",
      "wheelchair": "no",
      "value": 301.44749403728974
    },
    {
      "id": 218467,
      "geometry": "POINT (-118.494838 34.015932)",
      "poi_name": "Mercado",
      "osm_id": 9280781016,
      "amenity": "restaurant",
      "value": 301.44749403728974
    },
    {
      "id": 215116,
      "geometry": "POINT (-118.472453 33.992306)",
      "poi_name": "Plant Food + Wine Venice",
      "osm_id": 5287806623,
      "amenity": "restaurant",
      "addr_postcode": "90291",
      "addr_street": "Abbot Kinney Boulevard",
      "addr_housenumber": "1009",
      "value": 301.44749403728974
    },
    {
      "id": 215658,
      "geometry": "POINT (-118.471914 33.992212)",
      "poi_name": "Felix",
      "osm_id": 5308707008,
      "amenity": "restaurant",
      "cuisine": "italian",
      "value": 301.44749403728974
    },
    {
      "id": 215663,
      "geometry": "POINT (-118.496683 34.016834)",
      "poi_name": "Dialogue Restaurant",
      "osm_id": 5308753005,
      "amenity": "restaurant",
      "addr_state": "CA",
      "addr_city": "Santa Monica",
      "addr_postcode": "90401",
      "addr_street": "Third Street Promenade",
      "addr_housenumber": "1315",
      "value": 301.44749403728974
    },
    {
      "id": 215664,
      "geometry": "POINT (-118.498287 34.015709)",
      "poi_name": "Uovo",
      "osm_id": 5308835516,
      "amenity": "restaurant",
      "addr_state": "CA",
      "addr_city": "Santa Monica",
      "addr_postcode": "90401",
      "addr_street": "2nd Street",
      "addr_housenumber": "1320",
      "value": 301.44749403728974
    },
    {
      "id": 215665,
      "geometry": "POINT (-118.497855 34.014404)",
      "poi_name": "Little Ruby",
      "osm_id": 5308846421,
      "amenity": "restaurant",
      "addr_state": "CA",
      "addr_city": "Santa Monica",
      "addr_postcode": "90401",
      "addr_street": "Santa Monica Boulevard",
      "addr_housenumber": "109",
      "value": 301.44749403728974
    },
    {
      "id": 218472,
      "geometry": "POINT (-118.498151 34.015599)",
      "poi_name": "CAVA",
      "osm_id": 9280888342,
      "amenity": "restaurant",
      "cuisine": "mediterranean",
      "opening_hours": "Mo-Su 10:45-22:00",
      "website": "https://cava.com",
      "phone": "+1 (310) 237-5591",
      "addr_postcode": "90401",
      "addr_street": "2nd Street",
      "addr_housenumber": "1318",
      "value": 301.44749403728974
    },
    {
      "id": 218474,
      "geometry": "POINT (-118.497682 34.016784)",
      "poi_name": "Stefano's Pizzeria",
      "osm_id": 9280924539,
      "amenity": "restaurant",
      "cuisine": "pizza",
      "value": 301.44749403728974
    },
    {
      "id": 219969,
      "geometry": "POINT (-119.068041 34.215716)",
      "poi_name": "Cracker Barrel",
      "osm_id": 9351959385,
      "amenity": "restaurant",
      "cuisine": "american",
      "opening_hours": "Mo-Th,Su 07:00-21:00; Fr,Sa 07:00-22:00",
      "website": "https://www.crackerbarrel.com/Locations/States/ca/camarillo/764",
      "phone": "+1-805-384-1424",
      "official_name": "Cracker Barrel Old Country Store",
      "addr_state": "CA",
      "addr_city": "Camarillo",
      "addr_postcode": "93010",
      "addr_street": "Ventura Boulevard",
      "addr_housenumber": "560",
      "value": 301.44749403728974
    },
    {
      "id": 220814,
      "geometry": "POINT (-118.473027 33.998761)",
      "poi_name": "Chulita",
      "osm_id": 10958652688,
      "amenity": "restaurant",
      "cuisine": "mexican",
      "value": 301.44749403728974
    },
    {
      "id": 220177,
      "geometry": "POINT (-118.476926 34.036696)",
      "poi_name": "Takuma",
      "osm_id": 9363220354,
      "amenity": "restaurant",
      "cuisine": "japanese",
      "value": 301.44749403728974
    },
    {
      "id": 220178,
      "geometry": "POINT (-118.475978 34.037452)",
      "poi_name": "Milo and Olive",
      "osm_id": 9363220360,
      "amenity": "restaurant",
      "value": 301.44749403728974
    },
    {
      "id": 220396,
      "geometry": "POINT (-118.439186 33.984543)",
      "poi_name": "Irori Sushi",
      "osm_id": 9371257386,
      "amenity": "restaurant",
      "cuisine": "japanese",
      "opening_hours": "Su-Th 12:00-21:30; Fr-Sa 12:00-22:00",
      "website": "https://www.irorisushi.com/",
      "phone": "1 (310) 822-3700",
      "value": 301.44749403728974
    },
    {
      "id": 222008,
      "geometry": "POINT (-118.442668 33.986243)",
      "poi_name": "Burger Lounge",
      "osm_id": 11001957403,
      "amenity": "restaurant",
      "cuisine": "burger",
      "opening_hours": "Su-Th 11:00-21:00; Fr-Sa 11:00-22:00",
      "website": "https://www.burgerlounge.com/locations/marina-del-rey",
      "phone": "+1-310-827-3670",
      "addr_state": "CA",
      "addr_city": "Marina Del Rey",
      "addr_postcode": "90292",
      "addr_street": "Maxella Avenue",
      "addr_housenumber": "13455",
      "value": 301.44749403728974
    },
    {
      "id": 221045,
      "geometry": "POINT (-118.45998 33.997951)",
      "poi_name": "Zinqu\u00e9",
      "osm_id": 10966047861,
      "amenity": "restaurant",
      "cuisine": "french",
      "value": 301.44749403728974
    },
    {
      "id": 220954,
      "geometry": "POINT (-118.844833 34.173702)",
      "poi_name": "Taiyo Ramen",
      "osm_id": 10964106486,
      "amenity": "restaurant",
      "value": 301.44749403728974
    },
    {
      "id": 221259,
      "geometry": "POINT (-118.495146 34.016648)",
      "poi_name": "Mixt",
      "osm_id": 10969850882,
      "amenity": "restaurant",
      "cuisine": "salad;sandwich",
      "opening_hours": "Mo-Su 11:00-21:00",
      "website": "https://www.mixt.com/locations/",
      "addr_state": "CA",
      "addr_city": "Santa Monica",
      "addr_postcode": "90401",
      "addr_street": "Santa Monica Boulevard",
      "addr_housenumber": "401",
      "value": 301.44749403728974
    },
    {
      "id": 228542,
      "geometry": "POINT (-118.488625 34.006632)",
      "poi_name": "Stella Barra Pizzeria",
      "osm_id": 4348138699,
      "amenity": "restaurant",
      "cuisine": "pizza",
      "addr_street": "Main Street",
      "addr_housenumber": "2000",
      "value": 301.44749403728974
    },
    {
      "id": 222462,
      "geometry": "POINT (-118.840261 34.211134)",
      "poi_name": "Valentino's Pizza",
      "osm_id": 11018933820,
      "amenity": "restaurant",
      "description": "Local chain offering take and bake pizzas.",
      "opening_hours": "Mo-Th, Su 10:00-21:00; Fr, Sa 10:00-22:00",
      "website": "https://www.valentinosgourmet.com/",
      "phone": "(805)380-4969",
      "addr_street": "E Avenida De Los Arboles",
      "addr_housenumber": "2072, Ste B",
      "value": 301.44749403728974
    },
    {
      "id": 224685,
      "geometry": "POINT (-118.485524 34.003802)",
      "poi_name": "Isla Santa Monica",
      "osm_id": 11093982507,
      "amenity": "restaurant",
      "cuisine": "seafood;french",
      "opening_hours": "We-Su 10:30-22:00",
      "website": "https://www.isla-la.com/",
      "phone": "3103102137",
      "addr_state": "CA",
      "addr_city": "Santa Monica",
      "addr_postcode": "90405",
      "addr_street": "Main Street",
      "addr_housenumber": "2424",
      "value": 301.44749403728974
    },
    {
      "id": 225500,
      "geometry": "POINT (-118.438098 33.978955)",
      "poi_name": "Sugarfish",
      "osm_id": 11128905446,
      "amenity": "restaurant",
      "cuisine": "sushi",
      "value": 301.44749403728974
    },
    {
      "id": 226493,
      "geometry": "POINT (-118.496099 34.019034)",
      "poi_name": "Colapasta",
      "osm_id": 11162008282,
      "amenity": "restaurant",
      "cuisine": "italian",
      "value": 301.44749403728974
    },
    {
      "id": 228668,
      "geometry": "POINT (-118.600105 34.178108)",
      "poi_name": "Trimana",
      "osm_id": 4351572089,
      "amenity": "restaurant",
      "value": 301.44749403728974
    },
    {
      "id": 228673,
      "geometry": "POINT (-118.88498 34.182182)",
      "poi_name": "Pizza Rev",
      "osm_id": 4351635616,
      "amenity": "restaurant",
      "cuisine": "pizza",
      "value": 301.44749403728974
    },
    {
      "id": 228674,
      "geometry": "POINT (-118.884901 34.182281)",
      "poi_name": "Urban Plates",
      "osm_id": 4351635617,
      "amenity": "restaurant",
      "value": 301.44749403728974
    },
    {
      "id": 230292,
      "geometry": "POINT (-118.470373 33.984746)",
      "poi_name": "James' Beach",
      "osm_id": 4419872571,
      "amenity": "restaurant",
      "cuisine": "american",
      "opening_hours": "11:30-01:00",
      "addr_state": "CA",
      "addr_city": "Venice",
      "addr_postcode": "90291",
      "addr_street": "North Venice Boulevard",
      "addr_housenumber": "60",
      "value": 301.44749403728974
    },
    {
      "id": 228731,
      "geometry": "POINT (-118.796966 34.147393)",
      "poi_name": "Hook Burger",
      "osm_id": 4353240660,
      "amenity": "restaurant",
      "value": 301.44749403728974
    },
    {
      "id": 230188,
      "geometry": "POINT (-118.469899 33.985291)",
      "poi_name": "Plancha Tacos",
      "osm_id": 4416915712,
      "amenity": "restaurant",
      "cuisine": "mexican",
      "opening_hours": "Su-Th 08:00-24:00; Fr-Sa 08:00-01:00",
      "takeaway": "yes",
      "addr_state": "CA",
      "addr_city": "Venice",
      "addr_postcode": "90291",
      "addr_street": "Pacific Avenue",
      "addr_housenumber": "2024",
      "value": 301.44749403728974
    },
    {
      "id": 230210,
      "geometry": "POINT (-118.475156 34.006294)",
      "poi_name": "Sushi",
      "osm_id": 4417369197,
      "amenity": "restaurant",
      "cuisine": "sushi",
      "value": 301.44749403728974
    },
    {
      "id": 229724,
      "geometry": "POINT (-118.49569 34.032001)",
      "poi_name": "R+D Kitchen",
      "osm_id": 4396767268,
      "amenity": "restaurant",
      "value": 301.44749403728974
    },
    {
      "id": 230401,
      "geometry": "POINT (-118.437914 33.978857)",
      "poi_name": "Fresh Brothers",
      "osm_id": 4424980690,
      "amenity": "restaurant",
      "cuisine": "pizza",
      "wheelchair": "yes",
      "delivery": "yes",
      "value": 301.44749403728974
    },
    {
      "id": 230997,
      "geometry": "POINT (-118.486422 34.004882)",
      "poi_name": "Samosa House Santa Monica",
      "osm_id": 4450652129,
      "amenity": "restaurant",
      "cuisine": "indian",
      "opening_hours": "Mo-Su 11:00-22:00",
      "takeaway": "yes",
      "addr_state": "CA",
      "addr_city": "Santa Monica",
      "addr_postcode": "90405",
      "addr_street": "Main Street",
      "addr_housenumber": "2301",
      "value": 301.44749403728974
    },
    {
      "id": 230737,
      "geometry": "POINT (-118.494884 34.01167)",
      "poi_name": "Del Frisco's Grille",
      "osm_id": 4438142789,
      "amenity": "restaurant",
      "outdoor_seating": "yes",
      "value": 301.44749403728974
    },
    {
      "id": 231879,
      "geometry": "POINT (-118.498005 34.014313)",
      "poi_name": "BOA Steakhouse",
      "osm_id": 4494944890,
      "amenity": "restaurant",
      "value": 301.44749403728974
    },
    {
      "id": 236302,
      "geometry": "POINT (-118.492359 34.01843)",
      "poi_name": "Native Restaurant",
      "osm_id": 5788749274,
      "amenity": "restaurant",
      "website": "https://www.eatnative.la",
      "phone": "310-458-4427",
      "addr_state": "CA",
      "addr_city": "Santa Monica",
      "addr_postcode": "90401",
      "addr_street": "Santa Monica Boulevard",
      "addr_housenumber": "620",
      "value": 301.44749403728974
    },
    {
      "id": 238214,
      "geometry": "POINT (-118.700724 34.144641)",
      "poi_name": "Sharkey's Woodfire Mexican Grill",
      "osm_id": 5866963311,
      "amenity": "restaurant",
      "cuisine": "mexican",
      "wheelchair": "yes",
      "opening_hours": "Mo-Su 10:30-21:00",
      "website": "https://www.sharkys.com/",
      "phone": "+1 818 880 0885",
      "takeaway": "yes",
      "outdoor_seating": "yes",
      "delivery": "yes",
      "addr_state": "CA",
      "addr_city": "Calabasas",
      "addr_postcode": "91302",
      "addr_street": "Agoura Road",
      "addr_housenumber": "26527",
      "value": 301.44749403728974
    },
    {
      "id": 238216,
      "geometry": "POINT (-118.708615 34.139822)",
      "poi_name": "Wolf Creek Brewing",
      "osm_id": 5866963315,
      "amenity": "restaurant",
      "value": 301.44749403728974
    },
    {
      "id": 235325,
      "geometry": "POINT (-118.565213 34.046037)",
      "poi_name": "The Getty Villa Cafe",
      "osm_id": 5750953082,
      "amenity": "restaurant",
      "value": 301.44749403728974
    },
    {
      "id": 235468,
      "geometry": "POINT (-118.846258 34.174019)",
      "poi_name": "SunLife Organics",
      "osm_id": 5757213422,
      "amenity": "restaurant",
      "opening_hours": "Mo-Su 08:00-19:00",
      "website": "https://sunlifeorganics.myshopify.com/",
      "phone": "(805) 379-2999",
      "addr_state": "CA",
      "addr_postcode": "91362",
      "addr_street": "Thousand Oaks Blvd",
      "addr_housenumber": "2200",
      "value": 301.44749403728974
    }
  ],
  "answer_type": "name",
  "question_entities": {
    "[2]": {
      "distance": 70000,
      "text": "70 kilometers"
    },
    "[3]": {
      "main_category": "tourism",
      "sub_category": "hotel",
      "display_name": "Homewood Suites by Hilton Los Angeles International Airport, Los Angeles, CA",
      "geo_wkt": "POINT (-118.392895 33.946054)",
      "poi": {
        "id": 5138,
        "geometry": "POINT (-118.392895 33.946054)",
        "poi_name": "Homewood Suites by Hilton Los Angeles International Airport",
        "osm_id": 9774638781,
        "tourism": "hotel",
        "website": "https://www.hilton.com/en/hotels/laxswhw",
        "phone": "+1-310-215-3300",
        "official_name": "Homewood Suites by Hilton",
        "addr_state": "CA",
        "addr_city": "Los Angeles",
        "addr_postcode": "90045",
        "addr_street": "West Century Boulevard",
        "addr_housenumber": "6151"
      }
    },
    "[4]": {
      "main_category": "tourism",
      "sub_category": "aquarium",
      "display_name": "Aquatic Zoo Tropical Fish, Thousand Oaks, CA",
      "geo_wkt": "POINT (-118.840161 34.172588)",
      "poi": {
        "id": 5259,
        "geometry": "POINT (-118.840161 34.172588)",
        "poi_name": "Aquatic Zoo Tropical Fish",
        "osm_id": 9819470337,
        "tourism": "aquarium",
        "opening_hours": "Mo-Sa 10:30-19:00",
        "operator": "Ken Kay Khzam",
        "shop": "pet",
        "addr_state": "CA",
        "addr_city": "Thousand Oaks",
        "addr_postcode": "91362",
        "addr_street": "East Thousand Oaks Boulevard",
        "addr_housenumber": "2655"
      }
    },
    "[1]": {
      "main_category": "amenity",
      "sub_category": "restaurant"
    }
  },
  "id": 1679,
  "type": "range:towards+name"
}