{
  "question": "Where can I find a hospital within 190 kilometers drive from Central Florida Zoo & Botanical Gardens, Sanford, FL?",
  "sql": "SELECT * FROM pois\nWHERE ST_DWithin(pois.geometry, ST_GeomFromText('POINT (-81.314867 28.825462)',4326)::geography, 190000)\nAND amenity = 'hospital';\n",
  "answers": [
    {
      "id": 41568,
      "geometry": "POINT (-82.436112 29.691794)",
      "poi_name": "UF Health Shands Psychiatric Hospital",
      "osm_id": 3020707712,
      "amenity": "hospital",
      "operator": "UF Health",
      "website": "https://ufhealth.org/shands-vista",
      "healthcare": "hospital",
      "emergency": "no",
      "addr_city": "Gainesville",
      "addr_postcode": "32606",
      "addr_street": "Northwest 89 Boulevard",
      "addr_housenumber": "4101"
    },
    {
      "id": 53423,
      "geometry": "POINT (-81.462119 28.517267)",
      "poi_name": "sanitas medical center",
      "osm_id": 10080208967,
      "amenity": "hospital",
      "healthcare": "hospital",
      "addr_state": "FL",
      "addr_city": "Orlando",
      "addr_postcode": "32811",
      "addr_street": "Metropolis Way",
      "addr_housenumber": "5920"
    },
    {
      "id": 68159,
      "geometry": "POINT (-81.244141 29.552131)",
      "poi_name": "AdventHealth Palm Coast Emergency Room",
      "osm_id": 11262787564,
      "amenity": "hospital",
      "opening_hours": "24/7",
      "operator": "AdventHealth",
      "website": "https://www.adventhealth.com/hospital/adventhealth-palm-coast-parkway",
      "phone": "+1-386-302-1800",
      "healthcare": "hospital",
      "emergency": "yes",
      "addr_state": "FL",
      "addr_city": "Palm Coast",
      "addr_postcode": "32137",
      "addr_street": "AdventHealth Way",
      "addr_housenumber": "1"
    },
    {
      "id": 68160,
      "geometry": "POINT (-81.440682 30.264734)",
      "poi_name": "Mayo Clinic Emergency Room",
      "osm_id": 11262788241,
      "amenity": "hospital",
      "opening_hours": "24/7",
      "phone": "+1-904-953-2000",
      "healthcare": "hospital",
      "emergency": "yes",
      "addr_state": "FL",
      "addr_city": "Jacksonville",
      "addr_postcode": "32224",
      "addr_street": "San Pablo Road South",
      "addr_housenumber": "4500"
    },
    {
      "id": 68748,
      "geometry": "POINT (-82.769703 27.919893)",
      "poi_name": "Senior Helpers",
      "osm_id": 11283147572,
      "amenity": "hospital",
      "description": "We offer tailored home care services ranging from companion care for seniors who need daily assistance to in-depth specialized care for those with Alzheimer's, Dementia, Parkinson's and other chronic diseases.",
      "opening_hours": "24/7",
      "operator": "Senior Helpers",
      "healthcare": "hospital",
      "addr_state": "FL",
      "addr_city": "Largo",
      "addr_postcode": "33771",
      "addr_street": "Lake Avenue Northeast",
      "addr_housenumber": "300"
    },
    {
      "id": 74074,
      "geometry": "POINT (-82.711372 28.020739)",
      "poi_name": "Back and Neck Pain Center",
      "osm_id": 9665787228,
      "amenity": "hospital",
      "description": "The Back and Neck Pain Center and Dr Monte Venis,Chiropractic Physician has over 30 years experience in Clearwater to help you live your life without pain. We help relieve various pain conditions such as back pain, neck pain, shoulder pain, headaches.",
      "website": "https://www.drvenis.com/",
      "phone": "727-726-4743",
      "healthcare": "hospital",
      "addr_state": "FL",
      "addr_city": "Clearwater",
      "addr_postcode": "33761",
      "addr_street": "State Road 580",
      "addr_housenumber": "2737"
    },
    {
      "id": 119590,
      "geometry": "POINT (-80.751762 28.388668)",
      "poi_name": "Visionary Optometry",
      "osm_id": 9108536632,
      "amenity": "hospital",
      "healthcare": "hospital",
      "emergency": "no",
      "addr_state": "FL",
      "addr_city": "Cocoa",
      "addr_postcode": "32922",
      "addr_street": "Michigan Avenue",
      "addr_housenumber": "1941"
    },
    {
      "id": 113936,
      "geometry": "POINT (-81.371913 28.574905)",
      "poi_name": "Florida Medical Plaza",
      "osm_id": 3857931357,
      "amenity": "hospital",
      "operator": "AdventHealth",
      "website": "http://www.flhosplab.com/location/orlando-florida-hospital-medical-plaza/",
      "healthcare": "hospital",
      "addr_state": "FL",
      "addr_city": "Orlando",
      "addr_postcode": "32804",
      "addr_street": "North Orange Avenue",
      "addr_housenumber": "2501"
    },
    {
      "id": 137081,
      "geometry": "POINT (-81.36921 28.573543)",
      "poi_name": "AdventHealth Orlando Emergency Room",
      "osm_id": 6085146755,
      "amenity": "hospital",
      "opening_hours": "24/7",
      "operator": "AdventHealth",
      "website": "https://adventhealth.com",
      "phone": "+1-407-303-1940",
      "healthcare": "hospital",
      "emergency": "yes",
      "addr_state": "FL",
      "addr_city": "Orlando",
      "addr_postcode": "32803",
      "addr_street": "East Rollins Street",
      "addr_housenumber": "601"
    },
    {
      "id": 135747,
      "geometry": "POINT (-81.377183 28.52499)",
      "poi_name": "Orlando Health Orlando Regional Medical Center Emergency Room",
      "osm_id": 11534604818,
      "amenity": "hospital",
      "opening_hours": "24/7",
      "website": "https://orlandohealth.com",
      "phone": "+1-321-841-5210",
      "healthcare": "hospital",
      "emergency": "yes",
      "addr_state": "FL",
      "addr_city": "Orlando",
      "addr_postcode": "32806",
      "addr_street": "West Sturtevant Street",
      "addr_housenumber": "29"
    },
    {
      "id": 135748,
      "geometry": "POINT (-81.427506 28.49137)",
      "poi_name": "HCA Florida Millenia Emergency",
      "osm_id": 11534610839,
      "amenity": "hospital",
      "description": "Emergency care service.",
      "opening_hours": "24/7",
      "operator": "HCA",
      "website": "https://hcafloridahealthcare.com",
      "phone": "+1-407-393-9800",
      "healthcare": "hospital",
      "emergency": "yes",
      "addr_state": "FL",
      "addr_city": "Orlando",
      "addr_postcode": "32839",
      "addr_street": "Millenia Boulevard",
      "addr_housenumber": "4056"
    },
    {
      "id": 135749,
      "geometry": "POINT (-81.478832 28.429229)",
      "poi_name": "Orlando Health Dr. P. Phillips Hospital",
      "osm_id": 11534665333,
      "amenity": "hospital",
      "operator": "Orlando Health",
      "website": "https://orlandohealth.com",
      "phone": "+1-407-351-8500",
      "healthcare": "hospital",
      "emergency": "yes",
      "addr_state": "FL",
      "addr_city": "Orlando",
      "addr_postcode": "32819",
      "addr_street": "Turkey Lake Road",
      "addr_housenumber": "9400"
    },
    {
      "id": 137082,
      "geometry": "POINT (-81.369876 28.574423)",
      "poi_name": "AdventHealth Orlando Main Entrance",
      "osm_id": 6085146756,
      "amenity": "hospital",
      "opening_hours": "24/7",
      "operator": "AdventHealth",
      "phone": "+1-407-303-5600",
      "healthcare": "hospital",
      "emergency": "yes",
      "addr_state": "FL",
      "addr_city": "Orlando",
      "addr_postcode": "32803",
      "addr_street": "East Rollins Street",
      "addr_housenumber": "601"
    },
    {
      "id": 181384,
      "geometry": "POINT (-80.371415 27.37595)",
      "poi_name": "New Horizons Of Treasure Coast - Mental Health Center",
      "osm_id": 10844730800,
      "amenity": "hospital",
      "website": "https://nhtcinc.org",
      "phone": "+1 772 468 5600",
      "healthcare": "hospital",
      "addr_state": "FL",
      "addr_city": "Fort Pierce",
      "addr_postcode": "34981",
      "addr_street": "West Midway Road",
      "addr_housenumber": "4500"
    },
    {
      "id": 159016,
      "geometry": "POINT (-82.624526 28.390455)",
      "poi_name": "Florida Department of Health in Pasco County",
      "osm_id": 4773287421,
      "amenity": "hospital",
      "operator": "Pasco County",
      "website": "https://floridahealth.gov/",
      "emergency": "no",
      "addr_state": "FL",
      "addr_city": "Hudson",
      "addr_postcode": "34667",
      "addr_street": "Denton Avenue",
      "addr_housenumber": "11611"
    },
    {
      "id": 181418,
      "geometry": "POINT (-81.41314 28.64617)",
      "poi_name": "Encompass Health Rehabilitation Hospital Of Altamonte Springs",
      "osm_id": 10844845406,
      "amenity": "hospital",
      "website": "https://encompasshealth.com/altamontespringsrehab",
      "phone": "+1 407 587 8600",
      "healthcare": "rehabilitation",
      "addr_state": "FL",
      "addr_city": "Altamonte Springs",
      "addr_postcode": "32714",
      "addr_street": "South State Rd 434",
      "addr_housenumber": "831"
    },
    {
      "id": 181420,
      "geometry": "POINT (-82.489914 28.295273)",
      "poi_name": "Adventhealth Connerton",
      "osm_id": 10844852412,
      "amenity": "hospital",
      "operator": "AdventHealth",
      "website": "https://www.adventhealth.com/hospital/adventhealth-connerton",
      "phone": "+1 813 903 3700",
      "healthcare": "hospital",
      "addr_state": "FL",
      "addr_city": "Land O Lakes",
      "addr_postcode": "34637",
      "addr_street": "Health Center Drive",
      "addr_housenumber": "9441"
    },
    {
      "id": 142552,
      "geometry": "POINT (-81.807339 27.53945)",
      "poi_name": "Advent Hospital",
      "osm_id": 6317111765,
      "amenity": "hospital",
      "healthcare": "hospital",
      "addr_state": "FL",
      "addr_city": "Wauchula",
      "addr_postcode": "33873",
      "addr_street": "5th Ave",
      "addr_housenumber": "735"
    },
    {
      "id": 167660,
      "geometry": "POINT (-81.682468 29.987788)",
      "poi_name": "Kindred Hospital - North Florida",
      "osm_id": 358713788,
      "amenity": "hospital",
      "operator": "Kindred Healthcare",
      "website": "http://www.khnorthflorida.com/",
      "phone": "+1 904 284 9230",
      "healthcare": "hospital",
      "emergency": "no",
      "addr_city": "Green Cove Springs",
      "addr_postcode": "32043",
      "addr_street": "Oak Street",
      "addr_housenumber": "801"
    },
    {
      "id": 167662,
      "geometry": "POINT (-81.601198 30.290256)",
      "poi_name": "Brooks Rehabilitation Hospital",
      "osm_id": 358715199,
      "amenity": "hospital",
      "wheelchair": "yes",
      "website": "https://www.brooksrehab.org/inpatient-rehabilitation/rehabilitation-hospital/",
      "phone": "+1 904 345 7600",
      "healthcare": "hospital",
      "emergency": "no",
      "addr_city": "Jacksonville",
      "addr_postcode": "32216",
      "addr_street": "University Boulevard South",
      "addr_housenumber": "3599"
    },
    {
      "id": 167664,
      "geometry": "POINT (-82.170524 29.155548)",
      "poi_name": "The Vines Hospital",
      "osm_id": 358730882,
      "amenity": "hospital",
      "website": "https://www.thevineshospital.com/",
      "phone": "+1 866 671 3130",
      "emergency": "no",
      "addr_city": "Ocala",
      "addr_postcode": "34471",
      "addr_street": "Southwest 27th Avenue",
      "addr_housenumber": "3130"
    },
    {
      "id": 167665,
      "geometry": "POINT (-82.442164 28.909787)",
      "poi_name": "CPC Beverly Hills",
      "osm_id": 358739209,
      "amenity": "hospital",
      "operator": "HCA",
      "website": "https://www.citrusmh.com/location/cpc-beverly-hills",
      "phone": "+1 352 527 6646",
      "healthcare": "hospital",
      "addr_state": "FL",
      "addr_city": "Beverly Hills",
      "addr_postcode": "34465",
      "addr_street": "West Roosevelt Boulevard",
      "addr_housenumber": "450"
    },
    {
      "id": 167672,
      "geometry": "POINT (-81.61587 30.27148)",
      "poi_name": "Specialty Hospital Jacksonville",
      "osm_id": 358743958,
      "amenity": "hospital",
      "operator": "HCA South Atlantic",
      "website": "https://specialtyhospitaljax.com/",
      "phone": "+1 904 737 3120",
      "healthcare": "hospital",
      "emergency": "no",
      "addr_city": "Jacksonville",
      "addr_postcode": "32207",
      "addr_street": "Richard Street",
      "addr_housenumber": "4901"
    },
    {
      "id": 167676,
      "geometry": "POINT (-81.597375 30.290137)",
      "poi_name": "Ten Broeck Hospital Jacksonville",
      "osm_id": 358755697,
      "amenity": "hospital",
      "phone": "+1 904 724 9202",
      "healthcare": "hospital",
      "emergency": "no",
      "addr_city": "Jacksonville",
      "addr_postcode": "32216",
      "addr_street": "Beach Boulevard",
      "addr_housenumber": "6700"
    },
    {
      "id": 167677,
      "geometry": "POINT (-81.372421 28.575318)",
      "poi_name": "AdventHealth Cancer Institute",
      "osm_id": 358757006,
      "amenity": "hospital",
      "operator": "AdventHealth",
      "website": "https://www.floridahospitalcancer.com/",
      "phone": "+1 407 303 1700",
      "healthcare": "hospital",
      "emergency": "no",
      "wikidata": "Q30280268",
      "addr_city": "Orlando",
      "addr_postcode": "32804",
      "addr_street": "North Orange Avenue",
      "addr_housenumber": "2501"
    },
    {
      "id": 168203,
      "geometry": "POINT (-82.35821 29.98852)",
      "poi_name": "Florida Corrections Medical Center",
      "osm_id": 367822245,
      "amenity": "hospital",
      "website": "http://www.dc.state.fl.us/facilities/region2/209.html",
      "phone": "+1 386 496 6000",
      "emergency": "no",
      "wikidata": "Q28446527",
      "addr_state": "FL",
      "addr_city": "Lake Butler",
      "addr_postcode": "32054",
      "addr_street": "South CR 231",
      "addr_housenumber": "7765"
    },
    {
      "id": 181382,
      "geometry": "POINT (-81.348745 28.769981)",
      "poi_name": "Arnold Palmer Hospital For Children",
      "osm_id": 10844726391,
      "amenity": "hospital",
      "website": "https://arnoldpalmerhospital.com",
      "phone": "+1 321 841 6350",
      "healthcare": "hospital",
      "addr_state": "FL",
      "addr_city": "Lake Mary",
      "addr_postcode": "32746",
      "addr_street": "Rinehart Road",
      "addr_housenumber": "392"
    },
    {
      "id": 181389,
      "geometry": "POINT (-82.219021 29.131066)",
      "poi_name": "The Centers",
      "osm_id": 10844742579,
      "amenity": "hospital",
      "website": "https://www.thecenters.us",
      "phone": "+1 352 291 5500",
      "healthcare": "hospital",
      "addr_state": "FL",
      "addr_city": "Ocala",
      "addr_postcode": "34474",
      "addr_street": "Southwest 60th Avenue",
      "addr_housenumber": "5664"
    },
    {
      "id": 181391,
      "geometry": "POINT (-81.595717 30.258028)",
      "poi_name": "Wekiva Springs",
      "osm_id": 10844749361,
      "amenity": "hospital",
      "website": "https://wekivacenter.com",
      "phone": "+1 904 296 3533",
      "healthcare": "hospital",
      "addr_state": "FL",
      "addr_city": "Jacksonville",
      "addr_postcode": "32216",
      "addr_street": "Salisbury Road",
      "addr_housenumber": "3947"
    },
    {
      "id": 181393,
      "geometry": "POINT (-80.830008 28.640354)",
      "poi_name": "Palm Point Behavioral Health",
      "osm_id": 10844760802,
      "amenity": "hospital",
      "website": "https://www.palmpointbehavioral.com",
      "phone": "+1 321 603 6550",
      "healthcare": "hospital",
      "addr_state": "FL",
      "addr_city": "Titusville",
      "addr_postcode": "32796",
      "addr_street": "Truman Scarborough Way",
      "addr_housenumber": "2355"
    },
    {
      "id": 181395,
      "geometry": "POINT (-81.370175 28.477388)",
      "poi_name": "Select Specialty Hospital - Orlando - South Campus",
      "osm_id": 10844763176,
      "amenity": "hospital",
      "website": "https://www.orlandosouth.selectspecialtyhospitals.com",
      "phone": "+1 407 241 4800",
      "healthcare": "hospital",
      "addr_state": "FL",
      "addr_city": "Orlando",
      "addr_postcode": "32809",
      "addr_street": "South Orange Avenue",
      "addr_housenumber": "5579"
    },
    {
      "id": 181397,
      "geometry": "POINT (-81.726178 28.008976)",
      "poi_name": "Winter Haven Women's Hospital",
      "osm_id": 10844779985,
      "amenity": "hospital",
      "website": "https://baycare.org/hospitals/winter-haven-womens-hospital/patients-visitors",
      "phone": "+1 863 294 7010",
      "healthcare": "hospital",
      "addr_state": "FL",
      "addr_city": "Winter Haven",
      "addr_postcode": "33880",
      "addr_street": "Avenue O Southeast",
      "addr_housenumber": "101"
    },
    {
      "id": 181400,
      "geometry": "POINT (-82.162335 29.165876)",
      "poi_name": "Encompass Health Rehabilitation Hospital Of Ocala",
      "osm_id": 10844785069,
      "amenity": "hospital",
      "website": "https://encompasshealth.com/ocalarehab",
      "phone": "+1 352 282 4000",
      "healthcare": "rehabilitation",
      "addr_state": "FL",
      "addr_city": "Ocala",
      "addr_postcode": "34471",
      "addr_street": "Southwest 22nd Lane",
      "addr_housenumber": "2275"
    },
    {
      "id": 181401,
      "geometry": "POINT (-81.28563 28.367409)",
      "poi_name": "UCF Lake Nona Medical Center",
      "osm_id": 10844797703,
      "amenity": "hospital",
      "website": "https://ucflakenonamedicalcenter.com",
      "phone": "+1 407 302 7392",
      "healthcare": "hospital",
      "addr_state": "FL",
      "addr_city": "Orlando",
      "addr_postcode": "32827",
      "addr_street": "Lake Nona Boulevard",
      "addr_housenumber": "6700"
    },
    {
      "id": 181402,
      "geometry": "POINT (-82.489818 27.99168)",
      "poi_name": "Saint Josephs Hospital Behavioral Health Center",
      "osm_id": 10844797750,
      "amenity": "hospital",
      "website": "https://baycare.org/locations/s/st-josephs-hospital-behavioral-health-center",
      "phone": "+1 813 870 4000",
      "healthcare": "hospital",
      "addr_state": "FL",
      "addr_city": "Tampa",
      "addr_postcode": "33607",
      "addr_street": "Habana Avenue",
      "addr_housenumber": "4918"
    },
    {
      "id": 181408,
      "geometry": "POINT (-81.254845 28.957579)",
      "poi_name": "Halifax Health UF Health Medical Center Of Deltona",
      "osm_id": 10844832615,
      "amenity": "hospital",
      "website": "https://halifaxhealth.org",
      "phone": "+1 386 425 4806",
      "healthcare": "hospital",
      "addr_state": "FL",
      "addr_city": "Deltona",
      "addr_postcode": "32725",
      "addr_street": "Halifax Crossings Boulevard",
      "addr_housenumber": "3300"
    },
    {
      "id": 181409,
      "geometry": "POINT (-82.51696 28.532264)",
      "poi_name": "Encompass Health Rehabilitation Hospital Of Spring Hill",
      "osm_id": 10844833145,
      "amenity": "hospital",
      "website": "https://encompasshealth.com/springhillrehab",
      "phone": "+1 352 592 4250",
      "healthcare": "rehabilitation",
      "addr_state": "FL",
      "addr_city": "Brooksville",
      "addr_postcode": "34613",
      "addr_street": "Cortez Boulevard",
      "addr_housenumber": "12440"
    },
    {
      "id": 181410,
      "geometry": "POINT (-81.895483 28.836904)",
      "poi_name": "Lifestream Behavioral Center",
      "osm_id": 10844834163,
      "amenity": "hospital",
      "website": "https://www.lsbc.net",
      "phone": "+1 352 315 7800",
      "healthcare": "hospital",
      "addr_state": "FL",
      "addr_city": "Leesburg",
      "addr_postcode": "34748",
      "addr_street": "Tally Road",
      "addr_housenumber": "2020"
    },
    {
      "id": 181411,
      "geometry": "POINT (-81.314139 28.260087)",
      "poi_name": "Blackberry Center",
      "osm_id": 10844835494,
      "amenity": "hospital",
      "website": "https://www.blackberrycenter.com",
      "phone": "+1 321 805 5090",
      "healthcare": "hospital",
      "addr_state": "FL",
      "addr_city": "Saint Cloud",
      "addr_postcode": "34769",
      "addr_street": "Beehive Circle",
      "addr_housenumber": "91"
    },
    {
      "id": 181412,
      "geometry": "POINT (-82.500276 28.131348)",
      "poi_name": "Encompass Health Rehabilitation Hospital Of North Tampa",
      "osm_id": 10844836253,
      "amenity": "hospital",
      "operator": "Encompass Health",
      "website": "https://encompasshealth.com/northtamparehab",
      "phone": "+1 813 607 3600",
      "healthcare": "hospital",
      "addr_state": "FL",
      "addr_city": "Lutz",
      "addr_postcode": "33548",
      "addr_street": "Atmore Grove Drive",
      "addr_housenumber": "3840"
    },
    {
      "id": 181415,
      "geometry": "POINT (-81.540273 28.64923)",
      "poi_name": "Adventhealth Apopka",
      "osm_id": 10844837725,
      "amenity": "hospital",
      "operator": "AdventHealth",
      "website": "https://www.adventhealth.com/hospital/adventhealth-apopka",
      "phone": "+1 407 609 7000",
      "healthcare": "hospital",
      "addr_state": "FL",
      "addr_city": "Apopka",
      "addr_postcode": "32703",
      "addr_street": "Ocoee Apopka Road",
      "addr_housenumber": "2100"
    },
    {
      "id": 181416,
      "geometry": "POINT (-80.708221 28.234141)",
      "poi_name": "Devereux Florida",
      "osm_id": 10844838636,
      "amenity": "hospital",
      "website": "https://www.devereux.org/site/SPageServer/?pagename=fl_viera_campus",
      "phone": "+1 321 242 9100",
      "healthcare": "hospital",
      "addr_state": "FL",
      "addr_city": "Viera",
      "addr_postcode": "32940",
      "addr_street": "Devereux Drive",
      "addr_housenumber": "8000"
    },
    {
      "id": 199189,
      "geometry": "POINT (-81.379675 28.523603)",
      "poi_name": "Bert Martin's Champions for Children Emergency Department & Trauma Center",
      "osm_id": 942934998,
      "amenity": "hospital",
      "opening_hours": "24/7",
      "operator": "Orlando Health",
      "website": "https://www.arnoldpalmerhospital.com/about-us/pediatric-ed-and-level-one-trauma-center",
      "phone": "+1 321 841 5437",
      "emergency": "yes",
      "addr_city": "Orlando",
      "addr_postcode": "32806",
      "addr_street": "West Miller Street",
      "addr_housenumber": "92"
    },
    {
      "id": 186228,
      "geometry": "POINT (-81.532178 30.058105)",
      "poi_name": "Ascension Medical Group",
      "osm_id": 7920972468,
      "amenity": "hospital",
      "operator": "Ascension",
      "healthcare": "hospital",
      "addr_state": "FL",
      "addr_city": "St. Johns",
      "addr_postcode": "32251",
      "addr_street": "CR 210",
      "addr_housenumber": "2851"
    },
    {
      "id": 231069,
      "geometry": "POINT (-82.739045 28.042966)",
      "poi_name": "Ultimate Image Cosmetic Medical Center",
      "osm_id": 4454938437,
      "amenity": "hospital",
      "opening_hours": "Mo,Fr 10:00-16:00; Tu 10:00-17:00; We,Th 11:00-19:00; Sa,Su off",
      "healthcare": "hospital",
      "emergency": "no",
      "addr_state": "FL",
      "addr_city": "Clearwater",
      "addr_postcode": "33761",
      "addr_street": "US Highway 19 North",
      "addr_housenumber": "29750"
    }
  ],
  "answer_type": "loc",
  "question_entities": {
    "[1]": {
      "main_category": "amenity",
      "sub_category": "hospital"
    },
    "[2]": {
      "distance": 190000,
      "text": "190 kilometers"
    },
    "[3]": {
      "main_category": "tourism",
      "sub_category": "zoo",
      "display_name": "Central Florida Zoo & Botanical Gardens, Sanford, FL",
      "geo_wkt": "POINT (-81.314867 28.825462)",
      "poi": {
        "id": 9137,
        "geometry": "POINT (-81.314867 28.825462)",
        "poi_name": "Central Florida Zoo & Botanical Gardens",
        "osm_id": 3683164539,
        "tourism": "zoo",
        "fee": "yes",
        "addr_state": "FL",
        "addr_city": "Sanford",
        "addr_postcode": "32771",
        "addr_street": "W Seminole Blvd",
        "addr_housenumber": "3755"
      }
    }
  },
  "id": 2095,
  "type": "range+loc"
}