{
  "question": "Can you find me a chicken restaurant within 110 kilometers from Courant Institute of Mathematical Sciences, New York, NY?",
  "sql": "SELECT * FROM pois\nWHERE ST_DWithin(pois.geometry, ST_GeomFromText('POINT (-73.995686 40.728648)',4326)::geography, 110000)\nAND amenity = 'restaurant'\nAND cuisine ILIKE '%chicken%';\n",
  "answers": [
    {
      "id": 31594,
      "geometry": "POINT (-74.226215 39.966148)",
      "poi_name": "Cluck-U Chicken",
      "osm_id": 8435613102,
      "amenity": "restaurant",
      "cuisine": "chicken",
      "addr_state": "NJ",
      "addr_city": "Toms River",
      "addr_postcode": "08755",
      "addr_street": "Lakehurst Road",
      "addr_housenumber": "552"
    },
    {
      "id": 34585,
      "geometry": "POINT (-73.972519 40.6776)",
      "poi_name": "Sweet Chick",
      "osm_id": 2701690248,
      "amenity": "restaurant",
      "cuisine": "southern;chicken",
      "opening_hours": "Mo-Su 10:00-24:00",
      "website": "https://www.sweetchick.com/",
      "phone": "+1-718-484-7724",
      "takeaway": "yes",
      "outdoor_seating": "sidewalk",
      "delivery": "yes",
      "addr_city": "Brooklyn",
      "addr_postcode": "11217",
      "addr_street": "Flatbush Avenue",
      "addr_housenumber": "341"
    },
    {
      "id": 35174,
      "geometry": "POINT (-73.974506 40.679664)",
      "poi_name": "Pecking House",
      "osm_id": 2712066273,
      "amenity": "restaurant",
      "cuisine": "chicken;southern;asian",
      "opening_hours": "Mo-Su 12:00-22:00",
      "website": "https://www.peckinghouse.com/",
      "phone": "+1-716-902-3613",
      "addr_state": "NY",
      "addr_city": "Brooklyn",
      "addr_postcode": "11217",
      "addr_street": "Flatbush Avenue",
      "addr_housenumber": "244"
    },
    {
      "id": 37093,
      "geometry": "POINT (-73.932403 40.848393)",
      "poi_name": "Chicken Ranch",
      "osm_id": 2797462932,
      "amenity": "restaurant",
      "cuisine": "chicken",
      "website": "https://www.chickenranchny.com/",
      "phone": "+1 646-922-8564",
      "addr_postcode": "10033",
      "addr_street": "Audubon Avenue",
      "addr_housenumber": "315"
    },
    {
      "id": 37940,
      "geometry": "POINT (-73.947508 40.711424)",
      "poi_name": "Mad For Chicken",
      "osm_id": 2838720793,
      "amenity": "restaurant",
      "cuisine": "chicken"
    },
    {
      "id": 38775,
      "geometry": "POINT (-73.825572 40.764255)",
      "poi_name": "Peking Empire",
      "osm_id": 2883431954,
      "amenity": "restaurant",
      "cuisine": "chinese;chicken;dumpling;fried_rice;sesame_seed_chicken",
      "opening_hours": "Mo-Th 11:00-22:45, Fr-Sa 11:00-23:30, Su 11:30-22:45",
      "website": "http://pekingempire.com",
      "phone": "(718) 762-3080",
      "delivery": "yes",
      "addr_state": "NY",
      "addr_city": "Flushing",
      "addr_postcode": "11354",
      "addr_street": "Northern Boulevard",
      "addr_housenumber": "141-06"
    },
    {
      "id": 50337,
      "geometry": "POINT (-74.682299 40.231818)",
      "poi_name": "Wings to Go",
      "osm_id": 3478828387,
      "amenity": "restaurant",
      "cuisine": "chicken",
      "takeaway": "yes"
    },
    {
      "id": 52831,
      "geometry": "POINT (-73.945056 40.791376)",
      "poi_name": "Mad For Chicken ",
      "osm_id": 10049914828,
      "amenity": "restaurant",
      "cuisine": "chicken",
      "opening_hours": "12:00-22:00",
      "website": "https://madforchicken.com/locations/harlem/",
      "phone": "+1 646-490-4030",
      "delivery": "yes",
      "addr_street": "3rd Avenue",
      "addr_housenumber": "1914"
    },
    {
      "id": 58113,
      "geometry": "POINT (-73.904964 40.701364)",
      "poi_name": "Hungry Burrito",
      "osm_id": 5364870801,
      "amenity": "restaurant",
      "cuisine": "mexican;salad;soup;chicken",
      "wheelchair": "yes",
      "opening_hours": "Mo-Th 12:00-23:00; Fr 12:00-23:30; Sa 10:00-23:30; Su 10:00-23:00",
      "internet_access": "wlan",
      "phone": "+1-718-885-8080",
      "takeaway": "yes",
      "outdoor_seating": "no",
      "delivery": "yes",
      "toilets": "yes",
      "addr_state": "NY",
      "addr_city": "Ridgewood",
      "addr_postcode": "11385",
      "addr_street": "Seneca Avenue",
      "addr_housenumber": "811"
    },
    {
      "id": 58120,
      "geometry": "POINT (-73.901926 40.702809)",
      "poi_name": "Super Pollo",
      "osm_id": 5364995687,
      "amenity": "restaurant",
      "cuisine": "chicken;mexican",
      "opening_hours": "Mo-Th 11:00-22:00; Fr-Su 11:00-23:00",
      "website": "https://superpollo.nyc/",
      "phone": "+1-718-418-0808",
      "takeaway": "yes",
      "outdoor_seating": "veranda",
      "delivery": "yes",
      "addr_state": "NY",
      "addr_city": "Ridgewood",
      "addr_postcode": "11385",
      "addr_street": "Woodward Avenue",
      "addr_housenumber": "865"
    },
    {
      "id": 58295,
      "geometry": "POINT (-73.994112 40.756052)",
      "poi_name": "UFC Chicken",
      "osm_id": 5369797599,
      "amenity": "restaurant",
      "cuisine": "chicken;korean;fried_chicken",
      "description": "Korean Fried Chicken & Craft Beer",
      "opening_hours": "Mo-Sa 12:00-23:00; Su 12:00-22:00",
      "website": "https://www.ufchicken.com/",
      "phone": "+1 646-422-7451",
      "takeaway": "yes",
      "delivery": "yes",
      "addr_state": "NY",
      "addr_city": "New York",
      "addr_postcode": "10018",
      "addr_street": "9th Avenue",
      "addr_housenumber": "528"
    },
    {
      "id": 59124,
      "geometry": "POINT (-73.898468 40.70933)",
      "poi_name": "La Caba\u00f1a Jarabacoa",
      "osm_id": 5412529181,
      "amenity": "restaurant",
      "cuisine": "spanish;chicken",
      "wheelchair": "limited",
      "opening_hours": "Mo-Su 07:00-23:00",
      "phone": "(718) 821-5880",
      "takeaway": "yes",
      "delivery": "yes",
      "addr_state": "NY",
      "addr_city": "Ridgwood",
      "addr_postcode": "11385",
      "addr_street": "Fresh Pond Road",
      "addr_housenumber": "65-13"
    },
    {
      "id": 59158,
      "geometry": "POINT (-73.902054 40.699616)",
      "poi_name": "La Bella Pizza and Chicken",
      "osm_id": 5413138200,
      "amenity": "restaurant",
      "cuisine": "pizza;chicken",
      "opening_hours": "Mo-Th 10:00-21:30; Fr 10:00-22:30; Sa 11:00-22:30; Su 11:00-21:30",
      "website": "https://www.labellapizzachicken.com/",
      "phone": "(718) 386-5555",
      "takeaway": "yes",
      "delivery": "yes",
      "addr_street": "Seneca Avenue",
      "addr_housenumber": "975"
    },
    {
      "id": 60029,
      "geometry": "POINT (-73.827517 40.760381)",
      "poi_name": "4 Choice 1 Soup Lunch Box",
      "osm_id": 5452573967,
      "amenity": "restaurant",
      "cuisine": "chicken;rice;fish;soup;quick_bite",
      "description": "Choose 4 different side dishes and 1 base from a wide variety of options. Includes either a hot or cold soup.",
      "opening_hours": "Mo-Su 09:00-21:00",
      "phone": "+1 718-886-0083",
      "takeaway": "yes",
      "outdoor_seating": "no",
      "delivery": "no",
      "addr_state": "NY",
      "addr_city": "Flushing",
      "addr_postcode": "11354",
      "addr_street": "Roosevelt Avenue",
      "addr_housenumber": "136-75"
    },
    {
      "id": 60565,
      "geometry": "POINT (-73.911126 40.694849)",
      "poi_name": "Alex Luncheonette",
      "osm_id": 5471034822,
      "amenity": "restaurant",
      "cuisine": "dominican;chicken",
      "opening_hours": "Mo-Sa 07:00-19:00",
      "phone": "+1-718-417-9465",
      "takeaway": "yes",
      "delivery": "yes",
      "addr_street": "Knickerbocker Avenue",
      "addr_housenumber": "685"
    },
    {
      "id": 60071,
      "geometry": "POINT (-74.226661 40.932033)",
      "poi_name": "La Rosa Chicken & Grill - Wayne",
      "osm_id": 5455223810,
      "amenity": "restaurant",
      "cuisine": "chicken",
      "addr_state": "NJ",
      "addr_city": "Wayne",
      "addr_postcode": "07470",
      "addr_street": "Valley Road",
      "addr_housenumber": "600"
    },
    {
      "id": 61866,
      "geometry": "POINT (-73.907258 40.700133)",
      "poi_name": "Rico Pollo 1 Ridgewood",
      "osm_id": 5540447973,
      "amenity": "restaurant",
      "cuisine": "colombian;coffee;chicken",
      "wheelchair": "yes",
      "opening_hours": "Mo-Su 08:00-23:00",
      "website": "http://www.ricopollorestaurant.com/",
      "phone": "+1-718-497-1000",
      "takeaway": "yes",
      "delivery": "yes",
      "addr_street": "Myrtle Avenue",
      "addr_housenumber": "55-37"
    },
    {
      "id": 61868,
      "geometry": "POINT (-73.907428 40.700113)",
      "poi_name": "Barcelo",
      "osm_id": 5540457457,
      "amenity": "restaurant",
      "cuisine": "sandwich;seafood;chicken",
      "wheelchair": "yes",
      "opening_hours": "Mo-Su 06:00-23:00",
      "website": "http://www.barcelorestaurant.com/",
      "phone": "+1-917-909-1511",
      "addr_street": "Myrtle Avenue",
      "addr_housenumber": "55-33"
    },
    {
      "id": 61912,
      "geometry": "POINT (-73.913023 40.700778)",
      "poi_name": "Place Fried Chicken",
      "osm_id": 5541534557,
      "amenity": "restaurant",
      "cuisine": "chicken;pizza;american;burger",
      "opening_hours": "Mo-Su 11:00-23:45",
      "website": "http://placefriedchickenandpizza.com/",
      "phone": "+1-718-386-4137",
      "takeaway": "yes",
      "delivery": "yes",
      "addr_street": "Wyckoff Avenue",
      "addr_housenumber": "285"
    },
    {
      "id": 62069,
      "geometry": "POINT (-73.914498 40.701221)",
      "poi_name": "D' Montazo",
      "osm_id": 5550498111,
      "amenity": "restaurant",
      "cuisine": "spanish;coffee;burger;chicken;sandwich",
      "wheelchair": "yes",
      "opening_hours": "Mo-Su 08:00-23:00",
      "website": "http://www.dmontazorestaurant.com/",
      "phone": "+1-718-497-3978",
      "takeaway": "yes",
      "delivery": "yes",
      "addr_street": "Wyckoff Avenue",
      "addr_housenumber": "216"
    },
    {
      "id": 63702,
      "geometry": "POINT (-73.918232 40.703486)",
      "poi_name": "Inca Chicken",
      "osm_id": 5627882539,
      "amenity": "restaurant",
      "cuisine": "chicken",
      "opening_hours": "Mo-Su 11:30-21:00",
      "phone": "+1-718-366-3763",
      "takeaway": "yes",
      "delivery": "yes",
      "addr_street": "Wyckoff Avenue",
      "addr_housenumber": "122"
    },
    {
      "id": 63644,
      "geometry": "POINT (-73.975142 40.679834)",
      "poi_name": "Purbird",
      "osm_id": 5625774805,
      "amenity": "restaurant",
      "cuisine": "chicken",
      "opening_hours": "Tu-Sa 11:30-22:00; Su 11:30-21:00",
      "phone": "+1-718-857-2473",
      "outdoor_seating": "yes",
      "toilets": "yes",
      "addr_postcode": "11217",
      "addr_street": "6th Avenue",
      "addr_housenumber": "82"
    },
    {
      "id": 65925,
      "geometry": "POINT (-73.910775 40.694675)",
      "poi_name": "Aris Pollos A La Brasa",
      "osm_id": 5720913788,
      "amenity": "restaurant",
      "cuisine": "chicken",
      "opening_hours": "Mo-Su 09:00-22:00",
      "phone": "+1-718-381-9400",
      "delivery": "yes",
      "addr_street": "Knickerbocker Avenue",
      "addr_housenumber": "691"
    },
    {
      "id": 65943,
      "geometry": "POINT (-73.920768 40.743112)",
      "poi_name": "Mad For Chicken",
      "osm_id": 5721473272,
      "amenity": "restaurant",
      "cuisine": "chicken",
      "opening_hours": "Su-Th 12:00-22:30; Fr-Sa 12:00-23:30",
      "website": "https://madforchicken.com/locations/sunnyside/",
      "phone": "+1-347-808-0178",
      "addr_state": "NY",
      "addr_city": "Sunnyside",
      "addr_postcode": "11104",
      "addr_street": "Queens Boulevard",
      "addr_housenumber": "43-16B"
    },
    {
      "id": 66310,
      "geometry": "POINT (-73.928382 40.704344)",
      "poi_name": "Burger It Up",
      "osm_id": 5734407321,
      "amenity": "restaurant",
      "cuisine": "burger;chicken;sandwich;salad",
      "opening_hours": "Mo-Th 11:00-22:00; Fr 11:00-24:00; Sa 13:00-24:00; Su 13:00-22:00",
      "website": "https://burgerituptogo.com/",
      "phone": "+1-347-318-2618",
      "takeaway": "yes",
      "delivery": "yes",
      "addr_street": "Knickerbocker Avenue",
      "addr_housenumber": "146"
    },
    {
      "id": 67904,
      "geometry": "POINT (-73.810232 40.764085)",
      "poi_name": "Mokja Chicken & Pizza",
      "osm_id": 11251978792,
      "amenity": "restaurant",
      "cuisine": "korean;chicken;pizza",
      "phone": "+1 929 200 7527",
      "addr_postcode": "11354",
      "addr_street": "Roosevelt Avenue",
      "addr_housenumber": "154-17"
    },
    {
      "id": 68071,
      "geometry": "POINT (-73.993282 40.73401)",
      "poi_name": "Fields Good Chicken",
      "osm_id": 11258947744,
      "amenity": "restaurant",
      "cuisine": "chicken",
      "opening_hours": "Mo-Su 11:00-21:00",
      "website": "https://www.fieldsgoodchicken.com",
      "phone": "+1 646 895 6831",
      "addr_state": "NY",
      "addr_city": "New York",
      "addr_postcode": "10003",
      "addr_street": "East 12th Street",
      "addr_housenumber": "24"
    },
    {
      "id": 74729,
      "geometry": "POINT (-73.911007 40.776524)",
      "poi_name": "Chicken Festival",
      "osm_id": 9693563601,
      "amenity": "restaurant",
      "cuisine": "peruvian;barbecue;chicken",
      "opening_hours": "Mo-Su 11:00-21:00",
      "website": "https://whereyoueat.com/Chicken-Festival-17316.html",
      "phone": "+1-718-728-9696",
      "addr_state": "NY",
      "addr_city": "Astoria",
      "addr_postcode": "11105",
      "addr_street": "Ditmars Boulevard",
      "addr_housenumber": "29-19"
    },
    {
      "id": 69803,
      "geometry": "POINT (-73.790446 40.739471)",
      "poi_name": "Chicken N Shakes",
      "osm_id": 11331444152,
      "amenity": "restaurant",
      "cuisine": "fried_food;burger;chicken",
      "phone": "718-650-5559",
      "addr_state": "NY",
      "addr_city": "Fresh Meadows",
      "addr_postcode": "11365",
      "addr_street": "Horace Harding Expressway",
      "addr_housenumber": "183-16"
    },
    {
      "id": 70924,
      "geometry": "POINT (-73.790079 41.029913)",
      "poi_name": "Toreore",
      "osm_id": 11378344774,
      "amenity": "restaurant",
      "cuisine": "chicken;hotdog;korean",
      "opening_hours": "Mo-Th 11:00-20:30; Fr-Su 11:00-21:00",
      "phone": "9142194242",
      "addr_postcode": "10530",
      "addr_street": "Central Avenue",
      "addr_housenumber": "371"
    },
    {
      "id": 75461,
      "geometry": "POINT (-73.945881 40.721412)",
      "poi_name": "Peeps Kitchen",
      "osm_id": 9731450850,
      "amenity": "restaurant",
      "cuisine": "chicken"
    },
    {
      "id": 91657,
      "geometry": "POINT (-73.985122 40.74749)",
      "poi_name": "Bonchon Chicken",
      "osm_id": 2081537413,
      "amenity": "restaurant",
      "cuisine": "chicken;korean;sushi",
      "addr_state": "NY",
      "addr_city": "New York",
      "addr_postcode": "10016",
      "addr_street": "5th Avenue",
      "addr_housenumber": "525"
    },
    {
      "id": 91658,
      "geometry": "POINT (-73.985214 40.747169)",
      "poi_name": "LOVE Korean BBQ",
      "osm_id": 2081539634,
      "amenity": "restaurant",
      "cuisine": "chicken;korean",
      "website": "https://lovekoreanbbq.com/",
      "phone": "+1-646-669-8147",
      "addr_state": "NY",
      "addr_city": "New York",
      "addr_postcode": "10016",
      "addr_street": "5th Avenue",
      "addr_housenumber": "319"
    },
    {
      "id": 94110,
      "geometry": "POINT (-73.96249 40.712861)",
      "poi_name": "Namkeen",
      "osm_id": 2207131883,
      "amenity": "restaurant",
      "cuisine": "pakistani;fried_chicken",
      "opening_hours": "Su-Th 11:00-22:00; Fr,Sa 11:00-24:00",
      "website": "https://www.eatnamkeen.com/",
      "shop": "vacant",
      "phone": "+1 (347) 658-3383",
      "delivery": "yes",
      "addr_state": "NY",
      "addr_city": "Brooklyn",
      "addr_postcode": "11211",
      "addr_street": "Bedford Avenue",
      "addr_housenumber": "338"
    },
    {
      "id": 112934,
      "geometry": "POINT (-73.892949 40.680154)",
      "poi_name": "Super Pollo",
      "osm_id": 3810642475,
      "amenity": "restaurant",
      "cuisine": "latin_american;chicken",
      "opening_hours": "Mo-Th 11:00-22:00; Fr-Su 11:00-23:00",
      "website": "https://superpollo.nyc",
      "phone": "+1-718-647-7800",
      "takeaway": "yes",
      "delivery": "yes",
      "addr_state": "NY",
      "addr_city": "Brooklyn",
      "addr_postcode": "11207",
      "addr_street": "Jamaica Avenue",
      "addr_housenumber": "188"
    },
    {
      "id": 98887,
      "geometry": "POINT (-73.579342 40.655281)",
      "poi_name": "Rincon Latino Restaurant",
      "osm_id": 6534541706,
      "amenity": "restaurant",
      "cuisine": "latin_american;hot_dog;sandwich;chicken;fish;dessert",
      "website": "https://g.co/kgs/YHYYNi",
      "phone": "516-608-0966",
      "delivery": "yes",
      "addr_state": "NY",
      "addr_city": "Freeport",
      "addr_postcode": "11520",
      "addr_street": "Henry Street",
      "addr_housenumber": "85"
    },
    {
      "id": 111272,
      "geometry": "POINT (-73.167121 41.193656)",
      "poi_name": "Chester Fried Chicken",
      "osm_id": 3739868496,
      "amenity": "restaurant",
      "cuisine": "chicken",
      "phone": "+1 203 3355649"
    },
    {
      "id": 115292,
      "geometry": "POINT (-73.969467 40.590764)",
      "poi_name": "Zinger Halal Express Chicken Burger",
      "osm_id": 8888372304,
      "amenity": "restaurant",
      "cuisine": "chicken",
      "takeaway": "yes",
      "addr_state": "NY",
      "addr_city": "Brooklyn",
      "addr_postcode": "11223",
      "addr_street": "Avenue X",
      "addr_housenumber": "367"
    },
    {
      "id": 113271,
      "geometry": "POINT (-74.169416 40.916233)",
      "poi_name": "Kikiriki",
      "osm_id": 3827462228,
      "amenity": "restaurant",
      "cuisine": "chicken",
      "website": "https://kikirikirestaurant.com/",
      "phone": "(973) 225-0336",
      "takeaway": "yes",
      "addr_state": "NJ",
      "addr_city": "Paterson",
      "addr_postcode": "07505",
      "addr_street": "Market Street",
      "addr_housenumber": "215"
    },
    {
      "id": 134373,
      "geometry": "POINT (-73.946646 40.780317)",
      "poi_name": "CM Chicken",
      "osm_id": 11466216391,
      "amenity": "restaurant",
      "cuisine": "chicken; korean",
      "wheelchair": "no",
      "opening_hours": "Tu-Th 11:30-21:30; Fr, Sa 11:30-22:00; Su 11:30-21:00",
      "phone": "+1 646-429-9028",
      "addr_street": "1st Avenue",
      "addr_housenumber": "1764"
    },
    {
      "id": 118977,
      "geometry": "POINT (-73.949608 40.77715)",
      "poi_name": "Chicky's 86",
      "osm_id": 9075212185,
      "amenity": "restaurant",
      "cuisine": "barbecue;greek;chicken",
      "opening_hours": "Mo-Fr 11:00-22:00; Sa, Su 11:00-21:30",
      "website": "https://www.chickysnyc.com",
      "phone": "+1 212-996-8277",
      "takeaway": "yes",
      "delivery": "yes",
      "addr_state": "NY",
      "addr_city": "New York",
      "addr_postcode": "10028",
      "addr_street": "East 86th Street",
      "addr_housenumber": "355"
    },
    {
      "id": 121167,
      "geometry": "POINT (-73.921515 40.767098)",
      "poi_name": "Kennedy Fried Chicken",
      "osm_id": 6744698192,
      "amenity": "restaurant",
      "cuisine": "chicken",
      "addr_street": "30th Avenue",
      "addr_housenumber": "30-23"
    },
    {
      "id": 123884,
      "geometry": "POINT (-74.645516 40.502542)",
      "poi_name": "Tender Lovin Grill",
      "osm_id": 6886698845,
      "amenity": "restaurant",
      "cuisine": "chicken"
    },
    {
      "id": 120150,
      "geometry": "POINT (-73.999021 40.620001)",
      "poi_name": "Ruben's",
      "osm_id": 9143230736,
      "amenity": "restaurant",
      "cuisine": "pizza;peruvian;chicken",
      "phone": "+1-718-331-8821",
      "addr_street": "70th Street",
      "addr_housenumber": "1533"
    },
    {
      "id": 124960,
      "geometry": "POINT (-73.950339 40.673205)",
      "poi_name": "Brooklyn Waffle House",
      "osm_id": 6943222795,
      "amenity": "restaurant",
      "cuisine": "chicken;southern",
      "phone": "+1-347-240-2728",
      "addr_state": "NY",
      "addr_city": "Brooklyn",
      "addr_postcode": "11216",
      "addr_street": "Nostrand Avenue",
      "addr_housenumber": "742"
    },
    {
      "id": 128521,
      "geometry": "POINT (-73.978564 40.845364)",
      "poi_name": "BBQ CHICKEN FORT LEE",
      "osm_id": 8168395026,
      "amenity": "restaurant",
      "cuisine": "chicken;korean",
      "website": "https://www.bbqchickenfortlee.com/",
      "phone": "+1 201-849-5562",
      "addr_state": "NJ",
      "addr_city": "Fort Lee",
      "addr_postcode": "07024",
      "addr_street": "Anderson Avenue",
      "addr_housenumber": "1400"
    },
    {
      "id": 131459,
      "geometry": "POINT (-73.982111 41.01461)",
      "poi_name": "BBQ Chicken",
      "osm_id": 9917781240,
      "amenity": "restaurant",
      "cuisine": "chicken"
    },
    {
      "id": 135370,
      "geometry": "POINT (-74.102577 40.828124)",
      "poi_name": "Boom Boom chicken",
      "osm_id": 11513306554,
      "amenity": "restaurant",
      "cuisine": "chicken",
      "phone": "+12014381124",
      "addr_state": "NJ",
      "addr_city": "Rutherford",
      "addr_postcode": "07070",
      "addr_street": "Park Avenue",
      "addr_housenumber": "36"
    },
    {
      "id": 135250,
      "geometry": "POINT (-73.991219 40.736614)",
      "poi_name": "Sweet Chick",
      "osm_id": 11509837680,
      "amenity": "restaurant",
      "cuisine": "southern;chicken",
      "opening_hours": "Mo-Th 10:00-21:00; Fr 10:00-22:00; Sa 09:00-22:00",
      "website": "https://www.sweetchick.com/location/union-square/",
      "takeaway": "yes",
      "addr_postcode": "10003",
      "addr_street": "East 16th Street",
      "addr_housenumber": "32"
    },
    {
      "id": 171585,
      "geometry": "POINT (-73.250819 41.181536)",
      "poi_name": "Garden Catering",
      "osm_id": 2379672485,
      "amenity": "restaurant",
      "cuisine": "chicken",
      "opening_hours": "Mo-Sa 08:00-20:30; Su 09:00-20:00",
      "addr_city": "Fairfield",
      "addr_street": "Black Rock Turnpike"
    },
    {
      "id": 136799,
      "geometry": "POINT (-73.906521 40.713046)",
      "poi_name": "La Cocina De Mama",
      "osm_id": 6071389285,
      "amenity": "restaurant",
      "cuisine": "dominican;chicken;salad;seafood;steak",
      "opening_hours": "Mo-Su 10:00-22:00",
      "website": "http://orderlacocinademama.com/",
      "phone": "+1-718-417-4000",
      "takeaway": "yes",
      "delivery": "Mo-Su 10:00-21:30",
      "addr_street": "Metropolitan Avenue",
      "addr_housenumber": "56-13"
    },
    {
      "id": 142156,
      "geometry": "POINT (-74.218841 40.108932)",
      "poi_name": "Yapchik",
      "osm_id": 6304780695,
      "amenity": "restaurant",
      "cuisine": "chicken;burger;steak",
      "outdoor_seating": "no",
      "addr_state": "NJ",
      "addr_city": "Lakewood Township",
      "addr_postcode": "08701",
      "addr_street": "Madison Avenue",
      "addr_housenumber": "1757"
    },
    {
      "id": 144299,
      "geometry": "POINT (-73.801433 40.760585)",
      "poi_name": "Nolbu Nolbu",
      "osm_id": 7256526360,
      "amenity": "restaurant",
      "cuisine": "gimbap;fried_chicken;sushi",
      "website": "http://www.nolbunolbunewyork.com/",
      "phone": "718-321-1511",
      "addr_state": "NY",
      "addr_city": "Flushing",
      "addr_postcode": "11358",
      "addr_street": "Northern Boulevard",
      "addr_housenumber": "164-25"
    },
    {
      "id": 151068,
      "geometry": "POINT (-73.980133 40.57325)",
      "poi_name": "Ruby's Bar and Grill",
      "osm_id": 4080306997,
      "amenity": "restaurant",
      "cuisine": "burger;sandwich;chicken;american;ice_cream;hot_dog",
      "wheelchair": "yes",
      "outdoor_seating": "yes"
    },
    {
      "id": 154016,
      "geometry": "POINT (-74.206368 40.829458)",
      "poi_name": "Tiny Elephant",
      "osm_id": 4219340093,
      "amenity": "restaurant",
      "cuisine": "bagel;chicken;american",
      "addr_postcode": "07042",
      "addr_street": "Fairfield Street",
      "addr_housenumber": "54"
    },
    {
      "id": 154421,
      "geometry": "POINT (-73.782795 40.712738)",
      "poi_name": "Golden Chicken Restaurant",
      "osm_id": 4237981594,
      "amenity": "restaurant",
      "cuisine": "chicken",
      "opening_hours": "Mo-Th 11:00-22:00; Fr-Sa 11:00-23:00; Su 12:00-22:00",
      "website": "http://goldenchickenjamaica.com",
      "phone": "718-206-4669;718-206-4667",
      "takeaway": "yes",
      "delivery": "yes",
      "addr_state": "NY",
      "addr_city": "Jamaica",
      "addr_postcode": "11432",
      "addr_street": "Hillside Avenue",
      "addr_housenumber": "179-44"
    },
    {
      "id": 155710,
      "geometry": "POINT (-73.94668 40.780257)",
      "poi_name": "International Wings Factory",
      "osm_id": 4297408693,
      "amenity": "restaurant",
      "cuisine": "chicken",
      "wheelchair": "yes",
      "opening_hours": "Mo, Tu 17:30-22:00; We-Su 11:30-15:00, 16:15-22:00",
      "website": "https://internationalwingsfactory.com",
      "phone": "+1 212-348-2627",
      "takeaway": "yes",
      "delivery": "yes",
      "addr_postcode": "10128",
      "addr_street": "1st Avenue",
      "addr_housenumber": "1762"
    },
    {
      "id": 163950,
      "geometry": "POINT (-72.797597 40.868849)",
      "poi_name": "Hurricane Wings & Grill",
      "osm_id": 9443585544,
      "amenity": "restaurant",
      "cuisine": "chicken"
    },
    {
      "id": 164739,
      "geometry": "POINT (-72.974556 41.269454)",
      "poi_name": "Raise the Roost",
      "osm_id": 9498709622,
      "amenity": "restaurant",
      "cuisine": "fried_chicken",
      "opening_hours": "Mo-Su 05:00-20:00",
      "website": "https://raisetheroostchicken.com/"
    },
    {
      "id": 176483,
      "geometry": "POINT (-74.005308 40.650148)",
      "poi_name": "El Pollo Peruviano II",
      "osm_id": 2561910098,
      "amenity": "restaurant",
      "cuisine": "peruvian;chicken",
      "phone": "+1-347-889-5420",
      "addr_postcode": "11232",
      "addr_street": "5th Avenue",
      "addr_housenumber": "4102"
    },
    {
      "id": 172594,
      "geometry": "POINT (-73.995284 40.750033)",
      "poi_name": "Pio Pio Riko",
      "osm_id": 2407447001,
      "amenity": "restaurant",
      "cuisine": "peruvian;chicken",
      "wheelchair": "yes",
      "website": "https://www.piopio.com/",
      "takeaway": "yes",
      "outdoor_seating": "no",
      "addr_state": "NY",
      "addr_city": "New York",
      "addr_postcode": "10001",
      "addr_street": "8th Avenue",
      "addr_housenumber": "409"
    },
    {
      "id": 176277,
      "geometry": "POINT (-73.882745 40.755989)",
      "poi_name": "Pio Pio",
      "osm_id": 2553625630,
      "amenity": "restaurant",
      "cuisine": "chicken",
      "addr_postcode": "11370",
      "addr_street": "Northern Boulevard",
      "addr_housenumber": "84-21"
    },
    {
      "id": 176598,
      "geometry": "POINT (-73.944133 40.629238)",
      "poi_name": "The Waffle Box",
      "osm_id": 2563789654,
      "amenity": "restaurant",
      "cuisine": "smoothie;waffle;rotisserie_chicken;scrambled_eggs",
      "opening_hours": "Mo-Fr 11:00-20:00",
      "website": "https://thewafflebox1682.com/",
      "phone": "+1-718-975-7655",
      "addr_state": "NY",
      "addr_city": "Brooklyn",
      "addr_postcode": "11210",
      "addr_street": "Flatbush Avenue",
      "addr_housenumber": "1682"
    },
    {
      "id": 176607,
      "geometry": "POINT (-73.995453 40.717627)",
      "poi_name": "Tofu Tofu",
      "osm_id": 2563985397,
      "amenity": "restaurant",
      "cuisine": "korean;chicken",
      "phone": "+1-917-442-5001"
    },
    {
      "id": 173823,
      "geometry": "POINT (-73.943781 40.683375)",
      "poi_name": "Peaches HotHouse",
      "osm_id": 2457196622,
      "amenity": "restaurant",
      "cuisine": "chicken",
      "website": "http://peacheshothouse.com/",
      "phone": "+1 718 483-9111",
      "outdoor_seating": "yes",
      "addr_city": "Brooklyn",
      "addr_postcode": "11221",
      "addr_street": "Tompkins Avenue",
      "addr_housenumber": "415"
    },
    {
      "id": 174554,
      "geometry": "POINT (-73.961345 40.711217)",
      "poi_name": "Pies-N-Thighs",
      "osm_id": 2488562093,
      "amenity": "restaurant",
      "cuisine": "fried_chicken",
      "addr_state": "NY",
      "addr_city": "Brooklyn",
      "addr_postcode": "11211",
      "addr_street": "South 4th Street",
      "addr_housenumber": "166"
    },
    {
      "id": 176587,
      "geometry": "POINT (-73.966224 40.629196)",
      "poi_name": "Chandni Pizza Deli & Fried Chicken",
      "osm_id": 2563416341,
      "amenity": "restaurant",
      "cuisine": "pizza;fried_chicken",
      "addr_state": "NY",
      "addr_city": "Brooklyn",
      "addr_postcode": "11230",
      "addr_street": "Coney Island Avenue",
      "addr_housenumber": "1162"
    },
    {
      "id": 187361,
      "geometry": "POINT (-74.24634 40.332542)",
      "poi_name": "La Rosa",
      "osm_id": 1058103649,
      "amenity": "restaurant",
      "cuisine": "chicken"
    },
    {
      "id": 184177,
      "geometry": "POINT (-74.160282 40.425063)",
      "poi_name": "La Rosa Chicken & Grill",
      "osm_id": 7776599005,
      "amenity": "restaurant",
      "cuisine": "chicken",
      "opening_hours": "Mo-Su 11:00-21:00",
      "website": "https://www.larosagrill.com",
      "phone": "732 743 7880"
    },
    {
      "id": 179141,
      "geometry": "POINT (-74.223959 40.64879)",
      "poi_name": "Jay's Chicken & Pizza",
      "osm_id": 10749755007,
      "amenity": "restaurant",
      "cuisine": "chicken;fried_chicken;pizza"
    },
    {
      "id": 204266,
      "geometry": "POINT (-74.571371 40.562603)",
      "poi_name": "Chicken Holiday",
      "osm_id": 7120402225,
      "amenity": "restaurant",
      "cuisine": "chicken"
    },
    {
      "id": 204162,
      "geometry": "POINT (-74.610425 40.58856)",
      "poi_name": "King Wing",
      "osm_id": 7115143011,
      "amenity": "restaurant",
      "cuisine": "chicken;sandwich"
    },
    {
      "id": 219978,
      "geometry": "POINT (-73.897661 40.724826)",
      "poi_name": "El Pollo Sabroso",
      "osm_id": 9353655423,
      "amenity": "restaurant",
      "cuisine": "chicken"
    },
    {
      "id": 209013,
      "geometry": "POINT (-74.7781 40.249934)",
      "poi_name": "Chicken Holiday",
      "osm_id": 5018622429,
      "amenity": "restaurant",
      "cuisine": "chicken"
    },
    {
      "id": 212014,
      "geometry": "POINT (-73.831783 40.764875)",
      "poi_name": "Debaski",
      "osm_id": 5182851709,
      "amenity": "restaurant",
      "cuisine": "japanese;fried_chicken;wings;cocktails",
      "description": "Quick-serve, Japanese-style fried chicken turned out in a snug hangout with booths.",
      "opening_hours": "Su-Th 18:00-01:00, Fr-Sa 18:00-02:00",
      "website": "https://dbsknyc.com/",
      "outdoor_seating": "no",
      "addr_state": "NY",
      "addr_city": "Flushing",
      "addr_postcode": "11354",
      "addr_street": "Farrington Street",
      "addr_housenumber": "33-67"
    },
    {
      "id": 205370,
      "geometry": "POINT (-73.606986 40.721897)",
      "poi_name": "Holy Cow",
      "osm_id": 7166626785,
      "amenity": "restaurant",
      "cuisine": "chicken;burger",
      "website": "https://www.holycow.nyc/"
    },
    {
      "id": 212113,
      "geometry": "POINT (-73.986415 40.74822)",
      "poi_name": "Turntable Chicken Jazz",
      "osm_id": 5190742036,
      "amenity": "restaurant",
      "cuisine": "chicken",
      "description": "Spacious restaurant with a focus on chicken dishes and decor harkening to the Harlem Renaissance.",
      "website": "https://turntablenyc.com/",
      "phone": "+1-212-714-9700",
      "takeaway": "yes",
      "toilets": "yes",
      "addr_state": "NY",
      "addr_city": "New York",
      "addr_postcode": "10001",
      "addr_street": "West 33rd Street",
      "addr_housenumber": "20"
    },
    {
      "id": 219999,
      "geometry": "POINT (-73.893875 40.72696)",
      "poi_name": "El Pollo Real",
      "osm_id": 9354070900,
      "amenity": "restaurant",
      "cuisine": "chicken"
    },
    {
      "id": 230985,
      "geometry": "POINT (-74.4417 40.489502)",
      "poi_name": "The Original Picken Chicken",
      "osm_id": 4449958322,
      "amenity": "restaurant",
      "cuisine": "chicken",
      "website": "http://www.originalpickenchicken.com/",
      "phone": "+1-732-448-0111",
      "addr_state": "NJ",
      "addr_city": "New Brunswick",
      "addr_postcode": "08901",
      "addr_street": "George Street",
      "addr_housenumber": "228"
    },
    {
      "id": 222202,
      "geometry": "POINT (-73.930028 40.650241)",
      "poi_name": "China Restaurant",
      "osm_id": 11009510556,
      "amenity": "restaurant",
      "cuisine": "chinese;chicken",
      "wheelchair": "yes",
      "opening_hours": "Mo-Sa 11:00-22:30; Su 11:00-21:00",
      "internet_access": "no",
      "phone": "+1 718-498-5108",
      "takeaway": "only",
      "outdoor_seating": "no",
      "delivery": "yes",
      "toilets": "no",
      "addr_street": "Utica Avenue",
      "addr_housenumber": "937"
    },
    {
      "id": 229485,
      "geometry": "POINT (-73.955803 40.713951)",
      "poi_name": "The Commodore",
      "osm_id": 4382630248,
      "amenity": "restaurant",
      "cuisine": "chicken;american",
      "opening_hours": "Sa, Su 14:00-28:00; Mo-Fr 16:00-26:00",
      "website": "https://thecommodorebrooklyn.com/",
      "phone": "+1 718-218-7632",
      "takeaway": "yes",
      "delivery": "yes",
      "addr_city": "Brooklyn",
      "addr_postcode": "11211",
      "addr_street": "Metropolitan Avenue",
      "addr_housenumber": "366"
    },
    {
      "id": 224987,
      "geometry": "POINT (-73.990779 40.756233)",
      "poi_name": "Becco",
      "osm_id": 11105983005,
      "amenity": "restaurant",
      "cuisine": "chicken;fine_dining;italian"
    },
    {
      "id": 230457,
      "geometry": "POINT (-73.990925 40.724461)",
      "poi_name": "Blue Ribbon Fried Chicken",
      "osm_id": 4426893990,
      "amenity": "restaurant",
      "cuisine": "american;chicken",
      "opening_hours": "Mo-Su 12:00-21:00",
      "website": "https://blueribbonfriedchicken.com/",
      "phone": "+1 212 228-0404",
      "addr_state": "NY",
      "addr_city": "New York",
      "addr_postcode": "10003",
      "addr_street": "East 1st Street",
      "addr_housenumber": "28"
    },
    {
      "id": 235582,
      "geometry": "POINT (-73.918247 40.758752)",
      "poi_name": "Pollo a la Brasa",
      "osm_id": 5760191985,
      "amenity": "restaurant",
      "cuisine": "chicken",
      "addr_street": "Broadway",
      "addr_housenumber": "40-19"
    },
    {
      "id": 236838,
      "geometry": "POINT (-73.699077 40.662265)",
      "poi_name": "Chicken Coop",
      "osm_id": 5809042216,
      "amenity": "restaurant",
      "cuisine": "colombian;chicken",
      "phone": "+1-516-568-2667"
    },
    {
      "id": 237311,
      "geometry": "POINT (-73.626696 40.706637)",
      "poi_name": "Mi Tierrita",
      "osm_id": 5825615021,
      "amenity": "restaurant",
      "cuisine": "chicken;colombian",
      "opening_hours": "Mo-Th 11:00-22:00; Fr-Sa 11:00-23:00; Su 11:00-22:00",
      "website": "https://www.mitierrita.com/",
      "phone": "+1-516-292-2666",
      "takeaway": "yes",
      "addr_state": "NY",
      "addr_city": "Hempstead",
      "addr_postcode": "11550",
      "addr_street": "North Franklin Street",
      "addr_housenumber": "31"
    },
    {
      "id": 240643,
      "geometry": "POINT (-75.184613 40.992724)",
      "poi_name": "Cluck U Chicken",
      "osm_id": 5982214713,
      "amenity": "restaurant",
      "cuisine": "chicken",
      "opening_hours": "Su-Th 11:00-0:00; Fr-Sa 11:00-02:00",
      "delivery": "yes",
      "addr_state": "PA",
      "addr_city": "East Stroudsburg",
      "addr_postcode": "18301",
      "addr_street": "Brown Street",
      "addr_housenumber": "107"
    },
    {
      "id": 238784,
      "geometry": "POINT (-72.949386 41.318925)",
      "poi_name": "Crown Fried Chicken",
      "osm_id": 5893836953,
      "amenity": "restaurant",
      "cuisine": "chicken;fried_food"
    }
  ],
  "answer_type": "name",
  "question_entities": {
    "[1]": {
      "main_category": "amenity",
      "sub_category": "restaurant",
      "poi_filter_desc": "chicken restaurant",
      "poi_filter_sql": "cuisine ILIKE '%chicken%'"
    },
    "[2]": {
      "distance": 110000,
      "text": "110 kilometers"
    },
    "[3]": {
      "main_category": "amenity",
      "sub_category": "university",
      "display_name": "Courant Institute of Mathematical Sciences, New York, NY",
      "geo_wkt": "POINT (-73.995686 40.728648)",
      "poi": {
        "id": 158346,
        "geometry": "POINT (-73.995686 40.728648)",
        "poi_name": "Courant Institute of Mathematical Sciences",
        "osm_id": 4743911217,
        "amenity": "university",
        "internet_access": "no",
        "wikidata": "Q946028",
        "addr_state": "NY",
        "addr_city": "New York",
        "addr_postcode": "10012",
        "addr_street": "Mercer Street",
        "addr_housenumber": "251"
      }
    }
  },
  "id": 501,
  "type": "range:non_spat_filter+name"
}