{
  "question": "What's the distance to a caf\u00e9 from Bittersweet Falls, Weybridge, VT within a 40 kilometers radius?",
  "sql": "SELECT *, ST_Distance(ST_GeomFromText('POINT (-73.217661 44.029954)',4326)::geography, pois.geometry) AS distance FROM pois\nWHERE ST_DWithin(pois.geometry, ST_GeomFromText('POINT (-73.217661 44.029954)',4326)::geography, 40000)\nAND amenity = 'cafe';\n",
  "answers": [
    {
      "id": 31788,
      "geometry": "POINT (-73.088447 43.799516)",
      "poi_name": "Gourmet Provence",
      "osm_id": 8447067946,
      "amenity": "cafe",
      "addr_state": "VT",
      "addr_city": "Brandon",
      "addr_postcode": "05733",
      "addr_street": "Center Street",
      "addr_housenumber": "37",
      "distance": 27627.55420647
    },
    {
      "id": 39372,
      "geometry": "POINT (-73.45873 44.040718)",
      "poi_name": "Dockside Cafe",
      "osm_id": 2919428632,
      "amenity": "cafe",
      "cuisine": "american",
      "distance": 19360.75302949
    },
    {
      "id": 59639,
      "geometry": "POINT (-73.459736 44.049053)",
      "poi_name": "Redbrick Cafe",
      "osm_id": 5435960688,
      "amenity": "cafe",
      "opening_hours": "We-Sa 11:00-20:00",
      "website": "http://villageinnandredbrickcafe.us/redbrick#thespace",
      "phone": "+1 518 250 0993",
      "addr_state": "NY",
      "addr_city": "Port Henry",
      "addr_postcode": "12974",
      "addr_street": "Star Way",
      "addr_housenumber": "1",
      "distance": 19518.76088758
    },
    {
      "id": 81871,
      "geometry": "POINT (-73.433061 44.18169)",
      "poi_name": "The Inn Cafe",
      "osm_id": 1668593206,
      "amenity": "cafe",
      "cuisine": "american",
      "website": "https://www.innwestport.com/",
      "internet_access": "wlan",
      "addr_state": "NY",
      "addr_city": "Westport",
      "addr_postcode": "12993",
      "addr_street": "Stevenson Road",
      "addr_housenumber": "1234",
      "distance": 24117.94176124
    },
    {
      "id": 129737,
      "geometry": "POINT (-73.167894 44.013599)",
      "poi_name": "Little Seed Coffee Roasters",
      "osm_id": 9837482880,
      "amenity": "cafe",
      "cuisine": "coffee_shop",
      "opening_hours": "Mo-Fr 07:30-16:30; Sa-Su 08:00-16:00",
      "website": "https://www.littleseed.coffee/",
      "addr_state": "VT",
      "addr_city": "Middlebury",
      "addr_postcode": "05753",
      "addr_street": "Merchant's Row",
      "addr_housenumber": "24",
      "distance": 4384.45694997
    },
    {
      "id": 171095,
      "geometry": "POINT (-73.112652 44.334526)",
      "poi_name": "Parkside Cafe",
      "osm_id": 2360476783,
      "amenity": "cafe",
      "cuisine": "sandwich",
      "addr_state": "VT",
      "addr_postcode": "05461",
      "addr_street": "Vermont Route 116",
      "addr_housenumber": "10244",
      "distance": 34868.84931191
    },
    {
      "id": 139308,
      "geometry": "POINT (-73.168093 44.012746)",
      "poi_name": "Haymaker Cafe",
      "osm_id": 6192577524,
      "amenity": "cafe",
      "cuisine": "coffee_shop;bakery",
      "opening_hours": "Tu-Sa 07:30-11:30",
      "website": "https://www.haymakerbuns.com/",
      "phone": "+1-802-989-7026",
      "outdoor_seating": "yes",
      "addr_state": "VT",
      "addr_city": "Middlebury",
      "addr_postcode": "05753",
      "addr_street": "Bakery Lane",
      "addr_housenumber": "7",
      "distance": 4410.28087005
    },
    {
      "id": 174137,
      "geometry": "POINT (-72.845646 43.984384)",
      "poi_name": "Granville General Store / Catamount Grill",
      "osm_id": 2466135034,
      "amenity": "cafe",
      "website": "https://www.granvillestorevt.com/",
      "phone": "+1-802-767-4600",
      "addr_state": "VT",
      "addr_city": "Granville",
      "addr_postcode": "05747",
      "addr_street": "Vermont Route 100",
      "addr_housenumber": "5358",
      "distance": 30260.8699745
    },
    {
      "id": 204500,
      "geometry": "POINT (-73.170064 44.013276)",
      "poi_name": "Lost Monarch Coffee",
      "osm_id": 7129298508,
      "amenity": "cafe",
      "cuisine": "coffee_shop",
      "opening_hours": "Mo,We-Sa 09:00-17:00; Su 11:00-17:00",
      "internet_access": "wlan",
      "outdoor_seating": "yes",
      "addr_state": "VT",
      "addr_city": "Middlebury",
      "addr_postcode": "05753",
      "addr_street": "Mill Street",
      "addr_housenumber": "3",
      "distance": 4242.36166875
    },
    {
      "id": 206334,
      "geometry": "POINT (-73.165205 44.014883)",
      "poi_name": "Co-Op Cafe",
      "osm_id": 7206265697,
      "amenity": "cafe",
      "cuisine": "sandwich;salad",
      "distance": 4526.84611307
    },
    {
      "id": 205301,
      "geometry": "POINT (-73.177255 44.008171)",
      "poi_name": "Crossroads Caf\u00e9",
      "osm_id": 7164715409,
      "amenity": "cafe",
      "cuisine": "sushi",
      "wheelchair": "limited",
      "operator": "Middlebury College",
      "internet_access": "yes",
      "takeaway": "yes",
      "distance": 4044.08501815
    },
    {
      "id": 210743,
      "geometry": "POINT (-73.169667 44.015387)",
      "poi_name": "Stone Leaf Teahouse",
      "osm_id": 5117919417,
      "amenity": "cafe",
      "cuisine": "tea",
      "opening_hours": "Mo 11:00-17:00; Tu-Sa 11:00-18:00",
      "website": "https://www.stoneleaftea.com/",
      "phone": "+1 802 458 0460",
      "takeaway": "yes",
      "outdoor_seating": "yes",
      "delivery": "no",
      "addr_state": "VT",
      "addr_city": "Middlebury",
      "addr_postcode": "05753",
      "addr_street": "Maple Street",
      "addr_housenumber": "111",
      "distance": 4174.51387074
    },
    {
      "id": 206345,
      "geometry": "POINT (-73.174915 44.009332)",
      "poi_name": "Wilson Caf\u00e9",
      "osm_id": 7206571777,
      "amenity": "cafe",
      "cuisine": "sandwich;salad;sushi;bagel",
      "wheelchair": "yes",
      "opening_hours": "Sep-May Mo-Tu 07:30-24:00; Sep-May We-Th 07:30-22:00; Sep-May Su 12:00-19:00; Jun-Aug Mo-Fr 07:30-17:00",
      "operator": "Middlebury College",
      "internet_access": "yes",
      "takeaway": "yes",
      "delivery": "no",
      "distance": 4122.78850043
    },
    {
      "id": 206359,
      "geometry": "POINT (-73.168688 44.035788)",
      "poi_name": "Vermont Coffee Company Cafe",
      "osm_id": 7206824581,
      "amenity": "cafe",
      "opening_hours": "Mo-Fr 07:00-14:00",
      "operator": "Vermont Coffee Company",
      "website": "https://vermontcoffeecompany.com/pages/our-cafe",
      "internet_access": "yes",
      "phone": "+1 802 398 2038",
      "outdoor_seating": "no",
      "addr_state": "VT",
      "addr_city": "Middlebury",
      "addr_postcode": "05753",
      "addr_street": "Exchange Street",
      "addr_housenumber": "1197",
      "distance": 3978.93793833
    },
    {
      "id": 208795,
      "geometry": "POINT (-73.245197 44.17648)",
      "poi_name": "KB Cafe",
      "osm_id": 5005311456,
      "amenity": "cafe",
      "cuisine": "coffee_shop;sandwich",
      "internet_access": "yes",
      "distance": 16429.75982802
    },
    {
      "id": 238131,
      "geometry": "POINT (-72.838792 44.183943)",
      "poi_name": "Three Mountain Cafe",
      "osm_id": 5863240593,
      "amenity": "cafe",
      "addr_city": "Waitsfield",
      "addr_street": "Mad River Green",
      "addr_housenumber": "27",
      "distance": 34826.00347172
    },
    {
      "id": 219268,
      "geometry": "POINT (-73.227831 44.380534)",
      "poi_name": "Village Wine and Coffee",
      "osm_id": 9322151089,
      "amenity": "cafe",
      "cuisine": "coffee_shop;wine",
      "website": "https://www.villagewineandcoffee.com/",
      "addr_state": "VT",
      "addr_city": "Shelburne",
      "addr_postcode": "05482",
      "addr_street": "Shelburne Road",
      "addr_housenumber": "5288",
      "distance": 38963.61480193
    }
  ],
  "answer_type": "distance",
  "question_entities": {
    "[1]": {
      "main_category": "amenity",
      "sub_category": "cafe"
    },
    "[2]": {
      "distance": 40000,
      "text": "40 kilometers"
    },
    "[3]": {
      "main_category": "tourism",
      "sub_category": "viewpoint",
      "display_name": "Bittersweet Falls, Weybridge, VT",
      "geo_wkt": "POINT (-73.217661 44.029954)",
      "poi": {
        "id": 25384,
        "geometry": "POINT (-73.217661 44.029954)",
        "poi_name": "Bittersweet Falls",
        "osm_id": 4475236640,
        "tourism": "viewpoint",
        "addr_state": "VT",
        "addr_city": "Weybridge",
        "addr_postcode": "05753",
        "addr_street": "Bittersweet Falls Road",
        "addr_housenumber": "617"
      }
    }
  },
  "id": 742,
  "type": "range+distance"
}