{
  "question": "What restaurant can I find in the direction of New Mexico Slaughter House, Albuquerque, NM from ABQ BioPark (Botanic Garden), Albuquerque, NM, within a radius of 170 kilometers?",
  "sql": "WITH\n    angle AS (SELECT degrees(ST_Azimuth(ST_GeomFromText('POINT (-106.680854 35.09327)',4326)::geography, ST_GeomFromText('POINT (-106.657079 35.199273)',4326)::geography)) AS value)\nSELECT * FROM pois,angle\nWHERE amenity = 'restaurant'\nAND ST_DWithin(pois.geometry, ST_GeomFromText('POINT (-106.680854 35.09327)',4326)::geography, 170000)\nAND (degrees(ST_Azimuth(ST_GeomFromText('POINT (-106.680854 35.09327)',4326)::geography, pois.geometry)) BETWEEN angle.value - 22.5 AND angle.value + 22.5);\n",
  "answers": [
    {
      "id": 36225,
      "geometry": "POINT (-106.649958 35.198902)",
      "poi_name": "Hong Kong Buffet",
      "osm_id": 2755122459,
      "amenity": "restaurant",
      "cuisine": "chinese",
      "addr_city": "Albuquerque",
      "addr_postcode": "87114",
      "addr_street": "Coors Boulevard Northwest",
      "addr_housenumber": "10100",
      "value": 10.431258301737135
    },
    {
      "id": 40199,
      "geometry": "POINT (-106.623766 35.183494)",
      "poi_name": "Farm and Table",
      "osm_id": 2960354928,
      "amenity": "restaurant",
      "value": 10.431258301737135
    },
    {
      "id": 36221,
      "geometry": "POINT (-106.648134 35.201208)",
      "poi_name": "Rudy's Country Store & Bar-B-Q",
      "osm_id": 2755106916,
      "amenity": "restaurant",
      "cuisine": "barbecue",
      "phone": "(505) 890-7113",
      "addr_state": "NM",
      "addr_city": "Albuquerque",
      "addr_postcode": "87114",
      "addr_street": "Coors Boulevard Northwest",
      "addr_housenumber": "10136",
      "value": 10.431258301737135
    },
    {
      "id": 40201,
      "geometry": "POINT (-106.626102 35.180114)",
      "poi_name": "El Bruno's Restaurante y Cantina",
      "osm_id": 2960356959,
      "amenity": "restaurant",
      "value": 10.431258301737135
    },
    {
      "id": 91229,
      "geometry": "POINT (-106.670546 35.24207)",
      "poi_name": "Joe's Pasta House",
      "osm_id": 2052292879,
      "amenity": "restaurant",
      "value": 10.431258301737135
    },
    {
      "id": 51980,
      "geometry": "POINT (-106.668574 35.243135)",
      "poi_name": "Black Olive",
      "osm_id": 566693543,
      "amenity": "restaurant",
      "value": 10.431258301737135
    },
    {
      "id": 52006,
      "geometry": "POINT (-106.653018 35.249691)",
      "poi_name": "Applebee's",
      "osm_id": 566896092,
      "amenity": "restaurant",
      "cuisine": "american",
      "official_name": "Applebee's Neighborhood Grill & Bar",
      "addr_state": "NM",
      "value": 10.431258301737135
    },
    {
      "id": 52008,
      "geometry": "POINT (-106.653447 35.249228)",
      "poi_name": "Dion''s",
      "osm_id": 566896099,
      "amenity": "restaurant",
      "value": 10.431258301737135
    },
    {
      "id": 85590,
      "geometry": "POINT (-106.612449 35.206092)",
      "poi_name": "El Pinto",
      "osm_id": 1883346937,
      "amenity": "restaurant",
      "cuisine": "mexican",
      "opening_hours": "Mo-Th 11:00-21:00; Fr,Sa 11:00-22:00; Su 10:30-21:00",
      "value": 10.431258301737135
    },
    {
      "id": 90655,
      "geometry": "POINT (-106.648225 35.204417)",
      "poi_name": "Il Vicino",
      "osm_id": 2010106579,
      "amenity": "restaurant",
      "cuisine": "pizza",
      "addr_city": "Albuquerque",
      "addr_postcode": "87114",
      "addr_street": "Corrales Road Northwest",
      "addr_housenumber": "10701",
      "value": 10.431258301737135
    },
    {
      "id": 97290,
      "geometry": "POINT (-106.255676 36.211399)",
      "poi_name": "Mamacita's Pizzeria",
      "osm_id": 6470871467,
      "amenity": "restaurant",
      "cuisine": "pizza",
      "opening_hours": "We-Su 12:00-20:00",
      "phone": "+1 505 685-4111",
      "outdoor_seating": "yes",
      "addr_state": "NM",
      "addr_city": "Abiquiu",
      "addr_postcode": "87510",
      "addr_street": "US-84",
      "addr_housenumber": "20814",
      "value": 10.431258301737135
    },
    {
      "id": 91566,
      "geometry": "POINT (-106.667862 35.138186)",
      "poi_name": "Flying Star",
      "osm_id": 2073777394,
      "amenity": "restaurant",
      "phone": "+1 505 344 6714",
      "addr_city": "Albuquerque",
      "addr_postcode": "87107",
      "addr_street": "Rio Grande Boulevard Northwest",
      "addr_housenumber": "4026",
      "value": 10.431258301737135
    },
    {
      "id": 101919,
      "geometry": "POINT (-106.186883 36.345787)",
      "poi_name": "El Farolito",
      "osm_id": 6649018460,
      "amenity": "restaurant",
      "cuisine": "mexican",
      "phone": "(575) 581-9509",
      "addr_state": "NM",
      "addr_city": "El Rito",
      "addr_postcode": "87530",
      "addr_street": "New Mexico State Highway 554",
      "addr_housenumber": "1212",
      "value": 10.431258301737135
    },
    {
      "id": 101238,
      "geometry": "POINT (-106.065844 35.98832)",
      "poi_name": "Dandy Burger",
      "osm_id": 6615635676,
      "amenity": "restaurant",
      "cuisine": "burger",
      "addr_city": "Espanola",
      "addr_street": "Riverside Drive",
      "addr_housenumber": "424",
      "value": 10.431258301737135
    },
    {
      "id": 101240,
      "geometry": "POINT (-106.061791 36.03845)",
      "poi_name": "El Parasol",
      "osm_id": 6615683390,
      "amenity": "restaurant",
      "cuisine": "mexican",
      "value": 10.431258301737135
    },
    {
      "id": 102034,
      "geometry": "POINT (-106.063534 35.999964)",
      "poi_name": "Pizza Hut",
      "osm_id": 6654113441,
      "amenity": "restaurant",
      "cuisine": "pizza",
      "value": 10.431258301737135
    },
    {
      "id": 102037,
      "geometry": "POINT (-106.121966 36.065344)",
      "poi_name": "Socorro's",
      "osm_id": 6654113464,
      "amenity": "restaurant",
      "cuisine": "mexican",
      "value": 10.431258301737135
    },
    {
      "id": 169236,
      "geometry": "POINT (-106.6139 35.226195)",
      "poi_name": "Perea's Restaurant and Bar",
      "osm_id": 2295923916,
      "amenity": "restaurant",
      "cuisine": "new_mexican",
      "phone": "505-898-2442",
      "addr_city": "Corrales",
      "addr_postcode": "87048",
      "addr_street": "corrales Road",
      "addr_housenumber": "4590",
      "value": 10.431258301737135
    },
    {
      "id": 103192,
      "geometry": "POINT (-106.655985 35.196292)",
      "poi_name": "BJ's",
      "osm_id": 8489792824,
      "amenity": "restaurant",
      "cuisine": "american",
      "official_name": "BJ's Restaurant & Brewhouse",
      "addr_city": "Albuquerque",
      "addr_postcode": "87114",
      "value": 10.431258301737135
    },
    {
      "id": 120932,
      "geometry": "POINT (-106.064814 36.004655)",
      "poi_name": "JoAnn's Restaurant",
      "osm_id": 6734160372,
      "amenity": "restaurant",
      "addr_city": "Espanola",
      "addr_street": "Riverside Drive",
      "value": 10.431258301737135
    },
    {
      "id": 147950,
      "geometry": "POINT (-106.080802 36.007809)",
      "poi_name": "Angelina's",
      "osm_id": 3919448885,
      "amenity": "restaurant",
      "addr_state": "NM",
      "addr_city": "Espanola",
      "addr_postcode": "87532",
      "addr_street": "North Railroad Avenue",
      "addr_housenumber": "1226",
      "value": 10.431258301737135
    },
    {
      "id": 161508,
      "geometry": "POINT (-106.063065 36.002916)",
      "poi_name": "Pizza 9",
      "osm_id": 4884585618,
      "amenity": "restaurant",
      "cuisine": "pizza",
      "addr_city": "Espanola",
      "addr_street": "Riverside Drive",
      "value": 10.431258301737135
    },
    {
      "id": 169238,
      "geometry": "POINT (-106.611887 35.23081)",
      "poi_name": "Oasis Desert Bistro",
      "osm_id": 2295930121,
      "amenity": "restaurant",
      "cuisine": "coffee_shop",
      "phone": "505-792-4720",
      "addr_city": "Corrales",
      "addr_postcode": "87048",
      "addr_street": "Corrales Road",
      "addr_housenumber": "4940",
      "value": 10.431258301737135
    },
    {
      "id": 169240,
      "geometry": "POINT (-106.61457 35.225168)",
      "poi_name": "Indigo Crow",
      "osm_id": 2295943192,
      "amenity": "restaurant",
      "cuisine": "american",
      "website": "https://www.indigocrowcafe.net/",
      "phone": "+1-505-898-7000",
      "addr_state": "NM",
      "addr_city": "Corrales",
      "addr_postcode": "87048",
      "addr_street": "Corrales Road",
      "addr_housenumber": "4515",
      "value": 10.431258301737135
    },
    {
      "id": 169242,
      "geometry": "POINT (-106.65639 35.235323)",
      "poi_name": "Namaste",
      "osm_id": 2295971137,
      "amenity": "restaurant",
      "cuisine": "indian",
      "phone": "505-896-3126",
      "addr_city": "Rio Rancho",
      "addr_postcode": "87124",
      "addr_street": "Deborah Road Southeast",
      "addr_housenumber": "1520",
      "value": 10.431258301737135
    },
    {
      "id": 185324,
      "geometry": "POINT (-106.639422 35.154005)",
      "poi_name": "Dave's",
      "osm_id": 7845202342,
      "amenity": "restaurant",
      "addr_street": "4th Street Northwest",
      "addr_housenumber": "6601",
      "value": 10.431258301737135
    },
    {
      "id": 184341,
      "geometry": "POINT (-106.614115 35.224989)",
      "poi_name": "Hannah & Nate's",
      "osm_id": 7782609944,
      "amenity": "restaurant",
      "cuisine": "breakfast",
      "opening_hours": "Mo-Su 07:00-14:00",
      "phone": "+1-505-898-2370",
      "addr_state": "NM",
      "addr_city": "Corrales",
      "addr_postcode": "87048",
      "addr_street": "Corrales Road",
      "addr_housenumber": "4512",
      "value": 10.431258301737135
    },
    {
      "id": 184342,
      "geometry": "POINT (-106.616436 35.22205)",
      "poi_name": "Village Pizza",
      "osm_id": 7782613358,
      "amenity": "restaurant",
      "cuisine": "pizza",
      "opening_hours": "Su-Th 11:00-19:30, Fr-Sa 11:00-20:00",
      "website": "https://www.villagepizzanm.com/",
      "phone": "+1-505-898-0045",
      "addr_state": "NM",
      "addr_city": "Corrales",
      "addr_postcode": "87048",
      "addr_street": "Corrales Road",
      "addr_housenumber": "4266",
      "value": 10.431258301737135
    },
    {
      "id": 184346,
      "geometry": "POINT (-106.680719 35.159659)",
      "poi_name": "Village Pizza",
      "osm_id": 7783102853,
      "amenity": "restaurant",
      "cuisine": "pizza",
      "opening_hours": "Su-Th 11:00-19:30, Fr-Sa 11:00-20:00",
      "website": "https://www.villagepizzanm.com/",
      "phone": "+1 505 219 3766",
      "addr_state": "NM",
      "addr_city": "Albuquerque",
      "addr_postcode": "87120",
      "addr_street": "La Orilla Road Northwest",
      "addr_housenumber": "3200",
      "value": 10.431258301737135
    },
    {
      "id": 185325,
      "geometry": "POINT (-106.639812 35.154062)",
      "poi_name": "El Papatura",
      "osm_id": 7845202347,
      "amenity": "restaurant",
      "addr_street": "4th Street Northwest",
      "addr_housenumber": "6601",
      "value": 10.431258301737135
    },
    {
      "id": 212289,
      "geometry": "POINT (-106.550376 35.302296)",
      "poi_name": "Range Caf\u00e9",
      "osm_id": 5197384585,
      "amenity": "restaurant",
      "cuisine": "dessert;new_mexican",
      "wheelchair": "yes",
      "opening_hours": "Su-Th 07:00-21:00, Fr-Sa 07:00-21:00",
      "website": "https://www.rangecafe.com/",
      "phone": "+1-505-867-1700",
      "addr_state": "NM",
      "addr_city": "Bernalillo",
      "addr_postcode": "87004",
      "addr_street": "Camino del Pueblo",
      "addr_housenumber": "925",
      "value": 10.431258301737135
    },
    {
      "id": 189741,
      "geometry": "POINT (-106.631805 35.174831)",
      "poi_name": "Casa de Benevites",
      "osm_id": 1248859717,
      "amenity": "restaurant",
      "cuisine": "mexican",
      "value": 10.431258301737135
    },
    {
      "id": 194596,
      "geometry": "POINT (-106.575281 35.326757)",
      "poi_name": "Pizza Hut",
      "osm_id": 10278575024,
      "amenity": "restaurant",
      "cuisine": "pizza",
      "value": 10.431258301737135
    },
    {
      "id": 185382,
      "geometry": "POINT (-106.638522 35.155268)",
      "poi_name": "Weck's",
      "osm_id": 7851355618,
      "amenity": "restaurant",
      "value": 10.431258301737135
    },
    {
      "id": 190596,
      "geometry": "POINT (-106.210095 35.82717)",
      "poi_name": "Time Out Pizzaria - Permanently Closed in White Rock",
      "osm_id": 1306261060,
      "amenity": "restaurant",
      "cuisine": "pizza",
      "website": "http://www.timeout4pizza.com/",
      "phone": "5056729882",
      "takeaway": "no",
      "delivery": "no",
      "addr_state": "NM",
      "addr_city": "White Rock",
      "addr_postcode": "87544",
      "addr_street": "State Road 4",
      "addr_housenumber": "118",
      "value": 10.431258301737135
    },
    {
      "id": 194366,
      "geometry": "POINT (-106.656967 35.208281)",
      "poi_name": "Chuck E. Cheese",
      "osm_id": 10270744741,
      "amenity": "restaurant",
      "cuisine": "pizza",
      "leisure": "amusement_arcade",
      "website": "https://locations.chuckecheese.com/us/nm/albuquerque/10510-coors-boulevard",
      "value": 10.431258301737135
    },
    {
      "id": 194367,
      "geometry": "POINT (-106.657554 35.208521)",
      "poi_name": "Red Lobster",
      "osm_id": 10270744742,
      "amenity": "restaurant",
      "cuisine": "seafood",
      "value": 10.431258301737135
    },
    {
      "id": 194368,
      "geometry": "POINT (-106.657569 35.208089)",
      "poi_name": "Olive Garden",
      "osm_id": 10270744743,
      "amenity": "restaurant",
      "cuisine": "italian",
      "value": 10.431258301737135
    },
    {
      "id": 194371,
      "geometry": "POINT (-106.648387 35.204818)",
      "poi_name": "Thai Kitchen",
      "osm_id": 10270744867,
      "amenity": "restaurant",
      "cuisine": "thai",
      "addr_street": "Corrales Road Northwest",
      "addr_housenumber": "10701",
      "value": 10.431258301737135
    },
    {
      "id": 194550,
      "geometry": "POINT (-106.65387 35.193996)",
      "poi_name": "Outback Steakhouse",
      "osm_id": 10277071270,
      "amenity": "restaurant",
      "cuisine": "american;steak",
      "value": 10.431258301737135
    },
    {
      "id": 197393,
      "geometry": "POINT (-106.647704 35.205268)",
      "poi_name": "Ichi Ban Japanese Restaurant",
      "osm_id": 10647739597,
      "amenity": "restaurant",
      "cuisine": "japanese",
      "addr_street": "Corrales Road Northwest",
      "addr_housenumber": "10701",
      "value": 10.431258301737135
    },
    {
      "id": 197400,
      "geometry": "POINT (-106.646164 35.203746)",
      "poi_name": "Dragon House Chinese Cuisine",
      "osm_id": 10647769452,
      "amenity": "restaurant",
      "cuisine": "chinese",
      "addr_street": "Corrales Road Northwest",
      "addr_housenumber": "10200",
      "value": 10.431258301737135
    },
    {
      "id": 197401,
      "geometry": "POINT (-106.64583 35.20329)",
      "poi_name": "Pho Kobe",
      "osm_id": 10647769456,
      "amenity": "restaurant",
      "cuisine": "vietnamese",
      "addr_state": "NM",
      "addr_city": "Albuquerque",
      "addr_postcode": "87114",
      "addr_street": "Corrales Road Northwest",
      "addr_housenumber": "10200",
      "value": 10.431258301737135
    },
    {
      "id": 197402,
      "geometry": "POINT (-106.64527 35.202659)",
      "poi_name": "Cafe Nom Nom",
      "osm_id": 10647769483,
      "amenity": "restaurant",
      "cuisine": "vietnamese",
      "addr_state": "NM",
      "addr_city": "Albuquerque",
      "addr_postcode": "87114",
      "addr_street": "Corrales Road Northwest",
      "addr_housenumber": "10200",
      "value": 10.431258301737135
    },
    {
      "id": 225051,
      "geometry": "POINT (-106.650016 35.254521)",
      "poi_name": "K'Lynn's Southern & Cajun Fusion",
      "osm_id": 11108956273,
      "amenity": "restaurant",
      "cuisine": "cajun;soul_food;southern;seafood",
      "description": "From fried catfish, collard greens and plantain  to etouffee,  gumbo and  po boys.",
      "website": "https://www.klynnsfusion.com/",
      "phone": "505-453-3068",
      "outdoor_seating": "no",
      "delivery": "yes",
      "addr_state": "NM",
      "addr_city": "Rio Rancho",
      "addr_postcode": "87124",
      "addr_street": "Ridgecrest Dr SE",
      "addr_housenumber": "4300",
      "value": 10.431258301737135
    },
    {
      "id": 221331,
      "geometry": "POINT (-106.062856 35.998366)",
      "poi_name": "K-Pollo",
      "osm_id": 10972067305,
      "amenity": "restaurant",
      "value": 10.431258301737135
    },
    {
      "id": 226301,
      "geometry": "POINT (-106.657398 35.232056)",
      "poi_name": "Aldo's New York Style Pizzeria",
      "osm_id": 11155367792,
      "amenity": "restaurant",
      "cuisine": "pizza_restaurant;catering;new_york_style_pizza",
      "opening_hours": "Mo-Su 11:00-21:00",
      "website": "https://aldosnypizza.com",
      "phone": "+1-505-892-2026",
      "addr_state": "NM",
      "addr_city": "Rio Rancho",
      "addr_postcode": "87124",
      "addr_street": "Rio Rancho Boulevard Southeast,",
      "addr_housenumber": "1690",
      "value": 10.431258301737135
    }
  ],
  "answer_type": "name",
  "question_entities": {
    "[2]": {
      "distance": 170000,
      "text": "170 kilometers"
    },
    "[3]": {
      "main_category": "leisure",
      "sub_category": "garden",
      "display_name": "ABQ BioPark (Botanic Garden), Albuquerque, NM",
      "geo_wkt": "POINT (-106.680854 35.09327)",
      "poi": {
        "id": 246600,
        "geometry": "POINT (-106.680854 35.09327)",
        "poi_name": "ABQ BioPark (Botanic Garden)",
        "osm_id": 1788029997,
        "leisure": "garden",
        "wikidata": "Q2843476",
        "addr_state": "NM",
        "addr_city": "Albuquerque"
      }
    },
    "[4]": {
      "main_category": "tourism",
      "sub_category": "theme park",
      "display_name": "New Mexico Slaughter House, Albuquerque, NM",
      "geo_wkt": "POINT (-106.657079 35.199273)",
      "poi": {
        "id": 10873,
        "geometry": "POINT (-106.657079 35.199273)",
        "poi_name": "New Mexico Slaughter House",
        "osm_id": 8107941834,
        "tourism": "theme_park",
        "opening_hours": "Oct Fr-Su 19:00-22:00",
        "website": "https://www.nmslaughterhouse.com/",
        "phone": "+1-505-764-2868",
        "addr_state": "NM",
        "addr_city": "Albuquerque",
        "addr_postcode": "87114",
        "addr_street": "Coors Boulevard Bypass Northwest",
        "addr_housenumber": "10000"
      }
    },
    "[1]": {
      "main_category": "amenity",
      "sub_category": "restaurant"
    }
  },
  "id": 1692,
  "type": "range:towards+name"
}