{
  "question": "Could you assist me in locating an american restaurant within a 180 kilometers radius originating from Rhame Arena, SC?",
  "sql": "SELECT * FROM pois\nWHERE ST_DWithin(pois.geometry, ST_GeomFromText('POINT (-80.605612 34.236208)',4326)::geography, 180000)\nAND amenity = 'restaurant'\nAND cuisine ILIKE '%american%';\n",
  "answers": [
    {
      "id": 28563,
      "geometry": "POINT (-82.306475 34.830675)",
      "poi_name": "TGI Fridays",
      "osm_id": 491516085,
      "amenity": "restaurant",
      "cuisine": "american",
      "addr_state": "SC",
      "addr_city": "Greenville",
      "addr_postcode": "29607",
      "addr_street": "Woodruff Road",
      "addr_housenumber": "1114"
    },
    {
      "id": 32313,
      "geometry": "POINT (-82.268693 34.858804)",
      "poi_name": "Bohemian Bull",
      "osm_id": 2623949245,
      "amenity": "restaurant",
      "cuisine": "american",
      "website": "https://www.bohemianbull.com/",
      "addr_state": "SC",
      "addr_city": "Greenville",
      "addr_postcode": "29615",
      "addr_street": "Pelham Road",
      "addr_housenumber": "3620"
    },
    {
      "id": 32387,
      "geometry": "POINT (-78.819715 33.746849)",
      "poi_name": "TGI Fridays",
      "osm_id": 2625018073,
      "amenity": "restaurant",
      "cuisine": "american",
      "addr_city": "Myrtle Beach",
      "addr_postcode": "29572",
      "addr_street": "North Kings Highway",
      "addr_housenumber": "7515"
    },
    {
      "id": 32389,
      "geometry": "POINT (-78.823974 33.743245)",
      "poi_name": "Outback Steakhouse",
      "osm_id": 2625018080,
      "amenity": "restaurant",
      "cuisine": "american;steak",
      "opening_hours": "Mo-Th 04:00-22:00; Fr,Sa 11:00-22:00; Su 11:00-21:00",
      "addr_city": "Myrtle Beach",
      "addr_postcode": "29572",
      "addr_street": "North Kings Highway",
      "addr_housenumber": "7025"
    },
    {
      "id": 32950,
      "geometry": "POINT (-81.146571 35.269313)",
      "poi_name": "Waffle House",
      "osm_id": 2643068965,
      "amenity": "restaurant",
      "cuisine": "american",
      "opening_hours": "24/7",
      "capacity": "40",
      "phone": "+1 704 861 8429",
      "addr_state": "NC",
      "addr_city": "Gastonia",
      "addr_postcode": "28054",
      "addr_street": "Remount Road",
      "addr_housenumber": "1845"
    },
    {
      "id": 34868,
      "geometry": "POINT (-81.516862 33.914814)",
      "poi_name": "The Spud Stop",
      "osm_id": 2705206892,
      "amenity": "restaurant",
      "cuisine": "american",
      "phone": "+1-803-307-0213",
      "addr_state": "SC",
      "addr_city": "Batesburg-Leesville",
      "addr_postcode": "29070",
      "addr_street": "East Columbia Avenue",
      "addr_housenumber": "327"
    },
    {
      "id": 35047,
      "geometry": "POINT (-79.021405 33.775886)",
      "poi_name": "Waffle House",
      "osm_id": 2709626925,
      "amenity": "restaurant",
      "cuisine": "american",
      "opening_hours": "24/7",
      "addr_state": "SC",
      "addr_city": "Conway",
      "addr_postcode": "29526",
      "addr_street": "SC 544",
      "addr_housenumber": "1528"
    },
    {
      "id": 35128,
      "geometry": "POINT (-79.068243 33.848025)",
      "poi_name": "Applebee's",
      "osm_id": 2711064523,
      "amenity": "restaurant",
      "cuisine": "american",
      "official_name": "Applebee's Neighborhood Grill & Bar",
      "addr_state": "SC"
    },
    {
      "id": 35507,
      "geometry": "POINT (-79.095844 33.518499)",
      "poi_name": "Harvest",
      "osm_id": 2723901536,
      "amenity": "restaurant",
      "cuisine": "american;seafood;contemporary",
      "opening_hours": "Mo-Su 11:00-15:00",
      "website": "https://austinsharvestrestaurant.com/",
      "phone": "+1 843 235 6030",
      "addr_state": "SC",
      "addr_city": "Murrells Inlet",
      "addr_postcode": "29576",
      "addr_street": "Brookgreen Garden Drive",
      "addr_housenumber": "1931"
    },
    {
      "id": 36943,
      "geometry": "POINT (-82.399096 34.850957)",
      "poi_name": "Bricktop's",
      "osm_id": 2791800988,
      "amenity": "restaurant",
      "cuisine": "american",
      "addr_state": "SC",
      "addr_city": "Greenville",
      "addr_postcode": "29601",
      "addr_street": "North Main Street",
      "addr_housenumber": "1"
    },
    {
      "id": 38796,
      "geometry": "POINT (-81.031587 33.997366)",
      "poi_name": "Hunter-Gatherer",
      "osm_id": 2883594785,
      "amenity": "restaurant",
      "cuisine": "american",
      "addr_state": "SC",
      "addr_city": "Columbia",
      "addr_postcode": "29201",
      "addr_street": "Main Street",
      "addr_housenumber": "900"
    },
    {
      "id": 40773,
      "geometry": "POINT (-80.581527 35.569751)",
      "poi_name": "China Grove Family House",
      "osm_id": 2982081640,
      "amenity": "restaurant",
      "cuisine": "american",
      "addr_state": "NC",
      "addr_city": "China Grove",
      "addr_postcode": "28023",
      "addr_street": "South Main Street",
      "addr_housenumber": "216"
    },
    {
      "id": 43991,
      "geometry": "POINT (-82.298683 34.827102)",
      "poi_name": "First Watch",
      "osm_id": 3139419649,
      "amenity": "restaurant",
      "cuisine": "american;breakfast",
      "website": "https://www.firstwatch.com/locations/woodruff-road/",
      "phone": "+1-864-259-2572",
      "official_name": "First Watch The Daytime Cafe",
      "addr_city": "Greenville",
      "addr_postcode": "29607",
      "addr_street": "Woodruff Road",
      "addr_housenumber": "1125"
    },
    {
      "id": 46436,
      "geometry": "POINT (-81.041476 34.000044)",
      "poi_name": "Carolina Ale House",
      "osm_id": 3265400306,
      "amenity": "restaurant",
      "cuisine": "american",
      "addr_state": "SC",
      "addr_city": "Columbia",
      "addr_postcode": "29201",
      "addr_street": "Lady Street",
      "addr_housenumber": "708"
    },
    {
      "id": 46716,
      "geometry": "POINT (-81.738888 33.638373)",
      "poi_name": "Waffle House",
      "osm_id": 3285154524,
      "amenity": "restaurant",
      "cuisine": "american",
      "opening_hours": "24/7",
      "website": "https://www.wafflehouse.com/",
      "phone": "803-643-0443",
      "addr_state": "SC",
      "addr_city": "Aiken",
      "addr_postcode": "29801",
      "addr_street": "Frontage Road",
      "addr_housenumber": "105"
    },
    {
      "id": 49219,
      "geometry": "POINT (-79.769337 35.361052)",
      "poi_name": "Waffle House",
      "osm_id": 3418804523,
      "amenity": "restaurant",
      "cuisine": "american",
      "opening_hours": "24/7",
      "phone": "+19104284011",
      "addr_state": "NC",
      "addr_city": "Biscoe",
      "addr_postcode": "27209",
      "addr_street": "East Main Street",
      "addr_housenumber": "550"
    },
    {
      "id": 49299,
      "geometry": "POINT (-82.257329 34.704573)",
      "poi_name": "First Watch",
      "osm_id": 3424925305,
      "amenity": "restaurant",
      "cuisine": "american;breakfast",
      "official_name": "First Watch The Daytime Cafe",
      "addr_state": "SC",
      "addr_city": "Simpsonville",
      "addr_postcode": "29680",
      "addr_street": "Harrison Bridge Road",
      "addr_housenumber": "375"
    },
    {
      "id": 51686,
      "geometry": "POINT (-82.397757 34.851463)",
      "poi_name": "Ink n Ivy",
      "osm_id": 550547305,
      "amenity": "restaurant",
      "cuisine": "american",
      "website": "https://www.greenville.inkanivy.com/",
      "outdoor_seating": "yes",
      "addr_city": "Greenville",
      "addr_postcode": "29601",
      "addr_street": "East Coffee Street",
      "addr_housenumber": "21"
    },
    {
      "id": 53869,
      "geometry": "POINT (-82.239511 34.909096)",
      "poi_name": "A&P",
      "osm_id": 10102145311,
      "amenity": "restaurant",
      "cuisine": "american",
      "opening_hours": "Mo-Sa 07:00-21:00",
      "website": "https://www.aandprestaurant.com/",
      "internet_access": "no",
      "phone": "+1 864 801-8018",
      "takeaway": "yes",
      "addr_state": "SC",
      "addr_city": "Greer",
      "addr_postcode": "29651",
      "addr_street": "Highway 14 South",
      "addr_housenumber": "1526"
    },
    {
      "id": 54201,
      "geometry": "POINT (-81.576907 34.309981)",
      "poi_name": "Waffle House",
      "osm_id": 10120313124,
      "amenity": "restaurant",
      "cuisine": "american",
      "opening_hours": "24/7",
      "website": "https://locations.wafflehouse.com/newberry-sc-926/",
      "phone": "+1 803 276 9022",
      "addr_state": "SC",
      "addr_city": "Newberry",
      "addr_postcode": "29108",
      "addr_street": "Thomas Griffin Road",
      "addr_housenumber": "25"
    },
    {
      "id": 54334,
      "geometry": "POINT (-79.224696 34.977008)",
      "poi_name": "Wangz Bar and Grill",
      "osm_id": 10128195825,
      "amenity": "restaurant",
      "cuisine": "chicken;american",
      "opening_hours": "Mo-Th 11:00-18:00; Fr-Su 11:00-00:00",
      "website": "https://wangz.business.site/?utm_source=gmb&utm_medium=referral",
      "phone": "+19104793051",
      "addr_state": "NC",
      "addr_city": "Raeford",
      "addr_postcode": "28376",
      "addr_street": "South Main Street",
      "addr_housenumber": "216"
    },
    {
      "id": 54335,
      "geometry": "POINT (-79.224694 34.976538)",
      "poi_name": "Edinborough Family Restaurant",
      "osm_id": 10128195827,
      "amenity": "restaurant",
      "cuisine": "burger;american",
      "phone": "+19108752826",
      "addr_state": "NC",
      "addr_city": "Raeford",
      "addr_postcode": "28376",
      "addr_street": "South Main Street",
      "addr_housenumber": "234"
    },
    {
      "id": 54373,
      "geometry": "POINT (-81.597006 34.284511)",
      "poi_name": "Huddle House",
      "osm_id": 10129689551,
      "amenity": "restaurant",
      "cuisine": "american",
      "opening_hours": "Mo-Su 06:00-22:00",
      "website": "https://locations.huddlehouse.com/sc/newberry/1264-wilson-road",
      "phone": "+1 803 597 1711",
      "addr_state": "SC",
      "addr_city": "Newberry",
      "addr_postcode": "29108",
      "addr_street": "Wilson Road",
      "addr_housenumber": "1264"
    },
    {
      "id": 55816,
      "geometry": "POINT (-78.809354 33.854699)",
      "poi_name": "Grand Slam Cafe",
      "osm_id": 10208610926,
      "amenity": "restaurant",
      "cuisine": "american",
      "website": "https://grandslammb.com/",
      "phone": "843-390-2299",
      "addr_state": "SC",
      "addr_city": "Longs",
      "addr_postcode": "29568",
      "addr_street": "SC-90",
      "addr_housenumber": "7066"
    },
    {
      "id": 55817,
      "geometry": "POINT (-78.809815 33.854616)",
      "poi_name": "Reckless Rooster",
      "osm_id": 10208610927,
      "amenity": "restaurant",
      "cuisine": "american",
      "website": "https://www.recklessrooster.com/",
      "phone": "843-390-0361",
      "addr_state": "SC",
      "addr_city": "Longs",
      "addr_postcode": "29568",
      "addr_street": "SC-90",
      "addr_housenumber": "7050"
    },
    {
      "id": 55818,
      "geometry": "POINT (-78.80535 33.856303)",
      "poi_name": "Bistro90",
      "osm_id": 10208610964,
      "amenity": "restaurant",
      "cuisine": "american",
      "website": "https://bistro90.com",
      "phone": "843-390-5151",
      "addr_state": "SC",
      "addr_city": "Longs",
      "addr_postcode": "29568",
      "addr_street": "SC-90",
      "addr_housenumber": "7209"
    },
    {
      "id": 55840,
      "geometry": "POINT (-82.065301 34.887905)",
      "poi_name": "Cribbs Kitchen Tyger River",
      "osm_id": 10210646795,
      "amenity": "restaurant",
      "cuisine": "american",
      "website": "https://www.cribbskitchen.com/location/cribbs-kitchen-moore/",
      "phone": "+18646101537",
      "addr_state": "SC",
      "addr_city": "Moore",
      "addr_postcode": "29369",
      "addr_street": "Reidville Road",
      "addr_housenumber": "5850"
    },
    {
      "id": 57452,
      "geometry": "POINT (-81.510681 33.918314)",
      "poi_name": "HEbrews",
      "osm_id": 5337103210,
      "amenity": "restaurant",
      "cuisine": "coffee_shop;american",
      "addr_state": "SC",
      "addr_city": "Batesburg-Leesville",
      "addr_postcode": "29070",
      "addr_street": "East Railroad Avenue",
      "addr_housenumber": "442"
    },
    {
      "id": 58303,
      "geometry": "POINT (-81.814668 33.151708)",
      "poi_name": "Pointers Grill at Hancock Landing",
      "osm_id": 5370422374,
      "amenity": "restaurant",
      "cuisine": "american",
      "opening_hours": "Mo-We 10:30-22:00; Th-Fr 10:30-24:00; Sa 18:00-24:00",
      "website": "http://pointersgrill.com/",
      "phone": "+1 706-554-5222",
      "takeaway": "yes",
      "addr_state": "GA",
      "addr_city": "Waynesboro",
      "addr_postcode": "30830",
      "addr_street": "Hancock Landing Road",
      "addr_housenumber": "2056"
    },
    {
      "id": 58502,
      "geometry": "POINT (-81.935108 34.948226)",
      "poi_name": "Level 10",
      "osm_id": 5379847687,
      "amenity": "restaurant",
      "cuisine": "american;tapas;drinks",
      "opening_hours": "Mo-Sa 16:30-23:59",
      "website": "https://www.level10sc.com/",
      "phone": "(864) 596-5069",
      "outdoor_seating": "yes",
      "addr_state": "SC",
      "addr_city": "Spartanburg",
      "addr_postcode": "29306",
      "addr_street": "West Main Street",
      "addr_housenumber": "225"
    },
    {
      "id": 60840,
      "geometry": "POINT (-79.394941 35.171456)",
      "poi_name": "Scott's Table",
      "osm_id": 5484634432,
      "amenity": "restaurant",
      "cuisine": "burger;sandwich;american;steak_house;seafood;chicken",
      "opening_hours": "Tu-Th 11:00-15:00; Fr, Sa 11:00-15:00, 17:00-21:00",
      "capacity": "100",
      "takeaway": "yes",
      "outdoor_seating": "no",
      "addr_state": "NC",
      "addr_city": "Southern Pines",
      "addr_postcode": "28387",
      "addr_street": "Southeast Broad Street",
      "addr_housenumber": "311"
    },
    {
      "id": 61079,
      "geometry": "POINT (-79.946616 32.798849)",
      "poi_name": "Little Jacks Tavern",
      "osm_id": 5497692847,
      "amenity": "restaurant",
      "cuisine": "american",
      "wheelchair": "yes",
      "opening_hours": "Mo-Su 11:00-22:00",
      "addr_state": "SC",
      "addr_city": "Charleston",
      "addr_postcode": "29403",
      "addr_street": "King Street",
      "addr_housenumber": "710"
    },
    {
      "id": 61089,
      "geometry": "POINT (-79.940276 32.791332)",
      "poi_name": "King Street Public House",
      "osm_id": 5497710374,
      "amenity": "restaurant",
      "cuisine": "american",
      "addr_state": "SC",
      "addr_city": "Charleston",
      "addr_postcode": "29403",
      "addr_street": "King Street",
      "addr_housenumber": "549"
    },
    {
      "id": 68947,
      "geometry": "POINT (-80.855501 35.217089)",
      "poi_name": "STIR",
      "osm_id": 11289651371,
      "amenity": "restaurant",
      "cuisine": "american",
      "website": "https://stircharlotte.com/",
      "phone": "+19802090277",
      "addr_state": "NC",
      "addr_city": "Charlotte",
      "addr_postcode": "28203",
      "addr_street": "South Tryon Street",
      "addr_housenumber": "1422"
    },
    {
      "id": 70429,
      "geometry": "POINT (-80.822031 35.186586)",
      "poi_name": "Providence Road Sundries",
      "osm_id": 11362664694,
      "amenity": "restaurant",
      "cuisine": "american;burger;sandwich",
      "opening_hours": "Su-We 11:00-21:00; Th-Sa 11:00-22:00",
      "website": "https://providenceroadsundries.com",
      "phone": "+1-704-366-4467",
      "addr_state": "NC",
      "addr_city": "Charlotte",
      "addr_postcode": "28207",
      "addr_street": "Providence Road",
      "addr_housenumber": "1522"
    },
    {
      "id": 70365,
      "geometry": "POINT (-80.84348 35.224668)",
      "poi_name": "Showmars",
      "osm_id": 11360379003,
      "amenity": "restaurant",
      "cuisine": "american;greek",
      "opening_hours": "Mo-Fr 07:30-15:00",
      "addr_state": "NC",
      "addr_city": "Charlotte",
      "addr_postcode": "28202",
      "addr_street": "South College Street",
      "addr_housenumber": "201"
    },
    {
      "id": 70765,
      "geometry": "POINT (-80.806265 35.171857)",
      "poi_name": "Eddie's Place",
      "osm_id": 11374017449,
      "amenity": "restaurant",
      "cuisine": "american",
      "website": "https://www.eddiesplacerestaurant.com",
      "phone": "+1-704-442-0147",
      "addr_state": "NC",
      "addr_city": "Charlotte",
      "addr_postcode": "28211",
      "addr_street": "South Sharon Amity Road",
      "addr_housenumber": "617"
    },
    {
      "id": 75008,
      "geometry": "POINT (-78.871932 33.699695)",
      "poi_name": "Lulu\u2019s Cafe",
      "osm_id": 9707375417,
      "amenity": "restaurant",
      "cuisine": "american",
      "addr_state": "SC",
      "addr_city": "Myrtle Beach",
      "addr_postcode": "29577",
      "addr_street": "North Ocean Boulevard",
      "addr_housenumber": "1903"
    },
    {
      "id": 75024,
      "geometry": "POINT (-81.477548 35.590973)",
      "poi_name": "Cooksville Grill, LLC",
      "osm_id": 9707727928,
      "amenity": "restaurant",
      "cuisine": "american",
      "phone": "+17044624040",
      "addr_state": "NC",
      "addr_city": "Vale",
      "addr_postcode": "28168",
      "addr_street": "Old Shelby Road",
      "addr_housenumber": "6861"
    },
    {
      "id": 76877,
      "geometry": "POINT (-79.421562 35.165568)",
      "poi_name": "Kickback Jack\u2019s",
      "osm_id": 9795783414,
      "amenity": "restaurant",
      "cuisine": "american",
      "addr_state": "NC",
      "addr_city": "Southern Pines",
      "addr_postcode": "28387",
      "addr_street": "US 15/501",
      "addr_housenumber": "10745"
    },
    {
      "id": 75983,
      "geometry": "POINT (-80.092778 34.977941)",
      "poi_name": "Waffle House",
      "osm_id": 9754446856,
      "amenity": "restaurant",
      "cuisine": "american",
      "opening_hours": "24/7",
      "phone": "+17046943614",
      "addr_state": "NC",
      "addr_city": "Wadesboro",
      "addr_postcode": "28170",
      "addr_street": "US-74 West",
      "addr_housenumber": "1325"
    },
    {
      "id": 83428,
      "geometry": "POINT (-78.924157 34.94215)",
      "poi_name": "Fred Chason's Grandsons",
      "osm_id": 1744522454,
      "amenity": "restaurant",
      "cuisine": "american",
      "phone": "+19108604899",
      "addr_state": "NC",
      "addr_city": "Hope Mills",
      "addr_postcode": "28348",
      "addr_street": "Marracco Drive",
      "addr_housenumber": "5339"
    },
    {
      "id": 82988,
      "geometry": "POINT (-79.809104 34.18854)",
      "poi_name": "Red Bone Alley",
      "osm_id": 1724584854,
      "amenity": "restaurant",
      "cuisine": "american",
      "wheelchair": "yes",
      "website": "https://www.redbonealley.com/",
      "takeaway": "yes",
      "outdoor_seating": "yes",
      "addr_state": "SC",
      "addr_city": "Florence",
      "addr_postcode": "29501",
      "addr_street": "West Palmetto Street",
      "addr_housenumber": "1903"
    },
    {
      "id": 82868,
      "geometry": "POINT (-80.4231 35.234796)",
      "poi_name": "Wayside Family Restaurant",
      "osm_id": 1716441587,
      "amenity": "restaurant",
      "cuisine": "american",
      "addr_state": "NC",
      "addr_postcode": "28163",
      "addr_street": "Hwy. 200"
    },
    {
      "id": 87614,
      "geometry": "POINT (-82.186556 34.680144)",
      "poi_name": "Pete's Diner",
      "osm_id": 8726347129,
      "amenity": "restaurant",
      "cuisine": "american",
      "addr_state": "SC",
      "addr_city": "Fountain Inn",
      "addr_postcode": "29644",
      "addr_street": "South Main Street",
      "addr_housenumber": "911"
    },
    {
      "id": 99544,
      "geometry": "POINT (-82.25705 34.739783)",
      "poi_name": "Mary's Lunchbox",
      "osm_id": 6556123387,
      "amenity": "restaurant",
      "cuisine": "american",
      "addr_state": "SC",
      "addr_city": "Simpsonville",
      "addr_postcode": "29680",
      "addr_street": "North Main Street",
      "addr_housenumber": "215"
    },
    {
      "id": 90447,
      "geometry": "POINT (-79.928633 32.782476)",
      "poi_name": "Cru Cafe",
      "osm_id": 1997250850,
      "amenity": "restaurant",
      "cuisine": "american",
      "outdoor_seating": "yes",
      "addr_city": "Charleston",
      "addr_postcode": "29401",
      "addr_street": "Pinckney Street",
      "addr_housenumber": "18"
    },
    {
      "id": 99381,
      "geometry": "POINT (-82.038681 35.089904)",
      "poi_name": "Kitchen 292",
      "osm_id": 6549805284,
      "amenity": "restaurant",
      "cuisine": "american",
      "wheelchair": "yes",
      "internet_access": "no",
      "takeaway": "no",
      "outdoor_seating": "no",
      "delivery": "no",
      "addr_state": "SC",
      "addr_city": "Inman",
      "addr_postcode": "29349",
      "addr_street": "Highway 292",
      "addr_housenumber": "2870"
    },
    {
      "id": 100977,
      "geometry": "POINT (-80.113167 35.634362)",
      "poi_name": "Village Restaurant",
      "osm_id": 6606832078,
      "amenity": "restaurant",
      "cuisine": "american",
      "opening_hours": "Mo-Sa 05:00-21:00",
      "phone": "+1-336-859-9259",
      "addr_state": "NC",
      "addr_city": "Denton",
      "addr_postcode": "27239",
      "addr_street": "North Main Street"
    },
    {
      "id": 105172,
      "geometry": "POINT (-79.836827 34.19095)",
      "poi_name": "Outback Steakhouse",
      "osm_id": 8608615365,
      "amenity": "restaurant",
      "cuisine": "american;steak",
      "addr_state": "SC",
      "addr_city": "Florence",
      "addr_postcode": "29501",
      "addr_street": "Dunbarton Drive",
      "addr_housenumber": "110"
    },
    {
      "id": 112240,
      "geometry": "POINT (-80.848368 35.499905)",
      "poi_name": "Kindred",
      "osm_id": 3784223414,
      "amenity": "restaurant",
      "cuisine": "american",
      "addr_state": "NC",
      "addr_city": "Davidson",
      "addr_postcode": "28036",
      "addr_street": "North Main Street",
      "addr_housenumber": "131"
    },
    {
      "id": 113751,
      "geometry": "POINT (-79.865668 32.810477)",
      "poi_name": "Water Dog Grill",
      "osm_id": 3844731540,
      "amenity": "restaurant",
      "cuisine": "american",
      "opening_hours": "11:00-02:00",
      "takeaway": "yes",
      "addr_state": "SC",
      "addr_city": "Mount Pleasant",
      "addr_postcode": "29464",
      "addr_street": "Johnnie Dodds Boulevard",
      "addr_housenumber": "1035"
    },
    {
      "id": 119646,
      "geometry": "POINT (-79.096721 33.468976)",
      "poi_name": "Austin's Ocean One",
      "osm_id": 9111975684,
      "amenity": "restaurant",
      "cuisine": "american;fine_dining;seafood",
      "opening_hours": "Tu-Sa 17:00-21:00",
      "website": "https://austinsrestaurantgroup.com/",
      "phone": "1 843 235 8700",
      "addr_state": "SC",
      "addr_city": "Litchfield Beach",
      "addr_postcode": "29585",
      "addr_street": "Norris Drive",
      "addr_housenumber": "1"
    },
    {
      "id": 119120,
      "geometry": "POINT (-81.1396 34.066175)",
      "poi_name": "The Peanut Man",
      "osm_id": 9082959165,
      "amenity": "restaurant",
      "cuisine": "american",
      "opening_hours": "Mo-Sa 10:00-18:00",
      "website": "https://www.thepeanutman.com/",
      "phone": "+1 803 724 2118",
      "addr_state": "SC",
      "addr_city": "Columbia",
      "addr_postcode": "29210",
      "addr_street": "Fernandina Road",
      "addr_housenumber": "3905"
    },
    {
      "id": 119362,
      "geometry": "POINT (-80.840994 35.226711)",
      "poi_name": "Rooster's Wood-fired Kitchen",
      "osm_id": 9099545873,
      "amenity": "restaurant",
      "cuisine": "american",
      "addr_state": "NC",
      "addr_city": "Charlotte",
      "addr_postcode": "28202",
      "addr_street": "North College Street",
      "addr_housenumber": "150"
    },
    {
      "id": 129052,
      "geometry": "POINT (-79.163674 33.424491)",
      "poi_name": "South End Bistro",
      "osm_id": 8204157542,
      "amenity": "restaurant",
      "cuisine": "pizza;american",
      "description": "Pizza and Calzones",
      "opening_hours": "Mo-Sa 08:00-23:00",
      "website": "https://www.facebook.com/southendbistro",
      "phone": "+1-843-885-1519",
      "outdoor_seating": "yes",
      "addr_state": "SC",
      "addr_city": "Pawleys Island",
      "addr_postcode": "29585",
      "addr_street": "Ocean Highway",
      "addr_housenumber": "8151"
    },
    {
      "id": 121085,
      "geometry": "POINT (-81.48422 35.267959)",
      "poi_name": "Ruby Tuesday",
      "osm_id": 6742526232,
      "amenity": "restaurant",
      "cuisine": "american",
      "phone": "(704) 481-1925",
      "addr_state": "NC",
      "addr_city": "Shelby",
      "addr_postcode": "28152",
      "addr_street": "East Dixon Boulevard",
      "addr_housenumber": "2003"
    },
    {
      "id": 121087,
      "geometry": "POINT (-81.481034 35.267026)",
      "poi_name": "Denny's",
      "osm_id": 6742526236,
      "amenity": "restaurant",
      "cuisine": "american",
      "phone": "+1 (704) 487-1310",
      "addr_state": "NC",
      "addr_city": "Shelby",
      "addr_postcode": "28152",
      "addr_street": "East Dixon Boulevard",
      "addr_housenumber": "2025"
    },
    {
      "id": 132181,
      "geometry": "POINT (-80.843597 35.213485)",
      "poi_name": "Dilworth Neighborhood Grille",
      "osm_id": 9945667027,
      "amenity": "restaurant",
      "cuisine": "american;burger",
      "website": "https://www.dilworthgrille.com/",
      "addr_state": "NC",
      "addr_city": "Charlotte",
      "addr_postcode": "28210",
      "addr_street": "East Morehead Street",
      "addr_housenumber": "911"
    },
    {
      "id": 135722,
      "geometry": "POINT (-79.09305 33.861529)",
      "poi_name": "Waffle House",
      "osm_id": 11532512563,
      "amenity": "restaurant",
      "cuisine": "american",
      "opening_hours": "24/7",
      "website": "https://locations.wafflehouse.com/conway-sc-1706",
      "phone": "+1-843-365-9880",
      "addr_state": "SC",
      "addr_city": "Conway",
      "addr_postcode": "29526",
      "addr_street": "Church Street",
      "addr_housenumber": "2905"
    },
    {
      "id": 136176,
      "geometry": "POINT (-81.001045 33.987949)",
      "poi_name": "The Hoot",
      "osm_id": 11569298915,
      "amenity": "restaurant",
      "cuisine": "american",
      "opening_hours": "Mo-Su 16:00-00:00",
      "website": "https://www.hootcolumbia.com/",
      "addr_state": "SC",
      "addr_city": "Columbia",
      "addr_postcode": "29205",
      "addr_street": "Rosewood Drive",
      "addr_housenumber": "2910"
    },
    {
      "id": 149101,
      "geometry": "POINT (-80.77073 35.342386)",
      "poi_name": "Kasper's Grill",
      "osm_id": 3996527058,
      "amenity": "restaurant",
      "cuisine": "american",
      "addr_state": "NC",
      "addr_city": "Charlotte",
      "addr_postcode": "28269",
      "addr_street": "Driwood Court",
      "addr_housenumber": "3130"
    },
    {
      "id": 141910,
      "geometry": "POINT (-82.036622 34.738489)",
      "poi_name": "Claudio's Bistro",
      "osm_id": 6299660496,
      "amenity": "restaurant",
      "cuisine": "american",
      "website": "https://claudiosbistro.com/",
      "addr_state": "SC",
      "addr_city": "Woodruff",
      "addr_postcode": "29388",
      "addr_street": "South Main Street",
      "addr_housenumber": "206"
    },
    {
      "id": 141625,
      "geometry": "POINT (-81.998912 34.942331)",
      "poi_name": "Heirloom - A Milltown Eatery",
      "osm_id": 6291906302,
      "amenity": "restaurant",
      "cuisine": "southern;american",
      "website": "https://heirloomsc.com/",
      "phone": "864-913-1200",
      "addr_state": "SC",
      "addr_city": "Spartanburg",
      "addr_postcode": "29301",
      "addr_street": "Spartan Boulevard",
      "addr_housenumber": "805"
    },
    {
      "id": 142636,
      "geometry": "POINT (-81.966662 34.98098)",
      "poi_name": "Lil Rick's East",
      "osm_id": 6319252677,
      "amenity": "restaurant",
      "cuisine": "american",
      "addr_state": "SC",
      "addr_city": "Spartanburg",
      "addr_postcode": "29303",
      "addr_street": "Asheville Highway",
      "addr_housenumber": "1523"
    },
    {
      "id": 143452,
      "geometry": "POINT (-79.04767 34.623518)",
      "poi_name": "Huddle House",
      "osm_id": 6341002502,
      "amenity": "restaurant",
      "cuisine": "american",
      "phone": "(910) 738-8084",
      "addr_state": "NC",
      "addr_city": "Lumberton",
      "addr_postcode": "28358",
      "addr_street": "West 5th Street",
      "addr_housenumber": "2806"
    },
    {
      "id": 144054,
      "geometry": "POINT (-81.895142 35.022095)",
      "poi_name": "Waffle House",
      "osm_id": 6361315394,
      "amenity": "restaurant",
      "cuisine": "american",
      "opening_hours": "24/7",
      "addr_state": "SC",
      "addr_city": "Spartanburg",
      "addr_postcode": "29303",
      "addr_street": "Chesnee Highway",
      "addr_housenumber": "2230"
    },
    {
      "id": 145449,
      "geometry": "POINT (-78.894468 33.67877)",
      "poi_name": "99 Bar & Grill",
      "osm_id": 7358654174,
      "amenity": "restaurant",
      "cuisine": "american;pizza;burger",
      "opening_hours": "Mo-Su 10:00-22:00",
      "addr_state": "SC",
      "addr_city": "Myrtle Beach",
      "addr_postcode": "29577",
      "addr_street": "South Ocean Boulevard",
      "addr_housenumber": "703"
    },
    {
      "id": 150557,
      "geometry": "POINT (-80.857653 35.594324)",
      "poi_name": "Waffle House",
      "osm_id": 4059098982,
      "amenity": "restaurant",
      "cuisine": "american",
      "opening_hours": "24/7",
      "addr_state": "NC",
      "addr_city": "Mooresville",
      "addr_postcode": "28117",
      "addr_street": "Days Inn Drive",
      "addr_housenumber": "111"
    },
    {
      "id": 151624,
      "geometry": "POINT (-80.829184 33.550395)",
      "poi_name": "FATZ Cafe",
      "osm_id": 4107509019,
      "amenity": "restaurant",
      "cuisine": "american",
      "opening_hours": "Mo-Th 11:00-23:00; Fr-Sa 11:00-24:00; Su 11:00-22:00",
      "website": "https://fatz.com/",
      "phone": "+1 803 534 8000",
      "addr_state": "SC",
      "addr_city": "Orangeburg",
      "addr_postcode": "29115",
      "addr_street": "St Matthews Road",
      "addr_housenumber": "3575"
    },
    {
      "id": 157062,
      "geometry": "POINT (-79.931568 32.779457)",
      "poi_name": "Toast",
      "osm_id": 4684443710,
      "amenity": "restaurant",
      "cuisine": "american",
      "opening_hours": "06:00-22:00",
      "website": "http://toastofcharleston.com",
      "addr_city": "Charleston",
      "addr_postcode": "29401",
      "addr_street": "Meeting Street",
      "addr_housenumber": "155"
    },
    {
      "id": 156241,
      "geometry": "POINT (-80.178395 35.343562)",
      "poi_name": "Applebee's",
      "osm_id": 4644522039,
      "amenity": "restaurant",
      "cuisine": "american",
      "official_name": "Applebee's Neighborhood Grill & Bar",
      "addr_state": "NC",
      "addr_city": "Albemarle",
      "addr_postcode": "28001",
      "addr_street": "NC 24-27",
      "addr_housenumber": "517"
    },
    {
      "id": 160824,
      "geometry": "POINT (-81.908743 34.97009)",
      "poi_name": "Dray Bar and Grill",
      "osm_id": 4848892518,
      "amenity": "restaurant",
      "cuisine": "american",
      "website": "https://www.draybarandgrill.com/",
      "phone": "(864) 310-4177",
      "outdoor_seating": "yes",
      "addr_state": "SC",
      "addr_city": "Spartanburg",
      "addr_postcode": "29307",
      "addr_street": "Drayton Road",
      "addr_housenumber": "1800"
    },
    {
      "id": 159572,
      "geometry": "POINT (-81.035693 34.006532)",
      "poi_name": "Main Street Public House",
      "osm_id": 4797562959,
      "amenity": "restaurant",
      "cuisine": "american",
      "opening_hours": "11:00-02:00",
      "outdoor_seating": "no",
      "addr_state": "SC",
      "addr_city": "Columbia",
      "addr_postcode": "29201",
      "addr_street": "Main Street",
      "addr_housenumber": "1556"
    },
    {
      "id": 157666,
      "geometry": "POINT (-82.364294 34.843206)",
      "poi_name": "Liberty Cafe",
      "osm_id": 4718701589,
      "amenity": "restaurant",
      "cuisine": "american",
      "website": "https://libertycafegreenville.us/",
      "addr_city": "Greenville",
      "addr_postcode": "29607",
      "addr_street": "Liberty Lane",
      "addr_housenumber": "33"
    },
    {
      "id": 161695,
      "geometry": "POINT (-80.427605 33.52104)",
      "poi_name": "The Lake House",
      "osm_id": 4895749922,
      "amenity": "restaurant",
      "cuisine": "american;seafood;steak_house",
      "addr_state": "SC",
      "addr_city": "Summerton",
      "addr_postcode": "29148",
      "addr_street": "Dingle Pond Road",
      "addr_housenumber": "5321"
    },
    {
      "id": 161210,
      "geometry": "POINT (-82.400933 34.838512)",
      "poi_name": "Farm Fresh Fast",
      "osm_id": 4870216404,
      "amenity": "restaurant",
      "cuisine": "american",
      "website": "https://eatfarmfreshfast.com",
      "takeaway": "yes",
      "addr_city": "Greenville",
      "addr_postcode": "29601",
      "addr_street": "South Church Street",
      "addr_housenumber": "860"
    },
    {
      "id": 163478,
      "geometry": "POINT (-80.142043 32.937044)",
      "poi_name": "Top Dawg Tavern",
      "osm_id": 9421031195,
      "amenity": "restaurant",
      "cuisine": "burger;american",
      "outdoor_seating": "yes",
      "addr_state": "SC",
      "addr_city": "Charleston",
      "addr_postcode": "29485",
      "addr_street": "Dorchester Road",
      "addr_housenumber": "9514"
    },
    {
      "id": 162887,
      "geometry": "POINT (-81.24654 33.987322)",
      "poi_name": "Lulu's",
      "osm_id": 9388162604,
      "amenity": "restaurant",
      "cuisine": "latin_american",
      "phone": "+1 803 520 4140",
      "addr_state": "SC",
      "addr_city": "Lexington",
      "addr_postcode": "29072",
      "addr_street": "Old Chapin Road",
      "addr_housenumber": "109"
    },
    {
      "id": 183047,
      "geometry": "POINT (-79.813943 35.705563)",
      "poi_name": "Magnolia 23",
      "osm_id": 10914826620,
      "amenity": "restaurant",
      "cuisine": "american;regional",
      "addr_state": "NC",
      "addr_city": "Asheboro",
      "addr_postcode": "27203",
      "addr_street": "South Fayetteville Street"
    },
    {
      "id": 184513,
      "geometry": "POINT (-81.531677 33.91318)",
      "poi_name": "Waffle House",
      "osm_id": 7796181621,
      "amenity": "restaurant",
      "cuisine": "american",
      "opening_hours": "24/7",
      "website": "https://wafflehouse.com/",
      "addr_state": "SC",
      "addr_city": "Batesburg-Leesville",
      "addr_postcode": "29070",
      "addr_street": "West Church Street",
      "addr_housenumber": "130"
    },
    {
      "id": 184441,
      "geometry": "POINT (-81.439091 34.019881)",
      "poi_name": "Charley's Fisherman's Wharf",
      "osm_id": 7791583273,
      "amenity": "restaurant",
      "cuisine": "american;seafood",
      "phone": "803 532 1205",
      "addr_state": "SC",
      "addr_city": "Leesville",
      "addr_postcode": "29070",
      "addr_street": "Highway 378",
      "addr_housenumber": "3224"
    },
    {
      "id": 184668,
      "geometry": "POINT (-81.428442 34.016801)",
      "poi_name": "Highway 378 Bar and Grill",
      "osm_id": 7805135721,
      "amenity": "restaurant",
      "cuisine": "american",
      "addr_state": "SC",
      "addr_city": "Gilbert",
      "addr_postcode": "29054",
      "addr_street": "Highway 378"
    },
    {
      "id": 185232,
      "geometry": "POINT (-81.305546 33.991126)",
      "poi_name": "Waffle House",
      "osm_id": 7839080371,
      "amenity": "restaurant",
      "cuisine": "american",
      "opening_hours": "24/7",
      "website": "https://www.wafflehouse.com/",
      "phone": "+1 803 951 2303",
      "addr_state": "SC",
      "addr_city": "Lexington",
      "addr_postcode": "29072",
      "addr_street": "Charter Oak Road",
      "addr_housenumber": "289"
    },
    {
      "id": 185233,
      "geometry": "POINT (-81.294422 33.992952)",
      "poi_name": "Goodfellas Grill and Bar",
      "osm_id": 7839080382,
      "amenity": "restaurant",
      "cuisine": "american",
      "website": "https://goodfellasgrillandbar.com/",
      "phone": "+1 803 951 4663",
      "addr_state": "SC",
      "addr_city": "Lexington",
      "addr_postcode": "29070",
      "addr_street": "Highway 378",
      "addr_housenumber": "760"
    },
    {
      "id": 195113,
      "geometry": "POINT (-79.017194 34.641847)",
      "poi_name": "Cracker Barrel",
      "osm_id": 10294709201,
      "amenity": "restaurant",
      "cuisine": "american",
      "phone": "(910) 738-1481",
      "official_name": "Cracker Barrel Old Country Store",
      "addr_state": "NC",
      "addr_city": "Lumberton",
      "addr_postcode": "28360",
      "addr_street": "Lackey Street",
      "addr_housenumber": "3375"
    },
    {
      "id": 185907,
      "geometry": "POINT (-81.261809 33.984819)",
      "poi_name": "Twisted Roots Bar and Grill",
      "osm_id": 7891429320,
      "amenity": "restaurant",
      "cuisine": "american",
      "website": "https://www.trsbargrill.com/",
      "phone": "+1 803 520 7727",
      "addr_state": "SC",
      "addr_city": "Lexington",
      "addr_postcode": "29072",
      "addr_street": "Highway 378",
      "addr_housenumber": "168"
    },
    {
      "id": 186343,
      "geometry": "POINT (-81.238284 34.0117)",
      "poi_name": "LJ's Par & Grill",
      "osm_id": 7926269476,
      "amenity": "restaurant",
      "cuisine": "american",
      "opening_hours": "Mo-Su 09:00-23:00",
      "phone": "+1 803 356 4653",
      "addr_state": "SC",
      "addr_city": "Lexington",
      "addr_postcode": "29072",
      "addr_street": "Pilgrim Church Road",
      "addr_housenumber": "381"
    },
    {
      "id": 189939,
      "geometry": "POINT (-81.981676 34.923484)",
      "poi_name": "Outback Steakhouse",
      "osm_id": 1257467589,
      "amenity": "restaurant",
      "cuisine": "american;steak",
      "website": "https://www.outback.com/",
      "phone": "+1 864-574-4329",
      "addr_city": "Spartanburg",
      "addr_postcode": "29301",
      "addr_street": "John B White Sr Boulevard",
      "addr_housenumber": "1646"
    },
    {
      "id": 195729,
      "geometry": "POINT (-80.864964 35.436641)",
      "poi_name": "Taste of Buffalo Pizzeria",
      "osm_id": 10379601718,
      "amenity": "restaurant",
      "cuisine": "pizza;sandwich;chicken;wings;american;beer",
      "description": "Welcome to Taste of Buffalo Pizzeria in Huntersville, North Carolina! Our family owned and operated pizzeria features favorites straight from the heart of Western New York! Traditional Pizza and Authentic Buffalo Wings are our specialty. We also feature S",
      "sport": "nfl;nhl;football;hockey;buffalo_bills;buffalo_sabres;ncaa_football",
      "website": "https://www.tasteofbuffalopizzeria.com/our-menu/",
      "phone": "704-439-0546",
      "outdoor_seating": "yes",
      "delivery": "yes",
      "toilets": "yes",
      "addr_state": "NC",
      "addr_city": "Huntersville",
      "addr_postcode": "28078",
      "addr_street": "Sherrill Estates Road",
      "addr_housenumber": "9610B"
    },
    {
      "id": 201017,
      "geometry": "POINT (-82.311449 34.834377)",
      "poi_name": "Twin Peaks",
      "osm_id": 606295212,
      "amenity": "restaurant",
      "cuisine": "american",
      "website": "http://www.twinpeaksrestaurant.com/",
      "phone": "+1 864 326 4080",
      "addr_state": "SC",
      "addr_city": "Greenville",
      "addr_postcode": "29607",
      "addr_street": "Woodruff",
      "addr_housenumber": "1034"
    },
    {
      "id": 200193,
      "geometry": "POINT (-82.399483 34.849088)",
      "poi_name": "Carolina Ale House",
      "osm_id": 1022490456,
      "amenity": "restaurant",
      "cuisine": "american",
      "website": "https://www.carolinaalehouse.com/",
      "addr_state": "SC",
      "addr_city": "Greenville",
      "addr_postcode": "29601",
      "addr_street": "South Main Street",
      "addr_housenumber": "113"
    },
    {
      "id": 201088,
      "geometry": "POINT (-82.40878 34.843076)",
      "poi_name": "The Bellwether",
      "osm_id": 611964731,
      "amenity": "restaurant",
      "cuisine": "american",
      "addr_state": "SC",
      "addr_city": "Greenville",
      "addr_postcode": "29601",
      "addr_street": "South Main Street",
      "addr_housenumber": "941"
    },
    {
      "id": 208323,
      "geometry": "POINT (-81.35382 34.166942)",
      "poi_name": "Zorba's Greek Restaurant and Sports Bar",
      "osm_id": 4987083323,
      "amenity": "restaurant",
      "cuisine": "greek;american",
      "opening_hours": "Mo-Th 10:30-22:00, Fr-Sa 10:30-23:00, Su 10:30-21:30",
      "outdoor_seating": "no",
      "addr_state": "SC",
      "addr_city": "Chapin",
      "addr_postcode": "29036",
      "addr_street": "Chapin Road",
      "addr_housenumber": "1260"
    },
    {
      "id": 202033,
      "geometry": "POINT (-80.071948 34.37243)",
      "poi_name": "Applebee's",
      "osm_id": 672851653,
      "amenity": "restaurant",
      "cuisine": "american",
      "official_name": "Applebee's Neighborhood Grill & Bar",
      "addr_state": "SC"
    },
    {
      "id": 205346,
      "geometry": "POINT (-80.255602 35.82347)",
      "poi_name": "Village Grill",
      "osm_id": 7165274768,
      "amenity": "restaurant",
      "cuisine": "american;greek;italian",
      "opening_hours": "Mo-Fr 07:00-21:00; Sa 06:00-21:00; Su 08:00-15:00",
      "website": "https://villagegrilloflexington.com",
      "phone": "+1-336-248-5900",
      "addr_state": "NC",
      "addr_city": "Lexington",
      "addr_postcode": "27292",
      "addr_street": "West 2nd Avenue",
      "addr_housenumber": "31"
    },
    {
      "id": 208287,
      "geometry": "POINT (-81.370947 34.080325)",
      "poi_name": "2Twenty2",
      "osm_id": 4986024015,
      "amenity": "restaurant",
      "cuisine": "american",
      "takeaway": "yes",
      "outdoor_seating": "yes",
      "delivery": "no",
      "addr_state": "SC",
      "addr_city": "Chapin",
      "addr_postcode": "29036",
      "addr_street": "Timberlake Drive",
      "addr_housenumber": "222"
    },
    {
      "id": 204203,
      "geometry": "POINT (-81.496078 35.271484)",
      "poi_name": "Waffle House",
      "osm_id": 7115789381,
      "amenity": "restaurant",
      "cuisine": "american",
      "opening_hours": "24/7",
      "addr_state": "NC",
      "addr_city": "Shelby",
      "addr_street": "East Dixon Boulevard",
      "addr_housenumber": "1808"
    },
    {
      "id": 205252,
      "geometry": "POINT (-81.540105 35.290405)",
      "poi_name": "Joe's Place Grill & Pub",
      "osm_id": 7161403326,
      "amenity": "restaurant",
      "cuisine": "american;italian;thai",
      "website": "https://www.doordash.com/store/joe-s-place-shelby-571512",
      "phone": "+1 (704) 419-2291",
      "addr_state": "NC",
      "addr_city": "Shelby",
      "addr_postcode": "28150",
      "addr_street": "South Lafayette Street",
      "addr_housenumber": "209"
    },
    {
      "id": 208326,
      "geometry": "POINT (-81.325627 34.176444)",
      "poi_name": "Waffle House",
      "osm_id": 4987083326,
      "amenity": "restaurant",
      "cuisine": "american",
      "opening_hours": "24/7",
      "outdoor_seating": "no",
      "addr_state": "SC",
      "addr_city": "Chapin",
      "addr_postcode": "29036",
      "addr_street": "Columbia Avenue",
      "addr_housenumber": "655"
    },
    {
      "id": 211419,
      "geometry": "POINT (-79.30773 34.505073)",
      "poi_name": "Waffle House",
      "osm_id": 5156180407,
      "amenity": "restaurant",
      "cuisine": "american",
      "opening_hours": "24/7",
      "phone": "+19104205838",
      "addr_state": "NC",
      "addr_city": "Rowland",
      "addr_postcode": "28383",
      "addr_street": "US 301 South",
      "addr_housenumber": "14860"
    },
    {
      "id": 214564,
      "geometry": "POINT (-81.095751 34.041482)",
      "poi_name": "Applebee's",
      "osm_id": 5275018074,
      "amenity": "restaurant",
      "cuisine": "american",
      "official_name": "Applebee's Neighborhood Grill & Bar",
      "addr_state": "SC"
    },
    {
      "id": 220771,
      "geometry": "POINT (-80.595705 34.219835)",
      "poi_name": "Waffle House",
      "osm_id": 9385173182,
      "amenity": "restaurant",
      "cuisine": "american",
      "opening_hours": "24/7",
      "website": "https://locations.wafflehouse.com/camden-sc-1692",
      "phone": "+1 803 713 0231",
      "addr_state": "SC",
      "addr_city": "Camden",
      "addr_postcode": "29020",
      "addr_street": "Sumter Highway",
      "addr_housenumber": "425"
    },
    {
      "id": 220780,
      "geometry": "POINT (-80.6883 34.192542)",
      "poi_name": "Waffle House",
      "osm_id": 9385812078,
      "amenity": "restaurant",
      "cuisine": "american",
      "opening_hours": "24/7",
      "website": "https://locations.wafflehouse.com/lugoff-sc-707",
      "phone": "+1 803 438 5414",
      "addr_state": "SC",
      "addr_city": "Lugoff",
      "addr_postcode": "29078",
      "addr_street": "Highway 601 South",
      "addr_housenumber": "525"
    },
    {
      "id": 226391,
      "geometry": "POINT (-80.867937 35.199198)",
      "poi_name": "Link & Pin",
      "osm_id": 11158426317,
      "amenity": "restaurant",
      "cuisine": "american",
      "website": "https://www.linkandpin.com/",
      "phone": "+19809391188",
      "addr_state": "NC",
      "addr_city": "Charlotte",
      "addr_postcode": "28209",
      "addr_street": "New Bern Street",
      "addr_housenumber": "155"
    },
    {
      "id": 225000,
      "geometry": "POINT (-80.860606 35.409014)",
      "poi_name": "Killingtons Restaurant & Pub",
      "osm_id": 11107215824,
      "amenity": "restaurant",
      "cuisine": "american",
      "wheelchair": "yes",
      "opening_hours": "Su-Th 11:00-21:00; Fr-Sa 11:00-22:00",
      "website": "http://huntersville.killingtons.com/",
      "phone": "7049483770",
      "takeaway": "yes",
      "outdoor_seating": "yes",
      "delivery": "yes",
      "toilets": "yes",
      "addr_state": "NC",
      "addr_city": "Huntersville",
      "addr_postcode": "28078",
      "addr_street": "Rose Commons Drive",
      "addr_housenumber": "10010"
    },
    {
      "id": 229020,
      "geometry": "POINT (-80.863919 33.515408)",
      "poi_name": "Shoney's",
      "osm_id": 4363160684,
      "amenity": "restaurant",
      "cuisine": "american",
      "addr_state": "SC",
      "addr_city": "Orangeburg",
      "addr_postcode": "29115",
      "addr_street": "Chestnut Street",
      "addr_housenumber": "1490"
    },
    {
      "id": 227907,
      "geometry": "POINT (-81.640503 34.731591)",
      "poi_name": "Shady's Food & Spirits",
      "osm_id": 4320811797,
      "amenity": "restaurant",
      "cuisine": "american",
      "opening_hours": "Tu-Th 12:00-23:00; Fr 14:00-23:00; Sa 12:00-24:00; Su,Mo off",
      "website": "https://www.shadysfoodandspirits.com/",
      "phone": "+1 864 4294688",
      "addr_state": "SC",
      "addr_city": "Union",
      "addr_postcode": "29379",
      "addr_street": "North Duncan Bypass",
      "addr_housenumber": "719"
    },
    {
      "id": 228774,
      "geometry": "POINT (-81.237001 35.476136)",
      "poi_name": "Fatz",
      "osm_id": 4354698798,
      "amenity": "restaurant",
      "cuisine": "american",
      "phone": "704-732-7155",
      "outdoor_seating": "no",
      "addr_state": "NC",
      "addr_city": "Lincolnton",
      "addr_postcode": "28092",
      "addr_street": "East Main Street",
      "addr_housenumber": "1430"
    },
    {
      "id": 231358,
      "geometry": "POINT (-82.403104 34.84788)",
      "poi_name": "Ruth's Chris Steak House",
      "osm_id": 4464823394,
      "amenity": "restaurant",
      "cuisine": "american",
      "opening_hours": "16:00-22:00",
      "addr_state": "SC",
      "addr_city": "Greenville",
      "addr_postcode": "29601",
      "addr_street": "Riverplace",
      "addr_housenumber": "250"
    },
    {
      "id": 231994,
      "geometry": "POINT (-80.755405 35.297108)",
      "poi_name": "Veltree Vegan Restaurant",
      "osm_id": 4503252692,
      "amenity": "restaurant",
      "cuisine": "sandwich;american;regional;soul_food;southern",
      "website": "https://www.veltree.com/",
      "phone": "+1 980-355-0075",
      "addr_state": "NC",
      "addr_city": "Charlotte",
      "addr_postcode": "28262",
      "addr_street": "North Tryon Street",
      "addr_housenumber": "7945 Unit #110"
    },
    {
      "id": 231521,
      "geometry": "POINT (-80.253784 35.784175)",
      "poi_name": "Coach's Neighborhood Grill",
      "osm_id": 4470833347,
      "amenity": "restaurant",
      "cuisine": "american;burger",
      "phone": "+1-336-780-7500",
      "addr_state": "NC",
      "addr_city": "Lexington",
      "addr_postcode": "27292",
      "addr_street": "Plaza Parkway",
      "addr_housenumber": "51"
    },
    {
      "id": 236043,
      "geometry": "POINT (-82.397933 34.826407)",
      "poi_name": "Augusta Grill",
      "osm_id": 5777275154,
      "amenity": "restaurant",
      "cuisine": "american",
      "website": "https://www.augustagrill.com/",
      "addr_state": "SC",
      "addr_city": "Greenville",
      "addr_postcode": "29605",
      "addr_street": "Aberdeen Drive",
      "addr_housenumber": "1818"
    },
    {
      "id": 239093,
      "geometry": "POINT (-82.40401 34.844712)",
      "poi_name": "Duke Sandwich Co",
      "osm_id": 5905082463,
      "amenity": "restaurant",
      "cuisine": "american",
      "website": "https://www.dukesandwich.com/",
      "addr_state": "SC",
      "addr_city": "Greenville",
      "addr_postcode": "29601",
      "addr_street": "South Main Street",
      "addr_housenumber": "658"
    },
    {
      "id": 237665,
      "geometry": "POINT (-81.667033 35.252462)",
      "poi_name": "Bulldog Quik Snak",
      "osm_id": 5842501781,
      "amenity": "restaurant",
      "cuisine": "american",
      "outdoor_seating": "no",
      "delivery": "no",
      "addr_state": "NC",
      "addr_city": "Shelby",
      "addr_postcode": "28152",
      "addr_street": "North Main Street",
      "addr_housenumber": "131"
    },
    {
      "id": 241879,
      "geometry": "POINT (-81.055341 35.116095)",
      "poi_name": "Copper Premium Pub",
      "osm_id": 6042952687,
      "amenity": "restaurant",
      "cuisine": "american",
      "opening_hours": "Mo-Su 11:00-22:00",
      "website": "https://www.copperpremiumpub.com/",
      "outdoor_seating": "yes",
      "addr_state": "SC",
      "addr_city": "Lake Wylie",
      "addr_postcode": "29710",
      "addr_street": "Charlotte Highway",
      "addr_housenumber": "4516"
    },
    {
      "id": 241880,
      "geometry": "POINT (-81.058706 35.115824)",
      "poi_name": "Sweetwater Sports Bar & Grill",
      "osm_id": 6042956069,
      "amenity": "restaurant",
      "cuisine": "burger;american",
      "website": "https://sweetwatersportsbarandgrill.com/",
      "takeaway": "yes",
      "outdoor_seating": "yes",
      "addr_state": "SC",
      "addr_city": "Lake Wylie",
      "addr_postcode": "29710",
      "addr_street": "Charlotte Highway",
      "addr_housenumber": "4582"
    },
    {
      "id": 245015,
      "geometry": "POINT (-80.936901 35.303806)",
      "poi_name": "Sports Page Food & Spirits",
      "osm_id": 7759208961,
      "amenity": "restaurant",
      "cuisine": "american",
      "addr_state": "NC",
      "addr_city": "Charlotte",
      "addr_postcode": "28216",
      "addr_street": "Bellhaven Boulevard",
      "addr_housenumber": "8400"
    }
  ],
  "answer_type": "loc",
  "question_entities": {
    "[1]": {
      "main_category": "amenity",
      "sub_category": "restaurant",
      "poi_filter_desc": "american restaurant",
      "poi_filter_sql": "cuisine ILIKE '%american%'"
    },
    "[2]": {
      "distance": 180000,
      "text": "180 kilometers"
    },
    "[3]": {
      "main_category": "leisure",
      "sub_category": "stadium",
      "display_name": "Rhame Arena, SC",
      "geo_wkt": "POINT (-80.605612 34.236208)",
      "poi": {
        "id": 265369,
        "geometry": "POINT (-80.605612 34.236208)",
        "poi_name": "Rhame Arena",
        "osm_id": 367807582,
        "leisure": "stadium",
        "addr_state": "SC"
      }
    }
  },
  "id": 469,
  "type": "range:non_spat_filter+loc"
}