{
  "question": "What fast food restaurant is available on the path leading to Bottle & Bottega, North Olmsted, OH from Barons Bus Arena, Parma, OH, within a radius of 150 kilometers?",
  "sql": "WITH\n    angle AS (SELECT degrees(ST_Azimuth(ST_GeomFromText('POINT (-81.758046 41.416012)',4326)::geography, ST_GeomFromText('POINT (-81.898988 41.419561)',4326)::geography)) AS value)\nSELECT * FROM pois,angle\nWHERE amenity = 'fast_food'\nAND ST_DWithin(pois.geometry, ST_GeomFromText('POINT (-81.758046 41.416012)',4326)::geography, 150000)\nAND (degrees(ST_Azimuth(ST_GeomFromText('POINT (-81.758046 41.416012)',4326)::geography, pois.geometry)) BETWEEN angle.value - 22.5 AND angle.value + 22.5);\n",
  "answers": [
    {
      "id": 29090,
      "geometry": "POINT (-82.595683 41.409224)",
      "poi_name": "Trapper's Deli",
      "osm_id": 8280206484,
      "amenity": "fast_food",
      "cuisine": "american",
      "value": 271.9625359723108
    },
    {
      "id": 30779,
      "geometry": "POINT (-82.105328 41.36741)",
      "poi_name": "Hanini Subs",
      "osm_id": 8381434021,
      "amenity": "fast_food",
      "cuisine": "sandwich",
      "opening_hours": "Mo-Fr 10:00-20:00; Sa 10:30-20:00; Su 11:00-18:00",
      "addr_state": "OH",
      "addr_city": "Elyria",
      "addr_postcode": "44035",
      "addr_street": "Depot Street",
      "addr_housenumber": "346",
      "value": 271.9625359723108
    },
    {
      "id": 30784,
      "geometry": "POINT (-82.109833 41.368041)",
      "poi_name": "McDonald's",
      "osm_id": 8381527399,
      "amenity": "fast_food",
      "cuisine": "burger",
      "opening_hours": "24/7",
      "website": "https://www.mcdonalds.com/us/en-us/location/oh/elyria/595-broad-st/36712.html",
      "takeaway": "yes",
      "addr_state": "OH",
      "addr_city": "Elyria",
      "addr_postcode": "44035",
      "addr_street": "Broad Street",
      "addr_housenumber": "595",
      "value": 271.9625359723108
    },
    {
      "id": 30786,
      "geometry": "POINT (-82.110806 41.367419)",
      "poi_name": "Burger King",
      "osm_id": 8381644061,
      "amenity": "fast_food",
      "cuisine": "burger",
      "opening_hours": "Su-Th 06:00-23:00; Fr,Sa 06:00-24:00",
      "takeaway": "yes",
      "drive_through": "yes",
      "addr_street": "Broad St.",
      "addr_housenumber": "616",
      "value": 271.9625359723108
    },
    {
      "id": 30787,
      "geometry": "POINT (-82.100915 41.368049)",
      "poi_name": "Little Caesars",
      "osm_id": 8381753426,
      "amenity": "fast_food",
      "cuisine": "pizza",
      "website": "https://littlecaesars.com/en-us/store/8730/",
      "takeaway": "yes",
      "addr_state": "OH",
      "addr_city": "Elyria",
      "addr_postcode": "44035",
      "addr_street": "Broad Street",
      "addr_housenumber": "125",
      "value": 271.9625359723108
    },
    {
      "id": 31430,
      "geometry": "POINT (-82.184773 41.452426)",
      "poi_name": "Five Alarm PizzA",
      "osm_id": 8423638888,
      "amenity": "fast_food",
      "value": 271.9625359723108
    },
    {
      "id": 31438,
      "geometry": "POINT (-82.176148 41.467039)",
      "poi_name": "Domino's",
      "osm_id": 8423657333,
      "amenity": "fast_food",
      "cuisine": "pizza",
      "opening_hours": "Su-Th 10:30-24:00, Fr,Sa 10:30-00:30",
      "takeaway": "yes",
      "addr_street": "Broadway",
      "addr_housenumber": "451",
      "value": 271.9625359723108
    },
    {
      "id": 31442,
      "geometry": "POINT (-82.185149 41.461503)",
      "poi_name": "Selenti's Pizza",
      "osm_id": 8423687536,
      "amenity": "fast_food",
      "value": 271.9625359723108
    },
    {
      "id": 33747,
      "geometry": "POINT (-83.398519 41.953266)",
      "poi_name": "Jimmy John's",
      "osm_id": 2680620254,
      "amenity": "fast_food",
      "cuisine": "sandwich",
      "takeaway": "yes",
      "official_name": "Jimmy John's Gourmet Sandwiches",
      "value": 271.9625359723108
    },
    {
      "id": 33748,
      "geometry": "POINT (-83.389112 41.932745)",
      "poi_name": "A&W",
      "osm_id": 2680721341,
      "amenity": "fast_food",
      "cuisine": "burger",
      "website": "https://awrestaurants.com/locations/michigan/monroe/1200-n-monroe-street/",
      "takeaway": "yes",
      "value": 271.9625359723108
    },
    {
      "id": 56149,
      "geometry": "POINT (-82.016885 41.493604)",
      "poi_name": "Marco's Pizza",
      "osm_id": 10225943377,
      "amenity": "fast_food",
      "cuisine": "pizza",
      "opening_hours": "Su-Th 11:00-23:00; Fr,Sa 11:00-24:00",
      "value": 271.9625359723108
    },
    {
      "id": 39816,
      "geometry": "POINT (-82.61235 41.244166)",
      "poi_name": "Domino's",
      "osm_id": 2940883884,
      "amenity": "fast_food",
      "cuisine": "pizza",
      "takeaway": "yes",
      "value": 271.9625359723108
    },
    {
      "id": 41316,
      "geometry": "POINT (-82.661927 41.406775)",
      "poi_name": "Fazoli's",
      "osm_id": 3010405363,
      "amenity": "fast_food",
      "cuisine": "italian",
      "takeaway": "yes",
      "value": 271.9625359723108
    },
    {
      "id": 41317,
      "geometry": "POINT (-82.657201 41.40222)",
      "poi_name": "Sonic",
      "osm_id": 3010405397,
      "amenity": "fast_food",
      "cuisine": "burger",
      "takeaway": "yes",
      "value": 271.9625359723108
    },
    {
      "id": 35307,
      "geometry": "POINT (-82.077986 41.418854)",
      "poi_name": "Panera Bread",
      "osm_id": 2716396498,
      "amenity": "fast_food",
      "cuisine": "sandwich;bakery",
      "takeaway": "yes",
      "addr_state": "OH",
      "addr_city": "Sheffield",
      "addr_postcode": "44035",
      "addr_street": "North Abbe Road",
      "addr_housenumber": "5382",
      "value": 271.9625359723108
    },
    {
      "id": 39692,
      "geometry": "POINT (-82.612186 41.261069)",
      "poi_name": "Long John Silver's",
      "osm_id": 2934927336,
      "amenity": "fast_food",
      "cuisine": "seafood",
      "value": 271.9625359723108
    },
    {
      "id": 39693,
      "geometry": "POINT (-82.611746 41.258101)",
      "poi_name": "Vargo's",
      "osm_id": 2934927349,
      "amenity": "fast_food",
      "cuisine": "american",
      "value": 271.9625359723108
    },
    {
      "id": 39694,
      "geometry": "POINT (-82.61228 41.261)",
      "poi_name": "KFC",
      "osm_id": 2934927353,
      "amenity": "fast_food",
      "cuisine": "chicken",
      "website": "https://locations.kfc.com/oh/norwalk/223-milan-avenue",
      "value": 271.9625359723108
    },
    {
      "id": 39847,
      "geometry": "POINT (-82.750088 41.545958)",
      "poi_name": "Hawaiian Ice",
      "osm_id": 2941839862,
      "amenity": "fast_food",
      "cuisine": "ice_cream",
      "value": 271.9625359723108
    },
    {
      "id": 46187,
      "geometry": "POINT (-81.917713 41.418652)",
      "poi_name": "Wendy's",
      "osm_id": 3250857230,
      "amenity": "fast_food",
      "cuisine": "burger",
      "takeaway": "yes",
      "drive_through": "yes",
      "addr_state": "OH",
      "addr_city": "North Olmsted",
      "addr_postcode": "44070",
      "addr_street": "Lorain Road",
      "addr_housenumber": "26650",
      "value": 271.9625359723108
    },
    {
      "id": 56143,
      "geometry": "POINT (-82.020224 41.495265)",
      "poi_name": "Romeo's Pizza",
      "osm_id": 10225865274,
      "amenity": "fast_food",
      "cuisine": "pizza",
      "value": 271.9625359723108
    },
    {
      "id": 57729,
      "geometry": "POINT (-82.757048 41.42097)",
      "poi_name": "McDonald's",
      "osm_id": 5349168111,
      "amenity": "fast_food",
      "cuisine": "burger",
      "website": "https://www.mcdonalds.com/us/en-us/location/oh/sandusky/3511-tiffin-ave/22168.html",
      "takeaway": "yes",
      "value": 271.9625359723108
    },
    {
      "id": 57760,
      "geometry": "POINT (-82.70489 41.249843)",
      "poi_name": "Subway",
      "osm_id": 5350206576,
      "amenity": "fast_food",
      "cuisine": "sandwich",
      "takeaway": "yes",
      "value": 271.9625359723108
    },
    {
      "id": 63451,
      "geometry": "POINT (-83.466729 41.537405)",
      "poi_name": "Arby's",
      "osm_id": 5615821367,
      "amenity": "fast_food",
      "cuisine": "sandwich",
      "value": 271.9625359723108
    },
    {
      "id": 57763,
      "geometry": "POINT (-82.115825 41.400168)",
      "poi_name": "Wendy's",
      "osm_id": 5350221558,
      "amenity": "fast_food",
      "cuisine": "burger",
      "takeaway": "yes",
      "drive_through": "yes",
      "addr_city": "Elyria",
      "addr_postcode": "44035",
      "addr_street": "Griswold Road",
      "addr_housenumber": "558",
      "value": 271.9625359723108
    },
    {
      "id": 63452,
      "geometry": "POINT (-83.462432 41.522619)",
      "poi_name": "McDonald's",
      "osm_id": 5615824337,
      "amenity": "fast_food",
      "cuisine": "burger",
      "website": "https://www.mcdonalds.com/us/en-us/location/oh/perrysburg/3430-libbey-rd/29323.html",
      "takeaway": "yes",
      "value": 271.9625359723108
    },
    {
      "id": 63453,
      "geometry": "POINT (-83.462276 41.521569)",
      "poi_name": "Burger King",
      "osm_id": 5615824338,
      "amenity": "fast_food",
      "cuisine": "burger",
      "takeaway": "yes",
      "value": 271.9625359723108
    },
    {
      "id": 63454,
      "geometry": "POINT (-83.462193 41.521477)",
      "poi_name": "Taco Bell",
      "osm_id": 5615824339,
      "amenity": "fast_food",
      "cuisine": "tex-mex",
      "website": "https://locations.tacobell.com/oh/perrysburg/3483-libbey-rd.html",
      "takeaway": "yes",
      "value": 271.9625359723108
    },
    {
      "id": 67465,
      "geometry": "POINT (-82.847896 41.275924)",
      "poi_name": "Wendy's",
      "osm_id": 11236216408,
      "amenity": "fast_food",
      "cuisine": "burger",
      "takeaway": "yes",
      "value": 271.9625359723108
    },
    {
      "id": 63606,
      "geometry": "POINT (-82.21099 41.385802)",
      "poi_name": "Subway",
      "osm_id": 5625028894,
      "amenity": "fast_food",
      "cuisine": "sandwich",
      "takeaway": "yes",
      "value": 271.9625359723108
    },
    {
      "id": 64664,
      "geometry": "POINT (-82.406317 41.254704)",
      "poi_name": "Subway",
      "osm_id": 5662214737,
      "amenity": "fast_food",
      "cuisine": "sandwich",
      "takeaway": "yes",
      "value": 271.9625359723108
    },
    {
      "id": 67466,
      "geometry": "POINT (-82.842904 41.273836)",
      "poi_name": "Marco's Pizza",
      "osm_id": 11236441645,
      "amenity": "fast_food",
      "cuisine": "pizza",
      "takeaway": "yes",
      "value": 271.9625359723108
    },
    {
      "id": 72367,
      "geometry": "POINT (-82.106937 41.362692)",
      "poi_name": "Mr. Hero",
      "osm_id": 11423643728,
      "amenity": "fast_food",
      "cuisine": "sandwich;burger",
      "opening_hours": "Mo-Sa 10:30-20:00; Su 12:00-19:00",
      "takeaway": "yes",
      "value": 271.9625359723108
    },
    {
      "id": 74194,
      "geometry": "POINT (-82.20997 41.411891)",
      "poi_name": "McDonald's",
      "osm_id": 9670438983,
      "amenity": "fast_food",
      "cuisine": "burger",
      "website": "https://www.mcdonalds.com/us/en-us/location/oh/amherst/500-leavitt-rd/4904.html",
      "takeaway": "yes",
      "value": 271.9625359723108
    },
    {
      "id": 74750,
      "geometry": "POINT (-82.077518 41.364744)",
      "poi_name": "McDonald's",
      "osm_id": 9694722980,
      "amenity": "fast_food",
      "cuisine": "burger",
      "website": "https://www.mcdonalds.com/us/en-us/location/oh/elyria/1010-e-broad-st/3215.html",
      "takeaway": "yes",
      "value": 271.9625359723108
    },
    {
      "id": 74719,
      "geometry": "POINT (-83.4153 41.919946)",
      "poi_name": "Subway",
      "osm_id": 9693383918,
      "amenity": "fast_food",
      "cuisine": "sandwich",
      "takeaway": "yes",
      "value": 271.9625359723108
    },
    {
      "id": 89141,
      "geometry": "POINT (-82.958806 41.367763)",
      "poi_name": "Burger King",
      "osm_id": 8828367015,
      "amenity": "fast_food",
      "cuisine": "burger",
      "takeaway": "yes",
      "value": 271.9625359723108
    },
    {
      "id": 76189,
      "geometry": "POINT (-81.996293 41.396676)",
      "poi_name": "Subway",
      "osm_id": 9764405299,
      "amenity": "fast_food",
      "cuisine": "sandwich",
      "takeaway": "yes",
      "addr_state": "OH",
      "addr_city": "North Ridgeville",
      "addr_postcode": "44039",
      "addr_street": "Center Ridge Road",
      "addr_housenumber": "34299",
      "value": 271.9625359723108
    },
    {
      "id": 76190,
      "geometry": "POINT (-81.995991 41.397836)",
      "poi_name": "Wendy's",
      "osm_id": 9764405313,
      "amenity": "fast_food",
      "cuisine": "burger",
      "takeaway": "yes",
      "addr_state": "OH",
      "addr_city": "North Ridgeville",
      "addr_postcode": "44039",
      "addr_street": "Center Ridge Road",
      "addr_housenumber": "34323",
      "value": 271.9625359723108
    },
    {
      "id": 76196,
      "geometry": "POINT (-82.018066 41.390834)",
      "poi_name": "McDonald's",
      "osm_id": 9764622496,
      "amenity": "fast_food",
      "cuisine": "burger",
      "website": "https://www.mcdonalds.com/us/en-us/location/oh/north-ridgeville/35900-center-ridge-rd/34162.html",
      "takeaway": "yes",
      "addr_state": "OH",
      "addr_city": "North Ridgeville",
      "addr_postcode": "44039",
      "addr_street": "Center Ridge Road",
      "addr_housenumber": "35900",
      "value": 271.9625359723108
    },
    {
      "id": 77459,
      "geometry": "POINT (-83.36608 41.924598)",
      "poi_name": "Subway",
      "osm_id": 30455276,
      "amenity": "fast_food",
      "cuisine": "sandwich",
      "takeaway": "yes",
      "addr_state": "MI",
      "addr_city": "Monroe",
      "addr_postcode": "48162",
      "addr_street": "North Dixie Highway",
      "addr_housenumber": "1100",
      "value": 271.9625359723108
    },
    {
      "id": 87506,
      "geometry": "POINT (-81.995372 41.397317)",
      "poi_name": "All Fired Up",
      "osm_id": 8718545285,
      "amenity": "fast_food",
      "cuisine": "burger",
      "value": 271.9625359723108
    },
    {
      "id": 89142,
      "geometry": "POINT (-82.959002 41.367657)",
      "poi_name": "Sbarro",
      "osm_id": 8828367016,
      "amenity": "fast_food",
      "cuisine": "pizza",
      "takeaway": "yes",
      "value": 271.9625359723108
    },
    {
      "id": 89144,
      "geometry": "POINT (-82.959132 41.367683)",
      "poi_name": "Einstein Bros. Bagels",
      "osm_id": 8828461817,
      "amenity": "fast_food",
      "cuisine": "bagel",
      "takeaway": "yes",
      "value": 271.9625359723108
    },
    {
      "id": 89146,
      "geometry": "POINT (-82.958883 41.367693)",
      "poi_name": "Auntie Anne's",
      "osm_id": 8828461819,
      "amenity": "fast_food",
      "cuisine": "pretzel",
      "takeaway": "yes",
      "value": 271.9625359723108
    },
    {
      "id": 97225,
      "geometry": "POINT (-81.909883 41.416875)",
      "poi_name": "Brown Bag Burgers",
      "osm_id": 6468095686,
      "amenity": "fast_food",
      "cuisine": "burger",
      "addr_state": "OH",
      "addr_city": "North Olmsted",
      "addr_postcode": "44070",
      "addr_street": "Great Northern Plaza",
      "addr_housenumber": "25853",
      "value": 271.9625359723108
    },
    {
      "id": 89973,
      "geometry": "POINT (-83.50301 41.659397)",
      "poi_name": "Subway",
      "osm_id": 8873063091,
      "amenity": "fast_food",
      "cuisine": "sandwich",
      "takeaway": "yes",
      "value": 271.9625359723108
    },
    {
      "id": 89724,
      "geometry": "POINT (-82.610713 41.267087)",
      "poi_name": "Dunkin'",
      "osm_id": 8857682317,
      "amenity": "fast_food",
      "cuisine": "donut;coffee_shop",
      "takeaway": "yes",
      "addr_street": "Milan Avenue",
      "value": 271.9625359723108
    },
    {
      "id": 89904,
      "geometry": "POINT (-83.4182 41.341665)",
      "poi_name": "Subway",
      "osm_id": 8869800598,
      "amenity": "fast_food",
      "cuisine": "sandwich",
      "takeaway": "yes",
      "value": 271.9625359723108
    },
    {
      "id": 96322,
      "geometry": "POINT (-83.487213 41.616684)",
      "poi_name": "Gino's",
      "osm_id": 6428992946,
      "amenity": "fast_food",
      "cuisine": "pizza",
      "value": 271.9625359723108
    },
    {
      "id": 96324,
      "geometry": "POINT (-83.488678 41.617617)",
      "poi_name": "Arby's",
      "osm_id": 6428992950,
      "amenity": "fast_food",
      "cuisine": "sandwich",
      "drive_through": "yes",
      "value": 271.9625359723108
    },
    {
      "id": 96325,
      "geometry": "POINT (-83.491566 41.619335)",
      "poi_name": "Long John Silver's",
      "osm_id": 6428992952,
      "amenity": "fast_food",
      "cuisine": "seafood",
      "value": 271.9625359723108
    },
    {
      "id": 96326,
      "geometry": "POINT (-83.491651 41.620292)",
      "poi_name": "Edie's",
      "osm_id": 6428992955,
      "amenity": "fast_food",
      "value": 271.9625359723108
    },
    {
      "id": 100954,
      "geometry": "POINT (-82.348834 41.425306)",
      "poi_name": "Subway",
      "osm_id": 6606299384,
      "amenity": "fast_food",
      "cuisine": "sandwich",
      "takeaway": "yes",
      "value": 271.9625359723108
    },
    {
      "id": 111556,
      "geometry": "POINT (-83.454819 41.413854)",
      "poi_name": "Subway",
      "osm_id": 3754856328,
      "amenity": "fast_food",
      "cuisine": "sandwich",
      "takeaway": "yes",
      "value": 271.9625359723108
    },
    {
      "id": 101836,
      "geometry": "POINT (-81.803074 41.415901)",
      "poi_name": "Express Deli",
      "osm_id": 6645269985,
      "amenity": "fast_food",
      "phone": "+1-216-267-7878",
      "addr_postcode": "44142",
      "addr_street": "Smith Road",
      "addr_housenumber": "5185",
      "value": 271.9625359723108
    },
    {
      "id": 105803,
      "geometry": "POINT (-81.98217 41.380268)",
      "poi_name": "Pizza Pan",
      "osm_id": 8644338765,
      "amenity": "fast_food",
      "cuisine": "pizza",
      "value": 271.9625359723108
    },
    {
      "id": 110281,
      "geometry": "POINT (-83.414222 41.927163)",
      "poi_name": "Panera Bread",
      "osm_id": 3695515397,
      "amenity": "fast_food",
      "cuisine": "sandwich",
      "takeaway": "yes",
      "value": 271.9625359723108
    },
    {
      "id": 107092,
      "geometry": "POINT (-82.55704 41.390391)",
      "poi_name": "Pied Piper",
      "osm_id": 3534503637,
      "amenity": "fast_food",
      "cuisine": "ice_cream",
      "value": 271.9625359723108
    },
    {
      "id": 107095,
      "geometry": "POINT (-82.557275 41.390958)",
      "poi_name": "Domino's",
      "osm_id": 3534516479,
      "amenity": "fast_food",
      "cuisine": "pizza",
      "takeaway": "yes",
      "value": 271.9625359723108
    },
    {
      "id": 116358,
      "geometry": "POINT (-81.924886 41.415552)",
      "poi_name": "McDonald's",
      "osm_id": 8939695098,
      "amenity": "fast_food",
      "cuisine": "burger",
      "website": "https://www.mcdonalds.com/us/en-us/location/oh/north-olmsted/27322-lorain-rd/817.html",
      "takeaway": "yes",
      "addr_state": "OH",
      "addr_city": "North Olmsted",
      "addr_postcode": "44070",
      "addr_street": "Lorain Road",
      "addr_housenumber": "27322",
      "value": 271.9625359723108
    },
    {
      "id": 111745,
      "geometry": "POINT (-82.22292 41.380002)",
      "poi_name": "Hershey Ice Cream",
      "osm_id": 3761709558,
      "amenity": "fast_food",
      "value": 271.9625359723108
    },
    {
      "id": 111746,
      "geometry": "POINT (-82.222965 41.379961)",
      "poi_name": "Burger King",
      "osm_id": 3761709559,
      "amenity": "fast_food",
      "cuisine": "burger",
      "takeaway": "yes",
      "value": 271.9625359723108
    },
    {
      "id": 111748,
      "geometry": "POINT (-82.222854 41.38004)",
      "poi_name": "Panera Bread",
      "osm_id": 3761728657,
      "amenity": "fast_food",
      "cuisine": "sandwich;bakery",
      "takeaway": "yes",
      "value": 271.9625359723108
    },
    {
      "id": 111749,
      "geometry": "POINT (-82.223013 41.379916)",
      "poi_name": "Manchu Wok",
      "osm_id": 3761728658,
      "amenity": "fast_food",
      "cuisine": "chinese",
      "takeaway": "yes",
      "value": 271.9625359723108
    },
    {
      "id": 115439,
      "geometry": "POINT (-81.844318 41.426509)",
      "poi_name": "Subway",
      "osm_id": 8895716860,
      "amenity": "fast_food",
      "cuisine": "sandwich",
      "takeaway": "yes",
      "value": 271.9625359723108
    },
    {
      "id": 116454,
      "geometry": "POINT (-81.914194 41.419614)",
      "poi_name": "Arby's",
      "osm_id": 8944367742,
      "amenity": "fast_food",
      "cuisine": "sandwich",
      "takeaway": "yes",
      "addr_state": "OH",
      "addr_city": "North Olmsted",
      "addr_postcode": "44070",
      "addr_street": "Lorain Road",
      "addr_housenumber": "26368",
      "value": 271.9625359723108
    },
    {
      "id": 116168,
      "geometry": "POINT (-81.802244 41.404386)",
      "poi_name": "Mr. Hero",
      "osm_id": 8930911092,
      "amenity": "fast_food",
      "cuisine": "sandwich",
      "addr_state": "OH",
      "addr_city": "Brook Park",
      "addr_postcode": "44142",
      "addr_street": "Smith Road",
      "addr_housenumber": "5875",
      "value": 271.9625359723108
    },
    {
      "id": 116421,
      "geometry": "POINT (-81.916851 41.41742)",
      "poi_name": "Jersey Mike's Subs",
      "osm_id": 8942453076,
      "amenity": "fast_food",
      "cuisine": "sandwich",
      "takeaway": "yes",
      "addr_state": "OH",
      "addr_city": "North Olmsted",
      "addr_postcode": "44070",
      "addr_street": "Great Northern Plaza",
      "addr_housenumber": "26433",
      "value": 271.9625359723108
    },
    {
      "id": 116424,
      "geometry": "POINT (-81.916316 41.418193)",
      "poi_name": "Chipotle",
      "osm_id": 8942566508,
      "amenity": "fast_food",
      "cuisine": "mexican",
      "takeaway": "yes",
      "official_name": "Chipotle Mexican Grill",
      "addr_state": "OH",
      "addr_city": "North Olmsted",
      "addr_postcode": "44070",
      "addr_street": "Great Northern Plaza",
      "addr_housenumber": "26420",
      "value": 271.9625359723108
    },
    {
      "id": 116455,
      "geometry": "POINT (-81.913468 41.41989)",
      "poi_name": "Burger King",
      "osm_id": 8944367774,
      "amenity": "fast_food",
      "cuisine": "burger",
      "takeaway": "yes",
      "addr_state": "OH",
      "addr_city": "North Olmsted",
      "addr_postcode": "44070",
      "addr_street": "Lorain Road",
      "addr_housenumber": "26270",
      "value": 271.9625359723108
    },
    {
      "id": 116456,
      "geometry": "POINT (-81.912572 41.420121)",
      "poi_name": "Popeyes",
      "osm_id": 8944367796,
      "amenity": "fast_food",
      "cuisine": "chicken",
      "takeaway": "yes",
      "official_name": "Popeyes Louisiana Kitchen",
      "addr_state": "OH",
      "addr_city": "North Olmsted",
      "addr_postcode": "44070",
      "addr_street": "Lorain Road",
      "addr_housenumber": "26170",
      "value": 271.9625359723108
    },
    {
      "id": 116363,
      "geometry": "POINT (-82.365699 41.422158)",
      "poi_name": "Papa Joe's",
      "osm_id": 8939902943,
      "amenity": "fast_food",
      "cuisine": "pizza",
      "opening_hours": "Su-Th 10:00-21:00; Fr,Sa 10:00-22:00",
      "addr_city": "Vermilion",
      "addr_street": "Liberty Avenue",
      "addr_housenumber": "5590",
      "value": 271.9625359723108
    },
    {
      "id": 116492,
      "geometry": "POINT (-81.901018 41.420717)",
      "poi_name": "Penn Station",
      "osm_id": 8944760281,
      "amenity": "fast_food",
      "cuisine": "sandwich",
      "takeaway": "yes",
      "addr_state": "OH",
      "addr_city": "North Olmsted",
      "addr_postcode": "44070",
      "addr_street": "Great Northern Boulevard",
      "addr_housenumber": "4707",
      "value": 271.9625359723108
    },
    {
      "id": 116494,
      "geometry": "POINT (-81.899515 41.419555)",
      "poi_name": "Moe's Southwest Grill",
      "osm_id": 8944836838,
      "amenity": "fast_food",
      "cuisine": "mexican",
      "takeaway": "yes",
      "addr_state": "OH",
      "addr_city": "North Olmsted",
      "addr_postcode": "44070",
      "addr_street": "Brookpark Road",
      "addr_housenumber": "25102",
      "value": 271.9625359723108
    },
    {
      "id": 116495,
      "geometry": "POINT (-81.899359 41.419557)",
      "poi_name": "Jimmy John's",
      "osm_id": 8944836841,
      "amenity": "fast_food",
      "cuisine": "sandwich",
      "takeaway": "yes",
      "official_name": "Jimmy John's Gourmet Sandwiches",
      "addr_state": "OH",
      "addr_city": "North Olmsted",
      "addr_postcode": "44070",
      "addr_street": "Brookpark Road",
      "addr_housenumber": "25102",
      "value": 271.9625359723108
    },
    {
      "id": 116436,
      "geometry": "POINT (-81.911704 41.418351)",
      "poi_name": "Panera Bread",
      "osm_id": 8942723366,
      "amenity": "fast_food",
      "cuisine": "sandwich;bakery",
      "takeaway": "yes",
      "addr_state": "OH",
      "addr_city": "North Olmsted",
      "addr_postcode": "44070",
      "addr_street": "Great Northern Plaza",
      "addr_housenumber": "26086",
      "value": 271.9625359723108
    },
    {
      "id": 116437,
      "geometry": "POINT (-81.910475 41.418412)",
      "poi_name": "Raising Cane's",
      "osm_id": 8942723392,
      "amenity": "fast_food",
      "cuisine": "chicken",
      "takeaway": "yes",
      "official_name": "Raising Cane's Chicken Fingers",
      "addr_state": "OH",
      "addr_city": "North Olmsted",
      "addr_postcode": "44070",
      "addr_street": "Great Northern Plaza",
      "addr_housenumber": "25821",
      "value": 271.9625359723108
    },
    {
      "id": 116438,
      "geometry": "POINT (-81.915041 41.419465)",
      "poi_name": "Boston Market",
      "osm_id": 8942735537,
      "amenity": "fast_food",
      "cuisine": "american;chicken",
      "takeaway": "yes",
      "addr_state": "OH",
      "addr_city": "North Olmsted",
      "addr_postcode": "44070",
      "addr_street": "Brookpark Road",
      "addr_housenumber": "26440",
      "value": 271.9625359723108
    },
    {
      "id": 117282,
      "geometry": "POINT (-82.207853 41.416173)",
      "poi_name": "Subway",
      "osm_id": 8986293911,
      "amenity": "fast_food",
      "cuisine": "sandwich",
      "takeaway": "yes",
      "addr_state": "OH",
      "addr_city": "Amherst",
      "addr_postcode": "44001",
      "addr_street": "Kresge Drive",
      "addr_housenumber": "2273",
      "value": 271.9625359723108
    },
    {
      "id": 116445,
      "geometry": "POINT (-81.919279 41.418233)",
      "poi_name": "Little Caesars",
      "osm_id": 8942952376,
      "amenity": "fast_food",
      "cuisine": "pizza",
      "website": "https://littlecaesars.com/en-us/store/9262/",
      "takeaway": "yes",
      "addr_state": "OH",
      "addr_city": "North Olmsted",
      "addr_postcode": "44070",
      "addr_street": "Lorain Road",
      "addr_housenumber": "26832",
      "value": 271.9625359723108
    },
    {
      "id": 116447,
      "geometry": "POINT (-81.920628 41.416964)",
      "poi_name": "Dunkin' Donuts",
      "osm_id": 8942979810,
      "amenity": "fast_food",
      "cuisine": "donut;coffee_shop",
      "takeaway": "yes",
      "addr_state": "OH",
      "addr_city": "North Olmsted",
      "addr_postcode": "44070",
      "addr_street": "Lorain Road",
      "addr_housenumber": "26963",
      "value": 271.9625359723108
    },
    {
      "id": 117237,
      "geometry": "POINT (-82.203331 41.429673)",
      "poi_name": "The Original Steaks & Hoagies",
      "osm_id": 8984023165,
      "amenity": "fast_food",
      "cuisine": "sandwich",
      "addr_state": "OH",
      "addr_city": "Lorain",
      "addr_postcode": "44053",
      "addr_street": "North Leavitt Road",
      "addr_housenumber": "4310",
      "value": 271.9625359723108
    },
    {
      "id": 117283,
      "geometry": "POINT (-82.207762 41.416172)",
      "poi_name": "Papa John's",
      "osm_id": 8986293912,
      "amenity": "fast_food",
      "cuisine": "pizza",
      "takeaway": "yes",
      "addr_state": "OH",
      "addr_city": "Amherst",
      "addr_postcode": "44001",
      "addr_street": "Kresge Drive",
      "addr_housenumber": "2271",
      "value": 271.9625359723108
    },
    {
      "id": 117284,
      "geometry": "POINT (-82.206736 41.41628)",
      "poi_name": "Domino's",
      "osm_id": 8986295934,
      "amenity": "fast_food",
      "cuisine": "pizza",
      "takeaway": "yes",
      "addr_state": "OH",
      "addr_city": "Amherst",
      "addr_postcode": "44001",
      "addr_street": "Kresge Drive",
      "addr_housenumber": "2229",
      "value": 271.9625359723108
    },
    {
      "id": 117243,
      "geometry": "POINT (-82.209414 41.418686)",
      "poi_name": "Dunkin'",
      "osm_id": 8984131959,
      "amenity": "fast_food",
      "cuisine": "donut;coffee_shop",
      "takeaway": "yes",
      "addr_state": "OH",
      "addr_city": "Lorain",
      "addr_postcode": "44053",
      "addr_street": "North Leavitt Road",
      "addr_housenumber": "5494",
      "value": 271.9625359723108
    },
    {
      "id": 117224,
      "geometry": "POINT (-82.06738 41.345787)",
      "poi_name": "Burger King",
      "osm_id": 8983873065,
      "amenity": "fast_food",
      "cuisine": "burger",
      "takeaway": "yes",
      "addr_state": "OH",
      "addr_city": "Elyria",
      "addr_postcode": "44035",
      "addr_street": "Chestnut Commons Drive",
      "addr_housenumber": "390",
      "value": 271.9625359723108
    },
    {
      "id": 117245,
      "geometry": "POINT (-82.202368 41.418723)",
      "poi_name": "Quiznos",
      "osm_id": 8984165460,
      "amenity": "fast_food",
      "cuisine": "sandwich",
      "takeaway": "yes",
      "addr_state": "OH",
      "addr_city": "Lorain",
      "addr_postcode": "44053",
      "addr_street": "Cooper Foster Park Road",
      "addr_housenumber": "1980",
      "value": 271.9625359723108
    },
    {
      "id": 117285,
      "geometry": "POINT (-82.206746 41.416059)",
      "poi_name": "Jimmy John's",
      "osm_id": 8986295935,
      "amenity": "fast_food",
      "cuisine": "sandwich",
      "takeaway": "yes",
      "official_name": "Jimmy John's Gourmet Sandwiches",
      "addr_state": "OH",
      "addr_city": "Amherst",
      "addr_postcode": "44001",
      "addr_street": "Kresge Drive",
      "addr_housenumber": "2235",
      "value": 271.9625359723108
    },
    {
      "id": 117225,
      "geometry": "POINT (-82.067446 41.347278)",
      "poi_name": "Taco Bell",
      "osm_id": 8983873110,
      "amenity": "fast_food",
      "cuisine": "tex-mex",
      "website": "https://locations.tacobell.com/oh/elyria/600-chestnut-commons-dr.html",
      "takeaway": "yes",
      "addr_state": "OH",
      "addr_city": "Elyria",
      "addr_postcode": "44035",
      "addr_street": "Chestnut Commons Drive",
      "addr_housenumber": "600",
      "value": 271.9625359723108
    },
    {
      "id": 117226,
      "geometry": "POINT (-82.067737 41.347679)",
      "poi_name": "Charleys Philly Steaks",
      "osm_id": 8983873284,
      "amenity": "fast_food",
      "cuisine": "sandwich",
      "takeaway": "yes",
      "addr_state": "OH",
      "addr_city": "Elyria",
      "addr_postcode": "44035",
      "addr_street": "Chestnut Commons Drive",
      "addr_housenumber": "620",
      "value": 271.9625359723108
    },
    {
      "id": 117288,
      "geometry": "POINT (-82.209479 41.417607)",
      "poi_name": "Taco Bell",
      "osm_id": 8986352235,
      "amenity": "fast_food",
      "cuisine": "tex-mex",
      "website": "https://locations.tacobell.com/oh/amherst/940-north-leavitt-road.html",
      "takeaway": "yes",
      "addr_state": "OH",
      "addr_city": "Amherst",
      "addr_postcode": "44001",
      "addr_street": "North Leavitt Road",
      "addr_housenumber": "940",
      "value": 271.9625359723108
    },
    {
      "id": 117227,
      "geometry": "POINT (-82.065746 41.347947)",
      "poi_name": "Papa John's",
      "osm_id": 8983873298,
      "amenity": "fast_food",
      "cuisine": "pizza",
      "takeaway": "yes",
      "addr_state": "OH",
      "addr_city": "Elyria",
      "addr_postcode": "44035",
      "addr_street": "Chestnut Commons Drive",
      "addr_housenumber": "811",
      "value": 271.9625359723108
    },
    {
      "id": 117230,
      "geometry": "POINT (-82.067662 41.346932)",
      "poi_name": "Domino's",
      "osm_id": 8983873311,
      "amenity": "fast_food",
      "cuisine": "pizza",
      "takeaway": "yes",
      "addr_state": "OH",
      "addr_city": "Elyria",
      "addr_postcode": "44035",
      "addr_street": "Chestnut Commons Drive",
      "addr_housenumber": "580",
      "value": 271.9625359723108
    },
    {
      "id": 117231,
      "geometry": "POINT (-82.067657 41.346704)",
      "poi_name": "Mr. Hero",
      "osm_id": 8983873314,
      "amenity": "fast_food",
      "cuisine": "sandwich",
      "addr_state": "OH",
      "addr_city": "Elyria",
      "addr_postcode": "44035",
      "addr_street": "Chestnut Commons Drive",
      "addr_housenumber": "540",
      "value": 271.9625359723108
    },
    {
      "id": 119161,
      "geometry": "POINT (-82.110776 41.489152)",
      "poi_name": "Little Caesars",
      "osm_id": 9085079413,
      "amenity": "fast_food",
      "cuisine": "pizza",
      "website": "https://littlecaesars.com/en-us/store/11540/",
      "takeaway": "yes",
      "addr_state": "OH",
      "addr_city": "Sheffield Lake",
      "addr_postcode": "44054",
      "addr_street": "Lake Road",
      "addr_housenumber": "4112",
      "value": 271.9625359723108
    },
    {
      "id": 118853,
      "geometry": "POINT (-82.050007 41.502273)",
      "poi_name": "Pizza Cutter",
      "osm_id": 9067993399,
      "amenity": "fast_food",
      "cuisine": "pizza",
      "addr_state": "OH",
      "addr_city": "Avon Lake",
      "addr_postcode": "44012",
      "addr_street": "Lake Road",
      "addr_housenumber": "33501",
      "value": 271.9625359723108
    },
    {
      "id": 117277,
      "geometry": "POINT (-82.200535 41.417922)",
      "poi_name": "Arby's",
      "osm_id": 8986240851,
      "amenity": "fast_food",
      "cuisine": "sandwich",
      "takeaway": "yes",
      "addr_state": "OH",
      "addr_city": "Amherst",
      "addr_postcode": "44001",
      "addr_street": "Cooper Foster Park Road",
      "addr_housenumber": "1951",
      "value": 271.9625359723108
    },
    {
      "id": 117279,
      "geometry": "POINT (-82.200697 41.418646)",
      "poi_name": "Burger King",
      "osm_id": 8986259346,
      "amenity": "fast_food",
      "cuisine": "burger",
      "takeaway": "yes",
      "addr_state": "OH",
      "addr_city": "Lorain",
      "addr_postcode": "44053",
      "addr_street": "Cooper Foster Park Road",
      "addr_housenumber": "1900",
      "value": 271.9625359723108
    },
    {
      "id": 117430,
      "geometry": "POINT (-82.208315 41.417596)",
      "poi_name": "Wingstop",
      "osm_id": 8994188805,
      "amenity": "fast_food",
      "cuisine": "wings",
      "takeaway": "yes",
      "addr_state": "OH",
      "addr_city": "Amherst",
      "addr_postcode": "44001",
      "addr_street": "North Leavitt Road",
      "addr_housenumber": "935",
      "value": 271.9625359723108
    },
    {
      "id": 117431,
      "geometry": "POINT (-82.208316 41.417418)",
      "poi_name": "Mr. Hero",
      "osm_id": 8994188807,
      "amenity": "fast_food",
      "cuisine": "sandwich",
      "addr_city": "Amherst",
      "addr_postcode": "44001",
      "addr_street": "North Leavitt Road",
      "addr_housenumber": "919",
      "value": 271.9625359723108
    },
    {
      "id": 118990,
      "geometry": "POINT (-82.018929 41.468262)",
      "poi_name": "Wendy's",
      "osm_id": 9076562383,
      "amenity": "fast_food",
      "cuisine": "burger",
      "takeaway": "yes",
      "addr_state": "OH",
      "addr_city": "Avon",
      "addr_postcode": "44011",
      "addr_street": "Center Road",
      "addr_housenumber": "1487",
      "value": 271.9625359723108
    },
    {
      "id": 119165,
      "geometry": "POINT (-82.077644 41.422328)",
      "poi_name": "Wendy's",
      "osm_id": 9085148536,
      "amenity": "fast_food",
      "cuisine": "burger",
      "takeaway": "yes",
      "addr_state": "OH",
      "addr_city": "Sheffield",
      "addr_postcode": "44035",
      "addr_street": "North Abbe Road",
      "addr_housenumber": "5200",
      "value": 271.9625359723108
    },
    {
      "id": 119185,
      "geometry": "POINT (-82.077711 41.420028)",
      "poi_name": "Domino's",
      "osm_id": 9087872359,
      "amenity": "fast_food",
      "cuisine": "pizza",
      "takeaway": "yes",
      "addr_state": "OH",
      "addr_city": "Sheffield",
      "addr_postcode": "44035",
      "addr_street": "Cobblestone Road",
      "addr_housenumber": "5322",
      "value": 271.9625359723108
    },
    {
      "id": 119186,
      "geometry": "POINT (-82.077501 41.420023)",
      "poi_name": "Jimmy John's",
      "osm_id": 9087872360,
      "amenity": "fast_food",
      "cuisine": "sandwich",
      "takeaway": "yes",
      "official_name": "Jimmy John's Gourmet Sandwiches",
      "addr_state": "OH",
      "addr_city": "Sheffield",
      "addr_postcode": "44035",
      "addr_street": "North Abbe Road",
      "addr_housenumber": "5330",
      "value": 271.9625359723108
    },
    {
      "id": 119187,
      "geometry": "POINT (-82.078592 41.423559)",
      "poi_name": "Subway",
      "osm_id": 9087982912,
      "amenity": "fast_food",
      "cuisine": "sandwich",
      "takeaway": "yes",
      "addr_state": "OH",
      "addr_city": "Sheffield",
      "addr_postcode": "44035",
      "addr_street": "Detroit Road",
      "addr_housenumber": "5282",
      "value": 271.9625359723108
    },
    {
      "id": 119190,
      "geometry": "POINT (-82.079343 41.425056)",
      "poi_name": "Taco Bell",
      "osm_id": 9087983065,
      "amenity": "fast_food",
      "cuisine": "tex-mex",
      "website": "https://locations.tacobell.com/oh/sheffield-village/5218-detroit-rd.html",
      "takeaway": "yes",
      "addr_state": "OH",
      "addr_city": "Sheffield",
      "addr_postcode": "44035",
      "addr_street": "Detroit Road",
      "addr_housenumber": "5218",
      "value": 271.9625359723108
    },
    {
      "id": 119191,
      "geometry": "POINT (-82.080152 41.424818)",
      "poi_name": "KFC",
      "osm_id": 9087983082,
      "amenity": "fast_food",
      "cuisine": "chicken",
      "website": "https://locations.kfc.com/oh/elyria/5210-detroit-road",
      "takeaway": "yes",
      "addr_state": "OH",
      "addr_city": "Sheffield",
      "addr_postcode": "44035",
      "addr_street": "Detroit Road",
      "addr_housenumber": "5210",
      "value": 271.9625359723108
    },
    {
      "id": 119192,
      "geometry": "POINT (-82.077958 41.425232)",
      "poi_name": "McDonald's",
      "osm_id": 9087983093,
      "amenity": "fast_food",
      "cuisine": "burger",
      "website": "https://www.mcdonalds.com/us/en-us/location/oh/elyria/5250-detroit-rd/7651.html",
      "takeaway": "yes",
      "addr_state": "OH",
      "addr_city": "Sheffield",
      "addr_postcode": "44035",
      "addr_street": "Detroit Road",
      "addr_housenumber": "5250",
      "value": 271.9625359723108
    },
    {
      "id": 119193,
      "geometry": "POINT (-82.078061 41.424528)",
      "poi_name": "Chipotle",
      "osm_id": 9087983110,
      "amenity": "fast_food",
      "cuisine": "mexican",
      "takeaway": "yes",
      "official_name": "Chipotle Mexican Grill",
      "addr_state": "OH",
      "addr_city": "Sheffield",
      "addr_postcode": "44035",
      "addr_street": "Detroit Road",
      "addr_housenumber": "5252",
      "value": 271.9625359723108
    },
    {
      "id": 119197,
      "geometry": "POINT (-82.078366 41.427606)",
      "poi_name": "Mr. Hero",
      "osm_id": 9088316265,
      "amenity": "fast_food",
      "cuisine": "sandwich",
      "addr_state": "OH",
      "addr_city": "Sheffield",
      "addr_postcode": "44054",
      "addr_street": "Detroit Road",
      "addr_housenumber": "5265",
      "value": 271.9625359723108
    },
    {
      "id": 122358,
      "geometry": "POINT (-82.401966 41.254566)",
      "poi_name": "East of Chicago Pizza",
      "osm_id": 6797733456,
      "amenity": "fast_food",
      "cuisine": "pizza",
      "takeaway": "yes",
      "addr_city": "Wakeman",
      "addr_postcode": "44889",
      "addr_street": "East Main Street",
      "addr_housenumber": "10",
      "value": 271.9625359723108
    },
    {
      "id": 119708,
      "geometry": "POINT (-83.116175 41.376606)",
      "poi_name": "Chipotle",
      "osm_id": 9118753022,
      "amenity": "fast_food",
      "cuisine": "mexican",
      "opening_hours": "Mo-Su 10:45-22:00",
      "website": "https://www.chipotle.com",
      "phone": "+1-567-201-4164",
      "takeaway": "yes",
      "official_name": "Chipotle Mexican Grill",
      "addr_state": "OH",
      "addr_city": "Fremont",
      "addr_postcode": "43420",
      "addr_street": "Sean Street",
      "addr_housenumber": "851",
      "value": 271.9625359723108
    },
    {
      "id": 123423,
      "geometry": "POINT (-82.106531 41.396999)",
      "poi_name": "Chipotle",
      "osm_id": 6853889014,
      "amenity": "fast_food",
      "cuisine": "mexican",
      "takeaway": "yes",
      "official_name": "Chipotle Mexican Grill",
      "addr_state": "OH",
      "addr_city": "Elyria",
      "addr_postcode": "44035",
      "addr_street": "West River Road North",
      "addr_housenumber": "1615",
      "value": 271.9625359723108
    },
    {
      "id": 123424,
      "geometry": "POINT (-82.106288 41.395432)",
      "poi_name": "Subway",
      "osm_id": 6853889016,
      "amenity": "fast_food",
      "cuisine": "sandwich",
      "takeaway": "yes",
      "value": 271.9625359723108
    },
    {
      "id": 123425,
      "geometry": "POINT (-82.106929 41.394201)",
      "poi_name": "Burger King",
      "osm_id": 6853889017,
      "amenity": "fast_food",
      "cuisine": "burger",
      "takeaway": "yes",
      "value": 271.9625359723108
    },
    {
      "id": 123427,
      "geometry": "POINT (-82.019004 41.470377)",
      "poi_name": "Arby's",
      "osm_id": 6853952235,
      "amenity": "fast_food",
      "cuisine": "sandwich",
      "takeaway": "yes",
      "addr_state": "OH",
      "addr_city": "Avon",
      "addr_postcode": "44011",
      "addr_street": "Center Road",
      "addr_housenumber": "1331",
      "value": 271.9625359723108
    },
    {
      "id": 123428,
      "geometry": "POINT (-82.019027 41.469564)",
      "poi_name": "Panda Express",
      "osm_id": 6853952236,
      "amenity": "fast_food",
      "cuisine": "chinese",
      "takeaway": "yes",
      "addr_state": "OH",
      "addr_city": "Avon",
      "addr_postcode": "44011",
      "addr_street": "Center Road",
      "addr_housenumber": "1401",
      "value": 271.9625359723108
    },
    {
      "id": 124403,
      "geometry": "POINT (-82.101786 41.36279)",
      "poi_name": "Subway",
      "osm_id": 6916509777,
      "amenity": "fast_food",
      "cuisine": "sandwich",
      "opening_hours": "Mo-Su 08:00-21:00",
      "takeaway": "yes",
      "value": 271.9625359723108
    },
    {
      "id": 123596,
      "geometry": "POINT (-82.165405 41.413354)",
      "poi_name": "McDonald's",
      "osm_id": 6864927291,
      "amenity": "fast_food",
      "cuisine": "burger",
      "website": "https://www.mcdonalds.com/us/en-us/location/oh/lorain/6400-middle-ridge-rd/11297.html",
      "takeaway": "yes",
      "value": 271.9625359723108
    },
    {
      "id": 123597,
      "geometry": "POINT (-82.079078 41.388826)",
      "poi_name": "Dairy Queen",
      "osm_id": 6864945085,
      "amenity": "fast_food",
      "cuisine": "ice_cream;burger",
      "takeaway": "yes",
      "value": 271.9625359723108
    },
    {
      "id": 140286,
      "geometry": "POINT (-83.369614 41.489608)",
      "poi_name": "Hardee's",
      "osm_id": 6238767086,
      "amenity": "fast_food",
      "cuisine": "burger",
      "internet_access": "wlan",
      "takeaway": "yes",
      "value": 271.9625359723108
    },
    {
      "id": 132446,
      "geometry": "POINT (-83.463049 41.600479)",
      "poi_name": "Marco's Pizza",
      "osm_id": 9954869818,
      "amenity": "fast_food",
      "cuisine": "pizza",
      "takeaway": "yes",
      "drive_through": "no",
      "value": 271.9625359723108
    },
    {
      "id": 128967,
      "geometry": "POINT (-83.508134 41.72392)",
      "poi_name": "Subway",
      "osm_id": 8199987071,
      "amenity": "fast_food",
      "cuisine": "sandwich",
      "takeaway": "yes",
      "value": 271.9625359723108
    },
    {
      "id": 129241,
      "geometry": "POINT (-83.362992 41.926716)",
      "poi_name": "Fazoli's",
      "osm_id": 8225177259,
      "amenity": "fast_food",
      "cuisine": "italian",
      "takeaway": "yes",
      "drive_through": "no",
      "value": 271.9625359723108
    },
    {
      "id": 130222,
      "geometry": "POINT (-82.224732 41.377205)",
      "poi_name": "Panera Bread",
      "osm_id": 9860963826,
      "amenity": "fast_food",
      "cuisine": "sandwich;bakery",
      "takeaway": "yes",
      "value": 271.9625359723108
    },
    {
      "id": 140287,
      "geometry": "POINT (-83.36971 41.48958)",
      "poi_name": "Red Burrito",
      "osm_id": 6238785685,
      "amenity": "fast_food",
      "value": 271.9625359723108
    },
    {
      "id": 141827,
      "geometry": "POINT (-82.709613 41.433814)",
      "poi_name": "Subway",
      "osm_id": 6298086284,
      "amenity": "fast_food",
      "cuisine": "sandwich",
      "takeaway": "yes",
      "value": 271.9625359723108
    },
    {
      "id": 140974,
      "geometry": "POINT (-81.865103 41.440961)",
      "poi_name": "Mr. Hero",
      "osm_id": 6268796068,
      "amenity": "fast_food",
      "cuisine": "sandwich",
      "value": 271.9625359723108
    },
    {
      "id": 141829,
      "geometry": "POINT (-82.706076 41.432652)",
      "poi_name": "Domino's",
      "osm_id": 6298086677,
      "amenity": "fast_food",
      "cuisine": "pizza",
      "takeaway": "yes",
      "value": 271.9625359723108
    },
    {
      "id": 142112,
      "geometry": "POINT (-82.674718 41.41761)",
      "poi_name": "Jimmy John's",
      "osm_id": 6303099664,
      "amenity": "fast_food",
      "cuisine": "sandwich",
      "takeaway": "yes",
      "official_name": "Jimmy John's Gourmet Sandwiches",
      "value": 271.9625359723108
    },
    {
      "id": 142045,
      "geometry": "POINT (-82.68673 41.431759)",
      "poi_name": "Little Caesars",
      "osm_id": 6301686591,
      "amenity": "fast_food",
      "cuisine": "pizza",
      "website": "https://littlecaesars.com/en-us/store/10136/",
      "takeaway": "yes",
      "value": 271.9625359723108
    },
    {
      "id": 142113,
      "geometry": "POINT (-82.673057 41.415845)",
      "poi_name": "Barry Bagels",
      "osm_id": 6303099886,
      "amenity": "fast_food",
      "cuisine": "bagel",
      "value": 271.9625359723108
    },
    {
      "id": 142114,
      "geometry": "POINT (-82.672933 41.415718)",
      "poi_name": "Rapid Fired Pizza",
      "osm_id": 6303099887,
      "amenity": "fast_food",
      "cuisine": "pizza",
      "value": 271.9625359723108
    },
    {
      "id": 142119,
      "geometry": "POINT (-82.664787 41.409977)",
      "poi_name": "Mr. Hero",
      "osm_id": 6303192015,
      "amenity": "fast_food",
      "cuisine": "sandwich",
      "value": 271.9625359723108
    },
    {
      "id": 142120,
      "geometry": "POINT (-82.66749 41.41079)",
      "poi_name": "Dunkin'",
      "osm_id": 6303192061,
      "amenity": "fast_food",
      "cuisine": "donut;coffee_shop",
      "takeaway": "yes",
      "value": 271.9625359723108
    },
    {
      "id": 142122,
      "geometry": "POINT (-82.663539 41.408944)",
      "poi_name": "Subway",
      "osm_id": 6303192134,
      "amenity": "fast_food",
      "cuisine": "sandwich",
      "takeaway": "yes",
      "value": 271.9625359723108
    },
    {
      "id": 143217,
      "geometry": "POINT (-82.077637 41.420642)",
      "poi_name": "Steak 'n Shake",
      "osm_id": 6332167847,
      "amenity": "fast_food",
      "cuisine": "burger",
      "takeaway": "yes",
      "addr_state": "OH",
      "addr_city": "Sheffield",
      "addr_postcode": "44035",
      "addr_street": "North Abbe Road",
      "addr_housenumber": "5300",
      "value": 271.9625359723108
    },
    {
      "id": 142252,
      "geometry": "POINT (-82.126707 41.38361)",
      "poi_name": "Mr. Hero",
      "osm_id": 6308224372,
      "amenity": "fast_food",
      "value": 271.9625359723108
    },
    {
      "id": 151296,
      "geometry": "POINT (-81.951881 41.464767)",
      "poi_name": "Jimmy John's",
      "osm_id": 4092541375,
      "amenity": "fast_food",
      "cuisine": "sandwich",
      "takeaway": "yes",
      "official_name": "Jimmy John's Gourmet Sandwiches",
      "value": 271.9625359723108
    },
    {
      "id": 151024,
      "geometry": "POINT (-81.839089 41.410339)",
      "poi_name": "Auntie Anne's",
      "osm_id": 4077266958,
      "amenity": "fast_food",
      "cuisine": "pretzel",
      "takeaway": "yes",
      "value": 271.9625359723108
    },
    {
      "id": 151025,
      "geometry": "POINT (-81.838842 41.410429)",
      "poi_name": "Bruegger's Bagels",
      "osm_id": 4077266959,
      "amenity": "fast_food",
      "cuisine": "bagel",
      "takeaway": "yes",
      "value": 271.9625359723108
    },
    {
      "id": 151026,
      "geometry": "POINT (-81.838794 41.410603)",
      "poi_name": "Chick-fil-A",
      "osm_id": 4077266960,
      "amenity": "fast_food",
      "cuisine": "chicken",
      "takeaway": "yes",
      "value": 271.9625359723108
    },
    {
      "id": 151027,
      "geometry": "POINT (-81.839118 41.410232)",
      "poi_name": "Cinnabon",
      "osm_id": 4077266961,
      "amenity": "fast_food",
      "cuisine": "dessert",
      "takeaway": "yes",
      "value": 271.9625359723108
    },
    {
      "id": 151028,
      "geometry": "POINT (-81.838763 41.410704)",
      "poi_name": "Currito",
      "osm_id": 4077266962,
      "amenity": "fast_food",
      "value": 271.9625359723108
    },
    {
      "id": 151029,
      "geometry": "POINT (-81.838977 41.410724)",
      "poi_name": "Dunkin' Donuts",
      "osm_id": 4077266963,
      "amenity": "fast_food",
      "cuisine": "donut;coffee_shop",
      "takeaway": "yes",
      "value": 271.9625359723108
    },
    {
      "id": 151030,
      "geometry": "POINT (-81.838821 41.410508)",
      "poi_name": "Villa Italian Kitchen",
      "osm_id": 4077266968,
      "amenity": "fast_food",
      "value": 271.9625359723108
    },
    {
      "id": 151032,
      "geometry": "POINT (-81.841585 41.407673)",
      "poi_name": "Banana's",
      "osm_id": 4077331161,
      "amenity": "fast_food",
      "value": 271.9625359723108
    },
    {
      "id": 151034,
      "geometry": "POINT (-81.841589 41.407754)",
      "poi_name": "Green Leaf",
      "osm_id": 4077331163,
      "amenity": "fast_food",
      "value": 271.9625359723108
    },
    {
      "id": 159647,
      "geometry": "POINT (-82.750904 41.440961)",
      "poi_name": "Subway",
      "osm_id": 4801752967,
      "amenity": "fast_food",
      "cuisine": "sandwich",
      "opening_hours": "Mo-Fr 08:30-22:00; Sa-Su 08:00-22:00",
      "phone": "+1-419-621-8075",
      "takeaway": "yes",
      "delivery": "yes",
      "addr_state": "OH",
      "addr_city": "Sandusky",
      "addr_postcode": "44870",
      "addr_street": "Venice Road",
      "addr_housenumber": "3608",
      "value": 271.9625359723108
    },
    {
      "id": 156196,
      "geometry": "POINT (-82.021983 41.460253)",
      "poi_name": "Five Guys",
      "osm_id": 4643253450,
      "amenity": "fast_food",
      "cuisine": "burger",
      "takeaway": "yes",
      "official_name": "Five Guys Burgers and Fries",
      "value": 271.9625359723108
    },
    {
      "id": 151273,
      "geometry": "POINT (-81.951879 41.464588)",
      "poi_name": "Chipotle",
      "osm_id": 4091081280,
      "amenity": "fast_food",
      "cuisine": "mexican",
      "takeaway": "yes",
      "official_name": "Chipotle Mexican Grill",
      "value": 271.9625359723108
    },
    {
      "id": 154132,
      "geometry": "POINT (-82.682644 41.48174)",
      "poi_name": "Auntie Annie's",
      "osm_id": 4225325168,
      "amenity": "fast_food",
      "website": "https://www.cedarpoint.com/play/drinks-dining/auntie-annes",
      "value": 271.9625359723108
    },
    {
      "id": 160379,
      "geometry": "POINT (-81.864493 41.441154)",
      "poi_name": "Subway",
      "osm_id": 4832951180,
      "amenity": "fast_food",
      "cuisine": "sandwich",
      "takeaway": "yes",
      "value": 271.9625359723108
    },
    {
      "id": 159714,
      "geometry": "POINT (-82.713035 41.457246)",
      "poi_name": "Hot Dog Tony's Restaurant and Bar",
      "osm_id": 4803829610,
      "amenity": "fast_food",
      "cuisine": "hot_dog",
      "opening_hours": "Mo-Th 11:00-20:00; Fr-Sa 11:00-01:00; Su 11:00-21:00",
      "website": "http://www.hdtrestaurant.com",
      "phone": "+1-419-502-9021",
      "addr_state": "OH",
      "addr_city": "Sandusky",
      "addr_postcode": "44870",
      "addr_street": "West Water Street",
      "addr_housenumber": "115",
      "value": 271.9625359723108
    },
    {
      "id": 163553,
      "geometry": "POINT (-83.50001 41.706833)",
      "poi_name": "Little Caesars",
      "osm_id": 9424051962,
      "amenity": "fast_food",
      "cuisine": "pizza",
      "website": "https://littlecaesars.com/en-us/store/1365/",
      "takeaway": "yes",
      "value": 271.9625359723108
    },
    {
      "id": 163501,
      "geometry": "POINT (-83.370196 41.637651)",
      "poi_name": "Subway",
      "osm_id": 9421623780,
      "amenity": "fast_food",
      "cuisine": "sandwich",
      "takeaway": "yes",
      "value": 271.9625359723108
    },
    {
      "id": 163509,
      "geometry": "POINT (-83.464717 41.522488)",
      "poi_name": "Subway",
      "osm_id": 9421654610,
      "amenity": "fast_food",
      "cuisine": "sandwich",
      "takeaway": "yes",
      "value": 271.9625359723108
    },
    {
      "id": 161586,
      "geometry": "POINT (-82.045506 41.494274)",
      "poi_name": "Domino's",
      "osm_id": 4890123595,
      "amenity": "fast_food",
      "cuisine": "pizza",
      "opening_hours": "Mo-Th 10:00-24:00, Fr,Sa 10:00-01:00, Su 10:30-24:00",
      "takeaway": "yes",
      "drive_through": "no",
      "outdoor_seating": "no",
      "addr_state": "OH",
      "addr_city": "Avon Lake",
      "addr_postcode": "44012",
      "addr_street": "Walker Road",
      "addr_housenumber": "33382",
      "value": 271.9625359723108
    },
    {
      "id": 161588,
      "geometry": "POINT (-82.04463 41.494273)",
      "poi_name": "Subway",
      "osm_id": 4890123599,
      "amenity": "fast_food",
      "cuisine": "sandwich",
      "opening_hours": "Mo-Fr 08:00-22:00; Sa 09:00-22:00; Su 09:00-21:00",
      "takeaway": "yes",
      "drive_through": "no",
      "addr_state": "OH",
      "addr_city": "Avon Lake",
      "addr_postcode": "44012",
      "addr_street": "Walker Road",
      "addr_housenumber": "33382",
      "value": 271.9625359723108
    },
    {
      "id": 163312,
      "geometry": "POINT (-83.359155 41.531969)",
      "poi_name": "Subway",
      "osm_id": 9411969047,
      "amenity": "fast_food",
      "cuisine": "sandwich",
      "takeaway": "yes",
      "drive_through": "no",
      "value": 271.9625359723108
    },
    {
      "id": 163313,
      "geometry": "POINT (-83.359364 41.532024)",
      "poi_name": "Marco's Pizza",
      "osm_id": 9411969048,
      "amenity": "fast_food",
      "cuisine": "pizza",
      "takeaway": "yes",
      "drive_through": "no",
      "delivery": "yes",
      "value": 271.9625359723108
    },
    {
      "id": 163315,
      "geometry": "POINT (-83.362648 41.532984)",
      "poi_name": "Taco Bell",
      "osm_id": 9412000473,
      "amenity": "fast_food",
      "cuisine": "tex-mex",
      "website": "https://locations.tacobell.com/oh/genoa/22220-west-state-route-51.html",
      "takeaway": "yes",
      "drive_through": "yes",
      "value": 271.9625359723108
    },
    {
      "id": 163321,
      "geometry": "POINT (-83.502441 41.627302)",
      "poi_name": "Rally's",
      "osm_id": 9412234459,
      "amenity": "fast_food",
      "cuisine": "burger",
      "takeaway": "only",
      "drive_through": "yes",
      "value": 271.9625359723108
    },
    {
      "id": 163323,
      "geometry": "POINT (-83.501245 41.625743)",
      "poi_name": "Marco's Pizza",
      "osm_id": 9412234471,
      "amenity": "fast_food",
      "cuisine": "pizza",
      "takeaway": "yes",
      "value": 271.9625359723108
    },
    {
      "id": 163324,
      "geometry": "POINT (-83.498611 41.623998)",
      "poi_name": "Big Apple Deli",
      "osm_id": 9412234477,
      "amenity": "fast_food",
      "cuisine": "sandwich",
      "value": 271.9625359723108
    },
    {
      "id": 163325,
      "geometry": "POINT (-83.494827 41.62158)",
      "poi_name": "KFC",
      "osm_id": 9412270494,
      "amenity": "fast_food",
      "cuisine": "chicken",
      "website": "https://locations.kfc.com/oh/oregon/2224-woodville-road",
      "takeaway": "yes",
      "value": 271.9625359723108
    },
    {
      "id": 163327,
      "geometry": "POINT (-83.483841 41.614446)",
      "poi_name": "Taco Bell",
      "osm_id": 9412270496,
      "amenity": "fast_food",
      "cuisine": "tex-mex",
      "website": "https://locations.tacobell.com/oh/northwood/2900-woodville-rd-.html",
      "takeaway": "yes",
      "drive_through": "yes",
      "value": 271.9625359723108
    },
    {
      "id": 163328,
      "geometry": "POINT (-83.480607 41.612306)",
      "poi_name": "Subway",
      "osm_id": 9412270498,
      "amenity": "fast_food",
      "cuisine": "sandwich",
      "takeaway": "yes",
      "value": 271.9625359723108
    },
    {
      "id": 163329,
      "geometry": "POINT (-83.473236 41.607377)",
      "poi_name": "Burger King",
      "osm_id": 9412270502,
      "amenity": "fast_food",
      "cuisine": "burger",
      "takeaway": "yes",
      "drive_through": "yes",
      "value": 271.9625359723108
    },
    {
      "id": 163332,
      "geometry": "POINT (-83.425418 41.575073)",
      "poi_name": "Subway",
      "osm_id": 9412294243,
      "amenity": "fast_food",
      "cuisine": "sandwich",
      "takeaway": "yes",
      "value": 271.9625359723108
    },
    {
      "id": 174543,
      "geometry": "POINT (-81.840998 41.411504)",
      "poi_name": "Auntie Anne's",
      "osm_id": 2488130648,
      "amenity": "fast_food",
      "cuisine": "pretzel",
      "takeaway": "yes",
      "value": 271.9625359723108
    },
    {
      "id": 176415,
      "geometry": "POINT (-82.602012 41.227587)",
      "poi_name": "Subway",
      "osm_id": 2560869673,
      "amenity": "fast_food",
      "cuisine": "sandwich",
      "website": "https://www.subway.com/",
      "addr_postcode": "44857",
      "addr_street": "Benedict Ave",
      "addr_housenumber": "257",
      "value": 271.9625359723108
    },
    {
      "id": 179149,
      "geometry": "POINT (-82.184801 41.440912)",
      "poi_name": "McDonald's",
      "osm_id": 10750843297,
      "amenity": "fast_food",
      "cuisine": "burger",
      "website": "https://www.mcdonalds.com/us/en-us/location/oh/lorain/3221-oberlin-ave/16255.html",
      "takeaway": "yes",
      "addr_state": "OH",
      "addr_city": "Lorain",
      "addr_postcode": "44052",
      "addr_street": "Oberlin Avenue",
      "addr_housenumber": "3221",
      "value": 271.9625359723108
    },
    {
      "id": 178177,
      "geometry": "POINT (-82.011239 41.468167)",
      "poi_name": "Panera Bread",
      "osm_id": 10717479619,
      "amenity": "fast_food",
      "cuisine": "sandwich;bakery",
      "takeaway": "yes",
      "addr_state": "OH",
      "addr_city": "Avon",
      "addr_postcode": "44011",
      "addr_street": "Chester Road",
      "addr_housenumber": "35660",
      "value": 271.9625359723108
    },
    {
      "id": 178280,
      "geometry": "POINT (-81.990621 41.460132)",
      "poi_name": "Slim Chickens",
      "osm_id": 10719559187,
      "amenity": "fast_food",
      "cuisine": "chicken",
      "takeaway": "yes",
      "addr_state": "OH",
      "addr_city": "Avon",
      "addr_postcode": "44011",
      "addr_street": "Nagel Road",
      "addr_housenumber": "1822",
      "value": 271.9625359723108
    },
    {
      "id": 178289,
      "geometry": "POINT (-82.239425 41.41279)",
      "poi_name": "Panera Bread",
      "osm_id": 10719757148,
      "amenity": "fast_food",
      "cuisine": "sandwich;bakery",
      "takeaway": "yes",
      "addr_state": "OH",
      "addr_city": "Amherst",
      "addr_postcode": "44001",
      "addr_street": "Oak Point Road",
      "addr_housenumber": "7560",
      "value": 271.9625359723108
    },
    {
      "id": 178290,
      "geometry": "POINT (-82.239431 41.413271)",
      "poi_name": "Subway",
      "osm_id": 10719757173,
      "amenity": "fast_food",
      "cuisine": "sandwich",
      "takeaway": "yes",
      "addr_state": "OH",
      "addr_city": "Amherst",
      "addr_postcode": "44001",
      "addr_street": "Oak Point Road",
      "addr_housenumber": "7570",
      "value": 271.9625359723108
    },
    {
      "id": 180779,
      "geometry": "POINT (-82.969647 41.308015)",
      "poi_name": "East of Chicago Pizza",
      "osm_id": 10817156300,
      "amenity": "fast_food",
      "cuisine": "pizza",
      "takeaway": "yes",
      "value": 271.9625359723108
    },
    {
      "id": 182544,
      "geometry": "POINT (-82.750258 41.544796)",
      "poi_name": "Smoothieside",
      "osm_id": 10895016516,
      "amenity": "fast_food",
      "cuisine": "juice",
      "value": 271.9625359723108
    },
    {
      "id": 185741,
      "geometry": "POINT (-82.688456 41.482106)",
      "poi_name": "C.J.'s Provisions",
      "osm_id": 7880513881,
      "amenity": "fast_food",
      "cuisine": "american",
      "website": "https://www.cedarpoint.com/play/drinks-dining/cjs-provisions-toot-sweets",
      "value": 271.9625359723108
    },
    {
      "id": 189260,
      "geometry": "POINT (-82.681759 41.482314)",
      "poi_name": "Melt Bar and Grilled",
      "osm_id": 1223981527,
      "amenity": "fast_food",
      "cuisine": "american",
      "website": "https://www.cedarpoint.com/play/drinks-dining/melt",
      "value": 271.9625359723108
    },
    {
      "id": 185916,
      "geometry": "POINT (-82.683156 41.481954)",
      "poi_name": "Sky Ride Refreshments",
      "osm_id": 7891845499,
      "amenity": "fast_food",
      "cuisine": "american",
      "value": 271.9625359723108
    },
    {
      "id": 188996,
      "geometry": "POINT (-82.639987 41.232655)",
      "poi_name": "H&B Hop",
      "osm_id": 1196549775,
      "amenity": "fast_food",
      "cuisine": "american",
      "value": 271.9625359723108
    },
    {
      "id": 185735,
      "geometry": "POINT (-82.6884 41.482065)",
      "poi_name": "Auntie Anne's and Cinnabon",
      "osm_id": 7880476928,
      "amenity": "fast_food",
      "cuisine": "american",
      "website": "https://www.cedarpoint.com/play/drinks-dining/auntie-annes-cinnabon",
      "value": 271.9625359723108
    },
    {
      "id": 185738,
      "geometry": "POINT (-82.691958 41.485982)",
      "poi_name": "Miss Keat's Smokehouse",
      "osm_id": 7880487901,
      "amenity": "fast_food",
      "cuisine": "american",
      "website": "https://www.cedarpoint.com/play/drinks-dining/miss-keats-smokehouse",
      "value": 271.9625359723108
    },
    {
      "id": 185739,
      "geometry": "POINT (-82.692064 41.485917)",
      "poi_name": "Last Chance Saloon",
      "osm_id": 7880487902,
      "amenity": "fast_food",
      "cuisine": "american",
      "website": "https://www.cedarpoint.com/play/drinks-dining/last-chance-saloon-lusty-lils-palace",
      "value": 271.9625359723108
    },
    {
      "id": 185969,
      "geometry": "POINT (-82.67656 41.442306)",
      "poi_name": "Big Daddy's Snack Shack",
      "osm_id": 7899218434,
      "amenity": "fast_food",
      "cuisine": "american",
      "value": 271.9625359723108
    },
    {
      "id": 185977,
      "geometry": "POINT (-83.201754 41.112534)",
      "poi_name": "Penn Station",
      "osm_id": 7899990424,
      "amenity": "fast_food",
      "cuisine": "sandwich",
      "takeaway": "yes",
      "value": 271.9625359723108
    },
    {
      "id": 189245,
      "geometry": "POINT (-82.679533 41.48059)",
      "poi_name": "Lakeside Express",
      "osm_id": 1223127026,
      "amenity": "fast_food",
      "cuisine": "burger",
      "website": "https://www.cedarpoint.com/play/drinks-dining/lakeside-express",
      "value": 271.9625359723108
    },
    {
      "id": 189246,
      "geometry": "POINT (-82.680202 41.478931)",
      "poi_name": "Bayou Refreshments",
      "osm_id": 1223127053,
      "amenity": "fast_food",
      "cuisine": "hot_dog",
      "value": 271.9625359723108
    },
    {
      "id": 189296,
      "geometry": "POINT (-82.6856 41.483512)",
      "poi_name": "Grandstand Refreshments",
      "osm_id": 1224883593,
      "amenity": "fast_food",
      "cuisine": "american",
      "value": 271.9625359723108
    },
    {
      "id": 189297,
      "geometry": "POINT (-82.691535 41.484501)",
      "poi_name": "Wagon Wheel Pizza",
      "osm_id": 1224883612,
      "amenity": "fast_food",
      "cuisine": "pizza",
      "website": "https://www.cedarpoint.com/play/drinks-dining/wagon-wheel-pizza",
      "value": 271.9625359723108
    },
    {
      "id": 192448,
      "geometry": "POINT (-81.909564 41.420338)",
      "poi_name": "Five Guys",
      "osm_id": 1447446959,
      "amenity": "fast_food",
      "cuisine": "burger",
      "takeaway": "yes",
      "official_name": "Five Guys Burgers and Fries",
      "addr_state": "OH",
      "addr_city": "North Olmsted",
      "addr_postcode": "44070",
      "addr_street": "Lorain Road",
      "addr_housenumber": "26037",
      "value": 271.9625359723108
    },
    {
      "id": 202382,
      "geometry": "POINT (-83.363378 41.926616)",
      "poi_name": "Popeyes",
      "osm_id": 7022628085,
      "amenity": "fast_food",
      "cuisine": "chicken",
      "takeaway": "yes",
      "drive_through": "yes",
      "official_name": "Popeyes Louisiana Kitchen",
      "value": 271.9625359723108
    },
    {
      "id": 194755,
      "geometry": "POINT (-83.395736 41.882456)",
      "poi_name": "Burger King",
      "osm_id": 10283035848,
      "amenity": "fast_food",
      "cuisine": "burger",
      "takeaway": "yes",
      "value": 271.9625359723108
    },
    {
      "id": 195282,
      "geometry": "POINT (-82.217199 41.287105)",
      "poi_name": "Domino's",
      "osm_id": 10299345796,
      "amenity": "fast_food",
      "cuisine": "pizza",
      "opening_hours": "Su-Th 10:30-24:00, Fr,Sa 10:30-01:00",
      "takeaway": "yes",
      "value": 271.9625359723108
    },
    {
      "id": 195296,
      "geometry": "POINT (-82.217603 41.291188)",
      "poi_name": "Subway",
      "osm_id": 10299411673,
      "amenity": "fast_food",
      "cuisine": "sandwich",
      "opening_hours": "Mo-Su 08:00-21:00",
      "takeaway": "yes",
      "value": 271.9625359723108
    },
    {
      "id": 208385,
      "geometry": "POINT (-82.956541 41.369233)",
      "poi_name": "Burger King",
      "osm_id": 4988926622,
      "amenity": "fast_food",
      "cuisine": "burger",
      "takeaway": "yes",
      "value": 271.9625359723108
    },
    {
      "id": 208386,
      "geometry": "POINT (-82.956369 41.36922)",
      "poi_name": "Sbarro",
      "osm_id": 4988926623,
      "amenity": "fast_food",
      "cuisine": "pizza",
      "takeaway": "yes",
      "value": 271.9625359723108
    },
    {
      "id": 208388,
      "geometry": "POINT (-82.956426 41.36922)",
      "poi_name": "Cinnabon",
      "osm_id": 4988927321,
      "amenity": "fast_food",
      "cuisine": "dessert",
      "takeaway": "yes",
      "value": 271.9625359723108
    },
    {
      "id": 208389,
      "geometry": "POINT (-82.956305 41.369218)",
      "poi_name": "Einstein Bros. Bagels",
      "osm_id": 4988927322,
      "amenity": "fast_food",
      "cuisine": "bagel",
      "takeaway": "yes",
      "value": 271.9625359723108
    },
    {
      "id": 220632,
      "geometry": "POINT (-82.656065 41.404841)",
      "poi_name": "We're Rolling Pretzels",
      "osm_id": 9380641074,
      "amenity": "fast_food",
      "value": 271.9625359723108
    },
    {
      "id": 209060,
      "geometry": "POINT (-82.222986 41.379937)",
      "poi_name": "Popeyes",
      "osm_id": 5020966529,
      "amenity": "fast_food",
      "cuisine": "chicken",
      "takeaway": "yes",
      "official_name": "Popeyes Louisiana Kitchen",
      "value": 271.9625359723108
    },
    {
      "id": 209856,
      "geometry": "POINT (-81.903682 41.387602)",
      "poi_name": "Subway",
      "osm_id": 5062445947,
      "amenity": "fast_food",
      "cuisine": "sandwich",
      "takeaway": "yes",
      "value": 271.9625359723108
    },
    {
      "id": 211139,
      "geometry": "POINT (-81.898866 41.42521)",
      "poi_name": "Domino's",
      "osm_id": 5141984059,
      "amenity": "fast_food",
      "cuisine": "pizza",
      "takeaway": "yes",
      "addr_state": "OH",
      "addr_city": "North Olmsted",
      "addr_postcode": "44070",
      "addr_street": "Lorain Road",
      "addr_housenumber": "25044",
      "value": 271.9625359723108
    },
    {
      "id": 217582,
      "geometry": "POINT (-81.854916 41.445937)",
      "poi_name": "Domino's",
      "osm_id": 9231764730,
      "amenity": "fast_food",
      "cuisine": "pizza",
      "takeaway": "yes",
      "addr_state": "OH",
      "addr_city": "Fairview Park",
      "addr_postcode": "44126",
      "addr_street": "Lorain Road",
      "addr_housenumber": "21154",
      "value": 271.9625359723108
    },
    {
      "id": 227398,
      "geometry": "POINT (-83.383085 40.950749)",
      "poi_name": "Subway",
      "osm_id": 4306620281,
      "amenity": "fast_food",
      "cuisine": "sandwich",
      "takeaway": "yes",
      "value": 271.9625359723108
    },
    {
      "id": 224214,
      "geometry": "POINT (-83.418209 41.341705)",
      "poi_name": "Chester's",
      "osm_id": 11076072144,
      "amenity": "fast_food",
      "cuisine": "chicken",
      "takeaway": "yes",
      "value": 271.9625359723108
    },
    {
      "id": 228669,
      "geometry": "POINT (-83.406901 41.908018)",
      "poi_name": "Mary Sacco's Pizza",
      "osm_id": 4351586923,
      "amenity": "fast_food",
      "cuisine": "pizza",
      "value": 271.9625359723108
    },
    {
      "id": 227625,
      "geometry": "POINT (-81.901098 41.419698)",
      "poi_name": "Chick-fil-A",
      "osm_id": 4314475715,
      "amenity": "fast_food",
      "cuisine": "chicken",
      "takeaway": "yes",
      "addr_state": "OH",
      "addr_city": "North Olmsted",
      "addr_postcode": "44070",
      "addr_street": "Great Northern Boulevard",
      "addr_housenumber": "4779",
      "value": 271.9625359723108
    },
    {
      "id": 228855,
      "geometry": "POINT (-83.212209 41.11064)",
      "poi_name": "Jimmy John's",
      "osm_id": 4358188295,
      "amenity": "fast_food",
      "cuisine": "sandwich",
      "takeaway": "yes",
      "drive_through": "yes",
      "official_name": "Jimmy John's Gourmet Sandwiches",
      "value": 271.9625359723108
    },
    {
      "id": 228856,
      "geometry": "POINT (-83.209135 41.110509)",
      "poi_name": "KFC",
      "osm_id": 4358190425,
      "amenity": "fast_food",
      "cuisine": "chicken",
      "website": "https://locations.kfc.com/oh/tiffin/2004-w-state-route-18",
      "takeaway": "yes",
      "value": 271.9625359723108
    },
    {
      "id": 228857,
      "geometry": "POINT (-83.20914 41.110396)",
      "poi_name": "Long John Silver's",
      "osm_id": 4358190426,
      "amenity": "fast_food",
      "cuisine": "seafood",
      "takeaway": "yes",
      "value": 271.9625359723108
    },
    {
      "id": 228858,
      "geometry": "POINT (-83.208596 41.110662)",
      "poi_name": "Subway",
      "osm_id": 4358190450,
      "amenity": "fast_food",
      "cuisine": "sandwich",
      "takeaway": "yes",
      "drive_through": "yes",
      "value": 271.9625359723108
    },
    {
      "id": 228860,
      "geometry": "POINT (-83.191224 41.113547)",
      "poi_name": "Little Caesars",
      "osm_id": 4358206100,
      "amenity": "fast_food",
      "cuisine": "pizza",
      "website": "https://littlecaesars.com/en-us/store/9569/",
      "takeaway": "yes",
      "value": 271.9625359723108
    },
    {
      "id": 229446,
      "geometry": "POINT (-82.696972 41.432491)",
      "poi_name": "Papa John's",
      "osm_id": 4381516826,
      "amenity": "fast_food",
      "cuisine": "pizza",
      "takeaway": "yes",
      "value": 271.9625359723108
    },
    {
      "id": 229450,
      "geometry": "POINT (-81.832639 41.419182)",
      "poi_name": "Burger King",
      "osm_id": 4381516844,
      "amenity": "fast_food",
      "cuisine": "burger",
      "takeaway": "yes",
      "value": 271.9625359723108
    },
    {
      "id": 230445,
      "geometry": "POINT (-81.95959 41.461952)",
      "poi_name": "Jersey Mike's Subs",
      "osm_id": 4426432358,
      "amenity": "fast_food",
      "cuisine": "sandwich",
      "takeaway": "yes",
      "value": 271.9625359723108
    },
    {
      "id": 232362,
      "geometry": "POINT (-81.938827 41.408424)",
      "poi_name": "Subway",
      "osm_id": 4520938474,
      "amenity": "fast_food",
      "cuisine": "sandwich",
      "takeaway": "yes",
      "drive_through": "no",
      "value": 271.9625359723108
    },
    {
      "id": 235471,
      "geometry": "POINT (-81.952905 41.459721)",
      "poi_name": "Liquid Planet",
      "osm_id": 5757227219,
      "amenity": "fast_food",
      "value": 271.9625359723108
    },
    {
      "id": 237538,
      "geometry": "POINT (-83.201546 41.112554)",
      "poi_name": "Chipotle",
      "osm_id": 5837468857,
      "amenity": "fast_food",
      "cuisine": "mexican",
      "takeaway": "yes",
      "official_name": "Chipotle Mexican Grill",
      "value": 271.9625359723108
    },
    {
      "id": 242996,
      "geometry": "POINT (-82.818926 41.652)",
      "poi_name": "Subway",
      "osm_id": 7616768356,
      "amenity": "fast_food",
      "cuisine": "sandwich",
      "takeaway": "yes",
      "value": 271.9625359723108
    },
    {
      "id": 240546,
      "geometry": "POINT (-81.996779 41.398377)",
      "poi_name": "Mr. Hero",
      "osm_id": 5979235725,
      "amenity": "fast_food",
      "value": 271.9625359723108
    },
    {
      "id": 240734,
      "geometry": "POINT (-82.086204 41.374415)",
      "poi_name": "China Wok",
      "osm_id": 5986404359,
      "amenity": "fast_food",
      "cuisine": "asian",
      "value": 271.9625359723108
    },
    {
      "id": 240735,
      "geometry": "POINT (-82.086913 41.374252)",
      "poi_name": "Subway",
      "osm_id": 5986404361,
      "amenity": "fast_food",
      "cuisine": "sandwich",
      "takeaway": "yes",
      "value": 271.9625359723108
    },
    {
      "id": 239937,
      "geometry": "POINT (-82.019054 41.46879)",
      "poi_name": "Culver's",
      "osm_id": 5943291997,
      "amenity": "fast_food",
      "cuisine": "burger",
      "addr_state": "OH",
      "addr_city": "Avon",
      "addr_postcode": "44011",
      "addr_street": "Center Road",
      "addr_housenumber": "1439",
      "value": 271.9625359723108
    },
    {
      "id": 240340,
      "geometry": "POINT (-82.20839 41.416928)",
      "poi_name": "Chipotle",
      "osm_id": 5967876185,
      "amenity": "fast_food",
      "cuisine": "mexican",
      "takeaway": "yes",
      "official_name": "Chipotle Mexican Grill",
      "addr_state": "OH",
      "addr_city": "Amherst",
      "addr_postcode": "44001",
      "addr_street": "North Leavitt Road",
      "addr_housenumber": "901",
      "value": 271.9625359723108
    },
    {
      "id": 243000,
      "geometry": "POINT (-82.817368 41.652769)",
      "poi_name": "Chicken Patio",
      "osm_id": 7616907361,
      "amenity": "fast_food",
      "cuisine": "chicken",
      "value": 271.9625359723108
    },
    {
      "id": 244434,
      "geometry": "POINT (-83.420547 41.17736)",
      "poi_name": "Subway",
      "osm_id": 7724654033,
      "amenity": "fast_food",
      "cuisine": "sandwich",
      "takeaway": "yes",
      "value": 271.9625359723108
    },
    {
      "id": 243667,
      "geometry": "POINT (-82.819559 41.653974)",
      "poi_name": "The Little Galley",
      "osm_id": 7668185219,
      "amenity": "fast_food",
      "value": 271.9625359723108
    }
  ],
  "answer_type": "name",
  "question_entities": {
    "[2]": {
      "distance": 150000,
      "text": "150 kilometers"
    },
    "[3]": {
      "main_category": "leisure",
      "sub_category": "stadium",
      "display_name": "Barons Bus Arena, Parma, OH",
      "geo_wkt": "POINT (-81.758046 41.416012)",
      "poi": {
        "id": 247265,
        "geometry": "POINT (-81.758046 41.416012)",
        "poi_name": "Barons Bus Arena",
        "osm_id": 8888267688,
        "leisure": "stadium",
        "addr_state": "OH",
        "addr_city": "Parma",
        "addr_postcode": "44129",
        "addr_street": "Hauserman Road",
        "addr_housenumber": "5310"
      }
    },
    "[4]": {
      "main_category": "tourism",
      "sub_category": "gallery",
      "display_name": "Bottle & Bottega, North Olmsted, OH",
      "geo_wkt": "POINT (-81.898988 41.419561)",
      "poi": {
        "id": 9701,
        "geometry": "POINT (-81.898988 41.419561)",
        "poi_name": "Bottle & Bottega",
        "osm_id": 8944836844,
        "tourism": "gallery",
        "addr_state": "OH",
        "addr_city": "North Olmsted",
        "addr_postcode": "44070",
        "addr_street": "Brookpark Road",
        "addr_housenumber": "25102"
      }
    },
    "[1]": {
      "main_category": "amenity",
      "sub_category": "fast_food"
    }
  },
  "id": 1626,
  "type": "range:towards+name"
}