{
  "question": "Looking for a thai restaurant that is conveniently located within 50 kilometers from JFK Hockey Fields, Washington, DC. Can you assist me?",
  "sql": "SELECT * FROM pois\nWHERE ST_DWithin(pois.geometry, ST_GeomFromText('POINT (-77.043989 38.888538)',4326)::geography, 50000)\nAND amenity = 'restaurant'\nAND cuisine ILIKE '%thai%';\n",
  "answers": [
    {
      "id": 27939,
      "geometry": "POINT (-77.026659 38.996157)",
      "poi_name": "Thai at Silver Spring",
      "osm_id": 459790883,
      "amenity": "restaurant",
      "cuisine": "thai",
      "opening_hours": "Mo-Th 11:00-22:00; Fr-Sa 11:30-23:00; Su 11:30-22:00",
      "website": "https://www.thaiatsilverspring.com",
      "phone": "+1 301-650-0666",
      "addr_state": "MD",
      "addr_city": "Silver Spring",
      "addr_postcode": "20910",
      "addr_street": "Ellsworth Drive",
      "addr_housenumber": "921"
    },
    {
      "id": 28026,
      "geometry": "POINT (-77.045687 38.909474)",
      "poi_name": "Bangkok Thai Dining",
      "osm_id": 462044729,
      "amenity": "restaurant",
      "cuisine": "thai"
    },
    {
      "id": 32720,
      "geometry": "POINT (-77.150419 38.867226)",
      "poi_name": "Bangkok Golden",
      "osm_id": 2636151247,
      "amenity": "restaurant",
      "cuisine": "thai",
      "addr_state": "VA",
      "addr_city": "Falls Church",
      "addr_postcode": "22044",
      "addr_street": "Leesburg Pike",
      "addr_housenumber": "6395"
    },
    {
      "id": 35602,
      "geometry": "POINT (-77.493298 39.010911)",
      "poi_name": "Bangrak Thai Cuisine",
      "osm_id": 2725168680,
      "amenity": "restaurant",
      "cuisine": "thai",
      "website": "https://www.bangrakthaicuisine.com/"
    },
    {
      "id": 37450,
      "geometry": "POINT (-77.096754 38.990547)",
      "poi_name": "Sala Thai",
      "osm_id": 2812475004,
      "amenity": "restaurant",
      "cuisine": "thai",
      "website": "https://www.salathaidc.com/",
      "phone": "(301) 654-4676",
      "addr_city": "Bethesda",
      "addr_postcode": "20814",
      "addr_street": "Cordell Avenue",
      "addr_housenumber": "4828"
    },
    {
      "id": 42628,
      "geometry": "POINT (-77.046837 38.904163)",
      "poi_name": "Soi 38",
      "osm_id": 3072858192,
      "amenity": "restaurant",
      "cuisine": "thai",
      "addr_street": "L Street Northwest",
      "addr_housenumber": "2101"
    },
    {
      "id": 45677,
      "geometry": "POINT (-77.364496 38.680271)",
      "poi_name": "Pa Nuang Thai Cuisine",
      "osm_id": 3223499997,
      "amenity": "restaurant",
      "cuisine": "thai"
    },
    {
      "id": 48127,
      "geometry": "POINT (-77.375375 38.927703)",
      "poi_name": "La Ong Thai",
      "osm_id": 3367109720,
      "amenity": "restaurant",
      "cuisine": "thai",
      "description": "Delivery within 3 miles. Minimum order $20.",
      "opening_hours": "Mo-Fr 11:00-22:00; Sa-Su 12:00-22:00",
      "website": "https://laongthai.com/",
      "capacity": "20",
      "phone": "+1 703-429-4056",
      "takeaway": "yes",
      "delivery": "yes",
      "addr_state": "VA",
      "addr_city": "Herndon",
      "addr_postcode": "20171",
      "addr_street": "John Milton Drive",
      "addr_housenumber": "2521"
    },
    {
      "id": 50628,
      "geometry": "POINT (-76.99668 38.884565)",
      "poi_name": "Sanphan Thai",
      "osm_id": 3496169033,
      "amenity": "restaurant",
      "cuisine": "thai",
      "opening_hours": "Su-Th 11:00-15:30, 16:30-21:15; Fr-Sa 11:00-15:30, 16:30-21:45",
      "website": "https://www.sanphanrestaurant.com/",
      "phone": "+1 202-544-9368",
      "addr_street": "Pennsylvania Avenue Southeast",
      "addr_housenumber": "653"
    },
    {
      "id": 52351,
      "geometry": "POINT (-77.086349 38.889708)",
      "poi_name": "Sawatdee",
      "osm_id": 578402212,
      "amenity": "restaurant",
      "cuisine": "thai",
      "opening_hours": "Mo-Su 11:30-22:00",
      "website": "https://www.sawatdeeva.com/",
      "phone": "+1 703-243-8181"
    },
    {
      "id": 52382,
      "geometry": "POINT (-77.141963 38.885485)",
      "poi_name": "Thai Noi",
      "osm_id": 581252705,
      "amenity": "restaurant",
      "cuisine": "thai",
      "opening_hours": "Mo off; Tu-Fr 11:30-15:00, 17:00-21:30; Sa 12:00-15:00, 17:00-21:30; Su 17:00-21:00",
      "website": "https://thainoy.com/",
      "phone": "+1 703-534-7474",
      "addr_state": "VA",
      "addr_city": "Arlington",
      "addr_postcode": "22205",
      "addr_street": "Washington Boulevard",
      "addr_housenumber": "5880"
    },
    {
      "id": 52445,
      "geometry": "POINT (-77.068157 39.152769)",
      "poi_name": "Thai Cuisine",
      "osm_id": 583186054,
      "amenity": "restaurant",
      "cuisine": "thai",
      "delivery": "yes",
      "addr_housenumber": "3434"
    },
    {
      "id": 53539,
      "geometry": "POINT (-77.078639 38.894292)",
      "poi_name": "Thai Select",
      "osm_id": 10083804816,
      "amenity": "restaurant",
      "cuisine": "thai",
      "opening_hours": "Mo-Su 11:00-22:00",
      "website": "https://www.thai-selectrestaurant.com/",
      "phone": "+1 703-565-2661",
      "addr_state": "VA",
      "addr_city": "Arlington",
      "addr_postcode": "22209",
      "addr_street": "Wilson Boulevard",
      "addr_housenumber": "1713"
    },
    {
      "id": 55379,
      "geometry": "POINT (-76.88443 39.211583)",
      "poi_name": "Mayflower IV",
      "osm_id": 10184666917,
      "amenity": "restaurant",
      "cuisine": "asian;chicken;chinese;noodle;seafood;thai",
      "opening_hours": "Mo-Th 11:00-21:30; Fr-Sa 11:00-22:30; Su 12:00-21:00",
      "website": "https://www.mayflowervimd.com",
      "phone": "(410) 740-9898",
      "addr_postcode": "21044"
    },
    {
      "id": 56735,
      "geometry": "POINT (-77.266488 39.181206)",
      "poi_name": "&Thai",
      "osm_id": 10247296154,
      "amenity": "restaurant",
      "cuisine": "thai"
    },
    {
      "id": 56855,
      "geometry": "POINT (-76.857284 39.094406)",
      "poi_name": "Thai at Laurel",
      "osm_id": 10250069947,
      "amenity": "restaurant",
      "cuisine": "thai",
      "opening_hours": "Mo-Th 11:00-22:00; Fr-Sa 11:00-23:00; Su 11:00-22:00",
      "website": "https://www.thaiatlaurel.com/",
      "phone": "+1-301-317-8899",
      "addr_state": "MD",
      "addr_city": "Laurel",
      "addr_postcode": "20707",
      "addr_street": "Baltimore Avenue",
      "addr_housenumber": "14724"
    },
    {
      "id": 59220,
      "geometry": "POINT (-77.124159 38.807463)",
      "poi_name": "Taste of Asia",
      "osm_id": 5414988165,
      "amenity": "restaurant",
      "cuisine": "chinese;thai",
      "addr_state": "VA",
      "addr_city": "Alexandria",
      "addr_postcode": "22304",
      "addr_street": "South Pickett Street",
      "addr_housenumber": "362"
    },
    {
      "id": 63159,
      "geometry": "POINT (-77.260648 38.904268)",
      "poi_name": "Natta Thai",
      "osm_id": 5602414241,
      "amenity": "restaurant",
      "cuisine": "thai"
    },
    {
      "id": 64058,
      "geometry": "POINT (-77.049656 38.854656)",
      "poi_name": "Neramitra Thai",
      "osm_id": 5640147128,
      "amenity": "restaurant",
      "cuisine": "thai",
      "wheelchair": "yes",
      "opening_hours": "Mo-Sa 11:00-14:30,16:00-20:30; Su off",
      "website": "https://www.neramitrathaicuisine.com/",
      "phone": "+1 703-413-8886",
      "addr_state": "VA",
      "addr_street": "Crystal Drive",
      "addr_housenumber": "2200"
    },
    {
      "id": 66538,
      "geometry": "POINT (-77.021752 38.900243)",
      "poi_name": "Zumo Thai",
      "osm_id": 11198432280,
      "amenity": "restaurant",
      "cuisine": "thai",
      "opening_hours": "Mo-Th,Su 12:00-22:00; Fr-Sa 12:00-23:00",
      "outdoor_seating": "no",
      "delivery": "yes",
      "addr_street": "7th Street Northwest",
      "addr_housenumber": "815"
    },
    {
      "id": 75750,
      "geometry": "POINT (-76.862494 39.206098)",
      "poi_name": "Dok Khao Thai Eatery",
      "osm_id": 9742141120,
      "amenity": "restaurant",
      "cuisine": "thai",
      "opening_hours": "Su-Th 11:00-22:00; Fr-Sa 11:00-23:00",
      "website": "https://www.dokkhao.com/columbia",
      "phone": "+1 410 997-8899",
      "addr_state": "MD",
      "addr_city": "Columbia",
      "addr_postcode": "21044",
      "addr_street": "Merriweather Drive",
      "addr_housenumber": "6000"
    },
    {
      "id": 70955,
      "geometry": "POINT (-77.314327 38.825232)",
      "poi_name": "Bangkok Golden Thai",
      "osm_id": 11378598539,
      "amenity": "restaurant",
      "cuisine": "thai",
      "website": "https://bangkokgolden.com/",
      "addr_state": "VA",
      "addr_city": "Fairfax",
      "addr_postcode": "22032",
      "addr_street": "Braddock Road",
      "addr_housenumber": "10621"
    },
    {
      "id": 72026,
      "geometry": "POINT (-77.306199 38.846593)",
      "poi_name": "Courtside Thai Cusine",
      "osm_id": 11409156088,
      "amenity": "restaurant",
      "cuisine": "thai",
      "website": "https://courtsidethai.com",
      "phone": "+1 703-223-5400",
      "outdoor_seating": "yes",
      "addr_state": "VA",
      "addr_city": "Fairfax",
      "addr_postcode": "22030",
      "addr_street": "Chain Bridge Road",
      "addr_housenumber": "3981"
    },
    {
      "id": 78127,
      "geometry": "POINT (-77.059306 38.936211)",
      "poi_name": "Siam House",
      "osm_id": 737476792,
      "amenity": "restaurant",
      "cuisine": "thai",
      "website": "https://siamhousedc.com",
      "phone": "+1 202-363-7802",
      "addr_state": "DC",
      "addr_city": "Washington",
      "addr_postcode": "20008",
      "addr_street": "Connecticut Avenue Northwest",
      "addr_housenumber": "3520"
    },
    {
      "id": 78039,
      "geometry": "POINT (-77.082633 38.953877)",
      "poi_name": "49 Twelve Thai Cuisine",
      "osm_id": 736998235,
      "amenity": "restaurant",
      "cuisine": "thai",
      "addr_state": "DC",
      "addr_city": "Washington",
      "addr_street": "Wisconsin Avenue Northwest",
      "addr_housenumber": "4912"
    },
    {
      "id": 78132,
      "geometry": "POINT (-77.058076 38.935947)",
      "poi_name": "Paragon Thai Restaurant",
      "osm_id": 737476814,
      "amenity": "restaurant",
      "cuisine": "thai",
      "addr_street": "Connecticut Avenue Northwest",
      "addr_housenumber": "3507"
    },
    {
      "id": 78266,
      "geometry": "POINT (-77.041894 38.916017)",
      "poi_name": "The Regent Thai Cuisine",
      "osm_id": 739339904,
      "amenity": "restaurant",
      "cuisine": "thai",
      "wheelchair": "yes",
      "addr_street": "18th Street Northwest",
      "addr_housenumber": "1910"
    },
    {
      "id": 78176,
      "geometry": "POINT (-77.019677 38.898471)",
      "poi_name": "Absolute Thai Restaurant",
      "osm_id": 738194949,
      "amenity": "restaurant",
      "cuisine": "thai",
      "internet_access": "no",
      "takeaway": "yes",
      "outdoor_seating": "yes",
      "addr_state": "DC",
      "addr_city": "Washington",
      "addr_postcode": "20001",
      "addr_street": "G Street Northwest",
      "addr_housenumber": "521"
    },
    {
      "id": 78205,
      "geometry": "POINT (-77.02107 38.898791)",
      "poi_name": "Thai Chili",
      "osm_id": 738212146,
      "amenity": "restaurant",
      "cuisine": "thai",
      "addr_state": "DC",
      "addr_city": "Washington",
      "addr_street": "7th Street Northwest",
      "addr_housenumber": "701"
    },
    {
      "id": 78271,
      "geometry": "POINT (-77.041316 38.906462)",
      "poi_name": "Pasara Thai DC",
      "osm_id": 739339932,
      "amenity": "restaurant",
      "cuisine": "thai",
      "addr_state": "DC",
      "addr_city": "Washington",
      "addr_street": "Connecticut Avenue Northwest",
      "addr_housenumber": "1219"
    },
    {
      "id": 78285,
      "geometry": "POINT (-77.045772 38.913047)",
      "poi_name": "Thai Chef",
      "osm_id": 739340004,
      "amenity": "restaurant",
      "cuisine": "thai",
      "wheelchair": "no",
      "addr_street": "Connecticut Avenue Northwest",
      "addr_housenumber": "1712"
    },
    {
      "id": 78286,
      "geometry": "POINT (-77.043722 38.906146)",
      "poi_name": "Mai Thai",
      "osm_id": 739340022,
      "amenity": "restaurant",
      "cuisine": "thai",
      "wheelchair": "yes",
      "addr_street": "19th Street Northwest",
      "addr_housenumber": "1200"
    },
    {
      "id": 78294,
      "geometry": "POINT (-77.04544 38.914319)",
      "poi_name": "Thaiphoon",
      "osm_id": 739340088,
      "amenity": "restaurant",
      "cuisine": "thai",
      "addr_street": "S Street Northwest",
      "addr_housenumber": "2011"
    },
    {
      "id": 78314,
      "geometry": "POINT (-77.053983 38.903534)",
      "poi_name": "Thai Coast Restaurant",
      "osm_id": 739528109,
      "amenity": "restaurant",
      "cuisine": "thai",
      "addr_street": "L Street Northwest",
      "addr_housenumber": "2514"
    },
    {
      "id": 78375,
      "geometry": "POINT (-77.063417 38.90668)",
      "poi_name": "Neyla",
      "osm_id": 740272463,
      "amenity": "restaurant",
      "cuisine": "thai",
      "addr_street": "N Street Northwest",
      "addr_housenumber": "3206"
    },
    {
      "id": 78317,
      "geometry": "POINT (-77.045775 38.902871)",
      "poi_name": "Thai Kingdom Restaurant",
      "osm_id": 739528123,
      "amenity": "restaurant",
      "cuisine": "thai",
      "addr_street": "K Street Northwest",
      "addr_housenumber": "2021"
    },
    {
      "id": 78324,
      "geometry": "POINT (-77.05072 38.90552)",
      "poi_name": "Thai Kitchen Restaurant",
      "osm_id": 739528178,
      "amenity": "restaurant",
      "cuisine": "thai",
      "addr_street": "M Street Northwest",
      "addr_housenumber": "2311"
    },
    {
      "id": 78382,
      "geometry": "POINT (-77.06436 38.906158)",
      "poi_name": "Mai Thai",
      "osm_id": 740272486,
      "amenity": "restaurant",
      "cuisine": "thai",
      "addr_street": "Prospect Street Northwest",
      "addr_housenumber": "3251"
    },
    {
      "id": 78394,
      "geometry": "POINT (-77.032203 38.908148)",
      "poi_name": "Ammathar Thai Cuisine",
      "osm_id": 741013089,
      "amenity": "restaurant",
      "cuisine": "thai",
      "addr_street": "14th Street Northwest",
      "addr_housenumber": "1326"
    },
    {
      "id": 78395,
      "geometry": "POINT (-77.03219 38.911496)",
      "poi_name": "Rice Restaurant & Market",
      "osm_id": 741013092,
      "amenity": "restaurant",
      "cuisine": "thai",
      "opening_hours": "Mo-Su 11:30-22:00",
      "website": "https://www.ricerestaurant.com/",
      "phone": "+1-202-234-2400",
      "takeaway": "yes",
      "outdoor_seating": "yes",
      "delivery": "yes",
      "addr_state": "DC",
      "addr_city": "Washington",
      "addr_postcode": "20009",
      "addr_street": "14th Street Northwest",
      "addr_housenumber": "1608"
    },
    {
      "id": 79155,
      "geometry": "POINT (-76.988501 38.900364)",
      "poi_name": "Tiki Garden",
      "osm_id": 775709452,
      "amenity": "restaurant",
      "cuisine": "thai",
      "opening_hours": "Mo-Th 11:30-15:00,16:30-21:30; Fr 11:30-15:00,16:30-22:30; Sa 11:30-22:30; Su 11:30-21:30",
      "website": "https://www.tikigardendc.com/",
      "takeaway": "yes",
      "outdoor_seating": "no",
      "addr_street": "H Street Northeast",
      "addr_housenumber": "1252"
    },
    {
      "id": 92945,
      "geometry": "POINT (-77.226977 38.918392)",
      "poi_name": "Busara",
      "osm_id": 2142870487,
      "amenity": "restaurant",
      "cuisine": "thai",
      "internet_access": "no",
      "takeaway": "yes",
      "outdoor_seating": "no",
      "delivery": "no",
      "addr_city": "McLean",
      "addr_postcode": "22102",
      "addr_street": "Watson Street",
      "addr_housenumber": "8142"
    },
    {
      "id": 81322,
      "geometry": "POINT (-77.01775 38.912746)",
      "poi_name": "BKK Cookshop",
      "osm_id": 1626377260,
      "amenity": "restaurant",
      "cuisine": "thai",
      "website": "https://www.bkkcookshop.com/",
      "addr_state": "DC",
      "addr_postcode": "20001",
      "addr_street": "New Jersey Avenue Northwest",
      "addr_housenumber": "1700"
    },
    {
      "id": 81946,
      "geometry": "POINT (-77.026951 38.99359)",
      "poi_name": "Charm Thai Restaurant",
      "osm_id": 1671377421,
      "amenity": "restaurant",
      "cuisine": "thai",
      "website": "https://www.mycharmthai.com/",
      "phone": "+1 301-495-6300",
      "addr_state": "MD",
      "addr_city": "Silver Spring",
      "addr_postcode": "20910",
      "addr_street": "Georgia Avenue",
      "addr_housenumber": "8408"
    },
    {
      "id": 84348,
      "geometry": "POINT (-77.024607 38.936616)",
      "poi_name": "Pantry Thai & Sushi",
      "osm_id": 1784884975,
      "amenity": "restaurant",
      "cuisine": "thai",
      "addr_state": "DC",
      "addr_city": "Washington",
      "addr_postcode": "20009",
      "addr_street": "Georgia Avenue Northwest",
      "addr_housenumber": "3716"
    },
    {
      "id": 90545,
      "geometry": "POINT (-77.015659 38.784166)",
      "poi_name": "Thai Pavilion",
      "osm_id": 2001614167,
      "amenity": "restaurant",
      "cuisine": "thai",
      "addr_postcode": "20745",
      "addr_street": "American Way",
      "addr_housenumber": "151"
    },
    {
      "id": 92031,
      "geometry": "POINT (-77.178773 38.772826)",
      "poi_name": "Thai Cafe",
      "osm_id": 2101766406,
      "amenity": "restaurant",
      "cuisine": "thai",
      "wheelchair": "yes",
      "website": "www.thaicafe.co",
      "internet_access": "no",
      "phone": "+1 703-922-4942",
      "takeaway": "yes",
      "outdoor_seating": "no",
      "delivery": "yes",
      "addr_state": "VA",
      "addr_city": "Springfield",
      "addr_postcode": "22150",
      "addr_street": "East Loisdale Road",
      "addr_housenumber": "6701"
    },
    {
      "id": 92184,
      "geometry": "POINT (-77.10465 39.046067)",
      "poi_name": "Amina Thai",
      "osm_id": 2105057603,
      "amenity": "restaurant",
      "cuisine": "thai"
    },
    {
      "id": 94064,
      "geometry": "POINT (-77.428469 38.895621)",
      "poi_name": "Supreme Thai Bistro",
      "osm_id": 2203915772,
      "amenity": "restaurant",
      "cuisine": "thai",
      "takeaway": "yes",
      "delivery": "yes",
      "addr_state": "VA",
      "addr_city": "Chantilly",
      "addr_postcode": "20151",
      "addr_street": "Metrotech Drive",
      "addr_housenumber": "13971"
    },
    {
      "id": 93641,
      "geometry": "POINT (-77.40049 38.957185)",
      "poi_name": "Tara Thai",
      "osm_id": 2178660421,
      "amenity": "restaurant",
      "cuisine": "thai;turkish",
      "website": "http://www.tarathai.com/herndon-Thai-Restaurant.html;http://www.turcuisine.com/",
      "internet_access": "no",
      "phone": "+1 703-481-8999",
      "takeaway": "yes",
      "outdoor_seating": "yes",
      "delivery": "no",
      "addr_state": "VA",
      "addr_city": "Herndon",
      "addr_postcode": "20170",
      "addr_street": "Worldgate Drive",
      "addr_housenumber": "13021;13029"
    },
    {
      "id": 94440,
      "geometry": "POINT (-77.071455 38.802247)",
      "poi_name": "Galae Thai",
      "osm_id": 2245510910,
      "amenity": "restaurant",
      "cuisine": "thai",
      "opening_hours": "Mo-Th 11:00-22:00; Fr,Sa 11:00-23:00; Su 12:00-22:00",
      "website": "https://galaethai.com/",
      "addr_city": "Alexandria",
      "addr_street": "Swamp Fox Road",
      "addr_housenumber": "215"
    },
    {
      "id": 98137,
      "geometry": "POINT (-77.477016 39.044295)",
      "poi_name": "Thai Ashburn",
      "osm_id": 6507389030,
      "amenity": "restaurant",
      "cuisine": "thai",
      "opening_hours": "Mo-Th 11:00-21:30; Sa 12:00-22:00; Su 12:00-21:30",
      "website": "https://thaiashburn.com/",
      "phone": "+1 571-442-8679",
      "addr_state": "VA",
      "addr_city": "Ashburn",
      "addr_postcode": "20147",
      "addr_street": "Ashburn Shopping Plaza",
      "addr_housenumber": "44031"
    },
    {
      "id": 95900,
      "geometry": "POINT (-76.996185 38.759378)",
      "poi_name": "Bangkok Golden",
      "osm_id": 6415393479,
      "amenity": "restaurant",
      "cuisine": "thai",
      "addr_state": "MD",
      "addr_city": "Fort Washington",
      "addr_postcode": "20744",
      "addr_street": "Livingston Road",
      "addr_housenumber": "9503"
    },
    {
      "id": 110609,
      "geometry": "POINT (-76.499548 38.977278)",
      "poi_name": "Lemongrass",
      "osm_id": 3710674120,
      "amenity": "restaurant",
      "cuisine": "thai",
      "addr_state": "MD",
      "addr_city": "Annapolis",
      "addr_postcode": "21401",
      "addr_street": "West Street",
      "addr_housenumber": "175"
    },
    {
      "id": 106936,
      "geometry": "POINT (-77.234928 39.121672)",
      "poi_name": "Thai Tanium",
      "osm_id": 3524156385,
      "amenity": "restaurant",
      "cuisine": "thai",
      "website": "https://www.thaitaniumrestaurant.com/",
      "takeaway": "yes"
    },
    {
      "id": 98445,
      "geometry": "POINT (-77.230758 38.881413)",
      "poi_name": "Kiin Imm Thai Restaurant",
      "osm_id": 6518787940,
      "amenity": "restaurant",
      "cuisine": "thai",
      "addr_state": "VA",
      "addr_city": "Vienna",
      "addr_postcode": "22180",
      "addr_street": "Avenir Place",
      "addr_housenumber": "2676"
    },
    {
      "id": 108935,
      "geometry": "POINT (-77.525346 38.75869)",
      "poi_name": "Mum Mum Restaurant",
      "osm_id": 3641730958,
      "amenity": "restaurant",
      "cuisine": "thai",
      "wheelchair": "yes",
      "opening_hours": "11:00-23:00",
      "website": "https://www.mummumrestaurant.com/",
      "capacity": "200",
      "phone": "+1 571-208-0264",
      "takeaway": "yes",
      "delivery": "yes",
      "addr_state": "VA",
      "addr_city": "manassas",
      "addr_postcode": "20110",
      "addr_street": "George Mason Circle",
      "addr_housenumber": "10945"
    },
    {
      "id": 110289,
      "geometry": "POINT (-76.93709 38.981841)",
      "poi_name": "Aroy Thai Restaurant",
      "osm_id": 3695855183,
      "amenity": "restaurant",
      "cuisine": "thai",
      "opening_hours": "Mo-Fr 11:30-22:00; Sa 12:00-22:00; Su 16:30-22:00",
      "website": "http://www.aroythairestaurant.com/",
      "phone": "+1-301-864-5550",
      "addr_state": "MD",
      "addr_city": "College Park",
      "addr_postcode": "20740",
      "addr_street": "College Avenue",
      "addr_housenumber": "4511"
    },
    {
      "id": 111376,
      "geometry": "POINT (-77.117324 38.86774)",
      "poi_name": "Crystal Thai",
      "osm_id": 3744737332,
      "amenity": "restaurant",
      "cuisine": "thai",
      "opening_hours": "Mo-Su 11:30-21:30",
      "website": "https://crystalthai.com/",
      "phone": "+1 703-522-1311",
      "takeaway": "yes",
      "delivery": "yes",
      "addr_state": "VA",
      "addr_city": "Arlington",
      "addr_postcode": "22203",
      "addr_street": "1st Street North",
      "addr_housenumber": "4819"
    },
    {
      "id": 111128,
      "geometry": "POINT (-77.112491 38.879433)",
      "poi_name": "Bangkok Bistro",
      "osm_id": 3732378166,
      "amenity": "restaurant",
      "cuisine": "thai",
      "wheelchair": "yes",
      "opening_hours": "Mo-Su 11:00-22:00",
      "phone": "+1 703-243-9669",
      "outdoor_seating": "yes",
      "addr_state": "VA",
      "addr_street": "North Glebe Road",
      "addr_housenumber": "715"
    },
    {
      "id": 110693,
      "geometry": "POINT (-77.005674 38.884761)",
      "poi_name": "Talay Thai",
      "osm_id": 3713654966,
      "amenity": "restaurant",
      "cuisine": "thai",
      "website": "http://www.talaythaidc.com",
      "takeaway": "yes",
      "delivery": "yes"
    },
    {
      "id": 113740,
      "geometry": "POINT (-77.042756 38.804414)",
      "poi_name": "Sang Jun Thai",
      "osm_id": 3844037340,
      "amenity": "restaurant",
      "cuisine": "thai",
      "opening_hours": "11:00-22:00",
      "takeaway": "yes",
      "delivery": "yes"
    },
    {
      "id": 114778,
      "geometry": "POINT (-77.105224 38.874255)",
      "poi_name": "Thai Curry",
      "osm_id": 3894368940,
      "amenity": "restaurant",
      "cuisine": "thai",
      "wheelchair": "yes",
      "opening_hours": "Mo-Su 11:30-15:00,17:00-22:00",
      "website": "http://places.singleplatform.com/thai-curry-4/menu",
      "capacity": "30",
      "phone": "+1 703-524-0711",
      "takeaway": "yes",
      "delivery": "yes",
      "addr_state": "VA",
      "addr_street": "North Glebe Road",
      "addr_housenumber": "307"
    },
    {
      "id": 115508,
      "geometry": "POINT (-77.350343 38.978835)",
      "poi_name": "Finn Thai",
      "osm_id": 8900009240,
      "amenity": "restaurant",
      "cuisine": "thai",
      "opening_hours": "Su-Th 11:00-21:30; Fr-Sa 11:00-22:30",
      "website": "https://www.finnthai.com/reston",
      "phone": "+1 571-313-0602",
      "addr_state": "VA",
      "addr_city": "Reston",
      "addr_postcode": "20194",
      "addr_street": "North Point Village Center",
      "addr_housenumber": "1466"
    },
    {
      "id": 114835,
      "geometry": "POINT (-77.175938 38.940091)",
      "poi_name": "Pasa Thai Cuisine",
      "osm_id": 3897476146,
      "amenity": "restaurant",
      "cuisine": "thai",
      "opening_hours": "Mo-Th 11:00-23:00; Fr 11:00-22:30; Sa 12:00-22:00; Su 12:00-22:30",
      "addr_state": "VA",
      "addr_city": "McLean",
      "addr_postcode": "22101",
      "addr_street": "Old Chain Bridge Road",
      "addr_housenumber": "1315"
    },
    {
      "id": 116317,
      "geometry": "POINT (-77.305508 38.845806)",
      "poi_name": "Sisters: The Living Room Cafe",
      "osm_id": 8936905323,
      "amenity": "restaurant",
      "cuisine": "thai",
      "addr_state": "VA",
      "addr_city": "Fairfax",
      "addr_postcode": "22030",
      "addr_street": "University Drive",
      "addr_housenumber": "4004"
    },
    {
      "id": 120614,
      "geometry": "POINT (-77.322719 38.85262)",
      "poi_name": "Thai by Thai",
      "osm_id": 6714794978,
      "amenity": "restaurant",
      "cuisine": "thai",
      "addr_state": "VA",
      "addr_city": "Fairfax",
      "addr_postcode": "22030",
      "addr_street": "Fairfax Boulevard",
      "addr_housenumber": "10955"
    },
    {
      "id": 119579,
      "geometry": "POINT (-77.406488 38.997337)",
      "poi_name": "Siam Spice",
      "osm_id": 9108112143,
      "amenity": "restaurant",
      "cuisine": "thai"
    },
    {
      "id": 127387,
      "geometry": "POINT (-76.550584 39.0818)",
      "poi_name": "Life Pho",
      "osm_id": 8062699820,
      "amenity": "restaurant",
      "cuisine": "thai",
      "opening_hours": "Mo-Su 11:00-20:00",
      "phone": "+1 (410) 544 8884",
      "addr_state": "MD",
      "addr_city": "Severna Park",
      "addr_postcode": "21146",
      "addr_street": "Governor Ritchie Highway",
      "addr_housenumber": "484"
    },
    {
      "id": 126169,
      "geometry": "POINT (-77.261119 38.869743)",
      "poi_name": "Bangkok St. Thai",
      "osm_id": 6986274474,
      "amenity": "restaurant",
      "cuisine": "thai"
    },
    {
      "id": 130630,
      "geometry": "POINT (-77.043099 38.814046)",
      "poi_name": "Sisters Thai",
      "osm_id": 9879898673,
      "amenity": "restaurant",
      "cuisine": "thai",
      "website": "https://www.sistersthai.com/",
      "addr_state": "VA",
      "addr_city": "Alexandria",
      "addr_postcode": "22314",
      "addr_street": "Montgomery Street",
      "addr_housenumber": "503"
    },
    {
      "id": 135820,
      "geometry": "POINT (-77.539636 38.935864)",
      "poi_name": "Smile Thai Cuisine",
      "osm_id": 11538082670,
      "amenity": "restaurant",
      "cuisine": "thai",
      "website": "http://www.smilethaicuisineva.com/",
      "phone": "+17033279660",
      "addr_state": "VA",
      "addr_city": "Chantilly",
      "addr_postcode": "20152",
      "addr_street": "Southpoint Drive",
      "addr_housenumber": "24650"
    },
    {
      "id": 131379,
      "geometry": "POINT (-77.253355 38.664495)",
      "poi_name": "Hunan D'Lite",
      "osm_id": 9913243068,
      "amenity": "restaurant",
      "cuisine": "asian;chinese;thai"
    },
    {
      "id": 134562,
      "geometry": "POINT (-77.161241 38.823228)",
      "poi_name": "Akeno Sushi Bar & Thai",
      "osm_id": 11475736769,
      "amenity": "restaurant",
      "cuisine": "sushi;thai",
      "opening_hours": "Mo-Fr 11:30-15:00, 16:00-22:00; Sa-Su 11:30-22:00",
      "website": "https://www.akenosushibar.com/",
      "phone": "571 378 1217",
      "addr_postcode": "22312",
      "addr_street": "Little River Turnpike",
      "addr_housenumber": "6550 #F"
    },
    {
      "id": 137111,
      "geometry": "POINT (-77.495116 39.08213)",
      "poi_name": "Bua Thai",
      "osm_id": 6086512973,
      "amenity": "restaurant",
      "cuisine": "thai",
      "website": "http://buathaiva.com/",
      "phone": "+1 571-333-9130",
      "addr_state": "VA",
      "addr_city": "Leesburg",
      "addr_postcode": "20176",
      "addr_street": "Promenade Drive",
      "addr_housenumber": "19326"
    },
    {
      "id": 136127,
      "geometry": "POINT (-77.216838 39.113819)",
      "poi_name": "Lum Thai",
      "osm_id": 11563391046,
      "amenity": "restaurant",
      "cuisine": "thai",
      "addr_street": "Muddy Branch Road",
      "addr_housenumber": "806"
    },
    {
      "id": 141022,
      "geometry": "POINT (-77.139502 38.897747)",
      "poi_name": "Khun Yai Thai",
      "osm_id": 6269788362,
      "amenity": "restaurant",
      "cuisine": "thai",
      "opening_hours": "Mo-Sa 11:00-15:00,16:00-21:00",
      "website": "https://www.khunyaithaiva.com/",
      "phone": "+1-703-536-1643",
      "addr_state": "VA",
      "addr_city": "Arlington",
      "addr_postcode": "22207",
      "addr_street": "North Harrison Street",
      "addr_housenumber": "2509"
    },
    {
      "id": 137333,
      "geometry": "POINT (-77.454086 39.051312)",
      "poi_name": "5ense of Thai St.",
      "osm_id": 6094139048,
      "amenity": "restaurant",
      "cuisine": "thai",
      "addr_street": "Exchange Street",
      "addr_housenumber": "20413"
    },
    {
      "id": 140655,
      "geometry": "POINT (-77.500712 39.035854)",
      "poi_name": "Thai Deelish",
      "osm_id": 6255083687,
      "amenity": "restaurant",
      "cuisine": "thai",
      "opening_hours": "Mo-Th 11:30-22:00; Fr-Sa 11:30-22:30; Su 11:30-22:00",
      "website": "https://www.thaideelish.com/",
      "phone": "+1 571-291-2428"
    },
    {
      "id": 140170,
      "geometry": "POINT (-77.038049 38.909802)",
      "poi_name": "Bua Thai",
      "osm_id": 6234257106,
      "amenity": "restaurant",
      "cuisine": "thai",
      "addr_state": "DC",
      "addr_city": "Washington",
      "addr_postcode": "20036",
      "addr_street": "P Street Northwest",
      "addr_housenumber": "1635"
    },
    {
      "id": 151734,
      "geometry": "POINT (-77.038234 38.931524)",
      "poi_name": "La Tejana",
      "osm_id": 4111853391,
      "amenity": "restaurant",
      "cuisine": "thai;lao",
      "opening_hours": "Mo-Tu off; We-Su 07:30-13:00",
      "website": "https://www.latejanadc.com",
      "phone": "+1 202-525-1708",
      "delivery": "yes",
      "addr_state": "DC",
      "addr_city": "Washington",
      "addr_postcode": "20010",
      "addr_street": "Mount Pleasant Street Northwest",
      "addr_housenumber": "3211"
    },
    {
      "id": 148462,
      "geometry": "POINT (-77.022114 38.909808)",
      "poi_name": "Beau Thai",
      "osm_id": 3954164032,
      "amenity": "restaurant",
      "cuisine": "thai",
      "opening_hours": "Mo-Th 11:00-15:00,17:00-21:00; Fr-Sa 11:00-22:00; Su 11:00-21:00",
      "website": "https://www.beauthaidc.com/",
      "phone": "+1 202-536-5636",
      "addr_street": "7th Street Northwest",
      "addr_housenumber": "1550"
    },
    {
      "id": 149860,
      "geometry": "POINT (-77.164824 38.740042)",
      "poi_name": "Rice & Spice",
      "osm_id": 4030179968,
      "amenity": "restaurant",
      "cuisine": "thai",
      "opening_hours": "Mo-Fr 11:00-22:00; Sa,Su 11:30-22:00"
    },
    {
      "id": 150544,
      "geometry": "POINT (-77.016414 38.901502)",
      "poi_name": "Baan Siam",
      "osm_id": 4059018494,
      "amenity": "restaurant",
      "cuisine": "thai",
      "website": "https://www.baansiamdc.com/",
      "addr_state": "DC",
      "addr_city": "Washington",
      "addr_postcode": "20001",
      "addr_street": "I Street Northwest",
      "addr_housenumber": "425"
    },
    {
      "id": 153452,
      "geometry": "POINT (-77.151262 39.086287)",
      "poi_name": "Thai Pavilion",
      "osm_id": 4198056250,
      "amenity": "restaurant",
      "cuisine": "thai"
    },
    {
      "id": 153347,
      "geometry": "POINT (-77.339716 38.646356)",
      "poi_name": "Thai Orchid",
      "osm_id": 4191939539,
      "amenity": "restaurant",
      "cuisine": "thai",
      "addr_state": "VA",
      "addr_city": "Woodbridge",
      "addr_postcode": "22193",
      "addr_street": "Dale Boulevard",
      "addr_housenumber": "4317"
    },
    {
      "id": 160211,
      "geometry": "POINT (-77.475442 38.732714)",
      "poi_name": "Thai Tyme",
      "osm_id": 4827009354,
      "amenity": "restaurant",
      "cuisine": "thai",
      "addr_state": "VA",
      "addr_city": "Manassas",
      "addr_postcode": "20110",
      "addr_street": "Hastings Drive",
      "addr_housenumber": "10167"
    },
    {
      "id": 160136,
      "geometry": "POINT (-77.154698 38.872973)",
      "poi_name": "Kao Sarn",
      "osm_id": 4822032792,
      "amenity": "restaurant",
      "cuisine": "thai",
      "website": "https://www.kaosarnthai.com/",
      "addr_state": "VA",
      "addr_city": "Falls Church",
      "addr_postcode": "22044",
      "addr_street": "Wilson Boulevard"
    },
    {
      "id": 161222,
      "geometry": "POINT (-77.222823 38.912359)",
      "poi_name": "Neisha Thai Cuisine",
      "osm_id": 4870556052,
      "amenity": "restaurant",
      "cuisine": "thai"
    },
    {
      "id": 170772,
      "geometry": "POINT (-77.012357 38.915274)",
      "poi_name": "Aroi Thai",
      "osm_id": 2348914809,
      "amenity": "restaurant",
      "cuisine": "thai",
      "website": "https://aroithaidc.com/",
      "addr_state": "DC",
      "addr_city": "Washington",
      "addr_postcode": "20001",
      "addr_street": "1st Street Northwest",
      "addr_housenumber": "1832"
    },
    {
      "id": 165069,
      "geometry": "POINT (-77.141298 39.076877)",
      "poi_name": "Kiin Imm Thai",
      "osm_id": 9516641093,
      "amenity": "restaurant",
      "cuisine": "thai",
      "opening_hours": "Mo-Fr 11:30-14:30,16:00-21:30; Sa 11:30-22:00; Su 11:30-21:00",
      "website": "https://www.kiinimmthai.com/",
      "addr_state": "MD",
      "addr_street": "Rockville Pike",
      "addr_housenumber": "785"
    },
    {
      "id": 169309,
      "geometry": "POINT (-77.187571 38.783)",
      "poi_name": "9 Pad Thai",
      "osm_id": 2296566380,
      "amenity": "restaurant",
      "cuisine": "thai",
      "website": "https://www.9padthaiva.com/",
      "phone": "+1 703-866-1396",
      "addr_state": "VA",
      "addr_city": "Springfield",
      "addr_postcode": "22150",
      "addr_street": "Commerce Street",
      "addr_housenumber": "7022"
    },
    {
      "id": 169732,
      "geometry": "POINT (-77.550806 38.732519)",
      "poi_name": "Thai Peppers",
      "osm_id": 2317045485,
      "amenity": "restaurant",
      "cuisine": "thai",
      "takeaway": "yes",
      "outdoor_seating": "yes",
      "addr_state": "VA",
      "addr_city": "Bristow",
      "addr_postcode": "20136",
      "addr_street": "Bristow Center Drive",
      "addr_housenumber": "10406"
    },
    {
      "id": 168443,
      "geometry": "POINT (-76.816798 39.27778)",
      "poi_name": "Thai Aroma",
      "osm_id": 2256193797,
      "amenity": "restaurant",
      "cuisine": "thai"
    },
    {
      "id": 168932,
      "geometry": "POINT (-77.203565 38.902579)",
      "poi_name": "Tara Thai",
      "osm_id": 2286914102,
      "amenity": "restaurant",
      "cuisine": "thai",
      "wheelchair": "yes",
      "internet_access": "no",
      "phone": "+1 703-506-9788",
      "takeaway": "yes",
      "outdoor_seating": "no",
      "delivery": "no",
      "addr_state": "VA",
      "addr_city": "Falls Church",
      "addr_postcode": "22043",
      "addr_street": "Leesburg Pike",
      "addr_housenumber": "7501"
    },
    {
      "id": 169088,
      "geometry": "POINT (-77.001742 38.873978)",
      "poi_name": "Kruba Thai & Sushi",
      "osm_id": 2294844532,
      "amenity": "restaurant",
      "cuisine": "thai",
      "website": "https://www.krubadc.com/",
      "addr_state": "DC",
      "addr_city": "Washington",
      "addr_postcode": "20003",
      "addr_street": "Water Street Southeast",
      "addr_housenumber": "300"
    },
    {
      "id": 169258,
      "geometry": "POINT (-77.39973 38.963774)",
      "poi_name": "Thai Tada",
      "osm_id": 2296084096,
      "amenity": "restaurant",
      "cuisine": "thai"
    },
    {
      "id": 184627,
      "geometry": "POINT (-77.025218 38.994791)",
      "poi_name": "Taste",
      "osm_id": 7802068516,
      "amenity": "restaurant",
      "cuisine": "chinese;thai;sushi",
      "addr_state": "MD",
      "addr_city": "Silver Spring",
      "addr_postcode": "20910",
      "addr_street": "Wayne Avenue",
      "addr_housenumber": "930"
    },
    {
      "id": 182164,
      "geometry": "POINT (-77.537017 38.986124)",
      "poi_name": "My Thai Place",
      "osm_id": 10879354547,
      "amenity": "restaurant",
      "cuisine": "thai",
      "wheelchair": "yes",
      "takeaway": "yes",
      "addr_state": "VA",
      "addr_city": "Ashburn",
      "addr_postcode": "20148",
      "addr_street": "Ryan Road",
      "addr_housenumber": "42385"
    },
    {
      "id": 184565,
      "geometry": "POINT (-76.849781 39.074077)",
      "poi_name": "Sapphire Restaurant",
      "osm_id": 7798894710,
      "amenity": "restaurant",
      "cuisine": "indian;thai;buffet;bar&grill",
      "website": "https://sapphireindianrestaurant.com/",
      "phone": "(301) 490-0555",
      "takeaway": "yes",
      "addr_state": "MD",
      "addr_city": "Laurel",
      "addr_postcode": "20708",
      "addr_street": "Laurel Bowie Road",
      "addr_housenumber": "13304"
    },
    {
      "id": 170935,
      "geometry": "POINT (-77.320268 38.79957)",
      "poi_name": "Panisa",
      "osm_id": 2352867872,
      "amenity": "restaurant",
      "cuisine": "thai"
    },
    {
      "id": 172069,
      "geometry": "POINT (-77.235454 38.779885)",
      "poi_name": "Yindee Thai",
      "osm_id": 2393475685,
      "amenity": "restaurant",
      "cuisine": "thai",
      "website": "http://www.celadonthaicuisine.com/",
      "addr_postcode": "22152",
      "addr_street": "Old Keene Mill Road",
      "addr_housenumber": "8412"
    },
    {
      "id": 172076,
      "geometry": "POINT (-77.212902 38.74028)",
      "poi_name": "Kanjana Thai Cuisine",
      "osm_id": 2393485302,
      "amenity": "restaurant",
      "cuisine": "thai",
      "website": "https://www.kanjanathaicuisine.com/",
      "addr_state": "VA",
      "addr_city": "Springfield",
      "addr_postcode": "22153",
      "addr_street": "Rolling Road",
      "addr_housenumber": "8064"
    },
    {
      "id": 177631,
      "geometry": "POINT (-77.012272 38.974283)",
      "poi_name": "Kin Da",
      "osm_id": 2598575314,
      "amenity": "restaurant",
      "cuisine": "thai;sushi",
      "wheelchair": "yes",
      "opening_hours": "Tu-Fr 11:30-15:00,17:00-20:15; Sa,Su 12:00-15:00,16:30-20:15",
      "website": "https://kindatakoma.com/",
      "takeaway": "yes",
      "outdoor_seating": "yes",
      "delivery": "yes",
      "addr_state": "MD",
      "addr_city": "Takoma Park",
      "addr_postcode": "20912",
      "addr_street": "Laurel Avenue",
      "addr_housenumber": "6923"
    },
    {
      "id": 178520,
      "geometry": "POINT (-77.287475 38.627321)",
      "poi_name": "Dok Khao",
      "osm_id": 10728675757,
      "amenity": "restaurant",
      "cuisine": "thai",
      "opening_hours": "Su-Th 11:00-22:00; Fr,Sa 11:00-23:00"
    },
    {
      "id": 193341,
      "geometry": "POINT (-77.225808 38.866858)",
      "poi_name": "Elephant Jumps Thai",
      "osm_id": 1523327451,
      "amenity": "restaurant",
      "cuisine": "thai",
      "wheelchair": "yes"
    },
    {
      "id": 201071,
      "geometry": "POINT (-77.027272 38.900529)",
      "poi_name": "Haad Thai Restaurant",
      "osm_id": 611028884,
      "amenity": "restaurant",
      "cuisine": "thai",
      "opening_hours": "Mo-Sa 11:30-21:00",
      "website": "https://www.haadthairestaurant.com/",
      "phone": "+1-202-682-1111",
      "outdoor_seating": "yes"
    },
    {
      "id": 195444,
      "geometry": "POINT (-77.045082 38.911644)",
      "poi_name": "Thaiverse",
      "osm_id": 10305162326,
      "amenity": "restaurant",
      "cuisine": "thai",
      "website": "https://www.thaiverse.com/pagedc",
      "phone": "+1-202-844-6612"
    },
    {
      "id": 197071,
      "geometry": "POINT (-77.237592 38.873978)",
      "poi_name": "Happy Thai",
      "osm_id": 10610830955,
      "amenity": "restaurant",
      "cuisine": "thai"
    },
    {
      "id": 222884,
      "geometry": "POINT (-77.02438 38.878733)",
      "poi_name": "Kaliwa",
      "osm_id": 11039766259,
      "amenity": "restaurant",
      "cuisine": "thai;filipino;korean"
    },
    {
      "id": 211641,
      "geometry": "POINT (-77.409467 38.95035)",
      "poi_name": "Chao Phra Ya",
      "osm_id": 5166509338,
      "amenity": "restaurant",
      "cuisine": "thai",
      "opening_hours": "Mo-Su 11:30-21:00",
      "website": "https://chaophrayathai.com/",
      "phone": "+1-703-713-0103",
      "addr_state": "VA",
      "addr_city": "Herndon",
      "addr_postcode": "20171",
      "addr_street": "Centreville Road",
      "addr_housenumber": "2465"
    },
    {
      "id": 201847,
      "geometry": "POINT (-77.064642 38.803843)",
      "poi_name": "Pasara",
      "osm_id": 662064834,
      "amenity": "restaurant",
      "cuisine": "thai",
      "opening_hours": "Mo-Fr 11:30-21:30; Sa,Su 12:00-21:30",
      "website": "http://www.pasarathairestaurant.com/",
      "phone": "+1 703-299-8747",
      "addr_state": "VA",
      "addr_city": "Alexandria",
      "addr_postcode": "22314",
      "addr_street": "Jamieson Avenue",
      "addr_housenumber": "2051"
    },
    {
      "id": 235397,
      "geometry": "POINT (-77.230668 38.870038)",
      "poi_name": "Sisters Thai",
      "osm_id": 5754687061,
      "amenity": "restaurant",
      "cuisine": "thai",
      "takeaway": "yes",
      "outdoor_seating": "yes",
      "delivery": "yes",
      "addr_state": "VA",
      "addr_city": "Fairfax",
      "addr_postcode": "22031",
      "addr_street": "District Avenue",
      "addr_housenumber": "2985"
    },
    {
      "id": 244543,
      "geometry": "POINT (-77.112177 38.726694)",
      "poi_name": "Thai Herbs",
      "osm_id": 7729215736,
      "amenity": "restaurant",
      "cuisine": "thai",
      "website": "http://www.thaiherbsfoodtruck.com/",
      "phone": "+1 703-780-9875"
    },
    {
      "id": 244721,
      "geometry": "POINT (-76.710373 39.159307)",
      "poi_name": "Little Spice",
      "osm_id": 7737771606,
      "amenity": "restaurant",
      "cuisine": "thai",
      "website": "https://www.littlespicethaicuisine.com"
    },
    {
      "id": 226705,
      "geometry": "POINT (-77.447037 38.869185)",
      "poi_name": "Ocha Thai Kitchen and Cafe",
      "osm_id": 11166022130,
      "amenity": "restaurant",
      "cuisine": "thai",
      "opening_hours": "Su-Th 11:00-21:30, Fr-Sa 11:00-22:00",
      "website": "https://ochathaikitchen.com/",
      "phone": "+1-703-956-6242",
      "addr_state": "VA",
      "addr_city": "Centreville",
      "addr_postcode": "20120",
      "addr_street": "Westfields Boulevard",
      "addr_housenumber": "5037"
    },
    {
      "id": 231903,
      "geometry": "POINT (-77.449032 38.900241)",
      "poi_name": "Thai Basil",
      "osm_id": 4496996389,
      "amenity": "restaurant",
      "cuisine": "thai"
    },
    {
      "id": 238684,
      "geometry": "POINT (-76.662603 38.719598)",
      "poi_name": "Thai Zapp",
      "osm_id": 5891171332,
      "amenity": "restaurant",
      "cuisine": "thai",
      "wheelchair": "yes",
      "opening_hours": "Tu-Su 11:00-20:40",
      "website": "https://www.thaizapp.com/",
      "phone": "+1 410 257 5000",
      "takeaway": "yes",
      "addr_state": "MD",
      "addr_city": "Dunkirk",
      "addr_postcode": "20754",
      "addr_street": "Southern Maryland Boulevard",
      "addr_housenumber": "10318"
    },
    {
      "id": 239094,
      "geometry": "POINT (-76.859143 39.277641)",
      "poi_name": "Eattini",
      "osm_id": 5905217642,
      "amenity": "restaurant",
      "cuisine": "thai",
      "opening_hours": "Mo, We-Th 11:30-15:00, 16:30-21:00; Fr-Su 11:30-21:00",
      "website": "https://eattinithai.com",
      "phone": "+1-443-325-5852",
      "takeaway": "yes",
      "outdoor_seating": "no",
      "addr_street": "Baltimore National Pike",
      "addr_housenumber": "10045"
    },
    {
      "id": 244651,
      "geometry": "POINT (-77.139091 38.771576)",
      "poi_name": "Pasara Thai Restaurant",
      "osm_id": 7734401990,
      "amenity": "restaurant",
      "cuisine": "thai",
      "website": "http://www.pasarathairestaurant.com/",
      "phone": "+1 703-921-5220"
    }
  ],
  "answer_type": "name",
  "question_entities": {
    "[1]": {
      "main_category": "amenity",
      "sub_category": "restaurant",
      "poi_filter_desc": "thai restaurant",
      "poi_filter_sql": "cuisine ILIKE '%thai%'"
    },
    "[2]": {
      "distance": 50000,
      "text": "50 kilometers"
    },
    "[3]": {
      "main_category": "tourism",
      "sub_category": "attraction",
      "display_name": "JFK Hockey Fields, Washington, DC",
      "geo_wkt": "POINT (-77.043989 38.888538)",
      "poi": {
        "id": 15568,
        "geometry": "POINT (-77.043989 38.888538)",
        "poi_name": "JFK Hockey Fields",
        "osm_id": 4942421421,
        "tourism": "attraction",
        "website": "https://www.nps.gov/places/000/jfk-hockey-fields.htm",
        "phone": "+1 202-426-6841",
        "addr_state": "DC",
        "addr_city": "Washington",
        "addr_postcode": "20245",
        "addr_street": "Independence Avenue Southwest",
        "addr_housenumber": "1964"
      }
    }
  },
  "id": 578,
  "type": "range:non_spat_filter+name"
}