{
  "question": "Which restaurant can I find towards Cal, Sr.'s Yard, Aberdeen, MD within 80 kilometers from Adventure Sports in Hershey, Hershey, PA?",
  "sql": "WITH\n    angle AS (SELECT degrees(ST_Azimuth(ST_GeomFromText('POINT (-76.62265 40.236123)',4326)::geography, ST_GeomFromText('POINT (-76.186327 39.533089)',4326)::geography)) AS value)\nSELECT * FROM pois,angle\nWHERE amenity = 'restaurant'\nAND ST_DWithin(pois.geometry, ST_GeomFromText('POINT (-76.62265 40.236123)',4326)::geography, 80000)\nAND (degrees(ST_Azimuth(ST_GeomFromText('POINT (-76.62265 40.236123)',4326)::geography, pois.geometry)) BETWEEN angle.value - 22.5 AND angle.value + 22.5);\n",
  "answers": [
    {
      "id": 56500,
      "geometry": "POINT (-76.326812 39.727267)",
      "poi_name": "Delta Pizza",
      "osm_id": 10239392164,
      "amenity": "restaurant",
      "cuisine": "pizza",
      "website": "https://deltapizza.com/",
      "addr_state": "PA",
      "addr_city": "Delta",
      "addr_postcode": "17314",
      "addr_street": "Main Street",
      "addr_housenumber": "533",
      "value": 154.30639849959644
    },
    {
      "id": 34280,
      "geometry": "POINT (-76.365077 39.57972)",
      "poi_name": "Wargo's",
      "osm_id": 2698795297,
      "amenity": "restaurant",
      "value": 154.30639849959644
    },
    {
      "id": 41730,
      "geometry": "POINT (-76.337863 39.945872)",
      "poi_name": "Conestoga Wagon Resturant",
      "osm_id": 3024042292,
      "amenity": "restaurant",
      "cuisine": "regional",
      "value": 154.30639849959644
    },
    {
      "id": 59369,
      "geometry": "POINT (-76.149356 39.642064)",
      "poi_name": "Union Hotel Restaurant",
      "osm_id": 5421535422,
      "amenity": "restaurant",
      "cuisine": "local;american;burger;fish_and_chips;seafood;steak_house",
      "opening_hours": "Mo-Su 09:00-22:00",
      "website": "http://www.unionhotel-Restaurant.com",
      "phone": "+1-410-378-3503",
      "addr_state": "MD",
      "addr_postcode": "21904",
      "addr_street": "Susquehanna River Road",
      "addr_housenumber": "1282",
      "value": 154.30639849959644
    },
    {
      "id": 58684,
      "geometry": "POINT (-76.584024 40.139153)",
      "poi_name": "Hokkaido Sushi and Hibachi",
      "osm_id": 5393717655,
      "amenity": "restaurant",
      "cuisine": "sushi;asian",
      "opening_hours": "Su 12:00-21:30; Mo-Th 11:00-15:00,16:00-22:00; Fr,Sa 11:00-22:00",
      "takeaway": "yes",
      "delivery": "no",
      "addr_state": "PA",
      "addr_city": "Elizabethtown",
      "addr_postcode": "17022",
      "addr_street": "South Market Street",
      "addr_housenumber": "1623",
      "value": 154.30639849959644
    },
    {
      "id": 61488,
      "geometry": "POINT (-76.344932 40.008795)",
      "poi_name": "Nino's Ristorante & Pizzaria",
      "osm_id": 5520246149,
      "amenity": "restaurant",
      "cuisine": "italian;pizza",
      "value": 154.30639849959644
    },
    {
      "id": 76775,
      "geometry": "POINT (-76.392492 40.04828)",
      "poi_name": "Grand Central Bagel Cafe",
      "osm_id": 9792666684,
      "amenity": "restaurant",
      "cuisine": "bagel",
      "opening_hours": "Mo-Fr 07:00-15:00; Sa,Su 07:00-14:00",
      "website": "https://www.grandcentralbagel.com",
      "phone": "+1 717-299-0700",
      "outdoor_seating": "yes",
      "addr_city": "Lancaster",
      "addr_postcode": "17603",
      "addr_street": "Centerville Road",
      "addr_housenumber": "245",
      "value": 154.30639849959644
    },
    {
      "id": 97177,
      "geometry": "POINT (-76.371416 39.557022)",
      "poi_name": "Bel Air Pizzeria",
      "osm_id": 6465995191,
      "amenity": "restaurant",
      "cuisine": "pizza",
      "opening_hours": "Mo-Th 10:30-22:00; Fr-Sa 10:30-23:00; Su 11:00-22:00",
      "website": "https://belairpizzeria.com/",
      "phone": "+1 410-836-1313",
      "delivery": "yes",
      "addr_state": "MD",
      "addr_city": "Bel Air",
      "addr_postcode": "21014",
      "addr_street": "Red Pump Road",
      "addr_housenumber": "13",
      "value": 154.30639849959644
    },
    {
      "id": 90831,
      "geometry": "POINT (-76.559951 40.054719)",
      "poi_name": "The Railroad House Inn",
      "osm_id": 2020534761,
      "amenity": "restaurant",
      "cuisine": "american",
      "wheelchair": "limited",
      "value": 154.30639849959644
    },
    {
      "id": 90832,
      "geometry": "POINT (-76.562295 40.055757)",
      "poi_name": "Nick's Bistro",
      "osm_id": 2020536389,
      "amenity": "restaurant",
      "opening_hours": "Mo-Su 11:00-00:00",
      "addr_state": "PA",
      "addr_city": "Marietta",
      "addr_postcode": "17547",
      "addr_street": "West Market Street",
      "addr_housenumber": "324",
      "value": 154.30639849959644
    },
    {
      "id": 90833,
      "geometry": "POINT (-76.555506 40.056534)",
      "poi_name": "Parma Pizza",
      "osm_id": 2020548548,
      "amenity": "restaurant",
      "cuisine": "pizza",
      "value": 154.30639849959644
    },
    {
      "id": 92086,
      "geometry": "POINT (-76.605222 40.15059)",
      "poi_name": "E Yuan",
      "osm_id": 2103983636,
      "amenity": "restaurant",
      "cuisine": "chinese",
      "opening_hours": "Tu-Th 11:00-22:00; Fr-Sa 11:00-22:30; Su 12:00-22:00",
      "website": "http://www.etowneyuan.com/",
      "phone": "717-367-1200",
      "addr_city": "Elizabethtown",
      "addr_postcode": "17022",
      "addr_street": "South Market Street",
      "addr_housenumber": "39",
      "value": 154.30639849959644
    },
    {
      "id": 92087,
      "geometry": "POINT (-76.603896 40.148013)",
      "poi_name": "Brothers Pizza-Elizabethtown",
      "osm_id": 2104324979,
      "amenity": "restaurant",
      "cuisine": "pizza",
      "website": "https://brotherspizzaetown.com/",
      "phone": "(717)367-5878",
      "addr_street": "South Market Street",
      "addr_housenumber": "256",
      "value": 154.30639849959644
    },
    {
      "id": 94179,
      "geometry": "POINT (-76.364982 40.039276)",
      "poi_name": "Pho Pasteur 3",
      "osm_id": 2211421638,
      "amenity": "restaurant",
      "cuisine": "asian;vietnamese",
      "opening_hours": "Mo-We,Su 10:00-21:00; Th-Sa 10:00-22:00",
      "phone": "+1 717-517-7360",
      "takeaway": "yes",
      "addr_state": "PA",
      "addr_city": "Lancaster",
      "addr_postcode": "17603",
      "addr_street": "Columbia Avenue",
      "addr_housenumber": "2204",
      "value": 154.30639849959644
    },
    {
      "id": 94180,
      "geometry": "POINT (-76.365221 40.039435)",
      "poi_name": "Eastern Palace",
      "osm_id": 2211427051,
      "amenity": "restaurant",
      "cuisine": "asian;thai;sushi;burmese",
      "opening_hours": "Su-Th 11:00-21:00; Fr-Sa 11:00-22:00",
      "website": "https://www.easternpalacepa.com/",
      "phone": "+1-717-208-6356",
      "takeaway": "yes",
      "addr_state": "PA",
      "addr_city": "Lancaster",
      "addr_postcode": "17603",
      "addr_street": "Columbia Avenue",
      "addr_housenumber": "2206",
      "value": 154.30639849959644
    },
    {
      "id": 94181,
      "geometry": "POINT (-76.36225 40.039722)",
      "poi_name": "El Serrano",
      "osm_id": 2211428474,
      "amenity": "restaurant",
      "cuisine": "peruvian",
      "opening_hours": "Mo-Th 11:00-14:00,17:00-21:00; Fr,Sa 11:00-23:00; Su 11:00-21:00",
      "website": "http://www.elserrano.com",
      "phone": "+1 717-397-6191",
      "addr_city": "Lancaster",
      "addr_postcode": "17603",
      "addr_street": "Columbia Avenue",
      "addr_housenumber": "2151",
      "value": 154.30639849959644
    },
    {
      "id": 94182,
      "geometry": "POINT (-76.357808 40.038449)",
      "poi_name": "Lucky Dog Caf\u00e9",
      "osm_id": 2211625075,
      "amenity": "restaurant",
      "cuisine": "italian;burger;sandwich;chicken;american;fish_and_chips;seafood",
      "wheelchair": "no",
      "opening_hours": "Mo-Su 11:00-02:00",
      "website": "https://www.luckydogcafe.biz/",
      "capacity": "130",
      "phone": "+1-717-392-9208",
      "takeaway": "yes",
      "addr_state": "PA",
      "addr_city": "Lancaster",
      "addr_postcode": "17603",
      "addr_street": "Columbia Avenue",
      "addr_housenumber": "1942",
      "value": 154.30639849959644
    },
    {
      "id": 94185,
      "geometry": "POINT (-76.353607 40.037677)",
      "poi_name": "Tobias S. Frogg",
      "osm_id": 2211627321,
      "amenity": "restaurant",
      "cuisine": "american",
      "value": 154.30639849959644
    },
    {
      "id": 94188,
      "geometry": "POINT (-76.353146 40.037854)",
      "poi_name": "Two Cousins",
      "osm_id": 2211627790,
      "amenity": "restaurant",
      "cuisine": "italian",
      "value": 154.30639849959644
    },
    {
      "id": 94189,
      "geometry": "POINT (-76.348141 40.038293)",
      "poi_name": "Friendly's",
      "osm_id": 2211630865,
      "amenity": "restaurant",
      "cuisine": "american",
      "value": 154.30639849959644
    },
    {
      "id": 82963,
      "geometry": "POINT (-76.057774 39.680408)",
      "poi_name": "Kilby's Creamery",
      "osm_id": 1723160445,
      "amenity": "restaurant",
      "cuisine": "ice_cream",
      "value": 154.30639849959644
    },
    {
      "id": 83720,
      "geometry": "POINT (-76.330982 39.744263)",
      "poi_name": "Peach Bottom Inn",
      "osm_id": 1761807658,
      "amenity": "restaurant",
      "value": 154.30639849959644
    },
    {
      "id": 90777,
      "geometry": "POINT (-76.486037 40.11026)",
      "poi_name": "Kanji",
      "osm_id": 2017400342,
      "amenity": "restaurant",
      "cuisine": "asian",
      "opening_hours": "Mo,We,Th 11:00-21:30; Tu 16:30-21:30; Fr-Sa 11:00 - 22:30; Su 12:00 - 21:30",
      "website": "https://www.kanjimountjoy.com/",
      "phone": "(717) 653-8888",
      "addr_city": "Mount Joy",
      "addr_postcode": "17552",
      "addr_street": "East Main Street",
      "addr_housenumber": "771",
      "value": 154.30639849959644
    },
    {
      "id": 90778,
      "geometry": "POINT (-76.486326 40.110238)",
      "poi_name": "DiMaria's Pizza",
      "osm_id": 2017400763,
      "amenity": "restaurant",
      "cuisine": "pizza",
      "opening_hours": "Tu-Th 11:00-20:00; Fr, Sa 11:00-21:00; Su 11:30-21:00",
      "website": "dimariaspizza.com",
      "phone": "717-653-4200",
      "addr_street": "East Main Street",
      "addr_housenumber": "759",
      "value": 154.30639849959644
    },
    {
      "id": 90792,
      "geometry": "POINT (-76.479169 40.110885)",
      "poi_name": "Jade Garden",
      "osm_id": 2018251705,
      "amenity": "restaurant",
      "cuisine": "chinese",
      "opening_hours": "Tu-Su 11:00-21:00",
      "website": "http://jadegardenmtjoy.com/",
      "phone": "717-653-0533",
      "addr_city": "Mount Joy",
      "addr_postcode": "17552",
      "addr_street": "East Main Street",
      "addr_housenumber": "937",
      "value": 154.30639849959644
    },
    {
      "id": 90793,
      "geometry": "POINT (-76.479431 40.110867)",
      "poi_name": "Today's Pizza & Italian Restaurant",
      "osm_id": 2018251706,
      "amenity": "restaurant",
      "cuisine": "pizza",
      "opening_hours": "Mo-Su 11:00-21:00",
      "website": "https://www.todayspizza.com/",
      "phone": "+1 717-653-0599",
      "addr_street": "East Main Street",
      "addr_housenumber": "933",
      "value": 154.30639849959644
    },
    {
      "id": 90794,
      "geometry": "POINT (-76.479946 40.11083)",
      "poi_name": "Isaac's Famous Grilled Sandwiches",
      "osm_id": 2018252204,
      "amenity": "restaurant",
      "cuisine": "sandwich",
      "opening_hours": "Mo-Th 10:00-21:00; Fr-Sa 10:00-12:20; Su 11:00-21:00",
      "website": "http://www.isaacsdeli.com",
      "phone": "(717) 928-2130",
      "addr_street": "East Main Street",
      "addr_housenumber": "919",
      "value": 154.30639849959644
    },
    {
      "id": 90795,
      "geometry": "POINT (-76.55873 40.129306)",
      "poi_name": "Hennigan's Restaurant & Bar",
      "osm_id": 2018276797,
      "amenity": "restaurant",
      "cuisine": "american",
      "opening_hours": "Mo off; Tu-We 16:00-22:00; Th 16:00-23:00; Fr 16:00-24:00; Sa 11:00-24:00; Su 11:00-22:00",
      "website": "https://hennigansrestaurantandbar.com/",
      "phone": "+1 717-653-9058",
      "addr_city": "Mount Joy",
      "addr_postcode": "17552",
      "addr_street": "West Main Street",
      "addr_housenumber": "1990",
      "value": 154.30639849959644
    },
    {
      "id": 90796,
      "geometry": "POINT (-76.582333 40.137017)",
      "poi_name": "Metro Express",
      "osm_id": 2018304277,
      "amenity": "restaurant",
      "cuisine": "pizza",
      "value": 154.30639849959644
    },
    {
      "id": 90972,
      "geometry": "POINT (-76.566781 40.102648)",
      "poi_name": "Cameron Estate Inn & Restaurant",
      "osm_id": 2030896684,
      "amenity": "restaurant",
      "website": "https://www.cameronestateinn.com/",
      "addr_postcode": "17552",
      "addr_street": "Mansion Lane",
      "addr_housenumber": "1855",
      "value": 154.30639849959644
    },
    {
      "id": 92126,
      "geometry": "POINT (-76.605244 40.151674)",
      "poi_name": "P&J Pizza",
      "osm_id": 2104788917,
      "amenity": "restaurant",
      "cuisine": "pizza",
      "opening_hours": "Mo-Th 11:00-22:00; Fr-Sa 11:00-23:00; Su 12:00-20:00",
      "phone": "717-367-9681",
      "addr_housenumber": "22",
      "value": 154.30639849959644
    },
    {
      "id": 97703,
      "geometry": "POINT (-76.349342 39.711153)",
      "poi_name": "Buon Gusto Pizzeria & Grill",
      "osm_id": 6489628184,
      "amenity": "restaurant",
      "cuisine": "pizza",
      "website": "https://buongusto.pizza/",
      "phone": "+1-410-452-8191",
      "addr_state": "MD",
      "addr_city": "Whiteford",
      "addr_postcode": "21160",
      "addr_street": "Whiteford Road",
      "addr_housenumber": "2424",
      "value": 154.30639849959644
    },
    {
      "id": 97708,
      "geometry": "POINT (-76.385289 39.577933)",
      "poi_name": "China Delight",
      "osm_id": 6489712030,
      "amenity": "restaurant",
      "cuisine": "chinese",
      "opening_hours": "Mo,We-Sa 11:00-21:30; Tu off; Su 12:00-20:30",
      "website": "https://www.chinadelightmd.com",
      "phone": "+1 410-877-9490",
      "addr_state": "MD",
      "addr_city": "Forest Hill",
      "addr_postcode": "21050",
      "addr_street": "Newport Drive",
      "addr_housenumber": "1",
      "value": 154.30639849959644
    },
    {
      "id": 99172,
      "geometry": "POINT (-76.350496 39.548512)",
      "poi_name": "Hing Wah II",
      "osm_id": 6543542266,
      "amenity": "restaurant",
      "cuisine": "chinese",
      "value": 154.30639849959644
    },
    {
      "id": 97951,
      "geometry": "POINT (-76.369295 39.560555)",
      "poi_name": "\u00c9cho Frezco",
      "osm_id": 6502315883,
      "amenity": "restaurant",
      "cuisine": "mexican",
      "website": "https://echofrezco.com/",
      "phone": "443-787-4221",
      "addr_state": "MD",
      "addr_city": "Forest Hill",
      "addr_postcode": "21050",
      "addr_street": "Rock Spring Road",
      "addr_housenumber": "1517",
      "value": 154.30639849959644
    },
    {
      "id": 99173,
      "geometry": "POINT (-76.350749 39.548394)",
      "poi_name": "Pat's Pizzeria",
      "osm_id": 6543542269,
      "amenity": "restaurant",
      "cuisine": "pizza;american",
      "website": "https://patsfamilyrestaurant.com/",
      "phone": "+1-410-638-7070",
      "addr_state": "MD",
      "addr_city": "Bel Air",
      "addr_postcode": "21014",
      "addr_street": "Conowingo Road",
      "addr_housenumber": "804",
      "value": 154.30639849959644
    },
    {
      "id": 186728,
      "geometry": "POINT (-76.113799 39.694063)",
      "poi_name": "Spready Oak Country Cafe",
      "osm_id": 7946136292,
      "amenity": "restaurant",
      "cuisine": "american",
      "opening_hours": "Mo-Su 06:00-20:00",
      "phone": "+1-410-658-5252",
      "addr_state": "MD",
      "addr_postcode": "21911",
      "addr_street": "Conowingo Road",
      "addr_housenumber": "1643",
      "value": 154.30639849959644
    },
    {
      "id": 100772,
      "geometry": "POINT (-76.37124 39.558584)",
      "poi_name": "Silver Palace Express",
      "osm_id": 6597626760,
      "amenity": "restaurant",
      "cuisine": "chinese",
      "opening_hours": "Mo-Sa 11:00-21:00; Su 12:00-21:00",
      "website": "https://www.silverpalacexpress.com/",
      "phone": "+1-410-836-7000",
      "addr_state": "MD",
      "addr_city": "Forest Hill",
      "addr_postcode": "21050",
      "addr_street": "Rock Spring Road",
      "addr_housenumber": "1510",
      "value": 154.30639849959644
    },
    {
      "id": 108279,
      "geometry": "POINT (-76.517055 39.613619)",
      "poi_name": "Madonna Seafood",
      "osm_id": 3607427298,
      "amenity": "restaurant",
      "cuisine": "seafood",
      "addr_state": "MD",
      "addr_city": "White Hall",
      "addr_postcode": "21161",
      "addr_street": "Norrisville Road",
      "addr_housenumber": "4105A",
      "value": 154.30639849959644
    },
    {
      "id": 115994,
      "geometry": "POINT (-76.371326 39.560939)",
      "poi_name": "Mr. Souvlaki",
      "osm_id": 8922937525,
      "amenity": "restaurant",
      "cuisine": "greek",
      "opening_hours": "Mo-Sa 11:00-21:00; Su 11:00-20:00",
      "website": "https://www.mrsouvlakiforesthill.com/",
      "phone": "+1-443-787-4091",
      "addr_state": "MD",
      "addr_city": "Forest Hill",
      "addr_postcode": "21050",
      "addr_street": "Rock Spring Road",
      "addr_housenumber": "1521",
      "value": 154.30639849959644
    },
    {
      "id": 130749,
      "geometry": "POINT (-76.486328 40.110266)",
      "poi_name": "DiMaria's NY Pizza and Italian Restaurant",
      "osm_id": 9888815086,
      "amenity": "restaurant",
      "cuisine": "pizza",
      "opening_hours": "Tu-Su 11:00-20:30; Fr,Sa 11:00-21:30",
      "addr_state": "PA",
      "addr_city": "Mount Joy",
      "addr_postcode": "17552",
      "addr_street": "East Main Street",
      "addr_housenumber": "759",
      "value": 154.30639849959644
    },
    {
      "id": 136801,
      "geometry": "POINT (-76.538178 39.965136)",
      "poi_name": "Becky's Kitchen",
      "osm_id": 6071452667,
      "amenity": "restaurant",
      "addr_state": "PA",
      "addr_city": "York",
      "addr_postcode": "17406",
      "addr_street": "East Prospect Road",
      "addr_housenumber": "5188",
      "value": 154.30639849959644
    },
    {
      "id": 143842,
      "geometry": "POINT (-75.978682 39.784764)",
      "poi_name": "Sawmill Grill",
      "osm_id": 6353086929,
      "amenity": "restaurant",
      "opening_hours": "Mo-Th,Su 11:00-22:00; Fr-Sa 11:00-23:00",
      "addr_state": "PA",
      "addr_city": "Oxford",
      "addr_street": "Market Street",
      "addr_housenumber": "306",
      "value": 154.30639849959644
    },
    {
      "id": 143843,
      "geometry": "POINT (-75.978405 39.784706)",
      "poi_name": "China House",
      "osm_id": 6353086943,
      "amenity": "restaurant",
      "cuisine": "chinese",
      "opening_hours": "Mo,We-Th 11:00-22:30; Tu 16:30-22:30; Fr-Sa 11:00-23:00; Su 12:00-22:30",
      "website": "https://chinahouseoxfordpa.com",
      "phone": "+1 610-932-5888",
      "addr_city": "Oxford",
      "addr_postcode": "19363",
      "addr_street": "Market Street",
      "addr_housenumber": "314",
      "value": 154.30639849959644
    },
    {
      "id": 143845,
      "geometry": "POINT (-75.978324 39.784676)",
      "poi_name": "Hong Kong Restaurant",
      "osm_id": 6353086957,
      "amenity": "restaurant",
      "cuisine": "chinese",
      "opening_hours": "Mo-Th 11:00-23:00; Fr-Sa 11:00-23:30; Su 12:00-22:30",
      "website": "http://hk-restaurant.com",
      "phone": "+1 610-932-6711; +1 610-932-6712",
      "addr_city": "Oxford",
      "addr_postcode": "19363",
      "addr_street": "East Market Street",
      "addr_housenumber": "318",
      "value": 154.30639849959644
    },
    {
      "id": 155942,
      "geometry": "POINT (-76.341602 40.036907)",
      "poi_name": "Oriental Chinese",
      "osm_id": 4636053453,
      "amenity": "restaurant",
      "cuisine": "chinese",
      "value": 154.30639849959644
    },
    {
      "id": 155949,
      "geometry": "POINT (-76.326399 40.026868)",
      "poi_name": "Ruby Tuesday",
      "osm_id": 4636077045,
      "amenity": "restaurant",
      "cuisine": "american",
      "opening_hours": "Mo-Th,Su 11:00-22:00; Fr-Sa 11:00-23:00",
      "addr_street": "Millersville Pike",
      "addr_housenumber": "1294",
      "value": 154.30639849959644
    },
    {
      "id": 162965,
      "geometry": "POINT (-76.453039 40.03795)",
      "poi_name": "Columbia Family Restaurant",
      "osm_id": 9392736829,
      "amenity": "restaurant",
      "opening_hours": "Mo-Th,Sa 06:00-19:00; Fr 06:00-20:00; Su 06:00-14:00",
      "phone": "+1 717-285-0780",
      "addr_state": "PA",
      "addr_city": "Columbia",
      "addr_postcode": "17512",
      "addr_street": "Columbia Avenue",
      "addr_housenumber": "3985",
      "value": 154.30639849959644
    },
    {
      "id": 101299,
      "geometry": "POINT (-76.281744 39.983005)",
      "poi_name": "Wasabi",
      "osm_id": 6621119922,
      "amenity": "restaurant",
      "cuisine": "japanese",
      "opening_hours": "Mo-We 16:00-21:00; Th-Fr 11:00-14:00,16:00-21:00; Sa 15:00-21:30; Su 12:00-21:00",
      "website": "http://wasabilancasterpa.com/",
      "phone": "+1 717-464-8878",
      "addr_city": "Willow Street",
      "addr_street": "Willow Street Pike North",
      "addr_housenumber": "2600",
      "value": 154.30639849959644
    },
    {
      "id": 101301,
      "geometry": "POINT (-76.281763 39.983066)",
      "poi_name": "Pizza Hut",
      "osm_id": 6621119940,
      "amenity": "restaurant",
      "cuisine": "pizza",
      "opening_hours": "Mo-Th,Su 10:30-22:30; Fr-Sa 10:30-23:30",
      "website": "https://locations.pizzahut.com/pa/willow-street/2600-willow-street-pike-north",
      "phone": "+1 717-464-2220",
      "addr_city": "Willow Street",
      "addr_street": "Willow Street Pike North",
      "addr_housenumber": "2600",
      "value": 154.30639849959644
    },
    {
      "id": 101302,
      "geometry": "POINT (-76.281591 39.982593)",
      "poi_name": "Golden Wall",
      "osm_id": 6621119946,
      "amenity": "restaurant",
      "opening_hours": "Mo off; Tu-Th 10:30-21:30; Fr-Sa 10:30-22:00; Su 11:00-21:30",
      "website": "https://goldenwallpagw.com/",
      "phone": "+1 717-464-0914",
      "addr_city": "Willow Street",
      "addr_street": "Willow Street Pike North",
      "addr_housenumber": "2600",
      "value": 154.30639849959644
    },
    {
      "id": 101304,
      "geometry": "POINT (-76.281905 39.983461)",
      "poi_name": "George\u2019s Family Restaurant",
      "osm_id": 6621119955,
      "amenity": "restaurant",
      "opening_hours": "Mo-Sa 06:00-20:00; Su 07:00-19:00",
      "website": "https://www.georgeskendigsquare.com/",
      "phone": "+1 717-464-5252",
      "addr_city": "Willow Street",
      "addr_street": "Willow Street Pike North",
      "addr_housenumber": "2600",
      "value": 154.30639849959644
    },
    {
      "id": 143729,
      "geometry": "POINT (-76.503488 40.032559)",
      "poi_name": "Rocky's BBQ",
      "osm_id": 6348470586,
      "amenity": "restaurant",
      "cuisine": "barbecue",
      "addr_state": "PA",
      "addr_city": "Columbia",
      "addr_postcode": "17512",
      "addr_street": "North 3rd Street",
      "addr_housenumber": "28",
      "value": 154.30639849959644
    },
    {
      "id": 143735,
      "geometry": "POINT (-76.500462 40.033266)",
      "poi_name": "The Spot 438 LLC",
      "osm_id": 6348530446,
      "amenity": "restaurant",
      "addr_state": "PA",
      "addr_city": "Columbia",
      "addr_postcode": "17512",
      "addr_street": "Locust Street",
      "addr_housenumber": "438 1/2",
      "value": 154.30639849959644
    },
    {
      "id": 143736,
      "geometry": "POINT (-76.500564 40.033371)",
      "poi_name": "Columbia Pizza Shop",
      "osm_id": 6348532623,
      "amenity": "restaurant",
      "cuisine": "pizza",
      "addr_state": "PA",
      "addr_city": "Columbia",
      "addr_postcode": "17512",
      "addr_street": "Locust Street",
      "addr_housenumber": "429",
      "value": 154.30639849959644
    },
    {
      "id": 155950,
      "geometry": "POINT (-76.323772 40.027138)",
      "poi_name": "Ginmiya Chinese & Japanese Restaurant",
      "osm_id": 4636077047,
      "amenity": "restaurant",
      "cuisine": "chinese;japanese",
      "addr_street": "Millersville Pike",
      "addr_housenumber": "1232",
      "value": 154.30639849959644
    },
    {
      "id": 182051,
      "geometry": "POINT (-76.35472 39.56738)",
      "poi_name": "Hickory Station Pizzeria",
      "osm_id": 10876333667,
      "amenity": "restaurant",
      "cuisine": "pizza",
      "opening_hours": "Mo-Tu off; We-Th 11:00-20:00; Fr-Sa 11:00-21:00; Su 12:00-20:00",
      "website": "https://www.hickorystation.net/",
      "phone": "+1-410-420-6300",
      "addr_state": "MD",
      "addr_city": "Bel Air",
      "addr_postcode": "21014",
      "addr_street": "Conowingo Road",
      "addr_housenumber": "1510",
      "value": 154.30639849959644
    },
    {
      "id": 191837,
      "geometry": "POINT (-76.467635 39.866501)",
      "poi_name": "Roma's Pizza",
      "osm_id": 1399407746,
      "amenity": "restaurant",
      "addr_street": "Delta Rd",
      "value": 154.30639849959644
    },
    {
      "id": 191925,
      "geometry": "POINT (-76.368269 39.557847)",
      "poi_name": "Kiyomi Sushi",
      "osm_id": 1405107248,
      "amenity": "restaurant",
      "cuisine": "sushi",
      "opening_hours": "Mo off; Tu-Th 11:00-15:00,16:30-21:00; Fr 11:00-21:30; Sa 12:00-21:30; Su 12:00-21:00",
      "website": "https://www.kiyomibelair.com",
      "phone": "+1 410-638-7200",
      "addr_state": "MD",
      "addr_city": "Bel Air",
      "addr_postcode": "21014",
      "addr_street": "Rock Spring Road",
      "addr_housenumber": "1443",
      "value": 154.30639849959644
    },
    {
      "id": 191838,
      "geometry": "POINT (-76.464605 39.864246)",
      "poi_name": "Tresa's Pizza",
      "osm_id": 1399408087,
      "amenity": "restaurant",
      "addr_street": "Delta Rd",
      "value": 154.30639849959644
    },
    {
      "id": 191839,
      "geometry": "POINT (-76.456066 39.858371)",
      "poi_name": "Collinsville Drive In",
      "osm_id": 1399408727,
      "amenity": "restaurant",
      "addr_street": "Delta Rd",
      "value": 154.30639849959644
    },
    {
      "id": 193614,
      "geometry": "POINT (-76.398936 40.05284)",
      "poi_name": "Loxley's Restaurant at Heritage Hotel",
      "osm_id": 1548018604,
      "amenity": "restaurant",
      "addr_city": "Lancaster",
      "addr_postcode": "17601",
      "addr_street": "Centerville Road",
      "addr_housenumber": "500",
      "value": 154.30639849959644
    },
    {
      "id": 192666,
      "geometry": "POINT (-76.160074 39.898512)",
      "poi_name": "Quarryville Family Restaurant",
      "osm_id": 1470161157,
      "amenity": "restaurant",
      "opening_hours": "06:00-20:00",
      "website": "https://quarryvillefamilyrestaurant.com",
      "phone": "+1 717-786-5073",
      "addr_state": "PA",
      "addr_city": "Quarryville",
      "addr_postcode": "17566",
      "addr_street": "East State Street",
      "addr_housenumber": "134",
      "value": 154.30639849959644
    },
    {
      "id": 198752,
      "geometry": "POINT (-76.392428 40.048154)",
      "poi_name": "Isaac's",
      "osm_id": 916286731,
      "amenity": "restaurant",
      "opening_hours": "Mo-Th 11:00-21:00; Fr-Sa 11:00-22:00; Su 11:00-20:00",
      "website": "https://www.isaacsrestaurants.com/locations/centerville",
      "phone": "+1 717-393-1199",
      "addr_street": "Centerville Road",
      "addr_housenumber": "245",
      "value": 154.30639849959644
    },
    {
      "id": 198916,
      "geometry": "POINT (-76.598665 40.172677)",
      "poi_name": "T.J. Rockwell's",
      "osm_id": 924475630,
      "amenity": "restaurant",
      "website": "https://www.tjrockwells.com/",
      "phone": "717-367-5544",
      "addr_city": "Elizabethtown",
      "addr_street": "Mount Gretna Road",
      "addr_housenumber": "800",
      "value": 154.30639849959644
    },
    {
      "id": 199637,
      "geometry": "POINT (-76.419821 40.03758)",
      "poi_name": "Two Cousins Pizza",
      "osm_id": 977760318,
      "amenity": "restaurant",
      "cuisine": "pizza",
      "opening_hours": "Mo-Sa 11:00-20:00; Su 12:00-20:00",
      "website": "https://www.twocousinspizzamountville.com",
      "phone": "+1 717-285-3660",
      "takeaway": "yes",
      "delivery": "yes",
      "addr_city": "Mountville",
      "addr_postcode": "17554",
      "addr_street": "East Main Street",
      "addr_housenumber": "437",
      "value": 154.30639849959644
    },
    {
      "id": 199232,
      "geometry": "POINT (-76.523209 39.96983)",
      "poi_name": "Pizzatown USA",
      "osm_id": 946401204,
      "amenity": "restaurant",
      "value": 154.30639849959644
    },
    {
      "id": 199623,
      "geometry": "POINT (-76.400301 40.055879)",
      "poi_name": "Cafe East",
      "osm_id": 976906467,
      "amenity": "restaurant",
      "cuisine": "asian",
      "takeaway": "yes",
      "delivery": "no",
      "value": 154.30639849959644
    },
    {
      "id": 199638,
      "geometry": "POINT (-76.389148 40.042024)",
      "poi_name": "Venice Pizza and Pasta",
      "osm_id": 977760346,
      "amenity": "restaurant",
      "opening_hours": "Mo,We-Th 10:00-21:00; Tu off; Fr-Sa 10:00-21:30; Su 11:00-21:00",
      "website": "http://www.venicepizzaandpasta.com",
      "phone": "+1 717-396-1100",
      "addr_city": "Lancaster",
      "addr_postcode": "17603",
      "addr_street": "Columbia Avenue",
      "addr_housenumber": "3079",
      "value": 154.30639849959644
    },
    {
      "id": 203846,
      "geometry": "POINT (-76.057193 39.698684)",
      "poi_name": "Four Seas Pizza & Restaurant",
      "osm_id": 7100585619,
      "amenity": "restaurant",
      "cuisine": "pizza",
      "opening_hours": "Mo-Th 11:00-22:00; Fr-Sa 11:00-23:00; Su 11:00-22:00; PH off",
      "website": "https://fourseaspizza.com/",
      "phone": "+1-410-658-0888",
      "addr_state": "MD",
      "addr_city": "Rising Sun",
      "addr_postcode": "21911",
      "addr_street": "East Main Street",
      "addr_housenumber": "223",
      "value": 154.30639849959644
    },
    {
      "id": 220433,
      "geometry": "POINT (-76.360653 40.039328)",
      "poi_name": "Namaste Restaurant",
      "osm_id": 9373515994,
      "amenity": "restaurant",
      "cuisine": "indian",
      "opening_hours": "Mo off; Tu-Su 11:30-21:30",
      "website": "https://www.namasteincrestaurantpa.com",
      "phone": "+1 717-208-7009",
      "addr_city": "Lancaster",
      "addr_postcode": "17603",
      "addr_street": "Columbia Avenue",
      "addr_housenumber": "2110",
      "value": 154.30639849959644
    },
    {
      "id": 204817,
      "geometry": "POINT (-76.472945 39.544343)",
      "poi_name": "Basta Pasta",
      "osm_id": 7143392349,
      "amenity": "restaurant",
      "cuisine": "italian",
      "opening_hours": "Mo-Th 11:00-22:00; Fr-Sa 11:00-23:00; Su 11:00-22:00; PH off",
      "website": "https://www.bastapastamd.com/",
      "phone": "+1-410-692-5200",
      "addr_state": "MD",
      "addr_city": "Fallston",
      "addr_postcode": "21047",
      "addr_street": "Fallston Road",
      "addr_housenumber": "2745",
      "value": 154.30639849959644
    },
    {
      "id": 204818,
      "geometry": "POINT (-76.472595 39.544182)",
      "poi_name": "The Sweet Greek Grill",
      "osm_id": 7143392353,
      "amenity": "restaurant",
      "cuisine": "greek",
      "opening_hours": "Mo-Sa 10:00-20:30; Su off; PH off",
      "website": "http://sweetgreekgrill.com/",
      "phone": "+1-410-941-5262",
      "addr_state": "MD",
      "addr_city": "Fallston",
      "addr_postcode": "21047",
      "addr_street": "Fallston Road",
      "addr_housenumber": "2735",
      "value": 154.30639849959644
    },
    {
      "id": 206884,
      "geometry": "POINT (-76.356396 40.010115)",
      "poi_name": "Two Cousins Pizza",
      "osm_id": 7231514268,
      "amenity": "restaurant",
      "drive_through": "yes",
      "addr_state": "PA",
      "addr_city": "Millersville",
      "addr_postcode": "17551",
      "addr_street": "Manor Avenue",
      "addr_housenumber": "115",
      "value": 154.30639849959644
    },
    {
      "id": 206894,
      "geometry": "POINT (-76.358194 39.995824)",
      "poi_name": "Jack's Family Tavern and Restaurant",
      "osm_id": 7231713147,
      "amenity": "restaurant",
      "addr_state": "PA",
      "addr_city": "Millersville",
      "addr_postcode": "17551",
      "addr_street": "South Prince Street",
      "addr_housenumber": "15",
      "value": 154.30639849959644
    },
    {
      "id": 220365,
      "geometry": "POINT (-76.357162 40.038428)",
      "poi_name": "Szechuan Gourmet",
      "osm_id": 9371049690,
      "amenity": "restaurant",
      "cuisine": "chinese",
      "value": 154.30639849959644
    },
    {
      "id": 220434,
      "geometry": "POINT (-76.377103 40.04054)",
      "poi_name": "Lancaster Tennis & Yacht Club",
      "osm_id": 9373521072,
      "amenity": "restaurant",
      "cuisine": "american",
      "opening_hours": "Tu-Sa 17:00-21:00",
      "website": "https://www.lancastertennisandyachtclub.com",
      "phone": "+1 717-392-7826",
      "addr_city": "Lancaster",
      "addr_postcode": "17603",
      "addr_street": "Columbia Avenue",
      "addr_housenumber": "2615",
      "value": 154.30639849959644
    },
    {
      "id": 220615,
      "geometry": "POINT (-76.383948 40.04161)",
      "poi_name": "Villa Nova West",
      "osm_id": 9380028344,
      "amenity": "restaurant",
      "cuisine": "italian",
      "addr_city": "Lancaster",
      "addr_street": "Columbia Avenue",
      "addr_housenumber": "2833",
      "value": 154.30639849959644
    },
    {
      "id": 220616,
      "geometry": "POINT (-76.388367 40.042229)",
      "poi_name": "Sun Hing Chinese Restaurant",
      "osm_id": 9380028414,
      "amenity": "restaurant",
      "cuisine": "chinese",
      "value": 154.30639849959644
    },
    {
      "id": 226463,
      "geometry": "POINT (-76.363812 40.046328)",
      "poi_name": "Asian Ginger Kitchen",
      "osm_id": 11160914805,
      "amenity": "restaurant",
      "cuisine": "asian",
      "opening_hours": "Mo-Su 10:00-21:30",
      "website": "https://www.thegingerasiankitchen.com/",
      "phone": "+1 (717) 824-4181",
      "addr_postcode": "17603",
      "addr_street": "Rohrerstown Road",
      "addr_housenumber": "320",
      "value": 154.30639849959644
    },
    {
      "id": 228719,
      "geometry": "POINT (-76.331432 39.747556)",
      "poi_name": "Ma and Pa Pizza",
      "osm_id": 4352703812,
      "amenity": "restaurant",
      "value": 154.30639849959644
    },
    {
      "id": 229601,
      "geometry": "POINT (-76.466834 39.769354)",
      "poi_name": "Cedar Valley Pizza",
      "osm_id": 4388506863,
      "amenity": "restaurant",
      "cuisine": "pizza",
      "takeaway": "yes",
      "delivery": "no",
      "value": 154.30639849959644
    },
    {
      "id": 236424,
      "geometry": "POINT (-76.381736 39.57198)",
      "poi_name": "Fisherman's Catch",
      "osm_id": 5793098877,
      "amenity": "restaurant",
      "website": "http://www.fishermanscatch.net/",
      "phone": "+1 410-838-3900; +1 410-893-5555",
      "addr_state": "MD",
      "addr_city": "Forest Hill",
      "addr_postcode": "21050",
      "addr_street": "Maurice Drive",
      "addr_housenumber": "1",
      "value": 154.30639849959644
    },
    {
      "id": 233348,
      "geometry": "POINT (-76.354412 40.038817)",
      "poi_name": "Hong Kong Garden",
      "osm_id": 4569148887,
      "amenity": "restaurant",
      "cuisine": "chinese",
      "opening_hours": "Mo closed; Tu-Th,Su 11:30-20:30; Fr 11:30-21:30; Sa 12:00-21:30; PH closed",
      "value": 154.30639849959644
    },
    {
      "id": 233626,
      "geometry": "POINT (-76.450568 40.113376)",
      "poi_name": "Fuddruckers",
      "osm_id": 4582059845,
      "amenity": "restaurant",
      "cuisine": "burger",
      "opening_hours": "Mo-Th,Su 11:00-20:00; Fr-Sa 11:00-20:30",
      "website": "https://www.fuddruckers.com/manheim",
      "phone": "717-492-4624",
      "addr_city": "Manhiem",
      "addr_postcode": "17545",
      "addr_street": "Strickler Road",
      "addr_housenumber": "2001",
      "value": 154.30639849959644
    },
    {
      "id": 233627,
      "geometry": "POINT (-76.449853 40.114096)",
      "poi_name": "Mick's All-American Pub",
      "osm_id": 4582059846,
      "amenity": "restaurant",
      "opening_hours": "Mo-Th,Su 11:00-23:00; Fr-Sa 11:00-24:00",
      "website": "https://www.micksallamericanpub.com/",
      "phone": "717-653-1220",
      "addr_state": "PA",
      "addr_city": "Mount Joy",
      "addr_postcode": "17552",
      "addr_street": "Strickler Road",
      "addr_housenumber": "2201",
      "value": 154.30639849959644
    },
    {
      "id": 233985,
      "geometry": "POINT (-76.486702 40.10866)",
      "poi_name": "Country Table Restaurant",
      "osm_id": 4594671585,
      "amenity": "restaurant",
      "opening_hours": "Mo-Th 6:00-20:00; Fr, Sa 6:00-21:00; Su 8:00-14:00",
      "website": "https://www.countrytablerestaurant.com/",
      "shop": "bakery",
      "phone": "717-653-4745",
      "addr_state": "PA",
      "addr_city": "Mount Joy",
      "addr_postcode": "17552",
      "addr_street": "East Main Street",
      "addr_housenumber": "740",
      "value": 154.30639849959644
    },
    {
      "id": 233934,
      "geometry": "POINT (-76.569165 40.061367)",
      "poi_name": "Marco's Restaurant & Pizzeria",
      "osm_id": 4592581898,
      "amenity": "restaurant",
      "cuisine": "italian;pizza",
      "website": "https://marcos-pizza.net/",
      "phone": "717-426-2210",
      "outdoor_seating": "no",
      "addr_state": "PA",
      "addr_city": "Marietta",
      "addr_postcode": "17547",
      "addr_street": "River Road",
      "addr_housenumber": "1410",
      "value": 154.30639849959644
    },
    {
      "id": 235753,
      "geometry": "POINT (-76.114594 39.779385)",
      "poi_name": "Pasquale's Pizza V",
      "osm_id": 5765608139,
      "amenity": "restaurant",
      "description": "Pizzeria, subs, salads, pasta ",
      "opening_hours": "Mo off; Tu-Th 11:00-21:00; Fr-Sa 11:00-21:30; Su 12:00-21:00",
      "takeaway": "only",
      "outdoor_seating": "no",
      "delivery": "no",
      "addr_state": "PA",
      "addr_city": "Quarryville",
      "addr_postcode": "19362",
      "addr_street": "Nottingham Road",
      "addr_housenumber": "399",
      "value": 154.30639849959644
    },
    {
      "id": 238041,
      "geometry": "POINT (-76.370682 39.561528)",
      "poi_name": "ChopStix",
      "osm_id": 5859580476,
      "amenity": "restaurant",
      "cuisine": "chinese",
      "opening_hours": "Mo-Th 11:00-21:00; Fr 11:00-22:00; Sa 12:00-22:00; Su 12:00-21:00",
      "website": "https://www.chopstixgourmet.com/forest-hill",
      "phone": "+1 410-838-3808",
      "takeaway": "yes",
      "outdoor_seating": "yes",
      "addr_state": "MD",
      "addr_city": "Forest Hill",
      "addr_postcode": "21050",
      "addr_street": "Rock Spring Road",
      "addr_housenumber": "1523",
      "value": 154.30639849959644
    },
    {
      "id": 239287,
      "geometry": "POINT (-76.477465 39.605125)",
      "poi_name": "J'Ville Grille",
      "osm_id": 5914859412,
      "amenity": "restaurant",
      "website": "https://www.jvillegrille.com/",
      "phone": "+1-410-692-4888",
      "addr_state": "MD",
      "addr_city": "Jarrettsville",
      "addr_postcode": "21084",
      "addr_street": "Federal Hill Road",
      "addr_housenumber": "3701",
      "value": 154.30639849959644
    }
  ],
  "answer_type": "name",
  "question_entities": {
    "[2]": {
      "distance": 80000,
      "text": "80 kilometers"
    },
    "[3]": {
      "main_category": "tourism",
      "sub_category": "theme park",
      "display_name": "Adventure Sports in Hershey, Hershey, PA",
      "geo_wkt": "POINT (-76.62265 40.236123)",
      "poi": {
        "id": 18427,
        "geometry": "POINT (-76.62265 40.236123)",
        "poi_name": "Adventure Sports in Hershey",
        "osm_id": 2295840835,
        "tourism": "theme_park",
        "website": "https://www.adventurehershey.com/",
        "phone": "717.533.7479",
        "addr_state": "PA",
        "addr_city": "Hershey",
        "addr_postcode": "17033",
        "addr_street": "Elizabethtown Road",
        "addr_housenumber": "3010"
      }
    },
    "[4]": {
      "main_category": "leisure",
      "sub_category": "stadium",
      "display_name": "Cal, Sr.'s Yard, Aberdeen, MD",
      "geo_wkt": "POINT (-76.186327 39.533089)",
      "poi": {
        "id": 246798,
        "geometry": "POINT (-76.186327 39.533089)",
        "poi_name": "Cal, Sr.'s Yard",
        "osm_id": 6441911494,
        "leisure": "stadium",
        "sport": "baseball",
        "website": "https://www.ripkenfoundation.org/park/cal-srs-yard",
        "addr_state": "MD",
        "addr_city": "Aberdeen",
        "addr_postcode": "21001",
        "addr_street": "Long Drive",
        "addr_housenumber": "873"
      }
    },
    "[1]": {
      "main_category": "amenity",
      "sub_category": "restaurant"
    }
  },
  "id": 1641,
  "type": "range:towards+name"
}