{
  "question": "Where can I find a fast food restaurant to the north of Barrett, the Honors College at ASU, Tempe, AZ within 120 kilometers?",
  "sql": "\nWITH origin AS  (SELECT ST_GeomFromText('POINT (-111.927437 33.415436)',4326)::geography AS geometry)\nSELECT * FROM pois, origin\nWHERE ST_DWithin(pois.geometry, ST_GeomFromText('POINT (-111.927437 33.415436)',4326)::geography, 120000)\nAND amenity = 'fast_food'\nAND ((degrees(ST_Azimuth(origin.geometry, pois.geometry)) BETWEEN 0.0 AND 22.5) OR (degrees(ST_Azimuth(origin.geometry, pois.geometry)) BETWEEN 337.5 AND 360));\n",
  "answers": [
    {
      "id": 31578,
      "geometry": "POINT (-111.927437 33.415436)",
      "poi_name": "Papa Murphy's",
      "osm_id": 8433312566,
      "amenity": "fast_food",
      "cuisine": "pizza",
      "opening_hours": "Mo-Su 11:00-20:00",
      "phone": "+14805005755",
      "takeaway": "only",
      "drive_through": "no",
      "official_name": "Papa Murphy's Take 'N' Bake Pizza",
      "addr_state": "AZ",
      "addr_city": "Scottsdale",
      "addr_postcode": "85258",
      "addr_street": "East Via Linda",
      "addr_housenumber": "8912"
    },
    {
      "id": 36885,
      "geometry": "POINT (-111.927437 33.415436)",
      "poi_name": "Cappriotti's",
      "osm_id": 2789456437,
      "amenity": "fast_food",
      "cuisine": "sandwich",
      "addr_state": "AZ",
      "addr_city": "Scottsdale",
      "addr_street": "North Scottsdale Road",
      "addr_housenumber": "4017"
    },
    {
      "id": 48775,
      "geometry": "POINT (-111.927437 33.415436)",
      "poi_name": "Domino's",
      "osm_id": 3399307609,
      "amenity": "fast_food",
      "cuisine": "pizza",
      "takeaway": "yes",
      "addr_state": "AZ",
      "addr_city": "Phoenix",
      "addr_postcode": "85032",
      "addr_street": "North Tatum Boulevard",
      "addr_housenumber": "13843"
    },
    {
      "id": 63524,
      "geometry": "POINT (-111.927437 33.415436)",
      "poi_name": "Panda Express",
      "osm_id": 5619998043,
      "amenity": "fast_food",
      "cuisine": "chinese",
      "website": "https://www.pandaexpress.com",
      "phone": "(480) 614-0290",
      "takeaway": "yes",
      "addr_state": "AZ",
      "addr_city": "Scottsdale",
      "addr_postcode": "85260",
      "addr_street": "North Frank Lloyd Wright Boulevard",
      "addr_housenumber": "14850"
    },
    {
      "id": 63527,
      "geometry": "POINT (-111.927437 33.415436)",
      "poi_name": "Which Wich?",
      "osm_id": 5620008526,
      "amenity": "fast_food",
      "cuisine": "sandwich",
      "opening_hours": "Mo-Sa 10:00-20:00; Su 10:00-18:00",
      "website": "https://www.whichwich.com",
      "phone": "(480) 451-9424",
      "takeaway": "yes",
      "addr_state": "AZ",
      "addr_city": "Scottsdale",
      "addr_postcode": "85260",
      "addr_street": "North Thompson Peak Parkway",
      "addr_housenumber": "15033"
    },
    {
      "id": 101631,
      "geometry": "POINT (-111.927437 33.415436)",
      "poi_name": "Simon's Hot Dogs",
      "osm_id": 6635887355,
      "amenity": "fast_food",
      "cuisine": "hot_dog;colombian",
      "website": "https://www.simonshotdogs.net",
      "phone": "+14804269218",
      "drive_through": "no",
      "addr_state": "AZ",
      "addr_city": "Scottsdale",
      "addr_postcode": "85251",
      "addr_street": "North Drinkwater Boulevard",
      "addr_housenumber": "4280"
    },
    {
      "id": 96222,
      "geometry": "POINT (-111.927437 33.415436)",
      "poi_name": "Fired Pie",
      "osm_id": 6423701622,
      "amenity": "fast_food",
      "cuisine": "pizza",
      "opening_hours": "Mo-Sa 11:00-21:00; Su 11:00-20:00",
      "phone": "+1-480-948-0808",
      "takeaway": "yes",
      "outdoor_seating": "yes",
      "addr_state": "AZ",
      "addr_city": "Scottsdale",
      "addr_postcode": "85258",
      "addr_street": "North Hayden Road",
      "addr_housenumber": "9619"
    },
    {
      "id": 89899,
      "geometry": "POINT (-111.927437 33.415436)",
      "poi_name": "BoSa Donuts",
      "osm_id": 8869068513,
      "amenity": "fast_food",
      "cuisine": "donut",
      "website": "https://bosadonutsaz.com",
      "phone": "+1-602-603-3892",
      "addr_state": "AZ",
      "addr_city": "Phoenix",
      "addr_postcode": "85032",
      "addr_street": "East Bell Road",
      "addr_housenumber": "4601"
    },
    {
      "id": 119242,
      "geometry": "POINT (-111.927437 33.415436)",
      "poi_name": "Oscar's Taco Shop",
      "osm_id": 9091623328,
      "amenity": "fast_food",
      "cuisine": "mexican",
      "opening_hours": "Mo-Su 08:00-21:00",
      "website": "https://oscarstacoshop.com/21811-n-scottsdale-rd-suite-105-scottsdale-az-85255/",
      "phone": "+14805901814",
      "drive_through": "yes",
      "addr_state": "AZ",
      "addr_city": "Scottsdale",
      "addr_postcode": "85255",
      "addr_street": "North Scottsdale Road",
      "addr_housenumber": "21811"
    },
    {
      "id": 111878,
      "geometry": "POINT (-111.927437 33.415436)",
      "poi_name": "NakedQ BBQ",
      "osm_id": 3766694945,
      "amenity": "fast_food",
      "cuisine": "barbecue",
      "opening_hours": "Su-Th 11:00-20:00; Fr-Sa 11:00-21:00",
      "website": "https://www.thenakedbbq.com/",
      "phone": "+14809122102",
      "takeaway": "yes",
      "drive_through": "no",
      "outdoor_seating": "no",
      "addr_state": "AZ",
      "addr_city": "Scottsdale",
      "addr_postcode": "85258",
      "addr_street": "North 90th Street",
      "addr_housenumber": "10240"
    },
    {
      "id": 111879,
      "geometry": "POINT (-111.927437 33.415436)",
      "poi_name": "Dunkin'",
      "osm_id": 3766694946,
      "amenity": "fast_food",
      "cuisine": "donut;coffee_shop",
      "opening_hours": "04:00-21:00",
      "phone": "+14806611715",
      "takeaway": "yes",
      "addr_state": "AZ",
      "addr_city": "Scottsdale",
      "addr_postcode": "85258",
      "addr_street": "North 90th Street",
      "addr_housenumber": "10240"
    },
    {
      "id": 111880,
      "geometry": "POINT (-111.927437 33.415436)",
      "poi_name": "Einstein Bros. Bagels",
      "osm_id": 3766694947,
      "amenity": "fast_food",
      "cuisine": "bagel",
      "opening_hours": "05:00-17:00",
      "phone": "+14804511796",
      "takeaway": "yes",
      "addr_state": "AZ",
      "addr_city": "Scottsdale",
      "addr_postcode": "85258",
      "addr_street": "North 90th Street",
      "addr_housenumber": "10250"
    },
    {
      "id": 111882,
      "geometry": "POINT (-111.927437 33.415436)",
      "poi_name": "Jimmy John's",
      "osm_id": 3766694949,
      "amenity": "fast_food",
      "cuisine": "sandwich",
      "opening_hours": "Mo-Su 10:30-22:00",
      "phone": "+14802853101",
      "takeaway": "yes",
      "drive_through": "yes",
      "official_name": "Jimmy John's Gourmet Sandwiches",
      "delivery": "yes",
      "addr_state": "AZ",
      "addr_city": "Scottsdale",
      "addr_postcode": "85258",
      "addr_street": "North 90th Street",
      "addr_housenumber": "10460"
    },
    {
      "id": 111900,
      "geometry": "POINT (-111.927437 33.415436)",
      "poi_name": "Gyro's Express",
      "osm_id": 3768496251,
      "amenity": "fast_food",
      "cuisine": "greek",
      "addr_state": "AZ",
      "addr_city": "Scottsdale",
      "addr_postcode": "85260",
      "addr_street": "East Shea Boulevard",
      "addr_housenumber": "9301"
    },
    {
      "id": 111901,
      "geometry": "POINT (-111.927437 33.415436)",
      "poi_name": "Ahipoki",
      "osm_id": 3768499148,
      "amenity": "fast_food",
      "cuisine": "seafood;sushi",
      "opening_hours": "10:45-21:00",
      "website": "https://www.ahipokibowl.com",
      "drive_through": "no",
      "addr_state": "AZ",
      "addr_city": "Scottsdale",
      "addr_postcode": "85256",
      "addr_street": "East Shea Boulevard",
      "addr_housenumber": "9301"
    },
    {
      "id": 115413,
      "geometry": "POINT (-111.927437 33.415436)",
      "poi_name": "Subway",
      "osm_id": 8893289703,
      "amenity": "fast_food",
      "cuisine": "sandwich",
      "takeaway": "yes",
      "drive_through": "no",
      "addr_state": "AZ",
      "addr_city": "Scottsdale",
      "addr_postcode": "85266",
      "addr_street": "North Scottsdale Road",
      "addr_housenumber": "34522"
    },
    {
      "id": 118499,
      "geometry": "POINT (-111.927437 33.415436)",
      "poi_name": "Timbers",
      "osm_id": 9048785324,
      "amenity": "fast_food",
      "addr_state": "AZ",
      "addr_city": "Scottsdale",
      "addr_street": "North Pima Road",
      "addr_housenumber": "7333"
    },
    {
      "id": 115784,
      "geometry": "POINT (-111.927437 33.415436)",
      "poi_name": "Blu Burger Grille",
      "osm_id": 8912461635,
      "amenity": "fast_food",
      "cuisine": "burger",
      "drive_through": "no",
      "addr_state": "AZ",
      "addr_city": "Scottsdale",
      "addr_postcode": "85266",
      "addr_street": "North Scottsdale Road",
      "addr_housenumber": "32421"
    },
    {
      "id": 115786,
      "geometry": "POINT (-111.927437 33.415436)",
      "poi_name": "Domino's",
      "osm_id": 8912461638,
      "amenity": "fast_food",
      "cuisine": "pizza",
      "takeaway": "yes",
      "drive_through": "no",
      "addr_state": "AZ",
      "addr_city": "Scottsdale",
      "addr_postcode": "85266",
      "addr_street": "North Scottsdale Road",
      "addr_housenumber": "32421"
    },
    {
      "id": 126871,
      "geometry": "POINT (-111.927437 33.415436)",
      "poi_name": "The Habit Burger Grill",
      "osm_id": 8005379893,
      "amenity": "fast_food",
      "cuisine": "burger",
      "takeaway": "yes",
      "drive_through": "no",
      "addr_state": "AZ",
      "addr_city": "Scottsdale",
      "addr_postcode": "85254",
      "addr_street": "North Scottsdale Road",
      "addr_housenumber": "16495"
    },
    {
      "id": 126699,
      "geometry": "POINT (-111.927437 33.415436)",
      "poi_name": "Firehouse Subs",
      "osm_id": 7993516590,
      "amenity": "fast_food",
      "cuisine": "sandwich",
      "takeaway": "yes",
      "drive_through": "no",
      "addr_state": "AZ",
      "addr_city": "Scottsdale",
      "addr_postcode": "85255",
      "addr_street": "North Scottsdale Road",
      "addr_housenumber": "23335"
    },
    {
      "id": 126797,
      "geometry": "POINT (-111.927437 33.415436)",
      "poi_name": "Cold Beers & Cheeseburgers",
      "osm_id": 8000958453,
      "amenity": "fast_food",
      "cuisine": "burger",
      "opening_hours": "Su-Th 11:00-22:00; Fr,Sa 11:00-23:00",
      "drive_through": "no",
      "addr_state": "AZ",
      "addr_city": "Scottsdale",
      "addr_postcode": "85255",
      "addr_street": "North Scottsdale Road",
      "addr_housenumber": "18527"
    },
    {
      "id": 121521,
      "geometry": "POINT (-111.927437 33.415436)",
      "poi_name": "Burger King",
      "osm_id": 6765182481,
      "amenity": "fast_food",
      "cuisine": "burger",
      "takeaway": "yes",
      "addr_state": "AZ",
      "addr_city": "Scottsdale",
      "addr_postcode": "85260",
      "addr_street": "North Northsight Boulevard",
      "addr_housenumber": "15355"
    },
    {
      "id": 121523,
      "geometry": "POINT (-111.927437 33.415436)",
      "poi_name": "Dunkin'",
      "osm_id": 6765225486,
      "amenity": "fast_food",
      "cuisine": "donut;coffee_shop",
      "takeaway": "yes",
      "drive_through": "yes",
      "addr_state": "AZ",
      "addr_city": "Scottsdale",
      "addr_postcode": "85260",
      "addr_street": "North 87th Street",
      "addr_housenumber": "15223"
    },
    {
      "id": 121524,
      "geometry": "POINT (-111.927437 33.415436)",
      "poi_name": "Jimmy John's",
      "osm_id": 6765225490,
      "amenity": "fast_food",
      "cuisine": "sandwich",
      "takeaway": "yes",
      "drive_through": "no",
      "official_name": "Jimmy John's Gourmet Sandwiches",
      "addr_state": "AZ",
      "addr_city": "Scottsdale",
      "addr_postcode": "85260",
      "addr_street": "North Pima Road",
      "addr_housenumber": "14900"
    },
    {
      "id": 121525,
      "geometry": "POINT (-111.927437 33.415436)",
      "poi_name": "NYPD Pizza",
      "osm_id": 6765225495,
      "amenity": "fast_food",
      "cuisine": "pizza",
      "drive_through": "no",
      "addr_state": "AZ",
      "addr_city": "Scottsdale",
      "addr_postcode": "85260",
      "addr_street": "North Pima Road",
      "addr_housenumber": "14884"
    },
    {
      "id": 123507,
      "geometry": "POINT (-111.927437 33.415436)",
      "poi_name": "Subway",
      "osm_id": 6859172483,
      "amenity": "fast_food",
      "cuisine": "sandwich",
      "takeaway": "yes",
      "drive_through": "no",
      "addr_state": "AZ",
      "addr_city": "Scottsdale",
      "addr_postcode": "85255",
      "addr_street": "North Scottsdale Road",
      "addr_housenumber": "23535"
    },
    {
      "id": 142287,
      "geometry": "POINT (-111.927437 33.415436)",
      "poi_name": "Firehouse Subs",
      "osm_id": 6309729611,
      "amenity": "fast_food",
      "cuisine": "sandwich",
      "opening_hours": "10:00-21:00",
      "website": "https://www.firehousesubs.com/locations/az/cave-creek/",
      "phone": "(480) 595-5178",
      "takeaway": "yes",
      "drive_through": "yes",
      "addr_state": "AZ",
      "addr_city": "Cave Creek",
      "addr_postcode": "85331",
      "addr_street": "North Cave Creek Road",
      "addr_housenumber": "34317"
    },
    {
      "id": 152341,
      "geometry": "POINT (-111.927437 33.415436)",
      "poi_name": "Subway",
      "osm_id": 4139671806,
      "amenity": "fast_food",
      "cuisine": "sandwich",
      "phone": "(480) 443-4132",
      "takeaway": "yes",
      "drive_through": "no",
      "addr_state": "AZ",
      "addr_city": "Scottsdale",
      "addr_postcode": "85250",
      "addr_street": "North Hayden Road",
      "addr_housenumber": "6987"
    },
    {
      "id": 154813,
      "geometry": "POINT (-111.927437 33.415436)",
      "poi_name": "Chipotle",
      "osm_id": 4256978500,
      "amenity": "fast_food",
      "cuisine": "mexican",
      "takeaway": "yes",
      "drive_through": "no",
      "official_name": "Chipotle Mexican Grill",
      "addr_state": "AZ",
      "addr_city": "Scottsdale",
      "addr_postcode": "85254",
      "addr_street": "North Scottsdale Road",
      "addr_housenumber": "15425"
    },
    {
      "id": 154814,
      "geometry": "POINT (-111.927437 33.415436)",
      "poi_name": "Fired Pie",
      "osm_id": 4256978501,
      "amenity": "fast_food",
      "drive_through": "no",
      "addr_state": "AZ",
      "addr_city": "Scottsdale",
      "addr_postcode": "85254",
      "addr_street": "North Scottsdale Road",
      "addr_housenumber": "15425"
    },
    {
      "id": 154815,
      "geometry": "POINT (-111.927437 33.415436)",
      "poi_name": "Jimmy John's",
      "osm_id": 4256978502,
      "amenity": "fast_food",
      "cuisine": "sandwich",
      "takeaway": "yes",
      "drive_through": "no",
      "official_name": "Jimmy John's Gourmet Sandwiches",
      "addr_state": "AZ",
      "addr_city": "Scottsdale",
      "addr_postcode": "85254",
      "addr_street": "North Scottsdale Road",
      "addr_housenumber": "15425"
    },
    {
      "id": 154816,
      "geometry": "POINT (-111.927437 33.415436)",
      "poi_name": "Five Guys",
      "osm_id": 4256978503,
      "amenity": "fast_food",
      "cuisine": "burger",
      "takeaway": "yes",
      "drive_through": "no",
      "official_name": "Five Guys Burgers and Fries",
      "addr_state": "AZ",
      "addr_city": "Scottsdale",
      "addr_postcode": "85254",
      "addr_street": "North Scottsdale Road",
      "addr_housenumber": "15435"
    },
    {
      "id": 164100,
      "geometry": "POINT (-111.927437 33.415436)",
      "poi_name": "Harold's Chicken Shack",
      "osm_id": 9448782137,
      "amenity": "fast_food",
      "cuisine": "chicken",
      "takeaway": "yes",
      "addr_state": "AZ",
      "addr_city": "Cave Creek",
      "addr_postcode": "85331",
      "addr_street": "E Cave Creek Rd;East Cave Creek Road",
      "addr_housenumber": "6895"
    },
    {
      "id": 196025,
      "geometry": "POINT (-111.927437 33.415436)",
      "poi_name": "New York Bagels 'N Bialys",
      "osm_id": 10558776967,
      "amenity": "fast_food",
      "cuisine": "bagel",
      "website": "https://www.nybagelsnbialys.com/",
      "phone": "+1 480-664-4200",
      "takeaway": "yes",
      "outdoor_seating": "yes",
      "addr_state": "AZ",
      "addr_city": "Scottsdale",
      "addr_postcode": "85257",
      "addr_street": "North Scottsdale Road",
      "addr_housenumber": "1455"
    },
    {
      "id": 237130,
      "geometry": "POINT (-111.927437 33.415436)",
      "poi_name": "Chipotle",
      "osm_id": 5819923972,
      "amenity": "fast_food",
      "cuisine": "mexican",
      "opening_hours": "Mo-Su 10:45-22:00",
      "website": "https://www.chipotle.com",
      "phone": "(480) 397-4092",
      "takeaway": "yes",
      "drive_through": "no",
      "official_name": "Chipotle Mexican Grill",
      "addr_state": "AZ",
      "addr_city": "Scottsdale",
      "addr_postcode": "85255",
      "addr_street": "North Scottsdale Road",
      "addr_housenumber": "20851"
    },
    {
      "id": 228241,
      "geometry": "POINT (-111.927437 33.415436)",
      "poi_name": "Subway",
      "osm_id": 4335939276,
      "amenity": "fast_food",
      "cuisine": "sandwich",
      "phone": "+1 (480) 990-7571",
      "takeaway": "yes",
      "addr_state": "AZ",
      "addr_city": "Scottsdale",
      "addr_postcode": "85257",
      "addr_street": "North Hayden Road",
      "addr_housenumber": "1495"
    }
  ],
  "answer_type": "loc",
  "question_entities": {
    "[1]": {
      "main_category": "amenity",
      "sub_category": "fast food restaurant"
    },
    "[2]": {
      "distance": 120000,
      "text": "120 kilometers"
    },
    "[3]": {
      "main_category": "amenity",
      "sub_category": "university",
      "display_name": "Barrett, the Honors College at ASU, Tempe, AZ",
      "geo_wkt": "POINT (-111.927437 33.415436)",
      "poi": {
        "id": 50011,
        "geometry": "POINT (-111.927437 33.415436)",
        "poi_name": "Barrett, the Honors College at ASU",
        "osm_id": 3460939942,
        "amenity": "university",
        "addr_state": "AZ",
        "addr_city": "Tempe",
        "addr_postcode": "85281",
        "addr_street": "East Lemon Mall",
        "addr_housenumber": "751"
      }
    },
    "[4]": {
      "direction_desc": "north",
      "direction_predicate": "((degrees(ST_Azimuth(origin.geometry, pois.geometry)) BETWEEN 0.0 AND 22.5) OR (degrees(ST_Azimuth(origin.geometry, pois.geometry)) BETWEEN 337.5 AND 360))"
    }
  },
  "id": 81,
  "type": "range:direction+loc"
}