{
  "question": "In which direction is an attraction located from Southern Winds, Hialeah, FL within 80 kilometers?",
  "sql": "SELECT *, degrees(ST_Azimuth(ST_GeomFromText('POINT (-80.321534 25.860337)',4326)::geography, pois.geometry)) AS angle FROM pois\nWHERE ST_DWithin(pois.geometry, ST_GeomFromText('POINT (-80.321534 25.860337)',4326)::geography, 80000)\nAND tourism = 'attraction';\n",
  "answers": [
    {
      "id": 359,
      "geometry": "POINT (-80.188091 26.38201)",
      "poi_name": "Zabava Studio",
      "osm_id": 8334669717,
      "tourism": "attraction",
      "website": "https://www.zabavaschool.com/",
      "phone": "786-731-5571",
      "addr_postcode": "33434",
      "addr_street": "Kimberly Boulevard",
      "addr_housenumber": "9070",
      "angle": 12.973525432999823
    },
    {
      "id": 828,
      "geometry": "POINT (-80.14505 26.477973)",
      "poi_name": "Wakodahochee Wetlands",
      "osm_id": 2702886873,
      "tourism": "attraction",
      "angle": 14.419582232129533
    },
    {
      "id": 829,
      "geometry": "POINT (-80.202868 26.533728)",
      "poi_name": "Faith Farm",
      "osm_id": 2702886877,
      "tourism": "attraction",
      "angle": 9.007064108446155
    },
    {
      "id": 830,
      "geometry": "POINT (-80.212218 26.498852)",
      "poi_name": "Loxahatchee Wildlife Refuge",
      "osm_id": 2702886881,
      "tourism": "attraction",
      "angle": 8.757234427017039
    },
    {
      "id": 2788,
      "geometry": "POINT (-80.19342 25.813414)",
      "poi_name": "Miami Design District",
      "osm_id": 99280684,
      "tourism": "attraction",
      "angle": 112.00664555578363
    },
    {
      "id": 3071,
      "geometry": "POINT (-80.165717 25.774724)",
      "poi_name": "Norweigan Cruise Lines",
      "osm_id": 10157798617,
      "tourism": "attraction",
      "angle": 121.22611408872197
    },
    {
      "id": 3080,
      "geometry": "POINT (-80.163589 25.773842)",
      "poi_name": "Royal Caribbean Port",
      "osm_id": 10162408017,
      "tourism": "attraction",
      "angle": 121.14150459025788
    },
    {
      "id": 3199,
      "geometry": "POINT (-80.136664 25.766873)",
      "poi_name": "South Pointe Park Lighthouse",
      "osm_id": 10232512919,
      "description": "A popular tourist attraction.",
      "tourism": "attraction",
      "angle": 119.14535812609616
    },
    {
      "id": 3271,
      "geometry": "POINT (-80.17159 26.268652)",
      "poi_name": "Butterfly World",
      "osm_id": 5327957493,
      "tourism": "attraction",
      "wheelchair": "yes",
      "opening_hours": "Mo-Sa 9:00-17:00;Su 11:00-17:00",
      "website": "https://www.butterflyworld.com",
      "phone": "954-977-4400",
      "addr_state": "FL",
      "addr_city": "Coconut Creek",
      "addr_postcode": "33073",
      "addr_street": "West Sample Road",
      "addr_housenumber": "3600",
      "angle": 18.316466788654562
    },
    {
      "id": 3311,
      "geometry": "POINT (-80.459436 26.230532)",
      "poi_name": "Ride the Wind",
      "osm_id": 5348867280,
      "tourism": "attraction",
      "angle": 341.43199309833597
    },
    {
      "id": 3373,
      "geometry": "POINT (-80.138001 26.11825)",
      "poi_name": "Bateau",
      "osm_id": 5384763323,
      "tourism": "attraction",
      "angle": 32.70612988934577
    },
    {
      "id": 3578,
      "geometry": "POINT (-80.581147 25.760583)",
      "poi_name": "Everglades Airboat Tours",
      "osm_id": 5474637286,
      "tourism": "attraction",
      "angle": 247.0552137370206
    },
    {
      "id": 3641,
      "geometry": "POINT (-80.121494 25.915377)",
      "poi_name": "Haulover's Naturist Beach",
      "osm_id": 5514318824,
      "tourism": "attraction",
      "angle": 73.03787866573659
    },
    {
      "id": 3852,
      "geometry": "POINT (-80.185476 25.774401)",
      "poi_name": "Mildred and Claude Pepper Fountain",
      "osm_id": 5613530547,
      "amenity": "fountain",
      "tourism": "attraction",
      "angle": 124.87906175686969
    },
    {
      "id": 3919,
      "geometry": "POINT (-80.143264 26.119467)",
      "poi_name": "Las Olas Boulevard",
      "osm_id": 5633582721,
      "tourism": "attraction",
      "angle": 31.832342577417645
    },
    {
      "id": 4897,
      "geometry": "POINT (-80.173491 25.777687)",
      "poi_name": "Carnival Cruise",
      "osm_id": 9674745317,
      "tourism": "attraction",
      "angle": 121.635275614672
    },
    {
      "id": 4898,
      "geometry": "POINT (-80.121944 26.096266)",
      "poi_name": "Princess Cruises",
      "osm_id": 9674760517,
      "tourism": "attraction",
      "angle": 37.35936719986526
    },
    {
      "id": 4904,
      "geometry": "POINT (-80.164822 25.774316)",
      "poi_name": "MSC Cruises",
      "osm_id": 9675672817,
      "tourism": "attraction",
      "angle": 121.20105067188162
    },
    {
      "id": 7123,
      "geometry": "POINT (-80.185741 25.777684)",
      "poi_name": "Thriller Miami Speedboat Adventures",
      "osm_id": 8871944117,
      "tourism": "attraction",
      "website": "https://www.thrillermiami.com/",
      "phone": "+1-305-371-3278",
      "addr_state": "FL",
      "addr_city": "Miami",
      "addr_postcode": "33132",
      "addr_street": "Biscayne Boulevard",
      "addr_housenumber": "401",
      "angle": 123.89097006792636
    },
    {
      "id": 8140,
      "geometry": "POINT (-80.22234 25.765556)",
      "poi_name": "Calle Ocho Walk of Fame. West.",
      "osm_id": 6575659085,
      "tourism": "attraction",
      "addr_street": "Southwest 8th Street",
      "angle": 136.52927100885992
    },
    {
      "id": 8152,
      "geometry": "POINT (-80.130195 25.763809)",
      "poi_name": "South Pointe Park Pier",
      "osm_id": 6577789485,
      "tourism": "attraction",
      "opening_hours": "Mo-Su 07:30-19:00",
      "addr_street": "South Pointe Park walk",
      "angle": 119.09175120030581
    },
    {
      "id": 8159,
      "geometry": "POINT (-80.119433 25.847386)",
      "poi_name": "Loggerhead Turtle",
      "osm_id": 6579421393,
      "tourism": "attraction",
      "opening_hours": "24/7",
      "addr_street": "Miami Beach Broadwalk",
      "angle": 94.00703859663207
    },
    {
      "id": 8160,
      "geometry": "POINT (-80.119331 25.847484)",
      "poi_name": "Leatherback Sea Turtle",
      "osm_id": 6579421593,
      "tourism": "attraction",
      "opening_hours": "24/7",
      "addr_street": "Miami Beach Broadwalk",
      "angle": 93.97431832232472
    },
    {
      "id": 8165,
      "geometry": "POINT (-80.157862 25.682732)",
      "poi_name": "Bill Baggs",
      "osm_id": 6580864188,
      "tourism": "attraction",
      "opening_hours": "Mo-Su 08:00-19:00",
      "addr_street": "Crandon Boulevard",
      "angle": 140.12205037135823
    },
    {
      "id": 8172,
      "geometry": "POINT (-80.156993 25.666186)",
      "poi_name": "The Bahama Dingy",
      "osm_id": 6580864585,
      "tourism": "attraction",
      "opening_hours": "Mo-Su 08:00-19:00",
      "addr_street": "Cape Florida Park Boulevard",
      "angle": 142.46088181819385
    },
    {
      "id": 8185,
      "geometry": "POINT (-80.19353 25.770088)",
      "poi_name": "Street Art",
      "osm_id": 6583009092,
      "tourism": "attraction",
      "addr_street": "Riverwalk",
      "angle": 127.88926955847684
    },
    {
      "id": 8186,
      "geometry": "POINT (-80.195898 25.768946)",
      "poi_name": "Miami Riverwalk",
      "osm_id": 6583009095,
      "tourism": "attraction",
      "opening_hours": "Mo-Su 06:00-22:00",
      "angle": 128.7605453840908
    },
    {
      "id": 8187,
      "geometry": "POINT (-80.19232 25.770915)",
      "poi_name": "Julia B. Tuttle's Homestead",
      "osm_id": 6583012889,
      "tourism": "attraction",
      "angle": 127.37310537129576
    },
    {
      "id": 8222,
      "geometry": "POINT (-80.203741 25.798689)",
      "poi_name": "Street Art",
      "osm_id": 6594606188,
      "tourism": "attraction",
      "opening_hours": "24/7",
      "addr_street": "Northwest 23rd Street",
      "angle": 120.01486372700526
    },
    {
      "id": 8223,
      "geometry": "POINT (-80.20495 25.799669)",
      "poi_name": "Street Art",
      "osm_id": 6594606189,
      "tourism": "attraction",
      "opening_hours": "24/7",
      "addr_street": "Northwest 6th Avenue",
      "angle": 119.87345027890818
    },
    {
      "id": 8224,
      "geometry": "POINT (-80.20392 25.799951)",
      "poi_name": "Street Art",
      "osm_id": 6594606190,
      "tourism": "attraction",
      "opening_hours": "24/7",
      "addr_street": "Northwest 24th Street",
      "angle": 119.54141496087054
    },
    {
      "id": 8225,
      "geometry": "POINT (-80.202989 25.799704)",
      "poi_name": "Street Art",
      "osm_id": 6594606191,
      "tourism": "attraction",
      "opening_hours": "24/7",
      "addr_street": "Northwest 5th Avenue",
      "angle": 119.44760990641652
    },
    {
      "id": 8226,
      "geometry": "POINT (-80.203743 25.803736)",
      "poi_name": "Street Art",
      "osm_id": 6594606192,
      "tourism": "attraction",
      "opening_hours": "24/7",
      "addr_street": "Northwest 29th Street",
      "angle": 117.94122309171841
    },
    {
      "id": 8227,
      "geometry": "POINT (-80.20193 25.801329)",
      "poi_name": "Street Art",
      "osm_id": 6594606193,
      "tourism": "attraction",
      "opening_hours": "24/7",
      "addr_street": "Northwest 26th Street",
      "angle": 118.57106553189664
    },
    {
      "id": 8228,
      "geometry": "POINT (-80.198378 25.799153)",
      "poi_name": "Street Art",
      "osm_id": 6594606194,
      "tourism": "attraction",
      "opening_hours": "24/7",
      "addr_street": "Northwest 23rd Street",
      "angle": 118.7377189662867
    },
    {
      "id": 8229,
      "geometry": "POINT (-80.185621 25.792859)",
      "poi_name": "Large Jewish Throne",
      "osm_id": 6594606197,
      "tourism": "attraction",
      "opening_hours": "24/7",
      "addr_street": "North Bayshore Drive",
      "angle": 118.71846132970514
    },
    {
      "id": 8230,
      "geometry": "POINT (-80.447688 26.1767)",
      "poi_name": "Miamitours.com Everglades Park, Alligator & Airboat Tour Location",
      "osm_id": 6594610086,
      "tourism": "attraction",
      "addr_street": "L-35B",
      "angle": 340.21359962412384
    },
    {
      "id": 8231,
      "geometry": "POINT (-80.447406 26.177045)",
      "poi_name": "Animal Exhibits",
      "osm_id": 6594610087,
      "tourism": "attraction",
      "addr_street": "L-35B",
      "angle": 340.27431175695625
    },
    {
      "id": 8232,
      "geometry": "POINT (-80.19957 25.796761)",
      "poi_name": "Street Art",
      "osm_id": 6594610092,
      "tourism": "attraction",
      "opening_hours": "24/7",
      "addr_street": "Northwest 21st Street",
      "angle": 119.91432938263
    },
    {
      "id": 8233,
      "geometry": "POINT (-80.197975 25.796701)",
      "poi_name": "Street Art",
      "osm_id": 6594610093,
      "tourism": "attraction",
      "opening_hours": "24/7",
      "addr_street": "Northwest 21st Street",
      "angle": 119.61634600405064
    },
    {
      "id": 8234,
      "geometry": "POINT (-80.196247 25.796764)",
      "poi_name": "Street Art",
      "osm_id": 6594610094,
      "tourism": "attraction",
      "opening_hours": "24/7",
      "addr_street": "Northwest 21st Street",
      "angle": 119.2510716554098
    },
    {
      "id": 8235,
      "geometry": "POINT (-80.19269 25.791429)",
      "poi_name": "Street Art",
      "osm_id": 6594610095,
      "tourism": "attraction",
      "opening_hours": "24/7",
      "addr_street": "Northeast 1st Avenue",
      "angle": 120.55196807635372
    },
    {
      "id": 8236,
      "geometry": "POINT (-80.194836 25.793344)",
      "poi_name": "Street Art",
      "osm_id": 6594610096,
      "tourism": "attraction",
      "opening_hours": "24/7",
      "addr_street": "North Miami Avenue",
      "angle": 120.26794985690614
    },
    {
      "id": 8237,
      "geometry": "POINT (-80.202377 25.799978)",
      "poi_name": "Street Art",
      "osm_id": 6594610097,
      "tourism": "attraction",
      "opening_hours": "24/7",
      "addr_street": "Northwest 24th Street",
      "angle": 119.2109082130883
    },
    {
      "id": 8238,
      "geometry": "POINT (-80.201132 25.800856)",
      "poi_name": "Street Art",
      "osm_id": 6594610098,
      "tourism": "attraction",
      "opening_hours": "24/7",
      "addr_street": "Northwest 3rd Avenue",
      "angle": 118.6031796948213
    },
    {
      "id": 8239,
      "geometry": "POINT (-80.196796 25.797901)",
      "poi_name": "Street Art",
      "osm_id": 6594610099,
      "tourism": "attraction",
      "opening_hours": "24/7",
      "addr_street": "Northwest 1st Avenue",
      "angle": 118.91852248965577
    },
    {
      "id": 8240,
      "geometry": "POINT (-80.195858 25.798296)",
      "poi_name": "Street Art",
      "osm_id": 6594610100,
      "tourism": "attraction",
      "opening_hours": "24/7",
      "addr_street": "Northwest Miami Court",
      "angle": 118.58377969411947
    },
    {
      "id": 8241,
      "geometry": "POINT (-80.194421 25.798959)",
      "poi_name": "Street Art",
      "osm_id": 6594610101,
      "tourism": "attraction",
      "opening_hours": "24/7",
      "addr_street": "Northeast 23rd Street",
      "angle": 118.05418528226643
    },
    {
      "id": 8242,
      "geometry": "POINT (-80.194684 25.79955)",
      "poi_name": "Street Art",
      "osm_id": 6594610102,
      "tourism": "attraction",
      "opening_hours": "24/7",
      "addr_street": "North Miami Avenue",
      "angle": 117.87371677728058
    },
    {
      "id": 8243,
      "geometry": "POINT (-80.194943 25.798151)",
      "poi_name": "Street Art",
      "osm_id": 6594610103,
      "tourism": "attraction",
      "opening_hours": "24/7",
      "addr_street": "North Miami Avenue",
      "angle": 118.46539686591314
    },
    {
      "id": 8244,
      "geometry": "POINT (-80.44701 26.177246)",
      "poi_name": "Alligator Show Seating",
      "osm_id": 6594610186,
      "tourism": "attraction",
      "addr_street": "L-35B",
      "angle": 340.3430114654423
    },
    {
      "id": 8245,
      "geometry": "POINT (-80.202694 25.802906)",
      "poi_name": "Street Art",
      "osm_id": 6594610187,
      "tourism": "attraction",
      "opening_hours": "24/7",
      "addr_street": "Northwest 28th Street",
      "angle": 118.07616990369415
    },
    {
      "id": 8246,
      "geometry": "POINT (-80.205242 25.803908)",
      "poi_name": "Street Art",
      "osm_id": 6594610188,
      "tourism": "attraction",
      "opening_hours": "24/7",
      "addr_street": "Northwest 6th Avenue",
      "angle": 118.17408608174834
    },
    {
      "id": 8247,
      "geometry": "POINT (-80.195219 25.794399)",
      "poi_name": "Street Art",
      "osm_id": 6594610189,
      "tourism": "attraction",
      "opening_hours": "24/7",
      "addr_street": "Northwest 19th Street",
      "angle": 119.9484593332312
    },
    {
      "id": 8248,
      "geometry": "POINT (-80.152105 25.79124)",
      "poi_name": "Venetian Causeway Drawbridge",
      "osm_id": 6594610192,
      "tourism": "attraction",
      "opening_hours": "24/7",
      "addr_street": "Venetian Causeway",
      "angle": 114.22018958182316
    },
    {
      "id": 8249,
      "geometry": "POINT (-80.148406 25.791506)",
      "poi_name": "Bell Island",
      "osm_id": 6594610193,
      "tourism": "attraction",
      "angle": 113.67768490682892
    },
    {
      "id": 8250,
      "geometry": "POINT (-80.447722 26.17688)",
      "poi_name": "Airboat Kiosk",
      "osm_id": 6594610286,
      "tourism": "attraction",
      "addr_street": "L-35B",
      "angle": 340.2190002732004
    },
    {
      "id": 8251,
      "geometry": "POINT (-80.191188 25.791641)",
      "poi_name": "Street Art",
      "osm_id": 6594610287,
      "tourism": "attraction",
      "opening_hours": "24/7",
      "addr_street": "Northeast 17th Street",
      "angle": 120.18490999462405
    },
    {
      "id": 8252,
      "geometry": "POINT (-80.181286 25.789861)",
      "poi_name": "Venetian Way Drawbridge",
      "osm_id": 6594610288,
      "tourism": "attraction",
      "opening_hours": "24/7",
      "addr_street": "Venetian Way",
      "angle": 119.01005573502114
    },
    {
      "id": 8253,
      "geometry": "POINT (-80.201935 25.800581)",
      "poi_name": "Street Art",
      "osm_id": 6594610485,
      "tourism": "attraction",
      "opening_hours": "24/7",
      "addr_street": "Northwest 25th Street",
      "angle": 118.8764279347066
    },
    {
      "id": 8254,
      "geometry": "POINT (-80.198581 25.798827)",
      "poi_name": "Street Art",
      "osm_id": 6594610585,
      "tourism": "attraction",
      "opening_hours": "24/7",
      "addr_street": "Northwest 1st Place",
      "angle": 118.90611425312214
    },
    {
      "id": 10351,
      "geometry": "POINT (-80.782727 25.762057)",
      "poi_name": "Rainbow Airboat",
      "osm_id": 6804592377,
      "description": "Airboat Tour",
      "tourism": "attraction",
      "angle": 256.85252944126006
    },
    {
      "id": 10352,
      "geometry": "POINT (-80.748102 25.76208)",
      "poi_name": "Tigertails",
      "osm_id": 6804596590,
      "description": "Air boat tour",
      "tourism": "attraction",
      "angle": 255.8152701570348
    },
    {
      "id": 11478,
      "geometry": "POINT (-80.13008 25.786508)",
      "poi_name": "the orb",
      "osm_id": 9982784717,
      "tourism": "attraction",
      "angle": 113.03597213499798
    },
    {
      "id": 11479,
      "geometry": "POINT (-80.119962 25.825574)",
      "poi_name": "mid beach",
      "osm_id": 9982785817,
      "tourism": "attraction",
      "angle": 100.74635971609298
    },
    {
      "id": 11480,
      "geometry": "POINT (-80.118861 25.847661)",
      "poi_name": "north beach",
      "osm_id": 9982785818,
      "tourism": "attraction",
      "angle": 93.91004698601542
    },
    {
      "id": 11653,
      "geometry": "POINT (-80.397465 25.605262)",
      "poi_name": "Orinoco Crocodile",
      "osm_id": 11467227709,
      "tourism": "attraction",
      "angle": 195.10615282211972
    },
    {
      "id": 11955,
      "geometry": "POINT (-80.148424 25.726361)",
      "poi_name": "Fossilized Reef View",
      "osm_id": 6110166485,
      "tourism": "attraction",
      "angle": 130.4896677372805
    },
    {
      "id": 11956,
      "geometry": "POINT (-80.140638 25.982285)",
      "poi_name": "Pegasus and Dragon",
      "osm_id": 6110169390,
      "tourism": "attraction",
      "angle": 53.25684198944037
    },
    {
      "id": 12054,
      "geometry": "POINT (-80.110376 26.290964)",
      "poi_name": "Max\u2019s Barber",
      "osm_id": 6163993385,
      "tourism": "attraction",
      "angle": 23.83910894046505
    },
    {
      "id": 12084,
      "geometry": "POINT (-80.135323 25.786839)",
      "poi_name": "Espa\u00f1ola way",
      "osm_id": 6178714485,
      "tourism": "attraction",
      "angle": 113.52176325660443
    },
    {
      "id": 12453,
      "geometry": "POINT (-80.209152 25.93323)",
      "poi_name": "TopGolf",
      "osm_id": 7252541485,
      "tourism": "attraction",
      "angle": 54.33072185597616
    },
    {
      "id": 12644,
      "geometry": "POINT (-80.335213 25.46494)",
      "poi_name": "Telescope",
      "osm_id": 7430506637,
      "description": "Telescope pointed to the City of Miami and Miami Beach Skyline. Can be viewed from this spot using the telescope.",
      "tourism": "attraction",
      "angle": 181.79880464007138
    },
    {
      "id": 13468,
      "geometry": "POINT (-80.369079 25.750821)",
      "poi_name": "Color Image Designs @ Miami-Dade County Fair",
      "osm_id": 4100549589,
      "tourism": "attraction",
      "website": "https://www.colorimagedesigns.com/",
      "phone": "813-480-3148",
      "addr_postcode": "33165",
      "addr_street": "Southwest 24th Street",
      "addr_housenumber": "10901",
      "angle": 201.46402498237893
    },
    {
      "id": 14113,
      "geometry": "POINT (-80.133242 25.774429)",
      "poi_name": "South Beach",
      "osm_id": 4226222889,
      "tourism": "attraction",
      "wikidata": "Q186106",
      "angle": 116.71087778618444
    },
    {
      "id": 14822,
      "geometry": "POINT (-80.219377 25.765562)",
      "poi_name": "Domino park",
      "osm_id": 4732841231,
      "tourism": "attraction",
      "angle": 135.68412447345128
    },
    {
      "id": 14823,
      "geometry": "POINT (-80.561238 25.76064)",
      "poi_name": "Coopertown Airboat",
      "osm_id": 4732841233,
      "tourism": "attraction",
      "website": "https://coopertownairboats.com/",
      "phone": "+1-305-226-6048",
      "addr_state": "FL",
      "addr_city": "Miami",
      "addr_postcode": "33194",
      "addr_street": "Southwest 8th Street",
      "addr_housenumber": "22700",
      "angle": 245.37349520099824
    },
    {
      "id": 14833,
      "geometry": "POINT (-80.168896 26.062506)",
      "poi_name": "Fort Lauderdale Airboat Rides",
      "osm_id": 4734750424,
      "tourism": "attraction",
      "addr_postcode": "33332",
      "addr_street": "Griffin Road",
      "addr_housenumber": "21942",
      "angle": 34.280696132861095
    },
    {
      "id": 14834,
      "geometry": "POINT (-80.116894 26.158312)",
      "poi_name": "Sunrise Paddleboards",
      "osm_id": 4734750425,
      "tourism": "attraction",
      "angle": 31.777929637255127
    },
    {
      "id": 14835,
      "geometry": "POINT (-80.117383 26.13828)",
      "poi_name": "Flyboard Fort Lauderdale",
      "osm_id": 4734750964,
      "tourism": "attraction",
      "angle": 33.530233182111694
    },
    {
      "id": 14836,
      "geometry": "POINT (-80.104356 26.119685)",
      "poi_name": "Las Olas Beach",
      "osm_id": 4734760821,
      "tourism": "attraction",
      "angle": 37.07147969686923
    },
    {
      "id": 14929,
      "geometry": "POINT (-80.089143 26.342191)",
      "poi_name": "Seaboard Air Line Lounge Car 6603",
      "osm_id": 4766252126,
      "historic": "locomotive",
      "tourism": "attraction",
      "wikidata": "Q7440180",
      "angle": 23.479897130203582
    },
    {
      "id": 14962,
      "geometry": "POINT (-80.177954 25.746674)",
      "poi_name": "Miami seaplane tour",
      "osm_id": 4770384121,
      "tourism": "attraction",
      "angle": 131.1395333454394
    },
    {
      "id": 14963,
      "geometry": "POINT (-80.131016 25.777145)",
      "poi_name": "Bankje",
      "osm_id": 4770842825,
      "tourism": "attraction",
      "angle": 115.71356200240967
    },
    {
      "id": 15454,
      "geometry": "POINT (-80.432085 25.714905)",
      "poi_name": "Luis y gabi",
      "osm_id": 4888805421,
      "tourism": "attraction",
      "addr_street": "Southwest 147th Court",
      "angle": 214.5595413007987
    },
    {
      "id": 15526,
      "geometry": "POINT (-80.089105 26.342422)",
      "poi_name": "Seaboard Air Line Dining Car 6113",
      "osm_id": 4921318758,
      "historic": "locomotive",
      "tourism": "attraction",
      "wikidata": "Q7440179",
      "angle": 23.473255165046076
    },
    {
      "id": 16005,
      "geometry": "POINT (-80.105923 26.111703)",
      "poi_name": "Tacos Hooked Up Sportfishing",
      "osm_id": 301646439,
      "tourism": "attraction",
      "angle": 37.73691281298812
    },
    {
      "id": 18455,
      "geometry": "POINT (-80.186177 25.77821)",
      "poi_name": "Tour Boat Boarding",
      "osm_id": 2308861708,
      "tourism": "attraction",
      "angle": 123.80718145640206
    },
    {
      "id": 18929,
      "geometry": "POINT (-81.019782 25.854951)",
      "poi_name": "Big Cypress Gallery",
      "osm_id": 2453238413,
      "tourism": "attraction",
      "addr_street": "Tamiami Trail",
      "addr_housenumber": "52388",
      "angle": 269.6638138393717
    },
    {
      "id": 19327,
      "geometry": "POINT (-80.139657 25.77436)",
      "poi_name": "Miami Beach Sign",
      "osm_id": 10727929705,
      "tourism": "attraction",
      "angle": 117.53770291403258
    },
    {
      "id": 19484,
      "geometry": "POINT (-80.118716 26.100781)",
      "poi_name": "17th Street Causeway Bridge",
      "osm_id": 10782371987,
      "tourism": "attraction",
      "angle": 37.27749314270416
    },
    {
      "id": 19602,
      "geometry": "POINT (-80.502336 25.761818)",
      "poi_name": "Everglades Airboat Expeditions",
      "osm_id": 10830596351,
      "tourism": "attraction",
      "operator": "Everglades Airboat Expeditions",
      "website": "https://www.evergladesairboatexpedition.com/",
      "angle": 238.99151111593864
    },
    {
      "id": 19804,
      "geometry": "POINT (-80.399532 25.607592)",
      "poi_name": "Mongoose Lemur",
      "osm_id": 10882307635,
      "tourism": "attraction",
      "angle": 195.633474840664
    },
    {
      "id": 19805,
      "geometry": "POINT (-80.40234 25.608325)",
      "poi_name": "Bactrian Camel",
      "osm_id": 10882313117,
      "tourism": "attraction",
      "angle": 196.21197446991798
    },
    {
      "id": 19806,
      "geometry": "POINT (-80.403032 25.609054)",
      "poi_name": "Lowland Anoa",
      "osm_id": 10882313316,
      "tourism": "attraction",
      "angle": 196.38821036079256
    },
    {
      "id": 19999,
      "geometry": "POINT (-80.21349 26.095515)",
      "poi_name": "McGinnis Ski School",
      "osm_id": 7803790576,
      "tourism": "attraction",
      "angle": 22.5268451633112
    },
    {
      "id": 20526,
      "geometry": "POINT (-80.397843 25.610454)",
      "poi_name": "Wading Birds",
      "osm_id": 1190734427,
      "tourism": "attraction",
      "angle": 195.47769543114111
    },
    {
      "id": 20527,
      "geometry": "POINT (-80.397373 25.607466)",
      "poi_name": "Red River Hog",
      "osm_id": 1190822662,
      "tourism": "attraction",
      "angle": 195.21381201369957
    },
    {
      "id": 20528,
      "geometry": "POINT (-80.39914 25.602488)",
      "poi_name": "Guanaco",
      "osm_id": 1190822687,
      "tourism": "attraction",
      "angle": 195.26585193665363
    },
    {
      "id": 20529,
      "geometry": "POINT (-80.397251 25.609951)",
      "poi_name": "Bald Eagle",
      "osm_id": 1190822850,
      "tourism": "attraction",
      "angle": 195.33393768862902
    },
    {
      "id": 20530,
      "geometry": "POINT (-80.401211 25.606493)",
      "poi_name": "Defassa Waterbuck",
      "osm_id": 1190823146,
      "tourism": "attraction",
      "angle": 195.88772383207288
    },
    {
      "id": 20531,
      "geometry": "POINT (-80.399586 25.606363)",
      "poi_name": "Chimpanzee",
      "osm_id": 1190823169,
      "tourism": "attraction",
      "angle": 195.57190759523573
    },
    {
      "id": 20532,
      "geometry": "POINT (-80.40076 25.605287)",
      "poi_name": "Porcupine",
      "osm_id": 1190823451,
      "tourism": "attraction",
      "angle": 195.73144180083708
    },
    {
      "id": 20533,
      "geometry": "POINT (-80.397319 25.609149)",
      "poi_name": "Lemurs",
      "osm_id": 1190823479,
      "tourism": "attraction",
      "angle": 195.30043848757444
    },
    {
      "id": 20534,
      "geometry": "POINT (-80.401106 25.606196)",
      "poi_name": "Giant Eland",
      "osm_id": 1190823522,
      "tourism": "attraction",
      "angle": 195.85028986455492
    },
    {
      "id": 20535,
      "geometry": "POINT (-80.401831 25.604054)",
      "poi_name": "Grant's Gazelle",
      "osm_id": 1190823555,
      "tourism": "attraction",
      "angle": 195.86064103800808
    },
    {
      "id": 20536,
      "geometry": "POINT (-80.402008 25.604382)",
      "poi_name": "Reticulated Giraffe",
      "osm_id": 1190823598,
      "tourism": "attraction",
      "angle": 195.91312355340966
    },
    {
      "id": 20537,
      "geometry": "POINT (-80.397929 25.609232)",
      "poi_name": "Siamang",
      "osm_id": 1190823633,
      "tourism": "attraction",
      "angle": 195.4225385679754
    },
    {
      "id": 20538,
      "geometry": "POINT (-80.39892 25.610015)",
      "poi_name": "Sumatran Tiger",
      "osm_id": 1190823797,
      "tourism": "attraction",
      "angle": 195.65939352643323
    },
    {
      "id": 20539,
      "geometry": "POINT (-80.400229 25.605922)",
      "poi_name": "Lowland Gorilla",
      "osm_id": 1190823828,
      "tourism": "attraction",
      "angle": 195.66821125914095
    },
    {
      "id": 20540,
      "geometry": "POINT (-80.401281 25.605584)",
      "poi_name": "Vuturine Guineafowl",
      "osm_id": 1190823857,
      "tourism": "attraction",
      "angle": 195.847120080474
    },
    {
      "id": 20541,
      "geometry": "POINT (-80.398357 25.609321)",
      "poi_name": "Gibbon",
      "osm_id": 1190823873,
      "tourism": "attraction",
      "angle": 195.51012837832994
    },
    {
      "id": 20542,
      "geometry": "POINT (-80.401764 25.605264)",
      "poi_name": "Slender Horned Gazelle",
      "osm_id": 1190823949,
      "tourism": "attraction",
      "angle": 195.91931027952631
    },
    {
      "id": 20543,
      "geometry": "POINT (-80.401959 25.604195)",
      "poi_name": "Grevy's Zebra",
      "osm_id": 1190823983,
      "tourism": "attraction",
      "angle": 195.89309387556304
    },
    {
      "id": 20544,
      "geometry": "POINT (-80.397595 25.607828)",
      "poi_name": "Warthog",
      "osm_id": 1190823994,
      "tourism": "attraction",
      "angle": 195.27699068915916
    },
    {
      "id": 20545,
      "geometry": "POINT (-80.400146 25.606699)",
      "poi_name": "Stanley Crane",
      "osm_id": 1190824049,
      "tourism": "attraction",
      "angle": 195.69792827952116
    },
    {
      "id": 20546,
      "geometry": "POINT (-80.397642 25.60727)",
      "poi_name": "Wattled Crane",
      "osm_id": 1190824115,
      "tourism": "attraction",
      "angle": 195.2539922920374
    },
    {
      "id": 20547,
      "geometry": "POINT (-80.400168 25.60662)",
      "poi_name": "Lowland Nyala",
      "osm_id": 1190824151,
      "tourism": "attraction",
      "angle": 195.69738956635814
    },
    {
      "id": 20548,
      "geometry": "POINT (-80.399575 25.602207)",
      "poi_name": "Chacoan Peccary",
      "osm_id": 1190824207,
      "tourism": "attraction",
      "angle": 195.33147544522853
    },
    {
      "id": 20549,
      "geometry": "POINT (-80.397661 25.60733)",
      "poi_name": "Black Duiker",
      "osm_id": 1190824267,
      "tourism": "attraction",
      "angle": 195.2611367308903
    },
    {
      "id": 20550,
      "geometry": "POINT (-80.400991 25.603399)",
      "poi_name": "Addra Gazelle",
      "osm_id": 1190920850,
      "tourism": "attraction",
      "angle": 195.66497193038276
    },
    {
      "id": 20551,
      "geometry": "POINT (-80.400848 25.603235)",
      "poi_name": "Greater Kudu",
      "osm_id": 1190920866,
      "tourism": "attraction",
      "angle": 195.62862270905376
    },
    {
      "id": 20552,
      "geometry": "POINT (-80.400573 25.604244)",
      "poi_name": "African Elephant",
      "osm_id": 1190920912,
      "tourism": "attraction",
      "angle": 195.63536705060642
    },
    {
      "id": 20553,
      "geometry": "POINT (-80.399684 25.60942)",
      "poi_name": "Sloth Bear",
      "osm_id": 1190921048,
      "tourism": "attraction",
      "angle": 195.7707681371276
    },
    {
      "id": 20554,
      "geometry": "POINT (-80.399992 25.603601)",
      "poi_name": "Black Rhinoceros",
      "osm_id": 1190921068,
      "tourism": "attraction",
      "angle": 195.4890139971777
    },
    {
      "id": 20555,
      "geometry": "POINT (-80.399961 25.604578)",
      "poi_name": "White Backed Vulture",
      "osm_id": 1190921079,
      "tourism": "attraction",
      "angle": 195.5394658400996
    },
    {
      "id": 20556,
      "geometry": "POINT (-80.399269 25.607896)",
      "poi_name": "Baird's Tapir",
      "osm_id": 1190921118,
      "tourism": "attraction",
      "angle": 195.6012073197206
    },
    {
      "id": 20557,
      "geometry": "POINT (-80.398672 25.603385)",
      "poi_name": "Spider Monkey",
      "osm_id": 1190921122,
      "tourism": "attraction",
      "angle": 195.2285127509783
    },
    {
      "id": 20558,
      "geometry": "POINT (-80.400456 25.607479)",
      "poi_name": "Addax",
      "osm_id": 1190921144,
      "tourism": "attraction",
      "angle": 195.80279631147465
    },
    {
      "id": 20559,
      "geometry": "POINT (-80.402558 25.607537)",
      "poi_name": "Sable Antilope",
      "osm_id": 1190921211,
      "tourism": "attraction",
      "angle": 196.20556815790647
    },
    {
      "id": 20560,
      "geometry": "POINT (-80.401458 25.607455)",
      "poi_name": "Arabian Oryx",
      "osm_id": 1190921249,
      "tourism": "attraction",
      "angle": 195.99182228036702
    },
    {
      "id": 20561,
      "geometry": "POINT (-80.40094 25.608141)",
      "poi_name": "Indian Gaur",
      "osm_id": 1190921271,
      "tourism": "attraction",
      "angle": 195.9344237658303
    },
    {
      "id": 20562,
      "geometry": "POINT (-80.401271 25.608014)",
      "poi_name": "Dhole",
      "osm_id": 1190921406,
      "tourism": "attraction",
      "angle": 195.9899028359666
    },
    {
      "id": 20563,
      "geometry": "POINT (-80.403415 25.608312)",
      "poi_name": "Addra Gazelle",
      "osm_id": 1190921498,
      "tourism": "attraction",
      "angle": 196.4153349534226
    },
    {
      "id": 20564,
      "geometry": "POINT (-80.401582 25.603945)",
      "poi_name": "African Crowned Cranes",
      "osm_id": 1190921559,
      "tourism": "attraction",
      "angle": 195.80767624765255
    },
    {
      "id": 20565,
      "geometry": "POINT (-80.399865 25.60392)",
      "poi_name": "Glossy Starlings",
      "osm_id": 1190921659,
      "tourism": "attraction",
      "angle": 195.4834023765256
    },
    {
      "id": 20566,
      "geometry": "POINT (-80.399809 25.609894)",
      "poi_name": "Lowland Anoa",
      "osm_id": 1192325764,
      "tourism": "attraction",
      "angle": 195.8229614501626
    },
    {
      "id": 20567,
      "geometry": "POINT (-80.399451 25.610607)",
      "poi_name": "Malayan Tapir",
      "osm_id": 1192325962,
      "tourism": "attraction",
      "angle": 195.79694851976228
    },
    {
      "id": 20568,
      "geometry": "POINT (-80.401216 25.610834)",
      "poi_name": "Asian Elephant",
      "osm_id": 1192326010,
      "tourism": "attraction",
      "angle": 196.15035863901397
    },
    {
      "id": 20569,
      "geometry": "POINT (-80.39745 25.608486)",
      "poi_name": "Galapagos Turtoise",
      "osm_id": 1192326014,
      "tourism": "attraction",
      "angle": 195.2872960138605
    },
    {
      "id": 20570,
      "geometry": "POINT (-80.400465 25.610721)",
      "poi_name": "Yellow-Billed Hornbill",
      "osm_id": 1192326042,
      "tourism": "attraction",
      "angle": 195.99892373154245
    },
    {
      "id": 20571,
      "geometry": "POINT (-80.402064 25.610947)",
      "poi_name": "Indian Rhinoceros",
      "osm_id": 1192591128,
      "tourism": "attraction",
      "angle": 196.32001210958933
    },
    {
      "id": 20572,
      "geometry": "POINT (-80.402005 25.611641)",
      "poi_name": "Black Neck Stork",
      "osm_id": 1192591200,
      "tourism": "attraction",
      "angle": 196.3516858284194
    },
    {
      "id": 20573,
      "geometry": "POINT (-80.402927 25.611259)",
      "poi_name": "Lion",
      "osm_id": 1192591212,
      "tourism": "attraction",
      "angle": 196.50507825410062
    },
    {
      "id": 20574,
      "geometry": "POINT (-80.397435 25.605539)",
      "poi_name": "Jaguar",
      "osm_id": 1192662162,
      "tourism": "attraction",
      "angle": 195.11608354999512
    },
    {
      "id": 20575,
      "geometry": "POINT (-80.39794 25.60421)",
      "poi_name": "Giant Anteater",
      "osm_id": 1192662218,
      "tourism": "attraction",
      "angle": 195.13673780623935
    },
    {
      "id": 20856,
      "geometry": "POINT (-80.36908 25.747296)",
      "poi_name": "Flume",
      "osm_id": 1282519951,
      "tourism": "attraction",
      "angle": 200.85436655963676
    },
    {
      "id": 20857,
      "geometry": "POINT (-80.368551 25.748424)",
      "poi_name": "Mega Drop",
      "osm_id": 1282519953,
      "tourism": "attraction",
      "angle": 200.83185878594554
    },
    {
      "id": 20858,
      "geometry": "POINT (-80.368544 25.750055)",
      "poi_name": "Avalanche Coaster",
      "osm_id": 1282519956,
      "tourism": "attraction",
      "angle": 201.1097316173653
    },
    {
      "id": 20859,
      "geometry": "POINT (-80.369431 25.752292)",
      "poi_name": "Swing Tower",
      "osm_id": 1282519957,
      "tourism": "attraction",
      "angle": 201.87475896903447
    },
    {
      "id": 20860,
      "geometry": "POINT (-80.371785 25.752246)",
      "poi_name": "Crazy Mouse",
      "osm_id": 1282519968,
      "tourism": "attraction",
      "angle": 202.833350712047
    },
    {
      "id": 20861,
      "geometry": "POINT (-80.370712 25.752298)",
      "poi_name": "Fireball",
      "osm_id": 1282519972,
      "tourism": "attraction",
      "angle": 202.40383904469377
    },
    {
      "id": 20967,
      "geometry": "POINT (-80.17502 25.786416)",
      "poi_name": "Liger",
      "osm_id": 1327328960,
      "tourism": "attraction",
      "angle": 119.10608544363579
    },
    {
      "id": 20968,
      "geometry": "POINT (-80.175332 25.786358)",
      "poi_name": "Tortoise",
      "osm_id": 1327329025,
      "tourism": "attraction",
      "angle": 119.1771093494881
    },
    {
      "id": 20969,
      "geometry": "POINT (-80.176265 25.787138)",
      "poi_name": "Crocosaurus",
      "osm_id": 1327331730,
      "tourism": "attraction",
      "angle": 119.07510126515562
    },
    {
      "id": 20970,
      "geometry": "POINT (-80.174723 25.78558)",
      "poi_name": "Flamingo",
      "osm_id": 1327333400,
      "tourism": "attraction",
      "angle": 119.33093437877679
    },
    {
      "id": 20971,
      "geometry": "POINT (-80.175691 25.786896)",
      "poi_name": "Primates",
      "osm_id": 1327333405,
      "tourism": "attraction",
      "angle": 119.05911563748026
    },
    {
      "id": 20972,
      "geometry": "POINT (-80.17432 25.786732)",
      "poi_name": "Albino Alligator",
      "osm_id": 1327333408,
      "tourism": "attraction",
      "angle": 118.88587419525514
    },
    {
      "id": 20973,
      "geometry": "POINT (-80.175935 25.786865)",
      "poi_name": "Penguins",
      "osm_id": 1327333427,
      "tourism": "attraction",
      "angle": 119.11039379980477
    },
    {
      "id": 20974,
      "geometry": "POINT (-80.165168 25.732618)",
      "poi_name": "Manatee Exhibit",
      "osm_id": 1328148983,
      "tourism": "attraction",
      "angle": 132.0251879063189
    },
    {
      "id": 20975,
      "geometry": "POINT (-80.16516 25.732982)",
      "poi_name": "Reef Aqarium",
      "osm_id": 1328149043,
      "tourism": "attraction",
      "angle": 131.9422550198781
    },
    {
      "id": 20977,
      "geometry": "POINT (-80.164818 25.731715)",
      "poi_name": "Flipper Dolphin Show",
      "osm_id": 1328183214,
      "tourism": "attraction",
      "angle": 132.16181671730664
    },
    {
      "id": 20978,
      "geometry": "POINT (-80.165819 25.733253)",
      "poi_name": "Sea Lion Feeder Pool",
      "osm_id": 1328183259,
      "tourism": "attraction",
      "angle": 132.0020801490507
    },
    {
      "id": 20979,
      "geometry": "POINT (-80.166567 25.732407)",
      "poi_name": "Discovery Bay",
      "osm_id": 1328183295,
      "tourism": "attraction",
      "angle": 132.32856183286947
    },
    {
      "id": 20980,
      "geometry": "POINT (-80.166502 25.732743)",
      "poi_name": "Crocodile Flats",
      "osm_id": 1328183411,
      "tourism": "attraction",
      "angle": 132.24153169690845
    },
    {
      "id": 20981,
      "geometry": "POINT (-80.165088 25.733379)",
      "poi_name": "Tropical Fish Aqariums",
      "osm_id": 1328183603,
      "tourism": "attraction",
      "angle": 131.8403497443469
    },
    {
      "id": 21011,
      "geometry": "POINT (-80.39788 25.604452)",
      "poi_name": "Giant River Otter",
      "osm_id": 1344230958,
      "tourism": "attraction",
      "angle": 195.1390613207734
    },
    {
      "id": 21012,
      "geometry": "POINT (-80.39733 25.604638)",
      "poi_name": "Freshwater Stingray",
      "osm_id": 1344231103,
      "tourism": "attraction",
      "angle": 195.04533524893552
    },
    {
      "id": 21013,
      "geometry": "POINT (-80.397627 25.604492)",
      "poi_name": "Harpy Eagle",
      "osm_id": 1344272090,
      "tourism": "attraction",
      "angle": 195.093416186245
    },
    {
      "id": 21014,
      "geometry": "POINT (-80.397655 25.604573)",
      "poi_name": "Toucans",
      "osm_id": 1344272121,
      "tourism": "attraction",
      "angle": 195.10325649260096
    },
    {
      "id": 21470,
      "geometry": "POINT (-80.120816 26.087889)",
      "poi_name": "Royal Caribbean Cruise Terminal",
      "osm_id": 10276836210,
      "tourism": "attraction",
      "angle": 38.52129366916767
    },
    {
      "id": 21487,
      "geometry": "POINT (-80.260737 25.705815)",
      "poi_name": "Coral Gables Waterway",
      "osm_id": 10282144475,
      "tourism": "attraction",
      "angle": 160.37989780972666
    },
    {
      "id": 21635,
      "geometry": "POINT (-80.39682 25.61028)",
      "poi_name": "Snakes",
      "osm_id": 10587945061,
      "tourism": "attraction",
      "angle": 195.2697268784912
    },
    {
      "id": 21636,
      "geometry": "POINT (-80.396751 25.610133)",
      "poi_name": "Black Bear",
      "osm_id": 10587945071,
      "tourism": "attraction",
      "angle": 195.24787499950492
    },
    {
      "id": 21637,
      "geometry": "POINT (-80.396906 25.610381)",
      "poi_name": "Florida Panther",
      "osm_id": 10587945072,
      "tourism": "attraction",
      "angle": 195.29236399340502
    },
    {
      "id": 21660,
      "geometry": "POINT (-80.397776 25.605576)",
      "poi_name": "Howler Monkey",
      "osm_id": 10598403426,
      "tourism": "attraction",
      "angle": 195.18287198140962
    },
    {
      "id": 21661,
      "geometry": "POINT (-80.397966 25.605712)",
      "poi_name": "Hummingbirds",
      "osm_id": 10598403429,
      "tourism": "attraction",
      "angle": 195.2267582010391
    },
    {
      "id": 21662,
      "geometry": "POINT (-80.398055 25.604685)",
      "poi_name": "Bats",
      "osm_id": 10598403491,
      "tourism": "attraction",
      "angle": 195.18543299365822
    },
    {
      "id": 21663,
      "geometry": "POINT (-80.397349 25.605259)",
      "poi_name": "Orinoco Crocodile",
      "osm_id": 10598403493,
      "tourism": "attraction",
      "angle": 195.08400443357067
    },
    {
      "id": 21664,
      "geometry": "POINT (-80.398176 25.604561)",
      "poi_name": "Two-Toed Sloth",
      "osm_id": 10598403691,
      "tourism": "attraction",
      "angle": 195.20134876191148
    },
    {
      "id": 21680,
      "geometry": "POINT (-80.399475 25.607099)",
      "poi_name": "Pygmy Hippopotamus",
      "osm_id": 10604993318,
      "tourism": "attraction",
      "angle": 195.59370928532613
    },
    {
      "id": 21681,
      "geometry": "POINT (-80.40145 25.60513)",
      "poi_name": "Mountain Bongo",
      "osm_id": 10604993688,
      "tourism": "attraction",
      "angle": 195.85221223896642
    },
    {
      "id": 21682,
      "geometry": "POINT (-80.401416 25.604685)",
      "poi_name": "Black Duiker",
      "osm_id": 10604993689,
      "tourism": "attraction",
      "angle": 195.819747474615
    },
    {
      "id": 21683,
      "geometry": "POINT (-80.401427 25.604339)",
      "poi_name": "Okapi",
      "osm_id": 10604993722,
      "tourism": "attraction",
      "angle": 195.8014928787569
    },
    {
      "id": 21743,
      "geometry": "POINT (-80.399355 25.610174)",
      "poi_name": "Cuban Crocodile",
      "osm_id": 10651834509,
      "tourism": "attraction",
      "angle": 195.7525627148333
    },
    {
      "id": 21744,
      "geometry": "POINT (-80.399192 25.608966)",
      "poi_name": "Bornean Orangutan",
      "osm_id": 10651834656,
      "tourism": "attraction",
      "angle": 195.64952454427217
    },
    {
      "id": 21769,
      "geometry": "POINT (-80.400757 25.611909)",
      "poi_name": "Camel",
      "osm_id": 10674072209,
      "tourism": "attraction",
      "angle": 196.1277093741805
    },
    {
      "id": 21770,
      "geometry": "POINT (-80.401233 25.611716)",
      "poi_name": "Meerkat",
      "osm_id": 10674072241,
      "tourism": "attraction",
      "angle": 196.20765805651797
    },
    {
      "id": 21785,
      "geometry": "POINT (-80.403683 25.609105)",
      "poi_name": "Spotted Hyena",
      "osm_id": 10678735198,
      "tourism": "attraction",
      "angle": 196.51524480603075
    },
    {
      "id": 21786,
      "geometry": "POINT (-80.403071 25.609881)",
      "poi_name": "Clouded Leopard",
      "osm_id": 10678769332,
      "tourism": "attraction",
      "angle": 196.4467026843116
    },
    {
      "id": 21787,
      "geometry": "POINT (-80.403145 25.60974)",
      "poi_name": "Asian Small-Clawed Otter",
      "osm_id": 10678769333,
      "tourism": "attraction",
      "angle": 196.45208617767977
    },
    {
      "id": 21788,
      "geometry": "POINT (-80.403318 25.60945)",
      "poi_name": "Komodo Dragon",
      "osm_id": 10678769334,
      "tourism": "attraction",
      "angle": 196.46707794420627
    },
    {
      "id": 21789,
      "geometry": "POINT (-80.403756 25.609638)",
      "poi_name": "African Painted Dog",
      "osm_id": 10678769374,
      "tourism": "attraction",
      "angle": 196.5622371948265
    },
    {
      "id": 21790,
      "geometry": "POINT (-80.403593 25.610317)",
      "poi_name": "Grevy's Zebra",
      "osm_id": 10678769448,
      "tourism": "attraction",
      "angle": 196.57347058258188
    },
    {
      "id": 21791,
      "geometry": "POINT (-80.402864 25.610263)",
      "poi_name": "Banteng",
      "osm_id": 10678769551,
      "tourism": "attraction",
      "angle": 196.43096204541033
    },
    {
      "id": 22280,
      "geometry": "POINT (-80.609648 25.382546)",
      "poi_name": "Royal Palm",
      "osm_id": 633453736,
      "tourism": "attraction",
      "wikidata": "Q36044319",
      "angle": 208.72779751648852
    },
    {
      "id": 22940,
      "geometry": "POINT (-80.168279 26.047226)",
      "poi_name": "K1 speed",
      "osm_id": 4976555621,
      "tourism": "attraction",
      "addr_street": "2950 Stirling Rd, Hollywood, FL 33020",
      "angle": 36.51765010564846
    },
    {
      "id": 22957,
      "geometry": "POINT (-80.45572 25.962437)",
      "poi_name": "Mack's Fish Camp",
      "osm_id": 4980785875,
      "tourism": "attraction",
      "website": "www.macksfishcamp.com",
      "addr_postcode": "33029",
      "angle": 310.1042934712096
    },
    {
      "id": 22958,
      "geometry": "POINT (-80.186454 25.778106)",
      "poi_name": "Thriller speedboat adventures",
      "osm_id": 4980785876,
      "tourism": "attraction",
      "website": "https://www.thrillermiami.com/",
      "addr_postcode": "33132",
      "addr_street": "Biscayne Boulevard",
      "addr_housenumber": "401",
      "angle": 123.89527703906691
    },
    {
      "id": 22959,
      "geometry": "POINT (-80.245984 26.082924)",
      "poi_name": "Miami Dolphins Training Facility",
      "osm_id": 4980786158,
      "tourism": "attraction",
      "addr_postcode": "33314",
      "addr_street": "Southwest 30th Street",
      "addr_housenumber": "7500",
      "angle": 17.039584429045146
    },
    {
      "id": 24673,
      "geometry": "POINT (-80.493634 25.535102)",
      "poi_name": "Fruit and spice park",
      "osm_id": 11165497407,
      "tourism": "attraction",
      "addr_postcode": "33031",
      "addr_street": "Southwest 187th Avenue",
      "addr_housenumber": "24801",
      "angle": 205.65178881686683
    },
    {
      "id": 24756,
      "geometry": "POINT (-80.269032 25.909142)",
      "poi_name": "Miami Helicopter Tours",
      "osm_id": 4311847635,
      "description": "Offering helicopter tours and charter services in the Miami, Florida and surrounding areas.",
      "tourism": "attraction",
      "operator": "Miami Helicopter",
      "website": "https://www.miamihelicopter.com/",
      "phone": "+1-305-687-0527",
      "addr_state": "FL",
      "addr_city": "Opa-locka",
      "addr_postcode": "33054",
      "addr_street": "Northwest 42nd Avenue",
      "addr_housenumber": "14970",
      "angle": 44.2077595687808
    },
    {
      "id": 24808,
      "geometry": "POINT (-80.185546 25.789759)",
      "poi_name": "Dexter's Miami Metro Police exterior",
      "osm_id": 4331031495,
      "tourism": "attraction",
      "addr_street": "Northeast 15th Street",
      "addr_housenumber": "155",
      "angle": 119.80267302585146
    },
    {
      "id": 25000,
      "geometry": "POINT (-80.410008 25.556334)",
      "poi_name": "Miami International Riding Club",
      "osm_id": 4368848589,
      "tourism": "attraction",
      "website": "http://www.mirc-horses.com/",
      "addr_postcode": "33170",
      "addr_street": "Southwest 134th Avenue",
      "addr_housenumber": "22620",
      "angle": 194.78950178027662
    },
    {
      "id": 25008,
      "geometry": "POINT (-80.191432 25.81466)",
      "poi_name": "Design District",
      "osm_id": 4374131889,
      "tourism": "attraction",
      "angle": 111.1760644623003
    },
    {
      "id": 25738,
      "geometry": "POINT (-80.219973 25.765644)",
      "poi_name": "Calle Ocho Walk of Fame",
      "osm_id": 4587210554,
      "tourism": "attraction",
      "angle": 135.82713035875528
    },
    {
      "id": 25639,
      "geometry": "POINT (-80.132992 25.894262)",
      "poi_name": "Dexter house",
      "osm_id": 4567960889,
      "tourism": "attraction",
      "addr_postcode": "33154",
      "addr_street": "103rd Street",
      "addr_housenumber": "1155",
      "angle": 78.70942585736628
    },
    {
      "id": 25448,
      "geometry": "POINT (-80.19908 25.800645)",
      "poi_name": "Wynwood Arts District",
      "osm_id": 4498982389,
      "tourism": "attraction",
      "angle": 118.28173188504665
    },
    {
      "id": 26302,
      "geometry": "POINT (-80.157529 25.73487)",
      "poi_name": "Historic Virginia Key Beach Park",
      "osm_id": 5841492990,
      "tourism": "attraction",
      "angle": 130.1649009829064
    },
    {
      "id": 26844,
      "geometry": "POINT (-80.132442 25.813647)",
      "poi_name": "Welcome to Miami Beach Mural",
      "osm_id": 7581020587,
      "tourism": "attraction",
      "angle": 105.22038835992704
    }
  ],
  "answer_type": "angle",
  "question_entities": {
    "[1]": {
      "main_category": "tourism",
      "sub_category": "attraction"
    },
    "[2]": {
      "distance": 80000,
      "text": "80 kilometers"
    },
    "[3]": {
      "main_category": "amenity",
      "sub_category": "hospital",
      "display_name": "Southern Winds, Hialeah, FL",
      "geo_wkt": "POINT (-80.321534 25.860337)",
      "poi": {
        "id": 181404,
        "geometry": "POINT (-80.321534 25.860337)",
        "poi_name": "Southern Winds",
        "osm_id": 10844814184,
        "amenity": "hospital",
        "website": "https://southernwindshospital.com",
        "phone": "+1 305 558 9700",
        "healthcare": "hospital",
        "addr_state": "FL",
        "addr_city": "Hialeah",
        "addr_postcode": "33012",
        "addr_street": "West 20th Avenue",
        "addr_housenumber": "4225"
      }
    }
  },
  "id": 1083,
  "type": "range+angle"
}