{
  "question": "Within a radius of 90 kilometers, which caf\u00e9 can I find on the route towards South 6th St. Community Garden, Philadelphia, PA from West Chester Cardiology, West Chester, PA?",
  "sql": "WITH\n    angle AS (SELECT degrees(ST_Azimuth(ST_GeomFromText('POINT (-75.599564 39.969582)',4326)::geography, ST_GeomFromText('POINT (-75.153583 39.935532)',4326)::geography)) AS value)\nSELECT * FROM pois,angle\nWHERE amenity = 'cafe'\nAND ST_DWithin(pois.geometry, ST_GeomFromText('POINT (-75.599564 39.969582)',4326)::geography, 90000)\nAND (degrees(ST_Azimuth(ST_GeomFromText('POINT (-75.599564 39.969582)',4326)::geography, pois.geometry)) BETWEEN angle.value - 22.5 AND angle.value + 22.5);\n",
  "answers": [
    {
      "id": 29573,
      "geometry": "POINT (-75.02338 39.940963)",
      "poi_name": "Starbucks",
      "osm_id": 8313195747,
      "amenity": "cafe",
      "cuisine": "coffee_shop",
      "takeaway": "yes",
      "official_name": "Starbucks Coffee",
      "value": 95.52220461039103
    },
    {
      "id": 29558,
      "geometry": "POINT (-75.027238 39.940793)",
      "poi_name": "Nordstrom ebar",
      "osm_id": 8313035807,
      "amenity": "cafe",
      "value": 95.52220461039103
    },
    {
      "id": 29570,
      "geometry": "POINT (-75.025445 39.940901)",
      "poi_name": "Bistro at Cherry Hill",
      "osm_id": 8313184062,
      "amenity": "cafe",
      "value": 95.52220461039103
    },
    {
      "id": 31914,
      "geometry": "POINT (-75.143034 39.962102)",
      "poi_name": "Higher Grounds Cafe",
      "osm_id": 2613831411,
      "amenity": "cafe",
      "website": "http://highergroundscafe.com",
      "internet_access": "yes",
      "phone": "215-922-3745",
      "addr_city": "Philadelphia",
      "addr_postcode": "19123",
      "addr_street": "North 3rd Street",
      "addr_housenumber": "631",
      "value": 95.52220461039103
    },
    {
      "id": 31745,
      "geometry": "POINT (-75.156011 39.988236)",
      "poi_name": "Tribe Cafe",
      "osm_id": 8444078986,
      "amenity": "cafe",
      "opening_hours": "Mo-Sa 08:00-22:30",
      "outdoor_seating": "no",
      "addr_state": "PA",
      "addr_city": "Philadelphia",
      "addr_postcode": "19132",
      "addr_street": "North Broad Street",
      "addr_housenumber": "2310",
      "value": 95.52220461039103
    },
    {
      "id": 32360,
      "geometry": "POINT (-75.144406 39.964257)",
      "poi_name": "Cafe La Maude",
      "osm_id": 2624839606,
      "amenity": "cafe",
      "cuisine": "french;lebanese",
      "opening_hours": "Mo-Fr 06:00-16:00, Sa-Su 07:00-16:00",
      "website": "https://www.cafelamaude.com/",
      "phone": "267-318-7869",
      "addr_city": "Philadelphia",
      "addr_postcode": "19123",
      "addr_street": "N 4th St",
      "addr_housenumber": "816",
      "value": 95.52220461039103
    },
    {
      "id": 33156,
      "geometry": "POINT (-75.167431 39.951495)",
      "poi_name": "Saxbys",
      "osm_id": 2654363315,
      "amenity": "cafe",
      "wheelchair": "yes",
      "opening_hours": "Mo-Sa 08:00-15:00; Su 12:00-18:00",
      "website": "https://www.saxbyscoffee.com/location/saxbys-liberty-place",
      "phone": "+1 267-319-1597",
      "addr_city": "Philadelphia",
      "addr_postcode": "19103",
      "addr_street": "Chestnut Street",
      "addr_housenumber": "1625",
      "value": 95.52220461039103
    },
    {
      "id": 32721,
      "geometry": "POINT (-75.442156 39.975719)",
      "poi_name": "Starbucks",
      "osm_id": 2636151921,
      "amenity": "cafe",
      "cuisine": "coffee_shop",
      "takeaway": "yes",
      "official_name": "Starbucks Coffee",
      "value": 95.52220461039103
    },
    {
      "id": 33159,
      "geometry": "POINT (-75.17904 39.942548)",
      "poi_name": "Ultimo Coffee",
      "osm_id": 2654389780,
      "amenity": "cafe",
      "cuisine": "coffee_shop",
      "opening_hours": "Mo-Fr 07:00-19:00; Sa, Su 08:00-19:00",
      "website": "https://www.ultimocoffee.com/",
      "internet_access": "wlan",
      "phone": "+1-215-545-3565",
      "outdoor_seating": "yes",
      "addr_city": "Philadelphia",
      "addr_postcode": "19146",
      "addr_street": "Catharine Street",
      "addr_housenumber": "2149",
      "value": 95.52220461039103
    },
    {
      "id": 34107,
      "geometry": "POINT (-75.165305 39.951667)",
      "poi_name": "La Colombe Coffee Roasters",
      "osm_id": 2694849009,
      "amenity": "cafe",
      "cuisine": "coffee_shop",
      "wheelchair": "yes",
      "opening_hours": "Mo-Fr 07:00-19:00, Sa-Su 08:00-19:00",
      "website": "https://www.lacolombe.com/",
      "internet_access": "no",
      "phone": "+1-215-977-7770",
      "takeaway": "yes",
      "addr_city": "Philadelphia",
      "addr_postcode": "19102",
      "addr_street": "South Penn Square",
      "addr_housenumber": "1414",
      "value": 95.52220461039103
    },
    {
      "id": 33677,
      "geometry": "POINT (-75.188001 39.95498)",
      "poi_name": "Starbucks",
      "osm_id": 2677590445,
      "amenity": "cafe",
      "cuisine": "coffee_shop",
      "internet_access": "yes",
      "takeaway": "yes",
      "official_name": "Starbucks Coffee",
      "value": 95.52220461039103
    },
    {
      "id": 34417,
      "geometry": "POINT (-75.141119 39.963067)",
      "poi_name": "Madison K Cookies",
      "osm_id": 2699346738,
      "amenity": "cafe",
      "cuisine": "dessert;cookie",
      "opening_hours": "We-Fr 12:00-20:00, Sa 10:00-17:00, Su 12:00-17:00",
      "website": "https://madisonkcookies.com/",
      "phone": "(215) 660-9616",
      "addr_city": "Philadelphia",
      "addr_postcode": "19123",
      "addr_street": "North 2nd Street",
      "addr_housenumber": "800",
      "value": 95.52220461039103
    },
    {
      "id": 34429,
      "geometry": "POINT (-75.1883 39.9538)",
      "poi_name": "Joe Coffee",
      "osm_id": 2699434125,
      "amenity": "cafe",
      "cuisine": "coffee_shop",
      "opening_hours": "Mo-Fr 07:00-19:00; Sa, Su 09:00-18:00",
      "website": "https://joecoffeecompany.com/locations/university-city/",
      "addr_street": "Chestnut",
      "addr_housenumber": "3200",
      "value": 95.52220461039103
    },
    {
      "id": 37027,
      "geometry": "POINT (-75.177554 39.939375)",
      "poi_name": "Cafe Ynez",
      "osm_id": 2794791042,
      "amenity": "cafe",
      "cuisine": "mexican",
      "website": "https://www.cafeynez.com/",
      "phone": "(215) 278-7579",
      "addr_city": "Philadelphia",
      "addr_postcode": "19146",
      "addr_street": "Washington Avenue",
      "addr_housenumber": "2025",
      "value": 95.52220461039103
    },
    {
      "id": 34478,
      "geometry": "POINT (-75.195064 39.954581)",
      "poi_name": "Kiwi Frozen Yougurt",
      "osm_id": 2700422418,
      "amenity": "cafe",
      "wheelchair": "yes",
      "value": 95.52220461039103
    },
    {
      "id": 36149,
      "geometry": "POINT (-75.18185 39.925822)",
      "poi_name": "Cafe con Chocolate",
      "osm_id": 2752481492,
      "amenity": "cafe",
      "cuisine": "mexican",
      "wheelchair": "yes",
      "opening_hours": "Tu-We 10:00-19:00; Th-Sa 10:00-21:00; Su 10:00-17:00",
      "website": "http://www.cafeconchocolate.com/",
      "internet_access": "wlan",
      "phone": "+1 267 639 4506",
      "takeaway": "yes",
      "drive_through": "no",
      "outdoor_seating": "yes",
      "addr_city": "Philadelphia",
      "addr_postcode": "19145",
      "addr_street": "S Norwood St",
      "addr_housenumber": "2100",
      "value": 95.52220461039103
    },
    {
      "id": 37044,
      "geometry": "POINT (-75.179253 39.951306)",
      "poi_name": "Good Karma Caf\u00e9",
      "osm_id": 2795220436,
      "amenity": "cafe",
      "cuisine": "coffee_shop",
      "wheelchair": "yes",
      "opening_hours": "Mo-Su 06:00-21:00",
      "website": "http://www.thegoodkarmacafe.com/",
      "internet_access": "wlan",
      "phone": "+1-267-239-2068",
      "addr_city": "Philadelphia",
      "addr_postcode": "19103",
      "addr_street": "Walnut Street",
      "addr_housenumber": "2319",
      "value": 95.52220461039103
    },
    {
      "id": 38394,
      "geometry": "POINT (-75.158975 39.934388)",
      "poi_name": "RIM Cafe",
      "osm_id": 2862624521,
      "amenity": "cafe",
      "opening_hours": "Mo-We off; Th 12:00-21:00; Fr-Sa 12:00-22:00; Su 12:00-21:00",
      "website": "http://www.rimcafe.com",
      "internet_access": "no",
      "phone": "+1-215-465-3515",
      "addr_state": "PA",
      "addr_city": "Philadelphia",
      "addr_street": "South 9th Street",
      "addr_housenumber": "1172",
      "value": 95.52220461039103
    },
    {
      "id": 37259,
      "geometry": "POINT (-75.176771 39.9374)",
      "poi_name": "OCF Coffee House",
      "osm_id": 2805226330,
      "amenity": "cafe",
      "cuisine": "coffee_shop",
      "website": "https://ocfrealty.com/coffee-house/point-breeze",
      "addr_city": "Philadelphia",
      "addr_postcode": "19146",
      "addr_street": "Federal Street",
      "addr_housenumber": "2001",
      "value": 95.52220461039103
    },
    {
      "id": 37260,
      "geometry": "POINT (-75.176993 39.937248)",
      "poi_name": "On Point Bistro",
      "osm_id": 2805226701,
      "amenity": "cafe",
      "cuisine": "american",
      "website": "https://www.onpointbistro.com/",
      "addr_city": "Philadelphia",
      "addr_postcode": "19146",
      "addr_street": "Point Breeze Avenue",
      "addr_housenumber": "1200",
      "value": 95.52220461039103
    },
    {
      "id": 37262,
      "geometry": "POINT (-75.1771 39.945)",
      "poi_name": "Social House Eatery and Cafe",
      "osm_id": 2805227385,
      "amenity": "cafe",
      "opening_hours": "Mo-Fr 07:30-15:00; Sa, Su 08:00-15:00",
      "addr_city": "Philadelphia",
      "addr_postcode": "19146",
      "addr_street": "South Street",
      "addr_housenumber": "2100",
      "value": 95.52220461039103
    },
    {
      "id": 41304,
      "geometry": "POINT (-75.180673 39.946485)",
      "poi_name": "Rival Bros Coffee Bar",
      "osm_id": 3010293016,
      "amenity": "cafe",
      "opening_hours": "Mo-Fr 07:00-17:00; Sa,Su 08:00-17:00",
      "website": "https://www.rivalbros.com/",
      "addr_city": "Philadelphia",
      "addr_postcode": "19146",
      "addr_street": "Lombard Street",
      "addr_housenumber": "2400",
      "value": 95.52220461039103
    },
    {
      "id": 39600,
      "geometry": "POINT (-75.166385 39.927274)",
      "poi_name": "Chhaya Cafe",
      "osm_id": 2930475147,
      "amenity": "cafe",
      "opening_hours": "Mo-Fr 07:00-19:00; Sa-Su 08:00-18:00",
      "website": "https://www.chhayacafe.com/",
      "internet_access": "yes",
      "phone": "+1-215-465-1000",
      "addr_city": "Philadelphia",
      "addr_postcode": "19148",
      "addr_street": "East Passyunk Avenue",
      "addr_housenumber": "1819",
      "value": 95.52220461039103
    },
    {
      "id": 40031,
      "geometry": "POINT (-75.174044 39.934933)",
      "poi_name": "The Pharmacy",
      "osm_id": 2955340970,
      "amenity": "cafe",
      "cuisine": "coffee_shop",
      "opening_hours": "Mo-Sa 07:00-22:00;Su 08:00-20:00",
      "internet_access": "yes",
      "addr_city": "Philadelphia",
      "addr_postcode": "19146",
      "addr_street": "South 18th Street",
      "addr_housenumber": "1300",
      "value": 95.52220461039103
    },
    {
      "id": 43195,
      "geometry": "POINT (-75.144829 39.953526)",
      "poi_name": "Cafe Ole",
      "osm_id": 3100653529,
      "amenity": "cafe",
      "wheelchair": "no",
      "addr_city": "Philadelphia",
      "addr_postcode": "19106",
      "addr_street": "North 3rd Street",
      "addr_housenumber": "147",
      "value": 95.52220461039103
    },
    {
      "id": 42063,
      "geometry": "POINT (-75.153454 39.947338)",
      "poi_name": "Talula's Daily",
      "osm_id": 3040240343,
      "amenity": "cafe",
      "cuisine": "coffee_shop",
      "wheelchair": "limited",
      "opening_hours": "08:00-18:00",
      "addr_city": "Philadelphia",
      "addr_postcode": "19106",
      "addr_street": "West Washington Square",
      "addr_housenumber": "208",
      "value": 95.52220461039103
    },
    {
      "id": 42753,
      "geometry": "POINT (-75.152837 39.948017)",
      "poi_name": "Cafe Walnut",
      "osm_id": 3076968333,
      "amenity": "cafe",
      "wheelchair": "no",
      "opening_hours": "Mo-Fr 08:00-18:00; Sa 09:00-18:00; Su 09:00-15:00",
      "addr_street": "Walnut Street",
      "addr_housenumber": "703",
      "value": 95.52220461039103
    },
    {
      "id": 42761,
      "geometry": "POINT (-75.166718 39.954674)",
      "poi_name": "Starbucks",
      "osm_id": 3077101935,
      "amenity": "cafe",
      "cuisine": "coffee_shop",
      "wheelchair": "yes",
      "opening_hours": "Mo-Fr 05:30-20:00; Sa-Su 06:30-19:30",
      "takeaway": "yes",
      "official_name": "Starbucks Coffee",
      "addr_state": "PA",
      "addr_city": "Philadelphia",
      "addr_postcode": "19103",
      "addr_street": "Arch Street",
      "addr_housenumber": "1600",
      "value": 95.52220461039103
    },
    {
      "id": 41826,
      "geometry": "POINT (-75.14473 39.950719)",
      "poi_name": "Old City Coffee",
      "osm_id": 3026099184,
      "amenity": "cafe",
      "cuisine": "coffee_shop",
      "wheelchair": "no",
      "opening_hours": "Mo-Sa 07:00-17:00; Su 08:00-16:00",
      "internet_access": "yes",
      "addr_city": "Philadelphia",
      "addr_postcode": "19106",
      "addr_street": "Church Street",
      "addr_housenumber": "221",
      "value": 95.52220461039103
    },
    {
      "id": 42091,
      "geometry": "POINT (-75.145909 39.9498)",
      "poi_name": "Menagerie Coffee",
      "osm_id": 3042654512,
      "amenity": "cafe",
      "wheelchair": "yes",
      "opening_hours": "Mo-Th 07:00-17:00; Fr 07:00-18:00; Sa 08:00-18:00; Su 08:00-17:00",
      "website": "http://www.menageriecoffee.com",
      "internet_access": "yes",
      "addr_city": "Philadelphia",
      "addr_street": "South 3rd Street",
      "addr_housenumber": "18",
      "value": 95.52220461039103
    },
    {
      "id": 47101,
      "geometry": "POINT (-75.134283 39.971229)",
      "poi_name": "La Colombe Coffee Roasters",
      "osm_id": 3306921056,
      "amenity": "cafe",
      "cuisine": "coffee_shop",
      "wheelchair": "yes",
      "opening_hours": "Su-Th 07:00-19:00, Fr-Sa 07:00-21:00",
      "website": "https://www.lacolombe.com/",
      "phone": "267-479-1600",
      "takeaway": "yes",
      "addr_state": "PA",
      "addr_city": "Philadelphia",
      "addr_postcode": "19125",
      "addr_street": "Frankford Avenue",
      "addr_housenumber": "1335",
      "value": 95.52220461039103
    },
    {
      "id": 43270,
      "geometry": "POINT (-75.14515 39.952063)",
      "poi_name": "Starbucks",
      "osm_id": 3103214929,
      "amenity": "cafe",
      "cuisine": "coffee_shop",
      "internet_access": "yes",
      "takeaway": "yes",
      "official_name": "Starbucks Coffee",
      "addr_city": "Philadelphia",
      "addr_postcode": "19106",
      "addr_street": "North 3rd Street",
      "addr_housenumber": "63",
      "value": 95.52220461039103
    },
    {
      "id": 43534,
      "geometry": "POINT (-75.151862 39.929033)",
      "poi_name": "Grindcore House",
      "osm_id": 3118475655,
      "amenity": "cafe",
      "cuisine": "coffee;sandwich;dessert",
      "description": "Hip coffeehouse where the drinks & eats are vegan-friendly & the grindcore soundtrack is intense.",
      "opening_hours": "Mo-Fr 06:30-20:00; Sa-Su 08:00-20:00",
      "website": "https://www.grindcorehouse.com/",
      "internet_access": "yes",
      "phone": "+1 215-839-3333",
      "addr_city": "Philadelphia",
      "addr_postcode": "19147",
      "addr_street": "South 4th Street",
      "addr_housenumber": "1515",
      "value": 95.52220461039103
    },
    {
      "id": 46400,
      "geometry": "POINT (-75.175552 39.943109)",
      "poi_name": "Fitzwater Street Philly Bagels",
      "osm_id": 3262332760,
      "amenity": "cafe",
      "cuisine": "coffee_shop",
      "opening_hours": "Mo-Fr 07:00-15:00; Sa,Su 07:00-14:00",
      "internet_access": "no",
      "addr_state": "PA",
      "addr_city": "Philadelphia",
      "addr_postcode": "19146",
      "addr_street": "Fitzwater Street",
      "addr_housenumber": "2001",
      "value": 95.52220461039103
    },
    {
      "id": 47102,
      "geometry": "POINT (-75.134979 39.9742)",
      "poi_name": "Gryphon Cafe",
      "osm_id": 3306925569,
      "amenity": "cafe",
      "opening_hours": "Mo-Fr 07:00-17:00; Sa 08:00-15:00",
      "outdoor_seating": "yes",
      "value": 95.52220461039103
    },
    {
      "id": 50448,
      "geometry": "POINT (-75.166717 39.952529)",
      "poi_name": "Starbucks",
      "osm_id": 3485250867,
      "amenity": "cafe",
      "cuisine": "coffee_shop",
      "opening_hours": "Mo-Fr 06:00-18:00; Sa 07:00-17:00; Su 06:30-15:30",
      "website": "https://www.starbucks.com/store-locator/store/17702/16th-market-1500-market-street-suite-465-philadelphia-pa-19102",
      "phone": "+1 215-561-3699",
      "takeaway": "yes",
      "official_name": "Starbucks Coffee",
      "addr_city": "Philadelphia",
      "addr_postcode": "19102",
      "addr_street": "Market Street",
      "addr_housenumber": "1500",
      "value": 95.52220461039103
    },
    {
      "id": 50114,
      "geometry": "POINT (-75.149066 39.941689)",
      "poi_name": "Starbucks",
      "osm_id": 3467795048,
      "amenity": "cafe",
      "cuisine": "coffee_shop",
      "takeaway": "yes",
      "official_name": "Starbucks Coffee",
      "addr_city": "Philadelphia",
      "addr_postcode": "19147",
      "value": 95.52220461039103
    },
    {
      "id": 50639,
      "geometry": "POINT (-75.168323 39.931837)",
      "poi_name": "Benna's West",
      "osm_id": 3496955569,
      "amenity": "cafe",
      "cuisine": "coffee_shop",
      "internet_access": "yes",
      "value": 95.52220461039103
    },
    {
      "id": 50641,
      "geometry": "POINT (-75.169711 39.950747)",
      "poi_name": "La Creperie Cafe",
      "osm_id": 3497025941,
      "amenity": "cafe",
      "addr_city": "Philadelphia",
      "addr_postcode": "19103",
      "addr_street": "Sansom Street",
      "addr_housenumber": "1722",
      "value": 95.52220461039103
    },
    {
      "id": 52084,
      "geometry": "POINT (-75.127233 40.07181)",
      "poi_name": "Elkins Perk",
      "osm_id": 569878160,
      "amenity": "cafe",
      "value": 95.52220461039103
    },
    {
      "id": 53494,
      "geometry": "POINT (-75.123738 39.976778)",
      "poi_name": "Coffee House Too",
      "osm_id": 10082734844,
      "amenity": "cafe",
      "phone": "+12673245888",
      "value": 95.52220461039103
    },
    {
      "id": 53345,
      "geometry": "POINT (-75.164376 39.953206)",
      "poi_name": "Dilworth Park Caf\u00e9",
      "osm_id": 10076153317,
      "amenity": "cafe",
      "opening_hours": "Mo-Fr 07:00-19:00; Sa-Su 10:00-18:00",
      "phone": "+1 215-972-0111",
      "outdoor_seating": "yes",
      "addr_state": "PA",
      "addr_city": "Philadelphia",
      "addr_postcode": "19107",
      "addr_street": "John F. Kennedy Boulevard",
      "addr_housenumber": "1400",
      "value": 95.52220461039103
    },
    {
      "id": 62963,
      "geometry": "POINT (-75.166852 39.95036)",
      "poi_name": "Bagels & Co.",
      "osm_id": 5595449225,
      "amenity": "cafe",
      "cuisine": "coffee_shop",
      "opening_hours": "07:00-15:00",
      "website": "https://www.thebagelsandco.com/location/bagels-and-co-rittenhouse",
      "phone": "+1 215-964-9974",
      "outdoor_seating": "no",
      "addr_state": "PA",
      "addr_city": "Philadelphia",
      "addr_postcode": "19102",
      "addr_street": "Sansom Street",
      "addr_housenumber": "1526",
      "value": 95.52220461039103
    },
    {
      "id": 60874,
      "geometry": "POINT (-75.150768 39.950591)",
      "poi_name": "La Colombe Coffee Roasters",
      "osm_id": 5486477421,
      "amenity": "cafe",
      "cuisine": "coffee_shop",
      "takeaway": "yes",
      "outdoor_seating": "yes",
      "toilets": "yes",
      "value": 95.52220461039103
    },
    {
      "id": 61723,
      "geometry": "POINT (-75.011183 40.050154)",
      "poi_name": "Dining Car",
      "osm_id": 5534091526,
      "amenity": "cafe",
      "value": 95.52220461039103
    },
    {
      "id": 61730,
      "geometry": "POINT (-75.179608 39.946557)",
      "poi_name": "Caf\u00e9 Lutecia",
      "osm_id": 5534136013,
      "amenity": "cafe",
      "opening_hours": "Tu-Su 08:00-14:00",
      "addr_state": "PA",
      "addr_city": "Philadelphia",
      "addr_postcode": "19146",
      "addr_street": "Lombard Street",
      "addr_housenumber": "2301",
      "value": 95.52220461039103
    },
    {
      "id": 58033,
      "geometry": "POINT (-75.038428 39.783995)",
      "poi_name": "Lab Coat Cafe",
      "osm_id": 5360105834,
      "amenity": "cafe",
      "opening_hours": "Mo-Th 08:30-17:30; Fr 08:30-14:00",
      "value": 95.52220461039103
    },
    {
      "id": 58036,
      "geometry": "POINT (-75.037575 39.785728)",
      "poi_name": "Connector Caf\u00e9",
      "osm_id": 5360109705,
      "amenity": "cafe",
      "cuisine": "coffee_shop",
      "opening_hours": "Mo-Th 07:30-17:00; Fr 07:30-14:00",
      "value": 95.52220461039103
    },
    {
      "id": 67135,
      "geometry": "POINT (-75.224155 40.025563)",
      "poi_name": "Volo Coffeehouse",
      "osm_id": 11225105211,
      "amenity": "cafe",
      "cuisine": "coffee_shop",
      "value": 95.52220461039103
    },
    {
      "id": 64887,
      "geometry": "POINT (-75.171837 40.034035)",
      "poi_name": "Uncle Bobbie's Coffee & Books",
      "osm_id": 5676180433,
      "amenity": "cafe",
      "cuisine": "coffee_shop",
      "opening_hours": "Mo-Th 09:00-21:00; Fr 07:00-23:00; Sa 08:00-23:00; Su 08:00-19:00",
      "website": "https://www.unclebobbies.com/",
      "addr_state": "PA",
      "addr_city": "Philadelphia",
      "addr_postcode": "19144",
      "addr_street": "Germantown Avenue",
      "addr_housenumber": "5445",
      "value": 95.52220461039103
    },
    {
      "id": 63161,
      "geometry": "POINT (-75.178962 40.040674)",
      "poi_name": "All The Way Live",
      "osm_id": 5602572081,
      "amenity": "cafe",
      "description": "Simple, health-conscious cafe serving vegan & raw foods such as nut burgers, quinoa salad & juices.",
      "opening_hours": "Th 12:00-19:00; Fr 12:00-21:00; Sa 12:00-21:00; Su 14:00-19:00",
      "website": "http://www.alllivefood.com/",
      "phone": "+1-215-821-7298",
      "addr_state": "PA",
      "addr_city": "Philadelphia",
      "addr_postcode": "19144",
      "addr_street": "Germantown Avenue",
      "addr_housenumber": "6108",
      "value": 95.52220461039103
    },
    {
      "id": 63165,
      "geometry": "POINT (-75.149756 39.938578)",
      "poi_name": "Red Hook Coffee & Tea",
      "osm_id": 5602692781,
      "amenity": "cafe",
      "cuisine": "coffee;tea;sandwich",
      "description": "Coffee and tea with indoor/outdoor seating and some vegan/vegetarian sandwich options.  Specializes in fair-trade, organic coffee.  BYOB",
      "opening_hours": "Mo-Su 07:00-18:00",
      "internet_access": "wlan",
      "outdoor_seating": "yes",
      "addr_state": "PA",
      "addr_city": "Philadelphia",
      "addr_postcode": "19147",
      "addr_street": "South 4th Street",
      "addr_housenumber": "765",
      "value": 95.52220461039103
    },
    {
      "id": 63853,
      "geometry": "POINT (-75.191475 39.957065)",
      "poi_name": "Starbucks",
      "osm_id": 5633016063,
      "amenity": "cafe",
      "cuisine": "coffee_shop",
      "takeaway": "yes",
      "official_name": "Starbucks Coffee",
      "value": 95.52220461039103
    },
    {
      "id": 66572,
      "geometry": "POINT (-74.884093 40.133717)",
      "poi_name": "Kung Fu Tea",
      "osm_id": 11198925246,
      "amenity": "cafe",
      "cuisine": "bubble_tea",
      "takeaway": "yes",
      "addr_state": "PA",
      "addr_city": "Levittown",
      "addr_postcode": "19056",
      "addr_street": "Veterans Highway",
      "addr_housenumber": "4034",
      "value": 95.52220461039103
    },
    {
      "id": 67046,
      "geometry": "POINT (-75.22465 40.026143)",
      "poi_name": "Boostin' Bowls",
      "osm_id": 11220871807,
      "amenity": "cafe",
      "value": 95.52220461039103
    },
    {
      "id": 70317,
      "geometry": "POINT (-75.007102 39.916405)",
      "poi_name": "You Cha Poke Bowl Cafe",
      "osm_id": 11359231669,
      "amenity": "cafe",
      "cuisine": "bubble_tea;chinese;japanese",
      "opening_hours": "Mo-Th 11:00-21:00; Fr-Sa 11:00-21:30; Su 12:00-20:30",
      "website": "https://you-cha-cafe.business.site/",
      "phone": "+1-856-888-2668",
      "addr_state": "NJ",
      "addr_city": "Cherry Hill",
      "addr_postcode": "08034",
      "addr_street": "North Kings Highway",
      "addr_housenumber": "1601",
      "value": 95.52220461039103
    },
    {
      "id": 67275,
      "geometry": "POINT (-75.210793 40.016951)",
      "poi_name": "Rock Shot Cafe",
      "osm_id": 11231061182,
      "amenity": "cafe",
      "value": 95.52220461039103
    },
    {
      "id": 67276,
      "geometry": "POINT (-75.211171 40.017596)",
      "poi_name": "Rox Cafe",
      "osm_id": 11231061184,
      "amenity": "cafe",
      "value": 95.52220461039103
    },
    {
      "id": 67278,
      "geometry": "POINT (-75.21076 40.019268)",
      "poi_name": "Lisa's Kitchen",
      "osm_id": 11231061188,
      "amenity": "cafe",
      "value": 95.52220461039103
    },
    {
      "id": 67515,
      "geometry": "POINT (-75.038845 40.008433)",
      "poi_name": "PURRsonal Space",
      "osm_id": 11237597958,
      "amenity": "cafe",
      "description": "South Jersey's Cat Lounge & Adoptions",
      "website": "https://purrsonalspace.business.site/",
      "addr_state": "NJ",
      "addr_city": "Palmyra",
      "addr_postcode": "08065",
      "addr_street": "Wrensong Court",
      "addr_housenumber": "9201",
      "value": 95.52220461039103
    },
    {
      "id": 68070,
      "geometry": "POINT (-75.197594 39.956818)",
      "poi_name": "Corner Bakery",
      "osm_id": 11258942554,
      "amenity": "cafe",
      "cuisine": "coffee_shop",
      "internet_access": "yes",
      "takeaway": "yes",
      "value": 95.52220461039103
    },
    {
      "id": 68084,
      "geometry": "POINT (-75.195941 40.046236)",
      "poi_name": "High Point Cafe",
      "osm_id": 11260043160,
      "amenity": "cafe",
      "website": "https://highpointphilly.com/",
      "value": 95.52220461039103
    },
    {
      "id": 70372,
      "geometry": "POINT (-75.033187 39.897601)",
      "poi_name": "T-swirl Crepe",
      "osm_id": 11360454769,
      "amenity": "cafe",
      "cuisine": "bubble_tea;crepe",
      "opening_hours": "Tu-We, Sa-Su 11:00-21:00; Th-Fr 11:00-22:00",
      "value": 95.52220461039103
    },
    {
      "id": 70374,
      "geometry": "POINT (-75.155494 39.955242)",
      "poi_name": "Chicha San Chen",
      "osm_id": 11360576169,
      "amenity": "cafe",
      "cuisine": "bubble_tea;tea",
      "website": "https://pa.chichasanchen.com/",
      "phone": "9173301873",
      "addr_postcode": "19107",
      "value": 95.52220461039103
    },
    {
      "id": 67641,
      "geometry": "POINT (-74.946879 39.896425)",
      "poi_name": "Bubblelicious Lab",
      "osm_id": 11244494137,
      "amenity": "cafe",
      "cuisine": "bubble_tea",
      "opening_hours": "Mo-Su 11:30-20:00",
      "internet_access": "wlan",
      "value": 95.52220461039103
    },
    {
      "id": 70268,
      "geometry": "POINT (-74.936119 39.90054)",
      "poi_name": "Cafe on the DL",
      "osm_id": 11356122769,
      "amenity": "cafe",
      "cuisine": "sandwich",
      "opening_hours": "Mo-Fr 08:30-14:30",
      "website": "https://www.toasttab.com/cafeonthedl/v3",
      "phone": "8566569282",
      "addr_postcode": "08053",
      "addr_street": "Route 73 North",
      "addr_housenumber": "525",
      "value": 95.52220461039103
    },
    {
      "id": 71009,
      "geometry": "POINT (-74.846277 39.900846)",
      "poi_name": "Starbucks",
      "osm_id": 11379499157,
      "amenity": "cafe",
      "cuisine": "coffee_shop",
      "takeaway": "yes",
      "official_name": "Starbucks Coffee",
      "value": 95.52220461039103
    },
    {
      "id": 70761,
      "geometry": "POINT (-74.82366 39.89903)",
      "poi_name": "Accelerator Cafe",
      "osm_id": 11373970720,
      "amenity": "cafe",
      "cuisine": "bubble_tea",
      "value": 95.52220461039103
    },
    {
      "id": 70760,
      "geometry": "POINT (-74.82385 39.898956)",
      "poi_name": "In Dietro Cafe",
      "osm_id": 11373970718,
      "amenity": "cafe",
      "cuisine": "coffee_shop",
      "value": 95.52220461039103
    },
    {
      "id": 71027,
      "geometry": "POINT (-75.237753 39.878176)",
      "poi_name": "La Colombe Coffee Roasters",
      "osm_id": 11379798123,
      "amenity": "cafe",
      "cuisine": "coffee_shop",
      "takeaway": "yes",
      "value": 95.52220461039103
    },
    {
      "id": 71433,
      "geometry": "POINT (-75.168803 39.951858)",
      "poi_name": "Konditori",
      "osm_id": 11390609613,
      "amenity": "cafe",
      "cuisine": "coffee_shop",
      "website": "https://konditori.com/",
      "addr_state": "PA",
      "addr_city": "Philadelphia",
      "addr_postcode": "19103",
      "addr_street": "South 17th Street",
      "addr_housenumber": "40",
      "value": 95.52220461039103
    },
    {
      "id": 74983,
      "geometry": "POINT (-75.179537 39.970379)",
      "poi_name": "Brown Street Coffee & Banhery",
      "osm_id": 9705457311,
      "amenity": "cafe",
      "cuisine": "coffee_shop",
      "website": "https://brownstreetcoffee.com/",
      "outdoor_seating": "yes",
      "addr_street": "Brown Street",
      "addr_housenumber": "2545",
      "value": 95.52220461039103
    },
    {
      "id": 73353,
      "geometry": "POINT (-75.064738 40.041722)",
      "poi_name": "Mr.Wish",
      "osm_id": 9627865574,
      "amenity": "cafe",
      "internet_access": "yes",
      "addr_state": "PA",
      "addr_city": "Philadelphia",
      "addr_postcode": "19149",
      "addr_street": "Bustleton Avenue",
      "addr_housenumber": "6846",
      "value": 95.52220461039103
    },
    {
      "id": 74604,
      "geometry": "POINT (-75.164726 39.951922)",
      "poi_name": "Starbucks",
      "osm_id": 9688238962,
      "amenity": "cafe",
      "cuisine": "coffee_shop",
      "opening_hours": "Mo-Fr 07:00-17:00; Sa-Su 09:00-17:00",
      "phone": "+1 218-923-6000",
      "takeaway": "yes",
      "official_name": "Starbucks Coffee",
      "addr_state": "PA",
      "addr_city": "Philadelphia",
      "addr_postcode": "19102",
      "addr_street": "South 15th Street",
      "addr_housenumber": "1",
      "value": 95.52220461039103
    },
    {
      "id": 72083,
      "geometry": "POINT (-75.168924 39.935481)",
      "poi_name": "Greenstreet Coffee Co.",
      "osm_id": 11411442145,
      "amenity": "cafe",
      "cuisine": "coffee_shop",
      "opening_hours": "Mo-Sa 07:30-14:00",
      "website": "http://greenstreetcoffee.com",
      "outdoor_seating": "no",
      "addr_state": "PA",
      "addr_city": "Philadelphia",
      "addr_postcode": "19146",
      "addr_street": "South 15th Street",
      "addr_housenumber": "1205",
      "value": 95.52220461039103
    },
    {
      "id": 78775,
      "geometry": "POINT (-75.188592 40.011536)",
      "poi_name": "Epicure Cafe at East Falls",
      "osm_id": 762823190,
      "amenity": "cafe",
      "internet_access": "wlan",
      "value": 95.52220461039103
    },
    {
      "id": 76239,
      "geometry": "POINT (-75.140923 39.972413)",
      "poi_name": "ReAnimator Coffee",
      "osm_id": 9765846617,
      "amenity": "cafe",
      "addr_street": "West Master Street",
      "addr_housenumber": "310",
      "value": 95.52220461039103
    },
    {
      "id": 76264,
      "geometry": "POINT (-75.143163 39.948378)",
      "poi_name": "Eggcellent Cafe",
      "osm_id": 9767521017,
      "amenity": "cafe",
      "opening_hours": "08:00-15:00",
      "website": "https://www.eggcellentphilly.com",
      "phone": "+1 215-559-9238; +1 267-534-2753",
      "addr_city": "Philadelphia",
      "addr_postcode": "19106",
      "addr_street": "Chestnut Street",
      "addr_housenumber": "113",
      "value": 95.52220461039103
    },
    {
      "id": 76176,
      "geometry": "POINT (-75.178193 39.968956)",
      "poi_name": "Musette",
      "osm_id": 9763445517,
      "amenity": "cafe",
      "addr_street": "Aspen Street",
      "addr_housenumber": "2441",
      "value": 95.52220461039103
    },
    {
      "id": 76375,
      "geometry": "POINT (-75.211669 39.953971)",
      "poi_name": "Green Line Cafe",
      "osm_id": 9773999434,
      "amenity": "cafe",
      "outdoor_seating": "yes",
      "value": 95.52220461039103
    },
    {
      "id": 82694,
      "geometry": "POINT (-75.171791 39.944512)",
      "poi_name": "OCF Coffee House",
      "osm_id": 1707863137,
      "amenity": "cafe",
      "cuisine": "coffee_shop",
      "opening_hours": "07:00-15:00",
      "website": "https://www.ocfrealty.com/ocf-coffee-house",
      "internet_access": "wlan",
      "phone": "+1 215-454-2196",
      "addr_city": "Philadelphia",
      "addr_postcode": "19146",
      "addr_street": "South Street",
      "addr_housenumber": "1745",
      "value": 95.52220461039103
    },
    {
      "id": 78853,
      "geometry": "POINT (-75.192344 40.019332)",
      "poi_name": "Tuttleman Caf\u00e9",
      "osm_id": 764557014,
      "amenity": "cafe",
      "value": 95.52220461039103
    },
    {
      "id": 79215,
      "geometry": "POINT (-75.350118 39.902271)",
      "poi_name": "Hobbs Coffee",
      "osm_id": 785971042,
      "amenity": "cafe",
      "cuisine": "coffee_shop",
      "opening_hours": "Mo-Fr 07:00-14:00; Sa-Su 08:00-15:00",
      "website": "http://www.hobbscoffee.com",
      "phone": "+1 610-541-0122",
      "addr_city": "Swarthmore",
      "addr_postcode": "19081",
      "addr_street": "Park Avenue",
      "addr_housenumber": "1",
      "value": 95.52220461039103
    },
    {
      "id": 79216,
      "geometry": "POINT (-75.355553 39.906662)",
      "poi_name": "Sci Center Coffee Bar",
      "osm_id": 785974859,
      "amenity": "cafe",
      "value": 95.52220461039103
    },
    {
      "id": 79353,
      "geometry": "POINT (-75.28859 40.008203)",
      "poi_name": "Starbucks",
      "osm_id": 798821476,
      "amenity": "cafe",
      "cuisine": "coffee_shop",
      "wheelchair": "yes",
      "takeaway": "yes",
      "official_name": "Starbucks Coffee",
      "value": 95.52220461039103
    },
    {
      "id": 90583,
      "geometry": "POINT (-75.168162 39.96734)",
      "poi_name": "Tela's Market",
      "osm_id": 2003023048,
      "amenity": "cafe",
      "website": "https://www.telasmarket.com/",
      "phone": "215-235-0170",
      "addr_state": "PA",
      "addr_city": "Philadelphia",
      "addr_postcode": "19130",
      "addr_street": "Fairmount Avenue",
      "addr_housenumber": "1833",
      "value": 95.52220461039103
    },
    {
      "id": 83205,
      "geometry": "POINT (-75.141385 39.961514)",
      "poi_name": "Soy Cafe",
      "osm_id": 1734213261,
      "amenity": "cafe",
      "website": "http://mysoycafe.com",
      "internet_access": "yes",
      "phone": "+1 215-922-1003",
      "addr_city": "Philadelphia",
      "addr_postcode": "19123",
      "addr_street": "North 2nd Street",
      "addr_housenumber": "630",
      "value": 95.52220461039103
    },
    {
      "id": 83206,
      "geometry": "POINT (-75.140654 39.967665)",
      "poi_name": "One Shot Coffee & Cafe",
      "osm_id": 1734215026,
      "amenity": "cafe",
      "cuisine": "coffee_shop",
      "website": "https://1shotcoffee.wordpress.com/",
      "internet_access": "yes",
      "phone": "215-627-1620",
      "addr_city": "Philadelphia",
      "addr_postcode": "19123",
      "addr_street": "West George Street",
      "addr_housenumber": "217",
      "value": 95.52220461039103
    },
    {
      "id": 83549,
      "geometry": "POINT (-75.170928 39.926962)",
      "poi_name": "Ultimo Coffee",
      "osm_id": 1749982899,
      "amenity": "cafe",
      "cuisine": "coffee_shop",
      "opening_hours": "Mo-Fr 07:00-21:00; Sa-Su 08:00-21:00",
      "website": "https://www.ultimocoffee.com/",
      "internet_access": "yes",
      "phone": "+1 215 339 5177",
      "addr_city": "Philadelphia",
      "addr_postcode": "19145",
      "addr_street": "South 15th Street",
      "addr_housenumber": "1900",
      "value": 95.52220461039103
    },
    {
      "id": 84365,
      "geometry": "POINT (-75.194702 40.057489)",
      "poi_name": "High Point Cafe",
      "osm_id": 1786163233,
      "amenity": "cafe",
      "cuisine": "coffee_shop",
      "value": 95.52220461039103
    },
    {
      "id": 88113,
      "geometry": "POINT (-75.168928 39.950028)",
      "poi_name": "Capital One Cafe",
      "osm_id": 8765431355,
      "amenity": "cafe",
      "opening_hours": "Mo-Fr 07:00-19:00; Sa 08:00-19:00; Su 09:00-17:00",
      "website": "https://www.capitalone.com/local/philadelphia-rittenhouse",
      "phone": "+1 215-239-2765",
      "addr_street": "South 17th Street",
      "addr_housenumber": "135",
      "value": 95.52220461039103
    },
    {
      "id": 90670,
      "geometry": "POINT (-75.151984 39.917088)",
      "poi_name": "Corner Bakery",
      "osm_id": 2011763035,
      "amenity": "cafe",
      "cuisine": "coffee_shop",
      "shop": "bakery",
      "takeaway": "yes",
      "addr_street": "American Street",
      "addr_housenumber": "224",
      "value": 95.52220461039103
    },
    {
      "id": 92044,
      "geometry": "POINT (-75.2068 39.94675)",
      "poi_name": "Starbucks",
      "osm_id": 2102276601,
      "amenity": "cafe",
      "cuisine": "coffee_shop",
      "opening_hours": "Mo-Th 07:00-21:00; Sa 09:00-21:00; Su 09:00-23:00",
      "website": "https://www.starbucks.com/store-locator/store/19443/university-of-the-sciences-philadel-4140-woodland-ave-philadelphia-pa-191044546-us",
      "phone": "+1-215-895-1122",
      "takeaway": "yes",
      "official_name": "Starbucks Coffee",
      "addr_postcode": "19104",
      "addr_street": "Woodland Avenue",
      "addr_housenumber": "4140",
      "value": 95.52220461039103
    },
    {
      "id": 92011,
      "geometry": "POINT (-75.203351 39.95435)",
      "poi_name": "Metropolitan Bakery Caf\u00e9",
      "osm_id": 2100697089,
      "amenity": "cafe",
      "cuisine": "sandwich;bakery;coffee_shop",
      "opening_hours": "Mo-Fr 07:30-19:00; Sa-Su 08:00-19:00",
      "website": "https://metropolitanbakery.com/pages/locations",
      "phone": "+1-215-222-1492",
      "delivery": "no",
      "addr_city": "Philadelphia",
      "addr_postcode": "19104",
      "addr_street": "Walnut Street",
      "addr_housenumber": "4013",
      "value": 95.52220461039103
    },
    {
      "id": 119834,
      "geometry": "POINT (-74.957136 40.048849)",
      "poi_name": "Pied Out Bakeshop/Cafe",
      "osm_id": 9124876340,
      "amenity": "cafe",
      "cuisine": "coffee_shop",
      "website": "https://www.facebook.com/people/Pied-Out-BakeshopCafe/100054217311498/",
      "phone": "(609) 500-4909",
      "outdoor_seating": "yes",
      "addr_state": "NJ",
      "addr_city": "Delanco Township",
      "addr_postcode": "08075",
      "addr_street": "Burlington Avenue",
      "addr_housenumber": "538",
      "value": 95.52220461039103
    },
    {
      "id": 92637,
      "geometry": "POINT (-75.212773 39.949208)",
      "poi_name": "Milkcrate Cafe & Vinyl",
      "osm_id": 2129708000,
      "amenity": "cafe",
      "cuisine": "coffee_shop",
      "website": "https://www.milkcratecafe.com",
      "shop": "music",
      "internet_access": "wlan",
      "outdoor_seating": "no",
      "addr_state": "PA",
      "addr_city": "Philadelphia",
      "addr_postcode": "19104",
      "addr_street": "Baltimore Avenue",
      "addr_housenumber": "4435",
      "value": 95.52220461039103
    },
    {
      "id": 94463,
      "geometry": "POINT (-75.176928 39.952134)",
      "poi_name": "Smile Cafe",
      "osm_id": 2247020277,
      "amenity": "cafe",
      "cuisine": "thai",
      "opening_hours": "Mo-Th 11:30-14:30,17:00-21:00; Fr 11:30-14:30,17:00-22:00; Sa 17:00-22:00; Su off",
      "website": "https://www.smilecafepa.com",
      "phone": "+1 215-564-2502",
      "addr_city": "Philadelphia",
      "addr_postcode": "19103-4310",
      "addr_street": "South 22nd Street",
      "addr_housenumber": "105",
      "value": 95.52220461039103
    },
    {
      "id": 96606,
      "geometry": "POINT (-75.397313 39.986649)",
      "poi_name": "Fellini Cafe",
      "osm_id": 6439604525,
      "amenity": "cafe",
      "opening_hours": "Mo-Sa 11:00-21:00; Su 13:00-21:00",
      "website": "https://fellinicafenewtownsquare.com",
      "phone": "+1 610-353-6131",
      "addr_state": "PA",
      "addr_city": "Newtown Square",
      "addr_postcode": "19073",
      "addr_street": "West Chester Pike",
      "addr_housenumber": "3541",
      "value": 95.52220461039103
    },
    {
      "id": 99578,
      "geometry": "POINT (-75.155526 39.956214)",
      "poi_name": "Teassert Bar",
      "osm_id": 6556430221,
      "amenity": "cafe",
      "value": 95.52220461039103
    },
    {
      "id": 99579,
      "geometry": "POINT (-75.155871 39.956203)",
      "poi_name": "Miucha",
      "osm_id": 6556430222,
      "amenity": "cafe",
      "value": 95.52220461039103
    },
    {
      "id": 106971,
      "geometry": "POINT (-75.193205 39.953068)",
      "poi_name": "United By Blue",
      "osm_id": 3527098193,
      "amenity": "cafe",
      "opening_hours": "Mo-Fr 07:00-19:00; Sa,Su 08:00-19:00",
      "website": "https://unitedbyblue.com/pages/walnut-street",
      "phone": "215-222-1617",
      "addr_state": "PA",
      "addr_city": "Philadelphia",
      "addr_street": "Walnut Street",
      "addr_housenumber": "3421",
      "value": 95.52220461039103
    },
    {
      "id": 109672,
      "geometry": "POINT (-75.120923 39.947634)",
      "poi_name": "Bridge Cafe",
      "osm_id": 3669245470,
      "amenity": "cafe",
      "cuisine": "sandwich",
      "value": 95.52220461039103
    },
    {
      "id": 92351,
      "geometry": "POINT (-75.2069 39.9483)",
      "poi_name": "Grindcore House",
      "osm_id": 2114085831,
      "amenity": "cafe",
      "opening_hours": "Mo-Fr 06:30-20:00; Sa, Su 08:00-20:00",
      "website": "https://www.grindcorehouse.com/",
      "phone": "+1-215-825-6928",
      "addr_state": "PA",
      "addr_city": "Philadelphia",
      "addr_postcode": "19104",
      "addr_street": "Chester Avenue",
      "addr_housenumber": "4134",
      "value": 95.52220461039103
    },
    {
      "id": 94362,
      "geometry": "POINT (-75.221576 39.94838)",
      "poi_name": "Hibiscus Juice & Smoothies",
      "osm_id": 2235034839,
      "amenity": "cafe",
      "opening_hours": "Mo-Sa 10:00-20:00; Su 10:00-18:00",
      "phone": "+1-215-307-3749",
      "takeaway": "yes",
      "value": 95.52220461039103
    },
    {
      "id": 94373,
      "geometry": "POINT (-75.2123 39.9514)",
      "poi_name": "Knockbox Cafe",
      "osm_id": 2235670586,
      "amenity": "cafe",
      "wheelchair": "yes",
      "opening_hours": "07:00-19:00",
      "phone": "+1 215 298-9012",
      "addr_state": "PA",
      "addr_city": "Philadelphia",
      "addr_postcode": "19104",
      "value": 95.52220461039103
    },
    {
      "id": 94986,
      "geometry": "POINT (-75.397313 39.918055)",
      "poi_name": "Burlap and Bean Roastery",
      "osm_id": 6383110985,
      "amenity": "cafe",
      "opening_hours": "Mo-Sa 07:00-15:00; Su off",
      "website": "https://burlapandbean.com/cafe.htm",
      "phone": "+1 484-444-2533",
      "addr_state": "PA",
      "addr_city": "Media",
      "addr_postcode": "19063",
      "addr_street": "West Baltimore Avenue",
      "addr_housenumber": "455",
      "value": 95.52220461039103
    },
    {
      "id": 96142,
      "geometry": "POINT (-75.145573 39.942841)",
      "poi_name": "Bodhi Coffee",
      "osm_id": 6421220597,
      "amenity": "cafe",
      "cuisine": "coffee_shop",
      "addr_state": "PA",
      "addr_city": "Philadelphia",
      "addr_postcode": "19147",
      "addr_street": "South 2nd Street",
      "addr_housenumber": "410",
      "value": 95.52220461039103
    },
    {
      "id": 96143,
      "geometry": "POINT (-75.147831 39.940986)",
      "poi_name": "Ox Coffee",
      "osm_id": 6421220598,
      "amenity": "cafe",
      "cuisine": "coffee_shop",
      "opening_hours": "Mo-Fr 07:30-13:00; Sa-Su 08:00-14:00",
      "website": "https://www.oxcoffee.com",
      "addr_state": "PA",
      "addr_city": "Philadelphia",
      "addr_postcode": "19147",
      "addr_street": "South 3rd Street",
      "addr_housenumber": "616",
      "value": 95.52220461039103
    },
    {
      "id": 99561,
      "geometry": "POINT (-75.156788 39.953489)",
      "poi_name": "Mr. 8 Cafe",
      "osm_id": 6556392897,
      "amenity": "cafe",
      "value": 95.52220461039103
    },
    {
      "id": 99563,
      "geometry": "POINT (-75.156722 39.95348)",
      "poi_name": "Kung Fu Tea",
      "osm_id": 6556392899,
      "amenity": "cafe",
      "cuisine": "bubble_tea",
      "opening_hours": "Su-Th 10:30-00:00; Fr-Sa 10:30-01:00",
      "website": "https://www.kungfutea.com",
      "phone": "+1-267-758-2871",
      "takeaway": "yes",
      "addr_state": "PA",
      "addr_city": "Philadelphia",
      "addr_postcode": "19107",
      "addr_street": "Arch Street",
      "addr_housenumber": "1006",
      "value": 95.52220461039103
    },
    {
      "id": 99565,
      "geometry": "POINT (-75.15572 39.953643)",
      "poi_name": "Paris Baguette",
      "osm_id": 6556392909,
      "amenity": "cafe",
      "opening_hours": "08:00-20:00",
      "shop": "bakery",
      "addr_street": "Arch Street",
      "addr_housenumber": "923",
      "value": 95.52220461039103
    },
    {
      "id": 100929,
      "geometry": "POINT (-75.189202 39.954208)",
      "poi_name": "Saxby's",
      "osm_id": 6604745154,
      "amenity": "cafe",
      "cuisine": "coffee_shop;pastry",
      "opening_hours": "Mo-Th 07:00-21:00; Fr 07:00-18:00; Sa-Su 08:00-16:00",
      "website": "https://www.saxbyscoffee.com",
      "internet_access": "yes",
      "phone": "+1-215-921-6113",
      "outdoor_seating": "yes",
      "addr_state": "PA",
      "addr_city": "Philadelphia",
      "addr_postcode": "19104",
      "addr_street": "Chestnut Street",
      "addr_housenumber": "3245",
      "value": 95.52220461039103
    },
    {
      "id": 101564,
      "geometry": "POINT (-75.159606 39.937895)",
      "poi_name": "Function Coffee Labs",
      "osm_id": 6634166429,
      "amenity": "cafe",
      "opening_hours": "Mo-Sa 07:30-16:00; Su 07:30-15:00",
      "website": "https://www.functioncoffeelabs.com/#sciencemadecoffee",
      "value": 95.52220461039103
    },
    {
      "id": 106768,
      "geometry": "POINT (-75.246929 39.874969)",
      "poi_name": "La Colombe Coffee Roasters",
      "osm_id": 3514950155,
      "amenity": "cafe",
      "cuisine": "coffee_shop",
      "takeaway": "yes",
      "value": 95.52220461039103
    },
    {
      "id": 107033,
      "geometry": "POINT (-75.166715 39.949402)",
      "poi_name": "Elixr Coffee Roasters",
      "osm_id": 3531082345,
      "amenity": "cafe",
      "opening_hours": "Mo-Sa 07:00-20:00; Su 08:00-19:00",
      "website": "https://elixrcoffee.com/",
      "internet_access": "wlan",
      "addr_city": "Philadelphia",
      "addr_postcode": "19102",
      "addr_street": "South Sydenham Street",
      "addr_housenumber": "207",
      "value": 95.52220461039103
    },
    {
      "id": 107181,
      "geometry": "POINT (-75.167432 39.94965)",
      "poi_name": "Starbucks",
      "osm_id": 3540604458,
      "amenity": "cafe",
      "cuisine": "coffee_shop",
      "opening_hours": "Mo-Fr 05:00-20:00; Sa-Su 06:00-20:00",
      "website": "https://www.starbucks.com/store-locator/store/15881",
      "phone": "+1 215-732-0708",
      "takeaway": "yes",
      "official_name": "Starbucks Coffee",
      "addr_city": "Philadelphia",
      "addr_postcode": "19102",
      "addr_street": "Walnut Street",
      "addr_housenumber": "1528",
      "value": 95.52220461039103
    },
    {
      "id": 109690,
      "geometry": "POINT (-75.116108 39.941176)",
      "poi_name": "Cafe Excellence",
      "osm_id": 3669467398,
      "amenity": "cafe",
      "value": 95.52220461039103
    },
    {
      "id": 112663,
      "geometry": "POINT (-75.167898 39.954865)",
      "poi_name": "Green Line Cafe",
      "osm_id": 3799448712,
      "amenity": "cafe",
      "cuisine": "coffee_shop",
      "website": "https://greenlinecafe.com/",
      "value": 95.52220461039103
    },
    {
      "id": 114176,
      "geometry": "POINT (-75.171446 39.960895)",
      "poi_name": "Starbucks",
      "osm_id": 3871054091,
      "amenity": "cafe",
      "cuisine": "coffee_shop",
      "internet_access": "wlan",
      "phone": "+1-215-557-8060",
      "takeaway": "yes",
      "official_name": "Starbucks Coffee",
      "outdoor_seating": "no",
      "toilets": "yes",
      "addr_state": "PA",
      "addr_city": "Philadelphia",
      "addr_street": "Callowhill Street",
      "addr_housenumber": "1945",
      "value": 95.52220461039103
    },
    {
      "id": 123253,
      "geometry": "POINT (-75.354856 39.9596)",
      "poi_name": "Starbucks",
      "osm_id": 6843912871,
      "amenity": "cafe",
      "cuisine": "coffee_shop",
      "takeaway": "yes",
      "official_name": "Starbucks Coffee",
      "value": 95.52220461039103
    },
    {
      "id": 121734,
      "geometry": "POINT (-75.167577 39.972371)",
      "poi_name": "Kayuh Bicycles",
      "osm_id": 6777801901,
      "amenity": "cafe",
      "website": "https://www.kayuhbicycles.com/",
      "shop": "bicycle",
      "addr_state": "PA",
      "addr_city": "Philadelphia",
      "addr_street": "West Girard Avenue",
      "addr_housenumber": "1900",
      "value": 95.52220461039103
    },
    {
      "id": 122633,
      "geometry": "POINT (-75.216675 39.952463)",
      "poi_name": "ReAnimator Coffee",
      "osm_id": 6813422282,
      "amenity": "cafe",
      "cuisine": "coffee_shop;pastry",
      "opening_hours": "Mo-Fr 07:00-18:00; Sa-Su 08:00-18:00",
      "website": "https://www.reanimatorcoffee.com/",
      "phone": "+1-215-921-5953",
      "addr_state": "PA",
      "addr_city": "Philadelphia",
      "addr_postcode": "19143",
      "addr_street": "Pine Street",
      "addr_housenumber": "4705",
      "value": 95.52220461039103
    },
    {
      "id": 126171,
      "geometry": "POINT (-74.72405 40.132638)",
      "poi_name": "Starbucks",
      "osm_id": 6986278208,
      "amenity": "cafe",
      "cuisine": "coffee_shop",
      "takeaway": "yes",
      "official_name": "Starbucks Coffee",
      "value": 95.52220461039103
    },
    {
      "id": 128193,
      "geometry": "POINT (-75.149667 39.93912)",
      "poi_name": "Fitz on 4th",
      "osm_id": 8132850317,
      "amenity": "cafe",
      "opening_hours": "Mo-Tu off; We-Th 16:00-22:00; Fr-Sa 12:00-23:00; Su 10:00-16:00",
      "addr_street": "South 4th Street",
      "addr_housenumber": "743",
      "value": 95.52220461039103
    },
    {
      "id": 126434,
      "geometry": "POINT (-75.199384 39.95247)",
      "poi_name": "Starbucks",
      "osm_id": 7002579252,
      "amenity": "cafe",
      "cuisine": "coffee_shop",
      "takeaway": "yes",
      "official_name": "Starbucks Coffee",
      "value": 95.52220461039103
    },
    {
      "id": 126436,
      "geometry": "POINT (-75.200393 39.953992)",
      "poi_name": "Starbucks",
      "osm_id": 7002674095,
      "amenity": "cafe",
      "cuisine": "coffee_shop",
      "takeaway": "yes",
      "official_name": "Starbucks Coffee",
      "value": 95.52220461039103
    },
    {
      "id": 127998,
      "geometry": "POINT (-75.398511 39.976776)",
      "poi_name": "Burlap and Bean Coffee",
      "osm_id": 8116856997,
      "amenity": "cafe",
      "opening_hours": "Mo-Su 7:00-15:00",
      "website": "https://www.burlapandbean.com/",
      "internet_access": "wlan",
      "phone": "+14844274547",
      "takeaway": "yes",
      "outdoor_seating": "yes",
      "addr_state": "PA",
      "addr_city": "Newtown Square",
      "addr_postcode": "19073",
      "addr_street": "South Newtown Street Road",
      "addr_housenumber": "204",
      "value": 95.52220461039103
    },
    {
      "id": 128196,
      "geometry": "POINT (-75.158362 39.958274)",
      "poi_name": "Elixr Coffee Roasters",
      "osm_id": 8132970517,
      "amenity": "cafe",
      "opening_hours": "Mo-Fr 07:00-16:00; Sa-Su 08:00-16:00",
      "website": "https://elixrcoffee.com",
      "addr_city": "Philadelphia",
      "addr_postcode": "19107",
      "addr_street": "North 12th Street",
      "addr_housenumber": "315",
      "value": 95.52220461039103
    },
    {
      "id": 128197,
      "geometry": "POINT (-75.154068 39.941281)",
      "poi_name": "Rally Coffee",
      "osm_id": 8132980317,
      "amenity": "cafe",
      "addr_street": "South 7th Street",
      "addr_housenumber": "701",
      "value": 95.52220461039103
    },
    {
      "id": 136027,
      "geometry": "POINT (-75.153629 39.838245)",
      "poi_name": "Whole & Grounded Cafe",
      "osm_id": 11555984890,
      "amenity": "cafe",
      "cuisine": "bagel;sandwich",
      "website": "https://www.wholeandgroundedcafe.com",
      "phone": "+1-856-537-7313",
      "addr_state": "NJ",
      "addr_city": "Woodbury",
      "addr_postcode": "08096",
      "addr_street": "Delaware Street",
      "addr_housenumber": "5",
      "value": 95.52220461039103
    },
    {
      "id": 132666,
      "geometry": "POINT (-74.893663 39.971155)",
      "poi_name": "Saxby's",
      "osm_id": 9962830926,
      "amenity": "cafe",
      "cuisine": "coffee_shop",
      "value": 95.52220461039103
    },
    {
      "id": 133100,
      "geometry": "POINT (-75.160183 39.924991)",
      "poi_name": "Two Persons",
      "osm_id": 9980391145,
      "amenity": "cafe",
      "cuisine": "coffee_shop",
      "opening_hours": "Mo-Su 08:00-16:00",
      "website": "https://twopersonscoffee.square.site/",
      "internet_access": "wlan",
      "outdoor_seating": "no",
      "addr_state": "PA",
      "addr_city": "Philadelphia",
      "addr_postcode": "19148",
      "addr_street": "Dudley Street",
      "addr_housenumber": "821",
      "value": 95.52220461039103
    },
    {
      "id": 132734,
      "geometry": "POINT (-75.146297 39.950418)",
      "poi_name": "3J's cafe",
      "osm_id": 9966240537,
      "amenity": "cafe",
      "value": 95.52220461039103
    },
    {
      "id": 134190,
      "geometry": "POINT (-75.212962 40.020732)",
      "poi_name": "KimiKook's Cafe",
      "osm_id": 11459691252,
      "amenity": "cafe",
      "value": 95.52220461039103
    },
    {
      "id": 135980,
      "geometry": "POINT (-75.174767 40.034246)",
      "poi_name": "Germantown Espresso Bar",
      "osm_id": 11551863729,
      "amenity": "cafe",
      "cuisine": "coffee_shop",
      "outdoor_seating": "yes",
      "value": 95.52220461039103
    },
    {
      "id": 139835,
      "geometry": "POINT (-75.159356 39.94746)",
      "poi_name": "Saxby's Coffee",
      "osm_id": 6217483362,
      "amenity": "cafe",
      "cuisine": "coffee_shop",
      "opening_hours": "Mo-Fr 06:00-20:00, Sa-Su 07:00-20:00",
      "website": "http://www.saxbyscoffee.com/",
      "internet_access": "yes",
      "outdoor_seating": "no",
      "addr_state": "PA",
      "addr_city": "Philadelphia",
      "addr_street": "South 11th Street",
      "addr_housenumber": "234",
      "value": 95.52220461039103
    },
    {
      "id": 136279,
      "geometry": "POINT (-75.087072 39.835534)",
      "poi_name": "Mr. Wish",
      "osm_id": 11575267573,
      "amenity": "cafe",
      "cuisine": "bubble_tea",
      "value": 95.52220461039103
    },
    {
      "id": 136395,
      "geometry": "POINT (-75.28857 40.00891)",
      "poi_name": "Life Cafe",
      "osm_id": 11582727186,
      "amenity": "cafe",
      "value": 95.52220461039103
    },
    {
      "id": 136702,
      "geometry": "POINT (-75.139729 39.973704)",
      "poi_name": "Es Cafe Lounge",
      "osm_id": 11598556671,
      "amenity": "cafe",
      "outdoor_seating": "yes",
      "addr_state": "PA",
      "addr_city": "Philadelphia",
      "addr_street": "American Street",
      "value": 95.52220461039103
    },
    {
      "id": 137986,
      "geometry": "POINT (-75.222921 39.97323)",
      "poi_name": "Sweet Treat Hut",
      "osm_id": 6124979616,
      "amenity": "cafe",
      "cuisine": "smoothie",
      "opening_hours": "Mo-Su 07:00-17:00",
      "website": "https://www.sweettreathut.com/",
      "phone": "+1-215-877-1471",
      "addr_state": "PA",
      "addr_city": "Philadelphia",
      "addr_postcode": "19131",
      "addr_street": "North 50th Street",
      "addr_housenumber": "1240",
      "value": 95.52220461039103
    },
    {
      "id": 144455,
      "geometry": "POINT (-75.157862 39.944556)",
      "poi_name": "Good Karma",
      "osm_id": 7265222641,
      "amenity": "cafe",
      "wheelchair": "no",
      "opening_hours": "Mo-Su 07:00-22:00",
      "website": "http://www.thegoodkarmacafe.com/",
      "capacity": "50",
      "internet_access": "yes",
      "phone": "+1-267-519-8860",
      "outdoor_seating": "yes",
      "addr_state": "PA",
      "addr_city": "Philadelphia",
      "addr_postcode": "19107",
      "addr_street": "Pine Street",
      "addr_housenumber": "928",
      "value": 95.52220461039103
    },
    {
      "id": 140413,
      "geometry": "POINT (-75.173045 39.953356)",
      "poi_name": "Starbucks",
      "osm_id": 6245808185,
      "amenity": "cafe",
      "cuisine": "coffee_shop",
      "opening_hours": "06:00-18:00",
      "phone": "+1 215-564-2840",
      "takeaway": "yes",
      "official_name": "Starbucks Coffee",
      "addr_city": "Philadelphia",
      "addr_postcode": "19103",
      "addr_street": "Market Street",
      "addr_housenumber": "1900",
      "value": 95.52220461039103
    },
    {
      "id": 143911,
      "geometry": "POINT (-75.181215 40.033285)",
      "poi_name": "Ultimo Coffee",
      "osm_id": 6355846213,
      "amenity": "cafe",
      "cuisine": "coffee_shop",
      "value": 95.52220461039103
    },
    {
      "id": 139967,
      "geometry": "POINT (-75.159454 39.95313)",
      "poi_name": "Old City Coffee",
      "osm_id": 6223847431,
      "amenity": "cafe",
      "cuisine": "coffee_shop;coffee;bagel;milkshake",
      "opening_hours": "08:00-18:00",
      "addr_state": "PA",
      "addr_city": "Philadelphia",
      "addr_postcode": "19107",
      "addr_street": "Filbert Street",
      "addr_housenumber": "1200",
      "value": 95.52220461039103
    },
    {
      "id": 139968,
      "geometry": "POINT (-75.158665 39.953709)",
      "poi_name": "Metropolitan Bakery",
      "osm_id": 6223847438,
      "amenity": "cafe",
      "cuisine": "coffee_shop;salad;local;bakery;dessert",
      "opening_hours": "08:00-18:00",
      "addr_state": "PA",
      "addr_city": "Philadelphia",
      "addr_postcode": "19107",
      "addr_street": "North 12th Street",
      "addr_housenumber": "51",
      "value": 95.52220461039103
    },
    {
      "id": 139969,
      "geometry": "POINT (-75.156226 39.9546)",
      "poi_name": "Tea Do",
      "osm_id": 6223847439,
      "amenity": "cafe",
      "cuisine": "tea;bubble_tea",
      "opening_hours": "10:30-00:00",
      "addr_state": "PA",
      "addr_city": "Philadelphia",
      "addr_postcode": "19107",
      "addr_street": "North 10th Street",
      "addr_housenumber": "132",
      "value": 95.52220461039103
    },
    {
      "id": 139970,
      "geometry": "POINT (-75.157371 39.955387)",
      "poi_name": "A La Mousse",
      "osm_id": 6223847440,
      "amenity": "cafe",
      "cuisine": "coffee_shop;tea;bubble_tea;dessert",
      "opening_hours": "12:00-23:00",
      "website": "https://alamousse.com",
      "phone": "+1 215-238-9100",
      "addr_state": "PA",
      "addr_city": "Philadelphia",
      "addr_postcode": "19107",
      "addr_street": "North 11th Street",
      "addr_housenumber": "145",
      "value": 95.52220461039103
    },
    {
      "id": 139972,
      "geometry": "POINT (-75.144569 39.948561)",
      "poi_name": "Customs Coffee House (Double Shots)",
      "osm_id": 6223870591,
      "amenity": "cafe",
      "cuisine": "coffee_shop;sandwich",
      "opening_hours": "Mo-Sa 07:00-18:00; Su 09:00-18:00",
      "shop": "bakery",
      "addr_state": "PA",
      "addr_city": "Philadelphia",
      "addr_postcode": "19106",
      "addr_street": "Chestnut Street",
      "addr_housenumber": "211",
      "value": 95.52220461039103
    },
    {
      "id": 139973,
      "geometry": "POINT (-75.144683 39.949354)",
      "poi_name": "Ben & Betsy's Coffee & Gifts",
      "osm_id": 6223870592,
      "amenity": "cafe",
      "cuisine": "coffee_shop",
      "opening_hours": "8:30-19:30",
      "addr_state": "PA",
      "addr_city": "Philadelphia",
      "addr_postcode": "19106",
      "addr_street": "Market Street",
      "addr_housenumber": "220",
      "value": 95.52220461039103
    },
    {
      "id": 139974,
      "geometry": "POINT (-75.143997 39.948278)",
      "poi_name": "Little Susie's Coffee & Pie",
      "osm_id": 6223870593,
      "amenity": "cafe",
      "cuisine": "ice_cream;coffee_shop",
      "opening_hours": "07:00-14:00",
      "website": "https://www.littlesusies.com",
      "phone": "+1 215-560-8111",
      "addr_state": "PA",
      "addr_city": "Philadelphia",
      "addr_postcode": "19106",
      "addr_street": "South 2nd Street",
      "addr_housenumber": "105",
      "value": 95.52220461039103
    },
    {
      "id": 139975,
      "geometry": "POINT (-75.145785 39.950348)",
      "poi_name": "OCF Coffee House",
      "osm_id": 6223870594,
      "amenity": "cafe",
      "cuisine": "coffee_shop",
      "opening_hours": "07:00-19:00",
      "addr_state": "PA",
      "addr_city": "Philadelphia",
      "addr_postcode": "19106",
      "addr_street": "Market Street",
      "addr_housenumber": "301",
      "value": 95.52220461039103
    },
    {
      "id": 139976,
      "geometry": "POINT (-75.147055 39.947105)",
      "poi_name": "FRIEDA",
      "osm_id": 6223870595,
      "amenity": "cafe",
      "cuisine": "coffee_shop;bakery",
      "opening_hours": "Mo-Fr 08:00-15:00; Sa,Su 09:00-15:00",
      "website": "https://friedaforgenerations.com/",
      "phone": "+1 215-600-1291",
      "addr_state": "PA",
      "addr_city": "Philadelphia",
      "addr_postcode": "19106",
      "addr_street": "Walnut Street",
      "addr_housenumber": "320",
      "value": 95.52220461039103
    },
    {
      "id": 139977,
      "geometry": "POINT (-75.152027 39.942922)",
      "poi_name": "Lombard Cafe",
      "osm_id": 6223880859,
      "amenity": "cafe",
      "addr_state": "PA",
      "addr_city": "Philadelphia",
      "addr_postcode": "19147",
      "addr_street": "Lombard Street",
      "addr_housenumber": "542",
      "value": 95.52220461039103
    },
    {
      "id": 141185,
      "geometry": "POINT (-75.041655 39.983019)",
      "poi_name": "wow",
      "osm_id": 6275721636,
      "amenity": "cafe",
      "value": 95.52220461039103
    },
    {
      "id": 156621,
      "geometry": "POINT (-75.158801 39.933984)",
      "poi_name": "Cafe Crema",
      "osm_id": 4668627525,
      "amenity": "cafe",
      "cuisine": "coffee_shop",
      "value": 95.52220461039103
    },
    {
      "id": 144917,
      "geometry": "POINT (-75.150208 39.979768)",
      "poi_name": "Richie's Cafe",
      "osm_id": 7295051934,
      "amenity": "cafe",
      "cuisine": "coffee_shop;panini;waffle;soup",
      "outdoor_seating": "yes",
      "addr_state": "PA",
      "addr_city": "Philadelphia",
      "addr_postcode": "19122",
      "addr_street": "North 10th Street",
      "addr_housenumber": "1801",
      "value": 95.52220461039103
    },
    {
      "id": 147453,
      "geometry": "POINT (-75.14965 39.953037)",
      "poi_name": "Starbucks",
      "osm_id": 7533950456,
      "amenity": "cafe",
      "cuisine": "coffee_shop",
      "takeaway": "yes",
      "official_name": "Starbucks Coffee",
      "value": 95.52220461039103
    },
    {
      "id": 157276,
      "geometry": "POINT (-75.156058 39.981778)",
      "poi_name": "Saxbys",
      "osm_id": 4698182188,
      "amenity": "cafe",
      "cuisine": "coffee_shop",
      "opening_hours": "Mo-Fr 07:00-18:00; Sa,Su 08:00-16:00",
      "value": 95.52220461039103
    },
    {
      "id": 166033,
      "geometry": "POINT (-75.286686 39.959252)",
      "poi_name": "Starbucks",
      "osm_id": 9571672260,
      "amenity": "cafe",
      "cuisine": "coffee_shop",
      "opening_hours": "Mo 06:00-18:00; Tu-Fr 05:00-21:00; Sa 05:30-21:00; Su 05:30-20:00",
      "phone": "+1 610-446-2156",
      "takeaway": "yes",
      "official_name": "Starbucks Coffee",
      "addr_state": "PA",
      "addr_city": "Upper Darby",
      "addr_postcode": "19082",
      "addr_street": "South State Road",
      "addr_housenumber": "1891",
      "value": 95.52220461039103
    },
    {
      "id": 159681,
      "geometry": "POINT (-75.158519 39.978956)",
      "poi_name": "Starbucks",
      "osm_id": 4802521962,
      "amenity": "cafe",
      "cuisine": "coffee_shop",
      "takeaway": "yes",
      "official_name": "Starbucks Coffee",
      "value": 95.52220461039103
    },
    {
      "id": 159682,
      "geometry": "POINT (-75.156082 39.981657)",
      "poi_name": "Saxbys",
      "osm_id": 4802521964,
      "amenity": "cafe",
      "opening_hours": "Mo-Fr 07:00-18:00; Sa,Su 08:00-16:00",
      "value": 95.52220461039103
    },
    {
      "id": 163962,
      "geometry": "POINT (-75.141317 39.962208)",
      "poi_name": "Dolce & Caffe",
      "osm_id": 9443767808,
      "amenity": "cafe",
      "cuisine": "coffee_shop;italian",
      "website": "https://www.dolceandcaffe.com/",
      "addr_state": "PA",
      "addr_city": "Philadelphia",
      "addr_postcode": "19123",
      "addr_street": "North 2nd Street",
      "addr_housenumber": "708",
      "value": 95.52220461039103
    },
    {
      "id": 165788,
      "geometry": "POINT (-75.026201 39.943559)",
      "poi_name": "Gong Cha",
      "osm_id": 9556810527,
      "amenity": "cafe",
      "cuisine": "bubble_tea",
      "takeaway": "yes",
      "value": 95.52220461039103
    },
    {
      "id": 165793,
      "geometry": "POINT (-75.026482 39.940718)",
      "poi_name": "Real Fruit",
      "osm_id": 9556829377,
      "amenity": "cafe",
      "cuisine": "bubble_tea",
      "value": 95.52220461039103
    },
    {
      "id": 165798,
      "geometry": "POINT (-74.804921 39.982479)",
      "poi_name": "Starbucks",
      "osm_id": 9556866515,
      "amenity": "cafe",
      "cuisine": "coffee_shop",
      "takeaway": "yes",
      "official_name": "Starbucks Coffee",
      "value": 95.52220461039103
    },
    {
      "id": 159718,
      "geometry": "POINT (-75.153573 39.982811)",
      "poi_name": "Cloud Coffee",
      "osm_id": 4803982992,
      "amenity": "cafe",
      "cuisine": "coffee_shop",
      "internet_access": "no",
      "value": 95.52220461039103
    },
    {
      "id": 167091,
      "geometry": "POINT (-75.157357 39.941924)",
      "poi_name": "Chapter House",
      "osm_id": 333786095,
      "amenity": "cafe",
      "value": 95.52220461039103
    },
    {
      "id": 166531,
      "geometry": "POINT (-75.192288 39.953014)",
      "poi_name": "Starbucks",
      "osm_id": 274217596,
      "amenity": "cafe",
      "cuisine": "coffee_shop",
      "opening_hours": "Mo-Fr 05:30-24:00; Sa,Su 06:00-24:00",
      "phone": "215-387-1914",
      "takeaway": "yes",
      "official_name": "Starbucks Coffee",
      "addr_state": "PA",
      "addr_city": "Philadelphia",
      "addr_postcode": "19104",
      "addr_street": "Walnut Street",
      "addr_housenumber": "3401",
      "value": 95.52220461039103
    },
    {
      "id": 166445,
      "geometry": "POINT (-75.160454 39.94877)",
      "poi_name": "Starbucks",
      "osm_id": 9593113322,
      "amenity": "cafe",
      "cuisine": "coffee_shop",
      "opening_hours": "Mo-Fr 05:30-20:00; Sa-Su 06:00-19:00",
      "phone": "+1 215-923-3399",
      "takeaway": "yes",
      "official_name": "Starbucks Coffee",
      "outdoor_seating": "no",
      "addr_state": "PA",
      "addr_city": "Philadelphia",
      "addr_postcode": "19107",
      "addr_street": "Walnut Street",
      "addr_housenumber": "1128",
      "value": 95.52220461039103
    },
    {
      "id": 167152,
      "geometry": "POINT (-75.210454 39.95675)",
      "poi_name": "Kaffa Crossing",
      "osm_id": 343223621,
      "amenity": "cafe",
      "internet_access": "terminal",
      "addr_postcode": "19104",
      "addr_street": "Chestnut St",
      "value": 95.52220461039103
    },
    {
      "id": 167154,
      "geometry": "POINT (-75.15977 39.96044)",
      "poi_name": "Cafe Lift",
      "osm_id": 343293716,
      "amenity": "cafe",
      "opening_hours": "Mo-Su 08:00-15:00",
      "internet_access": "wlan",
      "addr_state": "PA",
      "addr_city": "Philadelphia",
      "addr_postcode": "19123",
      "addr_street": "North 13th Street",
      "addr_housenumber": "428",
      "value": 95.52220461039103
    },
    {
      "id": 168495,
      "geometry": "POINT (-75.165262 39.949567)",
      "poi_name": "Le Pain Quotidien",
      "osm_id": 2262657990,
      "amenity": "cafe",
      "cuisine": "coffee_shop",
      "opening_hours": "Mo-Fr 07:00-17:00; Sa-Su 08:00-17:00",
      "website": "https://www.lepainquotidien.com/us/en/locations/501:%20rittenhouse_row/1425-walnut-st/",
      "phone": "+1 215-751-0570",
      "takeaway": "yes",
      "addr_city": "Philadelphia",
      "addr_postcode": "19102",
      "addr_street": "Walnut Street",
      "addr_housenumber": "1425",
      "value": 95.52220461039103
    },
    {
      "id": 167807,
      "geometry": "POINT (-75.202283 39.956164)",
      "poi_name": "Green Line Cafe",
      "osm_id": 360476273,
      "amenity": "cafe",
      "cuisine": "coffee_shop",
      "internet_access": "wlan",
      "addr_postcode": "19104",
      "addr_street": "S 41st St",
      "addr_housenumber": "31",
      "value": 95.52220461039103
    },
    {
      "id": 171932,
      "geometry": "POINT (-75.146911 39.936059)",
      "poi_name": "Philadelphia Java Co.",
      "osm_id": 2390519812,
      "amenity": "cafe",
      "value": 95.52220461039103
    },
    {
      "id": 169086,
      "geometry": "POINT (-75.221431 39.94837)",
      "poi_name": "Little Baby's Ice Cream",
      "osm_id": 2294834034,
      "amenity": "cafe",
      "cuisine": "ice_cream",
      "addr_state": "PA",
      "addr_city": "Philadelphia",
      "addr_postcode": "19143",
      "addr_street": "Catharine Street",
      "addr_housenumber": "4903",
      "value": 95.52220461039103
    },
    {
      "id": 171413,
      "geometry": "POINT (-75.213996 40.032051)",
      "poi_name": "Starbucks",
      "osm_id": 2374720893,
      "amenity": "cafe",
      "cuisine": "coffee_shop",
      "opening_hours": "Mo-Th 05:30-20:30; Fr-Su 05:30-20:00",
      "website": "https://www.starbucks.com",
      "internet_access": "wlan",
      "phone": "+1-215-487-0830",
      "takeaway": "yes",
      "official_name": "Starbucks Coffee",
      "addr_state": "PA",
      "addr_city": "Philadelphia",
      "addr_postcode": "19128",
      "addr_street": "Ridge Avenue",
      "addr_housenumber": "6024",
      "value": 95.52220461039103
    },
    {
      "id": 171530,
      "geometry": "POINT (-75.154344 39.948218)",
      "poi_name": "Le Pain Quotidien",
      "osm_id": 2377568637,
      "amenity": "cafe",
      "cuisine": "coffee_shop",
      "wheelchair": "yes",
      "opening_hours": "Mo-Fr 07:30-16:00; Sa-Su 08:00-16:00",
      "takeaway": "yes",
      "outdoor_seating": "no",
      "addr_street": "Walnut Street",
      "addr_housenumber": "801",
      "value": 95.52220461039103
    },
    {
      "id": 177278,
      "geometry": "POINT (-75.171278 39.947882)",
      "poi_name": "Starbucks",
      "osm_id": 2581154178,
      "amenity": "cafe",
      "cuisine": "coffee_shop",
      "internet_access": "yes",
      "phone": "2157320125",
      "takeaway": "yes",
      "official_name": "Starbucks Coffee",
      "addr_city": "Philadelphia",
      "addr_postcode": "19103",
      "addr_street": "Spruce Street",
      "addr_housenumber": "1801",
      "value": 95.52220461039103
    },
    {
      "id": 173953,
      "geometry": "POINT (-75.159578 39.946411)",
      "poi_name": "Green Street Coffee Bar",
      "osm_id": 2460899138,
      "amenity": "cafe",
      "cuisine": "coffee_shop",
      "opening_hours": "Mo-Fr 06:00-18:00; Sa,Su 07:00-18:00",
      "addr_street": "Spruce Street",
      "addr_housenumber": "1101",
      "value": 95.52220461039103
    },
    {
      "id": 177140,
      "geometry": "POINT (-75.172339 39.967157)",
      "poi_name": "OCF Coffee House",
      "osm_id": 2575197073,
      "amenity": "cafe",
      "website": "https://www.ocfrealty.com/coffee-house",
      "internet_access": "yes",
      "phone": "+1-267-773-8081",
      "outdoor_seating": "yes",
      "addr_state": "PA",
      "addr_city": "Philadelphia",
      "addr_postcode": "19130",
      "addr_street": "Fairmount Avenue",
      "addr_housenumber": "2100",
      "value": 95.52220461039103
    },
    {
      "id": 178359,
      "geometry": "POINT (-75.168774 39.955332)",
      "poi_name": "Bluestone Lane",
      "osm_id": 10722831986,
      "amenity": "cafe",
      "cuisine": "coffee_shop",
      "opening_hours": "Mo-Fr 07:00-16:00; Sa-Su off",
      "website": "https://bluestonelane.com/coffee-shops/arch-street",
      "internet_access": "wlan",
      "phone": "+1 718-374-6858",
      "addr_state": "PA",
      "addr_city": "Philadelphia",
      "addr_postcode": "19103",
      "addr_street": "Arch Street",
      "addr_housenumber": "1717",
      "value": 95.52220461039103
    },
    {
      "id": 178522,
      "geometry": "POINT (-75.212097 40.006426)",
      "poi_name": "Starbucks",
      "osm_id": 10728686422,
      "amenity": "cafe",
      "cuisine": "coffee_shop",
      "takeaway": "yes",
      "official_name": "Starbucks Coffee",
      "outdoor_seating": "no",
      "value": 95.52220461039103
    },
    {
      "id": 187152,
      "geometry": "POINT (-75.1546 39.940515)",
      "poi_name": "Firzwater Cafe",
      "osm_id": 7977075188,
      "amenity": "cafe",
      "value": 95.52220461039103
    },
    {
      "id": 178715,
      "geometry": "POINT (-75.17248 39.962218)",
      "poi_name": "Kung Fu Tea",
      "osm_id": 10736232842,
      "amenity": "cafe",
      "cuisine": "bubble_tea",
      "opening_hours": "11:00-21:30; Fr,Sa 11:00-22:00",
      "internet_access": "wlan",
      "phone": "+1-814-407-3250",
      "takeaway": "yes",
      "outdoor_seating": "no",
      "addr_state": "PA",
      "addr_city": "Philadelphia",
      "addr_postcode": "19130",
      "addr_street": "Hamilton Street",
      "addr_housenumber": "2000",
      "value": 95.52220461039103
    },
    {
      "id": 179396,
      "geometry": "POINT (-75.166238 39.962427)",
      "poi_name": "Saxbys",
      "osm_id": 10760531991,
      "amenity": "cafe",
      "cuisine": "coffee_shop",
      "internet_access": "no",
      "takeaway": "yes",
      "wikidata": "Q48977044",
      "addr_state": "PA",
      "addr_city": "Philadelphia",
      "addr_postcode": "19130",
      "addr_street": "Spring Garden Street",
      "addr_housenumber": "1700",
      "value": 95.52220461039103
    },
    {
      "id": 182246,
      "geometry": "POINT (-75.27327 40.00154)",
      "poi_name": "Sabrina's Cafe",
      "osm_id": 10884033879,
      "amenity": "cafe",
      "opening_hours": "08:00-15:00",
      "website": "https://www.sabrinascafe.com/location/sabrinas-cafe-wynnewood/",
      "phone": "+1 484-412-8790",
      "addr_state": "PA",
      "addr_city": "Wynnewood",
      "addr_street": "East Wynnewood Road",
      "addr_housenumber": "50",
      "value": 95.52220461039103
    },
    {
      "id": 182587,
      "geometry": "POINT (-75.172134 39.951492)",
      "poi_name": "K\u2019Far",
      "osm_id": 10896228920,
      "amenity": "cafe",
      "wheelchair": "limited",
      "opening_hours": "08:00-17:00",
      "website": "https://kfarcafe.com",
      "phone": "+1 267-800-7200",
      "addr_state": "PA",
      "addr_city": "Philadelphia",
      "addr_postcode": "19103",
      "addr_street": "South 19th Street",
      "addr_housenumber": "110",
      "value": 95.52220461039103
    },
    {
      "id": 185256,
      "geometry": "POINT (-75.372245 39.983031)",
      "poi_name": "Apple Walnut Caf\u00e9",
      "osm_id": 7841028081,
      "amenity": "cafe",
      "opening_hours": "08:00-14:30",
      "website": "https://applewalnut.com",
      "phone": "+1 610-353-1384",
      "addr_state": "PA",
      "addr_city": "Broomall",
      "addr_postcode": "19008",
      "addr_street": "West Chester Pike",
      "addr_housenumber": "2924",
      "value": 95.52220461039103
    },
    {
      "id": 190518,
      "geometry": "POINT (-75.033502 39.897426)",
      "poi_name": "The Picket Fence and Garden Tea Room (Lunch Daily)",
      "osm_id": 1299116255,
      "amenity": "cafe",
      "value": 95.52220461039103
    },
    {
      "id": 189565,
      "geometry": "POINT (-75.031645 39.897967)",
      "poi_name": "Starbucks",
      "osm_id": 1237571316,
      "amenity": "cafe",
      "cuisine": "coffee_shop",
      "takeaway": "yes",
      "official_name": "Starbucks Coffee",
      "value": 95.52220461039103
    },
    {
      "id": 188624,
      "geometry": "POINT (-75.18154 39.955951)",
      "poi_name": "Bakery Cafe",
      "osm_id": 1167165575,
      "amenity": "cafe",
      "value": 95.52220461039103
    },
    {
      "id": 191944,
      "geometry": "POINT (-75.222615 39.947852)",
      "poi_name": "The Satellite Cafe",
      "osm_id": 1407271286,
      "amenity": "cafe",
      "cuisine": "coffee_shop",
      "internet_access": "wlan",
      "phone": "+1 215-729-1211",
      "addr_state": "PA",
      "addr_city": "Philadelphia",
      "addr_postcode": "19143",
      "addr_street": "S 50th St",
      "addr_housenumber": "701",
      "value": 95.52220461039103
    },
    {
      "id": 190806,
      "geometry": "POINT (-75.155805 39.940895)",
      "poi_name": "The Bean Exchange",
      "osm_id": 1316800582,
      "amenity": "cafe",
      "cuisine": "coffee_shop",
      "value": 95.52220461039103
    },
    {
      "id": 190807,
      "geometry": "POINT (-75.15714 39.942547)",
      "poi_name": "Starbucks",
      "osm_id": 1316800583,
      "amenity": "cafe",
      "cuisine": "coffee_shop",
      "takeaway": "yes",
      "official_name": "Starbucks Coffee",
      "value": 95.52220461039103
    },
    {
      "id": 193238,
      "geometry": "POINT (-75.163094 39.945219)",
      "poi_name": "Last Drop Cafe",
      "osm_id": 1513098751,
      "amenity": "cafe",
      "opening_hours": "Mo-Fr 07:00-17:00; Sa 08:00-16:00; Su 08:00-13:00",
      "website": "http://www.facebook.com/pages/last-drop/106437959398826",
      "internet_access": "wlan",
      "addr_postcode": "19107",
      "addr_street": "Pine Street",
      "addr_housenumber": "1300",
      "value": 95.52220461039103
    },
    {
      "id": 192596,
      "geometry": "POINT (-75.153206 39.937625)",
      "poi_name": "Shot Tower",
      "osm_id": 1459443425,
      "amenity": "cafe",
      "cuisine": "coffee_shop",
      "internet_access": "wlan",
      "value": 95.52220461039103
    },
    {
      "id": 192777,
      "geometry": "POINT (-75.15787 39.938423)",
      "poi_name": "Gleaner's Cafe Gallery",
      "osm_id": 1479235293,
      "amenity": "cafe",
      "cuisine": "coffee_shop",
      "website": "https://myspace.com/thegleanerscafe",
      "value": 95.52220461039103
    },
    {
      "id": 192778,
      "geometry": "POINT (-75.157766 39.938851)",
      "poi_name": "Anthony's Italian Coffee & Chocolate House",
      "osm_id": 1479235296,
      "amenity": "cafe",
      "cuisine": "coffee_shop",
      "description": "Italian coffeehouse in historic Italian Market neighborhood",
      "wheelchair": "no",
      "opening_hours": "Mo-Fr 07:00-19:00; Sa 07:00-20:00; Su 07:30-17:00",
      "website": "https://www.italiancoffeehouse.com",
      "phone": "+1-215-627-2586",
      "takeaway": "yes",
      "drive_through": "no",
      "outdoor_seating": "yes",
      "addr_state": "PA",
      "addr_city": "Philadelphia",
      "addr_postcode": "19147",
      "addr_street": "South 9th Street",
      "addr_housenumber": "903",
      "value": 95.52220461039103
    },
    {
      "id": 193243,
      "geometry": "POINT (-75.16483 39.945633)",
      "poi_name": "Starbucks",
      "osm_id": 1513601815,
      "amenity": "cafe",
      "cuisine": "coffee_shop",
      "internet_access": "wlan",
      "takeaway": "yes",
      "official_name": "Starbucks Coffee",
      "addr_city": "Philadelphia",
      "addr_postcode": "19107",
      "addr_street": "South Broad Street",
      "addr_housenumber": "337-341",
      "value": 95.52220461039103
    },
    {
      "id": 200327,
      "geometry": "POINT (-75.173896 39.950684)",
      "poi_name": "Almaz Cafe",
      "osm_id": 1033918289,
      "amenity": "cafe",
      "opening_hours": "Mo-Tu,Su off; We-Sa 11:00-21:00",
      "website": "https://almazcafes.com",
      "phone": "+1 215-557-0108",
      "addr_city": "Philadelphia",
      "addr_postcode": "19103",
      "addr_street": "South 20th Street",
      "addr_housenumber": "140",
      "value": 95.52220461039103
    },
    {
      "id": 193721,
      "geometry": "POINT (-75.576348 39.968624)",
      "poi_name": "Starbucks",
      "osm_id": 1558298216,
      "amenity": "cafe",
      "cuisine": "coffee_shop",
      "opening_hours": "Mo-Sa 05:30-21:00; Su 05:30-20:30",
      "website": "https://www.starbucks.com/store-locator/store/15657/west-chester-pike-5-points-r-1081-b-west-chester-pike-west-chester-pa-193825049",
      "phone": "+1 610-429-9814",
      "takeaway": "yes",
      "official_name": "Starbucks Coffee",
      "addr_city": "West Chester",
      "addr_postcode": "19382",
      "addr_street": "West Chester Pike",
      "addr_housenumber": "1081",
      "value": 95.52220461039103
    },
    {
      "id": 200063,
      "geometry": "POINT (-75.154154 39.947994)",
      "poi_name": "Starbucks",
      "osm_id": 1011911807,
      "amenity": "cafe",
      "cuisine": "coffee_shop",
      "wheelchair": "yes",
      "opening_hours": "Mo-Fr 05:00-19:30; Sa-Su 05:30-19:30",
      "internet_access": "yes",
      "takeaway": "yes",
      "official_name": "Starbucks Coffee",
      "outdoor_seating": "no",
      "addr_street": "West Washington Square",
      "addr_housenumber": "200",
      "value": 95.52220461039103
    },
    {
      "id": 196373,
      "geometry": "POINT (-75.144378 39.951955)",
      "poi_name": "ICI Macarons & Cafe",
      "osm_id": 10575315228,
      "amenity": "cafe",
      "cuisine": "macaron;pastry;coffee",
      "opening_hours": "Fr,Sa,Su 9:00-17:00",
      "website": "http://www.icimacarons.com/",
      "phone": "+1-215-608-8938",
      "addr_state": "PA",
      "addr_city": "Philadelphia",
      "addr_postcode": "19106",
      "addr_street": "Arch Street",
      "addr_housenumber": "230",
      "value": 95.52220461039103
    },
    {
      "id": 206154,
      "geometry": "POINT (-75.321346 40.023107)",
      "poi_name": "La Colombe Coffee Roasters",
      "osm_id": 7198791202,
      "amenity": "cafe",
      "cuisine": "coffee_shop",
      "opening_hours": "Mo-Fr 06:30-18:00; Sa-Su 07:00-18:00",
      "website": "https://www.lacolombe.com",
      "phone": "+1 215-398-3091",
      "takeaway": "yes",
      "addr_street": "West Lancaster Avenue",
      "addr_housenumber": "915",
      "value": 95.52220461039103
    },
    {
      "id": 200633,
      "geometry": "POINT (-75.19015 40.05933)",
      "poi_name": "InFusion Coffee House",
      "osm_id": 596262780,
      "amenity": "cafe",
      "addr_street": "Germantown Avenue",
      "addr_housenumber": "7133",
      "value": 95.52220461039103
    },
    {
      "id": 204808,
      "geometry": "POINT (-75.191348 40.007387)",
      "poi_name": "Trolley Car Cafe",
      "osm_id": 7143253356,
      "amenity": "cafe",
      "value": 95.52220461039103
    },
    {
      "id": 205765,
      "geometry": "POINT (-75.308986 39.949778)",
      "poi_name": "Ming\u2019s Coffee & Tea",
      "osm_id": 7179300324,
      "amenity": "cafe",
      "value": 95.52220461039103
    },
    {
      "id": 201673,
      "geometry": "POINT (-75.179073 39.945254)",
      "poi_name": "Ants Pants Cafe",
      "osm_id": 649984275,
      "amenity": "cafe",
      "opening_hours": "Mo-Fr 7:00-16:00; Sa-Su 8:00-16:00",
      "addr_city": "Philadelphia",
      "addr_postcode": "19146",
      "addr_street": "South Street",
      "addr_housenumber": "2212",
      "value": 95.52220461039103
    },
    {
      "id": 201743,
      "geometry": "POINT (-75.203052 39.952879)",
      "poi_name": "Saxbys",
      "osm_id": 655417201,
      "amenity": "cafe",
      "website": "https://www.saxbyscoffee.com",
      "internet_access": "wlan",
      "phone": "+1-215-222-8400",
      "outdoor_seating": "yes",
      "addr_state": "PA",
      "addr_city": "Philadelphia",
      "addr_postcode": "19104",
      "addr_street": "Locust Street",
      "addr_housenumber": "4000",
      "value": 95.52220461039103
    },
    {
      "id": 201744,
      "geometry": "POINT (-75.192328 39.954544)",
      "poi_name": "Starbucks",
      "osm_id": 655419369,
      "amenity": "cafe",
      "cuisine": "coffee_shop",
      "takeaway": "yes",
      "official_name": "Starbucks Coffee",
      "value": 95.52220461039103
    },
    {
      "id": 204401,
      "geometry": "POINT (-75.234863 39.996967)",
      "poi_name": "Starbucks",
      "osm_id": 7125160403,
      "amenity": "cafe",
      "cuisine": "coffee_shop",
      "takeaway": "yes",
      "official_name": "Starbucks Coffee",
      "value": 95.52220461039103
    },
    {
      "id": 204403,
      "geometry": "POINT (-75.222671 40.002675)",
      "poi_name": "Starbucks",
      "osm_id": 7125190975,
      "amenity": "cafe",
      "cuisine": "coffee_shop",
      "takeaway": "yes",
      "official_name": "Starbucks Coffee",
      "value": 95.52220461039103
    },
    {
      "id": 206155,
      "geometry": "POINT (-75.316582 40.020309)",
      "poi_name": "Starbucks",
      "osm_id": 7198791203,
      "amenity": "cafe",
      "cuisine": "coffee_shop",
      "opening_hours": "Mo-Fr 05:00-20:00; Sa-Su 05:30-20:00",
      "phone": "+1 610-526-0650",
      "takeaway": "yes",
      "official_name": "Starbucks Coffee",
      "addr_state": "PA",
      "addr_city": "Bryn Mawr",
      "addr_postcode": "19010",
      "addr_street": "Lancaster Avenue",
      "addr_housenumber": "766",
      "value": 95.52220461039103
    },
    {
      "id": 212985,
      "geometry": "POINT (-75.239919 40.00513)",
      "poi_name": "Starbucks",
      "osm_id": 5229313994,
      "amenity": "cafe",
      "cuisine": "coffee_shop",
      "opening_hours": "Mo-Su 05:00-22:00",
      "internet_access": "wlan",
      "takeaway": "yes",
      "official_name": "Starbucks Coffee",
      "addr_state": "PA",
      "addr_city": "Bala Cynwyd",
      "addr_postcode": "19004",
      "addr_street": "Montgomery Avenue",
      "addr_housenumber": "138",
      "value": 95.52220461039103
    },
    {
      "id": 209788,
      "geometry": "POINT (-75.002836 39.885917)",
      "poi_name": "Starbucks",
      "osm_id": 5059080066,
      "amenity": "cafe",
      "cuisine": "coffee_shop",
      "takeaway": "yes",
      "official_name": "Starbucks Coffee",
      "value": 95.52220461039103
    },
    {
      "id": 218323,
      "geometry": "POINT (-75.041912 39.802849)",
      "poi_name": "Starbucks",
      "osm_id": 9273444861,
      "amenity": "cafe",
      "cuisine": "coffee_shop",
      "takeaway": "yes",
      "official_name": "Starbucks Coffee",
      "value": 95.52220461039103
    },
    {
      "id": 214175,
      "geometry": "POINT (-75.048183 39.95179)",
      "poi_name": "Park Place Cafe",
      "osm_id": 5266550172,
      "amenity": "cafe",
      "value": 95.52220461039103
    },
    {
      "id": 214177,
      "geometry": "POINT (-75.048618 39.952276)",
      "poi_name": "The Station",
      "osm_id": 5266619740,
      "amenity": "cafe",
      "cuisine": "coffee_shop",
      "value": 95.52220461039103
    },
    {
      "id": 216269,
      "geometry": "POINT (-75.157137 39.976076)",
      "poi_name": "Yi Fang Tea",
      "osm_id": 9165663881,
      "amenity": "cafe",
      "cuisine": "bubble_tea",
      "opening_hours": "Mo-Su 11:00-21:00",
      "shop": "tea",
      "takeaway": "yes",
      "value": 95.52220461039103
    },
    {
      "id": 216537,
      "geometry": "POINT (-75.084902 39.765662)",
      "poi_name": "Township Bagel Cafe",
      "osm_id": 9174674719,
      "amenity": "cafe",
      "cuisine": "bagel",
      "website": "https://www.townshipbagel.com/",
      "phone": "856-589-6396",
      "addr_state": "NJ",
      "addr_city": "Sewell",
      "addr_postcode": "08080",
      "addr_street": "Egg Harbor Road",
      "addr_housenumber": "288",
      "value": 95.52220461039103
    },
    {
      "id": 218298,
      "geometry": "POINT (-75.156111 39.95165)",
      "poi_name": "Starbucks",
      "osm_id": 9272887825,
      "amenity": "cafe",
      "cuisine": "coffee_shop",
      "takeaway": "yes",
      "official_name": "Starbucks Coffee",
      "value": 95.52220461039103
    },
    {
      "id": 213488,
      "geometry": "POINT (-75.155087 39.984004)",
      "poi_name": "Lucky Cup Cafe",
      "osm_id": 5252192842,
      "amenity": "cafe",
      "value": 95.52220461039103
    },
    {
      "id": 213489,
      "geometry": "POINT (-75.153438 39.983192)",
      "poi_name": "The Artist's Pallet Cafe",
      "osm_id": 5252192843,
      "amenity": "cafe",
      "wheelchair": "yes",
      "value": 95.52220461039103
    },
    {
      "id": 220538,
      "geometry": "POINT (-75.182911 39.974634)",
      "poi_name": "The Monkey & The Elephant",
      "osm_id": 9377415444,
      "amenity": "cafe",
      "cuisine": "coffee_shop",
      "website": "https://www.themonkeyandtheelephant.org/",
      "addr_state": "PA",
      "addr_city": "Philadelphia",
      "addr_postcode": "19130",
      "addr_street": "West Girard Avenue",
      "addr_housenumber": "2831",
      "value": 95.52220461039103
    },
    {
      "id": 219001,
      "geometry": "POINT (-75.181942 39.955397)",
      "poi_name": "Old Nelson Food Company",
      "osm_id": 9312516969,
      "amenity": "cafe",
      "value": 95.52220461039103
    },
    {
      "id": 219002,
      "geometry": "POINT (-75.181894 39.955539)",
      "poi_name": "Saxbys",
      "osm_id": 9312516970,
      "amenity": "cafe",
      "value": 95.52220461039103
    },
    {
      "id": 220578,
      "geometry": "POINT (-75.179278 39.972572)",
      "poi_name": "Lucky Goat Coffeehouse",
      "osm_id": 9378302877,
      "amenity": "cafe",
      "cuisine": "coffee_shop",
      "website": "https://luckygoatcoffeehouse.com/",
      "addr_state": "PA",
      "addr_city": "Philadelphia",
      "addr_postcode": "19130",
      "addr_street": "North 26th Street",
      "addr_housenumber": "888",
      "value": 95.52220461039103
    },
    {
      "id": 220752,
      "geometry": "POINT (-75.160085 39.966824)",
      "poi_name": "the daily.",
      "osm_id": 9384993018,
      "amenity": "cafe",
      "addr_street": "North Broad Street",
      "addr_housenumber": "699",
      "value": 95.52220461039103
    },
    {
      "id": 220755,
      "geometry": "POINT (-75.170148 39.95477)",
      "poi_name": "Vernick Coffee Bar",
      "osm_id": 9385011517,
      "amenity": "cafe",
      "description": "located in the Comcast Technology Center, 2nd floor lobby; building entrance on 18th between JFK & Arch streets",
      "opening_hours": "Mo-Fr 07:30-16:00",
      "website": "https://www.vernickcoffeebar.com",
      "addr_state": "PA",
      "addr_city": "Philadelphia",
      "addr_postcode": "19103",
      "addr_street": "Arch Street",
      "addr_housenumber": "1800",
      "value": 95.52220461039103
    },
    {
      "id": 221450,
      "geometry": "POINT (-75.162101 39.962278)",
      "poi_name": "Starbucks",
      "osm_id": 10978033951,
      "amenity": "cafe",
      "cuisine": "coffee_shop",
      "opening_hours": "Mo-Th 05:30-19:30; Fr,Sa 05:30-20:00; Su 06:00-19:30",
      "website": "https://www.starbucks.com/store-locator/store/1027811/broad-spring-garden-490-north-broad-st-philadelphia-pa-191304321-us",
      "internet_access": "wlan",
      "phone": "+1 267-634-1848",
      "takeaway": "yes",
      "official_name": "Starbucks Coffee",
      "outdoor_seating": "no",
      "addr_city": "Philadelphia",
      "addr_postcode": "19130",
      "addr_street": "North Broad Street",
      "addr_housenumber": "490",
      "value": 95.52220461039103
    },
    {
      "id": 221387,
      "geometry": "POINT (-75.154979 39.934555)",
      "poi_name": "Bambu",
      "osm_id": 10975212448,
      "amenity": "cafe",
      "cuisine": "vietnamese;bubble_tea",
      "takeaway": "yes",
      "value": 95.52220461039103
    },
    {
      "id": 222428,
      "geometry": "POINT (-75.185318 39.969103)",
      "poi_name": "Cosmic Cafe",
      "osm_id": 11018054837,
      "amenity": "cafe",
      "value": 95.52220461039103
    },
    {
      "id": 222430,
      "geometry": "POINT (-75.162876 39.954671)",
      "poi_name": "Starbucks",
      "osm_id": 11018127859,
      "amenity": "cafe",
      "cuisine": "coffee_shop",
      "takeaway": "yes",
      "official_name": "Starbucks Coffee",
      "value": 95.52220461039103
    },
    {
      "id": 224051,
      "geometry": "POINT (-75.225285 40.026237)",
      "poi_name": "Tsa\u014dcaa Fresh Tea",
      "osm_id": 11072156869,
      "amenity": "cafe",
      "opening_hours": "Su-Th 11:30-20:00; Fr,Sa 11:30-21:00",
      "website": "https://www.tsaocaatea.com/",
      "phone": "+1-267-583-8000",
      "value": 95.52220461039103
    },
    {
      "id": 222460,
      "geometry": "POINT (-75.161882 39.950713)",
      "poi_name": "Starbucks",
      "osm_id": 11018930591,
      "amenity": "cafe",
      "opening_hours": "Mo-Fr 07:00-19:00; Sa 08:00-19:00; Su 11:00-18:00",
      "website": "https://www.starbucks.com/store-locator/store/1029829/macys-center-city-at-1301-che-1301-chestnut-street-philadelphia-pa-191073521-us",
      "phone": "+1 215-241-9000",
      "addr_city": "Philadelphia",
      "addr_postcode": "19107",
      "addr_street": "Chestnut Street",
      "addr_housenumber": "1301",
      "value": 95.52220461039103
    },
    {
      "id": 222654,
      "geometry": "POINT (-75.222084 40.003878)",
      "poi_name": "Corner Bakery",
      "osm_id": 11028900911,
      "amenity": "cafe",
      "cuisine": "coffee_shop",
      "takeaway": "yes",
      "value": 95.52220461039103
    },
    {
      "id": 224077,
      "geometry": "POINT (-75.15588 39.95596)",
      "poi_name": "Mr. Wish",
      "osm_id": 11073579905,
      "amenity": "cafe",
      "cuisine": "bubble_tea",
      "opening_hours": "Mo-Th 10:00-21:00; Fr-Su 10:00-22:00",
      "website": "https://www.mrwishusa.com/",
      "phone": "2674572650",
      "addr_postcode": "19107",
      "addr_street": "North 10th Street",
      "addr_housenumber": "216",
      "value": 95.52220461039103
    },
    {
      "id": 224081,
      "geometry": "POINT (-75.221471 40.024715)",
      "poi_name": "Smiley's Cafe",
      "osm_id": 11073875042,
      "amenity": "cafe",
      "opening_hours": "Mo-Sa 12:00-20:00",
      "value": 95.52220461039103
    },
    {
      "id": 224083,
      "geometry": "POINT (-75.224413 40.025898)",
      "poi_name": "Valerio Coffee Roasters",
      "osm_id": 11073875047,
      "amenity": "cafe",
      "opening_hours": "Mo-Fr 08:00-14:30; Sa,Su 08:00-16:00",
      "website": "https://valeriocoffee.com/",
      "phone": "+1-267-792-3700",
      "value": 95.52220461039103
    },
    {
      "id": 224087,
      "geometry": "POINT (-75.219365 40.02285)",
      "poi_name": "Pilgrim Coffee Roasters",
      "osm_id": 11073875060,
      "amenity": "cafe",
      "value": 95.52220461039103
    },
    {
      "id": 224089,
      "geometry": "POINT (-75.22082 40.024286)",
      "poi_name": "Mi 'N Tea",
      "osm_id": 11073875069,
      "amenity": "cafe",
      "cuisine": "bubble_tea",
      "value": 95.52220461039103
    },
    {
      "id": 224090,
      "geometry": "POINT (-75.22272 40.025213)",
      "poi_name": "Mr. Wish",
      "osm_id": 11073875072,
      "amenity": "cafe",
      "cuisine": "bubble_tea",
      "opening_hours": "Mo-Su 11:00-21:00",
      "value": 95.52220461039103
    },
    {
      "id": 224886,
      "geometry": "POINT (-75.226726 40.026617)",
      "poi_name": "Greg's Kitchen",
      "osm_id": 11102457736,
      "amenity": "cafe",
      "opening_hours": "Tu-Su 08:00-15:00",
      "website": "https://www.gregskitchenmnyk.com/",
      "phone": "+1-215-482-4734",
      "value": 95.52220461039103
    },
    {
      "id": 224184,
      "geometry": "POINT (-75.221607 40.003164)",
      "poi_name": "Kung Fu Tea",
      "osm_id": 11075356705,
      "amenity": "cafe",
      "cuisine": "bubble_tea",
      "takeaway": "yes",
      "value": 95.52220461039103
    },
    {
      "id": 237225,
      "geometry": "POINT (-74.631036 40.177834)",
      "poi_name": "Starbucks",
      "osm_id": 5824139686,
      "amenity": "cafe",
      "cuisine": "coffee_shop",
      "takeaway": "yes",
      "official_name": "Starbucks Coffee",
      "value": 95.52220461039103
    },
    {
      "id": 224880,
      "geometry": "POINT (-75.217393 40.02273)",
      "poi_name": "Castle Roxx",
      "osm_id": 11102437701,
      "amenity": "cafe",
      "value": 95.52220461039103
    },
    {
      "id": 225066,
      "geometry": "POINT (-75.211081 40.015559)",
      "poi_name": "Bark Social",
      "osm_id": 11110283046,
      "amenity": "cafe",
      "website": "https://barksocial.com/pages/philadelphia",
      "addr_state": "PA",
      "addr_city": "Philadelphia",
      "addr_postcode": "19127",
      "addr_street": "Main Street",
      "addr_housenumber": "3720",
      "value": 95.52220461039103
    },
    {
      "id": 225413,
      "geometry": "POINT (-75.209828 40.021065)",
      "poi_name": "Unity Java",
      "osm_id": 11126040898,
      "amenity": "cafe",
      "cuisine": "coffee_shop",
      "opening_hours": "Su-Th 06:00-18:30; Fr,Sa 06:00-20:00",
      "value": 95.52220461039103
    },
    {
      "id": 233493,
      "geometry": "POINT (-75.274667 40.002273)",
      "poi_name": "Starbucks",
      "osm_id": 4576266693,
      "amenity": "cafe",
      "cuisine": "coffee_shop",
      "opening_hours": "Mo-Fr 05:30-19:00; Sa-Su 05:30-18:30",
      "internet_access": "wlan",
      "phone": "+1 215-528-3852",
      "takeaway": "yes",
      "official_name": "Starbucks Coffee",
      "addr_city": "Wynnewood",
      "addr_postcode": "19096",
      "addr_street": "East Wynnewood Road",
      "addr_housenumber": "31",
      "value": 95.52220461039103
    },
    {
      "id": 233824,
      "geometry": "POINT (-75.171393 39.929714)",
      "poi_name": "Cafe Pendawa",
      "osm_id": 4589238517,
      "amenity": "cafe",
      "value": 95.52220461039103
    },
    {
      "id": 236528,
      "geometry": "POINT (-75.172263 39.950757)",
      "poi_name": "La Colombe Coffee Roasters",
      "osm_id": 5796170555,
      "amenity": "cafe",
      "cuisine": "coffee_shop",
      "opening_hours": "07:00-19:00",
      "takeaway": "yes",
      "addr_street": "South 19th Street",
      "addr_housenumber": "130",
      "value": 95.52220461039103
    },
    {
      "id": 238128,
      "geometry": "POINT (-75.015554 40.095272)",
      "poi_name": "Starbucks",
      "osm_id": 5863215288,
      "amenity": "cafe",
      "cuisine": "coffee_shop",
      "takeaway": "yes",
      "official_name": "Starbucks Coffee",
      "value": 95.52220461039103
    },
    {
      "id": 244799,
      "geometry": "POINT (-74.945306 39.964689)",
      "poi_name": "The Cubby Hole",
      "osm_id": 7742021308,
      "amenity": "cafe",
      "opening_hours": "Mo-Su 07:30-15:00",
      "website": "https://sites.google.com/view/thecubbyholemoorestown/",
      "phone": "+1-856-234-4372",
      "outdoor_seating": "yes",
      "value": 95.52220461039103
    },
    {
      "id": 244802,
      "geometry": "POINT (-74.943871 39.965178)",
      "poi_name": "Healthy Garden Cafe",
      "osm_id": 7742033035,
      "amenity": "cafe",
      "value": 95.52220461039103
    },
    {
      "id": 238600,
      "geometry": "POINT (-75.165159 39.951624)",
      "poi_name": "Waterfront Gourmet Cafe & Deli",
      "osm_id": 5885155785,
      "amenity": "cafe",
      "opening_hours": "Mo-Fr 08:00-18:00; Sa-Su off",
      "website": "https://dilworthplaza.waterfrontgourmet.com",
      "phone": "+1 267-758-2383",
      "addr_state": "PA",
      "addr_city": "Philadelphia",
      "addr_postcode": "19102",
      "addr_street": "South Penn Square",
      "addr_housenumber": "1414",
      "value": 95.52220461039103
    },
    {
      "id": 240326,
      "geometry": "POINT (-75.251578 39.873594)",
      "poi_name": "La Tapenade",
      "osm_id": 5967871730,
      "amenity": "cafe",
      "cuisine": "mediterranean",
      "value": 95.52220461039103
    },
    {
      "id": 240330,
      "geometry": "POINT (-75.244304 39.873901)",
      "poi_name": "boule caf\u00e9",
      "osm_id": 5967871739,
      "amenity": "cafe",
      "value": 95.52220461039103
    },
    {
      "id": 240337,
      "geometry": "POINT (-75.250879 39.874665)",
      "poi_name": "Illy Caff\u00e9",
      "osm_id": 5967871753,
      "amenity": "cafe",
      "takeaway": "yes",
      "value": 95.52220461039103
    }
  ],
  "answer_type": "name",
  "question_entities": {
    "[2]": {
      "distance": 90000,
      "text": "90 kilometers"
    },
    "[3]": {
      "main_category": "amenity",
      "sub_category": "hospital",
      "display_name": "West Chester Cardiology, West Chester, PA",
      "geo_wkt": "POINT (-75.599564 39.969582)",
      "poi": {
        "id": 123316,
        "geometry": "POINT (-75.599564 39.969582)",
        "poi_name": "West Chester Cardiology",
        "osm_id": 6848366733,
        "amenity": "hospital",
        "website": "https://westchestercardiology.com",
        "phone": "+1 610-692-4382",
        "healthcare": "hospital",
        "addr_state": "PA",
        "addr_city": "West Chester",
        "addr_postcode": "19380",
        "addr_street": "Maple Avenue",
        "addr_housenumber": "531"
      }
    },
    "[4]": {
      "main_category": "leisure",
      "sub_category": "garden",
      "display_name": "South 6th St. Community Garden, Philadelphia, PA",
      "geo_wkt": "POINT (-75.153583 39.935532)",
      "poi": {
        "id": 247114,
        "geometry": "POINT (-75.153583 39.935532)",
        "poi_name": "South 6th St. Community Garden",
        "osm_id": 3559321959,
        "leisure": "garden",
        "addr_state": "PA",
        "addr_city": "Philadelphia",
        "addr_postcode": "19147",
        "addr_street": "S 6TH ST",
        "addr_housenumber": "1035"
      }
    },
    "[1]": {
      "main_category": "amenity",
      "sub_category": "cafe"
    }
  },
  "id": 1689,
  "type": "range:towards+name"
}