{
  "question": "I'm searching for a fast food restaurant within 60 kilometers radii from Lincoln Park Zoo, Manitowoc, WI, any suggestions where it is?",
  "sql": "SELECT * FROM pois\nWHERE ST_DWithin(pois.geometry, ST_GeomFromText('POINT (-87.649084 44.11068)',4326)::geography, 60000)\nAND amenity = 'fast_food';\n",
  "answers": [
    {
      "id": 37576,
      "geometry": "POINT (-88.089927 44.524274)",
      "poi_name": "Schlotzsky's",
      "osm_id": 2819635495,
      "amenity": "fast_food",
      "cuisine": "sandwich",
      "phone": "+1-920-497-1313",
      "takeaway": "yes",
      "addr_state": "WI",
      "addr_city": "Green Bay",
      "addr_postcode": "54303",
      "addr_street": "West Mason Street",
      "addr_housenumber": "2420"
    },
    {
      "id": 41194,
      "geometry": "POINT (-88.273305 44.263768)",
      "poi_name": "Little Caesars",
      "osm_id": 3005959926,
      "amenity": "fast_food",
      "cuisine": "pizza",
      "wheelchair": "yes",
      "opening_hours": "Mo-Sa 10:30-21:30;Su 10:30-21:00",
      "website": "https://littlecaesars.com/en-us/store/10473/",
      "takeaway": "yes",
      "addr_city": "Kaukauna",
      "addr_postcode": "54130",
      "addr_street": "Crooks Avenue",
      "addr_housenumber": "1900"
    },
    {
      "id": 46547,
      "geometry": "POINT (-88.271869 44.260201)",
      "poi_name": "Taco John's",
      "osm_id": 3271697333,
      "amenity": "fast_food",
      "cuisine": "mexican",
      "opening_hours": "Su-Sa 06:00-22:00",
      "phone": "+1-920-766-6080",
      "takeaway": "yes",
      "drive_through": "yes",
      "addr_state": "WI",
      "addr_city": "Kaukauna",
      "addr_postcode": "54130",
      "addr_street": "Crooks Avenue",
      "addr_housenumber": "2400"
    },
    {
      "id": 79615,
      "geometry": "POINT (-88.357247 44.244372)",
      "poi_name": "Jimmy John's",
      "osm_id": 818414289,
      "amenity": "fast_food",
      "cuisine": "sandwich",
      "takeaway": "yes",
      "official_name": "Jimmy John's Gourmet Sandwiches",
      "addr_state": "WI",
      "addr_city": "Appleton",
      "addr_street": "East Calumet Street",
      "addr_housenumber": "3420"
    },
    {
      "id": 108056,
      "geometry": "POINT (-88.071111 44.478593)",
      "poi_name": "HuHot Mongolian Grill",
      "osm_id": 3592861594,
      "amenity": "fast_food",
      "cuisine": "mongolian_grill",
      "opening_hours": "Su-Th 11:00-21:00; Fr-Sa 11:00-22:00",
      "website": "https://www.huhot.com/location/green-bay-wi/",
      "phone": "+1-920-405-8888",
      "takeaway": "yes",
      "addr_state": "WI",
      "addr_city": "Green Bay",
      "addr_postcode": "54304",
      "addr_street": "South Oneida Street",
      "addr_housenumber": "2621"
    },
    {
      "id": 117814,
      "geometry": "POINT (-88.350068 44.2443)",
      "poi_name": "Jersey Mike's Subs",
      "osm_id": 9012712096,
      "amenity": "fast_food",
      "cuisine": "sandwich",
      "takeaway": "yes",
      "drive_through": "no",
      "addr_state": "WI",
      "addr_city": "Appleton",
      "addr_postcode": "54915",
      "addr_street": "County KK",
      "addr_housenumber": "W3216"
    },
    {
      "id": 154789,
      "geometry": "POINT (-88.273433 44.258952)",
      "poi_name": "Papa Murphy's",
      "osm_id": 4255634789,
      "amenity": "fast_food",
      "cuisine": "pizza",
      "takeaway": "only",
      "official_name": "Papa Murphy's Take 'N' Bake Pizza",
      "addr_state": "WI",
      "addr_city": "Kaukauna",
      "addr_postcode": "54130",
      "addr_street": "East Ann Street",
      "addr_housenumber": "223"
    },
    {
      "id": 156320,
      "geometry": "POINT (-88.363283 44.259986)",
      "poi_name": "Cousins Subs",
      "osm_id": 4648840289,
      "amenity": "fast_food",
      "cuisine": "sandwich",
      "takeaway": "yes",
      "drive_through": "no",
      "addr_state": "WI",
      "addr_city": "Appleton",
      "addr_postcode": "54915",
      "addr_street": "East College Avenue",
      "addr_housenumber": "3020"
    },
    {
      "id": 157705,
      "geometry": "POINT (-88.367098 44.244345)",
      "poi_name": "Papa Murphy's",
      "osm_id": 4721520690,
      "amenity": "fast_food",
      "cuisine": "pizza",
      "takeaway": "only",
      "official_name": "Papa Murphy's Take 'N' Bake Pizza",
      "addr_state": "WI",
      "addr_city": "Appleton",
      "addr_street": "East Calumet Street",
      "addr_housenumber": "2700"
    },
    {
      "id": 158750,
      "geometry": "POINT (-88.098944 44.491804)",
      "poi_name": "Krispy Krunchy Chicken",
      "osm_id": 4760969431,
      "amenity": "fast_food",
      "cuisine": "chicken",
      "website": "https://www.krispykrunchy.com/locations/true-north-airport-shell-810-11464/",
      "takeaway": "yes",
      "addr_state": "WI",
      "addr_city": "Green Bay",
      "addr_postcode": "54313",
      "addr_street": "Babcock Road",
      "addr_housenumber": "2530"
    },
    {
      "id": 167277,
      "geometry": "POINT (-87.66269 44.08916)",
      "poi_name": "Lakeshore Cinema",
      "osm_id": 349418058,
      "amenity": "fast_food",
      "addr_state": "WI",
      "addr_city": "Manitowoc",
      "addr_postcode": "54220",
      "addr_street": "Washington Street",
      "addr_housenumber": "1118"
    },
    {
      "id": 205689,
      "geometry": "POINT (-88.350106 44.241446)",
      "poi_name": "Quiznos",
      "osm_id": 7178232499,
      "amenity": "fast_food",
      "cuisine": "sandwich",
      "takeaway": "yes",
      "drive_through": "no",
      "addr_state": "WI",
      "addr_city": "Appleton",
      "addr_street": "East Calumet Street",
      "addr_housenumber": "3825"
    },
    {
      "id": 205898,
      "geometry": "POINT (-88.323413 44.275521)",
      "poi_name": "Little Caesars",
      "osm_id": 7186833443,
      "amenity": "fast_food",
      "cuisine": "pizza",
      "takeaway": "yes",
      "addr_state": "WI",
      "addr_city": "Kimberly",
      "addr_street": "East Maes Avenue",
      "addr_housenumber": "882"
    },
    {
      "id": 239912,
      "geometry": "POINT (-88.01478 44.51594)",
      "poi_name": "Erbert & Gerbert's",
      "osm_id": 5943076147,
      "amenity": "fast_food",
      "cuisine": "sandwich",
      "takeaway": "yes",
      "official_name": "Erbert & Gerbert's Sandwich Shop",
      "addr_state": "WI",
      "addr_city": "Green Bay",
      "addr_postcode": "54303",
      "addr_street": "North Washington Street",
      "addr_housenumber": "226"
    },
    {
      "id": 239917,
      "geometry": "POINT (-88.01544 44.515734)",
      "poi_name": "Subway",
      "osm_id": 5943113649,
      "amenity": "fast_food",
      "cuisine": "sandwich",
      "takeaway": "yes",
      "addr_state": "WI",
      "addr_city": "Green Bay",
      "addr_postcode": "54301",
      "addr_street": "North Washington Street",
      "addr_housenumber": "211"
    },
    {
      "id": 239924,
      "geometry": "POINT (-88.014588 44.507208)",
      "poi_name": "A&W",
      "osm_id": 5943233852,
      "amenity": "fast_food",
      "cuisine": "burger",
      "website": "https://awrestaurants.com/locations/wisconsin/green-bay/510-s-monroe-avenue/",
      "takeaway": "yes",
      "drive_through": "yes",
      "addr_state": "WI",
      "addr_city": "Green Bay",
      "addr_postcode": "54301",
      "addr_street": "South Monroe Avenue",
      "addr_housenumber": "510"
    },
    {
      "id": 239944,
      "geometry": "POINT (-87.993474 44.510958)",
      "poi_name": "Jimmy John's",
      "osm_id": 5943298045,
      "amenity": "fast_food",
      "cuisine": "sandwich",
      "takeaway": "yes",
      "drive_through": "yes",
      "delivery": "yes",
      "addr_state": "WI",
      "addr_city": "Green Bay",
      "addr_postcode": "54302",
      "addr_street": "Main Street",
      "addr_housenumber": "1335"
    },
    {
      "id": 241392,
      "geometry": "POINT (-88.020818 44.519458)",
      "poi_name": "Subway",
      "osm_id": 6021079463,
      "amenity": "fast_food",
      "cuisine": "sandwich",
      "takeaway": "yes",
      "addr_state": "WI",
      "addr_city": "Green Bay",
      "addr_postcode": "54303",
      "addr_street": "Dousman Street",
      "addr_housenumber": "517"
    }
  ],
  "answer_type": "loc",
  "question_entities": {
    "[1]": {
      "main_category": "amenity",
      "sub_category": "fast food restaurant"
    },
    "[2]": {
      "distance": 60000,
      "text": "60 kilometers"
    },
    "[3]": {
      "main_category": "tourism",
      "sub_category": "zoo",
      "display_name": "Lincoln Park Zoo, Manitowoc, WI",
      "geo_wkt": "POINT (-87.649084 44.11068)",
      "poi": {
        "id": 2509,
        "geometry": "POINT (-87.649084 44.11068)",
        "poi_name": "Lincoln Park Zoo",
        "osm_id": 3491296260,
        "tourism": "zoo",
        "website": "https://www.manitowoc.org/766/Lincoln-Park-Zoo",
        "phone": "920-683-4685",
        "wikidata": "Q3241309",
        "addr_state": "WI",
        "addr_city": "Manitowoc"
      }
    }
  },
  "id": 2026,
  "type": "range+loc"
}