{
  "question": "Within a radius of 110 kilometers, where can I find  a caf\u00e9 from African American Cultural Garden, Cleveland, OH towards Go Ape Treetop Adventure Course, Strongsville, OH?",
  "sql": "WITH\n    angle AS (SELECT degrees(ST_Azimuth(ST_GeomFromText('POINT (-81.629472 41.530044)',4326)::geography, ST_GeomFromText('POINT (-81.818381 41.322133)',4326)::geography)) AS value)\nSELECT * FROM pois,angle\nWHERE amenity = 'cafe'\nAND ST_DWithin(pois.geometry, ST_GeomFromText('POINT (-81.629472 41.530044)',4326)::geography, 110000)\nAND (degrees(ST_Azimuth(ST_GeomFromText('POINT (-81.629472 41.530044)',4326)::geography, pois.geometry)) BETWEEN angle.value - 22.5 AND angle.value + 22.5);\n",
  "answers": [
    {
      "id": 36592,
      "geometry": "POINT (-81.681511 41.500765)",
      "poi_name": "Starbucks",
      "osm_id": 2772560172,
      "amenity": "cafe",
      "cuisine": "coffee_shop",
      "opening_hours": "Mo-Su 06:30-16:00",
      "takeaway": "yes",
      "official_name": "Starbucks Coffee",
      "addr_state": "OH",
      "addr_city": "Cleveland",
      "addr_postcode": "44115",
      "addr_street": "Euclid Avenue",
      "addr_housenumber": "1400",
      "value": 214.4292951606087
    },
    {
      "id": 47805,
      "geometry": "POINT (-81.682408 41.477446)",
      "poi_name": "affoGATO Cat Cafe",
      "osm_id": 3350729996,
      "amenity": "cafe",
      "cuisine": "coffee_shop",
      "description": "also has cats to pet and play with",
      "opening_hours": "We-Su 11:00-21:00",
      "website": "https://www.affogatocatcafe.com/",
      "phone": "+1-440-941-5130",
      "addr_city": "Cleveland",
      "addr_street": "Starkweather Avenue",
      "addr_housenumber": "761",
      "value": 214.4292951606087
    },
    {
      "id": 70128,
      "geometry": "POINT (-81.666771 41.508808)",
      "poi_name": "Mango Mango Dessert",
      "osm_id": 11345643929,
      "amenity": "cafe",
      "cuisine": "asian;dessert",
      "takeaway": "yes",
      "addr_city": "Cleveland",
      "addr_postcode": "44114",
      "addr_street": "Payne Avenue",
      "addr_housenumber": "3133",
      "value": 214.4292951606087
    },
    {
      "id": 64195,
      "geometry": "POINT (-81.722892 41.440842)",
      "poi_name": "Sam Slyk's Chicken and Ribs",
      "osm_id": 5643705919,
      "amenity": "cafe",
      "addr_city": "Cleveland",
      "addr_postcode": "44109",
      "addr_street": "Fulton Road",
      "addr_housenumber": "4259",
      "value": 214.4292951606087
    },
    {
      "id": 101783,
      "geometry": "POINT (-81.722123 41.424199)",
      "poi_name": "Dreamz Cafe",
      "osm_id": 6643754425,
      "amenity": "cafe",
      "cuisine": "soul_food",
      "takeaway": "yes",
      "addr_state": "OH",
      "addr_city": "Cleveland",
      "addr_street": "Pearl Road",
      "addr_housenumber": "4912",
      "value": 214.4292951606087
    },
    {
      "id": 94880,
      "geometry": "POINT (-82.475366 40.774268)",
      "poi_name": "Starbucks",
      "osm_id": 6377780602,
      "amenity": "cafe",
      "cuisine": "coffee_shop",
      "opening_hours": "Mo-Su 06:00-20:00",
      "website": "https://www.starbucks.com/store-locator/store/17020/kroger-mansfield-oh-557-1060-ashland-road-mansfield-oh-449052157-us",
      "phone": "+1-419-589-3147",
      "takeaway": "yes",
      "official_name": "Starbucks Coffee",
      "addr_state": "OH",
      "addr_city": "Mansfield",
      "addr_postcode": "44905",
      "addr_street": "Ashland Road",
      "addr_housenumber": "1060",
      "value": 214.4292951606087
    },
    {
      "id": 96117,
      "geometry": "POINT (-81.752144 41.467493)",
      "poi_name": "Curbside Coffee",
      "osm_id": 6419905431,
      "amenity": "cafe",
      "addr_city": "Cleveland",
      "addr_street": "Lorain Avenue",
      "addr_housenumber": "9858",
      "value": 214.4292951606087
    },
    {
      "id": 71683,
      "geometry": "POINT (-81.729337 41.440148)",
      "poi_name": "Uciuni Pizza",
      "osm_id": 11396975451,
      "amenity": "cafe",
      "cuisine": "pizza",
      "takeaway": "only",
      "outdoor_seating": "no",
      "addr_state": "OH",
      "addr_city": "Cleveland",
      "addr_street": "Memphis Avenue",
      "addr_housenumber": "6102",
      "value": 214.4292951606087
    },
    {
      "id": 108621,
      "geometry": "POINT (-81.705384 41.486391)",
      "poi_name": "Tabletop Board Game Cafe",
      "osm_id": 3630061151,
      "amenity": "cafe",
      "description": "Bright cafe themed around board games and community. Offering pizza, sandwiches, coffee, and beer & wine.",
      "opening_hours": "We-Th 16:00-21:00; Fr-Sa 11:00-22:00; Su 11:00-21:00",
      "website": "https://www.tabletopcleve.com/",
      "phone": "+1-216-512-3053",
      "outdoor_seating": "no",
      "delivery": "yes",
      "addr_state": "OH",
      "addr_city": "Cleveland",
      "addr_postcode": "44113",
      "addr_street": "West 25th Street",
      "addr_housenumber": "1810",
      "value": 214.4292951606087
    },
    {
      "id": 109944,
      "geometry": "POINT (-81.709312 41.48168)",
      "poi_name": "Ohio City Pizzeria",
      "osm_id": 3679281474,
      "amenity": "cafe",
      "cuisine": "pizza",
      "takeaway": "yes",
      "outdoor_seating": "yes",
      "addr_state": "OH",
      "addr_city": "Cleveland",
      "addr_postcode": "44113",
      "addr_street": "Lorain Avenue",
      "addr_housenumber": "3223",
      "value": 214.4292951606087
    },
    {
      "id": 115471,
      "geometry": "POINT (-81.759858 41.423942)",
      "poi_name": "Starbucks",
      "osm_id": 8898429797,
      "amenity": "cafe",
      "cuisine": "coffee_shop",
      "takeaway": "yes",
      "official_name": "Starbucks Coffee",
      "addr_state": "OH",
      "addr_city": "Brooklyn",
      "addr_postcode": "44144",
      "addr_street": "Cascade Crossing",
      "addr_housenumber": "10330",
      "value": 214.4292951606087
    },
    {
      "id": 115993,
      "geometry": "POINT (-81.757832 41.465628)",
      "poi_name": "Rise Above Cafe",
      "osm_id": 8922935597,
      "amenity": "cafe",
      "cuisine": "coffee_shop",
      "addr_state": "OH",
      "addr_city": "Cleveland",
      "addr_street": "Lorain Avenue",
      "addr_housenumber": "10400",
      "value": 214.4292951606087
    },
    {
      "id": 120164,
      "geometry": "POINT (-81.686051 41.481207)",
      "poi_name": "Cafe Social Latinoamericano",
      "osm_id": 9143395099,
      "amenity": "cafe",
      "cuisine": "coffee_shop",
      "opening_hours": "Mo-Fr 08:00-15:00; Sa-Su 08:00-17:00",
      "website": "cafesocialcoffee.com",
      "phone": "+1 216 280 2423",
      "addr_state": "OH",
      "addr_city": "Cleveland",
      "addr_postcode": "44113",
      "addr_street": "Professor Avenue",
      "addr_housenumber": "2275",
      "value": 214.4292951606087
    },
    {
      "id": 116336,
      "geometry": "POINT (-81.840187 41.230084)",
      "poi_name": "Kelly's Cafe",
      "osm_id": 8939417445,
      "amenity": "cafe",
      "addr_state": "OH",
      "addr_city": "Brunswick",
      "addr_postcode": "44212",
      "addr_street": "Pearl Road",
      "addr_housenumber": "1661",
      "value": 214.4292951606087
    },
    {
      "id": 116748,
      "geometry": "POINT (-81.83476 41.315703)",
      "poi_name": "Architectural Justice",
      "osm_id": 8958333978,
      "amenity": "cafe",
      "addr_state": "OH",
      "addr_city": "Strongsville",
      "addr_postcode": "44136",
      "addr_street": "Pearl Road",
      "addr_housenumber": "13593",
      "value": 214.4292951606087
    },
    {
      "id": 117655,
      "geometry": "POINT (-81.691568 41.45992)",
      "poi_name": "Starbucks",
      "osm_id": 9005044035,
      "amenity": "cafe",
      "cuisine": "coffee_shop",
      "takeaway": "yes",
      "official_name": "Starbucks Coffee",
      "addr_state": "OH",
      "addr_city": "Cleveland",
      "addr_postcode": "44109",
      "addr_street": "Steelyard Drive",
      "addr_housenumber": "3420",
      "value": 214.4292951606087
    },
    {
      "id": 118942,
      "geometry": "POINT (-81.721575 41.477573)",
      "poi_name": "Cent's",
      "osm_id": 9072257329,
      "amenity": "cafe",
      "cuisine": "pizza",
      "addr_state": "OH",
      "addr_city": "Cleveland",
      "addr_street": "Lorain Avenue",
      "addr_housenumber": "5016",
      "value": 214.4292951606087
    },
    {
      "id": 120503,
      "geometry": "POINT (-81.689848 41.500028)",
      "poi_name": "Balance Grill",
      "osm_id": 6708874984,
      "amenity": "cafe",
      "cuisine": "asian",
      "addr_city": "Cleveland",
      "addr_street": "Euclid Avenue",
      "addr_housenumber": "515",
      "value": 214.4292951606087
    },
    {
      "id": 125258,
      "geometry": "POINT (-81.681791 41.49638)",
      "poi_name": "Solstice Roasters Caf\u00e9",
      "osm_id": 6952532569,
      "amenity": "cafe",
      "addr_state": "OH",
      "addr_city": "Cleveland",
      "addr_street": "Carnegie Avenue",
      "addr_housenumber": "1101",
      "value": 214.4292951606087
    },
    {
      "id": 122772,
      "geometry": "POINT (-81.784651 41.4048)",
      "poi_name": "Charlie And Tango Ice Cream And Smoothies",
      "osm_id": 6818064153,
      "amenity": "cafe",
      "cuisine": "ice_cream;smoothie",
      "opening_hours": "Mo-Su 12:00-22:30",
      "website": "https://charlieandtangoicecreamandsmoothies.business.site/",
      "addr_state": "OH",
      "addr_city": "Brook Park",
      "addr_street": "Snow Road",
      "addr_housenumber": "13357",
      "value": 214.4292951606087
    },
    {
      "id": 148894,
      "geometry": "POINT (-81.769324 41.45376)",
      "poi_name": "Damas Eatery",
      "osm_id": 3987164724,
      "amenity": "cafe",
      "cuisine": "syrian",
      "opening_hours": "Mo-Fr 10:00-22:00; Sa-Su 12:00-20:00",
      "phone": "+1 216 331 1933",
      "takeaway": "yes",
      "drive_through": "no",
      "addr_state": "OH",
      "addr_city": "Cleveland",
      "addr_postcode": "44111",
      "addr_street": "West 117th Street",
      "addr_housenumber": "3650",
      "value": 214.4292951606087
    },
    {
      "id": 154912,
      "geometry": "POINT (-81.702963 41.484083)",
      "poi_name": "Edda Coffee Roasters",
      "osm_id": 4261132627,
      "amenity": "cafe",
      "cuisine": "coffee_shop",
      "addr_state": "OH",
      "addr_city": "Cleveland",
      "addr_postcode": "44113",
      "addr_street": "West 25th Street",
      "addr_housenumber": "2011",
      "value": 214.4292951606087
    },
    {
      "id": 154677,
      "geometry": "POINT (-81.735235 41.380084)",
      "poi_name": "Starbucks",
      "osm_id": 4251794030,
      "amenity": "cafe",
      "cuisine": "coffee_shop",
      "wheelchair": "yes",
      "takeaway": "yes",
      "official_name": "Starbucks Coffee",
      "addr_state": "OH",
      "addr_city": "Parma",
      "addr_postcode": "44129",
      "addr_street": "Ridge Road",
      "addr_housenumber": "6780",
      "value": 214.4292951606087
    },
    {
      "id": 165347,
      "geometry": "POINT (-81.746989 41.464602)",
      "poi_name": "Little Garden",
      "osm_id": 9530463208,
      "amenity": "cafe",
      "takeaway": "yes",
      "addr_state": "OH",
      "addr_city": "Cleveland",
      "addr_street": "Denison Avenue",
      "addr_housenumber": "9107",
      "value": 214.4292951606087
    },
    {
      "id": 161132,
      "geometry": "POINT (-81.705012 41.441154)",
      "poi_name": "Six Shooter Coffee",
      "osm_id": 4868045305,
      "amenity": "cafe",
      "cuisine": "coffee_shop",
      "opening_hours": "Mo-Su 07:00-19:00",
      "outdoor_seating": "no",
      "addr_state": "OH",
      "addr_city": "Cleveland",
      "addr_postcode": "44109",
      "addr_street": "Pearl Road",
      "addr_housenumber": "4193",
      "value": 214.4292951606087
    },
    {
      "id": 168597,
      "geometry": "POINT (-81.735262 41.425387)",
      "poi_name": "Starbucks",
      "osm_id": 2271205432,
      "amenity": "cafe",
      "cuisine": "coffee_shop",
      "takeaway": "yes",
      "official_name": "Starbucks Coffee",
      "addr_state": "OH",
      "addr_city": "Brooklyn",
      "addr_postcode": "44144",
      "addr_street": "Ridge Road",
      "addr_housenumber": "4752",
      "value": 214.4292951606087
    },
    {
      "id": 205194,
      "geometry": "POINT (-81.700868 41.46018)",
      "poi_name": "Bella Luna",
      "osm_id": 7159610880,
      "amenity": "cafe",
      "cuisine": "empanada",
      "addr_state": "OH",
      "addr_city": "Cleveland",
      "addr_street": "West 25th Street",
      "addr_housenumber": "3460",
      "value": 214.4292951606087
    },
    {
      "id": 168641,
      "geometry": "POINT (-81.70856 41.437246)",
      "poi_name": "Gyro Guys",
      "osm_id": 2273740941,
      "amenity": "cafe",
      "cuisine": "greek",
      "drive_through": "no",
      "addr_state": "OH",
      "addr_city": "Cleveland",
      "addr_postcode": "44109",
      "addr_street": "Pearl Road",
      "addr_housenumber": "4348",
      "value": 214.4292951606087
    },
    {
      "id": 192115,
      "geometry": "POINT (-81.703515 41.440974)",
      "poi_name": "KCC: Kelly Catering Company",
      "osm_id": 1422585205,
      "amenity": "cafe",
      "cuisine": "soul_food",
      "takeaway": "yes",
      "addr_city": "Cleveland",
      "addr_postcode": "44109",
      "addr_street": "Broadview Road",
      "addr_housenumber": "3312",
      "value": 214.4292951606087
    },
    {
      "id": 197555,
      "geometry": "POINT (-81.852897 41.368282)",
      "poi_name": "Starbucks",
      "osm_id": 10653006487,
      "amenity": "cafe",
      "cuisine": "coffee_shop",
      "takeaway": "yes",
      "official_name": "Starbucks Coffee",
      "addr_state": "OH",
      "addr_city": "Berea",
      "addr_street": "Front Street",
      "addr_housenumber": "106",
      "value": 214.4292951606087
    },
    {
      "id": 171364,
      "geometry": "POINT (-81.710392 41.489213)",
      "poi_name": "Rising Star Coffee Roasters",
      "osm_id": 2374055891,
      "amenity": "cafe",
      "opening_hours": "Mo-Th 06:00-18:00; Fr-Sa 06:00-20:00; Su 08:00-18:00",
      "website": "http://www.risingstarcoffee.com",
      "internet_access": "no",
      "phone": "+1 (216) 273-3573",
      "addr_city": "Cleveland",
      "addr_postcode": "44113-2960",
      "addr_street": "West 29th Street",
      "addr_housenumber": "1455",
      "value": 214.4292951606087
    },
    {
      "id": 221208,
      "geometry": "POINT (-81.934973 40.822031)",
      "poi_name": "Caribou Coffee",
      "osm_id": 10969581003,
      "amenity": "cafe",
      "cuisine": "coffee_shop",
      "opening_hours": "Mo-Sa 05:30-21:00; Su 06:00-20:00",
      "website": "https://locations.cariboucoffee.com/us/oh/wooster/1840-cleveland-rd",
      "internet_access": "wlan",
      "phone": "+1-330-222-3102",
      "takeaway": "yes",
      "drive_through": "yes",
      "outdoor_seating": "yes",
      "addr_state": "OH",
      "addr_city": "Wooster",
      "addr_postcode": "44691",
      "addr_street": "Cleveland Road",
      "addr_housenumber": "1840",
      "value": 214.4292951606087
    },
    {
      "id": 232864,
      "geometry": "POINT (-81.716365 41.487466)",
      "poi_name": "Cleveland Bagel Company",
      "osm_id": 4545849217,
      "amenity": "cafe",
      "cuisine": "bagel",
      "opening_hours": "Tu-Su 6:30-13:00",
      "website": "http://clebagelco.com/",
      "phone": "+1 216 600 5652",
      "outdoor_seating": "no",
      "addr_state": "OH",
      "addr_city": "Cleveland",
      "addr_postcode": "44113",
      "addr_street": "Detroit Avenue",
      "addr_housenumber": "4201",
      "value": 214.4292951606087
    },
    {
      "id": 225367,
      "geometry": "POINT (-81.711373 41.489559)",
      "poi_name": "Patron Saint Cafe + Bar",
      "osm_id": 11124088154,
      "amenity": "cafe",
      "website": "https://www.patronsaintcle.com",
      "internet_access": "wlan",
      "addr_state": "OH",
      "addr_city": "Cleveland",
      "addr_postcode": "44113",
      "addr_street": "Detroit Avenue",
      "addr_housenumber": "2915",
      "value": 214.4292951606087
    },
    {
      "id": 232013,
      "geometry": "POINT (-81.684771 41.499638)",
      "poi_name": "Restore Cold Pressed",
      "osm_id": 4504963609,
      "amenity": "cafe",
      "cuisine": "juice",
      "opening_hours": "07:00-18:00",
      "takeaway": "yes",
      "addr_state": "OH",
      "addr_city": "Cleveland",
      "addr_postcode": "44115",
      "addr_street": "Huron Road East",
      "addr_housenumber": "1001",
      "value": 214.4292951606087
    },
    {
      "id": 235331,
      "geometry": "POINT (-81.708124 41.490937)",
      "poi_name": "Lekko Coffee",
      "osm_id": 5751809888,
      "amenity": "cafe",
      "cuisine": "coffee_shop",
      "opening_hours": "Mo-Su 07:00-19:00",
      "outdoor_seating": "no",
      "addr_state": "OH",
      "addr_city": "Cleveland",
      "addr_street": "Detroit Avenue",
      "addr_housenumber": "2529",
      "value": 214.4292951606087
    },
    {
      "id": 234051,
      "geometry": "POINT (-81.704495 41.442695)",
      "poi_name": "Old Brooklyn Nuitrition",
      "osm_id": 4600558419,
      "amenity": "cafe",
      "cuisine": "juice",
      "addr_state": "OH",
      "addr_city": "Cleveland",
      "addr_postcode": "44109",
      "addr_street": "Pearl Road",
      "addr_housenumber": "4138",
      "value": 214.4292951606087
    },
    {
      "id": 240655,
      "geometry": "POINT (-81.768749 41.461122)",
      "poi_name": "Ohio Kabob Grill",
      "osm_id": 5983438765,
      "amenity": "cafe",
      "cuisine": "afghan",
      "outdoor_seating": "no",
      "addr_state": "OH",
      "addr_city": "Cleveland",
      "addr_street": "West 117th Street",
      "addr_housenumber": "3359",
      "value": 214.4292951606087
    }
  ],
  "answer_type": "loc",
  "question_entities": {
    "[2]": {
      "distance": 110000,
      "text": "110 kilometers"
    },
    "[3]": {
      "main_category": "leisure",
      "sub_category": "garden",
      "display_name": "African American Cultural Garden, Cleveland, OH",
      "geo_wkt": "POINT (-81.629472 41.530044)",
      "poi": {
        "id": 247006,
        "geometry": "POINT (-81.629472 41.530044)",
        "poi_name": "African American Cultural Garden",
        "osm_id": 8567373858,
        "leisure": "garden",
        "fee": "no",
        "addr_state": "OH",
        "addr_city": "Cleveland",
        "addr_street": "Martin Luther King Junior Drive",
        "addr_housenumber": "890"
      }
    },
    "[4]": {
      "main_category": "tourism",
      "sub_category": "theme park",
      "display_name": "Go Ape Treetop Adventure Course, Strongsville, OH",
      "geo_wkt": "POINT (-81.818381 41.322133)",
      "poi": {
        "id": 14029,
        "geometry": "POINT (-81.818381 41.322133)",
        "poi_name": "Go Ape Treetop Adventure Course",
        "osm_id": 4214519779,
        "tourism": "theme_park",
        "operator": "Go Ape",
        "website": "https://goape.com/zip-line/mill-stream-run-reservation",
        "addr_state": "OH",
        "addr_city": "Strongsville",
        "addr_postcode": "44136",
        "addr_street": "Valley Parkway",
        "addr_housenumber": "16200"
      }
    },
    "[1]": {
      "main_category": "amenity",
      "sub_category": "cafe"
    }
  },
  "id": 1209,
  "type": "range:towards+loc"
}