{
  "question": "Where can I find caf\u00e9 on the way to Homewood Suites by Hilton Richmond-Downtown, Richmond, VA within 120 kilometers from 120 kilometers?",
  "sql": "WITH\n    angle AS (SELECT degrees(ST_Azimuth(ST_GeomFromText('POINT (-78.27531 37.826783)',4326)::geography, ST_GeomFromText('POINT (-77.437596 37.539521)',4326)::geography)) AS value)\nSELECT * FROM pois,angle\nWHERE amenity = 'cafe'\nAND ST_DWithin(pois.geometry, ST_GeomFromText('POINT (-78.27531 37.826783)',4326)::geography, 120000)\nAND (degrees(ST_Azimuth(ST_GeomFromText('POINT (-78.27531 37.826783)',4326)::geography, pois.geometry)) BETWEEN angle.value - 22.5 AND angle.value + 22.5);\n",
  "answers": [
    {
      "id": 42652,
      "geometry": "POINT (-77.452711 37.544397)",
      "poi_name": "821 Cafe",
      "osm_id": 3074376681,
      "amenity": "cafe",
      "description": "American eats & craft beer doled out in cool, brick-lined digs with counter stools & sidewalk seats.",
      "opening_hours": "Mo-We 08:00-22:00; Th-Fr 08:00-23:00; Sa 09:00-23:00; Su 09:00-22:00",
      "website": "https://www.821caferva.com/",
      "phone": "+1 804-649-1042",
      "addr_state": "VA",
      "addr_city": "Richmond",
      "addr_postcode": "23220",
      "addr_street": "West Cary Street",
      "addr_housenumber": "825",
      "value": 113.0825274983754
    },
    {
      "id": 42664,
      "geometry": "POINT (-77.478428 37.552486)",
      "poi_name": "Sugar & Twine",
      "osm_id": 3075525639,
      "amenity": "cafe",
      "opening_hours": "Mo-Sa 07:00-20:00; Su 07:00-18:00",
      "website": "https://www.sugartwine.com/",
      "internet_access": "wlan",
      "phone": "+1 804-204-1755",
      "toilets": "yes",
      "addr_state": "VA",
      "addr_street": "West Cary Street",
      "addr_housenumber": "2928",
      "value": 113.0825274983754
    },
    {
      "id": 42864,
      "geometry": "POINT (-77.591816 37.604582)",
      "poi_name": "Les Crepes",
      "osm_id": 3085339626,
      "amenity": "cafe",
      "description": "Local fresh French inspired cuisine",
      "opening_hours": "Mo-Fr 11:00-21:00; Sa 10:00-21:00; Su 10:00-20:00",
      "website": "https://www.lescrepesrva.com",
      "phone": "+1 804-495-3650",
      "addr_state": "VA",
      "addr_postcode": "23238",
      "addr_street": "Gaskins Road",
      "addr_housenumber": "1308",
      "value": 113.0825274983754
    },
    {
      "id": 43257,
      "geometry": "POINT (-77.357674 37.635659)",
      "poi_name": "Bell Cafe",
      "osm_id": 3103072163,
      "amenity": "cafe",
      "opening_hours": "Tu-Fr 07:00-21:00; Sa 09:00-21:00; Su 09:00-14:00",
      "website": "https://bellcafe.net/",
      "phone": "+1-804-746-4647",
      "addr_state": "VA",
      "addr_city": "Mechanicsville",
      "addr_postcode": "23116",
      "addr_street": "Bell Creek Road",
      "addr_housenumber": "8319",
      "value": 113.0825274983754
    },
    {
      "id": 47467,
      "geometry": "POINT (-77.444068 37.547165)",
      "poi_name": "Lift Coffee Shop",
      "osm_id": 3328148228,
      "amenity": "cafe",
      "opening_hours": "Mo-Fr 07:00-19:00;Sa 07:00-20:00;Su 08:00-19:00",
      "website": "http://www.liftcoffeeshop.com/",
      "phone": "+1 804-344-5438",
      "addr_state": "VA",
      "addr_city": "Richmond City",
      "addr_postcode": "23220",
      "addr_street": "West Broad Street",
      "addr_housenumber": "218",
      "value": 113.0825274983754
    },
    {
      "id": 47706,
      "geometry": "POINT (-77.482636 37.553977)",
      "poi_name": "Fuel Pump",
      "osm_id": 3343369862,
      "amenity": "cafe",
      "wheelchair": "limited",
      "internet_access": "wlan",
      "addr_state": "VA",
      "addr_city": "Richmond City",
      "addr_postcode": "23221",
      "addr_street": "West Cary Street",
      "addr_housenumber": "3200",
      "value": 113.0825274983754
    },
    {
      "id": 50770,
      "geometry": "POINT (-77.435631 37.542098)",
      "poi_name": "Richmond on Broad Cafe",
      "osm_id": 3505591547,
      "amenity": "cafe",
      "website": "richmondonbroad.com",
      "phone": "+1 804-955-4014",
      "addr_state": "VA",
      "addr_city": "Richmond",
      "addr_postcode": "23219",
      "addr_street": "East Broad Street",
      "addr_housenumber": "626",
      "value": 113.0825274983754
    },
    {
      "id": 73679,
      "geometry": "POINT (-77.603514 37.506584)",
      "poi_name": "Starbucks",
      "osm_id": 9650219350,
      "amenity": "cafe",
      "cuisine": "coffee_shop",
      "takeaway": "yes",
      "official_name": "Starbucks Coffee",
      "addr_state": "VA",
      "addr_city": "North Chesterfield",
      "addr_postcode": "23235",
      "addr_street": "Midlothian Turnpike",
      "addr_housenumber": "11136",
      "value": 113.0825274983754
    },
    {
      "id": 80052,
      "geometry": "POINT (-77.434038 37.535349)",
      "poi_name": "Urban Farmhouse Market & Cafe",
      "osm_id": 846282134,
      "amenity": "cafe",
      "description": "Fresh roasts & local, organic brunch fare in a sunny cafe with high-ceilings & cushy armchairs.",
      "website": "https://theurbanfarmhouse.net/",
      "phone": "+1 804-325-3988",
      "addr_state": "VA",
      "addr_city": "Richmond",
      "addr_postcode": "23219",
      "addr_street": "East Cary Street",
      "addr_housenumber": "1217",
      "value": 113.0825274983754
    },
    {
      "id": 80053,
      "geometry": "POINT (-77.434229 37.535032)",
      "poi_name": "Shockoe Espresso & Roastery",
      "osm_id": 846282136,
      "amenity": "cafe",
      "website": "https://www.millmountaincoffee.com/shockoe-espresso---roastery.html",
      "phone": "+1 804-648-3734",
      "addr_state": "VA",
      "addr_city": "Richmond City",
      "addr_postcode": "23219",
      "addr_street": "Shockoe Slip",
      "addr_housenumber": "104",
      "value": 113.0825274983754
    },
    {
      "id": 98919,
      "geometry": "POINT (-77.58253 37.64528)",
      "poi_name": "Kung Fu Tea",
      "osm_id": 6535436242,
      "amenity": "cafe",
      "cuisine": "bubble_tea",
      "shop": "tea",
      "takeaway": "yes",
      "addr_state": "VA",
      "addr_city": "Glen Allen",
      "addr_postcode": "23233",
      "addr_street": "West Broad Street",
      "addr_housenumber": "10827",
      "value": 113.0825274983754
    },
    {
      "id": 101127,
      "geometry": "POINT (-77.437002 37.525238)",
      "poi_name": "Plant Zero Cafe",
      "osm_id": 6611894637,
      "amenity": "cafe",
      "website": "www.PlantZeroCafe.com",
      "internet_access": "wlan",
      "phone": "+1 804-231-6500",
      "outdoor_seating": "yes",
      "addr_state": "VA",
      "addr_city": "Richmond City",
      "addr_postcode": "23224",
      "addr_street": "East 3rd Street",
      "addr_housenumber": "7",
      "value": 113.0825274983754
    },
    {
      "id": 104782,
      "geometry": "POINT (-77.481683 37.758271)",
      "poi_name": "The Caboose Wine and Cheese",
      "osm_id": 8587134958,
      "amenity": "cafe",
      "cuisine": "farm-to-table",
      "opening_hours": "Mo-Th 11:00-19:00; Fr-Sa 10:00-20:00",
      "website": "https://caboosewine.com/",
      "phone": "+1 804-798-2933",
      "addr_state": "VA",
      "addr_city": "Hanover County",
      "addr_postcode": "23005",
      "addr_street": "South Railroad Avenue",
      "addr_housenumber": "108",
      "value": 113.0825274983754
    },
    {
      "id": 110492,
      "geometry": "POINT (-77.466131 37.549166)",
      "poi_name": "Branch and Vine",
      "osm_id": 3706057842,
      "amenity": "cafe",
      "description": "Cafe, market, and caterer",
      "website": "https://www.branchvine.com/",
      "phone": "+1 804-355-5182",
      "addr_state": "VA",
      "addr_city": "Richmond",
      "addr_postcode": "23220",
      "addr_street": "West Main Street",
      "addr_housenumber": "2001\u00bd",
      "value": 113.0825274983754
    },
    {
      "id": 110516,
      "geometry": "POINT (-77.448864 37.550012)",
      "poi_name": "The Lab by Alchemy Coffee",
      "osm_id": 3707232725,
      "amenity": "cafe",
      "cuisine": "coffee_shop",
      "website": "https://alchemycoffeerva.com/",
      "phone": "+1 804-608-9873",
      "addr_state": "VA",
      "addr_city": "Richmond",
      "addr_postcode": "23220",
      "addr_street": "West Broad Street",
      "addr_housenumber": "814",
      "value": 113.0825274983754
    },
    {
      "id": 110734,
      "geometry": "POINT (-77.470827 37.556486)",
      "poi_name": "Starbucks",
      "osm_id": 3715943140,
      "amenity": "cafe",
      "cuisine": "coffee_shop",
      "phone": "+1 804-359-0971",
      "takeaway": "yes",
      "official_name": "Starbucks Coffee",
      "addr_state": "VA",
      "addr_city": "Richmond",
      "addr_postcode": "23220",
      "addr_street": "North Robinson Street",
      "addr_housenumber": "400",
      "value": 113.0825274983754
    },
    {
      "id": 110737,
      "geometry": "POINT (-77.475176 37.556533)",
      "poi_name": "Best Caf\u00e9",
      "osm_id": 3715943183,
      "amenity": "cafe",
      "cuisine": "american;barbecue;pizza;sandwich",
      "wheelchair": "yes",
      "opening_hours": "Sa-We 10:00-16:30; Th-Fr 10:00-20:30; PH Sa-We 10:00-16:30; PH Th-Fr 10:00-20:30",
      "operator": "Virginia Museum of Fine Arts",
      "website": "https://www.vmfa.museum/visit/dining/best-cafe/",
      "internet_access": "wlan",
      "takeaway": "no",
      "outdoor_seating": "yes",
      "delivery": "no",
      "addr_state": "VA",
      "addr_city": "Richmond",
      "addr_postcode": "23220",
      "addr_street": "North Boulevard",
      "addr_housenumber": "200",
      "value": 113.0825274983754
    },
    {
      "id": 114623,
      "geometry": "POINT (-77.400768 37.232157)",
      "poi_name": "Demolition Coffee",
      "osm_id": 3889543319,
      "amenity": "cafe",
      "addr_state": "VA",
      "addr_city": "Petersburg",
      "addr_postcode": "23803",
      "addr_street": "East Bank Street",
      "addr_housenumber": "215",
      "value": 113.0825274983754
    },
    {
      "id": 130215,
      "geometry": "POINT (-77.338719 37.61309)",
      "poi_name": "Rivers Edge Coffee Company",
      "osm_id": 9860438200,
      "amenity": "cafe",
      "cuisine": "coffee_shop",
      "website": "http://riversedgecoffee.com/",
      "phone": "+1 804-356-0903",
      "addr_state": "VA",
      "addr_city": "Mechanicsville",
      "addr_postcode": "23111",
      "addr_street": "Mechanicsville Turnpike",
      "addr_housenumber": "7032",
      "value": 113.0825274983754
    },
    {
      "id": 133434,
      "geometry": "POINT (-77.026646 37.491324)",
      "poi_name": "The Daily Fix",
      "osm_id": 9993133267,
      "amenity": "cafe",
      "cuisine": "coffee_shop",
      "website": "http://thedailyfixva.com/",
      "phone": "+1 804-557-5900",
      "addr_state": "VA",
      "addr_city": "New Kent",
      "addr_postcode": "23124",
      "addr_street": "Chesapeake Circle",
      "addr_housenumber": "6215",
      "value": 113.0825274983754
    },
    {
      "id": 130347,
      "geometry": "POINT (-77.566306 37.602208)",
      "poi_name": "Starbucks",
      "osm_id": 9867064617,
      "amenity": "cafe",
      "cuisine": "coffee_shop",
      "opening_hours": "Sa-Su 06:00-20:00; Mo-Fr 05:30-20:00",
      "website": "https://www.starbucks.com/",
      "internet_access": "wlan",
      "phone": "+1 804-740-2011",
      "takeaway": "yes",
      "official_name": "Starbucks Coffee",
      "addr_state": "VA",
      "addr_city": "Tuckahoe",
      "addr_postcode": "23229",
      "addr_street": "Quioccasin Road",
      "addr_housenumber": "8631",
      "value": 113.0825274983754
    },
    {
      "id": 136859,
      "geometry": "POINT (-77.476978 37.562496)",
      "poi_name": "North End Juice Co.",
      "osm_id": 6073941088,
      "amenity": "cafe",
      "opening_hours": "Mo-Su 08:00-22:00",
      "website": "https://www.northendjuiceco.com/",
      "internet_access": "no",
      "outdoor_seating": "yes",
      "addr_state": "VA",
      "addr_city": "Richmond",
      "addr_street": "North Cleveland Street",
      "addr_housenumber": "718",
      "value": 113.0825274983754
    },
    {
      "id": 154975,
      "geometry": "POINT (-77.475995 37.560447)",
      "poi_name": "Black Hand Coffee Co",
      "osm_id": 4264029246,
      "amenity": "cafe",
      "description": "Cozy, brick-lined cafe roasts its own beans daily & offers chai, bagels & bulk coffee.",
      "website": "https://blackhandcoffeeco.com/",
      "phone": "+1 804-855-0800",
      "addr_state": "VA",
      "addr_city": "Richmond",
      "addr_postcode": "23221",
      "addr_street": "Patterson Avenue",
      "addr_housenumber": "3103",
      "value": 113.0825274983754
    },
    {
      "id": 202379,
      "geometry": "POINT (-77.416137 37.531235)",
      "poi_name": "WPA Bakery",
      "osm_id": 7022410736,
      "amenity": "cafe",
      "cuisine": "regional",
      "website": "http://wpabakery.com",
      "internet_access": "yes",
      "phone": "+1 804-716-9797",
      "addr_state": "VA",
      "addr_city": "Richmond",
      "addr_postcode": "23223",
      "addr_street": "East Marshall Street",
      "addr_housenumber": "2707",
      "value": 113.0825274983754
    },
    {
      "id": 205216,
      "geometry": "POINT (-77.475378 37.551027)",
      "poi_name": "Roastology",
      "osm_id": 7160377595,
      "amenity": "cafe",
      "cuisine": "coffee_shop",
      "wheelchair": "yes",
      "opening_hours": "Mo-Fr 07:00-16:00; Sa-Su 08:00-16:00",
      "website": "https://www.roastologycoffee.com/",
      "phone": "+1 804-918-6486",
      "outdoor_seating": "yes",
      "addr_state": "VA",
      "addr_city": "Richmond City",
      "addr_postcode": "23220",
      "addr_street": "West Cary Street",
      "addr_housenumber": "2701",
      "value": 113.0825274983754
    },
    {
      "id": 234241,
      "geometry": "POINT (-77.518861 37.573139)",
      "poi_name": "Boyer's",
      "osm_id": 4613080590,
      "amenity": "cafe",
      "phone": "+1-804-288-4088",
      "addr_state": "VA",
      "addr_city": "Richmond",
      "addr_postcode": "23226",
      "addr_street": "Grove Avenue",
      "addr_housenumber": "5808",
      "value": 113.0825274983754
    },
    {
      "id": 234167,
      "geometry": "POINT (-77.468925 37.564339)",
      "poi_name": "Starbucks",
      "osm_id": 4609072654,
      "amenity": "cafe",
      "cuisine": "coffee_shop",
      "phone": "+1 804-367-4646",
      "takeaway": "yes",
      "drive_through": "yes",
      "official_name": "Starbucks Coffee",
      "addr_state": "VA",
      "addr_city": "Richmond City",
      "addr_postcode": "23230",
      "addr_street": "North Arthur Ashe Boulevard",
      "addr_housenumber": "1017",
      "value": 113.0825274983754
    },
    {
      "id": 221544,
      "geometry": "POINT (-77.452433 37.548072)",
      "poi_name": "Shake Smart",
      "osm_id": 10981798157,
      "amenity": "cafe",
      "cuisine": "milkshake;a\u00e7a\u00ed",
      "operator": "VCU Dining Services",
      "website": "https://vcu.campusdish.com/LocationsAndMenus/ShakeSmart",
      "addr_state": "VA",
      "addr_city": "Richmond",
      "addr_postcode": "23220",
      "addr_street": "Cathedral Place",
      "addr_housenumber": "810",
      "value": 113.0825274983754
    },
    {
      "id": 237642,
      "geometry": "POINT (-77.614624 37.520225)",
      "poi_name": "Sugar Shack Donuts",
      "osm_id": 5841734392,
      "amenity": "cafe",
      "cuisine": "donut",
      "opening_hours": "06:00-22:00",
      "website": "http://www.sugarshackdonuts.com/locations/midlo",
      "phone": "+1 804-728-1932",
      "outdoor_seating": "yes",
      "delivery": "yes",
      "toilets": "yes",
      "addr_state": "VA",
      "addr_street": "Huguenot Road",
      "addr_housenumber": "1931",
      "value": 113.0825274983754
    },
    {
      "id": 238627,
      "geometry": "POINT (-77.527042 37.621314)",
      "poi_name": "Noorani Kabab House",
      "osm_id": 5887335055,
      "amenity": "cafe",
      "opening_hours": "Mo 17:00-22:00; Tu-Th 11:00-22:00; Fr-Sa 11:00-23:00; Su 11:00-22:00",
      "website": "http://www.nooranikababhouse.com/",
      "phone": "+1 804-217-8055",
      "addr_state": "VA",
      "addr_city": "Henrico",
      "addr_postcode": "23294",
      "addr_street": "Hungary Spring Road",
      "addr_housenumber": "2757",
      "value": 113.0825274983754
    },
    {
      "id": 243919,
      "geometry": "POINT (-77.435223 37.535979)",
      "poi_name": "Starbucks",
      "osm_id": 7686351582,
      "amenity": "cafe",
      "cuisine": "coffee_shop",
      "opening_hours": "Mo-Su 07:00-14:00",
      "phone": "+1 804-521-4855",
      "takeaway": "yes",
      "official_name": "Starbucks Coffee",
      "addr_state": "VA",
      "addr_city": "Richmond",
      "addr_postcode": "23219",
      "addr_street": "South 12th Street",
      "addr_housenumber": "100",
      "value": 113.0825274983754
    },
    {
      "id": 243993,
      "geometry": "POINT (-77.430607 37.540442)",
      "poi_name": "Starbucks",
      "osm_id": 7691184561,
      "amenity": "cafe",
      "cuisine": "coffee_shop",
      "takeaway": "yes",
      "official_name": "Starbucks Coffee",
      "addr_state": "VA",
      "addr_city": "Richmond",
      "addr_postcode": "23298",
      "addr_street": "East Marshall Street",
      "addr_housenumber": "1200",
      "value": 113.0825274983754
    }
  ],
  "answer_type": "loc",
  "question_entities": {
    "[2]": {
      "distance": 120000,
      "text": "120 kilometers"
    },
    "[3]": {
      "main_category": "leisure",
      "sub_category": "stadium",
      "display_name": "Costello Stadium, Palmyra, VA",
      "geo_wkt": "POINT (-78.27531 37.826783)",
      "poi": {
        "id": 267563,
        "geometry": "POINT (-78.27531 37.826783)",
        "poi_name": "Costello Stadium",
        "osm_id": 7683085715,
        "leisure": "stadium",
        "operator": "Fluvanna County Public Schools",
        "addr_state": "VA",
        "addr_city": "Palmyra",
        "addr_postcode": "22963",
        "addr_street": "Central Plains Road",
        "addr_housenumber": "3717"
      }
    },
    "[4]": {
      "main_category": "tourism",
      "sub_category": "hotel",
      "display_name": "Homewood Suites by Hilton Richmond-Downtown, Richmond, VA",
      "geo_wkt": "POINT (-77.437596 37.539521)",
      "poi": {
        "id": 27085,
        "geometry": "POINT (-77.437596 37.539521)",
        "poi_name": "Homewood Suites by Hilton Richmond-Downtown",
        "osm_id": 7686351579,
        "tourism": "hotel",
        "website": "https://www.hilton.com/en/hotels/ricdohw-homewood-suites-richmond-downtown/",
        "phone": "+1 804-643-2900",
        "official_name": "Homewood Suites by Hilton",
        "addr_state": "VA",
        "addr_city": "Richmond",
        "addr_postcode": "23219",
        "addr_street": "East Main Street",
        "addr_housenumber": "700"
      }
    },
    "[1]": {
      "main_category": "amenity",
      "sub_category": "cafe"
    }
  },
  "id": 1257,
  "type": "range:towards+loc"
}