{
  "question": "Could you help me find an emergency hospital, preferably within a 90 kilometers radius of Shoals Marine Laboratory, ME?",
  "sql": "SELECT * FROM pois\nWHERE ST_DWithin(pois.geometry, ST_GeomFromText('POINT (-70.61465 42.987327)',4326)::geography, 90000)\nAND amenity = 'hospital'\nAND emergency ILIKE '%yes%';\n",
  "answers": [
    {
      "id": 188948,
      "geometry": "POINT (-71.070154 42.362739)",
      "poi_name": "Massachusetts Eye and Ear",
      "osm_id": 257489564,
      "amenity": "hospital",
      "opening_hours": "24/7",
      "website": "https://www.masseyeandear.org/",
      "phone": "+1 617 523 7900",
      "healthcare": "hospital",
      "emergency": "yes",
      "wikidata": "Q6784269",
      "addr_city": "Boston",
      "addr_postcode": "02114",
      "addr_street": "Charles Street",
      "addr_housenumber": "243"
    },
    {
      "id": 188950,
      "geometry": "POINT (-71.063996 42.349807)",
      "poi_name": "Floating Hospital for Children",
      "osm_id": 257489648,
      "amenity": "hospital",
      "opening_hours": "24/7",
      "operator": "Tufts Medical Center",
      "website": "https://www.floatinghospital.org/",
      "phone": "+1 617 636 8100",
      "healthcare": "hospital",
      "emergency": "yes",
      "wikidata": "Q22073805",
      "addr_city": "Boston",
      "addr_postcode": "02111",
      "addr_street": "Washington Street",
      "addr_housenumber": "755"
    },
    {
      "id": 188951,
      "geometry": "POINT (-70.906447 42.511844)",
      "poi_name": "MassGeneral for Children at North Shore Medical Center",
      "osm_id": 257489655,
      "amenity": "hospital",
      "opening_hours": "24/7",
      "website": "https://nsmc.partners.org/locations/nsmc_north_shore_childrens",
      "phone": "+1 978 745 2100",
      "healthcare": "hospital",
      "emergency": "yes",
      "addr_state": "MA",
      "addr_city": "Salem",
      "addr_postcode": "01970",
      "addr_street": "Highland Avenue",
      "addr_housenumber": "57"
    }
  ],
  "answer_type": "name",
  "question_entities": {
    "[1]": {
      "main_category": "amenity",
      "sub_category": "hospital",
      "poi_filter_desc": "emergency hospital",
      "poi_filter_sql": "emergency ILIKE '%yes%'"
    },
    "[2]": {
      "distance": 90000,
      "text": "90 kilometers"
    },
    "[3]": {
      "main_category": "amenity",
      "sub_category": "university",
      "display_name": "Shoals Marine Laboratory, ME",
      "geo_wkt": "POINT (-70.61465 42.987327)",
      "poi": {
        "id": 168199,
        "geometry": "POINT (-70.61465 42.987327)",
        "poi_name": "Shoals Marine Laboratory",
        "osm_id": 367795025,
        "amenity": "university",
        "wikidata": "Q7499746",
        "addr_state": "ME"
      }
    }
  },
  "id": 569,
  "type": "range:non_spat_filter+name"
}