{
  "question": "What restaurant is available on the path leading to Hotchkiss-Crawford Historical Museum, CO from Childrens's Nature Center, Grand Junction, CO, within a radius of 100 kilometers?",
  "sql": "WITH\n    angle AS (SELECT degrees(ST_Azimuth(ST_GeomFromText('POINT (-108.603856 39.09253)',4326)::geography, ST_GeomFromText('POINT (-107.720059 38.79804)',4326)::geography)) AS value)\nSELECT * FROM pois,angle\nWHERE amenity = 'restaurant'\nAND ST_DWithin(pois.geometry, ST_GeomFromText('POINT (-108.603856 39.09253)',4326)::geography, 100000)\nAND (degrees(ST_Azimuth(ST_GeomFromText('POINT (-108.603856 39.09253)',4326)::geography, pois.geometry)) BETWEEN angle.value - 22.5 AND angle.value + 22.5);\n",
  "answers": [
    {
      "id": 153754,
      "geometry": "POINT (-108.572991 39.07109)",
      "poi_name": "Fly'n Roosters",
      "osm_id": 4211404143,
      "amenity": "restaurant",
      "opening_hours": "Su-We 11:00-21:00; Th-Sa 11:00-22:00",
      "website": "https://flynroosters.com/",
      "phone": "+1-970-243-6727",
      "addr_state": "CO",
      "addr_city": "Grand Junction",
      "addr_postcode": "81501",
      "addr_street": "Grand Avenue",
      "addr_housenumber": "200",
      "value": 112.82928066373915
    },
    {
      "id": 70618,
      "geometry": "POINT (-107.584271 38.886304)",
      "poi_name": "Root and Vine Market",
      "osm_id": 11368646161,
      "amenity": "restaurant",
      "opening_hours": "Fr-Su 16:00-20:00",
      "website": "https://rootandvinemarket.com",
      "phone": "970-527-3236",
      "addr_state": "CO",
      "addr_city": "Paonia",
      "addr_postcode": "81428",
      "addr_street": "40823 CO-133",
      "value": 112.82928066373915
    },
    {
      "id": 152082,
      "geometry": "POINT (-107.60809 38.703289)",
      "poi_name": "Old Mad Dog Cafe",
      "osm_id": 4127019048,
      "amenity": "restaurant",
      "cuisine": "burger",
      "addr_city": "Crawford",
      "addr_postcode": "81415",
      "addr_street": "Highway 92",
      "value": 112.82928066373915
    },
    {
      "id": 153166,
      "geometry": "POINT (-108.070517 38.739886)",
      "poi_name": "Daveto's",
      "osm_id": 4181662881,
      "amenity": "restaurant",
      "cuisine": "italian",
      "opening_hours": "Tu-Th 11:00-21:00; Fr-Sa 11:00-22:00",
      "addr_state": "CO",
      "addr_city": "Delta",
      "addr_postcode": "81416",
      "addr_street": "Main Street",
      "addr_housenumber": "520",
      "value": 112.82928066373915
    },
    {
      "id": 153326,
      "geometry": "POINT (-108.0712 38.73715)",
      "poi_name": "House of Chin",
      "osm_id": 4190222839,
      "amenity": "restaurant",
      "cuisine": "oriental",
      "opening_hours": "Mo-Sa 11:00-21:00; Su closed",
      "phone": "+1-970-874-4884",
      "addr_state": "CO",
      "addr_city": "Delta",
      "addr_postcode": "81416",
      "addr_street": "Eaton Avenue",
      "addr_housenumber": "142",
      "value": 112.82928066373915
    },
    {
      "id": 89364,
      "geometry": "POINT (-107.598033 38.867123)",
      "poi_name": "Louie's Pizza",
      "osm_id": 8840501792,
      "amenity": "restaurant",
      "cuisine": "pizza",
      "value": 112.82928066373915
    },
    {
      "id": 89365,
      "geometry": "POINT (-107.598023 38.868402)",
      "poi_name": "Rio Bravo",
      "osm_id": 8840501794,
      "amenity": "restaurant",
      "cuisine": "mexican",
      "value": 112.82928066373915
    },
    {
      "id": 119709,
      "geometry": "POINT (-108.572586 39.071082)",
      "poi_name": "EC's Asian Station",
      "osm_id": 9118789094,
      "amenity": "restaurant",
      "cuisine": "chinese",
      "addr_state": "CO",
      "addr_city": "Grand Junction",
      "addr_postcode": "81501",
      "addr_street": "West Grand Avenue",
      "addr_housenumber": "200",
      "value": 112.82928066373915
    },
    {
      "id": 153172,
      "geometry": "POINT (-108.069537 38.730268)",
      "poi_name": "Pizza Hut",
      "osm_id": 4181682016,
      "amenity": "restaurant",
      "cuisine": "pizza",
      "opening_hours": "Mo-Th 11:00-22:00; Fr-Sa 11:00-23:00; Su 16:00-22:00",
      "phone": "+1-970-874-5721",
      "takeaway": "yes",
      "delivery": "yes",
      "addr_state": "CO",
      "addr_city": "Delta",
      "addr_postcode": "81416",
      "addr_street": "Main Street",
      "addr_housenumber": "1252",
      "value": 112.82928066373915
    },
    {
      "id": 153173,
      "geometry": "POINT (-108.065152 38.726681)",
      "poi_name": "Butche's",
      "osm_id": 4181682018,
      "amenity": "restaurant",
      "opening_hours": "07:00-14:00",
      "website": "http://butchscafe.com/",
      "phone": "+1-970-874-0542",
      "addr_state": "CO",
      "addr_city": "Delta",
      "addr_postcode": "81416",
      "addr_street": "South Main Street",
      "addr_housenumber": "1560",
      "value": 112.82928066373915
    },
    {
      "id": 153763,
      "geometry": "POINT (-108.592998 39.085297)",
      "poi_name": "Smokin' Oak",
      "osm_id": 4211447258,
      "amenity": "restaurant",
      "cuisine": "pizza",
      "value": 112.82928066373915
    },
    {
      "id": 153764,
      "geometry": "POINT (-108.594042 39.085668)",
      "poi_name": "Noodles & Company",
      "osm_id": 4211447259,
      "amenity": "restaurant",
      "cuisine": "pasta",
      "addr_state": "CO",
      "addr_city": "Grand Junction",
      "addr_postcode": "81505",
      "addr_street": "Highway 6 & 50",
      "addr_housenumber": "2454",
      "value": 112.82928066373915
    },
    {
      "id": 153765,
      "geometry": "POINT (-108.594202 39.085722)",
      "poi_name": "Genghis Grill",
      "osm_id": 4211447260,
      "amenity": "restaurant",
      "cuisine": "mongolian_grill",
      "website": "https://locations.genghisgrill.com/co/grandjunction/genghis-grill-1403.html",
      "addr_state": "CO",
      "addr_city": "Grand Junction",
      "addr_postcode": "81505",
      "addr_street": "Highway 6 & 50",
      "addr_housenumber": "2454",
      "value": 112.82928066373915
    },
    {
      "id": 154268,
      "geometry": "POINT (-108.55201 39.07884)",
      "poi_name": "Ekahi Grill To Go",
      "osm_id": 4230994400,
      "amenity": "restaurant",
      "cuisine": "hawaiian",
      "addr_state": "CO",
      "addr_city": "Grand Junction",
      "addr_postcode": "81501",
      "addr_street": "North 12th Street",
      "addr_housenumber": "1230",
      "value": 112.82928066373915
    },
    {
      "id": 155717,
      "geometry": "POINT (-108.571586 39.091485)",
      "poi_name": "First Watch",
      "osm_id": 4298775334,
      "amenity": "restaurant",
      "cuisine": "american;breakfast",
      "wheelchair": "yes",
      "opening_hours": "Mo-Su 07:00-14:30",
      "internet_access": "wlan",
      "official_name": "First Watch The Daytime Cafe",
      "addr_state": "CO",
      "addr_city": "Grand Junction",
      "addr_postcode": "81505",
      "addr_street": "West Park Drive",
      "addr_housenumber": "120",
      "value": 112.82928066373915
    },
    {
      "id": 154310,
      "geometry": "POINT (-108.560742 39.064154)",
      "poi_name": "Taqueria Guadelajara",
      "osm_id": 4232260185,
      "amenity": "restaurant",
      "cuisine": "mexican",
      "opening_hours": "Mo-Sa 08:00-17:00",
      "outdoor_seating": "no",
      "value": 112.82928066373915
    },
    {
      "id": 154315,
      "geometry": "POINT (-108.567613 39.077656)",
      "poi_name": "Pollo Azado",
      "osm_id": 4232370560,
      "amenity": "restaurant",
      "cuisine": "chicken;mexican",
      "addr_state": "CO",
      "addr_city": "Grand Junction",
      "addr_postcode": "81501",
      "addr_street": "North Avenue",
      "value": 112.82928066373915
    },
    {
      "id": 154318,
      "geometry": "POINT (-108.556256 39.077736)",
      "poi_name": "Sugar & Ice Co.",
      "osm_id": 4232398438,
      "amenity": "restaurant",
      "cuisine": "frozen_yogurt;ice_cream;coffee_shop;bubble_tea",
      "addr_state": "CO",
      "addr_city": "Grand Junction",
      "addr_postcode": "81501",
      "addr_street": "North Avenue",
      "addr_housenumber": "950",
      "value": 112.82928066373915
    },
    {
      "id": 155173,
      "geometry": "POINT (-108.497407 39.078839)",
      "poi_name": "Leon's",
      "osm_id": 4272288692,
      "amenity": "restaurant",
      "cuisine": "mexican",
      "opening_hours": "Tu-Th 11:00-20:30; Fr 11:00-21:30; Sa 10:00-21:00; Su 10:00-16:00",
      "phone": "+1-970-242-1388",
      "addr_state": "CO",
      "addr_city": "Grand Junction",
      "addr_postcode": "81504",
      "addr_street": "30 Road",
      "addr_housenumber": "507",
      "value": 112.82928066373915
    },
    {
      "id": 154231,
      "geometry": "POINT (-108.564745 39.068914)",
      "poi_name": "Bin 707 Food Bar",
      "osm_id": 4229039911,
      "amenity": "restaurant",
      "cuisine": "american",
      "wheelchair": "yes",
      "opening_hours": "Mo 16:30-21:00; Tu-Th 17:00-21:00; Fr-Sa 16:30-21:30",
      "website": "http://bin707.com/#the-kitchen",
      "phone": "+1 970 243 4543",
      "addr_city": "Grand Junction",
      "addr_street": "North 5th Street",
      "value": 112.82928066373915
    },
    {
      "id": 154349,
      "geometry": "POINT (-108.596719 39.08695)",
      "poi_name": "Tequila's",
      "osm_id": 4234124619,
      "amenity": "restaurant",
      "cuisine": "mexican",
      "addr_state": "CO",
      "addr_city": "Grand Junction",
      "addr_postcode": "81505",
      "addr_street": "Highway 6 and 50",
      "addr_housenumber": "2454",
      "value": 112.82928066373915
    },
    {
      "id": 181783,
      "geometry": "POINT (-108.586266 39.081178)",
      "poi_name": "Loncheria Rubi",
      "osm_id": 10863887868,
      "amenity": "restaurant",
      "cuisine": "mexican",
      "value": 112.82928066373915
    },
    {
      "id": 160128,
      "geometry": "POINT (-108.564246 39.0666)",
      "poi_name": "Taco Party",
      "osm_id": 4821412326,
      "amenity": "restaurant",
      "addr_street": "South 5th Street",
      "value": 112.82928066373915
    },
    {
      "id": 181638,
      "geometry": "POINT (-108.561739 39.077965)",
      "poi_name": "Mama Ree's Pizza + Brewhouse",
      "osm_id": 10858278587,
      "amenity": "restaurant",
      "cuisine": "pizza",
      "wheelchair": "limited",
      "opening_hours": "Su 11:00-21:00; Tu-Th 11:00-21:00; Fr-Sa 11:00-22:00",
      "website": "https://mamarees.com/",
      "phone": "+1-970-200-1234",
      "takeaway": "yes",
      "outdoor_seating": "yes",
      "addr_state": "CO",
      "addr_city": "Grand Junction",
      "addr_postcode": "81501",
      "addr_street": "North Avenue",
      "addr_housenumber": "664",
      "value": 112.82928066373915
    },
    {
      "id": 208594,
      "geometry": "POINT (-108.457518 39.0892)",
      "poi_name": "Chin Chin Chinese Restaurant",
      "osm_id": 4998576524,
      "amenity": "restaurant",
      "cuisine": "chinese",
      "value": 112.82928066373915
    },
    {
      "id": 208613,
      "geometry": "POINT (-108.512926 39.090627)",
      "poi_name": "Berna B's Restaurant",
      "osm_id": 4998751899,
      "amenity": "restaurant",
      "addr_state": "CO",
      "addr_city": "Grand Junction",
      "addr_postcode": "81504",
      "addr_street": "Patterson Road",
      "addr_housenumber": "2913",
      "value": 112.82928066373915
    },
    {
      "id": 211284,
      "geometry": "POINT (-107.713196 38.800181)",
      "poi_name": "Saddleback",
      "osm_id": 5150926123,
      "amenity": "restaurant",
      "value": 112.82928066373915
    },
    {
      "id": 210306,
      "geometry": "POINT (-108.553509 39.090914)",
      "poi_name": "Kuniko's Teriyaki Grill",
      "osm_id": 5093564792,
      "amenity": "restaurant",
      "cuisine": "japanese",
      "phone": "+1-970-241-9245",
      "addr_state": "CO",
      "addr_city": "Grand Junction",
      "addr_postcode": "81506",
      "addr_street": "Patterson Road",
      "addr_housenumber": "2695",
      "value": 112.82928066373915
    },
    {
      "id": 229585,
      "geometry": "POINT (-108.564329 39.077261)",
      "poi_name": "Pink's BBQ",
      "osm_id": 4387918392,
      "amenity": "restaurant",
      "addr_street": "North 5th Street",
      "value": 112.82928066373915
    },
    {
      "id": 223632,
      "geometry": "POINT (-108.070976 38.742675)",
      "poi_name": "C and J Cafe",
      "osm_id": 11059943325,
      "amenity": "restaurant",
      "value": 112.82928066373915
    },
    {
      "id": 228475,
      "geometry": "POINT (-108.572046 39.078008)",
      "poi_name": "No Coast Sushi",
      "osm_id": 4345049993,
      "amenity": "restaurant",
      "addr_state": "CO",
      "addr_city": "Grand Junction",
      "addr_postcode": "81501",
      "addr_street": "North 1st Street",
      "addr_housenumber": "1119",
      "value": 112.82928066373915
    },
    {
      "id": 228476,
      "geometry": "POINT (-108.573031 39.070614)",
      "poi_name": "Garden of Eat'n",
      "osm_id": 4345102536,
      "amenity": "restaurant",
      "cuisine": "salad",
      "phone": "+1-970-628-4802",
      "addr_state": "CO",
      "addr_city": "Grand Junction",
      "addr_postcode": "81501",
      "addr_street": "West Grand Avenue",
      "addr_housenumber": "200",
      "value": 112.82928066373915
    },
    {
      "id": 238601,
      "geometry": "POINT (-108.571074 39.072192)",
      "poi_name": "Thai Number 9",
      "osm_id": 5885295803,
      "amenity": "restaurant",
      "cuisine": "thai",
      "opening_hours": "Tu-Sa 11:00-15:00,16:00-21:00",
      "website": "https://www.facebook.com/ThaiNumber9/",
      "phone": "+1-970-549-4717",
      "takeaway": "yes",
      "value": 112.82928066373915
    },
    {
      "id": 240921,
      "geometry": "POINT (-108.526144 39.078406)",
      "poi_name": "Rib City Real BBQ & Great Ribs",
      "osm_id": 5999156707,
      "amenity": "restaurant",
      "cuisine": "barbecue",
      "opening_hours": "Mar-Aug Su-Th 11:00-21:00, Fr-Sa 11:00-21:30; Sep-Feb Su-Th 11:00-20:30, Fr-Sa 11:00-21:00",
      "phone": "+1-970-255-7330",
      "addr_street": "North Avenue",
      "addr_housenumber": "2836",
      "value": 112.82928066373915
    }
  ],
  "answer_type": "name",
  "question_entities": {
    "[2]": {
      "distance": 100000,
      "text": "100 kilometers"
    },
    "[3]": {
      "main_category": "tourism",
      "sub_category": "zoo",
      "display_name": "Childrens's Nature Center, Grand Junction, CO",
      "geo_wkt": "POINT (-108.603856 39.09253)",
      "poi": {
        "id": 8067,
        "geometry": "POINT (-108.603856 39.09253)",
        "poi_name": "Childrens's Nature Center",
        "osm_id": 6546260867,
        "description": "Zoo and aquarium great for children and exciting for all ages. Over 100 unique creatures and educational exhibits.",
        "tourism": "zoo",
        "opening_hours": "Su 12:00-16:00; Mo-Sa 10:00-16:00",
        "phone": "+1-970-241-1000",
        "addr_state": "CO",
        "addr_city": "Grand Junction",
        "addr_postcode": "81501",
        "addr_street": "US 6 and 50",
        "addr_housenumber": "2424"
      }
    },
    "[4]": {
      "main_category": "tourism",
      "sub_category": "museum",
      "display_name": "Hotchkiss-Crawford Historical Museum, CO",
      "geo_wkt": "POINT (-107.720059 38.79804)",
      "poi": {
        "id": 16692,
        "geometry": "POINT (-107.720059 38.79804)",
        "poi_name": "Hotchkiss-Crawford Historical Museum",
        "osm_id": 366396496,
        "tourism": "museum",
        "addr_state": "CO"
      }
    },
    "[1]": {
      "main_category": "amenity",
      "sub_category": "restaurant"
    }
  },
  "id": 1646,
  "type": "range:towards+name"
}