{
  "question": "Where can I find a takeout restaurant within 120 kilometers from Home2 Suites by Hilton Huntsville/Research Park Area, AL, Huntsville, AL?",
  "sql": "SELECT * FROM pois\nWHERE ST_DWithin(pois.geometry, ST_GeomFromText('POINT (-86.677811 34.709627)',4326)::geography, 120000)\nAND amenity = 'restaurant'\nAND takeaway ILIKE '%yes%';\n",
  "answers": [
    {
      "id": 50033,
      "geometry": "POINT (-86.480342 34.658915)",
      "poi_name": "Tortoras",
      "osm_id": 3462662528,
      "amenity": "restaurant",
      "cuisine": "italian",
      "opening_hours": "11:00-22:00",
      "takeaway": "yes",
      "addr_state": "AL",
      "addr_city": "Owens Cross Roads",
      "addr_postcode": "35763",
      "addr_street": "Old Hwy 431",
      "addr_housenumber": "182"
    },
    {
      "id": 126210,
      "geometry": "POINT (-86.630681 33.640471)",
      "poi_name": "Cici's Pizza",
      "osm_id": 6988554718,
      "amenity": "restaurant",
      "cuisine": "pizza;buffet",
      "wheelchair": "yes",
      "opening_hours": "Mo-Th 11:00-22:00; Fr, Sa 11:00-23:00; Su 11:00-22:00",
      "website": "https://www.cicis.com/locations/al-trussville-5915-trussville-crossing-parkway",
      "phone": "+1-205-203-8661",
      "takeaway": "yes",
      "delivery": "yes",
      "addr_state": "AL",
      "addr_city": "Trussville",
      "addr_postcode": "35235",
      "addr_street": "Trussville Crossings Parkway",
      "addr_housenumber": "5915"
    },
    {
      "id": 87405,
      "geometry": "POINT (-86.961665 34.788714)",
      "poi_name": "Ninja Grill Suchi and Bar",
      "osm_id": 8712951238,
      "amenity": "restaurant",
      "cuisine": "japanese;steak_house;sushi",
      "phone": "+1-256-998-5088",
      "takeaway": "yes",
      "outdoor_seating": "no",
      "addr_state": "AL",
      "addr_city": "Athens",
      "addr_postcode": "35611",
      "addr_street": "US Highway 72 East",
      "addr_housenumber": "935"
    },
    {
      "id": 113032,
      "geometry": "POINT (-86.741361 34.709784)",
      "poi_name": "La Placita",
      "osm_id": 3814744526,
      "amenity": "restaurant",
      "cuisine": "mexican",
      "takeaway": "yes",
      "addr_state": "AL",
      "addr_city": "madison",
      "addr_postcode": "35758",
      "addr_street": "Hughes Road",
      "addr_housenumber": "401"
    },
    {
      "id": 139872,
      "geometry": "POINT (-86.588723 34.712278)",
      "poi_name": "Farm Burger",
      "osm_id": 6219663555,
      "amenity": "restaurant",
      "cuisine": "burger",
      "opening_hours": "Mo-Su 11:00-21:00",
      "website": "https://farmburger.com/huntsville-al/",
      "phone": "+1-256-270-7392",
      "takeaway": "yes",
      "outdoor_seating": "yes",
      "addr_state": "AL",
      "addr_city": "Huntsville",
      "addr_postcode": "35801",
      "addr_street": "Bob Wallace Avenue Southwest",
      "addr_housenumber": "930"
    },
    {
      "id": 136046,
      "geometry": "POINT (-86.313264 34.322362)",
      "poi_name": "Brazos Restaurant",
      "osm_id": 11557739481,
      "amenity": "restaurant",
      "cuisine": "mediterranean;barbecue;sandwich;kebab",
      "description": "Welcome to Brazos Restaurant a delightful Mediterranean restaurant where the essence of family, tradition, and the rich flavors of the Mediterranean cuisine come together in a symphony of taste. Our name, Brazos Restaurant, reflects the heart and soul of",
      "wheelchair": "yes",
      "opening_hours": "Mo-Su 10:00-22:00",
      "website": "https://brazosrestaurant.com/",
      "capacity": "70",
      "internet_access": "wlan",
      "phone": "+12564863721",
      "takeaway": "yes",
      "delivery": "yes",
      "addr_state": "AL",
      "addr_city": "Guntersville",
      "addr_postcode": "35976",
      "addr_street": "US-431",
      "addr_housenumber": "14365"
    },
    {
      "id": 203201,
      "geometry": "POINT (-86.684017 33.633487)",
      "poi_name": "Zatie's Southern Cuisine",
      "osm_id": 7070237634,
      "amenity": "restaurant",
      "cuisine": "southern",
      "opening_hours": "Mo-Fr 10:30-20:00; Sa off; Su 10:30-17:00",
      "phone": "+1-205-518-5559",
      "takeaway": "yes",
      "delivery": "yes",
      "addr_state": "AL",
      "addr_city": "Center Point",
      "addr_postcode": "35215",
      "addr_street": "Center Point Parkway",
      "addr_housenumber": "1805"
    },
    {
      "id": 161995,
      "geometry": "POINT (-86.788092 34.731847)",
      "poi_name": "Saffron Indian Restaurant closed",
      "osm_id": 4909754563,
      "amenity": "restaurant",
      "cuisine": "indian",
      "opening_hours": "closed",
      "website": "http://madisonsaffron.com/",
      "phone": "+1-256-233-1085",
      "takeaway": "yes",
      "outdoor_seating": "no",
      "toilets": "yes",
      "addr_state": "AL",
      "addr_city": "Madison",
      "addr_postcode": "35756",
      "addr_street": "County Line Road",
      "addr_housenumber": "12090"
    },
    {
      "id": 140105,
      "geometry": "POINT (-86.187317 34.262948)",
      "poi_name": "Legghorn's Cafe",
      "osm_id": 6231488862,
      "amenity": "restaurant",
      "cuisine": "chicken;burger",
      "wheelchair": "yes",
      "opening_hours": "Mo-Th 11:00-21:00, Fr-Sa 11:00-22:30, Su 11:00-14:00",
      "website": "http://www.legghorns.com",
      "phone": "256-857-7181",
      "takeaway": "yes",
      "outdoor_seating": "yes",
      "restaurant": "restaurant",
      "addr_state": "AL",
      "addr_city": "Albertville",
      "addr_postcode": "35950",
      "addr_street": "US Highway 431",
      "addr_housenumber": "5850"
    },
    {
      "id": 204512,
      "geometry": "POINT (-86.519671 33.702526)",
      "poi_name": "Fox's Pizza Den",
      "osm_id": 7129710792,
      "amenity": "restaurant",
      "cuisine": "pizza",
      "opening_hours": "Su-Th 10:30-21:00; Fr, Sa 10:30-22:00",
      "website": "https://www.foxspizza.com/locations/al/argo/argo-al-28/index.html",
      "phone": "+1-205-467-3444",
      "takeaway": "yes",
      "delivery": "yes",
      "addr_state": "AL",
      "addr_city": "Argo",
      "addr_postcode": "35173",
      "addr_street": "US Highway 11",
      "addr_housenumber": "750"
    },
    {
      "id": 213188,
      "geometry": "POINT (-86.678822 34.743221)",
      "poi_name": "Jason's Deli",
      "osm_id": 5239970247,
      "amenity": "restaurant",
      "cuisine": "sandwich",
      "opening_hours": "Mo-Su 10:00-22:00",
      "takeaway": "yes",
      "outdoor_seating": "yes",
      "delivery": "yes",
      "addr_state": "AL",
      "addr_city": "Huntsville",
      "addr_postcode": "35806",
      "addr_street": "Enterprise Way Northwest",
      "addr_housenumber": "1395"
    },
    {
      "id": 207974,
      "geometry": "POINT (-86.495907 34.317214)",
      "poi_name": "L Rancho Cafe",
      "osm_id": 4969476309,
      "amenity": "restaurant",
      "cuisine": "regional",
      "description": "L' Rancho Cafe in Arab, Alabama. Home of the Poke Salat Festival! We are a small southern cafe located in old downtown Arab. We are the OLDEST cafe in town.",
      "opening_hours": "Tu-Sa 06:30-14:30",
      "capacity": "25",
      "takeaway": "yes",
      "outdoor_seating": "no",
      "addr_state": "AL",
      "addr_city": "Arab",
      "addr_postcode": "35016",
      "addr_street": "North Main Street",
      "addr_housenumber": "41"
    },
    {
      "id": 220083,
      "geometry": "POINT (-87.035342 35.620614)",
      "poi_name": "Victor's Taco Shop",
      "osm_id": 9358344341,
      "amenity": "restaurant",
      "cuisine": "mexican",
      "takeaway": "yes",
      "outdoor_seating": "yes",
      "addr_state": "TN",
      "addr_city": "Columbia",
      "addr_street": "West 3rd Street",
      "addr_housenumber": "200"
    },
    {
      "id": 229719,
      "geometry": "POINT (-86.93245 34.78074)",
      "poi_name": "Casa Blanca",
      "osm_id": 4396616331,
      "amenity": "restaurant",
      "cuisine": "mexican",
      "website": "http://www.casablancaalabama.com/",
      "takeaway": "yes",
      "outdoor_seating": "no",
      "toilets": "yes",
      "addr_state": "AL",
      "addr_city": "Athens",
      "addr_postcode": "35611",
      "addr_street": "US Highway 72 East",
      "addr_housenumber": "1802"
    },
    {
      "id": 235243,
      "geometry": "POINT (-86.540674 34.660938)",
      "poi_name": "Casa Blanca",
      "osm_id": 5749611258,
      "amenity": "restaurant",
      "cuisine": "mexican",
      "opening_hours": "Su-Th 11:00-21:00, Fr-Sa 11:00-22:00",
      "website": "casablancaalabama.com",
      "phone": "+1 256 883 4447",
      "takeaway": "yes",
      "outdoor_seating": "no",
      "delivery": "no",
      "addr_state": "AL",
      "addr_city": "Huntsville",
      "addr_postcode": "35802",
      "addr_street": "Bailey Cove Road Southeast",
      "addr_housenumber": "7900"
    },
    {
      "id": 244572,
      "geometry": "POINT (-86.614388 33.638638)",
      "poi_name": "Pizza Hut",
      "osm_id": 7732075872,
      "amenity": "restaurant",
      "cuisine": "pizza",
      "opening_hours": "Su-Th 10:00-22:00; Fr, Sa 10:00-23:00",
      "website": "https://locations.pizzahut.com/al/trussville/1110-n-chalkville-rd",
      "phone": "+1-205-655-3676",
      "takeaway": "yes",
      "delivery": "yes",
      "addr_state": "AL",
      "addr_city": "Trussville",
      "addr_postcode": "35173",
      "addr_street": "Chalkville Road North",
      "addr_housenumber": "1110"
    }
  ],
  "answer_type": "loc",
  "question_entities": {
    "[1]": {
      "main_category": "amenity",
      "sub_category": "restaurant",
      "poi_filter_desc": "takeout restaurant",
      "poi_filter_sql": "takeaway ILIKE '%yes%'"
    },
    "[2]": {
      "distance": 120000,
      "text": "120 kilometers"
    },
    "[3]": {
      "main_category": "tourism",
      "sub_category": "hotel",
      "display_name": "Home2 Suites by Hilton Huntsville/Research Park Area, AL, Huntsville, AL",
      "geo_wkt": "POINT (-86.677811 34.709627)",
      "poi": {
        "id": 27048,
        "geometry": "POINT (-86.677811 34.709627)",
        "poi_name": "Home2 Suites by Hilton Huntsville/Research Park Area, AL",
        "osm_id": 7663810596,
        "tourism": "hotel",
        "wheelchair": "yes",
        "website": "https://www.hilton.com/en/hotels/hsvrpht-home2-suites-huntsville-research-park-area-al/",
        "internet_access": "yes",
        "phone": "+1-256-971-1667",
        "addr_state": "AL",
        "addr_city": "Huntsville",
        "addr_postcode": "35806",
        "addr_street": "Cabela Drive",
        "addr_housenumber": "7010"
      }
    }
  },
  "id": 494,
  "type": "range:non_spat_filter+loc"
}