{
  "question": "Where can I find a american restaurant within 160 kilometers from Ritter Park Rose Garden, Huntington, WV?",
  "sql": "SELECT * FROM pois\nWHERE ST_DWithin(pois.geometry, ST_GeomFromText('POINT (-82.440699 38.406448)',4326)::geography, 160000)\nAND amenity = 'restaurant'\nAND cuisine ILIKE '%american%';\n",
  "answers": [
    {
      "id": 36257,
      "geometry": "POINT (-82.841202 38.575075)",
      "poi_name": "Gerber's",
      "osm_id": 2758357505,
      "amenity": "restaurant",
      "cuisine": "american",
      "addr_city": "Greenup",
      "addr_postcode": "41144",
      "addr_housenumber": "4 US 23 Hwy"
    },
    {
      "id": 39654,
      "geometry": "POINT (-82.683769 38.532406)",
      "poi_name": "Patties & Pints",
      "osm_id": 2933395959,
      "amenity": "restaurant",
      "cuisine": "burger;american",
      "phone": "(740) 533-1111",
      "addr_city": "Ironton",
      "addr_postcode": "45638",
      "addr_street": "South 2nd Street",
      "addr_housenumber": "422"
    },
    {
      "id": 42656,
      "geometry": "POINT (-84.250849 38.21138)",
      "poi_name": "Thyme Cafe and Catering",
      "osm_id": 3075423114,
      "amenity": "restaurant",
      "cuisine": "american",
      "phone": "859-987-1488",
      "addr_city": "Paris",
      "addr_postcode": "40361",
      "addr_street": "Main Street",
      "addr_housenumber": "509"
    },
    {
      "id": 52525,
      "geometry": "POINT (-81.156244 37.929464)",
      "poi_name": "Cold Spot Glen Jean",
      "osm_id": 10033793723,
      "amenity": "restaurant",
      "cuisine": "chicken;burger;american",
      "opening_hours": "Mo-Su 10:00-22:00",
      "website": "https://www.thecoldspot.com",
      "phone": "+1 304-469-9464",
      "addr_state": "Wv",
      "addr_city": "Glen Jean",
      "addr_postcode": "25846",
      "addr_street": "Legends Highway",
      "addr_housenumber": "4955"
    },
    {
      "id": 57419,
      "geometry": "POINT (-82.10231 39.327698)",
      "poi_name": "Jackie O's Public House",
      "osm_id": 5335751392,
      "amenity": "restaurant",
      "cuisine": "american;beer",
      "opening_hours": "Mo-Su 11:00-23:00",
      "outdoor_seating": "yes",
      "addr_state": "OH",
      "addr_city": "Athens",
      "addr_postcode": "45701",
      "addr_street": "West Union Street",
      "addr_housenumber": "22"
    },
    {
      "id": 73640,
      "geometry": "POINT (-81.800319 37.09421)",
      "poi_name": "The Railway Depot",
      "osm_id": 9647389943,
      "amenity": "restaurant",
      "cuisine": "american;sandwich",
      "opening_hours": "Mo-Su 10:00-21:00",
      "website": "https://www.facebook.com/TheRailwayDepot",
      "phone": "(276) 598-4487",
      "addr_state": "VA",
      "addr_city": "Richlands",
      "addr_postcode": "24641",
      "addr_street": "Front Street",
      "addr_housenumber": "1557"
    },
    {
      "id": 117567,
      "geometry": "POINT (-81.05289 39.258848)",
      "poi_name": "Dodd's Log Cabin Grill",
      "osm_id": 9000060000,
      "amenity": "restaurant",
      "cuisine": "american;burger;sandwich",
      "website": "http://www.doddslogcabin.com/",
      "phone": "+13048693663",
      "addr_state": "WV",
      "addr_city": "Ellenboro",
      "addr_postcode": "26346",
      "addr_street": "County Route 16/7",
      "addr_housenumber": "314"
    },
    {
      "id": 163387,
      "geometry": "POINT (-81.804788 37.09493)",
      "poi_name": "Coaltown Taps",
      "osm_id": 9414229294,
      "amenity": "restaurant",
      "cuisine": "american",
      "opening_hours": "Tu-Th 11:00-15:00,17:00-21:00, Fr-Sa 11:00-15:00,17:00-21:00",
      "website": "https://www.coaltowntaps.com/",
      "phone": "(276) 345-4310",
      "addr_state": "VA",
      "addr_city": "Richlands",
      "addr_postcode": "24641",
      "addr_street": "Fairfax Avenue",
      "addr_housenumber": "108"
    },
    {
      "id": 151595,
      "geometry": "POINT (-80.662828 38.698496)",
      "poi_name": "Woods and Waters",
      "osm_id": 4106760876,
      "amenity": "restaurant",
      "cuisine": "american",
      "addr_state": "WV",
      "addr_city": "Sutton",
      "addr_postcode": "26601",
      "addr_street": "Day's Drive"
    },
    {
      "id": 130133,
      "geometry": "POINT (-81.455275 39.417837)",
      "poi_name": "Neader's Diner",
      "osm_id": 9855828159,
      "amenity": "restaurant",
      "cuisine": "american",
      "addr_state": "OH",
      "addr_city": "Marietta",
      "addr_postcode": "45750",
      "addr_street": "3rd Street",
      "addr_housenumber": "343"
    },
    {
      "id": 175196,
      "geometry": "POINT (-82.516252 37.481343)",
      "poi_name": "The Blue Raven",
      "osm_id": 2508347363,
      "amenity": "restaurant",
      "cuisine": "american",
      "addr_state": "KY",
      "addr_city": "Pikeville",
      "addr_postcode": "41501",
      "addr_street": "Main Street",
      "addr_housenumber": "211"
    },
    {
      "id": 163374,
      "geometry": "POINT (-81.80819 37.094514)",
      "poi_name": "Huddle House",
      "osm_id": 9414079915,
      "amenity": "restaurant",
      "cuisine": "american",
      "opening_hours": "Su-Th 06:00-22:00, Fr-Sa 06:00-00:00",
      "website": "https://locations.huddlehouse.com/va/richlands/2611-front-st",
      "phone": "(276) 345-9211",
      "addr_state": "VA",
      "addr_city": "Richlands",
      "addr_postcode": "24641",
      "addr_street": "Front Street",
      "addr_housenumber": "2611"
    },
    {
      "id": 175762,
      "geometry": "POINT (-83.435399 38.174462)",
      "poi_name": "Buffalo Wild Wings",
      "osm_id": 2537359598,
      "amenity": "restaurant",
      "cuisine": "chicken;american",
      "addr_state": "KY"
    },
    {
      "id": 197556,
      "geometry": "POINT (-81.455454 39.414708)",
      "poi_name": "J's BBQ and Grill",
      "osm_id": 10653030847,
      "amenity": "restaurant",
      "cuisine": "american",
      "phone": "+1-740-516-8304",
      "addr_state": "OH",
      "addr_city": "Marietta",
      "addr_street": "Putnam Street",
      "addr_housenumber": "114"
    },
    {
      "id": 224589,
      "geometry": "POINT (-81.797803 37.093957)",
      "poi_name": "Golden Girls Diner",
      "osm_id": 11088404081,
      "amenity": "restaurant",
      "cuisine": "american",
      "opening_hours": "Mo-Sa 11:00-21:00, 12:00-21:00",
      "phone": "+1-276-282-4343",
      "addr_state": "VA",
      "addr_city": "Richlands",
      "addr_postcode": "24641",
      "addr_street": "Suffolk Avenue",
      "addr_housenumber": "169"
    }
  ],
  "answer_type": "loc",
  "question_entities": {
    "[1]": {
      "main_category": "amenity",
      "sub_category": "restaurant",
      "poi_filter_desc": "american restaurant",
      "poi_filter_sql": "cuisine ILIKE '%american%'"
    },
    "[2]": {
      "distance": 160000,
      "text": "160 kilometers"
    },
    "[3]": {
      "main_category": "leisure",
      "sub_category": "garden",
      "display_name": "Ritter Park Rose Garden, Huntington, WV",
      "geo_wkt": "POINT (-82.440699 38.406448)",
      "poi": {
        "id": 248616,
        "geometry": "POINT (-82.440699 38.406448)",
        "poi_name": "Ritter Park Rose Garden",
        "osm_id": 4683706042,
        "leisure": "garden",
        "addr_state": "WV",
        "addr_city": "Huntington",
        "addr_postcode": "25701",
        "addr_street": "McCoy Road",
        "addr_housenumber": "1501"
      }
    }
  },
  "id": 401,
  "type": "range:non_spat_filter+loc"
}