{
  "question": "Which direction leads to a restaurant from Rock Regional Hospital, Derby, KS within a range of 10 kilometers?",
  "sql": "SELECT *, degrees(ST_Azimuth(ST_GeomFromText('POINT (-97.247136 37.582925)',4326)::geography, pois.geometry)) AS angle FROM pois\nWHERE ST_DWithin(pois.geometry, ST_GeomFromText('POINT (-97.247136 37.582925)',4326)::geography, 10000)\nAND amenity = 'restaurant';\n",
  "answers": [
    {
      "id": 34072,
      "geometry": "POINT (-97.329374 37.606929)",
      "poi_name": "El Jalisco Mexican Restaurant",
      "osm_id": 2693011429,
      "amenity": "restaurant",
      "cuisine": "mexican",
      "phone": "+1-316-260-4646",
      "addr_city": "Wichita",
      "addr_street": "East 47th Street South",
      "addr_housenumber": "627",
      "angle": 290.1693591416018
    },
    {
      "id": 35706,
      "geometry": "POINT (-97.269554 37.542015)",
      "poi_name": "Pizza John's",
      "osm_id": 2728377403,
      "amenity": "restaurant",
      "cuisine": "pizza",
      "website": "http://pizzajohnsderby.com/",
      "addr_street": "South Baltimore Avenue",
      "addr_housenumber": "208",
      "angle": 203.5739519918394
    },
    {
      "id": 36086,
      "geometry": "POINT (-97.299538 37.636118)",
      "poi_name": "Chiang Mai Thai",
      "osm_id": 2749090112,
      "amenity": "restaurant",
      "cuisine": "asian",
      "website": "http://chiangmaithaiks.com/",
      "addr_street": "South Hillside Avenue",
      "addr_housenumber": "3141",
      "angle": 321.92950712813985
    },
    {
      "id": 36095,
      "geometry": "POINT (-97.333433 37.6097)",
      "poi_name": "La Fiesta",
      "osm_id": 2749353547,
      "amenity": "restaurant",
      "cuisine": "mexican",
      "website": "http://lafiestawichita.com/",
      "addr_street": "South Broadway Avenue",
      "addr_housenumber": "4722",
      "angle": 291.3286743566
    },
    {
      "id": 69791,
      "geometry": "POINT (-97.243377 37.564829)",
      "poi_name": "Olive Garden",
      "osm_id": 11331401312,
      "amenity": "restaurant",
      "cuisine": "italian",
      "angle": 170.611011904234
    },
    {
      "id": 69793,
      "geometry": "POINT (-97.243462 37.5669)",
      "poi_name": "IHOP",
      "osm_id": 11331401317,
      "amenity": "restaurant",
      "cuisine": "breakfast;pancake",
      "angle": 169.6578603543424
    },
    {
      "id": 69794,
      "geometry": "POINT (-97.243522 37.56743)",
      "poi_name": "Buffalo Wild Wings",
      "osm_id": 11331401318,
      "amenity": "restaurant",
      "cuisine": "wings",
      "angle": 169.48326941002776
    },
    {
      "id": 69798,
      "geometry": "POINT (-97.245037 37.572472)",
      "poi_name": "McAlister's Deli",
      "osm_id": 11331401328,
      "amenity": "restaurant",
      "cuisine": "sandwich",
      "angle": 170.91732217103853
    },
    {
      "id": 81735,
      "geometry": "POINT (-97.316827 37.650201)",
      "poi_name": "Pizza Hut",
      "osm_id": 1660355355,
      "amenity": "restaurant",
      "cuisine": "pizza",
      "addr_postcode": "67211",
      "addr_street": "E. Pawnee St.",
      "addr_housenumber": "1708",
      "angle": 320.5321082908939
    },
    {
      "id": 81703,
      "geometry": "POINT (-97.290054 37.664195)",
      "poi_name": "Shanghai Chinese Restaurant",
      "osm_id": 1657273777,
      "amenity": "restaurant",
      "cuisine": "chinese",
      "addr_postcode": "67218-3722",
      "addr_street": "East Harry Street",
      "addr_housenumber": "3815",
      "angle": 337.2290145264882
    },
    {
      "id": 78630,
      "geometry": "POINT (-97.28533 37.663997)",
      "poi_name": "Ourr's",
      "osm_id": 761332313,
      "amenity": "restaurant",
      "angle": 339.4699273421211
    },
    {
      "id": 78633,
      "geometry": "POINT (-97.288634 37.665041)",
      "poi_name": "Denny's",
      "osm_id": 761334419,
      "amenity": "restaurant",
      "cuisine": "american",
      "angle": 338.11484358538075
    },
    {
      "id": 160759,
      "geometry": "POINT (-97.243821 37.56195)",
      "poi_name": "Rib Crib",
      "osm_id": 4846371568,
      "amenity": "restaurant",
      "website": "https://ribcrib.com/locations/?location=derby",
      "angle": 172.82954785349463
    },
    {
      "id": 97148,
      "geometry": "POINT (-97.245927 37.665063)",
      "poi_name": "Jackie Chan Sushi",
      "osm_id": 6464825888,
      "amenity": "restaurant",
      "cuisine": "japanese",
      "angle": 0.6703294463557837
    },
    {
      "id": 160760,
      "geometry": "POINT (-97.243694 37.557639)",
      "poi_name": "Village Inn",
      "osm_id": 4846371569,
      "amenity": "restaurant",
      "cuisine": "american",
      "opening_hours": "Mo-Su 06:00-21:00",
      "addr_city": "Derby",
      "addr_postcode": "67037",
      "addr_street": "North Rock Road",
      "addr_housenumber": "1200",
      "angle": 173.8146984146599
    },
    {
      "id": 160761,
      "geometry": "POINT (-97.245028 37.558483)",
      "poi_name": "Applebee's",
      "osm_id": 4846371570,
      "amenity": "restaurant",
      "cuisine": "american",
      "official_name": "Applebee's Neighborhood Grill & Bar",
      "addr_city": "Derby",
      "addr_postcode": "67037",
      "addr_street": "North Rock Road",
      "addr_housenumber": "1245",
      "angle": 176.0720983878755
    },
    {
      "id": 191348,
      "geometry": "POINT (-97.245082 37.662792)",
      "poi_name": "Village Inn",
      "osm_id": 1358882731,
      "amenity": "restaurant",
      "cuisine": "american",
      "angle": 1.171182068741752
    },
    {
      "id": 226739,
      "geometry": "POINT (-97.333298 37.605891)",
      "poi_name": "Carlos O'Kelly's",
      "osm_id": 11167151448,
      "amenity": "restaurant",
      "cuisine": "mexican",
      "opening_hours": "Su 11:00-21:00; Mo-Sa 11:00-22:00",
      "website": "https://carlosokellys.com/restaurant-locations/item/179-wichita-47th-broadway-south.html",
      "phone": "+1-316-554-1700",
      "addr_state": "KS",
      "addr_city": "Wichita",
      "addr_postcode": "67216",
      "addr_street": "South Broadway Street",
      "addr_housenumber": "4872",
      "angle": 288.54603869038743
    },
    {
      "id": 211134,
      "geometry": "POINT (-97.357642 37.564687)",
      "poi_name": "La Pasadita Grill",
      "osm_id": 5141964735,
      "amenity": "restaurant",
      "cuisine": "mexican",
      "takeaway": "yes",
      "outdoor_seating": "yes",
      "addr_state": "KS",
      "addr_city": "Haysville",
      "addr_postcode": "67060",
      "addr_street": "West Grand Avenue",
      "addr_housenumber": "418",
      "angle": 258.3188442515747
    },
    {
      "id": 220216,
      "geometry": "POINT (-97.326038 37.606234)",
      "poi_name": "IHOP",
      "osm_id": 9365904014,
      "amenity": "restaurant",
      "cuisine": "breakfast;pancake",
      "description": "Long-standing chain serving a wide variety of pancakes & other American breakfast & diner fare.",
      "opening_hours": "Mo-Su 06:00-00:00",
      "website": "https://restaurants.ihop.com/en-us/ks/wichita/breakfast-4870-s-washington-ave-2118",
      "phone": "+1-316-522-2118",
      "addr_street": "Washington South",
      "addr_housenumber": "4870",
      "angle": 290.3919952379831
    },
    {
      "id": 236336,
      "geometry": "POINT (-97.225404 37.666323)",
      "poi_name": "Gambino's Pizza",
      "osm_id": 5790394354,
      "amenity": "restaurant",
      "addr_city": "Wichita",
      "addr_postcode": "67207",
      "addr_street": "South Webb Road",
      "addr_housenumber": "1520",
      "angle": 11.702809310214578
    }
  ],
  "answer_type": "angle",
  "question_entities": {
    "[1]": {
      "main_category": "amenity",
      "sub_category": "restaurant"
    },
    "[2]": {
      "distance": 10000,
      "text": "10 kilometers"
    },
    "[3]": {
      "main_category": "amenity",
      "sub_category": "hospital",
      "display_name": "Rock Regional Hospital, Derby, KS",
      "geo_wkt": "POINT (-97.247136 37.582925)",
      "poi": {
        "id": 182307,
        "geometry": "POINT (-97.247136 37.582925)",
        "poi_name": "Rock Regional Hospital",
        "osm_id": 10888128905,
        "amenity": "hospital",
        "website": "https://rockregionalhospitalderby.com",
        "phone": "+1-833-345-7625",
        "healthcare": "hospital",
        "addr_state": "KS",
        "addr_city": "Derby",
        "addr_postcode": "67037",
        "addr_street": "North Rock Road",
        "addr_housenumber": "3251"
      }
    }
  },
  "id": 1009,
  "type": "range+angle"
}