{
  "question": "Within a radius of 90 kilometers, where can I find  a fast food restaurant on the path leading to Allen Park Civic Arena, Allen Park, MI from the Mariner LLC, Marine City, MI?",
  "sql": "WITH\n    angle AS (SELECT degrees(ST_Azimuth(ST_GeomFromText('POINT (-82.493094 42.715226)',4326)::geography, ST_GeomFromText('POINT (-83.211376 42.258691)',4326)::geography)) AS value)\nSELECT * FROM pois,angle\nWHERE amenity = 'fast_food'\nAND ST_DWithin(pois.geometry, ST_GeomFromText('POINT (-82.493094 42.715226)',4326)::geography, 90000)\nAND (degrees(ST_Azimuth(ST_GeomFromText('POINT (-82.493094 42.715226)',4326)::geography, pois.geometry)) BETWEEN angle.value - 22.5 AND angle.value + 22.5);\n",
  "answers": [
    {
      "id": 27531,
      "geometry": "POINT (-83.144039 42.488848)",
      "poi_name": "Bruegger's Bagels",
      "osm_id": 430026809,
      "amenity": "fast_food",
      "cuisine": "bagel",
      "website": "https://locations.brueggers.com/us/mi/royal-oak/201-south-main-street",
      "takeaway": "yes",
      "addr_state": "MI",
      "addr_city": "Royal Oak",
      "addr_street": "South Main Street",
      "addr_housenumber": "201",
      "value": 229.58854515959945
    },
    {
      "id": 29335,
      "geometry": "POINT (-83.167788 42.324004)",
      "poi_name": "SamwicH Factory",
      "osm_id": 8298589580,
      "amenity": "fast_food",
      "cuisine": "sandwich",
      "website": "https://local.yahoo.com/info-191749853-samwich-factory-dearborn",
      "addr_state": "MI",
      "addr_city": "Dearborn",
      "addr_postcode": "48126",
      "addr_street": "Oakman Boulevard",
      "addr_housenumber": "12841",
      "value": 229.58854515959945
    },
    {
      "id": 29336,
      "geometry": "POINT (-83.167497 42.324091)",
      "poi_name": "Papa John's",
      "osm_id": 8298589582,
      "amenity": "fast_food",
      "cuisine": "pizza",
      "website": "https://locations.papajohns.com/united-states/mi/48126/dearborn/12841-michigan-ave",
      "takeaway": "yes",
      "addr_state": "MI",
      "addr_city": "Dearborn",
      "addr_postcode": "48126",
      "addr_street": "Michigan Avenue",
      "addr_housenumber": "12841",
      "value": 229.58854515959945
    },
    {
      "id": 29567,
      "geometry": "POINT (-83.200782 42.440658)",
      "poi_name": "Mighty Wing Shop",
      "osm_id": 8313151943,
      "amenity": "fast_food",
      "cuisine": "chicken",
      "addr_state": "MI",
      "addr_city": "Detroit",
      "addr_postcode": "48235",
      "addr_street": "Greenfield Road",
      "addr_housenumber": "20131",
      "value": 229.58854515959945
    },
    {
      "id": 29568,
      "geometry": "POINT (-83.200768 42.441932)",
      "poi_name": "White Castle",
      "osm_id": 8313151974,
      "amenity": "fast_food",
      "cuisine": "burger",
      "takeaway": "yes",
      "addr_state": "MI",
      "addr_city": "Detroit",
      "addr_postcode": "48235",
      "addr_street": "James Couzens Freeway",
      "addr_housenumber": "20409",
      "value": 229.58854515959945
    },
    {
      "id": 29654,
      "geometry": "POINT (-83.139358 42.391945)",
      "poi_name": "Taco Bell",
      "osm_id": 8319151010,
      "amenity": "fast_food",
      "cuisine": "tex-mex",
      "website": "https://locations.tacobell.com/mi/detroit/14000-livernois.html",
      "takeaway": "yes",
      "addr_state": "MI",
      "addr_city": "Detroit",
      "addr_postcode": "48238",
      "addr_street": "Livernois Avenue",
      "addr_housenumber": "14000",
      "value": 229.58854515959945
    },
    {
      "id": 29656,
      "geometry": "POINT (-83.139476 42.393121)",
      "poi_name": "Popeyes",
      "osm_id": 8319164726,
      "amenity": "fast_food",
      "cuisine": "chicken",
      "takeaway": "yes",
      "official_name": "Popeyes Louisiana Kitchen",
      "addr_state": "MI",
      "addr_city": "Detroit",
      "addr_postcode": "48238",
      "addr_street": "Livernois Avenue",
      "addr_housenumber": "14300",
      "value": 229.58854515959945
    },
    {
      "id": 29723,
      "geometry": "POINT (-83.240054 42.409707)",
      "poi_name": "Hollywood Coney Island",
      "osm_id": 8321795231,
      "amenity": "fast_food",
      "addr_state": "MI",
      "addr_city": "Detroit",
      "addr_postcode": "48219",
      "addr_street": "Grand River Avenue",
      "addr_housenumber": "20240",
      "value": 229.58854515959945
    },
    {
      "id": 29732,
      "geometry": "POINT (-83.216851 42.400396)",
      "poi_name": "Popeyes",
      "osm_id": 8322186768,
      "amenity": "fast_food",
      "cuisine": "chicken",
      "takeaway": "yes",
      "official_name": "Popeyes Louisiana Kitchen",
      "addr_state": "MI",
      "addr_city": "Detroit",
      "addr_postcode": "48227",
      "addr_street": "Grand River Avenue",
      "addr_housenumber": "17700",
      "value": 229.58854515959945
    },
    {
      "id": 30544,
      "geometry": "POINT (-82.999914 42.400404)",
      "poi_name": "White Castle",
      "osm_id": 8365340858,
      "amenity": "fast_food",
      "cuisine": "burger",
      "takeaway": "yes",
      "drive_through": "yes",
      "addr_state": "MI",
      "addr_city": "Detroit",
      "addr_postcode": "48213",
      "addr_street": "Gratiot Avenue",
      "addr_housenumber": "10530",
      "value": 229.58854515959945
    },
    {
      "id": 30812,
      "geometry": "POINT (-83.219256 42.263945)",
      "poi_name": "Dunkin'",
      "osm_id": 8385386543,
      "amenity": "fast_food",
      "cuisine": "donut;coffee_shop",
      "takeaway": "yes",
      "drive_through": "yes",
      "addr_state": "MI",
      "addr_city": "Allen Park",
      "addr_postcode": "48101",
      "addr_street": "Southfield Road",
      "addr_housenumber": "16950",
      "value": 229.58854515959945
    },
    {
      "id": 32979,
      "geometry": "POINT (-83.201704 42.326411)",
      "poi_name": "Jimmy John's",
      "osm_id": 2644262638,
      "amenity": "fast_food",
      "cuisine": "sandwich",
      "website": "https://locations.jimmyjohns.com/mi/dearborn/sandwiches-580.htm",
      "takeaway": "yes",
      "official_name": "Jimmy John's Gourmet Sandwiches",
      "addr_state": "MI",
      "addr_city": "Dearborn",
      "addr_postcode": "48126",
      "addr_street": "Ford Rd",
      "addr_housenumber": "16201",
      "value": 229.58854515959945
    },
    {
      "id": 40093,
      "geometry": "POINT (-83.028803 42.564338)",
      "poi_name": "Sonic",
      "osm_id": 2957157100,
      "amenity": "fast_food",
      "cuisine": "burger",
      "website": "https://locations.sonicdrivein.com/mi/sterling-heights/36888-van-dyke-road.html",
      "phone": "+1-586-264-8700",
      "takeaway": "yes",
      "drive_through": "yes",
      "addr_state": "MI",
      "addr_city": "Sterling Heights",
      "addr_postcode": "48312",
      "addr_street": "Van Dyke Avenue",
      "addr_housenumber": "36888",
      "value": 229.58854515959945
    },
    {
      "id": 43330,
      "geometry": "POINT (-83.274897 42.363058)",
      "poi_name": "Subway",
      "osm_id": 3105825073,
      "amenity": "fast_food",
      "cuisine": "sandwich",
      "website": "https://restaurants.subway.com/united-states/mi/redford/9350-telegraph-rd",
      "phone": "+1 313 387 9244",
      "takeaway": "yes",
      "addr_state": "MI",
      "addr_city": "Redford",
      "addr_postcode": "48239",
      "addr_street": "Telegraph Road",
      "addr_housenumber": "9350",
      "value": 229.58854515959945
    },
    {
      "id": 46824,
      "geometry": "POINT (-83.466815 42.358464)",
      "poi_name": "Arby's",
      "osm_id": 3294984694,
      "amenity": "fast_food",
      "cuisine": "sandwich",
      "takeaway": "yes",
      "addr_state": "MI",
      "value": 229.58854515959945
    },
    {
      "id": 48350,
      "geometry": "POINT (-82.92708 42.510263)",
      "poi_name": "Jimmy John's",
      "osm_id": 3378722087,
      "amenity": "fast_food",
      "cuisine": "sandwich",
      "takeaway": "yes",
      "official_name": "Jimmy John's Gourmet Sandwiches",
      "delivery": "yes",
      "addr_state": "MI",
      "addr_city": "Roseville",
      "addr_street": "North Gratiot Avenue",
      "addr_housenumber": "29016",
      "value": 229.58854515959945
    },
    {
      "id": 50054,
      "geometry": "POINT (-83.374554 42.463408)",
      "poi_name": "Joe Butch",
      "osm_id": 3464322548,
      "amenity": "fast_food",
      "cuisine": "sandwich",
      "takeaway": "yes",
      "addr_state": "MI",
      "addr_city": "Farmington",
      "addr_street": "Grand River Avenue",
      "addr_housenumber": "33171",
      "value": 229.58854515959945
    },
    {
      "id": 51463,
      "geometry": "POINT (-83.1459 42.53102)",
      "poi_name": "Woodpile BBQ Shack",
      "osm_id": 535533222,
      "amenity": "fast_food",
      "cuisine": "american",
      "opening_hours": "Mo-Su 11:00-21:00",
      "website": "https://www.woodpilebbqshack.com/",
      "phone": "+1-248-565-8149",
      "drive_through": "no",
      "addr_state": "MI",
      "addr_city": "Clawson",
      "addr_postcode": "48017",
      "addr_street": "South Main Street",
      "addr_housenumber": "303",
      "value": 229.58854515959945
    },
    {
      "id": 51515,
      "geometry": "POINT (-83.167037 42.548307)",
      "poi_name": "China King",
      "osm_id": 538376068,
      "amenity": "fast_food",
      "addr_city": "Troy",
      "addr_postcode": "48084",
      "addr_street": "West Maple Road",
      "addr_housenumber": "1430",
      "value": 229.58854515959945
    },
    {
      "id": 52532,
      "geometry": "POINT (-83.246748 42.170857)",
      "poi_name": "Subway",
      "osm_id": 10035124359,
      "amenity": "fast_food",
      "cuisine": "sandwich",
      "takeaway": "yes",
      "drive_through": "no",
      "addr_state": "MI",
      "addr_city": "Brownstown Township",
      "addr_postcode": "48193",
      "addr_street": "Sibley Road",
      "addr_housenumber": "21980",
      "value": 229.58854515959945
    },
    {
      "id": 55650,
      "geometry": "POINT (-83.279138 42.454926)",
      "poi_name": "Wendy's",
      "osm_id": 10201102302,
      "amenity": "fast_food",
      "cuisine": "burger",
      "takeaway": "yes",
      "addr_state": "MI",
      "addr_city": "Southfield",
      "addr_postcode": "48033",
      "addr_street": "Telegraph Road",
      "addr_housenumber": "22333",
      "value": 229.58854515959945
    },
    {
      "id": 53321,
      "geometry": "POINT (-83.24583 42.443346)",
      "poi_name": "T & J Coney Island",
      "osm_id": 10075706081,
      "amenity": "fast_food",
      "addr_state": "MI",
      "addr_city": "Detroit",
      "addr_postcode": "48219",
      "addr_street": "8 Mile Road",
      "addr_housenumber": "20601",
      "value": 229.58854515959945
    },
    {
      "id": 54876,
      "geometry": "POINT (-83.217886 42.277708)",
      "poi_name": "Carters's",
      "osm_id": 10160318350,
      "amenity": "fast_food",
      "cuisine": "burger",
      "opening_hours": "24/7",
      "website": "https://www.cartershamburgers.com/",
      "phone": "+1-313-277-9033",
      "addr_state": "MI",
      "addr_city": "Dearborn",
      "addr_postcode": "48124",
      "addr_street": "West Outer Drive",
      "addr_housenumber": "22990",
      "value": 229.58854515959945
    },
    {
      "id": 54877,
      "geometry": "POINT (-83.233109 42.284213)",
      "poi_name": "Lim's Garden",
      "osm_id": 10160318396,
      "amenity": "fast_food",
      "cuisine": "chinese",
      "phone": "+1-313-563-4393",
      "takeaway": "only",
      "addr_state": "MI",
      "addr_city": "Dearborn",
      "addr_street": "Carlysle Street",
      "addr_housenumber": "20001",
      "value": 229.58854515959945
    },
    {
      "id": 52707,
      "geometry": "POINT (-83.068626 42.550829)",
      "poi_name": "Savvy Sliders",
      "osm_id": 10043824785,
      "amenity": "fast_food",
      "cuisine": "burger;chicken",
      "website": "https://www.savvysliders.com/",
      "phone": "+1-586-551-7777",
      "addr_state": "MI",
      "addr_city": "Sterling Heights",
      "addr_postcode": "48310",
      "addr_street": "15 Mile Road",
      "addr_housenumber": "4051",
      "value": 229.58854515959945
    },
    {
      "id": 55204,
      "geometry": "POINT (-83.17975 42.234394)",
      "poi_name": "Mickey's Pizza",
      "osm_id": 10177499336,
      "amenity": "fast_food",
      "cuisine": "pizza",
      "phone": "+1-313-383-7600",
      "drive_through": "no",
      "addr_state": "MI",
      "addr_city": "Lincoln Park",
      "addr_postcode": "48146",
      "addr_street": "Fort Street",
      "addr_housenumber": "3511",
      "value": 229.58854515959945
    },
    {
      "id": 55206,
      "geometry": "POINT (-83.219117 42.263886)",
      "poi_name": "Wing Snob",
      "osm_id": 10177499363,
      "amenity": "fast_food",
      "cuisine": "wings",
      "drive_through": "no",
      "addr_state": "MI",
      "addr_city": "Allen Park",
      "addr_postcode": "48101",
      "addr_street": "Southfield Road",
      "addr_housenumber": "16930",
      "value": 229.58854515959945
    },
    {
      "id": 55718,
      "geometry": "POINT (-83.130443 42.36499)",
      "poi_name": "Church's Chicken",
      "osm_id": 10204873060,
      "amenity": "fast_food",
      "cuisine": "chicken",
      "takeaway": "yes",
      "addr_state": "MI",
      "addr_city": "Detroit",
      "addr_postcode": "48204",
      "addr_street": "Grand River Avenue",
      "addr_housenumber": "9137",
      "value": 229.58854515959945
    },
    {
      "id": 55869,
      "geometry": "POINT (-83.08573 42.417688)",
      "poi_name": "L.A. Coney Island",
      "osm_id": 10212178189,
      "amenity": "fast_food",
      "addr_state": "MI",
      "addr_city": "Detroit",
      "addr_postcode": "48203",
      "addr_street": "East McNichols Road",
      "addr_housenumber": "1700",
      "value": 229.58854515959945
    },
    {
      "id": 56071,
      "geometry": "POINT (-83.448349 42.323444)",
      "poi_name": "Saroki's Crispy Chicken & Pizza",
      "osm_id": 10223878137,
      "amenity": "fast_food",
      "cuisine": "chicken;pizza",
      "drive_through": "no",
      "addr_state": "MI",
      "addr_city": "Canton",
      "addr_postcode": "48187",
      "addr_street": "Ford Road",
      "addr_housenumber": "41350",
      "value": 229.58854515959945
    },
    {
      "id": 60248,
      "geometry": "POINT (-83.227247 42.144604)",
      "poi_name": "Subway",
      "osm_id": 5459399537,
      "amenity": "fast_food",
      "cuisine": "sandwich",
      "takeaway": "yes",
      "drive_through": "no",
      "outdoor_seating": "no",
      "addr_state": "MI",
      "addr_city": "Woodhaven",
      "addr_postcode": "48183",
      "addr_street": "Allen Road",
      "addr_housenumber": "22482",
      "value": 229.58854515959945
    },
    {
      "id": 60249,
      "geometry": "POINT (-83.225093 42.140426)",
      "poi_name": "Chipotle",
      "osm_id": 5459412112,
      "amenity": "fast_food",
      "cuisine": "mexican",
      "takeaway": "yes",
      "drive_through": "no",
      "official_name": "Chipotle Mexican Grill",
      "addr_state": "MI",
      "addr_city": "Woodhaven",
      "addr_postcode": "48183",
      "addr_street": "West Road",
      "addr_housenumber": "23061",
      "value": 229.58854515959945
    },
    {
      "id": 60250,
      "geometry": "POINT (-83.225113 42.140344)",
      "poi_name": "Beyond Juicery + Eatery",
      "osm_id": 5459420792,
      "amenity": "fast_food",
      "cuisine": "juice",
      "drive_through": "no",
      "addr_state": "MI",
      "addr_city": "Woodhaven",
      "addr_postcode": "48183",
      "addr_street": "Allen Road",
      "addr_housenumber": "23065",
      "value": 229.58854515959945
    },
    {
      "id": 60251,
      "geometry": "POINT (-83.225105 42.140256)",
      "poi_name": "MOD Pizza",
      "osm_id": 5459422881,
      "amenity": "fast_food",
      "cuisine": "pizza",
      "takeaway": "yes",
      "drive_through": "no",
      "addr_state": "MI",
      "addr_city": "Woodhaven",
      "addr_postcode": "48183",
      "addr_street": "Allen Road",
      "addr_housenumber": "23071",
      "value": 229.58854515959945
    },
    {
      "id": 60252,
      "geometry": "POINT (-83.227351 42.13832)",
      "poi_name": "Five Guys",
      "osm_id": 5459428731,
      "amenity": "fast_food",
      "cuisine": "burger",
      "opening_hours": "Mo-Su 11:00-22:00",
      "phone": "+1-734-692-3483",
      "takeaway": "yes",
      "drive_through": "no",
      "official_name": "Five Guys Burgers and Fries",
      "addr_state": "MI",
      "addr_city": "Woodhaven",
      "addr_postcode": "48183",
      "addr_street": "Allen Road",
      "addr_housenumber": "23414",
      "value": 229.58854515959945
    },
    {
      "id": 61145,
      "geometry": "POINT (-83.201601 42.534437)",
      "poi_name": "Little Caesars",
      "osm_id": 5499843017,
      "amenity": "fast_food",
      "cuisine": "pizza",
      "website": "https://littlecaesars.com/en-us/store/17/",
      "takeaway": "yes",
      "addr_state": "MI",
      "addr_city": "Birmingham",
      "addr_postcode": "48009",
      "addr_street": "Woodward Avenue",
      "addr_housenumber": "33344",
      "value": 229.58854515959945
    },
    {
      "id": 69314,
      "geometry": "POINT (-83.284812 42.298153)",
      "poi_name": "Burger King",
      "osm_id": 11300417832,
      "amenity": "fast_food",
      "cuisine": "burger",
      "website": "https://www.bk.com/store-locator/store/restaurant_252",
      "phone": "+1-313-563-3504",
      "takeaway": "yes",
      "drive_through": "yes",
      "addr_state": "MI",
      "addr_city": "Dearborn",
      "addr_postcode": "48124",
      "addr_street": "Michigan Avenue",
      "addr_housenumber": "25300",
      "value": 229.58854515959945
    },
    {
      "id": 70612,
      "geometry": "POINT (-83.416342 42.410225)",
      "poi_name": "Jimmy John's",
      "osm_id": 11368066077,
      "amenity": "fast_food",
      "cuisine": "sandwich",
      "opening_hours": "10:00-21:00",
      "website": "https://locations.jimmyjohns.com/mi/livonia/sandwiches-271.html",
      "phone": "+1-734-462-3700",
      "takeaway": "yes",
      "official_name": "Jimmy John's Gourmet Sandwiches",
      "addr_state": "MI",
      "addr_city": "Livonia",
      "addr_postcode": "48152",
      "addr_street": "6 Mile Road",
      "addr_housenumber": "37671",
      "value": 229.58854515959945
    },
    {
      "id": 70188,
      "geometry": "POINT (-82.995092 42.380092)",
      "poi_name": "Home Style Coney Island Restaurant",
      "osm_id": 11348588639,
      "amenity": "fast_food",
      "addr_state": "MI",
      "addr_city": "Detroit",
      "addr_postcode": "48214",
      "addr_street": "Cadillac Boulevard",
      "addr_housenumber": "4720",
      "value": 229.58854515959945
    },
    {
      "id": 72548,
      "geometry": "POINT (-83.185507 42.430618)",
      "poi_name": "KFC",
      "osm_id": 11432865140,
      "amenity": "fast_food",
      "cuisine": "chicken",
      "takeaway": "yes",
      "addr_state": "MI",
      "addr_city": "Detroit",
      "addr_postcode": "48235",
      "addr_street": "West 7 Mile Road",
      "addr_housenumber": "14201",
      "value": 229.58854515959945
    },
    {
      "id": 71353,
      "geometry": "POINT (-83.014988 42.341263)",
      "poi_name": "Tubby's",
      "osm_id": 11386608319,
      "amenity": "fast_food",
      "cuisine": "sandwich",
      "opening_hours": "Mo-Sa 10:00-22:00; Su 11:00-20:00",
      "phone": "+1-313-394-2222",
      "takeaway": "yes",
      "addr_state": "MI",
      "addr_city": "Detroit",
      "addr_postcode": "48207",
      "addr_street": "East Jefferson Avenue",
      "addr_housenumber": "3250",
      "value": 229.58854515959945
    },
    {
      "id": 71354,
      "geometry": "POINT (-82.977289 42.434886)",
      "poi_name": "Church's Chicken",
      "osm_id": 11386634386,
      "amenity": "fast_food",
      "cuisine": "chicken",
      "operator": "FALCON HOLDINGS, LLC. #974",
      "takeaway": "yes",
      "addr_state": "MI",
      "addr_city": "Detroit",
      "addr_postcode": "48205",
      "addr_street": "Gratiot Avenue",
      "addr_housenumber": "14260",
      "value": 229.58854515959945
    },
    {
      "id": 73019,
      "geometry": "POINT (-82.959492 42.4643)",
      "poi_name": "Papa Romano's & Mr. Pita",
      "osm_id": 9602234054,
      "amenity": "fast_food",
      "cuisine": "pizza",
      "website": "http://paparomanos.snappyeats.com/",
      "phone": "+1 586 771 0008",
      "addr_state": "MI",
      "addr_city": "Eastpointe",
      "addr_street": "North Gratiot Avenue",
      "addr_housenumber": "22661",
      "value": 229.58854515959945
    },
    {
      "id": 72624,
      "geometry": "POINT (-83.179316 42.416772)",
      "poi_name": "KFC",
      "osm_id": 11438976064,
      "amenity": "fast_food",
      "cuisine": "chicken",
      "operator": "KFC/FQSR, LLC dba KBP Foods",
      "website": "https://locations.kfc.com/mi/detroit/13546-w-mcnichols-rd",
      "phone": "+1-313-862-1333",
      "takeaway": "yes",
      "addr_state": "MI",
      "addr_city": "Detroit",
      "addr_postcode": "48235",
      "addr_street": "West McNichols Road",
      "addr_housenumber": "13546",
      "value": 229.58854515959945
    },
    {
      "id": 73488,
      "geometry": "POINT (-83.230534 42.140626)",
      "poi_name": "Smoothie King",
      "osm_id": 9637180642,
      "amenity": "fast_food",
      "cuisine": "juice",
      "phone": "+1-734-658-4036",
      "takeaway": "yes",
      "drive_through": "yes",
      "addr_state": "MI",
      "addr_city": "Woodhaven",
      "addr_postcode": "48183",
      "addr_street": "West Road",
      "addr_housenumber": "20410",
      "value": 229.58854515959945
    },
    {
      "id": 73129,
      "geometry": "POINT (-82.966395 42.450929)",
      "poi_name": "Burger King",
      "osm_id": 9609343827,
      "amenity": "fast_food",
      "cuisine": "burger",
      "website": "https://www.bk.com/store-locator/store/restaurant_236",
      "phone": "+1-586-771-3950",
      "takeaway": "yes",
      "drive_through": "yes",
      "addr_state": "MI",
      "addr_city": "Eastpointe",
      "addr_street": "North Gratiot Avenue",
      "addr_housenumber": "20840",
      "value": 229.58854515959945
    },
    {
      "id": 73408,
      "geometry": "POINT (-83.120825 42.375273)",
      "poi_name": "Dexter Coney Island",
      "osm_id": 9631691124,
      "amenity": "fast_food",
      "cuisine": "hot_dog",
      "addr_state": "MI",
      "addr_city": "Detroit",
      "addr_postcode": "48206",
      "addr_street": "Dexter Avenue",
      "addr_housenumber": "9910",
      "value": 229.58854515959945
    },
    {
      "id": 73225,
      "geometry": "POINT (-82.969655 42.448238)",
      "poi_name": "Little Caesars",
      "osm_id": 9619894423,
      "amenity": "fast_food",
      "cuisine": "pizza",
      "website": "https://littlecaesars.com/en-us/store/7152",
      "phone": "+1-313-839-5595",
      "takeaway": "yes",
      "addr_state": "MI",
      "addr_city": "Detroit",
      "addr_postcode": "48205",
      "addr_street": "Gratiot Avenue",
      "addr_housenumber": "15405",
      "value": 229.58854515959945
    },
    {
      "id": 73702,
      "geometry": "POINT (-82.915817 42.406443)",
      "poi_name": "Chipotle",
      "osm_id": 9651479142,
      "amenity": "fast_food",
      "cuisine": "mexican",
      "takeaway": "yes",
      "official_name": "Chipotle Mexican Grill",
      "addr_state": "MI",
      "addr_city": "Detroit",
      "addr_postcode": "48224",
      "addr_street": "Radnor Street",
      "addr_housenumber": "4444",
      "value": 229.58854515959945
    },
    {
      "id": 73460,
      "geometry": "POINT (-83.116078 42.395015)",
      "poi_name": "Grandy's Coney Island Restaurant",
      "osm_id": 9634506008,
      "amenity": "fast_food",
      "cuisine": "hot_dog",
      "addr_state": "MI",
      "addr_city": "Detroit",
      "addr_postcode": "48238",
      "addr_street": "14th Street",
      "addr_housenumber": "13331",
      "value": 229.58854515959945
    },
    {
      "id": 73643,
      "geometry": "POINT (-82.978002 42.433904)",
      "poi_name": "Popeyes",
      "osm_id": 9647530651,
      "amenity": "fast_food",
      "cuisine": "chicken",
      "takeaway": "yes",
      "drive_through": "yes",
      "official_name": "Popeyes Louisiana Kitchen",
      "addr_city": "Detroit",
      "addr_street": "Gratiot Avenue",
      "addr_housenumber": "14180",
      "value": 229.58854515959945
    },
    {
      "id": 73645,
      "geometry": "POINT (-82.979115 42.433646)",
      "poi_name": "Captain Jay's Fish and Chicken",
      "osm_id": 9647577805,
      "amenity": "fast_food",
      "cuisine": "seafood",
      "website": "https://www.captainjays.net/",
      "phone": "+1-313-526-3474",
      "addr_city": "Detroit",
      "addr_street": "Gratiot Avenue",
      "addr_housenumber": "14205",
      "value": 229.58854515959945
    },
    {
      "id": 73558,
      "geometry": "POINT (-82.978485 42.434744)",
      "poi_name": "McDonald's",
      "osm_id": 9644437622,
      "amenity": "fast_food",
      "cuisine": "burger",
      "website": "https://www.mcdonalds.com/us/en-us/location/MI/DETROIT/14271-GRATIOT-AVE/3233.html",
      "phone": "+1-313-521-4212",
      "takeaway": "yes",
      "addr_state": "MI",
      "addr_city": "Detroit",
      "addr_postcode": "48205",
      "addr_street": "East 7 Mile Road",
      "addr_housenumber": "14271",
      "value": 229.58854515959945
    },
    {
      "id": 74396,
      "geometry": "POINT (-83.176982 42.341394)",
      "poi_name": "Rafic's Falafel",
      "osm_id": 9678967993,
      "amenity": "fast_food",
      "addr_state": "MI",
      "addr_city": "Dearborn",
      "addr_street": "Schaefer Road",
      "addr_housenumber": "6905",
      "value": 229.58854515959945
    },
    {
      "id": 73874,
      "geometry": "POINT (-82.990965 42.43456)",
      "poi_name": "Prince Pizza",
      "osm_id": 9657409476,
      "amenity": "fast_food",
      "cuisine": "pizza",
      "phone": "+1-313-839-0500",
      "addr_state": "MI",
      "addr_city": "Detroit",
      "addr_street": "East 7 Mile Road",
      "addr_housenumber": "13000",
      "value": 229.58854515959945
    },
    {
      "id": 74790,
      "geometry": "POINT (-83.114353 42.358414)",
      "poi_name": "Apollo Coney Island",
      "osm_id": 9695837102,
      "amenity": "fast_food",
      "addr_state": "MI",
      "addr_city": "Detroit",
      "addr_postcode": "48208",
      "addr_street": "Grand River Avenue",
      "addr_housenumber": "7635",
      "value": 229.58854515959945
    },
    {
      "id": 74861,
      "geometry": "POINT (-83.214597 42.276666)",
      "poi_name": "Little Caesars",
      "osm_id": 9699505850,
      "amenity": "fast_food",
      "cuisine": "pizza",
      "website": "https://littlecaesars.com/en-us/store/10",
      "phone": "+1-313-562-7540",
      "takeaway": "yes",
      "addr_state": "MI",
      "addr_city": "Allen Park",
      "addr_postcode": "48101",
      "addr_street": "West Outer Drive",
      "addr_housenumber": "23110",
      "value": 229.58854515959945
    },
    {
      "id": 75231,
      "geometry": "POINT (-83.203661 42.331183)",
      "poi_name": "Einstein Bagels",
      "osm_id": 9719654210,
      "amenity": "fast_food",
      "cuisine": "bagel",
      "website": "https://locations.einsteinbros.com/us/mi/dearborn/5700-mercury-dr",
      "phone": "+1-313-271-9788",
      "addr_state": "MI",
      "addr_city": "Dearborn",
      "addr_street": "Mercury Drive",
      "addr_housenumber": "5700",
      "value": 229.58854515959945
    },
    {
      "id": 74950,
      "geometry": "POINT (-83.136469 42.266896)",
      "poi_name": "Subway",
      "osm_id": 9704244265,
      "amenity": "fast_food",
      "cuisine": "sandwich",
      "takeaway": "yes",
      "addr_state": "MI",
      "addr_city": "River Rouge",
      "addr_postcode": "48218",
      "addr_street": "West Jefferson Avenue",
      "addr_housenumber": "11032",
      "value": 229.58854515959945
    },
    {
      "id": 75440,
      "geometry": "POINT (-83.137054 42.262321)",
      "poi_name": "Hungry Howie's",
      "osm_id": 9731038501,
      "amenity": "fast_food",
      "cuisine": "pizza",
      "phone": "+1-313-843-2100",
      "takeaway": "yes",
      "drive_through": "no",
      "addr_state": "MI",
      "addr_city": "River Rouge",
      "addr_postcode": "48218",
      "addr_street": "West Jefferson Avenue",
      "addr_housenumber": "11389",
      "value": 229.58854515959945
    },
    {
      "id": 75441,
      "geometry": "POINT (-83.136673 42.263502)",
      "poi_name": "Krispy Krunchy Chicken",
      "osm_id": 9731038503,
      "amenity": "fast_food",
      "cuisine": "chicken",
      "phone": "+1-313-502-6191",
      "takeaway": "yes",
      "drive_through": "no",
      "addr_state": "MI",
      "addr_city": "River Rouge",
      "addr_postcode": "48218",
      "addr_street": "West Jefferson Avenue",
      "addr_housenumber": "11345",
      "value": 229.58854515959945
    },
    {
      "id": 76634,
      "geometry": "POINT (-83.126084 42.330989)",
      "poi_name": "Dairy Queen",
      "osm_id": 9785704908,
      "amenity": "fast_food",
      "cuisine": "ice_cream;burger",
      "takeaway": "yes",
      "addr_state": "MI",
      "addr_city": "Detroit",
      "addr_postcode": "48210",
      "addr_street": "Michigan Avenue",
      "addr_housenumber": "6677",
      "value": 229.58854515959945
    },
    {
      "id": 77192,
      "geometry": "POINT (-83.139448 42.375136)",
      "poi_name": "Jerry's Pizza and Barbeque",
      "osm_id": 9810712755,
      "amenity": "fast_food",
      "cuisine": "pizza;barbecue",
      "opening_hours": "Mo-Su 14:00-02:00",
      "phone": "+1 313 834 2121",
      "drive_through": "no",
      "addr_state": "MI",
      "addr_city": "Detroit",
      "addr_postcode": "48204",
      "addr_street": "Livernois Avenue",
      "addr_housenumber": "11749",
      "value": 229.58854515959945
    },
    {
      "id": 84451,
      "geometry": "POINT (-83.179671 42.198106)",
      "poi_name": "Jee's Top 5 Thai Food",
      "osm_id": 1793461245,
      "amenity": "fast_food",
      "cuisine": "thai",
      "opening_hours": "Tu-Fr 11:00-21:00; Sa 15:00-21:00",
      "takeaway": "yes",
      "drive_through": "no",
      "outdoor_seating": "no",
      "delivery": "yes",
      "addr_state": "MI",
      "addr_city": "Wyandotte",
      "addr_postcode": "48192",
      "addr_street": "Fort Street",
      "addr_housenumber": "3391",
      "value": 229.58854515959945
    },
    {
      "id": 81078,
      "geometry": "POINT (-83.190684 42.168751)",
      "poi_name": "Hungry Howie's",
      "osm_id": 1602732998,
      "amenity": "fast_food",
      "cuisine": "pizza",
      "takeaway": "yes",
      "addr_state": "MI",
      "addr_city": "Riverview",
      "addr_postcode": "48193",
      "addr_street": "Fort Street",
      "addr_housenumber": "19182",
      "value": 229.58854515959945
    },
    {
      "id": 77360,
      "geometry": "POINT (-83.000629 42.399274)",
      "poi_name": "McDonald's",
      "osm_id": 9817892569,
      "amenity": "fast_food",
      "cuisine": "burger",
      "website": "https://www.mcdonalds.com/us/en-us/location/mi/detroit/10400-gratiot-avenue/2527.html",
      "takeaway": "yes",
      "addr_state": "MI",
      "addr_city": "Detroit",
      "addr_postcode": "48213",
      "addr_street": "Gratiot Avenue",
      "addr_housenumber": "10400",
      "value": 229.58854515959945
    },
    {
      "id": 81635,
      "geometry": "POINT (-83.195221 42.141432)",
      "poi_name": "Toarmina's Pizza",
      "osm_id": 1653651557,
      "amenity": "fast_food",
      "cuisine": "pizza",
      "phone": "+1-734-692-2424",
      "drive_through": "no",
      "addr_state": "MI",
      "addr_city": "Trenton",
      "addr_postcode": "48183",
      "addr_street": "West Road",
      "addr_housenumber": "2208",
      "value": 229.58854515959945
    },
    {
      "id": 87236,
      "geometry": "POINT (-83.106808 42.518824)",
      "poi_name": "Subway",
      "osm_id": 8699364758,
      "amenity": "fast_food",
      "cuisine": "sandwich",
      "takeaway": "yes",
      "drive_through": "no",
      "addr_state": "MI",
      "addr_city": "Madison Heights",
      "addr_postcode": "48071",
      "addr_street": "John R Road",
      "addr_housenumber": "30775",
      "value": 229.58854515959945
    },
    {
      "id": 85651,
      "geometry": "POINT (-83.418844 42.324216)",
      "poi_name": "McDonald's",
      "osm_id": 1887568816,
      "amenity": "fast_food",
      "cuisine": "burger",
      "opening_hours": "24/7",
      "website": "https://www.mcdonalds.com/us/en-us/location/mi/westland/38418-ford-rd/21837.html",
      "internet_access": "wlan",
      "phone": "+1-734-729-0790",
      "takeaway": "yes",
      "addr_state": "MI",
      "addr_city": "Westland",
      "addr_postcode": "48185",
      "addr_street": "Ford Road",
      "addr_housenumber": "38418",
      "value": 229.58854515959945
    },
    {
      "id": 87519,
      "geometry": "POINT (-83.138466 42.369835)",
      "poi_name": "The Royal Grill",
      "osm_id": 8720101554,
      "amenity": "fast_food",
      "opening_hours": "Mo-Sa 07:00-22:00; Su 07:00-15:00",
      "website": "https://theroyal-grill.com/",
      "phone": "+1 313 834 1300",
      "drive_through": "yes",
      "addr_state": "MI",
      "addr_city": "Detroit",
      "addr_postcode": "48204",
      "addr_street": "Livernois Avenue",
      "addr_housenumber": "9850",
      "value": 229.58854515959945
    },
    {
      "id": 87310,
      "geometry": "POINT (-83.168291 42.284425)",
      "poi_name": "Savvy Sliders",
      "osm_id": 8707082409,
      "amenity": "fast_food",
      "cuisine": "burger",
      "phone": "+1-313-382-2222",
      "drive_through": "yes",
      "addr_state": "MI",
      "addr_city": "Melvindale",
      "addr_postcode": "48122",
      "addr_street": "Oakwood Boulevard",
      "addr_housenumber": "2630",
      "value": 229.58854515959945
    },
    {
      "id": 87380,
      "geometry": "POINT (-83.069196 42.364989)",
      "poi_name": "Subway",
      "osm_id": 8711172180,
      "amenity": "fast_food",
      "cuisine": "sandwich",
      "takeaway": "yes",
      "drive_through": "no",
      "addr_state": "MI",
      "addr_city": "Detroit",
      "addr_postcode": "48202",
      "addr_street": "Woodward Avenue",
      "addr_housenumber": "5996",
      "value": 229.58854515959945
    },
    {
      "id": 87480,
      "geometry": "POINT (-83.106012 42.53388)",
      "poi_name": "Chipotle",
      "osm_id": 8715749620,
      "amenity": "fast_food",
      "cuisine": "mexican",
      "opening_hours": "Mo-Su 10:45-22:00",
      "phone": "+1-248-581-8014",
      "takeaway": "yes",
      "drive_through": "no",
      "official_name": "Chipotle Mexican Grill",
      "addr_state": "MI",
      "addr_city": "Madison Heights",
      "addr_postcode": "48071",
      "addr_street": "East 14 Mile Road",
      "addr_housenumber": "32",
      "value": 229.58854515959945
    },
    {
      "id": 87523,
      "geometry": "POINT (-83.135203 42.350834)",
      "poi_name": "Shotty\u2019s Kitchen",
      "osm_id": 8720101626,
      "amenity": "fast_food",
      "phone": "+1 313 899 0008",
      "addr_state": "MI",
      "addr_city": "Detroit",
      "addr_postcode": "48210",
      "addr_street": "Livernois Avenue",
      "addr_housenumber": "7645",
      "value": 229.58854515959945
    },
    {
      "id": 87489,
      "geometry": "POINT (-83.10602 42.533794)",
      "poi_name": "Jersey Mike's Subs",
      "osm_id": 8716039580,
      "amenity": "fast_food",
      "cuisine": "sandwich",
      "opening_hours": "Mo-Su 10:00-20:00",
      "phone": "+1-248-588-5088",
      "takeaway": "yes",
      "drive_through": "no",
      "addr_state": "MI",
      "addr_city": "Madison Heights",
      "addr_postcode": "48071",
      "addr_street": "East 14 Mile Road",
      "addr_housenumber": "40",
      "value": 229.58854515959945
    },
    {
      "id": 87583,
      "geometry": "POINT (-82.893496 42.527675)",
      "poi_name": "Little Caesars",
      "osm_id": 8723468122,
      "amenity": "fast_food",
      "cuisine": "pizza",
      "opening_hours": "Su-Th 11:00-22:00; Fr-Sa 11:00-23:00",
      "website": "https://littlecaesars.com/en-us/store/35/",
      "phone": "+1-586-294-6300",
      "takeaway": "yes",
      "addr_state": "MI",
      "addr_city": "Saint Clair Shores",
      "addr_postcode": "48082",
      "addr_street": "Harper Avenue",
      "addr_housenumber": "31541",
      "value": 229.58854515959945
    },
    {
      "id": 87698,
      "geometry": "POINT (-83.231353 42.282175)",
      "poi_name": "Subway",
      "osm_id": 8735099378,
      "amenity": "fast_food",
      "cuisine": "sandwich",
      "takeaway": "yes",
      "drive_through": "no",
      "addr_state": "MI",
      "addr_city": "Dearborn Heights",
      "addr_postcode": "48125",
      "addr_street": "Pelham Street",
      "addr_housenumber": "3929",
      "value": 229.58854515959945
    },
    {
      "id": 88546,
      "geometry": "POINT (-83.063566 42.446902)",
      "poi_name": "Krispy Krunchy Chicken",
      "osm_id": 8787182931,
      "amenity": "fast_food",
      "cuisine": "chicken",
      "takeaway": "yes",
      "addr_state": "MI",
      "addr_city": "Detroit",
      "addr_postcode": "48234",
      "addr_street": "East 8 Mile Road",
      "addr_housenumber": "4100",
      "value": 229.58854515959945
    },
    {
      "id": 87952,
      "geometry": "POINT (-83.089974 42.312806)",
      "poi_name": "Subway",
      "osm_id": 8755353124,
      "amenity": "fast_food",
      "cuisine": "sandwich",
      "takeaway": "yes",
      "drive_through": "no",
      "addr_state": "MI",
      "addr_city": "Detroit",
      "addr_postcode": "48209",
      "addr_street": "West Fort Street",
      "addr_housenumber": "4276",
      "value": 229.58854515959945
    },
    {
      "id": 87953,
      "geometry": "POINT (-83.094086 42.31108)",
      "poi_name": "Detroit 75 Kitchen",
      "osm_id": 8755353132,
      "amenity": "fast_food",
      "cuisine": "sandwich",
      "opening_hours": "Mo-Th 10:00-18:00; Fr 10:00-20:00",
      "website": "https://detroit75kitchen.com/",
      "phone": "+1 313 843 3215",
      "addr_state": "MI",
      "addr_city": "Detroit",
      "addr_postcode": "48209",
      "addr_street": "West Fort Street",
      "addr_housenumber": "4800",
      "value": 229.58854515959945
    },
    {
      "id": 88012,
      "geometry": "POINT (-83.063602 42.377654)",
      "poi_name": "Krispy Krunchy Chicken",
      "osm_id": 8757650489,
      "amenity": "fast_food",
      "cuisine": "chicken",
      "takeaway": "yes",
      "addr_state": "MI",
      "addr_city": "Detroit",
      "addr_postcode": "48211",
      "addr_street": "Clay Street",
      "addr_housenumber": "1140",
      "value": 229.58854515959945
    },
    {
      "id": 88013,
      "geometry": "POINT (-83.04202 42.42228)",
      "poi_name": "Subway",
      "osm_id": 8757822228,
      "amenity": "fast_food",
      "cuisine": "sandwich",
      "takeaway": "yes",
      "addr_state": "MI",
      "addr_city": "Detroit",
      "addr_postcode": "48212",
      "addr_street": "East Davison Street",
      "addr_housenumber": "5944",
      "value": 229.58854515959945
    },
    {
      "id": 88016,
      "geometry": "POINT (-83.005284 42.392406)",
      "poi_name": "Captain Jay's Fish & Chicken",
      "osm_id": 8758151077,
      "amenity": "fast_food",
      "cuisine": "fish_and_chips",
      "addr_state": "MI",
      "addr_city": "Detroit",
      "addr_postcode": "48213",
      "addr_street": "Gratiot Avenue",
      "addr_housenumber": "9654",
      "value": 229.58854515959945
    },
    {
      "id": 88108,
      "geometry": "POINT (-82.974533 42.389434)",
      "poi_name": "Captain Jay's Fish & Chicken",
      "osm_id": 8764462149,
      "amenity": "fast_food",
      "cuisine": "fish_and_chips",
      "addr_state": "MI",
      "addr_city": "Detroit",
      "addr_postcode": "48215",
      "addr_street": "East Warren Avenue",
      "addr_housenumber": "12248",
      "value": 229.58854515959945
    },
    {
      "id": 88312,
      "geometry": "POINT (-83.165992 42.288686)",
      "poi_name": "Subway",
      "osm_id": 8778814361,
      "amenity": "fast_food",
      "cuisine": "sandwich",
      "opening_hours": "Mo-Fr 09:00-20:00; Sa 10:00-20:00; Su 11:00-18:00",
      "phone": "+1 313 842 5500",
      "takeaway": "yes",
      "addr_state": "MI",
      "addr_city": "Detroit",
      "addr_postcode": "48217",
      "addr_street": "South Schaefer Highway",
      "addr_housenumber": "335",
      "value": 229.58854515959945
    },
    {
      "id": 88336,
      "geometry": "POINT (-83.160039 42.403682)",
      "poi_name": "White Castle",
      "osm_id": 8779526532,
      "amenity": "fast_food",
      "cuisine": "burger",
      "takeaway": "yes",
      "addr_state": "MI",
      "addr_city": "Detroit",
      "addr_street": "Wyoming Street",
      "addr_housenumber": "15365",
      "value": 229.58854515959945
    },
    {
      "id": 88337,
      "geometry": "POINT (-83.1601 42.402766)",
      "poi_name": "McDonald's",
      "osm_id": 8779526534,
      "amenity": "fast_food",
      "cuisine": "burger",
      "takeaway": "yes",
      "addr_state": "MI",
      "addr_city": "Detroit",
      "addr_street": "Wyoming Street",
      "addr_housenumber": "15321",
      "value": 229.58854515959945
    },
    {
      "id": 88529,
      "geometry": "POINT (-83.159922 42.417252)",
      "poi_name": "Subway",
      "osm_id": 8786626670,
      "amenity": "fast_food",
      "cuisine": "sandwich",
      "takeaway": "yes",
      "addr_state": "MI",
      "addr_city": "Detroit",
      "addr_postcode": "48221",
      "addr_street": "West McNichols Road",
      "addr_housenumber": "8930",
      "value": 229.58854515959945
    },
    {
      "id": 88531,
      "geometry": "POINT (-83.18832 42.431061)",
      "poi_name": "Captain Jay's Fish & Chicken",
      "osm_id": 8786626811,
      "amenity": "fast_food",
      "cuisine": "chicken;seafood",
      "addr_state": "MI",
      "addr_city": "Detroit",
      "addr_postcode": "48235",
      "addr_street": "West 7 Mile Road",
      "addr_housenumber": "14420",
      "value": 229.58854515959945
    },
    {
      "id": 88532,
      "geometry": "POINT (-83.141315 42.418261)",
      "poi_name": "Captain Jay's Fish & Chicken",
      "osm_id": 8786626921,
      "amenity": "fast_food",
      "cuisine": "chicken;seafood",
      "addr_state": "MI",
      "addr_city": "Detroit",
      "addr_postcode": "48221",
      "addr_street": "Livernois Avenue",
      "addr_housenumber": "17171",
      "value": 229.58854515959945
    },
    {
      "id": 88533,
      "geometry": "POINT (-83.160103 42.402166)",
      "poi_name": "Krispy Krunchy Chicken",
      "osm_id": 8786627017,
      "amenity": "fast_food",
      "cuisine": "chicken",
      "takeaway": "yes",
      "addr_state": "MI",
      "addr_city": "Detroit",
      "addr_postcode": "48238",
      "addr_street": "Fenkell Street",
      "addr_housenumber": "10001",
      "value": 229.58854515959945
    },
    {
      "id": 88534,
      "geometry": "POINT (-83.159496 42.403851)",
      "poi_name": "Subway",
      "osm_id": 8786700096,
      "amenity": "fast_food",
      "cuisine": "sandwich",
      "takeaway": "yes",
      "addr_state": "MI",
      "addr_city": "Detroit",
      "addr_postcode": "48238",
      "addr_street": "Wyoming Street",
      "addr_housenumber": "15378",
      "value": 229.58854515959945
    },
    {
      "id": 88538,
      "geometry": "POINT (-83.158645 42.388255)",
      "poi_name": "Asian Cornedbeef",
      "osm_id": 8786770739,
      "amenity": "fast_food",
      "cuisine": "asian",
      "opening_hours": "Mo-Sa 11:00-03:00; Su 14:00-22:00",
      "website": "https://asiancornbeef.com/",
      "phone": "+1 313 834 1819",
      "addr_state": "MI",
      "addr_city": "Detroit",
      "addr_postcode": "48238",
      "addr_street": "Wyoming Street",
      "addr_housenumber": "13360",
      "value": 229.58854515959945
    },
    {
      "id": 88604,
      "geometry": "POINT (-83.256321 42.400622)",
      "poi_name": "Krispy Krunchy Chicken",
      "osm_id": 8788711581,
      "amenity": "fast_food",
      "cuisine": "chicken",
      "takeaway": "yes",
      "addr_state": "MI",
      "addr_city": "Detroit",
      "addr_postcode": "48223",
      "addr_street": "Fenkell Street",
      "addr_housenumber": "21740",
      "value": 229.58854515959945
    },
    {
      "id": 88547,
      "geometry": "POINT (-82.959752 42.405877)",
      "poi_name": "Subway",
      "osm_id": 8787254019,
      "amenity": "fast_food",
      "cuisine": "sandwich",
      "takeaway": "yes",
      "addr_state": "MI",
      "addr_city": "Detroit",
      "addr_postcode": "48224",
      "addr_street": "East Outer Drive",
      "addr_housenumber": "10601",
      "value": 229.58854515959945
    },
    {
      "id": 88857,
      "geometry": "POINT (-83.166366 42.262236)",
      "poi_name": "Nu Wave Fish & Chicken",
      "osm_id": 8805242324,
      "amenity": "fast_food",
      "cuisine": "fish;chicken",
      "phone": "+1-313-528-1234",
      "drive_through": "no",
      "addr_state": "MI",
      "addr_city": "Detroit",
      "addr_postcode": "48217",
      "addr_street": "Fort Street South",
      "addr_housenumber": "3517",
      "value": 229.58854515959945
    },
    {
      "id": 88667,
      "geometry": "POINT (-83.217326 42.357343)",
      "poi_name": "McDonald's",
      "osm_id": 8791513487,
      "amenity": "fast_food",
      "cuisine": "burger",
      "website": "https://www.mcdonalds.com/us/en-us/location/mi/detroit/18137-joy-rd/17266.html",
      "takeaway": "yes",
      "addr_state": "MI",
      "addr_city": "Detroit",
      "addr_postcode": "48228",
      "addr_street": "Joy Road",
      "addr_housenumber": "18137",
      "value": 229.58854515959945
    },
    {
      "id": 89653,
      "geometry": "POINT (-83.043878 42.33647)",
      "poi_name": "Subway",
      "osm_id": 8854484278,
      "amenity": "fast_food",
      "cuisine": "sandwich",
      "takeaway": "yes",
      "addr_state": "MI",
      "addr_city": "Detroit",
      "addr_postcode": "48226",
      "addr_street": "Beaubien Street",
      "addr_housenumber": "1401",
      "value": 229.58854515959945
    },
    {
      "id": 89443,
      "geometry": "POINT (-83.026861 42.336626)",
      "poi_name": "Main Street Grill & Coney Island",
      "osm_id": 8846092279,
      "amenity": "fast_food",
      "cuisine": "italian",
      "addr_state": "MI",
      "addr_city": "Detroit",
      "addr_postcode": "48207",
      "addr_street": "East Jefferson Avenue",
      "addr_housenumber": "1985",
      "value": 229.58854515959945
    },
    {
      "id": 89470,
      "geometry": "POINT (-83.12088 42.446059)",
      "poi_name": "Left's Cheesesteak",
      "osm_id": 8847039999,
      "amenity": "fast_food",
      "cuisine": "sandwich",
      "drive_through": "no",
      "addr_state": "MI",
      "addr_city": "Detroit",
      "addr_postcode": "48203",
      "addr_street": "8 Mile Road West",
      "addr_housenumber": "1335",
      "value": 229.58854515959945
    },
    {
      "id": 89471,
      "geometry": "POINT (-83.120787 42.446061)",
      "poi_name": "Wingstop",
      "osm_id": 8847040000,
      "amenity": "fast_food",
      "cuisine": "wings",
      "takeaway": "yes",
      "drive_through": "no",
      "addr_state": "MI",
      "addr_city": "Detroit",
      "addr_postcode": "48203",
      "addr_street": "8 Mile Road West",
      "addr_housenumber": "1331",
      "value": 229.58854515959945
    },
    {
      "id": 89491,
      "geometry": "POINT (-83.020659 42.338556)",
      "poi_name": "Bucharest Grill",
      "osm_id": 8848572248,
      "amenity": "fast_food",
      "cuisine": "sandwich;middle_eastern",
      "website": "https://www.bucharestgrill.com/",
      "phone": "+1-313-965-3111",
      "drive_through": "no",
      "addr_state": "MI",
      "addr_city": "Detroit",
      "addr_postcode": "48207",
      "addr_street": "Jefferson Avenue East",
      "addr_housenumber": "2684",
      "value": 229.58854515959945
    },
    {
      "id": 92072,
      "geometry": "POINT (-83.028159 42.549748)",
      "poi_name": "Papa Romanos",
      "osm_id": 2103670741,
      "amenity": "fast_food",
      "website": "http://paparomanos.snappyeats.com",
      "phone": "+1-586-978-8610",
      "addr_state": "MI",
      "addr_city": "Sterling Heights",
      "addr_postcode": "48312",
      "addr_street": "Van Dyke Avenue",
      "addr_housenumber": "3480",
      "value": 229.58854515959945
    },
    {
      "id": 95473,
      "geometry": "POINT (-83.258065 42.197299)",
      "poi_name": "Honey Baked Ham",
      "osm_id": 6399518345,
      "amenity": "fast_food",
      "cuisine": "american",
      "takeaway": "yes",
      "drive_through": "no",
      "official_name": "The Honey Baked Ham Company",
      "addr_state": "MI",
      "addr_city": "Taylor",
      "addr_postcode": "48180",
      "addr_street": "Eureka Road",
      "addr_housenumber": "23143",
      "value": 229.58854515959945
    },
    {
      "id": 94616,
      "geometry": "POINT (-83.208476 42.199865)",
      "poi_name": "Thai Place",
      "osm_id": 6371075486,
      "amenity": "fast_food",
      "cuisine": "thai",
      "drive_through": "no",
      "addr_state": "MI",
      "addr_city": "Southgate",
      "addr_postcode": "48195",
      "addr_street": "Eureka Road",
      "addr_housenumber": "15230",
      "value": 229.58854515959945
    },
    {
      "id": 94940,
      "geometry": "POINT (-83.155675 42.244314)",
      "poi_name": "Taco Especial",
      "osm_id": 6381429659,
      "amenity": "fast_food",
      "cuisine": "mexican",
      "drive_through": "no",
      "addr_state": "MI",
      "addr_city": "Ecorse",
      "addr_postcode": "48229",
      "addr_street": "Southfield Road",
      "addr_housenumber": "278",
      "value": 229.58854515959945
    },
    {
      "id": 95538,
      "geometry": "POINT (-83.14984 42.203863)",
      "poi_name": "Nourish the Dotte",
      "osm_id": 6401397476,
      "amenity": "fast_food",
      "drive_through": "no",
      "addr_state": "MI",
      "addr_city": "Wyandotte",
      "addr_postcode": "48192",
      "addr_street": "1st Street",
      "addr_housenumber": "2919",
      "value": 229.58854515959945
    },
    {
      "id": 102633,
      "geometry": "POINT (-83.224558 42.126705)",
      "poi_name": "Andy's Coney Island",
      "osm_id": 6689117182,
      "amenity": "fast_food",
      "cuisine": "hot_dog",
      "drive_through": "no",
      "addr_state": "MI",
      "addr_city": "Woodhaven",
      "addr_postcode": "48183",
      "addr_street": "Van Horn Road",
      "addr_housenumber": "19458",
      "value": 229.58854515959945
    },
    {
      "id": 95539,
      "geometry": "POINT (-83.150891 42.201196)",
      "poi_name": "Taco Bros.",
      "osm_id": 6401397477,
      "amenity": "fast_food",
      "cuisine": "mexican",
      "drive_through": "no",
      "addr_state": "MI",
      "addr_city": "Wyandotte",
      "addr_postcode": "48192",
      "addr_street": "Sycamore Street",
      "addr_housenumber": "128",
      "value": 229.58854515959945
    },
    {
      "id": 95584,
      "geometry": "POINT (-83.252725 42.303133)",
      "poi_name": "Bellacino's Pizza & Grinders",
      "osm_id": 6402681808,
      "amenity": "fast_food",
      "cuisine": "pizza",
      "website": "https://locations.bellacinos.com/ll/US/MI/Dearborn/22537-Michigan-Ave",
      "drive_through": "no",
      "addr_state": "MI",
      "addr_city": "Dearborn",
      "addr_postcode": "48124",
      "addr_street": "Michigan Avenue",
      "addr_housenumber": "22537",
      "value": 229.58854515959945
    },
    {
      "id": 95585,
      "geometry": "POINT (-83.210623 42.259256)",
      "poi_name": "Subway",
      "osm_id": 6402686187,
      "amenity": "fast_food",
      "cuisine": "sandwich",
      "takeaway": "yes",
      "drive_through": "no",
      "addr_state": "MI",
      "addr_city": "Allen Park",
      "addr_postcode": "48101",
      "addr_street": "Southfield Road",
      "addr_housenumber": "15861",
      "value": 229.58854515959945
    },
    {
      "id": 97159,
      "geometry": "POINT (-83.181215 42.207704)",
      "poi_name": "Galindo's: A Taste Of Mexico",
      "osm_id": 6465748714,
      "amenity": "fast_food",
      "cuisine": "mexican",
      "drive_through": "no",
      "addr_state": "MI",
      "addr_city": "Southgate",
      "addr_postcode": "48195",
      "addr_street": "Fort Street",
      "addr_housenumber": "13754",
      "value": 229.58854515959945
    },
    {
      "id": 97164,
      "geometry": "POINT (-83.206491 42.202031)",
      "poi_name": "Foggia's Pizzeria",
      "osm_id": 6465771665,
      "amenity": "fast_food",
      "cuisine": "pizza",
      "phone": "+1-734-284-1030",
      "drive_through": "no",
      "addr_state": "MI",
      "addr_city": "Southgate",
      "addr_postcode": "48195",
      "addr_street": "Dix-Toledo Highway",
      "addr_housenumber": "14795",
      "value": 229.58854515959945
    },
    {
      "id": 102743,
      "geometry": "POINT (-83.139325 42.368464)",
      "poi_name": "McDonald's",
      "osm_id": 8455253307,
      "amenity": "fast_food",
      "cuisine": "burger",
      "website": "https://www.mcdonalds.com/us/en-us/location/mi/detroit/9815-grand-river-avenue/12122.html",
      "takeaway": "yes",
      "addr_state": "MI",
      "addr_city": "Detroit",
      "addr_postcode": "48204",
      "addr_street": "Grand River Avenue",
      "addr_housenumber": "9815",
      "value": 229.58854515959945
    },
    {
      "id": 102849,
      "geometry": "POINT (-82.940072 42.493673)",
      "poi_name": "McDonald's",
      "osm_id": 8462083067,
      "amenity": "fast_food",
      "cuisine": "burger",
      "website": "https://www.mcdonalds.com/us/en-us/location/mi/roseville/26765-gratiot-avenue/18341.html",
      "takeaway": "yes",
      "addr_state": "MI",
      "addr_city": "Roseville",
      "addr_postcode": "48066",
      "addr_street": "Gratiot Avenue",
      "addr_housenumber": "26765",
      "value": 229.58854515959945
    },
    {
      "id": 102938,
      "geometry": "POINT (-83.260021 42.442897)",
      "poi_name": "McDonald's",
      "osm_id": 8467789123,
      "amenity": "fast_food",
      "cuisine": "burger",
      "website": "https://www.mcdonalds.com/us/en-us/location/mi/detroit/22021-west-8-mile-road/24733.html",
      "takeaway": "yes",
      "addr_state": "MI",
      "addr_city": "Detroit",
      "addr_postcode": "48219",
      "addr_street": "8 Mile Road",
      "addr_housenumber": "22021",
      "value": 229.58854515959945
    },
    {
      "id": 103238,
      "geometry": "POINT (-82.871055 42.555706)",
      "poi_name": "McDonald's",
      "osm_id": 8492123249,
      "amenity": "fast_food",
      "cuisine": "burger",
      "website": "https://www.mcdonalds.com/us/en-us/location/mi/clinton-township/35025-harper-avenue/21049.html",
      "takeaway": "yes",
      "addr_state": "MI",
      "addr_city": "Clinton Township",
      "addr_postcode": "48035",
      "addr_street": "Harper Avenue",
      "addr_housenumber": "35025",
      "value": 229.58854515959945
    },
    {
      "id": 103240,
      "geometry": "POINT (-82.931225 42.554644)",
      "poi_name": "Bigtime Market",
      "osm_id": 8492123460,
      "amenity": "fast_food",
      "cuisine": "sandwich",
      "opening_hours": "Mo-Fr 11:00-18:00; Sa 11:00-16:00",
      "website": "https://www.bigtimemarkets.com/",
      "shop": "convenience",
      "phone": "+1-586-422-2292",
      "addr_state": "MI",
      "addr_city": "Clinton Township",
      "addr_postcode": "48035",
      "addr_street": "15 Mile Road",
      "addr_housenumber": "18645",
      "value": 229.58854515959945
    },
    {
      "id": 103329,
      "geometry": "POINT (-83.045501 42.462002)",
      "poi_name": "A&W",
      "osm_id": 8495370053,
      "amenity": "fast_food",
      "cuisine": "burger",
      "opening_hours": "11:00-21:00",
      "website": "https://awrestaurants.com/locations/michigan/warren/22901-mound-road",
      "phone": "+1 589 756 9000",
      "takeaway": "yes",
      "addr_state": "MI",
      "addr_city": "Warren",
      "addr_postcode": "48091",
      "addr_street": "Mound Road",
      "addr_housenumber": "22901",
      "value": 229.58854515959945
    },
    {
      "id": 103314,
      "geometry": "POINT (-83.194022 42.225729)",
      "poi_name": "Dunkin'",
      "osm_id": 8495199983,
      "amenity": "fast_food",
      "cuisine": "donut;coffee_shop",
      "takeaway": "yes",
      "drive_through": "no",
      "addr_state": "MI",
      "addr_city": "Lincoln Park",
      "addr_postcode": "48146",
      "addr_street": "Dix Highway",
      "addr_housenumber": "4005",
      "value": 229.58854515959945
    },
    {
      "id": 103355,
      "geometry": "POINT (-83.191469 42.254)",
      "poi_name": "Hungry Howie's",
      "osm_id": 8497555229,
      "amenity": "fast_food",
      "cuisine": "pizza",
      "takeaway": "yes",
      "drive_through": "no",
      "addr_state": "MI",
      "addr_city": "Lincoln Park",
      "addr_postcode": "48146",
      "addr_street": "Southfield Road",
      "addr_housenumber": "1863",
      "value": 229.58854515959945
    },
    {
      "id": 103506,
      "geometry": "POINT (-83.202579 42.535736)",
      "poi_name": "Dunkin'",
      "osm_id": 8505615155,
      "amenity": "fast_food",
      "cuisine": "donut;coffee_shop",
      "takeaway": "yes",
      "addr_state": "MI",
      "addr_city": "Birmingham",
      "addr_postcode": "48009",
      "addr_street": "South Woodward Avenue",
      "addr_housenumber": "33588",
      "value": 229.58854515959945
    },
    {
      "id": 103356,
      "geometry": "POINT (-83.191604 42.254039)",
      "poi_name": "Wingstop",
      "osm_id": 8497555231,
      "amenity": "fast_food",
      "cuisine": "wings",
      "takeaway": "yes",
      "drive_through": "no",
      "addr_state": "MI",
      "addr_city": "Lincoln Park",
      "addr_postcode": "48146",
      "addr_street": "Southfield Road",
      "addr_housenumber": "1871",
      "value": 229.58854515959945
    },
    {
      "id": 103753,
      "geometry": "POINT (-83.107946 42.505108)",
      "poi_name": "Tropical Smoothie Cafe",
      "osm_id": 8522486273,
      "amenity": "fast_food",
      "cuisine": "juice",
      "takeaway": "yes",
      "drive_through": "yes",
      "addr_state": "MI",
      "addr_city": "Madison Heights",
      "addr_postcode": "48071",
      "addr_street": "West 12 Mile Road",
      "addr_housenumber": "200",
      "value": 229.58854515959945
    },
    {
      "id": 104107,
      "geometry": "POINT (-83.222891 42.139318)",
      "poi_name": "Sugarr Donuts",
      "osm_id": 8547351330,
      "amenity": "fast_food",
      "cuisine": "donut",
      "opening_hours": "Mo-Fr 06:00-21:00; Sa 08:00-21:00; Su 08:00-17:00",
      "website": "https://sugarrdonuts.com/",
      "phone": "+1-734-672-7275",
      "drive_through": "no",
      "addr_state": "MI",
      "addr_city": "Woodhaven",
      "addr_postcode": "48183",
      "addr_street": "West Road",
      "addr_housenumber": "19115",
      "value": 229.58854515959945
    },
    {
      "id": 104109,
      "geometry": "POINT (-83.214889 42.140532)",
      "poi_name": "Hungry Howie's",
      "osm_id": 8547351360,
      "amenity": "fast_food",
      "cuisine": "pizza",
      "takeaway": "yes",
      "drive_through": "no",
      "addr_state": "MI",
      "addr_city": "Trenton",
      "addr_postcode": "48183",
      "addr_street": "West Road",
      "addr_housenumber": "3921",
      "value": 229.58854515959945
    },
    {
      "id": 103681,
      "geometry": "POINT (-83.107852 42.46147)",
      "poi_name": "Wendy's",
      "osm_id": 8519327735,
      "amenity": "fast_food",
      "cuisine": "burger",
      "takeaway": "yes",
      "addr_state": "MI",
      "addr_city": "Hazel Park",
      "addr_postcode": "48030",
      "addr_street": "West 9 Mile Road",
      "addr_housenumber": "330",
      "value": 229.58854515959945
    },
    {
      "id": 104436,
      "geometry": "POINT (-83.20238 42.473547)",
      "poi_name": "Krispy Krunchy Chicken",
      "osm_id": 8569811122,
      "amenity": "fast_food",
      "cuisine": "chicken",
      "takeaway": "yes",
      "addr_state": "MI",
      "addr_city": "Southfield",
      "addr_postcode": "48076",
      "addr_street": "West 10 Mile Road",
      "addr_housenumber": "24839",
      "value": 229.58854515959945
    },
    {
      "id": 105036,
      "geometry": "POINT (-83.364784 42.338902)",
      "poi_name": "Subway",
      "osm_id": 8597247944,
      "amenity": "fast_food",
      "cuisine": "sandwich",
      "takeaway": "yes",
      "addr_state": "MI",
      "addr_city": "Garden City",
      "addr_postcode": "48135",
      "addr_street": "Warren Road",
      "addr_housenumber": "32889",
      "value": 229.58854515959945
    },
    {
      "id": 105328,
      "geometry": "POINT (-83.410931 42.352482)",
      "poi_name": "Streetside Burger",
      "osm_id": 8618146466,
      "amenity": "fast_food",
      "cuisine": "burger",
      "opening_hours": "Mo-Sa 11:00-21:00",
      "website": "https://www.streetsideburger.com/",
      "phone": "+1 734 404 5757",
      "addr_state": "MI",
      "addr_city": "Westland",
      "addr_postcode": "48185",
      "addr_street": "Joy Road",
      "addr_housenumber": "37401",
      "value": 229.58854515959945
    },
    {
      "id": 105230,
      "geometry": "POINT (-83.26879 42.233898)",
      "poi_name": "Tubby's",
      "osm_id": 8613881046,
      "amenity": "fast_food",
      "cuisine": "sandwich",
      "opening_hours": "Mo-Fr 09:30-21:00; Sa,Su 10:00-21:00",
      "website": "https://www.tubbys.com/location-page/tubbys-taylor-89",
      "phone": "+1 248 548 5500",
      "takeaway": "yes",
      "addr_state": "MI",
      "addr_city": "Taylor",
      "addr_postcode": "48180",
      "addr_street": "Telegraph Road",
      "addr_housenumber": "10005",
      "value": 229.58854515959945
    },
    {
      "id": 105351,
      "geometry": "POINT (-83.274791 42.363712)",
      "poi_name": "Dunkin'",
      "osm_id": 8619205210,
      "amenity": "fast_food",
      "cuisine": "donut;coffee_shop",
      "website": "https://locations.dunkindonuts.com/en/mi/redford/9406-telegraph-rd/337855",
      "phone": "+1 313 539 4910",
      "takeaway": "yes",
      "addr_state": "MI",
      "addr_city": "Redford",
      "addr_postcode": "48239",
      "addr_street": "Telegraph Road",
      "addr_housenumber": "9406",
      "value": 229.58854515959945
    },
    {
      "id": 105460,
      "geometry": "POINT (-83.255665 42.200446)",
      "poi_name": "BB's Smoothies & Wraps",
      "osm_id": 8630137678,
      "amenity": "fast_food",
      "cuisine": "juice",
      "drive_through": "no",
      "addr_state": "MI",
      "addr_city": "Taylor",
      "addr_postcode": "48180",
      "addr_street": "Eureka Road",
      "addr_housenumber": "23000",
      "value": 229.58854515959945
    },
    {
      "id": 105461,
      "geometry": "POINT (-83.269888 42.223861)",
      "poi_name": "Del Taco",
      "osm_id": 8630137679,
      "amenity": "fast_food",
      "cuisine": "mexican",
      "takeaway": "yes",
      "drive_through": "yes",
      "addr_state": "MI",
      "addr_city": "Taylor",
      "addr_postcode": "48180",
      "addr_street": "Telegraph Road",
      "addr_housenumber": "11386",
      "value": 229.58854515959945
    },
    {
      "id": 105532,
      "geometry": "POINT (-83.04801 42.330621)",
      "poi_name": "Kwench Juice Cafe",
      "osm_id": 8633150499,
      "amenity": "fast_food",
      "cuisine": "juice",
      "addr_state": "MI",
      "addr_city": "Detroit",
      "addr_postcode": "48226",
      "addr_street": "Griswold Street",
      "addr_housenumber": "719",
      "value": 229.58854515959945
    },
    {
      "id": 107000,
      "geometry": "POINT (-83.437035 42.437542)",
      "poi_name": "Five Guys",
      "osm_id": 3528810852,
      "amenity": "fast_food",
      "cuisine": "burger",
      "opening_hours": "Su-Sa 11:00-22:00",
      "phone": "+1-248-349-6400",
      "takeaway": "yes",
      "official_name": "Five Guys Burgers and Fries",
      "addr_state": "MI",
      "addr_city": "Northville",
      "addr_postcode": "48167",
      "addr_street": "Haggerty Road",
      "addr_housenumber": "20571",
      "value": 229.58854515959945
    },
    {
      "id": 105641,
      "geometry": "POINT (-83.223982 42.504767)",
      "poi_name": "Southfield Nutrition",
      "osm_id": 8638213075,
      "amenity": "fast_food",
      "cuisine": "juice",
      "opening_hours": "Mo-Fr 7:00- 19:00; Sa-Su 9:00-15:00",
      "phone": "+1-248-955-9777",
      "addr_state": "MI",
      "addr_city": "Southfield",
      "addr_postcode": "48076",
      "addr_street": "Southfield Road",
      "addr_housenumber": "29221",
      "value": 229.58854515959945
    },
    {
      "id": 105655,
      "geometry": "POINT (-83.09464 42.4024)",
      "poi_name": "Little Caesars",
      "osm_id": 8638550304,
      "amenity": "fast_food",
      "cuisine": "pizza",
      "website": "https://littlecaesars.com/en-us/store/41",
      "phone": "+1-313-869-6300",
      "takeaway": "yes",
      "addr_state": "MI",
      "addr_city": "Highland Park",
      "addr_postcode": "48203",
      "addr_street": "Woodward Avenue",
      "addr_housenumber": "13222",
      "value": 229.58854515959945
    },
    {
      "id": 105936,
      "geometry": "POINT (-83.161878 42.329336)",
      "poi_name": "Taystee's Burgers",
      "osm_id": 8655148946,
      "amenity": "fast_food",
      "cuisine": "burger",
      "opening_hours": "Mo-Th 11:00-23:00; Fr,Sa 11:00-24:00; Su 12:00-24:00",
      "website": "https://taysteesburger.com/",
      "phone": "+1 313 724 6535",
      "addr_state": "MI",
      "addr_city": "Dearborn",
      "addr_postcode": "48126",
      "addr_street": "Ford Road",
      "addr_housenumber": "10419",
      "value": 229.58854515959945
    },
    {
      "id": 109298,
      "geometry": "POINT (-83.188461 42.308754)",
      "poi_name": "Wendy's",
      "osm_id": 3656481230,
      "amenity": "fast_food",
      "cuisine": "burger",
      "opening_hours": "Mo-Su 10:00-24:00",
      "phone": "+1-313-240-5295",
      "takeaway": "yes",
      "drive_through": "yes",
      "addr_state": "MI",
      "addr_city": "Dearborn",
      "addr_postcode": "48120",
      "addr_street": "Greenfield Road",
      "addr_housenumber": "3560",
      "value": 229.58854515959945
    },
    {
      "id": 110663,
      "geometry": "POINT (-83.153195 42.312509)",
      "poi_name": "Bisher Market",
      "osm_id": 3712016025,
      "amenity": "fast_food",
      "wheelchair": "no",
      "drive_through": "no",
      "addr_state": "MI",
      "addr_city": "Detroit",
      "addr_postcode": "48120",
      "addr_street": "Wyoming Street",
      "addr_housenumber": "3440",
      "value": 229.58854515959945
    },
    {
      "id": 111469,
      "geometry": "POINT (-83.248771 42.19848)",
      "poi_name": "Penn Station",
      "osm_id": 3749562166,
      "amenity": "fast_food",
      "cuisine": "sandwich",
      "takeaway": "yes",
      "drive_through": "no",
      "addr_state": "MI",
      "addr_city": "Taylor",
      "addr_postcode": "48180",
      "addr_street": "Eureka Road",
      "addr_housenumber": "22020",
      "value": 229.58854515959945
    },
    {
      "id": 112576,
      "geometry": "POINT (-83.058528 42.397626)",
      "poi_name": "Amicci's Pizza",
      "osm_id": 3796860656,
      "amenity": "fast_food",
      "cuisine": "pizza",
      "website": "http://www.amiccispizzamenu.com/",
      "addr_city": "Hamtramck",
      "addr_postcode": "48212",
      "addr_street": "Joseph Campau Street",
      "addr_housenumber": "9841",
      "value": 229.58854515959945
    },
    {
      "id": 115488,
      "geometry": "POINT (-83.187465 42.516459)",
      "poi_name": "Bucharest Grill Express",
      "osm_id": 8899210374,
      "amenity": "fast_food",
      "cuisine": "sandwich;middle_eastern",
      "website": "https://www.bucharestgrill.com/",
      "phone": "+1-313-965-3111",
      "drive_through": "no",
      "addr_state": "MI",
      "addr_city": "Royal Oak",
      "addr_postcode": "48073",
      "addr_street": "Woodward Avenue",
      "addr_housenumber": "30955",
      "value": 229.58854515959945
    },
    {
      "id": 115489,
      "geometry": "POINT (-83.141321 42.436567)",
      "poi_name": "Bucharest Grill",
      "osm_id": 8899210379,
      "amenity": "fast_food",
      "cuisine": "sandwich;middle_eastern",
      "website": "https://www.bucharestgrill.com/",
      "phone": "+1-313-965-3111",
      "drive_through": "no",
      "addr_state": "MI",
      "addr_city": "Detroit",
      "addr_postcode": "48221",
      "addr_street": "Livernois Avenue",
      "addr_housenumber": "19492",
      "value": 229.58854515959945
    },
    {
      "id": 115490,
      "geometry": "POINT (-83.186758 42.516826)",
      "poi_name": "MOD Pizza",
      "osm_id": 8899210382,
      "amenity": "fast_food",
      "cuisine": "pizza",
      "takeaway": "yes",
      "drive_through": "no",
      "addr_state": "MI",
      "addr_city": "Royal Oak",
      "addr_postcode": "48073",
      "addr_street": "Woodward Avenue",
      "addr_housenumber": "30955",
      "value": 229.58854515959945
    },
    {
      "id": 115491,
      "geometry": "POINT (-83.187318 42.517495)",
      "poi_name": "Panera Bread",
      "osm_id": 8899210387,
      "amenity": "fast_food",
      "cuisine": "sandwich;bakery",
      "opening_hours": "Mo 06:00-22:00; Tu 06:00-21:00; We-Sa 06:00-22:00; Su 07:00-21:00",
      "website": "https://locations.panerabread.com/mi/royal-oak/30955-woodward-ave.html",
      "phone": "+1-248-203-7966",
      "takeaway": "yes",
      "drive_through": "no",
      "addr_state": "MI",
      "addr_city": "Royal Oak",
      "addr_postcode": "48073",
      "addr_street": "Woodward Avenue",
      "addr_housenumber": "30955",
      "value": 229.58854515959945
    },
    {
      "id": 119282,
      "geometry": "POINT (-83.042452 42.353226)",
      "poi_name": "Louie's Corned Beef and Ham",
      "osm_id": 9095050650,
      "amenity": "fast_food",
      "website": "https://louieseasternmarket.com/",
      "addr_state": "MI",
      "addr_city": "Detroit",
      "addr_postcode": "48207",
      "addr_street": "Riopelle Street",
      "addr_housenumber": "3570",
      "value": 229.58854515959945
    },
    {
      "id": 116171,
      "geometry": "POINT (-83.204251 42.198678)",
      "poi_name": "Dunkin'",
      "osm_id": 8930987519,
      "amenity": "fast_food",
      "cuisine": "donut;coffee_shop",
      "takeaway": "yes",
      "drive_through": "yes",
      "addr_state": "MI",
      "addr_city": "Southgate",
      "addr_postcode": "48195",
      "addr_street": "Eureka Road",
      "addr_housenumber": "14791",
      "value": 229.58854515959945
    },
    {
      "id": 117597,
      "geometry": "POINT (-83.068669 42.367017)",
      "poi_name": "Bucharest Grill",
      "osm_id": 9001856828,
      "amenity": "fast_food",
      "cuisine": "sandwich;middle_eastern",
      "website": "https://www.bucharestgrill.com/",
      "phone": "+1-313-965-3111",
      "drive_through": "no",
      "addr_state": "MI",
      "addr_city": "Detroit",
      "addr_postcode": "48202",
      "addr_street": "Piquette Avenue",
      "addr_housenumber": "110",
      "value": 229.58854515959945
    },
    {
      "id": 118686,
      "geometry": "POINT (-83.080796 42.367849)",
      "poi_name": "McDonald's",
      "osm_id": 9061158119,
      "amenity": "fast_food",
      "cuisine": "burger",
      "website": "https://www.mcdonalds.com/us/en-us/location/mi/detroit/2889-w-grand-blvd/4496.html",
      "takeaway": "yes",
      "drive_through": "yes",
      "addr_state": "MI",
      "addr_city": "Detroit",
      "addr_postcode": "48202",
      "addr_street": "West Grand Boulevard",
      "addr_housenumber": "2889",
      "value": 229.58854515959945
    },
    {
      "id": 117930,
      "geometry": "POINT (-83.100549 42.409673)",
      "poi_name": "Church's Texas Chicken",
      "osm_id": 9018495158,
      "amenity": "fast_food",
      "cuisine": "chicken",
      "takeaway": "yes",
      "drive_through": "yes",
      "addr_state": "MI",
      "addr_city": "Highland Park",
      "addr_postcode": "48203",
      "addr_street": "Woodward Avenue",
      "addr_housenumber": "15101",
      "value": 229.58854515959945
    },
    {
      "id": 119283,
      "geometry": "POINT (-83.046491 42.351346)",
      "poi_name": "McDonald's",
      "osm_id": 9095050676,
      "amenity": "fast_food",
      "cuisine": "burger",
      "website": "https://www.mcdonalds.com/us/en-us/location/mi/detroit/1000-mack-ave/11236.html",
      "takeaway": "yes",
      "addr_state": "MI",
      "addr_city": "Detroit",
      "addr_postcode": "48207",
      "addr_street": "Mack Avenue",
      "addr_housenumber": "1000",
      "value": 229.58854515959945
    },
    {
      "id": 119962,
      "geometry": "POINT (-83.077094 42.376283)",
      "poi_name": "Turkey Grill",
      "osm_id": 9129889035,
      "amenity": "fast_food",
      "cuisine": "wings",
      "addr_state": "MI",
      "addr_city": "Detroit",
      "addr_postcode": "48202",
      "addr_street": "Woodward Avenue",
      "addr_housenumber": "8290",
      "value": 229.58854515959945
    },
    {
      "id": 119479,
      "geometry": "POINT (-83.09024 42.362347)",
      "poi_name": "Papa's Soul Food and Grill",
      "osm_id": 9104053963,
      "amenity": "fast_food",
      "cuisine": "southern",
      "addr_state": "MI",
      "addr_city": "Detroit",
      "addr_postcode": "48208",
      "addr_street": "Ferry Park Avenue",
      "addr_housenumber": "6249",
      "value": 229.58854515959945
    },
    {
      "id": 119892,
      "geometry": "POINT (-83.236615 42.414868)",
      "poi_name": "Church's Chicken",
      "osm_id": 9126896739,
      "amenity": "fast_food",
      "cuisine": "chicken",
      "takeaway": "yes",
      "addr_state": "MI",
      "addr_city": "Detroit",
      "addr_postcode": "48219",
      "addr_street": "West McNichols Road",
      "addr_housenumber": "19741",
      "value": 229.58854515959945
    },
    {
      "id": 120170,
      "geometry": "POINT (-83.283828 42.269191)",
      "poi_name": "Little Caesars",
      "osm_id": 9143518135,
      "amenity": "fast_food",
      "cuisine": "pizza",
      "website": "https://littlecaesars.com/en-us/store/65",
      "phone": "+1-313-292-0400",
      "takeaway": "yes",
      "addr_state": "MI",
      "addr_city": "Dearborn Heights",
      "addr_postcode": "48125",
      "addr_street": "Van Born Road",
      "addr_housenumber": "25320",
      "value": 229.58854515959945
    },
    {
      "id": 121988,
      "geometry": "POINT (-83.205409 42.281091)",
      "poi_name": "Smoothie King",
      "osm_id": 6782809335,
      "amenity": "fast_food",
      "cuisine": "juice",
      "takeaway": "yes",
      "drive_through": "yes",
      "addr_state": "MI",
      "addr_city": "Allen Park",
      "addr_postcode": "48101",
      "addr_street": "Fairlane Drive",
      "addr_housenumber": "3169",
      "value": 229.58854515959945
    },
    {
      "id": 125253,
      "geometry": "POINT (-83.215325 42.278337)",
      "poi_name": "Five Guys",
      "osm_id": 6952381476,
      "amenity": "fast_food",
      "cuisine": "burger",
      "takeaway": "yes",
      "drive_through": "no",
      "official_name": "Five Guys Burgers and Fries",
      "addr_state": "MI",
      "addr_city": "Allen Park",
      "addr_postcode": "48101",
      "addr_street": "West Outer Drive",
      "addr_housenumber": "23007",
      "value": 229.58854515959945
    },
    {
      "id": 127000,
      "geometry": "POINT (-83.06897 42.360393)",
      "poi_name": "Campus Diner",
      "osm_id": 8017667054,
      "amenity": "fast_food",
      "cuisine": "american",
      "opening_hours": "Mo-Sa 08:00-16:00",
      "addr_state": "MI",
      "addr_city": "Detroit",
      "addr_postcode": "48202",
      "addr_street": "Cass Avenue",
      "addr_housenumber": "5470",
      "value": 229.58854515959945
    },
    {
      "id": 128825,
      "geometry": "POINT (-83.384061 42.338639)",
      "poi_name": "Slice of the 80's",
      "osm_id": 8188986876,
      "amenity": "fast_food",
      "cuisine": "pizza",
      "opening_hours": "Su 11:00-22:00; Mo-Th 12:00-22:00; Fr-Sa 11:00-24:00",
      "website": "https://www.sliceofthe80s.com/",
      "phone": "+1 734 728 1980",
      "addr_state": "MI",
      "addr_city": "Westland",
      "addr_postcode": "48185",
      "addr_street": "Warren Road",
      "addr_housenumber": "34747",
      "value": 229.58854515959945
    },
    {
      "id": 128805,
      "geometry": "POINT (-83.028869 42.534288)",
      "poi_name": "Subway",
      "osm_id": 8188026376,
      "amenity": "fast_food",
      "cuisine": "sandwich",
      "takeaway": "yes",
      "addr_state": "MI",
      "addr_city": "Warren",
      "addr_postcode": "48093",
      "addr_street": "Van Dyke Avenue",
      "addr_housenumber": "32620",
      "value": 229.58854515959945
    },
    {
      "id": 129343,
      "geometry": "POINT (-83.21012 42.278806)",
      "poi_name": "Subway",
      "osm_id": 8236542179,
      "amenity": "fast_food",
      "cuisine": "sandwich",
      "website": "https://order.subway.com/en-US/locator",
      "phone": "+1-313-274-6432",
      "takeaway": "yes",
      "addr_state": "MI",
      "addr_city": "Allen Park",
      "addr_postcode": "48101",
      "addr_street": "West Outer Drive",
      "addr_housenumber": "23229",
      "value": 229.58854515959945
    },
    {
      "id": 129063,
      "geometry": "POINT (-83.02973 42.532058)",
      "poi_name": "Donut Hole",
      "osm_id": 8206672968,
      "amenity": "fast_food",
      "cuisine": "donut",
      "phone": "+1-586-939-8810",
      "addr_state": "MI",
      "addr_city": "Warren",
      "addr_postcode": "48093",
      "addr_street": "Van Dyke Avenue",
      "addr_housenumber": "32187",
      "value": 229.58854515959945
    },
    {
      "id": 129064,
      "geometry": "POINT (-83.029902 42.531598)",
      "poi_name": "McDonald's",
      "osm_id": 8206672985,
      "amenity": "fast_food",
      "cuisine": "burger",
      "website": "https://www.mcdonalds.com/us/en-us/location/mi/warren/32155-van-dyke-ave/35179.html",
      "phone": "+1-586-983-2606",
      "takeaway": "yes",
      "drive_through": "yes",
      "addr_state": "MI",
      "addr_city": "Warren",
      "addr_postcode": "48093",
      "addr_street": "Van Dyke Avenue",
      "addr_housenumber": "32155",
      "value": 229.58854515959945
    },
    {
      "id": 130719,
      "geometry": "POINT (-83.025001 42.441678)",
      "poi_name": "Burger King",
      "osm_id": 9887269125,
      "amenity": "fast_food",
      "cuisine": "burger",
      "takeaway": "yes",
      "addr_state": "MI",
      "addr_city": "Detroit",
      "addr_postcode": "48234",
      "addr_street": "Van Dyke Street",
      "addr_housenumber": "19901",
      "value": 229.58854515959945
    },
    {
      "id": 130733,
      "geometry": "POINT (-83.064156 42.447018)",
      "poi_name": "Checkers",
      "osm_id": 9887930362,
      "amenity": "fast_food",
      "cuisine": "burger",
      "takeaway": "yes",
      "addr_state": "MI",
      "addr_city": "Detroit",
      "addr_postcode": "48234",
      "addr_street": "East 8 Mile Road",
      "addr_housenumber": "4030",
      "value": 229.58854515959945
    },
    {
      "id": 133588,
      "geometry": "POINT (-83.219597 42.35805)",
      "poi_name": "Subway",
      "osm_id": 9999759369,
      "amenity": "fast_food",
      "cuisine": "sandwich",
      "takeaway": "yes",
      "addr_state": "MI",
      "addr_city": "Detroit",
      "addr_postcode": "48228",
      "addr_street": "Joy Road",
      "addr_housenumber": "18334",
      "value": 229.58854515959945
    },
    {
      "id": 133466,
      "geometry": "POINT (-83.26567 42.442861)",
      "poi_name": "Omega Coney Restaurant",
      "osm_id": 9995453520,
      "amenity": "fast_food",
      "addr_state": "MI",
      "addr_city": "Detroit",
      "addr_postcode": "48219",
      "addr_street": "8 Mile Road",
      "addr_housenumber": "22501",
      "value": 229.58854515959945
    },
    {
      "id": 133471,
      "geometry": "POINT (-83.200465 42.430678)",
      "poi_name": "Burger King",
      "osm_id": 9995485161,
      "amenity": "fast_food",
      "cuisine": "burger",
      "takeaway": "yes",
      "addr_state": "MI",
      "addr_city": "Detroit",
      "addr_postcode": "48235",
      "addr_street": "West 7 Mile Road",
      "addr_housenumber": "15500",
      "value": 229.58854515959945
    },
    {
      "id": 130781,
      "geometry": "POINT (-83.065918 42.356047)",
      "poi_name": "Fresh Rootz, LLC",
      "osm_id": 9890889609,
      "amenity": "fast_food",
      "cuisine": "juice",
      "website": "https://www.freshrootzjuice.com/",
      "phone": "+1-313-502-5728",
      "addr_state": "MI",
      "addr_city": "Detroit",
      "addr_street": "West Warren Avenue",
      "addr_housenumber": "97",
      "value": 229.58854515959945
    },
    {
      "id": 133343,
      "geometry": "POINT (-83.063861 42.378294)",
      "poi_name": "Clay Super Coney Island",
      "osm_id": 9989078305,
      "amenity": "fast_food",
      "addr_state": "MI",
      "addr_city": "Detroit",
      "addr_postcode": "48211",
      "addr_street": "Clay Street",
      "addr_housenumber": "1141",
      "value": 229.58854515959945
    },
    {
      "id": 134349,
      "geometry": "POINT (-83.260414 42.417924)",
      "poi_name": "Wendy's",
      "osm_id": 11465541345,
      "amenity": "fast_food",
      "cuisine": "burger",
      "takeaway": "yes",
      "addr_state": "MI",
      "addr_city": "Detroit",
      "addr_postcode": "48219",
      "addr_street": "Grand River Avenue",
      "addr_housenumber": "22222",
      "value": 229.58854515959945
    },
    {
      "id": 133947,
      "geometry": "POINT (-83.232822 42.386137)",
      "poi_name": "Billy's Coney Island",
      "osm_id": 10018176534,
      "amenity": "fast_food",
      "addr_state": "MI",
      "addr_city": "Detroit",
      "addr_postcode": "48223",
      "addr_street": "Schoolcraft Street",
      "addr_housenumber": "19441",
      "value": 229.58854515959945
    },
    {
      "id": 133949,
      "geometry": "POINT (-83.237083 42.386068)",
      "poi_name": "Sonny's Hamburgers",
      "osm_id": 10018218148,
      "amenity": "fast_food",
      "addr_state": "MI",
      "addr_city": "Detroit",
      "addr_postcode": "48223",
      "addr_street": "Schoolcraft Street",
      "addr_housenumber": "20001",
      "value": 229.58854515959945
    },
    {
      "id": 137040,
      "geometry": "POINT (-82.914478 42.40946)",
      "poi_name": "McDonald's",
      "osm_id": 6083055340,
      "amenity": "fast_food",
      "cuisine": "burger",
      "website": "https://www.mcdonalds.com/us/en-us/location/mi/detroit/18201-mack-avenue/34783.html",
      "takeaway": "yes",
      "addr_state": "MI",
      "addr_city": "Detroit",
      "addr_postcode": "48224",
      "addr_street": "Mack Avenue",
      "addr_housenumber": "18201",
      "value": 229.58854515959945
    },
    {
      "id": 134439,
      "geometry": "POINT (-83.182932 42.473218)",
      "poi_name": "Hungry Howie's",
      "osm_id": 11470127217,
      "amenity": "fast_food",
      "cuisine": "pizza",
      "takeaway": "yes",
      "addr_state": "MI",
      "addr_city": "Oak Park",
      "addr_postcode": "48237",
      "addr_street": "Coolidge Highway",
      "addr_housenumber": "24691",
      "value": 229.58854515959945
    },
    {
      "id": 134622,
      "geometry": "POINT (-83.136301 42.352258)",
      "poi_name": "Onasis Coney Island",
      "osm_id": 11479190084,
      "amenity": "fast_food",
      "addr_state": "MI",
      "addr_city": "Detroit",
      "addr_postcode": "48204",
      "addr_street": "Livernois Avenue",
      "addr_housenumber": "8001",
      "value": 229.58854515959945
    },
    {
      "id": 136135,
      "geometry": "POINT (-83.219984 42.343554)",
      "poi_name": "Captain Jay's Fish & Chicken",
      "osm_id": 11564727163,
      "amenity": "fast_food",
      "cuisine": "seafood;chicken",
      "opening_hours": "Mo-Su 11:00-23:00",
      "website": "https://www.captainjays.net/",
      "phone": "+1-313-982-0100",
      "addr_state": "MI",
      "addr_city": "Detroit",
      "addr_postcode": "48228",
      "addr_street": "West Warren Avenue",
      "addr_housenumber": "18400",
      "value": 229.58854515959945
    },
    {
      "id": 136344,
      "geometry": "POINT (-83.268946 42.241679)",
      "poi_name": "Wingstop",
      "osm_id": 11580331963,
      "amenity": "fast_food",
      "cuisine": "wings",
      "takeaway": "yes",
      "drive_through": "no",
      "addr_state": "MI",
      "addr_city": "Taylor",
      "addr_postcode": "48180",
      "addr_street": "Telegraph Road",
      "addr_housenumber": "9135",
      "value": 229.58854515959945
    },
    {
      "id": 141520,
      "geometry": "POINT (-83.212161 42.25728)",
      "poi_name": "The Glass Onion Griddle",
      "osm_id": 6287442111,
      "amenity": "fast_food",
      "cuisine": "sandwich",
      "drive_through": "no",
      "addr_state": "MI",
      "addr_city": "Allen Park",
      "addr_postcode": "48101",
      "addr_street": "Allen Road",
      "addr_housenumber": "6828",
      "value": 229.58854515959945
    },
    {
      "id": 143869,
      "geometry": "POINT (-83.163431 42.214248)",
      "poi_name": "Little Caesars",
      "osm_id": 6354541425,
      "amenity": "fast_food",
      "cuisine": "pizza",
      "website": "https://littlecaesars.com/en-us/store/1217/",
      "takeaway": "yes",
      "drive_through": "no",
      "addr_state": "MI",
      "addr_city": "Wyandotte",
      "addr_postcode": "48192",
      "addr_street": "Ford Avenue",
      "addr_housenumber": "886",
      "value": 229.58854515959945
    },
    {
      "id": 143742,
      "geometry": "POINT (-83.190415 42.183704)",
      "poi_name": "Marco's Pizza",
      "osm_id": 6348547750,
      "amenity": "fast_food",
      "cuisine": "pizza",
      "takeaway": "yes",
      "drive_through": "no",
      "addr_state": "MI",
      "addr_city": "Riverview",
      "addr_postcode": "48193",
      "addr_street": "Fort Street",
      "addr_housenumber": "17080",
      "value": 229.58854515959945
    },
    {
      "id": 143935,
      "geometry": "POINT (-83.204937 42.283415)",
      "poi_name": "Panera Bread",
      "osm_id": 6356549580,
      "amenity": "fast_food",
      "cuisine": "sandwich;bakery",
      "opening_hours": "Mo-Fr 06:00-22:00; Sa 06:30-22:00; Su 07:00-22:00",
      "takeaway": "yes",
      "drive_through": "yes",
      "addr_state": "MI",
      "addr_city": "Allen Park",
      "addr_postcode": "48101",
      "addr_street": "Fairlane Drive",
      "addr_housenumber": "3112",
      "value": 229.58854515959945
    },
    {
      "id": 143937,
      "geometry": "POINT (-83.203672 42.28293)",
      "poi_name": "Chipotle",
      "osm_id": 6356558893,
      "amenity": "fast_food",
      "cuisine": "mexican",
      "takeaway": "yes",
      "drive_through": "no",
      "official_name": "Chipotle Mexican Grill",
      "addr_state": "MI",
      "addr_city": "Allen Park",
      "addr_postcode": "48101",
      "addr_street": "Fairlane Drive",
      "addr_housenumber": "3125",
      "value": 229.58854515959945
    },
    {
      "id": 144017,
      "geometry": "POINT (-82.968729 42.449464)",
      "poi_name": "Dunkin' Donuts",
      "osm_id": 6359283116,
      "amenity": "fast_food",
      "cuisine": "donut",
      "addr_state": "MI",
      "addr_city": "Detroit",
      "addr_postcode": "48205",
      "addr_street": "East 8 Mile Road",
      "addr_housenumber": "14900",
      "value": 229.58854515959945
    },
    {
      "id": 143824,
      "geometry": "POINT (-83.06679 42.362012)",
      "poi_name": "Domino's",
      "osm_id": 6352484135,
      "amenity": "fast_food",
      "cuisine": "pizza",
      "takeaway": "yes",
      "drive_through": "no",
      "addr_state": "MI",
      "addr_city": "Detroit",
      "addr_postcode": "48202",
      "addr_street": "Woodward Avenue",
      "addr_housenumber": "5564",
      "value": 229.58854515959945
    },
    {
      "id": 144144,
      "geometry": "POINT (-83.189151 42.197939)",
      "poi_name": "Smoothie Stop",
      "osm_id": 6365453389,
      "amenity": "fast_food",
      "cuisine": "smoothie",
      "drive_through": "no",
      "addr_state": "MI",
      "addr_city": "Southgate",
      "addr_postcode": "48195",
      "addr_street": "Eureka Road",
      "addr_housenumber": "13615",
      "value": 229.58854515959945
    },
    {
      "id": 145938,
      "geometry": "POINT (-83.047859 42.33186)",
      "poi_name": "Bellacino's",
      "osm_id": 7399765981,
      "amenity": "fast_food",
      "cuisine": "pizza;sandwich;salad;fries",
      "drive_through": "no",
      "addr_state": "MI",
      "addr_city": "Detroit",
      "addr_postcode": "48226",
      "addr_street": "Woodward Avenue",
      "addr_housenumber": "1001",
      "value": 229.58854515959945
    },
    {
      "id": 145745,
      "geometry": "POINT (-83.266574 42.371151)",
      "poi_name": "Cottage Inn Pizza",
      "osm_id": 7387455930,
      "amenity": "fast_food",
      "cuisine": "pizza",
      "addr_state": "MI",
      "addr_city": "Redford",
      "addr_postcode": "48239",
      "addr_street": "Plymouth Road",
      "addr_housenumber": "23233",
      "value": 229.58854515959945
    },
    {
      "id": 144459,
      "geometry": "POINT (-83.21518 42.343751)",
      "poi_name": "Subway",
      "osm_id": 7265484481,
      "amenity": "fast_food",
      "cuisine": "sandwich",
      "takeaway": "yes",
      "addr_state": "MI",
      "addr_city": "Detroit",
      "addr_postcode": "48228",
      "addr_street": "West Warren Avenue",
      "addr_housenumber": "17720",
      "value": 229.58854515959945
    },
    {
      "id": 150031,
      "geometry": "POINT (-83.260778 42.255339)",
      "poi_name": "Domino's",
      "osm_id": 4039404001,
      "amenity": "fast_food",
      "cuisine": "pizza",
      "phone": "+1-313-299-9400",
      "takeaway": "yes",
      "addr_state": "MI",
      "value": 229.58854515959945
    },
    {
      "id": 150033,
      "geometry": "POINT (-83.186839 42.26325)",
      "poi_name": "Domino's",
      "osm_id": 4039411903,
      "amenity": "fast_food",
      "cuisine": "pizza",
      "phone": "+1-313-382-3000",
      "takeaway": "yes",
      "addr_state": "MI",
      "value": 229.58854515959945
    },
    {
      "id": 150034,
      "geometry": "POINT (-83.221787 42.1984)",
      "poi_name": "Domino's",
      "osm_id": 4039415078,
      "amenity": "fast_food",
      "cuisine": "pizza",
      "phone": "+1-734-281-3833",
      "takeaway": "yes",
      "drive_through": "no",
      "addr_state": "MI",
      "addr_city": "Southgate",
      "addr_postcode": "48195",
      "addr_street": "Eureka Road",
      "addr_housenumber": "17675",
      "value": 229.58854515959945
    },
    {
      "id": 153088,
      "geometry": "POINT (-82.978332 42.389738)",
      "poi_name": "Subway",
      "osm_id": 4175664324,
      "amenity": "fast_food",
      "cuisine": "sandwich",
      "takeaway": "yes",
      "addr_city": "Detroit",
      "value": 229.58854515959945
    },
    {
      "id": 156499,
      "geometry": "POINT (-83.045693 42.333186)",
      "poi_name": "Jimmy John's",
      "osm_id": 4661181828,
      "amenity": "fast_food",
      "cuisine": "sandwich",
      "wheelchair": "yes",
      "takeaway": "yes",
      "official_name": "Jimmy John's Gourmet Sandwiches",
      "addr_state": "MI",
      "addr_city": "Detroit",
      "addr_postcode": "48226",
      "addr_street": "Monroe Street",
      "addr_housenumber": "95",
      "value": 229.58854515959945
    },
    {
      "id": 157316,
      "geometry": "POINT (-83.046024 42.33108)",
      "poi_name": "Shake Shack",
      "osm_id": 4701462959,
      "amenity": "fast_food",
      "cuisine": "burger",
      "opening_hours": "11:00-21:30",
      "takeaway": "yes",
      "drive_through": "no",
      "outdoor_seating": "no",
      "delivery": "no",
      "addr_state": "MI",
      "addr_city": "Detroit",
      "addr_postcode": "48226",
      "addr_street": "Woodward Avenue",
      "addr_housenumber": "660",
      "value": 229.58854515959945
    },
    {
      "id": 159475,
      "geometry": "POINT (-83.18737 42.545342)",
      "poi_name": "Five Guys",
      "osm_id": 4794285716,
      "amenity": "fast_food",
      "cuisine": "burger",
      "opening_hours": "Mo-Su 11:00-22:00",
      "website": "https://www.fiveguys.com/",
      "phone": "+1-248-649-3483",
      "takeaway": "yes",
      "official_name": "Five Guys Burgers and Fries",
      "addr_state": "MI",
      "addr_street": "Coolidge Highway",
      "addr_housenumber": "1339",
      "value": 229.58854515959945
    },
    {
      "id": 163732,
      "geometry": "POINT (-83.269988 42.276152)",
      "poi_name": "KFC",
      "osm_id": 9432626274,
      "amenity": "fast_food",
      "cuisine": "chicken",
      "website": "https://locations.kfc.com/mi/dearborn-heights/4605-south-telegraph-road",
      "phone": "+1 313 292 5466",
      "takeaway": "yes",
      "addr_state": "MI",
      "addr_city": "Dearborn Heights",
      "addr_postcode": "48125",
      "addr_street": "Telegraph Road",
      "addr_housenumber": "4605",
      "value": 229.58854515959945
    },
    {
      "id": 163011,
      "geometry": "POINT (-83.274735 42.35964)",
      "poi_name": "Taco Bell",
      "osm_id": 9395966418,
      "amenity": "fast_food",
      "cuisine": "tex-mex",
      "takeaway": "yes",
      "drive_through": "yes",
      "addr_state": "MI",
      "addr_city": "Redford Township",
      "addr_postcode": "48239",
      "addr_street": "Telegraph Road",
      "addr_housenumber": "9052",
      "value": 229.58854515959945
    },
    {
      "id": 163012,
      "geometry": "POINT (-83.274943 42.369264)",
      "poi_name": "McDonald's",
      "osm_id": 9395966436,
      "amenity": "fast_food",
      "cuisine": "burger",
      "website": "https://www.mcdonalds.com/us/en-us/location/mi/redford/11310-telegraph-rd/26259.html",
      "takeaway": "yes",
      "addr_state": "MI",
      "addr_city": "Redford",
      "addr_postcode": "48239",
      "addr_street": "Telegraph Road",
      "addr_housenumber": "11310",
      "value": 229.58854515959945
    },
    {
      "id": 163733,
      "geometry": "POINT (-83.269954 42.276695)",
      "poi_name": "Taco Bell",
      "osm_id": 9432632120,
      "amenity": "fast_food",
      "cuisine": "tex-mex",
      "website": "https://locations.tacobell.com/mi/dearborn-heights/4539-s--telegraph-rd.html",
      "phone": "+1 313 278 7406",
      "takeaway": "yes",
      "addr_state": "MI",
      "addr_city": "Dearborn Heights",
      "addr_postcode": "48125",
      "addr_street": "Telegraph Road",
      "addr_housenumber": "4539",
      "value": 229.58854515959945
    },
    {
      "id": 164371,
      "geometry": "POINT (-83.145312 42.241813)",
      "poi_name": "Gold N Crispy (Coming Soon)",
      "osm_id": 9467423067,
      "amenity": "fast_food",
      "cuisine": "chicken",
      "drive_through": "no",
      "addr_state": "MI",
      "addr_city": "Ecorse",
      "addr_postcode": "48229",
      "addr_street": "West Jefferson Avenue",
      "addr_housenumber": "4446",
      "value": 229.58854515959945
    },
    {
      "id": 163978,
      "geometry": "POINT (-83.014504 42.378231)",
      "poi_name": "Wendy's",
      "osm_id": 9445661534,
      "amenity": "fast_food",
      "cuisine": "burger",
      "takeaway": "yes",
      "addr_state": "MI",
      "addr_city": "Detroit",
      "addr_postcode": "48213",
      "addr_street": "Gratiot Avenue",
      "addr_housenumber": "7850",
      "value": 229.58854515959945
    },
    {
      "id": 165469,
      "geometry": "POINT (-83.048637 42.329107)",
      "poi_name": "Tropical Smoothie Cafe",
      "osm_id": 9537404983,
      "amenity": "fast_food",
      "cuisine": "juice",
      "opening_hours": "Mo-Fr 07:00-21:00; Sa 9:00-21:00; Su 10:00-20:00",
      "website": "https://locations.tropicalsmoothiecafe.com/mi/detroit/220-congress-street",
      "phone": "+1 313 462 4130",
      "takeaway": "yes",
      "drive_through": "no",
      "addr_state": "MI",
      "addr_city": "Detroit",
      "addr_postcode": "48226",
      "addr_street": "West Congress Street",
      "addr_housenumber": "220",
      "value": 229.58854515959945
    },
    {
      "id": 164501,
      "geometry": "POINT (-83.295769 42.371326)",
      "poi_name": "McDonald's",
      "osm_id": 9478712459,
      "amenity": "fast_food",
      "cuisine": "burger",
      "website": "https://www.mcdonalds.com/us/en-us/location/mi/redford-township/25830-plymouth-rd/11994.html",
      "takeaway": "yes",
      "addr_state": "MI",
      "addr_city": "Redford",
      "addr_street": "Plymouth Road",
      "addr_housenumber": "25830",
      "value": 229.58854515959945
    },
    {
      "id": 164510,
      "geometry": "POINT (-83.303069 42.371063)",
      "poi_name": "Taco Bell",
      "osm_id": 9480276143,
      "amenity": "fast_food",
      "cuisine": "tex-mex",
      "website": "https://locations.tacobell.com/mi/redford/26450-plymouth-rd-.html",
      "phone": "+1 313 937 8230",
      "takeaway": "yes",
      "addr_state": "MI",
      "addr_city": "Redford",
      "addr_postcode": "48239",
      "addr_street": "Plymouth Road",
      "addr_housenumber": "26450",
      "value": 229.58854515959945
    },
    {
      "id": 165415,
      "geometry": "POINT (-83.038442 42.328899)",
      "poi_name": "Potbelly",
      "osm_id": 9534001868,
      "amenity": "fast_food",
      "cuisine": "sandwich",
      "opening_hours": "Mo-Fr 10:00-17:00",
      "website": "https://www.potbelly.com/locations/michigan/ren-center?utm_source=google&utm_medium=organic&utm_campaign=Yext",
      "phone": "+1 313 566 0028",
      "takeaway": "yes",
      "official_name": "Potbelly Sandwich Works",
      "addr_state": "MI",
      "addr_city": "Detroit",
      "addr_postcode": "48243",
      "addr_street": "Renaissance Center",
      "addr_housenumber": "300",
      "value": 229.58854515959945
    },
    {
      "id": 165884,
      "geometry": "POINT (-83.139153 42.387355)",
      "poi_name": "L.A. Coney Island",
      "osm_id": 9561056985,
      "amenity": "fast_food",
      "cuisine": "hot_dog",
      "addr_state": "MI",
      "addr_city": "Detroit",
      "addr_postcode": "48238",
      "addr_street": "Livernois Avenue",
      "addr_housenumber": "13550",
      "value": 229.58854515959945
    },
    {
      "id": 166148,
      "geometry": "POINT (-82.930399 42.462077)",
      "poi_name": "Papa John's",
      "osm_id": 9576883966,
      "amenity": "fast_food",
      "cuisine": "pizza",
      "website": "https://www.papajohns.com/",
      "phone": "+1 586 777 7272",
      "takeaway": "yes",
      "drive_through": "no",
      "addr_state": "MI",
      "addr_city": "Eastpointe",
      "addr_street": "Kelly Road",
      "addr_housenumber": "22241",
      "value": 229.58854515959945
    },
    {
      "id": 166149,
      "geometry": "POINT (-82.928958 42.463562)",
      "poi_name": "Hungry Howie's",
      "osm_id": 9576883976,
      "amenity": "fast_food",
      "cuisine": "pizza",
      "website": "https://www.hungryhowies.com/store/hungry-howies-00019",
      "phone": "+1 586 445 2220",
      "takeaway": "yes",
      "drive_through": "no",
      "addr_state": "MI",
      "addr_city": "Eastpointe",
      "addr_street": "Kelly Road",
      "addr_housenumber": "22431",
      "value": 229.58854515959945
    },
    {
      "id": 169743,
      "geometry": "POINT (-83.374823 42.441188)",
      "poi_name": "KFC",
      "osm_id": 2317837245,
      "amenity": "fast_food",
      "cuisine": "chicken",
      "opening_hours": "Su 11:00-21:00; Mo-Sa 11:00-22:00",
      "website": "https://locations.kfc.com/mi/farmington/20740-farmington",
      "phone": "+1-248-477-1960",
      "takeaway": "yes",
      "addr_state": "MI",
      "addr_city": "Farmington",
      "addr_postcode": "48336",
      "addr_street": "Farmington Road",
      "addr_housenumber": "20740",
      "value": 229.58854515959945
    },
    {
      "id": 169225,
      "geometry": "POINT (-83.24897 42.198478)",
      "poi_name": "Qdoba",
      "osm_id": 2295355973,
      "amenity": "fast_food",
      "cuisine": "mexican",
      "website": "https://locations.qdoba.com/us/mi/taylor/22040-eureka-rd.html",
      "takeaway": "yes",
      "drive_through": "no",
      "official_name": "Qdoba Mexican Grill",
      "addr_state": "MI",
      "addr_city": "Taylor",
      "addr_postcode": "48180",
      "addr_street": "Eureka Road",
      "addr_housenumber": "22040",
      "value": 229.58854515959945
    },
    {
      "id": 169745,
      "geometry": "POINT (-83.394824 42.468286)",
      "poi_name": "Subway",
      "osm_id": 2317847854,
      "amenity": "fast_food",
      "cuisine": "sandwich",
      "website": "https://restaurants.subway.com/united-states/mi/farmington-hills/38433-grand-river-ave",
      "phone": "+1-248-478-9777",
      "takeaway": "yes",
      "addr_state": "MI",
      "addr_city": "Farmington Hills",
      "addr_postcode": "48335",
      "addr_street": "Grand River Avenue",
      "addr_housenumber": "38433",
      "value": 229.58854515959945
    },
    {
      "id": 169746,
      "geometry": "POINT (-83.393935 42.468602)",
      "poi_name": "Hungry Howie's",
      "osm_id": 2317848173,
      "amenity": "fast_food",
      "cuisine": "pizza",
      "website": "https://www.hungryhowies.com/store/hungry-howies-00038",
      "takeaway": "yes",
      "addr_state": "MI",
      "addr_city": "Farmington",
      "addr_postcode": "48335",
      "addr_street": "Grand River Avenue",
      "addr_housenumber": "35103",
      "value": 229.58854515959945
    },
    {
      "id": 169747,
      "geometry": "POINT (-83.37443 42.463561)",
      "poi_name": "Dagwood's Deli",
      "osm_id": 2317848637,
      "amenity": "fast_food",
      "cuisine": "sandwich",
      "opening_hours": "Mo-Sa 08:00-19:00, Su 11:00-19:00",
      "website": "https://www.dagwoodsdeli.biz/",
      "phone": "+1-248-474-7265",
      "takeaway": "yes",
      "drive_through": "no",
      "addr_state": "MI",
      "addr_city": "Farmington",
      "addr_street": "Grand River Avenue",
      "addr_housenumber": "33179",
      "value": 229.58854515959945
    },
    {
      "id": 170978,
      "geometry": "POINT (-83.196553 42.503266)",
      "poi_name": "Burger King",
      "osm_id": 2355215529,
      "amenity": "fast_food",
      "cuisine": "burger",
      "website": "https://www.bk.com/store-locator/store/restaurant_2075",
      "phone": "+1-248-541-5472",
      "takeaway": "yes",
      "addr_state": "MI",
      "addr_city": "Berkley",
      "addr_street": "12 Mile Road",
      "addr_housenumber": "3656",
      "value": 229.58854515959945
    },
    {
      "id": 178690,
      "geometry": "POINT (-83.163469 42.431574)",
      "poi_name": "Little Caesars",
      "osm_id": 10735920111,
      "amenity": "fast_food",
      "cuisine": "pizza",
      "website": "https://littlecaesars.com/en-us/store/22/",
      "takeaway": "yes",
      "addr_state": "MI",
      "addr_city": "Detroit",
      "addr_postcode": "48221",
      "addr_street": "West 7 Mile Road",
      "addr_housenumber": "10220",
      "value": 229.58854515959945
    },
    {
      "id": 178526,
      "geometry": "POINT (-83.141401 42.417435)",
      "poi_name": "McDonald's",
      "osm_id": 10728706220,
      "amenity": "fast_food",
      "cuisine": "burger",
      "website": "https://www.mcdonalds.com/us/en-us/location/mi/detroit/17121-livernois-avenue/10902.html",
      "takeaway": "yes",
      "addr_state": "MI",
      "addr_city": "Detroit",
      "addr_postcode": "48221",
      "addr_street": "Livernois Avenue",
      "addr_housenumber": "17121",
      "value": 229.58854515959945
    },
    {
      "id": 178582,
      "geometry": "POINT (-83.15038 42.215324)",
      "poi_name": "Ben's Sliders & Wings",
      "osm_id": 10731630432,
      "amenity": "fast_food",
      "cuisine": "burger;chicken",
      "drive_through": "no",
      "addr_state": "MI",
      "addr_city": "Wyandotte",
      "addr_postcode": "48192",
      "addr_street": "Biddle Avenue",
      "addr_housenumber": "1832",
      "value": 229.58854515959945
    },
    {
      "id": 178813,
      "geometry": "POINT (-83.257753 42.302698)",
      "poi_name": "Tropical Smoothie Cafe",
      "osm_id": 10740239734,
      "amenity": "fast_food",
      "cuisine": "juice",
      "website": "https://locations.tropicalsmoothiecafe.com/mi/dearborn/22905-michigan-avenue",
      "takeaway": "yes",
      "addr_city": "Dearborn",
      "addr_street": "Michigan Avenue",
      "addr_housenumber": "22905",
      "value": 229.58854515959945
    },
    {
      "id": 178814,
      "geometry": "POINT (-83.257598 42.302735)",
      "poi_name": "Subway",
      "osm_id": 10740239735,
      "amenity": "fast_food",
      "cuisine": "sandwich",
      "website": "https://restaurants.subway.com/united-states/mi/dearborn/22905-michigan-avenue",
      "takeaway": "yes",
      "addr_state": "MI",
      "addr_city": "Dearborn",
      "addr_street": "Michigan Avenue",
      "addr_housenumber": "22905",
      "value": 229.58854515959945
    },
    {
      "id": 178853,
      "geometry": "POINT (-83.253738 42.154281)",
      "poi_name": "Subway",
      "osm_id": 10742342803,
      "amenity": "fast_food",
      "cuisine": "sandwich",
      "takeaway": "yes",
      "drive_through": "no",
      "addr_state": "MI",
      "addr_city": "Brownstown Charter Township",
      "addr_postcode": "48183",
      "addr_street": "Dix-Toledo Highway",
      "addr_housenumber": "20950",
      "value": 229.58854515959945
    },
    {
      "id": 179399,
      "geometry": "POINT (-83.202563 42.53543)",
      "poi_name": "Jimmy John's",
      "osm_id": 10761214094,
      "amenity": "fast_food",
      "cuisine": "sandwich",
      "takeaway": "yes",
      "official_name": "Jimmy John's Gourmet Sandwiches",
      "addr_state": "MI",
      "addr_city": "Birmingham",
      "addr_postcode": "48009",
      "addr_street": "Woodward Avenue",
      "addr_housenumber": "33524",
      "value": 229.58854515959945
    },
    {
      "id": 179713,
      "geometry": "POINT (-83.073234 42.418888)",
      "poi_name": "Joe's Coney Island",
      "osm_id": 10776076795,
      "amenity": "fast_food",
      "addr_state": "MI",
      "addr_city": "Detroit",
      "addr_postcode": "48212",
      "addr_street": "East McNichols Road",
      "addr_housenumber": "2801",
      "value": 229.58854515959945
    },
    {
      "id": 180222,
      "geometry": "POINT (-82.953279 42.435055)",
      "poi_name": "Wendy's",
      "osm_id": 10795948365,
      "amenity": "fast_food",
      "cuisine": "burger",
      "takeaway": "yes",
      "addr_state": "MI",
      "addr_city": "Detroit",
      "addr_postcode": "48205",
      "addr_street": "Kelly Road",
      "addr_housenumber": "19100",
      "value": 229.58854515959945
    },
    {
      "id": 180498,
      "geometry": "POINT (-82.96517 42.405066)",
      "poi_name": "KFC",
      "osm_id": 10803598874,
      "amenity": "fast_food",
      "cuisine": "chicken",
      "website": "https://locations.kfc.com/mi/detroit/9041-chalmers",
      "takeaway": "yes",
      "addr_state": "MI",
      "addr_city": "Detroit",
      "addr_postcode": "48213",
      "addr_street": "Chalmers Street",
      "addr_housenumber": "9041",
      "value": 229.58854515959945
    },
    {
      "id": 180499,
      "geometry": "POINT (-82.9651 42.404871)",
      "poi_name": "Little Caesars",
      "osm_id": 10803598875,
      "amenity": "fast_food",
      "cuisine": "pizza",
      "website": "https://littlecaesars.com/en-us/store/16/",
      "takeaway": "yes",
      "addr_state": "MI",
      "addr_city": "Detroit",
      "addr_postcode": "48213",
      "addr_street": "Harper Avenue",
      "addr_housenumber": "14351",
      "value": 229.58854515959945
    },
    {
      "id": 180500,
      "geometry": "POINT (-82.964602 42.405247)",
      "poi_name": "Captain Jay's Fish and Chicken",
      "osm_id": 10803598876,
      "amenity": "fast_food",
      "cuisine": "chicken",
      "addr_state": "MI",
      "addr_city": "Detroit",
      "addr_postcode": "48213",
      "addr_street": "Harper Avenue",
      "addr_housenumber": "14401",
      "value": 229.58854515959945
    },
    {
      "id": 180501,
      "geometry": "POINT (-82.942366 42.41278)",
      "poi_name": "Checkers",
      "osm_id": 10803598993,
      "amenity": "fast_food",
      "cuisine": "burger",
      "takeaway": "yes",
      "addr_state": "MI",
      "addr_city": "Detroit",
      "addr_postcode": "48224",
      "addr_street": "Harper Avenue",
      "addr_housenumber": "16511",
      "value": 229.58854515959945
    },
    {
      "id": 180502,
      "geometry": "POINT (-82.937787 42.415494)",
      "poi_name": "McDonald's",
      "osm_id": 10803599015,
      "amenity": "fast_food",
      "cuisine": "burger",
      "takeaway": "yes",
      "addr_state": "MI",
      "addr_city": "Detroit",
      "addr_postcode": "48224",
      "addr_street": "Harper Avenue",
      "addr_housenumber": "16950",
      "value": 229.58854515959945
    },
    {
      "id": 180515,
      "geometry": "POINT (-83.042402 42.334868)",
      "poi_name": "Five Guys",
      "osm_id": 10805211407,
      "amenity": "fast_food",
      "cuisine": "burger",
      "phone": "+1-313-237-7777",
      "takeaway": "yes",
      "drive_through": "no",
      "official_name": "Five Guys Burgers and Fries",
      "addr_state": "MI",
      "addr_city": "Detroit",
      "addr_postcode": "48226",
      "addr_street": "Monroe Street",
      "addr_housenumber": "508",
      "value": 229.58854515959945
    },
    {
      "id": 179772,
      "geometry": "POINT (-83.20245 42.534183)",
      "poi_name": "Tropical Smoothie Cafe",
      "osm_id": 10778636196,
      "amenity": "fast_food",
      "cuisine": "juice",
      "takeaway": "yes",
      "addr_state": "MI",
      "addr_city": "Birmingham",
      "addr_postcode": "48009",
      "addr_street": "Woodward Avenue",
      "addr_housenumber": "33353",
      "value": 229.58854515959945
    },
    {
      "id": 180269,
      "geometry": "POINT (-83.07943 42.446818)",
      "poi_name": "Subway",
      "osm_id": 10797058735,
      "amenity": "fast_food",
      "cuisine": "sandwich",
      "takeaway": "yes",
      "drive_through": "yes",
      "addr_state": "MI",
      "addr_city": "Detroit",
      "addr_postcode": "48234",
      "addr_street": "East 8 Mile Road",
      "addr_housenumber": "2240",
      "value": 229.58854515959945
    },
    {
      "id": 180445,
      "geometry": "POINT (-83.005426 42.393717)",
      "poi_name": "Hollywood Coney Island",
      "osm_id": 10801813352,
      "amenity": "fast_food",
      "addr_state": "MI",
      "addr_city": "Detroit",
      "addr_postcode": "48213",
      "addr_street": "Gratiot Avenue",
      "addr_housenumber": "9951",
      "value": 229.58854515959945
    },
    {
      "id": 183333,
      "geometry": "POINT (-83.185692 42.431215)",
      "poi_name": "McDonald's",
      "osm_id": 10925413431,
      "amenity": "fast_food",
      "cuisine": "burger",
      "takeaway": "yes",
      "addr_state": "MI",
      "addr_city": "D",
      "addr_postcode": "48235",
      "addr_street": "West 7 Mile Road",
      "addr_housenumber": "14204",
      "value": 229.58854515959945
    },
    {
      "id": 183388,
      "geometry": "POINT (-83.139404 42.393846)",
      "poi_name": "Savvy's Sliders",
      "osm_id": 10927046027,
      "amenity": "fast_food",
      "cuisine": "burger",
      "takeaway": "yes",
      "addr_state": "MI",
      "addr_city": "Detroit",
      "addr_postcode": "48238",
      "addr_street": "Livernois Avenue",
      "addr_housenumber": "13450",
      "value": 229.58854515959945
    },
    {
      "id": 183412,
      "geometry": "POINT (-82.925126 42.407535)",
      "poi_name": "Burger King",
      "osm_id": 10929688518,
      "amenity": "fast_food",
      "cuisine": "burger",
      "takeaway": "yes",
      "addr_state": "MI",
      "addr_city": "Detroit",
      "addr_postcode": "48224",
      "addr_street": "East Warren Avenue",
      "addr_housenumber": "17440",
      "value": 229.58854515959945
    },
    {
      "id": 185049,
      "geometry": "POINT (-82.997198 42.406082)",
      "poi_name": "Rio's Coney Island",
      "osm_id": 7829805282,
      "amenity": "fast_food",
      "cuisine": "hot_dog",
      "addr_state": "MI",
      "addr_city": "Detroit",
      "addr_postcode": "48213",
      "addr_street": "Gratiot Avenue",
      "addr_housenumber": "10993",
      "value": 229.58854515959945
    },
    {
      "id": 185051,
      "geometry": "POINT (-83.257776 42.429416)",
      "poi_name": "Burger King",
      "osm_id": 7829910631,
      "amenity": "fast_food",
      "cuisine": "burger",
      "takeaway": "yes",
      "addr_state": "MI",
      "addr_city": "Detroit",
      "addr_postcode": "48219",
      "addr_street": "West 7 Mile Road",
      "addr_housenumber": "19833",
      "value": 229.58854515959945
    },
    {
      "id": 183854,
      "geometry": "POINT (-83.332032 42.368453)",
      "poi_name": "Firehouse Subs",
      "osm_id": 10948129147,
      "amenity": "fast_food",
      "cuisine": "sandwich",
      "takeaway": "yes",
      "drive_through": "no",
      "addr_state": "MI",
      "addr_city": "Livonia",
      "addr_postcode": "48150",
      "addr_street": "Middlebelt Road",
      "addr_housenumber": "11492",
      "value": 229.58854515959945
    },
    {
      "id": 183855,
      "geometry": "POINT (-83.333673 42.368134)",
      "poi_name": "Smoothie King",
      "osm_id": 10948129152,
      "amenity": "fast_food",
      "cuisine": "juice",
      "takeaway": "yes",
      "drive_through": "yes",
      "addr_state": "MI",
      "addr_city": "Livonia",
      "addr_postcode": "48150",
      "addr_street": "Middlebelt Road",
      "addr_housenumber": "11003",
      "value": 229.58854515959945
    },
    {
      "id": 183856,
      "geometry": "POINT (-83.333175 42.384288)",
      "poi_name": "Chipotle",
      "osm_id": 10948129175,
      "amenity": "fast_food",
      "cuisine": "mexican",
      "takeaway": "yes",
      "drive_through": "no",
      "official_name": "Chipotle Mexican Grill",
      "addr_state": "MI",
      "addr_city": "Livonia",
      "addr_postcode": "48150",
      "addr_street": "Middlebelt Road",
      "addr_housenumber": "13900",
      "value": 229.58854515959945
    },
    {
      "id": 183949,
      "geometry": "POINT (-82.941728 42.422545)",
      "poi_name": "All American Coney Island",
      "osm_id": 10955162778,
      "amenity": "fast_food",
      "cuisine": "hot_dog",
      "addr_state": "MI",
      "addr_city": "Detroit",
      "addr_postcode": "48224",
      "addr_street": "Morang Drive",
      "addr_housenumber": "11001",
      "value": 229.58854515959945
    },
    {
      "id": 184830,
      "geometry": "POINT (-83.230282 42.226762)",
      "poi_name": "Subway",
      "osm_id": 7816501703,
      "amenity": "fast_food",
      "cuisine": "sandwich",
      "takeaway": "yes",
      "drive_through": "no",
      "addr_state": "MI",
      "addr_city": "Taylor",
      "addr_postcode": "48180",
      "addr_street": "Allen Road",
      "addr_housenumber": "11048",
      "value": 229.58854515959945
    },
    {
      "id": 185268,
      "geometry": "POINT (-82.959462 42.464242)",
      "poi_name": "Five Guys",
      "osm_id": 7841597473,
      "amenity": "fast_food",
      "cuisine": "burger",
      "phone": "+1-586-773-3483",
      "takeaway": "yes",
      "drive_through": "no",
      "official_name": "Five Guys Burgers and Fries",
      "addr_state": "MI",
      "addr_city": "Eastpointe",
      "addr_postcode": "48021",
      "addr_street": "South Gratiot Avenue",
      "addr_housenumber": "22641",
      "value": 229.58854515959945
    },
    {
      "id": 189621,
      "geometry": "POINT (-83.109971 42.564534)",
      "poi_name": "Insalata",
      "osm_id": 1240072303,
      "amenity": "fast_food",
      "cuisine": "salad",
      "phone": "+1-248-528-2250",
      "addr_state": "MI",
      "addr_city": "Troy",
      "addr_postcode": "48083",
      "addr_street": "East Big Beaver Road",
      "addr_housenumber": "1919",
      "value": 229.58854515959945
    },
    {
      "id": 186241,
      "geometry": "POINT (-83.22444 42.126701)",
      "poi_name": "Iggy's Pizza",
      "osm_id": 7921570288,
      "amenity": "fast_food",
      "cuisine": "pizza",
      "drive_through": "no",
      "addr_state": "MI",
      "addr_city": "Woodhaven",
      "addr_postcode": "48183",
      "addr_street": "Van Horn Road",
      "addr_housenumber": "19450",
      "value": 229.58854515959945
    },
    {
      "id": 186242,
      "geometry": "POINT (-83.389802 42.322941)",
      "poi_name": "Benito's Pizza",
      "osm_id": 7921590841,
      "amenity": "fast_food",
      "cuisine": "pizza",
      "phone": "+1-734-729-1111",
      "addr_state": "MI",
      "addr_city": "Westland",
      "addr_street": "North Wayne Road",
      "addr_housenumber": "1979",
      "value": 229.58854515959945
    },
    {
      "id": 186391,
      "geometry": "POINT (-83.131751 42.331365)",
      "poi_name": "Church's Chicken",
      "osm_id": 7928656794,
      "amenity": "fast_food",
      "cuisine": "chicken",
      "takeaway": "yes",
      "addr_state": "MI",
      "addr_city": "Detroit",
      "addr_postcode": "48210",
      "addr_street": "Michigan Avenue",
      "addr_housenumber": "7060",
      "value": 229.58854515959945
    },
    {
      "id": 190745,
      "geometry": "POINT (-83.08564 42.534483)",
      "poi_name": "Erma's Frozen Custard",
      "osm_id": 1314168516,
      "amenity": "fast_food",
      "cuisine": "ice_cream",
      "description": "Open from April 1st \u2013 October 31st.",
      "website": "https://www.ermascustard.com/",
      "addr_state": "MI",
      "addr_city": "Warren",
      "addr_postcode": "48092",
      "addr_street": "East 14 Mile Road",
      "addr_housenumber": "2080",
      "value": 229.58854515959945
    },
    {
      "id": 195481,
      "geometry": "POINT (-83.215762 42.399976)",
      "poi_name": "Checkers",
      "osm_id": 10309158335,
      "amenity": "fast_food",
      "cuisine": "burger",
      "takeaway": "yes",
      "addr_state": "MI",
      "addr_city": "Detroit",
      "addr_postcode": "48227",
      "addr_street": "Grand River Avenue",
      "addr_housenumber": "17620",
      "value": 229.58854515959945
    },
    {
      "id": 190778,
      "geometry": "POINT (-83.155052 42.20032)",
      "poi_name": "Subway",
      "osm_id": 1315585558,
      "amenity": "fast_food",
      "cuisine": "sandwich",
      "phone": "+1-734-324-2990",
      "takeaway": "yes",
      "drive_through": "no",
      "outdoor_seating": "no",
      "addr_state": "MI",
      "addr_city": "Wyandotte",
      "addr_postcode": "48192",
      "addr_street": "Eureka Road",
      "addr_housenumber": "410",
      "value": 229.58854515959945
    },
    {
      "id": 193161,
      "geometry": "POINT (-83.251847 42.304052)",
      "poi_name": "Jersey Mike's Subs",
      "osm_id": 1503605151,
      "amenity": "fast_food",
      "cuisine": "sandwich",
      "opening_hours": "10:00-21:00",
      "takeaway": "yes",
      "addr_state": "MI",
      "addr_city": "Dearborn",
      "addr_postcode": "48124",
      "addr_street": "Michigan Avenue",
      "addr_housenumber": "22439",
      "value": 229.58854515959945
    },
    {
      "id": 195209,
      "geometry": "POINT (-83.219358 42.214046)",
      "poi_name": "Dunkin'",
      "osm_id": 10297565058,
      "amenity": "fast_food",
      "cuisine": "donut;coffee_shop",
      "takeaway": "yes",
      "drive_through": "yes",
      "addr_state": "MI",
      "addr_city": "Southgate",
      "addr_postcode": "48195",
      "addr_street": "Northline Road",
      "addr_housenumber": "16100",
      "value": 229.58854515959945
    },
    {
      "id": 194272,
      "geometry": "POINT (-83.062275 42.354804)",
      "poi_name": "Savvy Sliders",
      "osm_id": 10268708358,
      "amenity": "fast_food",
      "cuisine": "burger",
      "drive_through": "yes",
      "addr_state": "MI",
      "addr_city": "Detroit",
      "addr_postcode": "48201",
      "addr_street": "Woodward Avenue",
      "addr_housenumber": "4664",
      "value": 229.58854515959945
    },
    {
      "id": 196381,
      "geometry": "POINT (-83.140968 42.412077)",
      "poi_name": "Burger King",
      "osm_id": 10575464461,
      "amenity": "fast_food",
      "cuisine": "burger",
      "takeaway": "yes",
      "addr_state": "MI",
      "addr_city": "Detroit",
      "addr_postcode": "48221",
      "addr_street": "Livernois Avenue",
      "addr_housenumber": "16425",
      "value": 229.58854515959945
    },
    {
      "id": 195646,
      "geometry": "POINT (-83.383354 42.339459)",
      "poi_name": "Little Caesars",
      "osm_id": 10313877380,
      "amenity": "fast_food",
      "cuisine": "pizza",
      "website": "https://littlecaesars.com/en-us/store/996/",
      "takeaway": "yes",
      "drive_through": "yes",
      "addr_state": "MI",
      "addr_city": "Westland",
      "addr_postcode": "48185",
      "addr_street": "Warren Road",
      "addr_housenumber": "34850",
      "value": 229.58854515959945
    },
    {
      "id": 195647,
      "geometry": "POINT (-83.383254 42.33946)",
      "poi_name": "Chicken Shack",
      "osm_id": 10313877381,
      "amenity": "fast_food",
      "cuisine": "chicken",
      "drive_through": "yes",
      "addr_state": "MI",
      "addr_city": "Westland",
      "addr_postcode": "48185",
      "addr_street": "Warren Road",
      "addr_housenumber": "34850",
      "value": 229.58854515959945
    },
    {
      "id": 196015,
      "geometry": "POINT (-83.042955 42.433838)",
      "poi_name": "Lou's Coney Island",
      "osm_id": 10558473751,
      "amenity": "fast_food",
      "addr_state": "MI",
      "addr_city": "Detroit",
      "addr_postcode": "48234",
      "addr_street": "Mound Road",
      "addr_housenumber": "19100",
      "value": 229.58854515959945
    },
    {
      "id": 196017,
      "geometry": "POINT (-83.082917 42.445316)",
      "poi_name": "McDonald's",
      "osm_id": 10558533498,
      "amenity": "fast_food",
      "cuisine": "burger",
      "website": "https://www.mcdonalds.com/us/en-us/location/mi/detroit/20405-conant-avenue/1702.html",
      "takeaway": "yes",
      "addr_state": "MI",
      "addr_city": "Detroit",
      "addr_postcode": "48234",
      "addr_street": "Conant Street",
      "addr_housenumber": "20405",
      "value": 229.58854515959945
    },
    {
      "id": 196032,
      "geometry": "POINT (-83.03394 42.440608)",
      "poi_name": "Grandy's Coney Island",
      "osm_id": 10559705450,
      "amenity": "fast_food",
      "addr_state": "MI",
      "addr_city": "Detroit",
      "addr_postcode": "48234",
      "addr_street": "East Outer Drive",
      "addr_housenumber": "4004",
      "value": 229.58854515959945
    },
    {
      "id": 196406,
      "geometry": "POINT (-83.169805 42.41563)",
      "poi_name": "Popeyes",
      "osm_id": 10576797047,
      "amenity": "fast_food",
      "cuisine": "chicken",
      "takeaway": "yes",
      "official_name": "Popeyes Louisiana Kitchen",
      "addr_state": "MI",
      "addr_city": "Detroit",
      "addr_postcode": "48235",
      "addr_street": "Meyers Road",
      "addr_housenumber": "16920",
      "value": 229.58854515959945
    },
    {
      "id": 197075,
      "geometry": "POINT (-83.0829 42.43985)",
      "poi_name": "Pete's Grill Coney Island",
      "osm_id": 10611436274,
      "amenity": "fast_food",
      "addr_state": "MI",
      "addr_city": "Detroit",
      "addr_postcode": "48234",
      "addr_street": "East Outer Drive",
      "addr_housenumber": "1400",
      "value": 229.58854515959945
    },
    {
      "id": 197007,
      "geometry": "POINT (-83.158298 42.361931)",
      "poi_name": "Dairy Queen",
      "osm_id": 10608326614,
      "amenity": "fast_food",
      "cuisine": "ice_cream;burger",
      "takeaway": "yes",
      "addr_state": "MI",
      "addr_city": "Detroit",
      "addr_postcode": "48204",
      "addr_street": "Wyoming Street",
      "addr_housenumber": "9151",
      "value": 229.58854515959945
    },
    {
      "id": 197014,
      "geometry": "POINT (-83.131163 42.34436)",
      "poi_name": "White Castle",
      "osm_id": 10608451848,
      "amenity": "fast_food",
      "cuisine": "burger",
      "takeaway": "yes",
      "addr_state": "MI",
      "addr_city": "Detroit",
      "addr_postcode": "48210",
      "addr_street": "West Warren Avenue",
      "addr_housenumber": "6301",
      "value": 229.58854515959945
    },
    {
      "id": 197769,
      "geometry": "POINT (-83.253357 42.226536)",
      "poi_name": "Savvy Sliders",
      "osm_id": 10674677791,
      "amenity": "fast_food",
      "cuisine": "burger",
      "drive_through": "no",
      "addr_state": "MI",
      "addr_city": "Taylor",
      "addr_postcode": "48180",
      "addr_street": "Goddard Road",
      "addr_housenumber": "22319",
      "value": 229.58854515959945
    },
    {
      "id": 197045,
      "geometry": "POINT (-83.16893 42.430887)",
      "poi_name": "Checkers",
      "osm_id": 10609098261,
      "amenity": "fast_food",
      "cuisine": "burger",
      "takeaway": "yes",
      "addr_state": "MI",
      "addr_city": "Detroit",
      "addr_postcode": "48221",
      "addr_street": "West 7 Mile Road",
      "addr_housenumber": "10711",
      "value": 229.58854515959945
    },
    {
      "id": 200866,
      "geometry": "POINT (-83.111134 42.564432)",
      "poi_name": "Olga's Kitchen",
      "osm_id": 599357832,
      "amenity": "fast_food",
      "phone": "+1-248-524-1500",
      "addr_state": "MI",
      "addr_city": "Troy",
      "addr_postcode": "48083",
      "addr_street": "East Big Beaver Road",
      "addr_housenumber": "1853",
      "value": 229.58854515959945
    },
    {
      "id": 197951,
      "geometry": "POINT (-83.207147 42.540459)",
      "poi_name": "Shish Kabob Xpress",
      "osm_id": 10682269691,
      "amenity": "fast_food",
      "cuisine": "middle_eastern",
      "addr_state": "MI",
      "addr_city": "Birmingham",
      "addr_postcode": "48009",
      "addr_street": "Woodward Avenue",
      "addr_housenumber": "34186",
      "value": 229.58854515959945
    },
    {
      "id": 197962,
      "geometry": "POINT (-83.205388 42.53724)",
      "poi_name": "Jersey Mike's Subs",
      "osm_id": 10683678145,
      "amenity": "fast_food",
      "cuisine": "sandwich",
      "takeaway": "yes",
      "addr_state": "MI",
      "addr_city": "Birmingham",
      "addr_postcode": "48009",
      "addr_street": "Woodward Avenue",
      "addr_housenumber": "33745",
      "value": 229.58854515959945
    },
    {
      "id": 200868,
      "geometry": "POINT (-83.109766 42.564568)",
      "poi_name": "Einstein Bros. Bagels",
      "osm_id": 599357853,
      "amenity": "fast_food",
      "cuisine": "bagel",
      "phone": "+1-248-619-9963",
      "takeaway": "yes",
      "addr_state": "MI",
      "addr_city": "Troy",
      "addr_postcode": "48083",
      "addr_street": "East Big Beaver Road",
      "addr_housenumber": "1925",
      "value": 229.58854515959945
    },
    {
      "id": 202300,
      "geometry": "POINT (-83.225018 42.141338)",
      "poi_name": "Panera Bread",
      "osm_id": 7020306392,
      "amenity": "fast_food",
      "cuisine": "sandwich;bakery",
      "takeaway": "yes",
      "drive_through": "yes",
      "addr_state": "MI",
      "addr_city": "Woodhaven",
      "addr_postcode": "48183",
      "addr_street": "West Road",
      "addr_housenumber": "19440",
      "value": 229.58854515959945
    },
    {
      "id": 202831,
      "geometry": "POINT (-83.194436 42.214126)",
      "poi_name": "Jimmy John's",
      "osm_id": 7049775947,
      "amenity": "fast_food",
      "cuisine": "sandwich",
      "takeaway": "yes",
      "drive_through": "no",
      "official_name": "Jimmy John's Gourmet Sandwiches",
      "addr_state": "MI",
      "addr_city": "Southgate",
      "addr_postcode": "48195",
      "addr_street": "Dix-Toledo Highway",
      "addr_housenumber": "12964",
      "value": 229.58854515959945
    },
    {
      "id": 206547,
      "geometry": "POINT (-83.257204 42.400107)",
      "poi_name": "Grandy's Coney Island",
      "osm_id": 7214721220,
      "amenity": "fast_food",
      "cuisine": "hot_dog",
      "addr_state": "MI",
      "addr_city": "Detroit",
      "addr_postcode": "48223",
      "addr_street": "Fenkell Street",
      "addr_housenumber": "22001",
      "value": 229.58854515959945
    },
    {
      "id": 203867,
      "geometry": "POINT (-83.04475 42.330771)",
      "poi_name": "Subway",
      "osm_id": 7102018519,
      "amenity": "fast_food",
      "cuisine": "sandwich",
      "takeaway": "yes",
      "outdoor_seating": "no",
      "addr_state": "MI",
      "addr_city": "Detroit",
      "addr_street": "Woodward Avenue",
      "addr_housenumber": "660",
      "value": 229.58854515959945
    },
    {
      "id": 207823,
      "geometry": "POINT (-83.144176 42.460778)",
      "poi_name": "Papa Romano's Pizza",
      "osm_id": 4962249573,
      "amenity": "fast_food",
      "cuisine": "pizza",
      "addr_state": "MI",
      "addr_city": "Ferndale",
      "addr_postcode": "48220",
      "addr_street": "West 9 Mile Road",
      "addr_housenumber": "750",
      "value": 229.58854515959945
    },
    {
      "id": 207688,
      "geometry": "POINT (-83.13188 42.46844)",
      "poi_name": "Rogue Estate BBQ",
      "osm_id": 4957549691,
      "amenity": "fast_food",
      "addr_state": "MI",
      "addr_city": "Ferndale",
      "addr_postcode": "48220",
      "addr_street": "Woodward Heights Boulevard",
      "addr_housenumber": "600",
      "value": 229.58854515959945
    },
    {
      "id": 207826,
      "geometry": "POINT (-83.143125 42.446538)",
      "poi_name": "Blue Seas Fish Market",
      "osm_id": 4962249610,
      "amenity": "fast_food",
      "addr_state": "MI",
      "addr_city": "Ferndale",
      "addr_postcode": "48220",
      "addr_street": "W 8 Mile Road",
      "addr_housenumber": "1140",
      "value": 229.58854515959945
    },
    {
      "id": 207815,
      "geometry": "POINT (-83.122935 42.468172)",
      "poi_name": "Little Caesars",
      "osm_id": 4962153300,
      "amenity": "fast_food",
      "cuisine": "pizza",
      "website": "https://littlecaesars.com/en-us/store/1193/",
      "takeaway": "yes",
      "addr_state": "MI",
      "addr_city": "Ferndale",
      "addr_postcode": "48220",
      "addr_street": "Hilton Road",
      "addr_housenumber": "2660",
      "value": 229.58854515959945
    },
    {
      "id": 207827,
      "geometry": "POINT (-83.144031 42.446581)",
      "poi_name": "KFC",
      "osm_id": 4962249611,
      "amenity": "fast_food",
      "cuisine": "chicken",
      "website": "https://locations.kfc.com/mi/ferndale/1200-west-eight-mile-road",
      "takeaway": "yes",
      "addr_state": "MI",
      "addr_city": "Ferndale",
      "addr_postcode": "48220",
      "addr_street": "W 8 Mile Road",
      "addr_housenumber": "1200",
      "value": 229.58854515959945
    },
    {
      "id": 207816,
      "geometry": "POINT (-83.123625 42.46709)",
      "poi_name": "Subway",
      "osm_id": 4962153301,
      "amenity": "fast_food",
      "cuisine": "sandwich",
      "takeaway": "yes",
      "addr_state": "MI",
      "addr_city": "Ferndale",
      "addr_postcode": "48220",
      "addr_street": "Hilton Road",
      "addr_housenumber": "2525",
      "value": 229.58854515959945
    },
    {
      "id": 207993,
      "geometry": "POINT (-83.135789 42.463128)",
      "poi_name": "Jersey Mike's Subs",
      "osm_id": 4970731919,
      "amenity": "fast_food",
      "cuisine": "sandwich",
      "takeaway": "yes",
      "addr_state": "MI",
      "addr_city": "Ferndale",
      "addr_postcode": "48220",
      "addr_street": "Woodward Avenue",
      "addr_housenumber": "23058",
      "value": 229.58854515959945
    },
    {
      "id": 207994,
      "geometry": "POINT (-83.135761 42.463074)",
      "poi_name": "Tropical Smoothie Cafe",
      "osm_id": 4970731920,
      "amenity": "fast_food",
      "cuisine": "juice",
      "takeaway": "yes",
      "addr_state": "MI",
      "addr_city": "Ferndale",
      "addr_postcode": "48220",
      "addr_street": "Woodward Avenue",
      "addr_housenumber": "23054",
      "value": 229.58854515959945
    },
    {
      "id": 212982,
      "geometry": "POINT (-83.432397 42.359199)",
      "poi_name": "Tubbys",
      "osm_id": 5229111904,
      "amenity": "fast_food",
      "cuisine": "sandwich",
      "opening_hours": "Mo-Sa 10:00-21:00; Su 11:00-18:00",
      "operator": "Tubbys of Plymouth Incorporated",
      "website": "https://www.tubbys.com/location-page/tubbys-plymouth-200",
      "phone": "+1 248 548 5500",
      "takeaway": "yes",
      "outdoor_seating": "no",
      "addr_state": "MI",
      "addr_city": "Plymouth Township",
      "addr_postcode": "48170",
      "addr_street": "Ann Arbor Road",
      "addr_housenumber": "400",
      "value": 229.58854515959945
    },
    {
      "id": 218809,
      "geometry": "POINT (-83.239697 42.372138)",
      "poi_name": "Burger King",
      "osm_id": 9296633217,
      "amenity": "fast_food",
      "cuisine": "burger",
      "takeaway": "yes",
      "addr_state": "MI",
      "addr_city": "Detroit",
      "addr_postcode": "48228",
      "addr_street": "Plymouth Road",
      "addr_housenumber": "20240",
      "value": 229.58854515959945
    },
    {
      "id": 217918,
      "geometry": "POINT (-83.222292 42.402587)",
      "poi_name": "Metro Fresh Fish & Sea Food",
      "osm_id": 9248688824,
      "amenity": "fast_food",
      "cuisine": "seafood;fish_and_chips",
      "addr_state": "MI",
      "addr_city": "Detroit",
      "addr_postcode": "48223",
      "addr_street": "Grand River Avenue",
      "addr_housenumber": "18440",
      "value": 229.58854515959945
    },
    {
      "id": 217919,
      "geometry": "POINT (-83.22108 42.40212)",
      "poi_name": "Subway",
      "osm_id": 9248688826,
      "amenity": "fast_food",
      "cuisine": "sandwich",
      "operator": "I & S SUBWAY, INC.",
      "takeaway": "yes",
      "addr_city": "Detroit",
      "addr_postcode": "48223",
      "addr_street": "Grand River Avenue",
      "addr_housenumber": "18288",
      "value": 229.58854515959945
    },
    {
      "id": 221933,
      "geometry": "POINT (-83.245579 42.400715)",
      "poi_name": "Brightmoor Coney Island",
      "osm_id": 10997846106,
      "amenity": "fast_food",
      "addr_state": "MI",
      "addr_city": "Detroit",
      "addr_postcode": "48223",
      "addr_street": "Fenkell Street",
      "addr_housenumber": "20740",
      "value": 229.58854515959945
    },
    {
      "id": 219977,
      "geometry": "POINT (-83.122216 42.392544)",
      "poi_name": "KFC",
      "osm_id": 9353568872,
      "amenity": "fast_food",
      "cuisine": "chicken",
      "website": "https://locations.kfc.com/mi/detroit/2601-w-davison-avenue",
      "takeaway": "yes",
      "addr_state": "MI",
      "addr_city": "Detroit",
      "addr_postcode": "48238",
      "addr_street": "West Davison Avenue",
      "addr_housenumber": "2601",
      "value": 229.58854515959945
    },
    {
      "id": 220085,
      "geometry": "POINT (-83.068947 42.385894)",
      "poi_name": "Grandy's Coney Island",
      "osm_id": 9358484521,
      "amenity": "fast_food",
      "cuisine": "hot_dog",
      "addr_state": "MI",
      "addr_city": "Detroit",
      "addr_postcode": "48211",
      "addr_street": "Holbrook Street",
      "addr_housenumber": "1200",
      "value": 229.58854515959945
    },
    {
      "id": 220088,
      "geometry": "POINT (-83.198097 42.372243)",
      "poi_name": "McDonald's",
      "osm_id": 9358878401,
      "amenity": "fast_food",
      "cuisine": "burger",
      "website": "https://www.mcdonalds.com/us/en-us/location/mi/detroit/15501-plymouth/12308.html",
      "takeaway": "yes",
      "addr_state": "MI",
      "addr_city": "Detroit",
      "addr_postcode": "48227",
      "addr_street": "Plymouth Road",
      "addr_housenumber": "15501",
      "value": 229.58854515959945
    },
    {
      "id": 220089,
      "geometry": "POINT (-83.197867 42.373185)",
      "poi_name": "Checkers",
      "osm_id": 9358878404,
      "amenity": "fast_food",
      "cuisine": "burger",
      "takeaway": "yes",
      "addr_state": "MI",
      "addr_city": "Detroit",
      "addr_postcode": "48227",
      "addr_street": "Greenfield Road",
      "addr_housenumber": "11641",
      "value": 229.58854515959945
    },
    {
      "id": 220499,
      "geometry": "POINT (-83.449565 42.323425)",
      "poi_name": "Qdoba",
      "osm_id": 9374807900,
      "amenity": "fast_food",
      "cuisine": "mexican",
      "wheelchair": "yes",
      "opening_hours": "Mo-Su 10:30-22:00",
      "website": "https://locations.qdoba.com/us/mi/canton/41420-ford-rd.html",
      "phone": "+1 734 981 9280",
      "takeaway": "yes",
      "official_name": "Qdoba Mexican Grill",
      "addr_state": "MI",
      "addr_city": "Canton",
      "addr_postcode": "48187",
      "addr_street": "Ford Road",
      "addr_housenumber": "41420",
      "value": 229.58854515959945
    },
    {
      "id": 220820,
      "geometry": "POINT (-83.261792 42.417815)",
      "poi_name": "KFC",
      "osm_id": 10959434555,
      "amenity": "fast_food",
      "cuisine": "chicken",
      "takeaway": "yes",
      "addr_state": "MI",
      "addr_city": "Detroit",
      "addr_postcode": "48219",
      "addr_street": "Grand River Avenue",
      "addr_housenumber": "22345",
      "value": 229.58854515959945
    },
    {
      "id": 220824,
      "geometry": "POINT (-83.032284 42.376954)",
      "poi_name": "Legends Coney Island",
      "osm_id": 10959707607,
      "amenity": "fast_food",
      "cuisine": "hot_dog",
      "addr_state": "MI",
      "addr_city": "Detroit",
      "addr_postcode": "48211",
      "addr_street": "Mount Elliott Street",
      "addr_housenumber": "5805",
      "value": 229.58854515959945
    },
    {
      "id": 221519,
      "geometry": "POINT (-83.139608 42.25643)",
      "poi_name": "Tacos La Pachanga",
      "osm_id": 10981489861,
      "amenity": "fast_food",
      "cuisine": "mexican",
      "phone": "+1-313-254-2123",
      "drive_through": "no",
      "addr_state": "MI",
      "addr_city": "Ecorse",
      "addr_postcode": "48229",
      "addr_street": "West Jefferson Avenue",
      "addr_housenumber": "3824",
      "value": 229.58854515959945
    },
    {
      "id": 219319,
      "geometry": "POINT (-83.334199 42.379466)",
      "poi_name": "MOD Pizza",
      "osm_id": 9325521638,
      "amenity": "fast_food",
      "cuisine": "pizza",
      "takeaway": "yes",
      "drive_through": "no",
      "addr_state": "MI",
      "addr_city": "Livonia",
      "addr_postcode": "48150",
      "addr_street": "Middlebelt Road",
      "addr_housenumber": "13229",
      "value": 229.58854515959945
    },
    {
      "id": 219320,
      "geometry": "POINT (-83.334196 42.37941)",
      "poi_name": "Jersey Mike's Subs",
      "osm_id": 9325521648,
      "amenity": "fast_food",
      "cuisine": "sandwich",
      "takeaway": "yes",
      "drive_through": "no",
      "addr_state": "MI",
      "addr_city": "Livonia",
      "addr_postcode": "48150",
      "addr_street": "Middlebelt Road",
      "addr_housenumber": "13215",
      "value": 229.58854515959945
    },
    {
      "id": 219326,
      "geometry": "POINT (-83.246512 42.170826)",
      "poi_name": "Dunkin'",
      "osm_id": 9325529414,
      "amenity": "fast_food",
      "cuisine": "donut;coffee_shop",
      "takeaway": "yes",
      "drive_through": "yes",
      "addr_state": "MI",
      "addr_city": "Brownstown Township",
      "addr_postcode": "48193",
      "addr_street": "Sibley Road",
      "addr_housenumber": "21980",
      "value": 229.58854515959945
    },
    {
      "id": 221201,
      "geometry": "POINT (-83.223461 42.40217)",
      "poi_name": "Fish Express",
      "osm_id": 10969443548,
      "amenity": "fast_food",
      "cuisine": "fish_and_chips",
      "website": "https://fish-express-seafood-restaurant.business.site/",
      "shop": "seafood",
      "addr_state": "MI",
      "addr_city": "Detroit",
      "addr_postcode": "48223",
      "addr_street": "Grand River Avenue",
      "addr_housenumber": "18509",
      "value": 229.58854515959945
    },
    {
      "id": 221202,
      "geometry": "POINT (-83.221648 42.401671)",
      "poi_name": "McDonald's",
      "osm_id": 10969443550,
      "amenity": "fast_food",
      "cuisine": "burger",
      "website": "https://www.mcdonalds.com/us/en-us/location/mi/detroit/18403-grand-river-rd/567.html",
      "takeaway": "yes",
      "addr_state": "MI",
      "addr_city": "Detroit",
      "addr_postcode": "48223",
      "addr_street": "Grand River Avenue",
      "addr_housenumber": "18403",
      "value": 229.58854515959945
    },
    {
      "id": 221463,
      "geometry": "POINT (-83.220266 42.430281)",
      "poi_name": "Church's Chicken",
      "osm_id": 10979156538,
      "amenity": "fast_food",
      "cuisine": "chicken",
      "takeaway": "yes",
      "addr_state": "MI",
      "addr_city": "Detroit",
      "addr_postcode": "48219",
      "addr_street": "West 7 Mile Road",
      "addr_housenumber": "18138",
      "value": 229.58854515959945
    },
    {
      "id": 221473,
      "geometry": "POINT (-83.219704 42.329375)",
      "poi_name": "Wendy's",
      "osm_id": 10979316466,
      "amenity": "fast_food",
      "cuisine": "burger",
      "takeaway": "yes",
      "addr_state": "MI",
      "addr_city": "Detroit",
      "addr_postcode": "48228",
      "addr_street": "Ford Road",
      "addr_housenumber": "18430",
      "value": 229.58854515959945
    },
    {
      "id": 222240,
      "geometry": "POINT (-83.086722 42.432655)",
      "poi_name": "Jed's Pizza",
      "osm_id": 11011154704,
      "amenity": "fast_food",
      "cuisine": "pizza",
      "addr_state": "MI",
      "addr_city": "Detroit",
      "addr_postcode": "48203",
      "addr_street": "East 7 Mile Road",
      "addr_housenumber": "1648",
      "value": 229.58854515959945
    },
    {
      "id": 223417,
      "geometry": "POINT (-83.18378 42.19913)",
      "poi_name": "Arby's",
      "osm_id": 11052955432,
      "amenity": "fast_food",
      "cuisine": "sandwich",
      "takeaway": "yes",
      "drive_through": "yes",
      "outdoor_seating": "no",
      "addr_state": "MI",
      "addr_city": "Southgate",
      "addr_postcode": "48195",
      "addr_street": "Eureka Road",
      "addr_housenumber": "13063",
      "value": 229.58854515959945
    },
    {
      "id": 225555,
      "geometry": "POINT (-83.300695 42.413634)",
      "poi_name": "Vicky's Ice Cream",
      "osm_id": 11132731862,
      "amenity": "fast_food",
      "cuisine": "ice_cream",
      "addr_state": "MI",
      "addr_city": "Redford",
      "addr_postcode": "48240",
      "addr_street": "West 6 Mile Road",
      "addr_housenumber": "26145",
      "value": 229.58854515959945
    },
    {
      "id": 225146,
      "geometry": "POINT (-83.056745 42.336977)",
      "poi_name": "Bucharest Grill",
      "osm_id": 11112922844,
      "amenity": "fast_food",
      "cuisine": "sandwich;middle_eastern",
      "website": "https://www.bucharestgrill.com/",
      "phone": "+1-313-965-3111",
      "drive_through": "no",
      "addr_state": "MI",
      "addr_city": "Detroit",
      "addr_postcode": "48226",
      "addr_street": "West Columbia Street",
      "addr_housenumber": "436",
      "value": 229.58854515959945
    },
    {
      "id": 229833,
      "geometry": "POINT (-83.123094 42.312982)",
      "poi_name": "Domino's",
      "osm_id": 4402129624,
      "amenity": "fast_food",
      "cuisine": "pizza",
      "website": "https://www.dominos.com/en/",
      "takeaway": "yes",
      "addr_state": "MI",
      "addr_city": "Detroit",
      "addr_postcode": "48209",
      "addr_street": "West Vernor Highway",
      "addr_housenumber": "7603",
      "value": 229.58854515959945
    },
    {
      "id": 239368,
      "geometry": "POINT (-83.129595 42.331474)",
      "poi_name": "McDonald's",
      "osm_id": 5919013742,
      "amenity": "fast_food",
      "cuisine": "burger",
      "website": "https://www.mcdonalds.com/us/en-us/location/mi/detroit/6876-michigan-ave/7453.html",
      "takeaway": "yes",
      "addr_state": "MI",
      "addr_city": "Detroit",
      "addr_postcode": "48210",
      "addr_street": "Michigan Avenue",
      "addr_housenumber": "6876",
      "value": 229.58854515959945
    },
    {
      "id": 239324,
      "geometry": "POINT (-83.06956 42.331141)",
      "poi_name": "Subway",
      "osm_id": 5917121800,
      "amenity": "fast_food",
      "cuisine": "sandwich",
      "takeaway": "yes",
      "addr_state": "MI",
      "addr_city": "Detroit",
      "addr_postcode": "48216",
      "addr_street": "Michigan Avenue",
      "addr_housenumber": "1715",
      "value": 229.58854515959945
    },
    {
      "id": 240074,
      "geometry": "POINT (-83.248097 42.305076)",
      "poi_name": "Famous Hamburger",
      "osm_id": 5954553463,
      "amenity": "fast_food",
      "addr_state": "MI",
      "addr_city": "Dearborn",
      "addr_postcode": "48124",
      "addr_street": "Michigan Avenue",
      "addr_housenumber": "22207",
      "value": 229.58854515959945
    },
    {
      "id": 240230,
      "geometry": "POINT (-83.047485 42.33049)",
      "poi_name": "Food Carnival",
      "osm_id": 5964152786,
      "amenity": "fast_food",
      "cuisine": "mexican",
      "drive_through": "no",
      "addr_state": "MI",
      "addr_city": "Detroit",
      "addr_postcode": "48226",
      "addr_street": "Griswold Street",
      "addr_housenumber": "645",
      "value": 229.58854515959945
    },
    {
      "id": 240233,
      "geometry": "POINT (-83.047189 42.331026)",
      "poi_name": "Potbelly",
      "osm_id": 5964239014,
      "amenity": "fast_food",
      "cuisine": "sandwich",
      "takeaway": "yes",
      "official_name": "Potbelly Sandwich Works",
      "addr_state": "MI",
      "addr_city": "Detroit",
      "addr_postcode": "48226",
      "addr_street": "Woodward Avenue",
      "addr_housenumber": "777",
      "value": 229.58854515959945
    },
    {
      "id": 240922,
      "geometry": "POINT (-83.218403 42.198485)",
      "poi_name": "Hungry Howie's",
      "osm_id": 5999367283,
      "amenity": "fast_food",
      "cuisine": "pizza",
      "takeaway": "yes",
      "drive_through": "no",
      "outdoor_seating": "no",
      "delivery": "yes",
      "addr_state": "MI",
      "addr_city": "Southgate",
      "addr_postcode": "48195",
      "addr_street": "Eureka Road",
      "addr_housenumber": "16083",
      "value": 229.58854515959945
    },
    {
      "id": 240509,
      "geometry": "POINT (-83.157043 42.19963)",
      "poi_name": "Wing Fellas (Coming Soon)",
      "osm_id": 5978781924,
      "amenity": "fast_food",
      "cuisine": "chicken",
      "drive_through": "no",
      "addr_state": "MI",
      "addr_city": "Wyandotte",
      "addr_postcode": "48192",
      "addr_street": "Eureka Road",
      "addr_housenumber": "541",
      "value": 229.58854515959945
    },
    {
      "id": 240399,
      "geometry": "POINT (-83.010655 42.34506)",
      "poi_name": "Little Caesars",
      "osm_id": 5972917366,
      "amenity": "fast_food",
      "cuisine": "pizza",
      "website": "https://littlecaesars.com/en-us/store/7674/",
      "takeaway": "yes",
      "addr_state": "MI",
      "addr_city": "Detroit",
      "addr_postcode": "48207",
      "addr_street": "Mount Elliott Street",
      "addr_housenumber": "500",
      "value": 229.58854515959945
    },
    {
      "id": 242615,
      "geometry": "POINT (-83.194205 42.216391)",
      "poi_name": "Ramsey's Coney Island",
      "osm_id": 7581353095,
      "amenity": "fast_food",
      "cuisine": "hot_dog",
      "drive_through": "no",
      "addr_state": "MI",
      "addr_city": "Southgate",
      "addr_postcode": "48195",
      "addr_street": "Dix-Toledo Highway",
      "addr_housenumber": "12552",
      "value": 229.58854515959945
    },
    {
      "id": 241382,
      "geometry": "POINT (-83.182562 42.189997)",
      "poi_name": "Del Taco",
      "osm_id": 6020857174,
      "amenity": "fast_food",
      "cuisine": "mexican",
      "takeaway": "yes",
      "drive_through": "yes",
      "outdoor_seating": "yes",
      "addr_state": "MI",
      "addr_city": "Southgate",
      "addr_postcode": "48195",
      "addr_street": "Fort Street",
      "addr_housenumber": "16252",
      "value": 229.58854515959945
    },
    {
      "id": 241406,
      "geometry": "POINT (-83.179358 42.200574)",
      "poi_name": "Wingzone (Coming Soon)",
      "osm_id": 6022586191,
      "amenity": "fast_food",
      "cuisine": "chicken",
      "drive_through": "no",
      "addr_state": "MI",
      "addr_city": "Wyandotte",
      "addr_postcode": "48192",
      "addr_street": "Fort Street",
      "addr_housenumber": "3183",
      "value": 229.58854515959945
    },
    {
      "id": 242110,
      "geometry": "POINT (-83.140054 42.410201)",
      "poi_name": "Church's Chicken",
      "osm_id": 6055110813,
      "amenity": "fast_food",
      "cuisine": "chicken",
      "takeaway": "yes",
      "addr_state": "MI",
      "addr_city": "Detroit",
      "addr_postcode": "48221",
      "addr_street": "Livernois Avenue",
      "addr_housenumber": "16100",
      "value": 229.58854515959945
    },
    {
      "id": 242111,
      "geometry": "POINT (-83.140229 42.410374)",
      "poi_name": "U of D Coney Island",
      "osm_id": 6055110814,
      "amenity": "fast_food",
      "addr_state": "MI",
      "addr_city": "Detroit",
      "addr_street": "Livernois Avenue",
      "addr_housenumber": "16126",
      "value": 229.58854515959945
    },
    {
      "id": 242655,
      "geometry": "POINT (-83.212932 42.213782)",
      "poi_name": "Healthy Homemade Cafe",
      "osm_id": 7590197461,
      "amenity": "fast_food",
      "drive_through": "no",
      "addr_state": "MI",
      "addr_city": "Southgate",
      "addr_postcode": "48195",
      "addr_street": "Northline Road",
      "addr_housenumber": "15580",
      "value": 229.58854515959945
    },
    {
      "id": 242659,
      "geometry": "POINT (-83.191165 42.21348)",
      "poi_name": "Guero's Mexican",
      "osm_id": 7590311667,
      "amenity": "fast_food",
      "cuisine": "mexican",
      "drive_through": "no",
      "addr_state": "MI",
      "addr_city": "Southgate",
      "addr_postcode": "48195",
      "addr_street": "Northline Road",
      "addr_housenumber": "13635",
      "value": 229.58854515959945
    },
    {
      "id": 242547,
      "geometry": "POINT (-83.19719 42.210258)",
      "poi_name": "Subway",
      "osm_id": 7578248980,
      "amenity": "fast_food",
      "cuisine": "sandwich",
      "takeaway": "yes",
      "drive_through": "no",
      "addr_state": "MI",
      "addr_city": "Southgate",
      "addr_postcode": "48195",
      "addr_street": "Dix-Toledo Highway",
      "addr_housenumber": "13353",
      "value": 229.58854515959945
    },
    {
      "id": 244272,
      "geometry": "POINT (-83.06602 42.356002)",
      "poi_name": "The Potato Place",
      "osm_id": 7710926687,
      "amenity": "fast_food",
      "website": "https://thepotatoplace.com/",
      "phone": "+1-313-833-8948",
      "addr_state": "MI",
      "addr_city": "Detroit",
      "addr_postcode": "48201",
      "addr_street": "West Warren Avenue",
      "addr_housenumber": "107",
      "value": 229.58854515959945
    },
    {
      "id": 243447,
      "geometry": "POINT (-83.065425 42.35516)",
      "poi_name": "Blimpie",
      "osm_id": 7650178485,
      "amenity": "fast_food",
      "cuisine": "sandwich",
      "website": "https://www.blimpie.com/stores/10768",
      "phone": "+1 (313) 831-0711",
      "takeaway": "yes",
      "addr_state": "MI",
      "addr_city": "Detroit",
      "addr_postcode": "48201",
      "addr_street": "West Hancock Street",
      "addr_housenumber": "108",
      "value": 229.58854515959945
    },
    {
      "id": 243129,
      "geometry": "POINT (-83.10062 42.409782)",
      "poi_name": "Dunkin'",
      "osm_id": 7626676719,
      "amenity": "fast_food",
      "cuisine": "donut;coffee_shop",
      "takeaway": "yes",
      "drive_through": "yes",
      "addr_state": "MI",
      "addr_city": "Highland Park",
      "addr_postcode": "48203",
      "addr_street": "Woodward Avenue",
      "addr_housenumber": "15109",
      "value": 229.58854515959945
    },
    {
      "id": 244273,
      "geometry": "POINT (-83.066249 42.355905)",
      "poi_name": "Olympic Grill",
      "osm_id": 7710926688,
      "amenity": "fast_food",
      "cuisine": "greek",
      "website": "https://visitdetroit.com/directory/olympic-grill/",
      "phone": "+1-313-832-5809",
      "addr_state": "MI",
      "addr_city": "Detroit",
      "addr_postcode": "48201",
      "addr_street": "West Warren Avenue",
      "addr_housenumber": "119",
      "value": 229.58854515959945
    },
    {
      "id": 244774,
      "geometry": "POINT (-83.225095 42.139991)",
      "poi_name": "Detroit Wing Company",
      "osm_id": 7740647571,
      "amenity": "fast_food",
      "cuisine": "wings",
      "drive_through": "no",
      "addr_state": "MI",
      "addr_city": "Woodhaven",
      "addr_postcode": "48183",
      "addr_street": "Allen Road",
      "addr_housenumber": "23151",
      "value": 229.58854515959945
    },
    {
      "id": 244776,
      "geometry": "POINT (-83.227149 42.141081)",
      "poi_name": "Dunkin'",
      "osm_id": 7740649014,
      "amenity": "fast_food",
      "cuisine": "donut;coffee_shop",
      "takeaway": "yes",
      "addr_state": "MI",
      "addr_city": "Woodhaven",
      "addr_postcode": "48183",
      "addr_street": "West Road",
      "addr_housenumber": "20050",
      "value": 229.58854515959945
    },
    {
      "id": 244384,
      "geometry": "POINT (-83.056965 42.33927)",
      "poi_name": "ZZ Market & Grill",
      "osm_id": 7721298914,
      "amenity": "fast_food",
      "addr_state": "MI",
      "addr_city": "Detroit",
      "addr_postcode": "48201",
      "addr_street": "Henry Street",
      "addr_housenumber": "210",
      "value": 229.58854515959945
    }
  ],
  "answer_type": "loc",
  "question_entities": {
    "[2]": {
      "distance": 90000,
      "text": "90 kilometers"
    },
    "[3]": {
      "main_category": "tourism",
      "sub_category": "gallery",
      "display_name": "The Mariner LLC, Marine City, MI",
      "geo_wkt": "POINT (-82.493094 42.715226)",
      "poi": {
        "id": 4954,
        "geometry": "POINT (-82.493094 42.715226)",
        "poi_name": "The Mariner LLC",
        "osm_id": 9695148984,
        "tourism": "gallery",
        "opening_hours": "Tu-Sa 11:00-17:00; Su 12:00-16:00",
        "operator": "Laura Scaccia",
        "website": "https://mariner-mc.com",
        "phone": "+1-810-765-5155",
        "addr_state": "MI",
        "addr_city": "Marine City",
        "addr_postcode": "48039",
        "addr_street": "South Water Street",
        "addr_housenumber": "430"
      }
    },
    "[4]": {
      "main_category": "leisure",
      "sub_category": "stadium",
      "display_name": "Allen Park Civic Arena, Allen Park, MI",
      "geo_wkt": "POINT (-83.211376 42.258691)",
      "poi": {
        "id": 265370,
        "geometry": "POINT (-83.211376 42.258691)",
        "poi_name": "Allen Park Civic Arena",
        "osm_id": 367815831,
        "leisure": "stadium",
        "addr_state": "MI",
        "addr_city": "Allen Park",
        "addr_postcode": "48101",
        "addr_street": "White Avenue",
        "addr_housenumber": "15800"
      }
    },
    "[1]": {
      "main_category": "amenity",
      "sub_category": "fast_food"
    }
  },
  "id": 1242,
  "type": "range:towards+loc"
}