{
  "question": "Could you track down a sandwich restaurant and is conveniently situated within 120 kilometers from Chopper's Lawn Equipment, Kissimmee, FL?",
  "sql": "SELECT * FROM pois\nWHERE ST_DWithin(pois.geometry, ST_GeomFromText('POINT (-81.327543 28.262181)',4326)::geography, 120000)\nAND amenity = 'restaurant'\nAND cuisine ILIKE '%sandwich%';\n",
  "answers": [
    {
      "id": 35895,
      "geometry": "POINT (-80.646076 28.078303)",
      "poi_name": "Jason's Deli",
      "osm_id": 2736312395,
      "amenity": "restaurant",
      "cuisine": "sandwich",
      "opening_hours": "Mo-Su 08:00-22:00",
      "website": "https://www.jasonsdeli.com/restaurants/melbourne-deli",
      "phone": "+1-321-733-6075",
      "addr_state": "FL",
      "addr_city": "West Melbourne",
      "addr_postcode": "32904",
      "addr_street": "New Haven Avenue",
      "addr_housenumber": "1509"
    },
    {
      "id": 55521,
      "geometry": "POINT (-82.215369 27.842055)",
      "poi_name": "Amici's Pizza & Pasta",
      "osm_id": 10196399209,
      "amenity": "restaurant",
      "cuisine": "pizza;pasta;sandwich;salad",
      "opening_hours": "Mo,We-Fr 11:00-21:00; Sa-Su 12:00-21:00",
      "website": "http://amicispizzapasta.com/",
      "phone": "+1 813 6431222",
      "takeaway": "yes",
      "delivery": "yes",
      "addr_state": "FL",
      "addr_city": "Lithia",
      "addr_postcode": "33547",
      "addr_street": "Churchview Drive",
      "addr_housenumber": "16132"
    },
    {
      "id": 58068,
      "geometry": "POINT (-81.562905 28.449838)",
      "poi_name": "Philly Connection",
      "osm_id": 5362620596,
      "amenity": "restaurant",
      "cuisine": "sandwich",
      "addr_state": "FL",
      "addr_city": "Windermere",
      "addr_postcode": "34786",
      "addr_street": "Old Brick Road",
      "addr_housenumber": "6536"
    },
    {
      "id": 115881,
      "geometry": "POINT (-81.268211 28.811587)",
      "poi_name": "The Corner Cafe, Home of Gourmet2Go",
      "osm_id": 8917560367,
      "amenity": "restaurant",
      "cuisine": "sandwich",
      "description": "Straightforward, pet-friendly American eatery with outdoor seating & an eclectic sandwich lineup.",
      "website": "www.thecornercafesanford.com",
      "phone": "407-322-3779",
      "addr_state": "FL",
      "addr_city": "Sanford",
      "addr_postcode": "32771",
      "addr_street": "W 1st Street",
      "addr_housenumber": "101"
    },
    {
      "id": 98271,
      "geometry": "POINT (-80.636864 28.079058)",
      "poi_name": "Cerrato's Italian Market and Deli",
      "osm_id": 6513765721,
      "amenity": "restaurant",
      "cuisine": "sandwich;italian",
      "addr_state": "FL",
      "addr_city": "Melbourne",
      "addr_postcode": "32901",
      "addr_street": "New Haven Avenue",
      "addr_housenumber": "908"
    },
    {
      "id": 99998,
      "geometry": "POINT (-81.466138 28.472632)",
      "poi_name": "Bigfire",
      "osm_id": 6571050391,
      "amenity": "restaurant",
      "cuisine": "chicken;steak_house;burger;sandwich",
      "phone": "(407) 224-3663",
      "addr_state": "FL",
      "addr_city": "Orlando",
      "addr_postcode": "32819",
      "addr_street": "Universal Boulevard",
      "addr_housenumber": "6000"
    },
    {
      "id": 105700,
      "geometry": "POINT (-80.903261 29.038414)",
      "poi_name": "Cafe Heavenly",
      "osm_id": 8641402450,
      "amenity": "restaurant",
      "cuisine": "pizza;sandwich;ice_cream",
      "website": "https://www.cafeheavenly.com/",
      "addr_city": "New Smyrna Beach",
      "addr_postcode": "32169",
      "addr_street": "Flagler Avenue",
      "addr_housenumber": "115"
    },
    {
      "id": 105704,
      "geometry": "POINT (-81.29831 28.965453)",
      "poi_name": "Tropi Shack",
      "osm_id": 8641420185,
      "amenity": "restaurant",
      "cuisine": "sandwich",
      "addr_state": "NC",
      "addr_city": "Orange City",
      "addr_postcode": "32763",
      "addr_street": "North Volusia Avenue",
      "addr_housenumber": "2010"
    },
    {
      "id": 99984,
      "geometry": "POINT (-80.721297 28.266424)",
      "poi_name": "Longdogger\u2019s",
      "osm_id": 6570083643,
      "amenity": "restaurant",
      "cuisine": "american;regional;burger;sandwich;seafood",
      "addr_state": "FL",
      "addr_street": "Viera Boulevard"
    },
    {
      "id": 104852,
      "geometry": "POINT (-80.611492 28.319441)",
      "poi_name": "Jenna's Breezeway",
      "osm_id": 8590431866,
      "amenity": "restaurant",
      "cuisine": "salad;sandwich;fish;regional",
      "opening_hours": "Mo-Sa 11:00-24:00; Su 11:00-22:00",
      "website": "https://jennasbreezeway.com/",
      "phone": "(321) 784-4240",
      "outdoor_seating": "yes",
      "addr_state": "FL",
      "addr_city": "Cocoa Beach",
      "addr_postcode": "32931",
      "addr_street": "Brevard Ave N",
      "addr_housenumber": "20"
    },
    {
      "id": 120665,
      "geometry": "POINT (-80.390778 27.632308)",
      "poi_name": "Dagwood's Deli & Sub Shop",
      "osm_id": 6718317064,
      "amenity": "restaurant",
      "cuisine": "sandwich",
      "opening_hours": "Mo-Sa 11:00-15:00",
      "website": "https://dagwoodsvb.com/",
      "phone": "+1-772-778-1900",
      "outdoor_seating": "yes",
      "addr_state": "FL",
      "addr_city": "Vero Beach",
      "addr_postcode": "32960",
      "addr_street": "17th Street",
      "addr_housenumber": "835"
    },
    {
      "id": 122361,
      "geometry": "POINT (-80.704647 28.23017)",
      "poi_name": "EATz",
      "osm_id": 6797841579,
      "amenity": "restaurant",
      "cuisine": "sandwich;salad",
      "opening_hours": "Mo-Sa 11:00-14:45",
      "website": "https://www.eatz-eatery.com/",
      "phone": "+1-321-426-7575",
      "takeaway": "yes",
      "addr_state": "FL",
      "addr_city": "Melbourne",
      "addr_postcode": "32940",
      "addr_street": "North Wickham Road",
      "addr_housenumber": "7965"
    },
    {
      "id": 158551,
      "geometry": "POINT (-81.082467 29.279493)",
      "poi_name": "Mr Wich Deli",
      "osm_id": 4753858852,
      "amenity": "restaurant",
      "cuisine": "sandwich;pizza",
      "addr_city": "Ormond Beach",
      "addr_postcode": "32174",
      "addr_street": "North Nova Road",
      "addr_housenumber": "21"
    },
    {
      "id": 133345,
      "geometry": "POINT (-81.46281 28.41774)",
      "poi_name": "Laguna Restaurant & Bar",
      "osm_id": 9989161721,
      "amenity": "restaurant",
      "cuisine": "pizza;sandwich;salad;steak;american",
      "opening_hours": "Mo-Su 07:00-23:00",
      "website": "https://www.dtresortorlando.com/orlando-restaurants",
      "phone": "+1 321-978-9380",
      "addr_state": "FL",
      "addr_city": "Orlando",
      "addr_postcode": "32821",
      "addr_street": "International Drive",
      "addr_housenumber": "10100"
    },
    {
      "id": 175135,
      "geometry": "POINT (-80.694499 28.231268)",
      "poi_name": "Nature's Table",
      "osm_id": 2506716869,
      "amenity": "restaurant",
      "cuisine": "sandwich",
      "website": "https://naturestable.com/",
      "phone": "+1-321-254-7075",
      "addr_state": "FL",
      "addr_city": "Melbourne",
      "addr_postcode": "32940",
      "addr_street": "North Wickham Road",
      "addr_housenumber": "7640"
    },
    {
      "id": 195807,
      "geometry": "POINT (-81.201547 28.565584)",
      "poi_name": "Cheba Hut \"Toasted\" Subs",
      "osm_id": 10539967885,
      "amenity": "restaurant",
      "cuisine": "sandwich",
      "opening_hours": "Su-Sa 11:00-21:00",
      "website": "https://chebahut.com/locations/orlando",
      "phone": "+1 407 250-4120",
      "addr_state": "FL",
      "addr_city": "Orlando",
      "addr_postcode": "32826",
      "addr_street": "East Colonial Drive",
      "addr_housenumber": "12100"
    },
    {
      "id": 180077,
      "geometry": "POINT (-81.350494 28.593781)",
      "poi_name": "Farm & Haus Park Avenue",
      "osm_id": 10789443676,
      "amenity": "restaurant",
      "cuisine": "breakfast;brunch;sandwich",
      "description": "Farm & Haus is a modern daytime cafe that makes feel-good-food using simple, made from scratch recipes with quality and often local ingredients.",
      "opening_hours": "Tu-Su 08:00-15:00",
      "website": "https://www.farmandhaus.com/",
      "phone": "+1-407-790-4371",
      "addr_state": "FL",
      "addr_city": "Winter Park",
      "addr_postcode": "32789",
      "addr_street": "South Park Avenue",
      "addr_housenumber": "526"
    },
    {
      "id": 212163,
      "geometry": "POINT (-81.349358 28.538924)",
      "poi_name": "Market On South",
      "osm_id": 5194583683,
      "amenity": "restaurant",
      "cuisine": "dessert;sandwich",
      "opening_hours": "Mo 09:00-18:00; We-Th 08:00-20:00; Fr-Su 08:00-21:00",
      "website": "https://mainhousemarket.com",
      "phone": "+1-407-919-5402",
      "addr_state": "FL",
      "addr_city": "Orlando",
      "addr_postcode": "32803",
      "addr_street": "East South Street",
      "addr_housenumber": "2603"
    },
    {
      "id": 233851,
      "geometry": "POINT (-82.322371 27.939731)",
      "poi_name": "The Corner Bakery Cafe",
      "osm_id": 4589709677,
      "amenity": "restaurant",
      "cuisine": "sandwich",
      "opening_hours": "Mo-Fr 07:00-15:00; Sa,Su 08:00-15:00",
      "website": "https://www.cornerbakerycafe.com/",
      "internet_access": "wlan",
      "phone": "+1 (813) 982-3073",
      "takeaway": "yes",
      "outdoor_seating": "yes",
      "addr_state": "FL",
      "addr_city": "Brandon",
      "addr_postcode": "33511",
      "addr_street": "West Brandon Boulevard",
      "addr_housenumber": "2326"
    }
  ],
  "answer_type": "loc",
  "question_entities": {
    "[1]": {
      "main_category": "amenity",
      "sub_category": "restaurant",
      "poi_filter_desc": "sandwich restaurant",
      "poi_filter_sql": "cuisine ILIKE '%sandwich%'"
    },
    "[2]": {
      "distance": 120000,
      "text": "120 kilometers"
    },
    "[3]": {
      "main_category": "leisure",
      "sub_category": "garden",
      "display_name": "Chopper's Lawn Equipment, Kissimmee, FL",
      "geo_wkt": "POINT (-81.327543 28.262181)",
      "poi": {
        "id": 246454,
        "geometry": "POINT (-81.327543 28.262181)",
        "poi_name": "Chopper's Lawn Equipment",
        "osm_id": 9684453306,
        "leisure": "garden",
        "opening_hours": "Mo-Fr 08:00-17:00",
        "website": "https://chopperslawnequipment.com",
        "phone": "+1-407-891-8990",
        "addr_state": "FL",
        "addr_city": "Kissimmee",
        "addr_postcode": "34744",
        "addr_street": "Big Sky Boulevard",
        "addr_housenumber": "2899"
      }
    }
  },
  "id": 436,
  "type": "range:non_spat_filter+loc"
}