{
  "question": "What's the proximity of a museum from Alden Park, OR within 80 kilometers?",
  "sql": "SELECT *, ST_Distance(ST_GeomFromText('POINT (-123.070658 45.222617)',4326)::geography, pois.geometry) AS distance FROM pois\nWHERE ST_DWithin(pois.geometry, ST_GeomFromText('POINT (-123.070658 45.222617)',4326)::geography, 80000)\nAND tourism = 'museum';\n",
  "answers": [
    {
      "id": 804,
      "geometry": "POINT (-123.265365 44.546467)",
      "poi_name": "Taylor's Vintage Car Collection",
      "osm_id": 2693640692,
      "tourism": "museum",
      "website": "https://www.facebook.com/TaylorVintageCars",
      "distance": 76698.55922417
    },
    {
      "id": 1280,
      "geometry": "POINT (-122.674644 45.560518)",
      "poi_name": "Portland Museum of Modern Art",
      "osm_id": 2924967041,
      "tourism": "museum",
      "wikidata": "Q62572135",
      "addr_state": "OR",
      "addr_city": "Portland",
      "addr_postcode": "97217",
      "addr_street": "North Sumner Street",
      "addr_housenumber": "5204",
      "distance": 48703.06065917
    },
    {
      "id": 1313,
      "geometry": "POINT (-123.910627 45.558356)",
      "poi_name": "Oregon Coast Scenic Railroad",
      "osm_id": 2933695048,
      "tourism": "museum",
      "website": "https://oregoncoastscenic.org/",
      "phone": "+1 503 842 7972",
      "addr_state": "OR",
      "addr_city": "Garibaldi",
      "addr_postcode": "97118",
      "addr_street": "American Avenue",
      "addr_housenumber": "306",
      "distance": 75623.45992236
    },
    {
      "id": 2595,
      "geometry": "POINT (-122.753985 45.231541)",
      "poi_name": "Old Aurora Colony Museum",
      "osm_id": 528142622,
      "tourism": "museum",
      "fee": "yes",
      "opening_hours": "Th-Sa 11:00-16:00",
      "distance": 24889.62384809
    },
    {
      "id": 3726,
      "geometry": "POINT (-123.112517 45.245958)",
      "poi_name": "Yamhill County Museum",
      "osm_id": 5569224073,
      "tourism": "museum",
      "distance": 4187.31064854
    },
    {
      "id": 3782,
      "geometry": "POINT (-122.613351 45.352051)",
      "poi_name": "Museum of the Oregon Territory",
      "osm_id": 5598003321,
      "tourism": "museum",
      "website": "http://clackamashistory.org",
      "distance": 38652.8811537
    },
    {
      "id": 4621,
      "geometry": "POINT (-123.608033 45.061608)",
      "poi_name": "Chachalu Museum & Cultural Center",
      "osm_id": 11360750332,
      "tourism": "museum",
      "opening_hours": "Mo,Su off; Tu-Sa 10:00-16:00",
      "distance": 45897.06367224
    },
    {
      "id": 4644,
      "geometry": "POINT (-122.9751 45.302229)",
      "poi_name": "Chehalem Cultural Center",
      "osm_id": 11372653403,
      "tourism": "museum",
      "wheelchair": "yes",
      "opening_hours": "Tu-Sa 09:00-18:00",
      "website": "https://www.chehalemculturalcenter.org/",
      "phone": "+1-503-487-6883",
      "museum": "art",
      "toilets": "yes",
      "addr_state": "OR",
      "addr_city": "Newberg",
      "addr_postcode": "97132",
      "addr_street": "East Sheridan Street",
      "addr_housenumber": "415",
      "distance": 11598.87218415
    },
    {
      "id": 4957,
      "geometry": "POINT (-122.708754 45.519202)",
      "poi_name": "Japanese Arts Learning Center",
      "osm_id": 9696789164,
      "tourism": "museum",
      "website": "https://japanesegarden.org/cultural-village/learning-center/",
      "distance": 43476.83282982
    },
    {
      "id": 5615,
      "geometry": "POINT (-123.370576 44.54123)",
      "poi_name": "Benton County Historical Museum",
      "osm_id": 839359245,
      "tourism": "museum",
      "opening_hours": "Mo-Tu off; Su off; We-Sa 10:00-16:30",
      "website": "https://www.bentoncountymuseum.org/",
      "distance": 79343.09264541
    },
    {
      "id": 7858,
      "geometry": "POINT (-122.67362 45.524345)",
      "poi_name": "Portland Chinatown Museum",
      "osm_id": 6442437042,
      "tourism": "museum",
      "fee": "yes",
      "opening_hours": "Fr-Su 11:00-15:00",
      "website": "https://www.portlandchinatownmuseum.org/",
      "addr_state": "OR",
      "addr_city": "Portland",
      "addr_postcode": "97209",
      "addr_street": "Northwest 3rd Avenue",
      "addr_housenumber": "127",
      "distance": 45735.97338685
    },
    {
      "id": 9252,
      "geometry": "POINT (-122.697583 45.535296)",
      "poi_name": "The Freakybuttrue Peculiarium and Museum",
      "osm_id": 3717724854,
      "tourism": "museum",
      "website": "https://www.peculiarium.com/",
      "phone": "+15032273164",
      "addr_state": "OR",
      "addr_city": "Portland",
      "addr_postcode": "97210",
      "addr_street": "Northwest Thurman Street",
      "addr_housenumber": "2234",
      "distance": 45403.66871152
    },
    {
      "id": 9369,
      "geometry": "POINT (-122.679568 45.514361)",
      "poi_name": "Wells Fargo History Exhibit",
      "osm_id": 3763194908,
      "tourism": "museum",
      "operator": "Wells Fargo",
      "website": "https://www.wellsfargohistory.com/",
      "addr_state": "OR",
      "addr_city": "Portland",
      "addr_postcode": "97201",
      "addr_street": "Southwest 5th Avenue",
      "addr_housenumber": "1300",
      "distance": 44609.3494211
    },
    {
      "id": 9829,
      "geometry": "POINT (-123.004274 44.938245)",
      "poi_name": "Oregon State Hospital Museum of Mental Health",
      "osm_id": 9012722253,
      "tourism": "museum",
      "website": "https://oshmuseum.org/",
      "museum": "medicine",
      "addr_state": "OR",
      "addr_city": "Salem",
      "addr_postcode": "97301",
      "addr_street": "Center Street Northeast",
      "addr_housenumber": "2600",
      "distance": 32032.51452599
    },
    {
      "id": 10279,
      "geometry": "POINT (-122.678206 45.524334)",
      "poi_name": "Oregon Jewish Museum",
      "osm_id": 6773241857,
      "tourism": "museum",
      "website": "https://www.ojmche.org/",
      "phone": "+1-503-226-3600",
      "wikidata": "Q15264274",
      "addr_city": "Portland",
      "addr_postcode": "97209",
      "addr_street": "Northwest Davis Street",
      "addr_housenumber": "724",
      "distance": 45491.64141024
    },
    {
      "id": 10280,
      "geometry": "POINT (-122.683617 45.516229)",
      "poi_name": "Portland Art Museum",
      "osm_id": 6773241868,
      "tourism": "museum",
      "fee": "yes",
      "opening_hours": "Tu-We 10:00-17:00; Th-Fr 10:00-20:00; Sa-Su 10:00-17:00",
      "website": "https://portlandartmuseum.org/",
      "wikidata": "Q279049",
      "addr_city": "Portland",
      "addr_postcode": "97205",
      "addr_street": "Southwest Park Avenue",
      "addr_housenumber": "1219",
      "distance": 44543.6344952
    },
    {
      "id": 13055,
      "geometry": "POINT (-122.676329 45.515096)",
      "poi_name": "Portland Police Museum",
      "osm_id": 4035505070,
      "tourism": "museum",
      "website": "http://www.portlandpolicemuseum.com/",
      "wikidata": "Q18749145",
      "addr_state": "OR",
      "addr_city": "Portland",
      "addr_postcode": "97204",
      "addr_street": "Southwest 2nd Avenue",
      "addr_housenumber": "1111",
      "distance": 44843.0663512
    },
    {
      "id": 15304,
      "geometry": "POINT (-122.815371 45.498534)",
      "poi_name": "Vintage Tek",
      "osm_id": 4846940895,
      "tourism": "museum",
      "opening_hours": "Th 10:00-18:00; Sa 10:00-16:00",
      "website": "https://vintagetek.org/",
      "phone": "+1-503-644-0161",
      "addr_state": "OR",
      "addr_city": "Beaverton",
      "addr_postcode": "97077",
      "addr_street": "Southwest Karl Braun Drive",
      "addr_housenumber": "13489",
      "distance": 36611.76799082
    },
    {
      "id": 18337,
      "geometry": "POINT (-122.896653 45.249276)",
      "poi_name": "Newell House",
      "osm_id": 370688864,
      "tourism": "museum",
      "website": "https://newellpioneervillage.com/",
      "distance": 13980.86346514
    },
    {
      "id": 18352,
      "geometry": "POINT (-123.804328 45.420675)",
      "poi_name": "Tillamook Air Museum",
      "osm_id": 397723011,
      "tourism": "museum",
      "website": "https://www.tillamookair.com/",
      "phone": "+1-503-8421130",
      "wikidata": "Q7802237",
      "addr_postcode": "97141",
      "addr_street": "Hang\u0430r Road",
      "addr_housenumber": "6030",
      "distance": 61590.43794273
    },
    {
      "id": 19494,
      "geometry": "POINT (-123.039261 44.931418)",
      "poi_name": "Bush House Museum",
      "osm_id": 10788239902,
      "tourism": "museum",
      "operator": "Salem Art Association",
      "website": "https://bushhousemuseum.org/",
      "phone": "+1 503 363 4714",
      "addr_state": "OR",
      "addr_city": "Salem",
      "addr_postcode": "97302",
      "addr_street": "Mission Street Southeast",
      "addr_housenumber": "600",
      "distance": 32456.13836708
    },
    {
      "id": 19844,
      "geometry": "POINT (-123.26121 44.560744)",
      "poi_name": "Corvallis Museum",
      "osm_id": 10912960838,
      "tourism": "museum",
      "wheelchair": "yes",
      "fee": "yes",
      "opening_hours": "We-Sa 10:00-16:30; Su 12:00-16:30; Mo,Tu off",
      "website": "https://bentoncountymuseums.org/",
      "phone": "+1 541 929 6230",
      "addr_state": "OR",
      "addr_city": "Corvallis",
      "addr_postcode": "97333",
      "addr_street": "Southwest 2nd Street",
      "addr_housenumber": "411",
      "distance": 75078.13479702
    },
    {
      "id": 22204,
      "geometry": "POINT (-122.682995 45.266478)",
      "poi_name": "Canby Depot Museum",
      "osm_id": 598425529,
      "tourism": "museum",
      "opening_hours": "Mar-Dec Th-Su 13:00-16:00",
      "operator": "Canby Historical Society",
      "website": "https://www.canbyhistoricalsociety.org/",
      "phone": "+1 (503) 266-6712",
      "wikidata": "Q5031300",
      "addr_state": "OR",
      "addr_city": "Canby",
      "addr_postcode": "97013",
      "addr_street": "Northeast 4th Avenue",
      "addr_housenumber": "888",
      "distance": 30823.55313623
    },
    {
      "id": 23863,
      "geometry": "POINT (-122.632035 45.526844)",
      "poi_name": "Hellenic-American Cultural Center & Museum",
      "osm_id": 9169923137,
      "tourism": "museum",
      "opening_hours": "Tu-Fr 11:00-15:00, Su 12:00-13:00",
      "website": "https://hellenicamericancc.org/",
      "phone": "+1 503-858-8567",
      "museum": "history",
      "addr_state": "OR",
      "addr_city": "Portland",
      "addr_postcode": "97232",
      "addr_street": "Northeast Glisan Street",
      "addr_housenumber": "3131",
      "distance": 48204.42858017
    },
    {
      "id": 24318,
      "geometry": "POINT (-123.10506 44.636777)",
      "poi_name": "Albany Regional Museum",
      "osm_id": 11002541869,
      "tourism": "museum",
      "opening_hours": "Mo off; Tu-Sa 10:00-16:00; Su off",
      "website": "https://www.armuseum.com/",
      "phone": "+1 541 967 7122",
      "addr_state": "OR",
      "addr_city": "Albany",
      "addr_postcode": "97321",
      "addr_street": "Lyon Street South;Albany-Corvallis Highway",
      "addr_housenumber": "136",
      "distance": 65161.29631469
    },
    {
      "id": 25513,
      "geometry": "POINT (-122.777124 45.447191)",
      "poi_name": "Selfie WRLD",
      "osm_id": 4523950289,
      "tourism": "museum",
      "museum": "instagram",
      "distance": 33946.32612733
    }
  ],
  "answer_type": "distance",
  "question_entities": {
    "[1]": {
      "main_category": "tourism",
      "sub_category": "museum"
    },
    "[2]": {
      "distance": 80000,
      "text": "80 kilometers"
    },
    "[3]": {
      "main_category": "leisure",
      "sub_category": "park",
      "display_name": "Alden Park, OR",
      "geo_wkt": "POINT (-123.070658 45.222617)",
      "poi": {
        "id": 254107,
        "geometry": "POINT (-123.070658 45.222617)",
        "poi_name": "Alden Park",
        "osm_id": 357323664,
        "leisure": "park",
        "addr_state": "OR"
      }
    }
  },
  "id": 798,
  "type": "range+distance"
}