{
  "question": "Is there a caf\u00e9 within 110 kilometers from Cox Science Center and Aquarium, West Palm Beach, FL?",
  "sql": "SELECT * FROM pois\nWHERE ST_DWithin(pois.geometry, ST_GeomFromText('POINT (-80.069796 26.669305)',4326)::geography, 110000)\nAND amenity = 'cafe';\n",
  "answers": [
    {
      "id": 30643,
      "geometry": "POINT (-80.20279 25.772694)",
      "poi_name": "American",
      "osm_id": 8372106524,
      "amenity": "cafe"
    },
    {
      "id": 32002,
      "geometry": "POINT (-80.225708 26.716494)",
      "poi_name": "Village Golf Club",
      "osm_id": 2617869744,
      "amenity": "cafe"
    },
    {
      "id": 32021,
      "geometry": "POINT (-80.212146 26.650644)",
      "poi_name": "Starbucks",
      "osm_id": 2618914674,
      "amenity": "cafe",
      "cuisine": "coffee_shop",
      "takeaway": "yes",
      "official_name": "Starbucks Coffee"
    },
    {
      "id": 32250,
      "geometry": "POINT (-80.238208 25.744414)",
      "poi_name": "Mary's Cafeteria",
      "osm_id": 2623048423,
      "amenity": "cafe",
      "cuisine": "sandwich",
      "internet_access": "no",
      "phone": "+1 305 443-6672",
      "takeaway": "yes",
      "outdoor_seating": "yes",
      "addr_state": "FL",
      "addr_city": "Miami",
      "addr_postcode": "33133",
      "addr_street": "Southwest 27th Avenue",
      "addr_housenumber": "2542"
    },
    {
      "id": 33436,
      "geometry": "POINT (-80.089212 26.570574)",
      "poi_name": "Starbucks",
      "osm_id": 2667771626,
      "amenity": "cafe",
      "cuisine": "coffee_shop",
      "internet_access": "yes",
      "takeaway": "yes",
      "official_name": "Starbucks Coffee",
      "addr_city": "Boynton Beach",
      "addr_postcode": "33426",
      "addr_street": "North Congress Avenue",
      "addr_housenumber": "4742"
    },
    {
      "id": 34210,
      "geometry": "POINT (-80.131955 25.787441)",
      "poi_name": "Caffe Di Mauro",
      "osm_id": 2697912493,
      "amenity": "cafe",
      "phone": "(305) 673-5774",
      "addr_state": "FL",
      "addr_city": "Miami Beach",
      "addr_postcode": "33139",
      "addr_street": "Washington Avenue",
      "addr_housenumber": "1464"
    },
    {
      "id": 36600,
      "geometry": "POINT (-80.199254 25.799897)",
      "poi_name": "Panther Coffee",
      "osm_id": 2773797419,
      "amenity": "cafe",
      "cuisine": "coffee_shop",
      "opening_hours": "Su 08:00-21:00; Mo-Sa 07:00-21:00",
      "website": "https://www.panthercoffee.com/",
      "internet_access": "wlan",
      "phone": "+13056773952",
      "addr_state": "FL",
      "addr_city": "Miami",
      "addr_postcode": "33127",
      "addr_street": "Northwest 2nd Avenue",
      "addr_housenumber": "2390"
    },
    {
      "id": 36642,
      "geometry": "POINT (-80.104465 26.121342)",
      "poi_name": "H2O Cafe",
      "osm_id": 2776914635,
      "amenity": "cafe",
      "website": "http://www.h2ocafe.net/",
      "outdoor_seating": "sidewalk",
      "addr_city": "Fort Lauderdale"
    },
    {
      "id": 37851,
      "geometry": "POINT (-80.11553 26.187774)",
      "poi_name": "Starbucks",
      "osm_id": 2834763428,
      "amenity": "cafe",
      "cuisine": "coffee_shop",
      "internet_access": "yes",
      "takeaway": "yes",
      "official_name": "Starbucks Coffee",
      "addr_state": "FL",
      "addr_city": "Fort Lauderdale",
      "addr_postcode": "33308",
      "addr_street": "Federal Highway",
      "addr_housenumber": "4854"
    },
    {
      "id": 38409,
      "geometry": "POINT (-80.206107 27.132421)",
      "poi_name": "Starbucks",
      "osm_id": 2863182729,
      "amenity": "cafe",
      "cuisine": "coffee_shop",
      "opening_hours": "Mo-Th 05:00-21:00; Fr-Sa 05:00-21:30; Su 05:30-20:30",
      "website": "https://www.starbucks.com/store-locator/store/6456/cove-rd-us-hwy-1-5932-southeast-federal-hwy-stuart-fl-349977850-us",
      "internet_access": "wlan",
      "phone": "+1 (772) 287-6792",
      "takeaway": "yes",
      "drive_through": "yes",
      "official_name": "Starbucks Coffee",
      "addr_state": "FL",
      "addr_city": "Stuart",
      "addr_postcode": "34997-7850",
      "addr_street": "Southeast Federal Highway",
      "addr_housenumber": "5932"
    },
    {
      "id": 38413,
      "geometry": "POINT (-80.253478 27.198723)",
      "poi_name": "Osceola Street Cafe",
      "osm_id": 2863249223,
      "amenity": "cafe",
      "cuisine": "american",
      "opening_hours": "Mo 06:00-15:00; Tu-Fr 06:00-15:00, 17:30-22:00; Sa 08:00-15:00, 17:30-22:00; Su 08:00-13:00",
      "website": "https://www.osceolastreet.com/",
      "phone": "+1 (772) 283-6116",
      "addr_city": "Stuart",
      "addr_postcode": "34994",
      "addr_street": "Southwest Osceola Street",
      "addr_housenumber": "26"
    },
    {
      "id": 39265,
      "geometry": "POINT (-80.130978 25.785212)",
      "poi_name": "FL Cafe",
      "osm_id": 2912773201,
      "amenity": "cafe",
      "opening_hours": "20:00+"
    },
    {
      "id": 39790,
      "geometry": "POINT (-80.425345 25.760518)",
      "poi_name": "Starbucks",
      "osm_id": 2940285931,
      "amenity": "cafe",
      "cuisine": "coffee_shop",
      "takeaway": "yes",
      "official_name": "Starbucks Coffee"
    },
    {
      "id": 39806,
      "geometry": "POINT (-80.167401 25.945467)",
      "poi_name": "Starbucks",
      "osm_id": 2940575408,
      "amenity": "cafe",
      "cuisine": "coffee_shop",
      "takeaway": "yes",
      "official_name": "Starbucks Coffee",
      "outdoor_seating": "yes",
      "addr_state": "FL",
      "addr_city": "Miami",
      "addr_postcode": "33179",
      "addr_street": "Northeast Miami Gardens Drive",
      "addr_housenumber": "1690"
    },
    {
      "id": 39840,
      "geometry": "POINT (-80.18507 25.776915)",
      "poi_name": "Starbucks",
      "osm_id": 2941412390,
      "amenity": "cafe",
      "cuisine": "coffee_shop",
      "takeaway": "yes",
      "official_name": "Starbucks Coffee"
    },
    {
      "id": 42135,
      "geometry": "POINT (-80.040757 26.718614)",
      "poi_name": "Sprinkles Palm Beach",
      "osm_id": 3046622955,
      "amenity": "cafe",
      "cuisine": "ice_cream",
      "addr_state": "FL",
      "addr_city": "Palm Beach",
      "addr_postcode": "33480",
      "addr_street": "Royal Poinciana Way",
      "addr_housenumber": "279"
    },
    {
      "id": 43369,
      "geometry": "POINT (-80.193094 25.76519)",
      "poi_name": "Starbucks",
      "osm_id": 3106608955,
      "amenity": "cafe",
      "cuisine": "coffee_shop",
      "takeaway": "yes",
      "official_name": "Starbucks Coffee"
    },
    {
      "id": 44053,
      "geometry": "POINT (-80.36848 25.791322)",
      "poi_name": "Starbucks",
      "osm_id": 3141603551,
      "amenity": "cafe",
      "cuisine": "coffee_shop",
      "takeaway": "yes",
      "official_name": "Starbucks Coffee"
    },
    {
      "id": 44239,
      "geometry": "POINT (-80.122 25.934569)",
      "poi_name": "Starbucks",
      "osm_id": 3151932634,
      "amenity": "cafe",
      "cuisine": "coffee_shop",
      "takeaway": "yes",
      "official_name": "Starbucks Coffee",
      "outdoor_seating": "yes",
      "addr_state": "FL",
      "addr_city": "Sunny Isles Beach",
      "addr_postcode": "33160",
      "addr_street": "Collins Avenue",
      "addr_housenumber": "17100"
    },
    {
      "id": 44320,
      "geometry": "POINT (-80.260573 25.749269)",
      "poi_name": "Starbucks",
      "osm_id": 3156225270,
      "amenity": "cafe",
      "cuisine": "coffee_shop",
      "takeaway": "yes",
      "official_name": "Starbucks Coffee"
    },
    {
      "id": 44764,
      "geometry": "POINT (-80.202592 25.801613)",
      "poi_name": "Wynwood Cafe",
      "osm_id": 3175197146,
      "amenity": "cafe",
      "addr_state": "FL",
      "addr_city": "Miami",
      "addr_street": "Northwest 27th Street",
      "addr_housenumber": "450"
    },
    {
      "id": 45373,
      "geometry": "POINT (-80.274104 25.716472)",
      "poi_name": "Starbucks",
      "osm_id": 3203993858,
      "amenity": "cafe",
      "cuisine": "coffee_shop",
      "internet_access": "wlan",
      "takeaway": "yes",
      "official_name": "Starbucks Coffee"
    },
    {
      "id": 45441,
      "geometry": "POINT (-80.10811 26.78305)",
      "poi_name": "Starbucks",
      "osm_id": 3208571062,
      "amenity": "cafe",
      "cuisine": "coffee_shop",
      "takeaway": "yes",
      "official_name": "Starbucks Coffee"
    },
    {
      "id": 45444,
      "geometry": "POINT (-80.060072 26.846291)",
      "poi_name": "Starbucks",
      "osm_id": 3208571570,
      "amenity": "cafe",
      "cuisine": "coffee_shop",
      "takeaway": "yes",
      "official_name": "Starbucks Coffee"
    },
    {
      "id": 45573,
      "geometry": "POINT (-80.116559 26.169407)",
      "poi_name": "Starbucks",
      "osm_id": 3217035642,
      "amenity": "cafe",
      "cuisine": "coffee_shop",
      "takeaway": "yes",
      "official_name": "Starbucks Coffee"
    },
    {
      "id": 45575,
      "geometry": "POINT (-80.099801 26.254861)",
      "poi_name": "Starbucks",
      "osm_id": 3217035877,
      "amenity": "cafe",
      "cuisine": "coffee_shop",
      "takeaway": "yes",
      "official_name": "Starbucks Coffee"
    },
    {
      "id": 45611,
      "geometry": "POINT (-80.183645 25.832469)",
      "poi_name": "Europa Car Wash & Cafe",
      "osm_id": 3219724629,
      "amenity": "cafe",
      "internet_access": "wlan",
      "addr_state": "FL",
      "addr_city": "Miami",
      "addr_street": "Biscayne Boulevard",
      "addr_housenumber": "6075"
    },
    {
      "id": 45707,
      "geometry": "POINT (-80.381562 26.09703)",
      "poi_name": "Starbucks",
      "osm_id": 3225116977,
      "amenity": "cafe",
      "cuisine": "coffee_shop",
      "takeaway": "yes",
      "official_name": "Starbucks Coffee",
      "addr_state": "FL",
      "addr_city": "Weston",
      "addr_postcode": "33326",
      "addr_street": "Main Street",
      "addr_housenumber": "1739"
    },
    {
      "id": 45761,
      "geometry": "POINT (-80.32393 26.15044)",
      "poi_name": "Sawgrass Mills",
      "osm_id": 3227872104,
      "amenity": "cafe",
      "website": "https://www.rainforestcafe.com/"
    },
    {
      "id": 45762,
      "geometry": "POINT (-80.330729 26.121111)",
      "poi_name": "Starbucks",
      "osm_id": 3228042061,
      "amenity": "cafe",
      "cuisine": "coffee_shop",
      "takeaway": "yes",
      "official_name": "Starbucks Coffee"
    },
    {
      "id": 45775,
      "geometry": "POINT (-80.288656 26.133531)",
      "poi_name": "Starbucks",
      "osm_id": 3229365816,
      "amenity": "cafe",
      "cuisine": "coffee_shop",
      "takeaway": "yes",
      "official_name": "Starbucks Coffee"
    },
    {
      "id": 45780,
      "geometry": "POINT (-80.252689 26.063881)",
      "poi_name": "Starbucks",
      "osm_id": 3229425083,
      "amenity": "cafe",
      "cuisine": "coffee_shop",
      "takeaway": "yes",
      "drive_through": "yes",
      "official_name": "Starbucks Coffee"
    },
    {
      "id": 45917,
      "geometry": "POINT (-80.143386 26.012968)",
      "poi_name": "Starbucks",
      "osm_id": 3235813156,
      "amenity": "cafe",
      "cuisine": "coffee_shop",
      "takeaway": "yes",
      "official_name": "Starbucks Coffee"
    },
    {
      "id": 45919,
      "geometry": "POINT (-80.174861 26.011184)",
      "poi_name": "Starbucks",
      "osm_id": 3235813594,
      "amenity": "cafe",
      "cuisine": "coffee_shop",
      "takeaway": "yes",
      "official_name": "Starbucks Coffee"
    },
    {
      "id": 45998,
      "geometry": "POINT (-80.034211 26.782148)",
      "poi_name": "Johnny Longboats",
      "osm_id": 3240142954,
      "amenity": "cafe",
      "cuisine": "regional",
      "wheelchair": "yes",
      "website": "https://johnnylongboats.com/",
      "addr_postcode": "33404",
      "addr_street": "North Ocean Drive",
      "addr_housenumber": "2401"
    },
    {
      "id": 47831,
      "geometry": "POINT (-80.10332 26.370507)",
      "poi_name": "Starbucks",
      "osm_id": 3352509892,
      "amenity": "cafe",
      "cuisine": "coffee_shop",
      "takeaway": "yes",
      "official_name": "Starbucks Coffee"
    },
    {
      "id": 48857,
      "geometry": "POINT (-80.372354 25.755645)",
      "poi_name": "Barnes & Noble Cafe",
      "osm_id": 3404110003,
      "amenity": "cafe",
      "cuisine": "coffee_shop",
      "outdoor_seating": "yes"
    },
    {
      "id": 48859,
      "geometry": "POINT (-80.372389 25.756532)",
      "poi_name": "Cafe Bustelo",
      "osm_id": 3404110005,
      "amenity": "cafe",
      "cuisine": "coffee_shop"
    },
    {
      "id": 49801,
      "geometry": "POINT (-80.273708 25.79172)",
      "poi_name": "Starbucks",
      "osm_id": 3448464000,
      "amenity": "cafe",
      "cuisine": "coffee_shop",
      "takeaway": "yes",
      "official_name": "Starbucks Coffee"
    },
    {
      "id": 49802,
      "geometry": "POINT (-80.276793 25.792186)",
      "poi_name": "Starbucks",
      "osm_id": 3448464001,
      "amenity": "cafe",
      "cuisine": "coffee_shop",
      "wheelchair": "yes",
      "phone": "786-239-1216",
      "takeaway": "yes",
      "official_name": "Starbucks Coffee"
    },
    {
      "id": 49804,
      "geometry": "POINT (-80.129329 25.786845)",
      "poi_name": "Starbucks",
      "osm_id": 3448593180,
      "amenity": "cafe",
      "cuisine": "coffee_shop",
      "takeaway": "yes",
      "official_name": "Starbucks Coffee"
    },
    {
      "id": 49805,
      "geometry": "POINT (-80.167011 26.36886)",
      "poi_name": "Starbucks",
      "osm_id": 3448620556,
      "amenity": "cafe",
      "cuisine": "coffee_shop",
      "takeaway": "yes",
      "official_name": "Starbucks Coffee"
    },
    {
      "id": 49909,
      "geometry": "POINT (-80.373827 25.757019)",
      "poi_name": "Starbucks",
      "osm_id": 3454231774,
      "amenity": "cafe",
      "cuisine": "coffee_shop",
      "takeaway": "yes",
      "official_name": "Starbucks Coffee"
    },
    {
      "id": 54085,
      "geometry": "POINT (-80.132266 25.774799)",
      "poi_name": "South Beach Cafe",
      "osm_id": 10114721254,
      "amenity": "cafe"
    },
    {
      "id": 54177,
      "geometry": "POINT (-80.135268 25.770419)",
      "poi_name": "SoBe Vegan",
      "osm_id": 10119894543,
      "amenity": "cafe",
      "addr_state": "FL",
      "addr_city": "Miami Beach",
      "addr_postcode": "33139",
      "addr_street": "Washington Avenue",
      "addr_housenumber": "110"
    },
    {
      "id": 54531,
      "geometry": "POINT (-80.196432 25.767432)",
      "poi_name": "I Think She Is",
      "osm_id": 10138464476,
      "amenity": "cafe",
      "cuisine": "coffee_shop",
      "website": "https://ithinksheis.com/",
      "phone": "+17869778473",
      "addr_state": "FL",
      "addr_city": "Miami",
      "addr_postcode": "33130",
      "addr_street": "Southwest 7th Street",
      "addr_housenumber": "169"
    },
    {
      "id": 54532,
      "geometry": "POINT (-80.260418 25.733396)",
      "poi_name": "GROU Coffee + Cowork",
      "osm_id": 10138470850,
      "amenity": "cafe",
      "cuisine": "coffee_shop",
      "website": "https://groucommunity.com/",
      "phone": "+19543290256",
      "addr_state": "FL",
      "addr_city": "Coral Gables",
      "addr_postcode": "33146",
      "addr_street": "Salzedo Street",
      "addr_housenumber": "4100"
    },
    {
      "id": 57163,
      "geometry": "POINT (-80.19232 25.813342)",
      "poi_name": "OTL",
      "osm_id": 5327601921,
      "amenity": "cafe"
    },
    {
      "id": 57171,
      "geometry": "POINT (-80.17129 26.26849)",
      "poi_name": "Marpiosa Cafe",
      "osm_id": 5327957409,
      "amenity": "cafe"
    },
    {
      "id": 57611,
      "geometry": "POINT (-80.355794 26.006832)",
      "poi_name": "Starbucks",
      "osm_id": 5343294500,
      "amenity": "cafe",
      "cuisine": "coffee_shop",
      "internet_access": "wlan",
      "takeaway": "yes",
      "official_name": "Starbucks Coffee",
      "outdoor_seating": "yes"
    },
    {
      "id": 57632,
      "geometry": "POINT (-80.107183 26.884045)",
      "poi_name": "Starbucks",
      "osm_id": 5344021742,
      "amenity": "cafe",
      "cuisine": "coffee_shop",
      "takeaway": "yes",
      "official_name": "Starbucks Coffee"
    },
    {
      "id": 57933,
      "geometry": "POINT (-80.121047 26.409205)",
      "poi_name": "Starbucks",
      "osm_id": 5356848746,
      "amenity": "cafe",
      "cuisine": "coffee_shop",
      "takeaway": "yes",
      "official_name": "Starbucks Coffee"
    },
    {
      "id": 58848,
      "geometry": "POINT (-80.315285 25.808781)",
      "poi_name": "Starbucks",
      "osm_id": 5400323721,
      "amenity": "cafe",
      "cuisine": "coffee_shop",
      "takeaway": "yes",
      "official_name": "Starbucks Coffee",
      "addr_state": "FL",
      "addr_city": "Miami",
      "addr_postcode": "33166",
      "addr_street": "Northwest 36th Street",
      "addr_housenumber": "7230"
    },
    {
      "id": 59894,
      "geometry": "POINT (-80.255525 26.14808)",
      "poi_name": "Starbucks",
      "osm_id": 5448572830,
      "amenity": "cafe",
      "cuisine": "coffee_shop",
      "takeaway": "yes",
      "official_name": "Starbucks Coffee"
    },
    {
      "id": 60141,
      "geometry": "POINT (-80.054247 26.615932)",
      "poi_name": "Starbucks",
      "osm_id": 5457223965,
      "amenity": "cafe",
      "cuisine": "coffee_shop",
      "takeaway": "yes",
      "official_name": "Starbucks Coffee",
      "addr_state": "FL",
      "addr_city": "Lake Worth",
      "addr_postcode": "33460",
      "addr_street": "Lake Avenue",
      "addr_housenumber": "514"
    },
    {
      "id": 60237,
      "geometry": "POINT (-80.103791 26.126136)",
      "poi_name": "Starbucks",
      "osm_id": 5458179592,
      "amenity": "cafe",
      "cuisine": "coffee_shop",
      "takeaway": "yes",
      "official_name": "Starbucks Coffee"
    },
    {
      "id": 60775,
      "geometry": "POINT (-80.175882 26.033826)",
      "poi_name": "Starbucks",
      "osm_id": 5480566562,
      "amenity": "cafe",
      "cuisine": "coffee_shop",
      "takeaway": "yes",
      "official_name": "Starbucks Coffee",
      "addr_state": "FL",
      "addr_city": "Hollywood",
      "addr_postcode": "33020",
      "addr_street": "Sheridan Street",
      "addr_housenumber": "3305"
    },
    {
      "id": 61056,
      "geometry": "POINT (-80.249788 26.273602)",
      "poi_name": "Starbucks",
      "osm_id": 5496543579,
      "amenity": "cafe",
      "cuisine": "coffee_shop",
      "takeaway": "yes",
      "official_name": "Starbucks Coffee"
    },
    {
      "id": 61903,
      "geometry": "POINT (-80.323138 26.148736)",
      "poi_name": "Grand Lux Cafe",
      "osm_id": 5541524557,
      "amenity": "cafe"
    },
    {
      "id": 63613,
      "geometry": "POINT (-80.114583 26.888656)",
      "poi_name": "Crux Coffee Roasters",
      "osm_id": 5625313575,
      "amenity": "cafe",
      "cuisine": "coffee_shop",
      "wheelchair": "yes",
      "opening_hours": "Mo-Tu 07:00-17:00,We-Sa 07:00-20:00",
      "website": "https://crux.coffee/",
      "internet_access": "wlan",
      "phone": "+1-561-768-0400",
      "outdoor_seating": "yes",
      "addr_state": "FL",
      "addr_city": "Jupiter",
      "addr_postcode": "33458",
      "addr_street": "Main Street",
      "addr_housenumber": "1155"
    },
    {
      "id": 63858,
      "geometry": "POINT (-80.129959 25.789421)",
      "poi_name": "Aroma Espresso Bar",
      "osm_id": 5633098921,
      "amenity": "cafe",
      "cuisine": "coffee_shop",
      "takeaway": "yes"
    },
    {
      "id": 63790,
      "geometry": "POINT (-80.136446 25.791392)",
      "poi_name": "XO Espresso Bar",
      "osm_id": 5629725240,
      "amenity": "cafe",
      "website": "http://xoespressobar.com/",
      "phone": "+15164746755",
      "addr_state": "FL",
      "addr_city": "Miami Beach",
      "addr_postcode": "33139",
      "addr_street": "Lincoln Lane North",
      "addr_housenumber": "723"
    },
    {
      "id": 64236,
      "geometry": "POINT (-80.131993 25.788937)",
      "poi_name": "Cybr Caffe",
      "osm_id": 5645972221,
      "amenity": "cafe",
      "opening_hours": "09:00-00:00",
      "internet_access": "terminal",
      "addr_postcode": "33139",
      "addr_street": "Washington Avenue",
      "addr_housenumber": "1574"
    },
    {
      "id": 64038,
      "geometry": "POINT (-80.131643 25.7896)",
      "poi_name": "Crema Espresso Bar",
      "osm_id": 5638862629,
      "amenity": "cafe",
      "website": "https://www.cremagourmetespressobarfl.com/"
    },
    {
      "id": 64039,
      "geometry": "POINT (-80.130437 25.789334)",
      "poi_name": "Joe & The Juice",
      "osm_id": 5638863131,
      "amenity": "cafe",
      "cuisine": "coffee_shop",
      "takeaway": "yes"
    },
    {
      "id": 64809,
      "geometry": "POINT (-80.125042 25.805245)",
      "poi_name": "Starbucks",
      "osm_id": 5671616256,
      "amenity": "cafe",
      "cuisine": "coffee_shop",
      "internet_access": "wlan",
      "takeaway": "yes",
      "official_name": "Starbucks Coffee"
    },
    {
      "id": 66844,
      "geometry": "POINT (-80.193031 25.766602)",
      "poi_name": "Domain",
      "osm_id": 11214375089,
      "amenity": "cafe",
      "cuisine": "coffee_shop"
    },
    {
      "id": 66846,
      "geometry": "POINT (-80.192797 25.767245)",
      "poi_name": "Cafe Americano",
      "osm_id": 11214375111,
      "amenity": "cafe",
      "cuisine": "coffee_shop"
    },
    {
      "id": 72221,
      "geometry": "POINT (-80.088224 26.934646)",
      "poi_name": "Starbucks",
      "osm_id": 11417004757,
      "amenity": "cafe",
      "cuisine": "coffee_shop",
      "wheelchair": "yes",
      "internet_access": "wlan",
      "takeaway": "yes",
      "official_name": "Starbucks Coffee",
      "outdoor_seating": "yes"
    },
    {
      "id": 67010,
      "geometry": "POINT (-80.246257 26.672859)",
      "poi_name": "Solarlab Cafe",
      "osm_id": 11218862242,
      "amenity": "cafe",
      "phone": "561-888-6959",
      "addr_state": "FL",
      "addr_city": "Wellington",
      "addr_postcode": "33414",
      "addr_street": "Forest Hill Boulevard",
      "addr_housenumber": "12794"
    },
    {
      "id": 71365,
      "geometry": "POINT (-80.122663 25.814306)",
      "poi_name": "Sunrise Caf\u00e9",
      "osm_id": 11386950416,
      "amenity": "cafe"
    },
    {
      "id": 73439,
      "geometry": "POINT (-80.257578 26.063922)",
      "poi_name": "Lunessa\u2019s Cafe",
      "osm_id": 9633447408,
      "amenity": "cafe",
      "cuisine": "breakfast;brunch;lunch",
      "opening_hours": "Tu-Su 08:00-14:30",
      "website": "http://lunessascafe.com/",
      "phone": "+19545147254",
      "addr_state": "FL",
      "addr_city": "Davie",
      "addr_postcode": "33328",
      "addr_street": "Griffin Road",
      "addr_housenumber": "8270"
    },
    {
      "id": 72259,
      "geometry": "POINT (-80.061438 26.893798)",
      "poi_name": "Cafe Sole",
      "osm_id": 11418420600,
      "amenity": "cafe"
    },
    {
      "id": 73560,
      "geometry": "POINT (-80.06017 26.526975)",
      "poi_name": "East Ocean Cafe",
      "osm_id": 9644476029,
      "amenity": "cafe",
      "opening_hours": "Mo-We 07:00-14:00; Th-Su 07:00-21:00",
      "website": "https://eastoceancafe.com/",
      "phone": "+1-561-200-6006",
      "outdoor_seating": "yes",
      "addr_state": "FL",
      "addr_city": "Boynton Beach",
      "addr_postcode": "33435",
      "addr_street": "East Ocean Avenue",
      "addr_housenumber": "412"
    },
    {
      "id": 75715,
      "geometry": "POINT (-80.14343 26.129176)",
      "poi_name": "Mitch's Downtown Bagel Cafe",
      "osm_id": 9741547829,
      "amenity": "cafe",
      "addr_street": "N. Andrews Ave",
      "addr_housenumber": "540"
    },
    {
      "id": 75048,
      "geometry": "POINT (-80.14088 25.971527)",
      "poi_name": "Starbucks",
      "osm_id": 9708301822,
      "amenity": "cafe",
      "cuisine": "coffee_shop",
      "takeaway": "yes",
      "official_name": "Starbucks Coffee"
    },
    {
      "id": 75381,
      "geometry": "POINT (-80.259373 25.794539)",
      "poi_name": "Starbucks",
      "osm_id": 9727052518,
      "amenity": "cafe",
      "cuisine": "coffee_shop",
      "takeaway": "yes",
      "official_name": "Starbucks Coffee"
    },
    {
      "id": 75655,
      "geometry": "POINT (-80.130314 26.099833)",
      "poi_name": "Press and Grind",
      "osm_id": 9739782874,
      "amenity": "cafe",
      "opening_hours": "Mo-Su 07:00-18:00",
      "website": "https://pressandgrindcafe.com",
      "addr_street": "SE 17th Street",
      "addr_housenumber": "1300"
    },
    {
      "id": 76699,
      "geometry": "POINT (-80.295879 25.97945)",
      "poi_name": "Starbucks",
      "osm_id": 9788962177,
      "amenity": "cafe",
      "cuisine": "coffee_shop",
      "takeaway": "yes",
      "drive_through": "yes",
      "official_name": "Starbucks Coffee"
    },
    {
      "id": 76745,
      "geometry": "POINT (-80.141056 26.132575)",
      "poi_name": "Circle House Coffee",
      "osm_id": 9791395146,
      "amenity": "cafe",
      "cuisine": "coffee_shop",
      "opening_hours": "Mo-Su 07:00-19:00",
      "website": "Www.circlehousecoffee.com",
      "phone": "9549706456",
      "addr_state": "FL",
      "addr_city": "Fort Lauderdale",
      "addr_postcode": "33304",
      "addr_street": "Northeast 3rd Avenue",
      "addr_housenumber": "727"
    },
    {
      "id": 76760,
      "geometry": "POINT (-80.13687 26.130707)",
      "poi_name": "Sip Java",
      "osm_id": 9792394372,
      "amenity": "cafe",
      "cuisine": "coffee_shop"
    },
    {
      "id": 76763,
      "geometry": "POINT (-80.141202 26.13482)",
      "poi_name": "Good Luck Cat Cafe",
      "osm_id": 9792394377,
      "amenity": "cafe",
      "website": "https://ladyluckanimalrescue.com/"
    },
    {
      "id": 76766,
      "geometry": "POINT (-80.139186 26.135836)",
      "poi_name": "JB&C Juice Bar & Cafe",
      "osm_id": 9792394383,
      "amenity": "cafe"
    },
    {
      "id": 76768,
      "geometry": "POINT (-80.137774 26.13269)",
      "poi_name": "Kung Fu Tea",
      "osm_id": 9792394393,
      "amenity": "cafe",
      "cuisine": "bubble_tea",
      "takeaway": "yes"
    },
    {
      "id": 76769,
      "geometry": "POINT (-80.144898 26.129386)",
      "poi_name": "Brew Next Door",
      "osm_id": 9792394394,
      "amenity": "cafe",
      "cuisine": "coffee_shop"
    },
    {
      "id": 76770,
      "geometry": "POINT (-80.137774 26.128411)",
      "poi_name": "Colada Cuban Cafe",
      "osm_id": 9792394398,
      "amenity": "cafe"
    },
    {
      "id": 78670,
      "geometry": "POINT (-80.138505 26.933946)",
      "poi_name": "Starbucks",
      "osm_id": 761585086,
      "amenity": "cafe",
      "cuisine": "coffee_shop",
      "takeaway": "yes",
      "official_name": "Starbucks Coffee"
    },
    {
      "id": 76797,
      "geometry": "POINT (-80.138325 26.156039)",
      "poi_name": "Java Boys",
      "osm_id": 9793802286,
      "amenity": "cafe",
      "cuisine": "coffee_shop"
    },
    {
      "id": 76800,
      "geometry": "POINT (-80.138513 26.156501)",
      "poi_name": "Courtyard Cafe",
      "osm_id": 9793802294,
      "amenity": "cafe"
    },
    {
      "id": 78771,
      "geometry": "POINT (-80.353816 25.81301)",
      "poi_name": "Starbucks",
      "osm_id": 762669750,
      "amenity": "cafe",
      "cuisine": "coffee_shop",
      "takeaway": "yes",
      "official_name": "Starbucks Coffee"
    },
    {
      "id": 86403,
      "geometry": "POINT (-80.101654 26.392704)",
      "poi_name": "Starbucks",
      "osm_id": 1929879961,
      "amenity": "cafe",
      "cuisine": "coffee_shop",
      "takeaway": "yes",
      "official_name": "Starbucks Coffee"
    },
    {
      "id": 78818,
      "geometry": "POINT (-80.243994 25.726735)",
      "poi_name": "GreenStreet",
      "osm_id": 763658494,
      "amenity": "cafe"
    },
    {
      "id": 82055,
      "geometry": "POINT (-80.189319 25.799013)",
      "poi_name": "La Provence French Bakery",
      "osm_id": 1676975439,
      "amenity": "cafe"
    },
    {
      "id": 83649,
      "geometry": "POINT (-80.281291 25.82183)",
      "poi_name": "Starbucks",
      "osm_id": 1757183080,
      "amenity": "cafe",
      "cuisine": "coffee_shop",
      "takeaway": "yes",
      "official_name": "Starbucks Coffee"
    },
    {
      "id": 88521,
      "geometry": "POINT (-80.192091 25.774747)",
      "poi_name": "GVA BOX",
      "osm_id": 8786362780,
      "amenity": "cafe",
      "website": "https://gvabox.com/",
      "phone": "+17867447062",
      "addr_state": "FL",
      "addr_city": "Miami",
      "addr_postcode": "33132",
      "addr_street": "Northeast 1st Avenue 2b",
      "addr_housenumber": "39"
    },
    {
      "id": 87466,
      "geometry": "POINT (-80.294059 25.699739)",
      "poi_name": "Cafe Bonjour",
      "osm_id": 8714713011,
      "amenity": "cafe",
      "website": "https://www.cafebonjourmiamifl.com"
    },
    {
      "id": 87575,
      "geometry": "POINT (-80.274914 25.860442)",
      "poi_name": "China Cafe",
      "osm_id": 8722978824,
      "amenity": "cafe",
      "website": "https://www.chinacafehialeah.com"
    },
    {
      "id": 92957,
      "geometry": "POINT (-80.132655 25.765671)",
      "poi_name": "South Point Cafe",
      "osm_id": 2143184855,
      "amenity": "cafe",
      "cuisine": "pizza;hot_dog;american;coffee_shop;ice_cream;local",
      "opening_hours": "Mo-Fr 10:00-20:00; Sa-Su 09:00-19:00",
      "addr_street": "South Pointe Park walk"
    },
    {
      "id": 90546,
      "geometry": "POINT (-80.186613 25.794215)",
      "poi_name": "La Bottega",
      "osm_id": 2001778613,
      "amenity": "cafe",
      "cuisine": "italian",
      "phone": "+1 305 603 1003",
      "addr_city": "Miami",
      "addr_postcode": "33132",
      "addr_street": "North Bayshore Drive",
      "addr_housenumber": "1800"
    },
    {
      "id": 95352,
      "geometry": "POINT (-80.103946 26.125235)",
      "poi_name": "Casablanca Cafe",
      "osm_id": 6392409829,
      "amenity": "cafe",
      "outdoor_seating": "yes"
    },
    {
      "id": 93381,
      "geometry": "POINT (-80.268853 27.165754)",
      "poi_name": "The Sub Shop",
      "osm_id": 2162196950,
      "amenity": "cafe",
      "addr_city": "Palm City",
      "addr_postcode": "34990",
      "addr_street": "Southwest Mapp Road",
      "addr_housenumber": "3219"
    },
    {
      "id": 94622,
      "geometry": "POINT (-80.121686 25.939841)",
      "poi_name": "Joe & The Juice",
      "osm_id": 6371328999,
      "amenity": "cafe",
      "cuisine": "coffee_shop",
      "takeaway": "yes",
      "addr_state": "FL",
      "addr_city": "Sunny Isles Beach",
      "addr_postcode": "33160",
      "addr_street": "Collins Avenue",
      "addr_housenumber": "17700"
    },
    {
      "id": 95383,
      "geometry": "POINT (-80.376789 27.589129)",
      "poi_name": "Smiley Riley's Ice Cream Lounge",
      "osm_id": 6394096229,
      "amenity": "cafe",
      "cuisine": "ice_cream;frozen_yogurt;gelato",
      "opening_hours": "Tu-Th 14:00-21:00; Fr 14:00-23:00; Sa 12:00-23:00; Su 12:00-21:00",
      "website": "https://www.smileyrileysicecream.com/",
      "phone": "+1-772-226-0466",
      "outdoor_seating": "yes",
      "addr_state": "FL",
      "addr_city": "Vero Beach",
      "addr_postcode": "32962",
      "addr_street": "US Highway 1",
      "addr_housenumber": "774"
    },
    {
      "id": 98342,
      "geometry": "POINT (-80.133748 25.777259)",
      "poi_name": "Cafe del Mar",
      "osm_id": 6515317684,
      "amenity": "cafe"
    },
    {
      "id": 98221,
      "geometry": "POINT (-80.200028 25.799955)",
      "poi_name": "Laid Fresh",
      "osm_id": 6512066903,
      "amenity": "cafe",
      "internet_access": "wlan",
      "addr_housenumber": "240"
    },
    {
      "id": 98398,
      "geometry": "POINT (-80.189237 25.792836)",
      "poi_name": "Starbucks",
      "osm_id": 6516457905,
      "amenity": "cafe",
      "cuisine": "coffee_shop",
      "wheelchair": "yes",
      "takeaway": "yes",
      "official_name": "Starbucks Coffee"
    },
    {
      "id": 100059,
      "geometry": "POINT (-80.131794 25.779222)",
      "poi_name": "Cafe Bonjour",
      "osm_id": 6573159085,
      "amenity": "cafe"
    },
    {
      "id": 99244,
      "geometry": "POINT (-80.377203 25.75731)",
      "poi_name": "Starbucks",
      "osm_id": 6545589497,
      "amenity": "cafe",
      "cuisine": "coffee_shop",
      "opening_hours": "Mo-Fr 08:00-15:00",
      "takeaway": "yes",
      "official_name": "Starbucks Coffee"
    },
    {
      "id": 99362,
      "geometry": "POINT (-80.187038 25.829329)",
      "poi_name": "Caf\u00e9 Roval",
      "osm_id": 6549135229,
      "amenity": "cafe"
    },
    {
      "id": 100039,
      "geometry": "POINT (-80.141098 25.779397)",
      "poi_name": "Taste Bakery Cafe",
      "osm_id": 6572697286,
      "amenity": "cafe",
      "cuisine": "mediterranean;tea;cake;sandwich;breakfast;bagel;coffee_shop",
      "opening_hours": "Mo-Fr 07:00-17:00; Sa-Su 08:00-17:00",
      "website": "https://www.taste-bakery.com/",
      "internet_access": "wlan",
      "phone": "+1 305 695 9930",
      "addr_postcode": "33139",
      "addr_street": "Alton Road",
      "addr_housenumber": "900"
    },
    {
      "id": 100164,
      "geometry": "POINT (-80.142949 25.958097)",
      "poi_name": "Little Brittany",
      "osm_id": 6577628742,
      "amenity": "cafe"
    },
    {
      "id": 100129,
      "geometry": "POINT (-80.196932 25.77615)",
      "poi_name": "Coffee Shop Ground Floor",
      "osm_id": 6575655588,
      "amenity": "cafe"
    },
    {
      "id": 102602,
      "geometry": "POINT (-80.05676 26.708144)",
      "poi_name": "Starbucks",
      "osm_id": 6685708948,
      "amenity": "cafe",
      "cuisine": "coffee_shop",
      "phone": "(561) 366-8353",
      "takeaway": "yes",
      "official_name": "Starbucks Coffee",
      "outdoor_seating": "yes",
      "addr_state": "FL",
      "addr_city": "West Palm Beach",
      "addr_postcode": "33401",
      "addr_street": "South Rosemary Avenue",
      "addr_housenumber": "600"
    },
    {
      "id": 100224,
      "geometry": "POINT (-80.2518 26.114332)",
      "poi_name": "Starbucks",
      "osm_id": 6579131136,
      "amenity": "cafe",
      "cuisine": "coffee_shop",
      "takeaway": "yes",
      "official_name": "Starbucks Coffee",
      "outdoor_seating": "no"
    },
    {
      "id": 100248,
      "geometry": "POINT (-80.133744 25.777297)",
      "poi_name": "Cafe Del Mar",
      "osm_id": 6579421194,
      "amenity": "cafe",
      "cuisine": "sandwich;breakfast;coffee_shop",
      "opening_hours": "24/7",
      "internet_access": "wlan",
      "addr_street": "Washington Avenue"
    },
    {
      "id": 101625,
      "geometry": "POINT (-80.117757 26.882516)",
      "poi_name": "Starbucks",
      "osm_id": 6635843003,
      "amenity": "cafe",
      "cuisine": "coffee_shop",
      "takeaway": "yes",
      "official_name": "Starbucks Coffee"
    },
    {
      "id": 101714,
      "geometry": "POINT (-80.192212 25.759184)",
      "poi_name": "Joe & The Juice",
      "osm_id": 6641176985,
      "amenity": "cafe",
      "cuisine": "coffee_shop",
      "takeaway": "yes"
    },
    {
      "id": 113101,
      "geometry": "POINT (-80.126544 26.36785)",
      "poi_name": "Raw Juce",
      "osm_id": 3818782557,
      "amenity": "cafe",
      "cuisine": "health_food",
      "opening_hours": "6:30 - 18:00",
      "addr_state": "FL",
      "addr_city": "Boca Raton",
      "addr_postcode": "33431",
      "addr_street": "Glades Road",
      "addr_housenumber": "2200"
    },
    {
      "id": 104229,
      "geometry": "POINT (-80.263896 26.119562)",
      "poi_name": "Starbucks",
      "osm_id": 8555926417,
      "amenity": "cafe",
      "cuisine": "coffee_shop",
      "opening_hours": "Mo-Su 05:00-22:00",
      "internet_access": "wlan",
      "takeaway": "yes",
      "drive_through": "yes",
      "official_name": "Starbucks Coffee",
      "outdoor_seating": "yes",
      "addr_state": "FL",
      "addr_city": "Plantation",
      "addr_postcode": "33324",
      "addr_street": "South Pine Island Road",
      "addr_housenumber": "120"
    },
    {
      "id": 104322,
      "geometry": "POINT (-80.09573 26.196925)",
      "poi_name": "Bean & Barnacle",
      "osm_id": 8564445123,
      "amenity": "cafe",
      "cuisine": "coffee_shop;sandwich;ice_cream",
      "internet_access": "wlan"
    },
    {
      "id": 106320,
      "geometry": "POINT (-80.193904 25.773219)",
      "poi_name": "Rigattis Cafe",
      "osm_id": 8674303312,
      "amenity": "cafe",
      "website": "https://www.rigattiscafemiami.com"
    },
    {
      "id": 107289,
      "geometry": "POINT (-80.219975 26.681502)",
      "poi_name": "Starbucks",
      "osm_id": 3550587444,
      "amenity": "cafe",
      "cuisine": "coffee_shop",
      "takeaway": "yes",
      "official_name": "Starbucks Coffee"
    },
    {
      "id": 111366,
      "geometry": "POINT (-80.235915 26.082555)",
      "poi_name": "Steve's Espresso",
      "osm_id": 3744211230,
      "amenity": "cafe",
      "wheelchair": "yes"
    },
    {
      "id": 113674,
      "geometry": "POINT (-80.256608 25.751246)",
      "poi_name": "Graziano's Market",
      "osm_id": 3843167590,
      "amenity": "cafe",
      "cuisine": "argentinian",
      "opening_hours": "07:00-22:00",
      "addr_state": "FL",
      "addr_city": "Coral Gables",
      "addr_street": "Galiano Street",
      "addr_housenumber": "2301"
    },
    {
      "id": 114413,
      "geometry": "POINT (-80.078322 26.366397)",
      "poi_name": "Starbucks",
      "osm_id": 3881708826,
      "amenity": "cafe",
      "cuisine": "coffee_shop",
      "takeaway": "yes",
      "official_name": "Starbucks Coffee"
    },
    {
      "id": 119288,
      "geometry": "POINT (-80.101361 26.231947)",
      "poi_name": "Cafe Sportivo",
      "osm_id": 9095237813,
      "amenity": "cafe",
      "phone": "+1 (954) 782-6672",
      "addr_state": "FL",
      "addr_city": "Pompano Beach",
      "addr_postcode": "33062",
      "addr_street": "East Atlantic Boulevard",
      "addr_housenumber": "2219"
    },
    {
      "id": 114526,
      "geometry": "POINT (-80.350659 25.892631)",
      "poi_name": "Starbucks",
      "osm_id": 3884975182,
      "amenity": "cafe",
      "cuisine": "coffee_shop",
      "takeaway": "yes",
      "official_name": "Starbucks Coffee",
      "addr_state": "FL",
      "addr_city": "Hialeah",
      "addr_postcode": "33018",
      "addr_street": "Hialeah/Hialeah Gardens Boulevard",
      "addr_housenumber": "7735"
    },
    {
      "id": 117035,
      "geometry": "POINT (-80.132565 26.841546)",
      "poi_name": "Starbucks",
      "osm_id": 8975530317,
      "amenity": "cafe",
      "cuisine": "coffee_shop",
      "takeaway": "yes",
      "official_name": "Starbucks Coffee"
    },
    {
      "id": 120745,
      "geometry": "POINT (-80.14073 26.073191)",
      "poi_name": "Starbucks",
      "osm_id": 6721864304,
      "amenity": "cafe",
      "cuisine": "coffee_shop",
      "takeaway": "yes",
      "official_name": "Starbucks Coffee"
    },
    {
      "id": 120752,
      "geometry": "POINT (-80.0756 26.316488)",
      "poi_name": "Deerfield Beach Cafe",
      "osm_id": 6721931644,
      "amenity": "cafe"
    },
    {
      "id": 120781,
      "geometry": "POINT (-80.135786 26.073379)",
      "poi_name": "Starbucks",
      "osm_id": 6722633210,
      "amenity": "cafe",
      "cuisine": "coffee_shop",
      "takeaway": "yes",
      "official_name": "Starbucks Coffee"
    },
    {
      "id": 120794,
      "geometry": "POINT (-80.07707 26.316579)",
      "poi_name": "CoCo Fresh Tea & Juice",
      "osm_id": 6723716477,
      "amenity": "cafe",
      "cuisine": "bubble_tea",
      "takeaway": "yes",
      "addr_state": "FL",
      "addr_city": "Deerfield Beach",
      "addr_postcode": "33441",
      "addr_street": "Northeast 2nd Street",
      "addr_housenumber": "2009"
    },
    {
      "id": 126162,
      "geometry": "POINT (-80.142069 25.967087)",
      "poi_name": "Starbucks",
      "osm_id": 6986233273,
      "amenity": "cafe",
      "cuisine": "coffee_shop",
      "internet_access": "wlan",
      "takeaway": "yes",
      "official_name": "Starbucks Coffee",
      "addr_state": "FL",
      "addr_city": "Aventura",
      "addr_postcode": "33180",
      "addr_street": "Northeast 207th Terrace",
      "addr_housenumber": "2980"
    },
    {
      "id": 120999,
      "geometry": "POINT (-80.085303 26.346306)",
      "poi_name": "Saquella Cafe",
      "osm_id": 6737589372,
      "amenity": "cafe",
      "website": "https://www.saquellacafe.com/",
      "addr_city": "Boca Raton",
      "addr_postcode": "33432",
      "addr_street": "Via de Palmas",
      "addr_housenumber": "410"
    },
    {
      "id": 121017,
      "geometry": "POINT (-80.146522 26.073238)",
      "poi_name": "Harvest & Grounds",
      "osm_id": 6738860637,
      "amenity": "cafe"
    },
    {
      "id": 121019,
      "geometry": "POINT (-80.145414 26.07229)",
      "poi_name": "Cucina & Company",
      "osm_id": 6738876501,
      "amenity": "cafe"
    },
    {
      "id": 121022,
      "geometry": "POINT (-80.145537 26.071901)",
      "poi_name": "Cafe Siena",
      "osm_id": 6738876505,
      "amenity": "cafe"
    },
    {
      "id": 121023,
      "geometry": "POINT (-80.146891 26.071042)",
      "poi_name": "Espresso Bar",
      "osm_id": 6738890798,
      "amenity": "cafe"
    },
    {
      "id": 122823,
      "geometry": "POINT (-80.380646 25.7873)",
      "poi_name": "Starbucks",
      "osm_id": 6819328524,
      "amenity": "cafe",
      "cuisine": "coffee_shop",
      "takeaway": "yes",
      "official_name": "Starbucks Coffee"
    },
    {
      "id": 124730,
      "geometry": "POINT (-80.373024 25.753939)",
      "poi_name": "Vicky's",
      "osm_id": 6927953423,
      "amenity": "cafe"
    },
    {
      "id": 124731,
      "geometry": "POINT (-80.374102 25.759851)",
      "poi_name": "Half Moon Empanadas",
      "osm_id": 6927953427,
      "amenity": "cafe"
    },
    {
      "id": 125263,
      "geometry": "POINT (-80.200351 26.408339)",
      "poi_name": "Starbucks",
      "osm_id": 6952816326,
      "amenity": "cafe",
      "cuisine": "coffee_shop",
      "takeaway": "yes",
      "official_name": "Starbucks Coffee"
    },
    {
      "id": 120908,
      "geometry": "POINT (-80.089265 26.350853)",
      "poi_name": "The Seed",
      "osm_id": 6731908584,
      "amenity": "cafe",
      "outdoor_seating": "yes"
    },
    {
      "id": 134360,
      "geometry": "POINT (-80.084669 26.349482)",
      "poi_name": "Koffee & Toast",
      "osm_id": 11465968658,
      "amenity": "cafe"
    },
    {
      "id": 131355,
      "geometry": "POINT (-80.432724 27.266248)",
      "poi_name": "1971 Roasters",
      "osm_id": 9910691127,
      "amenity": "cafe",
      "cuisine": "coffee_shop"
    },
    {
      "id": 134365,
      "geometry": "POINT (-80.084838 26.351597)",
      "poi_name": "belladukes",
      "osm_id": 11466075111,
      "amenity": "cafe"
    },
    {
      "id": 134368,
      "geometry": "POINT (-80.084838 26.351597)",
      "poi_name": "belladuke's",
      "osm_id": 11466134371,
      "amenity": "cafe"
    },
    {
      "id": 135356,
      "geometry": "POINT (-80.136715 25.791065)",
      "poi_name": "Cortadito",
      "osm_id": 11512949967,
      "amenity": "cafe",
      "cuisine": "coffee_shop"
    },
    {
      "id": 134843,
      "geometry": "POINT (-80.131433 25.777875)",
      "poi_name": "Il Dante Caffe",
      "osm_id": 11492748103,
      "amenity": "cafe",
      "outdoor_seating": "yes"
    },
    {
      "id": 137287,
      "geometry": "POINT (-80.198466 25.799313)",
      "poi_name": "La Sandwicherie Wynwood",
      "osm_id": 6091344845,
      "amenity": "cafe",
      "opening_hours": "07:00-17:00",
      "website": "https://www.lasandwicherie.com/",
      "phone": "(786) 409-2390",
      "addr_state": "FL",
      "addr_city": "Miami",
      "addr_postcode": "33127",
      "addr_street": "Northwest 23rd Street",
      "addr_housenumber": "169"
    },
    {
      "id": 137319,
      "geometry": "POINT (-80.309024 25.926168)",
      "poi_name": "Starbucks",
      "osm_id": 6093884498,
      "amenity": "cafe",
      "cuisine": "coffee_shop",
      "takeaway": "yes",
      "official_name": "Starbucks Coffee",
      "addr_state": "FL",
      "addr_city": "Miami",
      "addr_postcode": "33015",
      "addr_street": "Northwest 67th Avenue",
      "addr_housenumber": "16735"
    },
    {
      "id": 137645,
      "geometry": "POINT (-80.283192 26.153894)",
      "poi_name": "The Gobi Cafe",
      "osm_id": 6108824864,
      "amenity": "cafe",
      "cuisine": "coffee_shop;sandwich",
      "addr_state": "FL",
      "addr_city": "Sunrise",
      "addr_postcode": "33322",
      "addr_street": "Sunset Strip",
      "addr_housenumber": "10025"
    },
    {
      "id": 137594,
      "geometry": "POINT (-80.165084 25.88719)",
      "poi_name": "Starbucks",
      "osm_id": 6106679367,
      "amenity": "cafe",
      "cuisine": "coffee_shop",
      "takeaway": "yes",
      "drive_through": "yes",
      "official_name": "Starbucks Coffee"
    },
    {
      "id": 137658,
      "geometry": "POINT (-80.300822 26.16917)",
      "poi_name": "About Time Cafe",
      "osm_id": 6108973842,
      "amenity": "cafe",
      "cuisine": "breakfast;lunch",
      "opening_hours": "Tu-Sa 07:30-15:00; Su 07:30-14:30; Mo closed",
      "internet_access": "no",
      "outdoor_seating": "no",
      "addr_state": "FL",
      "addr_city": "Sunrise",
      "addr_postcode": "33351",
      "addr_street": "West Oakland Park Boulevard",
      "addr_housenumber": "11435"
    },
    {
      "id": 137772,
      "geometry": "POINT (-80.300665 25.7331)",
      "poi_name": "Beehive Juice Bar",
      "osm_id": 6112915271,
      "amenity": "cafe",
      "opening_hours": "Mo-Sa 09:00-19:00",
      "website": "https://www.beehivejuicebarandcafe.getsauce.com/",
      "phone": "+1 305-663-1300",
      "addr_state": "FL",
      "addr_city": "Miami",
      "addr_postcode": "33155",
      "addr_street": "Bird Road",
      "addr_housenumber": "6490"
    },
    {
      "id": 137778,
      "geometry": "POINT (-80.139749 26.135264)",
      "poi_name": "Bean to Brew",
      "osm_id": 6113715986,
      "amenity": "cafe"
    },
    {
      "id": 137779,
      "geometry": "POINT (-80.136855 26.127743)",
      "poi_name": "Press & Grind Cafe",
      "osm_id": 6113744185,
      "amenity": "cafe",
      "addr_street": "North Federal Highway",
      "addr_housenumber": "474"
    },
    {
      "id": 137780,
      "geometry": "POINT (-80.14876 26.012496)",
      "poi_name": "The Scandinavian Bakery & Coffee",
      "osm_id": 6113770085,
      "amenity": "cafe",
      "addr_street": "Tyler Street",
      "addr_housenumber": "2031"
    },
    {
      "id": 137781,
      "geometry": "POINT (-80.201323 25.802717)",
      "poi_name": "MIAM",
      "osm_id": 6113770185,
      "amenity": "cafe",
      "addr_street": "Northwest 3rd Avenue",
      "addr_housenumber": "2750"
    },
    {
      "id": 137790,
      "geometry": "POINT (-80.194118 25.791536)",
      "poi_name": "Vice City Bean",
      "osm_id": 6114007385,
      "amenity": "cafe",
      "outdoor_seating": "no",
      "addr_street": "North Miami Avenue",
      "addr_housenumber": "1657 unit c"
    },
    {
      "id": 137791,
      "geometry": "POINT (-80.192184 25.773461)",
      "poi_name": "Cafe Galleria",
      "osm_id": 6114013485,
      "amenity": "cafe",
      "addr_street": "Southeast 1st Street",
      "addr_housenumber": "69"
    },
    {
      "id": 137799,
      "geometry": "POINT (-80.221549 25.750727)",
      "poi_name": "Cafe Croissant",
      "osm_id": 6114217486,
      "amenity": "cafe",
      "addr_street": "Southwest 22nd Street",
      "addr_housenumber": "1684"
    },
    {
      "id": 137800,
      "geometry": "POINT (-80.326637 25.761937)",
      "poi_name": "Breadman Miami",
      "osm_id": 6114227985,
      "amenity": "cafe"
    },
    {
      "id": 137801,
      "geometry": "POINT (-80.220028 25.765558)",
      "poi_name": "La Colada Gourmet",
      "osm_id": 6114227986,
      "amenity": "cafe",
      "addr_street": "Southwest 8th Street",
      "addr_housenumber": "1518"
    },
    {
      "id": 137802,
      "geometry": "POINT (-80.324101 25.87531)",
      "poi_name": "Breadman Miami",
      "osm_id": 6114228085,
      "amenity": "cafe",
      "addr_street": "West 20th Avenue",
      "addr_housenumber": "5804"
    },
    {
      "id": 137803,
      "geometry": "POINT (-80.193948 25.775031)",
      "poi_name": "Atlantis Cafe",
      "osm_id": 6114243285,
      "amenity": "cafe",
      "addr_street": "Northwest 1st Street",
      "addr_housenumber": "12"
    },
    {
      "id": 141740,
      "geometry": "POINT (-80.139734 25.91166)",
      "poi_name": "Starbucks",
      "osm_id": 6296277448,
      "amenity": "cafe",
      "cuisine": "coffee_shop",
      "takeaway": "yes",
      "official_name": "Starbucks Coffee"
    },
    {
      "id": 143067,
      "geometry": "POINT (-80.20238 26.368602)",
      "poi_name": "Starbucks",
      "osm_id": 6328301735,
      "amenity": "cafe",
      "cuisine": "coffee_shop",
      "takeaway": "yes",
      "official_name": "Starbucks Coffee"
    },
    {
      "id": 143617,
      "geometry": "POINT (-80.145598 25.960506)",
      "poi_name": "Raw J\u016bce",
      "osm_id": 6345720324,
      "amenity": "cafe",
      "addr_state": "FL",
      "addr_city": "Aventura",
      "addr_postcode": "33180",
      "addr_street": "Biscayne Boulevard",
      "addr_housenumber": "19911"
    },
    {
      "id": 143964,
      "geometry": "POINT (-80.220674 25.765869)",
      "poi_name": "Velvet Creme",
      "osm_id": 6357125785,
      "amenity": "cafe"
    },
    {
      "id": 144224,
      "geometry": "POINT (-80.132636 25.770642)",
      "poi_name": "Starbucks",
      "osm_id": 7251618685,
      "amenity": "cafe",
      "cuisine": "coffee_shop",
      "takeaway": "yes",
      "official_name": "Starbucks Coffee"
    },
    {
      "id": 144089,
      "geometry": "POINT (-80.141672 25.955768)",
      "poi_name": "Starbucks",
      "osm_id": 6363176252,
      "amenity": "cafe",
      "cuisine": "coffee_shop",
      "wheelchair": "yes",
      "takeaway": "yes",
      "official_name": "Starbucks Coffee",
      "outdoor_seating": "no",
      "addr_state": "FL",
      "addr_city": "Aventura",
      "addr_postcode": "33180",
      "addr_street": "Biscayne Boulevard",
      "addr_housenumber": "19501"
    },
    {
      "id": 144373,
      "geometry": "POINT (-80.135774 25.774706)",
      "poi_name": "Under the Mango Tree",
      "osm_id": 7259840785,
      "amenity": "cafe",
      "cuisine": "breakfast;coffee_shop;sandwich",
      "addr_street": "5th Street"
    },
    {
      "id": 144334,
      "geometry": "POINT (-80.125295 25.804094)",
      "poi_name": "Shepherd Artisan Coffee",
      "osm_id": 7258342586,
      "amenity": "cafe"
    },
    {
      "id": 149213,
      "geometry": "POINT (-80.13972 25.790328)",
      "poi_name": "Segafredo",
      "osm_id": 3999743520,
      "amenity": "cafe",
      "cuisine": "coffee_shop",
      "opening_hours": "Su-Th 10:00-01:00; Fr-Sa 10:00-02:00",
      "website": "https://www.sze-originale.com/",
      "phone": "+1 305 673 0047",
      "takeaway": "yes",
      "addr_state": "FL",
      "addr_city": "Miami Beach",
      "addr_postcode": "33139",
      "addr_street": "Lincoln Road",
      "addr_housenumber": "1040"
    },
    {
      "id": 145486,
      "geometry": "POINT (-80.071065 26.468163)",
      "poi_name": "Coffee District",
      "osm_id": 7360448901,
      "amenity": "cafe",
      "cuisine": "coffee_shop",
      "internet_access": "yes",
      "outdoor_seating": "yes",
      "addr_state": "FL",
      "addr_city": "Delray Beach",
      "addr_postcode": "33444",
      "addr_street": "Northeast 2nd Avenue",
      "addr_housenumber": "325"
    },
    {
      "id": 149155,
      "geometry": "POINT (-80.132441 25.790504)",
      "poi_name": "Starbucks",
      "osm_id": 3998497003,
      "amenity": "cafe",
      "cuisine": "coffee_shop",
      "opening_hours": "Su-Th 06:00-23:00; Fr-Sa 06:00-00:00",
      "internet_access": "yes",
      "phone": "+1 305 673 9684",
      "takeaway": "yes",
      "official_name": "Starbucks Coffee",
      "addr_state": "FL",
      "addr_city": "Miami Beach",
      "addr_postcode": "33139",
      "addr_street": "Lincoln Road",
      "addr_housenumber": "416"
    },
    {
      "id": 149156,
      "geometry": "POINT (-80.134335 25.790773)",
      "poi_name": "Starbucks",
      "osm_id": 3998497005,
      "amenity": "cafe",
      "cuisine": "coffee_shop",
      "internet_access": "yes",
      "phone": "+1 305 534 4613",
      "takeaway": "yes",
      "official_name": "Starbucks Coffee",
      "addr_state": "FL",
      "addr_city": "Miami Beach",
      "addr_postcode": "33139",
      "addr_street": "Lincoln Road",
      "addr_housenumber": "601"
    },
    {
      "id": 149157,
      "geometry": "POINT (-80.137139 25.790377)",
      "poi_name": "Starbucks",
      "osm_id": 3998497007,
      "amenity": "cafe",
      "cuisine": "coffee_shop",
      "operator": "Starbucks",
      "internet_access": "wlan",
      "phone": "+1 786 743 2975",
      "takeaway": "yes",
      "official_name": "Starbucks Coffee",
      "addr_state": "FL",
      "addr_city": "Miami Beach",
      "addr_postcode": "33139",
      "addr_street": "Lincoln Road",
      "addr_housenumber": "826"
    },
    {
      "id": 149291,
      "geometry": "POINT (-80.129211 25.813458)",
      "poi_name": "Tasty Beach Cafe",
      "osm_id": 4002658493,
      "amenity": "cafe"
    },
    {
      "id": 151087,
      "geometry": "POINT (-80.2946 27.171371)",
      "poi_name": "Starbucks",
      "osm_id": 4081245476,
      "amenity": "cafe",
      "cuisine": "coffee_shop",
      "takeaway": "yes",
      "official_name": "Starbucks Coffee",
      "addr_state": "FL",
      "addr_city": "Palm City",
      "addr_postcode": "34990",
      "addr_street": "Southwest Martin Downs Boulevard",
      "addr_housenumber": "3036"
    },
    {
      "id": 151941,
      "geometry": "POINT (-80.268285 27.236455)",
      "poi_name": "Starbucks",
      "osm_id": 4120122037,
      "amenity": "cafe",
      "cuisine": "coffee_shop",
      "takeaway": "yes",
      "official_name": "Starbucks Coffee",
      "addr_city": "Stuart",
      "addr_postcode": "34994",
      "addr_street": "Northwest Federal Highway",
      "addr_housenumber": "2537"
    },
    {
      "id": 151585,
      "geometry": "POINT (-80.201803 25.801496)",
      "poi_name": "Miami Under Ground",
      "osm_id": 4106412781,
      "amenity": "cafe",
      "cuisine": "coffee_shop",
      "opening_hours": "Mo-Fr 07:00-16:00",
      "website": "http://www.mugwynwood.com/",
      "addr_state": "FL",
      "addr_city": "Miami",
      "addr_postcode": "33127",
      "addr_street": "Northwest 26th Street",
      "addr_housenumber": "331"
    },
    {
      "id": 152469,
      "geometry": "POINT (-80.259061 25.75584)",
      "poi_name": "Bardo's Caffe",
      "osm_id": 4146960714,
      "amenity": "cafe",
      "cuisine": "sandwich"
    },
    {
      "id": 153064,
      "geometry": "POINT (-80.178894 25.847779)",
      "poi_name": "Le Cafe de Louison",
      "osm_id": 4175040134,
      "amenity": "cafe",
      "cuisine": "french",
      "opening_hours": "07:00-19:00",
      "internet_access": "yes",
      "addr_state": "FL",
      "addr_city": "Miami",
      "addr_postcode": "33138",
      "addr_street": "Northeast 79th Street",
      "addr_housenumber": "860 NE"
    },
    {
      "id": 152701,
      "geometry": "POINT (-80.323042 26.150604)",
      "poi_name": "Starbucks",
      "osm_id": 4155441069,
      "amenity": "cafe",
      "cuisine": "coffee_shop",
      "internet_access": "wlan",
      "takeaway": "yes",
      "official_name": "Starbucks Coffee"
    },
    {
      "id": 152703,
      "geometry": "POINT (-80.087569 26.721957)",
      "poi_name": "Starbucks",
      "osm_id": 4155450572,
      "amenity": "cafe",
      "cuisine": "coffee_shop",
      "opening_hours": "Mo-Th 10:00-20:00, Fr-Sa 10:00-21:00, Su 10:00-19:00",
      "phone": "+1-561-689-9852",
      "takeaway": "yes",
      "official_name": "Starbucks Coffee",
      "addr_state": "FL",
      "addr_city": "West Palm Beach",
      "addr_postcode": "33401"
    },
    {
      "id": 153211,
      "geometry": "POINT (-80.120053 25.850639)",
      "poi_name": "Beachside Cafe",
      "osm_id": 4183827424,
      "amenity": "cafe"
    },
    {
      "id": 153218,
      "geometry": "POINT (-80.119909 25.84941)",
      "poi_name": "Porchini Italian Cafe",
      "osm_id": 4183857794,
      "amenity": "cafe"
    },
    {
      "id": 154319,
      "geometry": "POINT (-80.131878 25.786778)",
      "poi_name": "clay hotel",
      "osm_id": 4232482001,
      "amenity": "cafe"
    },
    {
      "id": 153160,
      "geometry": "POINT (-80.13492 25.775767)",
      "poi_name": "Las Olas",
      "osm_id": 4181168307,
      "amenity": "cafe"
    },
    {
      "id": 153370,
      "geometry": "POINT (-80.199564 25.802085)",
      "poi_name": "Bianchini Mercato",
      "osm_id": 4193878243,
      "amenity": "cafe",
      "cuisine": "italian"
    },
    {
      "id": 154039,
      "geometry": "POINT (-80.280343 25.796888)",
      "poi_name": "Starbucks",
      "osm_id": 4220217963,
      "amenity": "cafe",
      "cuisine": "coffee_shop",
      "takeaway": "yes",
      "official_name": "Starbucks Coffee"
    },
    {
      "id": 154040,
      "geometry": "POINT (-80.279334 25.795552)",
      "poi_name": "Starbucks",
      "osm_id": 4220217965,
      "amenity": "cafe",
      "cuisine": "coffee_shop",
      "takeaway": "yes",
      "official_name": "Starbucks Coffee"
    },
    {
      "id": 158083,
      "geometry": "POINT (-80.252304 26.296921)",
      "poi_name": "Starbucks",
      "osm_id": 4734553276,
      "amenity": "cafe",
      "cuisine": "coffee_shop",
      "takeaway": "yes",
      "official_name": "Starbucks Coffee"
    },
    {
      "id": 155988,
      "geometry": "POINT (-80.197744 26.032934)",
      "poi_name": "Starbucks",
      "osm_id": 4636530047,
      "amenity": "cafe",
      "cuisine": "coffee_shop",
      "takeaway": "yes",
      "official_name": "Starbucks Coffee"
    },
    {
      "id": 157387,
      "geometry": "POINT (-80.190176 25.775337)",
      "poi_name": "Juan Valdez Caf\u00e9",
      "osm_id": 4706018094,
      "amenity": "cafe",
      "cuisine": "coffee_shop",
      "shop": "coffee",
      "internet_access": "wlan",
      "takeaway": "yes"
    },
    {
      "id": 154377,
      "geometry": "POINT (-80.188529 25.777098)",
      "poi_name": "Cafe Papillon",
      "osm_id": 4235839089,
      "amenity": "cafe",
      "description": "European cafe & wine bar",
      "website": "http://www.TheCafePapillon.com",
      "internet_access": "wlan",
      "phone": "+13054249988",
      "addr_street": "Northeast 3rd Street",
      "addr_housenumber": "276"
    },
    {
      "id": 154808,
      "geometry": "POINT (-80.130434 25.813295)",
      "poi_name": "Montefiore",
      "osm_id": 4256516291,
      "amenity": "cafe",
      "opening_hours": "Su-Fr 07:30-22:00",
      "internet_access": "wlan",
      "phone": "+13055384770"
    },
    {
      "id": 157617,
      "geometry": "POINT (-80.099272 26.173374)",
      "poi_name": "Starbucks",
      "osm_id": 4715976689,
      "amenity": "cafe",
      "cuisine": "coffee_shop",
      "opening_hours": "Mo-Su 06:00-21:00",
      "internet_access": "wlan",
      "phone": "+19543960839",
      "takeaway": "yes",
      "official_name": "Starbucks Coffee",
      "addr_postcode": "33308",
      "addr_street": "North Ocean Boulevard",
      "addr_housenumber": "3704"
    },
    {
      "id": 158245,
      "geometry": "POINT (-80.317421 25.935748)",
      "poi_name": "gina",
      "osm_id": 4740344521,
      "amenity": "cafe"
    },
    {
      "id": 162834,
      "geometry": "POINT (-80.13305 25.984821)",
      "poi_name": "TooJay's Gourmet Deli",
      "osm_id": 4943268421,
      "amenity": "cafe",
      "opening_hours": "Mo-Su 08:00-21:00",
      "website": "https://www.toojays.com/",
      "phone": "+1 954-624-8753",
      "addr_postcode": "33009",
      "addr_housenumber": "1430"
    },
    {
      "id": 158148,
      "geometry": "POINT (-80.090556 26.315545)",
      "poi_name": "Starbucks",
      "osm_id": 4737354930,
      "amenity": "cafe",
      "cuisine": "coffee_shop",
      "takeaway": "yes",
      "official_name": "Starbucks Coffee"
    },
    {
      "id": 161233,
      "geometry": "POINT (-80.120062 25.954539)",
      "poi_name": "Pizza Bianco",
      "osm_id": 4870803146,
      "amenity": "cafe",
      "cuisine": "pizza;italian;coffee_shop;sandwich;ice_cream",
      "opening_hours": "Mo-Su 10:00-22:00",
      "internet_access": "yes",
      "addr_state": "FL",
      "addr_city": "Sunny Isles Beach",
      "addr_postcode": "33160",
      "addr_street": "Collins Avenue",
      "addr_housenumber": "19201"
    },
    {
      "id": 162370,
      "geometry": "POINT (-80.132088 25.785297)",
      "poi_name": "Juice and Java",
      "osm_id": 4928813924,
      "amenity": "cafe"
    },
    {
      "id": 162371,
      "geometry": "POINT (-80.135308 25.770228)",
      "poi_name": "Pura Vida",
      "osm_id": 4928829324,
      "amenity": "cafe",
      "website": "https://www.puravidamiami.com",
      "addr_state": "FL",
      "addr_city": "Miami Beach",
      "addr_postcode": "33139",
      "addr_street": "Washington Avenue",
      "addr_housenumber": "110"
    },
    {
      "id": 159352,
      "geometry": "POINT (-80.194901 25.801879)",
      "poi_name": "Suite Havana Caf\u00e9",
      "osm_id": 4788863439,
      "amenity": "cafe",
      "addr_postcode": "33137",
      "addr_street": "North Miami Avenue",
      "addr_housenumber": "2609"
    },
    {
      "id": 159353,
      "geometry": "POINT (-80.198715 25.801848)",
      "poi_name": "Mister Block Cafe",
      "osm_id": 4788863455,
      "amenity": "cafe",
      "cuisine": "coffee_shop",
      "addr_postcode": "33127",
      "addr_street": "Northwest 2nd Avenue",
      "addr_housenumber": "2621"
    },
    {
      "id": 161069,
      "geometry": "POINT (-80.1384 26.072923)",
      "poi_name": "Starbucks",
      "osm_id": 4864769482,
      "amenity": "cafe",
      "cuisine": "coffee_shop",
      "takeaway": "yes",
      "official_name": "Starbucks Coffee"
    },
    {
      "id": 161637,
      "geometry": "POINT (-80.263118 25.725609)",
      "poi_name": "Starbucks",
      "osm_id": 4893958422,
      "amenity": "cafe",
      "cuisine": "coffee_shop",
      "takeaway": "yes",
      "official_name": "Starbucks Coffee"
    },
    {
      "id": 161859,
      "geometry": "POINT (-80.196358 25.803729)",
      "poi_name": "Mr. Bing",
      "osm_id": 4903184027,
      "amenity": "cafe",
      "cuisine": "ice_cream",
      "addr_street": "Northwest 29th Street",
      "addr_housenumber": "56"
    },
    {
      "id": 162744,
      "geometry": "POINT (-80.1317 25.779703)",
      "poi_name": "Shepherd",
      "osm_id": 4939410821,
      "amenity": "cafe",
      "cuisine": "coffee_shop"
    },
    {
      "id": 162756,
      "geometry": "POINT (-80.144252 25.794653)",
      "poi_name": "Panther Coffee",
      "osm_id": 4940365821,
      "amenity": "cafe",
      "cuisine": "coffee_shop",
      "opening_hours": "Mo-Sa 07:00-21:00; Su 08:00-21:00",
      "addr_street": "Purdy Avenue"
    },
    {
      "id": 169312,
      "geometry": "POINT (-80.127389 26.10086)",
      "poi_name": "Starbucks",
      "osm_id": 2296576200,
      "amenity": "cafe",
      "cuisine": "coffee_shop",
      "opening_hours": "5:00-21:30",
      "takeaway": "yes",
      "official_name": "Starbucks Coffee",
      "outdoor_seating": "yes",
      "addr_city": "Fort Lauderdale",
      "addr_postcode": "33316",
      "addr_street": "Southeast 15th Street",
      "addr_housenumber": "1501"
    },
    {
      "id": 162819,
      "geometry": "POINT (-80.129077 25.986675)",
      "poi_name": "Starbucks",
      "osm_id": 4943082121,
      "amenity": "cafe",
      "cuisine": "coffee_shop",
      "opening_hours": "Mo-Su 05:30-22:30",
      "phone": "+1 954-458-2655",
      "takeaway": "yes",
      "official_name": "Starbucks Coffee",
      "addr_postcode": "33009"
    },
    {
      "id": 163099,
      "geometry": "POINT (-80.142308 26.069397)",
      "poi_name": "Harvest & Grounds",
      "osm_id": 9399829768,
      "amenity": "cafe"
    },
    {
      "id": 168937,
      "geometry": "POINT (-80.070795 26.461811)",
      "poi_name": "Starbucks",
      "osm_id": 2287114102,
      "amenity": "cafe",
      "cuisine": "coffee_shop",
      "takeaway": "yes",
      "official_name": "Starbucks Coffee"
    },
    {
      "id": 169638,
      "geometry": "POINT (-80.184039 25.83861)",
      "poi_name": "Starbucks",
      "osm_id": 2311940212,
      "amenity": "cafe",
      "cuisine": "coffee_shop",
      "wheelchair": "yes",
      "internet_access": "wlan",
      "takeaway": "yes",
      "official_name": "Starbucks Coffee",
      "addr_city": "Miami",
      "addr_postcode": "33138",
      "addr_street": "Biscayne Boulevard",
      "addr_housenumber": "6815"
    },
    {
      "id": 178025,
      "geometry": "POINT (-80.366484 25.812032)",
      "poi_name": "Bazzura Cafe",
      "osm_id": 2612319720,
      "amenity": "cafe"
    },
    {
      "id": 180221,
      "geometry": "POINT (-80.131812 25.775715)",
      "poi_name": "Dolce Vita Gelati",
      "osm_id": 10795933662,
      "amenity": "cafe",
      "cuisine": "italian;ice_cream;coffee_shop",
      "wheelchair": "yes",
      "opening_hours": "Mo-Su 08:00-23:00",
      "website": "https://www.dolcevitagelati.com/",
      "internet_access": "yes",
      "outdoor_seating": "yes",
      "addr_state": "FL",
      "addr_city": "Miami Beach",
      "addr_postcode": "33139",
      "addr_street": "Ocean Drive",
      "addr_housenumber": "600"
    },
    {
      "id": 178608,
      "geometry": "POINT (-80.096113 26.808107)",
      "poi_name": "Starbucks",
      "osm_id": 10732503514,
      "amenity": "cafe",
      "cuisine": "coffee_shop",
      "wheelchair": "yes",
      "internet_access": "wlan",
      "takeaway": "yes",
      "official_name": "Starbucks Coffee",
      "outdoor_seating": "yes"
    },
    {
      "id": 185298,
      "geometry": "POINT (-80.185534 25.777313)",
      "poi_name": "CoCo Fresh Tea & Juice",
      "osm_id": 7844732315,
      "amenity": "cafe",
      "cuisine": "bubble_tea",
      "takeaway": "yes"
    },
    {
      "id": 184690,
      "geometry": "POINT (-80.142068 26.132816)",
      "poi_name": "Wells Coffee Company",
      "osm_id": 7806949276,
      "amenity": "cafe",
      "cuisine": "coffee_shop",
      "wheelchair": "yes",
      "website": "https://wellscoffees.com/",
      "internet_access": "wlan",
      "phone": "+1-954-982-2886",
      "takeaway": "yes",
      "outdoor_seating": "yes",
      "addr_state": "FL",
      "addr_city": "Fort Lauderdale",
      "addr_postcode": "33304",
      "addr_street": "Northeast 2nd Avenue",
      "addr_housenumber": "737"
    },
    {
      "id": 182894,
      "geometry": "POINT (-80.290758 25.940564)",
      "poi_name": "Starbucks",
      "osm_id": 10909214771,
      "amenity": "cafe",
      "cuisine": "coffee_shop",
      "takeaway": "yes",
      "official_name": "Starbucks Coffee",
      "outdoor_seating": "no",
      "addr_state": "FL",
      "addr_city": "Miami Gardens",
      "addr_postcode": "33055",
      "addr_street": "Northwest 183rd Street",
      "addr_housenumber": "5601"
    },
    {
      "id": 185299,
      "geometry": "POINT (-80.186677 25.778325)",
      "poi_name": "Cafe Con Leche",
      "osm_id": 7844732317,
      "amenity": "cafe",
      "cuisine": "coffee_shop"
    },
    {
      "id": 185300,
      "geometry": "POINT (-80.186305 25.777731)",
      "poi_name": "Segafredo",
      "osm_id": 7844732320,
      "amenity": "cafe",
      "cuisine": "coffee_shop",
      "takeaway": "yes"
    },
    {
      "id": 187426,
      "geometry": "POINT (-80.187156 26.28416)",
      "poi_name": "Starbucks",
      "osm_id": 1067296509,
      "amenity": "cafe",
      "cuisine": "coffee_shop",
      "takeaway": "yes",
      "official_name": "Starbucks Coffee"
    },
    {
      "id": 194686,
      "geometry": "POINT (-80.191211 25.760482)",
      "poi_name": "ARCH Caf\u00e9",
      "osm_id": 10280833494,
      "amenity": "cafe",
      "opening_hours": "Mo-Su 07:00-16:30",
      "website": "https://brickellarchcafe.com/",
      "phone": "+1 305-577-6003",
      "addr_street": "1395 Brickell Avenue Suite #140 2nd Floor, Miami, FL 33131, United States",
      "addr_housenumber": "Arch Building"
    },
    {
      "id": 193003,
      "geometry": "POINT (-80.123343 25.812144)",
      "poi_name": "Primo Cafe and Market",
      "osm_id": 1489445872,
      "amenity": "cafe",
      "shop": "convenience",
      "addr_postcode": "33140",
      "addr_street": "Collins Avenue",
      "addr_housenumber": "3924"
    },
    {
      "id": 190064,
      "geometry": "POINT (-80.248256 26.673089)",
      "poi_name": "Starbucks",
      "osm_id": 1266364927,
      "amenity": "cafe",
      "cuisine": "coffee_shop",
      "opening_hours": "Mo-Sa 05:00-21:00; Su 05:30-21:00",
      "internet_access": "yes",
      "phone": "+1-561-333-2049",
      "takeaway": "yes",
      "official_name": "Starbucks Coffee",
      "addr_state": "FL",
      "addr_city": "Wellington",
      "addr_postcode": "33414",
      "addr_street": "Forest Hill Boulevard",
      "addr_housenumber": "12840"
    },
    {
      "id": 190961,
      "geometry": "POINT (-80.174549 25.785019)",
      "poi_name": "Lakeside Cafe",
      "osm_id": 1327323941,
      "amenity": "cafe"
    },
    {
      "id": 200309,
      "geometry": "POINT (-80.189205 25.805249)",
      "poi_name": "Starbucks",
      "osm_id": 1031032528,
      "amenity": "cafe",
      "cuisine": "coffee_shop",
      "takeaway": "yes",
      "official_name": "Starbucks Coffee"
    },
    {
      "id": 200208,
      "geometry": "POINT (-80.189199 25.773316)",
      "poi_name": "Starbucks",
      "osm_id": 1025644161,
      "amenity": "cafe",
      "cuisine": "coffee_shop",
      "takeaway": "yes",
      "official_name": "Starbucks Coffee"
    },
    {
      "id": 196185,
      "geometry": "POINT (-80.192963 25.762138)",
      "poi_name": "Thyme Machine",
      "osm_id": 10567233849,
      "amenity": "cafe",
      "cuisine": "lebanese",
      "opening_hours": "07:00-00:00",
      "website": "https://www.thymemachinecafe.com/",
      "phone": "+16179716923"
    },
    {
      "id": 197753,
      "geometry": "POINT (-80.258145 27.200252)",
      "poi_name": "Gilbert's Coffee Bar",
      "osm_id": 10673358199,
      "amenity": "cafe"
    },
    {
      "id": 198630,
      "geometry": "POINT (-80.287258 25.704221)",
      "poi_name": "Starbucks",
      "osm_id": 906018676,
      "amenity": "cafe",
      "cuisine": "coffee_shop",
      "takeaway": "yes",
      "official_name": "Starbucks Coffee"
    },
    {
      "id": 204656,
      "geometry": "POINT (-80.138318 25.790587)",
      "poi_name": "The Caf\u00e9 at Books & Books",
      "osm_id": 7138149131,
      "amenity": "cafe",
      "outdoor_seating": "yes"
    },
    {
      "id": 206072,
      "geometry": "POINT (-80.348052 27.274264)",
      "poi_name": "Starbucks",
      "osm_id": 7194536308,
      "amenity": "cafe",
      "cuisine": "coffee_shop",
      "takeaway": "yes",
      "official_name": "Starbucks Coffee",
      "addr_city": "Port Saint Lucie",
      "addr_postcode": "34953",
      "addr_street": "Southwest Port Saint Lucie Boulevard",
      "addr_housenumber": "179"
    },
    {
      "id": 204758,
      "geometry": "POINT (-80.137855 25.791456)",
      "poi_name": "taste BAKERY cafe",
      "osm_id": 7141713784,
      "amenity": "cafe",
      "shop": "bakery"
    },
    {
      "id": 205887,
      "geometry": "POINT (-80.14136 25.788787)",
      "poi_name": "Starbucks",
      "osm_id": 7185618901,
      "amenity": "cafe",
      "cuisine": "coffee_shop",
      "takeaway": "yes",
      "official_name": "Starbucks Coffee"
    },
    {
      "id": 206076,
      "geometry": "POINT (-80.141419 25.787974)",
      "poi_name": "Apple a Day Juice Bar & Cafe",
      "osm_id": 7194556914,
      "amenity": "cafe",
      "shop": "beverages",
      "addr_street": "Alton Road",
      "addr_housenumber": "1534"
    },
    {
      "id": 207388,
      "geometry": "POINT (-80.118705 25.98357)",
      "poi_name": "Cafe Cita",
      "osm_id": 4946411422,
      "amenity": "cafe",
      "addr_postcode": "33009",
      "addr_street": "South Ocean Drive"
    },
    {
      "id": 206346,
      "geometry": "POINT (-80.140763 25.787671)",
      "poi_name": "Pinecrest Bakery & Caf\u00e9",
      "osm_id": 7206580385,
      "amenity": "cafe",
      "opening_hours": "24/7",
      "shop": "bakery",
      "addr_state": "FL",
      "addr_city": "Miami Beach",
      "addr_postcode": "33139",
      "addr_street": "Alton Road",
      "addr_housenumber": "1511"
    },
    {
      "id": 208689,
      "geometry": "POINT (-80.28884 25.779783)",
      "poi_name": "Starbucks",
      "osm_id": 5001792232,
      "amenity": "cafe",
      "cuisine": "coffee_shop",
      "internet_access": "wlan",
      "takeaway": "yes",
      "official_name": "Starbucks Coffee"
    },
    {
      "id": 208484,
      "geometry": "POINT (-80.187831 25.773117)",
      "poi_name": "Clos Bistro & Cafe",
      "osm_id": 4993345321,
      "amenity": "cafe"
    },
    {
      "id": 208485,
      "geometry": "POINT (-80.188083 25.773136)",
      "poi_name": "Juan Valdez Caf\u00e9",
      "osm_id": 4993345421,
      "amenity": "cafe",
      "cuisine": "coffee_shop",
      "shop": "coffee",
      "takeaway": "yes"
    },
    {
      "id": 208635,
      "geometry": "POINT (-80.250367 26.091308)",
      "poi_name": "The Original Sub Cafe",
      "osm_id": 5000173596,
      "amenity": "cafe",
      "outdoor_seating": "yes"
    },
    {
      "id": 208606,
      "geometry": "POINT (-80.263817 26.101638)",
      "poi_name": "The Neutral Ground Cafe",
      "osm_id": 4998696895,
      "amenity": "cafe"
    },
    {
      "id": 210673,
      "geometry": "POINT (-80.154376 26.348672)",
      "poi_name": "Starbucks",
      "osm_id": 5113448278,
      "amenity": "cafe",
      "cuisine": "coffee_shop",
      "takeaway": "yes",
      "official_name": "Starbucks Coffee"
    },
    {
      "id": 208747,
      "geometry": "POINT (-80.129706 25.787081)",
      "poi_name": "The Front Porch Caf\u00e9",
      "osm_id": 5003396924,
      "amenity": "cafe",
      "cuisine": "american",
      "website": "https://frontporchoceandrive.com/",
      "phone": "3055318300",
      "addr_postcode": "33139",
      "addr_street": "Ocean Drive",
      "addr_housenumber": "1458"
    },
    {
      "id": 210340,
      "geometry": "POINT (-80.13306 25.775044)",
      "poi_name": "Grand Cafe",
      "osm_id": 5097927622,
      "amenity": "cafe",
      "addr_state": "FL",
      "addr_city": "Miami Beach",
      "addr_postcode": "33139",
      "addr_street": "Collins Avenue",
      "addr_housenumber": "540"
    },
    {
      "id": 211609,
      "geometry": "POINT (-80.163144 25.697802)",
      "poi_name": "Starbucks",
      "osm_id": 5165237879,
      "amenity": "cafe",
      "cuisine": "coffee_shop",
      "takeaway": "yes",
      "official_name": "Starbucks Coffee",
      "addr_state": "FL",
      "addr_city": "Key Biscayne",
      "addr_street": "Crandon Boulevard",
      "addr_housenumber": "200"
    },
    {
      "id": 213486,
      "geometry": "POINT (-80.189072 25.774401)",
      "poi_name": "La Province",
      "osm_id": 5252165022,
      "amenity": "cafe"
    },
    {
      "id": 214414,
      "geometry": "POINT (-80.363007 26.065342)",
      "poi_name": "Starbucks",
      "osm_id": 5272264354,
      "amenity": "cafe",
      "cuisine": "coffee_shop",
      "takeaway": "yes",
      "official_name": "Starbucks Coffee"
    },
    {
      "id": 214419,
      "geometry": "POINT (-80.142994 26.073083)",
      "poi_name": "Starbucks",
      "osm_id": 5272284613,
      "amenity": "cafe",
      "cuisine": "coffee_shop",
      "wheelchair": "yes",
      "takeaway": "yes",
      "official_name": "Starbucks Coffee"
    },
    {
      "id": 222582,
      "geometry": "POINT (-80.053767 26.697803)",
      "poi_name": "Serenity Garden Tea House",
      "osm_id": 11025854260,
      "amenity": "cafe",
      "opening_hours": "Tu-Su 11:30-16:00",
      "website": "https://serenitygardentea.com/",
      "phone": "561-655-3911",
      "addr_state": "FL",
      "addr_city": "West Palm Beach",
      "addr_postcode": "33401",
      "addr_street": "Vallette Way",
      "addr_housenumber": "316"
    },
    {
      "id": 215625,
      "geometry": "POINT (-80.389257 26.006995)",
      "poi_name": "Starbucks",
      "osm_id": 5306642555,
      "amenity": "cafe",
      "cuisine": "coffee_shop",
      "internet_access": "wlan",
      "takeaway": "yes",
      "official_name": "Starbucks Coffee",
      "outdoor_seating": "yes"
    },
    {
      "id": 219518,
      "geometry": "POINT (-80.146184 25.952579)",
      "poi_name": "Starbucks",
      "osm_id": 9334199644,
      "amenity": "cafe",
      "cuisine": "coffee_shop",
      "takeaway": "yes",
      "official_name": "Starbucks Coffee"
    },
    {
      "id": 222376,
      "geometry": "POINT (-80.258232 26.118197)",
      "poi_name": "Starbucks",
      "osm_id": 11016246690,
      "amenity": "cafe",
      "cuisine": "coffee_shop",
      "takeaway": "yes",
      "official_name": "Starbucks Coffee"
    },
    {
      "id": 215353,
      "geometry": "POINT (-80.283968 25.795266)",
      "poi_name": "Versailles",
      "osm_id": 5296701726,
      "amenity": "cafe"
    },
    {
      "id": 215354,
      "geometry": "POINT (-80.284189 25.795606)",
      "poi_name": "Fresh Attractions",
      "osm_id": 5296701728,
      "amenity": "cafe"
    },
    {
      "id": 223559,
      "geometry": "POINT (-80.186176 26.527234)",
      "poi_name": "Starbucks",
      "osm_id": 11057261350,
      "amenity": "cafe",
      "cuisine": "coffee_shop",
      "opening_hours": "Mo-Fr 05:30-22:00; Sa-Su 06:00-22:00",
      "phone": "+1-561-430-0537",
      "takeaway": "yes",
      "official_name": "Starbucks Coffee",
      "addr_state": "Florida",
      "addr_city": "Boynton Beach",
      "addr_postcode": "33472",
      "addr_street": "West Boynton Beach Boulevard",
      "addr_housenumber": "8790"
    },
    {
      "id": 229144,
      "geometry": "POINT (-80.250716 26.265315)",
      "poi_name": "Starbucks",
      "osm_id": 4368881987,
      "amenity": "cafe",
      "cuisine": "coffee_shop",
      "takeaway": "yes",
      "official_name": "Starbucks Coffee",
      "addr_city": "Coral Springs",
      "addr_postcode": "33065",
      "addr_street": "North University Drive",
      "addr_housenumber": "2800"
    },
    {
      "id": 225922,
      "geometry": "POINT (-80.193892 25.784584)",
      "poi_name": "ALL DAY",
      "osm_id": 11142824069,
      "amenity": "cafe",
      "addr_state": "FL",
      "addr_city": "Miami",
      "addr_postcode": "33136",
      "addr_street": "North Miami Avenue",
      "addr_housenumber": "1035"
    },
    {
      "id": 223629,
      "geometry": "POINT (-80.141233 26.097872)",
      "poi_name": "Expresso",
      "osm_id": 11059899941,
      "amenity": "cafe",
      "takeaway": "yes",
      "drive_through": "yes"
    },
    {
      "id": 223631,
      "geometry": "POINT (-80.252048 26.093859)",
      "poi_name": "Jade Tea House",
      "osm_id": 11059910048,
      "amenity": "cafe"
    },
    {
      "id": 223780,
      "geometry": "POINT (-80.249364 26.026981)",
      "poi_name": "CAO Bakery & Cafe",
      "osm_id": 11063571347,
      "amenity": "cafe",
      "website": "https://www.caobakerycafe.com/",
      "addr_state": "FL",
      "addr_city": "Pembroke Pines",
      "addr_postcode": "33024",
      "addr_street": "North University Drive",
      "addr_housenumber": "2060"
    },
    {
      "id": 229673,
      "geometry": "POINT (-80.18493 25.850568)",
      "poi_name": "Cream Parlor",
      "osm_id": 4393680897,
      "amenity": "cafe",
      "cuisine": "ice_cream"
    },
    {
      "id": 231066,
      "geometry": "POINT (-80.278018 26.305865)",
      "poi_name": "Starbucks",
      "osm_id": 4454740959,
      "amenity": "cafe",
      "cuisine": "coffee_shop",
      "takeaway": "yes",
      "official_name": "Starbucks Coffee"
    },
    {
      "id": 231807,
      "geometry": "POINT (-80.205697 26.272902)",
      "poi_name": "Starbucks",
      "osm_id": 4489344579,
      "amenity": "cafe",
      "cuisine": "coffee_shop",
      "operator": "Starbucks Coffee",
      "takeaway": "yes",
      "official_name": "Starbucks Coffee"
    },
    {
      "id": 235495,
      "geometry": "POINT (-80.235339 26.081908)",
      "poi_name": "Starbucks",
      "osm_id": 5757503420,
      "amenity": "cafe",
      "cuisine": "coffee_shop",
      "takeaway": "yes",
      "official_name": "Starbucks Coffee"
    },
    {
      "id": 234043,
      "geometry": "POINT (-80.126003 26.36776)",
      "poi_name": "Starbucks",
      "osm_id": 4600210336,
      "amenity": "cafe",
      "cuisine": "coffee_shop",
      "takeaway": "yes",
      "official_name": "Starbucks Coffee"
    },
    {
      "id": 234044,
      "geometry": "POINT (-80.124502 26.36219)",
      "poi_name": "Starbucks",
      "osm_id": 4600210529,
      "amenity": "cafe",
      "cuisine": "coffee_shop",
      "takeaway": "yes",
      "official_name": "Starbucks Coffee"
    },
    {
      "id": 232365,
      "geometry": "POINT (-80.203231 26.318706)",
      "poi_name": "Starbucks",
      "osm_id": 4521179336,
      "amenity": "cafe",
      "cuisine": "coffee_shop",
      "internet_access": "wlan",
      "phone": "+1-954-227-2108",
      "takeaway": "yes",
      "official_name": "Starbucks Coffee",
      "addr_state": "FL",
      "addr_city": "Parkland",
      "addr_postcode": "33073",
      "addr_street": "State Road 7",
      "addr_housenumber": "7091"
    },
    {
      "id": 233785,
      "geometry": "POINT (-80.326758 25.772776)",
      "poi_name": "Ligero Express",
      "osm_id": 4587558090,
      "amenity": "cafe",
      "opening_hours": "Mo-Su 09:00-19:00",
      "phone": "+1 786 6159833",
      "addr_postcode": "33126",
      "addr_street": "Park Boulevard",
      "addr_housenumber": "201"
    },
    {
      "id": 234451,
      "geometry": "POINT (-80.248818 26.241681)",
      "poi_name": "Starbucks",
      "osm_id": 4623435901,
      "amenity": "cafe",
      "cuisine": "coffee_shop",
      "takeaway": "yes",
      "official_name": "Starbucks Coffee"
    },
    {
      "id": 236247,
      "geometry": "POINT (-80.035441 26.700494)",
      "poi_name": "Starbucks",
      "osm_id": 5786295389,
      "amenity": "cafe",
      "cuisine": "coffee_shop",
      "takeaway": "yes",
      "official_name": "Starbucks Coffee"
    },
    {
      "id": 237540,
      "geometry": "POINT (-80.13164 25.786306)",
      "poi_name": "The Cat Caf\u00e9 South Beach",
      "osm_id": 5837658985,
      "amenity": "cafe",
      "cuisine": "coffee_shop",
      "opening_hours": "Mo-Su 09:00-21:00",
      "internet_access": "yes",
      "addr_state": "FL",
      "addr_city": "Miami Beach",
      "addr_postcode": "33139",
      "addr_street": "Washington Avenue",
      "addr_housenumber": "1423"
    },
    {
      "id": 239061,
      "geometry": "POINT (-80.275952 25.79728)",
      "poi_name": "Juan Valdez Caf\u00e9",
      "osm_id": 5903100401,
      "amenity": "cafe",
      "cuisine": "coffee_shop",
      "shop": "coffee",
      "takeaway": "yes"
    },
    {
      "id": 238671,
      "geometry": "POINT (-80.336713 26.003519)",
      "poi_name": "Starbucks",
      "osm_id": 5889554283,
      "amenity": "cafe",
      "cuisine": "coffee_shop",
      "takeaway": "yes",
      "official_name": "Starbucks Coffee"
    },
    {
      "id": 238672,
      "geometry": "POINT (-80.337727 26.003611)",
      "poi_name": "Starbucks",
      "osm_id": 5889554284,
      "amenity": "cafe",
      "cuisine": "coffee_shop",
      "takeaway": "yes",
      "official_name": "Starbucks Coffee"
    },
    {
      "id": 238878,
      "geometry": "POINT (-80.251127 26.047163)",
      "poi_name": "Starbucks",
      "osm_id": 5896738839,
      "amenity": "cafe",
      "cuisine": "coffee_shop",
      "takeaway": "yes",
      "drive_through": "yes",
      "official_name": "Starbucks Coffee",
      "outdoor_seating": "yes"
    },
    {
      "id": 239109,
      "geometry": "POINT (-80.274803 25.753114)",
      "poi_name": "Liberty Caff\u00e9",
      "osm_id": 5906417801,
      "amenity": "cafe",
      "description": "A small caff\u00e9 located inside the Coral Gables Country Club.",
      "website": "http://www.libertycaffe.com/",
      "internet_access": "yes",
      "phone": "(305) 392-1211",
      "outdoor_seating": "yes",
      "addr_state": "FL",
      "addr_city": "Coral Gables",
      "addr_postcode": "33134",
      "addr_street": "North Greenway Drive",
      "addr_housenumber": "997"
    },
    {
      "id": 237773,
      "geometry": "POINT (-80.218868 25.765921)",
      "poi_name": "Guantanamera Cigars & Cafe",
      "osm_id": 5848695085,
      "amenity": "cafe",
      "website": "https://www.guantanameracigars.com/",
      "shop": "tobacco",
      "phone": "+1-786-618-5142",
      "addr_state": "FL",
      "addr_city": "Miami",
      "addr_postcode": "33135",
      "addr_street": "Southwest 8th Street",
      "addr_housenumber": "1465"
    },
    {
      "id": 238520,
      "geometry": "POINT (-80.278733 25.720934)",
      "poi_name": "Starbucks",
      "osm_id": 5882286038,
      "amenity": "cafe",
      "cuisine": "coffee_shop",
      "takeaway": "yes",
      "official_name": "Starbucks Coffee"
    },
    {
      "id": 239000,
      "geometry": "POINT (-80.29951 26.009213)",
      "poi_name": "Starbucks",
      "osm_id": 5900770605,
      "amenity": "cafe",
      "cuisine": "coffee_shop",
      "takeaway": "yes",
      "official_name": "Starbucks Coffee"
    },
    {
      "id": 239067,
      "geometry": "POINT (-80.274884 25.797248)",
      "poi_name": "Cafe Versailles",
      "osm_id": 5903100412,
      "amenity": "cafe"
    },
    {
      "id": 239071,
      "geometry": "POINT (-80.272791 25.798504)",
      "poi_name": "Starbucks",
      "osm_id": 5903100430,
      "amenity": "cafe",
      "cuisine": "coffee_shop",
      "takeaway": "yes",
      "official_name": "Starbucks Coffee"
    },
    {
      "id": 239072,
      "geometry": "POINT (-80.272174 25.798528)",
      "poi_name": "Icebox Cafe",
      "osm_id": 5903100433,
      "amenity": "cafe"
    },
    {
      "id": 239073,
      "geometry": "POINT (-80.271777 25.798232)",
      "poi_name": "Cafe Versailles",
      "osm_id": 5903100436,
      "amenity": "cafe"
    },
    {
      "id": 239717,
      "geometry": "POINT (-80.392414 26.118186)",
      "poi_name": "Starbucks",
      "osm_id": 5937007558,
      "amenity": "cafe",
      "cuisine": "coffee_shop",
      "takeaway": "yes",
      "official_name": "Starbucks Coffee"
    },
    {
      "id": 240731,
      "geometry": "POINT (-80.268745 26.128233)",
      "poi_name": "MacDaddy Sub Cafe",
      "osm_id": 5986283961,
      "amenity": "cafe",
      "cuisine": "sandwich",
      "wheelchair": "yes",
      "opening_hours": "Mo-Th 11:00-18:00, Fr 11:00-16:00, Sa 11:00-15:00",
      "website": "https://www.macdaddysubshop.com/",
      "phone": "+1-954-473-1111",
      "addr_state": "FL",
      "addr_city": "Plantation",
      "addr_postcode": "33324",
      "addr_street": "Cleary Boulevard",
      "addr_housenumber": "8966"
    },
    {
      "id": 240087,
      "geometry": "POINT (-80.252073 26.095416)",
      "poi_name": "Starbucks",
      "osm_id": 5955299725,
      "amenity": "cafe",
      "cuisine": "coffee_shop",
      "takeaway": "yes",
      "drive_through": "yes",
      "official_name": "Starbucks Coffee",
      "outdoor_seating": "yes"
    },
    {
      "id": 240732,
      "geometry": "POINT (-80.268302 26.128302)",
      "poi_name": "Mandarin Village Chinese",
      "osm_id": 5986283963,
      "amenity": "cafe",
      "website": "https://www.mandarinvillagechinesefl.com"
    },
    {
      "id": 242422,
      "geometry": "POINT (-80.160237 26.618075)",
      "poi_name": "The Chill Room",
      "osm_id": 6069307994,
      "amenity": "cafe",
      "cuisine": "kava;coffee_shop",
      "opening_hours": "Mo-Sa 10:00-02:00, Su 12:00-00:00",
      "shop": "vape",
      "internet_access": "yes",
      "addr_state": "FL",
      "addr_city": "Lake Worth",
      "addr_postcode": "33467",
      "addr_street": "Lake Worth Road Suite D",
      "addr_housenumber": "7201"
    },
    {
      "id": 241645,
      "geometry": "POINT (-80.335374 25.746648)",
      "poi_name": "Starbucks",
      "osm_id": 6034194547,
      "amenity": "cafe",
      "cuisine": "coffee_shop",
      "wheelchair": "yes",
      "internet_access": "wlan",
      "takeaway": "yes",
      "official_name": "Starbucks Coffee",
      "outdoor_seating": "yes",
      "addr_state": "FL",
      "addr_city": "Miami",
      "addr_postcode": "33165",
      "addr_street": "Southwest 87th Avenue",
      "addr_housenumber": "2501"
    },
    {
      "id": 241328,
      "geometry": "POINT (-80.193599 25.862239)",
      "poi_name": "Starbucks",
      "osm_id": 6019671620,
      "amenity": "cafe",
      "cuisine": "coffee_shop",
      "takeaway": "yes",
      "official_name": "Starbucks Coffee",
      "addr_state": "FL",
      "addr_city": "Miami Shores",
      "addr_postcode": "33138",
      "addr_street": "Northeast 2nd Avenue",
      "addr_housenumber": "9478"
    },
    {
      "id": 241346,
      "geometry": "POINT (-80.303877 25.733016)",
      "poi_name": "Starbucks",
      "osm_id": 6020065924,
      "amenity": "cafe",
      "cuisine": "coffee_shop",
      "takeaway": "yes",
      "official_name": "Starbucks Coffee",
      "addr_state": "FL",
      "addr_city": "Miami",
      "addr_postcode": "33155",
      "addr_street": "Southwest 40th Street",
      "addr_housenumber": "6702"
    },
    {
      "id": 241514,
      "geometry": "POINT (-80.122235 25.93456)",
      "poi_name": "Wolsen Caff\u00e8",
      "osm_id": 6027314623,
      "amenity": "cafe",
      "cuisine": "european",
      "outdoor_seating": "yes",
      "addr_state": "FL",
      "addr_city": "Sunny Isles Beach",
      "addr_postcode": "33160",
      "addr_street": "Collins Avenue",
      "addr_housenumber": "17100"
    },
    {
      "id": 241517,
      "geometry": "POINT (-80.159947 25.900299)",
      "poi_name": "Starbucks",
      "osm_id": 6027435589,
      "amenity": "cafe",
      "cuisine": "coffee_shop",
      "takeaway": "yes",
      "official_name": "Starbucks Coffee",
      "outdoor_seating": "yes",
      "addr_state": "FL",
      "addr_city": "North Miami Beach",
      "addr_postcode": "33181",
      "addr_street": "Biscayne Boulevard",
      "addr_housenumber": "13503"
    },
    {
      "id": 241558,
      "geometry": "POINT (-80.147132 25.943898)",
      "poi_name": "Starbucks",
      "osm_id": 6029836527,
      "amenity": "cafe",
      "cuisine": "coffee_shop",
      "takeaway": "yes",
      "official_name": "Starbucks Coffee",
      "outdoor_seating": "yes",
      "addr_state": "FL",
      "addr_city": "Aventura",
      "addr_postcode": "33160",
      "addr_street": "Biscayne Boulevard",
      "addr_housenumber": "18215"
    },
    {
      "id": 243636,
      "geometry": "POINT (-80.078123 26.440212)",
      "poi_name": "Starbucks",
      "osm_id": 7667661734,
      "amenity": "cafe",
      "cuisine": "coffee_shop",
      "takeaway": "yes",
      "official_name": "Starbucks Coffee"
    },
    {
      "id": 243686,
      "geometry": "POINT (-80.121282 26.459109)",
      "poi_name": "Tealicious Teahouse & Catering",
      "osm_id": 7671061635,
      "amenity": "cafe"
    },
    {
      "id": 243687,
      "geometry": "POINT (-80.120467 26.459345)",
      "poi_name": "Cafe Provence",
      "osm_id": 7671061637,
      "amenity": "cafe"
    }
  ],
  "answer_type": "name",
  "question_entities": {
    "[1]": {
      "main_category": "amenity",
      "sub_category": "cafe"
    },
    "[2]": {
      "distance": 110000,
      "text": "110 kilometers"
    },
    "[3]": {
      "main_category": "tourism",
      "sub_category": "aquarium",
      "display_name": "Cox Science Center and Aquarium, West Palm Beach, FL",
      "geo_wkt": "POINT (-80.069796 26.669305)",
      "poi": {
        "id": 4789,
        "geometry": "POINT (-80.069796 26.669305)",
        "poi_name": "Cox Science Center and Aquarium",
        "osm_id": 9624174440,
        "tourism": "aquarium",
        "opening_hours": "Mo-Fr 09:00-17:00, Sa-Su 10:00-18:00",
        "website": "https://www.coxsciencecenter.org/",
        "phone": "+1 (561) 832-1988",
        "addr_state": "FL",
        "addr_city": "West Palm Beach",
        "addr_postcode": "33405",
        "addr_street": "Dreher Trail North",
        "addr_housenumber": "4801"
      }
    }
  },
  "id": 851,
  "type": "range+name"
}