{
  "question": "Where can I find a restaurant positioned towards the west of SeaQuest, Lynchburg, VA, within a radius of 170 kilometers?",
  "sql": "\nWITH origin AS  (SELECT ST_GeomFromText('POINT (-79.178489 37.365024)',4326)::geography AS geometry)\nSELECT * FROM pois, origin\nWHERE ST_DWithin(pois.geometry, ST_GeomFromText('POINT (-79.178489 37.365024)',4326)::geography, 170000)\nAND amenity = 'restaurant'\nAND degrees(ST_Azimuth(origin.geometry, pois.geometry)) BETWEEN 247.5 AND 292.5;\n",
  "answers": [
    {
      "id": 45193,
      "geometry": "POINT (-79.178489 37.365024)",
      "poi_name": "Fishers Restaurant",
      "osm_id": 3193773686,
      "amenity": "restaurant",
      "cuisine": "american",
      "phone": "+1-540-583-5251",
      "addr_city": "Bedford",
      "addr_postcode": "24523",
      "addr_street": "Fourth Street",
      "addr_housenumber": "503"
    },
    {
      "id": 28069,
      "geometry": "POINT (-79.178489 37.365024)",
      "poi_name": "Lori's",
      "osm_id": 463761578,
      "amenity": "restaurant",
      "cuisine": "pizza;italian",
      "addr_state": "VA",
      "addr_city": "Forest",
      "addr_postcode": "24551",
      "addr_street": "Perrowville Road",
      "addr_housenumber": "1208"
    },
    {
      "id": 28070,
      "geometry": "POINT (-79.178489 37.365024)",
      "poi_name": "Graziano's",
      "osm_id": 463761584,
      "amenity": "restaurant",
      "opening_hours": "Tu-Sa 11:00-21:00",
      "addr_state": "VA",
      "addr_city": "Forest",
      "addr_postcode": "24551",
      "addr_street": "Forest Road",
      "addr_housenumber": "14805"
    },
    {
      "id": 28397,
      "geometry": "POINT (-79.178489 37.365024)",
      "poi_name": "Souvlaki",
      "osm_id": 478269122,
      "amenity": "restaurant",
      "cuisine": "greek",
      "addr_state": "VA",
      "addr_city": "Blacksburg",
      "addr_street": "College Avenue",
      "addr_housenumber": "201"
    },
    {
      "id": 28675,
      "geometry": "POINT (-79.178489 37.365024)",
      "poi_name": "Br\u00e4uburgers",
      "osm_id": 8250127114,
      "amenity": "restaurant",
      "cuisine": "burger",
      "website": "https://www.brauburgers.com/",
      "phone": "434-525-2727",
      "addr_state": "VA",
      "addr_city": "Forest",
      "addr_postcode": "24551",
      "addr_street": "Venture Drive",
      "addr_housenumber": "1332"
    },
    {
      "id": 33711,
      "geometry": "POINT (-79.178489 37.365024)",
      "poi_name": "Buffalo Wild Wings",
      "osm_id": 2678931118,
      "amenity": "restaurant",
      "cuisine": "wings",
      "addr_state": "VA",
      "addr_city": "Roanoke",
      "addr_street": "Starkey Road",
      "addr_housenumber": "4335"
    },
    {
      "id": 39038,
      "geometry": "POINT (-79.178489 37.365024)",
      "poi_name": "The Blue Hen",
      "osm_id": 2899843971,
      "amenity": "restaurant",
      "cuisine": "regional",
      "wheelchair": "yes",
      "delivery": "no",
      "toilets": "yes",
      "addr_city": "Christiansburg",
      "addr_postcode": "24073",
      "addr_street": "Roanoke Street",
      "addr_housenumber": "1465"
    },
    {
      "id": 39039,
      "geometry": "POINT (-79.178489 37.365024)",
      "poi_name": "Dude's Drive-In",
      "osm_id": 2899843972,
      "amenity": "restaurant",
      "cuisine": "regional",
      "addr_city": "Christiansburg",
      "addr_postcode": "24073",
      "addr_street": "Roanoke Street",
      "addr_housenumber": "1505"
    },
    {
      "id": 39040,
      "geometry": "POINT (-79.178489 37.365024)",
      "poi_name": "The Farmhouse",
      "osm_id": 2899844009,
      "amenity": "restaurant",
      "cuisine": "american",
      "website": "https://thefarmhousechristiansburg.com/",
      "phone": "(540) 382-3965",
      "addr_city": "Christiansburg",
      "addr_postcode": "24073",
      "addr_street": "Ridinger Street",
      "addr_housenumber": "285"
    },
    {
      "id": 45339,
      "geometry": "POINT (-79.178489 37.365024)",
      "poi_name": "Waffle House",
      "osm_id": 3201366212,
      "amenity": "restaurant",
      "cuisine": "american",
      "building": "yes",
      "opening_hours": "24/7",
      "operator": "Waffle House",
      "website": "https://www.wafflehouse.com/",
      "phone": "+1 540 366 2676",
      "addr_state": "VA",
      "addr_city": "Roanoke",
      "addr_postcode": "24019",
      "addr_street": "Thirlane Road Northwest",
      "addr_housenumber": "6608"
    },
    {
      "id": 52089,
      "geometry": "POINT (-79.178489 37.365024)",
      "poi_name": "Pizza Hut",
      "osm_id": 570170190,
      "amenity": "restaurant",
      "cuisine": "pizza",
      "opening_hours": "Su-Th 10:30-22:00; Fr,Sa 10:30-23:30",
      "operator": "Pizza Hut",
      "addr_state": "VA",
      "addr_city": "Blacksburg",
      "addr_postcode": "24060",
      "addr_street": "University City Boulevard",
      "addr_housenumber": "801"
    },
    {
      "id": 51766,
      "geometry": "POINT (-79.178489 37.365024)",
      "poi_name": "The Coop",
      "osm_id": 559220968,
      "amenity": "restaurant",
      "cuisine": "american",
      "opening_hours": "Mo-Sa 18:00-02:00; Su off",
      "addr_state": "VA",
      "addr_city": "Blacksburg",
      "addr_postcode": "24060",
      "addr_street": "North Main Street",
      "addr_housenumber": "235"
    },
    {
      "id": 52091,
      "geometry": "POINT (-79.178489 37.365024)",
      "poi_name": "Zeppoli's Italian Restaurant",
      "osm_id": 570170233,
      "amenity": "restaurant",
      "cuisine": "italian",
      "wheelchair": "yes",
      "opening_hours": "Su-Fr 11:00-22:00; Sa 16:00-22:00",
      "addr_state": "VA",
      "addr_city": "Blacksburg",
      "addr_postcode": "24060",
      "addr_street": "University City Boulevard"
    },
    {
      "id": 52092,
      "geometry": "POINT (-79.178489 37.365024)",
      "poi_name": "Macado's",
      "osm_id": 570170284,
      "amenity": "restaurant",
      "opening_hours": "Su-Th 09:00-23:00; Fr,Sa 09:00-24:00",
      "addr_state": "VA",
      "addr_city": "Blacksburg",
      "addr_postcode": "24060",
      "addr_street": "University City Boulevard",
      "addr_housenumber": "922"
    },
    {
      "id": 52094,
      "geometry": "POINT (-79.178489 37.365024)",
      "poi_name": "Gaucho Grille",
      "osm_id": 570170293,
      "amenity": "restaurant",
      "cuisine": "brazilian",
      "opening_hours": "Tu-Sa 17:30-21:00",
      "addr_state": "VA",
      "addr_city": "Blacksburg",
      "addr_postcode": "24060",
      "addr_street": "University City Boulevard",
      "addr_housenumber": "880"
    },
    {
      "id": 53360,
      "geometry": "POINT (-79.178489 37.365024)",
      "poi_name": "The Hatch",
      "osm_id": 10077527738,
      "amenity": "restaurant",
      "cuisine": "american",
      "website": "https://www.thehatchroanoke.com/",
      "phone": "+15405664058",
      "addr_state": "VA",
      "addr_city": "Roanoke",
      "addr_postcode": "24011",
      "addr_street": "Market Street Southeast",
      "addr_housenumber": "32"
    },
    {
      "id": 53310,
      "geometry": "POINT (-79.178489 37.365024)",
      "poi_name": "Villa Pizzeria",
      "osm_id": 10074757809,
      "amenity": "restaurant",
      "opening_hours": "Tu-Th, Su 11:00-21:00; Fr-Sa 11:00-22:00",
      "operator": "Shariff Ahmed",
      "website": "https://villapizzeria.restaurant",
      "phone": "+1-540-728-9414",
      "addr_state": "VA",
      "addr_city": "Blue Ridge",
      "addr_postcode": "24064",
      "addr_street": "Blue Ridge Boulevard",
      "addr_housenumber": "3640"
    },
    {
      "id": 52739,
      "geometry": "POINT (-79.178489 37.365024)",
      "poi_name": "Sticks and Spoons Ramen Bar",
      "osm_id": 10046267013,
      "amenity": "restaurant",
      "cuisine": "japanese",
      "website": "https://sticksxspoons.square.site/",
      "phone": "+1 540 761 9236",
      "takeaway": "yes",
      "addr_state": "VA",
      "addr_city": "Roanoke",
      "addr_postcode": "24012",
      "addr_street": "Williamson Road Northwest",
      "addr_housenumber": "5524"
    },
    {
      "id": 56062,
      "geometry": "POINT (-79.178489 37.365024)",
      "poi_name": "Sandro's Pizzeria Italian Restaurant",
      "osm_id": 10223181463,
      "amenity": "restaurant",
      "cuisine": "pizza;italian",
      "opening_hours": "Mo-Th 11:00-21:00; Fr, Sa 11:00-21:30; Su off",
      "website": "https://www.sandrospizza.com/",
      "phone": "540-585-1212",
      "addr_state": "VA",
      "addr_city": "Christiansburg",
      "addr_postcode": "24073",
      "addr_street": "Market Street Northeast",
      "addr_housenumber": "2775"
    },
    {
      "id": 56064,
      "geometry": "POINT (-79.178489 37.365024)",
      "poi_name": "Mission BBQ",
      "osm_id": 10223181469,
      "amenity": "restaurant",
      "cuisine": "barbecue",
      "opening_hours": "Mo-Su 11:00-21:00; Su 11:30-20:00",
      "website": "https://mission-bbq.com/",
      "phone": "540-492-5445",
      "outdoor_seating": "yes",
      "addr_state": "VA",
      "addr_city": "Christiansburg",
      "addr_postcode": "24073",
      "addr_street": "Market Street Northeast",
      "addr_housenumber": "2585"
    },
    {
      "id": 64752,
      "geometry": "POINT (-79.178489 37.365024)",
      "poi_name": "Macado's",
      "osm_id": 5668114752,
      "amenity": "restaurant",
      "cuisine": "american;sandwich",
      "addr_state": "VA",
      "addr_city": "Christiansburg",
      "addr_postcode": "24073",
      "addr_street": "West Main Street",
      "addr_housenumber": "19"
    },
    {
      "id": 61737,
      "geometry": "POINT (-79.178489 37.365024)",
      "poi_name": "Sal's Jr Pizza and Italian Restaurant",
      "osm_id": 5534485165,
      "amenity": "restaurant",
      "cuisine": "pizza;italian",
      "opening_hours": "Mo-Su 11:00-20:30",
      "capacity": "90",
      "phone": "+1-540-639-2600",
      "takeaway": "yes",
      "delivery": "no",
      "addr_state": "VA",
      "addr_city": "Fairlawn",
      "addr_postcode": "24141",
      "addr_street": "Peppers Ferry Boulevard",
      "addr_housenumber": "7401"
    },
    {
      "id": 70068,
      "geometry": "POINT (-79.178489 37.365024)",
      "poi_name": "Tuco\u2019s Taqueria  Garaje",
      "osm_id": 11343747872,
      "amenity": "restaurant",
      "addr_state": "VA",
      "addr_city": "Roanoke",
      "addr_postcode": "24016",
      "addr_street": "Salem Avenue Southwest",
      "addr_housenumber": "416"
    },
    {
      "id": 69483,
      "geometry": "POINT (-79.178489 37.365024)",
      "poi_name": "Billy's",
      "osm_id": 11307797990,
      "amenity": "restaurant",
      "cuisine": "american",
      "addr_state": "VA",
      "addr_city": "Roanoke",
      "addr_postcode": "24011",
      "addr_street": "Market Street Southeast",
      "addr_housenumber": "102"
    },
    {
      "id": 69489,
      "geometry": "POINT (-79.178489 37.365024)",
      "poi_name": "Horizon Bar & Grill",
      "osm_id": 11308010465,
      "amenity": "restaurant",
      "addr_state": "VA",
      "addr_city": "Roanoke",
      "addr_postcode": "24011",
      "addr_street": "Market Street Southeast",
      "addr_housenumber": "215"
    },
    {
      "id": 69049,
      "geometry": "POINT (-79.178489 37.365024)",
      "poi_name": "Sidecar",
      "osm_id": 11293368564,
      "amenity": "restaurant",
      "cuisine": "polish;german;american",
      "website": "https://www.sidecarva.com/",
      "addr_state": "VA",
      "addr_city": "Roanoke",
      "addr_postcode": "24011",
      "addr_street": "1st Street Southwest",
      "addr_housenumber": "411"
    },
    {
      "id": 69050,
      "geometry": "POINT (-79.178489 37.365024)",
      "poi_name": "Fortunato",
      "osm_id": 11293368565,
      "amenity": "restaurant",
      "cuisine": "italian",
      "website": "http://www.fortunatoroanoke.com/",
      "addr_state": "VA",
      "addr_city": "Roanoke",
      "addr_postcode": "24011",
      "addr_street": "Kirk Avenue Southwest",
      "addr_housenumber": "104"
    },
    {
      "id": 69051,
      "geometry": "POINT (-79.178489 37.365024)",
      "poi_name": "Stock Cafe and Bar",
      "osm_id": 11293368566,
      "amenity": "restaurant",
      "cuisine": "scandanavian;nordic;american",
      "website": "https://firestationone.com/stock/",
      "addr_state": "VA",
      "addr_city": "Roanoke",
      "addr_postcode": "24011",
      "addr_street": "Church Avenue Southeast",
      "addr_housenumber": "13"
    },
    {
      "id": 69052,
      "geometry": "POINT (-79.178489 37.365024)",
      "poi_name": "Crescent City BBQ",
      "osm_id": 11293368567,
      "amenity": "restaurant",
      "cuisine": "barbecue",
      "website": "https://www.crescentcitybourbonbbq.com/",
      "addr_state": "VA",
      "addr_city": "Roanoke",
      "addr_postcode": "24011",
      "addr_street": "Salem Avenue Southeast",
      "addr_housenumber": "19"
    },
    {
      "id": 69053,
      "geometry": "POINT (-79.178489 37.365024)",
      "poi_name": "Lucky",
      "osm_id": 11293368568,
      "amenity": "restaurant",
      "cuisine": "tapas",
      "addr_state": "VA",
      "addr_city": "Roanoke",
      "addr_postcode": "24011",
      "addr_street": "Kirk Avenue Southwest",
      "addr_housenumber": "18"
    },
    {
      "id": 71383,
      "geometry": "POINT (-79.178489 37.365024)",
      "poi_name": "Dogwood Restaurant",
      "osm_id": 11388314731,
      "amenity": "restaurant",
      "addr_state": "VA",
      "addr_city": "Vinton",
      "addr_postcode": "24179",
      "addr_street": "East Lee Avenue",
      "addr_housenumber": "106"
    },
    {
      "id": 84169,
      "geometry": "POINT (-79.178489 37.365024)",
      "poi_name": "Awful Arthur's Seafood Company",
      "osm_id": 1780004791,
      "amenity": "restaurant",
      "cuisine": "seafood",
      "addr_city": "Roanoke",
      "addr_postcode": "24011",
      "addr_street": "Campbell Avenue Southeast",
      "addr_housenumber": "108"
    },
    {
      "id": 72198,
      "geometry": "POINT (-79.178489 37.365024)",
      "poi_name": "Awful Arthur's Seafood Co",
      "osm_id": 11415647415,
      "amenity": "restaurant",
      "cuisine": "seafood",
      "website": "https://www.awfularthursseafood.com/",
      "addr_state": "VA",
      "addr_city": "Salem",
      "addr_postcode": "24153",
      "addr_street": "East Main Street",
      "addr_housenumber": "131"
    },
    {
      "id": 84342,
      "geometry": "POINT (-79.178489 37.365024)",
      "poi_name": "Bayou Snowballs",
      "osm_id": 1784359470,
      "amenity": "restaurant",
      "operator": "Roanoke City Market Building",
      "addr_state": "VA",
      "addr_city": "Roanoke",
      "addr_postcode": "24011",
      "addr_street": "Market Street Southeast",
      "addr_housenumber": "32"
    },
    {
      "id": 84284,
      "geometry": "POINT (-79.178489 37.365024)",
      "poi_name": "Nawab",
      "osm_id": 1782797147,
      "amenity": "restaurant",
      "cuisine": "indian",
      "addr_state": "VA",
      "addr_city": "Roanoke",
      "addr_postcode": "24011",
      "addr_street": "Campbell Avenue Southeast",
      "addr_housenumber": "118"
    },
    {
      "id": 84298,
      "geometry": "POINT (-79.178489 37.365024)",
      "poi_name": "Macado's",
      "osm_id": 1783156605,
      "amenity": "restaurant",
      "cuisine": "sandwich",
      "addr_state": "VA",
      "addr_city": "Roanoke",
      "addr_postcode": "24011",
      "addr_street": "Church Avenue Southwest",
      "addr_housenumber": "120"
    },
    {
      "id": 84300,
      "geometry": "POINT (-79.178489 37.365024)",
      "poi_name": "Texas Tavern",
      "osm_id": 1783156610,
      "amenity": "restaurant",
      "addr_state": "VA",
      "addr_city": "Roanoke",
      "addr_postcode": "24011",
      "addr_street": "Church Avenue Southwest",
      "addr_housenumber": "114"
    },
    {
      "id": 84385,
      "geometry": "POINT (-79.178489 37.365024)",
      "poi_name": "Fork in the Alley",
      "osm_id": 1786898279,
      "amenity": "restaurant",
      "cuisine": "burger;pizza",
      "addr_state": "VA",
      "addr_city": "Roanoke",
      "addr_postcode": "24014",
      "addr_street": "Crystal Spring Avenue Southwest",
      "addr_housenumber": "2123"
    },
    {
      "id": 84386,
      "geometry": "POINT (-79.178489 37.365024)",
      "poi_name": "The River and Rail",
      "osm_id": 1786898280,
      "amenity": "restaurant",
      "addr_state": "VA",
      "addr_city": "Roanoke",
      "addr_postcode": "24014",
      "addr_street": "Crystal Spring Avenue Southwest",
      "addr_housenumber": "2201"
    },
    {
      "id": 84343,
      "geometry": "POINT (-79.178489 37.365024)",
      "poi_name": "Fork in the Market",
      "osm_id": 1784359490,
      "amenity": "restaurant",
      "cuisine": "burger;pizza",
      "operator": "Roanoke City Market Building",
      "addr_state": "VA",
      "addr_city": "Roanoke",
      "addr_postcode": "24011",
      "addr_street": "Market Street Southeast",
      "addr_housenumber": "32"
    },
    {
      "id": 93812,
      "geometry": "POINT (-79.178489 37.365024)",
      "poi_name": "Nagoya Sushi",
      "osm_id": 2187806309,
      "amenity": "restaurant",
      "cuisine": "sushi",
      "opening_hours": "Mo-Su 10:30-20:30",
      "website": "https://www.nagoyaradford.com",
      "phone": "+1-540-633-6008",
      "takeaway": "yes",
      "delivery": "yes",
      "addr_state": "VA",
      "addr_city": "Radford",
      "addr_postcode": "24141",
      "addr_street": "East Main Street",
      "addr_housenumber": "1144-1150"
    },
    {
      "id": 95284,
      "geometry": "POINT (-79.178489 37.365024)",
      "poi_name": "Farmers Garden",
      "osm_id": 6391735511,
      "amenity": "restaurant",
      "cuisine": "sandwich",
      "addr_state": "VA",
      "addr_city": "Lynchburg",
      "addr_street": "Candlers Mountain Road",
      "addr_housenumber": "3405"
    },
    {
      "id": 94083,
      "geometry": "POINT (-79.178489 37.365024)",
      "poi_name": "Hale's Restaurant",
      "osm_id": 2205190124,
      "amenity": "restaurant",
      "addr_city": "Shawsville",
      "addr_postcode": "24162",
      "addr_street": "Roanoke Road",
      "addr_housenumber": "7643"
    },
    {
      "id": 101989,
      "geometry": "POINT (-79.178489 37.365024)",
      "poi_name": "Pho 1 Vietnanese Noodles",
      "osm_id": 6652946341,
      "amenity": "restaurant",
      "cuisine": "noodle;vietnamese",
      "toilets": "yes",
      "addr_state": "VA",
      "addr_city": "Forest",
      "addr_postcode": "24551",
      "addr_street": "Forest Road",
      "addr_housenumber": "18396"
    },
    {
      "id": 119510,
      "geometry": "POINT (-79.178489 37.365024)",
      "poi_name": "Pho Viet",
      "osm_id": 9105954984,
      "amenity": "restaurant",
      "cuisine": "vietnamese",
      "opening_hours": "Mo-Sa 11:00-21:00; Su 12:00-20:00",
      "addr_state": "VA",
      "addr_city": "Forest",
      "addr_postcode": "24551",
      "addr_street": "Forest Road",
      "addr_housenumber": "14805"
    },
    {
      "id": 119511,
      "geometry": "POINT (-79.178489 37.365024)",
      "poi_name": "Maverick Seafood",
      "osm_id": 9105954985,
      "amenity": "restaurant",
      "cuisine": "seafood",
      "opening_hours": "Tu-Sa 11:00-20:00; Su 10:00-15:00",
      "website": "https://www.mavericknutritionandfoods.com",
      "phone": "+1 434 333 8286",
      "addr_state": "VA",
      "addr_city": "Forest",
      "addr_postcode": "24551",
      "addr_street": "Forest Road",
      "addr_housenumber": "14805"
    },
    {
      "id": 125213,
      "geometry": "POINT (-79.178489 37.365024)",
      "poi_name": "Beijing Restaurant",
      "osm_id": 6950062976,
      "amenity": "restaurant",
      "cuisine": "chinese",
      "phone": "+1 540-266-7662",
      "addr_state": "VA",
      "addr_city": "Roanoke",
      "addr_street": "Elm Avenue Southwest",
      "addr_housenumber": "502"
    },
    {
      "id": 101602,
      "geometry": "POINT (-79.178489 37.365024)",
      "poi_name": "Lee's Garden",
      "osm_id": 6635511132,
      "amenity": "restaurant",
      "cuisine": "chinese",
      "opening_hours": "Mo-Th 10:30-22:00; Fr-Sa 11:00-23:00; Su 15:00-22:00",
      "phone": "+1 434 525 8183",
      "addr_state": "VA",
      "addr_city": "Forest",
      "addr_postcode": "24551",
      "addr_street": "Perrowville Road",
      "addr_housenumber": "1208"
    },
    {
      "id": 133472,
      "geometry": "POINT (-79.178489 37.365024)",
      "poi_name": "Your Pie Pizza",
      "osm_id": 9995525759,
      "amenity": "restaurant",
      "cuisine": "pizza",
      "wheelchair": "yes",
      "opening_hours": "Mo-We 11:00-20:00, Tr-Su 11:00-21:00",
      "website": "https://yourpie.com/",
      "addr_state": "VA",
      "addr_city": "Blacksburg",
      "addr_postcode": "24060",
      "addr_street": "University City Boulevard",
      "addr_housenumber": "606"
    },
    {
      "id": 141459,
      "geometry": "POINT (-79.178489 37.365024)",
      "poi_name": "FarmBurguesa",
      "osm_id": 6285020529,
      "amenity": "restaurant",
      "cuisine": "burger",
      "opening_hours": "Mo-Su 11:00-21:00",
      "website": "https://farmburguesa.com/",
      "phone": "540-595-7778",
      "addr_state": "VA",
      "addr_city": "Vinton",
      "addr_postcode": "24179",
      "addr_street": "South Pollard Street",
      "addr_housenumber": "303"
    },
    {
      "id": 150820,
      "geometry": "POINT (-79.178489 37.365024)",
      "poi_name": "La Barranca Mexican Grill",
      "osm_id": 4069950718,
      "amenity": "restaurant",
      "cuisine": "mexican",
      "opening_hours": "Mo-Fr 11:00-22:00; Sa 12:00-22:00; Su 12:00-21:00",
      "addr_state": "VA",
      "addr_city": "Pearisburg",
      "addr_postcode": "24134",
      "addr_street": "North Main Street",
      "addr_housenumber": "418"
    },
    {
      "id": 146476,
      "geometry": "POINT (-79.178489 37.365024)",
      "poi_name": "Denny's",
      "osm_id": 7447321935,
      "amenity": "restaurant",
      "cuisine": "american",
      "addr_state": "VA",
      "addr_city": "Max Meadows",
      "addr_postcode": "24360",
      "addr_street": "Factory Outlet Road",
      "addr_housenumber": "139"
    },
    {
      "id": 150822,
      "geometry": "POINT (-79.178489 37.365024)",
      "poi_name": "Papa's Pizzeria and Subs",
      "osm_id": 4069950721,
      "amenity": "restaurant",
      "cuisine": "pizza;sandwich",
      "opening_hours": "10:30-20:00; Su off",
      "website": "https://www.facebook.com/PapasPizzeriaSubsInc/",
      "phone": "+1 540 921 1333",
      "delivery": "no",
      "addr_state": "VA",
      "addr_city": "Pearisburg",
      "addr_postcode": "24134",
      "addr_street": "Tazewell Street",
      "addr_housenumber": "111"
    },
    {
      "id": 152167,
      "geometry": "POINT (-79.178489 37.365024)",
      "poi_name": "Lucie Monroe's Mediterranean Cafe",
      "osm_id": 4129639152,
      "amenity": "restaurant",
      "cuisine": "mediterranean",
      "addr_state": "VA",
      "addr_city": "Blacksburg",
      "addr_street": "South Main Street",
      "addr_housenumber": "1301"
    },
    {
      "id": 161441,
      "geometry": "POINT (-79.178489 37.365024)",
      "poi_name": "Scrambled",
      "osm_id": 4881576421,
      "amenity": "restaurant",
      "cuisine": "breakfast",
      "addr_state": "VA",
      "addr_city": "Roanoke",
      "addr_postcode": "24011",
      "addr_street": "Market Street Southeast",
      "addr_housenumber": "32"
    },
    {
      "id": 161400,
      "geometry": "POINT (-79.178489 37.365024)",
      "poi_name": "Frankie Rowland's Steakhouse",
      "osm_id": 4879959793,
      "amenity": "restaurant",
      "website": "https://frankierowlandssteakhouse.com/",
      "addr_city": "Roanoke",
      "addr_postcode": "24011",
      "addr_street": "South Jefferson Street",
      "addr_housenumber": "104"
    },
    {
      "id": 169717,
      "geometry": "POINT (-79.178489 37.365024)",
      "poi_name": "China Fresh",
      "osm_id": 2316616633,
      "amenity": "restaurant",
      "cuisine": "chinese",
      "addr_state": "VA",
      "addr_city": "Salem",
      "addr_postcode": "24153",
      "addr_street": "VA 419",
      "addr_housenumber": "167"
    },
    {
      "id": 171259,
      "geometry": "POINT (-79.178489 37.365024)",
      "poi_name": "China Taste",
      "osm_id": 2368432345,
      "amenity": "restaurant",
      "cuisine": "chinese",
      "addr_state": "VA",
      "addr_city": "Roanoke",
      "addr_postcode": "24014",
      "addr_street": "Bennington Street Southeast",
      "addr_housenumber": "2185"
    },
    {
      "id": 172873,
      "geometry": "POINT (-79.178489 37.365024)",
      "poi_name": "La Fogata Mexican Restaurant",
      "osm_id": 2417982151,
      "amenity": "restaurant",
      "cuisine": "mexican",
      "phone": "+1-434-582-1996",
      "addr_state": "VA",
      "addr_city": "Lynchburg",
      "addr_postcode": "24502",
      "addr_street": "Enterprise Drive",
      "addr_housenumber": "1303"
    },
    {
      "id": 183391,
      "geometry": "POINT (-79.178489 37.365024)",
      "poi_name": "China Garden",
      "osm_id": 10927145192,
      "amenity": "restaurant",
      "cuisine": "chinese",
      "phone": "+15403814061",
      "addr_state": "VA",
      "addr_city": "Christiansburg",
      "addr_postcode": "24073",
      "addr_street": "North Franklin Street",
      "addr_housenumber": "1572"
    },
    {
      "id": 178761,
      "geometry": "POINT (-79.178489 37.365024)",
      "poi_name": "Vitale Pizza Kitchen",
      "osm_id": 10738290603,
      "amenity": "restaurant",
      "cuisine": "pizza",
      "website": "https://vpklynchburg.com",
      "phone": "+1 434 345 3160",
      "addr_state": "VA",
      "addr_city": "Lynchburg",
      "addr_street": "Forest Road",
      "addr_housenumber": "18243"
    },
    {
      "id": 179157,
      "geometry": "POINT (-79.178489 37.365024)",
      "poi_name": "2 Chill Restaurant",
      "osm_id": 10751364233,
      "amenity": "restaurant",
      "website": "https://2chillrestaurant.com/",
      "addr_state": "VA",
      "addr_city": "Roanoke",
      "addr_postcode": "24011",
      "addr_street": "2nd Street Southwest",
      "addr_housenumber": "312"
    },
    {
      "id": 179229,
      "geometry": "POINT (-79.178489 37.365024)",
      "poi_name": "Ridiculous Chicken",
      "osm_id": 10754052168,
      "amenity": "restaurant",
      "cuisine": "chicken;_drinks",
      "description": "Popular night club",
      "website": "https://ridiculouschicken.net/",
      "phone": "(540) 739-3562",
      "addr_state": "VA",
      "addr_city": "Blacksburg",
      "addr_postcode": "24060",
      "addr_street": "North Main Street",
      "addr_housenumber": "201"
    },
    {
      "id": 179762,
      "geometry": "POINT (-79.178489 37.365024)",
      "poi_name": "Ginza Asian Fusion",
      "osm_id": 10777305592,
      "amenity": "restaurant",
      "cuisine": "asian",
      "phone": "+1-540-980-1055",
      "addr_state": "VA",
      "addr_city": "Pulaski",
      "addr_postcode": "24301",
      "addr_street": "East Main Street",
      "addr_housenumber": "1075"
    },
    {
      "id": 186686,
      "geometry": "POINT (-79.178489 37.365024)",
      "poi_name": "China Wall",
      "osm_id": 7943413313,
      "amenity": "restaurant",
      "addr_state": "VA",
      "addr_city": "Pulaski",
      "addr_postcode": "24301",
      "addr_street": "East Main Street",
      "addr_housenumber": "1136"
    },
    {
      "id": 187177,
      "geometry": "POINT (-79.178489 37.365024)",
      "poi_name": "Waffle House",
      "osm_id": 7978918913,
      "amenity": "restaurant",
      "cuisine": "american",
      "opening_hours": "24/7",
      "addr_state": "VA",
      "addr_city": "Christiansburg",
      "addr_postcode": "24073",
      "addr_street": "Oak Tree Blvd",
      "addr_housenumber": "90"
    },
    {
      "id": 196966,
      "geometry": "POINT (-79.178489 37.365024)",
      "poi_name": "El Ranchero Mexican Bar & Grill",
      "osm_id": 10606447470,
      "amenity": "restaurant",
      "cuisine": "mexican;soup;salad;chicken;seafood;steak;tacos;burger;sandwich",
      "opening_hours": "Mo-Th 11:00-22:00; Fr 11:00-22:30; Sa 12:00-22:30; Su 12:00-21:00",
      "website": "https://elrancheroblacksburg.com/blacksburg-va/",
      "phone": "+1-540-739-3225",
      "addr_state": "VA",
      "addr_city": "Blacksburg",
      "addr_postcode": "24060",
      "addr_street": "Prices Fork Road",
      "addr_housenumber": "4237"
    },
    {
      "id": 197025,
      "geometry": "POINT (-79.178489 37.365024)",
      "poi_name": "Orzo Roll N Bowl",
      "osm_id": 10608838585,
      "amenity": "restaurant",
      "cuisine": "sushi;asian;poke;dessert",
      "opening_hours": "Mo-Fr 16:00-24:00; Sa 11:00-24:00; Su off",
      "website": "https://www.orzorollnbowl.com/",
      "phone": "+1-540-739-3971",
      "addr_state": "VA",
      "addr_city": "Blacksburg",
      "addr_postcode": "24060",
      "addr_street": "South Main Street",
      "addr_housenumber": "301"
    },
    {
      "id": 199059,
      "geometry": "POINT (-79.178489 37.365024)",
      "poi_name": "Gillie's",
      "osm_id": 936994832,
      "amenity": "restaurant",
      "wheelchair": "yes",
      "website": "https://www.gilliesrestaurant.net/",
      "addr_state": "VA",
      "addr_city": "Blacksburg",
      "addr_street": "College Avenue",
      "addr_housenumber": "153"
    },
    {
      "id": 199080,
      "geometry": "POINT (-79.178489 37.365024)",
      "poi_name": "Hunan King",
      "osm_id": 937047015,
      "amenity": "restaurant",
      "cuisine": "chinese",
      "wheelchair": "limited",
      "opening_hours": "We-Mo 11:00-22:00; Tu off",
      "addr_state": "VA",
      "addr_city": "Blacksburg",
      "addr_street": "University City Boulevard",
      "addr_housenumber": "801"
    },
    {
      "id": 199081,
      "geometry": "POINT (-79.178489 37.365024)",
      "poi_name": "Benny Marzano's Pizza",
      "osm_id": 937050316,
      "amenity": "restaurant",
      "cuisine": "pizza",
      "opening_hours": "Mo-Su 11:00-24:00",
      "addr_state": "VA",
      "addr_city": "Blacksburg",
      "addr_street": "Draper Road",
      "addr_housenumber": "110"
    },
    {
      "id": 199082,
      "geometry": "POINT (-79.178489 37.365024)",
      "poi_name": "Centro Taco Bar",
      "osm_id": 937060436,
      "amenity": "restaurant",
      "addr_state": "VA",
      "addr_city": "Blacksburg",
      "addr_street": "North Main Street",
      "addr_housenumber": "201"
    },
    {
      "id": 199083,
      "geometry": "POINT (-79.178489 37.365024)",
      "poi_name": "Cafe de Bangkok",
      "osm_id": 937065312,
      "amenity": "restaurant",
      "cuisine": "thai",
      "addr_state": "VA",
      "addr_city": "Blacksburg",
      "addr_street": "Jackson Street",
      "addr_housenumber": "104"
    },
    {
      "id": 199084,
      "geometry": "POINT (-79.178489 37.365024)",
      "poi_name": "The Maroon Door",
      "osm_id": 937091331,
      "amenity": "restaurant",
      "cuisine": "american",
      "opening_hours": "Su-Th 11:00-22:00; Fr,Sa 11:00-23:00",
      "website": "https://www.maroondoor.com/",
      "phone": "+1 540 605-7418",
      "toilets": "yes",
      "addr_state": "VA",
      "addr_city": "Blacksburg",
      "addr_postcode": "24060",
      "addr_street": "North Main Street",
      "addr_housenumber": "418"
    },
    {
      "id": 199085,
      "geometry": "POINT (-79.178489 37.365024)",
      "poi_name": "El Rodeo Restuarant",
      "osm_id": 937095738,
      "amenity": "restaurant",
      "opening_hours": "Mo-Su 11:00-22:00",
      "addr_state": "VA",
      "addr_city": "Blacksburg",
      "addr_street": "South Main Street",
      "addr_housenumber": "1540"
    },
    {
      "id": 199086,
      "geometry": "POINT (-79.178489 37.365024)",
      "poi_name": "D.P. Dough",
      "osm_id": 937096478,
      "amenity": "restaurant",
      "opening_hours": "Mo-Su 17:00-04:00",
      "addr_state": "VA",
      "addr_city": "Blacksburg",
      "addr_street": "North Main Street",
      "addr_housenumber": "215"
    },
    {
      "id": 199087,
      "geometry": "POINT (-79.178489 37.365024)",
      "poi_name": "Dalton's Restaurant",
      "osm_id": 937099586,
      "amenity": "restaurant",
      "addr_state": "VA",
      "addr_city": "Blacksburg",
      "addr_street": "North Main Street",
      "addr_housenumber": "1600"
    },
    {
      "id": 199088,
      "geometry": "POINT (-79.178489 37.365024)",
      "poi_name": "Blacksburg No. 1 Restaurant",
      "osm_id": 937099801,
      "amenity": "restaurant",
      "cuisine": "chinese;asian;fish;seafood;bubble_tea;chicken",
      "opening_hours": "Mo off; Tu-Sa 10:30-21:30; Su 11:00-21:30",
      "website": "https://www.blacksburgnumber1.com/",
      "phone": "+1-540-739-3015",
      "addr_state": "VA",
      "addr_city": "Blacksburg",
      "addr_postcode": "24060",
      "addr_street": "North Main Street",
      "addr_housenumber": "125"
    },
    {
      "id": 199089,
      "geometry": "POINT (-79.178489 37.365024)",
      "poi_name": "Italiano's Pizza",
      "osm_id": 937101301,
      "amenity": "restaurant",
      "cuisine": "pizza;salad;sandwich;burger;greek;italian;pasta;dessert",
      "wheelchair": "limited",
      "opening_hours": "11:00-02:30",
      "website": "https://www.orderitalianospizzamenu.com/",
      "phone": "+1-540-961-5000",
      "addr_state": "VA",
      "addr_city": "Blacksburg",
      "addr_postcode": "24060",
      "addr_street": "North Main Street",
      "addr_housenumber": "610"
    },
    {
      "id": 199090,
      "geometry": "POINT (-79.178489 37.365024)",
      "poi_name": "Abby's Restaurant",
      "osm_id": 937103753,
      "amenity": "restaurant",
      "cuisine": "american",
      "addr_state": "VA",
      "addr_city": "Blacksburg",
      "addr_street": "North Main Street",
      "addr_housenumber": "1001"
    },
    {
      "id": 199063,
      "geometry": "POINT (-79.178489 37.365024)",
      "poi_name": "Buffalo Wild Wings",
      "osm_id": 936998192,
      "amenity": "restaurant",
      "cuisine": "wings",
      "addr_state": "VA",
      "addr_city": "Blacksburg",
      "addr_street": "Turner Street",
      "addr_housenumber": "460"
    },
    {
      "id": 199091,
      "geometry": "POINT (-79.178489 37.365024)",
      "poi_name": "Avellinos Italian Restaurant & Pizzaria",
      "osm_id": 937115112,
      "amenity": "restaurant",
      "addr_state": "VA",
      "addr_city": "Blacksburg",
      "addr_street": "South Main Street",
      "addr_housenumber": "1440"
    },
    {
      "id": 199092,
      "geometry": "POINT (-79.178489 37.365024)",
      "poi_name": "Salad Creations",
      "osm_id": 937127766,
      "amenity": "restaurant",
      "addr_state": "VA",
      "addr_city": "Blacksburg",
      "addr_street": "South Main Street",
      "addr_housenumber": "1540"
    },
    {
      "id": 199064,
      "geometry": "POINT (-79.178489 37.365024)",
      "poi_name": "India Garden Restaurant",
      "osm_id": 936998830,
      "amenity": "restaurant",
      "cuisine": "indian",
      "website": "http://www.indiagardenonline.com/",
      "phone": "+1 540 951 5100",
      "addr_state": "VA",
      "addr_city": "Blacksburg",
      "addr_postcode": "24060",
      "addr_street": "Prices Fork Road",
      "addr_housenumber": "210"
    },
    {
      "id": 199093,
      "geometry": "POINT (-79.178489 37.365024)",
      "poi_name": "622 North",
      "osm_id": 937135970,
      "amenity": "restaurant",
      "cuisine": "american",
      "opening_hours": "Mo-We 17:00-21:00; Th,Fr 11:00-21:00; Sa,Su 10:00-21:00",
      "addr_state": "VA",
      "addr_city": "Blacksburg",
      "addr_street": "North Main Street",
      "addr_housenumber": "622"
    },
    {
      "id": 199095,
      "geometry": "POINT (-79.178489 37.365024)",
      "poi_name": "Bull & Bones Brewhouse & Grill",
      "osm_id": 937138239,
      "amenity": "restaurant",
      "addr_state": "VA",
      "addr_city": "Blacksburg",
      "addr_street": "South Main Street",
      "addr_housenumber": "1470"
    },
    {
      "id": 199066,
      "geometry": "POINT (-79.178489 37.365024)",
      "poi_name": "Baha Bistro",
      "osm_id": 937011957,
      "amenity": "restaurant",
      "addr_state": "VA",
      "addr_city": "Blacksburg",
      "addr_street": "South Main Street",
      "addr_housenumber": "1470"
    },
    {
      "id": 199097,
      "geometry": "POINT (-79.178489 37.365024)",
      "poi_name": "Waffle House",
      "osm_id": 937142535,
      "amenity": "restaurant",
      "cuisine": "american",
      "wheelchair": "limited",
      "opening_hours": "24/7",
      "website": "https://locations.wafflehouse.com/blacksburg-va-1959",
      "phone": "+1-540-951-5370",
      "addr_state": "VA",
      "addr_city": "Blacksburg",
      "addr_postcode": "24060",
      "addr_street": "North Main Street",
      "addr_housenumber": "610"
    },
    {
      "id": 199068,
      "geometry": "POINT (-79.178489 37.365024)",
      "poi_name": "Joes Diner",
      "osm_id": 937022723,
      "amenity": "restaurant",
      "opening_hours": "Mo-Su 08:00-14:00",
      "addr_state": "VA",
      "addr_city": "Blacksburg",
      "addr_street": "North Main Street",
      "addr_housenumber": "221"
    },
    {
      "id": 199098,
      "geometry": "POINT (-79.178489 37.365024)",
      "poi_name": "The Blacksburg Tavern",
      "osm_id": 937145136,
      "amenity": "restaurant",
      "addr_state": "VA",
      "addr_city": "Blacksburg",
      "addr_street": "South Main Street"
    },
    {
      "id": 199100,
      "geometry": "POINT (-79.178489 37.365024)",
      "poi_name": "Benny Marzano's Pizza",
      "osm_id": 937149022,
      "amenity": "restaurant",
      "cuisine": "pizza",
      "addr_state": "VA",
      "addr_city": "Blacksburg",
      "addr_street": "Prices Fork Road",
      "addr_housenumber": "210"
    },
    {
      "id": 199069,
      "geometry": "POINT (-79.178489 37.365024)",
      "poi_name": "Ninja Cafe",
      "osm_id": 937026092,
      "amenity": "restaurant",
      "opening_hours": "Mo off; Tu-Su 11:00-21:00",
      "website": "https://www.ninjacafeblacksburg.com/",
      "phone": "540-739-3133",
      "addr_state": "VA",
      "addr_city": "Blacksburg",
      "addr_postcode": "24060",
      "addr_street": "South Main Street",
      "addr_housenumber": "1200"
    },
    {
      "id": 199070,
      "geometry": "POINT (-79.178489 37.365024)",
      "poi_name": "Green's Grill & Sushi Bar",
      "osm_id": 937026389,
      "amenity": "restaurant",
      "cuisine": "sushi;asian;seafood;fries;salad;mediterranean;burger;sandwich;tacos",
      "wheelchair": "yes",
      "opening_hours": "Mo-Th,Su 11:00-21:45; Fr,Sa 11:00-22:15",
      "website": "https://www.greensgrillsushibar.com/",
      "phone": "+1-540-961-2020",
      "addr_state": "VA",
      "addr_city": "Blacksburg",
      "addr_postcode": "24060",
      "addr_street": "College Avenue",
      "addr_housenumber": "109"
    },
    {
      "id": 199071,
      "geometry": "POINT (-79.178489 37.365024)",
      "poi_name": "Smokey'S Kabob",
      "osm_id": 937026986,
      "amenity": "restaurant",
      "addr_state": "VA",
      "addr_city": "Blacksburg",
      "addr_street": "University City Boulevard",
      "addr_housenumber": "801"
    },
    {
      "id": 199073,
      "geometry": "POINT (-79.178489 37.365024)",
      "poi_name": "Lefty's",
      "osm_id": 937033607,
      "amenity": "restaurant",
      "cuisine": "burger",
      "opening_hours": "Mo 11:00-15:00; Tu-Fr 11:00-20:30; Sa 08:00-20:30; Su 08:30-12:30",
      "addr_state": "VA",
      "addr_city": "Blacksburg",
      "addr_street": "South Main Street",
      "addr_housenumber": "1410"
    },
    {
      "id": 199074,
      "geometry": "POINT (-79.178489 37.365024)",
      "poi_name": "MixMix Korea",
      "osm_id": 937034041,
      "amenity": "restaurant",
      "addr_state": "VA",
      "addr_city": "Blacksburg",
      "addr_street": "North Main Street",
      "addr_housenumber": "201"
    },
    {
      "id": 199076,
      "geometry": "POINT (-79.178489 37.365024)",
      "poi_name": "Sushi Factory",
      "osm_id": 937036772,
      "amenity": "restaurant",
      "cuisine": "japanese",
      "opening_hours": "Tu-Su 11:30-21:30; Mo off",
      "website": "https://sushifactoryandtea.com/index.html#/",
      "phone": "+1-540-951-2380",
      "addr_state": "VA",
      "addr_city": "Blacksburg",
      "addr_postcode": "24060",
      "addr_street": "University City Boulevard",
      "addr_housenumber": "801"
    },
    {
      "id": 199077,
      "geometry": "POINT (-79.178489 37.365024)",
      "poi_name": "Double Dragon",
      "osm_id": 937037011,
      "amenity": "restaurant",
      "cuisine": "chinese",
      "addr_state": "VA",
      "addr_city": "Blacksburg",
      "addr_street": "South Main Street",
      "addr_housenumber": "1305"
    },
    {
      "id": 199078,
      "geometry": "POINT (-79.178489 37.365024)",
      "poi_name": "hefun",
      "osm_id": 937038341,
      "amenity": "restaurant",
      "cuisine": "sushi;seafood;ramen;asian;japanese",
      "opening_hours": "11:00-22:00",
      "website": "https://www.hefunblacksburgva.com/",
      "phone": "+1-540-739-3101",
      "addr_state": "VA",
      "addr_city": "Blacksburg",
      "addr_postcode": "24060",
      "addr_street": "North Main Street",
      "addr_housenumber": "428"
    },
    {
      "id": 199079,
      "geometry": "POINT (-79.178489 37.365024)",
      "poi_name": "Pupuseria Mari 2",
      "osm_id": 937040365,
      "amenity": "restaurant",
      "description": "El Salvadoran pupusas",
      "addr_state": "VA",
      "addr_city": "Blacksburg",
      "addr_street": "South Main Street",
      "addr_housenumber": "1202"
    },
    {
      "id": 203138,
      "geometry": "POINT (-79.178489 37.365024)",
      "poi_name": "Lentini's",
      "osm_id": 7065172476,
      "amenity": "restaurant",
      "cuisine": "pizza;italian",
      "opening_hours": "Mo-Th 11:00-21:00, Fr-Sa 11:00-22:00",
      "phone": "+1-540-966-9600",
      "addr_state": "VA",
      "addr_city": "Daleville",
      "addr_postcode": "24083",
      "addr_street": "Roanoke Road",
      "addr_housenumber": "1396"
    },
    {
      "id": 203143,
      "geometry": "POINT (-79.178489 37.365024)",
      "poi_name": "Three Li'l Pigs BBQ",
      "osm_id": 7065238689,
      "amenity": "restaurant",
      "cuisine": "barbecue",
      "phone": "+1-540-966-0165",
      "addr_state": "VA",
      "addr_city": "Daleville",
      "addr_postcode": "24083",
      "addr_street": "Kingston Drive",
      "addr_housenumber": "120"
    },
    {
      "id": 207189,
      "geometry": "POINT (-79.178489 37.365024)",
      "poi_name": "Pancho Mexican Restaurant",
      "osm_id": 7241389772,
      "amenity": "restaurant",
      "cuisine": "mexican",
      "website": "https://www.facebook.com/panchomexican/",
      "phone": "+1 540 591 5274",
      "addr_state": "VA",
      "addr_city": "Daleville",
      "addr_postcode": "24083",
      "addr_street": "Roanoke Road",
      "addr_housenumber": "412"
    },
    {
      "id": 207193,
      "geometry": "POINT (-79.178489 37.365024)",
      "poi_name": "Shoney's",
      "osm_id": 7241432501,
      "amenity": "restaurant",
      "cuisine": "american",
      "phone": "+1 540 992 6400",
      "addr_state": "VA",
      "addr_city": "Troutville",
      "addr_postcode": "24175",
      "addr_street": "Lee Highway South",
      "addr_housenumber": "2673"
    },
    {
      "id": 207502,
      "geometry": "POINT (-79.178489 37.365024)",
      "poi_name": "Denny's",
      "osm_id": 4949980324,
      "amenity": "restaurant",
      "cuisine": "american",
      "addr_state": "VA",
      "addr_city": "Salem",
      "addr_postcode": "24153",
      "addr_street": "West Main Street",
      "addr_housenumber": "2039"
    },
    {
      "id": 209002,
      "geometry": "POINT (-79.178489 37.365024)",
      "poi_name": "Mi Patron",
      "osm_id": 5018465574,
      "amenity": "restaurant",
      "cuisine": "mexican",
      "opening_hours": "Mo-Sa 11:00-22:00; Su 11:00-21:00",
      "website": "http://www.MiPatronRestaurant.com",
      "phone": "+1 434 525 9482",
      "addr_state": "VA",
      "addr_city": "Forest",
      "addr_postcode": "24551",
      "addr_street": "Perrowville Road",
      "addr_housenumber": "1208"
    },
    {
      "id": 208459,
      "geometry": "POINT (-79.178489 37.365024)",
      "poi_name": "Wasabi Restaurant",
      "osm_id": 4991642472,
      "amenity": "restaurant",
      "cuisine": "sushi",
      "website": "https://wasabisroanoke.com/",
      "addr_city": "Roanoke",
      "addr_postcode": "24011",
      "addr_street": "Market Street SE",
      "addr_housenumber": "214"
    },
    {
      "id": 222850,
      "geometry": "POINT (-79.178489 37.365024)",
      "poi_name": "Lews",
      "osm_id": 11038015672,
      "amenity": "restaurant",
      "cuisine": "pizza;burger;sandwich",
      "website": "https://www.lewsrestaurant.com/",
      "addr_state": "VA",
      "addr_city": "Roanoke",
      "addr_postcode": "24016",
      "addr_street": "Walnut Avenue Southwest",
      "addr_housenumber": "11"
    },
    {
      "id": 214016,
      "geometry": "POINT (-79.178489 37.365024)",
      "poi_name": "V&T Cafe & Grill",
      "osm_id": 5264269594,
      "amenity": "restaurant",
      "cuisine": "american;ice_cream;coffee_shop",
      "opening_hours": "Mo-We 11:00-15:00; Th-Fr 11:00-20:00; Sa 11:30-15:00",
      "website": "http://www.vtcafegrill.com/",
      "phone": "+1 434 385 0415",
      "addr_state": "VA",
      "addr_city": "Forest",
      "addr_postcode": "24551",
      "addr_street": "Forest Road",
      "addr_housenumber": "18013"
    },
    {
      "id": 216840,
      "geometry": "POINT (-79.178489 37.365024)",
      "poi_name": "The Black Hen & Bar Blue",
      "osm_id": 9188680775,
      "amenity": "restaurant",
      "addr_state": "VA",
      "addr_city": "Blacksburg",
      "addr_street": "North Main Street",
      "addr_housenumber": "126"
    },
    {
      "id": 221505,
      "geometry": "POINT (-79.178489 37.365024)",
      "poi_name": "Aesy's",
      "osm_id": 10980810845,
      "amenity": "restaurant",
      "cuisine": "american",
      "opening_hours": "Tu-Fr 07:30-12:00",
      "addr_state": "VA",
      "addr_city": "Roanoke",
      "addr_postcode": "24016",
      "addr_street": "Campbell Avenue Southwest",
      "addr_housenumber": "505"
    },
    {
      "id": 214708,
      "geometry": "POINT (-79.178489 37.365024)",
      "poi_name": "Westside Deli",
      "osm_id": 5278527864,
      "amenity": "restaurant",
      "opening_hours": "Mo-Th,Sa 10:00-21:00; Fr 10:00-22:00",
      "addr_state": "VA",
      "addr_city": "Lynchburg",
      "addr_postcode": "24502",
      "addr_street": "Timberlake Road",
      "addr_housenumber": "7701"
    },
    {
      "id": 222851,
      "geometry": "POINT (-79.178489 37.365024)",
      "poi_name": "Food Fanatics Kitchen",
      "osm_id": 11038040552,
      "amenity": "restaurant",
      "cuisine": "american",
      "website": "https://www.foodfanaticskitchen.com/",
      "addr_state": "VA",
      "addr_city": "Roanoke",
      "addr_postcode": "24016",
      "addr_street": "Marshall Avenue Southwest",
      "addr_housenumber": "551"
    },
    {
      "id": 222852,
      "geometry": "POINT (-79.178489 37.365024)",
      "poi_name": "Big Valley Barbecue",
      "osm_id": 11038040553,
      "amenity": "restaurant",
      "cuisine": "barbeque",
      "website": "https://www.bigvalleybarbecue.com/",
      "addr_state": "VA",
      "addr_city": "Roanoke",
      "addr_postcode": "24011",
      "addr_street": "Luck Avenue Southwest",
      "addr_housenumber": "120"
    },
    {
      "id": 223127,
      "geometry": "POINT (-79.178489 37.365024)",
      "poi_name": "Nautical Bowls",
      "osm_id": 11047337198,
      "amenity": "restaurant",
      "opening_hours": "Mo-Sa 09:00-19:00; Su 10:00-17:00; PH closed",
      "website": "https://nauticalbowls.com",
      "addr_state": "VA",
      "addr_street": "West Edge Way",
      "addr_housenumber": "103"
    },
    {
      "id": 223022,
      "geometry": "POINT (-79.178489 37.365024)",
      "poi_name": "Delicias Boricuas",
      "osm_id": 11044277244,
      "amenity": "restaurant",
      "cuisine": "caribbean",
      "website": "https://delicias-boricuas-va.square.site/",
      "addr_state": "VA",
      "addr_city": "Roanoke",
      "addr_postcode": "24011",
      "addr_street": "Church Avenue Southwest",
      "addr_housenumber": "16"
    },
    {
      "id": 223023,
      "geometry": "POINT (-79.178489 37.365024)",
      "poi_name": "Inka Peruvian Grill",
      "osm_id": 11044277246,
      "amenity": "restaurant",
      "cuisine": "peruvian",
      "website": "https://inkagrilllatinfusion.com/",
      "addr_state": "VA",
      "addr_city": "Roanoke",
      "addr_postcode": "24011",
      "addr_street": "South Jefferson Street",
      "addr_housenumber": "611"
    },
    {
      "id": 240154,
      "geometry": "POINT (-79.178489 37.365024)",
      "poi_name": "Himalayan Curry Cafe",
      "osm_id": 5960377983,
      "amenity": "restaurant",
      "cuisine": "asian",
      "opening_hours": "Mo-Sa 11:00-22:00; Su 11:00-21:00",
      "addr_state": "VA",
      "addr_city": "Blacksburg",
      "addr_postcode": "24060",
      "addr_street": "University City Boulevard",
      "addr_housenumber": "781"
    },
    {
      "id": 227604,
      "geometry": "POINT (-79.178489 37.365024)",
      "poi_name": "Applebee's",
      "osm_id": 4313557013,
      "amenity": "restaurant",
      "cuisine": "american",
      "website": "https://restaurants.applebees.com/en-us/va/roanoke/4510-challenger-avenue-83048",
      "phone": "540 977-0251",
      "official_name": "Applebee's Neighborhood Grill & Bar",
      "addr_state": "VA",
      "addr_city": "Roanoke",
      "addr_postcode": "25012",
      "addr_street": "Challenger Avenue Northeast",
      "addr_housenumber": "4510"
    },
    {
      "id": 230387,
      "geometry": "POINT (-79.178489 37.365024)",
      "poi_name": "Mission BBQ",
      "osm_id": 4424418954,
      "amenity": "restaurant",
      "cuisine": "barbecue",
      "website": "https://mission-bbq.com/",
      "addr_state": "VA",
      "addr_city": "Roanoke",
      "addr_postcode": "24015",
      "addr_street": "Colonial Avenue Southwest",
      "addr_housenumber": "2229"
    },
    {
      "id": 230388,
      "geometry": "POINT (-79.178489 37.365024)",
      "poi_name": "McAlister's Deli",
      "osm_id": 4424418955,
      "amenity": "restaurant",
      "cuisine": "sandwich",
      "website": "https://www.mcalistersdeli.com",
      "addr_state": "VA",
      "addr_city": "Roanoke",
      "addr_postcode": "24015",
      "addr_street": "Colonial Avenue Southwest",
      "addr_housenumber": "2063"
    },
    {
      "id": 238509,
      "geometry": "POINT (-79.178489 37.365024)",
      "poi_name": "Mezeh Mediterranean Grill",
      "osm_id": 5880208803,
      "amenity": "restaurant",
      "cuisine": "mediterranean",
      "wheelchair": "yes",
      "opening_hours": "Mo-Su 11:00-22:00",
      "website": "https://mezeh.com/",
      "addr_state": "VA",
      "addr_city": "Blacksburg",
      "addr_postcode": "24060",
      "addr_street": "University City Boulevard",
      "addr_housenumber": "616"
    },
    {
      "id": 238486,
      "geometry": "POINT (-79.178489 37.365024)",
      "poi_name": "McAlister's Deli",
      "osm_id": 5879927217,
      "amenity": "restaurant",
      "cuisine": "sandwich",
      "opening_hours": "Mo-Su 10:30-20:00",
      "phone": "+1 540 552 0695",
      "addr_state": "VA",
      "addr_city": "Blacksburg",
      "addr_postcode": "24060",
      "addr_street": "Prices Fork Road",
      "addr_housenumber": "888"
    }
  ],
  "answer_type": "loc",
  "question_entities": {
    "[1]": {
      "main_category": "amenity",
      "sub_category": "restaurant"
    },
    "[2]": {
      "distance": 170000,
      "text": "170 kilometers"
    },
    "[3]": {
      "main_category": "tourism",
      "sub_category": "aquarium",
      "display_name": "SeaQuest, Lynchburg, VA",
      "geo_wkt": "POINT (-79.178489 37.365024)",
      "poi": {
        "id": 10602,
        "geometry": "POINT (-79.178489 37.365024)",
        "poi_name": "SeaQuest",
        "osm_id": 6937652614,
        "tourism": "aquarium",
        "opening_hours": "Mo-Sa 10:00-20:00; Su 12:00-18:00; PH off",
        "website": "https://visitseaquest.com/lynchburg/",
        "addr_state": "VA",
        "addr_city": "Lynchburg",
        "addr_postcode": "24502",
        "addr_street": "Candlers Mountain Road",
        "addr_housenumber": "3405"
      }
    },
    "[4]": {
      "direction_desc": "west",
      "direction_predicate": "degrees(ST_Azimuth(origin.geometry, pois.geometry)) BETWEEN 247.5 AND 292.5"
    }
  },
  "id": 14,
  "type": "range:direction+loc"
}