{
  "question": "Which path guides to a restaurant from Johnson Park, Hutchinson, KS within 160 kilometers?",
  "sql": "SELECT *, degrees(ST_Azimuth(ST_GeomFromText('POINT (-97.940052 38.070567)',4326)::geography, pois.geometry)) AS angle FROM pois\nWHERE ST_DWithin(pois.geometry, ST_GeomFromText('POINT (-97.940052 38.070567)',4326)::geography, 160000)\nAND amenity = 'restaurant';\n",
  "answers": [
    {
      "id": 28353,
      "geometry": "POINT (-97.279895 37.68634)",
      "poi_name": "Il Vicino",
      "osm_id": 476084655,
      "amenity": "restaurant",
      "angle": 126.08666826635184
    },
    {
      "id": 28358,
      "geometry": "POINT (-97.282235 37.694049)",
      "poi_name": "Bella Luna",
      "osm_id": 476209781,
      "amenity": "restaurant",
      "angle": 125.63299511972886
    },
    {
      "id": 28359,
      "geometry": "POINT (-97.27978 37.693628)",
      "poi_name": "Sugar Sisters Bakery & Cafe",
      "osm_id": 476212059,
      "amenity": "restaurant",
      "angle": 125.56129502528707
    },
    {
      "id": 28378,
      "geometry": "POINT (-97.262734 37.695175)",
      "poi_name": "Great Harvest Bread Co",
      "osm_id": 477116936,
      "amenity": "restaurant",
      "addr_street": "North Woodlawn Boulevard",
      "addr_housenumber": "535",
      "angle": 124.75586101636186
    },
    {
      "id": 30772,
      "geometry": "POINT (-97.610057 38.802126)",
      "poi_name": "Carlos O'Kelly's",
      "osm_id": 8380757218,
      "amenity": "restaurant",
      "angle": 19.43203106409915
    },
    {
      "id": 30773,
      "geometry": "POINT (-98.783057 38.362148)",
      "poi_name": "Maria's Mexican Grill",
      "osm_id": 8380786255,
      "amenity": "restaurant",
      "angle": 293.93345388725766
    },
    {
      "id": 30774,
      "geometry": "POINT (-98.761839 38.001663)",
      "poi_name": "Tiger Town Pizza",
      "osm_id": 8380788085,
      "amenity": "restaurant",
      "angle": 264.2018680487496
    },
    {
      "id": 32694,
      "geometry": "POINT (-96.170683 38.412519)",
      "poi_name": "Do-B's",
      "osm_id": 2634610757,
      "amenity": "restaurant",
      "cuisine": "burger",
      "addr_state": "KS",
      "addr_city": "Emporia",
      "addr_postcode": "66801",
      "addr_street": "East 12th Avenue",
      "addr_housenumber": "704",
      "angle": 75.68460410110178
    },
    {
      "id": 32696,
      "geometry": "POINT (-96.170013 38.412527)",
      "poi_name": "Pekking Express",
      "osm_id": 2634618003,
      "amenity": "restaurant",
      "cuisine": "chinese",
      "angle": 75.68908324692266
    },
    {
      "id": 32701,
      "geometry": "POINT (-97.213084 38.910697)",
      "poi_name": "The Hitching Post",
      "osm_id": 2634709733,
      "amenity": "restaurant",
      "cuisine": "american",
      "addr_city": "Abilene",
      "addr_postcode": "67410",
      "addr_street": "Southeast 5th Street",
      "addr_housenumber": "100",
      "angle": 33.99315502651755
    },
    {
      "id": 32756,
      "geometry": "POINT (-97.213661 38.914021)",
      "poi_name": "Taco Grande",
      "osm_id": 2637706817,
      "amenity": "restaurant",
      "cuisine": "mexican",
      "addr_city": "Abilene",
      "addr_postcode": "67410",
      "addr_street": "South Buckeye Avenue",
      "addr_housenumber": "200",
      "angle": 33.86643726638936
    },
    {
      "id": 32757,
      "geometry": "POINT (-97.216987 38.915094)",
      "poi_name": "Sweet Daddy's",
      "osm_id": 2637706822,
      "amenity": "restaurant",
      "addr_city": "Abilene",
      "addr_postcode": "67410",
      "addr_street": "West 1st Street",
      "addr_housenumber": "303",
      "angle": 33.71157912605467
    },
    {
      "id": 32758,
      "geometry": "POINT (-97.244618 38.911717)",
      "poi_name": "Mr K's Farmhouse Restaurant",
      "osm_id": 2637708099,
      "amenity": "restaurant",
      "cuisine": "american",
      "addr_city": "Abilene",
      "addr_postcode": "67410",
      "addr_street": "North Van Buren Street",
      "addr_housenumber": "407",
      "angle": 32.79933661203403
    },
    {
      "id": 33003,
      "geometry": "POINT (-96.947544 38.670655)",
      "poi_name": "Spot",
      "osm_id": 2645060182,
      "amenity": "restaurant",
      "cuisine": "burger",
      "addr_state": "KS",
      "addr_city": "Herington",
      "addr_postcode": "67449",
      "addr_street": "West Walnut Street",
      "addr_housenumber": "304",
      "angle": 52.16837605164128
    },
    {
      "id": 33004,
      "geometry": "POINT (-96.942437 38.671643)",
      "poi_name": "Santa Fe Cafe",
      "osm_id": 2645060195,
      "amenity": "restaurant",
      "cuisine": "burger",
      "addr_state": "KS",
      "addr_city": "Herington",
      "addr_postcode": "67449",
      "addr_street": "East Main Street",
      "addr_housenumber": "22",
      "angle": 52.263113008901314
    },
    {
      "id": 33005,
      "geometry": "POINT (-96.94444 38.671274)",
      "poi_name": "El Veracruz Authentic Mexican Food",
      "osm_id": 2645069437,
      "amenity": "restaurant",
      "cuisine": "mexican",
      "addr_city": "Herington",
      "addr_postcode": "67449",
      "addr_street": "West Main Street",
      "addr_housenumber": "15",
      "angle": 52.22517018876764
    },
    {
      "id": 33962,
      "geometry": "POINT (-97.667088 38.368913)",
      "poi_name": "Main Street Deli",
      "osm_id": 2688032985,
      "amenity": "restaurant",
      "opening_hours": "Mo-Fr 10:30-21:00;Sa 10:30-20:00",
      "operator": "Kim Zehr",
      "website": "https://www.facebook.com/pages/Main-Street-Deli/157594574302336",
      "phone": "+1-620-241-1888",
      "angle": 35.737270225909555
    },
    {
      "id": 33969,
      "geometry": "POINT (-97.666564 38.368119)",
      "poi_name": "Courtyard On Main",
      "osm_id": 2688611898,
      "amenity": "restaurant",
      "opening_hours": "Tu-Fr 09:00-14:00",
      "website": "https://www.facebook.com/pages/Courtyard-On-Main/121254861222106",
      "phone": "+1-620-241-2800",
      "angle": 35.86187731850169
    },
    {
      "id": 33998,
      "geometry": "POINT (-97.609384 38.83844)",
      "poi_name": "Martinelli's Little Italy",
      "osm_id": 2689351810,
      "amenity": "restaurant",
      "cuisine": "italian",
      "opening_hours": "Mo-Sa 11:00-22:00;Su 11:00-21:00",
      "website": "https://www.martinellisonline.com/",
      "phone": "+1-785-826-9190",
      "addr_state": "KS",
      "addr_city": "Salina",
      "addr_street": "South Santa Fe Avenue",
      "addr_housenumber": "158",
      "angle": 18.6044718391214
    },
    {
      "id": 34034,
      "geometry": "POINT (-97.216345 38.917)",
      "poi_name": "The Dish",
      "osm_id": 2690901231,
      "amenity": "restaurant",
      "opening_hours": "Mo-Fr 11:00-14:00",
      "website": "https://www.facebook.com/TheDish",
      "phone": "+1-785-263-3836",
      "angle": 33.67471715939631
    },
    {
      "id": 34072,
      "geometry": "POINT (-97.329374 37.606929)",
      "poi_name": "El Jalisco Mexican Restaurant",
      "osm_id": 2693011429,
      "amenity": "restaurant",
      "cuisine": "mexican",
      "phone": "+1-316-260-4646",
      "addr_city": "Wichita",
      "addr_street": "East 47th Street South",
      "addr_housenumber": "627",
      "angle": 133.56344502164688
    },
    {
      "id": 34097,
      "geometry": "POINT (-97.215895 38.917521)",
      "poi_name": "Amanda's Bakery & Bistro",
      "osm_id": 2694395527,
      "amenity": "restaurant",
      "opening_hours": "Tu-Th 09:00-15:00;Fr 08:00-16:00;Sa 09:00-15:00",
      "website": "https://www.facebook.com/pages/Amandas-Bakery-Bistro/202261703119473",
      "angle": 33.6747004388897
    },
    {
      "id": 35311,
      "geometry": "POINT (-97.327023 37.685861)",
      "poi_name": "Beacon Restaurant",
      "osm_id": 2716535007,
      "amenity": "restaurant",
      "cuisine": "breakfast",
      "website": "http://beaconrestaurant.restaurantwebexpert.com/",
      "phone": "+1-316-263-3397",
      "addr_city": "Wichita",
      "addr_postcode": "67202",
      "addr_street": "East Douglas Avenue",
      "addr_housenumber": "900",
      "angle": 128.18116781115646
    },
    {
      "id": 35312,
      "geometry": "POINT (-97.327057 37.686808)",
      "poi_name": "Playa Azul",
      "osm_id": 2716538428,
      "amenity": "restaurant",
      "phone": "+1-316-267-2252",
      "angle": 128.1141335992914
    },
    {
      "id": 35359,
      "geometry": "POINT (-97.298115 37.692484)",
      "poi_name": "Great Wall",
      "osm_id": 2718326459,
      "amenity": "restaurant",
      "cuisine": "chinese",
      "angle": 126.41839689176223
    },
    {
      "id": 35704,
      "geometry": "POINT (-97.136006 37.682509)",
      "poi_name": "Metro Grill 2",
      "osm_id": 2728364224,
      "amenity": "restaurant",
      "website": "http://metrogrillandover.com/",
      "addr_street": "South Andover Road",
      "addr_housenumber": "321",
      "angle": 121.08926899664849
    },
    {
      "id": 35706,
      "geometry": "POINT (-97.269554 37.542015)",
      "poi_name": "Pizza John's",
      "osm_id": 2728377403,
      "amenity": "restaurant",
      "cuisine": "pizza",
      "website": "http://pizzajohnsderby.com/",
      "addr_street": "South Baltimore Avenue",
      "addr_housenumber": "208",
      "angle": 134.6088160574083
    },
    {
      "id": 35707,
      "geometry": "POINT (-96.871463 37.817138)",
      "poi_name": "Two Brothers BBQ El Dorado",
      "osm_id": 2728408339,
      "amenity": "restaurant",
      "website": "http://twobrosbbqeldorado.menufy.com/",
      "addr_street": "West Central Avenue",
      "addr_housenumber": "1701",
      "angle": 106.34277923170768
    },
    {
      "id": 36086,
      "geometry": "POINT (-97.299538 37.636118)",
      "poi_name": "Chiang Mai Thai",
      "osm_id": 2749090112,
      "amenity": "restaurant",
      "cuisine": "asian",
      "website": "http://chiangmaithaiks.com/",
      "addr_street": "South Hillside Avenue",
      "addr_housenumber": "3141",
      "angle": 130.34824027888132
    },
    {
      "id": 36087,
      "geometry": "POINT (-97.407058 37.694876)",
      "poi_name": "China Express",
      "osm_id": 2749108671,
      "amenity": "restaurant",
      "cuisine": "chinese",
      "website": "http://chinaexpresswichita.com/",
      "phone": "+1-316-943-2212",
      "addr_street": "West Central Avenue",
      "addr_housenumber": "5518",
      "angle": 131.4837904986106
    },
    {
      "id": 36088,
      "geometry": "POINT (-97.448284 37.693468)",
      "poi_name": "Chosen Wok",
      "osm_id": 2749123638,
      "amenity": "restaurant",
      "cuisine": "chinese",
      "phone": "+1-316-721-3888",
      "addr_street": "West Central Avenue",
      "addr_housenumber": "8971",
      "angle": 133.90207916680885
    },
    {
      "id": 36090,
      "geometry": "POINT (-97.208538 37.682473)",
      "poi_name": "Fusa Red 8 Chinese Chill",
      "osm_id": 2749278424,
      "amenity": "restaurant",
      "cuisine": "chinese",
      "website": "http://fusawichita.com/",
      "addr_street": "South Greenwich",
      "addr_housenumber": "303",
      "angle": 123.57014959533991
    },
    {
      "id": 36091,
      "geometry": "POINT (-97.333881 37.649138)",
      "poi_name": "Great Wall Restaurant",
      "osm_id": 2749300038,
      "amenity": "restaurant",
      "cuisine": "chinese",
      "website": "http://greatwallpawnee.com/",
      "addr_street": "East Pawnee Street",
      "addr_housenumber": "407",
      "angle": 131.0610780000448
    },
    {
      "id": 36092,
      "geometry": "POINT (-97.352198 37.661157)",
      "poi_name": "Great Wall Restaurant",
      "osm_id": 2749315148,
      "amenity": "restaurant",
      "cuisine": "chinese",
      "website": "http://greatwallseneca.com/",
      "addr_street": "South Seneca Street",
      "addr_housenumber": "1812, Suite 410",
      "angle": 131.11873322130128
    },
    {
      "id": 36093,
      "geometry": "POINT (-97.242082 37.723879)",
      "poi_name": "Great Wall Restaurant",
      "osm_id": 2749327209,
      "amenity": "restaurant",
      "cuisine": "chinese",
      "website": "http://greatwalltallgrass.com/",
      "addr_street": "North Rock Road",
      "addr_housenumber": "2240",
      "angle": 121.86561876270882
    },
    {
      "id": 36094,
      "geometry": "POINT (-97.495229 37.678305)",
      "poi_name": "Great Wall Restaurant",
      "osm_id": 2749342021,
      "amenity": "restaurant",
      "cuisine": "chinese",
      "website": "http://greatwallmaple.com/",
      "addr_street": "West Maple Street",
      "addr_housenumber": "13303",
      "angle": 137.9113172107233
    },
    {
      "id": 36095,
      "geometry": "POINT (-97.333433 37.6097)",
      "poi_name": "La Fiesta",
      "osm_id": 2749353547,
      "amenity": "restaurant",
      "cuisine": "mexican",
      "website": "http://lafiestawichita.com/",
      "addr_street": "South Broadway Avenue",
      "addr_housenumber": "4722",
      "angle": 133.584549786592
    },
    {
      "id": 36096,
      "geometry": "POINT (-97.414865 37.672308)",
      "poi_name": "Lee's Chinese Restaurant",
      "osm_id": 2749359361,
      "amenity": "restaurant",
      "cuisine": "chinese",
      "website": "http://leeswichita.com/",
      "phone": "+1-316-942-8822",
      "addr_street": "West Kellogg Drive South",
      "addr_housenumber": "6215",
      "angle": 133.56847804030954
    },
    {
      "id": 36097,
      "geometry": "POINT (-97.245805 37.740504)",
      "poi_name": "Oh Yeah! China Bistro",
      "osm_id": 2749368646,
      "amenity": "restaurant",
      "cuisine": "chinese",
      "website": "http://ohyeahbistro.com/",
      "addr_street": "North Rock Road",
      "addr_housenumber": "3101",
      "angle": 120.7514352668767
    },
    {
      "id": 36098,
      "geometry": "POINT (-97.208354 37.681734)",
      "poi_name": "Poblano East",
      "osm_id": 2749372761,
      "amenity": "restaurant",
      "cuisine": "mexican",
      "website": "http://poblanoeast.com/",
      "addr_street": "South Greenwich Road",
      "addr_housenumber": "343",
      "angle": 123.61374488290336
    },
    {
      "id": 36099,
      "geometry": "POINT (-97.431232 37.722439)",
      "poi_name": "Sit @ Thai Bistro",
      "osm_id": 2749384988,
      "amenity": "restaurant",
      "cuisine": "thai",
      "website": "http://sitatthaibistro.com/",
      "addr_street": "West 21st Street North",
      "addr_housenumber": "7603",
      "angle": 130.6507782588601
    },
    {
      "id": 36100,
      "geometry": "POINT (-97.27906 37.693987)",
      "poi_name": "Sit @ Thai Express",
      "osm_id": 2749395866,
      "amenity": "restaurant",
      "cuisine": "thai",
      "website": "http://sitatthaiexpress.com/",
      "addr_street": "East Central Avenue",
      "addr_housenumber": "4910",
      "angle": 125.50565880536065
    },
    {
      "id": 36101,
      "geometry": "POINT (-97.207495 37.682705)",
      "poi_name": "Two Brothers BBQ East Wichita",
      "osm_id": 2749555613,
      "amenity": "restaurant",
      "cuisine": "regional",
      "addr_street": "South Greenwich Road",
      "addr_housenumber": "300",
      "angle": 123.51630590877741
    },
    {
      "id": 36102,
      "geometry": "POINT (-97.421601 37.694829)",
      "poi_name": "Two Brothers BBQ West Wichita",
      "osm_id": 2749578093,
      "amenity": "restaurant",
      "cuisine": "regional",
      "website": "http://twobrosbbqwestwichita.menufy.com/",
      "addr_street": "West Central Avenue",
      "addr_housenumber": "6730",
      "angle": 132.28014087248243
    },
    {
      "id": 36103,
      "geometry": "POINT (-97.462125 37.709124)",
      "poi_name": "Wok Hey Asian Cuisine",
      "osm_id": 2749660356,
      "amenity": "restaurant",
      "cuisine": "chinese",
      "website": "http://wokhey.com/",
      "phone": "+1-316-721-3838",
      "addr_street": "North Maize Road",
      "addr_housenumber": "1444",
      "angle": 133.51282925141936
    },
    {
      "id": 37844,
      "geometry": "POINT (-97.625587 38.826009)",
      "poi_name": "Big Cheese Pizza",
      "osm_id": 2833567139,
      "amenity": "restaurant",
      "cuisine": "pizza",
      "addr_city": "Salina",
      "addr_postcode": "67401",
      "addr_street": "South Broadway Boulevard",
      "addr_housenumber": "730",
      "angle": 18.028519035346267
    },
    {
      "id": 39092,
      "geometry": "POINT (-97.592463 38.879177)",
      "poi_name": "Huddle House",
      "osm_id": 2903009001,
      "amenity": "restaurant",
      "cuisine": "american",
      "addr_city": "Salina",
      "addr_postcode": "67401",
      "addr_street": "North Ohio Street",
      "addr_housenumber": "2250",
      "angle": 18.563150461768114
    },
    {
      "id": 39230,
      "geometry": "POINT (-98.779257 38.36207)",
      "poi_name": "Perkins",
      "osm_id": 2910216601,
      "amenity": "restaurant",
      "cuisine": "american",
      "official_name": "Perkins Restaurant and Bakery",
      "addr_city": "Great Bend",
      "addr_postcode": "67530",
      "addr_street": "10th Street",
      "addr_housenumber": "2920",
      "angle": 294.0219885852038
    },
    {
      "id": 46912,
      "geometry": "POINT (-97.445093 37.708343)",
      "poi_name": "Wichita Brewing Company",
      "osm_id": 3297968261,
      "amenity": "restaurant",
      "website": "https://wichitabrew.com/",
      "capacity": "92",
      "internet_access": "wlan",
      "phone": "+1-316-440-2885",
      "addr_street": "West 13th Street North",
      "addr_housenumber": "8815",
      "angle": 132.56808724552943
    },
    {
      "id": 40728,
      "geometry": "POINT (-97.337209 38.014724)",
      "poi_name": "Great Wall Chineese",
      "osm_id": 2980424392,
      "amenity": "restaurant",
      "cuisine": "chinese",
      "addr_street": "South Kansas Avenue",
      "addr_housenumber": "2305",
      "angle": 96.49486896181733
    },
    {
      "id": 43265,
      "geometry": "POINT (-97.53616 38.376516)",
      "poi_name": "56 Family Restaurant",
      "osm_id": 3103168169,
      "amenity": "restaurant",
      "opening_hours": "Mo-We 06:00-14:00, Th-Sa 06:00-20:00",
      "phone": "+1-620-654-3500",
      "addr_city": "Galva",
      "addr_postcode": "67443",
      "angle": 46.03730611267563
    },
    {
      "id": 35889,
      "geometry": "POINT (-97.597376 38.826395)",
      "poi_name": "Imperial Garden Express",
      "osm_id": 2735769083,
      "amenity": "restaurant",
      "cuisine": "chinese",
      "website": "http://imperialexpresssalina.com/",
      "addr_street": "East Crawford Street",
      "addr_housenumber": "844",
      "angle": 19.516738255923357
    },
    {
      "id": 46814,
      "geometry": "POINT (-97.428303 37.69401)",
      "poi_name": "Knolla's Pizza Cafe",
      "osm_id": 3293621261,
      "amenity": "restaurant",
      "website": "https://knollaspizza.com/",
      "phone": "+1-316-773-4496",
      "addr_postcode": "67212",
      "addr_street": "West Central Avenue",
      "addr_housenumber": "7343",
      "angle": 132.71569750815746
    },
    {
      "id": 47934,
      "geometry": "POINT (-96.210977 38.406108)",
      "poi_name": "El Lorito",
      "osm_id": 3356351473,
      "amenity": "restaurant",
      "cuisine": "mexican",
      "opening_hours": "Mo-Th 11:00-21:00; Fr,Sa 11:00-22:00; Su 11:00-15:00",
      "addr_state": "KS",
      "addr_city": "Emporia",
      "addr_postcode": "66801",
      "addr_street": "West U.S. Hwy 50",
      "addr_housenumber": "2144",
      "angle": 75.64313854054153
    },
    {
      "id": 51149,
      "geometry": "POINT (-97.624103 38.372043)",
      "poi_name": "Pizza Hut",
      "osm_id": 514970318,
      "amenity": "restaurant",
      "cuisine": "pizza",
      "addr_city": "McPherson",
      "addr_postcode": "67460",
      "addr_street": "East Kansas Avenue",
      "addr_housenumber": "2215",
      "angle": 39.485189740317
    },
    {
      "id": 50969,
      "geometry": "POINT (-97.421746 38.145176)",
      "poi_name": "Pizza Hut",
      "osm_id": 497473973,
      "amenity": "restaurant",
      "cuisine": "pizza",
      "addr_state": "KS",
      "addr_city": "Hesston",
      "angle": 79.51514861804807
    },
    {
      "id": 50970,
      "geometry": "POINT (-97.426596 37.675608)",
      "poi_name": "Carlos O'Kelly's",
      "osm_id": 498217913,
      "amenity": "restaurant",
      "cuisine": "mexican",
      "angle": 133.9811690627655
    },
    {
      "id": 51150,
      "geometry": "POINT (-97.625278 38.371725)",
      "poi_name": "Montana Mike's",
      "osm_id": 514970356,
      "amenity": "restaurant",
      "angle": 39.41051714765198
    },
    {
      "id": 55068,
      "geometry": "POINT (-96.162546 37.979118)",
      "poi_name": "Holmes Sundry Restaurant & Drugstore",
      "osm_id": 10170204291,
      "amenity": "restaurant",
      "angle": 93.17339782651939
    },
    {
      "id": 51195,
      "geometry": "POINT (-97.345294 38.044622)",
      "poi_name": "The Bread Basket",
      "osm_id": 518253646,
      "amenity": "restaurant",
      "opening_hours": "Mo-Th 06:30-17:30; Fr 06:30-20:00; Sa,Su 10:30-14:00",
      "addr_city": "Newton",
      "addr_postcode": "67114",
      "addr_street": "North Main Street",
      "addr_housenumber": "219",
      "angle": 92.97449465654711
    },
    {
      "id": 51222,
      "geometry": "POINT (-97.337831 38.030148)",
      "poi_name": "Pizza Hut",
      "osm_id": 522227611,
      "amenity": "restaurant",
      "cuisine": "pizza",
      "addr_state": "KS",
      "addr_city": "Newton",
      "angle": 94.66581840918523
    },
    {
      "id": 51266,
      "geometry": "POINT (-97.348445 38.049655)",
      "poi_name": "Acapulco Mexican Restaurant",
      "osm_id": 528022728,
      "amenity": "restaurant",
      "addr_state": "KS",
      "addr_city": "Newton",
      "angle": 92.377436058443
    },
    {
      "id": 55069,
      "geometry": "POINT (-96.164049 37.980558)",
      "poi_name": "Linda's Diner",
      "osm_id": 10170204294,
      "amenity": "restaurant",
      "angle": 93.1185292978886
    },
    {
      "id": 61951,
      "geometry": "POINT (-96.179857 38.41177)",
      "poi_name": "Mi Chavelita Mexican Grill",
      "osm_id": 5543479431,
      "amenity": "restaurant",
      "cuisine": "mexican",
      "opening_hours": "Mo-Sa 11:00-20:00",
      "website": "https://www.michavelitamexicangrill.com/",
      "phone": "+1-620-208-8220",
      "takeaway": "yes",
      "addr_state": "KS",
      "addr_city": "Emporia",
      "addr_postcode": "66801",
      "addr_street": "Commercial Street",
      "addr_housenumber": "1120",
      "angle": 75.64764669187201
    },
    {
      "id": 56923,
      "geometry": "POINT (-97.201251 37.730218)",
      "poi_name": "Dave & Buster's",
      "osm_id": 10253351258,
      "amenity": "restaurant",
      "cuisine": "american",
      "leisure": "amusement_arcade",
      "website": "https://www.daveandbusters.com/us/en/about/locations/wichita",
      "phone": "+1-316-796-8550",
      "addr_state": "KS",
      "addr_city": "Wichita",
      "addr_postcode": "67226",
      "addr_street": "North Greenwich Court",
      "addr_housenumber": "2644",
      "angle": 119.94543870691916
    },
    {
      "id": 57985,
      "geometry": "POINT (-97.463187 37.7298)",
      "poi_name": "Bella Luna Cafe",
      "osm_id": 5358082511,
      "amenity": "restaurant",
      "cuisine": "mediterranean",
      "website": "https://www.bellalunacafe.com/locations",
      "angle": 131.8981486150745
    },
    {
      "id": 58417,
      "geometry": "POINT (-97.245186 37.722342)",
      "poi_name": "Pizza Hut",
      "osm_id": 5374158239,
      "amenity": "restaurant",
      "cuisine": "pizza",
      "angle": 122.09577813770014
    },
    {
      "id": 67911,
      "geometry": "POINT (-97.446579 37.722505)",
      "poi_name": "Pizza Ranch",
      "osm_id": 11252020070,
      "amenity": "restaurant",
      "website": "https://pizzaranch.com/locations/ks/wichita/2121-n--tyler-rd",
      "phone": "+1-316-867-2007",
      "addr_street": "North Tyler Road",
      "addr_housenumber": "2121",
      "angle": 131.5199875130747
    },
    {
      "id": 63445,
      "geometry": "POINT (-97.938548 38.014124)",
      "poi_name": "Davills Bar & Grill",
      "osm_id": 5615528796,
      "amenity": "restaurant",
      "angle": 178.79230107117928
    },
    {
      "id": 64977,
      "geometry": "POINT (-97.24402 37.71733)",
      "poi_name": "Red Rock Canyon",
      "osm_id": 5680067001,
      "amenity": "restaurant",
      "cuisine": "american",
      "website": "https://www.redrockcanyongrill.com/",
      "addr_state": "KS",
      "addr_city": "Wichita",
      "addr_postcode": "67206",
      "addr_street": "North Rock Road",
      "addr_housenumber": "1844",
      "angle": 122.42186057838121
    },
    {
      "id": 68108,
      "geometry": "POINT (-97.360501 37.722351)",
      "poi_name": "Huddle House",
      "osm_id": 11261332608,
      "amenity": "restaurant",
      "cuisine": "american",
      "angle": 126.99179907009993
    },
    {
      "id": 68212,
      "geometry": "POINT (-97.345707 37.684414)",
      "poi_name": "Milkfloat",
      "osm_id": 11263576952,
      "amenity": "restaurant",
      "cuisine": "coffee_shop",
      "addr_state": "KS",
      "addr_city": "Wichita",
      "addr_postcode": "67213",
      "addr_street": "West Douglas Avenue",
      "addr_housenumber": "535",
      "angle": 129.1580406958679
    },
    {
      "id": 68214,
      "geometry": "POINT (-97.32744 37.689235)",
      "poi_name": "Eggcetera",
      "osm_id": 11263639525,
      "amenity": "restaurant",
      "addr_state": "KS",
      "addr_city": "Wichita",
      "addr_postcode": "67211",
      "addr_street": "North Mosley",
      "addr_housenumber": "242",
      "angle": 127.95548721829752
    },
    {
      "id": 68376,
      "geometry": "POINT (-97.261466 37.694984)",
      "poi_name": "Yokohama Ramen",
      "osm_id": 11267671560,
      "amenity": "restaurant",
      "cuisine": "ramen",
      "addr_street": "East Central Avenue",
      "addr_housenumber": "6434",
      "angle": 124.71875483012008
    },
    {
      "id": 68378,
      "geometry": "POINT (-97.268083 37.697359)",
      "poi_name": "Sak\u00e9 Steak House & Sushi",
      "osm_id": 11267671887,
      "amenity": "restaurant",
      "cuisine": "japanese;sushi",
      "opening_hours": "Mo-Th 11:00-14:30,16:30-22:00; Fr 11:00-14:30,16:30-23:00; Sa 12:00-23:00; Su 12:00-22:00",
      "angle": 124.81422616289166
    },
    {
      "id": 68379,
      "geometry": "POINT (-97.267898 37.696982)",
      "poi_name": "Thai Tradition",
      "osm_id": 11267671889,
      "amenity": "restaurant",
      "cuisine": "thai",
      "opening_hours": "Mo-Fr 11:00-21:30; Sa 12:00-21:30",
      "angle": 124.83392629829234
    },
    {
      "id": 68380,
      "geometry": "POINT (-97.273525 37.694162)",
      "poi_name": "Local Flavor Grill & Tapworks",
      "osm_id": 11267671921,
      "amenity": "restaurant",
      "cuisine": "burger;barbecue;tacos",
      "angle": 125.26524340506036
    },
    {
      "id": 69791,
      "geometry": "POINT (-97.243377 37.564829)",
      "poi_name": "Olive Garden",
      "osm_id": 11331401312,
      "amenity": "restaurant",
      "cuisine": "italian",
      "angle": 132.2473252808132
    },
    {
      "id": 69793,
      "geometry": "POINT (-97.243462 37.5669)",
      "poi_name": "IHOP",
      "osm_id": 11331401317,
      "amenity": "restaurant",
      "cuisine": "breakfast;pancake",
      "angle": 132.134195413774
    },
    {
      "id": 69794,
      "geometry": "POINT (-97.243522 37.56743)",
      "poi_name": "Buffalo Wild Wings",
      "osm_id": 11331401318,
      "amenity": "restaurant",
      "cuisine": "wings",
      "angle": 132.10673897587762
    },
    {
      "id": 69798,
      "geometry": "POINT (-97.245037 37.572472)",
      "poi_name": "McAlister's Deli",
      "osm_id": 11331401328,
      "amenity": "restaurant",
      "cuisine": "sandwich",
      "angle": 131.88303244144512
    },
    {
      "id": 78630,
      "geometry": "POINT (-97.28533 37.663997)",
      "poi_name": "Ourr's",
      "osm_id": 761332313,
      "amenity": "restaurant",
      "angle": 127.87118262989132
    },
    {
      "id": 78633,
      "geometry": "POINT (-97.288634 37.665041)",
      "poi_name": "Denny's",
      "osm_id": 761334419,
      "amenity": "restaurant",
      "cuisine": "american",
      "angle": 127.94160132182544
    },
    {
      "id": 79953,
      "geometry": "POINT (-97.213223 38.93371)",
      "poi_name": "Pizza Hut",
      "osm_id": 838291835,
      "amenity": "restaurant",
      "cuisine": "pizza",
      "addr_city": "Abilene",
      "addr_postcode": "67410",
      "addr_street": "North Buckeye Avenue",
      "addr_housenumber": "1703",
      "angle": 33.26747660214576
    },
    {
      "id": 79955,
      "geometry": "POINT (-97.443282 37.672044)",
      "poi_name": "Tuta's Teriyaki Restaurant",
      "osm_id": 838291973,
      "amenity": "restaurant",
      "cuisine": "japanese",
      "angle": 135.18930304395843
    },
    {
      "id": 81710,
      "geometry": "POINT (-97.352522 37.683786)",
      "poi_name": "La Galette Cafe",
      "osm_id": 1658619161,
      "amenity": "restaurant",
      "cuisine": "french",
      "website": "http://facebook.com/pages/La-Galette-French-Bakery/179827677750",
      "addr_postcode": "67213",
      "addr_street": "West Douglas Avenue",
      "addr_housenumber": "1017",
      "angle": 129.53010231060486
    },
    {
      "id": 80956,
      "geometry": "POINT (-97.325912 37.707735)",
      "poi_name": "Pig In! Pig Out!",
      "osm_id": 1593448837,
      "amenity": "restaurant",
      "angle": 126.51464185205727
    },
    {
      "id": 80957,
      "geometry": "POINT (-97.326769 37.691359)",
      "poi_name": "B&C Creations",
      "osm_id": 1593454864,
      "amenity": "restaurant",
      "addr_city": "Wichita",
      "addr_postcode": "67202",
      "addr_street": "North Washington Avenue",
      "addr_housenumber": "355",
      "angle": 127.76992428254077
    },
    {
      "id": 80929,
      "geometry": "POINT (-97.160858 37.287995)",
      "poi_name": "Old Oxford Mill",
      "osm_id": 1589005058,
      "amenity": "restaurant",
      "cuisine": "american",
      "angle": 141.4047077097852
    },
    {
      "id": 80931,
      "geometry": "POINT (-97.481456 37.678323)",
      "poi_name": "Shorty Small's",
      "osm_id": 1589054768,
      "amenity": "restaurant",
      "angle": 137.0358356500005
    },
    {
      "id": 80932,
      "geometry": "POINT (-97.465403 37.678486)",
      "poi_name": "Pizza Hut",
      "osm_id": 1589055014,
      "amenity": "restaurant",
      "cuisine": "pizza",
      "angle": 136.03520274839508
    },
    {
      "id": 81703,
      "geometry": "POINT (-97.290054 37.664195)",
      "poi_name": "Shanghai Chinese Restaurant",
      "osm_id": 1657273777,
      "amenity": "restaurant",
      "cuisine": "chinese",
      "addr_postcode": "67218-3722",
      "addr_street": "East Harry Street",
      "addr_housenumber": "3815",
      "angle": 128.0606775427978
    },
    {
      "id": 81735,
      "geometry": "POINT (-97.316827 37.650201)",
      "poi_name": "Pizza Hut",
      "osm_id": 1660355355,
      "amenity": "restaurant",
      "cuisine": "pizza",
      "addr_postcode": "67211",
      "addr_street": "E. Pawnee St.",
      "addr_housenumber": "1708",
      "angle": 130.19809589889323
    },
    {
      "id": 81958,
      "geometry": "POINT (-97.261746 37.751009)",
      "poi_name": "Two Brothers BBQ Woodlawn",
      "osm_id": 1671589650,
      "amenity": "restaurant",
      "cuisine": "regional",
      "addr_street": "North Woodlawn Street",
      "addr_housenumber": "3750",
      "angle": 120.5282021523873
    },
    {
      "id": 83219,
      "geometry": "POINT (-97.327322 37.68623)",
      "poi_name": "Larkspur",
      "osm_id": 1734899666,
      "amenity": "restaurant",
      "cuisine": "american",
      "addr_city": "Wichita",
      "addr_street": "East Douglas Avenue",
      "addr_housenumber": "904",
      "angle": 128.16811826167088
    },
    {
      "id": 85617,
      "geometry": "POINT (-96.824929 39.014782)",
      "poi_name": "IHOP",
      "osm_id": 1884660881,
      "amenity": "restaurant",
      "cuisine": "breakfast;pancake",
      "addr_city": "Junction City",
      "addr_postcode": "66441",
      "addr_street": "Ash Street",
      "addr_housenumber": "321",
      "angle": 42.50045949372076
    },
    {
      "id": 83782,
      "geometry": "POINT (-96.490967 38.660724)",
      "poi_name": "El Rancho Viejo",
      "osm_id": 1766890484,
      "amenity": "restaurant",
      "cuisine": "mexican",
      "opening_hours": "Mo-Th 11:00-21:00; Fr-Sa 11:00-21:30; Su 11:00-20:00",
      "phone": "+1-620-767-6405",
      "addr_state": "KS",
      "addr_city": "Council Grove",
      "addr_postcode": "66846",
      "addr_street": "West Main Street",
      "addr_housenumber": "209",
      "angle": 62.19998510083174
    },
    {
      "id": 84416,
      "geometry": "POINT (-97.675609 38.572625)",
      "poi_name": "OL Stuga",
      "osm_id": 1789594707,
      "amenity": "restaurant",
      "cuisine": "sandwich",
      "addr_city": "Lindsborg",
      "addr_postcode": "67456",
      "addr_street": "South Main Street",
      "addr_housenumber": "119",
      "angle": 22.453942012365157
    },
    {
      "id": 84928,
      "geometry": "POINT (-97.423893 37.693779)",
      "poi_name": "When Pigs Fly Bar-B-Que",
      "osm_id": 1825862010,
      "amenity": "restaurant",
      "angle": 132.4867357297418
    },
    {
      "id": 89149,
      "geometry": "POINT (-97.347845 37.683825)",
      "poi_name": "Picasso's Pizzeria",
      "osm_id": 8828507229,
      "amenity": "restaurant",
      "description": "Welcome to Picasso's Pizzeria! Serving New York Style Thin Crust slices from our 26\" pizza baked in a brick oven. Our sauce and dough are made fresh daily. Custom make your own slice. We are locally owned and family run.",
      "opening_hours": "Tu-Th 11:00-21:00; Fr, Sa 11:00-22:00; Su 11:00-20:00",
      "website": "https://picassospizzerias.com/",
      "phone": "+1-316-267-5423",
      "addr_street": "West Douglas Avenue",
      "addr_housenumber": "621",
      "angle": 129.30271333398278
    },
    {
      "id": 95970,
      "geometry": "POINT (-97.610506 38.841473)",
      "poi_name": "The Scheme Pizza Restaurant and Bar",
      "osm_id": 6417120066,
      "amenity": "restaurant",
      "cuisine": "pizza",
      "angle": 18.477074989578306
    },
    {
      "id": 90438,
      "geometry": "POINT (-97.329584 37.690086)",
      "poi_name": "Sabor Latin Bar & Grille",
      "osm_id": 1997192228,
      "amenity": "restaurant",
      "cuisine": "latin_american",
      "website": "http://saborgrillwichita.com/",
      "phone": "+1-316-201-4880",
      "addr_postcode": "67202",
      "addr_street": "North Mead Street",
      "addr_housenumber": "309",
      "angle": 127.99172183223337
    },
    {
      "id": 93211,
      "geometry": "POINT (-96.996829 37.235024)",
      "poi_name": "Gambino's Pizza",
      "osm_id": 2156857330,
      "amenity": "restaurant",
      "cuisine": "pizza",
      "addr_postcode": "67156",
      "addr_street": "Main Street",
      "addr_housenumber": "1400",
      "angle": 137.80187838813572
    },
    {
      "id": 93524,
      "geometry": "POINT (-96.710397 39.115701)",
      "poi_name": "Ogden's Backyard Bar-B-Que",
      "osm_id": 2169330671,
      "amenity": "restaurant",
      "phone": "+1-785-539-4210",
      "addr_street": "Riley Avenue",
      "addr_housenumber": "304",
      "angle": 42.336519042317974
    },
    {
      "id": 93533,
      "geometry": "POINT (-96.830741 39.029155)",
      "poi_name": "Negril Caribbean Restaurant",
      "osm_id": 2169710473,
      "amenity": "restaurant",
      "phone": "+1-785-238-1086",
      "addr_street": "West 7th Street",
      "addr_housenumber": "127",
      "angle": 41.918992220449496
    },
    {
      "id": 93535,
      "geometry": "POINT (-96.834738 39.02854)",
      "poi_name": "El Tapatio",
      "osm_id": 2169788299,
      "amenity": "restaurant",
      "cuisine": "mexican",
      "internet_access": "wlan",
      "phone": "+1-785-238-3461",
      "addr_street": "West 6th Street",
      "addr_housenumber": "322",
      "angle": 41.83571828436986
    },
    {
      "id": 93931,
      "geometry": "POINT (-97.216327 38.917452)",
      "poi_name": "Tossed n Sauced Pizza",
      "osm_id": 2193470961,
      "amenity": "restaurant",
      "cuisine": "pizza",
      "angle": 33.661164116444915
    },
    {
      "id": 92982,
      "geometry": "POINT (-97.049616 37.078914)",
      "poi_name": "The RedZone",
      "osm_id": 2143420457,
      "amenity": "restaurant",
      "cuisine": "american",
      "addr_postcode": "67005",
      "addr_street": "North 8th Street",
      "addr_housenumber": "1419",
      "angle": 144.1751559090412
    },
    {
      "id": 95976,
      "geometry": "POINT (-97.609421 38.837604)",
      "poi_name": "Old Chicago",
      "osm_id": 6417173183,
      "amenity": "restaurant",
      "cuisine": "pizza",
      "official_name": "Old Chicago Pizza & Taproom",
      "angle": 18.621616882258355
    },
    {
      "id": 95977,
      "geometry": "POINT (-97.608857 38.838832)",
      "poi_name": "Corkie's Diner",
      "osm_id": 6417173190,
      "amenity": "restaurant",
      "angle": 18.623094660178246
    },
    {
      "id": 103105,
      "geometry": "POINT (-97.205278 38.353137)",
      "poi_name": "Panda Kitchen",
      "osm_id": 8482128660,
      "amenity": "restaurant",
      "cuisine": "chinese",
      "angle": 63.78788931343468
    },
    {
      "id": 97148,
      "geometry": "POINT (-97.245927 37.665063)",
      "poi_name": "Jackie Chan Sushi",
      "osm_id": 6464825888,
      "amenity": "restaurant",
      "cuisine": "japanese",
      "angle": 126.17407848819347
    },
    {
      "id": 102924,
      "geometry": "POINT (-97.207199 37.724656)",
      "poi_name": "Oak & Pie",
      "osm_id": 8465062564,
      "amenity": "restaurant",
      "website": "https://oakandpiewichita.com/",
      "phone": "+1-316-768-6900",
      "addr_street": "North Greenwich Road",
      "addr_housenumber": "2244",
      "angle": 120.55471786634924
    },
    {
      "id": 109202,
      "geometry": "POINT (-97.345319 38.049231)",
      "poi_name": "Norm's Coffee Bar",
      "osm_id": 3654645211,
      "amenity": "restaurant",
      "cuisine": "coffee_shop",
      "angle": 92.41457358841888
    },
    {
      "id": 104055,
      "geometry": "POINT (-97.245332 37.720033)",
      "poi_name": "Bricktown Brewery",
      "osm_id": 8542457654,
      "amenity": "restaurant",
      "description": "Vibrant brewhouse offering hearty burgers and other American eats, plus a range of craft brews on tap.",
      "opening_hours": "Mo-Th, Su 11:00-21:00; Fr, Sa 11:00-22:00",
      "website": "https://bricktownbrewery.alohaorderonline.com/Mobile/Pickup/Retail?lat=37.76177029999999&lng=-97.4447469",
      "phone": "+1-316-440-3438",
      "addr_street": "North Rock Road",
      "addr_housenumber": "2035",
      "angle": 122.27214570152694
    },
    {
      "id": 105645,
      "geometry": "POINT (-97.347453 37.683803)",
      "poi_name": "Yokohama Ramen",
      "osm_id": 8638460963,
      "amenity": "restaurant",
      "cuisine": "japanese",
      "angle": 129.28558732651538
    },
    {
      "id": 105648,
      "geometry": "POINT (-97.245064 37.691322)",
      "poi_name": "Olive Garden",
      "osm_id": 8638460977,
      "amenity": "restaurant",
      "cuisine": "italian",
      "angle": 124.33265585252924
    },
    {
      "id": 105649,
      "geometry": "POINT (-97.242901 37.718203)",
      "poi_name": "HomeGrown",
      "osm_id": 8638460979,
      "amenity": "restaurant",
      "cuisine": "breakfast",
      "angle": 122.31557605392601
    },
    {
      "id": 105650,
      "geometry": "POINT (-97.243019 37.722298)",
      "poi_name": "YaYa's Euro Bistro",
      "osm_id": 8638460986,
      "amenity": "restaurant",
      "angle": 122.01774953174203
    },
    {
      "id": 105651,
      "geometry": "POINT (-97.206672 37.677501)",
      "poi_name": "El Rincon Mexican",
      "osm_id": 8638460992,
      "amenity": "restaurant",
      "cuisine": "mexican",
      "angle": 123.83889406484826
    },
    {
      "id": 111732,
      "geometry": "POINT (-96.94565 38.667011)",
      "poi_name": "Panda Kitchen",
      "osm_id": 3761158325,
      "amenity": "restaurant",
      "angle": 52.38962211642249
    },
    {
      "id": 109729,
      "geometry": "POINT (-97.245508 37.678398)",
      "poi_name": "Green Mill",
      "osm_id": 3671135258,
      "amenity": "restaurant",
      "cuisine": "pizza",
      "addr_city": "Wichita",
      "addr_postcode": "67207",
      "angle": 125.24969400946554
    },
    {
      "id": 133704,
      "geometry": "POINT (-97.296718 37.867419)",
      "poi_name": "Elderslie Farms Restaurant",
      "osm_id": 10004766147,
      "amenity": "restaurant",
      "angle": 111.54804672066388
    },
    {
      "id": 122309,
      "geometry": "POINT (-97.2468 37.722461)",
      "poi_name": "Malaysia Cafe",
      "osm_id": 6796131930,
      "amenity": "restaurant",
      "cuisine": "asian",
      "opening_hours": "Mo-Sa 11:00-20:30",
      "phone": "+1-316-685-8838",
      "takeaway": "yes",
      "addr_city": "Wichita",
      "addr_postcode": "67206",
      "addr_street": "East 21st Street North",
      "addr_housenumber": "7777",
      "angle": 122.14764544185584
    },
    {
      "id": 145865,
      "geometry": "POINT (-98.216324 38.739175)",
      "poi_name": "Ellsworth Steakhose",
      "osm_id": 7393333375,
      "amenity": "restaurant",
      "angle": 342.0740374270298
    },
    {
      "id": 135037,
      "geometry": "POINT (-96.181056 38.402782)",
      "poi_name": "Casa Ramos",
      "osm_id": 11501895091,
      "amenity": "restaurant",
      "cuisine": "mexican",
      "opening_hours": "Su-Th 11:00-21:00; Fr-Sa 11:00-23:00",
      "phone": "+1-620-340-0640",
      "addr_state": "KS",
      "addr_city": "Emporia",
      "addr_postcode": "66801",
      "addr_street": "West 4th Avenue",
      "addr_housenumber": "402",
      "angle": 75.99038220169014
    },
    {
      "id": 135851,
      "geometry": "POINT (-99.328908 38.869322)",
      "poi_name": "Verdant Bistro",
      "osm_id": 11539162038,
      "amenity": "restaurant",
      "website": "https://www.verdantbistro.com/",
      "phone": "+1-785-621-5040",
      "addr_state": "KS",
      "addr_city": "Hays",
      "addr_postcode": "67601",
      "addr_street": "East 8th Street",
      "addr_housenumber": "230",
      "angle": 306.6175759384733
    },
    {
      "id": 141394,
      "geometry": "POINT (-96.491244 38.66104)",
      "poi_name": "Grand Fortuna Chinese Restaurant",
      "osm_id": 6283595559,
      "amenity": "restaurant",
      "cuisine": "chinese",
      "angle": 62.183053078564456
    },
    {
      "id": 140389,
      "geometry": "POINT (-97.245868 37.694783)",
      "poi_name": "Knolla's Pizza",
      "osm_id": 6245195572,
      "amenity": "restaurant",
      "cuisine": "pizza",
      "addr_city": "Wichita",
      "addr_postcode": "66206",
      "addr_street": "East Central Avenue",
      "addr_housenumber": "7732",
      "angle": 124.11944272518137
    },
    {
      "id": 146876,
      "geometry": "POINT (-97.316866 37.686368)",
      "poi_name": "Piatto Neapolitan Pizzeria",
      "osm_id": 7485786336,
      "amenity": "restaurant",
      "cuisine": "pizza",
      "website": "http://www.piattoict.com/restaurant",
      "phone": "+1-316-866-6525",
      "addr_state": "KS",
      "addr_city": "Wichita",
      "addr_postcode": "67211",
      "addr_street": "East Douglas Avenue",
      "addr_housenumber": "1706",
      "angle": 127.6841727430005
    },
    {
      "id": 153273,
      "geometry": "POINT (-97.613838 38.787626)",
      "poi_name": "Olive Garden",
      "osm_id": 4188736791,
      "amenity": "restaurant",
      "cuisine": "italian",
      "addr_city": "Salina",
      "addr_postcode": "67401",
      "addr_street": "South 9th Street",
      "addr_housenumber": "2820",
      "angle": 19.589007378490223
    },
    {
      "id": 149411,
      "geometry": "POINT (-97.297507 37.686475)",
      "poi_name": "Lizzie's Delights Catering & Deli",
      "osm_id": 4006978659,
      "amenity": "restaurant",
      "angle": 126.82442915673931
    },
    {
      "id": 149594,
      "geometry": "POINT (-97.316778 37.685934)",
      "poi_name": "Jimmy's Egg",
      "osm_id": 4015944238,
      "amenity": "restaurant",
      "addr_city": "Wichita",
      "addr_postcode": "67211",
      "addr_street": "South Hydraulic Street",
      "addr_housenumber": "106",
      "angle": 127.71151806660991
    },
    {
      "id": 149595,
      "geometry": "POINT (-97.316358 37.685996)",
      "poi_name": "Tanya's Soup Kitchen",
      "osm_id": 4015944241,
      "amenity": "restaurant",
      "opening_hours": "Mo-Th 11:00-15:00; Fr,Sa 11:00-15:00,17:00-20:00",
      "website": "https://www.tskwichita.com/",
      "addr_city": "Wichita",
      "addr_postcode": "67211",
      "addr_street": "East Douglas Avenue",
      "addr_housenumber": "1725",
      "angle": 127.68820406875363
    },
    {
      "id": 150504,
      "geometry": "POINT (-97.348653 37.684162)",
      "poi_name": "Delano Barbeque Company",
      "osm_id": 4057414811,
      "amenity": "restaurant",
      "cuisine": "barbecue",
      "addr_city": "Wichita",
      "addr_street": "West Douglas Avenue",
      "addr_housenumber": "710",
      "angle": 129.316897859717
    },
    {
      "id": 150505,
      "geometry": "POINT (-97.348303 37.684158)",
      "poi_name": "Pizza Hut",
      "osm_id": 4057414814,
      "amenity": "restaurant",
      "cuisine": "pizza",
      "angle": 129.30048967971956
    },
    {
      "id": 150844,
      "geometry": "POINT (-97.388689 37.685307)",
      "poi_name": "Bella Vita Bistro",
      "osm_id": 4070999586,
      "amenity": "restaurant",
      "angle": 131.22796731364463
    },
    {
      "id": 151648,
      "geometry": "POINT (-97.609311 38.841282)",
      "poi_name": "Luna Bella",
      "osm_id": 4108192493,
      "amenity": "restaurant",
      "cuisine": "mexican",
      "phone": "+1-785-829-8686",
      "addr_city": "Salina",
      "addr_street": "North Santa Fe Avenue",
      "addr_housenumber": "117",
      "angle": 18.54374916512836
    },
    {
      "id": 151782,
      "geometry": "POINT (-96.538872 38.395073)",
      "poi_name": "Ad Astra",
      "osm_id": 4113154989,
      "amenity": "restaurant",
      "opening_hours": "Fr-Sa 11:00-22:00; Su 11:00-21:00",
      "angle": 73.2041356252204
    },
    {
      "id": 149641,
      "geometry": "POINT (-97.326903 37.685886)",
      "poi_name": "District Taqueria",
      "osm_id": 4017530752,
      "amenity": "restaurant",
      "cuisine": "mexican",
      "addr_city": "Wichita",
      "addr_postcode": "67202",
      "addr_street": "East Douglas Avenue",
      "addr_housenumber": "917",
      "angle": 128.1738324926046
    },
    {
      "id": 149642,
      "geometry": "POINT (-97.32702 37.686247)",
      "poi_name": "Wasabi",
      "osm_id": 4017530755,
      "amenity": "restaurant",
      "cuisine": "sushi",
      "addr_state": "KS",
      "addr_city": "Wichita",
      "addr_postcode": "67202",
      "addr_street": "East Douglas Avenue",
      "addr_housenumber": "914",
      "angle": 128.15306759204918
    },
    {
      "id": 153261,
      "geometry": "POINT (-97.615054 38.793096)",
      "poi_name": "Buffalo Wild Wings",
      "osm_id": 4186889277,
      "amenity": "restaurant",
      "cuisine": "wings",
      "addr_city": "Salina",
      "addr_postcode": "67401",
      "addr_street": "South 9th Street",
      "addr_housenumber": "2580",
      "angle": 19.383552549540866
    },
    {
      "id": 155766,
      "geometry": "POINT (-97.328684 37.689943)",
      "poi_name": "Old Chicago",
      "osm_id": 4301266460,
      "amenity": "restaurant",
      "cuisine": "pizza",
      "opening_hours": "Su-Th 11:00-25:00; Fr-Sa 11:00-25:00",
      "website": "https://oldchicago.com/locations/wichita-old-town",
      "phone": "+1-316-264-2057",
      "official_name": "Old Chicago Pizza & Taproom",
      "addr_state": "KS",
      "addr_city": "Wichita",
      "addr_postcode": "67202",
      "addr_street": "North Mead Street",
      "addr_housenumber": "300",
      "angle": 127.9608643083723
    },
    {
      "id": 155771,
      "geometry": "POINT (-97.346651 37.683896)",
      "poi_name": "The Monarch",
      "osm_id": 4301277721,
      "amenity": "restaurant",
      "cuisine": "burger",
      "angle": 129.24059126942166
    },
    {
      "id": 156496,
      "geometry": "POINT (-97.668039 38.368723)",
      "poi_name": "Knackies",
      "osm_id": 4661093801,
      "amenity": "restaurant",
      "cuisine": "barbecue",
      "takeaway": "yes",
      "outdoor_seating": "no",
      "delivery": "no",
      "addr_state": "KS",
      "addr_city": "McPherson",
      "addr_postcode": "67460",
      "addr_street": "South Maple Street",
      "addr_housenumber": "111",
      "angle": 35.659955876160545
    },
    {
      "id": 155797,
      "geometry": "POINT (-97.350974 37.636767)",
      "poi_name": "Tacos Y Mariscos Guadalajara",
      "osm_id": 4302448193,
      "amenity": "restaurant",
      "angle": 132.70336852513066
    },
    {
      "id": 155799,
      "geometry": "POINT (-97.352318 37.644013)",
      "poi_name": "Country Cafe",
      "osm_id": 4302496390,
      "amenity": "restaurant",
      "angle": 132.28941641922773
    },
    {
      "id": 156497,
      "geometry": "POINT (-97.675779 38.369158)",
      "poi_name": "J D's Kwik Burger",
      "osm_id": 4661093802,
      "amenity": "restaurant",
      "cuisine": "burger",
      "takeaway": "yes",
      "addr_state": "KS",
      "addr_city": "McPherson",
      "addr_postcode": "67460",
      "addr_street": "West Kansas Avenue",
      "addr_housenumber": "629",
      "angle": 34.84253221990782
    },
    {
      "id": 157776,
      "geometry": "POINT (-98.17568 37.896689)",
      "poi_name": "Carolyn's Essenhaus",
      "osm_id": 4725152005,
      "amenity": "restaurant",
      "cuisine": "american",
      "opening_hours": "Mo-Fr 06:00-20:30; Sa 06:00-14:30; Su 06:00-10:30",
      "website": "https://www.carolynsessenhaus.net/",
      "addr_city": "Arlington",
      "addr_postcode": "67514",
      "addr_street": "West Main Street",
      "addr_housenumber": "104",
      "angle": 227.07798003224593
    },
    {
      "id": 157777,
      "geometry": "POINT (-98.176668 37.8967)",
      "poi_name": "Cara's Cafe & Pizzeria",
      "osm_id": 4725152006,
      "amenity": "restaurant",
      "cuisine": "pizza",
      "delivery": "no",
      "addr_city": "Arlington",
      "addr_postcode": "67514",
      "addr_street": "West Main Street",
      "addr_housenumber": "114",
      "angle": 227.19968250206523
    },
    {
      "id": 157778,
      "geometry": "POINT (-98.100512 37.646833)",
      "poi_name": "Pizza Hut",
      "osm_id": 4725167203,
      "amenity": "restaurant",
      "cuisine": "pizza",
      "angle": 196.7608931601235
    },
    {
      "id": 160759,
      "geometry": "POINT (-97.243821 37.56195)",
      "poi_name": "Rib Crib",
      "osm_id": 4846371568,
      "amenity": "restaurant",
      "website": "https://ribcrib.com/locations/?location=derby",
      "angle": 132.4271687713852
    },
    {
      "id": 157845,
      "geometry": "POINT (-98.78259 38.361438)",
      "poi_name": "Applebee's",
      "osm_id": 4727106435,
      "amenity": "restaurant",
      "cuisine": "american",
      "official_name": "Applebee's Neighborhood Grill & Bar",
      "addr_state": "KS",
      "addr_city": "Great Bend",
      "addr_postcode": "67530",
      "addr_street": "10th Street",
      "addr_housenumber": "3209",
      "angle": 293.89357276446447
    },
    {
      "id": 160760,
      "geometry": "POINT (-97.243694 37.557639)",
      "poi_name": "Village Inn",
      "osm_id": 4846371569,
      "amenity": "restaurant",
      "cuisine": "american",
      "opening_hours": "Mo-Su 06:00-21:00",
      "addr_city": "Derby",
      "addr_postcode": "67037",
      "addr_street": "North Rock Road",
      "addr_housenumber": "1200",
      "angle": 132.66211396060143
    },
    {
      "id": 160761,
      "geometry": "POINT (-97.245028 37.558483)",
      "poi_name": "Applebee's",
      "osm_id": 4846371570,
      "amenity": "restaurant",
      "cuisine": "american",
      "official_name": "Applebee's Neighborhood Grill & Bar",
      "addr_city": "Derby",
      "addr_postcode": "67037",
      "addr_street": "North Rock Road",
      "addr_housenumber": "1245",
      "angle": 132.6704016956342
    },
    {
      "id": 165493,
      "geometry": "POINT (-97.243849 37.690359)",
      "poi_name": "Ninza Sushi Bar",
      "osm_id": 9538708649,
      "amenity": "restaurant",
      "cuisine": "sushi",
      "angle": 124.35322837258352
    },
    {
      "id": 161962,
      "geometry": "POINT (-97.611975 38.800897)",
      "poi_name": "IHOP",
      "osm_id": 4908405953,
      "amenity": "restaurant",
      "cuisine": "breakfast;pancake",
      "addr_city": "Salina",
      "addr_postcode": "67401",
      "addr_street": "South 9th Street",
      "addr_housenumber": "2273",
      "angle": 19.358014464856765
    },
    {
      "id": 170530,
      "geometry": "POINT (-99.328384 37.270251)",
      "poi_name": "Dave's Pizza Oven",
      "osm_id": 2340027867,
      "amenity": "restaurant",
      "opening_hours": "Mo-Su 11:00-21:30; Tu off; Fr,Sa 11:00-23:00",
      "website": "http://www.davespizzaoven.com",
      "addr_state": "KS",
      "addr_city": "Coldwater",
      "addr_postcode": "67029",
      "addr_street": "North Central Avenue",
      "addr_housenumber": "100",
      "angle": 234.47567110853083
    },
    {
      "id": 171238,
      "geometry": "POINT (-98.118968 39.480796)",
      "poi_name": "El Puertos Mexican Restaurant",
      "osm_id": 2366902814,
      "amenity": "restaurant",
      "angle": 354.3842241951143
    },
    {
      "id": 170752,
      "geometry": "POINT (-97.039243 37.062144)",
      "poi_name": "The Grinder Man",
      "osm_id": 2348609750,
      "amenity": "restaurant",
      "addr_city": "Arkansas City",
      "addr_postcode": "67005",
      "addr_street": "South Summit Street",
      "addr_housenumber": "101",
      "angle": 144.30942679963218
    },
    {
      "id": 171175,
      "geometry": "POINT (-98.149774 39.039495)",
      "poi_name": "Happy Days Diner",
      "osm_id": 2363940338,
      "amenity": "restaurant",
      "angle": 350.4193208436979
    },
    {
      "id": 177051,
      "geometry": "POINT (-96.219507 38.421118)",
      "poi_name": "Montana Mikes",
      "osm_id": 2572510614,
      "amenity": "restaurant",
      "cuisine": "american",
      "angle": 74.98271202968459
    },
    {
      "id": 174324,
      "geometry": "POINT (-97.61349 38.792222)",
      "poi_name": "Spangles",
      "osm_id": 2476133360,
      "amenity": "restaurant",
      "cuisine": "ice_cream;burger",
      "addr_city": "Salina",
      "addr_postcode": "67401",
      "addr_street": "South 9th Street",
      "addr_housenumber": "2630",
      "angle": 19.49173626238742
    },
    {
      "id": 174325,
      "geometry": "POINT (-97.613506 38.793386)",
      "poi_name": "LongHorn Steakhouse",
      "osm_id": 2476133980,
      "amenity": "restaurant",
      "cuisine": "steak_house",
      "addr_city": "Salina",
      "addr_postcode": "67401",
      "addr_street": "South 9th Street",
      "addr_housenumber": "2590",
      "angle": 19.461543021454887
    },
    {
      "id": 174326,
      "geometry": "POINT (-97.611808 38.799349)",
      "poi_name": "The Kansas Buffet Company",
      "osm_id": 2476134134,
      "amenity": "restaurant",
      "cuisine": "buffet",
      "opening_hours": "Mo-Th 11:00-14:30,16:00-20:30; Fr 11:00-14:30,16:00-21:00; Sa 08:00-21:00; Su 08:00-20:30",
      "addr_city": "Salina",
      "addr_postcode": "67401",
      "addr_street": "South 9th Street",
      "addr_housenumber": "2351",
      "angle": 19.405566583783155
    },
    {
      "id": 177054,
      "geometry": "POINT (-96.217453 38.40916)",
      "poi_name": "China Buffet",
      "osm_id": 2572510628,
      "amenity": "restaurant",
      "cuisine": "chinese",
      "angle": 75.47363375797926
    },
    {
      "id": 177060,
      "geometry": "POINT (-96.213909 38.416268)",
      "poi_name": "Coaches",
      "osm_id": 2572610646,
      "amenity": "restaurant",
      "cuisine": "american",
      "angle": 75.21804518199457
    },
    {
      "id": 178686,
      "geometry": "POINT (-97.611725 38.794921)",
      "poi_name": "Hog Wild Pit Bar-B-Q",
      "osm_id": 10735881573,
      "amenity": "restaurant",
      "cuisine": "barbecue",
      "angle": 19.520853813882496
    },
    {
      "id": 177052,
      "geometry": "POINT (-96.216444 38.419991)",
      "poi_name": "Spangles",
      "osm_id": 2572510616,
      "amenity": "restaurant",
      "cuisine": "burger",
      "angle": 75.05109066982459
    },
    {
      "id": 177293,
      "geometry": "POINT (-96.180551 38.406462)",
      "poi_name": "Casa Ramos (moved)",
      "osm_id": 2582055730,
      "amenity": "restaurant",
      "cuisine": "mexican",
      "opening_hours": "Mo-Su 11:00-22:00",
      "phone": "+1-620-340-0640",
      "addr_state": "KS",
      "addr_city": "Emporia",
      "addr_postcode": "66801",
      "addr_street": "Commercial Street",
      "addr_housenumber": "707",
      "angle": 75.84997210093316
    },
    {
      "id": 177294,
      "geometry": "POINT (-96.181677 38.405411)",
      "poi_name": "Bobby D's Barbque",
      "osm_id": 2582056191,
      "amenity": "restaurant",
      "cuisine": "barbecue",
      "angle": 75.88304401214585
    },
    {
      "id": 177295,
      "geometry": "POINT (-96.180504 38.401912)",
      "poi_name": "Las Brisas",
      "osm_id": 2582061492,
      "amenity": "restaurant",
      "cuisine": "mexican",
      "angle": 76.02831931839826
    },
    {
      "id": 177046,
      "geometry": "POINT (-96.218585 38.422949)",
      "poi_name": "IHOP",
      "osm_id": 2572510609,
      "amenity": "restaurant",
      "cuisine": "breakfast;pancake",
      "angle": 74.91724899189474
    },
    {
      "id": 177047,
      "geometry": "POINT (-96.220516 38.422669)",
      "poi_name": "Pizza Hut",
      "osm_id": 2572510610,
      "amenity": "restaurant",
      "cuisine": "pizza",
      "angle": 74.91330732395336
    },
    {
      "id": 177048,
      "geometry": "POINT (-96.221095 38.422259)",
      "poi_name": "Pizza Ranch",
      "osm_id": 2572510611,
      "amenity": "restaurant",
      "cuisine": "pizza",
      "angle": 74.92505895329718
    },
    {
      "id": 177049,
      "geometry": "POINT (-96.217639 38.422391)",
      "poi_name": "Applebee's",
      "osm_id": 2572510612,
      "amenity": "restaurant",
      "cuisine": "american",
      "official_name": "Applebee's Neighborhood Grill & Bar",
      "addr_state": "KS",
      "angle": 74.94671888261435
    },
    {
      "id": 178640,
      "geometry": "POINT (-97.611851 38.782941)",
      "poi_name": "Koi Ramen",
      "osm_id": 10733553095,
      "amenity": "restaurant",
      "cuisine": "japanese;sushi",
      "angle": 19.819598702293526
    },
    {
      "id": 186504,
      "geometry": "POINT (-98.420577 37.248437)",
      "poi_name": "The Bull Pen",
      "osm_id": 7932700484,
      "amenity": "restaurant",
      "cuisine": "american",
      "angle": 205.06986285333522
    },
    {
      "id": 186017,
      "geometry": "POINT (-97.298313 37.692759)",
      "poi_name": "Pizza Hut",
      "osm_id": 7903302286,
      "amenity": "restaurant",
      "cuisine": "pizza",
      "opening_hours": "Mo-Su 10:30-23:00",
      "phone": "+1-316-686-2222",
      "addr_street": "North Hillside Street",
      "addr_housenumber": "410 #1300",
      "angle": 126.4069424763979
    },
    {
      "id": 182835,
      "geometry": "POINT (-97.59461 38.831252)",
      "poi_name": "Pizza Hut",
      "osm_id": 10905980230,
      "amenity": "restaurant",
      "cuisine": "pizza",
      "angle": 19.54493215957788
    },
    {
      "id": 190235,
      "geometry": "POINT (-97.518704 38.202632)",
      "poi_name": "La Caba\u00f1a",
      "osm_id": 1278558829,
      "amenity": "restaurant",
      "angle": 68.22465678199283
    },
    {
      "id": 189914,
      "geometry": "POINT (-97.20281 37.708031)",
      "poi_name": "Carlos O'Kelly's",
      "osm_id": 1256280877,
      "amenity": "restaurant",
      "cuisine": "mexican",
      "addr_state": "KS",
      "addr_city": "Wichita",
      "addr_postcode": "67206",
      "addr_street": "East 13th Street North",
      "addr_housenumber": "11317",
      "angle": 121.5924343210173
    },
    {
      "id": 190604,
      "geometry": "POINT (-96.489882 38.661471)",
      "poi_name": "Hays House Restaurant & Tavern",
      "osm_id": 1306321051,
      "amenity": "restaurant",
      "website": "https://www.hayshouse.com/",
      "phone": "+1-620-767-5911",
      "addr_state": "KS",
      "addr_city": "Council Grove",
      "addr_postcode": "66846",
      "addr_street": "West Main Street",
      "addr_housenumber": "112",
      "angle": 62.187485321594146
    },
    {
      "id": 190605,
      "geometry": "POINT (-96.541834 38.371359)",
      "poi_name": "Emma Chase Cafe",
      "osm_id": 1306321362,
      "amenity": "restaurant",
      "addr_housenumber": "317",
      "angle": 74.31503805660871
    },
    {
      "id": 190651,
      "geometry": "POINT (-97.638213 38.828662)",
      "poi_name": "Russell's Restaurant",
      "osm_id": 1310657345,
      "amenity": "restaurant",
      "addr_city": "Salina",
      "addr_postcode": "67401",
      "addr_street": "Westport Boulevard",
      "addr_housenumber": "649",
      "angle": 17.29194309425682
    },
    {
      "id": 191348,
      "geometry": "POINT (-97.245082 37.662792)",
      "poi_name": "Village Inn",
      "osm_id": 1358882731,
      "amenity": "restaurant",
      "cuisine": "american",
      "angle": 126.29297387559096
    },
    {
      "id": 190805,
      "geometry": "POINT (-97.667115 38.367977)",
      "poi_name": "Neighbors Cafe",
      "osm_id": 1316628634,
      "amenity": "restaurant",
      "opening_hours": "Tu-Fr 6:05-14:00",
      "website": "http://www.neighborscafe.com/",
      "phone": "+1-620-241-7900",
      "angle": 35.820185349879985
    },
    {
      "id": 191216,
      "geometry": "POINT (-97.466033 37.723216)",
      "poi_name": "Fuzzy's Taco Shop",
      "osm_id": 1348334023,
      "amenity": "restaurant",
      "cuisine": "mexican",
      "addr_state": "KS",
      "angle": 132.61455280520178
    },
    {
      "id": 191217,
      "geometry": "POINT (-97.425449 37.680666)",
      "poi_name": "McAlister's Deli",
      "osm_id": 1348529990,
      "amenity": "restaurant",
      "cuisine": "sandwich",
      "website": "https://www.mcalistersdeli.com/",
      "phone": "+1-316-440-4450",
      "addr_city": "Wichita",
      "addr_street": "West Maple Street",
      "addr_housenumber": "7130",
      "angle": 133.54898010967906
    },
    {
      "id": 194495,
      "geometry": "POINT (-97.225165 37.721672)",
      "poi_name": "Deano's Grill & Tapworks",
      "osm_id": 10276522196,
      "amenity": "restaurant",
      "cuisine": "pizza;sandwich;burger",
      "opening_hours": "Su-Th 11:00-24:00; Fr-Sa 11:00-26:00",
      "website": "https://www.deanosict.com/",
      "phone": "+1-316-977-7107",
      "addr_state": "KS",
      "addr_city": "Wichita",
      "addr_postcode": "67206",
      "addr_street": "East 21st Street North",
      "addr_housenumber": "9747",
      "angle": 121.4079352725885
    },
    {
      "id": 198057,
      "geometry": "POINT (-98.968452 37.956816)",
      "poi_name": "Edna\u2019s",
      "osm_id": 10687187247,
      "amenity": "restaurant",
      "angle": 262.3581037056172
    },
    {
      "id": 200196,
      "geometry": "POINT (-97.6974 39.118075)",
      "poi_name": "Pizza Hut",
      "osm_id": 1023717067,
      "amenity": "restaurant",
      "angle": 10.22811122099892
    },
    {
      "id": 200197,
      "geometry": "POINT (-97.708622 39.122075)",
      "poi_name": "Blue Moon",
      "osm_id": 1023717110,
      "amenity": "restaurant",
      "addr_city": "Minneapolis",
      "addr_postcode": "67467",
      "addr_street": "West 2nd Street",
      "addr_housenumber": "301",
      "angle": 9.727637869542468
    },
    {
      "id": 202296,
      "geometry": "POINT (-99.316008 38.902235)",
      "poi_name": "Billy Sim's BBQ",
      "osm_id": 7018729910,
      "amenity": "restaurant",
      "cuisine": "barbecue",
      "opening_hours": "Mo-Su 11:00-21:00",
      "website": "https://billysimsbbq.com/location/hays/",
      "phone": "+1-785-621-2025",
      "takeaway": "yes",
      "angle": 307.9870643111562
    },
    {
      "id": 201790,
      "geometry": "POINT (-97.42629 37.675813)",
      "poi_name": "IHOP",
      "osm_id": 659561234,
      "amenity": "restaurant",
      "cuisine": "breakfast;pancake",
      "angle": 133.94927998783294
    },
    {
      "id": 205652,
      "geometry": "POINT (-97.346585 38.048469)",
      "poi_name": "Back Alley Pizza",
      "osm_id": 7176612620,
      "amenity": "restaurant",
      "cuisine": "pizza",
      "opening_hours": "Mo-Sa 11:00-20:00",
      "angle": 92.51335623046572
    },
    {
      "id": 204782,
      "geometry": "POINT (-97.33943 38.032125)",
      "poi_name": "Genova's Italian Resturant",
      "osm_id": 7142121839,
      "amenity": "restaurant",
      "angle": 94.44229869984399
    },
    {
      "id": 205675,
      "geometry": "POINT (-97.345308 38.046786)",
      "poi_name": "China Inn",
      "osm_id": 7177776558,
      "amenity": "restaurant",
      "cuisine": "chinese",
      "angle": 92.71177501020945
    },
    {
      "id": 205726,
      "geometry": "POINT (-97.3455 38.061178)",
      "poi_name": "Casa Fiesta",
      "osm_id": 7178373920,
      "amenity": "restaurant",
      "cuisine": "mexican",
      "angle": 90.96101648004642
    },
    {
      "id": 205728,
      "geometry": "POINT (-97.344924 38.062868)",
      "poi_name": "KiKo's Burrito Co.",
      "osm_id": 7178373922,
      "amenity": "restaurant",
      "cuisine": "mexican",
      "angle": 90.75399729233824
    },
    {
      "id": 205729,
      "geometry": "POINT (-97.344985 38.063783)",
      "poi_name": "Chong's Korean Resturant",
      "osm_id": 7178373923,
      "amenity": "restaurant",
      "cuisine": "korean",
      "angle": 90.64271698574726
    },
    {
      "id": 205908,
      "geometry": "POINT (-96.88203 37.818506)",
      "poi_name": "Golden Asian",
      "osm_id": 7188457734,
      "amenity": "restaurant",
      "cuisine": "asian",
      "angle": 106.41756651960722
    },
    {
      "id": 205779,
      "geometry": "POINT (-97.263098 37.765856)",
      "poi_name": "Los Cunados",
      "osm_id": 7179807643,
      "amenity": "restaurant",
      "cuisine": "mexican",
      "angle": 119.3965313730205
    },
    {
      "id": 211134,
      "geometry": "POINT (-97.357642 37.564687)",
      "poi_name": "La Pasadita Grill",
      "osm_id": 5141964735,
      "amenity": "restaurant",
      "cuisine": "mexican",
      "takeaway": "yes",
      "outdoor_seating": "yes",
      "addr_state": "KS",
      "addr_city": "Haysville",
      "addr_postcode": "67060",
      "addr_street": "West Grand Avenue",
      "addr_housenumber": "418",
      "angle": 137.41574131602573
    },
    {
      "id": 207676,
      "geometry": "POINT (-96.165352 38.260242)",
      "poi_name": "Olpe Chicken House",
      "osm_id": 4957403601,
      "amenity": "restaurant",
      "angle": 81.74288462478921
    },
    {
      "id": 218768,
      "geometry": "POINT (-97.901321 38.071645)",
      "poi_name": "Mr. Cao Japanese Steakhouse",
      "osm_id": 9294435589,
      "amenity": "restaurant",
      "cuisine": "japanese;sushi",
      "website": "https://www.mrcao.com/",
      "addr_state": "KS",
      "addr_city": "Hutchinson",
      "addr_postcode": "67501",
      "addr_street": "East 17th Avenue",
      "addr_housenumber": "1505",
      "angle": 87.97181277266695
    },
    {
      "id": 211780,
      "geometry": "POINT (-98.600538 37.961541)",
      "poi_name": "Elroy's Pizza",
      "osm_id": 5172373077,
      "amenity": "restaurant",
      "angle": 258.41786282728947
    },
    {
      "id": 218769,
      "geometry": "POINT (-97.866097 38.064939)",
      "poi_name": "The Airport Steakhouse",
      "osm_id": 9294435607,
      "amenity": "restaurant",
      "cuisine": "steak_house",
      "opening_hours": "Su-Th 11:00-20:00; Fr 11:00-21:00; Sa 16:00-21:00",
      "website": "https://www.hutchinsonairportsteakhouse.com/",
      "phone": "+1-620-662-4281",
      "addr_state": "KS",
      "addr_city": "Hutchinson",
      "addr_postcode": "67501",
      "addr_street": "North Airport Road",
      "addr_housenumber": "1100",
      "angle": 95.47524276683735
    },
    {
      "id": 220322,
      "geometry": "POINT (-99.316137 38.89117)",
      "poi_name": "Imperial Garden",
      "osm_id": 9368918007,
      "amenity": "restaurant",
      "cuisine": "chinese",
      "opening_hours": "Mo-Sa 10:30-21:00; Su 10:30-18:00",
      "website": "https://hays.imperialgardenks.com/",
      "phone": "+1-785-628-6688",
      "addr_street": "North Vine Street",
      "addr_housenumber": "2918",
      "angle": 307.61218711638753
    },
    {
      "id": 220216,
      "geometry": "POINT (-97.326038 37.606234)",
      "poi_name": "IHOP",
      "osm_id": 9365904014,
      "amenity": "restaurant",
      "cuisine": "breakfast;pancake",
      "description": "Long-standing chain serving a wide variety of pancakes & other American breakfast & diner fare.",
      "opening_hours": "Mo-Su 06:00-00:00",
      "website": "https://restaurants.ihop.com/en-us/ks/wichita/breakfast-4870-s-washington-ave-2118",
      "phone": "+1-316-522-2118",
      "addr_street": "Washington South",
      "addr_housenumber": "4870",
      "angle": 133.44925740508097
    },
    {
      "id": 223969,
      "geometry": "POINT (-97.388281 37.708336)",
      "poi_name": "Bann Thai",
      "osm_id": 11070138485,
      "amenity": "restaurant",
      "cuisine": "thai",
      "website": "https://www.bannthaiwichita.com",
      "phone": "+1-316-665-2402",
      "addr_state": "KS",
      "addr_city": "Wichita",
      "addr_postcode": "67203",
      "addr_street": "West 13th Street North",
      "addr_housenumber": "3811",
      "angle": 129.4674972718903
    },
    {
      "id": 223987,
      "geometry": "POINT (-99.316873 38.882961)",
      "poi_name": "Jalisco",
      "osm_id": 11070317533,
      "amenity": "restaurant",
      "cuisine": "mexican",
      "angle": 307.3190905612974
    },
    {
      "id": 224537,
      "geometry": "POINT (-97.245611 37.720417)",
      "poi_name": "HuHot",
      "osm_id": 11086454692,
      "amenity": "restaurant",
      "cuisine": "mongolian_grill",
      "official_name": "HuHot Mongolian Grill",
      "angle": 122.25422507823626
    },
    {
      "id": 226427,
      "geometry": "POINT (-97.294221 37.686976)",
      "poi_name": "Ziggy's Pizza",
      "osm_id": 11159958494,
      "amenity": "restaurant",
      "addr_street": "East Douglas Ave",
      "addr_housenumber": "3700",
      "angle": 126.6471904025845
    },
    {
      "id": 225927,
      "geometry": "POINT (-97.311684 37.693418)",
      "poi_name": "M & M Bierock",
      "osm_id": 11143333088,
      "amenity": "restaurant",
      "cuisine": "corporate_catering",
      "opening_hours": "Mo-Fr 10:30-18:00; Sa 10:30-15:00",
      "website": "https://mandmbierockks.com",
      "phone": "+1-316-262-6263",
      "addr_state": "KS",
      "addr_city": "Wichita",
      "addr_postcode": "67214",
      "addr_street": "East Central Avenue",
      "addr_housenumber": "2065",
      "angle": 126.94229470872833
    },
    {
      "id": 226739,
      "geometry": "POINT (-97.333298 37.605891)",
      "poi_name": "Carlos O'Kelly's",
      "osm_id": 11167151448,
      "amenity": "restaurant",
      "cuisine": "mexican",
      "opening_hours": "Su 11:00-21:00; Mo-Sa 11:00-22:00",
      "website": "https://carlosokellys.com/restaurant-locations/item/179-wichita-47th-broadway-south.html",
      "phone": "+1-316-554-1700",
      "addr_state": "KS",
      "addr_city": "Wichita",
      "addr_postcode": "67216",
      "addr_street": "South Broadway Street",
      "addr_housenumber": "4872",
      "angle": 133.81298671924793
    },
    {
      "id": 226534,
      "geometry": "POINT (-97.370274 37.708318)",
      "poi_name": "Copper Oven Cafe",
      "osm_id": 11162884829,
      "amenity": "restaurant",
      "cuisine": "breakfast",
      "opening_hours": "Tu-Sa 07:00-14:00",
      "website": "https://copperovencafe.com",
      "phone": "+-1-316-945-7549",
      "addr_state": "KS",
      "addr_city": "Wichita",
      "addr_postcode": "67203",
      "addr_street": "West 13th Street North",
      "addr_housenumber": "2409",
      "angle": 128.56226409380716
    },
    {
      "id": 240454,
      "geometry": "POINT (-99.316025 38.887025)",
      "poi_name": "Thirsty's Brew Pub & Grill",
      "osm_id": 5978070331,
      "amenity": "restaurant",
      "opening_hours": "Mo-Th,Su 11:00-21:00; Fr,Sa 11:00-22:00",
      "website": "https://www.thirstysgrillandpub.com/",
      "phone": "+1-785-628-8284",
      "addr_state": "KS",
      "addr_city": "Hays",
      "addr_postcode": "67601",
      "addr_street": "Vine Street",
      "addr_housenumber": "2704",
      "angle": 307.4739473868177
    },
    {
      "id": 232921,
      "geometry": "POINT (-99.309946 38.531753)",
      "poi_name": "Hunt Brothers Pizza",
      "osm_id": 4549886248,
      "amenity": "restaurant",
      "cuisine": "pizza",
      "addr_city": "La Crosse",
      "addr_postcode": "67548",
      "addr_street": "Main Street",
      "addr_housenumber": "901",
      "angle": 293.55664371191375
    },
    {
      "id": 234573,
      "geometry": "POINT (-98.600591 37.962469)",
      "poi_name": "The Gathering Place",
      "osm_id": 4629397183,
      "amenity": "restaurant",
      "cuisine": "american",
      "addr_city": "Stafford",
      "addr_postcode": "67578",
      "addr_street": "North Main Street",
      "addr_housenumber": "105",
      "angle": 258.5163397643721
    },
    {
      "id": 234574,
      "geometry": "POINT (-98.593787 37.954978)",
      "poi_name": "Joan's",
      "osm_id": 4629397186,
      "amenity": "restaurant",
      "cuisine": "american",
      "angle": 257.6037422322237
    },
    {
      "id": 236336,
      "geometry": "POINT (-97.225404 37.666323)",
      "poi_name": "Gambino's Pizza",
      "osm_id": 5790394354,
      "amenity": "restaurant",
      "addr_city": "Wichita",
      "addr_postcode": "67207",
      "addr_street": "South Webb Road",
      "addr_housenumber": "1520",
      "angle": 125.2898504173411
    },
    {
      "id": 236341,
      "geometry": "POINT (-97.270685 37.694182)",
      "poi_name": "M. I. F. Deli",
      "osm_id": 5790424808,
      "amenity": "restaurant",
      "opening_hours": "Mo-Fr 11:00-19:45; Sa 11:00-15:00",
      "outdoor_seating": "no",
      "addr_city": "Wichita",
      "addr_postcode": "67208",
      "addr_street": "East Central Avenue",
      "addr_housenumber": "5618",
      "angle": 125.14787842261654
    },
    {
      "id": 227553,
      "geometry": "POINT (-97.299914 37.750257)",
      "poi_name": "Stroud's Restaurant & Bar",
      "osm_id": 4311925596,
      "amenity": "restaurant",
      "angle": 122.07800504679142
    },
    {
      "id": 229228,
      "geometry": "POINT (-98.475158 38.824523)",
      "poi_name": "Made From Scratch",
      "osm_id": 4373115506,
      "amenity": "restaurant",
      "addr_city": "Wilson",
      "addr_postcode": "67490",
      "addr_street": "27th Street",
      "addr_housenumber": "527",
      "angle": 330.99823655866885
    },
    {
      "id": 231923,
      "geometry": "POINT (-97.39343 37.679868)",
      "poi_name": "Spears Restaurant",
      "osm_id": 4497671197,
      "amenity": "restaurant",
      "phone": "+1-316-943-2783",
      "addr_postcode": "67209",
      "addr_street": "West Maple Street",
      "addr_housenumber": "4323",
      "angle": 131.8731228820373
    },
    {
      "id": 232656,
      "geometry": "POINT (-98.230267 38.728134)",
      "poi_name": "Gambino's Pizza",
      "osm_id": 4537496464,
      "amenity": "restaurant",
      "cuisine": "pizza",
      "angle": 340.93707463519155
    },
    {
      "id": 237248,
      "geometry": "POINT (-98.853845 38.866871)",
      "poi_name": "Pizza Hut",
      "osm_id": 5824578485,
      "amenity": "restaurant",
      "cuisine": "pizza",
      "angle": 318.2273291768492
    },
    {
      "id": 242795,
      "geometry": "POINT (-97.014298 39.217025)",
      "poi_name": "Suzy-Q Neighborhood Grill",
      "osm_id": 7598431653,
      "amenity": "restaurant",
      "cuisine": "american",
      "website": "https://www.facebook.com/Suzy-Q-Neighboorhood-Grill-708021256322745/",
      "internet_access": "wlan",
      "phone": "+1-785-461-5555",
      "takeaway": "yes",
      "outdoor_seating": "yes",
      "addr_state": "KS",
      "addr_city": "Wakefield",
      "addr_postcode": "67487",
      "addr_street": "Elm Street",
      "addr_housenumber": "614",
      "angle": 32.0570875805475
    }
  ],
  "answer_type": "angle",
  "question_entities": {
    "[1]": {
      "main_category": "amenity",
      "sub_category": "restaurant"
    },
    "[2]": {
      "distance": 160000,
      "text": "160 kilometers"
    },
    "[3]": {
      "main_category": "leisure",
      "sub_category": "park",
      "display_name": "Johnson Park, Hutchinson, KS",
      "geo_wkt": "POINT (-97.940052 38.070567)",
      "poi": {
        "id": 260638,
        "geometry": "POINT (-97.940052 38.070567)",
        "poi_name": "Johnson Park",
        "osm_id": 358631929,
        "leisure": "park",
        "addr_state": "KS",
        "addr_city": "Hutchinson"
      }
    }
  },
  "id": 1087,
  "type": "range+angle"
}