{
  "question": "Where can I find a fast food restaurant located within 110 kilometers in the direction of southeast from Costello Stadium, Palmyra, VA?",
  "sql": "\nWITH origin AS  (SELECT ST_GeomFromText('POINT (-78.27531 37.826783)',4326)::geography AS geometry)\nSELECT * FROM pois, origin\nWHERE ST_DWithin(pois.geometry, ST_GeomFromText('POINT (-78.27531 37.826783)',4326)::geography, 110000)\nAND amenity = 'fast_food'\nAND degrees(ST_Azimuth(origin.geometry, pois.geometry)) BETWEEN 112.5 AND 157.5;\n",
  "answers": [
    {
      "id": 35418,
      "geometry": "POINT (-78.27531 37.826783)",
      "poi_name": "Extreme Pizza",
      "osm_id": 2720391232,
      "amenity": "fast_food",
      "cuisine": "pizza",
      "website": "https://extremepizzarichmond.com/",
      "phone": "+1-804-359-2030",
      "takeaway": "yes",
      "addr_state": "VA",
      "addr_city": "Richmond City",
      "addr_postcode": "23220",
      "addr_street": "West Broad Street",
      "addr_housenumber": "941"
    },
    {
      "id": 35419,
      "geometry": "POINT (-78.27531 37.826783)",
      "poi_name": "Qdoba",
      "osm_id": 2720391242,
      "amenity": "fast_food",
      "cuisine": "mexican",
      "opening_hours": "Mo-Sa 10:30-22:00; Su 10:30-21:00",
      "website": "https://locations.qdoba.com/us/va/richmond/935-w-broad-st.html",
      "takeaway": "yes",
      "official_name": "Qdoba Mexican Grill",
      "outdoor_seating": "no",
      "addr_state": "VA",
      "addr_city": "Richmond",
      "addr_street": "West Broad Street",
      "addr_housenumber": "933"
    },
    {
      "id": 35420,
      "geometry": "POINT (-78.27531 37.826783)",
      "poi_name": "Five Guys",
      "osm_id": 2720391244,
      "amenity": "fast_food",
      "cuisine": "burger",
      "opening_hours": "11:00-22:00",
      "website": "https://www.fiveguys.com/",
      "phone": "+1-804-359-0059",
      "takeaway": "yes",
      "official_name": "Five Guys Burgers and Fries",
      "addr_state": "VA",
      "addr_city": "Richmond City",
      "addr_postcode": "23220",
      "addr_street": "West Broad Street",
      "addr_housenumber": "931"
    },
    {
      "id": 35422,
      "geometry": "POINT (-78.27531 37.826783)",
      "poi_name": "Tropical Smoothie Cafe",
      "osm_id": 2720391250,
      "amenity": "fast_food",
      "cuisine": "juice",
      "website": "https://www.tropicalsmoothie.com/",
      "phone": "+1-804-353-3533",
      "takeaway": "yes",
      "addr_state": "VA",
      "addr_city": "Richmond City",
      "addr_postcode": "23220",
      "addr_street": "West Broad Street",
      "addr_housenumber": "929"
    },
    {
      "id": 37098,
      "geometry": "POINT (-78.27531 37.826783)",
      "poi_name": "Cook Out",
      "osm_id": 2797540458,
      "amenity": "fast_food",
      "cuisine": "american",
      "opening_hours": "Mo-Fr 00:00-03:00, 11:00-24:00; Sa-Su 00:00-04:00, 11:00-24:00",
      "takeaway": "yes",
      "addr_state": "VA",
      "addr_city": "Colonial Heights City",
      "addr_postcode": "23834",
      "addr_street": "Boulevard",
      "addr_housenumber": "618"
    },
    {
      "id": 37375,
      "geometry": "POINT (-78.27531 37.826783)",
      "poi_name": "Domino's",
      "osm_id": 2809855551,
      "amenity": "fast_food",
      "cuisine": "pizza",
      "website": "https://www.dominos.com/",
      "phone": "+1 804-598-0900",
      "takeaway": "yes",
      "addr_state": "VA",
      "addr_city": "Powhatan",
      "addr_postcode": "23139",
      "addr_street": "Anderson Highway",
      "addr_housenumber": "3440"
    },
    {
      "id": 42683,
      "geometry": "POINT (-78.27531 37.826783)",
      "poi_name": "Chipotle",
      "osm_id": 3075619920,
      "amenity": "fast_food",
      "cuisine": "mexican",
      "takeaway": "yes",
      "official_name": "Chipotle Mexican Grill",
      "addr_state": "VA",
      "addr_city": "Richmond",
      "addr_postcode": "23221",
      "addr_street": "North Nansemond Street",
      "addr_housenumber": "10"
    },
    {
      "id": 42893,
      "geometry": "POINT (-78.27531 37.826783)",
      "poi_name": "Tropical Smoothie Cafe",
      "osm_id": 3085753726,
      "amenity": "fast_food",
      "cuisine": "juice",
      "website": "https://www.tropicalsmoothie.com/",
      "phone": "+1 804-897-9595",
      "takeaway": "yes",
      "addr_state": "VA",
      "addr_street": "WC Commons Way",
      "addr_housenumber": "15521"
    },
    {
      "id": 42894,
      "geometry": "POINT (-78.27531 37.826783)",
      "poi_name": "Five Guys",
      "osm_id": 3085753727,
      "amenity": "fast_food",
      "cuisine": "burger",
      "website": "https://www.fiveguys.com/",
      "phone": "+1 804-378-5466",
      "takeaway": "yes",
      "official_name": "Five Guys Burgers and Fries",
      "addr_state": "VA",
      "addr_street": "WC Commons Way",
      "addr_housenumber": "15523"
    },
    {
      "id": 43781,
      "geometry": "POINT (-78.27531 37.826783)",
      "poi_name": "Panera Bread",
      "osm_id": 3130647178,
      "amenity": "fast_food",
      "cuisine": "sandwich;bakery",
      "takeaway": "yes",
      "addr_state": "VA",
      "addr_city": "Midlothian",
      "addr_postcode": "23113",
      "addr_street": "Midlothian Turnpike",
      "addr_housenumber": "11649"
    },
    {
      "id": 43745,
      "geometry": "POINT (-78.27531 37.826783)",
      "poi_name": "Papa John's",
      "osm_id": 3129629316,
      "amenity": "fast_food",
      "cuisine": "pizza",
      "takeaway": "yes",
      "addr_state": "VA",
      "addr_city": "Chester",
      "addr_postcode": "23831",
      "addr_street": "Chester Road",
      "addr_housenumber": "9831"
    },
    {
      "id": 43911,
      "geometry": "POINT (-78.27531 37.826783)",
      "poi_name": "Marco's Pizza",
      "osm_id": 3137515514,
      "amenity": "fast_food",
      "cuisine": "pizza",
      "website": "https://store2051.marcos.com/",
      "phone": "+1-804-391-6100",
      "takeaway": "yes",
      "delivery": "yes",
      "addr_state": "VA",
      "addr_city": "Colonial Heights",
      "addr_postcode": "23834",
      "addr_street": "Dunlop Village",
      "addr_housenumber": "1"
    },
    {
      "id": 43989,
      "geometry": "POINT (-78.27531 37.826783)",
      "poi_name": "Subway",
      "osm_id": 3139418284,
      "amenity": "fast_food",
      "cuisine": "sandwich",
      "takeaway": "yes",
      "drive_through": "no",
      "addr_state": "VA",
      "addr_city": "Petersburg",
      "addr_postcode": "23805",
      "addr_street": "South Crater Road",
      "addr_housenumber": "3219"
    },
    {
      "id": 43990,
      "geometry": "POINT (-78.27531 37.826783)",
      "poi_name": "Little Caesars",
      "osm_id": 3139418285,
      "amenity": "fast_food",
      "cuisine": "pizza",
      "website": "https://littlecaesars.com/en-us/store/1877/",
      "takeaway": "yes",
      "drive_through": "yes",
      "addr_state": "VA",
      "addr_city": "Petersburg",
      "addr_postcode": "23805",
      "addr_street": "South Crater Road",
      "addr_housenumber": "3225"
    },
    {
      "id": 43992,
      "geometry": "POINT (-78.27531 37.826783)",
      "poi_name": "Arby's",
      "osm_id": 3139423366,
      "amenity": "fast_food",
      "cuisine": "sandwich",
      "takeaway": "yes",
      "addr_state": "VA"
    },
    {
      "id": 47574,
      "geometry": "POINT (-78.27531 37.826783)",
      "poi_name": "BoDillaz Famous Quesadillas",
      "osm_id": 3333734027,
      "amenity": "fast_food",
      "cuisine": "mexican",
      "opening_hours": "Su-We 11:00-0:00; Th-Sa 11:00-3:00",
      "website": "bodillaz.com",
      "phone": "+1-804-269-5924",
      "addr_state": "VA",
      "addr_city": "Richmond",
      "addr_postcode": "23220",
      "addr_street": "West Broad Street",
      "addr_housenumber": "916"
    },
    {
      "id": 66353,
      "geometry": "POINT (-78.27531 37.826783)",
      "poi_name": "Domino's",
      "osm_id": 11190610583,
      "amenity": "fast_food",
      "cuisine": "pizza",
      "takeaway": "yes",
      "addr_state": "VA",
      "addr_city": "Chester",
      "addr_postcode": "23831",
      "addr_street": "West Hundred Road",
      "addr_housenumber": "4320"
    },
    {
      "id": 47678,
      "geometry": "POINT (-78.27531 37.826783)",
      "poi_name": "Pita Pit",
      "osm_id": 3341199184,
      "amenity": "fast_food",
      "cuisine": "pita",
      "website": "https://locations.pitapitusa.com/pita-pit-9b5b180b344c",
      "phone": "+1 804-716-9107",
      "takeaway": "yes",
      "addr_state": "VA",
      "addr_city": "Richmond",
      "addr_postcode": "23220",
      "addr_street": "West Cary Street",
      "addr_housenumber": "815"
    },
    {
      "id": 50880,
      "geometry": "POINT (-78.27531 37.826783)",
      "poi_name": "Jersey Mike's Subs",
      "osm_id": 3510518735,
      "amenity": "fast_food",
      "cuisine": "sandwich",
      "phone": "+1 804-320-8805",
      "takeaway": "yes",
      "drive_through": "no",
      "addr_state": "VA",
      "addr_city": "Richmond",
      "addr_postcode": "23235",
      "addr_street": "Buford Road",
      "addr_housenumber": "2709"
    },
    {
      "id": 70351,
      "geometry": "POINT (-78.27531 37.826783)",
      "poi_name": "Chipotle",
      "osm_id": 11359465603,
      "amenity": "fast_food",
      "cuisine": "mexican",
      "phone": "+18047999599",
      "takeaway": "yes",
      "official_name": "Chipotle Mexican Grill",
      "addr_state": "VA",
      "addr_city": "Richmond",
      "addr_postcode": "23224",
      "addr_street": "Hull Street",
      "addr_housenumber": "505"
    },
    {
      "id": 81301,
      "geometry": "POINT (-78.27531 37.826783)",
      "poi_name": "Nuccio's Express",
      "osm_id": 1619772874,
      "amenity": "fast_food",
      "cuisine": "italian",
      "website": "www.nuccios.net",
      "addr_state": "VA",
      "addr_postcode": "23236-3103",
      "addr_street": "Courthouse Road",
      "addr_housenumber": "1120"
    },
    {
      "id": 76462,
      "geometry": "POINT (-78.27531 37.826783)",
      "poi_name": "Little Caesars",
      "osm_id": 9777986692,
      "amenity": "fast_food",
      "cuisine": "pizza",
      "website": "https://littlecaesars.com/en-us/store/1896/",
      "takeaway": "yes",
      "addr_state": "VA",
      "addr_postcode": "23112",
      "addr_street": "Hull Street Road",
      "addr_housenumber": "13726"
    },
    {
      "id": 80043,
      "geometry": "POINT (-78.27531 37.826783)",
      "poi_name": "Subway",
      "osm_id": 846282058,
      "amenity": "fast_food",
      "cuisine": "sandwich",
      "description": "Casual counter-serve chain for build-your-own sandwiches & salads.",
      "phone": "+1 804-864-2992",
      "takeaway": "yes",
      "addr_state": "VA",
      "addr_city": "Richmond City",
      "addr_postcode": "23219",
      "addr_street": "East Main Street",
      "addr_housenumber": "1209"
    },
    {
      "id": 76969,
      "geometry": "POINT (-78.27531 37.826783)",
      "poi_name": "Dunkin'",
      "osm_id": 9799703284,
      "amenity": "fast_food",
      "cuisine": "donut;coffee_shop",
      "takeaway": "yes",
      "addr_state": "VA",
      "addr_city": "Hopewell",
      "addr_postcode": "23860",
      "addr_street": "Oaklawn Boulevard",
      "addr_housenumber": "5113"
    },
    {
      "id": 76970,
      "geometry": "POINT (-78.27531 37.826783)",
      "poi_name": "Papa John's",
      "osm_id": 9799703286,
      "amenity": "fast_food",
      "cuisine": "pizza",
      "takeaway": "yes",
      "addr_state": "VA",
      "addr_city": "Hopewell",
      "addr_postcode": "23860",
      "addr_street": "Oaklawn Boulevard",
      "addr_housenumber": "5113"
    },
    {
      "id": 76976,
      "geometry": "POINT (-78.27531 37.826783)",
      "poi_name": "Subway",
      "osm_id": 9799709525,
      "amenity": "fast_food",
      "cuisine": "sandwich",
      "takeaway": "yes",
      "addr_state": "VA",
      "addr_city": "Hopewell",
      "addr_postcode": "23860",
      "addr_street": "Crossing Boulevard",
      "addr_housenumber": "906"
    },
    {
      "id": 98332,
      "geometry": "POINT (-78.27531 37.826783)",
      "poi_name": "Taziki's Mediterranean Cafe",
      "osm_id": 6515294688,
      "amenity": "fast_food",
      "cuisine": "mediterranean",
      "takeaway": "yes",
      "addr_state": "VA",
      "addr_city": "Midlothian",
      "addr_postcode": "23113",
      "addr_street": "Stone Village Way",
      "addr_housenumber": "12643"
    },
    {
      "id": 98344,
      "geometry": "POINT (-78.27531 37.826783)",
      "poi_name": "Domino's",
      "osm_id": 6515343785,
      "amenity": "fast_food",
      "cuisine": "pizza",
      "takeaway": "yes",
      "addr_state": "VA",
      "addr_city": "Midlothian",
      "addr_postcode": "23113",
      "addr_street": "Walmart Way",
      "addr_housenumber": "2057"
    },
    {
      "id": 98526,
      "geometry": "POINT (-78.27531 37.826783)",
      "poi_name": "Penn Station",
      "osm_id": 6522361108,
      "amenity": "fast_food",
      "cuisine": "sandwich",
      "takeaway": "yes",
      "addr_state": "VA",
      "addr_city": "Midlothian",
      "addr_postcode": "23112",
      "addr_housenumber": "12292"
    },
    {
      "id": 110517,
      "geometry": "POINT (-78.27531 37.826783)",
      "poi_name": "Panda Express",
      "osm_id": 3707232729,
      "amenity": "fast_food",
      "cuisine": "chinese",
      "website": "pandaexpress.com",
      "phone": "+1-804-354-6818",
      "takeaway": "yes",
      "addr_state": "VA",
      "addr_city": "Richmond City",
      "addr_postcode": "23220",
      "addr_street": "West Grace Street",
      "addr_housenumber": "900"
    },
    {
      "id": 121490,
      "geometry": "POINT (-78.27531 37.826783)",
      "poi_name": "America's Best Wings",
      "osm_id": 6764141637,
      "amenity": "fast_food",
      "cuisine": "chicken;seafood",
      "opening_hours": "Mo-Su 11:00-22:00",
      "phone": "+1 804-621-4957",
      "drive_through": "no",
      "addr_state": "VA",
      "addr_postcode": "23831",
      "addr_street": "Iron Bridge Plaza",
      "addr_housenumber": "11994"
    },
    {
      "id": 129451,
      "geometry": "POINT (-78.27531 37.826783)",
      "poi_name": "Qdoba",
      "osm_id": 9825526089,
      "amenity": "fast_food",
      "cuisine": "mexican",
      "website": "https://locations.qdoba.com/us/va/midlothian/14279-winterview-parkway.html",
      "takeaway": "yes",
      "official_name": "Qdoba Mexican Grill",
      "addr_state": "VA",
      "addr_city": "Chesterfield County",
      "addr_postcode": "23113",
      "addr_street": "Winterview Parkway",
      "addr_housenumber": "14279"
    },
    {
      "id": 129453,
      "geometry": "POINT (-78.27531 37.826783)",
      "poi_name": "BurgerIM",
      "osm_id": 9825526097,
      "amenity": "fast_food",
      "cuisine": "burger",
      "takeaway": "yes",
      "addr_state": "VA",
      "addr_city": "Chesterfield County",
      "addr_postcode": "23113",
      "addr_street": "Winterview Parkway",
      "addr_housenumber": "14273"
    },
    {
      "id": 130589,
      "geometry": "POINT (-78.27531 37.826783)",
      "poi_name": "Tropical Smoothie Cafe",
      "osm_id": 9877792642,
      "amenity": "fast_food",
      "cuisine": "juice",
      "takeaway": "yes",
      "drive_through": "no",
      "addr_state": "VA",
      "addr_city": "Midlothian",
      "addr_postcode": "23112",
      "addr_street": "Commonwealth Centre Parkway",
      "addr_housenumber": "4510"
    },
    {
      "id": 154797,
      "geometry": "POINT (-78.27531 37.826783)",
      "poi_name": "Dunkin'",
      "osm_id": 4255695826,
      "amenity": "fast_food",
      "cuisine": "donut;coffee_shop",
      "opening_hours": "Mo-Su 05:00-22:00",
      "phone": "+1-804-644-0853",
      "takeaway": "yes",
      "addr_state": "VA",
      "addr_city": "Richmond",
      "addr_postcode": "23220",
      "addr_street": "West Broad Street",
      "addr_housenumber": "900"
    },
    {
      "id": 132438,
      "geometry": "POINT (-78.27531 37.826783)",
      "poi_name": "Jimmy John's",
      "osm_id": 9953980815,
      "amenity": "fast_food",
      "cuisine": "sandwich",
      "opening_hours": "10:00-21:00",
      "website": "https://locations.jimmyjohns.com/va/colonialheights/sandwiches-2048.html",
      "phone": "+1-804-520-6200",
      "takeaway": "yes",
      "official_name": "Jimmy John's Gourmet Sandwiches",
      "delivery": "yes",
      "addr_state": "VA",
      "addr_city": "Colonial Heights",
      "addr_postcode": "23834",
      "addr_street": "Southpark Boulevard",
      "addr_housenumber": "1903"
    },
    {
      "id": 132439,
      "geometry": "POINT (-78.27531 37.826783)",
      "poi_name": "Chipotle",
      "osm_id": 9953998296,
      "amenity": "fast_food",
      "cuisine": "mexican",
      "opening_hours": "10:45-22:00",
      "website": "https://locations.chipotle.com/va/colonial-heights/1901-southpark-blvd",
      "phone": "+1-804-823-6438",
      "takeaway": "yes",
      "official_name": "Chipotle Mexican Grill",
      "delivery": "yes",
      "addr_state": "VA",
      "addr_city": "Colonial Heights",
      "addr_postcode": "23834",
      "addr_street": "Southpark Boulevard",
      "addr_housenumber": "1901"
    },
    {
      "id": 154915,
      "geometry": "POINT (-78.27531 37.826783)",
      "poi_name": "Jimmy John's",
      "osm_id": 4261297657,
      "amenity": "fast_food",
      "cuisine": "sandwich",
      "description": "Counter-serve chain specializing in sub & club sandwiches, plus signature potato chips.",
      "website": "https://www.jimmyjohns.com/",
      "phone": "+1 804-788-8859",
      "takeaway": "yes",
      "official_name": "Jimmy John's Gourmet Sandwiches",
      "addr_state": "VA",
      "addr_city": "Richmond City",
      "addr_postcode": "23219",
      "addr_street": "East Cary Street",
      "addr_housenumber": "1318"
    },
    {
      "id": 154798,
      "geometry": "POINT (-78.27531 37.826783)",
      "poi_name": "Tea-do",
      "osm_id": 4255695829,
      "amenity": "fast_food",
      "cuisine": "sandwich",
      "opening_hours": "Mo-Su 12:00-20:00",
      "website": "https://www.whichwich.com/",
      "phone": "+1-804-404-9148",
      "takeaway": "yes",
      "outdoor_seating": "no",
      "addr_state": "VA",
      "addr_city": "Richmond City",
      "addr_postcode": "23220",
      "addr_street": "West Broad Street",
      "addr_housenumber": "1225"
    },
    {
      "id": 203874,
      "geometry": "POINT (-78.27531 37.826783)",
      "poi_name": "Domino's",
      "osm_id": 7102235918,
      "amenity": "fast_food",
      "cuisine": "pizza",
      "wheelchair": "yes",
      "takeaway": "yes",
      "addr_state": "VA",
      "addr_street": "West Cary Street",
      "addr_housenumber": "3208"
    },
    {
      "id": 216572,
      "geometry": "POINT (-78.27531 37.826783)",
      "poi_name": "Subway",
      "osm_id": 9175831132,
      "amenity": "fast_food",
      "cuisine": "sandwich",
      "opening_hours": "Mo-Fr 07:00-21:00; Sa 08:00-21:00; Su 09:00-21:00",
      "takeaway": "yes",
      "drive_through": "no",
      "addr_state": "VA",
      "addr_city": "North Chesterfield",
      "addr_postcode": "23235",
      "addr_street": "Hull Street Road",
      "addr_housenumber": "7102"
    },
    {
      "id": 221015,
      "geometry": "POINT (-78.27531 37.826783)",
      "poi_name": "Dunkin'",
      "osm_id": 10965275728,
      "amenity": "fast_food",
      "cuisine": "donut;coffee_shop",
      "opening_hours": "Mo-Fr 06:30-16:00; Sa 08:00-14:00; Su off",
      "phone": "+1-804-308-1911",
      "takeaway": "yes",
      "drive_through": "no",
      "addr_state": "VA",
      "addr_city": "Richmond",
      "addr_postcode": "23219",
      "addr_street": "East Canal Street",
      "addr_housenumber": "600"
    },
    {
      "id": 221543,
      "geometry": "POINT (-78.27531 37.826783)",
      "poi_name": "Market 810",
      "osm_id": 10981798156,
      "amenity": "fast_food",
      "operator": "VCU Dining Services",
      "website": "https://vcu.campusdish.com/LocationsAndMenus/Market810",
      "drive_through": "no",
      "fast_food": "cafeteria",
      "addr_state": "VA",
      "addr_city": "Richmond",
      "addr_postcode": "23220",
      "addr_street": "Cathedral Place",
      "addr_housenumber": "810"
    },
    {
      "id": 221545,
      "geometry": "POINT (-78.27531 37.826783)",
      "poi_name": "Einstein Bros. Bagels",
      "osm_id": 10981798158,
      "amenity": "fast_food",
      "cuisine": "bagel",
      "operator": "VCU Dining Services",
      "website": "https://vcu.campusdish.com/LocationsAndMenus/EinsteinBrosBagelsShaferCourt",
      "takeaway": "yes",
      "drive_through": "no",
      "addr_state": "VA",
      "addr_city": "Richmond",
      "addr_postcode": "23220",
      "addr_street": "Cathedral Place",
      "addr_housenumber": "810"
    },
    {
      "id": 220101,
      "geometry": "POINT (-78.27531 37.826783)",
      "poi_name": "Domino's",
      "osm_id": 9359317719,
      "amenity": "fast_food",
      "cuisine": "pizza",
      "takeaway": "yes",
      "addr_state": "VA",
      "addr_city": "Richmond",
      "addr_postcode": "23224",
      "addr_street": "Hull Street",
      "addr_housenumber": "3906"
    },
    {
      "id": 220103,
      "geometry": "POINT (-78.27531 37.826783)",
      "poi_name": "McDonald's",
      "osm_id": 9359317822,
      "amenity": "fast_food",
      "cuisine": "burger",
      "website": "https://www.mcdonalds.com/us/en-us/location/va/richmond/7400-hull-st-rd/4123.html",
      "takeaway": "yes",
      "addr_state": "VA",
      "addr_city": "Richmond",
      "addr_postcode": "23235",
      "addr_street": "Hull Street Road",
      "addr_housenumber": "7400"
    },
    {
      "id": 220104,
      "geometry": "POINT (-78.27531 37.826783)",
      "poi_name": "Dunkin'",
      "osm_id": 9359318217,
      "amenity": "fast_food",
      "cuisine": "donut;coffee_shop",
      "takeaway": "yes",
      "addr_state": "VA",
      "addr_city": "Midlothian",
      "addr_postcode": "23112",
      "addr_street": "Price Club Boulevard",
      "addr_housenumber": "3601"
    },
    {
      "id": 220106,
      "geometry": "POINT (-78.27531 37.826783)",
      "poi_name": "Arby's",
      "osm_id": 9359318319,
      "amenity": "fast_food",
      "cuisine": "sandwich",
      "takeaway": "yes",
      "addr_state": "VA",
      "addr_city": "Richmond",
      "addr_postcode": "23235",
      "addr_street": "Hull Street Road",
      "addr_housenumber": "7310"
    },
    {
      "id": 232080,
      "geometry": "POINT (-78.27531 37.826783)",
      "poi_name": "Papa John's",
      "osm_id": 4509613844,
      "amenity": "fast_food",
      "cuisine": "pizza",
      "website": "https://www.papajohns.com",
      "phone": "+1-804-403-7272",
      "takeaway": "yes",
      "delivery": "yes",
      "addr_state": "VA",
      "addr_city": "Powhatan",
      "addr_postcode": "23139",
      "addr_street": "South Creek One",
      "addr_housenumber": "1800"
    },
    {
      "id": 234168,
      "geometry": "POINT (-78.27531 37.826783)",
      "poi_name": "Potbelly",
      "osm_id": 4609072667,
      "amenity": "fast_food",
      "cuisine": "sandwich",
      "wheelchair": "yes",
      "opening_hours": "Mo-Fr 07:00-19:00, Sa,Su 11:00-15:00",
      "website": "https://www.potbelly.com/locations/virginia/richmond-gateway-plaza",
      "phone": "+1 804-728-1577",
      "takeaway": "yes",
      "official_name": "Potbelly Sandwich Works",
      "addr_state": "VA",
      "addr_city": "Richmond",
      "addr_postcode": "23219",
      "addr_street": "East Canal Street",
      "addr_housenumber": "800"
    },
    {
      "id": 243922,
      "geometry": "POINT (-78.27531 37.826783)",
      "poi_name": "Sub Central",
      "osm_id": 7686351594,
      "amenity": "fast_food",
      "cuisine": "sandwich",
      "opening_hours": "Mo-Fr 10:00-15:00",
      "phone": "+1 804-644-3106",
      "addr_state": "VA",
      "addr_city": "Richmond",
      "addr_postcode": "23219",
      "addr_street": "East Main Street",
      "addr_housenumber": "1110"
    },
    {
      "id": 243988,
      "geometry": "POINT (-78.27531 37.826783)",
      "poi_name": "&pizza",
      "osm_id": 7690715625,
      "amenity": "fast_food",
      "cuisine": "pizza",
      "opening_hours": "11:00-24:00; Fr,Sa 11:00-01:30",
      "website": "https://www.andpizza.com/",
      "phone": "+1 202-335-5991",
      "takeaway": "yes",
      "outdoor_seating": "no",
      "delivery": "yes",
      "addr_state": "VA",
      "addr_city": "Richmond City",
      "addr_postcode": "23220",
      "addr_street": "North Laurel Street",
      "addr_housenumber": "308"
    }
  ],
  "answer_type": "loc",
  "question_entities": {
    "[1]": {
      "main_category": "amenity",
      "sub_category": "fast food restaurant"
    },
    "[2]": {
      "distance": 110000,
      "text": "110 kilometers"
    },
    "[3]": {
      "main_category": "leisure",
      "sub_category": "stadium",
      "display_name": "Costello Stadium, Palmyra, VA",
      "geo_wkt": "POINT (-78.27531 37.826783)",
      "poi": {
        "id": 267563,
        "geometry": "POINT (-78.27531 37.826783)",
        "poi_name": "Costello Stadium",
        "osm_id": 7683085715,
        "leisure": "stadium",
        "operator": "Fluvanna County Public Schools",
        "addr_state": "VA",
        "addr_city": "Palmyra",
        "addr_postcode": "22963",
        "addr_street": "Central Plains Road",
        "addr_housenumber": "3717"
      }
    },
    "[4]": {
      "direction_desc": "southeast",
      "direction_predicate": "degrees(ST_Azimuth(origin.geometry, pois.geometry)) BETWEEN 112.5 AND 157.5"
    }
  },
  "id": 24,
  "type": "range:direction+loc"
}