{
  "question": "Where can I find caf\u00e9 on the route to Miami Beach Urban Studios (FIU MBUS), Miami Beach, FL within 150 kilometers from Cox Science Center and Aquarium, West Palm Beach, FL?",
  "sql": "WITH\n    angle AS (SELECT degrees(ST_Azimuth(ST_GeomFromText('POINT (-80.069796 26.669305)',4326)::geography, ST_GeomFromText('POINT (-80.132523 25.790419)',4326)::geography)) AS value)\nSELECT * FROM pois,angle\nWHERE amenity = 'cafe'\nAND ST_DWithin(pois.geometry, ST_GeomFromText('POINT (-80.069796 26.669305)',4326)::geography, 150000)\nAND (degrees(ST_Azimuth(ST_GeomFromText('POINT (-80.069796 26.669305)',4326)::geography, pois.geometry)) BETWEEN angle.value - 22.5 AND angle.value + 22.5);\n",
  "answers": [
    {
      "id": 32250,
      "geometry": "POINT (-80.238208 25.744414)",
      "poi_name": "Mary's Cafeteria",
      "osm_id": 2623048423,
      "amenity": "cafe",
      "cuisine": "sandwich",
      "internet_access": "no",
      "phone": "+1 305 443-6672",
      "takeaway": "yes",
      "outdoor_seating": "yes",
      "addr_state": "FL",
      "addr_city": "Miami",
      "addr_postcode": "33133",
      "addr_street": "Southwest 27th Avenue",
      "addr_housenumber": "2542",
      "value": 183.69688930973703
    },
    {
      "id": 33436,
      "geometry": "POINT (-80.089212 26.570574)",
      "poi_name": "Starbucks",
      "osm_id": 2667771626,
      "amenity": "cafe",
      "cuisine": "coffee_shop",
      "internet_access": "yes",
      "takeaway": "yes",
      "official_name": "Starbucks Coffee",
      "addr_city": "Boynton Beach",
      "addr_postcode": "33426",
      "addr_street": "North Congress Avenue",
      "addr_housenumber": "4742",
      "value": 183.69688930973703
    },
    {
      "id": 34210,
      "geometry": "POINT (-80.131955 25.787441)",
      "poi_name": "Caffe Di Mauro",
      "osm_id": 2697912493,
      "amenity": "cafe",
      "phone": "(305) 673-5774",
      "addr_state": "FL",
      "addr_city": "Miami Beach",
      "addr_postcode": "33139",
      "addr_street": "Washington Avenue",
      "addr_housenumber": "1464",
      "value": 183.69688930973703
    },
    {
      "id": 37851,
      "geometry": "POINT (-80.11553 26.187774)",
      "poi_name": "Starbucks",
      "osm_id": 2834763428,
      "amenity": "cafe",
      "cuisine": "coffee_shop",
      "internet_access": "yes",
      "takeaway": "yes",
      "official_name": "Starbucks Coffee",
      "addr_state": "FL",
      "addr_city": "Fort Lauderdale",
      "addr_postcode": "33308",
      "addr_street": "Federal Highway",
      "addr_housenumber": "4854",
      "value": 183.69688930973703
    },
    {
      "id": 36600,
      "geometry": "POINT (-80.199254 25.799897)",
      "poi_name": "Panther Coffee",
      "osm_id": 2773797419,
      "amenity": "cafe",
      "cuisine": "coffee_shop",
      "opening_hours": "Su 08:00-21:00; Mo-Sa 07:00-21:00",
      "website": "https://www.panthercoffee.com/",
      "internet_access": "wlan",
      "phone": "+13056773952",
      "addr_state": "FL",
      "addr_city": "Miami",
      "addr_postcode": "33127",
      "addr_street": "Northwest 2nd Avenue",
      "addr_housenumber": "2390",
      "value": 183.69688930973703
    },
    {
      "id": 36642,
      "geometry": "POINT (-80.104465 26.121342)",
      "poi_name": "H2O Cafe",
      "osm_id": 2776914635,
      "amenity": "cafe",
      "website": "http://www.h2ocafe.net/",
      "outdoor_seating": "sidewalk",
      "addr_city": "Fort Lauderdale",
      "value": 183.69688930973703
    },
    {
      "id": 39783,
      "geometry": "POINT (-80.415183 25.684767)",
      "poi_name": "Starbucks",
      "osm_id": 2940215314,
      "amenity": "cafe",
      "cuisine": "coffee_shop",
      "takeaway": "yes",
      "official_name": "Starbucks Coffee",
      "addr_state": "FL",
      "addr_city": "Miami",
      "addr_postcode": "33186",
      "addr_street": "North Kendall Drive",
      "addr_housenumber": "13604",
      "value": 183.69688930973703
    },
    {
      "id": 39806,
      "geometry": "POINT (-80.167401 25.945467)",
      "poi_name": "Starbucks",
      "osm_id": 2940575408,
      "amenity": "cafe",
      "cuisine": "coffee_shop",
      "takeaway": "yes",
      "official_name": "Starbucks Coffee",
      "outdoor_seating": "yes",
      "addr_state": "FL",
      "addr_city": "Miami",
      "addr_postcode": "33179",
      "addr_street": "Northeast Miami Gardens Drive",
      "addr_housenumber": "1690",
      "value": 183.69688930973703
    },
    {
      "id": 44764,
      "geometry": "POINT (-80.202592 25.801613)",
      "poi_name": "Wynwood Cafe",
      "osm_id": 3175197146,
      "amenity": "cafe",
      "addr_state": "FL",
      "addr_city": "Miami",
      "addr_street": "Northwest 27th Street",
      "addr_housenumber": "450",
      "value": 183.69688930973703
    },
    {
      "id": 44239,
      "geometry": "POINT (-80.122 25.934569)",
      "poi_name": "Starbucks",
      "osm_id": 3151932634,
      "amenity": "cafe",
      "cuisine": "coffee_shop",
      "takeaway": "yes",
      "official_name": "Starbucks Coffee",
      "outdoor_seating": "yes",
      "addr_state": "FL",
      "addr_city": "Sunny Isles Beach",
      "addr_postcode": "33160",
      "addr_street": "Collins Avenue",
      "addr_housenumber": "17100",
      "value": 183.69688930973703
    },
    {
      "id": 45611,
      "geometry": "POINT (-80.183645 25.832469)",
      "poi_name": "Europa Car Wash & Cafe",
      "osm_id": 3219724629,
      "amenity": "cafe",
      "internet_access": "wlan",
      "addr_state": "FL",
      "addr_city": "Miami",
      "addr_street": "Biscayne Boulevard",
      "addr_housenumber": "6075",
      "value": 183.69688930973703
    },
    {
      "id": 54177,
      "geometry": "POINT (-80.135268 25.770419)",
      "poi_name": "SoBe Vegan",
      "osm_id": 10119894543,
      "amenity": "cafe",
      "addr_state": "FL",
      "addr_city": "Miami Beach",
      "addr_postcode": "33139",
      "addr_street": "Washington Avenue",
      "addr_housenumber": "110",
      "value": 183.69688930973703
    },
    {
      "id": 54531,
      "geometry": "POINT (-80.196432 25.767432)",
      "poi_name": "I Think She Is",
      "osm_id": 10138464476,
      "amenity": "cafe",
      "cuisine": "coffee_shop",
      "website": "https://ithinksheis.com/",
      "phone": "+17869778473",
      "addr_state": "FL",
      "addr_city": "Miami",
      "addr_postcode": "33130",
      "addr_street": "Southwest 7th Street",
      "addr_housenumber": "169",
      "value": 183.69688930973703
    },
    {
      "id": 54532,
      "geometry": "POINT (-80.260418 25.733396)",
      "poi_name": "GROU Coffee + Cowork",
      "osm_id": 10138470850,
      "amenity": "cafe",
      "cuisine": "coffee_shop",
      "website": "https://groucommunity.com/",
      "phone": "+19543290256",
      "addr_state": "FL",
      "addr_city": "Coral Gables",
      "addr_postcode": "33146",
      "addr_street": "Salzedo Street",
      "addr_housenumber": "4100",
      "value": 183.69688930973703
    },
    {
      "id": 58848,
      "geometry": "POINT (-80.315285 25.808781)",
      "poi_name": "Starbucks",
      "osm_id": 5400323721,
      "amenity": "cafe",
      "cuisine": "coffee_shop",
      "takeaway": "yes",
      "official_name": "Starbucks Coffee",
      "addr_state": "FL",
      "addr_city": "Miami",
      "addr_postcode": "33166",
      "addr_street": "Northwest 36th Street",
      "addr_housenumber": "7230",
      "value": 183.69688930973703
    },
    {
      "id": 60141,
      "geometry": "POINT (-80.054247 26.615932)",
      "poi_name": "Starbucks",
      "osm_id": 5457223965,
      "amenity": "cafe",
      "cuisine": "coffee_shop",
      "takeaway": "yes",
      "official_name": "Starbucks Coffee",
      "addr_state": "FL",
      "addr_city": "Lake Worth",
      "addr_postcode": "33460",
      "addr_street": "Lake Avenue",
      "addr_housenumber": "514",
      "value": 183.69688930973703
    },
    {
      "id": 73439,
      "geometry": "POINT (-80.257578 26.063922)",
      "poi_name": "Lunessa\u2019s Cafe",
      "osm_id": 9633447408,
      "amenity": "cafe",
      "cuisine": "breakfast;brunch;lunch",
      "opening_hours": "Tu-Su 08:00-14:30",
      "website": "http://lunessascafe.com/",
      "phone": "+19545147254",
      "addr_state": "FL",
      "addr_city": "Davie",
      "addr_postcode": "33328",
      "addr_street": "Griffin Road",
      "addr_housenumber": "8270",
      "value": 183.69688930973703
    },
    {
      "id": 60775,
      "geometry": "POINT (-80.175882 26.033826)",
      "poi_name": "Starbucks",
      "osm_id": 5480566562,
      "amenity": "cafe",
      "cuisine": "coffee_shop",
      "takeaway": "yes",
      "official_name": "Starbucks Coffee",
      "addr_state": "FL",
      "addr_city": "Hollywood",
      "addr_postcode": "33020",
      "addr_street": "Sheridan Street",
      "addr_housenumber": "3305",
      "value": 183.69688930973703
    },
    {
      "id": 63790,
      "geometry": "POINT (-80.136446 25.791392)",
      "poi_name": "XO Espresso Bar",
      "osm_id": 5629725240,
      "amenity": "cafe",
      "website": "http://xoespressobar.com/",
      "phone": "+15164746755",
      "addr_state": "FL",
      "addr_city": "Miami Beach",
      "addr_postcode": "33139",
      "addr_street": "Lincoln Lane North",
      "addr_housenumber": "723",
      "value": 183.69688930973703
    },
    {
      "id": 73560,
      "geometry": "POINT (-80.06017 26.526975)",
      "poi_name": "East Ocean Cafe",
      "osm_id": 9644476029,
      "amenity": "cafe",
      "opening_hours": "Mo-We 07:00-14:00; Th-Su 07:00-21:00",
      "website": "https://eastoceancafe.com/",
      "phone": "+1-561-200-6006",
      "outdoor_seating": "yes",
      "addr_state": "FL",
      "addr_city": "Boynton Beach",
      "addr_postcode": "33435",
      "addr_street": "East Ocean Avenue",
      "addr_housenumber": "412",
      "value": 183.69688930973703
    },
    {
      "id": 76745,
      "geometry": "POINT (-80.141056 26.132575)",
      "poi_name": "Circle House Coffee",
      "osm_id": 9791395146,
      "amenity": "cafe",
      "cuisine": "coffee_shop",
      "opening_hours": "Mo-Su 07:00-19:00",
      "website": "Www.circlehousecoffee.com",
      "phone": "9549706456",
      "addr_state": "FL",
      "addr_city": "Fort Lauderdale",
      "addr_postcode": "33304",
      "addr_street": "Northeast 3rd Avenue",
      "addr_housenumber": "727",
      "value": 183.69688930973703
    },
    {
      "id": 94622,
      "geometry": "POINT (-80.121686 25.939841)",
      "poi_name": "Joe & The Juice",
      "osm_id": 6371328999,
      "amenity": "cafe",
      "cuisine": "coffee_shop",
      "takeaway": "yes",
      "addr_state": "FL",
      "addr_city": "Sunny Isles Beach",
      "addr_postcode": "33160",
      "addr_street": "Collins Avenue",
      "addr_housenumber": "17700",
      "value": 183.69688930973703
    },
    {
      "id": 88521,
      "geometry": "POINT (-80.192091 25.774747)",
      "poi_name": "GVA BOX",
      "osm_id": 8786362780,
      "amenity": "cafe",
      "website": "https://gvabox.com/",
      "phone": "+17867447062",
      "addr_state": "FL",
      "addr_city": "Miami",
      "addr_postcode": "33132",
      "addr_street": "Northeast 1st Avenue 2b",
      "addr_housenumber": "39",
      "value": 183.69688930973703
    },
    {
      "id": 90546,
      "geometry": "POINT (-80.186613 25.794215)",
      "poi_name": "La Bottega",
      "osm_id": 2001778613,
      "amenity": "cafe",
      "cuisine": "italian",
      "phone": "+1 305 603 1003",
      "addr_city": "Miami",
      "addr_postcode": "33132",
      "addr_street": "North Bayshore Drive",
      "addr_housenumber": "1800",
      "value": 183.69688930973703
    },
    {
      "id": 104229,
      "geometry": "POINT (-80.263896 26.119562)",
      "poi_name": "Starbucks",
      "osm_id": 8555926417,
      "amenity": "cafe",
      "cuisine": "coffee_shop",
      "opening_hours": "Mo-Su 05:00-22:00",
      "internet_access": "wlan",
      "takeaway": "yes",
      "drive_through": "yes",
      "official_name": "Starbucks Coffee",
      "outdoor_seating": "yes",
      "addr_state": "FL",
      "addr_city": "Plantation",
      "addr_postcode": "33324",
      "addr_street": "South Pine Island Road",
      "addr_housenumber": "120",
      "value": 183.69688930973703
    },
    {
      "id": 113674,
      "geometry": "POINT (-80.256608 25.751246)",
      "poi_name": "Graziano's Market",
      "osm_id": 3843167590,
      "amenity": "cafe",
      "cuisine": "argentinian",
      "opening_hours": "07:00-22:00",
      "addr_state": "FL",
      "addr_city": "Coral Gables",
      "addr_street": "Galiano Street",
      "addr_housenumber": "2301",
      "value": 183.69688930973703
    },
    {
      "id": 113101,
      "geometry": "POINT (-80.126544 26.36785)",
      "poi_name": "Raw Juce",
      "osm_id": 3818782557,
      "amenity": "cafe",
      "cuisine": "health_food",
      "opening_hours": "6:30 - 18:00",
      "addr_state": "FL",
      "addr_city": "Boca Raton",
      "addr_postcode": "33431",
      "addr_street": "Glades Road",
      "addr_housenumber": "2200",
      "value": 183.69688930973703
    },
    {
      "id": 114526,
      "geometry": "POINT (-80.350659 25.892631)",
      "poi_name": "Starbucks",
      "osm_id": 3884975182,
      "amenity": "cafe",
      "cuisine": "coffee_shop",
      "takeaway": "yes",
      "official_name": "Starbucks Coffee",
      "addr_state": "FL",
      "addr_city": "Hialeah",
      "addr_postcode": "33018",
      "addr_street": "Hialeah/Hialeah Gardens Boulevard",
      "addr_housenumber": "7735",
      "value": 183.69688930973703
    },
    {
      "id": 119288,
      "geometry": "POINT (-80.101361 26.231947)",
      "poi_name": "Cafe Sportivo",
      "osm_id": 9095237813,
      "amenity": "cafe",
      "phone": "+1 (954) 782-6672",
      "addr_state": "FL",
      "addr_city": "Pompano Beach",
      "addr_postcode": "33062",
      "addr_street": "East Atlantic Boulevard",
      "addr_housenumber": "2219",
      "value": 183.69688930973703
    },
    {
      "id": 120794,
      "geometry": "POINT (-80.07707 26.316579)",
      "poi_name": "CoCo Fresh Tea & Juice",
      "osm_id": 6723716477,
      "amenity": "cafe",
      "cuisine": "bubble_tea",
      "takeaway": "yes",
      "addr_state": "FL",
      "addr_city": "Deerfield Beach",
      "addr_postcode": "33441",
      "addr_street": "Northeast 2nd Street",
      "addr_housenumber": "2009",
      "value": 183.69688930973703
    },
    {
      "id": 120999,
      "geometry": "POINT (-80.085303 26.346306)",
      "poi_name": "Saquella Cafe",
      "osm_id": 6737589372,
      "amenity": "cafe",
      "website": "https://www.saquellacafe.com/",
      "addr_city": "Boca Raton",
      "addr_postcode": "33432",
      "addr_street": "Via de Palmas",
      "addr_housenumber": "410",
      "value": 183.69688930973703
    },
    {
      "id": 126162,
      "geometry": "POINT (-80.142069 25.967087)",
      "poi_name": "Starbucks",
      "osm_id": 6986233273,
      "amenity": "cafe",
      "cuisine": "coffee_shop",
      "internet_access": "wlan",
      "takeaway": "yes",
      "official_name": "Starbucks Coffee",
      "addr_state": "FL",
      "addr_city": "Aventura",
      "addr_postcode": "33180",
      "addr_street": "Northeast 207th Terrace",
      "addr_housenumber": "2980",
      "value": 183.69688930973703
    },
    {
      "id": 133812,
      "geometry": "POINT (-80.417319 25.68674)",
      "poi_name": "Express Cafeteria",
      "osm_id": 10010402665,
      "amenity": "cafe",
      "addr_state": "FL",
      "addr_city": "Miami",
      "addr_postcode": "33183",
      "addr_street": "Southwest 137th Court",
      "addr_housenumber": "8670",
      "value": 183.69688930973703
    },
    {
      "id": 137645,
      "geometry": "POINT (-80.283192 26.153894)",
      "poi_name": "The Gobi Cafe",
      "osm_id": 6108824864,
      "amenity": "cafe",
      "cuisine": "coffee_shop;sandwich",
      "addr_state": "FL",
      "addr_city": "Sunrise",
      "addr_postcode": "33322",
      "addr_street": "Sunset Strip",
      "addr_housenumber": "10025",
      "value": 183.69688930973703
    },
    {
      "id": 137287,
      "geometry": "POINT (-80.198466 25.799313)",
      "poi_name": "La Sandwicherie Wynwood",
      "osm_id": 6091344845,
      "amenity": "cafe",
      "opening_hours": "07:00-17:00",
      "website": "https://www.lasandwicherie.com/",
      "phone": "(786) 409-2390",
      "addr_state": "FL",
      "addr_city": "Miami",
      "addr_postcode": "33127",
      "addr_street": "Northwest 23rd Street",
      "addr_housenumber": "169",
      "value": 183.69688930973703
    },
    {
      "id": 137319,
      "geometry": "POINT (-80.309024 25.926168)",
      "poi_name": "Starbucks",
      "osm_id": 6093884498,
      "amenity": "cafe",
      "cuisine": "coffee_shop",
      "takeaway": "yes",
      "official_name": "Starbucks Coffee",
      "addr_state": "FL",
      "addr_city": "Miami",
      "addr_postcode": "33015",
      "addr_street": "Northwest 67th Avenue",
      "addr_housenumber": "16735",
      "value": 183.69688930973703
    },
    {
      "id": 137658,
      "geometry": "POINT (-80.300822 26.16917)",
      "poi_name": "About Time Cafe",
      "osm_id": 6108973842,
      "amenity": "cafe",
      "cuisine": "breakfast;lunch",
      "opening_hours": "Tu-Sa 07:30-15:00; Su 07:30-14:30; Mo closed",
      "internet_access": "no",
      "outdoor_seating": "no",
      "addr_state": "FL",
      "addr_city": "Sunrise",
      "addr_postcode": "33351",
      "addr_street": "West Oakland Park Boulevard",
      "addr_housenumber": "11435",
      "value": 183.69688930973703
    },
    {
      "id": 137772,
      "geometry": "POINT (-80.300665 25.7331)",
      "poi_name": "Beehive Juice Bar",
      "osm_id": 6112915271,
      "amenity": "cafe",
      "opening_hours": "Mo-Sa 09:00-19:00",
      "website": "https://www.beehivejuicebarandcafe.getsauce.com/",
      "phone": "+1 305-663-1300",
      "addr_state": "FL",
      "addr_city": "Miami",
      "addr_postcode": "33155",
      "addr_street": "Bird Road",
      "addr_housenumber": "6490",
      "value": 183.69688930973703
    },
    {
      "id": 143617,
      "geometry": "POINT (-80.145598 25.960506)",
      "poi_name": "Raw J\u016bce",
      "osm_id": 6345720324,
      "amenity": "cafe",
      "addr_state": "FL",
      "addr_city": "Aventura",
      "addr_postcode": "33180",
      "addr_street": "Biscayne Boulevard",
      "addr_housenumber": "19911",
      "value": 183.69688930973703
    },
    {
      "id": 153064,
      "geometry": "POINT (-80.178894 25.847779)",
      "poi_name": "Le Cafe de Louison",
      "osm_id": 4175040134,
      "amenity": "cafe",
      "cuisine": "french",
      "opening_hours": "07:00-19:00",
      "internet_access": "yes",
      "addr_state": "FL",
      "addr_city": "Miami",
      "addr_postcode": "33138",
      "addr_street": "Northeast 79th Street",
      "addr_housenumber": "860 NE",
      "value": 183.69688930973703
    },
    {
      "id": 144089,
      "geometry": "POINT (-80.141672 25.955768)",
      "poi_name": "Starbucks",
      "osm_id": 6363176252,
      "amenity": "cafe",
      "cuisine": "coffee_shop",
      "wheelchair": "yes",
      "takeaway": "yes",
      "official_name": "Starbucks Coffee",
      "outdoor_seating": "no",
      "addr_state": "FL",
      "addr_city": "Aventura",
      "addr_postcode": "33180",
      "addr_street": "Biscayne Boulevard",
      "addr_housenumber": "19501",
      "value": 183.69688930973703
    },
    {
      "id": 145486,
      "geometry": "POINT (-80.071065 26.468163)",
      "poi_name": "Coffee District",
      "osm_id": 7360448901,
      "amenity": "cafe",
      "cuisine": "coffee_shop",
      "internet_access": "yes",
      "outdoor_seating": "yes",
      "addr_state": "FL",
      "addr_city": "Delray Beach",
      "addr_postcode": "33444",
      "addr_street": "Northeast 2nd Avenue",
      "addr_housenumber": "325",
      "value": 183.69688930973703
    },
    {
      "id": 149155,
      "geometry": "POINT (-80.132441 25.790504)",
      "poi_name": "Starbucks",
      "osm_id": 3998497003,
      "amenity": "cafe",
      "cuisine": "coffee_shop",
      "opening_hours": "Su-Th 06:00-23:00; Fr-Sa 06:00-00:00",
      "internet_access": "yes",
      "phone": "+1 305 673 9684",
      "takeaway": "yes",
      "official_name": "Starbucks Coffee",
      "addr_state": "FL",
      "addr_city": "Miami Beach",
      "addr_postcode": "33139",
      "addr_street": "Lincoln Road",
      "addr_housenumber": "416",
      "value": 183.69688930973703
    },
    {
      "id": 149156,
      "geometry": "POINT (-80.134335 25.790773)",
      "poi_name": "Starbucks",
      "osm_id": 3998497005,
      "amenity": "cafe",
      "cuisine": "coffee_shop",
      "internet_access": "yes",
      "phone": "+1 305 534 4613",
      "takeaway": "yes",
      "official_name": "Starbucks Coffee",
      "addr_state": "FL",
      "addr_city": "Miami Beach",
      "addr_postcode": "33139",
      "addr_street": "Lincoln Road",
      "addr_housenumber": "601",
      "value": 183.69688930973703
    },
    {
      "id": 149157,
      "geometry": "POINT (-80.137139 25.790377)",
      "poi_name": "Starbucks",
      "osm_id": 3998497007,
      "amenity": "cafe",
      "cuisine": "coffee_shop",
      "operator": "Starbucks",
      "internet_access": "wlan",
      "phone": "+1 786 743 2975",
      "takeaway": "yes",
      "official_name": "Starbucks Coffee",
      "addr_state": "FL",
      "addr_city": "Miami Beach",
      "addr_postcode": "33139",
      "addr_street": "Lincoln Road",
      "addr_housenumber": "826",
      "value": 183.69688930973703
    },
    {
      "id": 151585,
      "geometry": "POINT (-80.201803 25.801496)",
      "poi_name": "Miami Under Ground",
      "osm_id": 4106412781,
      "amenity": "cafe",
      "cuisine": "coffee_shop",
      "opening_hours": "Mo-Fr 07:00-16:00",
      "website": "http://www.mugwynwood.com/",
      "addr_state": "FL",
      "addr_city": "Miami",
      "addr_postcode": "33127",
      "addr_street": "Northwest 26th Street",
      "addr_housenumber": "331",
      "value": 183.69688930973703
    },
    {
      "id": 149213,
      "geometry": "POINT (-80.13972 25.790328)",
      "poi_name": "Segafredo",
      "osm_id": 3999743520,
      "amenity": "cafe",
      "cuisine": "coffee_shop",
      "opening_hours": "Su-Th 10:00-01:00; Fr-Sa 10:00-02:00",
      "website": "https://www.sze-originale.com/",
      "phone": "+1 305 673 0047",
      "takeaway": "yes",
      "addr_state": "FL",
      "addr_city": "Miami Beach",
      "addr_postcode": "33139",
      "addr_street": "Lincoln Road",
      "addr_housenumber": "1040",
      "value": 183.69688930973703
    },
    {
      "id": 161233,
      "geometry": "POINT (-80.120062 25.954539)",
      "poi_name": "Pizza Bianco",
      "osm_id": 4870803146,
      "amenity": "cafe",
      "cuisine": "pizza;italian;coffee_shop;sandwich;ice_cream",
      "opening_hours": "Mo-Su 10:00-22:00",
      "internet_access": "yes",
      "addr_state": "FL",
      "addr_city": "Sunny Isles Beach",
      "addr_postcode": "33160",
      "addr_street": "Collins Avenue",
      "addr_housenumber": "19201",
      "value": 183.69688930973703
    },
    {
      "id": 162371,
      "geometry": "POINT (-80.135308 25.770228)",
      "poi_name": "Pura Vida",
      "osm_id": 4928829324,
      "amenity": "cafe",
      "website": "https://www.puravidamiami.com",
      "addr_state": "FL",
      "addr_city": "Miami Beach",
      "addr_postcode": "33139",
      "addr_street": "Washington Avenue",
      "addr_housenumber": "110",
      "value": 183.69688930973703
    },
    {
      "id": 169312,
      "geometry": "POINT (-80.127389 26.10086)",
      "poi_name": "Starbucks",
      "osm_id": 2296576200,
      "amenity": "cafe",
      "cuisine": "coffee_shop",
      "opening_hours": "5:00-21:30",
      "takeaway": "yes",
      "official_name": "Starbucks Coffee",
      "outdoor_seating": "yes",
      "addr_city": "Fort Lauderdale",
      "addr_postcode": "33316",
      "addr_street": "Southeast 15th Street",
      "addr_housenumber": "1501",
      "value": 183.69688930973703
    },
    {
      "id": 163453,
      "geometry": "POINT (-80.394228 25.687416)",
      "poi_name": "Starbucks",
      "osm_id": 9419719078,
      "amenity": "cafe",
      "cuisine": "coffee_shop",
      "takeaway": "yes",
      "official_name": "Starbucks Coffee",
      "addr_state": "FL",
      "addr_city": "Miami",
      "addr_postcode": "33183",
      "addr_street": "Southwest 88th Street",
      "addr_housenumber": "12405",
      "value": 183.69688930973703
    },
    {
      "id": 163551,
      "geometry": "POINT (-80.394087 25.626344)",
      "poi_name": "Starbucks",
      "osm_id": 9424042984,
      "amenity": "cafe",
      "cuisine": "coffee_shop",
      "takeaway": "yes",
      "official_name": "Starbucks Coffee",
      "addr_state": "FL",
      "addr_city": "Miami",
      "addr_postcode": "33186",
      "addr_street": "Southwest 127th Avenue",
      "addr_housenumber": "15205",
      "value": 183.69688930973703
    },
    {
      "id": 180221,
      "geometry": "POINT (-80.131812 25.775715)",
      "poi_name": "Dolce Vita Gelati",
      "osm_id": 10795933662,
      "amenity": "cafe",
      "cuisine": "italian;ice_cream;coffee_shop",
      "wheelchair": "yes",
      "opening_hours": "Mo-Su 08:00-23:00",
      "website": "https://www.dolcevitagelati.com/",
      "internet_access": "yes",
      "outdoor_seating": "yes",
      "addr_state": "FL",
      "addr_city": "Miami Beach",
      "addr_postcode": "33139",
      "addr_street": "Ocean Drive",
      "addr_housenumber": "600",
      "value": 183.69688930973703
    },
    {
      "id": 169638,
      "geometry": "POINT (-80.184039 25.83861)",
      "poi_name": "Starbucks",
      "osm_id": 2311940212,
      "amenity": "cafe",
      "cuisine": "coffee_shop",
      "wheelchair": "yes",
      "internet_access": "wlan",
      "takeaway": "yes",
      "official_name": "Starbucks Coffee",
      "addr_city": "Miami",
      "addr_postcode": "33138",
      "addr_street": "Biscayne Boulevard",
      "addr_housenumber": "6815",
      "value": 183.69688930973703
    },
    {
      "id": 182894,
      "geometry": "POINT (-80.290758 25.940564)",
      "poi_name": "Starbucks",
      "osm_id": 10909214771,
      "amenity": "cafe",
      "cuisine": "coffee_shop",
      "takeaway": "yes",
      "official_name": "Starbucks Coffee",
      "outdoor_seating": "no",
      "addr_state": "FL",
      "addr_city": "Miami Gardens",
      "addr_postcode": "33055",
      "addr_street": "Northwest 183rd Street",
      "addr_housenumber": "5601",
      "value": 183.69688930973703
    },
    {
      "id": 184690,
      "geometry": "POINT (-80.142068 26.132816)",
      "poi_name": "Wells Coffee Company",
      "osm_id": 7806949276,
      "amenity": "cafe",
      "cuisine": "coffee_shop",
      "wheelchair": "yes",
      "website": "https://wellscoffees.com/",
      "internet_access": "wlan",
      "phone": "+1-954-982-2886",
      "takeaway": "yes",
      "outdoor_seating": "yes",
      "addr_state": "FL",
      "addr_city": "Fort Lauderdale",
      "addr_postcode": "33304",
      "addr_street": "Northeast 2nd Avenue",
      "addr_housenumber": "737",
      "value": 183.69688930973703
    },
    {
      "id": 206346,
      "geometry": "POINT (-80.140763 25.787671)",
      "poi_name": "Pinecrest Bakery & Caf\u00e9",
      "osm_id": 7206580385,
      "amenity": "cafe",
      "opening_hours": "24/7",
      "shop": "bakery",
      "addr_state": "FL",
      "addr_city": "Miami Beach",
      "addr_postcode": "33139",
      "addr_street": "Alton Road",
      "addr_housenumber": "1511",
      "value": 183.69688930973703
    },
    {
      "id": 210340,
      "geometry": "POINT (-80.13306 25.775044)",
      "poi_name": "Grand Cafe",
      "osm_id": 5097927622,
      "amenity": "cafe",
      "addr_state": "FL",
      "addr_city": "Miami Beach",
      "addr_postcode": "33139",
      "addr_street": "Collins Avenue",
      "addr_housenumber": "540",
      "value": 183.69688930973703
    },
    {
      "id": 211609,
      "geometry": "POINT (-80.163144 25.697802)",
      "poi_name": "Starbucks",
      "osm_id": 5165237879,
      "amenity": "cafe",
      "cuisine": "coffee_shop",
      "takeaway": "yes",
      "official_name": "Starbucks Coffee",
      "addr_state": "FL",
      "addr_city": "Key Biscayne",
      "addr_street": "Crandon Boulevard",
      "addr_housenumber": "200",
      "value": 183.69688930973703
    },
    {
      "id": 218358,
      "geometry": "POINT (-80.358581 25.589748)",
      "poi_name": "Starbucks",
      "osm_id": 9276075584,
      "amenity": "cafe",
      "cuisine": "coffee_shop",
      "opening_hours": "Mo 05:00-22:30; Tu 05:00-23:00; We 05:30-23:00; Th 06:00-22:00; Fr-Su 05:30-22:30",
      "website": "https://www.starbucks.com/store-locator/store/1005765/19151-s-dixie-hwy-19151-south-dixie-highway-cutler-bay-fl-331577737-",
      "internet_access": "wlan",
      "phone": "+1-305-232-6827",
      "takeaway": "yes",
      "drive_through": "yes",
      "official_name": "Starbucks Coffee",
      "outdoor_seating": "yes",
      "delivery": "yes",
      "addr_state": "FL",
      "addr_city": "Cutler Bay",
      "addr_postcode": "33157",
      "addr_street": "South Dixie Highway",
      "addr_housenumber": "19151",
      "value": 183.69688930973703
    },
    {
      "id": 223780,
      "geometry": "POINT (-80.249364 26.026981)",
      "poi_name": "CAO Bakery & Cafe",
      "osm_id": 11063571347,
      "amenity": "cafe",
      "website": "https://www.caobakerycafe.com/",
      "addr_state": "FL",
      "addr_city": "Pembroke Pines",
      "addr_postcode": "33024",
      "addr_street": "North University Drive",
      "addr_housenumber": "2060",
      "value": 183.69688930973703
    },
    {
      "id": 229144,
      "geometry": "POINT (-80.250716 26.265315)",
      "poi_name": "Starbucks",
      "osm_id": 4368881987,
      "amenity": "cafe",
      "cuisine": "coffee_shop",
      "takeaway": "yes",
      "official_name": "Starbucks Coffee",
      "addr_city": "Coral Springs",
      "addr_postcode": "33065",
      "addr_street": "North University Drive",
      "addr_housenumber": "2800",
      "value": 183.69688930973703
    },
    {
      "id": 225922,
      "geometry": "POINT (-80.193892 25.784584)",
      "poi_name": "ALL DAY",
      "osm_id": 11142824069,
      "amenity": "cafe",
      "addr_state": "FL",
      "addr_city": "Miami",
      "addr_postcode": "33136",
      "addr_street": "North Miami Avenue",
      "addr_housenumber": "1035",
      "value": 183.69688930973703
    },
    {
      "id": 232365,
      "geometry": "POINT (-80.203231 26.318706)",
      "poi_name": "Starbucks",
      "osm_id": 4521179336,
      "amenity": "cafe",
      "cuisine": "coffee_shop",
      "internet_access": "wlan",
      "phone": "+1-954-227-2108",
      "takeaway": "yes",
      "official_name": "Starbucks Coffee",
      "addr_state": "FL",
      "addr_city": "Parkland",
      "addr_postcode": "33073",
      "addr_street": "State Road 7",
      "addr_housenumber": "7091",
      "value": 183.69688930973703
    },
    {
      "id": 237540,
      "geometry": "POINT (-80.13164 25.786306)",
      "poi_name": "The Cat Caf\u00e9 South Beach",
      "osm_id": 5837658985,
      "amenity": "cafe",
      "cuisine": "coffee_shop",
      "opening_hours": "Mo-Su 09:00-21:00",
      "internet_access": "yes",
      "addr_state": "FL",
      "addr_city": "Miami Beach",
      "addr_postcode": "33139",
      "addr_street": "Washington Avenue",
      "addr_housenumber": "1423",
      "value": 183.69688930973703
    },
    {
      "id": 237773,
      "geometry": "POINT (-80.218868 25.765921)",
      "poi_name": "Guantanamera Cigars & Cafe",
      "osm_id": 5848695085,
      "amenity": "cafe",
      "website": "https://www.guantanameracigars.com/",
      "shop": "tobacco",
      "phone": "+1-786-618-5142",
      "addr_state": "FL",
      "addr_city": "Miami",
      "addr_postcode": "33135",
      "addr_street": "Southwest 8th Street",
      "addr_housenumber": "1465",
      "value": 183.69688930973703
    },
    {
      "id": 241473,
      "geometry": "POINT (-80.300267 25.694969)",
      "poi_name": "Starbucks",
      "osm_id": 6025987202,
      "amenity": "cafe",
      "cuisine": "coffee_shop",
      "takeaway": "yes",
      "official_name": "Starbucks Coffee",
      "addr_state": "FL",
      "addr_city": "Miami",
      "addr_postcode": "33143",
      "addr_street": "South Dixie Highway",
      "addr_housenumber": "6603",
      "value": 183.69688930973703
    },
    {
      "id": 239109,
      "geometry": "POINT (-80.274803 25.753114)",
      "poi_name": "Liberty Caff\u00e9",
      "osm_id": 5906417801,
      "amenity": "cafe",
      "description": "A small caff\u00e9 located inside the Coral Gables Country Club.",
      "website": "http://www.libertycaffe.com/",
      "internet_access": "yes",
      "phone": "(305) 392-1211",
      "outdoor_seating": "yes",
      "addr_state": "FL",
      "addr_city": "Coral Gables",
      "addr_postcode": "33134",
      "addr_street": "North Greenway Drive",
      "addr_housenumber": "997",
      "value": 183.69688930973703
    },
    {
      "id": 240731,
      "geometry": "POINT (-80.268745 26.128233)",
      "poi_name": "MacDaddy Sub Cafe",
      "osm_id": 5986283961,
      "amenity": "cafe",
      "cuisine": "sandwich",
      "wheelchair": "yes",
      "opening_hours": "Mo-Th 11:00-18:00, Fr 11:00-16:00, Sa 11:00-15:00",
      "website": "https://www.macdaddysubshop.com/",
      "phone": "+1-954-473-1111",
      "addr_state": "FL",
      "addr_city": "Plantation",
      "addr_postcode": "33324",
      "addr_street": "Cleary Boulevard",
      "addr_housenumber": "8966",
      "value": 183.69688930973703
    },
    {
      "id": 241328,
      "geometry": "POINT (-80.193599 25.862239)",
      "poi_name": "Starbucks",
      "osm_id": 6019671620,
      "amenity": "cafe",
      "cuisine": "coffee_shop",
      "takeaway": "yes",
      "official_name": "Starbucks Coffee",
      "addr_state": "FL",
      "addr_city": "Miami Shores",
      "addr_postcode": "33138",
      "addr_street": "Northeast 2nd Avenue",
      "addr_housenumber": "9478",
      "value": 183.69688930973703
    },
    {
      "id": 241346,
      "geometry": "POINT (-80.303877 25.733016)",
      "poi_name": "Starbucks",
      "osm_id": 6020065924,
      "amenity": "cafe",
      "cuisine": "coffee_shop",
      "takeaway": "yes",
      "official_name": "Starbucks Coffee",
      "addr_state": "FL",
      "addr_city": "Miami",
      "addr_postcode": "33155",
      "addr_street": "Southwest 40th Street",
      "addr_housenumber": "6702",
      "value": 183.69688930973703
    },
    {
      "id": 241514,
      "geometry": "POINT (-80.122235 25.93456)",
      "poi_name": "Wolsen Caff\u00e8",
      "osm_id": 6027314623,
      "amenity": "cafe",
      "cuisine": "european",
      "outdoor_seating": "yes",
      "addr_state": "FL",
      "addr_city": "Sunny Isles Beach",
      "addr_postcode": "33160",
      "addr_street": "Collins Avenue",
      "addr_housenumber": "17100",
      "value": 183.69688930973703
    },
    {
      "id": 241517,
      "geometry": "POINT (-80.159947 25.900299)",
      "poi_name": "Starbucks",
      "osm_id": 6027435589,
      "amenity": "cafe",
      "cuisine": "coffee_shop",
      "takeaway": "yes",
      "official_name": "Starbucks Coffee",
      "outdoor_seating": "yes",
      "addr_state": "FL",
      "addr_city": "North Miami Beach",
      "addr_postcode": "33181",
      "addr_street": "Biscayne Boulevard",
      "addr_housenumber": "13503",
      "value": 183.69688930973703
    },
    {
      "id": 241558,
      "geometry": "POINT (-80.147132 25.943898)",
      "poi_name": "Starbucks",
      "osm_id": 6029836527,
      "amenity": "cafe",
      "cuisine": "coffee_shop",
      "takeaway": "yes",
      "official_name": "Starbucks Coffee",
      "outdoor_seating": "yes",
      "addr_state": "FL",
      "addr_city": "Aventura",
      "addr_postcode": "33160",
      "addr_street": "Biscayne Boulevard",
      "addr_housenumber": "18215",
      "value": 183.69688930973703
    },
    {
      "id": 241674,
      "geometry": "POINT (-80.364776 25.68635)",
      "poi_name": "Starbucks",
      "osm_id": 6035367632,
      "amenity": "cafe",
      "cuisine": "coffee_shop",
      "wheelchair": "yes",
      "opening_hours": "Mo-Fr 05:30-20:30; Sa-Su 06:00-19:30",
      "website": "https://www.starbucks.com/store-locator/store/17154/kendall-dr-sw-107-ave-8805-sw-107th-ave-miami-fl-331761476-us",
      "internet_access": "wlan",
      "phone": "+1-305-271-0282",
      "takeaway": "yes",
      "drive_through": "no",
      "official_name": "Starbucks Coffee",
      "outdoor_seating": "yes",
      "delivery": "yes",
      "toilets": "yes",
      "addr_state": "FL",
      "addr_city": "Miami",
      "addr_postcode": "33176",
      "addr_street": "Southwest 107th Avenue",
      "addr_housenumber": "8805",
      "value": 183.69688930973703
    },
    {
      "id": 241645,
      "geometry": "POINT (-80.335374 25.746648)",
      "poi_name": "Starbucks",
      "osm_id": 6034194547,
      "amenity": "cafe",
      "cuisine": "coffee_shop",
      "wheelchair": "yes",
      "internet_access": "wlan",
      "takeaway": "yes",
      "official_name": "Starbucks Coffee",
      "outdoor_seating": "yes",
      "addr_state": "FL",
      "addr_city": "Miami",
      "addr_postcode": "33165",
      "addr_street": "Southwest 87th Avenue",
      "addr_housenumber": "2501",
      "value": 183.69688930973703
    },
    {
      "id": 241970,
      "geometry": "POINT (-80.326845 25.655482)",
      "poi_name": "Brewing Buddha Cafe & Arthouse",
      "osm_id": 6047566544,
      "amenity": "cafe",
      "website": "https://www.brewingbuddha.com/",
      "outdoor_seating": "yes",
      "addr_state": "FL",
      "addr_city": "Pinecrest",
      "addr_postcode": "33156",
      "addr_street": "Southwest 124th Street",
      "addr_housenumber": "8219",
      "value": 183.69688930973703
    }
  ],
  "answer_type": "loc",
  "question_entities": {
    "[2]": {
      "distance": 150000,
      "text": "150 kilometers"
    },
    "[3]": {
      "main_category": "tourism",
      "sub_category": "aquarium",
      "display_name": "Cox Science Center and Aquarium, West Palm Beach, FL",
      "geo_wkt": "POINT (-80.069796 26.669305)",
      "poi": {
        "id": 4789,
        "geometry": "POINT (-80.069796 26.669305)",
        "poi_name": "Cox Science Center and Aquarium",
        "osm_id": 9624174440,
        "tourism": "aquarium",
        "opening_hours": "Mo-Fr 09:00-17:00, Sa-Su 10:00-18:00",
        "website": "https://www.coxsciencecenter.org/",
        "phone": "+1 (561) 832-1988",
        "addr_state": "FL",
        "addr_city": "West Palm Beach",
        "addr_postcode": "33405",
        "addr_street": "Dreher Trail North",
        "addr_housenumber": "4801"
      }
    },
    "[4]": {
      "main_category": "amenity",
      "sub_category": "university",
      "display_name": "Miami Beach Urban Studios (FIU MBUS), Miami Beach, FL",
      "geo_wkt": "POINT (-80.132523 25.790419)",
      "poi": {
        "id": 53329,
        "geometry": "POINT (-80.132523 25.790419)",
        "poi_name": "Miami Beach Urban Studios (FIU MBUS)",
        "osm_id": 10075871652,
        "amenity": "university",
        "operator": "Florida International University",
        "website": "https://carta.fiu.edu/mbus/",
        "addr_state": "FL",
        "addr_city": "Miami Beach",
        "addr_postcode": "33139",
        "addr_street": "Lincoln Road",
        "addr_housenumber": "420"
      }
    },
    "[1]": {
      "main_category": "amenity",
      "sub_category": "cafe"
    }
  },
  "id": 1248,
  "type": "range:towards+loc"
}