{
  "question": "Seeking a steak house, ideally within 130 kilometers of UCHealth Sterling Ranch Medical Center, Littleton, CO. Can you find me its location?",
  "sql": "SELECT * FROM pois\nWHERE ST_DWithin(pois.geometry, ST_GeomFromText('POINT (-105.03746 39.506858)',4326)::geography, 130000)\nAND amenity = 'restaurant'\nAND cuisine ILIKE '%steak_house%';\n",
  "answers": [
    {
      "id": 27691,
      "geometry": "POINT (-104.9973 39.754424)",
      "poi_name": "The Keg",
      "osm_id": 442621224,
      "amenity": "restaurant",
      "cuisine": "steak_house",
      "addr_state": "CO",
      "addr_city": "Denver",
      "addr_postcode": "80202",
      "addr_street": "Wynkoop Street",
      "addr_housenumber": "1890"
    },
    {
      "id": 42492,
      "geometry": "POINT (-104.946286 39.740322)",
      "poi_name": "Bastien's Restaurant",
      "osm_id": 3066071282,
      "amenity": "restaurant",
      "cuisine": "steak_house",
      "opening_hours": "Mo-Th 15:30-21:30; Fr-Sa 17:00-22:00; Su 16:00-21:00",
      "phone": "+1-303-322-0363",
      "addr_state": "CO",
      "addr_city": "Denver",
      "addr_postcode": "80206",
      "addr_street": "East Colfax Avenue",
      "addr_housenumber": "3503"
    },
    {
      "id": 44195,
      "geometry": "POINT (-104.90032 39.624436)",
      "poi_name": "Shanahan's",
      "osm_id": 3148621556,
      "amenity": "restaurant",
      "cuisine": "steak_house",
      "website": "https://www.shanahanssteakhouse.com/",
      "phone": "+1-303-770-7300",
      "addr_state": "CO",
      "addr_city": "Denver",
      "addr_postcode": "80237",
      "addr_street": "South Syracuse Street",
      "addr_housenumber": "5085"
    },
    {
      "id": 51208,
      "geometry": "POINT (-105.005112 39.732253)",
      "poi_name": "Buckhorn Exchange",
      "osm_id": 519549594,
      "amenity": "restaurant",
      "cuisine": "steak_house",
      "website": "https://www.buckhorn.com/",
      "phone": "+1-303-534-9505",
      "wikidata": "Q60761501",
      "addr_state": "CO",
      "addr_city": "Denver",
      "addr_postcode": "80204",
      "addr_street": "Osage Street",
      "addr_housenumber": "1000"
    },
    {
      "id": 57441,
      "geometry": "POINT (-105.001482 39.750287)",
      "poi_name": "A5 Steakhouse",
      "osm_id": 5336839005,
      "amenity": "restaurant",
      "cuisine": "steak_house",
      "addr_state": "CO",
      "addr_city": "Denver",
      "addr_postcode": "80202",
      "addr_street": "15th Street",
      "addr_housenumber": "1600"
    },
    {
      "id": 64313,
      "geometry": "POINT (-105.026438 39.582778)",
      "poi_name": "Ted's Montana Grill",
      "osm_id": 5648019665,
      "amenity": "restaurant",
      "cuisine": "american;burger;steak_house",
      "website": "https://www.tedsmontanagrill.com/",
      "phone": "+1-720-283-2303",
      "addr_state": "CO",
      "addr_city": "Littleton",
      "addr_postcode": "80120",
      "addr_street": "South Santa Fe Drive",
      "addr_housenumber": "7301"
    },
    {
      "id": 98765,
      "geometry": "POINT (-106.374483 39.64023)",
      "poi_name": "Elway's Vail",
      "osm_id": 6532176110,
      "amenity": "restaurant",
      "cuisine": "steak_house",
      "website": "https://www.elways.com/vail-home",
      "addr_state": "CO",
      "addr_city": "Vail",
      "addr_postcode": "81657",
      "addr_street": "Gore Creek Drive",
      "addr_housenumber": "174"
    },
    {
      "id": 125621,
      "geometry": "POINT (-105.089547 39.61029)",
      "poi_name": "LongHorn Steakhouse",
      "osm_id": 6967108136,
      "amenity": "restaurant",
      "cuisine": "steak_house",
      "addr_state": "CO",
      "addr_city": "Littleton"
    },
    {
      "id": 145173,
      "geometry": "POINT (-105.122989 39.710492)",
      "poi_name": "Manning's Steaks and Spirits",
      "osm_id": 7321660133,
      "amenity": "restaurant",
      "cuisine": "steak_house;pasta;burger;sandwich;salad",
      "wheelchair": "yes",
      "website": "https://www.manningssteaksandspirits.com/",
      "phone": "+1-720-484-6567",
      "takeaway": "yes",
      "addr_state": "CO",
      "addr_city": "Lakewood",
      "addr_postcode": "80226",
      "addr_street": "West Alameda Avenue",
      "addr_housenumber": "11100"
    },
    {
      "id": 132089,
      "geometry": "POINT (-104.878507 39.470871)",
      "poi_name": "Duke's Steakhouse",
      "osm_id": 9941183012,
      "amenity": "restaurant",
      "cuisine": "steak_house",
      "addr_state": "CO",
      "addr_city": "Castle Pines",
      "addr_postcode": "80108",
      "addr_street": "Village Square Lane",
      "addr_housenumber": "363"
    },
    {
      "id": 162497,
      "geometry": "POINT (-104.839162 38.826063)",
      "poi_name": "Texas Roadhouse",
      "osm_id": 4933454036,
      "amenity": "restaurant",
      "cuisine": "steak_house",
      "wheelchair": "yes",
      "website": "https://www.texasroadhouse.com/restaurant-locations/colorado/colorado-springs-8th-street",
      "phone": "+1-719-473-9711",
      "takeaway": "yes",
      "outdoor_seating": "no",
      "toilets": "yes",
      "addr_state": "CO",
      "addr_city": "Colorado Springs",
      "addr_postcode": "80905",
      "addr_street": "South 8th Street",
      "addr_housenumber": "595"
    },
    {
      "id": 196256,
      "geometry": "POINT (-105.281662 40.016614)",
      "poi_name": "Corrida",
      "osm_id": 10571347714,
      "amenity": "restaurant",
      "cuisine": "spanish;steak_house",
      "website": "https://www.corridaboulder.com",
      "phone": "+1-303-444-1333",
      "outdoor_seating": "yes",
      "addr_state": "CO",
      "addr_city": "Boulder",
      "addr_postcode": "80302",
      "addr_street": "Walnut Street",
      "addr_housenumber": "1023"
    },
    {
      "id": 191055,
      "geometry": "POINT (-104.998829 39.747922)",
      "poi_name": "The Capital Grille",
      "osm_id": 1334018841,
      "amenity": "restaurant",
      "cuisine": "steak_house",
      "wheelchair": "yes",
      "website": "https://thecapitalgrille.com/",
      "addr_state": "CO",
      "addr_city": "Denver",
      "addr_postcode": "80202",
      "addr_street": "Larimer Street",
      "addr_housenumber": "1450"
    },
    {
      "id": 200393,
      "geometry": "POINT (-104.996866 39.746684)",
      "poi_name": "Prime Steakhouse",
      "osm_id": 1040578554,
      "amenity": "restaurant",
      "cuisine": "steak_house",
      "addr_state": "CO",
      "addr_city": "Denver",
      "addr_postcode": "80202",
      "addr_street": "15th Street",
      "addr_housenumber": "1060"
    },
    {
      "id": 199271,
      "geometry": "POINT (-105.515806 39.742068)",
      "poi_name": "MTN Prime",
      "osm_id": 950344596,
      "amenity": "restaurant",
      "cuisine": "steak_house",
      "website": "https://www.mtnprime.com/",
      "phone": "+1 720 428 8515",
      "addr_city": "Idaho Springs",
      "addr_postcode": "80452",
      "addr_street": "Miner Street",
      "addr_housenumber": "1600"
    },
    {
      "id": 199518,
      "geometry": "POINT (-105.079569 39.796675)",
      "poi_name": "Texas Roadhouse",
      "osm_id": 967362535,
      "amenity": "restaurant",
      "cuisine": "steak_house",
      "addr_state": "CO",
      "addr_city": "Arvada",
      "addr_postcode": "80002",
      "addr_street": "Vance Street",
      "addr_housenumber": "5515"
    },
    {
      "id": 206584,
      "geometry": "POINT (-105.073037 40.39609)",
      "poi_name": "The Black Steer",
      "osm_id": 7215693613,
      "amenity": "restaurant",
      "cuisine": "steak_house;american",
      "phone": "+1-970-667-6679",
      "addr_state": "CO",
      "addr_city": "Loveland",
      "addr_postcode": "80537",
      "addr_street": "North Lincoln Avenue",
      "addr_housenumber": "436"
    },
    {
      "id": 213072,
      "geometry": "POINT (-104.957287 39.717601)",
      "poi_name": "Elway's",
      "osm_id": 5234341657,
      "amenity": "restaurant",
      "cuisine": "steak_house",
      "opening_hours": "Mo-Th 11:00-21:00, Fr-Sa 11:00-22:00, Su 10:30-21:00",
      "website": "https://www.elways.com/",
      "phone": "+1-303-399-5353",
      "addr_state": "CO",
      "addr_city": "Denver",
      "addr_postcode": "80206",
      "addr_street": "East 1st Avenue",
      "addr_housenumber": "2500"
    },
    {
      "id": 227030,
      "geometry": "POINT (-104.95848 39.721126)",
      "poi_name": "Hillstone",
      "osm_id": 11177671539,
      "amenity": "restaurant",
      "cuisine": "american;asian;sushi;steak_house",
      "website": "https://hillstonerestaurant.com/locations/denver/",
      "phone": "+1-303-333-4688",
      "addr_state": "CO",
      "addr_city": "Denver",
      "addr_postcode": "80206",
      "addr_street": "Josephine Street",
      "addr_housenumber": "303"
    },
    {
      "id": 214720,
      "geometry": "POINT (-104.896723 39.622533)",
      "poi_name": "Ocean Prime",
      "osm_id": 5278720849,
      "amenity": "restaurant",
      "cuisine": "seafood;steak_house",
      "wheelchair": "yes",
      "opening_hours": "Mo-Th 11:00-21:00; Fr 11:00-22:00; Sa 16:00-22:00; Su 16:00-21:00",
      "website": "https://www.ocean-prime.com",
      "outdoor_seating": "yes",
      "toilets": "yes",
      "addr_state": "CO",
      "addr_city": "Greenwood Village",
      "addr_postcode": "80111",
      "addr_street": "East Belleview Avenue",
      "addr_housenumber": "8000"
    },
    {
      "id": 238116,
      "geometry": "POINT (-105.0773 40.588151)",
      "poi_name": "The Still Whiskey Steaks",
      "osm_id": 5862422645,
      "amenity": "restaurant",
      "cuisine": "american;steak_house",
      "opening_hours": "Mo-Fr 16:00-22:00; Sa 11:00-22:00; Su 11:00-21:00",
      "website": "https://www.thestillwhiskeysteaks.com/",
      "phone": "+1-970-294-4360",
      "takeaway": "yes",
      "outdoor_seating": "yes",
      "delivery": "no",
      "addr_state": "CO",
      "addr_city": "Fort Collins",
      "addr_postcode": "80524",
      "addr_street": "North College Avenue",
      "addr_housenumber": "151"
    }
  ],
  "answer_type": "loc",
  "question_entities": {
    "[1]": {
      "main_category": "amenity",
      "sub_category": "restaurant",
      "poi_filter_desc": "steak house",
      "poi_filter_sql": "cuisine ILIKE '%steak_house%'"
    },
    "[2]": {
      "distance": 130000,
      "text": "130 kilometers"
    },
    "[3]": {
      "main_category": "amenity",
      "sub_category": "hospital",
      "display_name": "UCHealth Sterling Ranch Medical Center, Littleton, CO",
      "geo_wkt": "POINT (-105.03746 39.506858)",
      "poi": {
        "id": 142946,
        "geometry": "POINT (-105.03746 39.506858)",
        "poi_name": "UCHealth Sterling Ranch Medical Center",
        "osm_id": 6326199968,
        "amenity": "hospital",
        "healthcare": "hospital",
        "addr_state": "CO",
        "addr_city": "Littleton",
        "addr_postcode": "80125",
        "addr_street": "Piney River Avenue",
        "addr_housenumber": "8155"
      }
    }
  },
  "id": 422,
  "type": "range:non_spat_filter+loc"
}