{
  "question": "Within a radius of 50 kilometers, where can I find  a fast food restaurant on the path leading to Fort Worth Elks Lodge 124, TX from Texas Health Heart & Vascular Hospital Arlington, Arlington, TX?",
  "sql": "WITH\n    angle AS (SELECT degrees(ST_Azimuth(ST_GeomFromText('POINT (-97.116453 32.748716)',4326)::geography, ST_GeomFromText('POINT (-97.335017 32.752908)',4326)::geography)) AS value)\nSELECT * FROM pois,angle\nWHERE amenity = 'fast_food'\nAND ST_DWithin(pois.geometry, ST_GeomFromText('POINT (-97.116453 32.748716)',4326)::geography, 50000)\nAND (degrees(ST_Azimuth(ST_GeomFromText('POINT (-97.116453 32.748716)',4326)::geography, pois.geometry)) BETWEEN angle.value - 22.5 AND angle.value + 22.5);\n",
  "answers": [
    {
      "id": 32128,
      "geometry": "POINT (-97.402908 32.676091)",
      "poi_name": "Freebirds",
      "osm_id": 2622585537,
      "amenity": "fast_food",
      "cuisine": "mexican",
      "opening_hours": "Mo-Su 10:30-21:30",
      "website": "https://www.freebirds.com/",
      "phone": "+1-817-294-7241",
      "takeaway": "yes",
      "drive_through": "no",
      "addr_state": "TX",
      "addr_city": "Fort Worth",
      "addr_postcode": "76132",
      "addr_street": "Overton Ridge Boulevard",
      "addr_housenumber": "4965",
      "value": 271.3593274619859
    },
    {
      "id": 40337,
      "geometry": "POINT (-97.544157 32.906508)",
      "poi_name": "Sonic",
      "osm_id": 2967651305,
      "amenity": "fast_food",
      "cuisine": "burger",
      "website": "https://locations.sonicdrivein.com/tx/azle/801-boyd-road.html",
      "phone": "+1-817-444-1603",
      "drive_through": "yes",
      "addr_state": "TX",
      "addr_city": "Azle",
      "addr_postcode": "76020",
      "addr_street": "Boyd Road",
      "addr_housenumber": "801",
      "value": 271.3593274619859
    },
    {
      "id": 34024,
      "geometry": "POINT (-97.360858 32.727892)",
      "poi_name": "Zo\u00ebs Kitchen",
      "osm_id": 2690520551,
      "amenity": "fast_food",
      "cuisine": "mediterranean",
      "takeaway": "yes",
      "addr_city": "Fort Worth",
      "addr_postcode": "76107",
      "addr_street": "South University Drive",
      "addr_housenumber": "1601",
      "value": 271.3593274619859
    },
    {
      "id": 35070,
      "geometry": "POINT (-97.4281 32.756256)",
      "poi_name": "Sonic",
      "osm_id": 2710072990,
      "amenity": "fast_food",
      "cuisine": "burger",
      "takeaway": "yes",
      "addr_state": "TX",
      "addr_city": "Westworth Village",
      "addr_postcode": "76114",
      "addr_street": "TX 183",
      "value": 271.3593274619859
    },
    {
      "id": 35071,
      "geometry": "POINT (-97.4285 32.755916)",
      "poi_name": "Chick-fil-A",
      "osm_id": 2710073026,
      "amenity": "fast_food",
      "cuisine": "chicken",
      "phone": "+1-817-735-8225",
      "takeaway": "yes",
      "drive_through": "yes",
      "addr_state": "TX",
      "addr_city": "Westworth Village",
      "addr_postcode": "76114",
      "addr_street": "TX 183",
      "addr_housenumber": "6650",
      "value": 271.3593274619859
    },
    {
      "id": 37300,
      "geometry": "POINT (-97.16864 32.756538)",
      "poi_name": "Schlotzsky's",
      "osm_id": 2806388143,
      "amenity": "fast_food",
      "cuisine": "sandwich",
      "phone": "+1-817-861-6900",
      "takeaway": "yes",
      "drive_through": "yes",
      "addr_state": "TX",
      "addr_city": "Fort Worth",
      "addr_postcode": "76120",
      "addr_street": "Eastchase Parkway",
      "addr_housenumber": "1548",
      "value": 271.3593274619859
    },
    {
      "id": 47694,
      "geometry": "POINT (-97.411914 32.730562)",
      "poi_name": "Wendy's",
      "osm_id": 3342997070,
      "amenity": "fast_food",
      "cuisine": "burger",
      "takeaway": "yes",
      "drive_through": "yes",
      "addr_state": "TX",
      "addr_city": "Fort Worth",
      "addr_postcode": "76107",
      "addr_street": "Camp Bowie Boulevard",
      "addr_housenumber": "5900",
      "value": 271.3593274619859
    },
    {
      "id": 47190,
      "geometry": "POINT (-97.42571 32.807589)",
      "poi_name": "Schlotzsky's",
      "osm_id": 3312185161,
      "amenity": "fast_food",
      "cuisine": "sandwich",
      "phone": "+1-817-882-6885",
      "takeaway": "yes",
      "addr_state": "TX",
      "addr_city": "Fort Worth",
      "addr_postcode": "76135",
      "addr_street": "Northwest Center Drive",
      "addr_housenumber": "3530",
      "value": 271.3593274619859
    },
    {
      "id": 83638,
      "geometry": "POINT (-97.430868 32.751738)",
      "poi_name": "McDonald's",
      "osm_id": 1755966406,
      "amenity": "fast_food",
      "cuisine": "burger",
      "website": "https://www.mcdonalds.com/us/en-us/location/tx/fort-worth/525-alta-mere-drive/32934.html",
      "takeaway": "yes",
      "addr_state": "TX",
      "addr_city": "Westworth Village",
      "addr_street": "Alta Mere Drive",
      "value": 271.3593274619859
    },
    {
      "id": 105591,
      "geometry": "POINT (-97.341343 32.737132)",
      "poi_name": "Chick-fil-A",
      "osm_id": 8635432929,
      "amenity": "fast_food",
      "cuisine": "chicken",
      "phone": "+1-682-885-6342",
      "takeaway": "yes",
      "addr_state": "TX",
      "addr_city": "Fort Worth",
      "addr_postcode": "76104",
      "addr_street": "7th Avenue",
      "addr_housenumber": "801",
      "value": 271.3593274619859
    },
    {
      "id": 105592,
      "geometry": "POINT (-97.398704 32.678671)",
      "poi_name": "Chick-fil-A",
      "osm_id": 8635434846,
      "amenity": "fast_food",
      "cuisine": "chicken",
      "phone": "+1-817-294-0094",
      "takeaway": "yes",
      "addr_state": "TX",
      "addr_city": "Fort Worth",
      "addr_postcode": "76132",
      "addr_street": "South Hulen Mall",
      "addr_housenumber": "4800",
      "value": 271.3593274619859
    },
    {
      "id": 125356,
      "geometry": "POINT (-97.431303 32.751377)",
      "poi_name": "Arby's",
      "osm_id": 6956772880,
      "amenity": "fast_food",
      "cuisine": "sandwich",
      "takeaway": "yes",
      "addr_state": "TX",
      "addr_city": "Westworth Village",
      "addr_street": "Alta Mere Drive",
      "addr_housenumber": "601",
      "value": 271.3593274619859
    },
    {
      "id": 125357,
      "geometry": "POINT (-97.431644 32.751104)",
      "poi_name": "Panda Express",
      "osm_id": 6956772881,
      "amenity": "fast_food",
      "cuisine": "chinese",
      "takeaway": "yes",
      "addr_state": "TX",
      "addr_city": "Westworth Village",
      "addr_street": "Alta Mere Drive",
      "addr_housenumber": "623",
      "value": 271.3593274619859
    },
    {
      "id": 127215,
      "geometry": "POINT (-97.424577 32.757993)",
      "poi_name": "Raising Cane's",
      "osm_id": 8042075888,
      "amenity": "fast_food",
      "cuisine": "chicken",
      "takeaway": "yes",
      "official_name": "Raising Cane's Chicken Fingers",
      "addr_state": "TX",
      "addr_city": "Westworth Village",
      "addr_postcode": "76114",
      "addr_street": "Westworth Boulevard",
      "value": 271.3593274619859
    },
    {
      "id": 127216,
      "geometry": "POINT (-97.425368 32.757309)",
      "poi_name": "Panera Bread",
      "osm_id": 8042075889,
      "amenity": "fast_food",
      "cuisine": "sandwich;bakery",
      "takeaway": "yes",
      "addr_state": "TX",
      "addr_city": "Westworth Village",
      "addr_postcode": "76114",
      "addr_street": "Westworth Boulevard",
      "value": 271.3593274619859
    },
    {
      "id": 131092,
      "geometry": "POINT (-97.3308 32.751095)",
      "poi_name": "J's Burgers N' More",
      "osm_id": 9901660694,
      "amenity": "fast_food",
      "cuisine": "burger",
      "website": "http://www.js-burgers.com/",
      "phone": "+1-817-332-5609",
      "takeaway": "yes",
      "outdoor_seating": "no",
      "delivery": "no",
      "addr_state": "TX",
      "addr_city": "Fort Worth",
      "addr_postcode": "76102",
      "addr_street": "Throckmorton Street",
      "addr_housenumber": "905",
      "value": 271.3593274619859
    },
    {
      "id": 133686,
      "geometry": "POINT (-97.347708 32.78871)",
      "poi_name": "Shake Shack",
      "osm_id": 10004434765,
      "amenity": "fast_food",
      "cuisine": "burger",
      "opening_hours": "Su-Th 11:00-22:00; Fr-Sa 11:00-23:00",
      "website": "https://shakeshack.com/location/stockyards-tx#/",
      "phone": "+1-817-885-5420",
      "takeaway": "yes",
      "addr_state": "TX",
      "addr_city": "Fort Worth",
      "addr_postcode": "76164",
      "addr_street": "East Exchange Avenue",
      "addr_housenumber": "122",
      "value": 271.3593274619859
    },
    {
      "id": 136991,
      "geometry": "POINT (-97.538289 32.89321)",
      "poi_name": "Chicken Express",
      "osm_id": 6080316662,
      "amenity": "fast_food",
      "addr_state": "TX",
      "addr_city": "Azle",
      "addr_postcode": "76020",
      "addr_street": "North Stewart Street",
      "value": 271.3593274619859
    },
    {
      "id": 144807,
      "geometry": "POINT (-97.414562 32.684748)",
      "poi_name": "Chipotle",
      "osm_id": 7287827027,
      "amenity": "fast_food",
      "cuisine": "mexican",
      "website": "https://locations.chipotle.com/tx/fort-worth/4484-bryant-irvin-rd",
      "phone": "+1-817-735-4506",
      "takeaway": "yes",
      "official_name": "Chipotle Mexican Grill",
      "outdoor_seating": "yes",
      "delivery": "yes",
      "addr_state": "TX",
      "addr_city": "Fort Worth",
      "addr_postcode": "76132",
      "addr_street": "Bryant Irvin Road",
      "addr_housenumber": "4484",
      "value": 271.3593274619859
    },
    {
      "id": 186000,
      "geometry": "POINT (-97.413207 32.685274)",
      "poi_name": "Genghis Grill",
      "osm_id": 7901902074,
      "amenity": "fast_food",
      "cuisine": "mongolian_grill",
      "opening_hours": "Su-Th 11:00-21:00; Fr-Sa 11:00-22:00",
      "website": "https://locations.genghisgrill.com/tx/fortworth/genghis-grill-1011.html",
      "internet_access": "wlan",
      "phone": "+1-817-737-5800",
      "takeaway": "yes",
      "delivery": "yes",
      "addr_state": "TX",
      "addr_city": "Fort Worth",
      "addr_postcode": "76132",
      "addr_street": "Bryant Irvin Road",
      "addr_housenumber": "4469",
      "value": 271.3593274619859
    },
    {
      "id": 153101,
      "geometry": "POINT (-97.462619 32.681492)",
      "poi_name": "McDonald's",
      "osm_id": 4176731790,
      "amenity": "fast_food",
      "cuisine": "burger",
      "website": "https://www.mcdonalds.com/us/en-us/location/tx/benbrook/8516-hwy-377-s/6753.html",
      "internet_access": "wlan",
      "takeaway": "yes",
      "addr_state": "TX",
      "addr_city": "Benbrook",
      "addr_street": "Benbrook Boulevard",
      "value": 271.3593274619859
    },
    {
      "id": 185707,
      "geometry": "POINT (-97.414305 32.67873)",
      "poi_name": "Firehouse Subs",
      "osm_id": 7878409281,
      "amenity": "fast_food",
      "cuisine": "sandwich",
      "opening_hours": "Mo-Su 10:30-21:00",
      "website": "https://www.firehousesubs.com/locations/tx/city-view-towne-crossing/",
      "phone": "+1-817-294-8000",
      "takeaway": "yes",
      "addr_state": "TX",
      "addr_city": "Fort Worth",
      "addr_postcode": "76132",
      "addr_street": "Bryant Irvin Road",
      "addr_housenumber": "4845",
      "value": 271.3593274619859
    },
    {
      "id": 185708,
      "geometry": "POINT (-97.414164 32.679259)",
      "poi_name": "Smoothie King",
      "osm_id": 7878409283,
      "amenity": "fast_food",
      "cuisine": "juice",
      "opening_hours": "Su 11:00-19:00; Mo-Fr 7:00-21:00; Sa 9:00-21:00",
      "website": "https://locations.smoothieking.com//ll/US/TX/Fort-Worth/4805-Bryant-Irvin-Road",
      "phone": "+1-817-423-3566",
      "takeaway": "yes",
      "delivery": "yes",
      "addr_state": "TX",
      "addr_city": "Fort Worth",
      "addr_postcode": "76132",
      "addr_street": "Bryant Irvin Road",
      "addr_housenumber": "4805",
      "value": 271.3593274619859
    },
    {
      "id": 185710,
      "geometry": "POINT (-97.414199 32.679126)",
      "poi_name": "Jimmy John's",
      "osm_id": 7878441392,
      "amenity": "fast_food",
      "cuisine": "sandwich",
      "opening_hours": "Mo-Su 10:00-22:00",
      "website": "https://locations.jimmyjohns.com/tx/fortworth/sandwiches-1542.html",
      "internet_access": "no",
      "phone": "+1-817-294-7000",
      "takeaway": "yes",
      "official_name": "Jimmy John's Gourmet Sandwiches",
      "delivery": "yes",
      "addr_state": "TX",
      "addr_city": "Fort Worth",
      "addr_postcode": "76132",
      "addr_street": "Bryant Irvin Road",
      "addr_housenumber": "4813",
      "value": 271.3593274619859
    },
    {
      "id": 185712,
      "geometry": "POINT (-97.41445 32.678393)",
      "poi_name": "Papa Yun\u2019s Donut",
      "osm_id": 7878441400,
      "amenity": "fast_food",
      "cuisine": "donut",
      "opening_hours": "Mo-Su 5:00-12:00",
      "website": "https://www.facebook.com/PapaYunsDonuts/",
      "phone": "+1-817-423-0164",
      "takeaway": "yes",
      "addr_state": "TX",
      "addr_city": "Fort Worth",
      "addr_postcode": "76132",
      "addr_street": "Bryant Irvin Road",
      "addr_housenumber": "4861",
      "value": 271.3593274619859
    },
    {
      "id": 186413,
      "geometry": "POINT (-97.412678 32.730404)",
      "poi_name": "Zeke's Fish & Chips",
      "osm_id": 7929396491,
      "amenity": "fast_food",
      "cuisine": "fish_and_chips;american",
      "website": "https://zekesfishandchips.net/",
      "phone": "+1-817-731-3321",
      "drive_through": "yes",
      "addr_state": "TX",
      "addr_city": "Fort Worth",
      "addr_postcode": "76107",
      "addr_street": "Curzon Avenue",
      "addr_housenumber": "5920",
      "value": 271.3593274619859
    },
    {
      "id": 186414,
      "geometry": "POINT (-97.413189 32.730002)",
      "poi_name": "Jack in the Box",
      "osm_id": 7929396492,
      "amenity": "fast_food",
      "cuisine": "burger",
      "takeaway": "yes",
      "addr_state": "TX",
      "addr_city": "Fort Worth",
      "addr_street": "Camp Bowie Boulevard",
      "addr_housenumber": "5930",
      "value": 271.3593274619859
    },
    {
      "id": 196139,
      "geometry": "POINT (-97.415401 32.729189)",
      "poi_name": "Rusty Taco",
      "osm_id": 10565779484,
      "amenity": "fast_food",
      "cuisine": "mexican",
      "addr_state": "TX",
      "addr_city": "Fort Worth",
      "value": 271.3593274619859
    },
    {
      "id": 205133,
      "geometry": "POINT (-97.399853 32.709035)",
      "poi_name": "Clean Juice",
      "osm_id": 7157927910,
      "amenity": "fast_food",
      "cuisine": "juice",
      "wheelchair": "yes",
      "website": "https://cleanjuicebar.com/",
      "internet_access": "wlan",
      "phone": "+1-682-312-5553",
      "takeaway": "yes",
      "addr_state": "TX",
      "addr_city": "Fort Worth",
      "addr_postcode": "76109",
      "addr_street": "Marathon Avenue",
      "addr_housenumber": "5233",
      "value": 271.3593274619859
    },
    {
      "id": 207466,
      "geometry": "POINT (-97.419059 32.72776)",
      "poi_name": "Jersey Mike's Subs",
      "osm_id": 4948999437,
      "amenity": "fast_food",
      "cuisine": "sandwich",
      "opening_hours": "Mo-Su 10:00-21:00",
      "website": "https://www.jerseymikes.com/15026/fort-worth-tx",
      "phone": "+1-817-570-5875",
      "takeaway": "yes",
      "drive_through": "no",
      "addr_state": "TX",
      "addr_city": "Fort Worth",
      "addr_postcode": "76116",
      "addr_street": "Camp Bowie Boulevard",
      "addr_housenumber": "6318",
      "value": 271.3593274619859
    },
    {
      "id": 222328,
      "geometry": "POINT (-97.412818 32.695275)",
      "poi_name": "Pak-A-Pocket Pita Sandwiches",
      "osm_id": 11014104553,
      "amenity": "fast_food",
      "cuisine": "sandwich",
      "opening_hours": "Mo-Fr 10:00-17:00",
      "website": "https://pakapocket.com/",
      "phone": "+1-817-735-4363",
      "drive_through": "no",
      "addr_state": "TX",
      "addr_city": "Fort Worth",
      "addr_postcode": "76109",
      "addr_street": "Bellaire Drive South",
      "addr_housenumber": "5512",
      "value": 271.3593274619859
    },
    {
      "id": 229033,
      "geometry": "POINT (-97.413825 32.729986)",
      "poi_name": "Schlotzsky's",
      "osm_id": 4364129831,
      "amenity": "fast_food",
      "cuisine": "sandwich",
      "phone": "+1-817-732-3021",
      "takeaway": "yes",
      "addr_state": "TX",
      "addr_city": "Fort Worth",
      "addr_postcode": "76116",
      "addr_street": "Camp Bowie Boulevard",
      "addr_housenumber": "6000",
      "value": 271.3593274619859
    },
    {
      "id": 234703,
      "geometry": "POINT (-97.479881 32.764405)",
      "poi_name": "Subway",
      "osm_id": 4631940477,
      "amenity": "fast_food",
      "cuisine": "sandwich",
      "takeaway": "yes",
      "addr_state": "TX",
      "addr_city": "Fort Worth",
      "addr_postcode": "76108",
      "value": 271.3593274619859
    }
  ],
  "answer_type": "loc",
  "question_entities": {
    "[2]": {
      "distance": 50000,
      "text": "50 kilometers"
    },
    "[3]": {
      "main_category": "amenity",
      "sub_category": "hospital",
      "display_name": "Texas Health Heart & Vascular Hospital Arlington, Arlington, TX",
      "geo_wkt": "POINT (-97.116453 32.748716)",
      "poi": {
        "id": 65705,
        "geometry": "POINT (-97.116453 32.748716)",
        "poi_name": "Texas Health Heart & Vascular Hospital Arlington",
        "osm_id": 5708269480,
        "amenity": "hospital",
        "opening_hours": "24/7",
        "operator": "Texas Health",
        "website": "http://texashealthheartandvascular.org/",
        "phone": "+1-817-960-3500",
        "healthcare": "hospital",
        "emergency": "yes",
        "addr_state": "TX",
        "addr_city": "Arlington",
        "addr_postcode": "76012",
        "addr_street": "Wright Street",
        "addr_housenumber": "811"
      }
    },
    "[4]": {
      "main_category": "tourism",
      "sub_category": "hotel",
      "display_name": "Fort Worth Elks Lodge 124, TX",
      "geo_wkt": "POINT (-97.335017 32.752908)",
      "poi": {
        "id": 18038,
        "geometry": "POINT (-97.335017 32.752908)",
        "poi_name": "Fort Worth Elks Lodge 124",
        "osm_id": 368165360,
        "tourism": "hotel",
        "addr_state": "TX"
      }
    },
    "[1]": {
      "main_category": "amenity",
      "sub_category": "fast_food"
    }
  },
  "id": 1204,
  "type": "range:towards+loc"
}