{
  "question": "Can you assist me in finding an emergency hospital, preferably within 100 kilometers from Gordon-Conwell theological Seminary, South Hamilton, MA?",
  "sql": "SELECT * FROM pois\nWHERE ST_DWithin(pois.geometry, ST_GeomFromText('POINT (-70.843039 42.606219)',4326)::geography, 100000)\nAND amenity = 'hospital'\nAND emergency ILIKE '%yes%';\n",
  "answers": [
    {
      "id": 188948,
      "geometry": "POINT (-71.070154 42.362739)",
      "poi_name": "Massachusetts Eye and Ear",
      "osm_id": 257489564,
      "amenity": "hospital",
      "opening_hours": "24/7",
      "website": "https://www.masseyeandear.org/",
      "phone": "+1 617 523 7900",
      "healthcare": "hospital",
      "emergency": "yes",
      "wikidata": "Q6784269",
      "addr_city": "Boston",
      "addr_postcode": "02114",
      "addr_street": "Charles Street",
      "addr_housenumber": "243"
    },
    {
      "id": 188950,
      "geometry": "POINT (-71.063996 42.349807)",
      "poi_name": "Floating Hospital for Children",
      "osm_id": 257489648,
      "amenity": "hospital",
      "opening_hours": "24/7",
      "operator": "Tufts Medical Center",
      "website": "https://www.floatinghospital.org/",
      "phone": "+1 617 636 8100",
      "healthcare": "hospital",
      "emergency": "yes",
      "wikidata": "Q22073805",
      "addr_city": "Boston",
      "addr_postcode": "02111",
      "addr_street": "Washington Street",
      "addr_housenumber": "755"
    },
    {
      "id": 188951,
      "geometry": "POINT (-70.906447 42.511844)",
      "poi_name": "MassGeneral for Children at North Shore Medical Center",
      "osm_id": 257489655,
      "amenity": "hospital",
      "opening_hours": "24/7",
      "website": "https://nsmc.partners.org/locations/nsmc_north_shore_childrens",
      "phone": "+1 978 745 2100",
      "healthcare": "hospital",
      "emergency": "yes",
      "addr_state": "MA",
      "addr_city": "Salem",
      "addr_postcode": "01970",
      "addr_street": "Highland Avenue",
      "addr_housenumber": "57"
    },
    {
      "id": 167446,
      "geometry": "POINT (-71.409129 41.811862)",
      "poi_name": "Rhode Island Hospital",
      "osm_id": 357258005,
      "amenity": "hospital",
      "opening_hours": "24/7",
      "operator": "Lifespan",
      "website": "https://www.rhodeislandhospital.org/",
      "phone": "+1 401 444 4000",
      "healthcare": "hospital",
      "emergency": "yes",
      "wikidata": "Q7320925",
      "addr_state": "RI",
      "addr_city": "Providence",
      "addr_postcode": "02903",
      "addr_street": "Eddy Street",
      "addr_housenumber": "593"
    },
    {
      "id": 167449,
      "geometry": "POINT (-71.407955 41.811266)",
      "poi_name": "Hasbro Children's Hospital",
      "osm_id": 357268037,
      "amenity": "hospital",
      "opening_hours": "24/7",
      "operator": "Lifespan",
      "website": "https://www.hasbrochildrenshospital.org/",
      "phone": "+1 401 444 4000",
      "healthcare": "hospital",
      "emergency": "yes",
      "wikidata": "Q30279910",
      "addr_state": "RI",
      "addr_city": "Providence",
      "addr_postcode": "02903",
      "addr_street": "Eddy Street",
      "addr_housenumber": "593"
    }
  ],
  "answer_type": "name",
  "question_entities": {
    "[1]": {
      "main_category": "amenity",
      "sub_category": "hospital",
      "poi_filter_desc": "emergency hospital",
      "poi_filter_sql": "emergency ILIKE '%yes%'"
    },
    "[2]": {
      "distance": 100000,
      "text": "100 kilometers"
    },
    "[3]": {
      "main_category": "amenity",
      "sub_category": "university",
      "display_name": "Gordon-Conwell Theological Seminary, South Hamilton, MA",
      "geo_wkt": "POINT (-70.843039 42.606219)",
      "poi": {
        "id": 158262,
        "geometry": "POINT (-70.843039 42.606219)",
        "poi_name": "Gordon-Conwell Theological Seminary",
        "osm_id": 4741463032,
        "amenity": "university",
        "addr_state": "MA",
        "addr_city": "South Hamilton",
        "addr_postcode": "01982",
        "addr_street": "Essex Street",
        "addr_housenumber": "130"
      }
    }
  },
  "id": 525,
  "type": "range:non_spat_filter+name"
}