{
  "question": "Which restaurant is available when approaching 3 Palms Zoo & Education Center, Townsend, DE within 80 kilometers from S 22nd and Sears St. Garden, Philadelphia, PA?",
  "sql": "WITH\n    angle AS (SELECT degrees(ST_Azimuth(ST_GeomFromText('POINT (-75.180513 39.935321)',4326)::geography, ST_GeomFromText('POINT (-75.695391 39.329473)',4326)::geography)) AS value)\nSELECT * FROM pois,angle\nWHERE amenity = 'restaurant'\nAND ST_DWithin(pois.geometry, ST_GeomFromText('POINT (-75.180513 39.935321)',4326)::geography, 80000)\nAND (degrees(ST_Azimuth(ST_GeomFromText('POINT (-75.180513 39.935321)',4326)::geography, pois.geometry)) BETWEEN angle.value - 22.5 AND angle.value + 22.5);\n",
  "answers": [
    {
      "id": 40191,
      "geometry": "POINT (-75.240336 39.877381)",
      "poi_name": "Chickie's & Pete's",
      "osm_id": 2960041033,
      "amenity": "restaurant",
      "value": 213.47455284019065
    },
    {
      "id": 29877,
      "geometry": "POINT (-75.225273 39.81476)",
      "poi_name": "Cinder Bar",
      "osm_id": 8330933455,
      "amenity": "restaurant",
      "cuisine": "american;pizza;burger",
      "website": "https://cinderbar.com",
      "phone": "(856) 888-4808",
      "addr_state": "NJ",
      "addr_city": "Clarksboro",
      "addr_postcode": "08020",
      "addr_street": "Berkley Road",
      "addr_housenumber": "119",
      "value": 213.47455284019065
    },
    {
      "id": 30619,
      "geometry": "POINT (-75.22377 39.814269)",
      "poi_name": "Idea Asian",
      "osm_id": 8369862972,
      "amenity": "restaurant",
      "cuisine": "sushi;japanese;chinese;thai",
      "phone": "(856) 599-1668",
      "addr_state": "NJ",
      "addr_city": "Clarksboro",
      "addr_postcode": "08020",
      "addr_street": "Berkley Road",
      "addr_housenumber": "121",
      "value": 213.47455284019065
    },
    {
      "id": 52772,
      "geometry": "POINT (-75.23222 39.81713)",
      "poi_name": "Grillbillies Island  BBQ",
      "osm_id": 10048015645,
      "amenity": "restaurant",
      "cuisine": "barbecue",
      "addr_state": "NJ",
      "addr_city": "Clarksboro",
      "addr_postcode": "08020",
      "addr_street": "Berkley Road",
      "addr_housenumber": "141",
      "value": 213.47455284019065
    },
    {
      "id": 61095,
      "geometry": "POINT (-75.561124 39.711912)",
      "poi_name": "Casablanca Moroccan Dinner",
      "osm_id": 5497751521,
      "amenity": "restaurant",
      "value": 213.47455284019065
    },
    {
      "id": 60944,
      "geometry": "POINT (-75.56174 39.72939)",
      "poi_name": "Timothy's",
      "osm_id": 5487704232,
      "amenity": "restaurant",
      "opening_hours": "Fr,Sa 11:30-12:00; Th,Su,Mo 11:30-22:00; Tu,We 11:30-21:00",
      "outdoor_seating": "yes",
      "value": 213.47455284019065
    },
    {
      "id": 60945,
      "geometry": "POINT (-75.561715 39.729485)",
      "poi_name": "Drop Squad Kitchen",
      "osm_id": 5487704233,
      "amenity": "restaurant",
      "opening_hours": "We-Fr 12:00-20:00; Mo 12:00-17:00; Tu 12:00-19:00",
      "outdoor_seating": "yes",
      "value": 213.47455284019065
    },
    {
      "id": 60946,
      "geometry": "POINT (-75.561801 39.729086)",
      "poi_name": "Ubon",
      "osm_id": 5487704234,
      "amenity": "restaurant",
      "opening_hours": "Tu-Th 12:00-20:00; Fr,Sa 12:00-20:30",
      "outdoor_seating": "yes",
      "value": 213.47455284019065
    },
    {
      "id": 60947,
      "geometry": "POINT (-75.560245 39.733874)",
      "poi_name": "Taco Grande",
      "osm_id": 5487704235,
      "amenity": "restaurant",
      "cuisine": "mexican",
      "opening_hours": "Mo off; Tu 16:00-21:00; We-Th,Su 11:30-21:00; Fr-Sa 11:30-22:00",
      "website": "https://tacogrande.com",
      "phone": "+1 302-407-3180",
      "addr_city": "Wilmington",
      "addr_postcode": "19801",
      "addr_street": "South Justison Street",
      "addr_housenumber": "600",
      "value": 213.47455284019065
    },
    {
      "id": 60948,
      "geometry": "POINT (-75.56052 39.733417)",
      "poi_name": "Iron Hills Brewery and Restaurant",
      "osm_id": 5487704237,
      "amenity": "restaurant",
      "opening_hours": "Mo,Tu 11:30-21:00; We,Th 11:30-22:00; Fr,Sa 11:30-23:00",
      "outdoor_seating": "yes",
      "value": 213.47455284019065
    },
    {
      "id": 60949,
      "geometry": "POINT (-75.561062 39.732668)",
      "poi_name": "Big Fish Grill",
      "osm_id": 5487704238,
      "amenity": "restaurant",
      "value": 213.47455284019065
    },
    {
      "id": 59370,
      "geometry": "POINT (-75.85741 39.5612)",
      "poi_name": "Triton Marina Bar & Grill",
      "osm_id": 5421551721,
      "amenity": "restaurant",
      "cuisine": "fish;fish_and_chips;burger;chicken;caribbean;hot_dog;ice_cream;local;pizza;sandwich;seafood",
      "opening_hours": "We-Su 12:00-24:00",
      "website": "https://www.tritonmarina.com/",
      "phone": "+1-443-350-9943",
      "addr_state": "MD",
      "addr_postcode": "21921",
      "addr_street": "Plum Point Road",
      "addr_housenumber": "285",
      "value": 213.47455284019065
    },
    {
      "id": 70606,
      "geometry": "POINT (-75.237549 39.878114)",
      "poi_name": "Chickie's And Pete's",
      "osm_id": 11367679391,
      "amenity": "restaurant",
      "cuisine": "american",
      "value": 213.47455284019065
    },
    {
      "id": 61247,
      "geometry": "POINT (-75.649422 39.638167)",
      "poi_name": "Texas Roadhouse",
      "osm_id": 5506797621,
      "amenity": "restaurant",
      "cuisine": "steak_house",
      "value": 213.47455284019065
    },
    {
      "id": 65519,
      "geometry": "POINT (-75.732227 39.448565)",
      "poi_name": "The Green Turtle",
      "osm_id": 5700020217,
      "amenity": "restaurant",
      "opening_hours": "Mo-Su 11:00-23:00; Fr,Sa 11:00-24:00",
      "addr_city": "Middletown",
      "addr_postcode": "19709",
      "addr_street": "South Ridge Avenue",
      "addr_housenumber": "416",
      "value": 213.47455284019065
    },
    {
      "id": 65632,
      "geometry": "POINT (-75.701139 39.451029)",
      "poi_name": "Roma Pizza",
      "osm_id": 5705975770,
      "amenity": "restaurant",
      "cuisine": "pizza",
      "addr_city": "Middletown",
      "addr_postcode": "19709",
      "addr_street": "East Main Street",
      "addr_housenumber": "401",
      "value": 213.47455284019065
    },
    {
      "id": 65633,
      "geometry": "POINT (-75.697972 39.450166)",
      "poi_name": "Salad Works",
      "osm_id": 5705975794,
      "amenity": "restaurant",
      "value": 213.47455284019065
    },
    {
      "id": 71026,
      "geometry": "POINT (-75.238028 39.878006)",
      "poi_name": "Gachi",
      "osm_id": 11379798122,
      "amenity": "restaurant",
      "cuisine": "ramen",
      "value": 213.47455284019065
    },
    {
      "id": 71028,
      "geometry": "POINT (-75.236832 39.877692)",
      "poi_name": "Good Luck Pizza Co.",
      "osm_id": 11379798125,
      "amenity": "restaurant",
      "cuisine": "pizza",
      "value": 213.47455284019065
    },
    {
      "id": 80277,
      "geometry": "POINT (-75.613629 39.656326)",
      "poi_name": "Hooters",
      "osm_id": 871792345,
      "amenity": "restaurant",
      "cuisine": "burger",
      "addr_state": "DE",
      "addr_city": "New Castle",
      "addr_postcode": "19720",
      "addr_street": "South Dupont Highway",
      "addr_housenumber": "194",
      "value": 213.47455284019065
    },
    {
      "id": 78799,
      "geometry": "POINT (-75.746349 39.601138)",
      "poi_name": "Mc Glynn's",
      "osm_id": 763170264,
      "amenity": "restaurant",
      "addr_city": "Newark",
      "addr_postcode": "19702",
      "addr_street": "Peoples Plaza",
      "addr_housenumber": "108",
      "value": 213.47455284019065
    },
    {
      "id": 92014,
      "geometry": "POINT (-75.624701 39.641499)",
      "poi_name": "Asian House",
      "osm_id": 2100732233,
      "amenity": "restaurant",
      "cuisine": "asian;japanese",
      "value": 213.47455284019065
    },
    {
      "id": 91562,
      "geometry": "POINT (-75.660894 39.635303)",
      "poi_name": "Teppanyaki Grill",
      "osm_id": 2073333371,
      "amenity": "restaurant",
      "opening_hours": "We-Mo 11:00-22:00",
      "outdoor_seating": "no",
      "addr_city": "Bear",
      "addr_postcode": "19701",
      "addr_street": "Governor's Place",
      "addr_housenumber": "209",
      "value": 213.47455284019065
    },
    {
      "id": 101072,
      "geometry": "POINT (-75.724474 39.44867)",
      "poi_name": "Cuzino's Family Kitchen",
      "osm_id": 6611246690,
      "amenity": "restaurant",
      "cuisine": "pizza;pasta",
      "opening_hours": "Mo-Th 09:30-22:00; Fr-Sa 09:30-23:00; Su 10:00-22:00; PH off",
      "website": "https://cuzinos.com/store/middletown/",
      "phone": "+1-302-449-0911",
      "addr_state": "DE",
      "addr_city": "Middletown",
      "addr_postcode": "19709",
      "addr_street": "West Main Street",
      "addr_housenumber": "464",
      "value": 213.47455284019065
    },
    {
      "id": 97406,
      "geometry": "POINT (-75.716409 39.449552)",
      "poi_name": "Broadway Diner",
      "osm_id": 6477934026,
      "amenity": "restaurant",
      "addr_city": "Middletown",
      "addr_postcode": "19709",
      "addr_street": "East Main Street",
      "addr_housenumber": "2",
      "value": 213.47455284019065
    },
    {
      "id": 97579,
      "geometry": "POINT (-75.693795 39.394624)",
      "poi_name": "Elentrio\u2019s Little Italy Pizzeria",
      "osm_id": 6484248034,
      "amenity": "restaurant",
      "cuisine": "italian",
      "opening_hours": "Mo-Sa 11:00-20:35",
      "website": "https://littleitalypizzashop-lips.com/",
      "addr_city": "Townsend",
      "addr_postcode": "19734",
      "addr_street": "Main Street",
      "addr_housenumber": "325",
      "value": 213.47455284019065
    },
    {
      "id": 97792,
      "geometry": "POINT (-75.30052 39.866442)",
      "poi_name": "Big Joe\u2019s Sandwich Shop",
      "osm_id": 6495401472,
      "amenity": "restaurant",
      "cuisine": "sandwich",
      "opening_hours": "Mo,Su off; Tu 10:30-19:30; We-Fr 10:00-20:00; Sa 10:30-20:00",
      "website": "http://www.bigjoessandwichshop.com",
      "phone": "+1 610-521-2444;+1 610-521-2333",
      "addr_state": "PA",
      "addr_city": "Essington",
      "addr_postcode": "19029",
      "addr_street": "Wanamaker Avenue",
      "addr_housenumber": "416",
      "value": 213.47455284019065
    },
    {
      "id": 97793,
      "geometry": "POINT (-75.30023 39.86644)",
      "poi_name": "Miller\u2019s Cafe",
      "osm_id": 6495401476,
      "amenity": "restaurant",
      "opening_hours": "Tu-Fr 07:00-14:00; Sa,Su 07:00-13:00",
      "phone": "+1 610-521-4740",
      "addr_city": "Essington",
      "addr_postcode": "19029-1308",
      "addr_street": "Powhattan Avenue",
      "addr_housenumber": "4",
      "value": 213.47455284019065
    },
    {
      "id": 91979,
      "geometry": "POINT (-75.654671 39.631898)",
      "poi_name": "El Tapatio",
      "osm_id": 2098655881,
      "amenity": "restaurant",
      "cuisine": "mexican",
      "value": 213.47455284019065
    },
    {
      "id": 91980,
      "geometry": "POINT (-75.654476 39.632006)",
      "poi_name": "Marino's Pizzeria",
      "osm_id": 2098655898,
      "amenity": "restaurant",
      "cuisine": "italian",
      "opening_hours": "Su-Th 10:00-21:00; Fr,Sa 10:00-22:00",
      "capacity": "35",
      "takeaway": "yes",
      "delivery": "yes",
      "addr_state": "DE",
      "addr_city": "Bear",
      "addr_postcode": "19701",
      "addr_street": "Eden Circle",
      "addr_housenumber": "515",
      "value": 213.47455284019065
    },
    {
      "id": 97993,
      "geometry": "POINT (-75.746152 39.627579)",
      "poi_name": "Rudy\u2019s",
      "osm_id": 6504521525,
      "amenity": "restaurant",
      "value": 213.47455284019065
    },
    {
      "id": 97994,
      "geometry": "POINT (-75.745124 39.624936)",
      "poi_name": "La Casa Pasta",
      "osm_id": 6504521909,
      "amenity": "restaurant",
      "value": 213.47455284019065
    },
    {
      "id": 99821,
      "geometry": "POINT (-75.591294 39.569447)",
      "poi_name": "Wiso's",
      "osm_id": 6566428097,
      "amenity": "restaurant",
      "cuisine": "seafood",
      "website": "https://wisoscrabs.com/wordpress/",
      "phone": "+1 302 836 0224",
      "addr_city": "Delaware City",
      "addr_postcode": "19706",
      "addr_street": "5th Street",
      "addr_housenumber": "101",
      "value": 213.47455284019065
    },
    {
      "id": 99822,
      "geometry": "POINT (-75.59186 39.570559)",
      "poi_name": "Kathy's Crab House",
      "osm_id": 6566428098,
      "amenity": "restaurant",
      "cuisine": "seafood",
      "value": 213.47455284019065
    },
    {
      "id": 104611,
      "geometry": "POINT (-75.580807 39.692321)",
      "poi_name": "Ever Green",
      "osm_id": 8577272511,
      "amenity": "restaurant",
      "cuisine": "chinese",
      "addr_state": "DE",
      "addr_city": "New Castle",
      "addr_postcode": "19720",
      "addr_street": "North Dupont Highway",
      "addr_housenumber": "1511",
      "value": 213.47455284019065
    },
    {
      "id": 101205,
      "geometry": "POINT (-75.711269 39.606555)",
      "poi_name": "Nasi Malay Thai Sushi",
      "osm_id": 6615223791,
      "amenity": "restaurant",
      "cuisine": "asian",
      "value": 213.47455284019065
    },
    {
      "id": 103001,
      "geometry": "POINT (-75.651042 39.672232)",
      "poi_name": "Honeygrow",
      "osm_id": 8476085223,
      "amenity": "restaurant",
      "opening_hours": "Mo-Su 10:30-22:00",
      "value": 213.47455284019065
    },
    {
      "id": 103006,
      "geometry": "POINT (-75.651455 39.671396)",
      "poi_name": "Ted's Montana Grill",
      "osm_id": 8476144166,
      "amenity": "restaurant",
      "cuisine": "american",
      "value": 213.47455284019065
    },
    {
      "id": 103007,
      "geometry": "POINT (-75.645898 39.67086)",
      "poi_name": "Main Event",
      "osm_id": 8476144176,
      "amenity": "restaurant",
      "value": 213.47455284019065
    },
    {
      "id": 103010,
      "geometry": "POINT (-75.648595 39.671201)",
      "poi_name": "MiDiCi",
      "osm_id": 8476259089,
      "amenity": "restaurant",
      "cuisine": "pizza",
      "value": 213.47455284019065
    },
    {
      "id": 106769,
      "geometry": "POINT (-75.246989 39.874804)",
      "poi_name": "Jack Duggan's",
      "osm_id": 3514950156,
      "amenity": "restaurant",
      "value": 213.47455284019065
    },
    {
      "id": 105418,
      "geometry": "POINT (-75.560142 39.735889)",
      "poi_name": "Del Pez Mexican Gastropub",
      "osm_id": 8627181807,
      "amenity": "restaurant",
      "opening_hours": "Mo-Fr 11:30-22:00; Sa,Su 11:00-22:00",
      "website": "https://www.orderdelpezonline.com",
      "outdoor_seating": "yes",
      "addr_street": "South Justison Street",
      "addr_housenumber": "400",
      "value": 213.47455284019065
    },
    {
      "id": 105377,
      "geometry": "POINT (-75.71703 39.449434)",
      "poi_name": "Marlena's Mediterranean Kitchen",
      "osm_id": 8623603445,
      "amenity": "restaurant",
      "opening_hours": "Tu-Sa 11:00-20:00",
      "website": "https://marlenaskitchen.com/",
      "addr_city": "Middletown",
      "addr_postcode": "19709",
      "addr_street": "West Main Street",
      "addr_housenumber": "10",
      "value": 213.47455284019065
    },
    {
      "id": 105465,
      "geometry": "POINT (-75.621427 39.650054)",
      "poi_name": "L&G Southern Soul Food",
      "osm_id": 8630161839,
      "amenity": "restaurant",
      "opening_hours": "Tu-Th 11:00-20:00; Fr 11:00-21:00; Sa 12:00-21:00; Su 12:00-17:00",
      "website": "https://www.orderlgsoulfood.com",
      "addr_city": "New Castle",
      "addr_postcode": "19720",
      "addr_street": "South Dupont Highway",
      "addr_housenumber": "317",
      "value": 213.47455284019065
    },
    {
      "id": 105467,
      "geometry": "POINT (-75.588922 39.682782)",
      "poi_name": "Cafe Pizzeria",
      "osm_id": 8630204926,
      "amenity": "restaurant",
      "website": "https://www.ordercafepizzeria.com",
      "value": 213.47455284019065
    },
    {
      "id": 105471,
      "geometry": "POINT (-75.554653 39.73739)",
      "poi_name": "La Taqueria Santa Fe",
      "osm_id": 8630251826,
      "amenity": "restaurant",
      "opening_hours": "Mo-Fr 10:00-18:00; Sa 10:00-15:00",
      "website": "https://www.orderlataqueriaonline.com",
      "phone": "+1 302-777-0107",
      "outdoor_seating": "no",
      "addr_state": "DE",
      "addr_city": "Wilmington",
      "addr_postcode": "19801",
      "addr_street": "South Orange Street",
      "addr_housenumber": "3",
      "value": 213.47455284019065
    },
    {
      "id": 116988,
      "geometry": "POINT (-75.732055 39.445132)",
      "poi_name": "Grotto Pizza",
      "osm_id": 8973181395,
      "amenity": "restaurant",
      "cuisine": "pizza",
      "opening_hours": "Fr-Su 11:00-00:00; Mo-Th 16:00-22:00",
      "website": "https://www.grottopizza.com/",
      "phone": "+13023149500",
      "addr_state": "DE",
      "addr_city": "Middletown",
      "addr_postcode": "19709",
      "addr_street": "Autopark Drive",
      "addr_housenumber": "309",
      "value": 213.47455284019065
    },
    {
      "id": 112704,
      "geometry": "POINT (-75.58781 39.579552)",
      "poi_name": "Crabby Dick's",
      "osm_id": 3802639033,
      "amenity": "restaurant",
      "value": 213.47455284019065
    },
    {
      "id": 111716,
      "geometry": "POINT (-75.747815 39.601966)",
      "poi_name": "La Piazza Di Caruso",
      "osm_id": 3760929058,
      "amenity": "restaurant",
      "opening_hours": "Mo-Th 10:00-22:00; Fr-Sa 10:00-22:30; Su 11:00-21:00",
      "addr_street": "Peoples Plaza",
      "addr_housenumber": "830",
      "value": 213.47455284019065
    },
    {
      "id": 111736,
      "geometry": "POINT (-75.722167 39.465358)",
      "poi_name": "Middletown Family Restaurant and Diner",
      "osm_id": 3761457512,
      "amenity": "restaurant",
      "opening_hours": "06:00-21:00",
      "website": "http://middletowndiner.com/",
      "addr_city": "Middletown",
      "addr_postcode": "19709",
      "addr_street": "Summit Bridge Road",
      "addr_housenumber": "5240",
      "value": 213.47455284019065
    },
    {
      "id": 116855,
      "geometry": "POINT (-75.563664 39.709126)",
      "poi_name": "New York Fried Chicken",
      "osm_id": 8964624737,
      "amenity": "restaurant",
      "cuisine": "fried_chicken;middle_eastern",
      "opening_hours": "Fr-Sa 11:00-01:00; Su 11:00-22:00; Mo-Th 11:00-23:00",
      "phone": "+13027773900",
      "addr_state": "DE",
      "addr_city": "New Castle",
      "addr_postcode": "19720",
      "addr_street": "North Dupont Highway",
      "addr_housenumber": "3900",
      "value": 213.47455284019065
    },
    {
      "id": 116989,
      "geometry": "POINT (-75.591572 39.680031)",
      "poi_name": "The Legend Restaurant and Bakery",
      "osm_id": 8973194909,
      "amenity": "restaurant",
      "cuisine": "diner;american",
      "opening_hours": "Mo-Su 06:30-21:00",
      "website": "https://www.facebook.com/thelegendrestaurantandbakery/",
      "phone": "+13023226222",
      "addr_state": "DE",
      "addr_city": "New Castle",
      "addr_postcode": "19720",
      "addr_street": "North Dupont Highway",
      "addr_housenumber": "201",
      "value": 213.47455284019065
    },
    {
      "id": 117005,
      "geometry": "POINT (-75.318561 39.737375)",
      "poi_name": "Swedesboro Diner",
      "osm_id": 8975119817,
      "amenity": "restaurant",
      "value": 213.47455284019065
    },
    {
      "id": 122943,
      "geometry": "POINT (-75.355676 39.379567)",
      "poi_name": "Bait Box",
      "osm_id": 6829143688,
      "amenity": "restaurant",
      "addr_state": "NJ",
      "addr_city": "Greenwich",
      "addr_postcode": "08323",
      "addr_street": "Hancock Harbor Road",
      "addr_housenumber": "30",
      "value": 213.47455284019065
    },
    {
      "id": 118313,
      "geometry": "POINT (-75.723519 39.451017)",
      "poi_name": "Seasons Pizza",
      "osm_id": 9039195563,
      "amenity": "restaurant",
      "cuisine": "pizza",
      "opening_hours": "Su-Th 10:00-21:00; Fr-Sa 10:00-22:00",
      "website": "https://www.seasonspizza.com/stores/middletown/",
      "phone": "(302) 376-7474",
      "addr_state": "DE",
      "addr_city": "Middletown",
      "addr_postcode": "19709",
      "addr_street": "Middletown Warwick Road",
      "addr_housenumber": "528",
      "value": 213.47455284019065
    },
    {
      "id": 120430,
      "geometry": "POINT (-75.707046 39.611385)",
      "poi_name": "Pizza Hut",
      "osm_id": 6703404891,
      "amenity": "restaurant",
      "cuisine": "pizza",
      "value": 213.47455284019065
    },
    {
      "id": 135534,
      "geometry": "POINT (-75.549883 39.742207)",
      "poi_name": "Bardea Steak",
      "osm_id": 11519944687,
      "amenity": "restaurant",
      "cuisine": "american;steak_house",
      "opening_hours": "Tu-Th 17:00-22:00; Fr-Sa 17:00-24:00",
      "website": "https://www.bardeasteak.com/",
      "phone": "+1-302-550-9600",
      "addr_state": "DE",
      "addr_city": "Wilmington",
      "addr_postcode": "19801",
      "addr_street": "North Market Street",
      "addr_housenumber": "608",
      "value": 213.47455284019065
    },
    {
      "id": 123727,
      "geometry": "POINT (-75.214172 39.917057)",
      "poi_name": "Gourmay Diner",
      "osm_id": 6875587099,
      "amenity": "restaurant",
      "addr_state": "PA",
      "addr_city": "Philadelphia",
      "addr_postcode": "19153",
      "addr_street": "Passyunk Avenue",
      "addr_housenumber": "6208",
      "value": 213.47455284019065
    },
    {
      "id": 131322,
      "geometry": "POINT (-75.504508 39.613113)",
      "poi_name": "China Moon",
      "osm_id": 9909855176,
      "amenity": "restaurant",
      "cuisine": "chinese",
      "opening_hours": "Tu-Th 11:00-22:00; Fr-Sa 11:00-22:30; Su 12:00-21:30",
      "website": "https://www.chinamoonpennsville.com/",
      "phone": "(856) 935-9000",
      "addr_state": "NJ",
      "addr_city": "Pennsville",
      "addr_postcode": "08070",
      "addr_street": "South Broadway",
      "addr_housenumber": "709",
      "value": 213.47455284019065
    },
    {
      "id": 135075,
      "geometry": "POINT (-75.507047 39.667144)",
      "poi_name": "Mucho Loco Mexican Restaurant",
      "osm_id": 11504212944,
      "amenity": "restaurant",
      "cuisine": "mexican",
      "opening_hours": "Mo-Sa 10:30-21:00; Su 15:00-21:00",
      "phone": "(856) 376-0499",
      "addr_state": "NJ",
      "addr_city": "Pennsville",
      "addr_postcode": "08070",
      "addr_street": "North Broadway",
      "addr_housenumber": "234",
      "value": 213.47455284019065
    },
    {
      "id": 136081,
      "geometry": "POINT (-75.288434 39.825253)",
      "poi_name": "Local Bar & Kitchen",
      "osm_id": 11559540944,
      "amenity": "restaurant",
      "website": "https://localbarnj.com",
      "phone": "+1-856-423-2233",
      "addr_state": "NJ",
      "addr_city": "Gibbstown",
      "addr_postcode": "08027",
      "addr_street": "West Broad Street",
      "addr_housenumber": "377",
      "value": 213.47455284019065
    },
    {
      "id": 144721,
      "geometry": "POINT (-75.650856 39.672154)",
      "poi_name": "Turning Point",
      "osm_id": 7282991185,
      "amenity": "restaurant",
      "cuisine": "american;breakfast",
      "opening_hours": "Mo-Su 07:30-15:00",
      "website": "http://www.theturningpoint.biz",
      "phone": "3027384326",
      "addr_postcode": "19702",
      "addr_street": "Fashion Center Boulevard",
      "addr_housenumber": "3204",
      "value": 213.47455284019065
    },
    {
      "id": 157097,
      "geometry": "POINT (-75.550817 39.740023)",
      "poi_name": "DH4 Restaurant",
      "osm_id": 4686729764,
      "amenity": "restaurant",
      "website": "http://dh4restaurant.com",
      "phone": "302-655-5259",
      "addr_state": "DE",
      "addr_city": "Wilmington",
      "addr_postcode": "19801",
      "addr_street": "East 4th Street",
      "addr_housenumber": "10",
      "value": 213.47455284019065
    },
    {
      "id": 149546,
      "geometry": "POINT (-75.608537 39.304714)",
      "poi_name": "Trevi Restaurant",
      "osm_id": 4015251047,
      "amenity": "restaurant",
      "value": 213.47455284019065
    },
    {
      "id": 149547,
      "geometry": "POINT (-75.609345 39.303876)",
      "poi_name": "Bridgeway Restaurant",
      "osm_id": 4015251685,
      "amenity": "restaurant",
      "value": 213.47455284019065
    },
    {
      "id": 193273,
      "geometry": "POINT (-75.705789 39.548178)",
      "poi_name": "Grain H2O",
      "osm_id": 1516067528,
      "amenity": "restaurant",
      "cuisine": "burger;american",
      "website": "https://h2o.grainathome.com",
      "outdoor_seating": "yes",
      "value": 213.47455284019065
    },
    {
      "id": 162697,
      "geometry": "POINT (-75.241659 39.900524)",
      "poi_name": "Hibachi Grill & Supreme Buffet",
      "osm_id": 4938687921,
      "amenity": "restaurant",
      "opening_hours": "Mo-Su 11:00-22:00",
      "value": 213.47455284019065
    },
    {
      "id": 187280,
      "geometry": "POINT (-75.340772 39.646108)",
      "poi_name": "Gao Sheng Chinese Restaurant",
      "osm_id": 1049107719,
      "amenity": "restaurant",
      "value": 213.47455284019065
    },
    {
      "id": 189680,
      "geometry": "POINT (-75.327128 39.65129)",
      "poi_name": "Woodstown Diner",
      "osm_id": 1242687249,
      "amenity": "restaurant",
      "cuisine": "diner",
      "takeaway": "yes",
      "outdoor_seating": "no",
      "value": 213.47455284019065
    },
    {
      "id": 191115,
      "geometry": "POINT (-75.830075 39.508048)",
      "poi_name": "Apo's Pizzeria",
      "osm_id": 1341405970,
      "amenity": "restaurant",
      "value": 213.47455284019065
    },
    {
      "id": 206605,
      "geometry": "POINT (-75.798986 39.60352)",
      "poi_name": "Los Parientes",
      "osm_id": 7217304902,
      "amenity": "restaurant",
      "cuisine": "mexican",
      "addr_state": "MD",
      "addr_city": "Elkton",
      "addr_postcode": "21921",
      "addr_street": "East Pulaski Highway",
      "addr_housenumber": "989",
      "value": 213.47455284019065
    },
    {
      "id": 199959,
      "geometry": "POINT (-75.581186 39.691891)",
      "poi_name": "Pizza & Pasta Italian Restaurant",
      "osm_id": 998909103,
      "amenity": "restaurant",
      "cuisine": "italian;pizza",
      "opening_hours": "Mo-Th 10:00-22:00; Fr-Sa 10:00-23:00",
      "phone": "+1 302 395 1030",
      "addr_state": "DE",
      "addr_city": "New Castle",
      "addr_postcode": "19720",
      "addr_street": "North Dupont Highway",
      "addr_housenumber": "1505",
      "value": 213.47455284019065
    },
    {
      "id": 206606,
      "geometry": "POINT (-75.79889 39.603552)",
      "poi_name": "Great Well",
      "osm_id": 7217304903,
      "amenity": "restaurant",
      "cuisine": "chinese",
      "website": "http://www.greatwallelkton.com/",
      "phone": "+1-410-392-9998",
      "addr_state": "MD",
      "addr_city": "Elkton",
      "addr_postcode": "21921",
      "addr_street": "East Pulaski Highway",
      "addr_housenumber": "991",
      "value": 213.47455284019065
    },
    {
      "id": 206607,
      "geometry": "POINT (-75.79876 39.603591)",
      "poi_name": "Dominick's Pizza",
      "osm_id": 7217304904,
      "amenity": "restaurant",
      "cuisine": "pizza",
      "opening_hours": "Mo-Sa 11:00-21:30; Su 11:00-20:30; PH off",
      "website": "https://dominickspizza.ordersnapp.com/",
      "phone": "+1-410-398-8900",
      "addr_state": "MD",
      "addr_city": "Elkton",
      "addr_postcode": "21921",
      "addr_street": "East Pulaski Highway",
      "addr_housenumber": "995",
      "value": 213.47455284019065
    },
    {
      "id": 206608,
      "geometry": "POINT (-75.802044 39.602904)",
      "poi_name": "Cuzino's Family Kitchen",
      "osm_id": 7217304911,
      "amenity": "restaurant",
      "cuisine": "pizza;pasta",
      "opening_hours": "Mo-Th 09:30-22:00; Fr-Sa 09:30-23:00; Su 10:00-22:00; PH off",
      "website": "https://cuzinos.com/store/elkton/",
      "phone": "+1-410-392-3030",
      "addr_state": "MD",
      "addr_city": "Elkton",
      "addr_postcode": "21921",
      "addr_street": "East Pulaski Highway",
      "addr_housenumber": "801",
      "value": 213.47455284019065
    },
    {
      "id": 206609,
      "geometry": "POINT (-75.803418 39.602476)",
      "poi_name": "Happy Panda Restaurant",
      "osm_id": 7217304918,
      "amenity": "restaurant",
      "cuisine": "chinese;thai;asian",
      "website": "http://www.orderhappypanda.com/",
      "phone": "+1-410-392-6913",
      "addr_state": "MD",
      "addr_city": "Elkton",
      "addr_postcode": "21921",
      "addr_street": "East Pulaski Highway",
      "addr_housenumber": "801",
      "value": 213.47455284019065
    },
    {
      "id": 211338,
      "geometry": "POINT (-75.554857 39.737076)",
      "poi_name": "Bank\u2019s Seafood Kitchen",
      "osm_id": 5154194236,
      "amenity": "restaurant",
      "cuisine": "seafood",
      "website": "https://www.banksseafoodkitchen.com",
      "phone": "+1-302-777-1500",
      "addr_state": "DE",
      "addr_city": "Wilmington",
      "addr_postcode": "19801",
      "addr_street": "South Market Street",
      "addr_housenumber": "101",
      "value": 213.47455284019065
    },
    {
      "id": 209162,
      "geometry": "POINT (-75.695334 39.618698)",
      "poi_name": "Route 40 Diner",
      "osm_id": 5025835422,
      "amenity": "restaurant",
      "cuisine": "diner;american",
      "addr_postcode": "19701",
      "addr_street": "Pulaski Highway",
      "addr_housenumber": "1705",
      "value": 213.47455284019065
    },
    {
      "id": 211339,
      "geometry": "POINT (-75.557223 39.737104)",
      "poi_name": "Docklands Riverfront",
      "osm_id": 5154194238,
      "amenity": "restaurant",
      "opening_hours": "Mo,Su off; Tu 11:30-21:00; We-Th 11:30-22:00; Fr 11:30-25:00, Sa 16:00-25:00",
      "website": "https://docklandsriverfront.com",
      "phone": "+1 302-658-6626",
      "addr_state": "DE",
      "addr_city": "Wilmington",
      "addr_postcode": "19801",
      "addr_street": "South West Street",
      "addr_housenumber": "110",
      "value": 213.47455284019065
    },
    {
      "id": 211341,
      "geometry": "POINT (-75.551357 39.74062)",
      "poi_name": "Dragon Cuisine",
      "osm_id": 5154194255,
      "amenity": "restaurant",
      "cuisine": "chinese",
      "opening_hours": "Mo-Sa 10:30-23:00; Su 11:00-22:30",
      "website": "https://www.dragoncuisinewilmington.com",
      "addr_city": "Wilmington",
      "addr_postcode": "19801",
      "addr_street": "North Market Street",
      "addr_housenumber": "401",
      "value": 213.47455284019065
    },
    {
      "id": 216334,
      "geometry": "POINT (-75.555344 39.721787)",
      "poi_name": "Karibbean Delight 2",
      "osm_id": 9167838873,
      "amenity": "restaurant",
      "cuisine": "international",
      "website": "http://www.karibbeandelight2.com/",
      "value": 213.47455284019065
    },
    {
      "id": 215815,
      "geometry": "POINT (-75.64079 39.415686)",
      "poi_name": "Odessa National Club House",
      "osm_id": 5314000456,
      "amenity": "restaurant",
      "addr_state": "DE",
      "addr_city": "Townsend",
      "addr_postcode": "19734",
      "addr_street": "Fieldsboro Road",
      "addr_housenumber": "1131",
      "value": 213.47455284019065
    },
    {
      "id": 216336,
      "geometry": "POINT (-75.544144 39.725346)",
      "poi_name": "El Tripleton De Alex",
      "osm_id": 9167929939,
      "amenity": "restaurant",
      "cuisine": "international",
      "value": 213.47455284019065
    },
    {
      "id": 224063,
      "geometry": "POINT (-75.78375 39.412531)",
      "poi_name": "Hammers Bar & Grill",
      "osm_id": 11072390938,
      "amenity": "restaurant",
      "addr_state": "MD",
      "addr_city": "Warwick",
      "addr_postcode": "21912",
      "addr_street": "Sassafrass Road",
      "addr_housenumber": "2",
      "value": 213.47455284019065
    },
    {
      "id": 216475,
      "geometry": "POINT (-75.507348 39.669186)",
      "poi_name": "China Inn Buffet",
      "osm_id": 9173205570,
      "amenity": "restaurant",
      "cuisine": "chinese",
      "website": "https://www.chinainnpennsville.com/",
      "phone": "856-678-4434",
      "addr_state": "NJ",
      "addr_city": "Pennsville",
      "addr_postcode": "08070",
      "addr_street": "North Broadway",
      "addr_housenumber": "251",
      "value": 213.47455284019065
    },
    {
      "id": 216476,
      "geometry": "POINT (-75.507229 39.669364)",
      "poi_name": "Pizza Hut",
      "osm_id": 9173205571,
      "amenity": "restaurant",
      "cuisine": "pizza",
      "opening_hours": "Su-Th 11:00-22:00; Fr-Sa 11:00-23:00",
      "phone": "(856) 678-4881",
      "addr_state": "NJ",
      "addr_city": "Pennsville",
      "addr_postcode": "08070",
      "addr_street": "North Broadway",
      "addr_housenumber": "269",
      "value": 213.47455284019065
    },
    {
      "id": 217966,
      "geometry": "POINT (-75.652347 39.687659)",
      "poi_name": "First Watch",
      "osm_id": 9251425266,
      "amenity": "restaurant",
      "cuisine": "american;breakfast",
      "opening_hours": "07:00-14:30",
      "website": "https://www.firstwatch.com/locations/christiana",
      "phone": "+1 302-894-4030",
      "official_name": "First Watch The Daytime Cafe",
      "addr_state": "DE",
      "addr_city": "Newark",
      "addr_postcode": "19713",
      "addr_street": "Geoffrey Drive",
      "addr_housenumber": "74",
      "value": 213.47455284019065
    },
    {
      "id": 231673,
      "geometry": "POINT (-75.656429 39.454168)",
      "poi_name": "Cantwell's Tavern",
      "osm_id": 4483832474,
      "amenity": "restaurant",
      "cuisine": "regional",
      "opening_hours": "11:30-23:00",
      "website": "https://www.cantwells-tavern.com/",
      "phone": "(302) 376-0600",
      "takeaway": "yes",
      "delivery": "no",
      "addr_city": "Odessa",
      "addr_postcode": "19730",
      "addr_street": "Main Street",
      "addr_housenumber": "109",
      "value": 213.47455284019065
    },
    {
      "id": 240329,
      "geometry": "POINT (-75.243821 39.873971)",
      "poi_name": "Mezzogiorno",
      "osm_id": 5967871738,
      "amenity": "restaurant",
      "value": 213.47455284019065
    },
    {
      "id": 240334,
      "geometry": "POINT (-75.243842 39.874952)",
      "poi_name": "Cibo Bistro and Wine Bar",
      "osm_id": 5967871748,
      "amenity": "restaurant",
      "value": 213.47455284019065
    },
    {
      "id": 240335,
      "geometry": "POINT (-75.243724 39.875235)",
      "poi_name": "Love Grille",
      "osm_id": 5967871749,
      "amenity": "restaurant",
      "value": 213.47455284019065
    },
    {
      "id": 240339,
      "geometry": "POINT (-75.251308 39.874175)",
      "poi_name": "Gachi Sushi & Noodles",
      "osm_id": 5967871759,
      "amenity": "restaurant",
      "cuisine": "sushi",
      "value": 213.47455284019065
    },
    {
      "id": 228823,
      "geometry": "POINT (-75.33868 39.389614)",
      "poi_name": "Aunt Betty's",
      "osm_id": 4356709696,
      "amenity": "restaurant",
      "value": 213.47455284019065
    },
    {
      "id": 228986,
      "geometry": "POINT (-75.650953 39.678449)",
      "poi_name": "The Cheesecake Factory",
      "osm_id": 4361743096,
      "amenity": "restaurant",
      "cuisine": "american",
      "value": 213.47455284019065
    }
  ],
  "answer_type": "name",
  "question_entities": {
    "[2]": {
      "distance": 80000,
      "text": "80 kilometers"
    },
    "[3]": {
      "main_category": "leisure",
      "sub_category": "garden",
      "display_name": "S 22nd and Sears St. Garden, Philadelphia, PA",
      "geo_wkt": "POINT (-75.180513 39.935321)",
      "poi": {
        "id": 247116,
        "geometry": "POINT (-75.180513 39.935321)",
        "poi_name": "S 22nd and Sears St. Garden",
        "osm_id": 3559344530,
        "leisure": "garden",
        "addr_state": "PA",
        "addr_city": "Philadelphia",
        "addr_street": "S 22nd St",
        "addr_housenumber": "1315"
      }
    },
    "[4]": {
      "main_category": "tourism",
      "sub_category": "zoo",
      "display_name": "3 Palms Zoo & Education Center, Townsend, DE",
      "geo_wkt": "POINT (-75.695391 39.329473)",
      "poi": {
        "id": 9742,
        "geometry": "POINT (-75.695391 39.329473)",
        "poi_name": "3 Palms Zoo & Education Center",
        "osm_id": 8969296347,
        "tourism": "zoo",
        "wheelchair": "limited",
        "fee": "yes",
        "opening_hours": "Mo-Su 11:00-15:00",
        "operator": "3 Palms Zoo LLC",
        "website": "https://3palmszoo.org",
        "phone": "+1 302-504-6500",
        "zoo": "petting_zoo",
        "addr_state": "DE",
        "addr_city": "Townsend",
        "addr_postcode": "19734",
        "addr_street": "Vandyke Greenspring Road",
        "addr_housenumber": "1060"
      }
    },
    "[1]": {
      "main_category": "amenity",
      "sub_category": "restaurant"
    }
  },
  "id": 1600,
  "type": "range:towards+name"
}