{
  "question": "Where can I find fast food restaurant on the route to the Front, New Orleans, LA within 110 kilometers from Regency Hospital Of Covington, Covington, LA?",
  "sql": "WITH\n    angle AS (SELECT degrees(ST_Azimuth(ST_GeomFromText('POINT (-90.135037 30.458434)',4326)::geography, ST_GeomFromText('POINT (-90.034377 29.965241)',4326)::geography)) AS value)\nSELECT * FROM pois,angle\nWHERE amenity = 'fast_food'\nAND ST_DWithin(pois.geometry, ST_GeomFromText('POINT (-90.135037 30.458434)',4326)::geography, 110000)\nAND (degrees(ST_Azimuth(ST_GeomFromText('POINT (-90.135037 30.458434)',4326)::geography, pois.geometry)) BETWEEN angle.value - 22.5 AND angle.value + 22.5);\n",
  "answers": [
    {
      "id": 33172,
      "geometry": "POINT (-90.070538 29.95302)",
      "poi_name": "Subway",
      "osm_id": 2655156454,
      "amenity": "fast_food",
      "cuisine": "sandwich",
      "website": "https://www.subway.com/",
      "takeaway": "yes",
      "addr_city": "New Orleans",
      "addr_postcode": "70130",
      "addr_street": "Carondelet Street",
      "addr_housenumber": "132",
      "value": 169.9225950046708
    },
    {
      "id": 47755,
      "geometry": "POINT (-90.087834 29.923266)",
      "poi_name": "Smashburger",
      "osm_id": 3346766945,
      "amenity": "fast_food",
      "cuisine": "burger",
      "takeaway": "yes",
      "addr_state": "LA",
      "addr_city": "New Orleans",
      "addr_postcode": "70115",
      "addr_street": "Magazine Street",
      "addr_housenumber": "3300",
      "value": 169.9225950046708
    },
    {
      "id": 47868,
      "geometry": "POINT (-90.101864 29.939949)",
      "poi_name": "Popeyes",
      "osm_id": 3354061874,
      "amenity": "fast_food",
      "cuisine": "chicken",
      "opening_hours": "Mo-Su 10:00-23:00",
      "website": "https://www.popeyes.com/store-locator/store/restaurant_83379",
      "phone": "504-269-8171",
      "takeaway": "yes",
      "drive_through": "yes",
      "official_name": "Popeyes Louisiana Kitchen",
      "addr_state": "LA",
      "addr_city": "New Orleans",
      "addr_postcode": "70115",
      "addr_street": "South Claiborne Avenue",
      "addr_housenumber": "4238",
      "value": 169.9225950046708
    },
    {
      "id": 47877,
      "geometry": "POINT (-90.082909 29.926157)",
      "poi_name": "Chipotle",
      "osm_id": 3354553073,
      "amenity": "fast_food",
      "cuisine": "mexican",
      "opening_hours": "Mo-Su 10:45-22:00",
      "website": "https://locations.chipotle.com/la/new-orleans/2801-magazine-st",
      "phone": "504-636-8544",
      "takeaway": "yes",
      "drive_through": "no",
      "official_name": "Chipotle Mexican Grill",
      "addr_state": "LA",
      "addr_city": "New Orleans",
      "addr_postcode": "70115",
      "addr_street": "Magazine Street",
      "addr_housenumber": "2801",
      "value": 169.9225950046708
    },
    {
      "id": 76466,
      "geometry": "POINT (-90.124716 30.001661)",
      "poi_name": "Subway",
      "osm_id": 9778325458,
      "amenity": "fast_food",
      "cuisine": "sandwich",
      "takeaway": "yes",
      "addr_city": "Metairie",
      "addr_postcode": "70005",
      "addr_street": "Veterans Memorial Boulevard",
      "addr_housenumber": "201",
      "value": 169.9225950046708
    },
    {
      "id": 76510,
      "geometry": "POINT (-90.09642 29.874534)",
      "poi_name": "Chick-fil-A",
      "osm_id": 9780020451,
      "amenity": "fast_food",
      "cuisine": "chicken",
      "takeaway": "yes",
      "addr_city": "Marrero",
      "addr_postcode": "70072",
      "addr_street": "Lapalco Boulevard",
      "addr_housenumber": "4951",
      "value": 169.9225950046708
    },
    {
      "id": 79617,
      "geometry": "POINT (-90.113818 29.946953)",
      "poi_name": "Mid City Pizza",
      "osm_id": 818431973,
      "amenity": "fast_food",
      "cuisine": "pizza",
      "website": "https://www.midcitypizza.com/",
      "phone": "504-509-6224",
      "takeaway": "yes",
      "drive_through": "no",
      "delivery": "yes",
      "addr_state": "LA",
      "addr_city": "New Orleans",
      "addr_postcode": "70125",
      "addr_street": "South Miro Street",
      "addr_housenumber": "6307",
      "value": 169.9225950046708
    },
    {
      "id": 93821,
      "geometry": "POINT (-90.065307 29.953156)",
      "poi_name": "Subway",
      "osm_id": 2188124095,
      "amenity": "fast_food",
      "cuisine": "sandwich",
      "wheelchair": "yes",
      "website": "https://restaurants.subway.com/united-states/la/new-orleans/237-n-peters",
      "takeaway": "yes",
      "addr_state": "LA",
      "addr_city": "New Orleans",
      "addr_postcode": "70130",
      "addr_street": "North Peters Street",
      "addr_housenumber": "237",
      "value": 169.9225950046708
    },
    {
      "id": 120878,
      "geometry": "POINT (-90.114958 29.961455)",
      "poi_name": "Popeyes",
      "osm_id": 6727685184,
      "amenity": "fast_food",
      "cuisine": "chicken",
      "opening_hours": "Su-Th 10:00-00:00; Fr-Sa 10:00-01:00",
      "website": "https://www.popeyes.com/",
      "phone": "504-486-6521",
      "takeaway": "yes",
      "drive_through": "yes",
      "official_name": "Popeyes Louisiana Kitchen",
      "addr_state": "LA",
      "addr_city": "New Orleans",
      "addr_postcode": "70118",
      "addr_street": "South Carrollton Avenue",
      "addr_housenumber": "3100",
      "value": 169.9225950046708
    },
    {
      "id": 119222,
      "geometry": "POINT (-90.012318 29.920989)",
      "poi_name": "Firehouse Subs",
      "osm_id": 9089897457,
      "amenity": "fast_food",
      "cuisine": "sandwich",
      "takeaway": "yes",
      "drive_through": "no",
      "addr_state": "LA",
      "addr_city": "New Orleans",
      "addr_street": "General de Gaulle Drive",
      "addr_housenumber": "4100",
      "value": 169.9225950046708
    },
    {
      "id": 120880,
      "geometry": "POINT (-90.114888 29.961809)",
      "poi_name": "Wendy's",
      "osm_id": 6727729201,
      "amenity": "fast_food",
      "cuisine": "burger",
      "opening_hours": "Mo-Fr 06:00-02:00; Sa 06:30-02:00; Su 07:00-02:00",
      "website": "https://locations.wendys.com/united-states/la/new-orleans/3138-s.-carrollton-ave.",
      "phone": "504-356-8599",
      "takeaway": "yes",
      "drive_through": "yes",
      "addr_state": "LA",
      "addr_city": "New Orleans",
      "addr_postcode": "70118",
      "addr_street": "South Carrollton Avenue",
      "addr_housenumber": "3138",
      "value": 169.9225950046708
    },
    {
      "id": 120882,
      "geometry": "POINT (-90.113199 29.947504)",
      "poi_name": "Moe's Southwest Grill",
      "osm_id": 6727777390,
      "amenity": "fast_food",
      "cuisine": "mexican",
      "opening_hours": "Mo-Su 11:00-21:00",
      "website": "https://www.moesoriginalbbq.com/lo/nola/",
      "phone": "504-301-3790",
      "takeaway": "yes",
      "addr_state": "LA",
      "addr_city": "New Orleans",
      "addr_postcode": "70125",
      "addr_street": "Calhoun Street",
      "addr_housenumber": "3150",
      "value": 169.9225950046708
    },
    {
      "id": 120353,
      "geometry": "POINT (-90.140807 29.89696)",
      "poi_name": "Domino's",
      "osm_id": 6699741495,
      "amenity": "fast_food",
      "cuisine": "pizza",
      "takeaway": "yes",
      "addr_state": "LA",
      "addr_city": "Westwego",
      "addr_postcode": "70094",
      "addr_street": "Westbank Expressway",
      "addr_housenumber": "1092",
      "value": 169.9225950046708
    },
    {
      "id": 126438,
      "geometry": "POINT (-90.087761 29.923274)",
      "poi_name": "The Daily Beet",
      "osm_id": 7003210985,
      "amenity": "fast_food",
      "cuisine": "juice",
      "opening_hours": "Mo-Su 08:00-20:00",
      "website": "https://www.thedailybeetnola.com/magazine-street/",
      "phone": "504-766-0377",
      "outdoor_seating": "yes",
      "addr_state": "LA",
      "addr_city": "New Orleans",
      "addr_postcode": "70115",
      "addr_street": "Magazine Street",
      "addr_housenumber": "3300",
      "value": 169.9225950046708
    },
    {
      "id": 158554,
      "geometry": "POINT (-90.069259 29.927504)",
      "poi_name": "New China Chinese Food",
      "osm_id": 4753869227,
      "amenity": "fast_food",
      "addr_state": "LA",
      "addr_city": "New Orleans",
      "addr_postcode": "70130",
      "addr_street": "Rousseau Street",
      "addr_housenumber": "1885",
      "value": 169.9225950046708
    },
    {
      "id": 180056,
      "geometry": "POINT (-90.082733 29.926226)",
      "poi_name": "Clean Juice",
      "osm_id": 10789149565,
      "amenity": "fast_food",
      "cuisine": "juice",
      "opening_hours": "Mo-Fr 07:00-20:00; Sa 08:00-20:00; Sun 08:00-20:00",
      "website": "https://www.cleanjuice.com/location/magazine/",
      "phone": "504-571-5076",
      "takeaway": "yes",
      "drive_through": "no",
      "addr_state": "LA",
      "addr_city": "New Orleans",
      "addr_postcode": "70115",
      "addr_street": "Magazine Street",
      "addr_housenumber": "2801",
      "value": 169.9225950046708
    },
    {
      "id": 190544,
      "geometry": "POINT (-90.068974 29.950232)",
      "poi_name": "Welty's Deli",
      "osm_id": 1302416755,
      "amenity": "fast_food",
      "cuisine": "sandwich",
      "addr_state": "LA",
      "addr_city": "New Orleans",
      "addr_street": "Camp Street",
      "value": 169.9225950046708
    },
    {
      "id": 188473,
      "geometry": "POINT (-90.095291 29.941578)",
      "poi_name": "McDonald's",
      "osm_id": 1155474707,
      "amenity": "fast_food",
      "cuisine": "burger",
      "opening_hours": "24/7",
      "website": "https://www.mcdonalds.com/us/en-us/location/la/new-orleans/2856-south-claiborne/6969.html",
      "phone": "504-894-8691",
      "takeaway": "yes",
      "drive_through": "yes",
      "addr_state": "LA",
      "addr_city": "New Orleans",
      "addr_postcode": "70125",
      "addr_street": "South Claiborne Avenue",
      "addr_housenumber": "2856",
      "value": 169.9225950046708
    },
    {
      "id": 196783,
      "geometry": "POINT (-90.037498 29.965929)",
      "poi_name": "Botanicals Nola",
      "osm_id": 10596527222,
      "amenity": "fast_food",
      "cuisine": "juice",
      "wheelchair": "yes",
      "opening_hours": "Mo-Fr 08:00-17:00; Sa 09:00-15:00",
      "website": "https://botanicalsnola.com/",
      "phone": "+1 504-251-6603",
      "outdoor_seating": "yes",
      "addr_state": "LA",
      "addr_city": "New Orleans",
      "addr_postcode": "70117",
      "addr_street": "Saint Claude Avenue",
      "addr_housenumber": "3726",
      "value": 169.9225950046708
    },
    {
      "id": 203853,
      "geometry": "POINT (-90.10135 29.940075)",
      "poi_name": "Wendy's",
      "osm_id": 7101652073,
      "amenity": "fast_food",
      "cuisine": "burger",
      "opening_hours": "Mo-Su 10:00-02:00",
      "website": "https://order.wendys.com/location?site=find",
      "phone": "504-356-8601",
      "takeaway": "yes",
      "drive_through": "yes",
      "addr_state": "LA",
      "addr_city": "New Orleans",
      "addr_postcode": "70115",
      "addr_street": "South Claiborne Avenue",
      "addr_housenumber": "4200",
      "value": 169.9225950046708
    },
    {
      "id": 215057,
      "geometry": "POINT (-90.062373 29.945378)",
      "poi_name": "Great American Cookies",
      "osm_id": 5286386890,
      "amenity": "fast_food",
      "cuisine": "cookies",
      "takeaway": "yes",
      "addr_state": "LA",
      "addr_city": "New Orleans",
      "addr_postcode": "70130",
      "addr_street": "Port of New Orleans Place",
      "addr_housenumber": "500",
      "value": 169.9225950046708
    },
    {
      "id": 228280,
      "geometry": "POINT (-90.088526 29.923015)",
      "poi_name": "Dat Dog",
      "osm_id": 4337970187,
      "amenity": "fast_food",
      "cuisine": "hot_dog",
      "addr_state": "LA",
      "addr_city": "New Orleans",
      "addr_postcode": "70115",
      "addr_street": "Magazine Street",
      "addr_housenumber": "3336",
      "value": 169.9225950046708
    },
    {
      "id": 228284,
      "geometry": "POINT (-90.097826 29.921209)",
      "poi_name": "Izzo's Illegal Burrito",
      "osm_id": 4337978832,
      "amenity": "fast_food",
      "cuisine": "mexican",
      "takeaway": "yes",
      "addr_state": "LA",
      "addr_city": "New Orleans",
      "addr_postcode": "70115",
      "addr_street": "Magazine Street",
      "addr_housenumber": "4041",
      "value": 169.9225950046708
    },
    {
      "id": 238559,
      "geometry": "POINT (-90.108139 29.934802)",
      "poi_name": "Domino's",
      "osm_id": 5883148227,
      "amenity": "fast_food",
      "cuisine": "pizza",
      "opening_hours": "Mo-Th 10:00-02:00; Fr-Sa 10:00-03:00; Su 10:00-02:00",
      "website": "https://www.dominos.com/",
      "phone": "504-891-3030",
      "takeaway": "only",
      "drive_through": "no",
      "outdoor_seating": "no",
      "delivery": "yes",
      "addr_state": "LA",
      "addr_city": "new orleans",
      "addr_postcode": "70115",
      "addr_street": "Freret Street",
      "addr_housenumber": "4938",
      "value": 169.9225950046708
    },
    {
      "id": 238563,
      "geometry": "POINT (-90.108607 29.93509)",
      "poi_name": "City Greens",
      "osm_id": 5883165295,
      "amenity": "fast_food",
      "cuisine": "salad",
      "description": "A local salad chain founded by two Tulane University alums.",
      "operator": "City Greens",
      "website": "https://eatcitygreens.com/",
      "phone": "504-323-2893",
      "takeaway": "yes",
      "drive_through": "no",
      "outdoor_seating": "yes",
      "addr_state": "LA",
      "addr_city": "new orleans",
      "addr_postcode": "70115",
      "addr_street": "Freret Street",
      "addr_housenumber": "5001",
      "value": 169.9225950046708
    }
  ],
  "answer_type": "loc",
  "question_entities": {
    "[2]": {
      "distance": 110000,
      "text": "110 kilometers"
    },
    "[3]": {
      "main_category": "amenity",
      "sub_category": "hospital",
      "display_name": "Regency Hospital Of Covington, Covington, LA",
      "geo_wkt": "POINT (-90.135037 30.458434)",
      "poi": {
        "id": 182316,
        "geometry": "POINT (-90.135037 30.458434)",
        "poi_name": "Regency Hospital Of Covington",
        "osm_id": 10888292677,
        "amenity": "hospital",
        "website": "https://www.regencyhospital.com",
        "phone": "+1 985 867 3977",
        "healthcare": "hospital",
        "addr_state": "LA",
        "addr_city": "Covington",
        "addr_postcode": "70433",
        "addr_street": "Highland Park Entrance",
        "addr_housenumber": "195"
      }
    },
    "[4]": {
      "main_category": "tourism",
      "sub_category": "gallery",
      "display_name": "The Front, New Orleans, LA",
      "geo_wkt": "POINT (-90.034377 29.965241)",
      "poi": {
        "id": 21726,
        "geometry": "POINT (-90.034377 29.965241)",
        "poi_name": "The Front",
        "osm_id": 10634747244,
        "tourism": "gallery",
        "opening_hours": "Sa-Su 12:00-17:00",
        "website": "https://nolafront.org/",
        "addr_state": "LA",
        "addr_city": "New Orleans",
        "addr_postcode": "70117",
        "addr_street": "Saint Claude Avenue",
        "addr_housenumber": "4100"
      }
    },
    "[1]": {
      "main_category": "amenity",
      "sub_category": "fast_food"
    }
  },
  "id": 1230,
  "type": "range:towards+loc"
}