{
  "question": "Which caf\u00e9 can I find along the route to Element Omaha Midtown Crossing, Omaha, NE within 170 kilometers from the Restored Burlington Northern Depot & World War II Memorial Museum, Red Oak, IA?",
  "sql": "WITH\n    angle AS (SELECT degrees(ST_Azimuth(ST_GeomFromText('POINT (-95.231014 41.002332)',4326)::geography, ST_GeomFromText('POINT (-95.960849 41.259574)',4326)::geography)) AS value)\nSELECT * FROM pois,angle\nWHERE amenity = 'cafe'\nAND ST_DWithin(pois.geometry, ST_GeomFromText('POINT (-95.231014 41.002332)',4326)::geography, 170000)\nAND (degrees(ST_Azimuth(ST_GeomFromText('POINT (-95.231014 41.002332)',4326)::geography, pois.geometry)) BETWEEN angle.value - 22.5 AND angle.value + 22.5);\n",
  "answers": [
    {
      "id": 30909,
      "geometry": "POINT (-96.160501 41.262328)",
      "poi_name": "Starbucks",
      "osm_id": 8392546333,
      "amenity": "cafe",
      "cuisine": "coffee_shop",
      "takeaway": "yes",
      "official_name": "Starbucks Coffee",
      "value": 295.23327074525946
    },
    {
      "id": 45588,
      "geometry": "POINT (-95.970386 41.142106)",
      "poi_name": "Starbucks",
      "osm_id": 3218337831,
      "amenity": "cafe",
      "cuisine": "coffee_shop",
      "wheelchair": "yes",
      "takeaway": "yes",
      "official_name": "Starbucks Coffee",
      "value": 295.23327074525946
    },
    {
      "id": 44296,
      "geometry": "POINT (-96.047429 41.249142)",
      "poi_name": "The Village Grinder",
      "osm_id": 3154724951,
      "amenity": "cafe",
      "cuisine": "coffee_shop",
      "website": "https://www.facebook.com/villagegrinder402/",
      "phone": "+1(402)397-0918",
      "addr_state": "NE",
      "addr_city": "Omaha",
      "addr_postcode": "68114",
      "addr_street": "Pacific Street",
      "addr_housenumber": "8706",
      "value": 295.23327074525946
    },
    {
      "id": 45589,
      "geometry": "POINT (-95.968879 41.142167)",
      "poi_name": "Starbucks",
      "osm_id": 3218337832,
      "amenity": "cafe",
      "cuisine": "coffee_shop",
      "wheelchair": "yes",
      "opening_hours": "Mo-Su 06:00-20:00",
      "takeaway": "yes",
      "official_name": "Starbucks Coffee",
      "value": 295.23327074525946
    },
    {
      "id": 47864,
      "geometry": "POINT (-96.023157 41.137894)",
      "poi_name": "Starbucks",
      "osm_id": 3353367928,
      "amenity": "cafe",
      "cuisine": "coffee_shop",
      "opening_hours": "Mo-Su 05:00-19:00",
      "takeaway": "yes",
      "official_name": "Starbucks Coffee",
      "addr_state": "NE",
      "addr_city": "Papillon",
      "addr_postcode": "68046",
      "addr_street": "Papillion Drive",
      "addr_housenumber": "1423",
      "value": 295.23327074525946
    },
    {
      "id": 45692,
      "geometry": "POINT (-95.93423 41.267058)",
      "poi_name": "Rally Coffee",
      "osm_id": 3223881276,
      "amenity": "cafe",
      "cuisine": "coffee_shop",
      "opening_hours": "Mo-Sa 07:00-17:00; Su closed",
      "website": "https://www.rallycoffee.co/",
      "shop": "coffee",
      "phone": "(402) 916-5128",
      "addr_state": "NE",
      "addr_city": "Omaha",
      "addr_postcode": "68102",
      "addr_street": "North 14th Street",
      "addr_housenumber": "749",
      "value": 295.23327074525946
    },
    {
      "id": 45698,
      "geometry": "POINT (-95.930223 41.253197)",
      "poi_name": "Hardy Coffee Company",
      "osm_id": 3224396467,
      "amenity": "cafe",
      "cuisine": "coffee",
      "opening_hours": "Mo-Sa 07:00-22:00; Su 08:00-22:00",
      "website": "https://www.hardycoffee.com",
      "shop": "coffee",
      "addr_state": "NE",
      "addr_postcode": "68102",
      "addr_street": "Jones Street",
      "addr_housenumber": "1031",
      "value": 295.23327074525946
    },
    {
      "id": 46112,
      "geometry": "POINT (-95.934876 41.158202)",
      "poi_name": "Starbucks",
      "osm_id": 3247020384,
      "amenity": "cafe",
      "cuisine": "coffee_shop",
      "wheelchair": "yes",
      "opening_hours": "Mo-Sa 05:00-21:30; Su 05:30-21:00",
      "takeaway": "yes",
      "official_name": "Starbucks Coffee",
      "toilets": "yes",
      "value": 295.23327074525946
    },
    {
      "id": 54801,
      "geometry": "POINT (-95.744252 41.041706)",
      "poi_name": "Harvest Moon Coffe",
      "osm_id": 10157587364,
      "amenity": "cafe",
      "value": 295.23327074525946
    },
    {
      "id": 54001,
      "geometry": "POINT (-96.195211 41.190434)",
      "poi_name": "Scooter's",
      "osm_id": 10110556048,
      "amenity": "cafe",
      "cuisine": "coffee_shop",
      "capacity": "0",
      "internet_access": "no",
      "takeaway": "only",
      "drive_through": "yes",
      "outdoor_seating": "no",
      "value": 295.23327074525946
    },
    {
      "id": 60544,
      "geometry": "POINT (-95.960386 41.258747)",
      "poi_name": "Thirst Tea",
      "osm_id": 5470104145,
      "amenity": "cafe",
      "cuisine": "bubble_tea",
      "opening_hours": "Su-Th 12:00-21:00; Fr,Sa 12:00-22:00",
      "website": "http://www.thirstteacafe.com/",
      "internet_access": "wlan",
      "phone": "+1 402 932 8288",
      "takeaway": "yes",
      "outdoor_seating": "yes",
      "addr_state": "NE",
      "addr_city": "Omaha",
      "addr_postcode": "68131",
      "addr_street": "South 31st Avenue",
      "addr_housenumber": "200",
      "value": 295.23327074525946
    },
    {
      "id": 58416,
      "geometry": "POINT (-96.145242 41.291401)",
      "poi_name": "Starbucks",
      "osm_id": 5373933116,
      "amenity": "cafe",
      "cuisine": "coffee_shop",
      "value": 295.23327074525946
    },
    {
      "id": 58431,
      "geometry": "POINT (-95.936972 41.256786)",
      "poi_name": "Himalayan Java",
      "osm_id": 5375487899,
      "amenity": "cafe",
      "cuisine": "coffee_shop;sandwich",
      "description": "Cafe with coffee, sandwiches, WiFi, and printing.",
      "opening_hours": "Mo-Fr 06:30-18:00; Sa, Su 08:00-18:00",
      "value": 295.23327074525946
    },
    {
      "id": 63671,
      "geometry": "POINT (-95.948206 41.13747)",
      "poi_name": "Bellevue Medical Center Cafeteria",
      "osm_id": 5627285138,
      "amenity": "cafe",
      "wheelchair": "yes",
      "opening_hours": "Mo-Su 06:30-10:00, 11:00-14:00",
      "website": "https://www.nebraskamed.com/bellevue/cafe",
      "value": 295.23327074525946
    },
    {
      "id": 61567,
      "geometry": "POINT (-95.923707 41.118831)",
      "poi_name": "Starbucks",
      "osm_id": 5523774624,
      "amenity": "cafe",
      "cuisine": "coffee_shop",
      "wheelchair": "yes",
      "opening_hours": "Mo-Fr 07:30-16:30; Sa 08:00-16:00; Su 09:00-16:00",
      "internet_access": "wlan",
      "takeaway": "yes",
      "official_name": "Starbucks Coffee",
      "value": 295.23327074525946
    },
    {
      "id": 62271,
      "geometry": "POINT (-96.116982 41.29448)",
      "poi_name": "Starbucks",
      "osm_id": 5560694707,
      "amenity": "cafe",
      "cuisine": "coffee_shop",
      "takeaway": "yes",
      "official_name": "Starbucks Coffee",
      "value": 295.23327074525946
    },
    {
      "id": 65718,
      "geometry": "POINT (-96.014837 41.241402)",
      "poi_name": "ROAST Coffeehouse",
      "osm_id": 5709149512,
      "amenity": "cafe",
      "cuisine": "coffee_shop;pastry",
      "wheelchair": "yes",
      "opening_hours": "Mo-Su 07:00-18:00",
      "internet_access": "wlan",
      "outdoor_seating": "yes",
      "toilets": "yes",
      "addr_state": "NE",
      "addr_city": "Omaha",
      "addr_postcode": "68106",
      "addr_street": "South 67th Street",
      "addr_housenumber": "1904",
      "value": 295.23327074525946
    },
    {
      "id": 72926,
      "geometry": "POINT (-96.025573 41.211945)",
      "poi_name": "Starbucks",
      "osm_id": 9595886118,
      "amenity": "cafe",
      "cuisine": "coffee_shop",
      "takeaway": "yes",
      "official_name": "Starbucks Coffee",
      "value": 295.23327074525946
    },
    {
      "id": 70777,
      "geometry": "POINT (-96.079339 41.175718)",
      "poi_name": "Coffee Society Cafe",
      "osm_id": 11374211387,
      "amenity": "cafe",
      "opening_hours": "Mo-Su 06:00-19:00",
      "value": 295.23327074525946
    },
    {
      "id": 84089,
      "geometry": "POINT (-96.027251 41.318772)",
      "poi_name": "Starbucks",
      "osm_id": 1776640247,
      "amenity": "cafe",
      "cuisine": "coffee_shop",
      "takeaway": "yes",
      "official_name": "Starbucks Coffee",
      "addr_postcode": "68122",
      "addr_street": "North 73rd Plaza",
      "addr_housenumber": "6636",
      "value": 295.23327074525946
    },
    {
      "id": 77450,
      "geometry": "POINT (-96.048069 41.26277)",
      "poi_name": "Starbucks",
      "osm_id": 9823290317,
      "amenity": "cafe",
      "cuisine": "coffee_shop",
      "opening_hours": "Mo-Su 05:30-20:00",
      "website": "http://starbucks.com",
      "internet_access": "wlan",
      "phone": "4029025048",
      "takeaway": "yes",
      "drive_through": "yes",
      "official_name": "Starbucks Coffee",
      "addr_postcode": "68114",
      "addr_street": "West Dodge Road",
      "addr_housenumber": "8651",
      "value": 295.23327074525946
    },
    {
      "id": 84603,
      "geometry": "POINT (-96.067367 41.267303)",
      "poi_name": "Scooters Java Express",
      "osm_id": 1801184537,
      "amenity": "cafe",
      "cuisine": "coffee_shop",
      "value": 295.23327074525946
    },
    {
      "id": 86005,
      "geometry": "POINT (-96.195591 41.247106)",
      "poi_name": "Barista's Daily Grind",
      "osm_id": 1910832487,
      "amenity": "cafe",
      "cuisine": "coffee_shop",
      "addr_postcode": "68130",
      "addr_street": "South 180th Street",
      "addr_housenumber": "1229",
      "value": 295.23327074525946
    },
    {
      "id": 85619,
      "geometry": "POINT (-96.156121 41.265785)",
      "poi_name": "Karma Kaffe",
      "osm_id": 1884661048,
      "amenity": "cafe",
      "cuisine": "coffee_shop",
      "addr_postcode": "68154",
      "addr_street": "North 155th Plaza",
      "addr_housenumber": "587",
      "value": 295.23327074525946
    },
    {
      "id": 85632,
      "geometry": "POINT (-96.159424 41.248132)",
      "poi_name": "Scooter's Coffee House & Java Express",
      "osm_id": 1886243123,
      "amenity": "cafe",
      "cuisine": "coffee_shop",
      "addr_postcode": "68118",
      "addr_street": "Pacific Street",
      "addr_housenumber": "15655",
      "value": 295.23327074525946
    },
    {
      "id": 85856,
      "geometry": "POINT (-96.18019 41.289557)",
      "poi_name": "Starbucks",
      "osm_id": 1903783300,
      "amenity": "cafe",
      "cuisine": "coffee_shop",
      "takeaway": "yes",
      "official_name": "Starbucks Coffee",
      "addr_postcode": "68116",
      "addr_street": "Evans Plaza",
      "addr_housenumber": "16959",
      "value": 295.23327074525946
    },
    {
      "id": 85914,
      "geometry": "POINT (-96.183623 41.260602)",
      "poi_name": "Scooter's Coffeehouse",
      "osm_id": 1907877388,
      "amenity": "cafe",
      "cuisine": "coffee_shop",
      "addr_postcode": "68118",
      "addr_street": "Davenport Street",
      "addr_housenumber": "17151",
      "value": 295.23327074525946
    },
    {
      "id": 86020,
      "geometry": "POINT (-96.192778 41.236001)",
      "poi_name": "Starbucks",
      "osm_id": 1911289992,
      "amenity": "cafe",
      "cuisine": "coffee_shop",
      "takeaway": "yes",
      "official_name": "Starbucks Coffee",
      "addr_postcode": "68130",
      "addr_street": "West Center Road",
      "addr_housenumber": "17810",
      "value": 295.23327074525946
    },
    {
      "id": 86108,
      "geometry": "POINT (-96.191259 41.232832)",
      "poi_name": "Caribou Coffee",
      "osm_id": 1914981857,
      "amenity": "cafe",
      "cuisine": "coffee_shop",
      "takeaway": "yes",
      "addr_postcode": "68130",
      "addr_street": "Wright Street",
      "addr_housenumber": "17650",
      "value": 295.23327074525946
    },
    {
      "id": 86038,
      "geometry": "POINT (-96.141037 41.23577)",
      "poi_name": "A Hill of Beans Coffee Roasters",
      "osm_id": 1913583038,
      "amenity": "cafe",
      "cuisine": "coffee_shop",
      "addr_postcode": "68144",
      "addr_street": "West Center Road",
      "addr_housenumber": "14512",
      "value": 295.23327074525946
    },
    {
      "id": 87071,
      "geometry": "POINT (-96.025121 41.260919)",
      "poi_name": "Starbucks",
      "osm_id": 1969348039,
      "amenity": "cafe",
      "cuisine": "coffee_shop",
      "takeaway": "yes",
      "official_name": "Starbucks Coffee",
      "value": 295.23327074525946
    },
    {
      "id": 86721,
      "geometry": "POINT (-96.090524 41.262137)",
      "poi_name": "Starbucks",
      "osm_id": 1947999441,
      "amenity": "cafe",
      "cuisine": "coffee_shop",
      "internet_access": "wlan",
      "takeaway": "yes",
      "official_name": "Starbucks Coffee",
      "addr_state": "NE",
      "addr_city": "Omaha",
      "addr_postcode": "68154",
      "addr_street": "North 114th Street",
      "addr_housenumber": "411",
      "value": 295.23327074525946
    },
    {
      "id": 91008,
      "geometry": "POINT (-95.893589 41.262281)",
      "poi_name": "Scooter's Java Express",
      "osm_id": 2033440555,
      "amenity": "cafe",
      "cuisine": "coffee_shop",
      "addr_postcode": "51501",
      "addr_street": "West Broadway",
      "addr_housenumber": "3030",
      "value": 295.23327074525946
    },
    {
      "id": 90323,
      "geometry": "POINT (-95.927019 41.224811)",
      "poi_name": "Sea Turtle Cafe",
      "osm_id": 1989248247,
      "amenity": "cafe",
      "cuisine": "american",
      "value": 295.23327074525946
    },
    {
      "id": 90324,
      "geometry": "POINT (-95.92678 41.226462)",
      "poi_name": "Silverback Cafe",
      "osm_id": 1989251351,
      "amenity": "cafe",
      "cuisine": "american",
      "value": 295.23327074525946
    },
    {
      "id": 90928,
      "geometry": "POINT (-95.909972 41.242898)",
      "poi_name": "Bella's Bakery & Cafe",
      "osm_id": 2027560126,
      "amenity": "cafe",
      "cuisine": "coffee_shop",
      "value": 295.23327074525946
    },
    {
      "id": 87761,
      "geometry": "POINT (-96.121172 41.235657)",
      "poi_name": "Zen Coffee West",
      "osm_id": 8739778733,
      "amenity": "cafe",
      "value": 295.23327074525946
    },
    {
      "id": 87763,
      "geometry": "POINT (-96.174499 41.191706)",
      "poi_name": "Green Beans Coffee",
      "osm_id": 8740006225,
      "amenity": "cafe",
      "value": 295.23327074525946
    },
    {
      "id": 89046,
      "geometry": "POINT (-96.080849 41.209244)",
      "poi_name": "Scooters Coffee",
      "osm_id": 8819004577,
      "amenity": "cafe",
      "cuisine": "coffee_shop",
      "outdoor_seating": "yes",
      "value": 295.23327074525946
    },
    {
      "id": 90875,
      "geometry": "POINT (-95.886979 41.236766)",
      "poi_name": "JB's Cafe",
      "osm_id": 2024131381,
      "amenity": "cafe",
      "cuisine": "american",
      "website": "http://www.horseshoecouncilbluffs.com/casinos/horseshoe-council-bluffs/restaurants-dining/jbs-cafe-detail.html",
      "addr_postcode": "51501",
      "addr_street": "23rd Avenue",
      "addr_housenumber": "2701",
      "value": 295.23327074525946
    },
    {
      "id": 99690,
      "geometry": "POINT (-96.048271 41.249138)",
      "poi_name": "Starbucks",
      "osm_id": 6561626485,
      "amenity": "cafe",
      "cuisine": "coffee_shop",
      "takeaway": "yes",
      "official_name": "Starbucks Coffee",
      "outdoor_seating": "yes",
      "addr_state": "NE",
      "addr_city": "Omaha",
      "addr_postcode": "68114",
      "addr_street": "Pacific Street",
      "addr_housenumber": "8734",
      "value": 295.23327074525946
    },
    {
      "id": 91063,
      "geometry": "POINT (-95.825151 41.244476)",
      "poi_name": "Starbucks",
      "osm_id": 2037704870,
      "amenity": "cafe",
      "cuisine": "coffee_shop",
      "takeaway": "yes",
      "official_name": "Starbucks Coffee",
      "addr_housenumber": "1745",
      "value": 295.23327074525946
    },
    {
      "id": 94717,
      "geometry": "POINT (-96.042706 41.231022)",
      "poi_name": "Crane Coffee",
      "osm_id": 6374523565,
      "amenity": "cafe",
      "cuisine": "coffee_shop",
      "value": 295.23327074525946
    },
    {
      "id": 95638,
      "geometry": "POINT (-96.252988 41.131296)",
      "poi_name": "The Beanery",
      "osm_id": 6404878248,
      "amenity": "cafe",
      "website": "https://www.thebeanerycoffee.com/",
      "addr_state": "NE",
      "addr_city": "Gretna",
      "addr_postcode": "68028",
      "addr_street": "South 216th Street",
      "addr_housenumber": "11849",
      "value": 295.23327074525946
    },
    {
      "id": 96029,
      "geometry": "POINT (-95.984298 41.343806)",
      "poi_name": "Scooter's Coffee",
      "osm_id": 6418536916,
      "amenity": "cafe",
      "cuisine": "coffee_shop",
      "website": "https://scooterscoffee.com/",
      "phone": "(402) 991-1250",
      "takeaway": "yes",
      "outdoor_seating": "no",
      "addr_state": "NE",
      "addr_city": "Omaha",
      "addr_postcode": "68152",
      "addr_street": "Mormon Bridge Road",
      "addr_housenumber": "9229",
      "value": 295.23327074525946
    },
    {
      "id": 98840,
      "geometry": "POINT (-95.986714 41.251047)",
      "poi_name": "Starbucks",
      "osm_id": 6533302936,
      "amenity": "cafe",
      "cuisine": "coffee_shop",
      "takeaway": "yes",
      "official_name": "Starbucks Coffee",
      "value": 295.23327074525946
    },
    {
      "id": 98979,
      "geometry": "POINT (-95.989783 41.265469)",
      "poi_name": "Blue Line Coffee",
      "osm_id": 6536448911,
      "amenity": "cafe",
      "cuisine": "coffee_shop",
      "value": 295.23327074525946
    },
    {
      "id": 99643,
      "geometry": "POINT (-96.107934 41.214394)",
      "poi_name": "Starbucks",
      "osm_id": 6558785235,
      "amenity": "cafe",
      "cuisine": "coffee_shop",
      "operator": "Target",
      "takeaway": "yes",
      "official_name": "Starbucks Coffee",
      "outdoor_seating": "no",
      "value": 295.23327074525946
    },
    {
      "id": 101140,
      "geometry": "POINT (-95.929842 41.254566)",
      "poi_name": "Urban Abby",
      "osm_id": 6612151933,
      "amenity": "cafe",
      "opening_hours": "Su 08:00-17:00; Mo-Fr 07:00-19:00; Sa 08:00-19:00",
      "value": 295.23327074525946
    },
    {
      "id": 99949,
      "geometry": "POINT (-95.929915 41.26087)",
      "poi_name": "Starbucks",
      "osm_id": 6568917443,
      "amenity": "cafe",
      "cuisine": "coffee_shop",
      "opening_hours": "Mo-Su 05:00-20:00",
      "website": "https://www.starbucks.com/store-locator/store/1019322/marriott-downtown-omaha-222-north-10th-street-omaha-ne-68102-us",
      "phone": "+1 531 365 2624",
      "takeaway": "yes",
      "official_name": "Starbucks Coffee",
      "addr_state": "NE",
      "addr_city": "Omaha",
      "addr_postcode": "68102",
      "value": 295.23327074525946
    },
    {
      "id": 111517,
      "geometry": "POINT (-95.948036 41.256765)",
      "poi_name": "Mug Life",
      "osm_id": 3752173720,
      "amenity": "cafe",
      "opening_hours": "Mo-Su 06:30-18:00",
      "website": "https://www.muglifecoffee.com/",
      "internet_access": "wlan",
      "outdoor_seating": "yes",
      "value": 295.23327074525946
    },
    {
      "id": 107546,
      "geometry": "POINT (-96.031348 41.248623)",
      "poi_name": "Scooters",
      "osm_id": 3567193328,
      "amenity": "cafe",
      "cuisine": "coffee_shop",
      "value": 295.23327074525946
    },
    {
      "id": 106874,
      "geometry": "POINT (-95.959012 41.252276)",
      "poi_name": "The Mill",
      "osm_id": 3520942169,
      "amenity": "cafe",
      "cuisine": "coffee_shop",
      "opening_hours": "Mo-Fr 07:30-17:00; Sa 09:00-13:00",
      "addr_city": "Omaha",
      "addr_street": "Leavenworth Street",
      "addr_housenumber": "3105",
      "value": 295.23327074525946
    },
    {
      "id": 107034,
      "geometry": "POINT (-95.912912 41.140752)",
      "poi_name": "Scooter's Coffee",
      "osm_id": 3531133151,
      "amenity": "cafe",
      "cuisine": "coffee_shop",
      "wheelchair": "no",
      "opening_hours": "Mo-Su 06:00-20:00",
      "takeaway": "only",
      "addr_street": "Harlan Drive South",
      "addr_housenumber": "1550",
      "value": 295.23327074525946
    },
    {
      "id": 111466,
      "geometry": "POINT (-95.968663 41.140211)",
      "poi_name": "Scooters Coffee",
      "osm_id": 3749366958,
      "amenity": "cafe",
      "wheelchair": "yes",
      "opening_hours": "Su 07:00-21:00; Mo-Fr 06:00-21:00; Sa 06:30-21:00",
      "outdoor_seating": "yes",
      "value": 295.23327074525946
    },
    {
      "id": 114350,
      "geometry": "POINT (-96.04335 41.153726)",
      "poi_name": "The Beanery",
      "osm_id": 3878997593,
      "amenity": "cafe",
      "cuisine": "coffee_shop",
      "opening_hours": "sunrise-sunset",
      "addr_state": "NE",
      "addr_city": "Papillion",
      "addr_postcode": "68046",
      "addr_street": "South Washington Street",
      "addr_housenumber": "344",
      "value": 295.23327074525946
    },
    {
      "id": 113749,
      "geometry": "POINT (-96.126712 41.262623)",
      "poi_name": "Boys Town Cafe",
      "osm_id": 3844687221,
      "amenity": "cafe",
      "cuisine": "regional",
      "wheelchair": "yes",
      "value": 295.23327074525946
    },
    {
      "id": 114441,
      "geometry": "POINT (-95.944257 41.117657)",
      "poi_name": "Scooters Coffee",
      "osm_id": 3882856325,
      "amenity": "cafe",
      "opening_hours": "Mo-Sa 04:30-22:00; Su 05:00-22:00",
      "takeaway": "yes",
      "outdoor_seating": "yes",
      "value": 295.23327074525946
    },
    {
      "id": 114324,
      "geometry": "POINT (-96.044964 41.16602)",
      "poi_name": "Starbucks",
      "osm_id": 3877513035,
      "amenity": "cafe",
      "cuisine": "coffee_shop",
      "wheelchair": "yes",
      "value": 295.23327074525946
    },
    {
      "id": 117149,
      "geometry": "POINT (-95.936091 41.258408)",
      "poi_name": "Starbucks",
      "osm_id": 8978557693,
      "amenity": "cafe",
      "cuisine": "coffee_shop",
      "website": "https://www.starbucks.com/store-locator/store/9639/15th-douglas-222-south-15th-street-omaha-ne-681021680-us",
      "internet_access": "wlan",
      "phone": "+1 402 342 4486",
      "takeaway": "yes",
      "official_name": "Starbucks Coffee",
      "addr_state": "NE",
      "addr_city": "Omaha",
      "addr_postcode": "68102",
      "addr_street": "South 15th Street",
      "addr_housenumber": "222",
      "value": 295.23327074525946
    },
    {
      "id": 126691,
      "geometry": "POINT (-96.052036 41.212912)",
      "poi_name": "Scooters Drive Through",
      "osm_id": 7993071431,
      "amenity": "cafe",
      "opening_hours": "Mo-Fr 06:00-19:00; Sa, Su 06:30-19:00",
      "value": 295.23327074525946
    },
    {
      "id": 126140,
      "geometry": "POINT (-95.933049 41.244912)",
      "poi_name": "Archetype Coffee",
      "osm_id": 6985420276,
      "amenity": "cafe",
      "cuisine": "coffee_shop",
      "value": 295.23327074525946
    },
    {
      "id": 117367,
      "geometry": "POINT (-95.966304 41.142508)",
      "poi_name": "Green Beans Coffee",
      "osm_id": 8990341460,
      "amenity": "cafe",
      "cuisine": "coffee_shop",
      "description": "Drive through ONLY continuing until further notice.",
      "opening_hours": "Mo-Sa 06:00-17:00; Su 07:00-16:00",
      "website": "https://greenbeanscoffeeomaha.com/gbco-bellevue/",
      "phone": "+1-402-885-7501",
      "drive_through": "yes",
      "addr_state": "NE",
      "addr_city": "Bellevue",
      "addr_postcode": "68123",
      "addr_street": "Samson Way",
      "addr_housenumber": "3512",
      "value": 295.23327074525946
    },
    {
      "id": 125627,
      "geometry": "POINT (-95.933093 41.244859)",
      "poi_name": "Archetype Coffee",
      "osm_id": 6967364018,
      "amenity": "cafe",
      "cuisine": "coffee_shop",
      "value": 295.23327074525946
    },
    {
      "id": 133993,
      "geometry": "POINT (-95.989915 41.259796)",
      "poi_name": "Lola's Cafe",
      "osm_id": 10022995205,
      "amenity": "cafe",
      "website": "https://lolasomaha.com/",
      "phone": "+1 402 850 7585",
      "value": 295.23327074525946
    },
    {
      "id": 128331,
      "geometry": "POINT (-96.02273 41.24828)",
      "poi_name": "Kung Fu Tea",
      "osm_id": 8149802898,
      "amenity": "cafe",
      "cuisine": "bubble_tea",
      "description": "Franchise offering varieties of milk tea with boba.",
      "shop": "tea",
      "takeaway": "yes",
      "value": 295.23327074525946
    },
    {
      "id": 129423,
      "geometry": "POINT (-96.005514 41.28485)",
      "poi_name": "Dripped and Draped",
      "osm_id": 8243100960,
      "amenity": "cafe",
      "cuisine": "coffee_shop",
      "value": 295.23327074525946
    },
    {
      "id": 141266,
      "geometry": "POINT (-95.961401 41.263977)",
      "poi_name": "Myrtle & Cypress Coffeehouse",
      "osm_id": 6279370641,
      "amenity": "cafe",
      "value": 295.23327074525946
    },
    {
      "id": 134800,
      "geometry": "POINT (-97.059999 41.452885)",
      "poi_name": "Scooter's Coffee",
      "osm_id": 11490142715,
      "amenity": "cafe",
      "cuisine": "coffee_shop",
      "takeaway": "yes",
      "addr_state": "NE",
      "addr_city": "Schuyler",
      "value": 295.23327074525946
    },
    {
      "id": 152995,
      "geometry": "POINT (-96.100872 41.177935)",
      "poi_name": "Scooters Coffee",
      "osm_id": 4172023215,
      "amenity": "cafe",
      "cuisine": "coffee_shop",
      "takeaway": "yes",
      "value": 295.23327074525946
    },
    {
      "id": 144158,
      "geometry": "POINT (-96.344873 41.314273)",
      "poi_name": "BREW Coffee House & Tasting Room",
      "osm_id": 6366238639,
      "amenity": "cafe",
      "website": "https://brewcoffeevalley.com/",
      "addr_state": "NE",
      "addr_city": "Valley",
      "addr_postcode": "68064",
      "addr_street": "North Spruce Street",
      "addr_housenumber": "318",
      "value": 295.23327074525946
    },
    {
      "id": 147532,
      "geometry": "POINT (-95.994908 41.242253)",
      "poi_name": "Starbucks",
      "osm_id": 7539421886,
      "amenity": "cafe",
      "cuisine": "coffee_shop",
      "wheelchair": "yes",
      "opening_hours": "Mo-Su 05:30-20:00",
      "phone": "+1-402-553-2664",
      "takeaway": "yes",
      "official_name": "Starbucks Coffee",
      "delivery": "yes",
      "addr_state": "NE",
      "addr_city": "Omaha",
      "addr_postcode": "68106",
      "addr_street": "Center Street",
      "addr_housenumber": "5150",
      "value": 295.23327074525946
    },
    {
      "id": 147572,
      "geometry": "POINT (-95.976277 41.254849)",
      "poi_name": "Svelting's Cafe de la Hund",
      "osm_id": 7546124067,
      "amenity": "cafe",
      "delivery": "no",
      "addr_state": "NE",
      "addr_city": "Omaha",
      "addr_postcode": "68105",
      "addr_street": "South 42nd Street",
      "value": 295.23327074525946
    },
    {
      "id": 150656,
      "geometry": "POINT (-96.236238 41.267347)",
      "poi_name": "Donut Professor",
      "osm_id": 4061006760,
      "amenity": "cafe",
      "cuisine": "coffee_shop",
      "website": "http://donutprofessor.com",
      "phone": "402-614-7685",
      "addr_city": "Omaha",
      "addr_postcode": "68022",
      "addr_street": "North 204th Avenue",
      "addr_housenumber": "920",
      "value": 295.23327074525946
    },
    {
      "id": 150659,
      "geometry": "POINT (-96.23508 41.269407)",
      "poi_name": "Scooter's Coffeehouse",
      "osm_id": 4061081204,
      "amenity": "cafe",
      "cuisine": "coffee_shop",
      "value": 295.23327074525946
    },
    {
      "id": 151212,
      "geometry": "POINT (-95.933009 41.25471)",
      "poi_name": "13th Street Coffee Company",
      "osm_id": 4086185549,
      "amenity": "cafe",
      "cuisine": "coffee_shop",
      "opening_hours": "Mo-Th 06:30-23:00; Fr 06:30-24:00; Sa 07:00-24:00; Su 08:00-23:00",
      "internet_access": "wlan",
      "addr_city": "Omaha",
      "addr_street": "South 13th Street",
      "addr_housenumber": "519",
      "value": 295.23327074525946
    },
    {
      "id": 154124,
      "geometry": "POINT (-96.006147 41.284872)",
      "poi_name": "Hardy Coffee Co.",
      "osm_id": 4224818017,
      "amenity": "cafe",
      "value": 295.23327074525946
    },
    {
      "id": 155416,
      "geometry": "POINT (-95.925471 41.174896)",
      "poi_name": "Scooter's Coffee",
      "osm_id": 4285202362,
      "amenity": "cafe",
      "cuisine": "coffee_shop",
      "takeaway": "only",
      "value": 295.23327074525946
    },
    {
      "id": 166093,
      "geometry": "POINT (-95.953865 41.119867)",
      "poi_name": "Elevated Coffee and Taphouse",
      "osm_id": 9573514248,
      "amenity": "cafe",
      "opening_hours": "Tu, We 08:00-17:00; Th-Sa 08:00-21:00; Su 08:00-14:00",
      "website": "https://elevatedcoldbrew.com/",
      "phone": "(402) 690-6427",
      "addr_state": "NE",
      "addr_city": "Bellevue",
      "addr_postcode": "68123",
      "addr_street": "Capehart Road",
      "addr_housenumber": "2851",
      "value": 295.23327074525946
    },
    {
      "id": 156937,
      "geometry": "POINT (-96.248252 41.133056)",
      "poi_name": "Scooter's Coffee",
      "osm_id": 4678598823,
      "amenity": "cafe",
      "website": "https://scooterscoffee.com/stores/gretna-hwy-6/",
      "addr_state": "NE",
      "addr_city": "Gretna",
      "addr_postcode": "68028",
      "addr_street": "South Highway 6",
      "addr_housenumber": "11791",
      "value": 295.23327074525946
    },
    {
      "id": 156101,
      "geometry": "POINT (-96.053303 41.305067)",
      "poi_name": "AJ's Cafe",
      "osm_id": 4639473521,
      "amenity": "cafe",
      "cuisine": "breakfast",
      "opening_hours": "05:00-14:00",
      "outdoor_seating": "no",
      "value": 295.23327074525946
    },
    {
      "id": 160779,
      "geometry": "POINT (-96.16011 41.291455)",
      "poi_name": "Scooters",
      "osm_id": 4846803735,
      "amenity": "cafe",
      "cuisine": "coffee_shop",
      "value": 295.23327074525946
    },
    {
      "id": 163112,
      "geometry": "POINT (-96.042314 41.180565)",
      "poi_name": "Starbucks",
      "osm_id": 9400842259,
      "amenity": "cafe",
      "cuisine": "coffee_shop",
      "takeaway": "yes",
      "official_name": "Starbucks Coffee",
      "addr_housenumber": "8351",
      "value": 295.23327074525946
    },
    {
      "id": 163134,
      "geometry": "POINT (-96.139399 41.169718)",
      "poi_name": "Hardy Coffee",
      "osm_id": 9403039279,
      "amenity": "cafe",
      "value": 295.23327074525946
    },
    {
      "id": 165885,
      "geometry": "POINT (-96.061475 41.164191)",
      "poi_name": "Cafe Diem",
      "osm_id": 9561218223,
      "amenity": "cafe",
      "value": 295.23327074525946
    },
    {
      "id": 184403,
      "geometry": "POINT (-96.091566 41.260993)",
      "poi_name": "Stories coffee",
      "osm_id": 7787757825,
      "amenity": "cafe",
      "cuisine": "coffee_shop;sandwich",
      "value": 295.23327074525946
    },
    {
      "id": 183653,
      "geometry": "POINT (-96.233619 41.230088)",
      "poi_name": "Starbucks",
      "osm_id": 10940244533,
      "amenity": "cafe",
      "cuisine": "coffee_shop",
      "opening_hours": "Mo-Fr 05:00-18:00; Sa-Su 06:00-18:00",
      "internet_access": "wlan",
      "takeaway": "yes",
      "official_name": "Starbucks Coffee",
      "outdoor_seating": "yes",
      "addr_state": "NE",
      "addr_city": "Elkhorn",
      "addr_postcode": "68022",
      "addr_street": "South 203rd Street",
      "addr_housenumber": "3030",
      "value": 295.23327074525946
    },
    {
      "id": 183313,
      "geometry": "POINT (-96.106712 41.180766)",
      "poi_name": "Starbucks",
      "osm_id": 10924947195,
      "amenity": "cafe",
      "cuisine": "coffee_shop",
      "takeaway": "yes",
      "official_name": "Starbucks Coffee",
      "value": 295.23327074525946
    },
    {
      "id": 185891,
      "geometry": "POINT (-96.180092 41.230778)",
      "poi_name": "Life Caf\u00e9",
      "osm_id": 7889747640,
      "amenity": "cafe",
      "value": 295.23327074525946
    },
    {
      "id": 185901,
      "geometry": "POINT (-96.186986 41.234676)",
      "poi_name": "Starbucks",
      "osm_id": 7890956270,
      "amenity": "cafe",
      "cuisine": "coffee_shop",
      "takeaway": "yes",
      "official_name": "Starbucks Coffee",
      "value": 295.23327074525946
    },
    {
      "id": 209272,
      "geometry": "POINT (-95.932596 41.252222)",
      "poi_name": "Brownie Bar",
      "osm_id": 5030691618,
      "amenity": "cafe",
      "cuisine": "dessert",
      "opening_hours": "Tu-Fr 11:00-18:00; Sa 10:00-16:00",
      "website": "https://www.browniebaromaha.com/",
      "value": 295.23327074525946
    },
    {
      "id": 196130,
      "geometry": "POINT (-96.010004 41.237489)",
      "poi_name": "Scooter's Coffee",
      "osm_id": 10564174895,
      "amenity": "cafe",
      "cuisine": "coffee_shop",
      "website": "https://scooterscoffee.com/",
      "phone": "(402) 504-3211",
      "addr_state": "NE",
      "addr_city": "Omaha",
      "addr_postcode": "68106",
      "addr_street": "Center Street",
      "addr_housenumber": "6303",
      "value": 295.23327074525946
    },
    {
      "id": 206158,
      "geometry": "POINT (-95.939155 41.255379)",
      "poi_name": "The Flatiron Cafe",
      "osm_id": 7198874917,
      "amenity": "cafe",
      "cuisine": "american",
      "opening_hours": "Mo-Th 17:00-21:00; Sa 17:00-22:00; Su closed",
      "website": "https://www.flatironcafeomaha.com/",
      "phone": "(402) 344-3040",
      "addr_state": "NE",
      "addr_city": "Omaha",
      "addr_postcode": "68102",
      "addr_street": "Saint Marys Avenue",
      "addr_housenumber": "1722",
      "value": 295.23327074525946
    },
    {
      "id": 196019,
      "geometry": "POINT (-96.02302 41.246485)",
      "poi_name": "Starbucks",
      "osm_id": 10558577785,
      "amenity": "cafe",
      "cuisine": "coffee_shop",
      "internet_access": "yes",
      "takeaway": "yes",
      "official_name": "Starbucks Coffee",
      "outdoor_seating": "yes",
      "value": 295.23327074525946
    },
    {
      "id": 209807,
      "geometry": "POINT (-95.948672 41.257866)",
      "poi_name": "Zen Coffee Company",
      "osm_id": 5060546570,
      "amenity": "cafe",
      "opening_hours": "Mo-Sa 06:00-19:00; Su 07:00-19:00",
      "addr_street": "south 25th street",
      "addr_housenumber": "230",
      "value": 295.23327074525946
    },
    {
      "id": 214904,
      "geometry": "POINT (-96.100621 41.177958)",
      "poi_name": "Scooters",
      "osm_id": 5282997633,
      "amenity": "cafe",
      "cuisine": "coffee",
      "value": 295.23327074525946
    },
    {
      "id": 210064,
      "geometry": "POINT (-95.937121 41.239271)",
      "poi_name": "Cafe Z",
      "osm_id": 5075914782,
      "amenity": "cafe",
      "opening_hours": "Mo-Su 07:00-23:00",
      "phone": "4023424262",
      "addr_street": "South 16th Street",
      "addr_housenumber": "2203",
      "value": 295.23327074525946
    },
    {
      "id": 212535,
      "geometry": "POINT (-95.851546 41.253989)",
      "poi_name": "Nicolas",
      "osm_id": 5211270822,
      "amenity": "cafe",
      "cuisine": "coffee_shop",
      "value": 295.23327074525946
    },
    {
      "id": 213800,
      "geometry": "POINT (-96.13394 41.088736)",
      "poi_name": "Black Sheep Coffee House",
      "osm_id": 5260353150,
      "amenity": "cafe",
      "opening_hours": "Mo-Fr 05:30-17:00; Sa 06:30-17:00; Su 08:00-15:00",
      "value": 295.23327074525946
    },
    {
      "id": 221837,
      "geometry": "POINT (-96.193892 41.250181)",
      "poi_name": "Caribou Coffee",
      "osm_id": 10992518039,
      "amenity": "cafe",
      "cuisine": "coffee_shop",
      "takeaway": "yes",
      "outdoor_seating": "no",
      "value": 295.23327074525946
    },
    {
      "id": 216987,
      "geometry": "POINT (-96.177769 41.276007)",
      "poi_name": "Scooters",
      "osm_id": 9196799531,
      "amenity": "cafe",
      "cuisine": "coffee_shop",
      "value": 295.23327074525946
    },
    {
      "id": 218591,
      "geometry": "POINT (-96.024266 41.163971)",
      "poi_name": "Scooters",
      "osm_id": 9287132294,
      "amenity": "cafe",
      "value": 295.23327074525946
    },
    {
      "id": 226687,
      "geometry": "POINT (-95.92378 41.261599)",
      "poi_name": "Fig Cafe",
      "osm_id": 11165605926,
      "amenity": "cafe",
      "value": 295.23327074525946
    },
    {
      "id": 225427,
      "geometry": "POINT (-95.89857 41.301011)",
      "poi_name": "Scooters Coffee",
      "osm_id": 11126338660,
      "amenity": "cafe",
      "opening_hours": "We-Fr,Su,Mo 05:00-18:00; Tu,Sa 05:00-17:00",
      "value": 295.23327074525946
    },
    {
      "id": 226755,
      "geometry": "POINT (-95.947114 41.255153)",
      "poi_name": "Felius Cat Caf\u00e9",
      "osm_id": 11167320045,
      "amenity": "cafe",
      "fee": "yes",
      "website": "https://felius.org/",
      "addr_state": "NE",
      "addr_city": "Omaha",
      "addr_postcode": "68102",
      "addr_street": "South 24th Street",
      "addr_housenumber": "522",
      "value": 295.23327074525946
    },
    {
      "id": 236915,
      "geometry": "POINT (-96.193474 41.206973)",
      "poi_name": "Starbucks",
      "osm_id": 5811198242,
      "amenity": "cafe",
      "cuisine": "coffee_shop",
      "takeaway": "yes",
      "official_name": "Starbucks Coffee",
      "value": 295.23327074525946
    },
    {
      "id": 244834,
      "geometry": "POINT (-96.082085 41.233525)",
      "poi_name": "Scooters Coffee",
      "osm_id": 7744511857,
      "amenity": "cafe",
      "value": 295.23327074525946
    },
    {
      "id": 234525,
      "geometry": "POINT (-95.934023 41.253502)",
      "poi_name": "Sozo Coffeehouse",
      "osm_id": 4626729632,
      "amenity": "cafe",
      "cuisine": "coffee_shop",
      "opening_hours": "Mo-Fr 07:00-00:00, Sa 08:30-00:00, Su 13:00-00:00",
      "internet_access": "wlan",
      "addr_state": "NE",
      "addr_city": "Omaha",
      "addr_postcode": "68102",
      "addr_street": "Jones Street",
      "addr_housenumber": "1314",
      "value": 295.23327074525946
    },
    {
      "id": 243540,
      "geometry": "POINT (-95.931704 41.255314)",
      "poi_name": "Scooters",
      "osm_id": 7657361749,
      "amenity": "cafe",
      "cuisine": "coffee_shop",
      "value": 295.23327074525946
    }
  ],
  "answer_type": "name",
  "question_entities": {
    "[2]": {
      "distance": 170000,
      "text": "170 kilometers"
    },
    "[3]": {
      "main_category": "tourism",
      "sub_category": "museum",
      "display_name": "The Restored Burlington Northern Depot & World War II Memorial Museum, Red Oak, IA",
      "geo_wkt": "POINT (-95.231014 41.002332)",
      "poi": {
        "id": 17141,
        "geometry": "POINT (-95.231014 41.002332)",
        "poi_name": "The Restored Burlington Northern Depot & World War II Memorial Museum",
        "osm_id": 367089609,
        "tourism": "museum",
        "opening_hours": "Mo-Fr 10:00-12:00",
        "operator": "www.depothill.net",
        "museum": "railroad_and_military_museum,_research_libray,_event_venue",
        "addr_state": "IA",
        "addr_city": "Red Oak",
        "addr_postcode": "51566",
        "addr_street": "South 2nd Street",
        "addr_housenumber": "305"
      }
    },
    "[4]": {
      "main_category": "tourism",
      "sub_category": "hotel",
      "display_name": "Element Omaha Midtown Crossing, Omaha, NE",
      "geo_wkt": "POINT (-95.960849 41.259574)",
      "poi": {
        "id": 13255,
        "geometry": "POINT (-95.960849 41.259574)",
        "poi_name": "Element Omaha Midtown Crossing",
        "osm_id": 4080963509,
        "tourism": "hotel",
        "website": "https://www.midtowncrossing.com/retail/hotel/element-hotel/",
        "phone": "402-614-8080",
        "wikidata": "Q111393746",
        "addr_state": "NE",
        "addr_city": "Omaha",
        "addr_postcode": "68131",
        "addr_street": "Dodge Street",
        "addr_housenumber": "3253"
      }
    },
    "[1]": {
      "main_category": "amenity",
      "sub_category": "cafe"
    }
  },
  "id": 1624,
  "type": "range:towards+name"
}