{
  "question": "I'm interested in finding a fast food restaurant that's 110 kilometers from White House Inn Museum, TN, any recommendations?",
  "sql": "SELECT * FROM pois\nWHERE ST_DWithin(pois.geometry, ST_GeomFromText('POINT (-86.661079 36.46883)',4326)::geography, 110000)\nAND amenity = 'fast_food';\n",
  "answers": [
    {
      "id": 28361,
      "geometry": "POINT (-86.877965 35.894005)",
      "poi_name": "Panera Bread",
      "osm_id": 476221357,
      "amenity": "fast_food",
      "cuisine": "sandwich;bakery",
      "phone": "+1-615-599-1974",
      "takeaway": "yes",
      "addr_city": "Franklin",
      "addr_postcode": "37064",
      "addr_street": "Columbia Ave",
      "addr_housenumber": "3046"
    },
    {
      "id": 28925,
      "geometry": "POINT (-87.737704 36.879053)",
      "poi_name": "Subway",
      "osm_id": 8267572732,
      "amenity": "fast_food",
      "cuisine": "sandwich",
      "takeaway": "yes"
    },
    {
      "id": 28926,
      "geometry": "POINT (-87.736395 36.878882)",
      "poi_name": "KFC",
      "osm_id": 8267589244,
      "amenity": "fast_food",
      "cuisine": "chicken",
      "website": "https://locations.kfc.com/ky/cadiz/57-hospitality-lane",
      "takeaway": "yes"
    },
    {
      "id": 28927,
      "geometry": "POINT (-87.735859 36.879204)",
      "poi_name": "Wendy's",
      "osm_id": 8267589245,
      "amenity": "fast_food",
      "cuisine": "burger",
      "takeaway": "yes"
    },
    {
      "id": 30483,
      "geometry": "POINT (-86.63571 36.070942)",
      "poi_name": "Captain D's",
      "osm_id": 8362734349,
      "amenity": "fast_food",
      "cuisine": "seafood",
      "opening_hours": "Mo-Su 10:30-22:00",
      "operator": "Captain D's",
      "website": "https://locations.captainds.com/ll/US/TN/Antioch/2705-Murfreesboro-Pike",
      "phone": "615-367-0050",
      "takeaway": "yes",
      "drive_through": "yes",
      "official_name": "Captain D's Seafood Kitchen",
      "addr_state": "TN",
      "addr_city": "Antioch",
      "addr_postcode": "37013",
      "addr_street": "Murfreesboro Pike",
      "addr_housenumber": "2705"
    },
    {
      "id": 32189,
      "geometry": "POINT (-86.781382 36.1628)",
      "poi_name": "Subway",
      "osm_id": 2622896620,
      "amenity": "fast_food",
      "cuisine": "sandwich",
      "takeaway": "yes"
    },
    {
      "id": 35721,
      "geometry": "POINT (-86.779114 36.164099)",
      "poi_name": "Deviance foods. Gyros",
      "osm_id": 2729257242,
      "amenity": "fast_food",
      "cuisine": "kebab",
      "addr_street": "4th Avenue North",
      "addr_housenumber": "210"
    },
    {
      "id": 38865,
      "geometry": "POINT (-86.797977 36.105476)",
      "poi_name": "Chick-fil-A",
      "osm_id": 2886992575,
      "amenity": "fast_food",
      "cuisine": "chicken",
      "takeaway": "yes"
    },
    {
      "id": 41569,
      "geometry": "POINT (-86.974012 35.709515)",
      "poi_name": "Burger King",
      "osm_id": 3020853242,
      "amenity": "fast_food",
      "cuisine": "burger",
      "takeaway": "yes",
      "drive_through": "yes"
    },
    {
      "id": 41570,
      "geometry": "POINT (-86.877344 35.895358)",
      "poi_name": "Chick-fil-A",
      "osm_id": 3020980645,
      "amenity": "fast_food",
      "cuisine": "chicken",
      "takeaway": "yes",
      "drive_through": "yes"
    },
    {
      "id": 42349,
      "geometry": "POINT (-87.35403 36.534005)",
      "poi_name": "Subway",
      "osm_id": 3056782131,
      "amenity": "fast_food",
      "cuisine": "sandwich",
      "wheelchair": "yes",
      "opening_hours": "Su-Sa 11:00-24:00",
      "operator": "Chartwells",
      "internet_access": "yes",
      "takeaway": "yes"
    },
    {
      "id": 43789,
      "geometry": "POINT (-87.413262 36.579744)",
      "poi_name": "McDonald's",
      "osm_id": 3130841110,
      "amenity": "fast_food",
      "cuisine": "burger",
      "wheelchair": "yes",
      "operator": "Wal-Mart",
      "internet_access": "no",
      "takeaway": "yes"
    },
    {
      "id": 44118,
      "geometry": "POINT (-87.291733 36.594383)",
      "poi_name": "McDonald's",
      "osm_id": 3145116583,
      "amenity": "fast_food",
      "cuisine": "burger",
      "wheelchair": "yes",
      "opening_hours": "08:00-21:00",
      "operator": "Wal-Mart",
      "internet_access": "no",
      "phone": "(931) 552-0685",
      "takeaway": "yes",
      "addr_state": "TN",
      "addr_city": "Clarksville",
      "addr_postcode": "37040",
      "addr_street": "Wilma Rudolph Boulevard",
      "addr_housenumber": "3050"
    },
    {
      "id": 44245,
      "geometry": "POINT (-86.905683 36.831546)",
      "poi_name": "Arby's",
      "osm_id": 3152422732,
      "amenity": "fast_food",
      "cuisine": "sandwich",
      "addr_state": "KY"
    },
    {
      "id": 44246,
      "geometry": "POINT (-86.892352 36.850617)",
      "poi_name": "Sonic",
      "osm_id": 3152422736,
      "amenity": "fast_food",
      "cuisine": "burger",
      "takeaway": "yes"
    },
    {
      "id": 44247,
      "geometry": "POINT (-86.891209 36.851183)",
      "poi_name": "McDonald's",
      "osm_id": 3152422737,
      "amenity": "fast_food",
      "cuisine": "burger",
      "website": "https://www.mcdonalds.com/us/en-us/location/ky/russellville/100-armory-dr/7742.html",
      "takeaway": "yes"
    },
    {
      "id": 44249,
      "geometry": "POINT (-86.893049 36.852179)",
      "poi_name": "Subway",
      "osm_id": 3152422739,
      "amenity": "fast_food",
      "cuisine": "sandwich",
      "takeaway": "yes"
    },
    {
      "id": 51013,
      "geometry": "POINT (-86.825111 35.945274)",
      "poi_name": "Chipotle",
      "osm_id": 500918762,
      "amenity": "fast_food",
      "cuisine": "mexican",
      "takeaway": "yes",
      "official_name": "Chipotle Mexican Grill"
    },
    {
      "id": 46545,
      "geometry": "POINT (-86.739559 36.200681)",
      "poi_name": "McDonald's",
      "osm_id": 3271420111,
      "amenity": "fast_food",
      "cuisine": "burger",
      "website": "https://www.mcdonalds.com/us/en-us/location/tn/nashville/2806-gallatin-pike/3402.html",
      "takeaway": "yes"
    },
    {
      "id": 48918,
      "geometry": "POINT (-86.321533 35.720966)",
      "poi_name": "Clark's CheeseSteak Factory",
      "osm_id": 3407782393,
      "amenity": "fast_food"
    },
    {
      "id": 51014,
      "geometry": "POINT (-86.828373 35.945656)",
      "poi_name": "Moe's Southwest Grill",
      "osm_id": 500918764,
      "amenity": "fast_food",
      "cuisine": "mexican",
      "takeaway": "yes"
    },
    {
      "id": 51022,
      "geometry": "POINT (-86.819254 35.948446)",
      "poi_name": "Wendy's",
      "osm_id": 501826430,
      "amenity": "fast_food",
      "cuisine": "burger",
      "takeaway": "yes",
      "drive_through": "yes"
    },
    {
      "id": 51052,
      "geometry": "POINT (-86.72266 36.080769)",
      "poi_name": "Fazoli's",
      "osm_id": 504738670,
      "amenity": "fast_food",
      "cuisine": "italian",
      "takeaway": "yes"
    },
    {
      "id": 53551,
      "geometry": "POINT (-86.476751 36.374751)",
      "poi_name": "Chick-fil-A",
      "osm_id": 10085057017,
      "amenity": "fast_food",
      "cuisine": "chicken",
      "takeaway": "yes"
    },
    {
      "id": 51228,
      "geometry": "POINT (-86.875776 35.899442)",
      "poi_name": "Lenny's Sub Shop",
      "osm_id": 522807810,
      "amenity": "fast_food",
      "cuisine": "sandwich",
      "phone": "+1-615-591-8898",
      "addr_city": "Franklin",
      "addr_postcode": "37064",
      "addr_street": "Lumber Dr",
      "addr_housenumber": "102"
    },
    {
      "id": 58627,
      "geometry": "POINT (-85.515016 36.156809)",
      "poi_name": "Jimmy John's",
      "osm_id": 5388327081,
      "amenity": "fast_food",
      "cuisine": "sandwich",
      "opening_hours": "Mo-Su 11:00-22:00",
      "takeaway": "yes",
      "official_name": "Jimmy John's Gourmet Sandwiches"
    },
    {
      "id": 53623,
      "geometry": "POINT (-86.753948 36.127558)",
      "poi_name": "Subway",
      "osm_id": 10088218000,
      "amenity": "fast_food",
      "cuisine": "sandwich",
      "takeaway": "yes",
      "drive_through": "no"
    },
    {
      "id": 54137,
      "geometry": "POINT (-86.424258 35.845268)",
      "poi_name": "Whataburger",
      "osm_id": 10117507872,
      "amenity": "fast_food",
      "cuisine": "burger",
      "takeaway": "yes"
    },
    {
      "id": 62985,
      "geometry": "POINT (-87.132686 37.281253)",
      "poi_name": "Long John Silver's",
      "osm_id": 5597077693,
      "amenity": "fast_food",
      "cuisine": "seafood",
      "takeaway": "yes"
    },
    {
      "id": 61295,
      "geometry": "POINT (-86.793599 36.152372)",
      "poi_name": "Grabbagreen",
      "osm_id": 5511703488,
      "amenity": "fast_food"
    },
    {
      "id": 64642,
      "geometry": "POINT (-87.128831 35.973525)",
      "poi_name": "Hardee's",
      "osm_id": 5661755452,
      "amenity": "fast_food",
      "cuisine": "burger",
      "website": "https://locations.hardees.com/tn/fairview/7003-city-center-way",
      "takeaway": "yes"
    },
    {
      "id": 66052,
      "geometry": "POINT (-87.414675 36.588084)",
      "poi_name": "Luigi's Pizza",
      "osm_id": 5726869714,
      "amenity": "fast_food",
      "cuisine": "pizza",
      "wheelchair": "yes",
      "opening_hours": "10:00-24:00",
      "operator": "Luigi's Pizza",
      "website": "http://www.luigisfreedelivery.com/",
      "internet_access": "no",
      "phone": "+1 931-552-3838",
      "takeaway": "only",
      "delivery": "yes",
      "addr_state": "TN",
      "addr_city": "Clarksville",
      "addr_postcode": "37042",
      "addr_street": "Fort Campbell Boulevard",
      "addr_housenumber": "1886"
    },
    {
      "id": 67036,
      "geometry": "POINT (-86.907387 36.128977)",
      "poi_name": "Little Caesars",
      "osm_id": 11220520168,
      "amenity": "fast_food",
      "cuisine": "pizza",
      "website": "https://littlecaesars.com/en-us/store/9167/",
      "takeaway": "yes"
    },
    {
      "id": 66773,
      "geometry": "POINT (-87.068537 35.604047)",
      "poi_name": "Long John Silver's",
      "osm_id": 11210570210,
      "amenity": "fast_food",
      "cuisine": "seafood",
      "takeaway": "yes"
    },
    {
      "id": 66875,
      "geometry": "POINT (-86.896894 35.929329)",
      "poi_name": "Dunkin'",
      "osm_id": 11215094861,
      "amenity": "fast_food",
      "cuisine": "donut;coffee_shop",
      "takeaway": "yes"
    },
    {
      "id": 66876,
      "geometry": "POINT (-86.87858 35.932856)",
      "poi_name": "Subway",
      "osm_id": 11215094882,
      "amenity": "fast_food",
      "cuisine": "sandwich",
      "takeaway": "yes"
    },
    {
      "id": 66877,
      "geometry": "POINT (-86.876006 35.90462)",
      "poi_name": "Taco Bell",
      "osm_id": 11215094897,
      "amenity": "fast_food",
      "cuisine": "tex-mex",
      "website": "https://locations.tacobell.com/tn/franklin/1710-columbia-ave.html",
      "takeaway": "yes"
    },
    {
      "id": 66878,
      "geometry": "POINT (-86.831797 35.974017)",
      "poi_name": "Sonic",
      "osm_id": 11215333089,
      "amenity": "fast_food",
      "cuisine": "burger",
      "takeaway": "yes"
    },
    {
      "id": 66880,
      "geometry": "POINT (-86.815698 36.105792)",
      "poi_name": "Domino's",
      "osm_id": 11215356357,
      "amenity": "fast_food",
      "cuisine": "pizza",
      "takeaway": "yes"
    },
    {
      "id": 66894,
      "geometry": "POINT (-86.649884 36.044709)",
      "poi_name": "Hunt Brothers Pizza",
      "osm_id": 11215980577,
      "amenity": "fast_food",
      "cuisine": "pizza",
      "takeaway": "yes"
    },
    {
      "id": 66895,
      "geometry": "POINT (-86.63057 36.064534)",
      "poi_name": "Domino's",
      "osm_id": 11215980621,
      "amenity": "fast_food",
      "cuisine": "pizza",
      "takeaway": "yes"
    },
    {
      "id": 66896,
      "geometry": "POINT (-86.620679 36.196323)",
      "poi_name": "Tropical Smoothie Cafe",
      "osm_id": 11215980647,
      "amenity": "fast_food",
      "cuisine": "juice",
      "takeaway": "yes"
    },
    {
      "id": 66897,
      "geometry": "POINT (-86.654217 36.256696)",
      "poi_name": "Subway",
      "osm_id": 11215980668,
      "amenity": "fast_food",
      "cuisine": "sandwich",
      "takeaway": "yes"
    },
    {
      "id": 66898,
      "geometry": "POINT (-86.65807 36.259377)",
      "poi_name": "Domino's",
      "osm_id": 11215980669,
      "amenity": "fast_food",
      "cuisine": "pizza",
      "takeaway": "yes"
    },
    {
      "id": 66899,
      "geometry": "POINT (-86.60683 36.182971)",
      "poi_name": "Jersey Mike's Subs",
      "osm_id": 11215980682,
      "amenity": "fast_food",
      "cuisine": "sandwich",
      "takeaway": "yes"
    },
    {
      "id": 66900,
      "geometry": "POINT (-86.606573 36.18298)",
      "poi_name": "Domino's",
      "osm_id": 11215980683,
      "amenity": "fast_food",
      "cuisine": "pizza",
      "takeaway": "yes"
    },
    {
      "id": 66901,
      "geometry": "POINT (-86.601039 36.172582)",
      "poi_name": "Subway",
      "osm_id": 11215980685,
      "amenity": "fast_food",
      "cuisine": "sandwich",
      "takeaway": "yes"
    },
    {
      "id": 66902,
      "geometry": "POINT (-86.601111 36.17247)",
      "poi_name": "Little Caesars",
      "osm_id": 11215980686,
      "amenity": "fast_food",
      "cuisine": "pizza",
      "website": "https://littlecaesars.com/en-us/store/11520/",
      "takeaway": "yes"
    },
    {
      "id": 66903,
      "geometry": "POINT (-86.515061 36.191083)",
      "poi_name": "DQ Grill & Chill",
      "osm_id": 11215980691,
      "amenity": "fast_food",
      "cuisine": "ice_cream;burger",
      "takeaway": "yes"
    },
    {
      "id": 66912,
      "geometry": "POINT (-86.412715 36.187794)",
      "poi_name": "Subway",
      "osm_id": 11216193831,
      "amenity": "fast_food",
      "cuisine": "sandwich",
      "takeaway": "yes"
    },
    {
      "id": 66913,
      "geometry": "POINT (-86.411858 36.188033)",
      "poi_name": "Taco Bell",
      "osm_id": 11216193832,
      "amenity": "fast_food",
      "cuisine": "tex-mex",
      "website": "https://locations.tacobell.com/tn/lebanon/6705-eastgate-boulevard.html",
      "takeaway": "yes"
    },
    {
      "id": 66914,
      "geometry": "POINT (-86.410496 36.187635)",
      "poi_name": "Jersey Mike's Subs",
      "osm_id": 11216193833,
      "amenity": "fast_food",
      "cuisine": "sandwich",
      "takeaway": "yes"
    },
    {
      "id": 67079,
      "geometry": "POINT (-87.364083 36.050585)",
      "poi_name": "Zaxby's",
      "osm_id": 11222976308,
      "amenity": "fast_food",
      "cuisine": "chicken",
      "takeaway": "yes",
      "official_name": "Zaxby's Chicken Fingers & Buffalo Wings"
    },
    {
      "id": 67080,
      "geometry": "POINT (-87.519755 36.091817)",
      "poi_name": "Hunt Brothers Pizza",
      "osm_id": 11222976357,
      "amenity": "fast_food",
      "cuisine": "pizza",
      "takeaway": "yes"
    },
    {
      "id": 67081,
      "geometry": "POINT (-87.63218 36.10681)",
      "poi_name": "Sonic",
      "osm_id": 11222976368,
      "amenity": "fast_food",
      "cuisine": "burger",
      "takeaway": "yes"
    },
    {
      "id": 67082,
      "geometry": "POINT (-87.634266 36.107273)",
      "poi_name": "Subway",
      "osm_id": 11222976369,
      "amenity": "fast_food",
      "cuisine": "sandwich",
      "takeaway": "yes"
    },
    {
      "id": 67083,
      "geometry": "POINT (-87.635733 36.108344)",
      "poi_name": "DQ Grill & Chill",
      "osm_id": 11222976372,
      "amenity": "fast_food",
      "cuisine": "ice_cream;burger",
      "takeaway": "yes"
    },
    {
      "id": 67037,
      "geometry": "POINT (-86.907309 36.12909)",
      "poi_name": "Wingstop",
      "osm_id": 11220520169,
      "amenity": "fast_food",
      "cuisine": "wings",
      "takeaway": "yes"
    },
    {
      "id": 67038,
      "geometry": "POINT (-86.728614 36.216566)",
      "poi_name": "Sonic",
      "osm_id": 11220520296,
      "amenity": "fast_food",
      "cuisine": "burger",
      "takeaway": "yes"
    },
    {
      "id": 67039,
      "geometry": "POINT (-86.711231 36.266616)",
      "poi_name": "KFC",
      "osm_id": 11220520308,
      "amenity": "fast_food",
      "cuisine": "chicken",
      "website": "https://locations.kfc.com/tn/madison/415-gallatin-pike-north",
      "takeaway": "yes"
    },
    {
      "id": 67040,
      "geometry": "POINT (-86.713617 36.262507)",
      "poi_name": "Papa John's",
      "osm_id": 11220520335,
      "amenity": "fast_food",
      "cuisine": "pizza",
      "takeaway": "yes"
    },
    {
      "id": 67041,
      "geometry": "POINT (-86.69926 36.295866)",
      "poi_name": "Whataburger",
      "osm_id": 11220520397,
      "amenity": "fast_food",
      "cuisine": "burger",
      "takeaway": "yes"
    },
    {
      "id": 67043,
      "geometry": "POINT (-86.701694 36.292772)",
      "poi_name": "Domino's",
      "osm_id": 11220520418,
      "amenity": "fast_food",
      "cuisine": "pizza",
      "takeaway": "yes"
    },
    {
      "id": 67138,
      "geometry": "POINT (-87.350953 36.168243)",
      "poi_name": "Subway",
      "osm_id": 11225106398,
      "amenity": "fast_food",
      "cuisine": "sandwich",
      "takeaway": "yes"
    },
    {
      "id": 67139,
      "geometry": "POINT (-87.350295 36.169002)",
      "poi_name": "DQ Grill & Chill",
      "osm_id": 11225106400,
      "amenity": "fast_food",
      "cuisine": "ice_cream;burger",
      "takeaway": "yes"
    },
    {
      "id": 67235,
      "geometry": "POINT (-87.23971 36.558048)",
      "poi_name": "Burger King",
      "osm_id": 11229823863,
      "amenity": "fast_food",
      "cuisine": "burger",
      "takeaway": "yes"
    },
    {
      "id": 67220,
      "geometry": "POINT (-86.695743 36.548874)",
      "poi_name": "Hunt Brothers Pizza",
      "osm_id": 11228573672,
      "amenity": "fast_food",
      "cuisine": "pizza",
      "takeaway": "yes"
    },
    {
      "id": 67236,
      "geometry": "POINT (-87.239071 36.55819)",
      "poi_name": "Popeyes",
      "osm_id": 11229823864,
      "amenity": "fast_food",
      "cuisine": "chicken",
      "takeaway": "yes",
      "official_name": "Popeyes Louisiana Kitchen"
    },
    {
      "id": 67237,
      "geometry": "POINT (-87.240403 36.557985)",
      "poi_name": "Taco John's",
      "osm_id": 11229823865,
      "amenity": "fast_food",
      "cuisine": "mexican",
      "takeaway": "yes"
    },
    {
      "id": 67265,
      "geometry": "POINT (-87.31368 36.562753)",
      "poi_name": "Burger King",
      "osm_id": 11230523717,
      "amenity": "fast_food",
      "cuisine": "burger",
      "takeaway": "yes"
    },
    {
      "id": 67268,
      "geometry": "POINT (-87.83174 36.507888)",
      "poi_name": "Hunt Brothers Pizza",
      "osm_id": 11230536677,
      "amenity": "fast_food",
      "cuisine": "pizza",
      "takeaway": "yes"
    },
    {
      "id": 67269,
      "geometry": "POINT (-87.786588 36.554385)",
      "poi_name": "Hunt Brothers Pizza",
      "osm_id": 11230536688,
      "amenity": "fast_food",
      "cuisine": "pizza",
      "takeaway": "yes"
    },
    {
      "id": 67270,
      "geometry": "POINT (-87.787277 36.554136)",
      "poi_name": "Subway",
      "osm_id": 11230536689,
      "amenity": "fast_food",
      "cuisine": "sandwich",
      "takeaway": "yes"
    },
    {
      "id": 67433,
      "geometry": "POINT (-86.350344 35.835517)",
      "poi_name": "Wingstop",
      "osm_id": 11235231310,
      "amenity": "fast_food",
      "cuisine": "wings",
      "takeaway": "yes"
    },
    {
      "id": 67344,
      "geometry": "POINT (-86.711505 36.144211)",
      "poi_name": "Subway",
      "osm_id": 11234165675,
      "amenity": "fast_food",
      "cuisine": "sandwich",
      "takeaway": "yes"
    },
    {
      "id": 67345,
      "geometry": "POINT (-86.580683 36.02065)",
      "poi_name": "Domino's",
      "osm_id": 11234175244,
      "amenity": "fast_food",
      "cuisine": "pizza",
      "takeaway": "yes"
    },
    {
      "id": 67346,
      "geometry": "POINT (-86.579767 36.02044)",
      "poi_name": "Little Caesars",
      "osm_id": 11234175245,
      "amenity": "fast_food",
      "cuisine": "pizza",
      "website": "https://littlecaesars.com/en-us/store/9033/",
      "takeaway": "yes"
    },
    {
      "id": 67347,
      "geometry": "POINT (-86.583991 36.022069)",
      "poi_name": "Checkers",
      "osm_id": 11234175250,
      "amenity": "fast_food",
      "cuisine": "burger",
      "takeaway": "yes"
    },
    {
      "id": 67348,
      "geometry": "POINT (-86.597053 35.999474)",
      "poi_name": "Hardee's",
      "osm_id": 11234175336,
      "amenity": "fast_food",
      "cuisine": "burger",
      "website": "https://locations.hardees.com/tn/la-vergne/508-waldron-road",
      "takeaway": "yes"
    },
    {
      "id": 67434,
      "geometry": "POINT (-86.333382 35.52494)",
      "poi_name": "Hunt Brothers Pizza",
      "osm_id": 11235231374,
      "amenity": "fast_food",
      "cuisine": "pizza",
      "takeaway": "yes"
    },
    {
      "id": 67435,
      "geometry": "POINT (-86.546372 35.571057)",
      "poi_name": "Hunt Brothers Pizza",
      "osm_id": 11235231674,
      "amenity": "fast_food",
      "cuisine": "pizza",
      "takeaway": "yes"
    },
    {
      "id": 67699,
      "geometry": "POINT (-86.528365 36.593856)",
      "poi_name": "Subway",
      "osm_id": 11245108243,
      "amenity": "fast_food",
      "cuisine": "sandwich",
      "takeaway": "yes"
    },
    {
      "id": 67787,
      "geometry": "POINT (-85.630349 36.139858)",
      "poi_name": "Subway",
      "osm_id": 11247877714,
      "amenity": "fast_food",
      "cuisine": "sandwich",
      "takeaway": "yes"
    },
    {
      "id": 67696,
      "geometry": "POINT (-86.444517 36.364655)",
      "poi_name": "Mooyah",
      "osm_id": 11245066691,
      "amenity": "fast_food",
      "cuisine": "burger",
      "takeaway": "yes"
    },
    {
      "id": 67788,
      "geometry": "POINT (-85.628362 36.140624)",
      "poi_name": "Papa John's",
      "osm_id": 11247877716,
      "amenity": "fast_food",
      "cuisine": "pizza",
      "takeaway": "yes"
    },
    {
      "id": 68751,
      "geometry": "POINT (-86.457563 36.382294)",
      "poi_name": "Domino's",
      "osm_id": 11283500908,
      "amenity": "fast_food",
      "cuisine": "pizza",
      "takeaway": "yes"
    },
    {
      "id": 68752,
      "geometry": "POINT (-86.46208 36.381094)",
      "poi_name": "KFC",
      "osm_id": 11283500918,
      "amenity": "fast_food",
      "cuisine": "chicken",
      "website": "https://locations.kfc.com/tn/gallatin/675-nashville-pike",
      "takeaway": "yes"
    },
    {
      "id": 68753,
      "geometry": "POINT (-86.46372 36.38025)",
      "poi_name": "Panda Express",
      "osm_id": 11283500924,
      "amenity": "fast_food",
      "cuisine": "chinese",
      "takeaway": "yes"
    },
    {
      "id": 68754,
      "geometry": "POINT (-86.464476 36.379873)",
      "poi_name": "Taco Bell",
      "osm_id": 11283500925,
      "amenity": "fast_food",
      "cuisine": "tex-mex",
      "website": "https://locations.tacobell.com/tn/gallatin/807-nashville-pike.html",
      "takeaway": "yes"
    },
    {
      "id": 68755,
      "geometry": "POINT (-86.465501 36.379215)",
      "poi_name": "Burger King",
      "osm_id": 11283500926,
      "amenity": "fast_food",
      "cuisine": "burger",
      "takeaway": "yes"
    },
    {
      "id": 68758,
      "geometry": "POINT (-86.463184 36.381487)",
      "poi_name": "Popeyes",
      "osm_id": 11283500947,
      "amenity": "fast_food",
      "cuisine": "chicken",
      "takeaway": "yes",
      "official_name": "Popeyes Louisiana Kitchen"
    },
    {
      "id": 68759,
      "geometry": "POINT (-86.462336 36.381934)",
      "poi_name": "DQ Grill & Chill",
      "osm_id": 11283500948,
      "amenity": "fast_food",
      "cuisine": "ice_cream;burger",
      "takeaway": "yes"
    },
    {
      "id": 68761,
      "geometry": "POINT (-86.455148 36.385634)",
      "poi_name": "McDonald's",
      "osm_id": 11283509493,
      "amenity": "fast_food",
      "cuisine": "burger",
      "website": "https://www.mcdonalds.com/us/en-us/location/tn/gallatin/402-w-main-st/4066.html",
      "takeaway": "yes"
    },
    {
      "id": 68762,
      "geometry": "POINT (-86.45336 36.385434)",
      "poi_name": "Little Caesars",
      "osm_id": 11283509509,
      "amenity": "fast_food",
      "cuisine": "pizza",
      "website": "https://littlecaesars.com/en-us/store/7649/",
      "takeaway": "yes"
    },
    {
      "id": 68763,
      "geometry": "POINT (-86.451182 36.38684)",
      "poi_name": "Wendy's",
      "osm_id": 11283541566,
      "amenity": "fast_food",
      "cuisine": "burger",
      "takeaway": "yes"
    },
    {
      "id": 68776,
      "geometry": "POINT (-86.714912 36.256591)",
      "poi_name": "Bojangles'",
      "osm_id": 11283850163,
      "amenity": "fast_food",
      "cuisine": "chicken",
      "takeaway": "yes",
      "official_name": "Bojangles' Famous Chicken 'n Biscuits"
    },
    {
      "id": 69643,
      "geometry": "POINT (-86.936724 35.746469)",
      "poi_name": "Domino's",
      "osm_id": 11324284776,
      "amenity": "fast_food",
      "cuisine": "pizza",
      "takeaway": "yes"
    },
    {
      "id": 69644,
      "geometry": "POINT (-86.924883 35.755533)",
      "poi_name": "Papa John's",
      "osm_id": 11324284777,
      "amenity": "fast_food",
      "cuisine": "pizza",
      "takeaway": "yes"
    },
    {
      "id": 69652,
      "geometry": "POINT (-87.308144 36.514546)",
      "poi_name": "Tropical Smoothie Cafe",
      "osm_id": 11327525886,
      "amenity": "fast_food",
      "cuisine": "juice",
      "takeaway": "yes"
    },
    {
      "id": 69654,
      "geometry": "POINT (-86.846336 36.126296)",
      "poi_name": "Moe's Southwest Grill",
      "osm_id": 11327525907,
      "amenity": "fast_food",
      "cuisine": "mexican",
      "takeaway": "yes"
    },
    {
      "id": 70417,
      "geometry": "POINT (-86.33311 36.216064)",
      "poi_name": "Jimmy John's",
      "osm_id": 11361380559,
      "amenity": "fast_food",
      "cuisine": "sandwich",
      "takeaway": "yes",
      "official_name": "Jimmy John's Gourmet Sandwiches"
    },
    {
      "id": 70380,
      "geometry": "POINT (-86.895271 35.642414)",
      "poi_name": "Subway",
      "osm_id": 11360693178,
      "amenity": "fast_food",
      "cuisine": "sandwich",
      "takeaway": "yes"
    },
    {
      "id": 70381,
      "geometry": "POINT (-86.400127 35.806568)",
      "poi_name": "Little Caesars",
      "osm_id": 11360694060,
      "amenity": "fast_food",
      "cuisine": "pizza",
      "website": "https://littlecaesars.com/en-us/store/12070/",
      "takeaway": "yes"
    },
    {
      "id": 70382,
      "geometry": "POINT (-86.36733 35.811852)",
      "poi_name": "Subway",
      "osm_id": 11360694092,
      "amenity": "fast_food",
      "cuisine": "sandwich",
      "takeaway": "yes"
    },
    {
      "id": 70418,
      "geometry": "POINT (-86.3303 36.214523)",
      "poi_name": "Subway",
      "osm_id": 11361380565,
      "amenity": "fast_food",
      "cuisine": "sandwich",
      "takeaway": "yes"
    },
    {
      "id": 70419,
      "geometry": "POINT (-86.329396 36.215023)",
      "poi_name": "Papa Murphy's",
      "osm_id": 11361380566,
      "amenity": "fast_food",
      "cuisine": "pizza",
      "takeaway": "only",
      "official_name": "Papa Murphy's Take 'N' Bake Pizza"
    },
    {
      "id": 70420,
      "geometry": "POINT (-86.323486 36.215544)",
      "poi_name": "Jersey Mike's Subs",
      "osm_id": 11361380604,
      "amenity": "fast_food",
      "cuisine": "sandwich",
      "takeaway": "yes"
    },
    {
      "id": 70570,
      "geometry": "POINT (-87.47157 36.820008)",
      "poi_name": "Dairy Queen",
      "osm_id": 11367162459,
      "amenity": "fast_food",
      "cuisine": "ice_cream;burger",
      "takeaway": "yes"
    },
    {
      "id": 70572,
      "geometry": "POINT (-87.473041 36.824785)",
      "poi_name": "Chick-fil-A",
      "osm_id": 11367184548,
      "amenity": "fast_food",
      "cuisine": "chicken",
      "takeaway": "yes"
    },
    {
      "id": 70574,
      "geometry": "POINT (-87.471826 36.827073)",
      "poi_name": "Freddy's",
      "osm_id": 11367184551,
      "amenity": "fast_food",
      "cuisine": "ice_cream;burger",
      "takeaway": "yes",
      "official_name": "Freddy's Frozen Custard & Steakburgers"
    },
    {
      "id": 70576,
      "geometry": "POINT (-87.474272 36.83551)",
      "poi_name": "Zaxby's",
      "osm_id": 11367208728,
      "amenity": "fast_food",
      "cuisine": "chicken",
      "takeaway": "yes",
      "official_name": "Zaxby's Chicken Fingers & Buffalo Wings"
    },
    {
      "id": 70577,
      "geometry": "POINT (-87.476359 36.835688)",
      "poi_name": "Wendy's",
      "osm_id": 11367208729,
      "amenity": "fast_food",
      "cuisine": "burger",
      "takeaway": "yes"
    },
    {
      "id": 70578,
      "geometry": "POINT (-87.47619 36.835444)",
      "poi_name": "Captain D's",
      "osm_id": 11367208730,
      "amenity": "fast_food",
      "cuisine": "seafood",
      "takeaway": "yes",
      "official_name": "Captain D's Seafood Kitchen"
    },
    {
      "id": 70579,
      "geometry": "POINT (-87.477225 36.836333)",
      "poi_name": "Long John Silver's",
      "osm_id": 11367208731,
      "amenity": "fast_food",
      "cuisine": "seafood",
      "takeaway": "yes"
    },
    {
      "id": 70581,
      "geometry": "POINT (-87.478896 36.837496)",
      "poi_name": "Rally's",
      "osm_id": 11367208736,
      "amenity": "fast_food",
      "cuisine": "burger",
      "takeaway": "yes"
    },
    {
      "id": 70582,
      "geometry": "POINT (-87.48024 36.839561)",
      "poi_name": "Burger King",
      "osm_id": 11367208739,
      "amenity": "fast_food",
      "cuisine": "burger",
      "takeaway": "yes"
    },
    {
      "id": 74700,
      "geometry": "POINT (-86.655118 36.047485)",
      "poi_name": "Burger King",
      "osm_id": 9692539190,
      "amenity": "fast_food",
      "cuisine": "burger",
      "takeaway": "yes",
      "drive_through": "yes",
      "addr_state": "TN",
      "addr_city": "Antioch",
      "addr_postcode": "37013",
      "addr_street": "Hickory Hollow Parkway",
      "addr_housenumber": "5300"
    },
    {
      "id": 50934,
      "geometry": "POINT (-87.030022 36.397184)",
      "poi_name": "KFC/Taco Bell",
      "osm_id": 495864150,
      "amenity": "fast_food"
    },
    {
      "id": 50936,
      "geometry": "POINT (-87.014552 36.387831)",
      "poi_name": "Chris' Pizza Village",
      "osm_id": 495870429,
      "amenity": "fast_food",
      "addr_state": "TN",
      "addr_city": "Pleasant View",
      "addr_postcode": "37146",
      "addr_street": "Village Square",
      "addr_housenumber": "244"
    },
    {
      "id": 73664,
      "geometry": "POINT (-86.36034 35.847982)",
      "poi_name": "Dunkin'",
      "osm_id": 9649266714,
      "amenity": "fast_food",
      "cuisine": "donut;coffee_shop",
      "takeaway": "yes"
    },
    {
      "id": 75773,
      "geometry": "POINT (-86.599948 36.169224)",
      "poi_name": "McDonald's",
      "osm_id": 9742561565,
      "amenity": "fast_food",
      "cuisine": "burger",
      "website": "https://www.mcdonalds.com/us/en-us/location/tn/hermitage/5800-old-hickory-blvd/24038.html",
      "takeaway": "yes"
    },
    {
      "id": 74761,
      "geometry": "POINT (-86.452213 36.985857)",
      "poi_name": "Panda Express",
      "osm_id": 9695382562,
      "amenity": "fast_food",
      "cuisine": "chinese",
      "takeaway": "yes"
    },
    {
      "id": 74762,
      "geometry": "POINT (-86.452146 36.985938)",
      "poi_name": "Moe's Southwest Grill",
      "osm_id": 9695382563,
      "amenity": "fast_food",
      "cuisine": "mexican",
      "takeaway": "yes"
    },
    {
      "id": 74766,
      "geometry": "POINT (-86.456047 36.985743)",
      "poi_name": "Subway",
      "osm_id": 9695382567,
      "amenity": "fast_food",
      "cuisine": "sandwich",
      "takeaway": "yes"
    },
    {
      "id": 74769,
      "geometry": "POINT (-86.456808 36.982936)",
      "poi_name": "Einstein Bros. Bagels",
      "osm_id": 9695382570,
      "amenity": "fast_food",
      "cuisine": "bagel",
      "takeaway": "yes"
    },
    {
      "id": 74771,
      "geometry": "POINT (-86.45707 36.984812)",
      "poi_name": "Steak 'n Shake",
      "osm_id": 9695382572,
      "amenity": "fast_food",
      "cuisine": "burger",
      "takeaway": "yes"
    },
    {
      "id": 74772,
      "geometry": "POINT (-86.457135 36.984768)",
      "poi_name": "Chick-fil-A",
      "osm_id": 9695382573,
      "amenity": "fast_food",
      "cuisine": "chicken",
      "takeaway": "yes"
    },
    {
      "id": 74773,
      "geometry": "POINT (-86.457174 36.984702)",
      "poi_name": "Papa John's",
      "osm_id": 9695382574,
      "amenity": "fast_food",
      "cuisine": "pizza",
      "takeaway": "yes"
    },
    {
      "id": 74774,
      "geometry": "POINT (-86.456836 36.985132)",
      "poi_name": "Burrito Bowl",
      "osm_id": 9695382575,
      "amenity": "fast_food",
      "cuisine": "mexican"
    },
    {
      "id": 74890,
      "geometry": "POINT (-87.174161 36.026074)",
      "poi_name": "Back Yard Burgers",
      "osm_id": 9701971274,
      "amenity": "fast_food",
      "cuisine": "burger",
      "takeaway": "yes",
      "addr_state": "TN",
      "addr_city": "Fairview",
      "addr_postcode": "37062",
      "addr_street": "Highway 96",
      "addr_housenumber": "1425"
    },
    {
      "id": 74891,
      "geometry": "POINT (-87.17275 36.025664)",
      "poi_name": "Subway",
      "osm_id": 9701972184,
      "amenity": "fast_food",
      "cuisine": "sandwich",
      "takeaway": "yes",
      "addr_state": "TN",
      "addr_city": "Fairview",
      "addr_postcode": "37062",
      "addr_street": "Highway 96",
      "addr_housenumber": "1411"
    },
    {
      "id": 74899,
      "geometry": "POINT (-87.174507 36.026126)",
      "poi_name": "Dunkin'",
      "osm_id": 9701983001,
      "amenity": "fast_food",
      "cuisine": "donut;coffee_shop",
      "takeaway": "yes",
      "addr_state": "TN",
      "addr_city": "Fairview",
      "addr_postcode": "37062",
      "addr_street": "Highway 96",
      "addr_housenumber": "1425"
    },
    {
      "id": 75737,
      "geometry": "POINT (-86.739832 36.200467)",
      "poi_name": "Chicago Style GYROS",
      "osm_id": 9741862817,
      "amenity": "fast_food",
      "cuisine": "greek",
      "opening_hours": "Mo-Su 09:00-18:00",
      "addr_postcode": "37216",
      "addr_street": "Gallatin Pike",
      "addr_housenumber": "2804"
    },
    {
      "id": 75740,
      "geometry": "POINT (-87.286485 36.595333)",
      "poi_name": "Firehouse Subs",
      "osm_id": 9741995052,
      "amenity": "fast_food",
      "cuisine": "sandwich",
      "takeaway": "yes"
    },
    {
      "id": 76307,
      "geometry": "POINT (-86.429165 36.989717)",
      "poi_name": "Dairy Queen",
      "osm_id": 9769961918,
      "amenity": "fast_food",
      "cuisine": "ice_cream;burger",
      "takeaway": "yes"
    },
    {
      "id": 76308,
      "geometry": "POINT (-86.425728 36.99562)",
      "poi_name": "Papa John's",
      "osm_id": 9770131808,
      "amenity": "fast_food",
      "cuisine": "pizza",
      "takeaway": "yes"
    },
    {
      "id": 76310,
      "geometry": "POINT (-86.433893 36.98494)",
      "poi_name": "Great American Donut Shop",
      "osm_id": 9770184024,
      "amenity": "fast_food",
      "cuisine": "donut"
    },
    {
      "id": 78749,
      "geometry": "POINT (-86.728003 36.081018)",
      "poi_name": "Subway",
      "osm_id": 761915479,
      "amenity": "fast_food",
      "cuisine": "sandwich",
      "takeaway": "yes"
    },
    {
      "id": 78677,
      "geometry": "POINT (-86.742979 36.040073)",
      "poi_name": "Dippin' Dots",
      "osm_id": 761667219,
      "amenity": "fast_food"
    },
    {
      "id": 78679,
      "geometry": "POINT (-86.742372 36.03951)",
      "poi_name": "Roma Pizza and Subs",
      "osm_id": 761667233,
      "amenity": "fast_food"
    },
    {
      "id": 78680,
      "geometry": "POINT (-86.745923 36.041809)",
      "poi_name": "Jersey Mike's Subs",
      "osm_id": 761667240,
      "amenity": "fast_food",
      "cuisine": "sandwich",
      "takeaway": "yes"
    },
    {
      "id": 78683,
      "geometry": "POINT (-86.742554 36.041054)",
      "poi_name": "Subway",
      "osm_id": 761667247,
      "amenity": "fast_food",
      "cuisine": "sandwich",
      "takeaway": "yes"
    },
    {
      "id": 78751,
      "geometry": "POINT (-86.729121 36.084301)",
      "poi_name": "China Moon",
      "osm_id": 761915765,
      "amenity": "fast_food",
      "cuisine": "chinese",
      "website": "https://www.chinamoonnashville.com/",
      "addr_postcode": "37211",
      "addr_street": "Nolensville Pike",
      "addr_housenumber": "3979"
    },
    {
      "id": 78753,
      "geometry": "POINT (-86.727217 36.084938)",
      "poi_name": "Domino's",
      "osm_id": 761915862,
      "amenity": "fast_food",
      "cuisine": "pizza",
      "takeaway": "yes"
    },
    {
      "id": 80885,
      "geometry": "POINT (-86.741978 36.03952)",
      "poi_name": "Smoothie King",
      "osm_id": 1585070217,
      "amenity": "fast_food",
      "cuisine": "juice",
      "takeaway": "yes"
    },
    {
      "id": 80279,
      "geometry": "POINT (-86.722188 36.080765)",
      "poi_name": "Sonic",
      "osm_id": 871972175,
      "amenity": "fast_food",
      "cuisine": "burger",
      "takeaway": "yes"
    },
    {
      "id": 81271,
      "geometry": "POINT (-87.738186 36.880537)",
      "poi_name": "McDonald's",
      "osm_id": 1619118549,
      "amenity": "fast_food",
      "cuisine": "burger",
      "website": "https://www.mcdonalds.com/us/en-us/location/ky/cadiz/5878-hopkinsville-rd/24284.html",
      "takeaway": "yes"
    },
    {
      "id": 84050,
      "geometry": "POINT (-86.691795 36.000596)",
      "poi_name": "Papa Murphy's",
      "osm_id": 1775088381,
      "amenity": "fast_food",
      "cuisine": "pizza",
      "opening_hours": "11:00-21:00",
      "website": "https://www.papamurphys.com/store-finder/TN/37027/TN080",
      "phone": "(615) 283-8081",
      "takeaway": "only",
      "official_name": "Papa Murphy's Take 'N' Bake Pizza",
      "addr_state": "TN",
      "addr_city": "Brentwood",
      "addr_postcode": "37027",
      "addr_street": "Nolensville Pike",
      "addr_housenumber": "6688"
    },
    {
      "id": 84051,
      "geometry": "POINT (-86.692219 36.000492)",
      "poi_name": "Subway",
      "osm_id": 1775088383,
      "amenity": "fast_food",
      "cuisine": "sandwich",
      "takeaway": "yes"
    },
    {
      "id": 84372,
      "geometry": "POINT (-86.623014 36.32141)",
      "poi_name": "McDonald's",
      "osm_id": 1786329544,
      "amenity": "fast_food",
      "cuisine": "burger",
      "website": "https://www.mcdonalds.com/us/en-us/location/tn/hendersonville/305-new-shackle-island-rd/13557.html"
    },
    {
      "id": 84471,
      "geometry": "POINT (-87.374659 36.077606)",
      "poi_name": "Popeyes",
      "osm_id": 1795234395,
      "amenity": "fast_food",
      "cuisine": "chicken",
      "takeaway": "only",
      "official_name": "Popeyes Louisiana Kitchen",
      "delivery": "no",
      "addr_postcode": "37055",
      "addr_street": "Henslee Drive",
      "addr_housenumber": "211"
    },
    {
      "id": 86949,
      "geometry": "POINT (-86.805959 36.148352)",
      "poi_name": "Papa John's",
      "osm_id": 1961206247,
      "amenity": "fast_food",
      "cuisine": "pizza",
      "takeaway": "yes"
    },
    {
      "id": 85653,
      "geometry": "POINT (-86.624563 36.319308)",
      "poi_name": "Sonic",
      "osm_id": 1887592185,
      "amenity": "fast_food",
      "cuisine": "burger"
    },
    {
      "id": 86676,
      "geometry": "POINT (-86.625637 36.151216)",
      "poi_name": "Subway",
      "osm_id": 1945356372,
      "amenity": "fast_food",
      "cuisine": "sandwich",
      "takeaway": "yes"
    },
    {
      "id": 86934,
      "geometry": "POINT (-86.800268 36.139359)",
      "poi_name": "Dunkin'",
      "osm_id": 1960610751,
      "amenity": "fast_food",
      "cuisine": "donut;coffee_shop",
      "wheelchair": "yes",
      "opening_hours": "Mo-Su 05:00-19:00",
      "takeaway": "yes"
    },
    {
      "id": 86952,
      "geometry": "POINT (-86.813098 36.144235)",
      "poi_name": "Chipotle",
      "osm_id": 1961222514,
      "amenity": "fast_food",
      "cuisine": "mexican",
      "takeaway": "yes",
      "official_name": "Chipotle Mexican Grill"
    },
    {
      "id": 86953,
      "geometry": "POINT (-86.813317 36.144097)",
      "poi_name": "Panera Bread",
      "osm_id": 1961223218,
      "amenity": "fast_food",
      "cuisine": "sandwich;bakery",
      "takeaway": "yes"
    },
    {
      "id": 86957,
      "geometry": "POINT (-86.813548 36.143824)",
      "poi_name": "Which Wich?",
      "osm_id": 1961235767,
      "amenity": "fast_food",
      "cuisine": "sandwich",
      "takeaway": "yes"
    },
    {
      "id": 86963,
      "geometry": "POINT (-86.808285 36.148152)",
      "poi_name": "Smoothie King",
      "osm_id": 1961255704,
      "amenity": "fast_food",
      "cuisine": "juice",
      "takeaway": "yes"
    },
    {
      "id": 86965,
      "geometry": "POINT (-86.800731 36.15087)",
      "poi_name": "Five Guys",
      "osm_id": 1961301218,
      "amenity": "fast_food",
      "cuisine": "burger",
      "takeaway": "yes",
      "official_name": "Five Guys Burgers and Fries"
    },
    {
      "id": 87607,
      "geometry": "POINT (-86.816028 35.925653)",
      "poi_name": "Juice Bar",
      "osm_id": 8726099131,
      "amenity": "fast_food",
      "cuisine": "juice"
    },
    {
      "id": 88156,
      "geometry": "POINT (-86.389177 35.870294)",
      "poi_name": "Domino's",
      "osm_id": 8769616008,
      "amenity": "fast_food",
      "cuisine": "pizza",
      "takeaway": "yes"
    },
    {
      "id": 87954,
      "geometry": "POINT (-86.812777 36.105447)",
      "poi_name": "Chipotle",
      "osm_id": 8755684964,
      "amenity": "fast_food",
      "cuisine": "mexican",
      "website": "https://www.chipotle.com/",
      "takeaway": "yes",
      "official_name": "Chipotle Mexican Grill"
    },
    {
      "id": 88165,
      "geometry": "POINT (-86.407376 35.862424)",
      "poi_name": "Arby's",
      "osm_id": 8770225925,
      "amenity": "fast_food",
      "cuisine": "sandwich",
      "takeaway": "yes"
    },
    {
      "id": 90559,
      "geometry": "POINT (-86.766685 36.111385)",
      "poi_name": "Chipotle",
      "osm_id": 2001960643,
      "amenity": "fast_food",
      "cuisine": "mexican",
      "website": "https://cheeseburgercharleys.com/",
      "takeaway": "yes",
      "official_name": "Chipotle Mexican Grill",
      "addr_state": "TN",
      "addr_city": "Nashville",
      "addr_postcode": "37204",
      "addr_street": "Thompson Lane",
      "addr_housenumber": "731"
    },
    {
      "id": 90300,
      "geometry": "POINT (-85.493892 36.543013)",
      "poi_name": "Subway",
      "osm_id": 1988345750,
      "amenity": "fast_food",
      "cuisine": "sandwich",
      "takeaway": "yes"
    },
    {
      "id": 90317,
      "geometry": "POINT (-85.503243 36.542431)",
      "poi_name": "Dairy Queen",
      "osm_id": 1988805380,
      "amenity": "fast_food",
      "cuisine": "ice_cream"
    },
    {
      "id": 90775,
      "geometry": "POINT (-86.741614 36.111284)",
      "poi_name": "Papa John's",
      "osm_id": 2017302248,
      "amenity": "fast_food",
      "cuisine": "pizza",
      "website": "http://www.papajohns.com/index.html",
      "takeaway": "yes",
      "addr_postcode": "37211",
      "addr_street": "Thompson Lane",
      "addr_housenumber": "222"
    },
    {
      "id": 90661,
      "geometry": "POINT (-86.767435 36.112045)",
      "poi_name": "Wendy's",
      "osm_id": 2010473019,
      "amenity": "fast_food",
      "cuisine": "burger",
      "website": "https://www.wendys.com/",
      "takeaway": "yes",
      "drive_through": "yes",
      "addr_postcode": "37204",
      "addr_street": "Thompson Lane",
      "addr_housenumber": "741"
    },
    {
      "id": 90665,
      "geometry": "POINT (-86.765026 36.112834)",
      "poi_name": "Subway",
      "osm_id": 2011450781,
      "amenity": "fast_food",
      "cuisine": "sandwich",
      "website": "https://www.subway.com/subwayroot/default.aspx",
      "takeaway": "yes",
      "addr_postcode": "37204",
      "addr_street": "Thompson Lane",
      "addr_housenumber": "718"
    },
    {
      "id": 90803,
      "geometry": "POINT (-86.763676 36.106135)",
      "poi_name": "Panda Express",
      "osm_id": 2018729198,
      "amenity": "fast_food",
      "cuisine": "chinese",
      "website": "https://www.pandaexpress.com/",
      "takeaway": "yes",
      "drive_through": "no",
      "addr_postcode": "37204",
      "addr_street": "Powell Avenue",
      "addr_housenumber": "2534"
    },
    {
      "id": 90804,
      "geometry": "POINT (-86.763488 36.105933)",
      "poi_name": "Panera Bread",
      "osm_id": 2018729199,
      "amenity": "fast_food",
      "cuisine": "sandwich;bakery",
      "website": "http://www.panerabread.com/",
      "takeaway": "yes",
      "addr_postcode": "37204",
      "addr_street": "Powell Avenue",
      "addr_housenumber": "2534"
    },
    {
      "id": 90805,
      "geometry": "POINT (-86.764159 36.112428)",
      "poi_name": "Firehouse Subs",
      "osm_id": 2018961153,
      "amenity": "fast_food",
      "cuisine": "sandwich",
      "website": "https://www.firehousesubs.com/",
      "takeaway": "yes",
      "addr_postcode": "37204",
      "addr_street": "Thompson Lane",
      "addr_housenumber": "708"
    },
    {
      "id": 91325,
      "geometry": "POINT (-86.737409 36.094694)",
      "poi_name": "Captain D's",
      "osm_id": 2060743859,
      "amenity": "fast_food",
      "cuisine": "seafood",
      "website": "https://www.captainds.com/",
      "takeaway": "yes",
      "drive_through": "yes",
      "addr_postcode": "37211",
      "addr_street": "Nolensville Pike",
      "addr_housenumber": "3715"
    },
    {
      "id": 91181,
      "geometry": "POINT (-86.729368 36.084242)",
      "poi_name": "Little Caesars",
      "osm_id": 2049196271,
      "amenity": "fast_food",
      "cuisine": "pizza",
      "website": "https://littlecaesars.com/en-us/store/8756/",
      "takeaway": "yes",
      "addr_postcode": "37211",
      "addr_street": "Nolensville Pike",
      "addr_housenumber": "3973"
    },
    {
      "id": 91195,
      "geometry": "POINT (-86.74331 36.108041)",
      "poi_name": "Burger King",
      "osm_id": 2049698400,
      "amenity": "fast_food",
      "cuisine": "burger",
      "website": "https://www.bk.com/",
      "takeaway": "yes",
      "drive_through": "yes",
      "addr_postcode": "37211",
      "addr_street": "Nolensville Pike",
      "addr_housenumber": "2950"
    },
    {
      "id": 95201,
      "geometry": "POINT (-86.879703 36.140225)",
      "poi_name": "Chick-fil-A",
      "osm_id": 6388635624,
      "amenity": "fast_food",
      "cuisine": "chicken",
      "drive_through": "yes"
    },
    {
      "id": 91483,
      "geometry": "POINT (-86.729888 36.088163)",
      "poi_name": "Hibachi Supreme Buffet",
      "osm_id": 2069046142,
      "amenity": "fast_food",
      "cuisine": "asian",
      "website": "http://www.hibachibuffetus.com/aboutus/",
      "addr_postcode": "37211",
      "addr_street": "Nolensville Pike",
      "addr_housenumber": "3804"
    },
    {
      "id": 95202,
      "geometry": "POINT (-86.88014 36.138242)",
      "poi_name": "Arby's",
      "osm_id": 6388635629,
      "amenity": "fast_food",
      "cuisine": "sandwich"
    },
    {
      "id": 95203,
      "geometry": "POINT (-86.879698 36.138756)",
      "poi_name": "Chicago Style Gyro",
      "osm_id": 6388635630,
      "amenity": "fast_food",
      "cuisine": "greek",
      "drive_through": "yes"
    },
    {
      "id": 95204,
      "geometry": "POINT (-86.881612 36.138867)",
      "poi_name": "Firehouse Subs",
      "osm_id": 6388635632,
      "amenity": "fast_food",
      "cuisine": "sandwich"
    },
    {
      "id": 95936,
      "geometry": "POINT (-86.534472 35.932297)",
      "poi_name": "Little Caesars",
      "osm_id": 6416481731,
      "amenity": "fast_food",
      "cuisine": "pizza",
      "takeaway": "yes",
      "addr_city": "Smyrna",
      "addr_postcode": "37167",
      "addr_street": "Almaville Road",
      "addr_housenumber": "1880"
    },
    {
      "id": 103844,
      "geometry": "POINT (-86.499973 35.788732)",
      "poi_name": "Subway",
      "osm_id": 8529465037,
      "amenity": "fast_food",
      "cuisine": "sandwich",
      "takeaway": "yes"
    },
    {
      "id": 96039,
      "geometry": "POINT (-86.458623 35.811348)",
      "poi_name": "McDonald's",
      "osm_id": 6418565369,
      "amenity": "fast_food",
      "cuisine": "burger",
      "website": "https://www.mcdonalds.com/us/en-us/location/tn/murfreesboro/2674-new-salem-hwy/34518.html",
      "takeaway": "yes",
      "drive_through": "yes",
      "addr_state": "TN",
      "addr_city": "Murfreesboro",
      "addr_postcode": "37128",
      "addr_street": "New Salem Highway",
      "addr_housenumber": "2674"
    },
    {
      "id": 96155,
      "geometry": "POINT (-86.445458 35.812966)",
      "poi_name": "Burger King",
      "osm_id": 6421930981,
      "amenity": "fast_food",
      "cuisine": "burger",
      "takeaway": "yes",
      "drive_through": "yes",
      "addr_state": "TN",
      "addr_city": "Murfreesboro",
      "addr_postcode": "37128",
      "addr_street": "New Salem Highway",
      "addr_housenumber": "2407"
    },
    {
      "id": 102562,
      "geometry": "POINT (-86.651504 36.049832)",
      "poi_name": "Zaxby's",
      "osm_id": 6684897099,
      "amenity": "fast_food",
      "cuisine": "chicken",
      "opening_hours": "Su-Th 10:00-22:00; Fr-Sa 10:00-23:00",
      "takeaway": "yes",
      "drive_through": "yes",
      "official_name": "Zaxby's Chicken Fingers & Buffalo Wings",
      "addr_state": "TN",
      "addr_city": "Antioch",
      "addr_postcode": "37013",
      "addr_street": "Bell Road",
      "addr_housenumber": "915"
    },
    {
      "id": 103158,
      "geometry": "POINT (-86.141982 36.096426)",
      "poi_name": "Subway",
      "osm_id": 8487301136,
      "amenity": "fast_food",
      "cuisine": "sandwich",
      "takeaway": "yes"
    },
    {
      "id": 103879,
      "geometry": "POINT (-86.458498 35.812326)",
      "poi_name": "China Wok",
      "osm_id": 8530385740,
      "amenity": "fast_food",
      "cuisine": "chinese",
      "takeaway": "yes",
      "drive_through": "no",
      "addr_state": "TN",
      "addr_city": "Murfreesboro",
      "addr_postcode": "37128",
      "addr_street": "New Salem Highway",
      "addr_housenumber": "2658"
    },
    {
      "id": 98016,
      "geometry": "POINT (-86.758985 36.234029)",
      "poi_name": "Arby's",
      "osm_id": 6504987631,
      "amenity": "fast_food"
    },
    {
      "id": 99104,
      "geometry": "POINT (-86.69544 36.218709)",
      "poi_name": "Semper Sliders",
      "osm_id": 6541067886,
      "amenity": "fast_food",
      "cuisine": "burger"
    },
    {
      "id": 99105,
      "geometry": "POINT (-86.693792 36.218975)",
      "poi_name": "Hunt Brothers Pizza",
      "osm_id": 6541067887,
      "amenity": "fast_food"
    },
    {
      "id": 101189,
      "geometry": "POINT (-87.066303 35.604867)",
      "poi_name": "Taco Bell",
      "osm_id": 6614705482,
      "amenity": "fast_food",
      "cuisine": "tex-mex",
      "website": "https://locations.tacobell.com/tn/columbia/1237-trotwood-ave.html",
      "takeaway": "yes",
      "drive_through": "yes",
      "addr_state": "TN",
      "addr_city": "Columbia",
      "addr_postcode": "38401",
      "addr_street": "Trotwood Avenue",
      "addr_housenumber": "1237"
    },
    {
      "id": 101194,
      "geometry": "POINT (-87.065846 35.604736)",
      "poi_name": "Arby's",
      "osm_id": 6614765064,
      "amenity": "fast_food",
      "cuisine": "sandwich",
      "takeaway": "yes",
      "drive_through": "yes",
      "addr_state": "TN",
      "addr_city": "Columbia",
      "addr_postcode": "38401",
      "addr_street": "Hatcher Lane",
      "addr_housenumber": "1625"
    },
    {
      "id": 101195,
      "geometry": "POINT (-87.066122 35.605017)",
      "poi_name": "Dunkin' Donuts",
      "osm_id": 6614771639,
      "amenity": "fast_food",
      "cuisine": "donut;coffee",
      "takeaway": "yes",
      "drive_through": "yes",
      "addr_state": "TN",
      "addr_city": "Columbia",
      "addr_postcode": "38401",
      "addr_street": "Trotwood Avenue",
      "addr_housenumber": "1245"
    },
    {
      "id": 101196,
      "geometry": "POINT (-87.065664 35.605319)",
      "poi_name": "Burger King",
      "osm_id": 6614827528,
      "amenity": "fast_food",
      "cuisine": "burger",
      "takeaway": "yes",
      "drive_through": "yes",
      "addr_state": "TN",
      "addr_city": "Columbia",
      "addr_postcode": "38401",
      "addr_street": "Trotwood Avenue",
      "addr_housenumber": "1235"
    },
    {
      "id": 102847,
      "geometry": "POINT (-86.514863 36.15966)",
      "poi_name": "Zaxby's",
      "osm_id": 8462006589,
      "amenity": "fast_food",
      "cuisine": "chicken",
      "takeaway": "yes",
      "official_name": "Zaxby's Chicken Fingers & Buffalo Wings"
    },
    {
      "id": 103794,
      "geometry": "POINT (-86.818753 35.944717)",
      "poi_name": "Panda Express",
      "osm_id": 8525853243,
      "amenity": "fast_food",
      "cuisine": "chinese",
      "phone": "1 615 771 5872",
      "takeaway": "yes",
      "addr_state": "TN",
      "addr_city": "Franklin",
      "addr_postcode": "37067",
      "addr_street": "Mallory Lane",
      "addr_housenumber": "3058"
    },
    {
      "id": 103959,
      "geometry": "POINT (-86.427301 35.845956)",
      "poi_name": "Chick-fil-A",
      "osm_id": 8534608173,
      "amenity": "fast_food",
      "cuisine": "chicken",
      "phone": "+16152171351",
      "takeaway": "yes",
      "drive_through": "yes",
      "addr_state": "TN",
      "addr_city": "Murfreesboro",
      "addr_postcode": "37129",
      "addr_street": "Old Fort Parkway",
      "addr_housenumber": "2005"
    },
    {
      "id": 103960,
      "geometry": "POINT (-86.429198 35.846099)",
      "poi_name": "Steak 'n Shake",
      "osm_id": 8534608190,
      "amenity": "fast_food",
      "cuisine": "burger",
      "takeaway": "yes",
      "addr_state": "TN",
      "addr_city": "Murfreesboro",
      "addr_postcode": "37129",
      "addr_street": "Old Fort Parkway",
      "addr_housenumber": "2091"
    },
    {
      "id": 103961,
      "geometry": "POINT (-86.430999 35.851865)",
      "poi_name": "Slim Chickens",
      "osm_id": 8534608256,
      "amenity": "fast_food",
      "cuisine": "chicken",
      "phone": "+16152036156",
      "takeaway": "yes",
      "drive_through": "yes",
      "addr_state": "TN",
      "addr_city": "Murfreesboro",
      "addr_postcode": "37129",
      "addr_street": "North Thompson Lane",
      "addr_housenumber": "229"
    },
    {
      "id": 103991,
      "geometry": "POINT (-86.443519 35.844854)",
      "poi_name": "Subway",
      "osm_id": 8538650568,
      "amenity": "fast_food",
      "cuisine": "sandwich",
      "takeaway": "yes"
    },
    {
      "id": 104022,
      "geometry": "POINT (-86.464786 35.865211)",
      "poi_name": "Sonic",
      "osm_id": 8540817491,
      "amenity": "fast_food",
      "cuisine": "burger",
      "takeaway": "yes"
    },
    {
      "id": 104025,
      "geometry": "POINT (-86.463059 35.865305)",
      "poi_name": "Domino's",
      "osm_id": 8540817620,
      "amenity": "fast_food",
      "cuisine": "pizza",
      "takeaway": "yes"
    },
    {
      "id": 104026,
      "geometry": "POINT (-86.462066 35.867529)",
      "poi_name": "Zaxby's",
      "osm_id": 8540817754,
      "amenity": "fast_food",
      "cuisine": "chicken",
      "takeaway": "yes",
      "official_name": "Zaxby's Chicken Fingers & Buffalo Wings"
    },
    {
      "id": 103993,
      "geometry": "POINT (-86.450062 35.845768)",
      "poi_name": "Little Caesars",
      "osm_id": 8538650687,
      "amenity": "fast_food",
      "cuisine": "pizza",
      "website": "https://littlecaesars.com/en-us/store/8523/",
      "takeaway": "yes"
    },
    {
      "id": 103954,
      "geometry": "POINT (-86.417233 35.823828)",
      "poi_name": "Subway",
      "osm_id": 8534600291,
      "amenity": "fast_food",
      "cuisine": "sandwich",
      "takeaway": "yes",
      "drive_through": "no",
      "addr_state": "TN",
      "addr_city": "Murfreesboro",
      "addr_postcode": "37128",
      "addr_street": "New Salem Highway",
      "addr_housenumber": "1624"
    },
    {
      "id": 103956,
      "geometry": "POINT (-86.417455 35.824762)",
      "poi_name": "Domino's",
      "osm_id": 8534600298,
      "amenity": "fast_food",
      "cuisine": "pizza",
      "takeaway": "yes",
      "drive_through": "yes",
      "addr_state": "TN",
      "addr_city": "Murfreesboro",
      "addr_postcode": "37128",
      "addr_street": "Warrior Drive",
      "addr_housenumber": "1515"
    },
    {
      "id": 103957,
      "geometry": "POINT (-86.416272 35.822644)",
      "poi_name": "Dunkin' Donuts",
      "osm_id": 8534608029,
      "amenity": "fast_food",
      "cuisine": "donut;coffee_shop",
      "takeaway": "yes",
      "drive_through": "yes",
      "addr_state": "TN",
      "addr_city": "Murfreesboro",
      "addr_postcode": "37128",
      "addr_street": "New Salem Highway",
      "addr_housenumber": "1639"
    },
    {
      "id": 103958,
      "geometry": "POINT (-86.424894 35.845426)",
      "poi_name": "Wendy's",
      "osm_id": 8534608051,
      "amenity": "fast_food",
      "cuisine": "burger",
      "phone": "+16152952049",
      "takeaway": "yes",
      "drive_through": "yes",
      "addr_state": "TN",
      "addr_city": "Murfreesboro",
      "addr_postcode": "37129",
      "addr_street": "Old Fort Parkway",
      "addr_housenumber": "1845"
    },
    {
      "id": 103994,
      "geometry": "POINT (-86.441029 35.843221)",
      "poi_name": "Papa John's",
      "osm_id": 8538650747,
      "amenity": "fast_food",
      "cuisine": "pizza",
      "takeaway": "yes"
    },
    {
      "id": 104164,
      "geometry": "POINT (-86.428652 35.858643)",
      "poi_name": "Smoothie King",
      "osm_id": 8553643374,
      "amenity": "fast_food",
      "cuisine": "juice",
      "takeaway": "yes"
    },
    {
      "id": 104169,
      "geometry": "POINT (-86.431546 35.858365)",
      "poi_name": "Firehouse Subs",
      "osm_id": 8553652751,
      "amenity": "fast_food",
      "cuisine": "sandwich",
      "takeaway": "yes"
    },
    {
      "id": 104200,
      "geometry": "POINT (-86.430924 35.855682)",
      "poi_name": "Chipotle",
      "osm_id": 8554824061,
      "amenity": "fast_food",
      "cuisine": "mexican",
      "takeaway": "yes",
      "official_name": "Chipotle Mexican Grill"
    },
    {
      "id": 104095,
      "geometry": "POINT (-86.451135 35.866154)",
      "poi_name": "Penn Station",
      "osm_id": 8547208206,
      "amenity": "fast_food",
      "cuisine": "sandwich",
      "takeaway": "yes"
    },
    {
      "id": 104096,
      "geometry": "POINT (-86.450918 35.866147)",
      "poi_name": "Jamba Juice",
      "osm_id": 8547208207,
      "amenity": "fast_food",
      "cuisine": "juice",
      "takeaway": "yes"
    },
    {
      "id": 104097,
      "geometry": "POINT (-86.450212 35.866061)",
      "poi_name": "Dunkin' Donuts",
      "osm_id": 8547211743,
      "amenity": "fast_food",
      "cuisine": "donut;coffee_shop",
      "takeaway": "yes"
    },
    {
      "id": 104098,
      "geometry": "POINT (-86.449089 35.865931)",
      "poi_name": "Subway",
      "osm_id": 8547211787,
      "amenity": "fast_food",
      "cuisine": "sandwich",
      "takeaway": "yes"
    },
    {
      "id": 104237,
      "geometry": "POINT (-86.429992 35.847954)",
      "poi_name": "McDonald's",
      "osm_id": 8557626650,
      "amenity": "fast_food",
      "cuisine": "burger",
      "website": "https://www.mcdonalds.com/us/en-us/location/tn/murfreesboro/2180-old-fort-pky/10244.html",
      "takeaway": "yes"
    },
    {
      "id": 104814,
      "geometry": "POINT (-86.383308 35.8853)",
      "poi_name": "Bojangles'",
      "osm_id": 8588508431,
      "amenity": "fast_food",
      "cuisine": "chicken",
      "takeaway": "yes",
      "official_name": "Bojangles' Famous Chicken 'n Biscuits"
    },
    {
      "id": 104508,
      "geometry": "POINT (-86.825344 35.947292)",
      "poi_name": "Which Wich?",
      "osm_id": 8572613790,
      "amenity": "fast_food",
      "cuisine": "sandwich",
      "takeaway": "yes"
    },
    {
      "id": 104510,
      "geometry": "POINT (-86.824923 35.946548)",
      "poi_name": "Tropical Smoothie Cafe",
      "osm_id": 8572613797,
      "amenity": "fast_food",
      "cuisine": "juice",
      "takeaway": "yes"
    },
    {
      "id": 104759,
      "geometry": "POINT (-86.443426 35.858507)",
      "poi_name": "Genghis Grill",
      "osm_id": 8584715883,
      "amenity": "fast_food",
      "cuisine": "mongolian_grill",
      "website": "https://locations.genghisgrill.com/tn/murfreesboro/genghis-grill-2206.html"
    },
    {
      "id": 104767,
      "geometry": "POINT (-86.384613 35.88049)",
      "poi_name": "Panera Bread",
      "osm_id": 8586779987,
      "amenity": "fast_food",
      "cuisine": "sandwich;bakery",
      "takeaway": "yes"
    },
    {
      "id": 104768,
      "geometry": "POINT (-86.384384 35.881162)",
      "poi_name": "Chipotle",
      "osm_id": 8586779995,
      "amenity": "fast_food",
      "cuisine": "mexican",
      "takeaway": "yes",
      "official_name": "Chipotle Mexican Grill"
    },
    {
      "id": 104769,
      "geometry": "POINT (-86.38436 35.881292)",
      "poi_name": "Jersey Mike's Subs",
      "osm_id": 8586779996,
      "amenity": "fast_food",
      "cuisine": "sandwich",
      "takeaway": "yes"
    },
    {
      "id": 104770,
      "geometry": "POINT (-86.383174 35.881532)",
      "poi_name": "Chick-fil-A",
      "osm_id": 8586851919,
      "amenity": "fast_food",
      "cuisine": "chicken",
      "takeaway": "yes"
    },
    {
      "id": 104771,
      "geometry": "POINT (-86.383448 35.880433)",
      "poi_name": "Arby's",
      "osm_id": 8586851987,
      "amenity": "fast_food",
      "cuisine": "sandwich",
      "takeaway": "yes"
    },
    {
      "id": 104280,
      "geometry": "POINT (-86.429549 35.854955)",
      "poi_name": "Moe's Southwest Grill",
      "osm_id": 8561109617,
      "amenity": "fast_food",
      "cuisine": "mexican",
      "takeaway": "yes"
    },
    {
      "id": 104282,
      "geometry": "POINT (-86.429764 35.856285)",
      "poi_name": "Panda Express",
      "osm_id": 8561109623,
      "amenity": "fast_food",
      "cuisine": "chinese",
      "takeaway": "yes"
    },
    {
      "id": 104284,
      "geometry": "POINT (-86.429059 35.856734)",
      "poi_name": "Five Guys",
      "osm_id": 8561109650,
      "amenity": "fast_food",
      "cuisine": "burger",
      "takeaway": "yes",
      "official_name": "Five Guys Burgers and Fries"
    },
    {
      "id": 104293,
      "geometry": "POINT (-86.426058 35.847613)",
      "poi_name": "Panera Bread",
      "osm_id": 8561794145,
      "amenity": "fast_food",
      "cuisine": "sandwich;bakery",
      "takeaway": "yes"
    },
    {
      "id": 104424,
      "geometry": "POINT (-86.848469 37.371752)",
      "poi_name": "Wendy's",
      "osm_id": 8569058801,
      "amenity": "fast_food",
      "cuisine": "burger",
      "takeaway": "yes"
    },
    {
      "id": 104815,
      "geometry": "POINT (-86.384685 35.875737)",
      "poi_name": "Sonic",
      "osm_id": 8588508525,
      "amenity": "fast_food",
      "cuisine": "burger",
      "takeaway": "yes"
    },
    {
      "id": 104816,
      "geometry": "POINT (-86.384942 35.873388)",
      "poi_name": "KFC",
      "osm_id": 8588508581,
      "amenity": "fast_food",
      "cuisine": "chicken",
      "website": "https://locations.kfc.com/tn/murfreesboro/1816-memorial-blvd",
      "takeaway": "yes"
    },
    {
      "id": 104818,
      "geometry": "POINT (-86.386164 35.872491)",
      "poi_name": "Hardee's",
      "osm_id": 8588508701,
      "amenity": "fast_food",
      "cuisine": "burger",
      "website": "https://locations.hardees.com/tn/murfreesboro/1851-memorial-blvd",
      "takeaway": "yes"
    },
    {
      "id": 104819,
      "geometry": "POINT (-86.386106 35.871658)",
      "poi_name": "Little Caesars",
      "osm_id": 8588508716,
      "amenity": "fast_food",
      "cuisine": "pizza",
      "website": "https://littlecaesars.com/en-us/store/7648/",
      "takeaway": "yes"
    },
    {
      "id": 104830,
      "geometry": "POINT (-86.386576 35.869941)",
      "poi_name": "Dairy Queen",
      "osm_id": 8589955341,
      "amenity": "fast_food",
      "cuisine": "ice_cream;burger",
      "takeaway": "yes"
    },
    {
      "id": 104833,
      "geometry": "POINT (-86.386118 35.868527)",
      "poi_name": "McDonald's",
      "osm_id": 8589955510,
      "amenity": "fast_food",
      "cuisine": "burger",
      "website": "https://www.mcdonalds.com/us/en-us/location/tn/murfreesboro/1706-memorial-blvd/11868.html",
      "takeaway": "yes"
    },
    {
      "id": 104834,
      "geometry": "POINT (-86.386514 35.868138)",
      "poi_name": "Taco Bell",
      "osm_id": 8589955540,
      "amenity": "fast_food",
      "cuisine": "tex-mex",
      "website": "https://locations.tacobell.com/tn/murfreesboro/1702-memorial-blvd.html",
      "takeaway": "yes"
    },
    {
      "id": 105246,
      "geometry": "POINT (-86.078548 35.828449)",
      "poi_name": "Sonic",
      "osm_id": 8614846804,
      "amenity": "fast_food",
      "cuisine": "burger",
      "takeaway": "yes"
    },
    {
      "id": 105247,
      "geometry": "POINT (-86.079269 35.82832)",
      "poi_name": "Hardee's",
      "osm_id": 8614846813,
      "amenity": "fast_food",
      "cuisine": "burger",
      "website": "https://locations.hardees.com/tn/woodbury/806-w-main-st",
      "takeaway": "yes"
    },
    {
      "id": 105248,
      "geometry": "POINT (-86.08396 35.826535)",
      "poi_name": "Taco Bell",
      "osm_id": 8614897145,
      "amenity": "fast_food",
      "cuisine": "tex-mex",
      "website": "https://locations.tacobell.com/tn/woodbury/930-west-main-st-.html",
      "takeaway": "yes"
    },
    {
      "id": 105249,
      "geometry": "POINT (-86.06849 35.827235)",
      "poi_name": "McDonald's",
      "osm_id": 8614897363,
      "amenity": "fast_food",
      "cuisine": "burger",
      "website": "https://www.mcdonalds.com/us/en-us/location/tn/woodbury/101-e-main-st/21447.html",
      "takeaway": "yes"
    },
    {
      "id": 106435,
      "geometry": "POINT (-86.390931 35.860822)",
      "poi_name": "Wendy's",
      "osm_id": 8679991928,
      "amenity": "fast_food",
      "cuisine": "burger",
      "takeaway": "yes"
    },
    {
      "id": 106436,
      "geometry": "POINT (-86.391111 35.860428)",
      "poi_name": "Donut Country",
      "osm_id": 8679991944,
      "amenity": "fast_food",
      "cuisine": "donut"
    },
    {
      "id": 106551,
      "geometry": "POINT (-86.396377 35.854722)",
      "poi_name": "Dunkin' Donuts",
      "osm_id": 8687876597,
      "amenity": "fast_food",
      "cuisine": "donut;coffee_shop",
      "takeaway": "yes"
    },
    {
      "id": 106392,
      "geometry": "POINT (-86.387262 35.867019)",
      "poi_name": "Cook Out",
      "osm_id": 8677809887,
      "amenity": "fast_food",
      "cuisine": "american",
      "takeaway": "yes"
    },
    {
      "id": 106393,
      "geometry": "POINT (-86.38732 35.865321)",
      "poi_name": "Penn Station",
      "osm_id": 8677809894,
      "amenity": "fast_food",
      "cuisine": "sandwich",
      "takeaway": "yes"
    },
    {
      "id": 108059,
      "geometry": "POINT (-85.973921 37.134911)",
      "poi_name": "Subway",
      "osm_id": 3593554463,
      "amenity": "fast_food",
      "cuisine": "sandwich",
      "takeaway": "yes"
    },
    {
      "id": 109505,
      "geometry": "POINT (-86.917757 35.768891)",
      "poi_name": "Dunkin' Donuts",
      "osm_id": 3663280500,
      "amenity": "fast_food",
      "cuisine": "donut;coffee_shop",
      "takeaway": "yes",
      "drive_through": "yes"
    },
    {
      "id": 109565,
      "geometry": "POINT (-86.914306 35.773151)",
      "poi_name": "Domino's",
      "osm_id": 3665421361,
      "amenity": "fast_food",
      "cuisine": "pizza",
      "takeaway": "yes"
    },
    {
      "id": 109917,
      "geometry": "POINT (-86.399637 35.797112)",
      "poi_name": "Zaxby's",
      "osm_id": 3678301038,
      "amenity": "fast_food",
      "cuisine": "chicken",
      "takeaway": "yes",
      "official_name": "Zaxby's Chicken Fingers & Buffalo Wings"
    },
    {
      "id": 109918,
      "geometry": "POINT (-86.401256 35.791102)",
      "poi_name": "Jersey Mike's Subs",
      "osm_id": 3678301041,
      "amenity": "fast_food",
      "cuisine": "sandwich",
      "takeaway": "yes"
    },
    {
      "id": 115666,
      "geometry": "POINT (-86.83944 35.915519)",
      "poi_name": "Jersey Mike's Subs",
      "osm_id": 8909874351,
      "amenity": "fast_food",
      "cuisine": "sandwich",
      "takeaway": "yes"
    },
    {
      "id": 111232,
      "geometry": "POINT (-86.67219 35.960428)",
      "poi_name": "Highway 55",
      "osm_id": 3737651153,
      "amenity": "fast_food",
      "cuisine": "burger",
      "opening_hours": "Mo-Th 11:00-21:00; Fr-Sa 11:00-22:00; Su 11:00-21:00",
      "takeaway": "yes",
      "drive_through": "no",
      "delivery": "no",
      "addr_state": "TN",
      "addr_city": "Nolensville",
      "addr_postcode": "37135",
      "addr_street": "Nolensville Road",
      "addr_housenumber": "7240"
    },
    {
      "id": 111344,
      "geometry": "POINT (-86.675543 35.963283)",
      "poi_name": "Mama's Java",
      "osm_id": 3743195873,
      "amenity": "fast_food",
      "opening_hours": "Mo-Fr 05:30-15:00; Sa 07:00-15:00; Su 08:00-13:00",
      "website": "http://mamasjava.com/",
      "phone": "615-776-5282",
      "takeaway": "yes",
      "drive_through": "yes",
      "delivery": "no",
      "addr_state": "TN",
      "addr_city": "Nolensville",
      "addr_postcode": "37135",
      "addr_street": "Sheldon Valley Dr",
      "addr_housenumber": "305"
    },
    {
      "id": 114549,
      "geometry": "POINT (-86.830733 35.917432)",
      "poi_name": "Big Shake's Hot Chicken & Fish",
      "osm_id": 3885541641,
      "amenity": "fast_food",
      "cuisine": "chicken",
      "outdoor_seating": "yes"
    },
    {
      "id": 114555,
      "geometry": "POINT (-86.830434 35.917361)",
      "poi_name": "Subway",
      "osm_id": 3885541649,
      "amenity": "fast_food",
      "cuisine": "sandwich",
      "takeaway": "yes"
    },
    {
      "id": 114838,
      "geometry": "POINT (-87.452428 36.696569)",
      "poi_name": "McDonald's",
      "osm_id": 3897610490,
      "amenity": "fast_food",
      "cuisine": "burger",
      "website": "https://www.mcdonalds.com/us/en-us/location/ky/oak-grove/101-auburn-st/26081.html",
      "takeaway": "yes"
    },
    {
      "id": 114839,
      "geometry": "POINT (-87.451878 36.692199)",
      "poi_name": "Wendy's",
      "osm_id": 3897624259,
      "amenity": "fast_food",
      "cuisine": "burger",
      "takeaway": "yes",
      "drive_through": "yes"
    },
    {
      "id": 114840,
      "geometry": "POINT (-87.451716 36.692287)",
      "poi_name": "Subway",
      "osm_id": 3897624260,
      "amenity": "fast_food",
      "cuisine": "sandwich",
      "takeaway": "yes"
    },
    {
      "id": 115672,
      "geometry": "POINT (-86.831533 35.916273)",
      "poi_name": "Zaxby's",
      "osm_id": 8909895865,
      "amenity": "fast_food",
      "cuisine": "chicken",
      "takeaway": "yes",
      "official_name": "Zaxby's Chicken Fingers & Buffalo Wings"
    },
    {
      "id": 115673,
      "geometry": "POINT (-86.829203 35.915897)",
      "poi_name": "McDonald's",
      "osm_id": 8909895903,
      "amenity": "fast_food",
      "cuisine": "burger",
      "website": "https://www.mcdonalds.com/us/en-us/location/tn/franklin/1299-hwy-96-e/10352.html",
      "takeaway": "yes"
    },
    {
      "id": 115674,
      "geometry": "POINT (-86.826051 35.915112)",
      "poi_name": "KFC",
      "osm_id": 8909949996,
      "amenity": "fast_food",
      "cuisine": "chicken",
      "website": "https://locations.kfc.com/tn/franklin/1319-murfreesboro-road",
      "takeaway": "yes"
    },
    {
      "id": 115675,
      "geometry": "POINT (-86.826457 35.915251)",
      "poi_name": "Hardee's",
      "osm_id": 8909949997,
      "amenity": "fast_food",
      "cuisine": "burger",
      "website": "https://locations.hardees.com/tn/franklin/1315-murfreesboro-rd",
      "takeaway": "yes"
    },
    {
      "id": 115676,
      "geometry": "POINT (-86.826886 35.915345)",
      "poi_name": "Wendy's",
      "osm_id": 8909949998,
      "amenity": "fast_food",
      "cuisine": "burger",
      "takeaway": "yes"
    },
    {
      "id": 115677,
      "geometry": "POINT (-86.827181 35.915442)",
      "poi_name": "Smoothie King",
      "osm_id": 8909950003,
      "amenity": "fast_food",
      "cuisine": "juice",
      "takeaway": "yes"
    },
    {
      "id": 115681,
      "geometry": "POINT (-86.829475 35.913614)",
      "poi_name": "Einstein Bros. Bagels",
      "osm_id": 8909950062,
      "amenity": "fast_food",
      "cuisine": "bagel",
      "takeaway": "yes"
    },
    {
      "id": 117531,
      "geometry": "POINT (-86.428554 36.067705)",
      "poi_name": "Hardee's",
      "osm_id": 8999409666,
      "amenity": "fast_food",
      "cuisine": "burger",
      "website": "https://locations.hardees.com/tn/mount-juliet/150-couchville-industrial-pike",
      "takeaway": "yes"
    },
    {
      "id": 116841,
      "geometry": "POINT (-86.667918 35.950225)",
      "poi_name": "Sweet Moo\u2019s Rolled Ice Cream",
      "osm_id": 8964068574,
      "amenity": "fast_food",
      "cuisine": "ice_cream"
    },
    {
      "id": 117425,
      "geometry": "POINT (-86.384383 35.909296)",
      "poi_name": "McDonald's",
      "osm_id": 8993712145,
      "amenity": "fast_food",
      "cuisine": "burger",
      "website": "https://www.mcdonalds.com/us/en-us/location/tn/murfreesboro/3371-memorial-blvd/26245.html",
      "takeaway": "yes"
    },
    {
      "id": 117426,
      "geometry": "POINT (-86.383268 35.90971)",
      "poi_name": "Taco Bell",
      "osm_id": 8993712253,
      "amenity": "fast_food",
      "cuisine": "tex-mex",
      "website": "https://locations.tacobell.com/tn/murfreesboro/3378-memorial-blvd.html",
      "takeaway": "yes"
    },
    {
      "id": 117297,
      "geometry": "POINT (-86.382921 35.904728)",
      "poi_name": "Dunkin'",
      "osm_id": 8986839395,
      "amenity": "fast_food",
      "cuisine": "donut;coffee_shop",
      "takeaway": "yes"
    },
    {
      "id": 117435,
      "geometry": "POINT (-86.382819 35.888164)",
      "poi_name": "Firehouse Subs",
      "osm_id": 8994359035,
      "amenity": "fast_food",
      "cuisine": "sandwich",
      "takeaway": "yes"
    },
    {
      "id": 117437,
      "geometry": "POINT (-86.384127 35.88733)",
      "poi_name": "Papa John's",
      "osm_id": 8994409236,
      "amenity": "fast_food",
      "cuisine": "pizza",
      "takeaway": "yes"
    },
    {
      "id": 117439,
      "geometry": "POINT (-86.384213 35.886943)",
      "poi_name": "China Wok",
      "osm_id": 8994409241,
      "amenity": "fast_food",
      "cuisine": "chinese",
      "takeaway": "yes"
    },
    {
      "id": 117440,
      "geometry": "POINT (-86.383021 35.886892)",
      "poi_name": "Jack in the Box",
      "osm_id": 8994409263,
      "amenity": "fast_food",
      "cuisine": "burger",
      "takeaway": "yes"
    },
    {
      "id": 117643,
      "geometry": "POINT (-86.400296 35.792984)",
      "poi_name": "Firehouse Subs",
      "osm_id": 9004528826,
      "amenity": "fast_food",
      "cuisine": "sandwich",
      "takeaway": "yes"
    },
    {
      "id": 118267,
      "geometry": "POINT (-86.491941 35.97423)",
      "poi_name": "Sonic",
      "osm_id": 9036303938,
      "amenity": "fast_food",
      "cuisine": "burger",
      "takeaway": "yes"
    },
    {
      "id": 117615,
      "geometry": "POINT (-86.401882 35.784302)",
      "poi_name": "Captain D's",
      "osm_id": 9002421685,
      "amenity": "fast_food",
      "cuisine": "seafood",
      "takeaway": "yes"
    },
    {
      "id": 117616,
      "geometry": "POINT (-86.401907 35.783752)",
      "poi_name": "Papa John's",
      "osm_id": 9002421727,
      "amenity": "fast_food",
      "cuisine": "pizza",
      "takeaway": "yes"
    },
    {
      "id": 117617,
      "geometry": "POINT (-86.401988 35.783138)",
      "poi_name": "Oscar's Taco Shop",
      "osm_id": 9002421728,
      "amenity": "fast_food",
      "cuisine": "mexican",
      "addr_street": "Highway 231",
      "addr_housenumber": "3138"
    },
    {
      "id": 117618,
      "geometry": "POINT (-86.40045 35.782118)",
      "poi_name": "Subway",
      "osm_id": 9002421767,
      "amenity": "fast_food",
      "cuisine": "sandwich",
      "takeaway": "yes"
    },
    {
      "id": 117619,
      "geometry": "POINT (-86.400431 35.78221)",
      "poi_name": "Papa Murphy's",
      "osm_id": 9002421789,
      "amenity": "fast_food",
      "cuisine": "pizza",
      "takeaway": "only",
      "official_name": "Papa Murphy's Take 'N' Bake Pizza",
      "addr_state": "TN",
      "addr_city": "Murfreesboro",
      "addr_postcode": "37127",
      "addr_street": "South Church Street",
      "addr_housenumber": "3183"
    },
    {
      "id": 117631,
      "geometry": "POINT (-86.40012 35.78678)",
      "poi_name": "Hardee's",
      "osm_id": 9002743352,
      "amenity": "fast_food",
      "cuisine": "burger",
      "website": "https://locations.hardees.com/tn/murfreesboro/2983-s-church-st",
      "takeaway": "yes"
    },
    {
      "id": 117632,
      "geometry": "POINT (-86.399398 35.789704)",
      "poi_name": "Dunkin'",
      "osm_id": 9002745338,
      "amenity": "fast_food",
      "cuisine": "donut;coffee_shop",
      "takeaway": "yes"
    },
    {
      "id": 117633,
      "geometry": "POINT (-86.399416 35.78961)",
      "poi_name": "Smoothie King",
      "osm_id": 9002745339,
      "amenity": "fast_food",
      "cuisine": "juice",
      "takeaway": "yes"
    },
    {
      "id": 118259,
      "geometry": "POINT (-86.49405 35.971954)",
      "poi_name": "Jimmy John's",
      "osm_id": 9035863556,
      "amenity": "fast_food",
      "cuisine": "sandwich",
      "takeaway": "yes",
      "official_name": "Jimmy John's Gourmet Sandwiches"
    },
    {
      "id": 118260,
      "geometry": "POINT (-86.494632 35.973219)",
      "poi_name": "Arby's",
      "osm_id": 9035863557,
      "amenity": "fast_food",
      "cuisine": "sandwich",
      "takeaway": "yes"
    },
    {
      "id": 118261,
      "geometry": "POINT (-86.495485 35.973263)",
      "poi_name": "Popeyes",
      "osm_id": 9035863558,
      "amenity": "fast_food",
      "cuisine": "chicken",
      "takeaway": "yes",
      "official_name": "Popeyes Louisiana Kitchen"
    },
    {
      "id": 118262,
      "geometry": "POINT (-86.49513 35.968353)",
      "poi_name": "Taco Bell",
      "osm_id": 9035863562,
      "amenity": "fast_food",
      "cuisine": "tex-mex",
      "wheelchair": "yes",
      "website": "https://locations.tacobell.com/tn/smyrna/850-nissan-drive.html",
      "takeaway": "yes"
    },
    {
      "id": 118263,
      "geometry": "POINT (-86.495323 35.968149)",
      "poi_name": "Subway",
      "osm_id": 9035863564,
      "amenity": "fast_food",
      "cuisine": "sandwich",
      "takeaway": "yes"
    },
    {
      "id": 118264,
      "geometry": "POINT (-86.493964 35.972118)",
      "poi_name": "Pizza Hut Express",
      "osm_id": 9035863566,
      "amenity": "fast_food",
      "cuisine": "pizza",
      "takeaway": "yes"
    },
    {
      "id": 118266,
      "geometry": "POINT (-86.49192 35.974794)",
      "poi_name": "McDonald's",
      "osm_id": 9036303937,
      "amenity": "fast_food",
      "cuisine": "burger",
      "website": "https://www.mcdonalds.com/us/en-us/location/tn/smyrna/775-nissan-dr/8119.html",
      "takeaway": "yes"
    },
    {
      "id": 119878,
      "geometry": "POINT (-86.534299 35.932877)",
      "poi_name": "Captain D's",
      "osm_id": 9126580694,
      "amenity": "fast_food",
      "cuisine": "seafood",
      "takeaway": "yes"
    },
    {
      "id": 118724,
      "geometry": "POINT (-86.686144 35.995942)",
      "poi_name": "Teriyaki Madness",
      "osm_id": 9063103534,
      "amenity": "fast_food",
      "cuisine": "japanese",
      "website": "https://teriyakimadness.com/locations/tn-brentwood",
      "phone": "+16156168623",
      "takeaway": "yes",
      "addr_state": "TN",
      "addr_city": "Brentwood",
      "addr_postcode": "37027",
      "addr_street": "Southpoint Parkway",
      "addr_housenumber": "7115"
    },
    {
      "id": 119380,
      "geometry": "POINT (-86.445741 35.844558)",
      "poi_name": "Jersey Mike's Subs",
      "osm_id": 9101307409,
      "amenity": "fast_food",
      "cuisine": "sandwich",
      "takeaway": "yes"
    },
    {
      "id": 119381,
      "geometry": "POINT (-86.44414 35.844682)",
      "poi_name": "McDonald's",
      "osm_id": 9101307411,
      "amenity": "fast_food",
      "cuisine": "burger",
      "website": "https://www.mcdonalds.com/us/en-us/location/tn/murfreesboro/2595-old-fort-pkwy/24675.html",
      "takeaway": "yes"
    },
    {
      "id": 119388,
      "geometry": "POINT (-86.441517 35.846408)",
      "poi_name": "Hardee's",
      "osm_id": 9101308454,
      "amenity": "fast_food",
      "cuisine": "burger",
      "website": "https://locations.hardees.com/tn/murfreesboro/2382-old-fort-parkway",
      "takeaway": "yes"
    },
    {
      "id": 119815,
      "geometry": "POINT (-86.495104 35.969278)",
      "poi_name": "Papa John's",
      "osm_id": 9123358264,
      "amenity": "fast_food",
      "cuisine": "pizza",
      "takeaway": "yes"
    },
    {
      "id": 119816,
      "geometry": "POINT (-86.495375 35.968994)",
      "poi_name": "Marco's Pizza",
      "osm_id": 9123358265,
      "amenity": "fast_food",
      "cuisine": "pizza",
      "takeaway": "yes"
    },
    {
      "id": 119817,
      "geometry": "POINT (-86.495574 35.966912)",
      "poi_name": "Steak 'n Shake",
      "osm_id": 9123358333,
      "amenity": "fast_food",
      "cuisine": "burger",
      "takeaway": "yes"
    },
    {
      "id": 119818,
      "geometry": "POINT (-86.496438 35.962779)",
      "poi_name": "Checkers",
      "osm_id": 9123358508,
      "amenity": "fast_food",
      "cuisine": "burger",
      "takeaway": "yes"
    },
    {
      "id": 119885,
      "geometry": "POINT (-86.53342 35.9305)",
      "poi_name": "Arby's",
      "osm_id": 9126632933,
      "amenity": "fast_food",
      "cuisine": "sandwich",
      "takeaway": "yes"
    },
    {
      "id": 119853,
      "geometry": "POINT (-86.529027 35.937182)",
      "poi_name": "Burger King",
      "osm_id": 9125389136,
      "amenity": "fast_food",
      "cuisine": "burger",
      "takeaway": "yes"
    },
    {
      "id": 119855,
      "geometry": "POINT (-86.52863 35.940843)",
      "poi_name": "Chago's",
      "osm_id": 9125389427,
      "amenity": "fast_food",
      "cuisine": "mexican"
    },
    {
      "id": 119858,
      "geometry": "POINT (-86.526415 35.942003)",
      "poi_name": "Bojangles'",
      "osm_id": 9125389485,
      "amenity": "fast_food",
      "cuisine": "chicken",
      "takeaway": "yes",
      "official_name": "Bojangles' Famous Chicken 'n Biscuits"
    },
    {
      "id": 119861,
      "geometry": "POINT (-86.533391 35.931504)",
      "poi_name": "Sonic",
      "osm_id": 9125398940,
      "amenity": "fast_food",
      "cuisine": "burger",
      "takeaway": "yes"
    },
    {
      "id": 119862,
      "geometry": "POINT (-86.533419 35.931171)",
      "poi_name": "Taco Bell",
      "osm_id": 9125398941,
      "amenity": "fast_food",
      "cuisine": "tex-mex",
      "website": "https://locations.tacobell.com/tn/smyrna/1895-almaville-road.html",
      "takeaway": "yes",
      "drive_through": "yes"
    },
    {
      "id": 119886,
      "geometry": "POINT (-86.533474 35.9303)",
      "poi_name": "Papa John's",
      "osm_id": 9126632934,
      "amenity": "fast_food",
      "cuisine": "pizza",
      "takeaway": "yes"
    },
    {
      "id": 119891,
      "geometry": "POINT (-86.532675 35.933369)",
      "poi_name": "McDonald's",
      "osm_id": 9126754985,
      "amenity": "fast_food",
      "cuisine": "burger",
      "website": "https://www.mcdonalds.com/us/en-us/location/tn/smyrna/1855-almaville-rd/21377.html",
      "takeaway": "yes",
      "drive_through": "yes"
    },
    {
      "id": 125841,
      "geometry": "POINT (-86.360571 35.847748)",
      "poi_name": "Panda Express",
      "osm_id": 6978575916,
      "amenity": "fast_food",
      "cuisine": "chinese",
      "takeaway": "yes"
    },
    {
      "id": 123349,
      "geometry": "POINT (-86.3981 35.806872)",
      "poi_name": "Pizza Hut Express",
      "osm_id": 6849081845,
      "amenity": "fast_food",
      "cuisine": "pizza",
      "takeaway": "yes",
      "addr_postcode": "37127",
      "addr_street": "South Church Street",
      "addr_housenumber": "2482"
    },
    {
      "id": 124888,
      "geometry": "POINT (-86.79031 36.156097)",
      "poi_name": "White Castle",
      "osm_id": 6938301685,
      "amenity": "fast_food",
      "cuisine": "burger",
      "takeaway": "yes"
    },
    {
      "id": 124991,
      "geometry": "POINT (-87.139864 35.962614)",
      "poi_name": "Subway",
      "osm_id": 6943359151,
      "amenity": "fast_food",
      "cuisine": "sandwich",
      "takeaway": "yes"
    },
    {
      "id": 124925,
      "geometry": "POINT (-86.779008 36.161804)",
      "poi_name": "Panera Bread",
      "osm_id": 6941180386,
      "amenity": "fast_food",
      "cuisine": "sandwich;bakery",
      "takeaway": "yes"
    },
    {
      "id": 125842,
      "geometry": "POINT (-86.360668 35.848026)",
      "poi_name": "Steak 'n Shake",
      "osm_id": 6978575917,
      "amenity": "fast_food",
      "cuisine": "burger",
      "takeaway": "yes"
    },
    {
      "id": 126252,
      "geometry": "POINT (-86.778612 36.163389)",
      "poi_name": "Chile Burrito",
      "osm_id": 6990497339,
      "amenity": "fast_food",
      "cuisine": "mexican",
      "description": "Fast-casual Mexican lunch restaurant with walk-up counter for take-out or dining in, offering burritos, quesadillas, tacos, and similar Tex-Mex fare.",
      "opening_hours": "Mo-Fr 10:30-15:00",
      "website": "https://www.chileburritotn.com/",
      "phone": "+1-615-248-0025",
      "drive_through": "no",
      "addr_state": "TN",
      "addr_city": "Nashville",
      "addr_postcode": "37219",
      "addr_street": "4th Avenue North",
      "addr_housenumber": "162"
    },
    {
      "id": 126190,
      "geometry": "POINT (-86.364353 35.84625)",
      "poi_name": "Chick-fil-A",
      "osm_id": 6988275264,
      "amenity": "fast_food",
      "cuisine": "chicken",
      "takeaway": "yes"
    },
    {
      "id": 126192,
      "geometry": "POINT (-86.364886 35.848681)",
      "poi_name": "Subway",
      "osm_id": 6988275266,
      "amenity": "fast_food",
      "cuisine": "sandwich",
      "takeaway": "yes"
    },
    {
      "id": 128342,
      "geometry": "POINT (-87.378057 36.072739)",
      "poi_name": "Papa John's",
      "osm_id": 8150298697,
      "amenity": "fast_food",
      "cuisine": "pizza",
      "takeaway": "yes"
    },
    {
      "id": 127060,
      "geometry": "POINT (-86.950248 36.046192)",
      "poi_name": "Sonic",
      "osm_id": 8023432499,
      "amenity": "fast_food",
      "cuisine": "burger",
      "takeaway": "yes",
      "addr_state": "TN",
      "addr_city": "Nashville",
      "addr_postcode": "37221",
      "addr_street": "Temple Road",
      "addr_housenumber": "5747"
    },
    {
      "id": 128298,
      "geometry": "POINT (-86.73367 36.209142)",
      "poi_name": "Little Caesars",
      "osm_id": 8147342223,
      "amenity": "fast_food",
      "cuisine": "pizza",
      "website": "https://littlecaesars.com/en-us/store/8719/",
      "takeaway": "yes"
    },
    {
      "id": 126665,
      "geometry": "POINT (-86.691775 36.303874)",
      "poi_name": "Cook Out",
      "osm_id": 7990278186,
      "amenity": "fast_food",
      "cuisine": "american",
      "opening_hours": "Mo-Su 10:30-03:00",
      "phone": "6158596112",
      "takeaway": "yes",
      "addr_postcode": "37115",
      "addr_street": "Gallatin Pike North",
      "addr_housenumber": "2102"
    },
    {
      "id": 127231,
      "geometry": "POINT (-86.671589 36.104498)",
      "poi_name": "West Coast Taco Shop",
      "osm_id": 8043560714,
      "amenity": "fast_food",
      "cuisine": "mexican",
      "website": "https://sites.google.com/view/wctacoshop/menu"
    },
    {
      "id": 128208,
      "geometry": "POINT (-86.776476 36.156727)",
      "poi_name": "Dunkin'",
      "osm_id": 8138167631,
      "amenity": "fast_food",
      "cuisine": "donut;coffee_shop",
      "takeaway": "yes"
    },
    {
      "id": 129091,
      "geometry": "POINT (-86.793715 36.183846)",
      "poi_name": "Grill Shack",
      "osm_id": 8211963737,
      "amenity": "fast_food",
      "cuisine": "burger",
      "addr_state": "TN",
      "addr_city": "Nashville",
      "addr_postcode": "37208",
      "addr_street": "5th Avenue North",
      "addr_housenumber": "1725"
    },
    {
      "id": 128870,
      "geometry": "POINT (-86.800525 36.19308)",
      "poi_name": "Chick-fil-A",
      "osm_id": 8192483490,
      "amenity": "fast_food",
      "cuisine": "chicken",
      "takeaway": "yes"
    },
    {
      "id": 128871,
      "geometry": "POINT (-86.800297 36.192979)",
      "poi_name": "Subway",
      "osm_id": 8192483491,
      "amenity": "fast_food",
      "cuisine": "sandwich",
      "takeaway": "yes"
    },
    {
      "id": 129801,
      "geometry": "POINT (-86.592033 36.314427)",
      "poi_name": "Popeye's",
      "osm_id": 9842105317,
      "amenity": "fast_food",
      "cuisine": "chicken"
    },
    {
      "id": 129056,
      "geometry": "POINT (-87.481536 36.664374)",
      "poi_name": "Hunt Brother's Pizza",
      "osm_id": 8204652863,
      "amenity": "fast_food",
      "cuisine": "pizza",
      "wheelchair": "yes",
      "opening_hours": "Mo-Fr 08:00-16:00",
      "operator": "Army and Air Force Exchange Service",
      "internet_access": "yes",
      "takeaway": "yes",
      "delivery": "no",
      "addr_state": "KY",
      "addr_city": "Fort Campbell",
      "addr_postcode": "42223",
      "addr_street": "Market Garden Road",
      "addr_housenumber": "71001"
    },
    {
      "id": 129057,
      "geometry": "POINT (-87.481509 36.664254)",
      "poi_name": "Burger King",
      "osm_id": 8204652864,
      "amenity": "fast_food",
      "cuisine": "burger",
      "wheelchair": "yes",
      "opening_hours": "Mo-Fr 06:00-18:30",
      "operator": "Army and Air Force Exchange Service",
      "internet_access": "yes",
      "takeaway": "yes",
      "delivery": "no",
      "addr_state": "KY",
      "addr_city": "Fort Campbell",
      "addr_postcode": "42223",
      "addr_street": "Market Garden Road",
      "addr_housenumber": "71001A"
    },
    {
      "id": 142442,
      "geometry": "POINT (-86.791166 36.172195)",
      "poi_name": "KFC",
      "osm_id": 6314924453,
      "amenity": "fast_food",
      "cuisine": "chicken",
      "website": "https://locations.kfc.com/tn/nashville/1027-8th-ave-n",
      "takeaway": "yes"
    },
    {
      "id": 129948,
      "geometry": "POINT (-86.351347 35.839091)",
      "poi_name": "Dunkin'",
      "osm_id": 9847288284,
      "amenity": "fast_food",
      "cuisine": "donut;coffee_shop",
      "takeaway": "yes"
    },
    {
      "id": 130241,
      "geometry": "POINT (-87.3381 36.022628)",
      "poi_name": "McDonald's",
      "osm_id": 9861442078,
      "amenity": "fast_food",
      "cuisine": "burger",
      "website": "https://www.mcdonalds.com/us/en-us/location/tn/dickson/1005-christi-rd/12420.html",
      "takeaway": "yes"
    },
    {
      "id": 130242,
      "geometry": "POINT (-87.337048 36.022764)",
      "poi_name": "Hardee's",
      "osm_id": 9861442096,
      "amenity": "fast_food",
      "cuisine": "burger",
      "website": "https://locations.hardees.com/tn/dickson/100-suzanne-dr",
      "takeaway": "yes"
    },
    {
      "id": 130245,
      "geometry": "POINT (-87.339706 36.021622)",
      "poi_name": "Arby's",
      "osm_id": 9861448033,
      "amenity": "fast_food",
      "cuisine": "sandwich",
      "takeaway": "yes"
    },
    {
      "id": 130246,
      "geometry": "POINT (-87.34217 36.024246)",
      "poi_name": "Bojangles'",
      "osm_id": 9861448140,
      "amenity": "fast_food",
      "cuisine": "chicken",
      "takeaway": "yes",
      "official_name": "Bojangles' Famous Chicken 'n Biscuits"
    },
    {
      "id": 139818,
      "geometry": "POINT (-85.922855 36.999652)",
      "poi_name": "Smooches Gourmet Popcorn",
      "osm_id": 6217217962,
      "amenity": "fast_food",
      "wheelchair": "yes",
      "opening_hours": "Mo-Sa 09:00-18:30",
      "website": "https://smoochesgourmetpopcorn.com/",
      "takeaway": "only",
      "drive_through": "no",
      "outdoor_seating": "no",
      "delivery": "no",
      "addr_state": "KY",
      "addr_city": "Glasgow",
      "addr_postcode": "42141",
      "addr_street": "West Main Street",
      "addr_housenumber": "800"
    },
    {
      "id": 140268,
      "geometry": "POINT (-86.620402 36.33214)",
      "poi_name": "Chick-fil-A",
      "osm_id": 6238279595,
      "amenity": "fast_food",
      "cuisine": "chicken",
      "opening_hours": "Mo-Sa 06:00-22:00; Su closed",
      "drive_through": "yes",
      "addr_state": "TN",
      "addr_city": "Hendersonville",
      "addr_postcode": "37075",
      "addr_street": "Glenbrook Way",
      "addr_housenumber": "1033"
    },
    {
      "id": 140283,
      "geometry": "POINT (-86.607729 36.307492)",
      "poi_name": "Wendy's",
      "osm_id": 6238734146,
      "amenity": "fast_food",
      "cuisine": "burger",
      "drive_through": "yes",
      "addr_state": "TN",
      "addr_city": "Hendersonville",
      "addr_postcode": "37075",
      "addr_street": "East Main Street",
      "addr_housenumber": "168"
    },
    {
      "id": 140285,
      "geometry": "POINT (-86.596742 36.3279)",
      "poi_name": "Five Guys",
      "osm_id": 6238758088,
      "amenity": "fast_food",
      "cuisine": "burger",
      "addr_state": "TN",
      "addr_city": "Hendersonville",
      "addr_postcode": "37075",
      "addr_street": "Indian Lake Boulevard",
      "addr_housenumber": "261"
    },
    {
      "id": 141485,
      "geometry": "POINT (-86.354126 35.874103)",
      "poi_name": "Sonic",
      "osm_id": 6286495685,
      "amenity": "fast_food",
      "cuisine": "burger",
      "takeaway": "yes"
    },
    {
      "id": 142477,
      "geometry": "POINT (-86.816619 36.103163)",
      "poi_name": "Shake Shack",
      "osm_id": 6315237834,
      "amenity": "fast_food",
      "cuisine": "burger",
      "takeaway": "yes"
    },
    {
      "id": 132980,
      "geometry": "POINT (-86.2094 37.043645)",
      "poi_name": "Subway",
      "osm_id": 9975530533,
      "amenity": "fast_food",
      "cuisine": "sandwich",
      "takeaway": "yes",
      "addr_state": "KY",
      "addr_city": "Smiths Grove",
      "addr_postcode": "42171",
      "addr_street": "Smiths Grove- Scottsville Road"
    },
    {
      "id": 135800,
      "geometry": "POINT (-86.39645 35.808732)",
      "poi_name": "Popeyes",
      "osm_id": 11537289811,
      "amenity": "fast_food",
      "cuisine": "chicken",
      "takeaway": "yes",
      "official_name": "Popeyes Louisiana Kitchen"
    },
    {
      "id": 135802,
      "geometry": "POINT (-86.39645 35.807929)",
      "poi_name": "Arby's",
      "osm_id": 11537289816,
      "amenity": "fast_food",
      "cuisine": "sandwich",
      "takeaway": "yes"
    },
    {
      "id": 136589,
      "geometry": "POINT (-87.488212 36.851568)",
      "poi_name": "Domino's",
      "osm_id": 11591785372,
      "amenity": "fast_food",
      "cuisine": "pizza",
      "takeaway": "yes"
    },
    {
      "id": 136590,
      "geometry": "POINT (-87.47872 36.8387)",
      "poi_name": "Jersey Mike's Subs",
      "osm_id": 11591785492,
      "amenity": "fast_food",
      "cuisine": "sandwich",
      "takeaway": "yes"
    },
    {
      "id": 136591,
      "geometry": "POINT (-87.478639 36.838632)",
      "poi_name": "Little Caesars",
      "osm_id": 11591785493,
      "amenity": "fast_food",
      "cuisine": "pizza",
      "takeaway": "yes"
    },
    {
      "id": 136592,
      "geometry": "POINT (-87.472097 36.813793)",
      "poi_name": "Panera Bread",
      "osm_id": 11591785499,
      "amenity": "fast_food",
      "cuisine": "sandwich;bakery",
      "takeaway": "yes"
    },
    {
      "id": 136594,
      "geometry": "POINT (-87.468321 36.668265)",
      "poi_name": "Domino's",
      "osm_id": 11591785779,
      "amenity": "fast_food",
      "cuisine": "pizza",
      "takeaway": "yes"
    },
    {
      "id": 136595,
      "geometry": "POINT (-87.483016 36.665676)",
      "poi_name": "Jimmy John's",
      "osm_id": 11591785780,
      "amenity": "fast_food",
      "cuisine": "sandwich",
      "takeaway": "yes",
      "official_name": "Jimmy John's Gourmet Sandwiches"
    },
    {
      "id": 144739,
      "geometry": "POINT (-86.79549 36.105428)",
      "poi_name": "Subway",
      "osm_id": 7284000065,
      "amenity": "fast_food",
      "cuisine": "sandwich",
      "takeaway": "yes"
    },
    {
      "id": 144741,
      "geometry": "POINT (-86.799393 36.104139)",
      "poi_name": "Au Bon Pain",
      "osm_id": 7284048796,
      "amenity": "fast_food",
      "cuisine": "sandwich",
      "takeaway": "yes",
      "drive_through": "no"
    },
    {
      "id": 145271,
      "geometry": "POINT (-86.893868 35.740771)",
      "poi_name": "Dunkin' Donuts",
      "osm_id": 7330438759,
      "amenity": "fast_food",
      "cuisine": "donut;coffee_shop",
      "takeaway": "yes",
      "addr_city": "Spring Hill",
      "addr_street": "Port Royal Road",
      "addr_housenumber": "4885"
    },
    {
      "id": 145674,
      "geometry": "POINT (-86.743955 36.039026)",
      "poi_name": "Pizza Hut Express",
      "osm_id": 7382802421,
      "amenity": "fast_food",
      "cuisine": "pizza",
      "takeaway": "yes",
      "drive_through": "yes"
    },
    {
      "id": 145272,
      "geometry": "POINT (-86.894029 35.740345)",
      "poi_name": "Burger King",
      "osm_id": 7330438762,
      "amenity": "fast_food",
      "cuisine": "burger",
      "takeaway": "yes",
      "addr_street": "Port Royal Road",
      "addr_housenumber": "4883"
    },
    {
      "id": 145675,
      "geometry": "POINT (-86.743968 36.038959)",
      "poi_name": "Taco Bell",
      "osm_id": 7382802422,
      "amenity": "fast_food",
      "cuisine": "tex-mex",
      "website": "https://locations.tacobell.com/tn/nashville/5709-edmonson-pike.html",
      "takeaway": "yes",
      "drive_through": "yes"
    },
    {
      "id": 145381,
      "geometry": "POINT (-86.780925 36.164489)",
      "poi_name": "Subway",
      "osm_id": 7344320421,
      "amenity": "fast_food",
      "cuisine": "sandwich",
      "opening_hours": "Mo-Fr 07:00-18:00, Sa 10:00-16:00, Su 10:00-14:00",
      "phone": "+1-615-242-9244",
      "takeaway": "yes",
      "drive_through": "no",
      "addr_state": "TN",
      "addr_city": "Nashville",
      "addr_postcode": "37219",
      "addr_street": "5th Avenue North",
      "addr_housenumber": "246"
    },
    {
      "id": 145626,
      "geometry": "POINT (-86.79933 36.145906)",
      "poi_name": "Bruegger's Bagels",
      "osm_id": 7373909456,
      "amenity": "fast_food",
      "cuisine": "bagel",
      "takeaway": "yes"
    },
    {
      "id": 145627,
      "geometry": "POINT (-86.798854 36.147275)",
      "poi_name": "Chipotle",
      "osm_id": 7373909457,
      "amenity": "fast_food",
      "cuisine": "mexican",
      "takeaway": "yes",
      "official_name": "Chipotle Mexican Grill"
    },
    {
      "id": 145632,
      "geometry": "POINT (-86.820305 36.138957)",
      "poi_name": "DQ Grill & Chill",
      "osm_id": 7374084202,
      "amenity": "fast_food",
      "cuisine": "ice_cream;burger",
      "takeaway": "yes"
    },
    {
      "id": 145644,
      "geometry": "POINT (-86.793628 36.173024)",
      "poi_name": "Popeyes",
      "osm_id": 7376230197,
      "amenity": "fast_food",
      "cuisine": "chicken",
      "takeaway": "yes",
      "official_name": "Popeyes Louisiana Kitchen"
    },
    {
      "id": 145645,
      "geometry": "POINT (-86.793457 36.172541)",
      "poi_name": "Captain D's",
      "osm_id": 7376230198,
      "amenity": "fast_food",
      "cuisine": "seafood",
      "takeaway": "yes"
    },
    {
      "id": 145668,
      "geometry": "POINT (-86.744569 36.144326)",
      "poi_name": "Dunkin' Donuts",
      "osm_id": 7381258690,
      "amenity": "fast_food",
      "cuisine": "donut;coffee_shop",
      "takeaway": "yes"
    },
    {
      "id": 145669,
      "geometry": "POINT (-86.743703 36.142947)",
      "poi_name": "McDonald's",
      "osm_id": 7381258693,
      "amenity": "fast_food",
      "cuisine": "burger",
      "website": "https://www.mcdonalds.com/us/en-us/location/tn/nashville/524-murfreesboro-rd/1423.html",
      "takeaway": "yes",
      "drive_through": "yes"
    },
    {
      "id": 145670,
      "geometry": "POINT (-86.779579 36.13337)",
      "poi_name": "Burger King",
      "osm_id": 7381258697,
      "amenity": "fast_food",
      "cuisine": "burger",
      "takeaway": "yes"
    },
    {
      "id": 145671,
      "geometry": "POINT (-86.777707 36.127096)",
      "poi_name": "Little Caesars",
      "osm_id": 7381258701,
      "amenity": "fast_food",
      "cuisine": "pizza",
      "takeaway": "yes"
    },
    {
      "id": 145686,
      "geometry": "POINT (-86.666017 36.147386)",
      "poi_name": "Taco Bell",
      "osm_id": 7384023300,
      "amenity": "fast_food",
      "cuisine": "tex-mex",
      "website": "https://locations.tacobell.com/tn/nashville/529-donelson-pike.html",
      "takeaway": "yes",
      "addr_postcode": "37214",
      "addr_street": "Donelson Pike",
      "addr_housenumber": "529"
    },
    {
      "id": 145687,
      "geometry": "POINT (-86.665959 36.147373)",
      "poi_name": "Pizza Hut Express",
      "osm_id": 7384023301,
      "amenity": "fast_food",
      "cuisine": "pizza",
      "takeaway": "yes",
      "addr_postcode": "37214",
      "addr_street": "Donelson Pike",
      "addr_housenumber": "529"
    },
    {
      "id": 145688,
      "geometry": "POINT (-86.665825 36.148035)",
      "poi_name": "Panera Bread",
      "osm_id": 7384023304,
      "amenity": "fast_food",
      "cuisine": "sandwich;bakery",
      "takeaway": "yes"
    },
    {
      "id": 145786,
      "geometry": "POINT (-86.821965 35.913134)",
      "poi_name": "Krystal",
      "osm_id": 7387921149,
      "amenity": "fast_food",
      "cuisine": "burger",
      "takeaway": "yes"
    },
    {
      "id": 145787,
      "geometry": "POINT (-86.87459 35.905137)",
      "poi_name": "Hardee's",
      "osm_id": 7387973150,
      "amenity": "fast_food",
      "cuisine": "burger",
      "takeaway": "yes"
    },
    {
      "id": 145788,
      "geometry": "POINT (-86.922797 36.106642)",
      "poi_name": "Subway",
      "osm_id": 7388001715,
      "amenity": "fast_food",
      "cuisine": "sandwich",
      "takeaway": "yes"
    },
    {
      "id": 145689,
      "geometry": "POINT (-86.667029 36.151083)",
      "poi_name": "Subway",
      "osm_id": 7384023314,
      "amenity": "fast_food",
      "cuisine": "sandwich",
      "takeaway": "yes"
    },
    {
      "id": 145790,
      "geometry": "POINT (-86.844534 36.127618)",
      "poi_name": "Taco Bell",
      "osm_id": 7388029399,
      "amenity": "fast_food",
      "cuisine": "tex-mex",
      "takeaway": "yes",
      "addr_postcode": "37205",
      "addr_street": "Harding Pike",
      "addr_housenumber": "4300"
    },
    {
      "id": 145791,
      "geometry": "POINT (-86.844486 36.127581)",
      "poi_name": "Pizza Hut Express",
      "osm_id": 7388029400,
      "amenity": "fast_food",
      "cuisine": "pizza",
      "takeaway": "yes",
      "addr_postcode": "37205",
      "addr_street": "Harding Pike",
      "addr_housenumber": "4300"
    },
    {
      "id": 145690,
      "geometry": "POINT (-86.665854 36.154741)",
      "poi_name": "Sonic",
      "osm_id": 7384023316,
      "amenity": "fast_food",
      "cuisine": "burger",
      "takeaway": "yes"
    },
    {
      "id": 146392,
      "geometry": "POINT (-87.406152 36.573962)",
      "poi_name": "Papa Murphy's",
      "osm_id": 7435711593,
      "amenity": "fast_food",
      "cuisine": "pizza",
      "wheelchair": "yes",
      "opening_hours": "11:00-20:00",
      "website": "https://order.papamurphys.com/menu/papa-murphys-ft-campbell",
      "internet_access": "no",
      "phone": "+1 931-552-2210",
      "takeaway": "only",
      "official_name": "Papa Murphy's Take 'N' Bake Pizza",
      "delivery": "only",
      "addr_state": "TN",
      "addr_city": "Clarksville",
      "addr_postcode": "37042",
      "addr_street": "Fort Campbell Boulevard",
      "addr_housenumber": "1571"
    },
    {
      "id": 149868,
      "geometry": "POINT (-87.367163 36.539901)",
      "poi_name": "China Wok Express",
      "osm_id": 4030456190,
      "amenity": "fast_food",
      "cuisine": "chinese",
      "wheelchair": "yes",
      "opening_hours": "11:30-22:30; Fr-Sa 10:30-22:30",
      "internet_access": "no",
      "phone": "+1 931-919-5003",
      "takeaway": "yes",
      "addr_state": "TN",
      "addr_city": "Clarksville",
      "addr_postcode": "37040",
      "addr_street": "North Riverside Drive",
      "addr_housenumber": "700F"
    },
    {
      "id": 149199,
      "geometry": "POINT (-86.87201 35.923886)",
      "poi_name": "Jamba Juice",
      "osm_id": 3999663357,
      "amenity": "fast_food",
      "cuisine": "juice",
      "takeaway": "yes"
    },
    {
      "id": 153258,
      "geometry": "POINT (-86.738116 36.203342)",
      "poi_name": "Cook Out",
      "osm_id": 4186746811,
      "amenity": "fast_food",
      "cuisine": "american",
      "takeaway": "yes",
      "delivery": "no"
    },
    {
      "id": 150880,
      "geometry": "POINT (-86.42074 36.942102)",
      "poi_name": "McDonald's",
      "osm_id": 4072529948,
      "amenity": "fast_food",
      "cuisine": "burger",
      "website": "https://www.mcdonalds.com/us/en-us/location/ky/bowling-green/3080-scottsville-rd/3857.html",
      "takeaway": "yes"
    },
    {
      "id": 153259,
      "geometry": "POINT (-86.738385 36.202978)",
      "poi_name": "Taco Bell",
      "osm_id": 4186746813,
      "amenity": "fast_food",
      "cuisine": "tex-mex",
      "website": "https://locations.tacobell.com/tn/nashville/2904-gallatin-pike.html",
      "takeaway": "yes"
    },
    {
      "id": 155933,
      "geometry": "POINT (-86.878915 36.489351)",
      "poi_name": "Subway",
      "osm_id": 4635948265,
      "amenity": "fast_food",
      "cuisine": "sandwich",
      "takeaway": "yes",
      "addr_city": "Springfield",
      "addr_postcode": "37172",
      "addr_street": "Tom Austin Hwy",
      "addr_housenumber": "3535"
    },
    {
      "id": 156418,
      "geometry": "POINT (-86.777939 36.160892)",
      "poi_name": "Jack's",
      "osm_id": 4655126378,
      "amenity": "fast_food",
      "cuisine": "burger",
      "wheelchair": "limited",
      "takeaway": "yes",
      "addr_state": "TN",
      "addr_city": "Nashville",
      "addr_postcode": "37203",
      "addr_street": "Broadway",
      "addr_housenumber": "416"
    },
    {
      "id": 157104,
      "geometry": "POINT (-86.927091 36.073337)",
      "poi_name": "Dunkin' Donuts",
      "osm_id": 4687106656,
      "amenity": "fast_food",
      "cuisine": "donut;coffee_shop",
      "opening_hours": "05:00-22:00",
      "phone": "+1-615-662-5652",
      "takeaway": "yes",
      "addr_state": "TN",
      "addr_city": "Nashville",
      "addr_postcode": "37221",
      "addr_street": "Howay 70 S",
      "addr_housenumber": "7201"
    },
    {
      "id": 157822,
      "geometry": "POINT (-86.744562 36.145027)",
      "poi_name": "Wendy's",
      "osm_id": 4726835172,
      "amenity": "fast_food",
      "cuisine": "burger",
      "takeaway": "yes",
      "drive_through": "yes",
      "outdoor_seating": "no",
      "delivery": "no"
    },
    {
      "id": 157603,
      "geometry": "POINT (-86.423862 36.949138)",
      "poi_name": "Wendy's",
      "osm_id": 4715756554,
      "amenity": "fast_food",
      "cuisine": "burger",
      "takeaway": "yes",
      "drive_through": "yes"
    },
    {
      "id": 157604,
      "geometry": "POINT (-86.421315 36.94322)",
      "poi_name": "Burger King",
      "osm_id": 4715762558,
      "amenity": "fast_food",
      "cuisine": "burger",
      "takeaway": "yes",
      "drive_through": "yes"
    },
    {
      "id": 157606,
      "geometry": "POINT (-86.415748 36.93296)",
      "poi_name": "Hardee's",
      "osm_id": 4715763817,
      "amenity": "fast_food",
      "cuisine": "burger",
      "website": "https://locations.hardees.com/ky/bowling-green/127-cumberland-trace-rd",
      "takeaway": "yes"
    },
    {
      "id": 158211,
      "geometry": "POINT (-86.90214 36.843611)",
      "poi_name": "Domino's",
      "osm_id": 4739159347,
      "amenity": "fast_food",
      "cuisine": "pizza"
    },
    {
      "id": 158212,
      "geometry": "POINT (-86.901752 36.843739)",
      "poi_name": "Dairy Queen",
      "osm_id": 4739159348,
      "amenity": "fast_food"
    },
    {
      "id": 159452,
      "geometry": "POINT (-86.646809 36.08416)",
      "poi_name": "Arby's",
      "osm_id": 4793649433,
      "amenity": "fast_food",
      "cuisine": "sandwich",
      "takeaway": "yes",
      "drive_through": "yes",
      "outdoor_seating": "no",
      "delivery": "no",
      "addr_state": "TN"
    },
    {
      "id": 159403,
      "geometry": "POINT (-86.4751 36.951165)",
      "poi_name": "Sonic",
      "osm_id": 4791477212,
      "amenity": "fast_food"
    },
    {
      "id": 161787,
      "geometry": "POINT (-85.951909 36.26086)",
      "poi_name": "McDonald's",
      "osm_id": 4900266630,
      "amenity": "fast_food",
      "cuisine": "burger",
      "website": "https://www.mcdonalds.com/us/en-us/location/tn/carthage/11-dixon-springs-hwy/26692.html",
      "takeaway": "yes"
    },
    {
      "id": 160051,
      "geometry": "POINT (-86.780112 36.041863)",
      "poi_name": "Panera Bread",
      "osm_id": 4815511525,
      "amenity": "fast_food",
      "cuisine": "sandwich;bakery",
      "description": "An American bakery-caf\u00e9 fast casual chain restaurant offering soups, salads, pasta, sandwiches, and bakery items.",
      "opening_hours": "06:00-22:00",
      "website": "https://www.panerabread.com/",
      "phone": "+1-615-370-9718",
      "takeaway": "yes",
      "outdoor_seating": "yes",
      "addr_state": "TN",
      "addr_city": "Nashville-Davidson",
      "addr_postcode": "37027",
      "addr_street": "Old Hickory Boulevard",
      "addr_housenumber": "782"
    },
    {
      "id": 159538,
      "geometry": "POINT (-86.854189 36.151584)",
      "poi_name": "Sir Pizza",
      "osm_id": 4796284000,
      "amenity": "fast_food",
      "cuisine": "pizza",
      "opening_hours": "Mo-Th 11:00-22:00, Fr,Sa 11:00-23:00, Su 12:00-21:00"
    },
    {
      "id": 161710,
      "geometry": "POINT (-87.06538 35.605785)",
      "poi_name": "McDonald's",
      "osm_id": 4896316450,
      "amenity": "fast_food",
      "cuisine": "burger",
      "website": "https://www.mcdonalds.com/us/en-us/location/tn/columbia/1225-trotwood-ave/3037.html",
      "takeaway": "yes"
    },
    {
      "id": 164502,
      "geometry": "POINT (-86.803866 35.965249)",
      "poi_name": "Subway",
      "osm_id": 9479732179,
      "amenity": "fast_food",
      "cuisine": "sandwich",
      "takeaway": "yes"
    },
    {
      "id": 161872,
      "geometry": "POINT (-86.718832 36.251274)",
      "poi_name": "McDonald's",
      "osm_id": 4904495833,
      "amenity": "fast_food",
      "cuisine": "burger",
      "website": "https://www.mcdonalds.com/us/en-us/location/tn/madison/1012-gallatin-rd-s/4770.html",
      "takeaway": "yes"
    },
    {
      "id": 164389,
      "geometry": "POINT (-86.799644 36.13697)",
      "poi_name": "Domino's",
      "osm_id": 9469541948,
      "amenity": "fast_food",
      "cuisine": "pizza",
      "takeaway": "yes"
    },
    {
      "id": 164539,
      "geometry": "POINT (-86.812277 35.962622)",
      "poi_name": "Subway",
      "osm_id": 9481541740,
      "amenity": "fast_food",
      "cuisine": "sandwich",
      "takeaway": "yes"
    },
    {
      "id": 164540,
      "geometry": "POINT (-86.81161 35.964512)",
      "poi_name": "Taco Bell",
      "osm_id": 9481541890,
      "amenity": "fast_food",
      "cuisine": "tex-mex",
      "opening_hours": "Mo-Su 07:00-01:00",
      "website": "https://locations.tacobell.com/tn/franklin/1715-galleria-blvd.html",
      "takeaway": "yes"
    },
    {
      "id": 163429,
      "geometry": "POINT (-85.935406 37.201407)",
      "poi_name": "McDonald's",
      "osm_id": 9418294908,
      "amenity": "fast_food",
      "cuisine": "burger",
      "website": "https://www.mcdonalds.com/us/en-us/location/ky/horse-cave/4000-l-and-n-turnpike-rd/32231.html",
      "takeaway": "yes"
    },
    {
      "id": 163686,
      "geometry": "POINT (-86.439971 35.858042)",
      "poi_name": "Culver's",
      "osm_id": 9429844799,
      "amenity": "fast_food",
      "cuisine": "burger",
      "takeaway": "yes"
    },
    {
      "id": 164506,
      "geometry": "POINT (-86.799921 35.963326)",
      "poi_name": "Sonic",
      "osm_id": 9480213245,
      "amenity": "fast_food",
      "cuisine": "burger",
      "takeaway": "yes"
    },
    {
      "id": 164598,
      "geometry": "POINT (-86.802303 35.956957)",
      "poi_name": "Smoothie King",
      "osm_id": 9487308290,
      "amenity": "fast_food",
      "cuisine": "juice",
      "takeaway": "yes"
    },
    {
      "id": 164599,
      "geometry": "POINT (-86.802423 35.956849)",
      "poi_name": "Domino's",
      "osm_id": 9487308291,
      "amenity": "fast_food",
      "cuisine": "pizza",
      "takeaway": "yes"
    },
    {
      "id": 164529,
      "geometry": "POINT (-86.801107 35.960402)",
      "poi_name": "Hungry Howie's",
      "osm_id": 9481245337,
      "amenity": "fast_food",
      "cuisine": "pizza",
      "takeaway": "yes"
    },
    {
      "id": 164530,
      "geometry": "POINT (-86.801242 35.959647)",
      "poi_name": "Dunkin'",
      "osm_id": 9481251579,
      "amenity": "fast_food",
      "cuisine": "donut;coffee_shop",
      "takeaway": "yes"
    },
    {
      "id": 166245,
      "geometry": "POINT (-86.802589 35.954077)",
      "poi_name": "Subway",
      "osm_id": 9583343006,
      "amenity": "fast_food",
      "cuisine": "sandwich",
      "takeaway": "yes"
    },
    {
      "id": 165655,
      "geometry": "POINT (-86.778906 36.207041)",
      "poi_name": "Jack In The Box",
      "osm_id": 9550196100,
      "amenity": "fast_food"
    },
    {
      "id": 165656,
      "geometry": "POINT (-86.769162 36.205608)",
      "poi_name": "Krystal",
      "osm_id": 9550208382,
      "amenity": "fast_food",
      "outdoor_seating": "no"
    },
    {
      "id": 165853,
      "geometry": "POINT (-86.692795 35.589545)",
      "poi_name": "Old Mill Snack Shack",
      "osm_id": 9559276680,
      "amenity": "fast_food"
    },
    {
      "id": 164812,
      "geometry": "POINT (-86.67352 35.963848)",
      "poi_name": "Subway",
      "osm_id": 9501905348,
      "amenity": "fast_food",
      "cuisine": "sandwich",
      "takeaway": "yes"
    },
    {
      "id": 168477,
      "geometry": "POINT (-86.667376 36.149272)",
      "poi_name": "Back Yard Burgers",
      "osm_id": 2261695638,
      "amenity": "fast_food",
      "cuisine": "burger",
      "takeaway": "yes"
    },
    {
      "id": 168478,
      "geometry": "POINT (-86.666916 36.149326)",
      "poi_name": "Arby's",
      "osm_id": 2261695678,
      "amenity": "fast_food",
      "cuisine": "sandwich",
      "takeaway": "yes",
      "addr_state": "TN"
    },
    {
      "id": 170763,
      "geometry": "POINT (-86.858411 36.1496)",
      "poi_name": "Jack in the Box",
      "osm_id": 2348715034,
      "amenity": "fast_food",
      "cuisine": "burger",
      "takeaway": "yes"
    },
    {
      "id": 169315,
      "geometry": "POINT (-86.351634 35.833742)",
      "poi_name": "Subway",
      "osm_id": 2296588765,
      "amenity": "fast_food",
      "cuisine": "sandwich",
      "website": "https://www.subway.com/",
      "takeaway": "yes",
      "addr_city": "Murfreesboro",
      "addr_postcode": "37130",
      "addr_street": "South Rutherford Boulevard",
      "addr_housenumber": "2975"
    },
    {
      "id": 173015,
      "geometry": "POINT (-87.36589 36.509642)",
      "poi_name": "DQ Grill & Chill",
      "osm_id": 2422119105,
      "amenity": "fast_food"
    },
    {
      "id": 174923,
      "geometry": "POINT (-86.577738 36.020901)",
      "poi_name": "Taco Bell",
      "osm_id": 2501310515,
      "amenity": "fast_food",
      "cuisine": "tex-mex",
      "website": "https://locations.tacobell.com/tn/la-vergne/5143-murfreesboro-rd-.html",
      "takeaway": "yes",
      "addr_postcode": "37086",
      "addr_street": "Murfreesboro Road",
      "addr_housenumber": "5413"
    },
    {
      "id": 176619,
      "geometry": "POINT (-87.489399 36.865018)",
      "poi_name": "Ferrell's Snappy Services",
      "osm_id": 2564103459,
      "amenity": "fast_food",
      "website": "https://www.facebook.com/pages/Ferrells-Snappy-Service/115596438461174",
      "phone": "+1 270-886-1445"
    },
    {
      "id": 174956,
      "geometry": "POINT (-86.409493 35.863105)",
      "poi_name": "Taco Bell and Pizza Hut",
      "osm_id": 2502203131,
      "amenity": "fast_food",
      "addr_postcode": "37129",
      "addr_street": "Northwest Broad Street",
      "addr_housenumber": "1301"
    },
    {
      "id": 174957,
      "geometry": "POINT (-86.398061 35.806919)",
      "poi_name": "Taco Bell",
      "osm_id": 2502203132,
      "amenity": "fast_food",
      "cuisine": "tex-mex",
      "website": "https://locations.tacobell.com/tn/murfreesboro/2482-s--church-street.html",
      "takeaway": "yes",
      "addr_postcode": "37127",
      "addr_street": "South Church Street",
      "addr_housenumber": "2482"
    },
    {
      "id": 174962,
      "geometry": "POINT (-87.015003 35.635778)",
      "poi_name": "Taco Bell and Pizza Hut",
      "osm_id": 2502283904,
      "amenity": "fast_food",
      "addr_postcode": "38401",
      "addr_street": "Bear Creek Pike",
      "addr_housenumber": "127"
    },
    {
      "id": 176532,
      "geometry": "POINT (-86.791394 36.029802)",
      "poi_name": "Chipotle",
      "osm_id": 2562346909,
      "amenity": "fast_food",
      "cuisine": "mexican",
      "takeaway": "yes",
      "official_name": "Chipotle Mexican Grill"
    },
    {
      "id": 176533,
      "geometry": "POINT (-86.78882 36.03568)",
      "poi_name": "Honey Baked Ham",
      "osm_id": 2562346910,
      "amenity": "fast_food",
      "cuisine": "american",
      "takeaway": "yes",
      "official_name": "The Honey Baked Ham Company"
    },
    {
      "id": 179086,
      "geometry": "POINT (-86.421513 36.940306)",
      "poi_name": "White Castle",
      "osm_id": 10746986456,
      "amenity": "fast_food",
      "cuisine": "burger",
      "takeaway": "yes"
    },
    {
      "id": 177625,
      "geometry": "POINT (-86.803133 36.031344)",
      "poi_name": "Jefferson's Wings - Burgers - Oysters",
      "osm_id": 2597881515,
      "amenity": "fast_food"
    },
    {
      "id": 177626,
      "geometry": "POINT (-86.802506 36.031559)",
      "poi_name": "Jersey Mike's Subs",
      "osm_id": 2597881516,
      "amenity": "fast_food",
      "cuisine": "sandwich",
      "takeaway": "yes"
    },
    {
      "id": 178851,
      "geometry": "POINT (-85.948709 36.177397)",
      "poi_name": "Wendy's",
      "osm_id": 10742335860,
      "amenity": "fast_food",
      "cuisine": "burger",
      "takeaway": "yes"
    },
    {
      "id": 178852,
      "geometry": "POINT (-85.948572 36.177344)",
      "poi_name": "Dunkin'",
      "osm_id": 10742335861,
      "amenity": "fast_food",
      "cuisine": "donut;coffee_shop",
      "takeaway": "yes"
    },
    {
      "id": 178862,
      "geometry": "POINT (-85.947326 36.177505)",
      "poi_name": "Taco Bell",
      "osm_id": 10742393577,
      "amenity": "fast_food",
      "cuisine": "tex-mex",
      "website": "https://locations.tacobell.com/tn/gordonsville/501-gordonsville-highway.html",
      "takeaway": "yes"
    },
    {
      "id": 178863,
      "geometry": "POINT (-85.947201 36.177514)",
      "poi_name": "KFC",
      "osm_id": 10742393578,
      "amenity": "fast_food",
      "cuisine": "chicken",
      "website": "https://locations.kfc.com/tn/gordonsville/501-gordonsville-highway",
      "takeaway": "yes"
    },
    {
      "id": 179037,
      "geometry": "POINT (-85.882268 37.01014)",
      "poi_name": "Hardee's",
      "osm_id": 10746487538,
      "amenity": "fast_food",
      "cuisine": "burger",
      "website": "https://locations.hardees.com/ky/glasgow/2000-edmonton-road",
      "takeaway": "yes"
    },
    {
      "id": 179087,
      "geometry": "POINT (-86.420374 36.941163)",
      "poi_name": "Chick-fil-A",
      "osm_id": 10746986457,
      "amenity": "fast_food",
      "cuisine": "chicken",
      "takeaway": "yes"
    },
    {
      "id": 179088,
      "geometry": "POINT (-86.421024 36.942792)",
      "poi_name": "Chipotle",
      "osm_id": 10746986458,
      "amenity": "fast_food",
      "cuisine": "mexican",
      "takeaway": "yes",
      "official_name": "Chipotle Mexican Grill"
    },
    {
      "id": 179090,
      "geometry": "POINT (-86.421977 36.945066)",
      "poi_name": "Arby's",
      "osm_id": 10746986461,
      "amenity": "fast_food",
      "cuisine": "sandwich",
      "takeaway": "yes"
    },
    {
      "id": 181422,
      "geometry": "POINT (-86.491644 35.842585)",
      "poi_name": "Dunkin'",
      "osm_id": 10844859405,
      "amenity": "fast_food",
      "cuisine": "donut;coffee_shop",
      "takeaway": "yes"
    },
    {
      "id": 180783,
      "geometry": "POINT (-86.700658 36.297239)",
      "poi_name": "Panera Bread",
      "osm_id": 10817188208,
      "amenity": "fast_food",
      "cuisine": "sandwich;bakery",
      "takeaway": "yes",
      "addr_state": "TN",
      "addr_city": "Madison",
      "addr_postcode": "37215",
      "addr_street": "Gallatin Pike",
      "addr_housenumber": "1799"
    },
    {
      "id": 180086,
      "geometry": "POINT (-86.364588 35.848652)",
      "poi_name": "Twisted Taco",
      "osm_id": 10790464670,
      "amenity": "fast_food",
      "cuisine": "mexican"
    },
    {
      "id": 180908,
      "geometry": "POINT (-86.670278 36.129055)",
      "poi_name": "Shake Shack",
      "osm_id": 10822954784,
      "amenity": "fast_food",
      "cuisine": "burger",
      "takeaway": "yes",
      "outdoor_seating": "no"
    },
    {
      "id": 180909,
      "geometry": "POINT (-86.670232 36.12895)",
      "poi_name": "Pyramids Cafe",
      "osm_id": 10822954791,
      "amenity": "fast_food",
      "cuisine": "sandwich",
      "outdoor_seating": "no"
    },
    {
      "id": 180913,
      "geometry": "POINT (-86.669998 36.128622)",
      "poi_name": "Southern Market",
      "osm_id": 10822954800,
      "amenity": "fast_food",
      "takeaway": "only",
      "outdoor_seating": "no"
    },
    {
      "id": 180916,
      "geometry": "POINT (-86.668079 36.130259)",
      "poi_name": "Burger King",
      "osm_id": 10822955334,
      "amenity": "fast_food",
      "cuisine": "burger",
      "takeaway": "yes"
    },
    {
      "id": 181539,
      "geometry": "POINT (-86.779308 36.161142)",
      "poi_name": "Cava",
      "osm_id": 10856035670,
      "amenity": "fast_food"
    },
    {
      "id": 181541,
      "geometry": "POINT (-86.779093 36.161227)",
      "poi_name": "Shake Shack",
      "osm_id": 10856035680,
      "amenity": "fast_food"
    },
    {
      "id": 181546,
      "geometry": "POINT (-86.779034 36.160849)",
      "poi_name": "Istanbul Sharwma",
      "osm_id": 10856035686,
      "amenity": "fast_food"
    },
    {
      "id": 181423,
      "geometry": "POINT (-86.492009 35.842565)",
      "poi_name": "Teriyaki Madness",
      "osm_id": 10844859406,
      "amenity": "fast_food",
      "cuisine": "japanese",
      "takeaway": "yes"
    },
    {
      "id": 181547,
      "geometry": "POINT (-86.77898 36.160841)",
      "poi_name": "Velvet Taco",
      "osm_id": 10856035687,
      "amenity": "fast_food"
    },
    {
      "id": 181548,
      "geometry": "POINT (-86.779303 36.160822)",
      "poi_name": "Prince's Hot Chicken",
      "osm_id": 10856035691,
      "amenity": "fast_food",
      "cuisine": "chicken"
    },
    {
      "id": 181550,
      "geometry": "POINT (-86.779178 36.16091)",
      "poi_name": "Hans Banh Mi and Pho",
      "osm_id": 10856035693,
      "amenity": "fast_food"
    },
    {
      "id": 181552,
      "geometry": "POINT (-86.779413 36.161279)",
      "poi_name": "Chilangos Tacos",
      "osm_id": 10856035699,
      "amenity": "fast_food"
    },
    {
      "id": 181556,
      "geometry": "POINT (-86.779676 36.161207)",
      "poi_name": "Smokin Chicken",
      "osm_id": 10856074607,
      "amenity": "fast_food",
      "cuisine": "chicken"
    },
    {
      "id": 181560,
      "geometry": "POINT (-86.774539 36.159169)",
      "poi_name": "Jimmy John's",
      "osm_id": 10856074616,
      "amenity": "fast_food"
    },
    {
      "id": 184491,
      "geometry": "POINT (-86.759176 36.081728)",
      "poi_name": "Sub House",
      "osm_id": 7795126544,
      "amenity": "fast_food",
      "cuisine": "sandwich"
    },
    {
      "id": 181870,
      "geometry": "POINT (-86.669737 36.132248)",
      "poi_name": "Chick-Fil-A",
      "osm_id": 10866529589,
      "amenity": "fast_food",
      "outdoor_seating": "no"
    },
    {
      "id": 184494,
      "geometry": "POINT (-86.759209 36.081697)",
      "poi_name": "Donut House",
      "osm_id": 7795141201,
      "amenity": "fast_food",
      "cuisine": "donut"
    },
    {
      "id": 184833,
      "geometry": "POINT (-86.806291 36.149562)",
      "poi_name": "Jamba",
      "osm_id": 7816626837,
      "amenity": "fast_food",
      "cuisine": "juice",
      "takeaway": "yes",
      "addr_state": "TN",
      "addr_city": "Nashville",
      "addr_postcode": "37203",
      "addr_street": "Elliston Place",
      "addr_housenumber": "2314"
    },
    {
      "id": 184834,
      "geometry": "POINT (-86.806044 36.149778)",
      "poi_name": "Dunkin' Donuts",
      "osm_id": 7816626838,
      "amenity": "fast_food",
      "cuisine": "donut;coffee_shop",
      "takeaway": "yes",
      "addr_state": "TN",
      "addr_city": "Nashville",
      "addr_postcode": "37203",
      "addr_street": "Elliston Place",
      "addr_housenumber": "2310"
    },
    {
      "id": 184836,
      "geometry": "POINT (-86.80605 36.14832)",
      "poi_name": "Jimmy John's",
      "osm_id": 7816717012,
      "amenity": "fast_food",
      "cuisine": "sandwich",
      "takeaway": "yes",
      "official_name": "Jimmy John's Gourmet Sandwiches"
    },
    {
      "id": 184837,
      "geometry": "POINT (-86.805941 36.149123)",
      "poi_name": "Jersey Mike's Subs",
      "osm_id": 7816717013,
      "amenity": "fast_food",
      "cuisine": "sandwich",
      "takeaway": "yes"
    },
    {
      "id": 184838,
      "geometry": "POINT (-86.806221 36.148932)",
      "poi_name": "Oscar's Taco Shop",
      "osm_id": 7816717017,
      "amenity": "fast_food",
      "cuisine": "mexican",
      "addr_state": "TN",
      "addr_city": "Nashville",
      "addr_postcode": "37203",
      "addr_street": "Elliston Place",
      "addr_housenumber": "2323"
    },
    {
      "id": 185569,
      "geometry": "POINT (-85.97468 37.136263)",
      "poi_name": "A&W",
      "osm_id": 7866511845,
      "amenity": "fast_food",
      "cuisine": "burger",
      "website": "https://awrestaurants.com/locations/kentucky/cave-city/816-mammoth-cave-street/",
      "phone": "+1-270-773-3883",
      "takeaway": "yes",
      "drive_through": "yes",
      "outdoor_seating": "yes",
      "addr_state": "KY",
      "addr_city": "Cave City",
      "addr_postcode": "42127",
      "addr_street": "Mammoth Cave Street",
      "addr_housenumber": "816"
    },
    {
      "id": 185570,
      "geometry": "POINT (-85.974696 37.13621)",
      "poi_name": "Long John Silver's",
      "osm_id": 7866511846,
      "amenity": "fast_food",
      "cuisine": "seafood",
      "website": "https://www.ljsilvers.com",
      "phone": "+1-270-773-3883",
      "takeaway": "yes",
      "drive_through": "yes",
      "outdoor_seating": "yes",
      "addr_state": "KY",
      "addr_city": "Cave City",
      "addr_postcode": "42127",
      "addr_street": "Mammoth Cave Street",
      "addr_housenumber": "816"
    },
    {
      "id": 186127,
      "geometry": "POINT (-86.764748 36.11237)",
      "poi_name": "Hugh Baby's",
      "osm_id": 7910118529,
      "amenity": "fast_food",
      "cuisine": "burger"
    },
    {
      "id": 186128,
      "geometry": "POINT (-86.764746 36.112618)",
      "poi_name": "Smoothie King",
      "osm_id": 7910118532,
      "amenity": "fast_food",
      "cuisine": "juice",
      "takeaway": "yes"
    },
    {
      "id": 186876,
      "geometry": "POINT (-86.885493 35.996281)",
      "poi_name": "Subway",
      "osm_id": 7951559751,
      "amenity": "fast_food",
      "cuisine": "sandwich",
      "takeaway": "yes",
      "drive_through": "no"
    },
    {
      "id": 186884,
      "geometry": "POINT (-86.919323 36.075466)",
      "poi_name": "Five Guys",
      "osm_id": 7952456535,
      "amenity": "fast_food",
      "cuisine": "burger",
      "opening_hours": "Mo-Su 10:00-22:00",
      "phone": "+1-615-673-0568",
      "takeaway": "yes",
      "official_name": "Five Guys Burgers and Fries",
      "delivery": "yes",
      "addr_state": "TN",
      "addr_city": "Nashville",
      "addr_postcode": "37221",
      "addr_street": "Highway 70S",
      "addr_housenumber": "7026"
    },
    {
      "id": 195030,
      "geometry": "POINT (-86.51317 36.178633)",
      "poi_name": "Panda Express",
      "osm_id": 10292435194,
      "amenity": "fast_food",
      "opening_hours": "Mo-Su 10:30-21:00",
      "website": "https://www.pandaexpress.com/locations/tn/mount-juliet/300-pleasant-grove-rd",
      "phone": "1-615-334-8760",
      "addr_street": "Pleasant Grove Rd\nMount Juliet, Tennessee 37122",
      "addr_housenumber": "300"
    },
    {
      "id": 188262,
      "geometry": "POINT (-86.816053 35.961072)",
      "poi_name": "Krispy Kreme",
      "osm_id": 1133352349,
      "amenity": "fast_food",
      "cuisine": "donut",
      "takeaway": "yes"
    },
    {
      "id": 188265,
      "geometry": "POINT (-86.821613 35.9448)",
      "poi_name": "Genghis Grill",
      "osm_id": 1133359953,
      "amenity": "fast_food",
      "cuisine": "mongolian_grill",
      "website": "https://locations.genghisgrill.com/tn/franklin/genghis-grill-2201.html"
    },
    {
      "id": 188266,
      "geometry": "POINT (-86.820103 35.945873)",
      "poi_name": "Papa John's",
      "osm_id": 1133359958,
      "amenity": "fast_food",
      "cuisine": "pizza",
      "takeaway": "yes"
    },
    {
      "id": 188269,
      "geometry": "POINT (-86.817183 35.951098)",
      "poi_name": "Panera Bread",
      "osm_id": 1133364558,
      "amenity": "fast_food",
      "cuisine": "sandwich",
      "takeaway": "yes"
    },
    {
      "id": 188270,
      "geometry": "POINT (-86.817732 35.956183)",
      "poi_name": "Burger King",
      "osm_id": 1133364560,
      "amenity": "fast_food",
      "cuisine": "burger",
      "takeaway": "yes"
    },
    {
      "id": 188273,
      "geometry": "POINT (-86.818144 35.94894)",
      "poi_name": "Jersey Mike's Subs",
      "osm_id": 1133371781,
      "amenity": "fast_food",
      "cuisine": "sandwich",
      "takeaway": "yes"
    },
    {
      "id": 188274,
      "geometry": "POINT (-86.824642 35.932956)",
      "poi_name": "Little Caesars",
      "osm_id": 1133373542,
      "amenity": "fast_food",
      "cuisine": "pizza",
      "website": "https://littlecaesars.com/en-us/store/7882/",
      "takeaway": "yes"
    },
    {
      "id": 188276,
      "geometry": "POINT (-86.82469 35.932748)",
      "poi_name": "Cheeseburger Charlies",
      "osm_id": 1133373544,
      "amenity": "fast_food"
    },
    {
      "id": 188277,
      "geometry": "POINT (-86.820772 35.945591)",
      "poi_name": "Five Guys",
      "osm_id": 1133373545,
      "amenity": "fast_food",
      "cuisine": "burger",
      "takeaway": "yes",
      "official_name": "Five Guys Burgers and Fries"
    },
    {
      "id": 190754,
      "geometry": "POINT (-87.030455 36.40026)",
      "poi_name": "Wendy's",
      "osm_id": 1314685228,
      "amenity": "fast_food"
    },
    {
      "id": 190755,
      "geometry": "POINT (-87.030181 36.400415)",
      "poi_name": "Dunkin' Donuts",
      "osm_id": 1314685274,
      "amenity": "fast_food"
    },
    {
      "id": 197190,
      "geometry": "POINT (-85.631512 36.139974)",
      "poi_name": "Taco Bell",
      "osm_id": 10616737090,
      "amenity": "fast_food",
      "cuisine": "tex-mex",
      "website": "https://locations.tacobell.com/tn/baxter/125-fast-lane.html",
      "takeaway": "yes",
      "addr_state": "TN",
      "addr_city": "Baxter",
      "addr_postcode": "38544",
      "addr_street": "Fast Lane",
      "addr_housenumber": "125"
    },
    {
      "id": 197092,
      "geometry": "POINT (-86.922266 36.075332)",
      "poi_name": "Jersey Mike's Subs",
      "osm_id": 10612127275,
      "amenity": "fast_food",
      "cuisine": "sandwich",
      "opening_hours": "Closed for Renovations",
      "website": "https://www.jerseymikes.com/4010/nashville-tn",
      "takeaway": "yes",
      "drive_through": "no",
      "addr_state": "TN",
      "addr_city": "Nashville",
      "addr_postcode": "37221",
      "addr_street": "Highway 70 South",
      "addr_housenumber": "7114"
    },
    {
      "id": 202284,
      "geometry": "POINT (-86.752102 36.145011)",
      "poi_name": "Subway",
      "osm_id": 7018148197,
      "amenity": "fast_food",
      "cuisine": "sandwich",
      "takeaway": "yes"
    },
    {
      "id": 201768,
      "geometry": "POINT (-86.404284 35.846328)",
      "poi_name": "BB Cutie",
      "osm_id": 657168729,
      "amenity": "fast_food"
    },
    {
      "id": 201769,
      "geometry": "POINT (-86.405013 35.846198)",
      "poi_name": "Fazoli's",
      "osm_id": 657172906,
      "amenity": "fast_food",
      "cuisine": "italian",
      "takeaway": "yes"
    },
    {
      "id": 201770,
      "geometry": "POINT (-86.405668 35.84615)",
      "poi_name": "Zaxby's",
      "osm_id": 657173995,
      "amenity": "fast_food",
      "cuisine": "chicken",
      "takeaway": "yes",
      "official_name": "Zaxby's Chicken Fingers & Buffalo Wings"
    },
    {
      "id": 201771,
      "geometry": "POINT (-86.395175 35.818886)",
      "poi_name": "Wendy's",
      "osm_id": 657371716,
      "amenity": "fast_food",
      "cuisine": "burger",
      "takeaway": "yes",
      "drive_through": "yes"
    },
    {
      "id": 199308,
      "geometry": "POINT (-86.77798 36.127671)",
      "poi_name": "Captain D's",
      "osm_id": 954828013,
      "amenity": "fast_food",
      "cuisine": "seafood",
      "takeaway": "yes"
    },
    {
      "id": 202040,
      "geometry": "POINT (-86.76784 36.11266)",
      "poi_name": "Jersey Mike's Subs",
      "osm_id": 673856506,
      "amenity": "fast_food",
      "cuisine": "sandwich",
      "takeaway": "yes"
    },
    {
      "id": 202310,
      "geometry": "POINT (-86.715017 36.046891)",
      "poi_name": "Subway",
      "osm_id": 7020596620,
      "amenity": "fast_food",
      "cuisine": "sandwich",
      "takeaway": "yes"
    },
    {
      "id": 202314,
      "geometry": "POINT (-86.715026 36.046998)",
      "poi_name": "Little Caesars",
      "osm_id": 7020596631,
      "amenity": "fast_food",
      "cuisine": "pizza",
      "website": "https://littlecaesars.com/en-us/store/10178/",
      "takeaway": "yes"
    },
    {
      "id": 205047,
      "geometry": "POINT (-86.80174 36.142599)",
      "poi_name": "Au Bon Pain",
      "osm_id": 7155000036,
      "amenity": "fast_food",
      "cuisine": "sandwich",
      "takeaway": "yes"
    },
    {
      "id": 203958,
      "geometry": "POINT (-86.664108 36.167447)",
      "poi_name": "Papa John's",
      "osm_id": 7107739433,
      "amenity": "fast_food",
      "cuisine": "pizza",
      "takeaway": "yes"
    },
    {
      "id": 204415,
      "geometry": "POINT (-86.867177 36.318632)",
      "poi_name": "Dairy Queen",
      "osm_id": 7125381687,
      "amenity": "fast_food",
      "cuisine": "ice_cream;burger",
      "takeaway": "yes"
    },
    {
      "id": 209706,
      "geometry": "POINT (-85.9313 36.996371)",
      "poi_name": "Hardee's",
      "osm_id": 5053646221,
      "amenity": "fast_food",
      "cuisine": "burger",
      "opening_hours": "Mo-Th 05:00-22:00; Fr-Sa 05:00-23:00; Su 06:00-22:00",
      "website": "https://locations.hardees.com/ky/glasgow/240-s-l-roger-wells-blvd",
      "phone": "+12706513756",
      "takeaway": "yes",
      "addr_postcode": "42141",
      "addr_street": "South L Rogers Wells Boulevard",
      "addr_housenumber": "240"
    },
    {
      "id": 209639,
      "geometry": "POINT (-86.43032 35.846532)",
      "poi_name": "Jack in the Box",
      "osm_id": 5047062293,
      "amenity": "fast_food",
      "cuisine": "burger",
      "takeaway": "yes"
    },
    {
      "id": 211547,
      "geometry": "POINT (-86.78997 36.030123)",
      "poi_name": "BurgerFi",
      "osm_id": 5162287559,
      "amenity": "fast_food",
      "cuisine": "burger",
      "phone": "(629) 888-4528",
      "takeaway": "yes",
      "addr_city": "Brentwood",
      "addr_postcode": "37027",
      "addr_street": "Executive Center Dr.",
      "addr_housenumber": "7010"
    },
    {
      "id": 215678,
      "geometry": "POINT (-87.395802 36.555353)",
      "poi_name": "Mercado Chapalita",
      "osm_id": 5309370218,
      "amenity": "fast_food",
      "cuisine": "mexican",
      "wheelchair": "yes",
      "opening_hours": "09:00-21:00",
      "shop": "supermarket",
      "internet_access": "yes",
      "phone": "+1 931-542-2108",
      "takeaway": "yes",
      "delivery": "no",
      "addr_state": "TN",
      "addr_city": "Clarksville",
      "addr_postcode": "37042",
      "addr_street": "Fort Campbell Boulevard",
      "addr_housenumber": "1191D"
    },
    {
      "id": 213583,
      "geometry": "POINT (-86.414586 36.930632)",
      "poi_name": "Domino's",
      "osm_id": 5255007657,
      "amenity": "fast_food",
      "cuisine": "pizza",
      "takeaway": "yes"
    },
    {
      "id": 215679,
      "geometry": "POINT (-87.395535 36.555637)",
      "poi_name": "Little Saigon",
      "osm_id": 5309370220,
      "amenity": "fast_food",
      "cuisine": "vietnamese",
      "wheelchair": "limited",
      "opening_hours": "Mo-Sa10:00-20:00",
      "internet_access": "no",
      "phone": "+1 931-647-1773",
      "takeaway": "yes",
      "delivery": "no",
      "addr_state": "TN",
      "addr_city": "Clarksville",
      "addr_postcode": "37042",
      "addr_street": "Fort Campbell Boulevard",
      "addr_housenumber": "1191B"
    },
    {
      "id": 220440,
      "geometry": "POINT (-86.686018 35.995848)",
      "poi_name": "Kouzina Cafe",
      "osm_id": 9373895925,
      "amenity": "fast_food",
      "cuisine": "greek",
      "opening_hours": "Mo-Su 10:30-21:00",
      "phone": "+1 615-819-2347",
      "drive_through": "no",
      "addr_state": "TN",
      "addr_city": "Brentwood",
      "addr_postcode": "37027",
      "addr_street": "Southpoint Pkwy",
      "addr_housenumber": "7115"
    },
    {
      "id": 216489,
      "geometry": "POINT (-87.319584 36.624479)",
      "poi_name": "Little Caesars",
      "osm_id": 9173605692,
      "amenity": "fast_food",
      "cuisine": "pizza",
      "website": "https://littlecaesars.com/en-us/store/8273/",
      "takeaway": "yes"
    },
    {
      "id": 216492,
      "geometry": "POINT (-87.32312 36.625106)",
      "poi_name": "Wendy's",
      "osm_id": 9173660323,
      "amenity": "fast_food",
      "cuisine": "burger",
      "takeaway": "yes"
    },
    {
      "id": 216493,
      "geometry": "POINT (-87.317623 36.623262)",
      "poi_name": "Domino's",
      "osm_id": 9173660340,
      "amenity": "fast_food",
      "cuisine": "pizza",
      "takeaway": "yes"
    },
    {
      "id": 216494,
      "geometry": "POINT (-87.31906 36.624363)",
      "poi_name": "Taco Bell",
      "osm_id": 9173660347,
      "amenity": "fast_food",
      "cuisine": "tex-mex",
      "website": "https://locations.tacobell.com/tn/clarksville/1720-tiny-town-road.html",
      "takeaway": "yes"
    },
    {
      "id": 216495,
      "geometry": "POINT (-87.319717 36.625676)",
      "poi_name": "Subway",
      "osm_id": 9173660349,
      "amenity": "fast_food",
      "cuisine": "sandwich",
      "takeaway": "yes"
    },
    {
      "id": 216496,
      "geometry": "POINT (-87.319913 36.625656)",
      "poi_name": "Dunkin'",
      "osm_id": 9173660350,
      "amenity": "fast_food",
      "cuisine": "donut;coffee_shop",
      "takeaway": "yes"
    },
    {
      "id": 217466,
      "geometry": "POINT (-87.183521 36.104847)",
      "poi_name": "Fat Tiger Korean BBQ & More",
      "osm_id": 9223800739,
      "amenity": "fast_food",
      "cuisine": "barbecue;korean",
      "addr_state": "TN",
      "addr_city": "White Bluff",
      "addr_postcode": "37187",
      "addr_street": "Highway 70",
      "addr_housenumber": "5122"
    },
    {
      "id": 217562,
      "geometry": "POINT (-86.514381 36.231424)",
      "poi_name": "McDonald's",
      "osm_id": 9231289567,
      "amenity": "fast_food",
      "cuisine": "burger",
      "website": "https://www.mcdonalds.com/us/en-us/location/tn/mt-juliet/11279-lebanon-rd/19398.html",
      "takeaway": "yes"
    },
    {
      "id": 217576,
      "geometry": "POINT (-86.410267 36.188524)",
      "poi_name": "McDonald's",
      "osm_id": 9231415860,
      "amenity": "fast_food",
      "cuisine": "burger",
      "website": "https://www.mcdonalds.com/us/en-us/location/tn/lebanon/320-hwy-109-n/23398.html",
      "takeaway": "yes"
    },
    {
      "id": 217686,
      "geometry": "POINT (-86.897102 35.642788)",
      "poi_name": "Burger King",
      "osm_id": 9238431658,
      "amenity": "fast_food",
      "cuisine": "burger",
      "takeaway": "yes",
      "addr_state": "TN",
      "addr_city": "Columbia",
      "addr_street": "Bear Creek Pike",
      "addr_housenumber": "1564"
    },
    {
      "id": 217957,
      "geometry": "POINT (-86.60068 36.216243)",
      "poi_name": "Subway",
      "osm_id": 9251146198,
      "amenity": "fast_food",
      "cuisine": "sandwich",
      "takeaway": "yes"
    },
    {
      "id": 223101,
      "geometry": "POINT (-86.655216 36.256194)",
      "poi_name": "Hardee's",
      "osm_id": 11047047401,
      "amenity": "fast_food",
      "cuisine": "burger",
      "website": "https://locations.hardees.com/tn/old-hickory/1436-robinson-road",
      "takeaway": "yes",
      "addr_state": "TN",
      "addr_city": "Old Hickory",
      "addr_postcode": "37138",
      "addr_street": "Robinson Road",
      "addr_housenumber": "1436"
    },
    {
      "id": 220583,
      "geometry": "POINT (-85.611782 36.979822)",
      "poi_name": "Subway",
      "osm_id": 9378951495,
      "amenity": "fast_food",
      "cuisine": "sandwich",
      "takeaway": "yes"
    },
    {
      "id": 220512,
      "geometry": "POINT (-86.947179 36.078951)",
      "poi_name": "Chick-fil-A",
      "osm_id": 9376428748,
      "amenity": "fast_food",
      "cuisine": "chicken",
      "website": "https://www.chick-fil-a.com/locations/tn/one-bellevue",
      "phone": "+1-615-994-1711",
      "takeaway": "yes",
      "addr_state": "TN",
      "addr_city": "Nashville",
      "addr_postcode": "37221",
      "addr_street": "Highway 70 South",
      "addr_housenumber": "7606"
    },
    {
      "id": 223102,
      "geometry": "POINT (-86.656424 36.257026)",
      "poi_name": "Sonic",
      "osm_id": 11047047402,
      "amenity": "fast_food",
      "cuisine": "burger",
      "takeaway": "yes",
      "addr_state": "TN",
      "addr_city": "Old Hickory",
      "addr_postcode": "37138",
      "addr_street": "Robinson Road",
      "addr_housenumber": "1410"
    },
    {
      "id": 223106,
      "geometry": "POINT (-86.657638 36.257898)",
      "poi_name": "McDonald's",
      "osm_id": 11047067510,
      "amenity": "fast_food",
      "cuisine": "burger",
      "website": "https://www.mcdonalds.com/us/en-us/location/tn/old-hickory/1252-robinson-rd/13956.html",
      "takeaway": "yes",
      "addr_state": "TN",
      "addr_city": "Old Hickory",
      "addr_postcode": "37138",
      "addr_street": "Robinson Road",
      "addr_housenumber": "1252"
    },
    {
      "id": 224944,
      "geometry": "POINT (-86.923867 36.073223)",
      "poi_name": "Domino's",
      "osm_id": 11105034796,
      "amenity": "fast_food",
      "cuisine": "pizza",
      "opening_hours": "Su-Th 10:00-24:00; Fr 10:00-01:00; Sa 10:00-01:00",
      "website": "https://pizza.dominos.com/tennessee/nashville/7087-old-harding-pike/",
      "phone": "+1-615-646-3000",
      "takeaway": "yes",
      "drive_through": "no",
      "addr_state": "TN",
      "addr_city": "Nashville",
      "addr_postcode": "37221",
      "addr_street": "Old Harding Pike",
      "addr_housenumber": "7087"
    },
    {
      "id": 226922,
      "geometry": "POINT (-86.491327 35.842605)",
      "poi_name": "Atomic Wings",
      "osm_id": 11173204099,
      "amenity": "fast_food",
      "cuisine": "wings"
    },
    {
      "id": 225119,
      "geometry": "POINT (-87.673453 36.319436)",
      "poi_name": "Subway",
      "osm_id": 11112082647,
      "amenity": "fast_food",
      "cuisine": "sandwich",
      "takeaway": "yes"
    },
    {
      "id": 225120,
      "geometry": "POINT (-87.200471 36.644791)",
      "poi_name": "Subway",
      "osm_id": 11112082930,
      "amenity": "fast_food",
      "cuisine": "sandwich",
      "takeaway": "yes"
    },
    {
      "id": 232805,
      "geometry": "POINT (-87.286475 36.597378)",
      "poi_name": "Subway",
      "osm_id": 4543933408,
      "amenity": "fast_food",
      "cuisine": "sandwich",
      "wheelchair": "yes",
      "opening_hours": "07:00-21:00; Th-Fr 07:00-23:00",
      "internet_access": "no",
      "takeaway": "yes",
      "addr_state": "TN",
      "addr_city": "Clarksville",
      "addr_postcode": "37040",
      "addr_street": "Wilma Rudolph Boulevard",
      "addr_housenumber": "3092"
    },
    {
      "id": 230980,
      "geometry": "POINT (-87.391825 36.585322)",
      "poi_name": "Godfather's Pizza",
      "osm_id": 4449935335,
      "amenity": "fast_food",
      "cuisine": "pizza",
      "wheelchair": "yes",
      "opening_hours": "10:00-2:00",
      "operator": "Minit Mart",
      "internet_access": "no",
      "phone": "+1 931-221-0235",
      "takeaway": "only"
    },
    {
      "id": 230981,
      "geometry": "POINT (-87.391839 36.585284)",
      "poi_name": "O'Deli's",
      "osm_id": 4449935344,
      "amenity": "fast_food",
      "cuisine": "sandwich",
      "wheelchair": "yes",
      "opening_hours": "24/7",
      "operator": "Minit Mart",
      "internet_access": "no",
      "phone": "+1 931-648-0809",
      "takeaway": "only"
    },
    {
      "id": 228944,
      "geometry": "POINT (-86.209861 37.044006)",
      "poi_name": "Schlotzsky's",
      "osm_id": 4360558221,
      "amenity": "fast_food",
      "cuisine": "sandwich",
      "phone": "+1-270-563-5250",
      "takeaway": "yes",
      "addr_state": "KY",
      "addr_city": "Smiths Grove",
      "addr_postcode": "42171",
      "addr_street": "South Main Street",
      "addr_housenumber": "619"
    },
    {
      "id": 231156,
      "geometry": "POINT (-87.129016 35.971465)",
      "poi_name": "Dunkin' Donuts",
      "osm_id": 4458126749,
      "amenity": "fast_food",
      "cuisine": "donut;coffee_shop",
      "takeaway": "yes"
    },
    {
      "id": 241635,
      "geometry": "POINT (-87.318303 36.626033)",
      "poi_name": "Burger King",
      "osm_id": 6033192533,
      "amenity": "fast_food",
      "cuisine": "burger",
      "takeaway": "yes"
    },
    {
      "id": 234611,
      "geometry": "POINT (-86.738713 36.203925)",
      "poi_name": "Checkers",
      "osm_id": 4630328132,
      "amenity": "fast_food",
      "cuisine": "burger",
      "takeaway": "yes"
    },
    {
      "id": 234612,
      "geometry": "POINT (-86.738187 36.204639)",
      "poi_name": "Wendy's",
      "osm_id": 4630328133,
      "amenity": "fast_food",
      "cuisine": "burger",
      "takeaway": "yes",
      "drive_through": "yes"
    },
    {
      "id": 233011,
      "geometry": "POINT (-86.78049 36.206347)",
      "poi_name": "Fat Mo's Burgers",
      "osm_id": 4553662614,
      "amenity": "fast_food",
      "cuisine": "burger",
      "addr_state": "TN",
      "addr_city": "Nashville",
      "addr_postcode": "37207",
      "addr_street": "West Trinity Lane",
      "addr_housenumber": "310"
    },
    {
      "id": 233942,
      "geometry": "POINT (-87.317211 36.624862)",
      "poi_name": "McDonald's",
      "osm_id": 4592965992,
      "amenity": "fast_food",
      "cuisine": "burger",
      "website": "https://www.mcdonalds.com/us/en-us/location/tn/clarksville/3891-trenton-rd/36073.html",
      "takeaway": "yes"
    },
    {
      "id": 234519,
      "geometry": "POINT (-87.314655 36.515077)",
      "poi_name": "Five Guys",
      "osm_id": 4625416342,
      "amenity": "fast_food"
    },
    {
      "id": 241636,
      "geometry": "POINT (-87.316964 36.626529)",
      "poi_name": "Sonic",
      "osm_id": 6033192535,
      "amenity": "fast_food",
      "cuisine": "burger",
      "takeaway": "yes"
    },
    {
      "id": 243611,
      "geometry": "POINT (-86.700012 35.612272)",
      "poi_name": "Sonic",
      "osm_id": 7662590716,
      "amenity": "fast_food",
      "cuisine": "burger",
      "takeaway": "yes"
    },
    {
      "id": 243080,
      "geometry": "POINT (-86.938274 35.744034)",
      "poi_name": "Five Guys",
      "osm_id": 7623170932,
      "amenity": "fast_food",
      "cuisine": "burger",
      "takeaway": "yes",
      "official_name": "Five Guys Burgers and Fries"
    },
    {
      "id": 243124,
      "geometry": "POINT (-85.957031 36.265892)",
      "poi_name": "Subway",
      "osm_id": 7626568215,
      "amenity": "fast_food",
      "cuisine": "sandwich",
      "takeaway": "yes"
    },
    {
      "id": 243612,
      "geometry": "POINT (-86.700059 35.611761)",
      "poi_name": "Domino's",
      "osm_id": 7662590747,
      "amenity": "fast_food",
      "cuisine": "pizza",
      "takeaway": "yes"
    },
    {
      "id": 244195,
      "geometry": "POINT (-87.375978 36.076471)",
      "poi_name": "McDonald's",
      "osm_id": 7707601065,
      "amenity": "fast_food",
      "cuisine": "burger",
      "website": "https://www.mcdonalds.com/us/en-us/location/tn/dickson/111-mathis-dr/3858.html",
      "takeaway": "yes"
    },
    {
      "id": 244104,
      "geometry": "POINT (-86.813427 36.10595)",
      "poi_name": "Fox's Donut Den",
      "osm_id": 7700670292,
      "amenity": "fast_food",
      "cuisine": "donut"
    },
    {
      "id": 244196,
      "geometry": "POINT (-87.377267 36.074548)",
      "poi_name": "Burger King",
      "osm_id": 7707601068,
      "amenity": "fast_food",
      "cuisine": "burger",
      "takeaway": "yes"
    },
    {
      "id": 244197,
      "geometry": "POINT (-87.37617 36.075959)",
      "poi_name": "Cook Out",
      "osm_id": 7707601078,
      "amenity": "fast_food",
      "cuisine": "american",
      "takeaway": "yes"
    },
    {
      "id": 244199,
      "geometry": "POINT (-87.376847 36.074981)",
      "poi_name": "Dunkin'",
      "osm_id": 7707699598,
      "amenity": "fast_food",
      "cuisine": "donut;coffee_shop",
      "takeaway": "yes"
    },
    {
      "id": 244203,
      "geometry": "POINT (-87.375742 36.076762)",
      "poi_name": "Subway",
      "osm_id": 7707723045,
      "amenity": "fast_food",
      "cuisine": "sandwich",
      "takeaway": "yes"
    },
    {
      "id": 244205,
      "geometry": "POINT (-87.377708 36.073877)",
      "poi_name": "Little Caesars",
      "osm_id": 7707723056,
      "amenity": "fast_food",
      "cuisine": "pizza",
      "website": "https://littlecaesars.com/en-us/store/10033/",
      "takeaway": "yes"
    },
    {
      "id": 244618,
      "geometry": "POINT (-87.374722 36.076304)",
      "poi_name": "Taco Bell",
      "osm_id": 7732630597,
      "amenity": "fast_food",
      "cuisine": "tex-mex",
      "website": "https://locations.tacobell.com/tn/dickson/114-mathis-drive.html",
      "takeaway": "yes"
    }
  ],
  "answer_type": "name",
  "question_entities": {
    "[1]": {
      "main_category": "amenity",
      "sub_category": "fast food restaurant"
    },
    "[2]": {
      "distance": 110000,
      "text": "110 kilometers"
    },
    "[3]": {
      "main_category": "tourism",
      "sub_category": "museum",
      "display_name": "White House Inn Museum, TN",
      "geo_wkt": "POINT (-86.661079 36.46883)",
      "poi": {
        "id": 17892,
        "geometry": "POINT (-86.661079 36.46883)",
        "poi_name": "White House Inn Museum",
        "osm_id": 368158237,
        "tourism": "museum",
        "website": "https://www.whitehousetn.gov/",
        "addr_state": "TN"
      }
    }
  },
  "id": 897,
  "type": "range+name"
}