{
  "question": "I'm interested in finding a hospital that's 190 kilometers from Camp Cedar, Casco, ME, any recommendations?",
  "sql": "SELECT * FROM pois\nWHERE ST_DWithin(pois.geometry, ST_GeomFromText('POINT (-70.502936 43.978277)',4326)::geography, 190000)\nAND amenity = 'hospital';\n",
  "answers": [
    {
      "id": 72366,
      "geometry": "POINT (-71.104578 42.820057)",
      "poi_name": "Plaistow Emergency Room",
      "osm_id": 11423619777,
      "amenity": "hospital",
      "operator": "Parkland Medical Center",
      "emergency": "only",
      "addr_state": "NH",
      "addr_city": "Plaistow",
      "addr_street": "Plaistow Road",
      "addr_housenumber": "26"
    },
    {
      "id": 106560,
      "geometry": "POINT (-71.075567 42.333425)",
      "poi_name": "Commonwealth Community Care",
      "osm_id": 8688824259,
      "amenity": "hospital",
      "healthcare": "hospital"
    },
    {
      "id": 167533,
      "geometry": "POINT (-71.153811 42.871718)",
      "poi_name": "Hampstead Hospital",
      "osm_id": 357735225,
      "amenity": "hospital",
      "operator": "Wellpath Recovery Solutions",
      "website": "http://www.hampsteadhospital.com/",
      "phone": "+1 603 329 5311",
      "healthcare": "hospital",
      "emergency": "no",
      "addr_state": "NH",
      "addr_city": "Hampstead",
      "addr_postcode": "03841",
      "addr_street": "East Road",
      "addr_housenumber": "218"
    },
    {
      "id": 167535,
      "geometry": "POINT (-71.87311 42.972999)",
      "poi_name": "Crotched Mountain Rehabilitation Center",
      "osm_id": 357737024,
      "amenity": "hospital",
      "website": "https://www.crotchedmountain.org/",
      "phone": "+1 603 547 3311",
      "emergency": "no",
      "wikidata": "Q5188974",
      "addr_city": "Greenfield",
      "addr_postcode": "03047",
      "addr_street": "Verney Drive",
      "addr_housenumber": "1"
    },
    {
      "id": 168173,
      "geometry": "POINT (-72.56082 44.220541)",
      "poi_name": "Central Vermont Hospital",
      "osm_id": 366666875,
      "amenity": "hospital",
      "healthcare": "hospital",
      "emergency": "yes",
      "addr_state": "VT"
    },
    {
      "id": 167592,
      "geometry": "POINT (-68.741553 44.817885)",
      "poi_name": "Dorothea Dix Psychiatric Center",
      "osm_id": 358211277,
      "amenity": "hospital",
      "building": "hospital",
      "website": "https://www.maine.gov/dhhs/DDPC/",
      "phone": "+1-207-941-4000",
      "healthcare": "hospital",
      "emergency": "no",
      "wikidata": "Q22966878",
      "addr_state": "ME",
      "addr_city": "Bangor",
      "addr_postcode": "04401",
      "addr_street": "State Street",
      "addr_housenumber": "656"
    },
    {
      "id": 167594,
      "geometry": "POINT (-69.890184 43.906327)",
      "poi_name": "Mid Coast Hospital",
      "osm_id": 358229036,
      "amenity": "hospital",
      "wheelchair": "yes",
      "website": "https://www.midcoasthealth.com/",
      "phone": "+1-207-373-6000",
      "healthcare": "hospital",
      "emergency": "yes",
      "wikidata": "Q6840946",
      "addr_state": "ME",
      "addr_city": "Brunswick",
      "addr_postcode": "04011",
      "addr_street": "Medical Center Drive",
      "addr_housenumber": "123"
    },
    {
      "id": 167602,
      "geometry": "POINT (-71.218947 42.608981)",
      "poi_name": "Tewksbury State Hospital",
      "osm_id": 358264814,
      "amenity": "hospital",
      "healthcare": "hospital",
      "emergency": "no"
    },
    {
      "id": 182426,
      "geometry": "POINT (-70.344122 43.653476)",
      "poi_name": "Spring Harbor Hospital",
      "osm_id": 10892095081,
      "amenity": "hospital",
      "website": "https://www.mainehealth.org/spring-harbor-hospital",
      "phone": "+1 207 761 2200",
      "healthcare": "hospital",
      "wikidata": "Q48976488"
    },
    {
      "id": 205861,
      "geometry": "POINT (-68.741423 44.847061)",
      "poi_name": "Downeast Surgery Center",
      "osm_id": 7185034853,
      "amenity": "hospital",
      "healthcare": "hospital",
      "addr_state": "ME",
      "addr_city": "Bangor",
      "addr_postcode": "04401",
      "addr_street": "Ridgewood Drive",
      "addr_housenumber": "73"
    },
    {
      "id": 182449,
      "geometry": "POINT (-71.61501 42.530352)",
      "poi_name": "Taravista Behavioral Health Center",
      "osm_id": 10892299835,
      "amenity": "hospital",
      "website": "https://www.taravista.care",
      "phone": "+1 978 615 5200",
      "healthcare": "hospital",
      "addr_state": "MA",
      "addr_city": "Ayer",
      "addr_postcode": "01434",
      "addr_street": "Patton Road",
      "addr_housenumber": "85"
    },
    {
      "id": 182454,
      "geometry": "POINT (-68.433591 44.590202)",
      "poi_name": "Kidspeace National Centers Of New England",
      "osm_id": 10892337200,
      "amenity": "hospital",
      "website": "https://www.kidspeace.org",
      "phone": "+1 207 667 0909",
      "healthcare": "hospital",
      "addr_state": "ME",
      "addr_city": "Ellsworth",
      "addr_postcode": "04605",
      "addr_street": "Kids Peace Way",
      "addr_housenumber": "16"
    },
    {
      "id": 182455,
      "geometry": "POINT (-71.366758 42.645438)",
      "poi_name": "Encompass Health Rehab Hospital Of New England At Lowell",
      "osm_id": 10892341723,
      "amenity": "hospital",
      "website": "https://encompasshealth.com/locations/newenglandrehab-lowell",
      "phone": "+1 978 935 5050",
      "healthcare": "rehabilitation",
      "addr_state": "MA",
      "addr_city": "Lowell",
      "addr_postcode": "01854",
      "addr_street": "Varnum Avenue",
      "addr_housenumber": "1071"
    },
    {
      "id": 182456,
      "geometry": "POINT (-70.887236 42.560987)",
      "poi_name": "Encompass Health Rehab Hospital Of New England At Beverly",
      "osm_id": 10892359129,
      "amenity": "hospital",
      "operator": "Encompass Health",
      "website": "https://encompasshealth.com/locations/newenglandrehab-beverly",
      "phone": "+1 978 935 5050",
      "healthcare": "hospital"
    },
    {
      "id": 188947,
      "geometry": "POINT (-71.21808 42.606947)",
      "poi_name": "Tewksbury Hospital",
      "osm_id": 257489501,
      "amenity": "hospital",
      "emergency": "no",
      "wikidata": "Q7707206",
      "addr_state": "MA",
      "addr_city": "Tewksbury",
      "addr_street": "East Street",
      "addr_housenumber": "365"
    },
    {
      "id": 188948,
      "geometry": "POINT (-71.070154 42.362739)",
      "poi_name": "Massachusetts Eye and Ear",
      "osm_id": 257489564,
      "amenity": "hospital",
      "opening_hours": "24/7",
      "website": "https://www.masseyeandear.org/",
      "phone": "+1 617 523 7900",
      "healthcare": "hospital",
      "emergency": "yes",
      "wikidata": "Q6784269",
      "addr_city": "Boston",
      "addr_postcode": "02114",
      "addr_street": "Charles Street",
      "addr_housenumber": "243"
    },
    {
      "id": 188950,
      "geometry": "POINT (-71.063996 42.349807)",
      "poi_name": "Floating Hospital for Children",
      "osm_id": 257489648,
      "amenity": "hospital",
      "opening_hours": "24/7",
      "operator": "Tufts Medical Center",
      "website": "https://www.floatinghospital.org/",
      "phone": "+1 617 636 8100",
      "healthcare": "hospital",
      "emergency": "yes",
      "wikidata": "Q22073805",
      "addr_city": "Boston",
      "addr_postcode": "02111",
      "addr_street": "Washington Street",
      "addr_housenumber": "755"
    },
    {
      "id": 188951,
      "geometry": "POINT (-70.906447 42.511844)",
      "poi_name": "MassGeneral for Children at North Shore Medical Center",
      "osm_id": 257489655,
      "amenity": "hospital",
      "opening_hours": "24/7",
      "website": "https://nsmc.partners.org/locations/nsmc_north_shore_childrens",
      "phone": "+1 978 745 2100",
      "healthcare": "hospital",
      "emergency": "yes",
      "addr_state": "MA",
      "addr_city": "Salem",
      "addr_postcode": "01970",
      "addr_street": "Highland Avenue",
      "addr_housenumber": "57"
    },
    {
      "id": 188952,
      "geometry": "POINT (-71.344973 42.646132)",
      "poi_name": "Solomon Mental Health Center",
      "osm_id": 257489657,
      "amenity": "hospital",
      "emergency": "no",
      "addr_city": "Lowell",
      "addr_street": "Varnum Avenue",
      "addr_housenumber": "391"
    },
    {
      "id": 188955,
      "geometry": "POINT (-71.070726 42.336038)",
      "poi_name": "Dr. Solomon Carter Fuller Mental Health Center",
      "osm_id": 257578331,
      "amenity": "hospital",
      "website": "https://www.mass.gov/locations/metro-boston-mental-health-unit-at-dr-solomon-carter-fuller-mental-health-center",
      "phone": "+1 617-626-8857",
      "healthcare": "hospital",
      "addr_state": "MA",
      "addr_city": "Boston",
      "addr_postcode": "02118",
      "addr_street": "East Newton Street",
      "addr_housenumber": "85"
    },
    {
      "id": 229977,
      "geometry": "POINT (-69.770083 44.299826)",
      "poi_name": "Riverview Psychiatric Center",
      "osm_id": 4408735964,
      "amenity": "hospital",
      "website": "https://www.maine.gov/dhhs/riverview/",
      "phone": "+1-207-624-3900",
      "healthcare": "hospital",
      "emergency": "no",
      "wikidata": "Q7338768",
      "addr_state": "ME",
      "addr_city": "Augusta",
      "addr_postcode": "04330",
      "addr_street": "Arsenal Street",
      "addr_housenumber": "250"
    }
  ],
  "answer_type": "name",
  "question_entities": {
    "[1]": {
      "main_category": "amenity",
      "sub_category": "hospital"
    },
    "[2]": {
      "distance": 190000,
      "text": "190 kilometers"
    },
    "[3]": {
      "main_category": "tourism",
      "sub_category": "attraction",
      "display_name": "Camp Cedar, Casco, ME",
      "geo_wkt": "POINT (-70.502936 43.978277)",
      "poi": {
        "id": 22628,
        "geometry": "POINT (-70.502936 43.978277)",
        "poi_name": "Camp Cedar",
        "osm_id": 7183097373,
        "tourism": "attraction",
        "addr_state": "ME",
        "addr_city": "Casco",
        "addr_postcode": "04015",
        "addr_street": "Camp Cedar Road",
        "addr_housenumber": "112"
      }
    }
  },
  "id": 850,
  "type": "range+name"
}