{
  "question": "Within a radius of 80 kilometers, what caf\u00e9 is available located en route to Historic Cement Factory Ruins, American Canyon, CA from Steinhart Aquarium, CA?",
  "sql": "WITH\n    angle AS (SELECT degrees(ST_Azimuth(ST_GeomFromText('POINT (-122.465976 37.769485)',4326)::geography, ST_GeomFromText('POINT (-122.247986 38.179376)',4326)::geography)) AS value)\nSELECT * FROM pois,angle\nWHERE amenity = 'cafe'\nAND ST_DWithin(pois.geometry, ST_GeomFromText('POINT (-122.465976 37.769485)',4326)::geography, 80000)\nAND (degrees(ST_Azimuth(ST_GeomFromText('POINT (-122.465976 37.769485)',4326)::geography, pois.geometry)) BETWEEN angle.value - 22.5 AND angle.value + 22.5);\n",
  "answers": [
    {
      "id": 27773,
      "geometry": "POINT (-122.461384 37.783228)",
      "poi_name": "Cumaica Coffee",
      "osm_id": 448038882,
      "amenity": "cafe",
      "cuisine": "coffee",
      "wheelchair": "yes",
      "addr_state": "CA",
      "addr_city": "San Francisco",
      "addr_postcode": "94118",
      "addr_street": "Clement Street",
      "addr_housenumber": "200",
      "value": 22.763365487618657
    },
    {
      "id": 29084,
      "geometry": "POINT (-122.223831 38.052494)",
      "poi_name": "Abrol Cafe",
      "osm_id": 8279818448,
      "amenity": "cafe",
      "value": 22.763365487618657
    },
    {
      "id": 37858,
      "geometry": "POINT (-122.254686 38.165395)",
      "poi_name": "Starbucks",
      "osm_id": 2834857973,
      "amenity": "cafe",
      "cuisine": "coffee_shop",
      "wheelchair": "limited",
      "opening_hours": "Mo-Sa 10:00-19:00; Su 11:00-18:00",
      "internet_access": "wlan",
      "takeaway": "yes",
      "official_name": "Starbucks Coffee",
      "addr_state": "CA",
      "addr_city": "American Canyon",
      "addr_postcode": "94503",
      "addr_street": "West American Canyon Road",
      "addr_housenumber": "101",
      "value": 22.763365487618657
    },
    {
      "id": 37163,
      "geometry": "POINT (-122.458865 38.293347)",
      "poi_name": "Sunflower Caff\u00e9",
      "osm_id": 2799686701,
      "amenity": "cafe",
      "cuisine": "coffee_shop;american",
      "opening_hours": "8:00-15:00",
      "website": "https://sonomasunflower.com/",
      "internet_access": "no",
      "takeaway": "yes",
      "drive_through": "no",
      "outdoor_seating": "yes",
      "toilets": "yes",
      "addr_state": "CA",
      "addr_city": "Sonoma",
      "addr_postcode": "95476",
      "addr_street": "1st Street West",
      "addr_housenumber": "421",
      "value": 22.763365487618657
    },
    {
      "id": 37173,
      "geometry": "POINT (-122.456446 38.292507)",
      "poi_name": "Basque Boulangerie",
      "osm_id": 2800012501,
      "amenity": "cafe",
      "cuisine": "sandwich",
      "takeaway": "yes",
      "drive_through": "no",
      "outdoor_seating": "yes",
      "addr_city": "Sonoma",
      "addr_postcode": "95476",
      "value": 22.763365487618657
    },
    {
      "id": 73151,
      "geometry": "POINT (-122.128951 38.221392)",
      "poi_name": "Starbucks",
      "osm_id": 9610159600,
      "amenity": "cafe",
      "cuisine": "coffee_shop",
      "takeaway": "yes",
      "official_name": "Starbucks Coffee",
      "value": 22.763365487618657
    },
    {
      "id": 42259,
      "geometry": "POINT (-122.064795 38.257837)",
      "poi_name": "Peet's Coffee",
      "osm_id": 3052914917,
      "amenity": "cafe",
      "cuisine": "coffee_shop",
      "takeaway": "yes",
      "addr_street": "Holiday Lane",
      "addr_housenumber": "1380",
      "value": 22.763365487618657
    },
    {
      "id": 57106,
      "geometry": "POINT (-121.952764 38.352029)",
      "poi_name": "Starbucks",
      "osm_id": 5325248456,
      "amenity": "cafe",
      "cuisine": "coffee_shop",
      "takeaway": "yes",
      "official_name": "Starbucks Coffee",
      "value": 22.763365487618657
    },
    {
      "id": 59389,
      "geometry": "POINT (-121.987506 38.356792)",
      "poi_name": "Pure Grain Bakery & Caf\u00e9",
      "osm_id": 5421789022,
      "amenity": "cafe",
      "cuisine": "german;bakery;coffee_shop",
      "opening_hours": "Mo-Fr 06:00-17:00; Sa 07:00-16:30; Su 07:30-15:00",
      "outdoor_seating": "yes",
      "addr_state": "CA",
      "addr_city": "Vacaville",
      "addr_postcode": "95688",
      "addr_street": "Town Square Place",
      "addr_housenumber": "11",
      "value": 22.763365487618657
    },
    {
      "id": 66244,
      "geometry": "POINT (-122.262872 38.10057)",
      "poi_name": "Panama Bay Coffee Co.",
      "osm_id": 5732641150,
      "amenity": "cafe",
      "cuisine": "coffee_shop",
      "opening_hours": "Mo-Fr 05:00-18:00; Sa-Su 07:00-17:00",
      "addr_postcode": "94590",
      "value": 22.763365487618657
    },
    {
      "id": 38284,
      "geometry": "POINT (-122.461033 38.277363)",
      "poi_name": "Bean & Bottle",
      "osm_id": 2854433501,
      "amenity": "cafe",
      "internet_access": "wlan",
      "takeaway": "yes",
      "drive_through": "no",
      "outdoor_seating": "yes",
      "addr_city": "Sonoma",
      "addr_postcode": "95476",
      "addr_street": "Broadway",
      "addr_housenumber": "1325",
      "value": 22.763365487618657
    },
    {
      "id": 45054,
      "geometry": "POINT (-122.45571 37.781618)",
      "poi_name": "Earth's Coffee",
      "osm_id": 3189444967,
      "amenity": "cafe",
      "cuisine": "coffee_shop;ice_cream",
      "internet_access": "wlan",
      "addr_state": "CA",
      "addr_city": "San Francisco",
      "addr_postcode": "94118",
      "addr_street": "Geary Boulevard",
      "addr_housenumber": "3400",
      "value": 22.763365487618657
    },
    {
      "id": 45055,
      "geometry": "POINT (-122.456825 37.781565)",
      "poi_name": "Cup & Cake Cafe",
      "osm_id": 3189444968,
      "amenity": "cafe",
      "cuisine": "coffee_shop",
      "internet_access": "wlan",
      "addr_state": "CA",
      "addr_city": "San Francisco",
      "addr_postcode": "94118",
      "addr_street": "Geary Boulevard",
      "addr_housenumber": "3500",
      "value": 22.763365487618657
    },
    {
      "id": 45057,
      "geometry": "POINT (-122.452989 37.78156)",
      "poi_name": "fifty/fifty",
      "osm_id": 3189444972,
      "amenity": "cafe",
      "internet_access": "wlan",
      "addr_state": "CA",
      "addr_city": "San Francisco",
      "addr_postcode": "94118",
      "addr_street": "Geary Boulevard",
      "addr_housenumber": "3157",
      "value": 22.763365487618657
    },
    {
      "id": 45058,
      "geometry": "POINT (-122.452275 37.781637)",
      "poi_name": "Royal Ground Coffee",
      "osm_id": 3189444973,
      "amenity": "cafe",
      "addr_state": "CA",
      "addr_city": "San Francisco",
      "addr_postcode": "94118",
      "addr_street": "Geary Boulevard",
      "addr_housenumber": "3101",
      "value": 22.763365487618657
    },
    {
      "id": 53167,
      "geometry": "POINT (-121.952422 38.33517)",
      "poi_name": "Dutch Bros. Coffee",
      "osm_id": 10067495458,
      "amenity": "cafe",
      "cuisine": "coffee_shop",
      "opening_hours": "Mo-Su 05:00-23:00",
      "takeaway": "only",
      "addr_city": "Vacaville",
      "addr_postcode": "95687",
      "addr_street": "Alamo Drive",
      "addr_housenumber": "3500",
      "value": 22.763365487618657
    },
    {
      "id": 57795,
      "geometry": "POINT (-121.975774 38.353683)",
      "poi_name": "Dutch Bros. Coffee",
      "osm_id": 5351890858,
      "amenity": "cafe",
      "cuisine": "coffee_shop",
      "opening_hours": "05:00-23:00",
      "website": "https://www.dutchbros.com/",
      "phone": "+1 (541) 955-4700",
      "takeaway": "only",
      "addr_state": "CA",
      "addr_city": "Vacaville",
      "addr_postcode": "95687",
      "addr_street": "Peabody Road",
      "addr_housenumber": "101",
      "value": 22.763365487618657
    },
    {
      "id": 60649,
      "geometry": "POINT (-122.26315 38.10045)",
      "poi_name": "Mare Island Brewing Company",
      "osm_id": 5474696326,
      "amenity": "cafe",
      "tourism": "information",
      "opening_hours": "Mo-Su 11:30-22:00",
      "website": "https://www.visitvallejo.com/",
      "addr_postcode": "94590",
      "addr_housenumber": "289A",
      "value": 22.763365487618657
    },
    {
      "id": 61957,
      "geometry": "POINT (-122.254421 38.182063)",
      "poi_name": "Starbucks",
      "osm_id": 5543985884,
      "amenity": "cafe",
      "cuisine": "coffee_shop",
      "takeaway": "yes",
      "official_name": "Starbucks Coffee",
      "value": 22.763365487618657
    },
    {
      "id": 63173,
      "geometry": "POINT (-122.347507 37.919944)",
      "poi_name": "Starbucks",
      "osm_id": 5603187626,
      "amenity": "cafe",
      "cuisine": "coffee_shop",
      "takeaway": "yes",
      "drive_through": "yes",
      "official_name": "Starbucks Coffee",
      "value": 22.763365487618657
    },
    {
      "id": 72386,
      "geometry": "POINT (-122.419178 37.807205)",
      "poi_name": "Pomegranate",
      "osm_id": 11423890658,
      "amenity": "cafe",
      "opening_hours": "Mo-Fr 07:30-13:00; Sa-Su 07:30-14:00",
      "website": "https://www.pomegranatebythebay.com",
      "addr_street": "Leavenworth St",
      "addr_housenumber": "2801",
      "value": 22.763365487618657
    },
    {
      "id": 72387,
      "geometry": "POINT (-122.418683 37.807729)",
      "poi_name": "The Cr\u00eape Cafe",
      "osm_id": 11423890671,
      "amenity": "cafe",
      "opening_hours": "Fr-Mo 12:00-18:00",
      "value": 22.763365487618657
    },
    {
      "id": 76315,
      "geometry": "POINT (-122.288716 38.295464)",
      "poi_name": "Winston's Cafe and Bakery",
      "osm_id": 9770419367,
      "amenity": "cafe",
      "opening_hours": "Sa-Su 08:00-14:00; We-Fr 07:00-14:00",
      "value": 22.763365487618657
    },
    {
      "id": 76200,
      "geometry": "POINT (-122.165168 38.065965)",
      "poi_name": "Starbucks",
      "osm_id": 9764711361,
      "amenity": "cafe",
      "cuisine": "coffee_shop",
      "takeaway": "yes",
      "official_name": "Starbucks Coffee",
      "value": 22.763365487618657
    },
    {
      "id": 73589,
      "geometry": "POINT (-122.418919 37.807523)",
      "poi_name": "Quickly",
      "osm_id": 9644830241,
      "amenity": "cafe",
      "cuisine": "bubble_tea",
      "wheelchair": "yes",
      "opening_hours": "Mo-Th,Su 11:30-18:30; Fr-Sa 11:30-19:00",
      "phone": "+1 415 4815090",
      "takeaway": "yes",
      "value": 22.763365487618657
    },
    {
      "id": 79818,
      "geometry": "POINT (-122.449351 37.799258)",
      "poi_name": "Starbucks",
      "osm_id": 830825687,
      "amenity": "cafe",
      "cuisine": "coffee_shop",
      "wheelchair": "yes",
      "takeaway": "yes",
      "official_name": "Starbucks Coffee",
      "value": 22.763365487618657
    },
    {
      "id": 76989,
      "geometry": "POINT (-122.083266 38.236075)",
      "poi_name": "Journey Coffee Company",
      "osm_id": 9800400038,
      "amenity": "cafe",
      "value": 22.763365487618657
    },
    {
      "id": 77312,
      "geometry": "POINT (-122.287609 38.019236)",
      "poi_name": "Hizcafe",
      "osm_id": 9815719441,
      "amenity": "cafe",
      "opening_hours": "Mo-Sa 07:00-19:00; Su 08:00-17:00",
      "website": "https://hizcafe.com/",
      "phone": "+1 510 417 2187",
      "addr_state": "CA",
      "addr_city": "Hercules",
      "addr_postcode": "94547",
      "addr_street": "Railroad Avenue",
      "addr_housenumber": "2216",
      "value": 22.763365487618657
    },
    {
      "id": 77563,
      "geometry": "POINT (-122.153049 38.054331)",
      "poi_name": "Rrags Cafe",
      "osm_id": 698082989,
      "amenity": "cafe",
      "opening_hours": "Mo-Fr 05:00-16:00; Sa,Su 06:00-14:00",
      "addr_city": "Benicia",
      "addr_postcode": "94510",
      "addr_street": "East 2nd Street",
      "addr_housenumber": "1383",
      "value": 22.763365487618657
    },
    {
      "id": 83738,
      "geometry": "POINT (-122.464459 37.780834)",
      "poi_name": "Cafe Coco",
      "osm_id": 1762825978,
      "amenity": "cafe",
      "opening_hours": "Mo-Fr 07:00-18:00; Sa 07:30-16:00; Su 08:00-14:00",
      "internet_access": "yes",
      "addr_street": "Geary Boulevard",
      "addr_housenumber": "4201",
      "value": 22.763365487618657
    },
    {
      "id": 88057,
      "geometry": "POINT (-122.309349 37.913787)",
      "poi_name": "Tala",
      "osm_id": 8759018888,
      "amenity": "cafe",
      "value": 22.763365487618657
    },
    {
      "id": 84152,
      "geometry": "POINT (-122.455559 37.873336)",
      "poi_name": "Caffe Acri",
      "osm_id": 1779645458,
      "amenity": "cafe",
      "value": 22.763365487618657
    },
    {
      "id": 84455,
      "geometry": "POINT (-122.321363 37.928676)",
      "poi_name": "Starbucks",
      "osm_id": 1793984634,
      "amenity": "cafe",
      "cuisine": "coffee_shop",
      "wheelchair": "yes",
      "opening_hours": "Mo-Sa 04:30-20:30; Su 05:30-20:30",
      "takeaway": "yes",
      "official_name": "Starbucks Coffee",
      "value": 22.763365487618657
    },
    {
      "id": 83851,
      "geometry": "POINT (-122.462552 37.783153)",
      "poi_name": "Blue Danube Coffee House",
      "osm_id": 1769223514,
      "amenity": "cafe",
      "wheelchair": "yes",
      "outdoor_seating": "yes",
      "addr_street": "Clement Street",
      "addr_housenumber": "306",
      "value": 22.763365487618657
    },
    {
      "id": 88060,
      "geometry": "POINT (-122.315399 37.922719)",
      "poi_name": "Starbucks",
      "osm_id": 8759019018,
      "amenity": "cafe",
      "cuisine": "coffee_shop",
      "takeaway": "yes",
      "official_name": "Starbucks Coffee",
      "value": 22.763365487618657
    },
    {
      "id": 111430,
      "geometry": "POINT (-122.03376 38.288939)",
      "poi_name": "Starbucks",
      "osm_id": 3748098510,
      "amenity": "cafe",
      "cuisine": "coffee_shop",
      "takeaway": "yes",
      "official_name": "Starbucks Coffee",
      "value": 22.763365487618657
    },
    {
      "id": 90717,
      "geometry": "POINT (-122.334994 37.990319)",
      "poi_name": "Starbucks",
      "osm_id": 2013493266,
      "amenity": "cafe",
      "cuisine": "coffee_shop",
      "takeaway": "yes",
      "official_name": "Starbucks Coffee",
      "value": 22.763365487618657
    },
    {
      "id": 90824,
      "geometry": "POINT (-122.299734 37.901288)",
      "poi_name": "Starbucks",
      "osm_id": 2019847919,
      "amenity": "cafe",
      "cuisine": "coffee_shop",
      "wheelchair": "yes",
      "opening_hours": "Mo-Fr 05:00-21:30; Sa-Su 05:30-21:30",
      "website": "https://www.starbucks.com/store-locator/store/12474/san-pablo-fairmount-el-cerrito-3090-el-cerrito-plaza-el-cerrito-plaza-el-cerrito-",
      "internet_access": "wlan",
      "phone": "+1 510 524 8134",
      "takeaway": "yes",
      "official_name": "Starbucks Coffee",
      "outdoor_seating": "yes",
      "addr_state": "CA",
      "addr_city": "El Cerrito",
      "addr_postcode": "94530",
      "addr_street": "El Cerrito Plaza",
      "addr_housenumber": "3090",
      "value": 22.763365487618657
    },
    {
      "id": 90825,
      "geometry": "POINT (-122.299563 37.901341)",
      "poi_name": "All Star Donuts",
      "osm_id": 2019847921,
      "amenity": "cafe",
      "cuisine": "donut",
      "wheelchair": "yes",
      "opening_hours": "Mo-Su 06:00-16:00",
      "website": "https://www.yelp.com/biz/all-star-donuts-el-cerrito",
      "phone": "(510) 525-7289",
      "addr_state": "CA",
      "addr_city": "El Cerrito",
      "addr_postcode": "94530",
      "addr_street": "El Cerrito Plaza",
      "addr_housenumber": "3070",
      "value": 22.763365487618657
    },
    {
      "id": 106084,
      "geometry": "POINT (-122.288445 38.296899)",
      "poi_name": "Monday Bakery",
      "osm_id": 8663504549,
      "amenity": "cafe",
      "takeaway": "yes",
      "outdoor_seating": "yes",
      "value": 22.763365487618657
    },
    {
      "id": 89662,
      "geometry": "POINT (-122.272484 38.013696)",
      "poi_name": "Peet's Coffee",
      "osm_id": 8855191155,
      "amenity": "cafe",
      "cuisine": "coffee_shop",
      "takeaway": "yes",
      "value": 22.763365487618657
    },
    {
      "id": 94487,
      "geometry": "POINT (-122.453846 37.781924)",
      "poi_name": "Internos Wine Cafe",
      "osm_id": 2248312524,
      "amenity": "cafe",
      "website": "http://www.internoswinecafe.com",
      "phone": "+1 (415) 751-2661",
      "addr_state": "CA",
      "addr_city": "San Francisco",
      "addr_street": "Geary Boulevard",
      "addr_housenumber": "3240",
      "value": 22.763365487618657
    },
    {
      "id": 94757,
      "geometry": "POINT (-122.277231 38.282629)",
      "poi_name": "Starbucks",
      "osm_id": 6375008572,
      "amenity": "cafe",
      "cuisine": "coffee_shop",
      "takeaway": "yes",
      "official_name": "Starbucks Coffee",
      "value": 22.763365487618657
    },
    {
      "id": 101093,
      "geometry": "POINT (-122.15921 38.048606)",
      "poi_name": "Double Rainbow Cafe",
      "osm_id": 6611310489,
      "amenity": "cafe",
      "value": 22.763365487618657
    },
    {
      "id": 101094,
      "geometry": "POINT (-122.158312 38.049766)",
      "poi_name": "Farm and Flour",
      "osm_id": 6611310490,
      "amenity": "cafe",
      "value": 22.763365487618657
    },
    {
      "id": 111432,
      "geometry": "POINT (-122.033684 38.2891)",
      "poi_name": "Favela's Mexican Grill",
      "osm_id": 3748098512,
      "amenity": "cafe",
      "value": 22.763365487618657
    },
    {
      "id": 125113,
      "geometry": "POINT (-122.384808 37.92677)",
      "poi_name": "Kaleidoscope Coffee",
      "osm_id": 6946056314,
      "amenity": "cafe",
      "cuisine": "coffee_shop",
      "opening_hours": "Mo-Su 09:00-17:00",
      "website": "https://www.kaleidoscopecoffee.com/",
      "internet_access": "wlan",
      "outdoor_seating": "yes",
      "value": 22.763365487618657
    },
    {
      "id": 122187,
      "geometry": "POINT (-122.463715 37.782868)",
      "poi_name": "Caf\u00e9 Bunn Mi",
      "osm_id": 6791676299,
      "amenity": "cafe",
      "cuisine": "vietnamese;sandwich",
      "phone": "+1 415 668 8908",
      "outdoor_seating": "yes",
      "addr_street": "Clement Street",
      "addr_housenumber": "417",
      "value": 22.763365487618657
    },
    {
      "id": 122189,
      "geometry": "POINT (-122.463178 37.783132)",
      "poi_name": "Amausaan Uji Matcha",
      "osm_id": 6791676304,
      "amenity": "cafe",
      "cuisine": "matcha;japanese",
      "capacity": "0",
      "value": 22.763365487618657
    },
    {
      "id": 121665,
      "geometry": "POINT (-122.449778 37.782334)",
      "poi_name": "Sun Stream Coffee",
      "osm_id": 6773263589,
      "amenity": "cafe",
      "addr_street": "Geary Boulevard",
      "addr_housenumber": "2884",
      "value": 22.763365487618657
    },
    {
      "id": 126556,
      "geometry": "POINT (-122.281654 38.301782)",
      "poi_name": "Ritual Coffee Roasters",
      "osm_id": 7012461286,
      "amenity": "cafe",
      "cuisine": "coffee_shop",
      "outdoor_seating": "yes",
      "value": 22.763365487618657
    },
    {
      "id": 141192,
      "geometry": "POINT (-122.034448 38.290669)",
      "poi_name": "Starbucks",
      "osm_id": 6276250123,
      "amenity": "cafe",
      "cuisine": "coffee_shop",
      "takeaway": "yes",
      "official_name": "Starbucks Coffee",
      "value": 22.763365487618657
    },
    {
      "id": 130558,
      "geometry": "POINT (-122.422903 37.805848)",
      "poi_name": "Foghorn Coffee",
      "osm_id": 9875708655,
      "amenity": "cafe",
      "cuisine": "coffee_shop",
      "takeaway": "only",
      "outdoor_seating": "no",
      "value": 22.763365487618657
    },
    {
      "id": 132046,
      "geometry": "POINT (-122.431935 37.806768)",
      "poi_name": "Cooks & Company",
      "osm_id": 9938359949,
      "amenity": "cafe",
      "cuisine": "coffee_shop",
      "opening_hours": "Mo-Su 09:00-15:00",
      "phone": "4156734137",
      "outdoor_seating": "no",
      "addr_state": "CA",
      "addr_city": "San Francisco",
      "addr_postcode": "94102",
      "addr_street": "Marina Boulevard",
      "addr_housenumber": "2",
      "value": 22.763365487618657
    },
    {
      "id": 144051,
      "geometry": "POINT (-122.307691 38.322543)",
      "poi_name": "Starbucks",
      "osm_id": 6361223730,
      "amenity": "cafe",
      "cuisine": "coffee_shop",
      "takeaway": "yes",
      "official_name": "Starbucks Coffee",
      "value": 22.763365487618657
    },
    {
      "id": 144699,
      "geometry": "POINT (-122.068993 38.24676)",
      "poi_name": "Starbucks",
      "osm_id": 7281575688,
      "amenity": "cafe",
      "cuisine": "coffee_shop",
      "takeaway": "yes",
      "official_name": "Starbucks Coffee",
      "value": 22.763365487618657
    },
    {
      "id": 144466,
      "geometry": "POINT (-122.274246 38.01215)",
      "poi_name": "Starbucks",
      "osm_id": 7266790969,
      "amenity": "cafe",
      "cuisine": "coffee_shop",
      "takeaway": "yes",
      "official_name": "Starbucks Coffee",
      "value": 22.763365487618657
    },
    {
      "id": 144708,
      "geometry": "POINT (-122.053196 38.271786)",
      "poi_name": "Starbucks",
      "osm_id": 7282809919,
      "amenity": "cafe",
      "cuisine": "coffee_shop",
      "takeaway": "yes",
      "official_name": "Starbucks Coffee",
      "value": 22.763365487618657
    },
    {
      "id": 155843,
      "geometry": "POINT (-122.44662 37.787129)",
      "poi_name": "Ella's",
      "osm_id": 4633233889,
      "amenity": "cafe",
      "value": 22.763365487618657
    },
    {
      "id": 144790,
      "geometry": "POINT (-122.302103 38.321309)",
      "poi_name": "Starbucks",
      "osm_id": 7286983733,
      "amenity": "cafe",
      "cuisine": "coffee_shop",
      "takeaway": "yes",
      "official_name": "Starbucks Coffee",
      "addr_state": "CA",
      "addr_city": "Napa",
      "addr_postcode": "94558",
      "addr_street": "Jefferson Street",
      "addr_housenumber": "3375",
      "value": 22.763365487618657
    },
    {
      "id": 144791,
      "geometry": "POINT (-122.226779 38.125387)",
      "poi_name": "Starbucks",
      "osm_id": 7286985302,
      "amenity": "cafe",
      "cuisine": "coffee_shop",
      "takeaway": "yes",
      "official_name": "Starbucks Coffee",
      "addr_state": "CA",
      "addr_city": "Vallejo",
      "addr_postcode": "94591",
      "addr_street": "Admiral Callaghan Lane",
      "addr_housenumber": "774",
      "value": 22.763365487618657
    },
    {
      "id": 144793,
      "geometry": "POINT (-122.222444 38.132106)",
      "poi_name": "Starbucks",
      "osm_id": 7286991091,
      "amenity": "cafe",
      "cuisine": "coffee_shop",
      "takeaway": "yes",
      "official_name": "Starbucks Coffee",
      "value": 22.763365487618657
    },
    {
      "id": 149715,
      "geometry": "POINT (-122.43147 37.807043)",
      "poi_name": "Goody Cafe",
      "osm_id": 4022656014,
      "amenity": "cafe",
      "website": "https://fortmason.org/resident/goody-cafe/",
      "value": 22.763365487618657
    },
    {
      "id": 150329,
      "geometry": "POINT (-121.986009 38.353433)",
      "poi_name": "Starbucks",
      "osm_id": 4049764288,
      "amenity": "cafe",
      "cuisine": "coffee_shop",
      "takeaway": "yes",
      "official_name": "Starbucks Coffee",
      "value": 22.763365487618657
    },
    {
      "id": 150958,
      "geometry": "POINT (-122.43382 37.80455)",
      "poi_name": "Starbucks",
      "osm_id": 4075218516,
      "amenity": "cafe",
      "cuisine": "coffee_shop",
      "internet_access": "wlan",
      "takeaway": "yes",
      "official_name": "Starbucks Coffee",
      "value": 22.763365487618657
    },
    {
      "id": 156012,
      "geometry": "POINT (-122.261281 38.021069)",
      "poi_name": "Starbucks",
      "osm_id": 4637217023,
      "amenity": "cafe",
      "cuisine": "coffee_shop",
      "takeaway": "yes",
      "drive_through": "yes",
      "official_name": "Starbucks Coffee",
      "value": 22.763365487618657
    },
    {
      "id": 158457,
      "geometry": "POINT (-122.066505 38.254545)",
      "poi_name": "Starbucks",
      "osm_id": 4747953578,
      "amenity": "cafe",
      "cuisine": "coffee_shop",
      "takeaway": "yes",
      "official_name": "Starbucks Coffee",
      "addr_state": "CA",
      "addr_city": "Fairfield",
      "addr_postcode": "94534",
      "addr_street": "Oliver Road",
      "addr_housenumber": "1200",
      "value": 22.763365487618657
    },
    {
      "id": 158558,
      "geometry": "POINT (-122.465575 37.78138)",
      "poi_name": "Kowloon Tong Dessert Cafe",
      "osm_id": 4753964008,
      "amenity": "cafe",
      "cuisine": "dessert",
      "opening_hours": "Mo-Th 17:00-01:00, Fr 17:00-02:00, Sa 15:00-02:00, Su 15:00-01:00",
      "phone": "+1 415 876 1289",
      "addr_state": "CA",
      "addr_city": "San Francisco",
      "addr_postcode": "94118",
      "addr_street": "7th Avenue",
      "addr_housenumber": "393",
      "value": 22.763365487618657
    },
    {
      "id": 181148,
      "geometry": "POINT (-122.383466 37.925552)",
      "poi_name": "Roma Caff\u00e9 & Bar",
      "osm_id": 10834039678,
      "amenity": "cafe",
      "value": 22.763365487618657
    },
    {
      "id": 158561,
      "geometry": "POINT (-122.465512 37.785029)",
      "poi_name": "Ashley's Cafe",
      "osm_id": 4753982894,
      "amenity": "cafe",
      "opening_hours": "Mo-Fr 06:30-17:00; Sa,Su 07:00-17:00",
      "addr_state": "CA",
      "addr_city": "San Francisco",
      "addr_postcode": "94118",
      "addr_street": "California Street",
      "addr_housenumber": "4454",
      "value": 22.763365487618657
    },
    {
      "id": 158563,
      "geometry": "POINT (-122.464426 37.7846)",
      "poi_name": "Not Latte",
      "osm_id": 4754013402,
      "amenity": "cafe",
      "cuisine": "bubble_tea;dessert",
      "wheelchair": "yes",
      "takeaway": "yes",
      "addr_state": "CA",
      "addr_city": "San Francisco",
      "addr_postcode": "94118",
      "addr_street": "6th Avenue",
      "addr_housenumber": "200",
      "value": 22.763365487618657
    },
    {
      "id": 158564,
      "geometry": "POINT (-122.464748 37.785276)",
      "poi_name": "Nourish Cafe",
      "osm_id": 4754013403,
      "amenity": "cafe",
      "opening_hours": "Mo-Su 09:00-15:00",
      "addr_state": "CA",
      "addr_city": "San Francisco",
      "addr_postcode": "94118",
      "addr_street": "6th Avenue",
      "addr_housenumber": "189",
      "value": 22.763365487618657
    },
    {
      "id": 158565,
      "geometry": "POINT (-122.463652 37.784986)",
      "poi_name": "The Richfield",
      "osm_id": 4754013405,
      "amenity": "cafe",
      "opening_hours": "Tu-Fr 08:00-13:00; Sa,Su 08:30-13:30",
      "addr_state": "CA",
      "addr_city": "San Francisco",
      "addr_postcode": "94118",
      "addr_street": "5th Avenue",
      "addr_housenumber": "195",
      "value": 22.763365487618657
    },
    {
      "id": 159755,
      "geometry": "POINT (-122.288643 38.006719)",
      "poi_name": "East Bay Coffee Co.",
      "osm_id": 4805068168,
      "amenity": "cafe",
      "cuisine": "coffee_shop",
      "website": "https://www.eastbaycoffee.com/",
      "internet_access": "wlan",
      "outdoor_seating": "no",
      "addr_state": "CA",
      "addr_city": "Pinole",
      "addr_postcode": "94564",
      "addr_street": "San Pablo Avenue",
      "addr_housenumber": "2529",
      "value": 22.763365487618657
    },
    {
      "id": 164917,
      "geometry": "POINT (-122.422762 37.805656)",
      "poi_name": "Palette Tea House",
      "osm_id": 9507011271,
      "amenity": "cafe",
      "cuisine": "tea",
      "opening_hours": "Mo-Th 11:30-19:30; Fr 11:30-20:00; Sa 11:00-20:00; Su 11:00-19:30",
      "website": "https://paletteteahouse.com/",
      "phone": "+1 415 3478888",
      "value": 22.763365487618657
    },
    {
      "id": 170519,
      "geometry": "POINT (-122.440888 37.80038)",
      "poi_name": "R\u00e9veille",
      "osm_id": 2339603601,
      "amenity": "cafe",
      "cuisine": "coffee_shop",
      "internet_access": "no",
      "outdoor_seating": "yes",
      "addr_city": "San Francisco",
      "addr_street": "Chestnut Street",
      "addr_housenumber": "2268",
      "value": 22.763365487618657
    },
    {
      "id": 172929,
      "geometry": "POINT (-122.347859 37.920481)",
      "poi_name": "Cafe Pascal",
      "osm_id": 2419240164,
      "amenity": "cafe",
      "value": 22.763365487618657
    },
    {
      "id": 177274,
      "geometry": "POINT (-122.301246 37.900008)",
      "poi_name": "Starbucks",
      "osm_id": 2580380990,
      "amenity": "cafe",
      "cuisine": "coffee_shop",
      "internet_access": "wlan",
      "takeaway": "yes",
      "official_name": "Starbucks Coffee",
      "addr_state": "CA",
      "addr_city": "El Cerrito",
      "addr_postcode": "94530",
      "addr_street": "El Cerrito Plaza",
      "addr_housenumber": "6050",
      "value": 22.763365487618657
    },
    {
      "id": 177491,
      "geometry": "POINT (-122.143912 38.213714)",
      "poi_name": "Starbucks",
      "osm_id": 2589929229,
      "amenity": "cafe",
      "cuisine": "coffee_shop",
      "internet_access": "wlan",
      "takeaway": "yes",
      "official_name": "Starbucks Coffee",
      "value": 22.763365487618657
    },
    {
      "id": 164260,
      "geometry": "POINT (-122.46063 37.781374)",
      "poi_name": "Little Sweet",
      "osm_id": 9459210057,
      "amenity": "cafe",
      "cuisine": "bubble_tea",
      "website": "https://www.little-sweet.com/",
      "phone": "+1 415 7387368",
      "takeaway": "yes",
      "addr_city": "San Francisco",
      "addr_street": "Geary Boulevard",
      "addr_housenumber": "3836",
      "value": 22.763365487618657
    },
    {
      "id": 167083,
      "geometry": "POINT (-122.453191 37.786217)",
      "poi_name": "Starbucks",
      "osm_id": 332730973,
      "amenity": "cafe",
      "cuisine": "coffee_shop",
      "wheelchair": "yes",
      "takeaway": "yes",
      "official_name": "Starbucks Coffee",
      "value": 22.763365487618657
    },
    {
      "id": 167084,
      "geometry": "POINT (-122.450457 37.786612)",
      "poi_name": "Pete's Coffee",
      "osm_id": 332730993,
      "amenity": "cafe",
      "wheelchair": "yes",
      "opening_hours": "Mo-Sa 06:00-19:00; Su 06:00-18:00",
      "addr_street": "California Street",
      "addr_housenumber": "3419",
      "value": 22.763365487618657
    },
    {
      "id": 167086,
      "geometry": "POINT (-122.456387 37.787094)",
      "poi_name": "Picnix Bistro",
      "osm_id": 332787308,
      "amenity": "cafe",
      "internet_access": "no",
      "addr_city": "San Francisco",
      "addr_postcode": "94118",
      "addr_street": "Sacramento Street",
      "addr_housenumber": "3872",
      "value": 22.763365487618657
    },
    {
      "id": 170561,
      "geometry": "POINT (-122.425025 37.802115)",
      "poi_name": "Cafe L\u00e9",
      "osm_id": 2340887349,
      "amenity": "cafe",
      "value": 22.763365487618657
    },
    {
      "id": 196675,
      "geometry": "POINT (-122.307202 37.899135)",
      "poi_name": "Le Dessert Lab",
      "osm_id": 10591130269,
      "amenity": "cafe",
      "addr_street": "Pierce Street",
      "addr_housenumber": "3288",
      "value": 22.763365487618657
    },
    {
      "id": 190866,
      "geometry": "POINT (-122.286356 37.9957)",
      "poi_name": "Peet's Coffee",
      "osm_id": 1321081559,
      "amenity": "cafe",
      "cuisine": "coffee_shop",
      "takeaway": "yes",
      "addr_state": "CA",
      "addr_city": "Pinole",
      "addr_postcode": "94564",
      "addr_street": "Pinole Valley Road",
      "addr_housenumber": "2712",
      "value": 22.763365487618657
    },
    {
      "id": 191204,
      "geometry": "POINT (-122.275021 38.283206)",
      "poi_name": "Starbucks",
      "osm_id": 1347454311,
      "amenity": "cafe",
      "cuisine": "coffee_shop",
      "takeaway": "yes",
      "official_name": "Starbucks Coffee",
      "outdoor_seating": "yes",
      "value": 22.763365487618657
    },
    {
      "id": 191205,
      "geometry": "POINT (-122.31065 38.320322)",
      "poi_name": "Starbucks",
      "osm_id": 1347464427,
      "amenity": "cafe",
      "cuisine": "coffee_shop",
      "takeaway": "yes",
      "official_name": "Starbucks Coffee",
      "value": 22.763365487618657
    },
    {
      "id": 191206,
      "geometry": "POINT (-122.306058 38.322868)",
      "poi_name": "Peet's Coffee",
      "osm_id": 1347464429,
      "amenity": "cafe",
      "cuisine": "coffee_shop",
      "takeaway": "yes",
      "value": 22.763365487618657
    },
    {
      "id": 191558,
      "geometry": "POINT (-122.300522 37.910277)",
      "poi_name": "Well Grounded",
      "osm_id": 1375234278,
      "amenity": "cafe",
      "cuisine": "coffee_shop",
      "opening_hours": "Mo-Fr 06:00-18:00; Sa-Su 07:00-16:00",
      "website": "http://www.well-grounded.com/",
      "phone": "+1 510 528 4709",
      "addr_state": "CA",
      "addr_city": "El Cerrito",
      "addr_postcode": "94530",
      "addr_street": "Stockton Avenue",
      "addr_housenumber": "6925",
      "value": 22.763365487618657
    },
    {
      "id": 193362,
      "geometry": "POINT (-122.302004 37.898777)",
      "poi_name": "Peet's Coffee",
      "osm_id": 1528962019,
      "amenity": "cafe",
      "cuisine": "coffee_shop",
      "wheelchair": "yes",
      "opening_hours": "Mo-Fr 05:00-21:00; Sa,Su 05:30-20:00",
      "website": "https://www.peets.com/",
      "shop": "coffee",
      "internet_access": "wlan",
      "takeaway": "yes",
      "addr_state": "CA",
      "addr_city": "El Cerrito",
      "addr_postcode": "94530",
      "addr_street": "San Pablo Avenue",
      "addr_housenumber": "9895",
      "value": 22.763365487618657
    },
    {
      "id": 204046,
      "geometry": "POINT (-122.442027 37.800216)",
      "poi_name": "causwells burgers",
      "osm_id": 7111635385,
      "amenity": "cafe",
      "value": 22.763365487618657
    },
    {
      "id": 200891,
      "geometry": "POINT (-122.23426 38.08422)",
      "poi_name": "Starbucks",
      "osm_id": 599872545,
      "amenity": "cafe",
      "cuisine": "coffee_shop",
      "takeaway": "yes",
      "official_name": "Starbucks Coffee",
      "value": 22.763365487618657
    },
    {
      "id": 203661,
      "geometry": "POINT (-122.309887 38.288032)",
      "poi_name": "Southside Cafe",
      "osm_id": 7096638085,
      "amenity": "cafe",
      "opening_hours": "Mo-Su 07:00-15:00",
      "value": 22.763365487618657
    },
    {
      "id": 200886,
      "geometry": "POINT (-122.228836 38.094737)",
      "poi_name": "Starbucks",
      "osm_id": 599708715,
      "amenity": "cafe",
      "cuisine": "coffee_shop",
      "takeaway": "yes",
      "official_name": "Starbucks Coffee",
      "value": 22.763365487618657
    },
    {
      "id": 203429,
      "geometry": "POINT (-122.441753 37.800001)",
      "poi_name": "Chestnut Coffee Roastery",
      "osm_id": 7087200185,
      "amenity": "cafe",
      "value": 22.763365487618657
    },
    {
      "id": 231959,
      "geometry": "POINT (-122.2872 38.32385)",
      "poi_name": "Starbucks",
      "osm_id": 4499457190,
      "amenity": "cafe",
      "cuisine": "coffee_shop",
      "internet_access": "wlan",
      "takeaway": "yes",
      "official_name": "Starbucks Coffee",
      "value": 22.763365487618657
    },
    {
      "id": 211011,
      "geometry": "POINT (-122.430351 37.797618)",
      "poi_name": "Starbucks",
      "osm_id": 5136125674,
      "amenity": "cafe",
      "cuisine": "coffee_shop",
      "takeaway": "yes",
      "official_name": "Starbucks Coffee",
      "value": 22.763365487618657
    },
    {
      "id": 216109,
      "geometry": "POINT (-122.439733 37.799546)",
      "poi_name": "twisted",
      "osm_id": 9153766717,
      "amenity": "cafe",
      "value": 22.763365487618657
    },
    {
      "id": 218333,
      "geometry": "POINT (-122.231529 38.06898)",
      "poi_name": "The Bistro",
      "osm_id": 9273583912,
      "amenity": "cafe",
      "cuisine": "coffee_shop",
      "opening_hours": "Mo-Fr 06:30-14:00",
      "value": 22.763365487618657
    },
    {
      "id": 213480,
      "geometry": "POINT (-122.433022 37.797296)",
      "poi_name": "M\u00fcesi Cafe",
      "osm_id": 5251306690,
      "amenity": "cafe",
      "website": "https://www.muesi.com/",
      "addr_street": "Union Street",
      "addr_housenumber": "2055",
      "value": 22.763365487618657
    },
    {
      "id": 218119,
      "geometry": "POINT (-122.156131 38.054847)",
      "poi_name": "Starbucks",
      "osm_id": 9258696555,
      "amenity": "cafe",
      "cuisine": "coffee_shop",
      "takeaway": "yes",
      "official_name": "Starbucks Coffee",
      "value": 22.763365487618657
    },
    {
      "id": 231771,
      "geometry": "POINT (-122.299605 37.90124)",
      "poi_name": "Quickly",
      "osm_id": 4486208687,
      "amenity": "cafe",
      "cuisine": "bubble_tea",
      "website": "http://www.quicklyusa.com/elcerrito.html",
      "takeaway": "yes",
      "drive_through": "no",
      "addr_state": "CA",
      "addr_city": "El Cerrito",
      "addr_postcode": "94530",
      "addr_street": "El Cerrito Plaza",
      "addr_housenumber": "3080",
      "value": 22.763365487618657
    },
    {
      "id": 231969,
      "geometry": "POINT (-122.02001 38.246393)",
      "poi_name": "Starbucks",
      "osm_id": 4500834997,
      "amenity": "cafe",
      "cuisine": "coffee_shop",
      "internet_access": "wlan",
      "takeaway": "yes",
      "official_name": "Starbucks Coffee",
      "value": 22.763365487618657
    },
    {
      "id": 233815,
      "geometry": "POINT (-122.3024 38.323412)",
      "poi_name": "Starbucks",
      "osm_id": 4588462321,
      "amenity": "cafe",
      "cuisine": "coffee_shop",
      "takeaway": "yes",
      "official_name": "Starbucks Coffee",
      "value": 22.763365487618657
    },
    {
      "id": 232300,
      "geometry": "POINT (-122.419139 37.80631)",
      "poi_name": "Eight Am",
      "osm_id": 4517457491,
      "amenity": "cafe",
      "opening_hours": "Mo-Su 07:00-14:00",
      "addr_street": "Columbus Avenue",
      "addr_housenumber": "1323",
      "value": 22.763365487618657
    },
    {
      "id": 233137,
      "geometry": "POINT (-122.436645 37.796822)",
      "poi_name": "Wrecking Ball Coffee Roasters",
      "osm_id": 4559039815,
      "amenity": "cafe",
      "cuisine": "coffee_shop",
      "addr_state": "CA",
      "addr_city": "San Francisco",
      "addr_postcode": "94123",
      "addr_street": "Union Street",
      "addr_housenumber": "2271",
      "value": 22.763365487618657
    },
    {
      "id": 234308,
      "geometry": "POINT (-122.292882 38.281086)",
      "poi_name": "Happy's Donut Tree",
      "osm_id": 4615542654,
      "amenity": "cafe",
      "cuisine": "donut",
      "value": 22.763365487618657
    },
    {
      "id": 234175,
      "geometry": "POINT (-122.329273 38.304411)",
      "poi_name": "Browns Valley Yogurt & Espresso Bar",
      "osm_id": 4610544356,
      "amenity": "cafe",
      "value": 22.763365487618657
    },
    {
      "id": 237614,
      "geometry": "POINT (-122.459216 37.783306)",
      "poi_name": "Breck's",
      "osm_id": 5840675579,
      "amenity": "cafe",
      "cuisine": "wine;coffee_shop",
      "opening_hours": "Mo 08:00-14:00; Tu-Th 08:00-18:00; Fr-Sa 08:00-20:00; Su 08:00-18:00",
      "website": "https://www.instagram.com/brecks_sf/",
      "outdoor_seating": "yes",
      "addr_state": "CA",
      "addr_city": "San Francisco",
      "addr_postcode": "94118",
      "addr_street": "Clement Street",
      "addr_housenumber": "2",
      "value": 22.763365487618657
    },
    {
      "id": 234196,
      "geometry": "POINT (-122.298819 38.320468)",
      "poi_name": "Golden Bagel",
      "osm_id": 4611373695,
      "amenity": "cafe",
      "cuisine": "bagel",
      "value": 22.763365487618657
    },
    {
      "id": 234354,
      "geometry": "POINT (-122.285785 38.299218)",
      "poi_name": "Starbucks",
      "osm_id": 4617760867,
      "amenity": "cafe",
      "cuisine": "coffee_shop",
      "takeaway": "yes",
      "official_name": "Starbucks Coffee",
      "addr_street": "1st Street",
      "addr_housenumber": "1006",
      "value": 22.763365487618657
    },
    {
      "id": 234363,
      "geometry": "POINT (-122.433644 37.803898)",
      "poi_name": "Fresh Bay Cafe",
      "osm_id": 4617977824,
      "amenity": "cafe",
      "value": 22.763365487618657
    },
    {
      "id": 235774,
      "geometry": "POINT (-122.183607 38.046577)",
      "poi_name": "Honey House Cafe",
      "osm_id": 5766406439,
      "amenity": "cafe",
      "opening_hours": "Sa 8:00-14:00, Su 8:00-13:00",
      "website": "http://www.thehotelburlington.com/#cafe",
      "outdoor_seating": "yes",
      "addr_state": "CA",
      "addr_city": "Port Costa",
      "addr_postcode": "94569",
      "addr_street": "Canyon Lake Drive",
      "addr_housenumber": "2",
      "value": 22.763365487618657
    },
    {
      "id": 240733,
      "geometry": "POINT (-122.154219 38.054206)",
      "poi_name": "Starbucks",
      "osm_id": 5986288286,
      "amenity": "cafe",
      "cuisine": "coffee_shop",
      "opening_hours": "Su-Fr 04:15-21:00; Sa 04:00-21:30",
      "operator": "Starbucks",
      "website": "https://www.starbucks.com/store-locator/store/7862/1st-military-benicia-90-solano-square-solano-square-benicia-ca-94510271",
      "internet_access": "wlan",
      "phone": "707-746-6473",
      "takeaway": "yes",
      "official_name": "Starbucks Coffee",
      "addr_postcode": "94510",
      "addr_street": "Solano Square",
      "addr_housenumber": "90",
      "value": 22.763365487618657
    }
  ],
  "answer_type": "name",
  "question_entities": {
    "[2]": {
      "distance": 80000,
      "text": "80 kilometers"
    },
    "[3]": {
      "main_category": "tourism",
      "sub_category": "aquarium",
      "display_name": "Steinhart Aquarium, CA",
      "geo_wkt": "POINT (-122.465976 37.769485)",
      "poi": {
        "id": 18181,
        "geometry": "POINT (-122.465976 37.769485)",
        "poi_name": "Steinhart Aquarium",
        "osm_id": 368173914,
        "tourism": "aquarium",
        "addr_state": "CA"
      }
    },
    "[4]": {
      "main_category": "tourism",
      "sub_category": "attraction",
      "display_name": "Historic Cement Factory Ruins, American Canyon, CA",
      "geo_wkt": "POINT (-122.247986 38.179376)",
      "poi": {
        "id": 24607,
        "geometry": "POINT (-122.247986 38.179376)",
        "poi_name": "Historic Cement Factory Ruins",
        "osm_id": 11136408694,
        "description": "historic Standard Portland Cement Factory dates back to 1903 processinf clay and limestone",
        "tourism": "attraction",
        "addr_state": "CA",
        "addr_city": "American Canyon",
        "addr_postcode": "94503"
      }
    },
    "[1]": {
      "main_category": "amenity",
      "sub_category": "cafe"
    }
  },
  "id": 1667,
  "type": "range:towards+name"
}