{
  "question": "Where can I find fast food restaurant in the direction of SEA LIFE Minnesota Aquarium, Bloomington, MN within 110 kilometers from Moberg Park, MN?",
  "sql": "WITH\n    angle AS (SELECT degrees(ST_Azimuth(ST_GeomFromText('POINT (-92.890556 45.372778)',4326)::geography, ST_GeomFromText('POINT (-93.240076 44.854752)',4326)::geography)) AS value)\nSELECT * FROM pois,angle\nWHERE amenity = 'fast_food'\nAND ST_DWithin(pois.geometry, ST_GeomFromText('POINT (-92.890556 45.372778)',4326)::geography, 110000)\nAND (degrees(ST_Azimuth(ST_GeomFromText('POINT (-92.890556 45.372778)',4326)::geography, pois.geometry)) BETWEEN angle.value - 22.5 AND angle.value + 22.5);\n",
  "answers": [
    {
      "id": 27541,
      "geometry": "POINT (-93.210884 44.91608)",
      "poi_name": "Sea Salt Eatery",
      "osm_id": 430830897,
      "amenity": "fast_food",
      "cuisine": "seafood;cajun",
      "phone": "+1-612-721-8990",
      "takeaway": "yes",
      "outdoor_seating": "yes",
      "addr_state": "MN",
      "addr_city": "Minneapolis",
      "addr_postcode": "55417",
      "addr_street": "South Minnehaha Avenue",
      "addr_housenumber": "4801",
      "value": 205.6598940738202
    },
    {
      "id": 27943,
      "geometry": "POINT (-93.219412 44.731429)",
      "poi_name": "LeeAnn Chin's",
      "osm_id": 459991078,
      "amenity": "fast_food",
      "cuisine": "chinese",
      "wheelchair": "yes",
      "opening_hours": "Mo-Su 11:00-21:00",
      "drive_through": "no",
      "addr_state": "MN",
      "addr_city": "Apple Valley",
      "addr_housenumber": "7632",
      "value": 205.6598940738202
    },
    {
      "id": 28027,
      "geometry": "POINT (-93.22691 44.973482)",
      "poi_name": "Chipotle",
      "osm_id": 462046831,
      "amenity": "fast_food",
      "cuisine": "mexican",
      "opening_hours": "Mo-Su 11:00-22:00",
      "website": "https://www.chipotle.com/",
      "phone": "+16123787063",
      "takeaway": "yes",
      "official_name": "Chipotle Mexican Grill",
      "addr_state": "MN",
      "addr_city": "Minneapolis",
      "addr_postcode": "55414",
      "addr_street": "Southeast Washington Avenue",
      "addr_housenumber": "800",
      "value": 205.6598940738202
    },
    {
      "id": 28091,
      "geometry": "POINT (-93.236182 44.980791)",
      "poi_name": "Mesa Pizza",
      "osm_id": 465956402,
      "amenity": "fast_food",
      "cuisine": "pizza",
      "wheelchair": "yes",
      "opening_hours": "Mo-We 11:00-02:30; Th-Sa 11:00-03:00; Su 11:00-00:00",
      "website": "https://www.mesapizzamn.com",
      "phone": "+1-612-436-3006",
      "drive_through": "no",
      "addr_state": "MN",
      "addr_city": "Minneapolis",
      "addr_postcode": "55414",
      "addr_street": "Southeast 4th Street",
      "addr_housenumber": "1323",
      "value": 205.6598940738202
    },
    {
      "id": 31982,
      "geometry": "POINT (-93.430149 44.707381)",
      "poi_name": "Subway",
      "osm_id": 2616822947,
      "amenity": "fast_food",
      "cuisine": "sandwich",
      "takeaway": "yes",
      "addr_city": "Prior Lake",
      "addr_postcode": "55372",
      "addr_street": "Duluth Avenue Southeast",
      "addr_housenumber": "16711",
      "value": 205.6598940738202
    },
    {
      "id": 34277,
      "geometry": "POINT (-93.321757 44.873448)",
      "poi_name": "Wendy's",
      "osm_id": 2698764200,
      "amenity": "fast_food",
      "cuisine": "burger",
      "website": "https://www.wendys.com/",
      "phone": "+1 952 831 7666",
      "takeaway": "yes",
      "drive_through": "yes",
      "addr_city": "Edina",
      "addr_postcode": "55435",
      "addr_street": "Hazelton Road",
      "addr_housenumber": "3301",
      "value": 205.6598940738202
    },
    {
      "id": 34158,
      "geometry": "POINT (-93.326554 44.866406)",
      "poi_name": "CherryBerry",
      "osm_id": 2696863123,
      "amenity": "fast_food",
      "cuisine": "ice_cream",
      "website": "https://www.cherryberryyogurtbar.com/",
      "phone": "+1 612 963 2215",
      "addr_city": "Edina",
      "addr_postcode": "55435",
      "addr_street": "France Avenue South",
      "addr_housenumber": "7509",
      "value": 205.6598940738202
    },
    {
      "id": 34159,
      "geometry": "POINT (-93.326594 44.866319)",
      "poi_name": "Jamba Juice",
      "osm_id": 2696871382,
      "amenity": "fast_food",
      "cuisine": "juice",
      "website": "https://www.jambajuice.com/",
      "phone": "+1 952 842 9251",
      "takeaway": "yes",
      "addr_city": "Edina",
      "addr_postcode": "55435",
      "addr_street": "France Avenue South",
      "addr_housenumber": "7511",
      "value": 205.6598940738202
    },
    {
      "id": 34152,
      "geometry": "POINT (-93.328212 44.870011)",
      "poi_name": "Tamarind",
      "osm_id": 2696746586,
      "amenity": "fast_food",
      "cuisine": "indian",
      "addr_city": "Edina",
      "addr_postcode": "55435-5251",
      "addr_street": "Gallagher Drive",
      "addr_housenumber": "3875",
      "value": 205.6598940738202
    },
    {
      "id": 34153,
      "geometry": "POINT (-93.32822 44.870091)",
      "poi_name": "Five Guys",
      "osm_id": 2696750413,
      "amenity": "fast_food",
      "cuisine": "burger",
      "website": "https://www.fiveguys.com/",
      "phone": "+1 952 893 5489",
      "takeaway": "yes",
      "official_name": "Five Guys Burgers and Fries",
      "addr_city": "Edina",
      "addr_postcode": "55435-5251",
      "addr_street": "Gallagher Drive",
      "addr_housenumber": "3871",
      "value": 205.6598940738202
    },
    {
      "id": 34154,
      "geometry": "POINT (-93.328526 44.870528)",
      "poi_name": "Potbelly",
      "osm_id": 2696760321,
      "amenity": "fast_food",
      "cuisine": "sandwich",
      "website": "https://www.potbelly.com/",
      "phone": "+1 952 806 9961",
      "takeaway": "yes",
      "official_name": "Potbelly Sandwich Works",
      "addr_city": "Edina",
      "addr_postcode": "55435",
      "addr_street": "Gallagher Drive",
      "addr_housenumber": "3863",
      "value": 205.6598940738202
    },
    {
      "id": 34279,
      "geometry": "POINT (-93.322266 44.873474)",
      "poi_name": "Panera Bread",
      "osm_id": 2698782527,
      "amenity": "fast_food",
      "cuisine": "sandwich;bakery",
      "website": "http://www.panerabread.com",
      "phone": "+1 952 835 7825",
      "takeaway": "yes",
      "addr_city": "Edina",
      "addr_postcode": "55435",
      "addr_street": "Hazelton Road",
      "addr_housenumber": "3345",
      "value": 205.6598940738202
    },
    {
      "id": 34464,
      "geometry": "POINT (-93.320314 44.879318)",
      "poi_name": "Pizza Hut/Wing Street",
      "osm_id": 2700332811,
      "amenity": "fast_food",
      "cuisine": "pizza",
      "website": "https://www.pizzahut.com/",
      "phone": "+1 952 893 9000",
      "addr_city": "Edina",
      "addr_postcode": "55435",
      "addr_street": "York Avenue South",
      "addr_housenumber": "6805",
      "value": 205.6598940738202
    },
    {
      "id": 34466,
      "geometry": "POINT (-93.320556 44.879142)",
      "poi_name": "Chipotle",
      "osm_id": 2700340769,
      "amenity": "fast_food",
      "cuisine": "mexican",
      "website": "https://www.chipotle.com",
      "phone": "+1 952 926 6651",
      "takeaway": "yes",
      "official_name": "Chipotle Mexican Grill",
      "addr_city": "Edina",
      "addr_postcode": "55435",
      "addr_street": "York Avenue South",
      "addr_housenumber": "6801",
      "value": 205.6598940738202
    },
    {
      "id": 35158,
      "geometry": "POINT (-93.096535 44.947231)",
      "poi_name": "Afro Deli",
      "osm_id": 2711785681,
      "amenity": "fast_food",
      "cuisine": "sandwich",
      "opening_hours": "Mo-Sa 11:00-19:00",
      "website": "http://www.afrodeli.com/",
      "phone": "+1-651-888-2168",
      "addr_city": "Saint Paul",
      "addr_street": "West 7th Place",
      "addr_housenumber": "5",
      "value": 205.6598940738202
    },
    {
      "id": 43020,
      "geometry": "POINT (-93.318212 44.883833)",
      "poi_name": "Subway",
      "osm_id": 3092884920,
      "amenity": "fast_food",
      "cuisine": "sandwich",
      "website": "https://www.subway.com/",
      "phone": "+1 612 886 7042",
      "takeaway": "yes",
      "addr_city": "Richfield",
      "addr_postcode": "55423",
      "addr_street": "West 66th Street",
      "addr_housenumber": "3016",
      "value": 205.6598940738202
    },
    {
      "id": 43491,
      "geometry": "POINT (-93.308253 44.86095)",
      "poi_name": "Bruegger's Bagels",
      "osm_id": 3115429084,
      "amenity": "fast_food",
      "cuisine": "bagel",
      "opening_hours": "Mo-Fr 06:00-17:00, Sa 06:00-16:00, Su 07:00-16:00",
      "website": "https://www.brueggers.com",
      "phone": "+1 952 703 0443",
      "takeaway": "yes",
      "addr_city": "Bloomington",
      "addr_postcode": "55431",
      "addr_street": "Southtown Center",
      "addr_housenumber": "7801",
      "value": 205.6598940738202
    },
    {
      "id": 43493,
      "geometry": "POINT (-93.30807 44.860956)",
      "poi_name": "Subway",
      "osm_id": 3115443780,
      "amenity": "fast_food",
      "cuisine": "sandwich",
      "website": "https://www.subway.com/",
      "phone": "+1 952 884 7186",
      "takeaway": "yes",
      "addr_city": "Bloomington",
      "addr_postcode": "55431",
      "value": 205.6598940738202
    },
    {
      "id": 43494,
      "geometry": "POINT (-93.307515 44.860962)",
      "poi_name": "Panda Express",
      "osm_id": 3115445104,
      "amenity": "fast_food",
      "cuisine": "chinese",
      "website": "https://www.pandaexpress.com",
      "phone": "+1 952 884 6896",
      "takeaway": "yes",
      "addr_city": "Bloomington",
      "addr_postcode": "55431",
      "addr_street": "Southtown Center",
      "addr_housenumber": "7823",
      "value": 205.6598940738202
    },
    {
      "id": 45325,
      "geometry": "POINT (-93.32126 44.947508)",
      "poi_name": "Chipotle",
      "osm_id": 3201041025,
      "amenity": "fast_food",
      "cuisine": "mexican",
      "website": "https://locations.chipotle.com/mn/minneapolis/3040-excelsior-blvd?utm_source=google&utm_medium=yext&utm_campaign=yext_listings",
      "phone": "+16129226662",
      "takeaway": "yes",
      "official_name": "Chipotle Mexican Grill",
      "addr_state": "MN",
      "addr_city": "Minneapolis",
      "addr_postcode": "55416",
      "addr_street": "Excelsior Boulevard",
      "addr_housenumber": "3040",
      "value": 205.6598940738202
    },
    {
      "id": 45900,
      "geometry": "POINT (-93.261404 44.978335)",
      "poi_name": "Subway",
      "osm_id": 3235588407,
      "amenity": "fast_food",
      "cuisine": "sandwich",
      "takeaway": "yes",
      "addr_state": "MN",
      "addr_city": "Minneapolis",
      "value": 205.6598940738202
    },
    {
      "id": 45929,
      "geometry": "POINT (-93.324648 44.881695)",
      "poi_name": "Qdoba",
      "osm_id": 3236744521,
      "amenity": "fast_food",
      "cuisine": "mexican",
      "phone": "+1 952 277 3504",
      "takeaway": "yes",
      "official_name": "Qdoba Mexican Grill",
      "addr_state": "MN",
      "addr_city": "Edina",
      "addr_postcode": "55435",
      "addr_street": "Southdale Center",
      "value": 205.6598940738202
    },
    {
      "id": 45930,
      "geometry": "POINT (-93.32488 44.881534)",
      "poi_name": "Smashburger",
      "osm_id": 3236752485,
      "amenity": "fast_food",
      "cuisine": "burger",
      "website": "https://smashburger.com/",
      "phone": "+1 952 232 5610",
      "takeaway": "yes",
      "addr_state": "MN",
      "addr_city": "Edina",
      "addr_postcode": "55435",
      "addr_street": "Southdale Center",
      "value": 205.6598940738202
    },
    {
      "id": 45931,
      "geometry": "POINT (-93.32391 44.881063)",
      "poi_name": "Subway",
      "osm_id": 3236758696,
      "amenity": "fast_food",
      "cuisine": "sandwich",
      "website": "https://www.subway.com/",
      "phone": "+1 952 583 2835",
      "takeaway": "yes",
      "addr_state": "MN",
      "addr_city": "Edina",
      "addr_postcode": "55435",
      "addr_street": "Southdale Center",
      "value": 205.6598940738202
    },
    {
      "id": 45933,
      "geometry": "POINT (-93.324359 44.881198)",
      "poi_name": "Panda Express",
      "osm_id": 3236765958,
      "amenity": "fast_food",
      "cuisine": "chinese",
      "website": "https://www.pandaexpress.com",
      "phone": "+1 952 920 9988",
      "takeaway": "yes",
      "addr_state": "MN",
      "addr_city": "Edina",
      "addr_postcode": "55435",
      "addr_street": "Southdale Center",
      "value": 205.6598940738202
    },
    {
      "id": 41185,
      "geometry": "POINT (-93.227323 44.973529)",
      "poi_name": "Bruegger's Bagels",
      "osm_id": 3005915376,
      "amenity": "fast_food",
      "cuisine": "bagel",
      "internet_access": "yes",
      "phone": "+1-612-378-2145",
      "takeaway": "yes",
      "official_name": "Bruegger\u2019s Bagels #3815",
      "addr_state": "MN",
      "addr_city": "Minneapolis",
      "addr_postcode": "55414",
      "addr_street": "Southeast Washington Avenue",
      "addr_housenumber": "720",
      "value": 205.6598940738202
    },
    {
      "id": 43022,
      "geometry": "POINT (-93.319014 44.884027)",
      "poi_name": "Dino's Gyros",
      "osm_id": 3092897691,
      "amenity": "fast_food",
      "cuisine": "greek",
      "website": "http://dinosgyros.com",
      "phone": "+1 612 866 6363",
      "addr_city": "Edina",
      "addr_postcode": "55435",
      "addr_street": "York Avenue South",
      "addr_housenumber": "6539",
      "value": 205.6598940738202
    },
    {
      "id": 43023,
      "geometry": "POINT (-93.319506 44.883978)",
      "poi_name": "Jersey Mikes Subs",
      "osm_id": 3092902688,
      "amenity": "fast_food",
      "cuisine": "sandwich",
      "phone": "+1 612 869 2207",
      "outdoor_seating": "no",
      "delivery": "no",
      "addr_city": "Edina",
      "addr_postcode": "55435",
      "addr_street": "York Avenue South",
      "addr_housenumber": "6559",
      "value": 205.6598940738202
    },
    {
      "id": 43601,
      "geometry": "POINT (-93.309352 44.859452)",
      "poi_name": "Jimmy John's",
      "osm_id": 3121514357,
      "amenity": "fast_food",
      "cuisine": "sandwich",
      "website": "https://www.jimmyjohns.com",
      "phone": "+1 952 229 8400",
      "takeaway": "yes",
      "official_name": "Jimmy John's Gourmet Sandwiches",
      "addr_city": "Bloomington",
      "addr_postcode": "55431",
      "addr_street": "Penn Avenue S",
      "addr_housenumber": "7942",
      "value": 205.6598940738202
    },
    {
      "id": 45943,
      "geometry": "POINT (-93.346672 44.852749)",
      "poi_name": "Jimmy John's",
      "osm_id": 3237041780,
      "amenity": "fast_food",
      "cuisine": "sandwich",
      "website": "https://www.jimmyjohns.com",
      "phone": "+1 952 893 9600",
      "takeaway": "yes",
      "official_name": "Jimmy John's Gourmet Sandwiches",
      "addr_state": "MN",
      "addr_city": "Bloomington",
      "addr_postcode": "55438",
      "addr_street": "West 84th Street",
      "addr_housenumber": "5234",
      "value": 205.6598940738202
    },
    {
      "id": 45944,
      "geometry": "POINT (-93.347052 44.8521)",
      "poi_name": "Panchero's Mexican Grill",
      "osm_id": 3237043970,
      "amenity": "fast_food",
      "cuisine": "mexican",
      "website": "https://www.pancheros.com/",
      "phone": "+1 952 767 6844",
      "addr_state": "MN",
      "addr_city": "Bloomington",
      "addr_postcode": "55438",
      "addr_street": "West 84th Street",
      "addr_housenumber": "5200",
      "value": 205.6598940738202
    },
    {
      "id": 48190,
      "geometry": "POINT (-93.226461 44.973425)",
      "poi_name": "Nashville Coop",
      "osm_id": 3370628054,
      "amenity": "fast_food",
      "cuisine": "chicken",
      "opening_hours": "Mo-Sa 11:00-21:00",
      "website": "https://nashvillecoop.com/",
      "phone": "+1-612-236-4139",
      "addr_state": "MN",
      "addr_city": "Minneapolis",
      "addr_postcode": "55414",
      "addr_street": "Southeast Washington Avenue",
      "addr_housenumber": "856",
      "value": 205.6598940738202
    },
    {
      "id": 49621,
      "geometry": "POINT (-92.965878 44.996698)",
      "poi_name": "Subway",
      "osm_id": 3444791699,
      "amenity": "fast_food",
      "cuisine": "sandwich",
      "opening_hours": "Mo-Fr 07:00-21:00, Sa 08:00-21:00, Su 09:00-21:00",
      "takeaway": "yes",
      "drive_through": "no",
      "addr_state": "MN",
      "addr_city": "Oakdale",
      "addr_postcode": "55128",
      "addr_street": "33rd Street North",
      "addr_housenumber": "6952",
      "value": 205.6598940738202
    },
    {
      "id": 49402,
      "geometry": "POINT (-93.385544 44.936347)",
      "poi_name": "Panera Bread",
      "osm_id": 3430421017,
      "amenity": "fast_food",
      "cuisine": "sandwich;bakery",
      "website": "https://locations.panerabread.com/mn/st--louis-park/8452-highway-7.html?utm_campaign=dpm-dist&utm_medium=local&utm_source=google&utm_term=601307&utm_content=main",
      "phone": "+19529330119",
      "takeaway": "yes",
      "addr_state": "MN",
      "addr_city": "Saint Louis Park",
      "addr_postcode": "55426",
      "addr_street": "Minnesota State Highway 7",
      "addr_housenumber": "8452",
      "value": 205.6598940738202
    },
    {
      "id": 50139,
      "geometry": "POINT (-93.092468 44.948537)",
      "poi_name": "Subway",
      "osm_id": 3468474341,
      "amenity": "fast_food",
      "cuisine": "sandwich",
      "opening_hours": "Mo-Fr 06:00-17:00",
      "phone": "+1-651-330-3469",
      "takeaway": "yes",
      "addr_state": "MN",
      "addr_city": "Saint Paul",
      "addr_postcode": "55101",
      "addr_street": "Robert Street North",
      "addr_housenumber": "401",
      "value": 205.6598940738202
    },
    {
      "id": 51471,
      "geometry": "POINT (-93.50898 44.781917)",
      "poi_name": "Papa Murphy's",
      "osm_id": 535742431,
      "amenity": "fast_food",
      "cuisine": "pizza",
      "takeaway": "only",
      "official_name": "Papa Murphy's Take 'N' Bake Pizza",
      "addr_state": "MN",
      "addr_city": "Shakopee",
      "addr_postcode": "55379",
      "addr_street": "Vierling Drive East",
      "addr_housenumber": "1106",
      "value": 205.6598940738202
    },
    {
      "id": 51623,
      "geometry": "POINT (-93.298063 44.949122)",
      "poi_name": "McDonald's",
      "osm_id": 544194070,
      "amenity": "fast_food",
      "cuisine": "burger",
      "website": "https://www.mcdonalds.com/us/en-us/location/mn/minneapolis/2929-hennepin-ave-s/1761.html",
      "takeaway": "yes",
      "drive_through": "yes",
      "addr_state": "MN",
      "addr_city": "Minneapolis",
      "addr_postcode": "55408",
      "addr_street": "Hennepin Avenue South",
      "addr_housenumber": "2929",
      "value": 205.6598940738202
    },
    {
      "id": 51647,
      "geometry": "POINT (-93.199403 44.964406)",
      "poi_name": "Jimmy John's",
      "osm_id": 544857708,
      "amenity": "fast_food",
      "cuisine": "sandwich",
      "wheelchair": "yes",
      "website": "https://www.jimmyjohns.com",
      "phone": "+1-651-646-4777",
      "takeaway": "yes",
      "drive_through": "no",
      "official_name": "Jimmy John's Gourmet Sandwiches",
      "delivery": "yes",
      "addr_state": "MN",
      "addr_city": "Saint Paul",
      "addr_postcode": "55114",
      "addr_street": "University Avenue West",
      "addr_housenumber": "2446",
      "value": 205.6598940738202
    },
    {
      "id": 52212,
      "geometry": "POINT (-93.34994 44.966532)",
      "poi_name": "Jersey Mike's Subs",
      "osm_id": 573787252,
      "amenity": "fast_food",
      "cuisine": "sandwich",
      "opening_hours": "10:00-21:00",
      "website": "https://www.jerseymikes.com/24007",
      "phone": "+19525121600",
      "takeaway": "yes",
      "addr_state": "MN",
      "addr_city": "Saint Louis Park",
      "addr_postcode": "55416",
      "addr_street": "Park Place Boulevard",
      "addr_housenumber": "1650",
      "value": 205.6598940738202
    },
    {
      "id": 51792,
      "geometry": "POINT (-93.188552 44.917554)",
      "poi_name": "Chipotle",
      "osm_id": 560483838,
      "amenity": "fast_food",
      "cuisine": "mexican",
      "opening_hours": "Mo-Su 11:00-22:00",
      "website": "https://www.chipotle.com/",
      "phone": "+16516991000",
      "takeaway": "yes",
      "official_name": "Chipotle Mexican Grill",
      "addr_state": "MN",
      "addr_city": "Saint Paul",
      "addr_postcode": "55116",
      "addr_street": "Ford Parkway",
      "addr_housenumber": "2082",
      "value": 205.6598940738202
    },
    {
      "id": 52366,
      "geometry": "POINT (-93.171767 44.901984)",
      "poi_name": "Subway",
      "osm_id": 580367692,
      "amenity": "fast_food",
      "cuisine": "sandwich",
      "takeaway": "yes",
      "addr_state": "MN",
      "addr_city": "Saint Paul",
      "addr_postcode": "55116",
      "addr_street": "7th Street West",
      "addr_housenumber": "2513",
      "value": 205.6598940738202
    },
    {
      "id": 54810,
      "geometry": "POINT (-93.081017 44.932843)",
      "poi_name": "Pollos Asados",
      "osm_id": 10158023781,
      "amenity": "fast_food",
      "cuisine": "chicken",
      "addr_state": "MN",
      "addr_city": "Saint Paul",
      "addr_postcode": "55107",
      "addr_street": "Robert Street South",
      "addr_housenumber": "433",
      "value": 205.6598940738202
    },
    {
      "id": 62649,
      "geometry": "POINT (-93.248648 44.657746)",
      "poi_name": "Papa Murphy's",
      "osm_id": 5579549608,
      "amenity": "fast_food",
      "cuisine": "pizza",
      "website": "https://order.papamurphys.com/menu/papa-murphys-heritage-dr",
      "takeaway": "only",
      "official_name": "Papa Murphy's Take 'N' Bake Pizza",
      "addr_state": "MN",
      "addr_city": "Lakeville",
      "addr_postcode": "55044",
      "addr_street": "Heritage",
      "addr_housenumber": "20190",
      "value": 205.6598940738202
    },
    {
      "id": 61935,
      "geometry": "POINT (-93.115118 45.080131)",
      "poi_name": "Jersey Mike's Subs",
      "osm_id": 5542895996,
      "amenity": "fast_food",
      "cuisine": "sandwich",
      "opening_hours": "Su-Sa 10:00-21:00",
      "takeaway": "yes",
      "addr_state": "MN",
      "addr_city": "North Oaks",
      "addr_postcode": "55127",
      "addr_street": "Village Center Drive",
      "addr_housenumber": "119B",
      "value": 205.6598940738202
    },
    {
      "id": 62652,
      "geometry": "POINT (-93.254209 44.657147)",
      "poi_name": "McDonald's",
      "osm_id": 5579560834,
      "amenity": "fast_food",
      "cuisine": "burger",
      "website": "https://www.mcdonalds.com/us/en-us/location/mn/lakeville/20158-icenic-trl/12632.html",
      "takeaway": "yes",
      "addr_state": "MN",
      "addr_city": "Lakeville",
      "addr_postcode": "55044",
      "addr_street": "Icenic Trail",
      "addr_housenumber": "20158",
      "value": 205.6598940738202
    },
    {
      "id": 63676,
      "geometry": "POINT (-93.514828 44.891045)",
      "poi_name": "Subway",
      "osm_id": 5627517142,
      "amenity": "fast_food",
      "cuisine": "sandwich",
      "takeaway": "yes",
      "drive_through": "no",
      "outdoor_seating": "no",
      "addr_state": "MN",
      "addr_city": "Eden Prairie",
      "addr_street": "Dell Road",
      "addr_housenumber": "6209",
      "value": 205.6598940738202
    },
    {
      "id": 63617,
      "geometry": "POINT (-93.530774 44.859781)",
      "poi_name": "Potbelly",
      "osm_id": 5625484111,
      "amenity": "fast_food",
      "cuisine": "sandwich",
      "takeaway": "yes",
      "official_name": "Potbelly Sandwich Works",
      "addr_state": "MN",
      "addr_city": "Chanhassen",
      "addr_street": "Great Plains Boulevard",
      "addr_housenumber": "7905",
      "value": 205.6598940738202
    },
    {
      "id": 63618,
      "geometry": "POINT (-93.530359 44.859845)",
      "poi_name": "Smashburger",
      "osm_id": 5625484112,
      "amenity": "fast_food",
      "cuisine": "burger",
      "takeaway": "yes",
      "addr_state": "MN",
      "addr_city": "Chanhassen",
      "addr_street": "Great Plains Boulevard",
      "addr_housenumber": "7905",
      "value": 205.6598940738202
    },
    {
      "id": 65571,
      "geometry": "POINT (-93.234886 44.979035)",
      "poi_name": "Raising Cane's",
      "osm_id": 5703176545,
      "amenity": "fast_food",
      "cuisine": "chicken",
      "website": "https://www.raisingcanes.com",
      "phone": "+1-612-331-4279",
      "takeaway": "yes",
      "drive_through": "no",
      "official_name": "Raising Cane's Chicken Fingers",
      "addr_state": "MN",
      "addr_city": "Minneapolis",
      "addr_postcode": "55414",
      "addr_street": "Southeast 15th Avenue",
      "addr_housenumber": "302",
      "value": 205.6598940738202
    },
    {
      "id": 66879,
      "geometry": "POINT (-93.579702 44.892732)",
      "poi_name": "Milio's",
      "osm_id": 11215344955,
      "amenity": "fast_food",
      "cuisine": "sandwich",
      "wheelchair": "yes",
      "opening_hours": "Mo-Fr 10:30-19:00, Sa-Su 11:00-16:00",
      "website": "https://milios.com/stores/shorewood/",
      "internet_access": "no",
      "phone": "+1-952-474-2020",
      "takeaway": "yes",
      "drive_through": "no",
      "official_name": "Milio's Sandwiches",
      "addr_state": "MN",
      "addr_city": "Shorewood",
      "addr_postcode": "55331",
      "addr_street": "Minnesota State Highway 7",
      "addr_housenumber": "23480",
      "value": 205.6598940738202
    },
    {
      "id": 70165,
      "geometry": "POINT (-93.234574 44.98026)",
      "poi_name": "McDonald's",
      "osm_id": 11347066718,
      "amenity": "fast_food",
      "cuisine": "burger",
      "website": "https://www.mcdonalds.com/us/en-us/location/mn/minneapolis/1425-4th-st-se/39461.html",
      "takeaway": "yes",
      "drive_through": "no",
      "addr_state": "MN",
      "addr_city": "Minneapolis",
      "addr_postcode": "55414",
      "addr_street": "4th Street Southeast",
      "addr_housenumber": "1425",
      "value": 205.6598940738202
    },
    {
      "id": 72973,
      "geometry": "POINT (-93.135788 44.647664)",
      "poi_name": "Papa Murphy's",
      "osm_id": 9598541573,
      "amenity": "fast_food",
      "cuisine": "pizza",
      "opening_hours": "Mo-Su 15:00-20:00",
      "phone": "+1 651 460 4139",
      "takeaway": "only",
      "official_name": "Papa Murphy's Take 'N' Bake Pizza",
      "addr_state": "MN",
      "addr_city": "Farmington",
      "addr_postcode": "55024",
      "addr_street": "Chippendale Avenue W",
      "addr_housenumber": "20700",
      "value": 205.6598940738202
    },
    {
      "id": 73110,
      "geometry": "POINT (-93.34996 44.94807)",
      "poi_name": "Domino's",
      "osm_id": 9607676569,
      "amenity": "fast_food",
      "cuisine": "pizza",
      "website": "https://www.dominos.com/en/?utm_source=google&utm_medium=loclist&utm_campaign=localmaps",
      "phone": "+19529265422",
      "takeaway": "yes",
      "addr_state": "MN",
      "addr_city": "Saint Louis Park",
      "addr_postcode": "55416",
      "addr_street": "Lake Street West",
      "addr_housenumber": "5551",
      "value": 205.6598940738202
    },
    {
      "id": 73153,
      "geometry": "POINT (-93.348018 44.962676)",
      "poi_name": "Which Wich?",
      "osm_id": 9610330947,
      "amenity": "fast_food",
      "cuisine": "sandwich",
      "website": "https://www.whichwich.com/",
      "phone": "+19524019424",
      "takeaway": "yes",
      "addr_state": "MN",
      "addr_city": "Saint Louis Park",
      "addr_postcode": "55416",
      "addr_street": "Cedar Lake Road",
      "addr_housenumber": "5330",
      "value": 205.6598940738202
    },
    {
      "id": 77667,
      "geometry": "POINT (-93.224789 44.973786)",
      "poi_name": "Burger King",
      "osm_id": 704892254,
      "amenity": "fast_food",
      "cuisine": "burger",
      "takeaway": "yes",
      "drive_through": "yes",
      "addr_state": "MN",
      "addr_city": "Minneapolis",
      "addr_postcode": "55414",
      "addr_street": "Southeast Washington Avenue",
      "addr_housenumber": "925",
      "value": 205.6598940738202
    },
    {
      "id": 78564,
      "geometry": "POINT (-92.999304 45.277778)",
      "poi_name": "Arby's",
      "osm_id": 757035874,
      "amenity": "fast_food",
      "cuisine": "sandwich",
      "takeaway": "yes",
      "addr_state": "MN",
      "value": 205.6598940738202
    },
    {
      "id": 78565,
      "geometry": "POINT (-92.997048 45.276909)",
      "poi_name": "Subway",
      "osm_id": 757042606,
      "amenity": "fast_food",
      "cuisine": "sandwich",
      "takeaway": "yes",
      "addr_city": "Forest Lake",
      "value": 205.6598940738202
    },
    {
      "id": 78803,
      "geometry": "POINT (-93.410355 44.985049)",
      "poi_name": "Arby's",
      "osm_id": 763529250,
      "amenity": "fast_food",
      "cuisine": "sandwich",
      "takeaway": "yes",
      "addr_state": "MN",
      "value": 205.6598940738202
    },
    {
      "id": 79127,
      "geometry": "POINT (-93.52571 44.798865)",
      "poi_name": "Papa John's",
      "osm_id": 774389098,
      "amenity": "fast_food",
      "cuisine": "pizza",
      "opening_hours": "Mo-Fr 10:00-19:00",
      "takeaway": "yes",
      "addr_state": "MN",
      "addr_city": "Shakopee",
      "addr_postcode": "55379",
      "addr_street": "1st Avenue East",
      "addr_housenumber": "165",
      "value": 205.6598940738202
    },
    {
      "id": 79128,
      "geometry": "POINT (-93.508617 44.794721)",
      "poi_name": "Pizza and Pasta",
      "osm_id": 774389105,
      "amenity": "fast_food",
      "cuisine": "pizza",
      "website": "https://www.pizzanpasta.com/",
      "phone": "+1-952-496-0000",
      "addr_state": "MN",
      "addr_city": "Shakopee",
      "addr_postcode": "55379",
      "addr_street": "Marschall Road",
      "addr_housenumber": "584",
      "value": 205.6598940738202
    },
    {
      "id": 79129,
      "geometry": "POINT (-93.524506 44.798724)",
      "poi_name": "Domino's",
      "osm_id": 774389132,
      "amenity": "fast_food",
      "cuisine": "pizza",
      "opening_hours": "Su-Th 10:30-01:00; Fr-Sa 10:30-02:00",
      "website": "https://pizza.dominos.com/minnesota/shakopee/224-1st-ave-e/",
      "phone": "+1-952-445-9200",
      "takeaway": "yes",
      "addr_state": "MN",
      "addr_city": "Shakopee",
      "addr_postcode": "55379",
      "addr_street": "1st Avenue East",
      "addr_housenumber": "224",
      "value": 205.6598940738202
    },
    {
      "id": 79153,
      "geometry": "POINT (-93.235437 44.980667)",
      "poi_name": "Jimmy John's",
      "osm_id": 775455653,
      "amenity": "fast_food",
      "cuisine": "sandwich",
      "takeaway": "yes",
      "drive_through": "no",
      "official_name": "Jimmy John's Gourmet Sandwiches",
      "addr_state": "MN",
      "addr_city": "Minneapolis",
      "addr_postcode": "55414",
      "addr_street": "Southeast 14th Avenue",
      "addr_housenumber": "404",
      "value": 205.6598940738202
    },
    {
      "id": 79360,
      "geometry": "POINT (-93.350054 44.966808)",
      "poi_name": "Leeann Chin",
      "osm_id": 801057295,
      "amenity": "fast_food",
      "cuisine": "chinese",
      "website": "https://www.leeannchin.com/",
      "phone": "+19525450860",
      "addr_state": "MN",
      "addr_city": "Saint Louis Park",
      "addr_postcode": "55416",
      "addr_street": "Park Place Boulevard",
      "addr_housenumber": "1620",
      "value": 205.6598940738202
    },
    {
      "id": 79408,
      "geometry": "POINT (-93.235862 44.980678)",
      "poi_name": "CrunCheese",
      "osm_id": 803066708,
      "amenity": "fast_food",
      "cuisine": "korean",
      "opening_hours": "11:30-22:00",
      "website": "https://www.cruncheeseusa.com/",
      "drive_through": "no",
      "addr_state": "MN",
      "addr_city": "Minneapolis",
      "addr_postcode": "55414",
      "addr_street": "Southeast 14th Avenue",
      "addr_housenumber": "401",
      "value": 205.6598940738202
    },
    {
      "id": 80025,
      "geometry": "POINT (-93.23571 44.980294)",
      "poi_name": "Potbelly",
      "osm_id": 845506724,
      "amenity": "fast_food",
      "cuisine": "sandwich",
      "opening_hours": "Mo-Fr 10:00-21:00; Sa 11:00-21:00; Su 11:00-20:00",
      "website": "https://www.potbelly.com/",
      "phone": "+1-612-623-8155",
      "takeaway": "yes",
      "drive_through": "no",
      "official_name": "Potbelly Sandwich Works",
      "addr_state": "MN",
      "addr_city": "Minneapolis",
      "addr_postcode": "55414",
      "addr_street": "Southeast 14th Avenue",
      "addr_housenumber": "326",
      "value": 205.6598940738202
    },
    {
      "id": 80026,
      "geometry": "POINT (-93.235703 44.980873)",
      "poi_name": "ChuRyce",
      "osm_id": 845506737,
      "amenity": "fast_food",
      "cuisine": "korean",
      "wheelchair": "limited",
      "drive_through": "no",
      "addr_state": "MN",
      "addr_city": "Minneapolis",
      "addr_postcode": "55414",
      "addr_street": "Southeast 14th Avenue",
      "addr_housenumber": "409",
      "value": 205.6598940738202
    },
    {
      "id": 79932,
      "geometry": "POINT (-93.387424 44.936126)",
      "poi_name": "Jimmy John's",
      "osm_id": 837149786,
      "amenity": "fast_food",
      "cuisine": "sandwich",
      "website": "https://locations.jimmyjohns.com/mn/st-louispark/sandwiches-258.html?utm_source=google%20my%20business&utm_medium=organic&utm_campaign=website%20link",
      "phone": "+19529367827",
      "takeaway": "yes",
      "official_name": "Jimmy John's Gourmet Sandwiches",
      "addr_state": "MN",
      "addr_city": "Saint Louis Park",
      "addr_postcode": "55426",
      "addr_street": "Minnesota State Highway 7",
      "addr_housenumber": "8500",
      "value": 205.6598940738202
    },
    {
      "id": 80825,
      "geometry": "POINT (-93.146926 44.994626)",
      "poi_name": "Papa Murphy's",
      "osm_id": 1583379457,
      "amenity": "fast_food",
      "cuisine": "pizza",
      "opening_hours": "Mo-Th 11:00-20:00; Fr-Sa 11:00-21:00; Su 11:00-21:00",
      "website": "https://www.order.papamurphys.com",
      "phone": "+1-651-489-2212",
      "takeaway": "only",
      "drive_through": "no",
      "official_name": "Papa Murphy's Take 'N' Bake Pizza",
      "addr_state": "MN",
      "addr_city": "Roseville",
      "addr_postcode": "55113",
      "addr_street": "Lexington Avenue North",
      "addr_housenumber": "1763",
      "value": 205.6598940738202
    },
    {
      "id": 83758,
      "geometry": "POINT (-93.095424 44.945447)",
      "poi_name": "Chipotle",
      "osm_id": 1764657600,
      "amenity": "fast_food",
      "cuisine": "mexican",
      "opening_hours": "Mo-Fr 10:30-20:00; Sa 10:45-17:00",
      "website": "https://www.chipotle.com/",
      "phone": "+1-651-291-5411",
      "takeaway": "yes",
      "official_name": "Chipotle Mexican Grill",
      "addr_state": "MN",
      "addr_city": "Saint Paul",
      "addr_postcode": "55102",
      "addr_street": "5th Street West",
      "addr_housenumber": "29",
      "value": 205.6598940738202
    },
    {
      "id": 83323,
      "geometry": "POINT (-93.093531 44.952065)",
      "poi_name": "Jimmy John's",
      "osm_id": 1739257785,
      "amenity": "fast_food",
      "cuisine": "sandwich",
      "opening_hours": "Su-We 11:00-22:00;Th-Sa 11:00-24:00;Fr-Su 00:00-02:00",
      "website": "https://www.jimmyjohns.com/",
      "phone": "+1-651-665-9000",
      "takeaway": "yes",
      "official_name": "Jimmy John's Gourmet Sandwiches",
      "addr_city": "Saint Paul",
      "addr_street": "Jackson Street",
      "addr_housenumber": "523",
      "value": 205.6598940738202
    },
    {
      "id": 84331,
      "geometry": "POINT (-93.347591 44.968288)",
      "poi_name": "Jimmy John's",
      "osm_id": 1784145676,
      "amenity": "fast_food",
      "cuisine": "sandwich",
      "takeaway": "yes",
      "official_name": "Jimmy John's Gourmet Sandwiches",
      "addr_city": "Saint Louis Park",
      "addr_street": "16th Street West",
      "addr_housenumber": "5340",
      "value": 205.6598940738202
    },
    {
      "id": 86064,
      "geometry": "POINT (-93.147814 44.992598)",
      "poi_name": "Papa John's",
      "osm_id": 1914627272,
      "amenity": "fast_food",
      "cuisine": "pizza",
      "opening_hours": "Mo-Th 10:00-00:00; Fr-Sa 10:00-02:00; Su 10:00-00:00",
      "website": "https://locations.papajohns.com/united-states/mn/55113-6335/roseville/1133-larpenteur-ave-w",
      "phone": "+1-651-487-9990",
      "takeaway": "yes",
      "drive_through": "no",
      "addr_state": "MN",
      "addr_city": "Roseville",
      "addr_postcode": "55113",
      "addr_street": "Larpenteur Avenue West",
      "addr_housenumber": "1133",
      "value": 205.6598940738202
    },
    {
      "id": 84942,
      "geometry": "POINT (-93.247035 44.973043)",
      "poi_name": "Chipotle",
      "osm_id": 1827527222,
      "amenity": "fast_food",
      "cuisine": "mexican",
      "wheelchair": "yes",
      "opening_hours": "Mo-Su 10:45-22:00",
      "website": "https://chipotle.com/",
      "phone": "+1-612-659-7830",
      "takeaway": "yes",
      "official_name": "Chipotle Mexican Grill",
      "outdoor_seating": "yes",
      "addr_state": "MN",
      "addr_city": "Minneapolis",
      "addr_postcode": "55454",
      "addr_street": "Cedar Avenue South",
      "addr_housenumber": "229",
      "value": 205.6598940738202
    },
    {
      "id": 89308,
      "geometry": "POINT (-93.176253 44.682208)",
      "poi_name": "Subway",
      "osm_id": 8837210077,
      "amenity": "fast_food",
      "cuisine": "sandwich",
      "opening_hours": "Mo-Su 09:00-21:00",
      "phone": "+1(651)-460-4056",
      "takeaway": "yes",
      "drive_through": "no",
      "addr_state": "MN",
      "addr_city": "Farmington",
      "addr_postcode": "55024",
      "addr_street": "Pilot Knob Road",
      "addr_housenumber": "18450",
      "value": 205.6598940738202
    },
    {
      "id": 90883,
      "geometry": "POINT (-93.347656 44.9317)",
      "poi_name": "Boston Market",
      "osm_id": 2024986314,
      "amenity": "fast_food",
      "cuisine": "american;chicken",
      "opening_hours": "Mo-Su 11:00-21:00; PH closed",
      "takeaway": "yes",
      "addr_state": "MN",
      "addr_city": "Saint Louis Park",
      "addr_postcode": "55416",
      "addr_street": "Excelsior Boulevard",
      "addr_housenumber": "5300",
      "value": 205.6598940738202
    },
    {
      "id": 91792,
      "geometry": "POINT (-93.14356 44.731151)",
      "poi_name": "Little Caesars",
      "osm_id": 2089326613,
      "amenity": "fast_food",
      "cuisine": "pizza",
      "wheelchair": "yes",
      "website": "https://littlecaesars.com/en-us/store/8347/",
      "takeaway": "yes",
      "drive_through": "no",
      "addr_state": "MN",
      "addr_city": "Rosemount",
      "addr_postcode": "55068",
      "addr_street": "150th Street West",
      "addr_housenumber": "3852 - 3868",
      "value": 205.6598940738202
    },
    {
      "id": 91906,
      "geometry": "POINT (-93.093676 44.945045)",
      "poi_name": "Erbert & Gerbert's",
      "osm_id": 2094277662,
      "amenity": "fast_food",
      "cuisine": "sandwich",
      "opening_hours": "Mo-We 10:00-22:00;Th-Sa 10:00-23:00;Su 10:00-20:00",
      "website": "https://www.erbertandgerberts.com/",
      "takeaway": "yes",
      "official_name": "Erbert & Gerbert's Sandwich Shop",
      "addr_city": "Saint Paul",
      "addr_postcode": "55102",
      "addr_street": "Wabasha Street North",
      "addr_housenumber": "334",
      "value": 205.6598940738202
    },
    {
      "id": 91932,
      "geometry": "POINT (-93.093457 44.944836)",
      "poi_name": "Subway",
      "osm_id": 2095736846,
      "amenity": "fast_food",
      "cuisine": "sandwich",
      "opening_hours": "Mo-Fr 07:00-20:00;Sa 10:00-18:00;Su 10:00-15:00",
      "website": "https://www.subway.com/",
      "phone": "+1-651-293-9211",
      "takeaway": "yes",
      "addr_city": "Saint Paul",
      "addr_postcode": "55101",
      "addr_street": "East 4th Street",
      "addr_housenumber": "8",
      "value": 205.6598940738202
    },
    {
      "id": 92079,
      "geometry": "POINT (-93.092892 44.947223)",
      "poi_name": "Skyway Grill",
      "osm_id": 2103737926,
      "amenity": "fast_food",
      "cuisine": "burger",
      "opening_hours": "Mo-Fr 06:30-15:00",
      "takeaway": "yes",
      "drive_through": "no",
      "delivery": "no",
      "addr_state": "MN",
      "addr_city": "Saint Paul",
      "addr_postcode": "55101",
      "addr_street": "East 5th Street",
      "addr_housenumber": "55",
      "value": 205.6598940738202
    },
    {
      "id": 92362,
      "geometry": "POINT (-93.21178 44.790595)",
      "poi_name": "Chipotle",
      "osm_id": 2116579375,
      "amenity": "fast_food",
      "cuisine": "mexican",
      "takeaway": "yes",
      "official_name": "Chipotle Mexican Grill",
      "addr_city": "Eagan",
      "addr_postcode": "55122",
      "addr_street": "Cliff Road",
      "addr_housenumber": "2075",
      "value": 205.6598940738202
    },
    {
      "id": 92365,
      "geometry": "POINT (-93.211292 44.790584)",
      "poi_name": "LeeAnn Chin's",
      "osm_id": 2116609348,
      "amenity": "fast_food",
      "cuisine": "chinese",
      "opening_hours": "Su-We 11:00-20:00, Th-Sa 11:00-21:00",
      "phone": "(651) 328-8298",
      "drive_through": "no",
      "addr_city": "Eagan",
      "addr_postcode": "55122",
      "addr_street": "Cliff Road",
      "addr_housenumber": "2071",
      "value": 205.6598940738202
    },
    {
      "id": 95751,
      "geometry": "POINT (-93.235131 44.972947)",
      "poi_name": "Panda Express",
      "osm_id": 6410470507,
      "amenity": "fast_food",
      "cuisine": "chinese",
      "takeaway": "yes",
      "addr_state": "MN",
      "addr_city": "Minneapolis",
      "addr_postcode": "55455",
      "addr_street": "Southeast Washington Avenue",
      "addr_housenumber": "300",
      "value": 205.6598940738202
    },
    {
      "id": 94489,
      "geometry": "POINT (-93.382919 44.936766)",
      "poi_name": "Smashburger",
      "osm_id": 2249045427,
      "amenity": "fast_food",
      "cuisine": "burger",
      "website": "https://smashburger.com/",
      "takeaway": "yes",
      "addr_state": "MN",
      "addr_city": "Saint Louis Park",
      "addr_postcode": "55426",
      "addr_street": "Minnesota State Highway 7",
      "addr_housenumber": "8124",
      "value": 205.6598940738202
    },
    {
      "id": 94494,
      "geometry": "POINT (-93.383196 44.936836)",
      "poi_name": "Subway",
      "osm_id": 2249045462,
      "amenity": "fast_food",
      "cuisine": "sandwich",
      "takeaway": "yes",
      "addr_state": "MN",
      "addr_city": "Saint Louis Park",
      "addr_postcode": "55426",
      "addr_street": "Minnesota State Highway 7",
      "addr_housenumber": "8128",
      "value": 205.6598940738202
    },
    {
      "id": 95299,
      "geometry": "POINT (-93.540053 44.860704)",
      "poi_name": "Papa Murphy's",
      "osm_id": 6391789782,
      "amenity": "fast_food",
      "cuisine": "pizza",
      "takeaway": "only",
      "drive_through": "no",
      "official_name": "Papa Murphy's Take 'N' Bake Pizza",
      "addr_state": "MN",
      "addr_city": "Chanhassen",
      "addr_postcode": "55317",
      "addr_street": "Market Boulevard",
      "addr_housenumber": "7878",
      "value": 205.6598940738202
    },
    {
      "id": 95300,
      "geometry": "POINT (-93.535692 44.862727)",
      "poi_name": "Pizzaioli",
      "osm_id": 6391790000,
      "amenity": "fast_food",
      "cuisine": "pizza;buffet;pasta",
      "addr_state": "MN",
      "addr_city": "Chanhassen",
      "addr_postcode": "55317",
      "addr_street": "West 78th Street",
      "addr_housenumber": "588",
      "value": 205.6598940738202
    },
    {
      "id": 95302,
      "geometry": "POINT (-93.531305 44.862609)",
      "poi_name": "Domino's",
      "osm_id": 6391790004,
      "amenity": "fast_food",
      "cuisine": "pizza",
      "addr_state": "MN",
      "addr_city": "Chanhassen",
      "addr_postcode": "55317",
      "addr_street": "West 78th Street",
      "addr_housenumber": "400",
      "value": 205.6598940738202
    },
    {
      "id": 95752,
      "geometry": "POINT (-93.235147 44.972928)",
      "poi_name": "Chick-fil-A",
      "osm_id": 6410470508,
      "amenity": "fast_food",
      "cuisine": "chicken",
      "takeaway": "yes",
      "addr_state": "MN",
      "addr_city": "Minneapolis",
      "addr_postcode": "55455",
      "addr_street": "Southeast Washington Avenue",
      "addr_housenumber": "300",
      "value": 205.6598940738202
    },
    {
      "id": 95753,
      "geometry": "POINT (-93.235075 44.972935)",
      "poi_name": "Jamba",
      "osm_id": 6410470509,
      "amenity": "fast_food",
      "cuisine": "juice",
      "takeaway": "yes",
      "addr_state": "MN",
      "addr_city": "Minneapolis",
      "addr_postcode": "55455",
      "addr_street": "Southeast Washington Avenue",
      "addr_housenumber": "300",
      "value": 205.6598940738202
    },
    {
      "id": 96260,
      "geometry": "POINT (-93.23454 44.97948)",
      "poi_name": "Tacos Locos",
      "osm_id": 6424458700,
      "amenity": "fast_food",
      "cuisine": "mexican",
      "website": "https://burrigato.com/",
      "phone": "+1-612-259-7885",
      "addr_state": "MN",
      "addr_city": "Minneapolis",
      "addr_postcode": "55414",
      "addr_street": "Southeast 15th Avenue",
      "addr_housenumber": "314",
      "value": 205.6598940738202
    },
    {
      "id": 96428,
      "geometry": "POINT (-93.243374 44.971962)",
      "poi_name": "Essentials Restaurant",
      "osm_id": 6433139159,
      "amenity": "fast_food",
      "phone": "+1 612 625 0842",
      "addr_state": "MN",
      "addr_city": "Minneapolis",
      "addr_postcode": "55455",
      "addr_street": "19th Avenue South",
      "addr_housenumber": "269",
      "value": 205.6598940738202
    },
    {
      "id": 96988,
      "geometry": "POINT (-93.229763 44.973521)",
      "poi_name": "Roti Modern Mediterranean",
      "osm_id": 6453554560,
      "amenity": "fast_food",
      "cuisine": "mediterranean",
      "opening_hours": "Mo-Su 11:00-21:00",
      "website": "https://roti.com/",
      "phone": "+1-612-337-1960",
      "addr_state": "MN",
      "addr_city": "Minneapolis",
      "addr_postcode": "55414",
      "addr_street": "Southeast Washington Avenue",
      "addr_housenumber": "614",
      "value": 205.6598940738202
    },
    {
      "id": 97505,
      "geometry": "POINT (-93.288686 44.864263)",
      "poi_name": "Sarpino's Pizzeria",
      "osm_id": 6482287657,
      "amenity": "fast_food",
      "cuisine": "pizza",
      "opening_hours": "Su,Mo 10:00-24:00; Fr,Sa 10:00-02:00",
      "website": "https://www.gosarpinos.com/richfield",
      "phone": "+1 612 3554444",
      "takeaway": "yes",
      "delivery": "yes",
      "addr_state": "MN",
      "addr_city": "Richfield",
      "addr_postcode": "55423",
      "addr_street": "Lyndale Avenue South",
      "addr_housenumber": "7630",
      "value": 205.6598940738202
    },
    {
      "id": 103633,
      "geometry": "POINT (-93.419745 44.893964)",
      "poi_name": "Chipotle",
      "osm_id": 8515429742,
      "amenity": "fast_food",
      "cuisine": "mexican",
      "takeaway": "yes",
      "official_name": "Chipotle Mexican Grill",
      "addr_state": "MN",
      "addr_city": "Minnetonka",
      "addr_postcode": "55343",
      "addr_street": "Red Circle Drive",
      "addr_housenumber": "10995",
      "value": 205.6598940738202
    },
    {
      "id": 101042,
      "geometry": "POINT (-93.345376 44.931082)",
      "poi_name": "Subway",
      "osm_id": 6611097223,
      "amenity": "fast_food",
      "cuisine": "sandwich",
      "opening_hours": "Mo-Sa 09:00-22:00; Su 09:00-21:00; PH closed",
      "website": "https://restaurants.subway.com/united-states/mn/st-louis-park/5007-1/2-excelsior-blvd?utm_source=yxt-goog&utm_medium=local&utm_term=acq&utm_content=35849&utm_campaign=evergreen-2020&y_source=1_MTQ5MTYwNzktNzE1LWxvY2F0aW9uLndlYnNpdGU%3D",
      "phone": "+19523454540",
      "takeaway": "yes",
      "addr_state": "MN",
      "addr_city": "Saint Louis Park",
      "addr_postcode": "55416",
      "addr_street": "Excelsior Boulevard",
      "addr_housenumber": "5007 1/2",
      "value": 205.6598940738202
    },
    {
      "id": 102120,
      "geometry": "POINT (-93.349018 44.931829)",
      "poi_name": "Chipotle",
      "osm_id": 6655957482,
      "amenity": "fast_food",
      "cuisine": "mexican",
      "opening_hours": "Mo-Su 10:45-22:00; PH closed",
      "website": "https://locations.chipotle.com/mn/st-louis-park/5580-excelsior-blvd?utm_source=google&utm_medium=yext&utm_campaign=yext_listings",
      "phone": "+19529229390",
      "takeaway": "yes",
      "official_name": "Chipotle Mexican Grill",
      "addr_state": "MN",
      "addr_city": "Saint Louis Park",
      "addr_postcode": "55416",
      "addr_street": "Excelsior Boulevard",
      "addr_housenumber": "5580",
      "value": 205.6598940738202
    },
    {
      "id": 104357,
      "geometry": "POINT (-93.441842 44.859955)",
      "poi_name": "Five Guys",
      "osm_id": 8566324461,
      "amenity": "fast_food",
      "cuisine": "burger",
      "takeaway": "yes",
      "official_name": "Five Guys Burgers and Fries",
      "addr_state": "MN",
      "addr_city": "Eden Prairie",
      "addr_postcode": "55344",
      "addr_street": "Technology Drive",
      "addr_housenumber": "12900",
      "value": 205.6598940738202
    },
    {
      "id": 104517,
      "geometry": "POINT (-93.441646 44.864951)",
      "poi_name": "Little Caesars",
      "osm_id": 8572730942,
      "amenity": "fast_food",
      "cuisine": "pizza",
      "website": "https://littlecaesars.com/en-us/store/9667",
      "takeaway": "yes",
      "addr_state": "MN",
      "addr_city": "Eden Prairie",
      "addr_postcode": "55344",
      "addr_street": "Prairie Center Drive",
      "addr_housenumber": "966-B",
      "value": 205.6598940738202
    },
    {
      "id": 105810,
      "geometry": "POINT (-93.178941 44.791263)",
      "poi_name": "Sarpino's Pizzeria",
      "osm_id": 8644347224,
      "amenity": "fast_food",
      "cuisine": "pizza",
      "opening_hours": "Mo-Su 10:00-01:00",
      "website": "https://www.gosarpinos.com/eagan",
      "phone": "+1 651 4520005",
      "takeaway": "yes",
      "delivery": "yes",
      "addr_state": "MN",
      "addr_city": "Eagan",
      "addr_postcode": "55122",
      "addr_street": "Cliff Road",
      "addr_housenumber": "1565",
      "value": 205.6598940738202
    },
    {
      "id": 109228,
      "geometry": "POINT (-93.045562 44.81736)",
      "poi_name": "Subway",
      "osm_id": 3655086624,
      "amenity": "fast_food",
      "cuisine": "sandwich",
      "takeaway": "yes",
      "addr_city": "Inver Grove Heights",
      "value": 205.6598940738202
    },
    {
      "id": 106169,
      "geometry": "POINT (-93.193479 45.035135)",
      "poi_name": "Sarpino's Pizzeria",
      "osm_id": 8668933183,
      "amenity": "fast_food",
      "cuisine": "pizza",
      "opening_hours": "Su-Th 10:00-01:00, Fr,Sa 10:00-02:00",
      "website": "https://roseville.gosarpinos.com/ordering/intro",
      "phone": "+1-651-379-9399",
      "takeaway": "yes",
      "addr_state": "MN",
      "addr_city": "Roseville",
      "addr_postcode": "55112",
      "addr_street": "County Road D West",
      "addr_housenumber": "2216",
      "value": 205.6598940738202
    },
    {
      "id": 106170,
      "geometry": "POINT (-93.253441 44.9758)",
      "poi_name": "Sarpino's Pizzeria",
      "osm_id": 8668957392,
      "amenity": "fast_food",
      "cuisine": "pizza",
      "opening_hours": "Su-Th 10:00-01:00, Fr-Sa 10:00-03:00",
      "website": "https://downtown-minneapolis.gosarpinos.com/ordering/intro",
      "phone": "+1-612-455-8385",
      "takeaway": "yes",
      "addr_state": "MN",
      "addr_city": "Minneapolis",
      "addr_postcode": "55415",
      "addr_street": "South Washington Avenue",
      "addr_housenumber": "1028",
      "value": 205.6598940738202
    },
    {
      "id": 108085,
      "geometry": "POINT (-93.235456 44.980641)",
      "poi_name": "Insomnia Cookies",
      "osm_id": 3594967393,
      "amenity": "fast_food",
      "cuisine": "cookie",
      "wheelchair": "yes",
      "opening_hours": "Mo-Fr 09:00-03:00; Sa-Su 11:00-03:00",
      "website": "https://insomniacookies.com/",
      "shop": "pastry",
      "addr_state": "MN",
      "addr_city": "Minneapolis",
      "addr_postcode": "55414",
      "addr_street": "Southeast 14th Avenue",
      "addr_housenumber": "402",
      "value": 205.6598940738202
    },
    {
      "id": 106092,
      "geometry": "POINT (-93.166794 44.93273)",
      "poi_name": "Nashville Coop",
      "osm_id": 8663748458,
      "amenity": "fast_food",
      "cuisine": "chicken",
      "opening_hours": "Tu-Su 11:00-20:00",
      "website": "https://www.nashvillecoop.com/",
      "addr_city": "Saint Paul",
      "addr_postcode": "55105",
      "addr_street": "Snelling Avenue South",
      "addr_housenumber": "300",
      "value": 205.6598940738202
    },
    {
      "id": 109229,
      "geometry": "POINT (-93.033748 44.780706)",
      "poi_name": "Subway",
      "osm_id": 3655086830,
      "amenity": "fast_food",
      "cuisine": "sandwich",
      "opening_hours": "Mo-Su 05:00-23:59",
      "website": "https://restaurants.subway.com/united-states/mn/inver-grove-heights/11650-courthouse-blvd",
      "phone": "+1 651 438 2919",
      "takeaway": "yes",
      "addr_state": "MN",
      "addr_city": "Inver Grove Heights",
      "addr_postcode": "55077",
      "addr_street": "Courthouse Boulevard",
      "addr_housenumber": "11650",
      "value": 205.6598940738202
    },
    {
      "id": 116246,
      "geometry": "POINT (-93.46865 44.786134)",
      "poi_name": "Sabbai's The Donut Hole",
      "osm_id": 8933807764,
      "amenity": "fast_food",
      "cuisine": "donut",
      "phone": "+1-952-204-3743",
      "addr_state": "MN",
      "addr_city": "Shakopee",
      "addr_postcode": "55379",
      "addr_street": "Canterbury Road South",
      "addr_housenumber": "1145",
      "value": 205.6598940738202
    },
    {
      "id": 119836,
      "geometry": "POINT (-93.128833 44.733069)",
      "poi_name": "Domino's",
      "osm_id": 9124931268,
      "amenity": "fast_food",
      "cuisine": "pizza",
      "website": "https://www.dominos.com",
      "phone": "651-423-6090",
      "takeaway": "yes",
      "addr_state": "MN",
      "addr_city": "Rosemount",
      "addr_postcode": "55068",
      "addr_street": "South Robert Trail",
      "addr_housenumber": "14875",
      "value": 205.6598940738202
    },
    {
      "id": 122713,
      "geometry": "POINT (-93.319956 44.948945)",
      "poi_name": "Subway",
      "osm_id": 6815703759,
      "amenity": "fast_food",
      "cuisine": "sandwich",
      "opening_hours": "09:00-21:00; PH closed",
      "website": "https://restaurants.subway.com/united-states/mn/minneapolis/3202-w-lake-st?utm_source=yxt-goog&utm_medium=local&utm_term=acq&utm_content=4332&utm_campaign=evergreen-2020&y_source=1_MTQ4OTU5MjUtNzE1LWxvY2F0aW9uLmdvb2dsZV93ZWJzaXRlX292ZXJyaWRl",
      "phone": "+16129297827",
      "takeaway": "yes",
      "drive_through": "no",
      "outdoor_seating": "no",
      "addr_state": "MN",
      "addr_city": "Minneapolis",
      "addr_postcode": "55416",
      "addr_street": "Lake Street West",
      "addr_housenumber": "3202",
      "value": 205.6598940738202
    },
    {
      "id": 126544,
      "geometry": "POINT (-93.16678 44.933075)",
      "poi_name": "Simplicitea",
      "osm_id": 7011585364,
      "amenity": "fast_food",
      "website": "https://simpliciteamn.com",
      "phone": "+1 651 4140159",
      "addr_state": "MN",
      "addr_city": "Saint Paul",
      "addr_postcode": "55105",
      "addr_street": "Snelling Avenue South",
      "addr_housenumber": "272",
      "value": 205.6598940738202
    },
    {
      "id": 143858,
      "geometry": "POINT (-93.226877 44.974007)",
      "poi_name": "Jimmy John's",
      "osm_id": 6353507500,
      "amenity": "fast_food",
      "cuisine": "sandwich",
      "website": "https://www.jimmyjohns.com/",
      "phone": "+1-612-331-7827",
      "takeaway": "yes",
      "official_name": "Jimmy John's Gourmet Sandwiches",
      "addr_state": "MN",
      "addr_city": "Minneapolis",
      "addr_postcode": "55414",
      "addr_street": "Southeast Oak Street",
      "addr_housenumber": "219",
      "value": 205.6598940738202
    },
    {
      "id": 143266,
      "geometry": "POINT (-93.218741 44.971816)",
      "poi_name": "Krispy Krunchy Chicken",
      "osm_id": 6334513639,
      "amenity": "fast_food",
      "cuisine": "chicken",
      "phone": "+1-612-418-8236",
      "takeaway": "yes",
      "addr_state": "MN",
      "addr_city": "Minneapolis",
      "addr_postcode": "55414",
      "addr_street": "University Avenue Southeast",
      "addr_housenumber": "2700",
      "value": 205.6598940738202
    },
    {
      "id": 147219,
      "geometry": "POINT (-93.100254 44.91594)",
      "poi_name": "El Nuovo Morelos",
      "osm_id": 7515952331,
      "amenity": "fast_food",
      "cuisine": "mexican",
      "phone": "+1-651-552-5693",
      "addr_state": "MN",
      "addr_city": "West Saint Paul",
      "addr_postcode": "55118",
      "addr_street": "Bernard Street West",
      "addr_housenumber": "360",
      "value": 205.6598940738202
    },
    {
      "id": 147221,
      "geometry": "POINT (-93.101413 44.915819)",
      "poi_name": "Domino's",
      "osm_id": 7515952341,
      "amenity": "fast_food",
      "cuisine": "pizza",
      "takeaway": "yes",
      "addr_state": "MN",
      "addr_city": "West Saint Paul",
      "addr_postcode": "55118",
      "addr_street": "Smith Avenue South",
      "addr_housenumber": "1014",
      "value": 205.6598940738202
    },
    {
      "id": 151968,
      "geometry": "POINT (-93.351388 44.96947)",
      "poi_name": "Urban Sub",
      "osm_id": 4121384392,
      "amenity": "fast_food",
      "website": "http://jcssubs.com/",
      "phone": "+19522174626",
      "addr_state": "MN",
      "addr_city": "Saint Louis Park",
      "addr_postcode": "55416",
      "addr_street": "Wayzata Boulevard",
      "addr_housenumber": "5621",
      "value": 205.6598940738202
    },
    {
      "id": 155288,
      "geometry": "POINT (-93.218606 44.972767)",
      "poi_name": "Papa John's",
      "osm_id": 4279240359,
      "amenity": "fast_food",
      "cuisine": "pizza",
      "phone": "+1-612-379-8890",
      "takeaway": "yes",
      "addr_state": "MN",
      "addr_city": "Minneapolis",
      "addr_postcode": "55414",
      "addr_street": "Southeast University Avenue",
      "addr_housenumber": "2639",
      "value": 205.6598940738202
    },
    {
      "id": 158487,
      "geometry": "POINT (-93.153722 44.834014)",
      "poi_name": "Panda Express",
      "osm_id": 4750056457,
      "amenity": "fast_food",
      "cuisine": "chinese",
      "opening_hours": "10:30-21:00",
      "website": "https://www.pandaexpress.com/",
      "phone": "+1-651-688-0200",
      "takeaway": "yes",
      "drive_through": "no",
      "addr_state": "MN",
      "addr_city": "Eagan",
      "addr_postcode": "55121",
      "addr_street": "Promenade Place",
      "addr_housenumber": "1270",
      "value": 205.6598940738202
    },
    {
      "id": 159961,
      "geometry": "POINT (-93.143506 45.058015)",
      "poi_name": "Chipotle",
      "osm_id": 4812438962,
      "amenity": "fast_food",
      "cuisine": "mexican",
      "takeaway": "yes",
      "drive_through": "no",
      "official_name": "Chipotle Mexican Grill",
      "addr_state": "MN",
      "addr_city": "Shoreview",
      "addr_postcode": "55126",
      "addr_street": "Red Fox Road",
      "addr_housenumber": "1021",
      "value": 205.6598940738202
    },
    {
      "id": 159962,
      "geometry": "POINT (-93.143046 45.058015)",
      "poi_name": "Five Guys",
      "osm_id": 4812439002,
      "amenity": "fast_food",
      "cuisine": "burger",
      "takeaway": "yes",
      "drive_through": "no",
      "official_name": "Five Guys Burgers and Fries",
      "addr_state": "MN",
      "addr_city": "Arden Hills",
      "addr_postcode": "55112",
      "addr_street": "Red Fox Road",
      "addr_housenumber": "1021",
      "value": 205.6598940738202
    },
    {
      "id": 161194,
      "geometry": "POINT (-93.252686 44.91997)",
      "poi_name": "Domino's",
      "osm_id": 4869055151,
      "amenity": "fast_food",
      "cuisine": "pizza",
      "opening_hours": "Su-Th 10:00-01:00, Fr-Sa 10:00-02:00",
      "website": "https://www.dominos.com/",
      "phone": "+1-612-823-3030",
      "takeaway": "yes",
      "addr_state": "MN",
      "addr_city": "Minneapolis",
      "addr_postcode": "55407",
      "addr_street": "Bloomington Avenue South",
      "addr_housenumber": "4552",
      "value": 205.6598940738202
    },
    {
      "id": 160654,
      "geometry": "POINT (-93.755462 44.620676)",
      "poi_name": "Subway",
      "osm_id": 4840630516,
      "amenity": "fast_food",
      "cuisine": "sandwich",
      "opening_hours": "Mo-Th 07:00-22:00, Fr 07:00-23:00, Sa 08:00-23:00, Su 09:00-22:00",
      "website": "https://www.subway.com/",
      "phone": "+1-952-873-2677",
      "takeaway": "yes",
      "addr_state": "MN",
      "addr_city": "Belle Plaine",
      "addr_postcode": "56011",
      "addr_street": "East Prairie Street",
      "addr_housenumber": "809",
      "value": 205.6598940738202
    },
    {
      "id": 171236,
      "geometry": "POINT (-93.28807 44.90607)",
      "poi_name": "Freestyle Yogurt",
      "osm_id": 2366642505,
      "amenity": "fast_food",
      "cuisine": "yogurt",
      "website": "https://www.freestyleyogurt.com",
      "outdoor_seating": "no",
      "addr_city": "Minneapolis",
      "addr_postcode": "55419",
      "addr_street": "Lyndale Avenue South",
      "addr_housenumber": "5315",
      "value": 205.6598940738202
    },
    {
      "id": 169399,
      "geometry": "POINT (-92.954986 44.925157)",
      "poi_name": "Chipotle",
      "osm_id": 2300252188,
      "amenity": "fast_food",
      "cuisine": "mexican",
      "opening_hours": "Mo-Su 11:00-22:00",
      "website": "https://www.chipotle.com/",
      "phone": "+16517389366",
      "takeaway": "yes",
      "official_name": "Chipotle Mexican Grill",
      "addr_state": "MN",
      "addr_city": "Woodbury",
      "addr_postcode": "55125",
      "addr_street": "Currell Boulevard",
      "addr_housenumber": "7455",
      "value": 205.6598940738202
    },
    {
      "id": 169400,
      "geometry": "POINT (-93.023856 45.010459)",
      "poi_name": "Chipotle",
      "osm_id": 2300252190,
      "amenity": "fast_food",
      "cuisine": "mexican",
      "opening_hours": "Mo-Su 11:00-22:00",
      "website": "https://www.chipotle.com/",
      "phone": "+16517772155",
      "takeaway": "yes",
      "official_name": "Chipotle Mexican Grill",
      "addr_state": "MN",
      "addr_city": "Maplewood",
      "addr_postcode": "55109",
      "addr_street": "White Bear Avenue",
      "addr_housenumber": "2303",
      "value": 205.6598940738202
    },
    {
      "id": 161449,
      "geometry": "POINT (-93.234109 45.141253)",
      "poi_name": "Subway",
      "osm_id": 4881893337,
      "amenity": "fast_food",
      "cuisine": "sandwich",
      "phone": "+1-763-780-4544",
      "takeaway": "yes",
      "addr_state": "MN",
      "addr_city": "Blaine",
      "addr_street": "Baltimore Street Northeast",
      "addr_housenumber": "93960",
      "value": 205.6598940738202
    },
    {
      "id": 164816,
      "geometry": "POINT (-93.214122 44.73121)",
      "poi_name": "Papa Murphy's",
      "osm_id": 9501992040,
      "amenity": "fast_food",
      "cuisine": "pizza",
      "website": "https://locations.papamurphys.com",
      "phone": "+1 (952) 953-4114",
      "takeaway": "only",
      "official_name": "Papa Murphy's Take 'N' Bake Pizza",
      "addr_state": "MN",
      "addr_city": "Apple Valley",
      "addr_postcode": "55124",
      "addr_street": "Gleason Path",
      "addr_housenumber": "15052",
      "value": 205.6598940738202
    },
    {
      "id": 164819,
      "geometry": "POINT (-93.216022 44.73142)",
      "poi_name": "Erbert & Gerbert's",
      "osm_id": 9501992049,
      "amenity": "fast_food",
      "cuisine": "sandwich",
      "website": "https://erbertandgerberts.com/",
      "phone": "+1 (952) 432-1300",
      "takeaway": "yes",
      "official_name": "Erbert & Gerbert's Sandwich Shop",
      "addr_state": "MN",
      "addr_city": "Apple Valley",
      "addr_postcode": "55124",
      "addr_street": "Cedar Avenue",
      "addr_housenumber": "15050",
      "value": 205.6598940738202
    },
    {
      "id": 173830,
      "geometry": "POINT (-93.096357 44.948012)",
      "poi_name": "Lee's Express",
      "osm_id": 2458087330,
      "amenity": "fast_food",
      "cuisine": "chicken",
      "opening_hours": "Mo-Fr 11:00-18:00;Sa 11:00-17:00",
      "website": "http://www.leesexpress.com/",
      "phone": "+1-651-999-9579",
      "takeaway": "yes",
      "addr_city": "Saint Paul",
      "addr_postcode": "55101",
      "addr_street": "East 7th Street",
      "addr_housenumber": "30",
      "value": 205.6598940738202
    },
    {
      "id": 173832,
      "geometry": "POINT (-93.096413 44.94791)",
      "poi_name": "Subway",
      "osm_id": 2458087333,
      "amenity": "fast_food",
      "cuisine": "sandwich",
      "opening_hours": "Mo-Fr 08:00-17:00;Sa-Su 10:00-17:00",
      "phone": "+1-651-222-7827",
      "takeaway": "yes",
      "addr_city": "Saint Paul",
      "addr_postcode": "55101",
      "addr_street": "East 7th Street",
      "addr_housenumber": "30",
      "value": 205.6598940738202
    },
    {
      "id": 175101,
      "geometry": "POINT (-93.145691 44.994079)",
      "poi_name": "Subway",
      "osm_id": 2505491496,
      "amenity": "fast_food",
      "cuisine": "sandwich",
      "opening_hours": "Mo-Fr 07:00-22:00; Sa 08:00-22:00; Su 09:00-22:00",
      "website": "https://order.subway.com/en-US",
      "phone": "+1-651-487-1169",
      "takeaway": "yes",
      "addr_state": "MN",
      "addr_city": "Roseville",
      "addr_postcode": "55113",
      "addr_street": "Lexington Avenue North",
      "addr_housenumber": "1740",
      "value": 205.6598940738202
    },
    {
      "id": 177104,
      "geometry": "POINT (-92.933673 44.817186)",
      "poi_name": "Papa Murphy's",
      "osm_id": 2574341391,
      "amenity": "fast_food",
      "cuisine": "pizza",
      "website": "http://mn.cottagegrove.papamurphys.com/pizza_cottage-grove_mn_mn021.html#fbid=88SOX6qDZSS",
      "phone": "+1-651-769-0313",
      "takeaway": "only",
      "official_name": "Papa Murphy's Take 'N' Bake Pizza",
      "addr_city": "Cottage Grove",
      "addr_postcode": "55016",
      "addr_street": "East Point Douglas Road South",
      "addr_housenumber": "8471",
      "value": 205.6598940738202
    },
    {
      "id": 177109,
      "geometry": "POINT (-92.956122 44.83407)",
      "poi_name": "Subway",
      "osm_id": 2574359579,
      "amenity": "fast_food",
      "cuisine": "sandwich",
      "website": "https://www.subway.com/",
      "phone": "+1-651-458-9898",
      "takeaway": "yes",
      "addr_city": "Cottage Grove",
      "addr_postcode": "55016",
      "addr_street": "80th Street South",
      "addr_housenumber": "7430",
      "value": 205.6598940738202
    },
    {
      "id": 180767,
      "geometry": "POINT (-93.294588 44.470469)",
      "poi_name": "Subway",
      "osm_id": 10816968395,
      "amenity": "fast_food",
      "cuisine": "sandwich",
      "takeaway": "yes",
      "drive_through": "no",
      "addr_state": "MN",
      "addr_city": "Northfield",
      "addr_postcode": "55057",
      "addr_street": "Bagley Avenue",
      "addr_housenumber": "8051",
      "value": 205.6598940738202
    },
    {
      "id": 180714,
      "geometry": "POINT (-93.442759 44.86377)",
      "poi_name": "Culver's",
      "osm_id": 10815310886,
      "amenity": "fast_food",
      "cuisine": "burger",
      "opening_hours": "10:00-22:00",
      "phone": "+1 952-253-1081",
      "takeaway": "yes",
      "addr_state": "MN",
      "addr_city": "Eden Prairie",
      "addr_postcode": "55344",
      "addr_street": "Prairie Center Drive",
      "addr_housenumber": "920",
      "value": 205.6598940738202
    },
    {
      "id": 185497,
      "geometry": "POINT (-93.349929 44.966128)",
      "poi_name": "Bruegger's Bagels",
      "osm_id": 7859450198,
      "amenity": "fast_food",
      "cuisine": "bagel",
      "website": "https://locations.brueggers.com/us/mn/st-louis-park/1650-park-place-blvd?y_source=1_OTczMjE1MS03MTUtbG9jYXRpb24ud2Vic2l0ZQ%3D%3D",
      "phone": "+19525450398",
      "takeaway": "yes",
      "drive_through": "no",
      "outdoor_seating": "yes",
      "addr_state": "MN",
      "addr_city": "Saint Louis Park",
      "addr_postcode": "55416",
      "addr_street": "Park Place Boulevard",
      "addr_housenumber": "1650",
      "value": 205.6598940738202
    },
    {
      "id": 186131,
      "geometry": "POINT (-93.024046 45.16469)",
      "poi_name": "Jersey Mike's Subs",
      "osm_id": 7911235667,
      "amenity": "fast_food",
      "cuisine": "sandwich",
      "takeaway": "yes",
      "drive_through": "no",
      "addr_state": "MN",
      "addr_city": "Lino Lakes",
      "addr_postcode": "55038",
      "addr_street": "Otter Lake Road",
      "addr_housenumber": "7114",
      "value": 205.6598940738202
    },
    {
      "id": 186133,
      "geometry": "POINT (-93.023859 45.16464)",
      "poi_name": "Dunkin'",
      "osm_id": 7911270480,
      "amenity": "fast_food",
      "cuisine": "donut;coffee_shop",
      "takeaway": "yes",
      "drive_through": "yes",
      "addr_state": "MN",
      "addr_city": "Lino Lakes",
      "addr_postcode": "55038",
      "addr_street": "Otter Lake Road",
      "addr_housenumber": "7114",
      "value": 205.6598940738202
    },
    {
      "id": 188299,
      "geometry": "POINT (-93.602059 44.7891)",
      "poi_name": "Domino's",
      "osm_id": 1136508445,
      "amenity": "fast_food",
      "cuisine": "pizza",
      "takeaway": "yes",
      "addr_state": "MN",
      "addr_city": "Chaska",
      "addr_postcode": "55318",
      "addr_street": "North Chestnut Street",
      "addr_housenumber": "503",
      "value": 205.6598940738202
    },
    {
      "id": 188853,
      "geometry": "POINT (-93.400411 44.835969)",
      "poi_name": "Subway",
      "osm_id": 1188081605,
      "amenity": "fast_food",
      "cuisine": "sandwich",
      "website": "https://www.subway.com/",
      "phone": "+1 952 829 7141",
      "takeaway": "yes",
      "addr_state": "MN",
      "addr_city": "Eden Prairie",
      "addr_postcode": "55344",
      "addr_street": "Anderson Lakes Parkway",
      "addr_housenumber": "9633",
      "value": 205.6598940738202
    },
    {
      "id": 193088,
      "geometry": "POINT (-93.225823 44.973756)",
      "poi_name": "Raising Cane's",
      "osm_id": 1494886585,
      "amenity": "fast_food",
      "cuisine": "chicken",
      "opening_hours": "Mo-Th 10:30-22:00; Fr-Sa 10:30-24:00; Su 11:00-21:00",
      "website": "https://raisingcanes.com/",
      "phone": "+1-612-378-3243",
      "takeaway": "yes",
      "drive_through": "no",
      "official_name": "Raising Cane's Chicken Fingers",
      "addr_state": "MN",
      "addr_city": "Minneapolis",
      "addr_postcode": "55414",
      "addr_street": "Southeast Washington Avenue",
      "addr_housenumber": "825",
      "value": 205.6598940738202
    },
    {
      "id": 193090,
      "geometry": "POINT (-93.243342 44.972024)",
      "poi_name": "Subway",
      "osm_id": 1494893762,
      "amenity": "fast_food",
      "cuisine": "sandwich",
      "opening_hours": "Mo-Th 07:00-20:00; Fr 07:00-15:00",
      "takeaway": "yes",
      "addr_state": "MN",
      "addr_city": "Minneapolis",
      "addr_postcode": "55455",
      "addr_street": "19th Avenue South",
      "addr_housenumber": "269",
      "value": 205.6598940738202
    },
    {
      "id": 193092,
      "geometry": "POINT (-93.22779 44.973528)",
      "poi_name": "Afro Deli & Grill",
      "osm_id": 1494903297,
      "amenity": "fast_food",
      "cuisine": "african;american;espresso",
      "opening_hours": "Mo-Sa 10:00-22:00; Su 11:00-21:00",
      "website": "http://www.afrodeli.com/",
      "phone": "+1-612-871-5555",
      "takeaway": "yes",
      "outdoor_seating": "no",
      "addr_state": "MN",
      "addr_city": "Minneapolis",
      "addr_postcode": "55414",
      "addr_street": "Southeast Washington Avenue",
      "addr_housenumber": "720",
      "value": 205.6598940738202
    },
    {
      "id": 196789,
      "geometry": "POINT (-93.579848 44.892726)",
      "poi_name": "Domino's",
      "osm_id": 10596606361,
      "amenity": "fast_food",
      "cuisine": "pizza",
      "wheelchair": "yes",
      "opening_hours": "Su-Th 10:30-24:00, Fr-Sa 10:30-25:00",
      "website": "https://www.dominos.com/en/",
      "internet_access": "no",
      "phone": "+1-612-800-9703",
      "takeaway": "yes",
      "drive_through": "no",
      "addr_state": "MN",
      "addr_city": "Shorewood",
      "addr_postcode": "55331",
      "addr_street": "Minnesota State Highway 7",
      "addr_housenumber": "23500",
      "value": 205.6598940738202
    },
    {
      "id": 199104,
      "geometry": "POINT (-93.166729 44.94022)",
      "poi_name": "Jamba",
      "osm_id": 937197710,
      "amenity": "fast_food",
      "cuisine": "juice",
      "takeaway": "yes",
      "addr_state": "MN",
      "addr_city": "Saint Paul",
      "addr_postcode": "55105",
      "addr_street": "Grand Avenue",
      "addr_housenumber": "1577",
      "value": 205.6598940738202
    },
    {
      "id": 199214,
      "geometry": "POINT (-93.229265 44.973986)",
      "poi_name": "Chick-fil-A",
      "osm_id": 945574899,
      "amenity": "fast_food",
      "cuisine": "chicken",
      "website": "https://www.applebees.com/",
      "takeaway": "yes",
      "addr_state": "MN",
      "addr_city": "Minneapolis",
      "addr_postcode": "55414",
      "addr_street": "Southeast Washington Avenue",
      "addr_housenumber": "615",
      "value": 205.6598940738202
    },
    {
      "id": 199215,
      "geometry": "POINT (-93.235776 44.980204)",
      "poi_name": "Qdoba",
      "osm_id": 945578977,
      "amenity": "fast_food",
      "cuisine": "mexican",
      "website": "https://locations.qdoba.com/us/mn/minneapolis/324-14th-ave-se.html",
      "takeaway": "yes",
      "drive_through": "no",
      "official_name": "Qdoba Mexican Grill",
      "addr_state": "MN",
      "addr_city": "Minneapolis",
      "addr_postcode": "55414",
      "addr_street": "Southeast 14th Avenue",
      "addr_housenumber": "324",
      "value": 205.6598940738202
    },
    {
      "id": 199972,
      "geometry": "POINT (-93.133729 44.939836)",
      "poi_name": "Bruegger's Bagels",
      "osm_id": 1000471042,
      "amenity": "fast_food",
      "cuisine": "bagel",
      "phone": "+1 651 2211909",
      "takeaway": "yes",
      "addr_state": "MN",
      "addr_city": "Saint Paul",
      "addr_postcode": "55105",
      "addr_street": "Grand Avenue",
      "addr_housenumber": "800",
      "value": 205.6598940738202
    },
    {
      "id": 199845,
      "geometry": "POINT (-93.092915 44.94821)",
      "poi_name": "Arby's",
      "osm_id": 993402531,
      "amenity": "fast_food",
      "cuisine": "sandwich",
      "takeaway": "yes",
      "addr_state": "MN",
      "value": 205.6598940738202
    },
    {
      "id": 200025,
      "geometry": "POINT (-93.288615 44.747568)",
      "poi_name": "Chipotle",
      "osm_id": 1004878917,
      "amenity": "fast_food",
      "cuisine": "mexican",
      "wheelchair": "yes",
      "takeaway": "yes",
      "official_name": "Chipotle Mexican Grill",
      "outdoor_seating": "yes",
      "addr_state": "MN",
      "addr_city": "Burnsville",
      "addr_postcode": "55337",
      "value": 205.6598940738202
    },
    {
      "id": 200805,
      "geometry": "POINT (-93.226926 44.974175)",
      "poi_name": "Domino's",
      "osm_id": 598239131,
      "amenity": "fast_food",
      "cuisine": "pizza",
      "phone": "+1-612-331-3030",
      "takeaway": "yes",
      "addr_state": "MN",
      "addr_city": "Minneapolis",
      "addr_postcode": "55414",
      "addr_street": "Southeast Oak Street",
      "addr_housenumber": "215",
      "value": 205.6598940738202
    },
    {
      "id": 201919,
      "geometry": "POINT (-93.145686 44.994282)",
      "poi_name": "Maverick's",
      "osm_id": 665687040,
      "amenity": "fast_food",
      "cuisine": "sandwich",
      "wheelchair": "limited",
      "opening_hours": "Mo-Su 11:00-20:00",
      "website": "https://www.mavericksbeef.com/",
      "phone": "+1-651-493-9672",
      "addr_state": "MN",
      "addr_city": "Roseville",
      "addr_postcode": "55113",
      "addr_street": "Lexington Avenue North",
      "addr_housenumber": "1746",
      "value": 205.6598940738202
    },
    {
      "id": 201920,
      "geometry": "POINT (-93.359905 44.94992)",
      "poi_name": "Papa John's",
      "osm_id": 665688958,
      "amenity": "fast_food",
      "cuisine": "pizza",
      "website": "https://locations.papajohns.com/united-states/mn/55416/st-louis-park/6314-minnetonka-blvd?utm_source=gmb&utm_medium=organic&y_source=1_MTA2OTM2MTctNzE1LWxvY2F0aW9uLndlYnNpdGU%3D",
      "phone": "+19529278300",
      "takeaway": "yes",
      "addr_state": "MN",
      "addr_city": "Saint Louis Park",
      "addr_postcode": "55416",
      "addr_street": "Minnetonka Boulevard",
      "addr_housenumber": "6314",
      "value": 205.6598940738202
    },
    {
      "id": 201889,
      "geometry": "POINT (-93.170273 45.01276)",
      "poi_name": "Chipotle",
      "osm_id": 663848089,
      "amenity": "fast_food",
      "cuisine": "mexican",
      "opening_hours": "Mo-Su 11:00-22:00",
      "website": "https://www.chipotle.com/",
      "phone": "+1-651-633-2300",
      "takeaway": "yes",
      "official_name": "Chipotle Mexican Grill",
      "addr_state": "MN",
      "addr_city": "Roseville",
      "addr_postcode": "55113",
      "addr_street": "Rosedale Center Plaza",
      "addr_housenumber": "860",
      "value": 205.6598940738202
    },
    {
      "id": 201844,
      "geometry": "POINT (-93.29165 44.64356)",
      "poi_name": "Subway",
      "osm_id": 661982559,
      "amenity": "fast_food",
      "cuisine": "sandwich",
      "opening_hours": "Su-Th 07:00-22:00; Fr,Sa 07:00-23:00",
      "website": "http://local.subway.com/FWPCons/frmSiteMainPage.aspx?CC=USA&LC=ENG&SS=12430-0",
      "phone": "+1-952-469-1434",
      "takeaway": "yes",
      "addr_state": "MN",
      "addr_city": "Lakeville",
      "addr_postcode": "55044",
      "addr_street": "Kenrick Avenue",
      "addr_housenumber": "11276",
      "value": 205.6598940738202
    },
    {
      "id": 204496,
      "geometry": "POINT (-93.337357 45.030688)",
      "poi_name": "Papa John's",
      "osm_id": 7129231775,
      "amenity": "fast_food",
      "cuisine": "pizza",
      "takeaway": "yes",
      "drive_through": "no",
      "addr_state": "MN",
      "addr_city": "Robbinsdale",
      "addr_postcode": "55422",
      "addr_street": "Lakeland Avenue North",
      "addr_housenumber": "4121",
      "value": 205.6598940738202
    },
    {
      "id": 205185,
      "geometry": "POINT (-93.191425 44.96204)",
      "poi_name": "McDonald's",
      "osm_id": 7159496433,
      "amenity": "fast_food",
      "cuisine": "burger",
      "website": "https://www.mcdonalds.com/us/en-us/location/mn/st-paul/2213-university-avenue/3525.html",
      "phone": "+1-651-644-8333",
      "takeaway": "yes",
      "addr_state": "MN",
      "addr_city": "Saint Paul",
      "addr_postcode": "55114",
      "addr_street": "University Avenue West",
      "addr_housenumber": "2213",
      "value": 205.6598940738202
    },
    {
      "id": 204870,
      "geometry": "POINT (-93.146153 44.993461)",
      "poi_name": "Dairy Queen",
      "osm_id": 7147169430,
      "amenity": "fast_food",
      "cuisine": "ice_cream;burger",
      "description": "Outdoor Dairy Queen that is closed in the winter; check opening hours on website.",
      "website": "https://www.dairyqueen.com/us-en/Locator/Detail/?localechange=1&store-id=2361",
      "phone": "+1-651-489-4182",
      "takeaway": "yes",
      "drive_through": "no",
      "outdoor_seating": "yes",
      "addr_state": "MN",
      "addr_city": "Roseville",
      "addr_postcode": "55113",
      "addr_street": "Lexington Avenue North",
      "addr_housenumber": "1720",
      "value": 205.6598940738202
    },
    {
      "id": 205430,
      "geometry": "POINT (-93.248958 44.883903)",
      "poi_name": "Subway",
      "osm_id": 7168433517,
      "amenity": "fast_food",
      "cuisine": "sandwich",
      "takeaway": "yes",
      "addr_state": "MN",
      "addr_city": "Richfield",
      "addr_postcode": "55423",
      "addr_street": "East 66th Street",
      "addr_housenumber": "1800",
      "value": 205.6598940738202
    },
    {
      "id": 205431,
      "geometry": "POINT (-93.248506 44.883936)",
      "poi_name": "Chipotle",
      "osm_id": 7168433518,
      "amenity": "fast_food",
      "cuisine": "mexican",
      "takeaway": "yes",
      "official_name": "Chipotle Mexican Grill",
      "addr_state": "MN",
      "addr_city": "Richfield",
      "addr_postcode": "55423",
      "addr_street": "East 66th Street",
      "addr_housenumber": "1830",
      "value": 205.6598940738202
    },
    {
      "id": 205432,
      "geometry": "POINT (-93.248741 44.88392)",
      "poi_name": "Papa Murphy's",
      "osm_id": 7168433519,
      "amenity": "fast_food",
      "cuisine": "pizza",
      "takeaway": "only",
      "official_name": "Papa Murphy's Take 'N' Bake Pizza",
      "addr_state": "MN",
      "addr_city": "Richfield",
      "addr_postcode": "55423",
      "addr_street": "East 66th Street",
      "addr_housenumber": "1816",
      "value": 205.6598940738202
    },
    {
      "id": 205433,
      "geometry": "POINT (-93.24832 44.883955)",
      "poi_name": "Five Guys",
      "osm_id": 7168433529,
      "amenity": "fast_food",
      "cuisine": "burger",
      "takeaway": "yes",
      "official_name": "Five Guys Burgers and Fries",
      "addr_state": "MN",
      "addr_city": "Richfield",
      "addr_postcode": "55423",
      "addr_street": "East 66th Street",
      "addr_housenumber": "1844",
      "value": 205.6598940738202
    },
    {
      "id": 205435,
      "geometry": "POINT (-93.250646 44.883845)",
      "poi_name": "Panda Express",
      "osm_id": 7168433563,
      "amenity": "fast_food",
      "cuisine": "chinese",
      "takeaway": "yes",
      "addr_state": "MN",
      "addr_city": "Richfield",
      "addr_postcode": "55423",
      "addr_street": "East 66th Street",
      "addr_housenumber": "1638",
      "value": 205.6598940738202
    },
    {
      "id": 205436,
      "geometry": "POINT (-93.251083 44.88325)",
      "poi_name": "Jersey Mike's Subs",
      "osm_id": 7168433601,
      "amenity": "fast_food",
      "cuisine": "sandwich",
      "takeaway": "yes",
      "addr_state": "MN",
      "addr_city": "Richfield",
      "addr_postcode": "55423",
      "addr_street": "East 66th Street",
      "addr_housenumber": "1625",
      "value": 205.6598940738202
    },
    {
      "id": 205439,
      "geometry": "POINT (-93.24876 44.88528)",
      "poi_name": "Pizza Hut Express",
      "osm_id": 7168433605,
      "amenity": "fast_food",
      "cuisine": "pizza",
      "takeaway": "yes",
      "addr_state": "MN",
      "addr_city": "Richfield",
      "addr_postcode": "55423",
      "addr_street": "Richfield Parkway",
      "addr_housenumber": "6445",
      "value": 205.6598940738202
    },
    {
      "id": 205649,
      "geometry": "POINT (-93.080196 44.893996)",
      "poi_name": "Panda Express",
      "osm_id": 7176583000,
      "amenity": "fast_food",
      "cuisine": "chinese",
      "takeaway": "yes",
      "addr_state": "MN",
      "addr_city": "West Saint Paul",
      "addr_postcode": "55118",
      "addr_street": "Robert Street South",
      "addr_housenumber": "1740",
      "value": 205.6598940738202
    },
    {
      "id": 205650,
      "geometry": "POINT (-93.081201 44.894378)",
      "poi_name": "Raising Cane's",
      "osm_id": 7176583020,
      "amenity": "fast_food",
      "cuisine": "chicken",
      "phone": "+1-651-455-9313",
      "takeaway": "yes",
      "official_name": "Raising Cane's Chicken Fingers",
      "addr_state": "MN",
      "addr_city": "West Saint Paul",
      "addr_postcode": "55118",
      "addr_street": "Robert Street South",
      "addr_housenumber": "1715",
      "value": 205.6598940738202
    },
    {
      "id": 205651,
      "geometry": "POINT (-93.080198 44.893628)",
      "poi_name": "Panera Bread",
      "osm_id": 7176583041,
      "amenity": "fast_food",
      "cuisine": "sandwich;bakery",
      "takeaway": "yes",
      "addr_state": "MN",
      "addr_city": "West Saint Paul",
      "addr_postcode": "55118",
      "addr_street": "Robert Street South",
      "addr_housenumber": "1740",
      "value": 205.6598940738202
    },
    {
      "id": 206756,
      "geometry": "POINT (-93.170353 44.980967)",
      "poi_name": "1919 Root Beer",
      "osm_id": 7223510632,
      "amenity": "fast_food",
      "addr_state": "MN",
      "addr_city": "Falcon Heights",
      "addr_postcode": "55113",
      "addr_street": "Dan Patch Avenue",
      "addr_housenumber": "1676",
      "value": 205.6598940738202
    },
    {
      "id": 211373,
      "geometry": "POINT (-93.242538 44.649118)",
      "poi_name": "Toppers Pizza",
      "osm_id": 5155493057,
      "amenity": "fast_food",
      "cuisine": "pizza",
      "opening_hours": "Mo-Su 11:00-03:00",
      "website": "https://www.toppers.com/Locations/Location-Detail?locationId=91&lat=44.6349165&lng=-93.2784825",
      "phone": "+1-952-683-9599",
      "takeaway": "yes",
      "delivery": "yes",
      "addr_state": "MN",
      "addr_city": "Lakeville",
      "addr_postcode": "55044",
      "addr_street": "Holyoke Avenue",
      "addr_housenumber": "20730",
      "value": 205.6598940738202
    },
    {
      "id": 211511,
      "geometry": "POINT (-93.294278 44.649855)",
      "poi_name": "Goodfella's Pizza",
      "osm_id": 5160625935,
      "amenity": "fast_food",
      "opening_hours": "Mo-Th 11:00-23:00; Fr-Sa 11:00-00:30, Su 12:00-21:00",
      "website": "https://goodfellaspizzamn.com/",
      "phone": "+1-952-469-6550",
      "addr_state": "MN",
      "addr_city": "Lakeville",
      "addr_postcode": "55044",
      "addr_street": "Kenrick Avenue",
      "addr_housenumber": "20643",
      "value": 205.6598940738202
    },
    {
      "id": 220662,
      "geometry": "POINT (-93.410345 45.033779)",
      "poi_name": "Qdoba",
      "osm_id": 9382489656,
      "amenity": "fast_food",
      "cuisine": "mexican",
      "website": "https://locations.qdoba.com/us/mn/plymouth/4345-nathan-ln.html",
      "takeaway": "yes",
      "drive_through": "no",
      "official_name": "Qdoba Mexican Grill",
      "addr_state": "MN",
      "addr_city": "Plymouth",
      "addr_postcode": "55442",
      "addr_street": "Nathan Lane North",
      "addr_housenumber": "4345",
      "value": 205.6598940738202
    },
    {
      "id": 215150,
      "geometry": "POINT (-93.288448 44.952232)",
      "poi_name": "Subway",
      "osm_id": 5288532781,
      "amenity": "fast_food",
      "cuisine": "sandwich",
      "opening_hours": "Mo-Fr 08:00-22:00; Sa 09:00-23:00; Su 09:00-22:00",
      "website": "https://order.subway.com/",
      "takeaway": "yes",
      "addr_state": "MN",
      "addr_city": "Minneapolis",
      "addr_postcode": "55405",
      "addr_street": "Lyndale Avenue South",
      "addr_housenumber": "2752",
      "value": 205.6598940738202
    },
    {
      "id": 212872,
      "geometry": "POINT (-93.291118 44.643542)",
      "poi_name": "Tacoville",
      "osm_id": 5224370157,
      "amenity": "fast_food",
      "cuisine": "mexican",
      "phone": "+1-952 469-5150",
      "takeaway": "yes",
      "addr_state": "MN",
      "addr_city": "Lakeville",
      "addr_postcode": "55044",
      "addr_street": "Kenrick Avenue",
      "addr_housenumber": "11276",
      "value": 205.6598940738202
    },
    {
      "id": 220418,
      "geometry": "POINT (-93.353586 44.746228)",
      "poi_name": "Domino's",
      "osm_id": 9372713034,
      "amenity": "fast_food",
      "cuisine": "pizza",
      "website": "https://www.dominos.com",
      "phone": "(952) 447-0030",
      "takeaway": "yes",
      "drive_through": "no",
      "delivery": "yes",
      "addr_state": "MN",
      "addr_city": "Savage",
      "addr_postcode": "55378",
      "addr_street": "Egan Drive",
      "addr_housenumber": "5805",
      "value": 205.6598940738202
    },
    {
      "id": 220663,
      "geometry": "POINT (-93.409301 45.03381)",
      "poi_name": "Papa Murphy's",
      "osm_id": 9382489658,
      "amenity": "fast_food",
      "cuisine": "pizza",
      "takeaway": "yes",
      "drive_through": "no",
      "official_name": "Papa Murphy's Take 'N' Bake Pizza",
      "addr_state": "MN",
      "addr_city": "Plymouth",
      "addr_postcode": "55442",
      "addr_street": "Nathan Lane North",
      "addr_housenumber": "4345",
      "value": 205.6598940738202
    },
    {
      "id": 220665,
      "geometry": "POINT (-93.409806 45.033776)",
      "poi_name": "Subway",
      "osm_id": 9382489663,
      "amenity": "fast_food",
      "cuisine": "sandwich",
      "takeaway": "yes",
      "addr_state": "MN",
      "addr_city": "Plymouth",
      "addr_postcode": "55442",
      "addr_street": "Nathan Lane North",
      "addr_housenumber": "4345",
      "value": 205.6598940738202
    },
    {
      "id": 222458,
      "geometry": "POINT (-93.152498 44.833144)",
      "poi_name": "Chick-fil-A",
      "osm_id": 11018914568,
      "amenity": "fast_food",
      "cuisine": "chicken",
      "takeaway": "yes",
      "drive_through": "yes",
      "addr_state": "MN",
      "addr_city": "Eagan",
      "addr_postcode": "55121",
      "addr_street": "Promenade Avenue",
      "addr_housenumber": "3420",
      "value": 205.6598940738202
    },
    {
      "id": 223895,
      "geometry": "POINT (-93.555801 44.543081)",
      "poi_name": "McDonald's",
      "osm_id": 11067340831,
      "amenity": "fast_food",
      "cuisine": "burger",
      "opening_hours": "Mo-Su 05:30-23:00",
      "phone": "+1 (952) 758-5995",
      "takeaway": "yes",
      "drive_through": "yes",
      "addr_state": "MN",
      "addr_city": "New Prague",
      "addr_postcode": "56071",
      "addr_street": "Chalupsky Avenue Southeast",
      "addr_housenumber": "101",
      "value": 205.6598940738202
    },
    {
      "id": 231008,
      "geometry": "POINT (-92.931955 44.920552)",
      "poi_name": "Jimmy John's",
      "osm_id": 4451097756,
      "amenity": "fast_food",
      "cuisine": "sandwich",
      "takeaway": "yes",
      "official_name": "Jimmy John's Gourmet Sandwiches",
      "delivery": "yes",
      "addr_state": "MN",
      "addr_city": "Woodbury",
      "addr_postcode": "55125",
      "addr_street": "Donegal Drive",
      "addr_housenumber": "1960",
      "value": 205.6598940738202
    },
    {
      "id": 232848,
      "geometry": "POINT (-92.937468 44.94132)",
      "poi_name": "Firehouse Subs",
      "osm_id": 4545153848,
      "amenity": "fast_food",
      "cuisine": "sandwich",
      "takeaway": "yes",
      "addr_state": "MN",
      "addr_city": "Woodbury",
      "addr_postcode": "55123",
      "addr_street": "Tamarack Village",
      "addr_housenumber": "8390",
      "value": 205.6598940738202
    },
    {
      "id": 233986,
      "geometry": "POINT (-93.222018 44.948021)",
      "poi_name": "Subway",
      "osm_id": 4594929664,
      "amenity": "fast_food",
      "cuisine": "sandwich",
      "website": "http://local.subway.com/FWPCons/frmSiteMainPage.aspx?CC=USA&LC=ENG&SS=5401-0",
      "phone": "+1-612-721-3044",
      "takeaway": "yes",
      "drive_through": "no",
      "outdoor_seating": "no",
      "delivery": "no",
      "addr_state": "MN",
      "addr_city": "Minneapolis",
      "addr_postcode": "55406",
      "addr_street": "East Lake Street",
      "addr_housenumber": "3425",
      "value": 205.6598940738202
    },
    {
      "id": 238524,
      "geometry": "POINT (-93.166394 44.939924)",
      "poi_name": "My Burger",
      "osm_id": 5882601640,
      "amenity": "fast_food",
      "cuisine": "burger",
      "opening_hours": "Mo-Su 11:00-22:00",
      "phone": "+1-651-330-7816",
      "addr_state": "MN",
      "addr_city": "Saint Paul",
      "addr_postcode": "55105",
      "addr_street": "Grand Avenue",
      "addr_housenumber": "1580",
      "value": 205.6598940738202
    },
    {
      "id": 243960,
      "geometry": "POINT (-93.167289 44.94564)",
      "poi_name": "Dunkin'",
      "osm_id": 7688578430,
      "amenity": "fast_food",
      "cuisine": "donut;coffee_shop",
      "takeaway": "yes",
      "addr_state": "MN",
      "addr_city": "Saint Paul",
      "addr_postcode": "55104",
      "addr_street": "Snelling Avenue",
      "addr_housenumber": "143",
      "value": 205.6598940738202
    }
  ],
  "answer_type": "loc",
  "question_entities": {
    "[2]": {
      "distance": 110000,
      "text": "110 kilometers"
    },
    "[3]": {
      "main_category": "leisure",
      "sub_category": "park",
      "display_name": "Moberg Park, MN",
      "geo_wkt": "POINT (-92.890556 45.372778)",
      "poi": {
        "id": 265355,
        "geometry": "POINT (-92.890556 45.372778)",
        "poi_name": "Moberg Park",
        "osm_id": 367060519,
        "leisure": "park",
        "addr_state": "MN"
      }
    },
    "[4]": {
      "main_category": "tourism",
      "sub_category": "aquarium",
      "display_name": "SEA LIFE Minnesota Aquarium, Bloomington, MN",
      "geo_wkt": "POINT (-93.240076 44.854752)",
      "poi": {
        "id": 25908,
        "geometry": "POINT (-93.240076 44.854752)",
        "poi_name": "SEA LIFE Minnesota Aquarium",
        "osm_id": 5739830095,
        "description": "Sea Life at Mall of America is a public aquarium located in the Mall of America in Bloomington, Minnesota, United States. The 1.3 million-US-gallon aquarium contains thousands of aquatic creatures, including sea turtles, sharks, sawfish, stingrays, jellyf",
        "tourism": "aquarium",
        "fee": "yes",
        "opening_hours": "Mo-Th 11:00-18:00; Fr-Sa 10:00-20:00; Su 11:00-18:00",
        "operator": "Merlin Entertainments'",
        "website": "https://www.visitsealife.com/minnesota/",
        "phone": "+1-952-883-0202",
        "addr_state": "MN",
        "addr_city": "Bloomington",
        "addr_postcode": "55425",
        "addr_street": "East Broadway",
        "addr_housenumber": "120"
      }
    },
    "[1]": {
      "main_category": "amenity",
      "sub_category": "fast_food"
    }
  },
  "id": 1245,
  "type": "range:towards+loc"
}