{
  "question": "Could you help me find a Sushi restaurant, preferably within a 150 kilometers radius of Parker Manatee Aquarium, Bradenton, FL?",
  "sql": "SELECT * FROM pois\nWHERE ST_DWithin(pois.geometry, ST_GeomFromText('POINT (-82.571569 27.497999)',4326)::geography, 150000)\nAND amenity = 'restaurant'\nAND cuisine ILIKE '%Sushi%';\n",
  "answers": [
    {
      "id": 30811,
      "geometry": "POINT (-82.738485 27.721759)",
      "poi_name": "Blue Fugu",
      "osm_id": 8385171735,
      "amenity": "restaurant",
      "cuisine": "japanese;sushi;steak",
      "opening_hours": "Mo-Su 15:30-22:00",
      "website": "bluefugu.com",
      "phone": "+1 727 367-6762",
      "addr_state": "FL",
      "addr_city": "Saint Pete Beach",
      "addr_postcode": "33706",
      "addr_street": "Gulf Boulevard",
      "addr_housenumber": "4615"
    },
    {
      "id": 30833,
      "geometry": "POINT (-82.460179 27.336351)",
      "poi_name": "Ginza",
      "osm_id": 8387624699,
      "amenity": "restaurant",
      "cuisine": "sushi",
      "addr_state": "FL",
      "addr_city": "Sarasota",
      "addr_postcode": "34232",
      "addr_street": "Fruitville Road",
      "addr_housenumber": "5428"
    },
    {
      "id": 31867,
      "geometry": "POINT (-81.592493 28.258037)",
      "poi_name": "Davenport Sashimi Fusion",
      "osm_id": 8452297808,
      "amenity": "restaurant",
      "cuisine": "sushi"
    },
    {
      "id": 32904,
      "geometry": "POINT (-82.456901 27.945897)",
      "poi_name": "On-a-Roll Sushi",
      "osm_id": 2641190570,
      "amenity": "restaurant",
      "cuisine": "sushi",
      "outdoor_seating": "yes"
    },
    {
      "id": 36226,
      "geometry": "POINT (-82.552597 28.026304)",
      "poi_name": "Origami Sushi",
      "osm_id": 2755199643,
      "amenity": "restaurant",
      "cuisine": "sushi",
      "opening_hours": "Mo-Th 11:00-22:00, Fr 11:00-23:00, Sa 12:00-23:00, Su 12:00-22:00",
      "website": "http://origamisushi.com/home",
      "capacity": "50",
      "phone": "813.889.8898",
      "addr_city": "Tampa",
      "addr_postcode": "33634",
      "addr_street": "West Waters Avenue",
      "addr_housenumber": "6507"
    },
    {
      "id": 38615,
      "geometry": "POINT (-81.425278 28.36529)",
      "poi_name": "Sushi En",
      "osm_id": 2871607902,
      "amenity": "restaurant",
      "cuisine": "sushi",
      "wheelchair": "limited",
      "addr_city": "Orlando",
      "addr_postcode": "32837",
      "addr_street": "Town Center Boulevard",
      "addr_housenumber": "4115"
    },
    {
      "id": 39882,
      "geometry": "POINT (-82.318016 27.938609)",
      "poi_name": "Sushi Maru",
      "osm_id": 2946820135,
      "amenity": "restaurant",
      "cuisine": "sushi",
      "opening_hours": "Mo-Th 11:00-22:00; Fr 11:00-23:00; Sa 12:00-23:00; Su 15:00-22:00",
      "phone": "+1 (813) 657-6278",
      "addr_state": "FL",
      "addr_city": "Brandon",
      "addr_postcode": "33511",
      "addr_street": "West Brandon Boulevard",
      "addr_housenumber": "2020"
    },
    {
      "id": 47856,
      "geometry": "POINT (-82.520975 27.965717)",
      "poi_name": "Zen Bistro & Sushi",
      "osm_id": 3353159876,
      "amenity": "restaurant",
      "cuisine": "sushi",
      "takeaway": "no",
      "outdoor_seating": "no",
      "delivery": "no",
      "addr_city": "Tampa",
      "addr_postcode": "33607",
      "addr_street": "North West Shore Boulevard",
      "addr_housenumber": "2223"
    },
    {
      "id": 50907,
      "geometry": "POINT (-82.506615 27.496746)",
      "poi_name": "Migi Sushi",
      "osm_id": 493896780,
      "amenity": "restaurant",
      "cuisine": "sushi",
      "addr_state": "FL",
      "addr_city": "Bradenton",
      "addr_postcode": "34208",
      "addr_street": "State Road 64 E",
      "addr_housenumber": "4420"
    },
    {
      "id": 56601,
      "geometry": "POINT (-82.267941 27.852226)",
      "poi_name": "Akira",
      "osm_id": 10242924937,
      "amenity": "restaurant",
      "cuisine": "sushi;japanese",
      "opening_hours": "Tu-Th 11:30-21:30; Fr-Sa 11:30-22:30; Su 12:30-21:30",
      "website": "http://www.akirafl.com/",
      "phone": "+1 (813) 689-5544",
      "addr_state": "FL",
      "addr_city": "Riverview",
      "addr_postcode": "33569",
      "addr_street": "Boyette Road",
      "addr_housenumber": "13420"
    },
    {
      "id": 67591,
      "geometry": "POINT (-82.546692 28.43472)",
      "poi_name": "Sakura Asian Cuisine & Sushi",
      "osm_id": 11241907804,
      "amenity": "restaurant",
      "cuisine": "sushi",
      "website": "https://www.sakuraspringhillfl.com/",
      "phone": "+13523405543"
    },
    {
      "id": 68053,
      "geometry": "POINT (-82.447168 27.94362)",
      "poi_name": "Noble Rice",
      "osm_id": 11258670218,
      "amenity": "restaurant",
      "cuisine": "noodle;sushi",
      "addr_state": "FL",
      "addr_city": "Tampa",
      "addr_postcode": "33602",
      "addr_street": "Channelside Drive",
      "addr_housenumber": "615"
    },
    {
      "id": 83796,
      "geometry": "POINT (-82.749593 27.91517)",
      "poi_name": "Sushi Spot",
      "osm_id": 1767244211,
      "amenity": "restaurant",
      "cuisine": "sushi",
      "website": "www.sushispotlargo.com",
      "internet_access": "no",
      "phone": "+1 727 507 7400",
      "takeaway": "yes",
      "outdoor_seating": "no",
      "delivery": "no",
      "addr_state": "FL",
      "addr_city": "Largo",
      "addr_postcode": "33771",
      "addr_street": "36th St SE",
      "addr_housenumber": "3665 #146"
    },
    {
      "id": 83807,
      "geometry": "POINT (-82.710846 28.011337)",
      "poi_name": "Ocean Blue Sushi",
      "osm_id": 1768132845,
      "amenity": "restaurant",
      "cuisine": "sushi",
      "takeaway": "yes",
      "outdoor_seating": "no",
      "addr_state": "FL",
      "addr_city": "Safety Harbor",
      "addr_postcode": "33759",
      "addr_street": "N McMullen Booth Rd",
      "addr_housenumber": "2475"
    },
    {
      "id": 92672,
      "geometry": "POINT (-82.642832 27.770998)",
      "poi_name": "Pacific Counter",
      "osm_id": 2130270092,
      "amenity": "restaurant",
      "cuisine": "sushi",
      "description": "Pacific inspired 'create-your-own' burritos and bowls.",
      "opening_hours": "Su-Th 11:00-22:00, Fr-Sa 11:00-00:00",
      "website": "https://pacificcounter.com/",
      "addr_state": "FL",
      "addr_city": "Saint Petersburg",
      "addr_postcode": "33701",
      "addr_street": "Central Avenue",
      "addr_housenumber": "660"
    },
    {
      "id": 90652,
      "geometry": "POINT (-82.633816 27.774164)",
      "poi_name": "Rollbotto Sushi",
      "osm_id": 2010006982,
      "amenity": "restaurant",
      "cuisine": "sushi",
      "wheelchair": "yes",
      "opening_hours": "Mo-Th 11:00-23:00; Fr,Sa 11:00-24:00; Su 12:00-21:00",
      "internet_access": "wlan",
      "takeaway": "yes",
      "outdoor_seating": "yes",
      "delivery": "no",
      "addr_state": "FL",
      "addr_city": "Saint Petersburg",
      "addr_postcode": "33701",
      "addr_street": "1st Street North",
      "addr_housenumber": "221"
    },
    {
      "id": 84810,
      "geometry": "POINT (-82.640133 27.87256)",
      "poi_name": "Sushi Zen",
      "osm_id": 1818233651,
      "amenity": "restaurant",
      "cuisine": "sushi",
      "takeaway": "yes",
      "outdoor_seating": "no",
      "addr_state": "FL",
      "addr_city": "Saint Petersburg",
      "addr_postcode": "33716",
      "addr_street": "Saint Petersburg"
    },
    {
      "id": 86379,
      "geometry": "POINT (-81.427057 28.368407)",
      "poi_name": "Mikado Sushi",
      "osm_id": 1929191896,
      "amenity": "restaurant",
      "cuisine": "sushi",
      "wheelchair": "yes"
    },
    {
      "id": 110677,
      "geometry": "POINT (-82.785043 27.839921)",
      "poi_name": "Oya Sushi",
      "osm_id": 3712750411,
      "amenity": "restaurant",
      "cuisine": "sushi"
    },
    {
      "id": 137296,
      "geometry": "POINT (-82.692663 27.990657)",
      "poi_name": "Happy Salmon Sake Sushi Bar",
      "osm_id": 6091680844,
      "amenity": "restaurant",
      "cuisine": "sushi",
      "addr_state": "FL",
      "addr_city": "Safety Harbor",
      "addr_street": "Main Street"
    },
    {
      "id": 112235,
      "geometry": "POINT (-81.869266 26.644484)",
      "poi_name": "Blu Sushi",
      "osm_id": 3784116124,
      "amenity": "restaurant",
      "cuisine": "sushi",
      "website": "https://blusushi.com/",
      "phone": "239 362 2843",
      "addr_state": "FL",
      "addr_city": "Fort Myers",
      "addr_postcode": "33901",
      "addr_street": "First Street",
      "addr_housenumber": "2262"
    },
    {
      "id": 129728,
      "geometry": "POINT (-82.242663 27.891093)",
      "poi_name": "Sunflower Cafe",
      "osm_id": 9836959913,
      "amenity": "restaurant",
      "cuisine": "sushi",
      "website": "https://www.sunflowercafe.net/",
      "phone": "(813) 657-8744",
      "addr_state": "FL",
      "addr_city": "Valrico",
      "addr_postcode": "33596",
      "addr_street": "Lithia Pinecrest Road",
      "addr_housenumber": "3452"
    },
    {
      "id": 131544,
      "geometry": "POINT (-82.405074 28.088648)",
      "poi_name": "Sake House",
      "osm_id": 9920280705,
      "amenity": "restaurant",
      "cuisine": "sushi",
      "wheelchair": "yes",
      "opening_hours": "Mo-Fr 11:30-02:00; Sa-Su 12:30-02:00",
      "internet_access": "wlan",
      "takeaway": "yes",
      "outdoor_seating": "yes",
      "toilets": "yes",
      "addr_state": "FL",
      "addr_city": "Tampa",
      "addr_postcode": "33647",
      "addr_street": "Amberly Drive",
      "addr_housenumber": "15311"
    },
    {
      "id": 134112,
      "geometry": "POINT (-82.36581 28.13107)",
      "poi_name": "Sushi Cafe",
      "osm_id": 10030640785,
      "amenity": "restaurant",
      "cuisine": "sushi"
    },
    {
      "id": 117501,
      "geometry": "POINT (-82.577789 27.434112)",
      "poi_name": "Sam Oh Jung",
      "osm_id": 8997624656,
      "amenity": "restaurant",
      "cuisine": "sushi"
    },
    {
      "id": 133317,
      "geometry": "POINT (-82.729877 27.812857)",
      "poi_name": "EDO Japanese Steakhouse and Sushi Bar",
      "osm_id": 9987456036,
      "amenity": "restaurant",
      "cuisine": "japanese;sushi;steak_house",
      "opening_hours": "Tu-Su 04:00- 22:00",
      "website": "https://edojapanesesteakhouseandsushibar.com",
      "phone": "727-549-8106",
      "addr_state": "FL",
      "addr_city": "Saint Petersburg",
      "addr_postcode": "33709",
      "addr_street": "66th Street North",
      "addr_housenumber": "4500"
    },
    {
      "id": 143623,
      "geometry": "POINT (-82.438937 27.106345)",
      "poi_name": "Thai Star Sushi",
      "osm_id": 6345755365,
      "amenity": "restaurant",
      "cuisine": "asian;thai;sushi;japanese"
    },
    {
      "id": 144450,
      "geometry": "POINT (-82.065056 26.929069)",
      "poi_name": "The Pier",
      "osm_id": 7265041985,
      "amenity": "restaurant",
      "cuisine": "american;sushi",
      "opening_hours": "Mo-Su 11:00-21:00",
      "website": "https://www.thepierpg.com/",
      "phone": "+1 941-347-8116",
      "addr_state": "FL",
      "addr_city": "Punta Gorda",
      "addr_postcode": "33950",
      "addr_street": "West Retta Esplanade",
      "addr_housenumber": "2100"
    },
    {
      "id": 164226,
      "geometry": "POINT (-82.504026 28.083411)",
      "poi_name": "Ahi Asian Bistro",
      "osm_id": 9457301722,
      "amenity": "restaurant",
      "cuisine": "japanese;sushi;thai",
      "opening_hours": "Su 12:00-21:00; Tu-Fr 12:00-21:00; Sa 12:00-22:00",
      "website": "https://www.ahiasianbistro.com/",
      "phone": "+1 813-374-5756",
      "takeaway": "yes",
      "addr_state": "FL",
      "addr_street": "North Dale Mabry Hwy",
      "addr_housenumber": "14841"
    },
    {
      "id": 152450,
      "geometry": "POINT (-82.259107 27.937164)",
      "poi_name": "Sushi Ushi",
      "osm_id": 4145541790,
      "amenity": "restaurant",
      "cuisine": "japanese;sushi",
      "wheelchair": "yes",
      "opening_hours": "Tu-Th 11:00-15:00, 16:00-22:00; Fr-Sa 11:00-15:00, 16:00-23:00; Su 13:30-22:00",
      "website": "https://www.sushiushivalrico.com/",
      "internet_access": "no",
      "phone": "+1 (813) 662-0728",
      "takeaway": "yes",
      "outdoor_seating": "no",
      "delivery": "no",
      "addr_state": "FL",
      "addr_city": "Valrico",
      "addr_postcode": "33594",
      "addr_street": "FL 60",
      "addr_housenumber": "1713"
    },
    {
      "id": 155249,
      "geometry": "POINT (-81.955838 26.454332)",
      "poi_name": "Zushi Sushi",
      "osm_id": 4277747443,
      "amenity": "restaurant",
      "cuisine": "sushi",
      "website": "http://www.zushizushi.com/",
      "addr_city": "Fort Myers Beach",
      "addr_postcode": "33931",
      "addr_street": "Old San Carlos Boulevard",
      "addr_housenumber": "201"
    },
    {
      "id": 168771,
      "geometry": "POINT (-82.727976 27.836446)",
      "poi_name": "Sushi Wave",
      "osm_id": 2277796314,
      "amenity": "restaurant",
      "cuisine": "sushi",
      "addr_city": "Pinellas Park",
      "addr_street": "66th Street North"
    },
    {
      "id": 168552,
      "geometry": "POINT (-82.77373 27.916936)",
      "poi_name": "Thai Bay",
      "osm_id": 2268236441,
      "amenity": "restaurant",
      "cuisine": "sushi;thai",
      "addr_city": "Clearwater",
      "addr_street": "East Bay Drive",
      "addr_housenumber": "1300"
    },
    {
      "id": 166977,
      "geometry": "POINT (-82.454786 27.938872)",
      "poi_name": "Jackson's Bistro",
      "osm_id": 321447916,
      "amenity": "restaurant",
      "cuisine": "seafood;sushi",
      "outdoor_seating": "yes"
    },
    {
      "id": 168513,
      "geometry": "POINT (-81.583881 28.523462)",
      "poi_name": "Aji Sushi",
      "osm_id": 2265500635,
      "amenity": "restaurant",
      "cuisine": "sushi"
    },
    {
      "id": 195140,
      "geometry": "POINT (-82.385904 27.098185)",
      "poi_name": "Fugu",
      "osm_id": 10295999600,
      "amenity": "restaurant",
      "cuisine": "sushi",
      "description": "Hibachi and sushi"
    },
    {
      "id": 184591,
      "geometry": "POINT (-82.720947 27.526843)",
      "poi_name": "Ocean Star",
      "osm_id": 7799592822,
      "amenity": "restaurant",
      "cuisine": "sushi;japanese;hibachi",
      "opening_hours": "Tu-Su 16:00-21:30",
      "website": "https://www.islandoceanstarfl.com/",
      "internet_access": "no",
      "phone": "+1-941-251-6940",
      "takeaway": "yes",
      "outdoor_seating": "yes",
      "delivery": "no",
      "addr_state": "FL",
      "addr_city": "Anna Maria",
      "addr_postcode": "34216",
      "addr_street": "South Bay Boulevard",
      "addr_housenumber": "902"
    },
    {
      "id": 198951,
      "geometry": "POINT (-82.63684 27.771908)",
      "poi_name": "Sushi Inc.",
      "osm_id": 925828070,
      "amenity": "restaurant",
      "cuisine": "sushi",
      "opening_hours": "Tu-Th 11:30-22:00; Fr,Sa 11:30-24:00, Su 11:30-22:00",
      "addr_state": "FL",
      "addr_city": "Saint Petersburg",
      "addr_postcode": "33701",
      "addr_street": "1st Avenue North",
      "addr_housenumber": "270"
    },
    {
      "id": 207610,
      "geometry": "POINT (-82.763473 27.840358)",
      "poi_name": "Sushi Spice",
      "osm_id": 4954052349,
      "amenity": "restaurant",
      "cuisine": "sushi;thai;japanese",
      "opening_hours": "Mo-Th 11:30-14:30, 16:30-21:30; Fr 11:30-14:30, 16:30-22:00; Sa, Su 16:30-22:00",
      "website": "https://www.sushispice.net",
      "phone": "+1-727-201-4305",
      "takeaway": "yes",
      "outdoor_seating": "no",
      "delivery": "yes",
      "addr_state": "FL",
      "addr_city": "Seminole",
      "addr_postcode": "33777",
      "addr_street": "Starkey Rd Ste E",
      "addr_housenumber": "7570"
    },
    {
      "id": 233944,
      "geometry": "POINT (-82.272227 27.890923)",
      "poi_name": "Sushi Ninja",
      "osm_id": 4593089280,
      "amenity": "restaurant",
      "cuisine": "sushi",
      "opening_hours": "Mo-Th 11:30-21:00; Fr 11:30-22:00; Sa 16:30-22:00",
      "website": "http://www.sushininjafl.com/",
      "phone": "+1 (813) 662-3377",
      "takeaway": "yes",
      "outdoor_seating": "no",
      "addr_state": "FL",
      "addr_city": "Brandon",
      "addr_postcode": "33511",
      "addr_street": "East Bloomingdale Avenue",
      "addr_housenumber": "903"
    },
    {
      "id": 221116,
      "geometry": "POINT (-81.485203 28.386216)",
      "poi_name": "Tokyo Sushi",
      "osm_id": 10968086569,
      "amenity": "restaurant",
      "cuisine": "sushi",
      "addr_state": "FL",
      "addr_city": "Orlando",
      "addr_postcode": "32821",
      "addr_street": "Vineland Avenue",
      "addr_housenumber": "8111"
    },
    {
      "id": 225504,
      "geometry": "POINT (-82.639017 28.029329)",
      "poi_name": "Oishi Sushi Bar",
      "osm_id": 11128940095,
      "amenity": "restaurant",
      "cuisine": "sushi"
    },
    {
      "id": 226868,
      "geometry": "POINT (-82.784523 27.892191)",
      "poi_name": "The Spot Sushi Burritos",
      "osm_id": 11171092643,
      "amenity": "restaurant",
      "cuisine": "sushi",
      "opening_hours": "Su-Th 11:00-21:30; Fr-Sa 11:00-22:10",
      "website": "https://www.spotsushiburrito.com/",
      "phone": "+17272534593",
      "addr_state": "FL",
      "addr_city": "Largo",
      "addr_postcode": "33771",
      "addr_street": "Ulmerton Rd",
      "addr_housenumber": "10500"
    },
    {
      "id": 234093,
      "geometry": "POINT (-81.600663 28.339716)",
      "poi_name": "Oishi Japanese Restaurant",
      "osm_id": 4603058890,
      "amenity": "restaurant",
      "cuisine": "sushi",
      "opening_hours": "Mo-Su 11:30-15:00",
      "website": "https://www.oishijapanesefl.com/",
      "addr_postcode": "34747",
      "addr_street": "West Irlo Bronson Memorial Highway",
      "addr_housenumber": "7818"
    },
    {
      "id": 244328,
      "geometry": "POINT (-82.357486 28.139944)",
      "poi_name": "Poke Island Plus",
      "osm_id": 7715228383,
      "amenity": "restaurant",
      "cuisine": "poke;asian;sushi"
    }
  ],
  "answer_type": "name",
  "question_entities": {
    "[1]": {
      "main_category": "amenity",
      "sub_category": "restaurant",
      "poi_filter_desc": "Sushi restaurant",
      "poi_filter_sql": "cuisine ILIKE '%Sushi%'"
    },
    "[2]": {
      "distance": 150000,
      "text": "150 kilometers"
    },
    "[3]": {
      "main_category": "tourism",
      "sub_category": "aquarium",
      "display_name": "Parker Manatee Aquarium, Bradenton, FL",
      "geo_wkt": "POINT (-82.571569 27.497999)",
      "poi": {
        "id": 2533,
        "geometry": "POINT (-82.571569 27.497999)",
        "poi_name": "Parker Manatee Aquarium",
        "osm_id": 493892785,
        "tourism": "aquarium",
        "fee": "yes",
        "addr_state": "FL",
        "addr_city": "Bradenton",
        "addr_postcode": "34205",
        "addr_street": "10th Street West",
        "addr_housenumber": "201"
      }
    }
  },
  "id": 581,
  "type": "range:non_spat_filter+name"
}