{
  "question": "Can you recommend a restaurant that's not too far from University of Washington School of Medicine Spokane, Spokane, WA? Maximum distance: 70 kilometers",
  "sql": "SELECT * FROM pois\nWHERE ST_DWithin(pois.geometry, ST_GeomFromText('POINT (-117.397547 47.661447)',4326)::geography, 70000)\nAND amenity = 'restaurant';\n",
  "answers": [
    {
      "id": 29120,
      "geometry": "POINT (-117.476859 47.700257)",
      "poi_name": "Outlaw Barbecue",
      "osm_id": 8282244837,
      "amenity": "restaurant",
      "cuisine": "barbecue"
    },
    {
      "id": 30257,
      "geometry": "POINT (-116.785746 47.722976)",
      "poi_name": "Mi Jalisco Taqueria",
      "osm_id": 8344684108,
      "amenity": "restaurant"
    },
    {
      "id": 30258,
      "geometry": "POINT (-116.787203 47.717623)",
      "poi_name": "Santorini's Greek Cuisine",
      "osm_id": 8344684110,
      "amenity": "restaurant"
    },
    {
      "id": 30259,
      "geometry": "POINT (-116.785734 47.714754)",
      "poi_name": "San Francisco Sourdough",
      "osm_id": 8344684112,
      "amenity": "restaurant"
    },
    {
      "id": 30260,
      "geometry": "POINT (-116.790421 47.712079)",
      "poi_name": "Las Chavelas",
      "osm_id": 8344684115,
      "amenity": "restaurant"
    },
    {
      "id": 30263,
      "geometry": "POINT (-116.78992 47.701857)",
      "poi_name": "The Growler Guys",
      "osm_id": 8344701126,
      "amenity": "restaurant"
    },
    {
      "id": 30264,
      "geometry": "POINT (-116.806114 47.69535)",
      "poi_name": "Azteca Southwest Grill",
      "osm_id": 8344701134,
      "amenity": "restaurant"
    },
    {
      "id": 30265,
      "geometry": "POINT (-116.807157 47.695313)",
      "poi_name": "Vine and Olive Eatery and Wine Bar",
      "osm_id": 8344701135,
      "amenity": "restaurant"
    },
    {
      "id": 30266,
      "geometry": "POINT (-116.806188 47.694669)",
      "poi_name": "San Francisco Sourdough Eatery",
      "osm_id": 8344701139,
      "amenity": "restaurant"
    },
    {
      "id": 30267,
      "geometry": "POINT (-116.806198 47.694571)",
      "poi_name": "Sushi I",
      "osm_id": 8344701140,
      "amenity": "restaurant"
    },
    {
      "id": 30268,
      "geometry": "POINT (-116.892234 47.717582)",
      "poi_name": "Westside Pizza",
      "osm_id": 8344726184,
      "amenity": "restaurant"
    },
    {
      "id": 30269,
      "geometry": "POINT (-116.892243 47.716705)",
      "poi_name": "The Wellness Bar",
      "osm_id": 8344726185,
      "amenity": "restaurant"
    },
    {
      "id": 30275,
      "geometry": "POINT (-116.903939 47.715541)",
      "poi_name": "El Ranchero",
      "osm_id": 8344726195,
      "amenity": "restaurant"
    },
    {
      "id": 30276,
      "geometry": "POINT (-116.914573 47.711131)",
      "poi_name": "Rancho Viejo",
      "osm_id": 8344726197,
      "amenity": "restaurant"
    },
    {
      "id": 30279,
      "geometry": "POINT (-116.922526 47.710195)",
      "poi_name": "Mugsy's",
      "osm_id": 8344726200,
      "amenity": "restaurant"
    },
    {
      "id": 30280,
      "geometry": "POINT (-116.926201 47.710621)",
      "poi_name": "Fu-Ki Post Falls",
      "osm_id": 8344726201,
      "amenity": "restaurant"
    },
    {
      "id": 30284,
      "geometry": "POINT (-116.920667 47.711705)",
      "poi_name": "Denny's",
      "osm_id": 8344726205,
      "amenity": "restaurant",
      "cuisine": "american",
      "phone": "+1-208-773-6988",
      "outdoor_seating": "no",
      "addr_state": "ID",
      "addr_city": "Post Falls",
      "addr_postcode": "83854",
      "addr_street": "East Schneidmiller Avenue",
      "addr_housenumber": "1670"
    },
    {
      "id": 30285,
      "geometry": "POINT (-116.919054 47.711733)",
      "poi_name": "Dueling Irons Restaurant",
      "osm_id": 8344726206,
      "amenity": "restaurant"
    },
    {
      "id": 31133,
      "geometry": "POINT (-116.790322 47.787625)",
      "poi_name": "Belle's Brunch House",
      "osm_id": 8405714967,
      "amenity": "restaurant",
      "opening_hours": "Mo-Su 08:00-15:00"
    },
    {
      "id": 33942,
      "geometry": "POINT (-117.700811 47.323522)",
      "poi_name": "Xanny's Restaurant",
      "osm_id": 2687689365,
      "amenity": "restaurant"
    },
    {
      "id": 42331,
      "geometry": "POINT (-117.044406 48.179228)",
      "poi_name": "Pizza Factory",
      "osm_id": 3056403504,
      "amenity": "restaurant"
    },
    {
      "id": 38353,
      "geometry": "POINT (-117.422498 47.657014)",
      "poi_name": "Domini's",
      "osm_id": 2859300672,
      "amenity": "restaurant",
      "addr_housenumber": "703"
    },
    {
      "id": 38550,
      "geometry": "POINT (-117.104212 47.67095)",
      "poi_name": "Barlows",
      "osm_id": 2870436554,
      "amenity": "restaurant",
      "cuisine": "regional",
      "addr_state": "WA",
      "addr_city": "Liberty Lake",
      "addr_postcode": "99019",
      "addr_street": "North Liberty Lake Road",
      "addr_housenumber": "1428"
    },
    {
      "id": 38552,
      "geometry": "POINT (-117.11257 47.699934)",
      "poi_name": "River City Pizza",
      "osm_id": 2870436559,
      "amenity": "restaurant",
      "cuisine": "pizza",
      "addr_postcode": "99027",
      "addr_street": "North Harvard Road",
      "addr_housenumber": "4707"
    },
    {
      "id": 38553,
      "geometry": "POINT (-117.11202 47.673925)",
      "poi_name": "Hay J's Bistro",
      "osm_id": 2870436560,
      "amenity": "restaurant",
      "cuisine": "regional"
    },
    {
      "id": 38555,
      "geometry": "POINT (-117.104073 47.670005)",
      "poi_name": "Pizza Hut",
      "osm_id": 2870436564,
      "amenity": "restaurant",
      "cuisine": "pizza",
      "takeaway": "yes",
      "addr_state": "WA",
      "addr_city": "Liberty Lake",
      "addr_postcode": "99019",
      "addr_street": "North Liberty Lake Road",
      "addr_housenumber": "1330"
    },
    {
      "id": 38763,
      "geometry": "POINT (-117.104191 47.670186)",
      "poi_name": "Ding How",
      "osm_id": 2882764761,
      "amenity": "restaurant",
      "cuisine": "chinese",
      "takeaway": "yes",
      "addr_state": "WA",
      "addr_city": "Liberty Lake",
      "addr_postcode": "99019",
      "addr_street": "North Liberty Lake Road",
      "addr_housenumber": "1332"
    },
    {
      "id": 42393,
      "geometry": "POINT (-117.404961 47.77089)",
      "poi_name": "Pizza Hut",
      "osm_id": 3060249510,
      "amenity": "restaurant",
      "cuisine": "pizza",
      "addr_state": "WA",
      "addr_city": "Spokane",
      "addr_postcode": "99218",
      "addr_street": "North Division Street",
      "addr_housenumber": "12501"
    },
    {
      "id": 42332,
      "geometry": "POINT (-117.04354 48.178228)",
      "poi_name": "Kelly's Restauranr & Lounge",
      "osm_id": 3056403528,
      "amenity": "restaurant"
    },
    {
      "id": 42335,
      "geometry": "POINT (-117.062648 48.175813)",
      "poi_name": "Golden China Restauran",
      "osm_id": 3056438528,
      "amenity": "restaurant",
      "cuisine": "chinese"
    },
    {
      "id": 42336,
      "geometry": "POINT (-117.066728 48.173844)",
      "poi_name": "Audrey's Restaurant",
      "osm_id": 3056438648,
      "amenity": "restaurant"
    },
    {
      "id": 42337,
      "geometry": "POINT (-117.063682 48.175216)",
      "poi_name": "Hot Stuff Pizza",
      "osm_id": 3056438674,
      "amenity": "restaurant"
    },
    {
      "id": 52686,
      "geometry": "POINT (-116.792603 47.708116)",
      "poi_name": "Westside Pizza",
      "osm_id": 10043033276,
      "amenity": "restaurant",
      "cuisine": "pizza"
    },
    {
      "id": 43556,
      "geometry": "POINT (-117.319919 47.680552)",
      "poi_name": "Skyway Cafe",
      "osm_id": 3119392445,
      "amenity": "restaurant",
      "wheelchair": "yes",
      "opening_hours": "06:00-14:30",
      "website": "https://www.skywaycafe.com/",
      "phone": "+1-509-534-5986",
      "addr_city": "Spokane",
      "addr_postcode": "99212",
      "addr_street": "East Rutter Avenue",
      "addr_housenumber": "6105"
    },
    {
      "id": 51972,
      "geometry": "POINT (-117.369194 47.614214)",
      "poi_name": "Twigs Bistro and Martini Bar",
      "osm_id": 566621164,
      "amenity": "restaurant",
      "phone": "+1-509-443-8000",
      "addr_state": "WA",
      "addr_city": "Spokane",
      "addr_street": "South Regal Street",
      "addr_housenumber": "4320"
    },
    {
      "id": 52651,
      "geometry": "POINT (-116.80953 47.716174)",
      "poi_name": "Meltz Extreme Grilled Chese",
      "osm_id": 10040452142,
      "amenity": "restaurant",
      "cuisine": "american"
    },
    {
      "id": 52701,
      "geometry": "POINT (-116.792772 47.70217)",
      "poi_name": "Pizza Factory",
      "osm_id": 10043506529,
      "amenity": "restaurant",
      "cuisine": "pizza"
    },
    {
      "id": 53015,
      "geometry": "POINT (-117.21765 47.658108)",
      "poi_name": "Jake & Clay's Public House",
      "osm_id": 10059980286,
      "amenity": "restaurant",
      "cuisine": "sandwich",
      "opening_hours": "Tu-Fr 11:00-20:00; Sa 11:00-16:00",
      "website": "https://jakeandclays.com/",
      "takeaway": "yes",
      "addr_city": "Spokane Valley",
      "addr_postcode": "99216",
      "addr_street": "North Evergreen Road",
      "addr_housenumber": "106"
    },
    {
      "id": 52919,
      "geometry": "POINT (-116.789512 47.715839)",
      "poi_name": "Fisherman\u2019s Market & Grill",
      "osm_id": 10054877175,
      "amenity": "restaurant",
      "cuisine": "seafood"
    },
    {
      "id": 53054,
      "geometry": "POINT (-116.781431 47.691346)",
      "poi_name": "Crime Scene Entertainment",
      "osm_id": 10061824456,
      "amenity": "restaurant"
    },
    {
      "id": 53138,
      "geometry": "POINT (-116.780413 47.681503)",
      "poi_name": "Angelo's Ristorante",
      "osm_id": 10065745358,
      "amenity": "restaurant",
      "cuisine": "italian"
    },
    {
      "id": 53084,
      "geometry": "POINT (-116.780268 47.691561)",
      "poi_name": "Syringa",
      "osm_id": 10064607558,
      "amenity": "restaurant",
      "cuisine": "japanese"
    },
    {
      "id": 53356,
      "geometry": "POINT (-116.780902 47.675433)",
      "poi_name": "China Inn Restaurant",
      "osm_id": 10076342294,
      "amenity": "restaurant",
      "cuisine": "chinese"
    },
    {
      "id": 53365,
      "geometry": "POINT (-116.784458 47.674188)",
      "poi_name": "Toro Viejo",
      "osm_id": 10077733361,
      "amenity": "restaurant",
      "cuisine": "mexican"
    },
    {
      "id": 53476,
      "geometry": "POINT (-116.793043 47.682205)",
      "poi_name": "Caf\u00e9 Carambola",
      "osm_id": 10082335882,
      "amenity": "restaurant"
    },
    {
      "id": 53308,
      "geometry": "POINT (-116.780764 47.679549)",
      "poi_name": "Izzy's Comfort Kitchen",
      "osm_id": 10074366863,
      "amenity": "restaurant",
      "cuisine": "american"
    },
    {
      "id": 53510,
      "geometry": "POINT (-116.763518 47.673165)",
      "poi_name": "Schmidty's Burgers",
      "osm_id": 10083156880,
      "amenity": "restaurant",
      "cuisine": "american"
    },
    {
      "id": 54660,
      "geometry": "POINT (-117.421295 47.658545)",
      "poi_name": "Soulful Soups and Spirits",
      "osm_id": 10145284928,
      "amenity": "restaurant",
      "phone": "+1-509-459-1190",
      "addr_street": "North Howard Street",
      "addr_housenumber": "117"
    },
    {
      "id": 54868,
      "geometry": "POINT (-117.215069 47.658095)",
      "poi_name": "Brea\u00fcxdoo Bakery",
      "osm_id": 10160058217,
      "amenity": "restaurant",
      "opening_hours": "Su-Th 08:00-18:00; Fr-Sa 08:00-20:00",
      "website": "https://www.breauxdoobakery.com/",
      "shop": "bakery",
      "phone": "+1-509-290-6389",
      "takeaway": "only",
      "delivery": "yes",
      "addr_state": "WA",
      "addr_city": "Spokane Valley",
      "addr_postcode": "99216",
      "addr_street": "East Sprague Avenue",
      "addr_housenumber": "14109"
    },
    {
      "id": 55943,
      "geometry": "POINT (-117.462882 47.717647)",
      "poi_name": "Pint House Burgers And Brews",
      "osm_id": 10216747617,
      "amenity": "restaurant",
      "cuisine": "american",
      "addr_postcode": "99208",
      "addr_street": "West Indian Trail Road",
      "addr_housenumber": "3325"
    },
    {
      "id": 67183,
      "geometry": "POINT (-116.809837 47.692248)",
      "poi_name": "Le Peep",
      "osm_id": 11227606448,
      "amenity": "restaurant",
      "cuisine": "breakfast"
    },
    {
      "id": 66245,
      "geometry": "POINT (-117.423746 47.65885)",
      "poi_name": "P.F. Chang's",
      "osm_id": 5732642522,
      "amenity": "restaurant",
      "cuisine": "asian",
      "opening_hours": "Mo-Su 11:00-22:00",
      "website": "https://www.pfchangs.com/",
      "phone": "+1 509 456 2166",
      "official_name": "P.F. Chang's China Bistro",
      "addr_postcode": "99201",
      "addr_street": "West Main Avenue",
      "addr_housenumber": "801"
    },
    {
      "id": 67087,
      "geometry": "POINT (-116.80668 47.69477)",
      "poi_name": "Vicino Pizza",
      "osm_id": 11223010871,
      "amenity": "restaurant",
      "cuisine": "pizza"
    },
    {
      "id": 66686,
      "geometry": "POINT (-117.367432 47.628097)",
      "poi_name": "Betty Jean's BBQ",
      "osm_id": 11206081963,
      "amenity": "restaurant",
      "cuisine": "barbecue",
      "opening_hours": "Tu-Sa 13:00-20:00",
      "website": "https://bettyjeansbbq.com/",
      "phone": "+1-509-828-5931",
      "addr_state": "WA",
      "addr_city": "Spokane",
      "addr_postcode": "99223",
      "addr_street": "East 29th Avenue",
      "addr_housenumber": "2926"
    },
    {
      "id": 67150,
      "geometry": "POINT (-116.792222 47.691945)",
      "poi_name": "El Paisa",
      "osm_id": 11225530068,
      "amenity": "restaurant",
      "cuisine": "mexican"
    },
    {
      "id": 74288,
      "geometry": "POINT (-117.56297 47.659378)",
      "poi_name": "East Pan Asian Cuisine",
      "osm_id": 9673752794,
      "amenity": "restaurant",
      "cuisine": "asian",
      "opening_hours": "Tu-Th 11:00-23:00, Fr,Sa 11:00-00:00",
      "website": "https://www.northernquest.com/dining-bars/restaurants/east",
      "phone": "+1-509-481-2131",
      "addr_state": "WA",
      "addr_city": "Airway Heights",
      "addr_postcode": "99001",
      "addr_street": "North Hayford Road",
      "addr_housenumber": "100"
    },
    {
      "id": 68332,
      "geometry": "POINT (-117.432886 47.664184)",
      "poi_name": "Vieux Carr\u00e9",
      "osm_id": 11265581277,
      "amenity": "restaurant",
      "cuisine": "cajun",
      "opening_hours": "Mo-Th 11:00-22:00; Fr-Sa 11:00-23:00; Su 09:00-21:00",
      "website": "https://vieuxcarrespokane.com/",
      "phone": "+1-509-495-1400",
      "addr_state": "WA",
      "addr_city": "Spokane",
      "addr_postcode": "99201",
      "addr_street": "West Broadway Avenue",
      "addr_housenumber": "1403"
    },
    {
      "id": 72231,
      "geometry": "POINT (-117.880332 47.669311)",
      "poi_name": "The SpeedTrap Taphouse",
      "osm_id": 11417844094,
      "amenity": "restaurant"
    },
    {
      "id": 72545,
      "geometry": "POINT (-117.3608 47.672306)",
      "poi_name": "Orlando's",
      "osm_id": 11432806173,
      "amenity": "restaurant"
    },
    {
      "id": 72732,
      "geometry": "POINT (-117.418626 47.659227)",
      "poi_name": "Gander & Ryegrass",
      "osm_id": 11445460412,
      "amenity": "restaurant",
      "cuisine": "italian"
    },
    {
      "id": 73472,
      "geometry": "POINT (-117.370394 47.601746)",
      "poi_name": "Pizza Pipeline",
      "osm_id": 9634752180,
      "amenity": "restaurant",
      "cuisine": "pizza"
    },
    {
      "id": 73473,
      "geometry": "POINT (-117.369618 47.60176)",
      "poi_name": "De Leon's Taco & Bar",
      "osm_id": 9634752186,
      "amenity": "restaurant"
    },
    {
      "id": 71097,
      "geometry": "POINT (-117.409809 47.750436)",
      "poi_name": "McClain's Pizzeria",
      "osm_id": 11382019970,
      "amenity": "restaurant",
      "cuisine": "pizza"
    },
    {
      "id": 71098,
      "geometry": "POINT (-117.409814 47.75053)",
      "poi_name": "Umi North",
      "osm_id": 11382019971,
      "amenity": "restaurant",
      "cuisine": "sushi"
    },
    {
      "id": 71099,
      "geometry": "POINT (-117.409814 47.750815)",
      "poi_name": "De Leon's Taco And Bar",
      "osm_id": 11382019974,
      "amenity": "restaurant",
      "cuisine": "mexican"
    },
    {
      "id": 78672,
      "geometry": "POINT (-116.786871 47.6936)",
      "poi_name": "Caruso's Sandwich Co.",
      "osm_id": 761623269,
      "amenity": "restaurant"
    },
    {
      "id": 74591,
      "geometry": "POINT (-117.411348 47.659223)",
      "poi_name": "Borracho - Tacos & Taqueria",
      "osm_id": 9687192400,
      "amenity": "restaurant"
    },
    {
      "id": 74612,
      "geometry": "POINT (-117.420752 47.658285)",
      "poi_name": "Pho City",
      "osm_id": 9688547482,
      "amenity": "restaurant"
    },
    {
      "id": 76759,
      "geometry": "POINT (-117.196065 47.667306)",
      "poi_name": "MAX at Mirabeau",
      "osm_id": 9792271835,
      "amenity": "restaurant",
      "website": "https://www.maxatmirabeau.com/",
      "phone": "+1-509-922-6252",
      "addr_state": "WA",
      "addr_city": "Spokane Valley",
      "addr_postcode": "99037",
      "addr_street": "North Sullivan Road",
      "addr_housenumber": "1100"
    },
    {
      "id": 80523,
      "geometry": "POINT (-118.160099 47.653665)",
      "poi_name": "El Ranchito",
      "osm_id": 880132661,
      "amenity": "restaurant",
      "cuisine": "mexican"
    },
    {
      "id": 105388,
      "geometry": "POINT (-116.759602 47.765913)",
      "poi_name": "The Porch Public House",
      "osm_id": 8624051735,
      "amenity": "restaurant",
      "cuisine": "american",
      "addr_state": "ID",
      "addr_city": "Hayden Lake",
      "addr_postcode": "83835",
      "addr_street": "East Miles Avenue",
      "addr_housenumber": "1658"
    },
    {
      "id": 106535,
      "geometry": "POINT (-117.397068 47.714718)",
      "poi_name": "Taqueria Fiesta Brava",
      "osm_id": 8686115258,
      "amenity": "restaurant",
      "cuisine": "mexican",
      "addr_street": "East Francis Avenue",
      "addr_housenumber": "820"
    },
    {
      "id": 108175,
      "geometry": "POINT (-117.192614 47.664718)",
      "poi_name": "Killer Burger",
      "osm_id": 3599735842,
      "amenity": "restaurant",
      "cuisine": "burger",
      "website": "https://killerburger.com",
      "phone": "+1-509-798-8014",
      "addr_state": "WA",
      "addr_city": "Spokane Valley",
      "addr_postcode": "99037",
      "addr_street": "East Broadway Avenue",
      "addr_housenumber": "15705"
    },
    {
      "id": 115658,
      "geometry": "POINT (-116.748337 47.683518)",
      "poi_name": "Capone's Pub Ponderosa Springs Golf Course",
      "osm_id": 8908862442,
      "amenity": "restaurant",
      "addr_state": "ID",
      "addr_city": "Coeur d'Alene",
      "addr_postcode": "83814",
      "addr_street": "North Galena Drive",
      "addr_housenumber": "1291"
    },
    {
      "id": 113762,
      "geometry": "POINT (-117.424389 47.641948)",
      "poi_name": "Bennidito's Pizza & Bar",
      "osm_id": 3845661151,
      "amenity": "restaurant",
      "cuisine": "pizza",
      "opening_hours": "11:00-23:00",
      "capacity": "60",
      "takeaway": "yes",
      "addr_state": "WA",
      "addr_city": "Spokane",
      "addr_postcode": "99203",
      "addr_street": "South Lincoln Street",
      "addr_housenumber": "1426"
    },
    {
      "id": 113763,
      "geometry": "POINT (-117.427274 47.646529)",
      "poi_name": "9th Street Bistro",
      "osm_id": 3845676957,
      "amenity": "restaurant",
      "cuisine": "deli"
    },
    {
      "id": 113925,
      "geometry": "POINT (-117.401187 47.627522)",
      "poi_name": "Republic Pi",
      "osm_id": 3857248728,
      "amenity": "restaurant",
      "cuisine": "pizza",
      "opening_hours": "Su-Th 11:00-21:00; Fr,Sa 11:00-22:00",
      "website": "https://www.republicpi.com/",
      "phone": "+1-509-863-9196",
      "addr_state": "WA",
      "addr_city": "Spokane",
      "addr_postcode": "99203",
      "addr_street": "East 30th Avenue",
      "addr_housenumber": "611"
    },
    {
      "id": 113926,
      "geometry": "POINT (-117.400931 47.627209)",
      "poi_name": "Manito Tap House",
      "osm_id": 3857248732,
      "amenity": "restaurant"
    },
    {
      "id": 116002,
      "geometry": "POINT (-116.89352 47.814612)",
      "poi_name": "Penny's Pit Gourmet Burgers",
      "osm_id": 8923160432,
      "amenity": "restaurant",
      "cuisine": "american",
      "addr_state": "ID",
      "addr_city": "Rathdrum",
      "addr_street": "West Highway 53",
      "addr_housenumber": "14319"
    },
    {
      "id": 115812,
      "geometry": "POINT (-116.858661 47.867376)",
      "poi_name": "MoonDollars",
      "osm_id": 8912944482,
      "amenity": "restaurant",
      "cuisine": "american;burger"
    },
    {
      "id": 116164,
      "geometry": "POINT (-116.793517 47.71271)",
      "poi_name": "Cafe Rio",
      "osm_id": 8930883161,
      "amenity": "restaurant",
      "cuisine": "mexican"
    },
    {
      "id": 118226,
      "geometry": "POINT (-116.723273 47.646705)",
      "poi_name": "Tony's On The Lake",
      "osm_id": 9033549831,
      "amenity": "restaurant",
      "cuisine": "italian",
      "website": "https://www.tonysonthelake.com/",
      "outdoor_seating": "yes",
      "addr_state": "ID",
      "addr_city": "Coeur d'Alene",
      "addr_postcode": "83814",
      "addr_street": "East Coeur d'Alene Lake Drive",
      "addr_housenumber": "6823"
    },
    {
      "id": 135848,
      "geometry": "POINT (-117.410915 47.658877)",
      "poi_name": "Red Lion Pub & BBQ",
      "osm_id": 11539120144,
      "amenity": "restaurant",
      "cuisine": "barbecue"
    },
    {
      "id": 119128,
      "geometry": "POINT (-117.041885 48.184444)",
      "poi_name": "Westside Pizza",
      "osm_id": 9083118330,
      "amenity": "restaurant",
      "cuisine": "pizza",
      "addr_street": "West Walnut Street",
      "addr_housenumber": "204"
    },
    {
      "id": 121162,
      "geometry": "POINT (-116.807566 47.703791)",
      "poi_name": "Coeur d'Alene Hokkaido Ramen",
      "osm_id": 6744684856,
      "amenity": "restaurant",
      "addr_state": "ID",
      "addr_city": "Coeur d'Alene",
      "addr_postcode": "83815",
      "addr_street": "North Ramsey Road",
      "addr_housenumber": "2824"
    },
    {
      "id": 122334,
      "geometry": "POINT (-116.783004 47.673248)",
      "poi_name": "Tito's Italian Grill & Winery",
      "osm_id": 6797367330,
      "amenity": "restaurant",
      "wheelchair": "yes"
    },
    {
      "id": 122336,
      "geometry": "POINT (-116.778053 47.672739)",
      "poi_name": "Sweet Lou's Restaurant and Tap Room",
      "osm_id": 6797419974,
      "amenity": "restaurant"
    },
    {
      "id": 132837,
      "geometry": "POINT (-117.420912 47.659648)",
      "poi_name": "Steelhead Bar & Grille",
      "osm_id": 9968735713,
      "amenity": "restaurant",
      "website": "https://steelheadbarandgrille.com/",
      "phone": "+1-509-747-1303",
      "addr_state": "WA",
      "addr_city": "Spokane",
      "addr_postcode": "99201",
      "addr_street": "North Howard Street",
      "addr_housenumber": "218"
    },
    {
      "id": 133673,
      "geometry": "POINT (-116.904054 47.714805)",
      "poi_name": "India House",
      "osm_id": 10003529580,
      "amenity": "restaurant",
      "cuisine": "indian"
    },
    {
      "id": 134092,
      "geometry": "POINT (-116.946304 47.715441)",
      "poi_name": "Corner Cafe",
      "osm_id": 10030038072,
      "amenity": "restaurant",
      "cuisine": "american"
    },
    {
      "id": 135874,
      "geometry": "POINT (-117.423294 47.658852)",
      "poi_name": "The Melting Pot",
      "osm_id": 11541706610,
      "amenity": "restaurant",
      "cuisine": "fondue"
    },
    {
      "id": 135879,
      "geometry": "POINT (-117.420474 47.659234)",
      "poi_name": "The New 63 Social House & Eatery",
      "osm_id": 11541737138,
      "amenity": "restaurant",
      "cuisine": "asian",
      "phone": "+1-509-598-8922",
      "addr_state": "WA",
      "addr_city": "Spokane",
      "addr_postcode": "99201",
      "addr_street": "West Main Avenue",
      "addr_housenumber": "520"
    },
    {
      "id": 123470,
      "geometry": "POINT (-117.40978 47.725788)",
      "poi_name": "Kinja",
      "osm_id": 6856393220,
      "amenity": "restaurant"
    },
    {
      "id": 131361,
      "geometry": "POINT (-117.187109 47.667852)",
      "poi_name": "Vaqueros",
      "osm_id": 9910829059,
      "amenity": "restaurant",
      "cuisine": "mexican",
      "wheelchair": "yes",
      "opening_hours": "Su-Th 11:00-21:00; Fr-Sa 11:00-22:00",
      "website": "https://www.vaquerosmexicansv.com",
      "phone": "+1-509-922-0770",
      "takeaway": "yes",
      "delivery": "yes",
      "addr_housenumber": "16208"
    },
    {
      "id": 132251,
      "geometry": "POINT (-117.426757 47.656353)",
      "poi_name": "Gilded Unicorn",
      "osm_id": 9948553172,
      "amenity": "restaurant",
      "cuisine": "american",
      "opening_hours": "Su-Th 16:00-23:00; Fr-Sa 15:00-24:00",
      "website": "https://gildedunicorn.com/contact/",
      "phone": "+1-509-309-3698",
      "delivery": "yes",
      "addr_state": "WA",
      "addr_city": "Spokane",
      "addr_postcode": "99201",
      "addr_street": "South Monroe Street",
      "addr_housenumber": "110"
    },
    {
      "id": 135894,
      "geometry": "POINT (-117.423684 47.659908)",
      "poi_name": "Shiki Sushi",
      "osm_id": 11544314265,
      "amenity": "restaurant",
      "cuisine": "sushi"
    },
    {
      "id": 135895,
      "geometry": "POINT (-117.423408 47.659908)",
      "poi_name": "Mac Daddy's",
      "osm_id": 11544314267,
      "amenity": "restaurant"
    },
    {
      "id": 135849,
      "geometry": "POINT (-117.417786 47.659813)",
      "poi_name": "The Grand Restaurant & Lounge",
      "osm_id": 11539120153,
      "amenity": "restaurant"
    },
    {
      "id": 139436,
      "geometry": "POINT (-117.412833 47.646968)",
      "poi_name": "Poke Express",
      "osm_id": 6197757351,
      "amenity": "restaurant"
    },
    {
      "id": 135900,
      "geometry": "POINT (-117.408319 47.703759)",
      "poi_name": "Outback Steakhouse",
      "osm_id": 11544875599,
      "amenity": "restaurant",
      "cuisine": "american;steak"
    },
    {
      "id": 138090,
      "geometry": "POINT (-117.540096 47.623754)",
      "poi_name": "MVP Bar & Grill",
      "osm_id": 6129190165,
      "amenity": "restaurant"
    },
    {
      "id": 138411,
      "geometry": "POINT (-117.587232 47.641989)",
      "poi_name": "House of Seoul",
      "osm_id": 6148299924,
      "amenity": "restaurant",
      "cuisine": "korean"
    },
    {
      "id": 139695,
      "geometry": "POINT (-117.402238 47.748226)",
      "poi_name": "Azteca Mexican Restaurant",
      "osm_id": 6212092876,
      "amenity": "restaurant",
      "cuisine": "mexican"
    },
    {
      "id": 139696,
      "geometry": "POINT (-117.402726 47.74595)",
      "poi_name": "Canaan Buffet",
      "osm_id": 6212092878,
      "amenity": "restaurant",
      "cuisine": "asian;buffet"
    },
    {
      "id": 139697,
      "geometry": "POINT (-117.397891 47.749821)",
      "poi_name": "Mother's Cupboard",
      "osm_id": 6212092881,
      "amenity": "restaurant"
    },
    {
      "id": 142375,
      "geometry": "POINT (-117.001398 47.711577)",
      "poi_name": "Toro Viejo",
      "osm_id": 6312142016,
      "amenity": "restaurant",
      "cuisine": "mexican"
    },
    {
      "id": 151393,
      "geometry": "POINT (-117.396761 47.668878)",
      "poi_name": "Sushi Sakai",
      "osm_id": 4096492078,
      "amenity": "restaurant",
      "cuisine": "sushi"
    },
    {
      "id": 147673,
      "geometry": "POINT (-117.368015 47.601116)",
      "poi_name": "McKenzie River Pizza Company",
      "osm_id": 7554457020,
      "amenity": "restaurant",
      "website": "https://www.mackenzieriverpizza.com/mackenzie-river-pizza-grill-pub-spokane-south-hill/",
      "phone": "+1-509-315-9466",
      "addr_state": "WA",
      "addr_city": "Spokane",
      "addr_street": "East 57th Avenue",
      "addr_housenumber": "2910"
    },
    {
      "id": 150474,
      "geometry": "POINT (-117.438739 47.716463)",
      "poi_name": "Das Stein Haus",
      "osm_id": 4055969869,
      "amenity": "restaurant",
      "cuisine": "german",
      "wheelchair": "yes",
      "phone": "+1-509-326-2214",
      "addr_state": "WA",
      "addr_city": "Spokane",
      "addr_street": "West Francis Avenue",
      "addr_housenumber": "1812"
    },
    {
      "id": 150476,
      "geometry": "POINT (-117.43971 47.716462)",
      "poi_name": "Round Table Pizza",
      "osm_id": 4055969878,
      "amenity": "restaurant",
      "cuisine": "pizza"
    },
    {
      "id": 153193,
      "geometry": "POINT (-117.410561 47.70737)",
      "poi_name": "Didi's Hawaiian Shack",
      "osm_id": 4182821046,
      "amenity": "restaurant",
      "cuisine": "hawaiian"
    },
    {
      "id": 151956,
      "geometry": "POINT (-117.396745 47.66861)",
      "poi_name": "Indigenous Eats",
      "osm_id": 4120732435,
      "amenity": "restaurant",
      "cuisine": "native american",
      "opening_hours": "Su-Th 11:00-19:00; Fr,Sa 11:00-20:00",
      "website": "https://www.iespokane.com/",
      "addr_state": "WA",
      "addr_city": "Spokane",
      "addr_postcode": "99202",
      "addr_street": "East Boone Avenue",
      "addr_housenumber": "829"
    },
    {
      "id": 152352,
      "geometry": "POINT (-117.572208 47.489635)",
      "poi_name": "Cheney Brewing Company",
      "osm_id": 4140090408,
      "amenity": "restaurant"
    },
    {
      "id": 152732,
      "geometry": "POINT (-117.114592 47.66673)",
      "poi_name": "Brother's Office Pizza",
      "osm_id": 4156488717,
      "amenity": "restaurant",
      "cuisine": "pizza",
      "opening_hours": "Mo-Th 11:00-21:00; Fr,Sa 11:00-23:00; Su 12:00-20:00",
      "capacity": "65",
      "addr_state": "WA",
      "addr_city": "Liberty Lake",
      "addr_postcode": "99019",
      "addr_street": "East Country Vista Avenue",
      "addr_housenumber": "21651"
    },
    {
      "id": 152737,
      "geometry": "POINT (-117.197023 47.655786)",
      "poi_name": "Mongolian BBQ",
      "osm_id": 4156744652,
      "amenity": "restaurant",
      "cuisine": "mongolian_grill",
      "opening_hours": "Mo-Sa 10:45-21:00; Su 11:30-20:00",
      "website": "https://www.mongolianbbqspokane.com/",
      "phone": "+1 509 891 7237",
      "takeaway": "yes",
      "delivery": "no",
      "addr_state": "WA",
      "addr_city": "Spokane Valley",
      "addr_postcode": "99037",
      "addr_street": "East Sprague Avenue",
      "addr_housenumber": "15416"
    },
    {
      "id": 155331,
      "geometry": "POINT (-117.429649 47.614264)",
      "poi_name": "Latah Bistro",
      "osm_id": 4281488468,
      "amenity": "restaurant"
    },
    {
      "id": 153607,
      "geometry": "POINT (-117.213988 47.657526)",
      "poi_name": "Rancho Viejo",
      "osm_id": 4204178722,
      "amenity": "restaurant",
      "cuisine": "mexican"
    },
    {
      "id": 153631,
      "geometry": "POINT (-117.484896 47.738334)",
      "poi_name": "Adelo's Pizza",
      "osm_id": 4206568189,
      "amenity": "restaurant",
      "cuisine": "pizza",
      "wheelchair": "yes",
      "phone": "+1-509-464-0110",
      "addr_state": "WA",
      "addr_city": "Spokane",
      "addr_street": "North Indian Trail Road",
      "addr_housenumber": "8801"
    },
    {
      "id": 153772,
      "geometry": "POINT (-117.316247 47.663417)",
      "poi_name": "Broadway Diner",
      "osm_id": 4211895437,
      "amenity": "restaurant"
    },
    {
      "id": 154160,
      "geometry": "POINT (-117.369253 47.612235)",
      "poi_name": "Round Table Pizza",
      "osm_id": 4226228630,
      "amenity": "restaurant",
      "cuisine": "pizza"
    },
    {
      "id": 154161,
      "geometry": "POINT (-117.369253 47.614511)",
      "poi_name": "Sushi I",
      "osm_id": 4226228631,
      "amenity": "restaurant",
      "cuisine": "japanese"
    },
    {
      "id": 153724,
      "geometry": "POINT (-117.42328 47.655193)",
      "poi_name": "Churchills Steakhouse",
      "osm_id": 4210108311,
      "amenity": "restaurant"
    },
    {
      "id": 154010,
      "geometry": "POINT (-117.135037 47.882539)",
      "poi_name": "Bear Creek Lodge",
      "osm_id": 4218855920,
      "amenity": "restaurant"
    },
    {
      "id": 154104,
      "geometry": "POINT (-117.27829 47.682256)",
      "poi_name": "Pizza Pipeline",
      "osm_id": 4223334196,
      "amenity": "restaurant",
      "cuisine": "pizza"
    },
    {
      "id": 157261,
      "geometry": "POINT (-117.410922 47.659268)",
      "poi_name": "Globe Bar & Kitchen",
      "osm_id": 4696354596,
      "amenity": "restaurant",
      "website": "https://www.globespokane.com/",
      "phone": "+15094434014",
      "addr_state": "WA",
      "addr_city": "Spokane",
      "addr_postcode": "99202",
      "addr_street": "North Division Street",
      "addr_housenumber": "204"
    },
    {
      "id": 161247,
      "geometry": "POINT (-117.214372 47.675465)",
      "poi_name": "Cafe Rio",
      "osm_id": 4871579389,
      "amenity": "restaurant",
      "cuisine": "mexican",
      "phone": "+1-509-822-4350",
      "addr_state": "WA",
      "addr_city": "Spokane Valley",
      "addr_street": "East Indiana Avenue",
      "addr_housenumber": "13920"
    },
    {
      "id": 159969,
      "geometry": "POINT (-117.402062 47.627635)",
      "poi_name": "The Chalet",
      "osm_id": 4812524817,
      "amenity": "restaurant",
      "cuisine": "chicken;seafood;steak_house"
    },
    {
      "id": 159971,
      "geometry": "POINT (-117.41053 47.644086)",
      "poi_name": "Ginger",
      "osm_id": 4812524919,
      "amenity": "restaurant",
      "cuisine": "asian;sushi"
    },
    {
      "id": 160142,
      "geometry": "POINT (-117.433781 47.653846)",
      "poi_name": "Pizza Hut",
      "osm_id": 4822540067,
      "amenity": "restaurant",
      "cuisine": "pizza"
    },
    {
      "id": 158222,
      "geometry": "POINT (-117.423295 47.658721)",
      "poi_name": "Red Robin",
      "osm_id": 4739330605,
      "amenity": "restaurant",
      "cuisine": "burger",
      "official_name": "Red Robin Gourmet Burgers and Brews"
    },
    {
      "id": 178291,
      "geometry": "POINT (-116.947553 47.716817)",
      "poi_name": "Gathered",
      "osm_id": 10719797436,
      "amenity": "restaurant",
      "cuisine": "american"
    },
    {
      "id": 165569,
      "geometry": "POINT (-117.396954 47.668749)",
      "poi_name": "Tasty Bun",
      "osm_id": 9543978337,
      "amenity": "restaurant"
    },
    {
      "id": 161320,
      "geometry": "POINT (-117.282015 47.6799)",
      "poi_name": "Pizza Hut",
      "osm_id": 4875494996,
      "amenity": "restaurant",
      "cuisine": "pizza"
    },
    {
      "id": 164395,
      "geometry": "POINT (-117.422444 47.693664)",
      "poi_name": "North Hill On Garland",
      "osm_id": 9469654084,
      "amenity": "restaurant",
      "addr_street": "West Garland Avenue",
      "addr_housenumber": "706"
    },
    {
      "id": 165532,
      "geometry": "POINT (-117.418246 47.658882)",
      "poi_name": "The Mango Tree",
      "osm_id": 9543687081,
      "amenity": "restaurant",
      "cuisine": "indian",
      "opening_hours": "Su-Th 11:00-21:00; Fr-Sa 11:00-22:00",
      "website": "http://www.themangotreerestaurants.com/",
      "phone": "+15092423943",
      "addr_state": "WA",
      "addr_city": "Spokane",
      "addr_postcode": "99201",
      "addr_street": "West Main Avenue",
      "addr_housenumber": "401"
    },
    {
      "id": 178603,
      "geometry": "POINT (-117.565309 47.49771)",
      "poi_name": "Arturo's",
      "osm_id": 10731886337,
      "amenity": "restaurant",
      "cuisine": "mexican"
    },
    {
      "id": 180567,
      "geometry": "POINT (-117.412181 47.743041)",
      "poi_name": "Avocado Roll Sushi",
      "osm_id": 10808057515,
      "amenity": "restaurant",
      "cuisine": "japanese"
    },
    {
      "id": 183886,
      "geometry": "POINT (-116.886352 47.817789)",
      "poi_name": "Giorgi\u2019s Breakfast & Lunch",
      "osm_id": 10949207538,
      "amenity": "restaurant"
    },
    {
      "id": 182082,
      "geometry": "POINT (-117.420873 47.656791)",
      "poi_name": "People's Waffle",
      "osm_id": 10876764165,
      "amenity": "restaurant",
      "cuisine": "brunch",
      "opening_hours": "Mo-Fr 08:00-14:00",
      "website": "https://www.peopleswaffle.com/",
      "phone": "+1-509-270-1052",
      "addr_state": "WA",
      "addr_city": "Spokane",
      "addr_postcode": "99201",
      "addr_street": "South Howard Street",
      "addr_housenumber": "15"
    },
    {
      "id": 195864,
      "geometry": "POINT (-117.403455 47.748767)",
      "poi_name": "Los Habaneros",
      "osm_id": 10544041781,
      "amenity": "restaurant",
      "cuisine": "mexican"
    },
    {
      "id": 195865,
      "geometry": "POINT (-117.403238 47.748946)",
      "poi_name": "Mac Daddy\u2019s",
      "osm_id": 10544041784,
      "amenity": "restaurant",
      "cuisine": "american"
    },
    {
      "id": 196436,
      "geometry": "POINT (-117.197169 47.662397)",
      "poi_name": "Kokoro Ramen",
      "osm_id": 10577886645,
      "amenity": "restaurant",
      "opening_hours": "Su-Th 11:00-21:00; Fr-Sa 11:00-21:30",
      "website": "http://www.kokororamenspokane.com",
      "phone": "+1-509-309-2992",
      "takeaway": "yes",
      "addr_state": "WA",
      "addr_city": "Spokane Valley",
      "addr_postcode": "99206",
      "addr_street": "North Sullivan Road",
      "addr_housenumber": "509"
    },
    {
      "id": 198078,
      "geometry": "POINT (-116.887594 47.818375)",
      "poi_name": "Kelsey's",
      "osm_id": 10687662329,
      "amenity": "restaurant",
      "cuisine": "american"
    },
    {
      "id": 196905,
      "geometry": "POINT (-117.262569 47.658397)",
      "poi_name": "Choo Chooo Tortas",
      "osm_id": 10603094106,
      "amenity": "restaurant",
      "cuisine": "mexican"
    },
    {
      "id": 197827,
      "geometry": "POINT (-117.230628 47.677154)",
      "poi_name": "Brothers Office Pizzeria",
      "osm_id": 10677205664,
      "amenity": "restaurant",
      "cuisine": "pizza"
    },
    {
      "id": 203217,
      "geometry": "POINT (-117.424532 47.656425)",
      "poi_name": "Neato Burrito",
      "osm_id": 7070530620,
      "amenity": "restaurant",
      "cuisine": "mexican",
      "addr_state": "WA",
      "addr_city": "Spokane",
      "addr_postcode": "99201",
      "addr_street": "West 1st Avenue",
      "addr_housenumber": "827"
    },
    {
      "id": 203135,
      "geometry": "POINT (-117.420892 47.659508)",
      "poi_name": "Mizuna",
      "osm_id": 7065129196,
      "amenity": "restaurant",
      "cuisine": "american",
      "addr_state": "WA",
      "addr_city": "Spokane",
      "addr_postcode": "99201",
      "addr_street": "North Howard Street",
      "addr_housenumber": "214"
    },
    {
      "id": 198624,
      "geometry": "POINT (-117.441405 47.655362)",
      "poi_name": "The Elk Public House",
      "osm_id": 904749062,
      "amenity": "restaurant",
      "website": "https://wedonthaveone.com/the-elk/",
      "phone": "+1-509-363-1973",
      "addr_state": "WA",
      "addr_city": "Spokane",
      "addr_postcode": "99201",
      "addr_street": "W Pacific Ave",
      "addr_housenumber": "1931"
    },
    {
      "id": 207745,
      "geometry": "POINT (-116.8751 47.816952)",
      "poi_name": "Pizza Hut",
      "osm_id": 4959516892,
      "amenity": "restaurant",
      "cuisine": "pizza"
    },
    {
      "id": 205555,
      "geometry": "POINT (-117.423302 47.657762)",
      "poi_name": "Cochinito Taqueria",
      "osm_id": 7172963373,
      "amenity": "restaurant",
      "opening_hours": "Mo-Th 11:00-21:00; Fr, Sa 11:00-22:00",
      "website": "http://www.cochinitotaqueria.com/",
      "phone": "+1-509-474-9618",
      "addr_state": "WA",
      "addr_city": "Spokane",
      "addr_postcode": "99201",
      "addr_street": "North Post Street",
      "addr_housenumber": "10"
    },
    {
      "id": 205068,
      "geometry": "POINT (-117.424282 47.655226)",
      "poi_name": "Steam Plant",
      "osm_id": 7155929660,
      "amenity": "restaurant",
      "building": "yes",
      "website": "https://steamplantspokane.com/",
      "phone": "+1-509-777-3900",
      "addr_street": "South Lincoln Street",
      "addr_housenumber": "159"
    },
    {
      "id": 218653,
      "geometry": "POINT (-117.214159 47.656656)",
      "poi_name": "The Mango tree",
      "osm_id": 9289182764,
      "amenity": "restaurant",
      "website": "http://www.themangotreerestaurants.com",
      "addr_state": "WA",
      "addr_city": "Spokane Valley",
      "addr_postcode": "99216",
      "addr_street": "East Sprague Avenue",
      "addr_housenumber": "14208"
    },
    {
      "id": 209177,
      "geometry": "POINT (-117.420871 47.656445)",
      "poi_name": "The Wave Island Sports Grill & Sushi Bar",
      "osm_id": 5026810525,
      "amenity": "restaurant",
      "cuisine": "sushi",
      "addr_state": "WA",
      "addr_city": "Spokane",
      "addr_postcode": "99201",
      "addr_street": "West 1st Avenue",
      "addr_housenumber": "525"
    },
    {
      "id": 218342,
      "geometry": "POINT (-117.243116 47.656756)",
      "poi_name": "Pho Le Brothers Vietnamese Cuisine",
      "osm_id": 9274319313,
      "amenity": "restaurant",
      "cuisine": "vietnamese",
      "phone": "+1-509-928-9112",
      "addr_street": "East Sprague Avenue",
      "addr_housenumber": "12012"
    },
    {
      "id": 218081,
      "geometry": "POINT (-117.56316 47.659199)",
      "poi_name": "Riverbank Taphouse",
      "osm_id": 9255704568,
      "amenity": "restaurant"
    },
    {
      "id": 223551,
      "geometry": "POINT (-116.809144 47.731389)",
      "poi_name": "Pokeworks",
      "osm_id": 11057004717,
      "amenity": "restaurant",
      "cuisine": "sushi"
    },
    {
      "id": 218849,
      "geometry": "POINT (-117.195409 47.660107)",
      "poi_name": "Toro Sushi",
      "osm_id": 9301401363,
      "amenity": "restaurant",
      "cuisine": "sushi;japanese"
    },
    {
      "id": 218859,
      "geometry": "POINT (-117.240504 47.67097)",
      "poi_name": "Poke Express",
      "osm_id": 9301804459,
      "amenity": "restaurant",
      "cuisine": "asian"
    },
    {
      "id": 220724,
      "geometry": "POINT (-117.431313 47.661649)",
      "poi_name": "Umi Kitchen and Sushi Bar",
      "osm_id": 9384323034,
      "amenity": "restaurant",
      "cuisine": "sushi",
      "website": "https://www.umispokane.com/",
      "phone": "+1-509-368-9372",
      "addr_state": "WA",
      "addr_city": "Spokane",
      "addr_postcode": "99203",
      "addr_street": "West Summit Parkway",
      "addr_housenumber": "1309"
    },
    {
      "id": 220725,
      "geometry": "POINT (-117.432228 47.661651)",
      "poi_name": "Veraci Pizza - Spokane",
      "osm_id": 9384323035,
      "amenity": "restaurant",
      "cuisine": "pizza",
      "opening_hours": "Mo-Su 11:00-21:00",
      "website": "https://www.veracipizza.com/spokane",
      "phone": "+1-509-389-0029",
      "addr_state": "WA",
      "addr_city": "Spokane",
      "addr_postcode": "99203",
      "addr_street": "West Summit Parkway",
      "addr_housenumber": "1335"
    },
    {
      "id": 222228,
      "geometry": "POINT (-117.416824 47.655264)",
      "poi_name": "Inland Pacific Kitchen",
      "osm_id": 11010935588,
      "amenity": "restaurant",
      "opening_hours": "We-Fr 17:00-21:00, Sa 09:00-14:00,17:00-21:00; Su 09:00-14:00",
      "website": "https://ipkspokane.com/",
      "phone": "+1-509-464-6541",
      "addr_state": "WA",
      "addr_city": "Spokane",
      "addr_postcode": "99201",
      "addr_street": "West Pacific Avenue",
      "addr_housenumber": "304"
    },
    {
      "id": 222230,
      "geometry": "POINT (-117.418761 47.657348)",
      "poi_name": "Chicken-N-More",
      "osm_id": 11010964247,
      "amenity": "restaurant",
      "cuisine": "southern",
      "website": "https://chicken-n-more.com/ChickenMo/",
      "phone": "+1-509-838-5071",
      "addr_state": "WA",
      "addr_city": "Spokane",
      "addr_postcode": "99201",
      "addr_street": "West Sprague Avenue",
      "addr_housenumber": "414 1/2"
    },
    {
      "id": 222231,
      "geometry": "POINT (-117.418885 47.65888)",
      "poi_name": "Wiley's",
      "osm_id": 11010993858,
      "amenity": "restaurant",
      "opening_hours": "Mo-Fr 11:30-14:00,17:00-20:00; Sa 17:00-20:00",
      "website": "https://www.wileysbistro.com/",
      "phone": "+1-509-838-4600",
      "addr_state": "WA",
      "addr_city": "Spokane",
      "addr_postcode": "99201",
      "addr_street": "West Main Avenue",
      "addr_housenumber": "421"
    },
    {
      "id": 222232,
      "geometry": "POINT (-117.424517 47.657668)",
      "poi_name": "Wooden City",
      "osm_id": 11011027665,
      "amenity": "restaurant",
      "opening_hours": "Mo-Fr 16:00-22:00; Sa,Su 16:00-23:00",
      "website": "https://www.woodencityspokane.com/",
      "phone": "+1-509-822-7194",
      "addr_state": "WA",
      "addr_city": "Spokane",
      "addr_postcode": "99201",
      "addr_street": "West Riverside Avenue",
      "addr_housenumber": "821"
    },
    {
      "id": 222236,
      "geometry": "POINT (-117.420854 47.655358)",
      "poi_name": "Zona Blanca",
      "osm_id": 11011070230,
      "amenity": "restaurant",
      "cuisine": "fish",
      "opening_hours": "Tu-Sa 12:00-20:00",
      "website": "https://www.limefishsalt.com/",
      "phone": "+1-509-241-3385",
      "takeaway": "yes",
      "addr_state": "WA",
      "addr_city": "Spokane",
      "addr_postcode": "99201",
      "addr_street": "South Howard Street",
      "addr_housenumber": "157"
    },
    {
      "id": 222238,
      "geometry": "POINT (-117.365433 47.704118)",
      "poi_name": "Kismet",
      "osm_id": 11011123900,
      "amenity": "restaurant",
      "opening_hours": "Tu,We 15:00-21:00; Th-Sa 11:30-21:00",
      "website": "https://www.kismetspokane.com/",
      "phone": "+1-509-309-2944",
      "addr_state": "WA",
      "addr_city": "Spokane",
      "addr_postcode": "99217",
      "addr_street": "East Queen Avenue",
      "addr_housenumber": "3020"
    },
    {
      "id": 220007,
      "geometry": "POINT (-117.404953 47.771274)",
      "poi_name": "D\u00e9Gar\u2019s Reef Taco",
      "osm_id": 9354378905,
      "amenity": "restaurant",
      "cuisine": "mexican"
    },
    {
      "id": 221957,
      "geometry": "POINT (-117.446066 47.660835)",
      "poi_name": "BRGR House",
      "osm_id": 10998538399,
      "amenity": "restaurant",
      "cuisine": "burger",
      "opening_hours": "Tu-Sa 12:00-20:00",
      "website": "https://brgr.house/",
      "phone": "+1-509-340-9347",
      "outdoor_seating": "yes",
      "addr_state": "WA",
      "addr_city": "Spokane",
      "addr_postcode": "99201",
      "addr_street": "North Nettleton Street",
      "addr_housenumber": "411"
    },
    {
      "id": 223482,
      "geometry": "POINT (-116.788789 47.73361)",
      "poi_name": "Taqueria El Taco Loco",
      "osm_id": 11055216713,
      "amenity": "restaurant",
      "cuisine": "mexican"
    },
    {
      "id": 223886,
      "geometry": "POINT (-116.787334 47.754342)",
      "poi_name": "Toro Viejo",
      "osm_id": 11066194734,
      "amenity": "restaurant",
      "cuisine": "mexican"
    },
    {
      "id": 223619,
      "geometry": "POINT (-116.78706 47.760698)",
      "poi_name": "Paupau's Kitchen",
      "osm_id": 11059835501,
      "amenity": "restaurant",
      "cuisine": "chinese"
    },
    {
      "id": 223633,
      "geometry": "POINT (-116.791885 47.76028)",
      "poi_name": "Rustler's Roost",
      "osm_id": 11060003239,
      "amenity": "restaurant",
      "cuisine": "breakfast"
    },
    {
      "id": 227959,
      "geometry": "POINT (-117.197408 47.655779)",
      "poi_name": "Round Table Pizza",
      "osm_id": 4324939818,
      "amenity": "restaurant",
      "cuisine": "pizza"
    },
    {
      "id": 223944,
      "geometry": "POINT (-116.786062 47.745585)",
      "poi_name": "Northwest Pizza Company",
      "osm_id": 11068246343,
      "amenity": "restaurant",
      "cuisine": "pizza"
    },
    {
      "id": 224181,
      "geometry": "POINT (-116.830256 47.744114)",
      "poi_name": "River City Pizza",
      "osm_id": 11075323364,
      "amenity": "restaurant",
      "cuisine": "pizza"
    },
    {
      "id": 228486,
      "geometry": "POINT (-117.476659 47.700172)",
      "poi_name": "Field House Pizza & Pub",
      "osm_id": 4345431741,
      "amenity": "restaurant",
      "cuisine": "pizza"
    },
    {
      "id": 229320,
      "geometry": "POINT (-117.410336 47.729775)",
      "poi_name": "Osaka Room",
      "osm_id": 4376941555,
      "amenity": "restaurant",
      "cuisine": "japanese"
    },
    {
      "id": 229044,
      "geometry": "POINT (-117.574972 47.814985)",
      "poi_name": "Pizza Factory",
      "osm_id": 4364454418,
      "amenity": "restaurant",
      "cuisine": "pizza"
    },
    {
      "id": 229360,
      "geometry": "POINT (-117.409113 47.741232)",
      "poi_name": "Mr. Wok",
      "osm_id": 4378621826,
      "amenity": "restaurant",
      "cuisine": "chinese"
    },
    {
      "id": 231144,
      "geometry": "POINT (-117.416262 47.658152)",
      "poi_name": "The Onion Bar and Grill",
      "osm_id": 4457378230,
      "amenity": "restaurant"
    },
    {
      "id": 229318,
      "geometry": "POINT (-117.40899 47.678112)",
      "poi_name": "Kabob House",
      "osm_id": 4376941544,
      "amenity": "restaurant",
      "cuisine": "mediterranean",
      "addr_state": "WA",
      "addr_city": "Spokane",
      "addr_street": "North Ruby Street",
      "addr_housenumber": "2118"
    },
    {
      "id": 230486,
      "geometry": "POINT (-117.351347 47.657549)",
      "poi_name": "Three Sisters",
      "osm_id": 4427249128,
      "amenity": "restaurant",
      "cuisine": "chinese;vietnamese",
      "takeaway": "yes"
    },
    {
      "id": 230755,
      "geometry": "POINT (-117.426738 47.656423)",
      "poi_name": "Texas True Barbecue",
      "osm_id": 4438569848,
      "amenity": "restaurant",
      "cuisine": "barbecue",
      "website": "https://texastruebbq.com/",
      "phone": "+1 509 822 7895",
      "addr_state": "WA",
      "addr_city": "Spokane",
      "addr_postcode": "99201",
      "addr_street": "South Monroe Street",
      "addr_housenumber": "122"
    },
    {
      "id": 230787,
      "geometry": "POINT (-117.370485 47.235194)",
      "poi_name": "Whole Wall Pizza",
      "osm_id": 4439802891,
      "amenity": "restaurant",
      "cuisine": "pizza"
    },
    {
      "id": 232172,
      "geometry": "POINT (-117.444268 47.699461)",
      "poi_name": "Pizza Hut",
      "osm_id": 4513310596,
      "amenity": "restaurant",
      "cuisine": "pizza"
    },
    {
      "id": 234396,
      "geometry": "POINT (-117.419346 47.657092)",
      "poi_name": "The Satellite Diner and Lounge",
      "osm_id": 4619707590,
      "amenity": "restaurant",
      "opening_hours": "Mo-Fr 07:00-01:00, Sa,Su 08:00-01:00"
    },
    {
      "id": 232569,
      "geometry": "POINT (-117.002399 47.706149)",
      "poi_name": "The Cabin Restaurant",
      "osm_id": 4531982456,
      "amenity": "restaurant",
      "cuisine": "american",
      "addr_state": "ID",
      "addr_city": "Post Falls",
      "addr_postcode": "83854",
      "addr_street": "West Riverbend Avenue",
      "addr_housenumber": "4300"
    },
    {
      "id": 234659,
      "geometry": "POINT (-117.561215 47.590525)",
      "poi_name": "Iron Skillet",
      "osm_id": 4631098492,
      "amenity": "restaurant",
      "cuisine": "american;buffet",
      "phone": "+1-509-842-1100",
      "addr_state": "WA",
      "addr_street": "West Aero Road",
      "addr_housenumber": "10506"
    },
    {
      "id": 237416,
      "geometry": "POINT (-116.704815 47.908344)",
      "poi_name": "Silverwood Coffee Roasting & Trading Co.",
      "osm_id": 5830926395,
      "amenity": "restaurant",
      "website": "http://www.silverwoodthemepark.com/things-to-do/coffee-roasting.php"
    },
    {
      "id": 237417,
      "geometry": "POINT (-116.705398 47.908357)",
      "poi_name": "Caselli's Pizzeria",
      "osm_id": 5830926540,
      "amenity": "restaurant",
      "cuisine": "pizza"
    },
    {
      "id": 237375,
      "geometry": "POINT (-117.39626 47.666407)",
      "poi_name": "Clark's Fork",
      "osm_id": 5828366237,
      "amenity": "restaurant"
    },
    {
      "id": 237418,
      "geometry": "POINT (-116.705894 47.908084)",
      "poi_name": "Caramel Apples",
      "osm_id": 5830926542,
      "amenity": "restaurant"
    },
    {
      "id": 242332,
      "geometry": "POINT (-117.681026 47.572065)",
      "poi_name": "Pizza Factory",
      "osm_id": 6066760434,
      "amenity": "restaurant",
      "cuisine": "pizza"
    },
    {
      "id": 240547,
      "geometry": "POINT (-117.107655 47.669422)",
      "poi_name": "Fieldhouse Pizza & Pub",
      "osm_id": 5979525220,
      "amenity": "restaurant",
      "cuisine": "pizza;pub;italian",
      "opening_hours": "Su-Sa 11:00-22:00",
      "website": "https://www.yourfieldhouse.com",
      "phone": "+1-509-315-9611",
      "addr_state": "WA",
      "addr_city": "Liberty Lake",
      "addr_postcode": "99019",
      "addr_street": "North Liberty Lake Road",
      "addr_housenumber": "1235"
    },
    {
      "id": 240548,
      "geometry": "POINT (-117.111648 47.667196)",
      "poi_name": "Fujiyama Japanese Steak House & Bar",
      "osm_id": 5979555437,
      "amenity": "restaurant",
      "cuisine": "japanese",
      "phone": "+1 (509) 903-0888",
      "addr_state": "WA",
      "addr_city": "Liberty Lake",
      "addr_postcode": "99019",
      "addr_street": "East Country Vista Drive",
      "addr_housenumber": "21801"
    },
    {
      "id": 240549,
      "geometry": "POINT (-117.101812 47.67103)",
      "poi_name": "Cork House",
      "osm_id": 5979569352,
      "amenity": "restaurant",
      "cuisine": "american",
      "addr_state": "WA",
      "addr_city": "Liberty Lake",
      "addr_postcode": "99019",
      "addr_street": "North Meadowwood Lane",
      "addr_housenumber": "1400"
    },
    {
      "id": 243071,
      "geometry": "POINT (-117.422117 47.664926)",
      "poi_name": "Queen of Sheba",
      "osm_id": 7621586299,
      "amenity": "restaurant",
      "cuisine": "ethiopian",
      "opening_hours": "Mo-Sa 11:30-20:00; Su 13:00-16:00",
      "addr_state": "WA",
      "addr_city": "Spokane",
      "addr_street": "West Mallon Avenue",
      "addr_housenumber": "621"
    },
    {
      "id": 242788,
      "geometry": "POINT (-117.421754 47.665162)",
      "poi_name": "Clinkerdagger's",
      "osm_id": 7597470927,
      "amenity": "restaurant"
    },
    {
      "id": 243093,
      "geometry": "POINT (-117.394259 47.662905)",
      "poi_name": "Bangkok Thai",
      "osm_id": 7624213243,
      "amenity": "restaurant",
      "cuisine": "thai"
    }
  ],
  "answer_type": "name",
  "question_entities": {
    "[1]": {
      "main_category": "amenity",
      "sub_category": "restaurant"
    },
    "[2]": {
      "distance": 70000,
      "text": "70 kilometers"
    },
    "[3]": {
      "main_category": "amenity",
      "sub_category": "university",
      "display_name": "University of Washington School of Medicine Spokane, Spokane, WA",
      "geo_wkt": "POINT (-117.397547 47.661447)",
      "poi": {
        "id": 56496,
        "geometry": "POINT (-117.397547 47.661447)",
        "poi_name": "University of Washington School of Medicine Spokane",
        "osm_id": 10239300563,
        "amenity": "university",
        "operator": "University of Washington School of Medicine",
        "addr_state": "WA",
        "addr_city": "Spokane",
        "addr_postcode": "99202",
        "addr_street": "East Spokane Falls Boulevard",
        "addr_housenumber": "840"
      }
    }
  },
  "id": 877,
  "type": "range+name"
}