{
  "question": "How far is a museum situated from Amazing Air, San Antonio, TX within 100 kilometers?",
  "sql": "SELECT *, ST_Distance(ST_GeomFromText('POINT (-98.39639 29.503891)',4326)::geography, pois.geometry) AS distance FROM pois\nWHERE ST_DWithin(pois.geometry, ST_GeomFromText('POINT (-98.39639 29.503891)',4326)::geography, 100000)\nAND tourism = 'museum';\n",
  "answers": [
    {
      "id": 2606,
      "geometry": "POINT (-97.650339 29.681887)",
      "poi_name": "Central Texas Oil Patch Museum",
      "osm_id": 532753991,
      "tourism": "museum",
      "website": "http://www.lulingoilmuseum.org/",
      "distance": 74920.14014761
    },
    {
      "id": 3043,
      "geometry": "POINT (-98.438796 29.549572)",
      "poi_name": "Wallaceville",
      "osm_id": 10140484195,
      "tourism": "museum",
      "operator": "Texas Transportation Museum",
      "distance": 6522.12107738
    },
    {
      "id": 7337,
      "geometry": "POINT (-98.867293 30.271812)",
      "poi_name": "Admiral Nimitz Museum",
      "osm_id": 2093790087,
      "tourism": "museum",
      "distance": 96515.04756124
    },
    {
      "id": 9058,
      "geometry": "POINT (-98.845787 30.247112)",
      "poi_name": "Texas Rangers Heritage Center",
      "osm_id": 3649729040,
      "tourism": "museum",
      "website": "https://www.trhc.org/",
      "addr_state": "TX",
      "addr_city": "Fredericksburg",
      "addr_postcode": "78624",
      "addr_street": "East US Highway 290",
      "addr_housenumber": "1618",
      "distance": 93125.09481153
    },
    {
      "id": 13833,
      "geometry": "POINT (-98.4872 29.425279)",
      "poi_name": "Ripley's Believe It or Not - San Antonio",
      "osm_id": 4153078586,
      "tourism": "museum",
      "website": "https://www.ripleys.com/sanantonio/",
      "distance": 12390.22783553
    },
    {
      "id": 14859,
      "geometry": "POINT (-98.625204 30.241553)",
      "poi_name": "LBJ Museum",
      "osm_id": 4743193364,
      "tourism": "museum",
      "distance": 84705.27789035
    },
    {
      "id": 17906,
      "geometry": "POINT (-97.952783 29.87633)",
      "poi_name": "The Millie Seaton Doll Collection",
      "osm_id": 368160001,
      "tourism": "museum",
      "addr_state": "TX",
      "distance": 59562.5798278
    },
    {
      "id": 17910,
      "geometry": "POINT (-97.972709 29.570122)",
      "poi_name": "Sebastopol House",
      "osm_id": 368164731,
      "tourism": "museum",
      "opening_hours": "Th-Su 09:00-16:00",
      "website": "https://www.seguintexas.gov/departments/parks_and_recreation/sebastopol_house.php",
      "phone": "+1 830 379 4833",
      "museum": "history",
      "wikidata": "Q7442726",
      "addr_state": "TX",
      "addr_city": "Seguin",
      "addr_postcode": "78155",
      "addr_street": "Zorn Street",
      "addr_housenumber": "704",
      "distance": 41718.8383142
    },
    {
      "id": 17913,
      "geometry": "POINT (-98.099296 29.704974)",
      "poi_name": "Museum of Texas Handmade Furniture",
      "osm_id": 368164838,
      "tourism": "museum",
      "website": "https://texashandmadefurniture.com/",
      "addr_state": "TX",
      "distance": 36400.60166648
    },
    {
      "id": 17919,
      "geometry": "POINT (-99.093032 28.887596)",
      "poi_name": "Frio Pioneer Jail Museum",
      "osm_id": 368164856,
      "tourism": "museum",
      "website": "http://www.friopioneerjailmuseum.com/",
      "phone": "+1 830 334 4181",
      "addr_state": "TX",
      "addr_city": "Pearsall",
      "addr_street": "South Pecan Street",
      "addr_housenumber": "501",
      "distance": 96210.08626106
    },
    {
      "id": 17958,
      "geometry": "POINT (-97.564995 29.018309)",
      "poi_name": "Yorktown Historical Museum",
      "osm_id": 368164935,
      "tourism": "museum",
      "website": "https://www.yorktowntx.com/museum/",
      "addr_state": "TX",
      "distance": 97089.00759096
    },
    {
      "id": 17970,
      "geometry": "POINT (-98.490849 29.416601)",
      "poi_name": "San Antonio Art League Museum",
      "osm_id": 368164997,
      "tourism": "museum",
      "website": "https://www.saalm.org/",
      "addr_state": "TX",
      "distance": 13325.70112583
    },
    {
      "id": 17971,
      "geometry": "POINT (-98.489011 29.415773)",
      "poi_name": "Texas Highway Patrol Museum",
      "osm_id": 368164999,
      "tourism": "museum",
      "official_name": "Texas Highway Patrol Hall of Fame and Museum",
      "addr_state": "TX",
      "distance": 13271.21233362
    },
    {
      "id": 17972,
      "geometry": "POINT (-98.438072 29.461343)",
      "poi_name": "United States Army Medical Department Museum",
      "osm_id": 368165000,
      "tourism": "museum",
      "website": "https://armymedicalmuseum.org/",
      "wikidata": "Q7889492",
      "addr_state": "TX",
      "distance": 6211.54392732
    },
    {
      "id": 17973,
      "geometry": "POINT (-98.29529 29.348848)",
      "poi_name": "East Central Schools Museum",
      "osm_id": 368165005,
      "tourism": "museum",
      "addr_state": "TX",
      "distance": 19788.46619204
    },
    {
      "id": 17978,
      "geometry": "POINT (-98.493906 28.785258)",
      "poi_name": "Christine Depot Museum",
      "osm_id": 368165019,
      "tourism": "museum",
      "addr_state": "TX",
      "distance": 80215.13125355
    },
    {
      "id": 18046,
      "geometry": "POINT (-97.44333 29.504034)",
      "poi_name": "Gonzales Memorial Museum",
      "osm_id": 368165418,
      "tourism": "museum",
      "website": "https://www.gonzales.texas.gov/p/departments/gonzales-memorial-museum",
      "addr_state": "TX",
      "distance": 92410.87209362
    },
    {
      "id": 18058,
      "geometry": "POINT (-98.068618 29.692447)",
      "poi_name": "The Childrens Museum in New Braunfels",
      "osm_id": 368165454,
      "tourism": "museum",
      "wheelchair": "yes",
      "addr_state": "TX",
      "distance": 38013.57012679
    },
    {
      "id": 18059,
      "geometry": "POINT (-97.981465 29.57223)",
      "poi_name": "Fiedler Memorial Museum",
      "osm_id": 368165460,
      "tourism": "museum",
      "website": "https://www.museumsusa.org/museums/info/16029",
      "official_name": "A. M. and Alma Fiedler Memorial Museum",
      "addr_state": "TX",
      "distance": 40925.77683663
    },
    {
      "id": 18106,
      "geometry": "POINT (-97.712933 28.884417)",
      "poi_name": "Runge Museum",
      "osm_id": 368165600,
      "tourism": "museum",
      "addr_state": "TX",
      "addr_city": "Runge",
      "addr_postcode": "78151",
      "addr_street": "Helena Street",
      "addr_housenumber": "210",
      "distance": 95565.04097427
    },
    {
      "id": 18107,
      "geometry": "POINT (-97.87278 28.973863)",
      "poi_name": "Saint Joseph School Museum",
      "osm_id": 368165601,
      "tourism": "museum",
      "website": "https://pannamariatexas.weebly.com/st-josephs-school-museum.html",
      "addr_state": "TX",
      "distance": 77732.5643609
    },
    {
      "id": 18108,
      "geometry": "POINT (-98.751694 29.820774)",
      "poi_name": "Agricultural Heritage Museum",
      "osm_id": 368165603,
      "tourism": "museum",
      "addr_state": "TX",
      "distance": 49162.7252822
    },
    {
      "id": 18125,
      "geometry": "POINT (-97.835279 28.769427)",
      "poi_name": "Kenedy Museum",
      "osm_id": 368165647,
      "tourism": "museum",
      "addr_state": "TX",
      "distance": 98022.05807461
    },
    {
      "id": 18156,
      "geometry": "POINT (-98.856971 29.054411)",
      "poi_name": "Big Foot Wallace Museum",
      "osm_id": 368165763,
      "tourism": "museum",
      "addr_state": "TX",
      "distance": 66972.31303289
    },
    {
      "id": 18160,
      "geometry": "POINT (-98.466406 29.448288)",
      "poi_name": "Fort Sam Houston Museum",
      "osm_id": 368165769,
      "tourism": "museum",
      "website": "https://history.army.mil/museums/fieldmuseums/fshmuseum/index.html",
      "addr_state": "TX",
      "distance": 9170.60001428
    },
    {
      "id": 21026,
      "geometry": "POINT (-98.45004 29.317619)",
      "poi_name": "Mission Espada Visitor's Center",
      "osm_id": 1348750521,
      "tourism": "museum",
      "information": "office",
      "wheelchair": "yes",
      "opening_hours": "Mo-Su 09:00-17:00",
      "website": "https://npplan.com/parks-by-state/texas-national-parks/san-antonio-missions-national-historical-park-park-at-a-glance/san-antonio-missions-national-historical-park-mission-espada/",
      "distance": 21293.31221089
    },
    {
      "id": 21915,
      "geometry": "POINT (-98.492246 29.431102)",
      "poi_name": "Visitor's Center Museum",
      "osm_id": 922146339,
      "tourism": "museum",
      "distance": 12310.35441815
    },
    {
      "id": 21921,
      "geometry": "POINT (-98.495591 29.40946)",
      "poi_name": "San Angel Folk Art",
      "osm_id": 928665332,
      "tourism": "museum",
      "website": "https://sanangelfolkart.com/",
      "shop": "art",
      "distance": 14218.53344339
    },
    {
      "id": 21922,
      "geometry": "POINT (-98.49576 29.408894)",
      "poi_name": "Bent Easel Art Gallery",
      "osm_id": 928666211,
      "tourism": "museum",
      "shop": "art",
      "distance": 14275.81639845
    },
    {
      "id": 21923,
      "geometry": "POINT (-98.49561 29.409509)",
      "poi_name": "Cactus Bra Gallery",
      "osm_id": 928666306,
      "tourism": "museum",
      "shop": "art",
      "distance": 14215.75408752
    },
    {
      "id": 21924,
      "geometry": "POINT (-98.495572 29.409413)",
      "poi_name": "Alba DeLeon Studio",
      "osm_id": 928666307,
      "tourism": "museum",
      "shop": "art",
      "distance": 14221.11203297
    },
    {
      "id": 21925,
      "geometry": "POINT (-98.495548 29.409352)",
      "poi_name": "Stone Metal Press",
      "osm_id": 928666308,
      "tourism": "museum",
      "shop": "art",
      "distance": 14224.48976047
    },
    {
      "id": 21926,
      "geometry": "POINT (-98.49539 29.409796)",
      "poi_name": "ArmonArt",
      "osm_id": 928666309,
      "tourism": "museum",
      "shop": "art",
      "distance": 14177.86755431
    },
    {
      "id": 21927,
      "geometry": "POINT (-98.495524 29.409284)",
      "poi_name": "Magical Realism Photography Studio",
      "osm_id": 928666310,
      "tourism": "museum",
      "website": "http://www.magicalrealismstudio.com/",
      "shop": "art",
      "distance": 14228.44887766
    },
    {
      "id": 21928,
      "geometry": "POINT (-98.488853 29.426328)",
      "poi_name": "Buckhorn Saloon and Museum",
      "osm_id": 928668524,
      "amenity": "pub",
      "tourism": "museum",
      "fee": "yes",
      "website": "https://www.buckhornmuseum.com/",
      "official_name": "Buckhorn Saloon and Museum and Texas Ranger Museum",
      "wikidata": "Q4983163",
      "distance": 12423.98367939
    },
    {
      "id": 21933,
      "geometry": "POINT (-98.476 29.339576)",
      "poi_name": "Texas Air Museum",
      "osm_id": 928707052,
      "tourism": "museum",
      "website": "https://flysanantonio.com/stinson/",
      "distance": 19783.77961554
    },
    {
      "id": 21934,
      "geometry": "POINT (-98.522548 29.461438)",
      "poi_name": "Centro Cultural Aztlan Galeria Expresion",
      "osm_id": 928725830,
      "amenity": "community_centre",
      "tourism": "museum",
      "website": "https://centroaztlan.org/",
      "addr_state": "TX",
      "addr_city": "San Antonio",
      "addr_postcode": "78201",
      "addr_street": "Fredericksburg Road",
      "addr_housenumber": "1800",
      "distance": 13108.81750607
    },
    {
      "id": 21936,
      "geometry": "POINT (-98.490318 29.415976)",
      "poi_name": "Villa Finale Visitor Center",
      "osm_id": 933663143,
      "tourism": "museum",
      "website": "https://villafinale.org/visit/",
      "distance": 13340.85892049
    },
    {
      "id": 21937,
      "geometry": "POINT (-98.491479 29.412704)",
      "poi_name": "Robert Hughes Gallery",
      "osm_id": 933670106,
      "tourism": "museum",
      "shop": "art",
      "distance": 13683.83516125
    },
    {
      "id": 21938,
      "geometry": "POINT (-98.488212 29.412532)",
      "poi_name": "Robot Art Gallery",
      "osm_id": 933683292,
      "tourism": "museum",
      "shop": "art",
      "distance": 13486.53168459
    },
    {
      "id": 22359,
      "geometry": "POINT (-97.941575 29.882784)",
      "poi_name": "LBJ Museum of San Marcos History",
      "osm_id": 674150307,
      "tourism": "museum",
      "fee": "no",
      "opening_hours": "Tu-Su 11:00-17:00",
      "website": "https://lbjmuseum.com/",
      "addr_city": "San Marcos",
      "addr_postcode": "78666",
      "addr_street": "North Guadalupe Street",
      "addr_housenumber": "131",
      "distance": 60839.75010618
    },
    {
      "id": 22384,
      "geometry": "POINT (-97.965089 29.864587)",
      "poi_name": "Dick's Classic Garage",
      "osm_id": 685480214,
      "tourism": "museum",
      "website": "https://www.dicksclassicgarage.com/",
      "phone": "+1-512-878-2406",
      "addr_state": "TX",
      "addr_city": "San Marcos",
      "addr_postcode": "78666",
      "addr_street": "Stagecoach Trail",
      "addr_housenumber": "120",
      "distance": 57803.70656823
    },
    {
      "id": 22448,
      "geometry": "POINT (-98.470559 29.454262)",
      "poi_name": "South Texas Museum of Popular Culture \"TexPop\"",
      "osm_id": 7072480472,
      "tourism": "museum",
      "website": "http://texpopsa.org/",
      "addr_state": "TX",
      "addr_city": "San Antonio",
      "addr_postcode": "78209",
      "addr_street": "East Mulberry Avenue",
      "addr_housenumber": "1017",
      "distance": 9055.78069297
    },
    {
      "id": 26649,
      "geometry": "POINT (-99.093701 28.888579)",
      "poi_name": "Court House",
      "osm_id": 5962702185,
      "tourism": "museum",
      "fee": "no",
      "opening_hours": "Mo-Fr 08:00-05:00",
      "distance": 96178.44467054
    },
    {
      "id": 151,
      "geometry": "POINT (-97.452132 29.501406)",
      "poi_name": "Old Jail Museum",
      "osm_id": 457517955,
      "tourism": "museum",
      "website": "https://www.tourtexas.com/destinations/141",
      "distance": 91559.00086725
    }
  ],
  "answer_type": "distance",
  "question_entities": {
    "[1]": {
      "main_category": "tourism",
      "sub_category": "museum"
    },
    "[2]": {
      "distance": 100000,
      "text": "100 kilometers"
    },
    "[3]": {
      "main_category": "tourism",
      "sub_category": "theme park",
      "display_name": "Amazing Air, San Antonio, TX",
      "geo_wkt": "POINT (-98.39639 29.503891)",
      "poi": {
        "id": 7732,
        "geometry": "POINT (-98.39639 29.503891)",
        "poi_name": "Amazing Air",
        "osm_id": 6382562047,
        "tourism": "theme_park",
        "opening_hours": "Mo-Th 16:00-21:00;Fr 14:00-23:00; Sa 10:00-23:00; Su 12:00-20:00",
        "website": "https://amazingairsa.com/",
        "phone": "+1-210-946-9800",
        "addr_state": "TX",
        "addr_city": "San Antonio",
        "addr_postcode": "78218",
        "addr_street": "North Interstate Highway 35",
        "addr_housenumber": "7702"
      }
    }
  },
  "id": 743,
  "type": "range+distance"
}