{
  "question": "How distant can I find a university positioned from TownePlace Suites, Wrentham, MA within 150 kilometers?",
  "sql": "SELECT *, ST_Distance(ST_GeomFromText('POINT (-71.312415 42.038711)',4326)::geography, pois.geometry) AS distance FROM pois\nWHERE ST_DWithin(pois.geometry, ST_GeomFromText('POINT (-71.312415 42.038711)',4326)::geography, 150000)\nAND amenity = 'university';\n",
  "answers": [
    {
      "id": 70992,
      "geometry": "POINT (-71.122317 42.376159)",
      "poi_name": "Radcliffe Institute for Advanced Studies",
      "osm_id": 11378728082,
      "amenity": "university",
      "wikidata": "Q7280030",
      "addr_state": "MA",
      "distance": 40637.42393216
    },
    {
      "id": 75506,
      "geometry": "POINT (-71.134409 42.351754)",
      "poi_name": "Boston Islamic Seminary",
      "osm_id": 9733897109,
      "amenity": "university",
      "website": "https://www.bostonislamicseminary.org/",
      "distance": 37752.55396387
    },
    {
      "id": 97577,
      "geometry": "POINT (-72.055892 42.779337)",
      "poi_name": "Franklin Pierce University",
      "osm_id": 6484120956,
      "amenity": "university",
      "website": "https://franklinpierce.edu/",
      "wikidata": "Q5491762",
      "addr_state": "NH",
      "addr_city": "Rindge",
      "addr_postcode": "03461",
      "addr_street": "University Drive",
      "addr_housenumber": "40",
      "distance": 102536.3974878
    },
    {
      "id": 106806,
      "geometry": "POINT (-71.119678 42.379106)",
      "poi_name": "Harvard Law School",
      "osm_id": 3516592380,
      "amenity": "university",
      "distance": 41023.52684895
    },
    {
      "id": 117007,
      "geometry": "POINT (-71.527235 43.192975)",
      "poi_name": "Granite State College",
      "osm_id": 8975131547,
      "amenity": "university",
      "website": "https://www.granite.edu/",
      "distance": 129427.24601858
    },
    {
      "id": 117644,
      "geometry": "POINT (-71.416202 41.821503)",
      "poi_name": "Roger Williams University Providence Campus",
      "osm_id": 9004619599,
      "amenity": "university",
      "operator": "Roger Williams University",
      "distance": 25615.43506321
    },
    {
      "id": 131754,
      "geometry": "POINT (-71.105039 42.337806)",
      "poi_name": "Longwood Medical and Academic Area",
      "osm_id": 9926266628,
      "amenity": "university",
      "wikidata": "Q986020",
      "distance": 37379.01933153
    },
    {
      "id": 135702,
      "geometry": "POINT (-71.062763 42.35071)",
      "poi_name": "Tufts Dental School",
      "osm_id": 11530958794,
      "amenity": "university",
      "website": "https://dental.tufts.edu/",
      "wikidata": "Q7851546",
      "addr_city": "Boston",
      "addr_postcode": "02111",
      "addr_street": "Kneeland Street",
      "addr_housenumber": "1",
      "distance": 40326.64754781
    },
    {
      "id": 156038,
      "geometry": "POINT (-72.635583 42.204016)",
      "poi_name": "CAE",
      "osm_id": 4638112932,
      "amenity": "university",
      "operator": "NA",
      "distance": 110945.63647691
    },
    {
      "id": 158262,
      "geometry": "POINT (-70.843039 42.606219)",
      "poi_name": "Gordon-Conwell Theological Seminary",
      "osm_id": 4741463032,
      "amenity": "university",
      "addr_state": "MA",
      "addr_city": "South Hamilton",
      "addr_postcode": "01982",
      "addr_street": "Essex Street",
      "addr_housenumber": "130",
      "distance": 73964.98266115
    },
    {
      "id": 163970,
      "geometry": "POINT (-71.121891 42.375395)",
      "poi_name": "Harvard Graduate School of Education",
      "osm_id": 9444773346,
      "amenity": "university",
      "operator": "Harvard University",
      "wikidata": "Q14715517",
      "addr_state": "MA",
      "addr_city": "Cambridge",
      "addr_postcode": "02138",
      "addr_street": "Appian Way",
      "addr_housenumber": "13",
      "distance": 40572.88709802
    },
    {
      "id": 167368,
      "geometry": "POINT (-72.734773 42.83886)",
      "poi_name": "Marlboro College",
      "osm_id": 356553799,
      "amenity": "university",
      "wheelchair": "limited",
      "wikidata": "Q5688765",
      "distance": 146952.46092255
    },
    {
      "id": 167447,
      "geometry": "POINT (-71.261937 41.64921)",
      "poi_name": "Roger Williams University",
      "osm_id": 357259248,
      "amenity": "university",
      "wikidata": "Q3940116",
      "distance": 43464.62873113
    },
    {
      "id": 167448,
      "geometry": "POINT (-71.408121 41.826229)",
      "poi_name": "Rhode Island School of Design",
      "osm_id": 357266575,
      "amenity": "university",
      "wikidata": "Q49208",
      "distance": 24899.85009434
    },
    {
      "id": 167532,
      "geometry": "POINT (-70.928705 43.139455)",
      "poi_name": "University of New Hampshire",
      "osm_id": 357728538,
      "amenity": "university",
      "distance": 126266.59578098
    },
    {
      "id": 167600,
      "geometry": "POINT (-70.820301 42.588853)",
      "poi_name": "Gordon College",
      "osm_id": 358258911,
      "amenity": "university",
      "operator": "Gordon College",
      "wikidata": "Q5585004",
      "addr_state": "MA",
      "addr_city": "Wenham",
      "addr_postcode": "01984",
      "addr_street": "Grapevine Road",
      "addr_housenumber": "255",
      "distance": 73350.72091513
    },
    {
      "id": 167601,
      "geometry": "POINT (-71.823131 42.251036)",
      "poi_name": "Clark University",
      "osm_id": 358263153,
      "amenity": "university",
      "website": "https://www.clarku.edu/",
      "distance": 48357.94755018
    },
    {
      "id": 167604,
      "geometry": "POINT (-71.006186 41.62959)",
      "poi_name": "University of Massachusetts Dartmouth",
      "osm_id": 358269095,
      "amenity": "university",
      "addr_postcode": "02747",
      "addr_street": "Old Westport Road",
      "addr_housenumber": "285",
      "distance": 52076.20160787
    },
    {
      "id": 167605,
      "geometry": "POINT (-71.122104 42.371544)",
      "poi_name": "John F Kennedy School of Government",
      "osm_id": 358277009,
      "amenity": "university",
      "wikidata": "Q49127",
      "distance": 40172.18758234
    },
    {
      "id": 167607,
      "geometry": "POINT (-70.968376 41.990379)",
      "poi_name": "Burnell Laboratory School",
      "osm_id": 358279746,
      "amenity": "university",
      "distance": 28998.6482027
    },
    {
      "id": 167779,
      "geometry": "POINT (-72.092202 41.327524)",
      "poi_name": "University of New Haven New London Campus",
      "osm_id": 359280782,
      "amenity": "university",
      "description": "The University of New Haven New London Campus has been serving the needs of business people and nearby residents for more than four decades.",
      "operator": "University of New Haven",
      "website": "https://www.newhaven.edu/about/campus-locations/new-london.php",
      "phone": "+1 203 932 7440",
      "addr_state": "CT",
      "addr_city": "New London",
      "addr_postcode": "06320",
      "addr_street": "Pequot Avenue",
      "addr_housenumber": "469",
      "distance": 102246.94406039
    },
    {
      "id": 168174,
      "geometry": "POINT (-71.300803 41.474893)",
      "poi_name": "Miley Hall",
      "osm_id": 366689062,
      "amenity": "university",
      "operator": "Salve Regina University",
      "addr_state": "RI",
      "distance": 62629.86775966
    },
    {
      "id": 168199,
      "geometry": "POINT (-70.61465 42.987327)",
      "poi_name": "Shoals Marine Laboratory",
      "osm_id": 367795025,
      "amenity": "university",
      "wikidata": "Q7499746",
      "addr_state": "ME",
      "distance": 119966.54274651
    },
    {
      "id": 174266,
      "geometry": "POINT (-72.675873 41.767998)",
      "poi_name": "University of Saint Joseph School of Pharmacy",
      "osm_id": 2473094892,
      "amenity": "university",
      "operator": "University of Saint Joseph",
      "website": "https://www.usj.edu/pharmacy",
      "distance": 117060.40293986
    },
    {
      "id": 191959,
      "geometry": "POINT (-71.071615 42.335623)",
      "poi_name": "Boston University School of Medicine",
      "osm_id": 1410027464,
      "amenity": "university",
      "wikidata": "Q4119659",
      "addr_street": "Harrison Avenue",
      "distance": 38514.50895734
    },
    {
      "id": 190346,
      "geometry": "POINT (-72.656822 41.55674)",
      "poi_name": "Student Union",
      "osm_id": 1286999571,
      "amenity": "university",
      "distance": 123896.72403777
    },
    {
      "id": 243582,
      "geometry": "POINT (-72.656393 41.559786)",
      "poi_name": "Center for African American Studies",
      "osm_id": 7660769402,
      "amenity": "university",
      "distance": 123716.31545498
    }
  ],
  "answer_type": "distance",
  "question_entities": {
    "[1]": {
      "main_category": "amenity",
      "sub_category": "university"
    },
    "[2]": {
      "distance": 150000,
      "text": "150 kilometers"
    },
    "[3]": {
      "main_category": "tourism",
      "sub_category": "hotel",
      "display_name": "TownePlace Suites, Wrentham, MA",
      "geo_wkt": "POINT (-71.312415 42.038711)",
      "poi": {
        "id": 19985,
        "geometry": "POINT (-71.312415 42.038711)",
        "poi_name": "TownePlace Suites",
        "osm_id": 7798845136,
        "tourism": "hotel",
        "official_name": "TownePlace Suites by Marriott",
        "addr_state": "MA",
        "addr_city": "Wrentham",
        "addr_postcode": "02093",
        "addr_street": "Ledgeview Way",
        "addr_housenumber": "65"
      }
    }
  },
  "id": 701,
  "type": "range+distance"
}