{
  "question": "Could you help me locate a caf\u00e9 that's within 140 kilometers from Courtyard Albany Airport, Albany, NY?",
  "sql": "SELECT * FROM pois\nWHERE ST_DWithin(pois.geometry, ST_GeomFromText('POINT (-73.795227 42.725626)',4326)::geography, 140000)\nAND amenity = 'cafe';\n",
  "answers": [
    {
      "id": 31018,
      "geometry": "POINT (-73.76174 42.749018)",
      "poi_name": "The Littles Play and Cafe",
      "osm_id": 8399625309,
      "amenity": "cafe",
      "leisure": "indoor_play",
      "website": "https://thelittlesplaycafe.com/",
      "phone": "+1 518-313-7099",
      "toilets": "yes",
      "addr_state": "NY",
      "addr_city": "Latham",
      "addr_postcode": "12110",
      "addr_street": "Troy Schenectady Road",
      "addr_housenumber": "515"
    },
    {
      "id": 31100,
      "geometry": "POINT (-73.785271 43.081431)",
      "poi_name": "Uncommon Grounds",
      "osm_id": 8404999651,
      "amenity": "cafe",
      "opening_hours": "Mo-Fr 06:00-21:00,Sa-Su 06:30-21:00",
      "website": "https://www.uncommongrounds.com/",
      "internet_access": "wlan",
      "phone": "+1 5187 581 0656",
      "outdoor_seating": "yes",
      "addr_state": "NY",
      "addr_city": "Saratoga Springs",
      "addr_postcode": "12866",
      "addr_street": "Broadway",
      "addr_housenumber": "402"
    },
    {
      "id": 31109,
      "geometry": "POINT (-73.78615 43.080183)",
      "poi_name": "Starbucks",
      "osm_id": 8405024413,
      "amenity": "cafe",
      "cuisine": "coffee_shop",
      "wheelchair": "yes",
      "internet_access": "wlan",
      "takeaway": "yes",
      "drive_through": "no",
      "official_name": "Starbucks Coffee",
      "outdoor_seating": "yes",
      "addr_state": "NY",
      "addr_city": "Saratoga Springs",
      "addr_postcode": "12866",
      "addr_street": "Broadway",
      "addr_housenumber": "351"
    },
    {
      "id": 31123,
      "geometry": "POINT (-73.785352 43.082619)",
      "poi_name": "Saratoga Coffee Traders",
      "osm_id": 8405036735,
      "amenity": "cafe",
      "cuisine": "coffee_shop",
      "website": "https://www.saratogacoffeetraders.com",
      "addr_state": "NY",
      "addr_city": "Saratoga Springs",
      "addr_postcode": "12866",
      "addr_street": "Broadway",
      "addr_housenumber": "447"
    },
    {
      "id": 31125,
      "geometry": "POINT (-73.785258 43.082836)",
      "poi_name": "Compton's",
      "osm_id": 8405037650,
      "amenity": "cafe",
      "addr_state": "NY",
      "addr_city": "Saratoga Springs",
      "addr_postcode": "12866",
      "addr_street": "Broadway",
      "addr_housenumber": "457"
    },
    {
      "id": 31170,
      "geometry": "POINT (-73.964213 42.826307)",
      "poi_name": "Storied Coffee",
      "osm_id": 8408509437,
      "amenity": "cafe",
      "cuisine": "coffee_shop;bubble_tea;tea",
      "opening_hours": "Mo-Fr 07:00-18:00",
      "website": "https://storiedcoffee.com/",
      "internet_access": "wlan",
      "phone": "5183873210",
      "outdoor_seating": "yes",
      "addr_state": "NY",
      "addr_city": "Schenectady",
      "addr_postcode": "12302",
      "addr_street": "Mohawk Avenue",
      "addr_housenumber": "143"
    },
    {
      "id": 31182,
      "geometry": "POINT (-74.372047 43.006254)",
      "poi_name": "Second Wind Coffee",
      "osm_id": 8409707147,
      "amenity": "cafe",
      "cuisine": "coffee_shop",
      "addr_state": "NY",
      "addr_city": "Johnstown",
      "addr_postcode": "12095",
      "addr_street": "West Main Street",
      "addr_housenumber": "32"
    },
    {
      "id": 31763,
      "geometry": "POINT (-74.08243 41.844384)",
      "poi_name": "Garden House",
      "osm_id": 8446182662,
      "amenity": "cafe",
      "cuisine": "mediterranean;pizza",
      "outdoor_seating": "yes",
      "addr_state": "NY",
      "addr_city": "Rosendale",
      "addr_postcode": "12472",
      "addr_street": "Hardenburgh Lane",
      "addr_housenumber": "4"
    },
    {
      "id": 31767,
      "geometry": "POINT (-73.983517 41.918854)",
      "poi_name": "Dulce",
      "osm_id": 8446197543,
      "amenity": "cafe",
      "cuisine": "crepe;breakfast;coffee_shop",
      "opening_hours": "Th-Su 09:00-14:00",
      "website": "https://www.dolcekingston.com",
      "phone": "+1-845-339-0921",
      "addr_state": "NY",
      "addr_city": "Kingston",
      "addr_postcode": "12401",
      "addr_street": "Broadway",
      "addr_housenumber": "27"
    },
    {
      "id": 31769,
      "geometry": "POINT (-74.112092 42.037692)",
      "poi_name": "Nana's Creative Cafe",
      "osm_id": 8446197565,
      "amenity": "cafe",
      "cuisine": "breakfast;sandwich;coffee_shop",
      "opening_hours": "Mo-Fr 08:00-15:00",
      "website": "https://www.nanaswoodstock.com",
      "phone": "+1-845-679-8400",
      "addr_state": "NY",
      "addr_city": "Woodstock",
      "addr_postcode": "12498",
      "addr_street": "Mill Hill Road",
      "addr_housenumber": "98"
    },
    {
      "id": 31788,
      "geometry": "POINT (-73.088447 43.799516)",
      "poi_name": "Gourmet Provence",
      "osm_id": 8447067946,
      "amenity": "cafe",
      "addr_state": "VT",
      "addr_city": "Brandon",
      "addr_postcode": "05733",
      "addr_street": "Center Street",
      "addr_housenumber": "37"
    },
    {
      "id": 31806,
      "geometry": "POINT (-73.909002 42.058712)",
      "poi_name": "All That Java",
      "osm_id": 8448048686,
      "amenity": "cafe",
      "cuisine": "coffee_shop",
      "website": "Allthatjava.net",
      "phone": "+18454072387",
      "addr_state": "NY",
      "addr_city": "Tivoli",
      "addr_postcode": "12583",
      "addr_street": "Broadway",
      "addr_housenumber": "53"
    },
    {
      "id": 31837,
      "geometry": "POINT (-73.665619 43.303794)",
      "poi_name": "Kelly\u2019s Roots Caf\u00e9 & Marketplace",
      "osm_id": 8449918207,
      "amenity": "cafe",
      "cuisine": "american;smoothie;cafe",
      "opening_hours": "Mo-Fr 08:00-15:00",
      "website": "http://www.kellysrootscafe.com/",
      "phone": "+1-518-741-6141",
      "addr_state": "NY",
      "addr_city": "Queensbury",
      "addr_postcode": "12804",
      "addr_street": "Luzerne Road",
      "addr_housenumber": "13 1/2"
    },
    {
      "id": 35476,
      "geometry": "POINT (-72.631467 42.317992)",
      "poi_name": "Dobra Tea",
      "osm_id": 2722788978,
      "amenity": "cafe",
      "addr_city": "Northampton",
      "addr_postcode": "01060",
      "addr_street": "Main Street",
      "addr_housenumber": "186"
    },
    {
      "id": 36964,
      "geometry": "POINT (-73.601838 41.562064)",
      "poi_name": "McKinney & Doyle Fine Foods Cafe/ The Corner Bakery",
      "osm_id": 2793253211,
      "amenity": "cafe",
      "cuisine": "american",
      "opening_hours": "Tu-Th 11:30-15:00,17:00-21:00; Fr 11:30-15:00,17:00-21:30; Sa 09:00-15:00,17:00-21:30; Su 09:00-15:00,17:00-21:00",
      "website": "https://www.mckinneyanddoyle.com",
      "phone": "+1 845-855-3875",
      "addr_state": "NY",
      "addr_city": "Pawling",
      "addr_postcode": "12564",
      "addr_street": "Charles Colman Boulevard",
      "addr_housenumber": "10"
    },
    {
      "id": 36965,
      "geometry": "POINT (-73.600871 41.562038)",
      "poi_name": "Petite on Main",
      "osm_id": 2793253219,
      "amenity": "cafe",
      "cuisine": "french",
      "opening_hours": "Mo,We,Th 08:00-17:00; Tu closed; Fr,Sa 08:00-20:00; Su 08:00-15:00",
      "website": "http://www.petiteonmain.com/",
      "phone": "845-418-6959",
      "addr_city": "Pawling",
      "addr_postcode": "12564",
      "addr_street": "East Main Street",
      "addr_housenumber": "10"
    },
    {
      "id": 39850,
      "geometry": "POINT (-72.44388 43.13347)",
      "poi_name": "Flatiron Exchange",
      "osm_id": 2942300101,
      "amenity": "cafe",
      "wheelchair": "yes",
      "opening_hours": "06:00-21:00",
      "website": "http://www.flatironexchangevt.com/",
      "internet_access": "wlan",
      "takeaway": "yes",
      "outdoor_seating": "yes",
      "addr_city": "Bellows Falls",
      "addr_postcode": "05101",
      "addr_street": "The Square",
      "addr_housenumber": "51"
    },
    {
      "id": 41126,
      "geometry": "POINT (-73.391544 42.466732)",
      "poi_name": "Blueberry Hill Cafe",
      "osm_id": 2999706155,
      "amenity": "cafe",
      "cuisine": "breakfast;lunch",
      "addr_city": "New Lebanon",
      "addr_postcode": "12125",
      "addr_street": "Columbia Pike",
      "addr_housenumber": "515"
    },
    {
      "id": 41127,
      "geometry": "POINT (-73.391007 42.467994)",
      "poi_name": "Bucky's Bagels",
      "osm_id": 2999707496,
      "amenity": "cafe",
      "cuisine": "breakfast",
      "addr_city": "New Lebanon",
      "addr_postcode": "12125",
      "addr_street": "Columbia Pike",
      "addr_housenumber": "502"
    },
    {
      "id": 41128,
      "geometry": "POINT (-73.392576 42.465935)",
      "poi_name": "Jimmy D's Pizza Royale",
      "osm_id": 2999710733,
      "amenity": "cafe",
      "cuisine": "pizza;diner",
      "addr_city": "New Lebanon",
      "addr_postcode": "12125",
      "addr_street": "Columbia Pike",
      "addr_housenumber": "555"
    },
    {
      "id": 41130,
      "geometry": "POINT (-73.393882 42.466356)",
      "poi_name": "Hitchin' Post Cafe",
      "osm_id": 2999725610,
      "amenity": "cafe",
      "cuisine": "breakfast;lunch",
      "addr_city": "New Lebanon",
      "addr_postcode": "12125",
      "addr_street": "Columbia Pike",
      "addr_housenumber": "538"
    },
    {
      "id": 41253,
      "geometry": "POINT (-73.741373 42.640941)",
      "poi_name": "Coffee Beanery",
      "osm_id": 3008692794,
      "amenity": "cafe",
      "addr_state": "NY",
      "addr_city": "Rensselaer",
      "addr_postcode": "12144",
      "addr_street": "East Street",
      "addr_housenumber": "525"
    },
    {
      "id": 42066,
      "geometry": "POINT (-73.645311 43.310459)",
      "poi_name": "Spot Coffee",
      "osm_id": 3040247925,
      "amenity": "cafe",
      "opening_hours": "Mo-Th 06:00-22:00; Fr 06:00-12:00; Sa 07:00-12:00; Su 07:00-22:00",
      "website": "https://www.spotcoffee.com/map-location/glens-falls/",
      "phone": "+1 518 223 0192",
      "outdoor_seating": "no",
      "addr_state": "NY",
      "addr_city": "Glens Falls",
      "addr_postcode": "12801",
      "addr_street": "Glen Street",
      "addr_housenumber": "221"
    },
    {
      "id": 42133,
      "geometry": "POINT (-73.644009 43.309234)",
      "poi_name": "kru coffee",
      "osm_id": 3046562155,
      "amenity": "cafe",
      "cuisine": "coffee_shop",
      "opening_hours": "Mo-Su 07:00-14:00",
      "website": "https://www.krucoffee.com/",
      "phone": "+1-518-502-1606",
      "addr_state": "NY",
      "addr_city": "Glens Falls",
      "addr_postcode": "12801",
      "addr_street": "Glen Street",
      "addr_housenumber": "140"
    },
    {
      "id": 42994,
      "geometry": "POINT (-75.227579 43.10348)",
      "poi_name": "Utica Coffee Roasters",
      "osm_id": 3090800719,
      "amenity": "cafe",
      "cuisine": "coffee_shop",
      "website": "https://uticacoffeeroasting.com/",
      "phone": "+1-315-624-9596",
      "addr_state": "NY",
      "addr_city": "Utica",
      "addr_postcode": "13502",
      "addr_street": "Genesee Street",
      "addr_housenumber": "92"
    },
    {
      "id": 44633,
      "geometry": "POINT (-73.875786 41.994609)",
      "poi_name": "Enchanted Cafe",
      "osm_id": 3166798123,
      "amenity": "cafe",
      "cuisine": "coffee_shop",
      "website": "http://www.theenchantedcafe.com/",
      "internet_access": "wlan",
      "phone": "(845) 518-1915",
      "addr_state": "NY",
      "addr_city": "Red Hook",
      "addr_postcode": "12571",
      "addr_street": "South Broadway",
      "addr_housenumber": "7484"
    },
    {
      "id": 44634,
      "geometry": "POINT (-73.875395 41.995114)",
      "poi_name": "J&J's Gourmet",
      "osm_id": 3166798131,
      "amenity": "cafe",
      "cuisine": "coffee_shop",
      "website": "http://www.jandjgourmet.com/",
      "phone": "(845) 758-9030",
      "addr_state": "NY",
      "addr_city": "Red Hook",
      "addr_postcode": "12571",
      "addr_street": "East Market Street",
      "addr_housenumber": "1"
    },
    {
      "id": 46075,
      "geometry": "POINT (-73.875247 41.994896)",
      "poi_name": "Get Juiced",
      "osm_id": 3244789129,
      "amenity": "cafe",
      "website": "http://www.getjuicedamerica.com/",
      "phone": "(845) 835-8402",
      "addr_state": "NY",
      "addr_city": "Red Hook",
      "addr_postcode": "12571",
      "addr_street": "East Market Street",
      "addr_housenumber": "8"
    },
    {
      "id": 46169,
      "geometry": "POINT (-73.873056 41.998534)",
      "poi_name": "J.B. Peel Coffee Roasters",
      "osm_id": 3249391484,
      "amenity": "cafe",
      "cuisine": "coffee_shop",
      "description": "Curbside pickup and ship orders only due to COVID-19.",
      "website": "https://www.jbpeelcoffee.com/",
      "phone": "+1-845-758-1792",
      "addr_state": "NY",
      "addr_city": "Red Hook",
      "addr_postcode": "12571",
      "addr_street": "North Broadway",
      "addr_housenumber": "7582"
    },
    {
      "id": 46298,
      "geometry": "POINT (-73.964414 41.501875)",
      "poi_name": "Beacon Falls Cafe",
      "osm_id": 3257751885,
      "amenity": "cafe",
      "addr_state": "NY",
      "addr_city": "Beacon",
      "addr_street": "East Main Street",
      "addr_housenumber": "472"
    },
    {
      "id": 46443,
      "geometry": "POINT (-73.911358 41.926839)",
      "poi_name": "Samuel's",
      "osm_id": 3265918112,
      "amenity": "cafe",
      "addr_state": "NY",
      "addr_city": "Rhinebeck",
      "addr_postcode": "12572",
      "addr_street": "East Market Street",
      "addr_housenumber": "42"
    },
    {
      "id": 46446,
      "geometry": "POINT (-73.913723 41.927001)",
      "poi_name": "Rhinebeck Bagels & Cafe",
      "osm_id": 3265918185,
      "amenity": "cafe",
      "addr_state": "NY",
      "addr_city": "Rhinebeck",
      "addr_postcode": "12572",
      "addr_street": "West Market Street",
      "addr_housenumber": "31"
    },
    {
      "id": 47469,
      "geometry": "POINT (-73.766013 42.658881)",
      "poi_name": "The Breakfast Spot",
      "osm_id": 3328374012,
      "amenity": "cafe",
      "cuisine": "american",
      "addr_state": "NY",
      "addr_city": "Albany",
      "addr_postcode": "12206",
      "addr_street": "Central Avenue",
      "addr_housenumber": "66"
    },
    {
      "id": 49535,
      "geometry": "POINT (-74.019617 41.934224)",
      "poi_name": "Market Basket Delicatessen",
      "osm_id": 3441476195,
      "amenity": "cafe",
      "opening_hours": "Mo-Fr 08:00-14:00",
      "phone": "+1-845-338-2755",
      "addr_state": "NY",
      "addr_city": "Kingston",
      "addr_postcode": "12401",
      "addr_street": "Wall Street",
      "addr_housenumber": "308"
    },
    {
      "id": 50389,
      "geometry": "POINT (-73.368484 42.334105)",
      "poi_name": "No. Six Depot Cafe",
      "osm_id": 3481465722,
      "amenity": "cafe",
      "addr_state": "MA",
      "addr_city": "West Stockbridge",
      "addr_street": "Depot Street",
      "addr_housenumber": "6"
    },
    {
      "id": 52758,
      "geometry": "POINT (-72.60819 42.371865)",
      "poi_name": "Old Mill Cafe ad Bar",
      "osm_id": 10047082701,
      "amenity": "cafe",
      "opening_hours": "Mo-Su 08:00-14:00",
      "website": "https://www.toasttab.com/old-mill-cafe-87-school-st",
      "internet_access": "yes",
      "outdoor_seating": "yes",
      "addr_state": "MA",
      "addr_city": "Hatfield",
      "addr_postcode": "01038",
      "addr_street": "School Street",
      "addr_housenumber": "87"
    },
    {
      "id": 52776,
      "geometry": "POINT (-72.896415 41.825453)",
      "poi_name": "Giv Coffee",
      "osm_id": 10048168732,
      "amenity": "cafe",
      "cuisine": "coffee_shop",
      "website": "https://givcoffee.com/pages/our-roastery-cafe",
      "outdoor_seating": "yes",
      "addr_state": "CT",
      "addr_city": "Canton",
      "addr_postcode": "06019",
      "addr_street": "Albany Turnpike",
      "addr_housenumber": "198"
    },
    {
      "id": 53094,
      "geometry": "POINT (-73.700926 42.773231)",
      "poi_name": "Cafe con Mel",
      "osm_id": 10065255769,
      "amenity": "cafe",
      "cuisine": "coffee_shop",
      "addr_state": "NY",
      "addr_city": "Cohoes",
      "addr_postcode": "12047",
      "addr_street": "Remsen Street",
      "addr_housenumber": "133"
    },
    {
      "id": 54308,
      "geometry": "POINT (-73.23378 42.100686)",
      "poi_name": "The Southfield Store",
      "osm_id": 10126723412,
      "amenity": "cafe",
      "website": "https://oldinn.com/the-southfield-store/",
      "internet_access": "yes",
      "phone": "+14132295050",
      "addr_state": "MA",
      "addr_city": "New Marlborough",
      "addr_street": "Norfolk Road",
      "addr_housenumber": "163"
    },
    {
      "id": 54312,
      "geometry": "POINT (-73.353157 42.109147)",
      "poi_name": "The Marketplace Kitchen and Cafe",
      "osm_id": 10126755871,
      "amenity": "cafe",
      "website": "https://marketplacekitchen.com/locations/#sheffield-cafe",
      "addr_state": "MA",
      "addr_city": "Sheffield",
      "addr_street": "Elm Court",
      "addr_housenumber": "18"
    },
    {
      "id": 54661,
      "geometry": "POINT (-73.363751 42.19507)",
      "poi_name": "MARJORAM + ROUX",
      "osm_id": 10145440115,
      "amenity": "cafe",
      "cuisine": "coffee_shop;sandwich",
      "internet_access": "no",
      "outdoor_seating": "yes",
      "addr_state": "MA",
      "addr_city": "Great Barrington",
      "addr_postcode": "01230",
      "addr_street": "Railroad Street",
      "addr_housenumber": "47"
    },
    {
      "id": 55342,
      "geometry": "POINT (-73.935026 41.7057)",
      "poi_name": "Poughkeepsie Grind",
      "osm_id": 10181808802,
      "amenity": "cafe",
      "cuisine": "coffee_shop",
      "website": "https://grindpoughkeepsie.com/",
      "phone": "+18453459588",
      "addr_state": "NY",
      "addr_city": "Poughkeepsie",
      "addr_postcode": "12601",
      "addr_street": "Main Street",
      "addr_housenumber": "107"
    },
    {
      "id": 60703,
      "geometry": "POINT (-72.738772 42.603493)",
      "poi_name": "Mocha Maya's",
      "osm_id": 5476746251,
      "amenity": "cafe",
      "cuisine": "coffee_shop",
      "wheelchair": "yes",
      "opening_hours": "Mo-Su 7:00-17:00 \"generally\"",
      "website": "http://www.mochamayas.com/Welcome.html",
      "internet_access": "yes",
      "phone": "+1-413-625-6292",
      "outdoor_seating": "yes",
      "addr_state": "MA",
      "addr_city": "Shelburne Falls",
      "addr_postcode": "01370",
      "addr_street": "Bridge Street",
      "addr_housenumber": "47"
    },
    {
      "id": 60705,
      "geometry": "POINT (-72.739894 42.603737)",
      "poi_name": "Delicatesse",
      "osm_id": 5476756012,
      "amenity": "cafe",
      "cuisine": "deli",
      "opening_hours": "We-Su 09:00-16:00",
      "website": "https://www.delicatessema.com",
      "internet_access": "no",
      "phone": "+1-413-489-3257",
      "outdoor_seating": "yes",
      "addr_state": "MA",
      "addr_city": "Shelburne Falls",
      "addr_postcode": "01370",
      "addr_street": "Bridge Street",
      "addr_housenumber": "8"
    },
    {
      "id": 63314,
      "geometry": "POINT (-72.739772 42.603101)",
      "poi_name": "Baked",
      "osm_id": 5610306273,
      "amenity": "cafe",
      "addr_state": "MA",
      "addr_city": "Shelburne Falls",
      "addr_postcode": "01370",
      "addr_street": "Deerfield Avenue",
      "addr_housenumber": "4"
    },
    {
      "id": 63315,
      "geometry": "POINT (-72.74158 42.603713)",
      "poi_name": "Mo's Fudge Factor",
      "osm_id": 5610308007,
      "amenity": "cafe",
      "cuisine": "dessert;chocolate",
      "opening_hours": "Mo-Fr 10:00-19:00; Sa-Su 10:00-20:00",
      "addr_state": "MA",
      "addr_city": "Shelburne Falls",
      "addr_postcode": "01370",
      "addr_street": "State Street",
      "addr_housenumber": "9"
    },
    {
      "id": 66604,
      "geometry": "POINT (-73.828885 42.678008)",
      "poi_name": "Gong Cha",
      "osm_id": 11201036389,
      "amenity": "cafe",
      "cuisine": "bubble_tea",
      "opening_hours": "Mo-Su 11:00-21:30",
      "phone": "+1 518-218-4335",
      "takeaway": "yes",
      "addr_state": "NY",
      "addr_city": "Albany",
      "addr_postcode": "12203",
      "addr_street": "Western Avenue",
      "addr_housenumber": "1232"
    },
    {
      "id": 67445,
      "geometry": "POINT (-73.701076 42.774266)",
      "poi_name": "Cafe Monocle",
      "osm_id": 11235310920,
      "amenity": "cafe",
      "addr_state": "NY",
      "addr_city": "Cohoes",
      "addr_postcode": "12047",
      "addr_street": "Remsen Street",
      "addr_housenumber": "95"
    },
    {
      "id": 67085,
      "geometry": "POINT (-74.086254 41.748293)",
      "poi_name": "Beans Cat Cafe",
      "osm_id": 11222981028,
      "amenity": "cafe",
      "website": "https://www.beanscatcafe.com/",
      "addr_state": "NY",
      "addr_city": "New Paltz",
      "addr_postcode": "12561",
      "addr_street": "Church Street",
      "addr_housenumber": "11"
    },
    {
      "id": 67086,
      "geometry": "POINT (-73.970145 41.504988)",
      "poi_name": "Beans Cat Cafe",
      "osm_id": 11222993293,
      "amenity": "cafe",
      "website": "https://www.beanscatcafe.com/",
      "addr_state": "NY",
      "addr_city": "Beacon",
      "addr_postcode": "12508",
      "addr_street": "Main Street",
      "addr_housenumber": "325"
    },
    {
      "id": 68079,
      "geometry": "POINT (-73.84231 42.682281)",
      "poi_name": "Moge Tee",
      "osm_id": 11259885905,
      "amenity": "cafe",
      "cuisine": "bubble_tea",
      "takeaway": "yes",
      "addr_state": "NY",
      "addr_city": "Albany",
      "addr_postcode": "12203",
      "addr_street": "Western Avenue",
      "addr_housenumber": "1512"
    },
    {
      "id": 67431,
      "geometry": "POINT (-73.981619 42.79061)",
      "poi_name": "The Pretty Paw Lounge",
      "osm_id": 11235230835,
      "amenity": "cafe",
      "description": "Cat Cafe",
      "website": "https://www.prettypawlounge.com/",
      "addr_state": "NY",
      "addr_city": "Rotterdam",
      "addr_postcode": "12306",
      "addr_street": "Mariaville Road",
      "addr_housenumber": "370"
    },
    {
      "id": 69297,
      "geometry": "POINT (-73.691139 42.731302)",
      "poi_name": "Little Pecks",
      "osm_id": 11300093391,
      "amenity": "cafe",
      "cuisine": "breakfast;coffee_shop;coffee",
      "description": "Little Pecks is a neighborhood all-day caf\u00e9 with a passion for tasty bites and quality beans. We're also the perfect place to meet up with friends, take care of business, or just kick back and relax!",
      "website": "https://www.littlepecks.com/",
      "outdoor_seating": "yes",
      "addr_state": "ny",
      "addr_city": "troy",
      "addr_postcode": "12180",
      "addr_street": "broadway",
      "addr_housenumber": "211"
    },
    {
      "id": 68845,
      "geometry": "POINT (-73.253934 42.450514)",
      "poi_name": "Lulu's Tiny Grocery",
      "osm_id": 11286464725,
      "amenity": "cafe",
      "cuisine": "coffee_shop",
      "addr_state": "MA",
      "addr_city": "Pittsfield",
      "addr_postcode": "01201",
      "addr_street": "North Street",
      "addr_housenumber": "137"
    },
    {
      "id": 72127,
      "geometry": "POINT (-73.693445 42.730897)",
      "poi_name": "Seasons Cafe & Tea House",
      "osm_id": 11413580109,
      "amenity": "cafe",
      "cuisine": "coffee_shop",
      "addr_state": "ny",
      "addr_city": "troy",
      "addr_postcode": "12180",
      "addr_street": "River Street",
      "addr_housenumber": "212"
    },
    {
      "id": 71790,
      "geometry": "POINT (-72.749259 42.121312)",
      "poi_name": "Crave Cafe",
      "osm_id": 11401257670,
      "amenity": "cafe",
      "addr_state": "MA",
      "addr_city": "Westfield",
      "addr_postcode": "01085",
      "addr_street": "Elm Street",
      "addr_housenumber": "24"
    },
    {
      "id": 73790,
      "geometry": "POINT (-72.749318 42.121139)",
      "poi_name": "Circuit Coffee",
      "osm_id": 9654334489,
      "amenity": "cafe",
      "cuisine": "coffee_shop",
      "opening_hours": "Mo-Sa 06:30-16:00",
      "website": "circuitcoffee.co",
      "internet_access": "wlan",
      "outdoor_seating": "yes",
      "addr_state": "MA",
      "addr_city": "Westfield",
      "addr_postcode": "01085",
      "addr_street": "Elm Street",
      "addr_housenumber": "22"
    },
    {
      "id": 74180,
      "geometry": "POINT (-74.019751 42.305878)",
      "poi_name": "Angel's Pizza",
      "osm_id": 9669556737,
      "amenity": "cafe",
      "opening_hours": "Su-Th 11:00-22:00; Fr-Sa 11:00-23:00",
      "website": "https://www.angelspizzaandmexican.com/",
      "phone": "+1 518 6228008",
      "addr_state": "NY",
      "addr_city": "Cairo",
      "addr_postcode": "12413",
      "addr_street": "State Highway 23",
      "addr_housenumber": "4318"
    },
    {
      "id": 74247,
      "geometry": "POINT (-73.784371 43.083551)",
      "poi_name": "Spa Caf\u00e9",
      "osm_id": 9671847067,
      "amenity": "cafe",
      "website": "https://spacafeonbroadway.com",
      "addr_state": "NY",
      "addr_city": "Saratoga Springs",
      "addr_postcode": "12866",
      "addr_street": "Broadway",
      "addr_housenumber": "480"
    },
    {
      "id": 77861,
      "geometry": "POINT (-73.850365 42.689472)",
      "poi_name": "Starbucks",
      "osm_id": 721629809,
      "amenity": "cafe",
      "cuisine": "coffee_shop",
      "takeaway": "yes",
      "official_name": "Starbucks Coffee",
      "addr_city": "Albany",
      "addr_postcode": "12203",
      "addr_street": "Crossgates Mall Road"
    },
    {
      "id": 79206,
      "geometry": "POINT (-73.764398 42.750966)",
      "poi_name": "Starbucks",
      "osm_id": 783660386,
      "amenity": "cafe",
      "cuisine": "coffee_shop",
      "wheelchair": "yes",
      "takeaway": "yes",
      "drive_through": "yes",
      "official_name": "Starbucks Coffee",
      "addr_state": "NY",
      "addr_city": "Latham",
      "addr_postcode": "12110",
      "addr_street": "Troy Schenectady Road",
      "addr_housenumber": "549"
    },
    {
      "id": 80067,
      "geometry": "POINT (-73.689356 42.731091)",
      "poi_name": "Koni's Broadway Kaf\u00e9",
      "osm_id": 846508208,
      "amenity": "cafe",
      "opening_hours": "Mo-Fr 08:00-14:00",
      "outdoor_seating": "yes",
      "addr_state": "NY",
      "addr_city": "Troy",
      "addr_postcode": "12180",
      "addr_street": "Broadway",
      "addr_housenumber": "357"
    },
    {
      "id": 80144,
      "geometry": "POINT (-72.832314 41.810109)",
      "poi_name": "The Coffee Trade",
      "osm_id": 856743023,
      "amenity": "cafe",
      "cuisine": "coffee_shop",
      "addr_state": "CT",
      "addr_city": "Avon",
      "addr_postcode": "06001",
      "addr_street": "West Main Street",
      "addr_housenumber": "21"
    },
    {
      "id": 81531,
      "geometry": "POINT (-72.644347 41.851685)",
      "poi_name": "The Bean @226",
      "osm_id": 1646866607,
      "amenity": "cafe",
      "cuisine": "coffee_shop",
      "opening_hours": "We 06:00-18:00; Th 06:00-18:00; Fr 06:00-18:00; Sa 06:00-18:00; Su 07:00-16:00; Mo 06:00-16:00; Tu 06:00-16:00",
      "website": "https://www.thebean226.com/",
      "phone": "+18608084411",
      "addr_state": "CT",
      "addr_city": "Windsor",
      "addr_postcode": "06095",
      "addr_street": "Broad Street",
      "addr_housenumber": "226"
    },
    {
      "id": 81554,
      "geometry": "POINT (-72.652167 41.891077)",
      "poi_name": "Starbucks",
      "osm_id": 1647114627,
      "amenity": "cafe",
      "cuisine": "coffee_shop",
      "operator": "Starbucks Corporation",
      "phone": "+1 860 907 3068",
      "takeaway": "yes",
      "official_name": "Starbucks Coffee",
      "addr_state": "CT",
      "addr_city": "Windsor",
      "addr_postcode": "06095",
      "addr_street": "Kennedy Road",
      "addr_housenumber": "1075"
    },
    {
      "id": 84422,
      "geometry": "POINT (-72.667916 42.334271)",
      "poi_name": "Wild Chestnut Cafe",
      "osm_id": 1790787388,
      "amenity": "cafe",
      "outdoor_seating": "no",
      "addr_state": "MA",
      "addr_city": "Florence",
      "addr_postcode": "01062",
      "addr_street": "Chestnut Street",
      "addr_housenumber": "22"
    },
    {
      "id": 82163,
      "geometry": "POINT (-72.596271 42.851539)",
      "poi_name": "Cai's Dim Sum Teahouse",
      "osm_id": 1685305407,
      "amenity": "cafe",
      "cuisine": "asian",
      "website": "https://www.dimsumvt.com/",
      "addr_state": "VT",
      "addr_city": "Brattleboro",
      "addr_postcode": "05301",
      "addr_street": "Western Avenue",
      "addr_housenumber": "814"
    },
    {
      "id": 86309,
      "geometry": "POINT (-73.911262 41.596118)",
      "poi_name": "Bad Ass Coffee",
      "osm_id": 1925924158,
      "amenity": "cafe",
      "cuisine": "coffee_shop",
      "addr_state": "NY",
      "addr_city": "Wappingers Falls",
      "addr_postcode": "12590",
      "addr_street": "Route 9",
      "addr_housenumber": "1571"
    },
    {
      "id": 87721,
      "geometry": "POINT (-74.001676 41.929262)",
      "poi_name": "Village Coffee and Goods",
      "osm_id": 8736056722,
      "amenity": "cafe",
      "cuisine": "coffee_shop",
      "opening_hours": "Mo-Su 07:30-17:00",
      "website": "https://www.villagecoffeeandgoods.com/",
      "phone": "+1 (845) 868 2186",
      "outdoor_seating": "yes",
      "addr_state": "NY",
      "addr_city": "Kingston",
      "addr_street": "Railroad Avenue",
      "addr_housenumber": "17"
    },
    {
      "id": 86749,
      "geometry": "POINT (-74.019784 41.934801)",
      "poi_name": "Sissy's Cafe",
      "osm_id": 1949502047,
      "amenity": "cafe",
      "website": "https://www.sissyscafekingston.com/",
      "addr_state": "NY"
    },
    {
      "id": 88359,
      "geometry": "POINT (-74.601118 41.759491)",
      "poi_name": "Citrus Cafe",
      "osm_id": 8780224454,
      "amenity": "cafe",
      "website": "https://citruscafeny.com/",
      "phone": "+18454344600",
      "addr_state": "NY",
      "addr_city": "Woodbourne",
      "addr_postcode": "12788",
      "addr_street": "State Route 52",
      "addr_housenumber": "436"
    },
    {
      "id": 88807,
      "geometry": "POINT (-73.67773 43.327792)",
      "poi_name": "Starbucks",
      "osm_id": 8796556616,
      "amenity": "cafe",
      "cuisine": "coffee_shop",
      "opening_hours": "08:00-20:00",
      "website": "https://www.starbucks.com/store-locator/store/12274/target-queensbury-t-1830-578-aviation-rd-queensbury-ny-128041814-us",
      "phone": "+1-518-792-6016",
      "takeaway": "yes",
      "official_name": "Starbucks Coffee",
      "outdoor_seating": "no",
      "addr_state": "NY",
      "addr_city": "Queensbury",
      "addr_postcode": "12804",
      "addr_street": "Aviation Road",
      "addr_housenumber": "578"
    },
    {
      "id": 89184,
      "geometry": "POINT (-73.951805 42.076805)",
      "poi_name": "Ohana Cafe",
      "osm_id": 8830440751,
      "amenity": "cafe",
      "opening_hours": "Tu-Fr 09:00-15:00; Sa-Su 08:00-15:00",
      "website": "https://www.ohanacafeny.com/",
      "addr_state": "NY",
      "addr_city": "Saugerties",
      "addr_street": "Partition Street",
      "addr_housenumber": "117"
    },
    {
      "id": 89893,
      "geometry": "POINT (-72.672237 42.335758)",
      "poi_name": "Tandem Bagel Company",
      "osm_id": 8868960513,
      "amenity": "cafe",
      "cuisine": "bagel;sandwich",
      "opening_hours": "Su-Sa 07:00-14:00",
      "website": "https://www.tandembagelco.com",
      "phone": "+1 (413) 341-3416",
      "outdoor_seating": "yes",
      "addr_state": "MA",
      "addr_city": "Florence",
      "addr_postcode": "01062",
      "addr_street": "North Main Street",
      "addr_housenumber": "1"
    },
    {
      "id": 91100,
      "geometry": "POINT (-73.910608 42.059236)",
      "poi_name": "Murray's",
      "osm_id": 2041485474,
      "amenity": "cafe",
      "cuisine": "coffee_shop",
      "website": "https://www.murraystivoli.com/",
      "internet_access": "yes",
      "phone": "(845) 757-6003",
      "addr_state": "NY",
      "addr_city": "Tivoli",
      "addr_postcode": "12583",
      "addr_street": "Broadway",
      "addr_housenumber": "73"
    },
    {
      "id": 107142,
      "geometry": "POINT (-73.115234 42.701833)",
      "poi_name": "Lickety Split Cafe",
      "osm_id": 3539486726,
      "amenity": "cafe",
      "website": "https://www.licketysplitatmassmoca.com/",
      "phone": "+1-413-346-4560",
      "addr_state": "MA",
      "addr_city": "North Adams",
      "addr_postcode": "01247",
      "addr_street": "MASS MoCA Way",
      "addr_housenumber": "1010"
    },
    {
      "id": 107460,
      "geometry": "POINT (-73.876274 41.994089)",
      "poi_name": "Daughters Fare & Ale",
      "osm_id": 3562423295,
      "amenity": "cafe",
      "website": "http://www.daughtersfareandale.com/",
      "phone": "+1 845 835 8365",
      "addr_city": "Red Hook",
      "addr_postcode": "12571",
      "addr_street": "South Broadway",
      "addr_housenumber": "7466"
    },
    {
      "id": 108183,
      "geometry": "POINT (-72.519669 42.37604)",
      "poi_name": "Kwench Juice Cafe",
      "osm_id": 3600922245,
      "amenity": "cafe",
      "cuisine": "juice",
      "website": "https://kwenchjuicecafe.com/",
      "phone": "+1 413 230 3599",
      "takeaway": "yes",
      "outdoor_seating": "no",
      "delivery": "yes",
      "addr_state": "MA",
      "addr_city": "Amherst",
      "addr_postcode": "01002",
      "addr_street": "North Pleasant Street",
      "addr_housenumber": "19"
    },
    {
      "id": 107860,
      "geometry": "POINT (-73.848813 43.003709)",
      "poi_name": "Coffee Planet",
      "osm_id": 3582079694,
      "amenity": "cafe",
      "cuisine": "coffee_shop",
      "wheelchair": "no",
      "opening_hours": "07:00-19:00",
      "internet_access": "yes",
      "phone": "(518) 884-9913",
      "addr_state": "NY",
      "addr_city": "Ballston Spa",
      "addr_postcode": "12020",
      "addr_street": "Milton Avenue",
      "addr_housenumber": "100"
    },
    {
      "id": 108218,
      "geometry": "POINT (-72.520164 42.376447)",
      "poi_name": "The Works Bakery Caf\u00e9",
      "osm_id": 3603224966,
      "amenity": "cafe",
      "cuisine": "breakfast;coffee;smoothie;lunch;brunch",
      "description": "The Works Bakery Caf\u00e9 is a breakfast/lunch establishment that offers a wide range of food and drink like breakfast sandwiches, smoothies, soups, salads, quinoa bowls, coffee, etc. Counter service.",
      "opening_hours": "Mo-Su 07:00-20:00",
      "website": "https://workscafe.com/locations/amherst/",
      "outdoor_seating": "yes",
      "addr_state": "MA",
      "addr_city": "Amherst",
      "addr_postcode": "01002",
      "addr_street": "North Pleasant Street",
      "addr_housenumber": "48"
    },
    {
      "id": 109895,
      "geometry": "POINT (-73.114632 42.701804)",
      "poi_name": "Tunnel City Coffee",
      "osm_id": 3677952865,
      "amenity": "cafe",
      "cuisine": "coffee_shop",
      "website": "https://www.tunnelcitycoffee.com/",
      "phone": "+1 (413) 398-5304",
      "addr_state": "MA",
      "addr_city": "North Adams",
      "addr_postcode": "01247",
      "addr_street": "MASS MoCA Way",
      "addr_housenumber": "1040"
    },
    {
      "id": 111679,
      "geometry": "POINT (-74.018864 41.937701)",
      "poi_name": "B 'n B Bagels",
      "osm_id": 3759182312,
      "amenity": "cafe",
      "cuisine": "bagel;breakfast;sandwich",
      "opening_hours": "Mo-Fr 06:00-15:00; Sa 07:00-15:00; Su 08:00-14:00",
      "shop": "bakery",
      "phone": "+1-845-338-7912",
      "takeaway": "yes",
      "addr_state": "NY",
      "addr_city": "Kingston",
      "addr_postcode": "12401",
      "addr_street": "Plaza Road",
      "addr_housenumber": "292"
    },
    {
      "id": 112925,
      "geometry": "POINT (-73.94083 42.813293)",
      "poi_name": "Ambition Coffee & Eatery, Inc",
      "osm_id": 3810331338,
      "amenity": "cafe",
      "cuisine": "american;brunch",
      "opening_hours": "Mo-Fr 11:00-14:30; Sa 09:00-14:30; Su 09:00-13:30",
      "website": "https://www.ambitionbistro.com/",
      "outdoor_seating": "yes",
      "addr_state": "NY",
      "addr_city": "Schenectady",
      "addr_postcode": "12305",
      "addr_street": "Jay Street",
      "addr_housenumber": "154"
    },
    {
      "id": 113299,
      "geometry": "POINT (-72.528949 42.388303)",
      "poi_name": "People's Market",
      "osm_id": 3829218401,
      "amenity": "cafe",
      "cuisine": "coffee_shop",
      "opening_hours": "8:30am - 4pm Mon to Fri during school session, closed summers",
      "website": "http://www.umass.edu/rso/peoples/",
      "internet_access": "wlan",
      "phone": "+1 413 545 2060",
      "addr_state": "MA",
      "addr_city": "Amherst",
      "addr_postcode": "01003",
      "addr_street": "Campus Center Way",
      "addr_housenumber": "41"
    },
    {
      "id": 112988,
      "geometry": "POINT (-73.204213 42.710145)",
      "poi_name": "Springstreet Market and Cafe",
      "osm_id": 3813353411,
      "amenity": "cafe",
      "phone": "+1 413 458 6192",
      "addr_state": "MA",
      "addr_city": "Williamstown",
      "addr_postcode": "01267",
      "addr_street": "Spring Street",
      "addr_housenumber": "66"
    },
    {
      "id": 115833,
      "geometry": "POINT (-74.021069 41.935225)",
      "poi_name": "Board",
      "osm_id": 8914701449,
      "amenity": "cafe",
      "cuisine": "sandwich;soup;coffee_shop",
      "opening_hours": "We-Su 11:00-16:00",
      "website": "http://www.boardkingston.com",
      "phone": "+1-845-481-4774",
      "addr_city": "Kingston",
      "addr_postcode": "12401",
      "addr_street": "North Front Street",
      "addr_housenumber": "55"
    },
    {
      "id": 113505,
      "geometry": "POINT (-73.797309 42.93719)",
      "poi_name": "Leah's Cakery",
      "osm_id": 3836423938,
      "amenity": "cafe",
      "cuisine": "regional",
      "internet_access": "no",
      "addr_city": "Round Lake"
    },
    {
      "id": 117135,
      "geometry": "POINT (-73.687606 42.730822)",
      "poi_name": "Bard and Baker: Board Game Caf\u00e9",
      "osm_id": 8977868473,
      "amenity": "cafe",
      "cuisine": "coffee;pastry",
      "opening_hours": "Mo off; Tu-Th 11:00-22:00; Fr, Sa 11:00-00:00; Su 11:00-18:00",
      "website": "https://www.bardandbaker.com/",
      "phone": "+1 518-948-6693",
      "toilets": "yes",
      "addr_state": "NY",
      "addr_city": "Troy",
      "addr_postcode": "12180",
      "addr_street": "Broadway",
      "addr_housenumber": "501"
    },
    {
      "id": 116046,
      "geometry": "POINT (-74.112779 42.038763)",
      "poi_name": "Caffe",
      "osm_id": 8925280553,
      "amenity": "cafe",
      "opening_hours": "Mo,We-Su 07:00-16:00",
      "addr_city": "Woodstock",
      "addr_postcode": "12498",
      "addr_street": "Mill Hill Road",
      "addr_housenumber": "81"
    },
    {
      "id": 116330,
      "geometry": "POINT (-72.673487 42.337967)",
      "poi_name": "Artifact Cider Project",
      "osm_id": 8939123072,
      "amenity": "cafe",
      "cuisine": "cider",
      "opening_hours": "Th 16:00-22:00; Fr 14:00-22:00; Sa 13:00-22:00; Su 13:00-19:00",
      "website": "https://www.artifactcider.com/taproom-florence",
      "phone": "+1 (617) 544-3494",
      "outdoor_seating": "yes",
      "addr_state": "MA",
      "addr_city": "Florence",
      "addr_postcode": "01062",
      "addr_street": "North Maple Street",
      "addr_housenumber": "34"
    },
    {
      "id": 118327,
      "geometry": "POINT (-74.601315 41.758956)",
      "poi_name": "Cafe Chocolat",
      "osm_id": 9039916333,
      "amenity": "cafe",
      "description": "Cafe",
      "phone": "(845) 434-7641",
      "addr_state": "NY",
      "addr_city": "Woodbourne",
      "addr_postcode": "12788",
      "addr_street": "NY-52;State Route 52",
      "addr_housenumber": "441"
    },
    {
      "id": 119972,
      "geometry": "POINT (-73.050316 43.17437)",
      "poi_name": "Starbucks",
      "osm_id": 9130709305,
      "amenity": "cafe",
      "cuisine": "coffee_shop",
      "opening_hours": "06:00-18:00",
      "phone": "+1 802 681 5008",
      "takeaway": "yes",
      "official_name": "Starbucks Coffee",
      "addr_state": "VT",
      "addr_city": "Manchester Center",
      "addr_postcode": "05255",
      "addr_street": "Depot Street",
      "addr_housenumber": "365"
    },
    {
      "id": 121481,
      "geometry": "POINT (-73.362132 42.195351)",
      "poi_name": "Rubi's",
      "osm_id": 6764007776,
      "amenity": "cafe",
      "cuisine": "coffee_shop;sandwich",
      "website": "https://www.rubiners.com/rubis",
      "outdoor_seating": "yes",
      "addr_state": "MA",
      "addr_city": "Great Barrington",
      "addr_postcode": "01230",
      "addr_street": "Main Street",
      "addr_housenumber": "264"
    },
    {
      "id": 120949,
      "geometry": "POINT (-73.754279 42.650082)",
      "poi_name": "PG's Cafe",
      "osm_id": 6736029902,
      "amenity": "cafe",
      "addr_city": "Albany"
    },
    {
      "id": 120956,
      "geometry": "POINT (-73.759749 42.655032)",
      "poi_name": "Cafe One Eleven",
      "osm_id": 6736046003,
      "amenity": "cafe",
      "addr_city": "Albany"
    },
    {
      "id": 120957,
      "geometry": "POINT (-73.760582 42.655739)",
      "poi_name": "Museum Cafe",
      "osm_id": 6736046004,
      "amenity": "cafe",
      "addr_city": "Albany"
    },
    {
      "id": 120960,
      "geometry": "POINT (-73.789367 42.664649)",
      "poi_name": "Motor Oil Coffee",
      "osm_id": 6736085005,
      "amenity": "cafe",
      "addr_state": "NY",
      "addr_city": "Albany",
      "addr_postcode": "12208",
      "addr_street": "Madison Avenue",
      "addr_housenumber": "1034"
    },
    {
      "id": 121338,
      "geometry": "POINT (-75.261744 43.086173)",
      "poi_name": "Cafe Domenico",
      "osm_id": 6754230276,
      "amenity": "cafe",
      "website": "https://theothersideutica.org/cafe-domenico",
      "phone": "+1-315-798-8077",
      "addr_state": "NY",
      "addr_city": "Utica",
      "addr_postcode": "13501",
      "addr_street": "Genesee Street",
      "addr_housenumber": "2011"
    },
    {
      "id": 123083,
      "geometry": "POINT (-73.945081 42.81481)",
      "poi_name": "Cafe Coffee",
      "osm_id": 6833881998,
      "amenity": "cafe",
      "outdoor_seating": "no",
      "addr_state": "NY",
      "addr_city": "Schenectady",
      "addr_postcode": "12305",
      "addr_street": "State Street",
      "addr_housenumber": "327"
    },
    {
      "id": 123694,
      "geometry": "POINT (-73.976976 41.508246)",
      "poi_name": "Bank Square Coffeehouse",
      "osm_id": 6873417827,
      "amenity": "cafe",
      "cuisine": "coffee_shop",
      "building": "yes;retail",
      "opening_hours": "Su 07:00-22:00; Mo-Th 06:00-21:00; Fr 06:00-22:00; Sa 07:00-22:00",
      "website": "http://banksquarecoffeehouse.com/",
      "phone": "+18454407165",
      "outdoor_seating": "yes",
      "addr_state": "NY",
      "addr_city": "Beacon",
      "addr_street": "Main Street",
      "addr_housenumber": "129"
    },
    {
      "id": 124928,
      "geometry": "POINT (-73.645397 43.309373)",
      "poi_name": "Juicin' Jar",
      "osm_id": 6941255505,
      "amenity": "cafe",
      "website": "http://juicinjar.com/",
      "phone": "+1-518-415-0358",
      "addr_state": "NY",
      "addr_city": "Glens Falls",
      "addr_postcode": "12801",
      "addr_street": "Exchange Street",
      "addr_housenumber": "16"
    },
    {
      "id": 129844,
      "geometry": "POINT (-72.632792 42.317949)",
      "poi_name": "Cafe Balagan",
      "osm_id": 9843064064,
      "amenity": "cafe",
      "wheelchair": "yes",
      "opening_hours": "Mo-Su 08:00-18:00",
      "website": "https://cafebalagan.com",
      "outdoor_seating": "yes",
      "addr_state": "MA",
      "addr_city": "Northampton",
      "addr_postcode": "01060",
      "addr_street": "Main Street",
      "addr_housenumber": "241"
    },
    {
      "id": 129296,
      "geometry": "POINT (-74.020636 41.935237)",
      "poi_name": "Kingston Bread + Bar",
      "osm_id": 8232135615,
      "amenity": "cafe",
      "cuisine": "breakfast;sandwich;pastry",
      "opening_hours": "We-Fr 09:00-15:00; Sa 10:00-15:00; Su 09:00-13:00",
      "website": "https://www.kingstonbread.com",
      "shop": "bakery",
      "phone": "+1-845-802-0021",
      "takeaway": "yes",
      "delivery": "yes",
      "addr_state": "NY",
      "addr_city": "Kingston",
      "addr_postcode": "12401",
      "addr_street": "North Front Street",
      "addr_housenumber": "43"
    },
    {
      "id": 129314,
      "geometry": "POINT (-74.344838 43.051906)",
      "poi_name": "Market Place",
      "osm_id": 8232868082,
      "amenity": "cafe",
      "addr_state": "NY",
      "addr_city": "Gloversville",
      "addr_postcode": "12078",
      "addr_street": "North Main Street",
      "addr_housenumber": "47"
    },
    {
      "id": 126678,
      "geometry": "POINT (-73.414946 41.568968)",
      "poi_name": "Starbucks",
      "osm_id": 7990684465,
      "amenity": "cafe",
      "cuisine": "coffee_shop",
      "takeaway": "yes",
      "official_name": "Starbucks Coffee",
      "addr_state": "CT",
      "addr_city": "New Milford",
      "addr_postcode": "06776",
      "addr_street": "Danbury Road",
      "addr_housenumber": "38"
    },
    {
      "id": 128217,
      "geometry": "POINT (-73.944597 42.814609)",
      "poi_name": "True Juice Cafe",
      "osm_id": 8138762759,
      "amenity": "cafe",
      "cuisine": "coffee_shop;american",
      "opening_hours": "Mo-Fr 07:00-15:00",
      "website": "https://www.truejuicecafe.com/",
      "internet_access": "wlan",
      "phone": "+1 518-709-0006",
      "delivery": "yes",
      "addr_state": "NY",
      "addr_city": "Schenectady",
      "addr_postcode": "12305",
      "addr_street": "State Street",
      "addr_housenumber": "251"
    },
    {
      "id": 131157,
      "geometry": "POINT (-73.362826 42.179168)",
      "poi_name": "Rebelle",
      "osm_id": 9904087565,
      "amenity": "cafe",
      "description": "Rebelle is a top-rated recreational cannabis (marijuana) dispensary located in Great Barrington in the Berkshires of Massachusetts. Shop in store or pre-order online for pick up. Rebelle is open 7 days a week & less than 3 hour drive from New York City.",
      "opening_hours": "Su-We 08:00-19:00; Th-Sa 08:00-21:00",
      "website": "https://letsrebelle.com",
      "phone": "+1 413 258 3958",
      "addr_state": "MA",
      "addr_city": "Great Barrington",
      "addr_postcode": "01230",
      "addr_street": "S Main Street",
      "addr_housenumber": "783"
    },
    {
      "id": 131589,
      "geometry": "POINT (-73.763843 42.656062)",
      "poi_name": "The Daily Grind",
      "osm_id": 9921548334,
      "amenity": "cafe",
      "cuisine": "coffee_shop",
      "opening_hours": "Mo-Sa 10:00-18:00; Su 9:30-16:30",
      "shop": "deli",
      "phone": "1-888-876-3222",
      "addr_state": "NY",
      "addr_city": "Albany",
      "addr_postcode": "12210",
      "addr_street": "Lark Street",
      "addr_housenumber": "204"
    },
    {
      "id": 131598,
      "geometry": "POINT (-73.765977 42.653989)",
      "poi_name": "Stacks Espresso Bar",
      "osm_id": 9921603781,
      "amenity": "cafe",
      "cuisine": "coffee_shop",
      "opening_hours": "Mo-Th 7:00-20:00; Fr 7:00-22:00; Sa 7:00-22:00; Su 7:00-20:00",
      "website": "https://www.stacksespresso.com/",
      "shop": "deli",
      "internet_access": "wlan",
      "addr_state": "NY",
      "addr_city": "Albany",
      "addr_postcode": "12210",
      "addr_street": "Lark Street",
      "addr_housenumber": "260"
    },
    {
      "id": 131601,
      "geometry": "POINT (-73.766489 42.653492)",
      "poi_name": "Healthy on Lark",
      "osm_id": 9921603788,
      "amenity": "cafe",
      "addr_state": "NY",
      "addr_city": "Albany",
      "addr_postcode": "12210",
      "addr_street": "Lark Street",
      "addr_housenumber": "274"
    },
    {
      "id": 131607,
      "geometry": "POINT (-73.768676 42.652789)",
      "poi_name": "Fresh N' Pressed",
      "osm_id": 9921611018,
      "amenity": "cafe",
      "addr_state": "NY",
      "addr_city": "Albany",
      "addr_postcode": "12208",
      "addr_street": "Madison Avenue",
      "addr_housenumber": "456"
    },
    {
      "id": 132393,
      "geometry": "POINT (-72.187704 42.580007)",
      "poi_name": "Starbucks",
      "osm_id": 9953220752,
      "amenity": "cafe",
      "cuisine": "coffee_shop",
      "phone": "+1 413-800-2387",
      "takeaway": "yes",
      "official_name": "Starbucks Coffee",
      "outdoor_seating": "yes",
      "addr_state": "MA",
      "addr_city": "Athol",
      "addr_postcode": "01331",
      "addr_street": "Market Drive",
      "addr_housenumber": "300"
    },
    {
      "id": 134917,
      "geometry": "POINT (-72.519644 42.37679)",
      "poi_name": "Moge Tee",
      "osm_id": 11495730609,
      "amenity": "cafe",
      "cuisine": "bubble_tea",
      "addr_state": "MA",
      "addr_city": "Amherst",
      "addr_postcode": "01002",
      "addr_street": "North Pleasant Street",
      "addr_housenumber": "71"
    },
    {
      "id": 134920,
      "geometry": "POINT (-72.520278 42.376484)",
      "poi_name": "Vivi Bubble Tea",
      "osm_id": 11495730613,
      "amenity": "cafe",
      "cuisine": "bubble_tea",
      "addr_state": "MA",
      "addr_city": "Amherst",
      "addr_postcode": "01002",
      "addr_street": "North Pleasant Street",
      "addr_housenumber": "48"
    },
    {
      "id": 137414,
      "geometry": "POINT (-74.08609 41.748262)",
      "poi_name": "Lagusta's Luscious Commissary",
      "osm_id": 6097099025,
      "amenity": "cafe",
      "addr_state": "NY",
      "addr_city": "New Paltz",
      "addr_postcode": "12561",
      "addr_street": "Church Street",
      "addr_housenumber": "11"
    },
    {
      "id": 139236,
      "geometry": "POINT (-72.629599 42.319256)",
      "poi_name": "LimeRed Teahouse",
      "osm_id": 6188181379,
      "amenity": "cafe",
      "opening_hours": "We-Su 12:00-19:00",
      "internet_access": "wlan",
      "outdoor_seating": "no",
      "addr_state": "MA",
      "addr_city": "Northampton",
      "addr_postcode": "01060",
      "addr_street": "Pleasant Street",
      "addr_housenumber": "111"
    },
    {
      "id": 144765,
      "geometry": "POINT (-72.670966 42.266737)",
      "poi_name": "Tandem Bagel Company",
      "osm_id": 7285254461,
      "amenity": "cafe",
      "cuisine": "bagel",
      "website": "https://www.tandembagelco.com/",
      "internet_access": "yes",
      "outdoor_seating": "yes",
      "addr_state": "MA",
      "addr_city": "Easthampton",
      "addr_postcode": "01027",
      "addr_street": "Railroad Street",
      "addr_housenumber": "9"
    },
    {
      "id": 153401,
      "geometry": "POINT (-73.690218 42.731994)",
      "poi_name": "Stacks Espresso Bar",
      "osm_id": 4195978526,
      "amenity": "cafe",
      "cuisine": "coffee_shop",
      "website": "https://spillnthebeans.com/",
      "phone": "+1 518 268 1028",
      "addr_state": "NY",
      "addr_city": "Troy",
      "addr_postcode": "12180",
      "addr_street": "3rd Street",
      "addr_housenumber": "13"
    },
    {
      "id": 151449,
      "geometry": "POINT (-73.741173 42.628466)",
      "poi_name": "P.O.D",
      "osm_id": 4100261141,
      "amenity": "cafe",
      "cuisine": "wrap;sandwich",
      "internet_access": "yes",
      "outdoor_seating": "yes",
      "addr_state": "NY",
      "addr_city": "Rensselaer",
      "addr_postcode": "12144",
      "addr_street": "University Place",
      "addr_housenumber": "1"
    },
    {
      "id": 155578,
      "geometry": "POINT (-73.254287 42.449428)",
      "poi_name": "The Marketplace Cafe",
      "osm_id": 4291236588,
      "amenity": "cafe",
      "cuisine": "sandwich",
      "wheelchair": "yes",
      "website": "https://ourmarketplacecafe.com/",
      "internet_access": "wlan",
      "phone": "+1 413 358-4777",
      "addr_state": "MA",
      "addr_city": "Pittsfield",
      "addr_postcode": "01201",
      "addr_street": "North Street",
      "addr_housenumber": "53"
    },
    {
      "id": 155609,
      "geometry": "POINT (-73.362237 42.194268)",
      "poi_name": "Fuel Coffee Shop",
      "osm_id": 4293338604,
      "amenity": "cafe",
      "website": "https://www.fuelgreatbarrington.com/",
      "phone": "+1 413 528-5505",
      "addr_state": "MA",
      "addr_city": "Great Barrington",
      "addr_postcode": "01230",
      "addr_street": "Main Street",
      "addr_housenumber": "293"
    },
    {
      "id": 158721,
      "geometry": "POINT (-72.524492 42.389623)",
      "poi_name": "Life and Earth Cafe",
      "osm_id": 4759750663,
      "amenity": "cafe",
      "cuisine": "coffee_shop",
      "opening_hours": "Mo-Th 08:30-15:00; Fr 08:30-15:00; Sa,Su off",
      "website": "https://umassdining.com/locations-menus/around-campus/morrill-life-and-earth-cafe",
      "internet_access": "wlan",
      "outdoor_seating": "no",
      "addr_state": "MA",
      "addr_city": "Amherst",
      "addr_postcode": "01003",
      "addr_street": "North Pleasant Street",
      "addr_housenumber": "611"
    },
    {
      "id": 161241,
      "geometry": "POINT (-72.526283 42.39125)",
      "poi_name": "Peet's Coffee",
      "osm_id": 4871005432,
      "amenity": "cafe",
      "cuisine": "coffee_shop",
      "opening_hours": "Mo-Fr 7:00-19:00",
      "takeaway": "yes",
      "addr_state": "MA",
      "addr_city": "Amherst",
      "addr_postcode": "01003",
      "addr_street": "North Pleasant Street",
      "addr_housenumber": "650"
    },
    {
      "id": 161243,
      "geometry": "POINT (-72.526834 42.385785)",
      "poi_name": "Whitmore Caf\u00e9",
      "osm_id": 4871005434,
      "amenity": "cafe",
      "cuisine": "breakfast;coffee;pastry;panini;salad",
      "opening_hours": "Mo-Fr 07:00-16:00",
      "website": "https://umassdining.com/locations-menus/around-campus/whitmore-cafe",
      "internet_access": "yes",
      "addr_state": "MA",
      "addr_city": "Amherst",
      "addr_postcode": "01003",
      "addr_street": "Presidents Drive",
      "addr_housenumber": "181"
    },
    {
      "id": 161244,
      "geometry": "POINT (-72.531676 42.389157)",
      "poi_name": "Courtside Caf\u00e9",
      "osm_id": 4871005435,
      "amenity": "cafe",
      "cuisine": "smoothie;snack;drinks",
      "opening_hours": "Mo-Fr 8:00-21:00; Sa,Su 13:00-20:00",
      "website": "https://umassdining.com/locations-menus/around-campus/courtside-cafe",
      "internet_access": "yes",
      "addr_state": "MA",
      "addr_city": "Amherst",
      "addr_postcode": "01003",
      "addr_street": "Commonwealth Avenue",
      "addr_housenumber": "161"
    },
    {
      "id": 165171,
      "geometry": "POINT (-72.604747 41.930202)",
      "poi_name": "The Baker and the Brew",
      "osm_id": 9522284533,
      "amenity": "cafe",
      "website": "https://business.facebook.com/bakerandthebrew/?business_id=466262487120472",
      "phone": "(860) 623-0656",
      "addr_city": "East Windsor",
      "addr_postcode": "06088",
      "addr_street": "N Road",
      "addr_housenumber": "2"
    },
    {
      "id": 170693,
      "geometry": "POINT (-72.520503 42.375681)",
      "poi_name": "Amherst Coffee + Bar",
      "osm_id": 2345829677,
      "amenity": "cafe",
      "cuisine": "coffee_shop",
      "opening_hours": "Mo 07:00-17:00; Tu-Su 07:00-23:30",
      "website": "https://amherstcoffee.com/",
      "internet_access": "no",
      "phone": "+1 413 256 8987",
      "outdoor_seating": "yes",
      "addr_state": "MA",
      "addr_city": "Amherst",
      "addr_postcode": "01002",
      "addr_street": "Amity Street",
      "addr_housenumber": "28"
    },
    {
      "id": 168258,
      "geometry": "POINT (-73.752678 42.650323)",
      "poi_name": "Starbucks",
      "osm_id": 370697204,
      "amenity": "cafe",
      "cuisine": "coffee_shop",
      "takeaway": "yes",
      "official_name": "Starbucks Coffee",
      "addr_state": "NY",
      "addr_city": "Albany",
      "addr_postcode": "12207",
      "addr_street": "North Pearl Street",
      "addr_housenumber": "10"
    },
    {
      "id": 175506,
      "geometry": "POINT (-72.606178 42.147784)",
      "poi_name": "Kava Press",
      "osm_id": 2523806276,
      "amenity": "cafe",
      "cuisine": "coffee_shop",
      "website": "http://kavapress.com/new/",
      "internet_access": "yes",
      "phone": "+1-413-888-2616",
      "addr_city": "Chicopee",
      "addr_postcode": "01013",
      "addr_street": "Springfield Street",
      "addr_housenumber": "57"
    },
    {
      "id": 173475,
      "geometry": "POINT (-72.601735 42.294561)",
      "poi_name": "Barstow's Store and Bakery",
      "osm_id": 2440777191,
      "amenity": "cafe",
      "cuisine": "american",
      "opening_hours": "Mo-Th 06:00-18:00, Fr 06:00-19:00, Sa 08:00-19:00, Su 08:00-18:00",
      "website": "https://www.barstowslongviewfarm.com/store/",
      "addr_state": "MA",
      "addr_city": "Hadley",
      "addr_postcode": "01035",
      "addr_street": "Hockanum Road",
      "addr_housenumber": "172"
    },
    {
      "id": 175510,
      "geometry": "POINT (-72.57777 42.174724)",
      "poi_name": "Starbucks",
      "osm_id": 2523806284,
      "amenity": "cafe",
      "cuisine": "coffee_shop",
      "takeaway": "yes",
      "official_name": "Starbucks Coffee",
      "addr_city": "Chicopee"
    },
    {
      "id": 181024,
      "geometry": "POINT (-73.787274 42.653211)",
      "poi_name": "Mr. Bumbles Cafe",
      "osm_id": 10829882994,
      "amenity": "cafe",
      "website": "http://mrbumblescafe.com/",
      "addr_state": "NY",
      "addr_city": "Albany",
      "addr_postcode": "12208",
      "addr_street": "New Scotland Avenue",
      "addr_housenumber": "263"
    },
    {
      "id": 177715,
      "geometry": "POINT (-73.911226 41.927063)",
      "poi_name": "Bread Alone",
      "osm_id": 2603643294,
      "amenity": "cafe",
      "website": "https://www.breadalone.com/",
      "addr_city": "Rhinebeck",
      "addr_street": "East Market Street"
    },
    {
      "id": 179346,
      "geometry": "POINT (-73.650288 42.741876)",
      "poi_name": "Aroma Joe's",
      "osm_id": 10759545895,
      "amenity": "cafe",
      "cuisine": "coffee_shop",
      "opening_hours": "Mo-Su 04:30-21:00",
      "website": "https://aromajoes.com/",
      "phone": "+1-+1518-279-2892",
      "takeaway": "yes",
      "addr_state": "NY",
      "addr_city": "Troy",
      "addr_postcode": "12180",
      "addr_street": "Hoosick Street",
      "addr_housenumber": "666"
    },
    {
      "id": 179311,
      "geometry": "POINT (-72.520238 42.378232)",
      "poi_name": "The Humble Peach",
      "osm_id": 10757783834,
      "amenity": "cafe",
      "cuisine": "vegan_restaurant;cafe",
      "website": "thehumblepeach.com",
      "phone": "+1 413 230 3556",
      "outdoor_seating": "yes",
      "addr_state": "MA",
      "addr_city": "Amherst",
      "addr_postcode": "01002",
      "addr_street": "North Pleasant Street",
      "addr_housenumber": "174"
    },
    {
      "id": 183720,
      "geometry": "POINT (-73.867226 41.710025)",
      "poi_name": "The Crafted Kup Coffee House",
      "osm_id": 10942875148,
      "amenity": "cafe",
      "outdoor_seating": "yes",
      "addr_state": "NY",
      "addr_city": "Poughkeepsie",
      "addr_postcode": "12603",
      "addr_street": "Eastdale Avenue North",
      "addr_housenumber": "45"
    },
    {
      "id": 190622,
      "geometry": "POINT (-72.339328 43.373887)",
      "poi_name": "Red Barn Cafe",
      "osm_id": 1308387055,
      "amenity": "cafe",
      "cuisine": "american",
      "website": "https://www.friendsofthebarn.com/menu",
      "internet_access": "yes",
      "phone": "603-287-8098",
      "outdoor_seating": "yes",
      "addr_state": "NH",
      "addr_city": "Claremont",
      "addr_postcode": "03743",
      "addr_street": "Main Street",
      "addr_housenumber": "39"
    },
    {
      "id": 185631,
      "geometry": "POINT (-74.202837 41.973646)",
      "poi_name": "Fruition Chocolate",
      "osm_id": 7872820056,
      "amenity": "cafe",
      "opening_hours": "Mo-Su 09:00-17:00",
      "website": "https://www.fruitionchocolateworks.com",
      "shop": "chocolate",
      "phone": "+1-845-657-6717",
      "outdoor_seating": "only",
      "addr_city": "Shokan",
      "addr_postcode": "12481",
      "addr_street": "State Route 28",
      "addr_housenumber": "3091"
    },
    {
      "id": 191915,
      "geometry": "POINT (-73.750307 42.651778)",
      "poi_name": "Mug Shots",
      "osm_id": 1404775848,
      "amenity": "cafe",
      "cuisine": "coffee_shop",
      "addr_city": "Albany"
    },
    {
      "id": 191859,
      "geometry": "POINT (-73.750415 42.654094)",
      "poi_name": "The French Press Cafe & Creperie",
      "osm_id": 1400582171,
      "amenity": "cafe",
      "cuisine": "french",
      "opening_hours": "07:00-18:00",
      "internet_access": "yes",
      "addr_city": "Albany",
      "addr_postcode": "12207",
      "addr_street": "Clinton Square",
      "addr_housenumber": "5"
    },
    {
      "id": 193834,
      "geometry": "POINT (-72.628299 42.320895)",
      "poi_name": "The Roost",
      "osm_id": 1563661065,
      "amenity": "cafe",
      "wheelchair": "yes",
      "phone": "+1 413 587 2625",
      "addr_city": "Northampton",
      "addr_postcode": "01060",
      "addr_street": "Market Street",
      "addr_housenumber": "1"
    },
    {
      "id": 193888,
      "geometry": "POINT (-74.196687 42.934381)",
      "poi_name": "Southside Coffee Shop",
      "osm_id": 1568464019,
      "amenity": "cafe",
      "cuisine": "coffee_shop",
      "addr_state": "NY",
      "addr_postcode": "12010",
      "addr_street": "Bridge Street",
      "addr_housenumber": "54"
    },
    {
      "id": 193899,
      "geometry": "POINT (-74.190361 42.965166)",
      "poi_name": "Starbucks",
      "osm_id": 1568655352,
      "amenity": "cafe",
      "cuisine": "coffee_shop",
      "opening_hours": "Sa-Su 08:00-19:00",
      "internet_access": "wlan",
      "takeaway": "yes",
      "official_name": "Starbucks Coffee",
      "addr_state": "NY",
      "addr_city": "Amsterdam",
      "addr_postcode": "12010",
      "addr_street": "NY-30",
      "addr_housenumber": "4930"
    },
    {
      "id": 196201,
      "geometry": "POINT (-73.690901 42.732061)",
      "poi_name": "Jacob Alejandro",
      "osm_id": 10568421594,
      "amenity": "cafe",
      "cuisine": "coffee_shop",
      "website": "https://jacobalejandro.square.site/",
      "outdoor_seating": "yes",
      "addr_state": "ny",
      "addr_city": "troy",
      "addr_postcode": "12180",
      "addr_street": "River Street",
      "addr_housenumber": "274"
    },
    {
      "id": 201158,
      "geometry": "POINT (-72.631809 42.318304)",
      "poi_name": "Haymarket",
      "osm_id": 616054498,
      "amenity": "cafe",
      "wheelchair": "limited",
      "addr_state": "MA",
      "addr_city": "Northampton",
      "addr_postcode": "01060"
    },
    {
      "id": 201162,
      "geometry": "POINT (-72.979945 42.277605)",
      "poi_name": "Carm's",
      "osm_id": 616264907,
      "amenity": "cafe",
      "cuisine": "coffee_shop;american",
      "opening_hours": "Mo-Su 06:30-15:30",
      "internet_access": "wlan",
      "outdoor_seating": "yes",
      "addr_state": "MA",
      "addr_city": "Chester",
      "addr_postcode": "01011",
      "addr_street": "Route 20",
      "addr_housenumber": "241"
    },
    {
      "id": 203185,
      "geometry": "POINT (-75.217096 43.09827)",
      "poi_name": "Sammy & Annie",
      "osm_id": 7068249169,
      "amenity": "cafe",
      "cuisine": "italian",
      "addr_state": "NY",
      "addr_city": "Utica",
      "addr_postcode": "13501",
      "addr_street": "Bleecker Street",
      "addr_housenumber": "717"
    },
    {
      "id": 203186,
      "geometry": "POINT (-75.211634 43.096092)",
      "poi_name": "Cafe Plus",
      "osm_id": 7068249172,
      "amenity": "cafe",
      "cuisine": "bosnian",
      "phone": "+1-315-765-8208",
      "addr_state": "NY",
      "addr_city": "Utica",
      "addr_postcode": "13501",
      "addr_street": "Bleecker Street",
      "addr_housenumber": "888"
    },
    {
      "id": 216993,
      "geometry": "POINT (-74.032641 41.524577)",
      "poi_name": "Ready Coffee",
      "osm_id": 9197316017,
      "amenity": "cafe",
      "drive_through": "yes",
      "addr_state": "NY",
      "addr_city": "Newburgh",
      "addr_postcode": "12550",
      "addr_street": "North Plank Road",
      "addr_housenumber": "61"
    },
    {
      "id": 209667,
      "geometry": "POINT (-73.781456 42.860011)",
      "poi_name": "Uncommon Grounds",
      "osm_id": 5049696647,
      "amenity": "cafe",
      "opening_hours": "Mo-Fr 06:00-22:00; Sa,Su 06:30-22:00",
      "addr_state": "NY",
      "addr_city": "Clifton Park",
      "addr_postcode": "12065",
      "addr_street": "Clifton Country Road",
      "addr_housenumber": "9"
    },
    {
      "id": 216397,
      "geometry": "POINT (-72.277995 42.935005)",
      "poi_name": "Kristin's Bistro & Bakery",
      "osm_id": 9170371756,
      "amenity": "cafe",
      "opening_hours": "Mo-Fr 06:00-15:00",
      "phone": "+16033525700",
      "outdoor_seating": "no",
      "addr_state": "NH",
      "addr_city": "Keene",
      "addr_postcode": "03431",
      "addr_street": "Washington Street",
      "addr_housenumber": "28"
    },
    {
      "id": 206529,
      "geometry": "POINT (-74.119075 42.040587)",
      "poi_name": "Little Apple Caf\u00e9",
      "osm_id": 7213431015,
      "amenity": "cafe",
      "cuisine": "sandwich;snack;health_food",
      "opening_hours": "Mo-Su 11:00-17:00",
      "website": "https://littleapplelove.com",
      "phone": "+1-845-684-5605",
      "takeaway": "yes",
      "outdoor_seating": "only",
      "addr_state": "NY",
      "addr_city": "Woodstock",
      "addr_postcode": "12498",
      "addr_street": "Tinker Street",
      "addr_housenumber": "21"
    },
    {
      "id": 222105,
      "geometry": "POINT (-74.120192 42.040309)",
      "poi_name": "Caf\u00e9 Espresso",
      "osm_id": 11006081731,
      "amenity": "cafe",
      "opening_hours": "Th-Sa 11:00-17:00; Su 11:00-16:00",
      "outdoor_seating": "yes",
      "addr_city": "Woodstock",
      "addr_postcode": "12498",
      "addr_street": "Tinker Street",
      "addr_housenumber": "59"
    },
    {
      "id": 221451,
      "geometry": "POINT (-73.93175 42.86972)",
      "poi_name": "Starbucks",
      "osm_id": 10978042978,
      "amenity": "cafe",
      "cuisine": "coffee_shop",
      "opening_hours": "Mo-Fr 05:30-20:00; Sa 06:00-20:00; Su 06:00-19:30",
      "website": "https://www.starbucks.com/store-locator/store/1029059/glenville-saratoga-road-262-saratoga-road-1-a-glenville-ny-123024521-us",
      "internet_access": "wlan",
      "phone": "5185394779",
      "takeaway": "yes",
      "official_name": "Starbucks Coffee",
      "outdoor_seating": "no",
      "addr_state": "NY",
      "addr_city": "Glenville",
      "addr_postcode": "12302",
      "addr_street": "Saratoga Road",
      "addr_housenumber": "262"
    },
    {
      "id": 225277,
      "geometry": "POINT (-72.278569 42.930798)",
      "poi_name": "The Farm Caf\u00e9",
      "osm_id": 11117834249,
      "amenity": "cafe",
      "opening_hours": "Tu-We 11:00-17:00; Th 09:00-17:00; Fr 09:00-19:00; Sa 09:00-17:00",
      "addr_state": "NH",
      "addr_city": "Keene",
      "addr_postcode": "03431",
      "addr_street": "Emerald Street",
      "addr_housenumber": "12"
    },
    {
      "id": 225781,
      "geometry": "POINT (-73.928085 41.665641)",
      "poi_name": "Sugar & Spice Cafe",
      "osm_id": 11139520289,
      "amenity": "cafe",
      "addr_state": "NY",
      "addr_city": "Poughkeepsie",
      "addr_postcode": "12601",
      "addr_street": "South Road",
      "addr_housenumber": "2600"
    },
    {
      "id": 226330,
      "geometry": "POINT (-73.974828 41.507612)",
      "poi_name": "Beacon Bread Company",
      "osm_id": 11156263746,
      "amenity": "cafe",
      "cuisine": "brunch",
      "addr_state": "NY",
      "addr_city": "Beacon",
      "addr_postcode": "12508",
      "addr_street": "Main Street",
      "addr_housenumber": "193 - 195"
    },
    {
      "id": 226333,
      "geometry": "POINT (-73.971181 41.505606)",
      "poi_name": "Royal Crepes",
      "osm_id": 11156263779,
      "amenity": "cafe",
      "addr_state": "NY",
      "addr_city": "Beacon",
      "addr_postcode": "12508",
      "addr_street": "Main Street",
      "addr_housenumber": "303"
    },
    {
      "id": 226334,
      "geometry": "POINT (-73.970655 41.505258)",
      "poi_name": "Glazed Over Donuts",
      "osm_id": 11156263786,
      "amenity": "cafe",
      "addr_state": "NY",
      "addr_city": "Beacon",
      "addr_postcode": "12508",
      "addr_street": "Main Street",
      "addr_housenumber": "315"
    },
    {
      "id": 226336,
      "geometry": "POINT (-73.968004 41.50381)",
      "poi_name": "Peaceful Provisions",
      "osm_id": 11156263801,
      "amenity": "cafe",
      "cuisine": "donut",
      "opening_hours": "Th-Su 9:00-15:00",
      "website": "https://www.peacefulprovisions.com/",
      "phone": "+1-845-440-6385",
      "addr_state": "NY",
      "addr_city": "Beacon",
      "addr_postcode": "12508",
      "addr_street": "Main Street",
      "addr_housenumber": "383"
    },
    {
      "id": 226337,
      "geometry": "POINT (-73.967868 41.503711)",
      "poi_name": "Big Mouth Coffee Roasters",
      "osm_id": 11156263802,
      "amenity": "cafe",
      "addr_state": "NY",
      "addr_city": "Beacon",
      "addr_postcode": "12508",
      "addr_street": "Main Street",
      "addr_housenumber": "387"
    },
    {
      "id": 229576,
      "geometry": "POINT (-74.188932 42.978757)",
      "poi_name": "Olde Brick House Cafe",
      "osm_id": 4387041442,
      "amenity": "cafe",
      "cuisine": "coffee;breakfast;lunch",
      "opening_hours": "Mo-Sa 08:00-15:00; Su 08:00-13:00",
      "addr_state": "NY",
      "addr_city": "Amsterdam",
      "addr_postcode": "12010",
      "addr_street": "NY-30",
      "addr_housenumber": "4740"
    },
    {
      "id": 231151,
      "geometry": "POINT (-73.327386 43.172561)",
      "poi_name": "Jacko's Corner Shoppe",
      "osm_id": 4457909601,
      "amenity": "cafe",
      "addr_state": "NY",
      "addr_city": "Salem",
      "addr_postcode": "12865",
      "addr_street": "Main Street",
      "addr_housenumber": "190"
    },
    {
      "id": 234987,
      "geometry": "POINT (-74.25294 42.307393)",
      "poi_name": "The Windham Local",
      "osm_id": 5742211043,
      "amenity": "cafe",
      "website": "https://www.thewindhamlocal.com/",
      "addr_state": "NY",
      "addr_city": "Windham",
      "addr_postcode": "12496",
      "addr_street": "State Highway 23",
      "addr_housenumber": "5410"
    },
    {
      "id": 233931,
      "geometry": "POINT (-72.558983 42.872346)",
      "poi_name": "The Porch Too",
      "osm_id": 4592134361,
      "amenity": "cafe",
      "opening_hours": "07:00-15:00",
      "website": "https://www.theporchtoo.com/",
      "internet_access": "wlan",
      "outdoor_seating": "yes",
      "addr_state": "VT",
      "addr_city": "Brattleboro",
      "addr_postcode": "05301",
      "addr_street": "Putney Road",
      "addr_housenumber": "648"
    },
    {
      "id": 235025,
      "geometry": "POINT (-74.151881 42.408616)",
      "poi_name": "The Yellow Deli",
      "osm_id": 5743003988,
      "amenity": "cafe",
      "cuisine": "sandwich;coffee_shop",
      "opening_hours": "Mo-Fr 10:00+",
      "internet_access": "wlan",
      "addr_state": "NY",
      "addr_city": "Oak Hill",
      "addr_postcode": "12460",
      "addr_street": "Oak Hill Road",
      "addr_housenumber": "7771"
    },
    {
      "id": 235026,
      "geometry": "POINT (-75.062901 42.452935)",
      "poi_name": "The Yellow Deli",
      "osm_id": 5743010753,
      "amenity": "cafe",
      "cuisine": "sandwich;coffee_shop",
      "internet_access": "wlan",
      "addr_state": "NY",
      "addr_city": "Oneonta",
      "addr_postcode": "13820",
      "addr_street": "Main Street",
      "addr_housenumber": "134"
    },
    {
      "id": 237410,
      "geometry": "POINT (-73.803286 43.076993)",
      "poi_name": "KaffeeHouse",
      "osm_id": 5830719138,
      "amenity": "cafe",
      "cuisine": "regional;coffee_shop;breakfast;sandwich;german;international",
      "wheelchair": "yes",
      "opening_hours": "Mo-Fr 07:00-19:00, Sa 07:00-18:00, Su 10:00-14:00 \"Brunch\"",
      "website": "http://www.kaffeehousesaratoga.com",
      "internet_access": "wlan",
      "outdoor_seating": "yes",
      "addr_state": "NY",
      "addr_city": "Saratoga Springs",
      "addr_postcode": "12866",
      "addr_street": "West Avenue",
      "addr_housenumber": "120"
    },
    {
      "id": 238368,
      "geometry": "POINT (-74.307132 42.062423)",
      "poi_name": "Maeve's Place",
      "osm_id": 5874402976,
      "amenity": "cafe",
      "cuisine": "coffee_shop;breakfast;sandwich",
      "opening_hours": "Mo,Th-Su 08:00-16:00",
      "website": "https://maevesplace.com",
      "outdoor_seating": "yes",
      "addr_state": "NY",
      "addr_city": "Phoenicia",
      "addr_postcode": "12464",
      "addr_street": "Route 28",
      "addr_housenumber": "5569"
    },
    {
      "id": 238403,
      "geometry": "POINT (-75.230233 43.101681)",
      "poi_name": "Character Coffee",
      "osm_id": 5876604039,
      "amenity": "cafe",
      "opening_hours": "Mo-Fr 07:00-16:00, Sa 10:00-15:00",
      "website": "https://www.charactercoffee.com/",
      "internet_access": "wlan",
      "phone": "+1-315-570-3779",
      "outdoor_seating": "no",
      "addr_state": "NY",
      "addr_city": "Utica",
      "addr_postcode": "13502",
      "addr_street": "Genesee Street",
      "addr_housenumber": "171"
    },
    {
      "id": 238821,
      "geometry": "POINT (-73.755111 42.65073)",
      "poi_name": "Motor Oil Coffee",
      "osm_id": 5895155603,
      "amenity": "cafe",
      "addr_city": "Albany"
    },
    {
      "id": 239598,
      "geometry": "POINT (-75.378886 43.04837)",
      "poi_name": "Utica Coffee Roasting Co.",
      "osm_id": 5929145323,
      "amenity": "cafe",
      "cuisine": "coffee_shop",
      "wheelchair": "yes",
      "opening_hours": "Mo-Fr 06:30-17:30; Sa-Su 07:00-16:00",
      "website": "https://wakethehellup.com/",
      "phone": "+1-315-272-2358",
      "outdoor_seating": "yes",
      "addr_state": "NY",
      "addr_city": "Clinton",
      "addr_postcode": "13323",
      "addr_street": "West Park Row",
      "addr_housenumber": "1"
    },
    {
      "id": 239346,
      "geometry": "POINT (-73.927967 41.70176)",
      "poi_name": "Mystic Cafe",
      "osm_id": 5918079406,
      "amenity": "cafe",
      "website": "https://www.mysticcafe2015.com/",
      "phone": "+1-845-486-4690",
      "addr_state": "NY",
      "addr_city": "Poughkeepsie",
      "addr_postcode": "12601",
      "addr_street": "Church Street",
      "addr_housenumber": "189"
    },
    {
      "id": 244470,
      "geometry": "POINT (-74.648945 42.148022)",
      "poi_name": "Cafe Margierite",
      "osm_id": 7726522348,
      "amenity": "cafe",
      "cuisine": "breakfast;coffee_shop",
      "opening_hours": "Mo 08:00-14:00; Fr-Su 08:00-15:00",
      "website": "https://www.cafemarguerite.com",
      "phone": "+1-917-306-9562",
      "addr_city": "Margaretville",
      "addr_postcode": "12455",
      "addr_street": "Main Street",
      "addr_housenumber": "746"
    },
    {
      "id": 243261,
      "geometry": "POINT (-73.849568 43.002699)",
      "poi_name": "The Whistling Kettle",
      "osm_id": 7636475791,
      "amenity": "cafe",
      "cuisine": "tea",
      "website": "https://www.thewhistlingkettle.com/",
      "addr_state": "NY",
      "addr_city": "Ballston Spa",
      "addr_postcode": "12020",
      "addr_street": "Front Street",
      "addr_housenumber": "24"
    },
    {
      "id": 243262,
      "geometry": "POINT (-73.848745 43.003232)",
      "poi_name": "Nomad Coffee & Cr\u00eapes",
      "osm_id": 7636475813,
      "amenity": "cafe",
      "website": "https://www.knockaboutcoffee.com/menu-3",
      "addr_state": "NY",
      "addr_city": "Ballston Spa",
      "addr_postcode": "12020",
      "addr_street": "Milton Avenue",
      "addr_housenumber": "80"
    },
    {
      "id": 243263,
      "geometry": "POINT (-73.8499 43.002676)",
      "poi_name": "Iron Roost",
      "osm_id": 7636475828,
      "amenity": "cafe",
      "cuisine": "breakfast",
      "website": "https://www.ironroost.com/",
      "addr_state": "NY",
      "addr_city": "Ballston Spa",
      "addr_postcode": "12020",
      "addr_street": "Front Street",
      "addr_housenumber": "36"
    }
  ],
  "answer_type": "loc",
  "question_entities": {
    "[1]": {
      "main_category": "amenity",
      "sub_category": "cafe"
    },
    "[2]": {
      "distance": 140000,
      "text": "140 kilometers"
    },
    "[3]": {
      "main_category": "tourism",
      "sub_category": "hotel",
      "display_name": "Courtyard Albany Airport, Albany, NY",
      "geo_wkt": "POINT (-73.795227 42.725626)",
      "poi": {
        "id": 26743,
        "geometry": "POINT (-73.795227 42.725626)",
        "poi_name": "Courtyard Albany Airport",
        "osm_id": 6022981511,
        "tourism": "hotel",
        "official_name": "Courtyard by Marriott",
        "addr_state": "NY",
        "addr_city": "Albany",
        "addr_postcode": "12205",
        "addr_street": "Wolf Road",
        "addr_housenumber": "227"
      }
    }
  },
  "id": 2057,
  "type": "range+loc"
}