{
  "question": "Which direction leads to a museum from Sherwood Forest Faire, McDade, TX within a range of 110 kilometers?",
  "sql": "SELECT *, degrees(ST_Azimuth(ST_GeomFromText('POINT (-97.166138 30.231527)',4326)::geography, pois.geometry)) AS angle FROM pois\nWHERE ST_DWithin(pois.geometry, ST_GeomFromText('POINT (-97.166138 30.231527)',4326)::geography, 110000)\nAND tourism = 'museum';\n",
  "answers": [
    {
      "id": 2250,
      "geometry": "POINT (-97.738738 30.267054)",
      "poi_name": "Museum of the Weird",
      "osm_id": 3353621864,
      "tourism": "museum",
      "website": "https://www.museumoftheweird.com/",
      "phone": "+1-512-476-5493",
      "angle": 274.2319045046147
    },
    {
      "id": 2606,
      "geometry": "POINT (-97.650339 29.681887)",
      "poi_name": "Central Texas Oil Patch Museum",
      "osm_id": 532753991,
      "tourism": "museum",
      "website": "http://www.lulingoilmuseum.org/",
      "angle": 217.61341124533203
    },
    {
      "id": 3588,
      "geometry": "POINT (-96.333215 30.646796)",
      "poi_name": "Children's Museum of Brazos Valley",
      "osm_id": 5476858489,
      "tourism": "museum",
      "website": "https://cmbv.org/",
      "museum": "children",
      "addr_state": "TX",
      "addr_city": "Bryan",
      "addr_postcode": "77802",
      "addr_street": "East 29th Street",
      "addr_housenumber": "4001",
      "angle": 59.87375831368588
    },
    {
      "id": 7189,
      "geometry": "POINT (-96.372062 30.672305)",
      "poi_name": "Children's Museum of Brazos Valley",
      "osm_id": 1997919272,
      "tourism": "museum",
      "angle": 57.15167263581599
    },
    {
      "id": 8575,
      "geometry": "POINT (-97.678206 30.636826)",
      "poi_name": "The Williamson Museum",
      "osm_id": 8568299378,
      "description": "Museum of Williamson County history.",
      "tourism": "museum",
      "opening_hours": "We-Fr 12:00-17:00; Sa 10:00-17:00",
      "website": "https://williamsonmuseum.org/",
      "phone": "+1-512-943-1670",
      "museum": "history",
      "wikidata": "Q17066354",
      "addr_state": "TX",
      "addr_city": "Georgetown",
      "addr_postcode": "78626",
      "addr_street": "South Austin Avenue",
      "addr_housenumber": "716",
      "angle": 312.5382372074702
    },
    {
      "id": 14608,
      "geometry": "POINT (-97.732195 30.284816)",
      "poi_name": "Stark Center for Physical Culture and Sports",
      "osm_id": 4668889549,
      "description": "Public archive, library, museum, and research center dedicated to physical culture preservation, supporting scholarship, and enhancing public knowledge.",
      "tourism": "museum",
      "opening_hours": "09:00-17:00",
      "operator": "UT Austin KHE",
      "website": "https://starkcenter.org/",
      "addr_state": "TX",
      "addr_city": "Austin",
      "addr_postcode": "78712",
      "addr_street": "East 23rd Street, North End Zone, Suite 5.700",
      "addr_housenumber": "403",
      "angle": 276.33179572376395
    },
    {
      "id": 16111,
      "geometry": "POINT (-97.742573 30.269229)",
      "poi_name": "Arthouse at the Jones Center",
      "osm_id": 338451001,
      "tourism": "museum",
      "angle": 274.4535264238596
    },
    {
      "id": 17906,
      "geometry": "POINT (-97.952783 29.87633)",
      "poi_name": "The Millie Seaton Doll Collection",
      "osm_id": 368160001,
      "tourism": "museum",
      "addr_state": "TX",
      "angle": 242.76587945749736
    },
    {
      "id": 17910,
      "geometry": "POINT (-97.972709 29.570122)",
      "poi_name": "Sebastopol House",
      "osm_id": 368164731,
      "tourism": "museum",
      "opening_hours": "Th-Su 09:00-16:00",
      "website": "https://www.seguintexas.gov/departments/parks_and_recreation/sebastopol_house.php",
      "phone": "+1 830 379 4833",
      "museum": "history",
      "wikidata": "Q7442726",
      "addr_state": "TX",
      "addr_city": "Seguin",
      "addr_postcode": "78155",
      "addr_street": "Zorn Street",
      "addr_housenumber": "704",
      "angle": 226.93761163962932
    },
    {
      "id": 17913,
      "geometry": "POINT (-98.099296 29.704974)",
      "poi_name": "Museum of Texas Handmade Furniture",
      "osm_id": 368164838,
      "tourism": "museum",
      "website": "https://texashandmadefurniture.com/",
      "addr_state": "TX",
      "angle": 237.28739849495616
    },
    {
      "id": 17926,
      "geometry": "POINT (-96.872202 29.899115)",
      "poi_name": "Fayette Heritage Museum and Archives",
      "osm_id": 368164876,
      "tourism": "museum",
      "website": "http://www.cityoflg.com/library/museum_and_archives/",
      "addr_state": "TX",
      "addr_city": "La Grange",
      "addr_postcode": "78945",
      "addr_street": "South Jefferson Street",
      "addr_housenumber": "855",
      "angle": 142.36089075987155
    },
    {
      "id": 17927,
      "geometry": "POINT (-96.87248 29.899115)",
      "poi_name": "N W Faison Home and Museum",
      "osm_id": 368164877,
      "tourism": "museum",
      "addr_state": "TX",
      "angle": 142.38713830183383
    },
    {
      "id": 17928,
      "geometry": "POINT (-96.758167 30.053558)",
      "poi_name": "Center for American History Winedale Historical Center",
      "osm_id": 368164879,
      "tourism": "museum",
      "website": "https://texastimetravel.com/directory/winedale-historical-center/",
      "addr_state": "TX",
      "angle": 116.54998413973715
    },
    {
      "id": 17930,
      "geometry": "POINT (-96.758033 30.053554)",
      "poi_name": "Round Top Area History Museum",
      "osm_id": 368164882,
      "tourism": "museum",
      "addr_state": "TX",
      "angle": 116.54299502134016
    },
    {
      "id": 17931,
      "geometry": "POINT (-96.924982 29.71301)",
      "poi_name": "Schulenburg Historical Museum",
      "osm_id": 368164883,
      "tourism": "museum",
      "website": "https://schulenburghistoricalmuseum.com/",
      "addr_state": "TX",
      "angle": 157.89522226131407
    },
    {
      "id": 17949,
      "geometry": "POINT (-96.693586 30.531315)",
      "poi_name": "Burleson County Czech Heritage Museum",
      "osm_id": 368164920,
      "tourism": "museum",
      "website": "https://burlesonczechmuseum.webs.com/",
      "addr_state": "TX",
      "angle": 53.687105167435405
    },
    {
      "id": 17950,
      "geometry": "POINT (-96.500523 30.436874)",
      "poi_name": "Somerville Historical Museum",
      "osm_id": 368164922,
      "tourism": "museum",
      "addr_state": "TX",
      "angle": 70.2538639101671
    },
    {
      "id": 17951,
      "geometry": "POINT (-96.691364 30.532982)",
      "poi_name": "Burleson County Historical Museum",
      "osm_id": 368164923,
      "tourism": "museum",
      "addr_state": "TX",
      "angle": 53.66303661485156
    },
    {
      "id": 17969,
      "geometry": "POINT (-96.229288 30.332506)",
      "poi_name": "Star of the Republic Museum",
      "osm_id": 368164992,
      "tourism": "museum",
      "website": "https://www.thc.texas.gov/historic-sites/star-republic-museum",
      "addr_state": "TX",
      "angle": 82.684524897217
    },
    {
      "id": 17975,
      "geometry": "POINT (-97.463086 31.057529)",
      "poi_name": "Bell County Museum",
      "osm_id": 368165013,
      "tourism": "museum",
      "opening_hours": "Tu-Fr 12:00-17:00, Sa 10:00-17:00",
      "phone": "+1 (254) 933-5243",
      "addr_state": "TX",
      "addr_city": "Belton",
      "addr_postcode": "76513",
      "addr_street": "North Main Street",
      "addr_housenumber": "201",
      "angle": 342.80833033415706
    },
    {
      "id": 17976,
      "geometry": "POINT (-97.340636 31.102573)",
      "poi_name": "Czech Heritage Museum",
      "osm_id": 368165015,
      "tourism": "museum",
      "website": "https://czechheritagemuseum.org/",
      "addr_state": "TX",
      "angle": 350.21972700689565
    },
    {
      "id": 17977,
      "geometry": "POINT (-97.345166 31.095644)",
      "poi_name": "Railroad and Pioneer Museum",
      "osm_id": 368165016,
      "tourism": "museum",
      "addr_state": "TX",
      "angle": 349.8914897072404
    },
    {
      "id": 17979,
      "geometry": "POINT (-97.138321 30.041331)",
      "poi_name": "Smithville Railroad Historical Park and Museum",
      "osm_id": 368165021,
      "tourism": "museum",
      "addr_state": "TX",
      "angle": 172.74815196633014
    },
    {
      "id": 17984,
      "geometry": "POINT (-96.772755 29.702178)",
      "poi_name": "The Heritage Society Museum of Weimar",
      "osm_id": 368165030,
      "tourism": "museum",
      "operator": "The Heritage Society of Weimar",
      "phone": "+1 (979) 725-8203",
      "museum": "local",
      "addr_state": "TX",
      "addr_city": "Weimar",
      "addr_street": "East Main Street",
      "addr_housenumber": "125",
      "angle": 146.9965589878024
    },
    {
      "id": 17985,
      "geometry": "POINT (-96.543305 29.710512)",
      "poi_name": "Keith-Traylor Museum",
      "osm_id": 368165031,
      "tourism": "museum",
      "addr_state": "TX",
      "angle": 133.69855992781856
    },
    {
      "id": 17987,
      "geometry": "POINT (-96.544971 29.695235)",
      "poi_name": "Alley Log Cabin and Antique Tool Museum",
      "osm_id": 368165033,
      "tourism": "museum",
      "addr_state": "TX",
      "angle": 134.60117851015463
    },
    {
      "id": 17988,
      "geometry": "POINT (-96.53886 29.706623)",
      "poi_name": "Tate-Senftenberg-Brandon House Museum",
      "osm_id": 368165034,
      "tourism": "museum",
      "addr_state": "TX",
      "angle": 133.70619730741157
    },
    {
      "id": 17989,
      "geometry": "POINT (-96.542177 29.704464)",
      "poi_name": "Mary Elizabeth Hopkins Santa Claus Museum",
      "osm_id": 368165035,
      "tourism": "museum",
      "website": "https://www.columbushpt.com/index.php/historical-properties/santa-claus-museum/",
      "addr_state": "TX",
      "addr_city": "Columbus",
      "addr_postcode": "78934",
      "addr_street": "Spring Street",
      "addr_housenumber": "425",
      "angle": 133.97601912727055
    },
    {
      "id": 17990,
      "geometry": "POINT (-96.332744 29.587462)",
      "poi_name": "Prairie Edge Museum",
      "osm_id": 368165036,
      "tourism": "museum",
      "website": "http://prairieedgemuseum.org/",
      "addr_state": "TX",
      "angle": 131.36696409608643
    },
    {
      "id": 18004,
      "geometry": "POINT (-97.761236 30.313729)",
      "poi_name": "Texas Military Forces Museum",
      "osm_id": 368165061,
      "tourism": "museum",
      "website": "https://texasmilitaryforcesmuseum.org/",
      "phone": "+1-512-782-5659",
      "wikidata": "Q17156834",
      "addr_state": "TX",
      "addr_city": "Austin",
      "addr_postcode": "78703",
      "addr_street": "West 35th Street",
      "addr_housenumber": "2200",
      "angle": 279.19222463811377
    },
    {
      "id": 18006,
      "geometry": "POINT (-97.765839 30.263542)",
      "poi_name": "Umlauf Sculpture Garden and Museum",
      "osm_id": 368165063,
      "tourism": "museum",
      "wheelchair": "yes",
      "fee": "yes",
      "website": "https://www.umlaufsculpture.org/",
      "wikidata": "Q7881605",
      "addr_state": "TX",
      "angle": 273.6696161823348
    },
    {
      "id": 18007,
      "geometry": "POINT (-97.774379 30.312157)",
      "poi_name": "Laguna Gloria Art Museum",
      "osm_id": 368165064,
      "tourism": "museum",
      "website": "https://thecontemporaryaustin.org/",
      "museum": "art",
      "addr_state": "TX",
      "angle": 278.8365957010174
    },
    {
      "id": 18017,
      "geometry": "POINT (-96.392744 30.173827)",
      "poi_name": "Giddings-Wilkin House Museum",
      "osm_id": 368165088,
      "tourism": "museum",
      "addr_state": "TX",
      "angle": 94.71461720561788
    },
    {
      "id": 18023,
      "geometry": "POINT (-97.312774 30.537702)",
      "poi_name": "Coupland Museum",
      "osm_id": 368165103,
      "tourism": "museum",
      "addr_state": "TX",
      "angle": 337.48791223813174
    },
    {
      "id": 18046,
      "geometry": "POINT (-97.44333 29.504034)",
      "poi_name": "Gonzales Memorial Museum",
      "osm_id": 368165418,
      "tourism": "museum",
      "website": "https://www.gonzales.texas.gov/p/departments/gonzales-memorial-museum",
      "addr_state": "TX",
      "angle": 198.43992006288644
    },
    {
      "id": 18058,
      "geometry": "POINT (-98.068618 29.692447)",
      "poi_name": "The Childrens Museum in New Braunfels",
      "osm_id": 368165454,
      "tourism": "museum",
      "wheelchair": "yes",
      "addr_state": "TX",
      "angle": 235.77571883897568
    },
    {
      "id": 18059,
      "geometry": "POINT (-97.981465 29.57223)",
      "poi_name": "Fiedler Memorial Museum",
      "osm_id": 368165460,
      "tourism": "museum",
      "website": "https://www.museumsusa.org/museums/info/16029",
      "official_name": "A. M. and Alma Fiedler Memorial Museum",
      "addr_state": "TX",
      "angle": 227.3394051979512
    },
    {
      "id": 18096,
      "geometry": "POINT (-96.976854 30.850912)",
      "poi_name": "Milam County Historical Museum",
      "osm_id": 368165577,
      "tourism": "museum",
      "website": "https://business.cameron-tx.com/list/member/milam-county-historical-museum-1033",
      "addr_state": "TX",
      "addr_city": "Cameron",
      "addr_postcode": "76520",
      "addr_street": "West 1st Street",
      "addr_housenumber": "112",
      "angle": 14.768402840328084
    },
    {
      "id": 18113,
      "geometry": "POINT (-96.935538 30.179383)",
      "poi_name": "Lee County Museum",
      "osm_id": 368165613,
      "tourism": "museum",
      "addr_state": "TX",
      "angle": 104.53435402096694
    },
    {
      "id": 18114,
      "geometry": "POINT (-96.940576 29.45569)",
      "poi_name": "Lavaca Historical Museum",
      "osm_id": 368165614,
      "tourism": "museum",
      "opening_hours": "We,Th 10:00-16:00; Fr 11:45-16:00",
      "website": "https://lavacahistoricalmuseum.org/",
      "addr_state": "TX",
      "angle": 165.721263749689
    },
    {
      "id": 18115,
      "geometry": "POINT (-97.169719 29.421431)",
      "poi_name": "Edwin Wolters Memorial Museum",
      "osm_id": 368165615,
      "tourism": "museum",
      "opening_hours": "We-Fr 08:00-12:00,13:00-17:00; Sa 11:45-16:00",
      "website": "http://www.woltersmuseum.org/home.html",
      "phone": "+1-361-594-3774",
      "addr_state": "TX",
      "addr_city": "Shiner",
      "addr_postcode": "77984",
      "addr_street": "S Avenue I",
      "addr_housenumber": "306",
      "angle": 180.221729814456
    },
    {
      "id": 18158,
      "geometry": "POINT (-97.726285 30.306628)",
      "poi_name": "Elisabet Ney Museum",
      "osm_id": 368165766,
      "tourism": "museum",
      "opening_hours": "We-Su 12:00-17:00",
      "website": "https://www.austintexas.gov/department/elisabet-ney-museum",
      "wikidata": "Q5361396",
      "addr_state": "TX",
      "angle": 278.9217142838108
    },
    {
      "id": 18159,
      "geometry": "POINT (-97.407141 30.880209)",
      "poi_name": "Mayfield-Dobbs Museum",
      "osm_id": 368165768,
      "tourism": "museum",
      "addr_state": "TX",
      "angle": 342.23677066225105
    },
    {
      "id": 19607,
      "geometry": "POINT (-97.411159 30.575434)",
      "poi_name": "The Dan Moody Museum Home & Garden",
      "osm_id": 10833311360,
      "description": "Admission is free, but donations are accepted.",
      "tourism": "museum",
      "fee": "no",
      "opening_hours": "Sa 14:00-17:00",
      "website": "https://www.moodymuseum.com/",
      "phone": "+1-512-352-3675",
      "museum": "person",
      "addr_state": "TX",
      "addr_city": "Taylor",
      "addr_postcode": "76574",
      "addr_street": "West 9th Street",
      "addr_housenumber": "114",
      "angle": 328.36383670029716
    },
    {
      "id": 19815,
      "geometry": "POINT (-97.727119 30.396365)",
      "poi_name": "Museum of Illusions",
      "osm_id": 10892346079,
      "tourism": "museum",
      "website": "https://moiaustin.com/",
      "museum": "history",
      "angle": 288.85148052892686
    },
    {
      "id": 19816,
      "geometry": "POINT (-97.726217 30.4024)",
      "poi_name": "Museum of Ice Cream",
      "osm_id": 10892392996,
      "tourism": "museum",
      "website": "https://www.museumoficecream.com/",
      "angle": 289.51553673747344
    },
    {
      "id": 21794,
      "geometry": "POINT (-97.731473 30.26765)",
      "poi_name": "Republic of Texas Museum",
      "osm_id": 10679709429,
      "tourism": "museum",
      "website": "https://drtinfo.org/Members/Members/RTHC/001Republic-of-Texas-Museum.aspx",
      "museum": "history",
      "addr_city": "Austin",
      "addr_postcode": "78702",
      "addr_street": "San Marcos Street",
      "addr_housenumber": "810",
      "angle": 274.3515972911421
    },
    {
      "id": 22359,
      "geometry": "POINT (-97.941575 29.882784)",
      "poi_name": "LBJ Museum of San Marcos History",
      "osm_id": 674150307,
      "tourism": "museum",
      "fee": "no",
      "opening_hours": "Tu-Su 11:00-17:00",
      "website": "https://lbjmuseum.com/",
      "addr_city": "San Marcos",
      "addr_postcode": "78666",
      "addr_street": "North Guadalupe Street",
      "addr_housenumber": "131",
      "angle": 242.8555452078261
    },
    {
      "id": 22384,
      "geometry": "POINT (-97.965089 29.864587)",
      "poi_name": "Dick's Classic Garage",
      "osm_id": 685480214,
      "tourism": "museum",
      "website": "https://www.dicksclassicgarage.com/",
      "phone": "+1-512-878-2406",
      "addr_state": "TX",
      "addr_city": "San Marcos",
      "addr_postcode": "78666",
      "addr_street": "Stagecoach Trail",
      "addr_housenumber": "120",
      "angle": 242.37004365162107
    },
    {
      "id": 26202,
      "geometry": "POINT (-96.676498 29.903966)",
      "poi_name": "Fayetteville Area Heritage Museum",
      "osm_id": 5809310480,
      "tourism": "museum",
      "website": "https://fayettevilletxmuseum.org/index.html",
      "angle": 127.44177707922081
    },
    {
      "id": 151,
      "geometry": "POINT (-97.452132 29.501406)",
      "poi_name": "Old Jail Museum",
      "osm_id": 457517955,
      "tourism": "museum",
      "website": "https://www.tourtexas.com/destinations/141",
      "angle": 198.92154100374475
    }
  ],
  "answer_type": "angle",
  "question_entities": {
    "[1]": {
      "main_category": "tourism",
      "sub_category": "museum"
    },
    "[2]": {
      "distance": 110000,
      "text": "110 kilometers"
    },
    "[3]": {
      "main_category": "tourism",
      "sub_category": "theme park",
      "display_name": "Sherwood Forest Faire, McDade, TX",
      "geo_wkt": "POINT (-97.166138 30.231527)",
      "poi": {
        "id": 1735,
        "geometry": "POINT (-97.166138 30.231527)",
        "poi_name": "Sherwood Forest Faire",
        "osm_id": 3129085781,
        "tourism": "theme_park",
        "website": "https://www.sherwoodforestfaire.com/",
        "addr_state": "TX",
        "addr_city": "McDade",
        "addr_postcode": "78650",
        "addr_street": "Old Highway 20",
        "addr_housenumber": "1883"
      }
    }
  },
  "id": 1025,
  "type": "range+angle"
}