{
  "question": "Which fast food restaurant is available when approaching Orange County Surgical Specialists - Facial Plastic Surgery, Rancho Santa Margarita, CA within 20 kilometers from Sugarplum Zoo, Temecula, CA?",
  "sql": "WITH\n    angle AS (SELECT degrees(ST_Azimuth(ST_GeomFromText('POINT (-117.055191 33.546915)',4326)::geography, ST_GeomFromText('POINT (-117.610258 33.63821)',4326)::geography)) AS value)\nSELECT * FROM pois,angle\nWHERE amenity = 'fast_food'\nAND ST_DWithin(pois.geometry, ST_GeomFromText('POINT (-117.055191 33.546915)',4326)::geography, 20000)\nAND (degrees(ST_Azimuth(ST_GeomFromText('POINT (-117.055191 33.546915)',4326)::geography, pois.geometry)) BETWEEN angle.value - 22.5 AND angle.value + 22.5);\n",
  "answers": [
    {
      "id": 32723,
      "geometry": "POINT (-117.139138 33.550293)",
      "poi_name": "Los Primos",
      "osm_id": 2636161145,
      "amenity": "fast_food",
      "cuisine": "mexican",
      "wheelchair": "yes",
      "opening_hours": "Mo-Su 07:00-22:00",
      "operator": "Los Primos",
      "website": "www.losprimosmexicanfood.com",
      "internet_access": "no",
      "phone": "9516009107",
      "addr_city": "Murrieta",
      "addr_postcode": "92563",
      "addr_street": "Winchester Road",
      "addr_housenumber": "39252",
      "value": 281.27223387829014
    },
    {
      "id": 40099,
      "geometry": "POINT (-117.205261 33.568427)",
      "poi_name": "Jamba",
      "osm_id": 2957299194,
      "amenity": "fast_food",
      "cuisine": "juice",
      "opening_hours": "Mo-Su 07:00-21:00",
      "takeaway": "yes",
      "drive_through": "no",
      "outdoor_seating": "yes",
      "toilets": "yes",
      "value": 281.27223387829014
    },
    {
      "id": 40100,
      "geometry": "POINT (-117.204935 33.569364)",
      "poi_name": "Subway",
      "osm_id": 2957299196,
      "amenity": "fast_food",
      "cuisine": "sandwich",
      "takeaway": "yes",
      "value": 281.27223387829014
    },
    {
      "id": 40101,
      "geometry": "POINT (-117.204716 33.569622)",
      "poi_name": "Papa John's",
      "osm_id": 2957299197,
      "amenity": "fast_food",
      "cuisine": "pizza",
      "takeaway": "yes",
      "value": 281.27223387829014
    },
    {
      "id": 56047,
      "geometry": "POINT (-117.207236 33.562905)",
      "poi_name": "Which Wich?",
      "osm_id": 10222610615,
      "amenity": "fast_food",
      "cuisine": "sandwich",
      "website": "https://www.whichwich.com/",
      "takeaway": "yes",
      "drive_through": "no",
      "value": 281.27223387829014
    },
    {
      "id": 51767,
      "geometry": "POINT (-117.233346 33.570696)",
      "poi_name": "Subway",
      "osm_id": 559244388,
      "amenity": "fast_food",
      "cuisine": "sandwich",
      "takeaway": "yes",
      "value": 281.27223387829014
    },
    {
      "id": 54441,
      "geometry": "POINT (-117.2456 33.594725)",
      "poi_name": "Dunkin'",
      "osm_id": 10134345664,
      "amenity": "fast_food",
      "cuisine": "donut;coffee_shop",
      "wheelchair": "yes",
      "opening_hours": "Mo-Su 04:30-23:00",
      "takeaway": "yes",
      "drive_through": "yes",
      "outdoor_seating": "yes",
      "toilets": "yes",
      "value": 281.27223387829014
    },
    {
      "id": 54443,
      "geometry": "POINT (-117.245932 33.5945)",
      "poi_name": "Jersey Mike's Subs",
      "osm_id": 10134424489,
      "amenity": "fast_food",
      "cuisine": "sandwich",
      "wheelchair": "yes",
      "takeaway": "yes",
      "drive_through": "no",
      "outdoor_seating": "no",
      "toilets": "yes",
      "value": 281.27223387829014
    },
    {
      "id": 54444,
      "geometry": "POINT (-117.245851 33.594557)",
      "poi_name": "Robeks",
      "osm_id": 10134424491,
      "amenity": "fast_food",
      "cuisine": "juice",
      "wheelchair": "yes",
      "takeaway": "yes",
      "toilets": "yes",
      "value": 281.27223387829014
    },
    {
      "id": 54445,
      "geometry": "POINT (-117.24579 33.594599)",
      "poi_name": "Wingstop",
      "osm_id": 10134424492,
      "amenity": "fast_food",
      "cuisine": "wings",
      "wheelchair": "yes",
      "opening_hours": "Mo-Su 11:00-24:00",
      "takeaway": "yes",
      "outdoor_seating": "yes",
      "value": 281.27223387829014
    },
    {
      "id": 55793,
      "geometry": "POINT (-117.138167 33.553045)",
      "poi_name": "Jersey Mike's Subs",
      "osm_id": 10208321798,
      "amenity": "fast_food",
      "cuisine": "sandwich",
      "takeaway": "yes",
      "value": 281.27223387829014
    },
    {
      "id": 55802,
      "geometry": "POINT (-117.138133 33.553391)",
      "poi_name": "Craynut",
      "osm_id": 10208337140,
      "amenity": "fast_food",
      "cuisine": "donut",
      "drive_through": "no",
      "value": 281.27223387829014
    },
    {
      "id": 55807,
      "geometry": "POINT (-117.142733 33.551981)",
      "poi_name": "SoCal Tacos and Beer",
      "osm_id": 10208436659,
      "amenity": "fast_food",
      "cuisine": "mexican",
      "drive_through": "no",
      "value": 281.27223387829014
    },
    {
      "id": 56739,
      "geometry": "POINT (-117.241775 33.596155)",
      "poi_name": "Subway",
      "osm_id": 10247536910,
      "amenity": "fast_food",
      "cuisine": "sandwich",
      "takeaway": "yes",
      "value": 281.27223387829014
    },
    {
      "id": 60970,
      "geometry": "POINT (-117.139008 33.550713)",
      "poi_name": "Subway",
      "osm_id": 5489488759,
      "amenity": "fast_food",
      "cuisine": "sandwich",
      "takeaway": "yes",
      "value": 281.27223387829014
    },
    {
      "id": 68668,
      "geometry": "POINT (-117.247075 33.596942)",
      "poi_name": "Go Nutz Donuts",
      "osm_id": 11280357046,
      "amenity": "fast_food",
      "cuisine": "donut",
      "value": 281.27223387829014
    },
    {
      "id": 66856,
      "geometry": "POINT (-117.18234 33.571678)",
      "poi_name": "Hong Kong Express",
      "osm_id": 11214439139,
      "amenity": "fast_food",
      "cuisine": "chinese",
      "drive_through": "no",
      "value": 281.27223387829014
    },
    {
      "id": 68595,
      "geometry": "POINT (-117.182533 33.571388)",
      "poi_name": "Fruit Wonders",
      "osm_id": 11276299989,
      "amenity": "fast_food",
      "cuisine": "juice",
      "value": 281.27223387829014
    },
    {
      "id": 70054,
      "geometry": "POINT (-117.201181 33.557335)",
      "poi_name": "Carnitas Express",
      "osm_id": 11342624203,
      "amenity": "fast_food",
      "cuisine": "mexican",
      "outdoor_seating": "yes",
      "value": 281.27223387829014
    },
    {
      "id": 90770,
      "geometry": "POINT (-117.149676 33.53325)",
      "poi_name": "Subway",
      "osm_id": 2016949058,
      "amenity": "fast_food",
      "cuisine": "sandwich",
      "takeaway": "yes",
      "value": 281.27223387829014
    },
    {
      "id": 70409,
      "geometry": "POINT (-117.211964 33.561088)",
      "poi_name": "TK's Donuts",
      "osm_id": 11361225232,
      "amenity": "fast_food",
      "cuisine": "donut",
      "opening_hours": "Mo-Su 04:00-14:00",
      "drive_through": "no",
      "value": 281.27223387829014
    },
    {
      "id": 135436,
      "geometry": "POINT (-117.239752 33.598151)",
      "poi_name": "Chipotle",
      "osm_id": 11514787845,
      "amenity": "fast_food",
      "cuisine": "mexican",
      "takeaway": "yes",
      "drive_through": "yes",
      "official_name": "Chipotle Mexican Grill",
      "outdoor_seating": "yes",
      "value": 281.27223387829014
    },
    {
      "id": 181641,
      "geometry": "POINT (-117.240558 33.599048)",
      "poi_name": "Domino's",
      "osm_id": 10858327800,
      "amenity": "fast_food",
      "cuisine": "pizza",
      "takeaway": "yes",
      "value": 281.27223387829014
    },
    {
      "id": 151389,
      "geometry": "POINT (-117.202188 33.575412)",
      "poi_name": "Little Caesars",
      "osm_id": 4096451158,
      "amenity": "fast_food",
      "cuisine": "pizza",
      "website": "https://littlecaesars.com/en-us/store/2770/",
      "takeaway": "yes",
      "delivery": "no",
      "addr_state": "CA",
      "addr_city": "Murrieta",
      "addr_postcode": "92562",
      "addr_street": "California Oaks Road",
      "addr_housenumber": "40525 E-9",
      "value": 281.27223387829014
    },
    {
      "id": 178089,
      "geometry": "POINT (-117.178907 33.598648)",
      "poi_name": "Jersey Mike's Subs",
      "osm_id": 10711460707,
      "amenity": "fast_food",
      "cuisine": "sandwich",
      "takeaway": "yes",
      "drive_through": "no",
      "outdoor_seating": "no",
      "value": 281.27223387829014
    },
    {
      "id": 178090,
      "geometry": "POINT (-117.178836 33.598698)",
      "poi_name": "Flippin' Pizza",
      "osm_id": 10711460708,
      "amenity": "fast_food",
      "cuisine": "pizza",
      "takeaway": "yes",
      "drive_through": "no",
      "outdoor_seating": "no",
      "value": 281.27223387829014
    },
    {
      "id": 179646,
      "geometry": "POINT (-117.241044 33.596754)",
      "poi_name": "WaBa Grill",
      "osm_id": 10771998265,
      "amenity": "fast_food",
      "cuisine": "asian",
      "takeaway": "yes",
      "drive_through": "no",
      "value": 281.27223387829014
    },
    {
      "id": 147709,
      "geometry": "POINT (-117.199366 33.555455)",
      "poi_name": "Mochinut",
      "osm_id": 7555497994,
      "amenity": "fast_food",
      "cuisine": "donut;bubble_tea",
      "takeaway": "yes",
      "addr_state": "CA",
      "addr_city": "Murrieta",
      "addr_postcode": "92562",
      "addr_street": "Madison Avenue",
      "addr_housenumber": "25175",
      "value": 281.27223387829014
    },
    {
      "id": 178759,
      "geometry": "POINT (-117.17774 33.576225)",
      "poi_name": "Corner Donuts",
      "osm_id": 10738283404,
      "amenity": "fast_food",
      "cuisine": "donut",
      "value": 281.27223387829014
    },
    {
      "id": 179766,
      "geometry": "POINT (-117.241097 33.597178)",
      "poi_name": "Los Jilbertos",
      "osm_id": 10778497644,
      "amenity": "fast_food",
      "cuisine": "mexican",
      "value": 281.27223387829014
    },
    {
      "id": 187111,
      "geometry": "POINT (-117.154946 33.546048)",
      "poi_name": "Domino's",
      "osm_id": 7972419460,
      "amenity": "fast_food",
      "cuisine": "pizza",
      "takeaway": "yes",
      "addr_state": "CA",
      "addr_city": "Murrieta",
      "addr_postcode": "92563",
      "addr_street": "Margarita Road",
      "addr_housenumber": "26684",
      "value": 281.27223387829014
    },
    {
      "id": 187112,
      "geometry": "POINT (-117.155112 33.546184)",
      "poi_name": "Top Grill Teriyaki Bowl",
      "osm_id": 7972444088,
      "amenity": "fast_food",
      "cuisine": "asian",
      "drive_through": "no",
      "addr_state": "CA",
      "addr_city": "Murrieta",
      "addr_postcode": "92563",
      "addr_street": "Margarita Road",
      "addr_housenumber": "26684",
      "value": 281.27223387829014
    },
    {
      "id": 188451,
      "geometry": "POINT (-117.19708 33.553191)",
      "poi_name": "Sushi Hama",
      "osm_id": 1153152279,
      "amenity": "fast_food",
      "value": 281.27223387829014
    },
    {
      "id": 188006,
      "geometry": "POINT (-117.196484 33.554064)",
      "poi_name": "Panda Express",
      "osm_id": 1124106732,
      "amenity": "fast_food",
      "cuisine": "chinese",
      "wheelchair": "yes",
      "takeaway": "yes",
      "drive_through": "no",
      "outdoor_seating": "no",
      "toilets": "yes",
      "value": 281.27223387829014
    },
    {
      "id": 188007,
      "geometry": "POINT (-117.196439 33.554099)",
      "poi_name": "La Bufadora",
      "osm_id": 1124106762,
      "amenity": "fast_food",
      "cuisine": "mexican",
      "drive_through": "no",
      "outdoor_seating": "yes",
      "value": 281.27223387829014
    },
    {
      "id": 187744,
      "geometry": "POINT (-117.141476 33.550302)",
      "poi_name": "Little Caesars",
      "osm_id": 1101055351,
      "amenity": "fast_food",
      "cuisine": "pizza",
      "website": "https://littlecaesars.com/en-us/store/8611/",
      "takeaway": "yes",
      "value": 281.27223387829014
    },
    {
      "id": 189662,
      "geometry": "POINT (-117.197808 33.555384)",
      "poi_name": "Wienerschnitzel",
      "osm_id": 1242429590,
      "amenity": "fast_food",
      "cuisine": "hot_dog",
      "takeaway": "yes",
      "drive_through": "yes",
      "addr_city": "Murrietta",
      "addr_postcode": "92562",
      "addr_street": "Madison Avenue",
      "addr_housenumber": "25250",
      "value": 281.27223387829014
    },
    {
      "id": 189351,
      "geometry": "POINT (-117.204669 33.568281)",
      "poi_name": "Chipotle",
      "osm_id": 1229681159,
      "amenity": "fast_food",
      "cuisine": "mexican",
      "wheelchair": "yes",
      "website": "https://locations.chipotle.com/ca/murrieta/40940-california-oaks-rd",
      "takeaway": "yes",
      "drive_through": "no",
      "official_name": "Chipotle Mexican Grill",
      "outdoor_seating": "yes",
      "toilets": "yes",
      "addr_street": "California Oaks Road",
      "addr_housenumber": "40940",
      "value": 281.27223387829014
    },
    {
      "id": 190782,
      "geometry": "POINT (-117.211606 33.561669)",
      "poi_name": "Cruz Tacos",
      "osm_id": 1315774785,
      "amenity": "fast_food",
      "cuisine": "mexican",
      "value": 281.27223387829014
    },
    {
      "id": 189944,
      "geometry": "POINT (-117.206742 33.56784)",
      "poi_name": "Los Primos Mexican Food",
      "osm_id": 1257561668,
      "amenity": "fast_food",
      "cuisine": "mexican",
      "value": 281.27223387829014
    },
    {
      "id": 190695,
      "geometry": "POINT (-117.199788 33.578318)",
      "poi_name": "Domino's",
      "osm_id": 1312376529,
      "amenity": "fast_food",
      "cuisine": "pizza",
      "takeaway": "yes",
      "value": 281.27223387829014
    },
    {
      "id": 190722,
      "geometry": "POINT (-117.157943 33.556003)",
      "poi_name": "Subway",
      "osm_id": 1313313041,
      "amenity": "fast_food",
      "cuisine": "sandwich",
      "takeaway": "yes",
      "value": 281.27223387829014
    },
    {
      "id": 190723,
      "geometry": "POINT (-117.159088 33.556296)",
      "poi_name": "Sonic",
      "osm_id": 1313313072,
      "amenity": "fast_food",
      "cuisine": "burger",
      "takeaway": "yes",
      "drive_through": "yes",
      "value": 281.27223387829014
    },
    {
      "id": 190785,
      "geometry": "POINT (-117.204383 33.5682)",
      "poi_name": "Epic Wings N' Things",
      "osm_id": 1315774812,
      "amenity": "fast_food",
      "cuisine": "wings",
      "website": "https://www.epicwingsnthings.com/locations/murrieta/",
      "takeaway": "yes",
      "drive_through": "no",
      "outdoor_seating": "yes",
      "addr_street": "California Oaks Road",
      "addr_housenumber": "40942",
      "value": 281.27223387829014
    },
    {
      "id": 193523,
      "geometry": "POINT (-117.242309 33.594012)",
      "poi_name": "Panda Express",
      "osm_id": 1542931180,
      "amenity": "fast_food",
      "cuisine": "chinese",
      "wheelchair": "yes",
      "opening_hours": "Mo-Su 09:30-22:00",
      "takeaway": "yes",
      "drive_through": "yes",
      "outdoor_seating": "no",
      "toilets": "yes",
      "value": 281.27223387829014
    },
    {
      "id": 218899,
      "geometry": "POINT (-117.16943 33.598312)",
      "poi_name": "Jamba",
      "osm_id": 9307516158,
      "amenity": "fast_food",
      "cuisine": "juice",
      "takeaway": "yes",
      "outdoor_seating": "yes",
      "addr_state": "CA",
      "addr_city": "Murrieta",
      "addr_postcode": "92562",
      "addr_street": "Clinton Keith Road",
      "addr_housenumber": "28080",
      "value": 281.27223387829014
    },
    {
      "id": 198436,
      "geometry": "POINT (-117.168683 33.598983)",
      "poi_name": "Alberto's",
      "osm_id": 10705207395,
      "amenity": "fast_food",
      "cuisine": "mexican",
      "value": 281.27223387829014
    },
    {
      "id": 198438,
      "geometry": "POINT (-117.168759 33.598982)",
      "poi_name": "Wingstop",
      "osm_id": 10705229797,
      "amenity": "fast_food",
      "cuisine": "wings",
      "takeaway": "yes",
      "drive_through": "no",
      "value": 281.27223387829014
    },
    {
      "id": 198439,
      "geometry": "POINT (-117.168579 33.598984)",
      "poi_name": "Everbowl",
      "osm_id": 10705252968,
      "amenity": "fast_food",
      "cuisine": "a\u00e7a\u00ed",
      "takeaway": "yes",
      "value": 281.27223387829014
    },
    {
      "id": 199736,
      "geometry": "POINT (-117.201394 33.559627)",
      "poi_name": "Chuck Wagon Pizza",
      "osm_id": 987290380,
      "amenity": "fast_food",
      "outdoor_seating": "yes",
      "value": 281.27223387829014
    },
    {
      "id": 225107,
      "geometry": "POINT (-117.176025 33.599304)",
      "poi_name": "Juice It Up!",
      "osm_id": 11111048991,
      "amenity": "fast_food",
      "cuisine": "juice",
      "takeaway": "yes",
      "value": 281.27223387829014
    },
    {
      "id": 224230,
      "geometry": "POINT (-117.251788 33.590844)",
      "poi_name": "El Burro Taco Shop",
      "osm_id": 11076247677,
      "amenity": "fast_food",
      "cuisine": "mexican",
      "drive_through": "no",
      "delivery": "yes",
      "value": 281.27223387829014
    },
    {
      "id": 224231,
      "geometry": "POINT (-117.25173 33.590896)",
      "poi_name": "Everbowl",
      "osm_id": 11076247678,
      "amenity": "fast_food",
      "cuisine": "a\u00e7a\u00ed",
      "opening_hours": "Mo-Su 09:00-19:00",
      "website": "https://www.everbowl.com/",
      "takeaway": "yes",
      "drive_through": "no",
      "outdoor_seating": "no",
      "value": 281.27223387829014
    },
    {
      "id": 225551,
      "geometry": "POINT (-117.201688 33.557797)",
      "poi_name": "Benny's Place",
      "osm_id": 11132458627,
      "amenity": "fast_food",
      "cuisine": "sandwich",
      "opening_hours": "Mo-Sa 10:30-17:00; Su 11:00-16:00",
      "website": "https://www.bennyssubs.com/",
      "drive_through": "no",
      "outdoor_seating": "yes",
      "value": 281.27223387829014
    }
  ],
  "answer_type": "name",
  "question_entities": {
    "[2]": {
      "distance": 20000,
      "text": "20 kilometers"
    },
    "[3]": {
      "main_category": "tourism",
      "sub_category": "zoo",
      "display_name": "Sugarplum Zoo, Temecula, CA",
      "geo_wkt": "POINT (-117.055191 33.546915)",
      "poi": {
        "id": 24034,
        "geometry": "POINT (-117.055191 33.546915)",
        "poi_name": "Sugarplum Zoo",
        "osm_id": 9270599265,
        "tourism": "zoo",
        "fee": "yes",
        "opening_hours": "Mo-Sa 08:00-18:00",
        "addr_state": "CA",
        "addr_city": "Temecula",
        "addr_postcode": "92591",
        "addr_street": "Berenda Rd",
        "addr_housenumber": "39695"
      }
    },
    "[4]": {
      "main_category": "amenity",
      "sub_category": "hospital",
      "display_name": "Orange County Surgical Specialists - Facial Plastic Surgery, Rancho Santa Margarita, CA",
      "geo_wkt": "POINT (-117.610258 33.63821)",
      "poi": {
        "id": 222207,
        "geometry": "POINT (-117.610258 33.63821)",
        "poi_name": "Orange County Surgical Specialists - Facial Plastic Surgery",
        "osm_id": 11010229141,
        "amenity": "hospital",
        "description": "Orange County Surgical Specialists provides state-of-the-art care for patients seeking facial cosmetic surgery in Mission Viejo, Orange County, and beyond.",
        "opening_hours": "Mon-Tue,Thu : 08:00AM-05:00PM, Wed : 09:00AM-03:00PM, Fri : 08:00AM-04:00PM",
        "website": "https://www.facialplasticsoc.com",
        "healthcare": "hospital",
        "emergency": "yes",
        "addr_state": "CA",
        "addr_city": "Rancho Santa Margarita",
        "addr_postcode": "92688",
        "addr_street": "Santa Margarita Pkwy",
        "addr_housenumber": "29829"
      }
    },
    "[1]": {
      "main_category": "amenity",
      "sub_category": "fast_food"
    }
  },
  "id": 1613,
  "type": "range:towards+name"
}