{
  "question": "I'm interested in finding a restaurant that's 110 kilometers from Plaza Sports Center, Edinburg, TX, any recommendations?",
  "sql": "SELECT * FROM pois\nWHERE ST_DWithin(pois.geometry, ST_GeomFromText('POINT (-98.166433 26.232776)',4326)::geography, 110000)\nAND amenity = 'restaurant';\n",
  "answers": [
    {
      "id": 35234,
      "geometry": "POINT (-97.166284 26.098539)",
      "poi_name": "Pizza Hut",
      "osm_id": 2714764476,
      "amenity": "restaurant",
      "cuisine": "pizza"
    },
    {
      "id": 35235,
      "geometry": "POINT (-97.164875 26.093022)",
      "poi_name": "Denny's",
      "osm_id": 2714772738,
      "amenity": "restaurant",
      "cuisine": "american"
    },
    {
      "id": 36135,
      "geometry": "POINT (-98.180172 26.233006)",
      "poi_name": "Rudy's Country Store & Bar-B-Q",
      "osm_id": 2751248042,
      "amenity": "restaurant",
      "cuisine": "barbecue",
      "phone": "(956) 781-8888",
      "addr_state": "TX",
      "addr_city": "Pharr",
      "addr_postcode": "78577",
      "addr_street": "West Nolana Loop",
      "addr_housenumber": "209"
    },
    {
      "id": 67168,
      "geometry": "POINT (-97.498046 25.980277)",
      "poi_name": "Pizza Hut",
      "osm_id": 11225977935,
      "amenity": "restaurant",
      "cuisine": "pizza"
    },
    {
      "id": 55139,
      "geometry": "POINT (-97.823777 26.157551)",
      "poi_name": "Los Amigos Restaurant",
      "osm_id": 10173428349,
      "amenity": "restaurant",
      "opening_hours": "Mo-Fr 07:00-19:00, Sa-Su 07:00-15:00",
      "website": "https://losamigosrestaurant-laferia.com",
      "phone": "956-797-5465",
      "addr_state": "TX",
      "addr_city": "La Feria",
      "addr_postcode": "78559",
      "addr_street": "South Main Street",
      "addr_housenumber": "105"
    },
    {
      "id": 61394,
      "geometry": "POINT (-97.695734 26.192311)",
      "poi_name": "City Coffee Shop",
      "osm_id": 5516912512,
      "amenity": "restaurant",
      "cuisine": "tex-mex",
      "phone": "+1-956-423-2992",
      "outdoor_seating": "no",
      "addr_state": "TX",
      "addr_city": "Harlingen",
      "addr_postcode": "78550",
      "addr_street": "South 1st Street",
      "addr_housenumber": "112"
    },
    {
      "id": 66490,
      "geometry": "POINT (-97.506124 25.962419)",
      "poi_name": "Toscafino Ristorante",
      "osm_id": 11196584530,
      "amenity": "restaurant",
      "phone": "956-574-9888",
      "addr_state": "TX",
      "addr_city": "Brownsville",
      "addr_postcode": "78526",
      "addr_street": "Pablo Kisel Boulevard",
      "addr_housenumber": "3001"
    },
    {
      "id": 79585,
      "geometry": "POINT (-97.437055 26.06955)",
      "poi_name": "Bobz World",
      "osm_id": 815330419,
      "amenity": "restaurant"
    },
    {
      "id": 74360,
      "geometry": "POINT (-97.489559 25.923757)",
      "poi_name": "The Oyster Bar ll",
      "osm_id": 9677647584,
      "amenity": "restaurant",
      "opening_hours": "Mo-Sa 11:30-21:00, Su 11:30-19:00",
      "website": "https://theoysterbartootx.com",
      "phone": "+1-956-542-9511",
      "addr_state": "TX",
      "addr_city": "Brownsville",
      "addr_postcode": "78521",
      "addr_street": "153 Paredes Line Rd",
      "addr_housenumber": "153"
    },
    {
      "id": 79504,
      "geometry": "POINT (-97.168852 26.10164)",
      "poi_name": "Louie's Backyard",
      "osm_id": 809131345,
      "amenity": "restaurant"
    },
    {
      "id": 72991,
      "geometry": "POINT (-97.220514 26.071023)",
      "poi_name": "Isabel's Cafe",
      "osm_id": 9600930330,
      "amenity": "restaurant",
      "cuisine": "mexican"
    },
    {
      "id": 76383,
      "geometry": "POINT (-98.196222 26.120182)",
      "poi_name": "Big G Grocery & Meat Market",
      "osm_id": 9775221088,
      "amenity": "restaurant",
      "cuisine": "buffet",
      "opening_hours": "Mo-Sa 06:00-22:00, Su 06:00-21:00",
      "website": "https://bigggrocerytx.com",
      "phone": "956-702-7002",
      "addr_state": "TX",
      "addr_city": "Pharr",
      "addr_postcode": "78577",
      "addr_street": "7709 S Cage Blvd"
    },
    {
      "id": 79467,
      "geometry": "POINT (-97.168399 26.097279)",
      "poi_name": "Palm Street Pier",
      "osm_id": 807337984,
      "amenity": "restaurant"
    },
    {
      "id": 83750,
      "geometry": "POINT (-97.486673 25.922299)",
      "poi_name": "Pizza Hut",
      "osm_id": 1763884040,
      "amenity": "restaurant",
      "cuisine": "pizza",
      "operator": "Yum! Brands"
    },
    {
      "id": 97367,
      "geometry": "POINT (-97.694984 26.190856)",
      "poi_name": "Frankie Flav'z",
      "osm_id": 6475925592,
      "amenity": "restaurant",
      "cuisine": "burger",
      "addr_state": "TX",
      "addr_city": "Harlingen",
      "addr_postcode": "78550",
      "addr_street": "East Harrison Avenue",
      "addr_housenumber": "115"
    },
    {
      "id": 87269,
      "geometry": "POINT (-97.206611 26.078394)",
      "poi_name": "Pirate's Landing",
      "osm_id": 8703012496,
      "amenity": "restaurant",
      "cuisine": "seafood"
    },
    {
      "id": 87270,
      "geometry": "POINT (-97.207606 26.078173)",
      "poi_name": "The Burger Shack & Beer Garden",
      "osm_id": 8703016469,
      "amenity": "restaurant",
      "cuisine": "burger;beer"
    },
    {
      "id": 87271,
      "geometry": "POINT (-97.20513 26.077139)",
      "poi_name": "Dirty Al's at Pelican Station",
      "osm_id": 8703016700,
      "amenity": "restaurant",
      "cuisine": "seafood"
    },
    {
      "id": 87277,
      "geometry": "POINT (-97.209391 26.077002)",
      "poi_name": "Joe's Oyster Bar",
      "osm_id": 8703565755,
      "amenity": "restaurant",
      "cuisine": "seafood"
    },
    {
      "id": 87278,
      "geometry": "POINT (-97.208567 26.077075)",
      "poi_name": "Los Cabos",
      "osm_id": 8703565803,
      "amenity": "restaurant",
      "cuisine": "mexican"
    },
    {
      "id": 87279,
      "geometry": "POINT (-97.211837 26.074488)",
      "poi_name": "El Buen Pescador",
      "osm_id": 8703566403,
      "amenity": "restaurant",
      "cuisine": "mexican"
    },
    {
      "id": 87280,
      "geometry": "POINT (-97.213179 26.073852)",
      "poi_name": "Mexiquito",
      "osm_id": 8703566448,
      "amenity": "restaurant",
      "cuisine": "mexican"
    },
    {
      "id": 87282,
      "geometry": "POINT (-97.214372 26.07406)",
      "poi_name": "White Sands Restaurant & Bar",
      "osm_id": 8703566541,
      "amenity": "restaurant"
    },
    {
      "id": 87286,
      "geometry": "POINT (-97.202811 26.072316)",
      "poi_name": "El Papa's",
      "osm_id": 8703694670,
      "amenity": "restaurant",
      "cuisine": "mexican"
    },
    {
      "id": 87287,
      "geometry": "POINT (-97.202252 26.072377)",
      "poi_name": "La Bahia Restaurant and Bar",
      "osm_id": 8703694672,
      "amenity": "restaurant",
      "cuisine": "seafood"
    },
    {
      "id": 88150,
      "geometry": "POINT (-97.755349 26.188725)",
      "poi_name": "Exotic Berry Frozen Yogurt",
      "osm_id": 8768615543,
      "amenity": "restaurant",
      "cuisine": "frozen_yogurt",
      "opening_hours": "Mo-Su 10:30-23:00",
      "phone": "(956) 230-8518",
      "addr_state": "TX",
      "addr_city": "Harlingen",
      "addr_postcode": "78552",
      "addr_street": "W Expy 83",
      "addr_housenumber": "6704"
    },
    {
      "id": 97368,
      "geometry": "POINT (-97.695733 26.1913)",
      "poi_name": "Colletti's Italian Restaurant",
      "osm_id": 6475926051,
      "amenity": "restaurant",
      "cuisine": "italian",
      "website": "https://collettis.net/home.html",
      "phone": "+1-956-423-3140",
      "addr_state": "TX",
      "addr_city": "Harlingen",
      "addr_postcode": "78550",
      "addr_street": "South 1st Street",
      "addr_housenumber": "202"
    },
    {
      "id": 98959,
      "geometry": "POINT (-98.048823 26.169777)",
      "poi_name": "Pizza Hut",
      "osm_id": 6536154139,
      "amenity": "restaurant",
      "cuisine": "pizza"
    },
    {
      "id": 100479,
      "geometry": "POINT (-97.171157 26.128906)",
      "poi_name": "Ted's Restaurant",
      "osm_id": 6588860281,
      "amenity": "restaurant",
      "description": "vegetarian friendly",
      "addr_street": "5717 Padre Blvd"
    },
    {
      "id": 100481,
      "geometry": "POINT (-97.169662 26.103947)",
      "poi_name": "The Painted Marlin",
      "osm_id": 6588909352,
      "amenity": "restaurant",
      "description": "Seafood, American (Traditional)",
      "addr_street": "West Whiting Street, South Padre Island",
      "addr_housenumber": "202"
    },
    {
      "id": 100482,
      "geometry": "POINT (-97.207897 26.077353)",
      "poi_name": "Marcello's",
      "osm_id": 6589009470,
      "amenity": "restaurant",
      "description": "ocean grille & spirits fresh coastal cuisine Italian Restaurant",
      "addr_street": "110 North Tarnava Street, Port Isabel, TX 78578"
    },
    {
      "id": 100483,
      "geometry": "POINT (-97.226387 26.072805)",
      "poi_name": "Los Tortugos Restaurant",
      "osm_id": 6589026253,
      "amenity": "restaurant",
      "description": "new address 2022\nMr Cuevas and his wife, proprietors. Fried shrimp dinners, such as ceviche, and spicy shrimp cocktails, to go. Buy fresh shrimp to cook at home. \u00a0 gluten free options",
      "opening_hours": "Mo-Su 08:00-20:00",
      "addr_street": "318 E Queen Isabella Blvd, Port Isabel, TX 78578"
    },
    {
      "id": 100484,
      "geometry": "POINT (-97.205169 26.077233)",
      "poi_name": "Pelican Station",
      "osm_id": 6589033950,
      "amenity": "restaurant",
      "description": "overlooking the water \non Laguna Madre (West Bay)",
      "addr_street": "201 South Garcia Street, Port Isabel"
    },
    {
      "id": 104995,
      "geometry": "POINT (-97.161125 26.077788)",
      "poi_name": "Shrimp Haus",
      "osm_id": 8593962400,
      "amenity": "restaurant",
      "cuisine": "seafood"
    },
    {
      "id": 106409,
      "geometry": "POINT (-97.16784 26.102384)",
      "poi_name": "D Pizza Restaurant",
      "osm_id": 8678182389,
      "amenity": "restaurant",
      "cuisine": "pizza"
    },
    {
      "id": 106411,
      "geometry": "POINT (-97.168935 26.107163)",
      "poi_name": "F&B",
      "osm_id": 8678207010,
      "amenity": "restaurant",
      "cuisine": "steak_house;seafood"
    },
    {
      "id": 106414,
      "geometry": "POINT (-97.168335 26.10803)",
      "poi_name": "Tom and Jerry's",
      "osm_id": 8678207232,
      "amenity": "restaurant",
      "cuisine": "burger"
    },
    {
      "id": 106417,
      "geometry": "POINT (-97.1692 26.108534)",
      "poi_name": "Chilitto Pikin",
      "osm_id": 8678264882,
      "amenity": "restaurant",
      "cuisine": "mexican"
    },
    {
      "id": 106418,
      "geometry": "POINT (-97.169275 26.109633)",
      "poi_name": "Josephine\u2019s Kitchen",
      "osm_id": 8678264916,
      "amenity": "restaurant"
    },
    {
      "id": 106419,
      "geometry": "POINT (-97.169863 26.114204)",
      "poi_name": "PadreRita Grill",
      "osm_id": 8678314773,
      "amenity": "restaurant"
    },
    {
      "id": 130075,
      "geometry": "POINT (-97.486458 25.903069)",
      "poi_name": "Taquer\u00eda La Bravo",
      "osm_id": 9854061158,
      "amenity": "restaurant",
      "phone": "+1-956-550-8430"
    },
    {
      "id": 128951,
      "geometry": "POINT (-97.163916 26.090042)",
      "poi_name": "Gabriella\u2019s",
      "osm_id": 8199449167,
      "amenity": "restaurant",
      "cuisine": "italian",
      "description": "Italian Grill and Pizzeria",
      "opening_hours": "Fr,Sa 16:00-23:00; Su-Th 16:00-22:00; PH off",
      "website": "https://www.gabriellasspi.com/",
      "phone": "+1-956-761-6111",
      "outdoor_seating": "terrace",
      "addr_state": "TX",
      "addr_city": "South Padre Island",
      "addr_postcode": "78597",
      "addr_street": "Padre Boulevard",
      "addr_housenumber": "700"
    },
    {
      "id": 132890,
      "geometry": "POINT (-98.228414 26.188245)",
      "poi_name": "Poncho's",
      "osm_id": 9970640884,
      "amenity": "restaurant",
      "description": "live music, karaoke",
      "website": "https://www.ponchosrestaurant.com/",
      "phone": "+1-956-630-2237",
      "addr_street": "601 W Expressway 83,. McAllen, TX 78501.",
      "addr_housenumber": "601"
    },
    {
      "id": 138351,
      "geometry": "POINT (-98.28744 26.198098)",
      "poi_name": "Gorditas Do\u00f1a Tota",
      "osm_id": 6143294888,
      "amenity": "restaurant",
      "cuisine": "mexican",
      "website": "http://www.donatotargv.com/index.html",
      "phone": "+1-956-584-8930",
      "addr_state": "TX",
      "addr_city": "Mission",
      "addr_postcode": "78572",
      "addr_street": "South Shary Road",
      "addr_housenumber": "201"
    },
    {
      "id": 136949,
      "geometry": "POINT (-98.280562 26.196467)",
      "poi_name": "Cicis",
      "osm_id": 6077380427,
      "amenity": "restaurant",
      "cuisine": "pizza;buffet",
      "phone": "+1-956-600-7719",
      "outdoor_seating": "no",
      "addr_state": "TX",
      "addr_city": "Mission",
      "addr_postcode": "78572",
      "addr_street": "East Expressway 83",
      "addr_housenumber": "2521"
    },
    {
      "id": 137393,
      "geometry": "POINT (-98.28453 26.19612)",
      "poi_name": "Taqueria El Zarape",
      "osm_id": 6096985717,
      "amenity": "restaurant",
      "phone": "+1-956-584-3444",
      "addr_state": "TX",
      "addr_city": "Mission",
      "addr_postcode": "78572",
      "addr_street": "East Expressway 83",
      "addr_housenumber": "2423"
    },
    {
      "id": 138352,
      "geometry": "POINT (-98.287474 26.197876)",
      "poi_name": "El Tizoncito",
      "osm_id": 6143294920,
      "amenity": "restaurant",
      "cuisine": "mexican",
      "website": "https://www.eltizoncito.com.mx/",
      "phone": "+1-956-424-6688",
      "addr_state": "TX",
      "addr_city": "Mission",
      "addr_postcode": "78572",
      "addr_street": "South Shary Road",
      "addr_housenumber": "201"
    },
    {
      "id": 142235,
      "geometry": "POINT (-98.213868 26.239916)",
      "poi_name": "Gatti's Pizza",
      "osm_id": 6307336383,
      "amenity": "restaurant",
      "cuisine": "pizza",
      "phone": "+1-956-687-1537",
      "outdoor_seating": "no",
      "addr_state": "TX",
      "addr_city": "McAllen",
      "addr_postcode": "78504",
      "addr_street": "North Colonel Rowe Boulevard",
      "addr_housenumber": "4100"
    },
    {
      "id": 139217,
      "geometry": "POINT (-98.285105 26.193516)",
      "poi_name": "Mariscos El 7 Mares",
      "osm_id": 6187276129,
      "amenity": "restaurant",
      "cuisine": "seafood;mexican",
      "phone": "+1-956-581-4234",
      "outdoor_seating": "no",
      "addr_state": "TX",
      "addr_city": "Mission",
      "addr_postcode": "78572",
      "addr_street": "East Expressway 83",
      "addr_housenumber": "2301"
    },
    {
      "id": 138434,
      "geometry": "POINT (-98.230782 26.195161)",
      "poi_name": "Taqueria El Zarape",
      "osm_id": 6149205616,
      "amenity": "restaurant",
      "cuisine": "mexican",
      "phone": "+1-956-994-8833",
      "outdoor_seating": "no",
      "addr_state": "TX",
      "addr_city": "McAllen",
      "addr_postcode": "78501",
      "addr_street": "South 10th Street",
      "addr_housenumber": "901"
    },
    {
      "id": 142236,
      "geometry": "POINT (-98.214088 26.239309)",
      "poi_name": "Jason's Deli",
      "osm_id": 6307336384,
      "amenity": "restaurant",
      "cuisine": "sandwich",
      "phone": "+1-956-664-2199",
      "addr_state": "TX",
      "addr_city": "McAllen",
      "addr_postcode": "78504",
      "addr_street": "North Colonel Rowe Boulevard",
      "addr_housenumber": "4100"
    },
    {
      "id": 146079,
      "geometry": "POINT (-98.169922 26.302165)",
      "poi_name": "Canes Chichen",
      "osm_id": 7411206415,
      "amenity": "restaurant",
      "cuisine": "chicken",
      "opening_hours": "Mo-Su 10:00-22:00",
      "addr_state": "TX",
      "addr_city": "Edinburg",
      "addr_postcode": "78539",
      "addr_street": "4 st",
      "addr_housenumber": "123"
    },
    {
      "id": 143038,
      "geometry": "POINT (-98.260778 26.219357)",
      "poi_name": "Wingstop",
      "osm_id": 6328180723,
      "amenity": "restaurant",
      "cuisine": "wings",
      "addr_state": "TX",
      "addr_city": "McAllen",
      "addr_postcode": "78501",
      "addr_street": "Pecan Boulevard",
      "addr_housenumber": "3721"
    },
    {
      "id": 186284,
      "geometry": "POINT (-98.223356 26.24783)",
      "poi_name": "Luby's",
      "osm_id": 7924501520,
      "amenity": "restaurant",
      "cuisine": "american",
      "opening_hours": "11:00-19:00",
      "website": "https://www.lubys.com/mcallen-north-10th-st",
      "phone": "+1-956-687-9568",
      "addr_state": "TX",
      "addr_city": "McAllen",
      "addr_postcode": "78504",
      "addr_street": "North 10th Street",
      "addr_housenumber": "4901"
    },
    {
      "id": 162826,
      "geometry": "POINT (-97.718442 26.180646)",
      "poi_name": "Cicis",
      "osm_id": 4943206838,
      "amenity": "restaurant",
      "cuisine": "pizza;buffet"
    },
    {
      "id": 162941,
      "geometry": "POINT (-97.494246 25.900304)",
      "poi_name": "Sushi Bento",
      "osm_id": 9390779444,
      "amenity": "restaurant",
      "cuisine": "sushi"
    },
    {
      "id": 181565,
      "geometry": "POINT (-97.163905 26.08998)",
      "poi_name": "Yummies Bistro",
      "osm_id": 10856329537,
      "amenity": "restaurant",
      "addr_state": "TX",
      "addr_city": "South Padre Island",
      "addr_postcode": "78597",
      "addr_street": "Padre Boulevard",
      "addr_housenumber": "700"
    },
    {
      "id": 184344,
      "geometry": "POINT (-97.681252 26.199248)",
      "poi_name": "Frankie Flav'z",
      "osm_id": 7782679991,
      "amenity": "restaurant",
      "cuisine": "burger",
      "website": "https://frankieflavz.com/",
      "phone": "+1-956-230-5050",
      "addr_state": "TX",
      "addr_city": "Harlingen",
      "addr_postcode": "78550",
      "addr_street": "North 77 Sunshine Strip",
      "addr_housenumber": "711"
    },
    {
      "id": 202424,
      "geometry": "POINT (-98.336888 26.20419)",
      "poi_name": "Mia Familia Cafe ",
      "osm_id": 7024181773,
      "amenity": "restaurant",
      "description": "Mexican food"
    },
    {
      "id": 195730,
      "geometry": "POINT (-98.21124 26.238477)",
      "poi_name": "London Grill",
      "osm_id": 10381464910,
      "amenity": "restaurant"
    },
    {
      "id": 207033,
      "geometry": "POINT (-98.224952 26.239925)",
      "poi_name": "Cowboy Chicken",
      "osm_id": 7236236387,
      "amenity": "restaurant",
      "cuisine": "chicken",
      "website": "https://www.cowboychicken.com",
      "phone": "+1-956-686-7777",
      "addr_state": "TX",
      "addr_city": "McAllen",
      "addr_postcode": "78504",
      "addr_street": "West Nolana Avenue",
      "addr_housenumber": "1020"
    },
    {
      "id": 203413,
      "geometry": "POINT (-98.279548 26.195049)",
      "poi_name": "Kobe",
      "osm_id": 7085446942,
      "amenity": "restaurant",
      "cuisine": "sushi;japanese",
      "addr_state": "TX",
      "addr_city": "McAllen",
      "addr_postcode": "78503",
      "addr_street": "West Expressway 83",
      "addr_housenumber": "5025"
    },
    {
      "id": 207035,
      "geometry": "POINT (-98.224462 26.241052)",
      "poi_name": "Solo Empanadas",
      "osm_id": 7236236395,
      "amenity": "restaurant",
      "phone": "+1-956-686-1555",
      "addr_state": "TX",
      "addr_city": "McAllen",
      "addr_postcode": "78504",
      "addr_street": "North 10th Street",
      "addr_housenumber": "4109"
    },
    {
      "id": 209076,
      "geometry": "POINT (-98.166268 26.261634)",
      "poi_name": "Texas Roadhouse",
      "osm_id": 5021366159,
      "amenity": "restaurant",
      "cuisine": "steak_house"
    },
    {
      "id": 214057,
      "geometry": "POINT (-97.678956 26.195342)",
      "poi_name": "Peter Piper Pizza",
      "osm_id": 5264806910,
      "amenity": "restaurant",
      "cuisine": "pizza"
    },
    {
      "id": 210519,
      "geometry": "POINT (-98.010314 26.171604)",
      "poi_name": "Luby's",
      "osm_id": 5107977680,
      "amenity": "restaurant"
    },
    {
      "id": 228536,
      "geometry": "POINT (-98.123449 26.180839)",
      "poi_name": "The Original Willie's Bar-B-Q",
      "osm_id": 4347976166,
      "amenity": "restaurant",
      "cuisine": "barbecue",
      "addr_city": "Alamo",
      "addr_postcode": "78516",
      "addr_street": "S Alamo Rd",
      "addr_housenumber": "320"
    },
    {
      "id": 214379,
      "geometry": "POINT (-97.714319 26.185418)",
      "poi_name": "Pho #1",
      "osm_id": 5270549781,
      "amenity": "restaurant",
      "cuisine": "vietnamese;thai"
    },
    {
      "id": 217535,
      "geometry": "POINT (-98.181715 26.205353)",
      "poi_name": "Dairy Queen",
      "osm_id": 9230664367,
      "amenity": "restaurant"
    },
    {
      "id": 217537,
      "geometry": "POINT (-98.184451 26.19461)",
      "poi_name": "Church's Texas Chicken",
      "osm_id": 9230670368,
      "amenity": "restaurant"
    },
    {
      "id": 217538,
      "geometry": "POINT (-98.186475 26.173838)",
      "poi_name": "Peter Piper Pizza",
      "osm_id": 9230673816,
      "amenity": "restaurant"
    },
    {
      "id": 217540,
      "geometry": "POINT (-98.186591 26.176147)",
      "poi_name": "IHOP",
      "osm_id": 9230675503,
      "amenity": "restaurant"
    },
    {
      "id": 217544,
      "geometry": "POINT (-98.208124 26.189974)",
      "poi_name": "Texas Roadhouse",
      "osm_id": 9230705305,
      "amenity": "restaurant",
      "cuisine": "steak_house"
    },
    {
      "id": 217545,
      "geometry": "POINT (-98.214656 26.132477)",
      "poi_name": "Taquer\u00eda la Herradura",
      "osm_id": 9230722837,
      "amenity": "restaurant"
    },
    {
      "id": 217546,
      "geometry": "POINT (-98.186358 26.177515)",
      "poi_name": "Popeyes",
      "osm_id": 9230722838,
      "amenity": "restaurant"
    },
    {
      "id": 218264,
      "geometry": "POINT (-98.111907 26.182394)",
      "poi_name": "The Landmark on Tower",
      "osm_id": 9270630191,
      "amenity": "restaurant",
      "opening_hours": "Mo closed, Tu-Th,Su 18:00-22:00, Fr-Sa 18:00-24:00",
      "website": "https://www.landmarkontower.com/",
      "addr_state": "TX",
      "addr_city": "Alamo",
      "addr_postcode": "78577",
      "addr_street": "N Tower",
      "addr_housenumber": "103"
    },
    {
      "id": 240374,
      "geometry": "POINT (-98.217779 26.270056)",
      "poi_name": "Nuri Tacos",
      "osm_id": 5970580102,
      "amenity": "restaurant",
      "addr_state": "TX",
      "addr_city": "McAllen",
      "addr_postcode": "78504",
      "addr_street": "North 10th Street",
      "addr_housenumber": "7600"
    },
    {
      "id": 232666,
      "geometry": "POINT (-97.505899 25.88412)",
      "poi_name": "La traviata Restaurante",
      "osm_id": 4538156998,
      "amenity": "restaurant",
      "cuisine": "italian",
      "opening_hours": "Mo-Su 08:00-22:00",
      "website": "https://www.facebook.com/traviatarestaurante/",
      "phone": "52 868 812 5122",
      "addr_city": "Matamoros",
      "addr_postcode": "87300",
      "addr_street": "7",
      "addr_housenumber": "107"
    },
    {
      "id": 233012,
      "geometry": "POINT (-98.181797 26.204841)",
      "poi_name": "Muelle 37",
      "osm_id": 4553841995,
      "amenity": "restaurant",
      "website": "https://muelle37.com/",
      "phone": "+1-956-961-4421",
      "addr_state": "TX",
      "addr_city": "Pharr",
      "addr_postcode": "78577",
      "addr_street": "North Cage Boulevard",
      "addr_housenumber": "1000"
    },
    {
      "id": 238141,
      "geometry": "POINT (-98.258069 26.195674)",
      "poi_name": "Chuck E. Cheese",
      "osm_id": 5863887101,
      "amenity": "restaurant",
      "cuisine": "pizza",
      "leisure": "amusement_arcade",
      "website": "https://locations.chuckecheese.com/us/tx/mcallen/3300-expressway-83",
      "addr_state": "TX",
      "addr_city": "McAllen",
      "addr_postcode": "78501",
      "addr_street": "Expressway 83",
      "addr_housenumber": "3300"
    },
    {
      "id": 238153,
      "geometry": "POINT (-98.259499 26.19643)",
      "poi_name": "La Costa Grill",
      "osm_id": 5864267353,
      "amenity": "restaurant",
      "phone": "+1-956-630-9928",
      "addr_state": "TX",
      "addr_city": "McAllen",
      "addr_postcode": "78501",
      "addr_street": "Expressway 83",
      "addr_housenumber": "3300"
    },
    {
      "id": 237197,
      "geometry": "POINT (-97.709892 26.190908)",
      "poi_name": "Blanquita's Mexican Restaurant #3",
      "osm_id": 5821659179,
      "amenity": "restaurant",
      "cuisine": "mexican",
      "website": "https://blanquitasrestaurant.com/",
      "phone": "+1-956-230-1414",
      "addr_state": "TX",
      "addr_city": "Harlingen",
      "addr_postcode": "78550",
      "addr_street": "West Harrison Avenue",
      "addr_housenumber": "1302"
    },
    {
      "id": 238181,
      "geometry": "POINT (-98.201221 26.203523)",
      "poi_name": "Grand China Buffet",
      "osm_id": 5865884968,
      "amenity": "restaurant",
      "cuisine": "chinese;buffet",
      "addr_state": "TX",
      "addr_city": "Pharr",
      "addr_postcode": "78577",
      "addr_street": "North Jackson Road",
      "addr_housenumber": "500"
    },
    {
      "id": 238203,
      "geometry": "POINT (-98.259184 26.197478)",
      "poi_name": "Kumori Sushi & Teppanyaki",
      "osm_id": 5866529882,
      "amenity": "restaurant",
      "cuisine": "sushi",
      "addr_state": "TX",
      "addr_city": "McAllen",
      "addr_postcode": "78501",
      "addr_street": "Expressway 83",
      "addr_housenumber": "3300"
    },
    {
      "id": 238204,
      "geometry": "POINT (-98.259149 26.197432)",
      "poi_name": "Johnny Rockets",
      "osm_id": 5866529883,
      "amenity": "restaurant",
      "cuisine": "burger",
      "addr_state": "TX",
      "addr_city": "McAllen",
      "addr_postcode": "78501",
      "addr_street": "Expressway 83",
      "addr_housenumber": "3300"
    },
    {
      "id": 238205,
      "geometry": "POINT (-98.259522 26.197647)",
      "poi_name": "El Callejon Delos Milagros",
      "osm_id": 5866529886,
      "amenity": "restaurant",
      "cuisine": "mexican",
      "addr_state": "TX",
      "addr_city": "McAllen",
      "addr_postcode": "78501",
      "addr_street": "Expressway 83",
      "addr_housenumber": "3300"
    },
    {
      "id": 238206,
      "geometry": "POINT (-98.259312 26.197605)",
      "poi_name": "Tapioca Rush",
      "osm_id": 5866530185,
      "amenity": "restaurant",
      "addr_state": "TX",
      "addr_city": "McAllen",
      "addr_postcode": "78501",
      "addr_street": "Expressway 83",
      "addr_housenumber": "3300"
    },
    {
      "id": 238719,
      "geometry": "POINT (-97.51349 25.915017)",
      "poi_name": "Tortilleria San Juanita",
      "osm_id": 5892395337,
      "amenity": "restaurant",
      "cuisine": "mexican",
      "opening_hours": "Mo-Fr 07:00-16:00, Sa-Su 07:00-14:00",
      "website": "https://www.tortilleriasanjuanita.com/",
      "phone": "+1-956-574-0152",
      "addr_state": "TX",
      "addr_city": "Brownsville",
      "addr_postcode": "78520",
      "addr_street": "W Elizabeth St",
      "addr_housenumber": "855"
    },
    {
      "id": 241527,
      "geometry": "POINT (-98.205342 26.194496)",
      "poi_name": "Texadelphia",
      "osm_id": 6027992161,
      "amenity": "restaurant",
      "cuisine": "sandwich",
      "opening_hours": "Su-Th 11:00-21:00; Fr-Sa 11:00-22:00",
      "phone": "+1-956-627-6714",
      "drive_through": "yes",
      "addr_state": "TX",
      "addr_city": "McAllen",
      "addr_postcode": "78503",
      "addr_street": "East Expressway 83",
      "addr_housenumber": "1400"
    },
    {
      "id": 241467,
      "geometry": "POINT (-98.207002 26.193133)",
      "poi_name": "Jason's Deli",
      "osm_id": 6025888189,
      "amenity": "restaurant",
      "cuisine": "sandwich",
      "opening_hours": "Mo-Su 07:00-22:00",
      "phone": "+1-956-664-1700",
      "outdoor_seating": "no",
      "addr_state": "TX",
      "addr_city": "McAllen",
      "addr_postcode": "78503",
      "addr_street": "East Expressway 83",
      "addr_housenumber": "1308"
    },
    {
      "id": 241632,
      "geometry": "POINT (-98.217716 26.272744)",
      "poi_name": "LePeep",
      "osm_id": 6033186873,
      "amenity": "restaurant",
      "cuisine": "breakfast;brunch",
      "website": "http://www.lepeepmcallen.com/",
      "phone": "+1-956-661-9200",
      "addr_state": "TX",
      "addr_city": "McAllen",
      "addr_postcode": "78504",
      "addr_street": "North 10th Street",
      "addr_housenumber": "7700"
    },
    {
      "id": 242810,
      "geometry": "POINT (-97.511284 25.969078)",
      "poi_name": "Asian Buffet",
      "osm_id": 7599301934,
      "amenity": "restaurant",
      "cuisine": "asian",
      "phone": "+1-956-350-8288",
      "addr_state": "TX",
      "addr_city": "Brownsville",
      "addr_postcode": "78526",
      "addr_street": "Morrison Road",
      "addr_housenumber": "251"
    },
    {
      "id": 242813,
      "geometry": "POINT (-98.315037 26.25727)",
      "poi_name": "Applebee's",
      "osm_id": 7600495737,
      "amenity": "restaurant",
      "cuisine": "american",
      "opening_hours": "Su-Th 11:00-24:00; Fr,Sa 11:00-01:00",
      "website": "https://www.applebees.com/en/restaurants-palmhurst-tx/306-e-mile-3-rd-7834",
      "internet_access": "wlan",
      "phone": "+1-956-519-4572",
      "takeaway": "yes",
      "official_name": "Applebee's Neighborhood Grill & Bar",
      "outdoor_seating": "yes",
      "delivery": "yes",
      "addr_state": "TX",
      "addr_city": "Palmhurst",
      "addr_postcode": "78573",
      "addr_street": "East Mile 3 Road",
      "addr_housenumber": "306"
    },
    {
      "id": 243449,
      "geometry": "POINT (-97.477945 25.923008)",
      "poi_name": "Buffet City",
      "osm_id": 7650227844,
      "amenity": "restaurant",
      "cuisine": "buffet",
      "phone": "+1-956-550-8888",
      "addr_state": "TX",
      "addr_city": "Brownsville",
      "addr_postcode": "78521",
      "addr_street": "Boca Chica Boulevard",
      "addr_housenumber": "2921"
    },
    {
      "id": 243812,
      "geometry": "POINT (-98.325996 26.202269)",
      "poi_name": "Villa del Mar",
      "osm_id": 7680929713,
      "amenity": "restaurant",
      "cuisine": "seafood",
      "opening_hours": "11:00-21:00",
      "website": "https://www.carnesymariscosvilladelmar.com/",
      "phone": "+1-800-315-8455",
      "addr_state": "TX",
      "addr_city": "Mission",
      "addr_postcode": "78572",
      "addr_street": "East Expressway 83",
      "addr_housenumber": "103"
    }
  ],
  "answer_type": "name",
  "question_entities": {
    "[1]": {
      "main_category": "amenity",
      "sub_category": "restaurant"
    },
    "[2]": {
      "distance": 110000,
      "text": "110 kilometers"
    },
    "[3]": {
      "main_category": "leisure",
      "sub_category": "stadium",
      "display_name": "Plaza Sports Center, Edinburg, TX",
      "geo_wkt": "POINT (-98.166433 26.232776)",
      "poi": {
        "id": 248451,
        "geometry": "POINT (-98.166433 26.232776)",
        "poi_name": "Plaza Sports Center",
        "osm_id": 4161977645,
        "leisure": "stadium",
        "sport": "soccer",
        "addr_state": "TX",
        "addr_city": "Edinburg",
        "addr_postcode": "78577",
        "addr_street": "E. Nolana Loop",
        "addr_housenumber": "1101"
      }
    }
  },
  "id": 802,
  "type": "range+name"
}