{
  "question": "Could you track down a takeout restaurant and is conveniently situated within 170 kilometers from Central Florida Zoo & Botanical Gardens, Sanford, FL?",
  "sql": "SELECT * FROM pois\nWHERE ST_DWithin(pois.geometry, ST_GeomFromText('POINT (-81.314867 28.825462)',4326)::geography, 170000)\nAND amenity = 'restaurant'\nAND takeaway ILIKE '%yes%';\n",
  "answers": [
    {
      "id": 28123,
      "geometry": "POINT (-81.78668 28.823589)",
      "poi_name": "Ichiban Chinese & Japanese Buffet",
      "osm_id": 469063830,
      "amenity": "restaurant",
      "cuisine": "asian",
      "wheelchair": "yes",
      "opening_hours": "Mo-Su 11:00-21:30",
      "website": "https://www.ichibanchinesejapanesebuffet.com/",
      "phone": "+1-352-728-6669",
      "takeaway": "yes",
      "delivery": "yes",
      "addr_state": "FL",
      "addr_city": "Leesburg",
      "addr_postcode": "34788",
      "addr_street": "US 441 (FL)",
      "addr_housenumber": "10301"
    },
    {
      "id": 28473,
      "geometry": "POINT (-82.52279 27.944562)",
      "poi_name": "Gogo's Greek Grill",
      "osm_id": 485248533,
      "amenity": "restaurant",
      "cuisine": "greek",
      "website": "www.gogosgreekgrill.com",
      "internet_access": "wlan",
      "phone": "813 289-4646",
      "takeaway": "yes",
      "outdoor_seating": "yes",
      "addr_state": "FL",
      "addr_city": "Tampa",
      "addr_postcode": "33609",
      "addr_street": "West Kennedy Boulevard",
      "addr_housenumber": "4616"
    },
    {
      "id": 32510,
      "geometry": "POINT (-82.561127 28.521624)",
      "poi_name": "Kirin China grill",
      "osm_id": 2627782901,
      "amenity": "restaurant",
      "cuisine": "chinese",
      "wheelchair": "yes",
      "opening_hours": "Tu-Su 11:00-21:30; Fr,Sa 11:00-22:00",
      "website": "https://kirinfl.com/",
      "phone": "352.596.7465",
      "takeaway": "yes",
      "outdoor_seating": "no",
      "delivery": "no",
      "addr_city": "Spring Hill",
      "addr_postcode": "34613",
      "addr_street": "Cortez Blvd",
      "addr_housenumber": "9970"
    },
    {
      "id": 35079,
      "geometry": "POINT (-82.690941 27.990686)",
      "poi_name": "Brady's Backyard BBQ",
      "osm_id": 2710088982,
      "amenity": "restaurant",
      "cuisine": "barbecue",
      "takeaway": "yes",
      "outdoor_seating": "yes",
      "addr_city": "Safety Harbor",
      "addr_street": "Main Street",
      "addr_housenumber": "340"
    },
    {
      "id": 35549,
      "geometry": "POINT (-82.273092 27.893203)",
      "poi_name": "Ling Express",
      "osm_id": 2724398015,
      "amenity": "restaurant",
      "cuisine": "chinese",
      "opening_hours": "Mo-Su 11:00-22:00",
      "website": "https://www.lingexpressbrandon.com/",
      "phone": "+1 (813) 661-8433",
      "takeaway": "yes",
      "delivery": "yes",
      "addr_state": "FL",
      "addr_city": "Brandon",
      "addr_postcode": "33511",
      "addr_street": "East Bloomingdale Avenue",
      "addr_housenumber": "803"
    },
    {
      "id": 36564,
      "geometry": "POINT (-82.592692 28.043186)",
      "poi_name": "Burger 21",
      "osm_id": 2770532797,
      "amenity": "restaurant",
      "cuisine": "burger",
      "opening_hours": "11:00-10:00",
      "takeaway": "yes",
      "delivery": "no",
      "addr_state": "FL",
      "addr_city": "Tampa",
      "addr_postcode": "33626",
      "addr_street": "West Linebaugh Avenue",
      "addr_housenumber": "9664"
    },
    {
      "id": 38672,
      "geometry": "POINT (-82.52696 27.909011)",
      "poi_name": "Dead Bob's Kitchen and Kocktails",
      "osm_id": 2875527801,
      "amenity": "restaurant",
      "cuisine": "american",
      "website": "https://deadbobsstpete.com/",
      "phone": "(727) 317-2627",
      "takeaway": "yes",
      "outdoor_seating": "yes",
      "delivery": "no",
      "addr_city": "Tampa",
      "addr_street": "South West Shore Boulevard",
      "addr_housenumber": "3861"
    },
    {
      "id": 44924,
      "geometry": "POINT (-81.600491 28.339469)",
      "poi_name": "Outback Steakhouse",
      "osm_id": 3182704244,
      "amenity": "restaurant",
      "cuisine": "american;steak",
      "wheelchair": "yes",
      "opening_hours": "Mo-Su 11:00-23:00",
      "website": "https://locations.outback.com/florida/kissimmee/7804-west-irlo-bronson-highway",
      "internet_access": "wlan",
      "phone": "+1 407-396-0017",
      "takeaway": "yes",
      "outdoor_seating": "yes",
      "addr_state": "FL",
      "addr_city": "Kissimmee",
      "addr_postcode": "34747",
      "addr_street": "West Irlo Bronson Memorial Highway",
      "addr_housenumber": "7804"
    },
    {
      "id": 46974,
      "geometry": "POINT (-82.483056 27.929249)",
      "poi_name": "Fresh Kitchen",
      "osm_id": 3301683861,
      "amenity": "restaurant",
      "cuisine": "international",
      "takeaway": "yes",
      "outdoor_seating": "yes",
      "addr_city": "Tampa",
      "addr_postcode": "33606",
      "addr_street": "South Howard Avenue",
      "addr_housenumber": "1350"
    },
    {
      "id": 47845,
      "geometry": "POINT (-82.521109 27.966158)",
      "poi_name": "The Cheesecake Factory",
      "osm_id": 3353159855,
      "amenity": "restaurant",
      "cuisine": "american",
      "wheelchair": "yes",
      "internet_access": "no",
      "takeaway": "yes",
      "outdoor_seating": "yes",
      "delivery": "no",
      "addr_state": "FL",
      "addr_city": "Tampa",
      "addr_postcode": "33607",
      "addr_street": "North West Shore Boulevard",
      "addr_housenumber": "2223"
    },
    {
      "id": 48937,
      "geometry": "POINT (-82.441897 27.960398)",
      "poi_name": "Carne Chop House",
      "osm_id": 3408501631,
      "amenity": "restaurant",
      "cuisine": "latin_american",
      "phone": "+1 813-345-9555",
      "takeaway": "yes",
      "outdoor_seating": "no",
      "delivery": "no",
      "addr_city": "Tampa",
      "addr_street": "East 7th Avenue",
      "addr_housenumber": "1536"
    },
    {
      "id": 48997,
      "geometry": "POINT (-81.350449 28.595019)",
      "poi_name": "Park Avenue Pizza",
      "osm_id": 3411832839,
      "amenity": "restaurant",
      "cuisine": "pizza",
      "phone": "+1 407 599 9199",
      "takeaway": "yes",
      "delivery": "yes",
      "addr_state": "FL",
      "addr_city": "Winter Park",
      "addr_postcode": "32789",
      "addr_street": "E. Lyman Avenue",
      "addr_housenumber": "119"
    },
    {
      "id": 50802,
      "geometry": "POINT (-81.630355 28.344965)",
      "poi_name": "Boardwalk Brothers Wings & Burgers",
      "osm_id": 3507806254,
      "amenity": "restaurant",
      "cuisine": "burger",
      "takeaway": "yes",
      "delivery": "yes",
      "addr_state": "FL",
      "addr_city": "Kissimmee",
      "addr_postcode": "34747",
      "addr_street": "Bronson Highway",
      "addr_housenumber": "8546"
    },
    {
      "id": 32903,
      "geometry": "POINT (-82.440301 27.960755)",
      "poi_name": "Rasoi",
      "osm_id": 2641143739,
      "amenity": "restaurant",
      "cuisine": "indian",
      "opening_hours": "11:30-14:30; Mo-Th 17:00-22:00; Fr-Sa 17:00-22:30; Su 17:00-21:30",
      "website": "https://www.rasoitampa.com/",
      "takeaway": "yes",
      "outdoor_seating": "yes",
      "toilets": "yes",
      "addr_state": "FL",
      "addr_city": "Tampa",
      "addr_postcode": "33605",
      "addr_street": "East 8th Avenue",
      "addr_housenumber": "1701"
    },
    {
      "id": 54015,
      "geometry": "POINT (-82.43971 27.960377)",
      "poi_name": "Due Amici",
      "osm_id": 10111743055,
      "amenity": "restaurant",
      "cuisine": "pizza;italian",
      "wheelchair": "yes",
      "opening_hours": "11:00-03:00",
      "website": "https://dueamiciybor.com/",
      "takeaway": "yes",
      "outdoor_seating": "no",
      "toilets": "yes",
      "addr_state": "FL",
      "addr_city": "Tampa",
      "addr_postcode": "33605",
      "addr_street": "East 7th Avenue",
      "addr_housenumber": "1724"
    },
    {
      "id": 55564,
      "geometry": "POINT (-82.568982 27.984674)",
      "poi_name": "Biriyani Bowl",
      "osm_id": 10198035056,
      "amenity": "restaurant",
      "cuisine": "indian",
      "opening_hours": "Mo-Su 08:00-12:00, 18:00-23:00",
      "website": "https://www.biriyanibowltampa.com/",
      "takeaway": "yes",
      "delivery": "yes",
      "addr_state": "FL",
      "addr_city": "Tampa",
      "addr_postcode": "33615",
      "addr_street": "Memorial Highway",
      "addr_housenumber": "5833"
    },
    {
      "id": 55566,
      "geometry": "POINT (-82.56931 27.985002)",
      "poi_name": "Bella Columbia",
      "osm_id": 10198035059,
      "amenity": "restaurant",
      "cuisine": "colombian",
      "opening_hours": "Mo, We-Th 09:00-19:00; Fr-Sa 09:00-20:00; Su 09:30-18:00",
      "website": "https://www.bellacolombia.getsauce.com/",
      "phone": "+1 (813) 923-2859",
      "takeaway": "yes",
      "delivery": "yes",
      "addr_state": "FL",
      "addr_city": "Tampa",
      "addr_postcode": "33615",
      "addr_street": "Memorial Highway",
      "addr_housenumber": "5835"
    },
    {
      "id": 57360,
      "geometry": "POINT (-81.591586 28.479024)",
      "poi_name": "Loop Cafe",
      "osm_id": 5334306478,
      "amenity": "restaurant",
      "takeaway": "yes",
      "addr_state": "FL",
      "addr_city": "Windermere",
      "addr_postcode": "34786",
      "addr_street": "Bridgewater Crossings Boulevard",
      "addr_housenumber": "13790"
    },
    {
      "id": 58466,
      "geometry": "POINT (-81.207119 28.626776)",
      "poi_name": "Peppino's Ristorante Italiano",
      "osm_id": 5377233878,
      "amenity": "restaurant",
      "cuisine": "italian;pizza",
      "website": "http://www.peppinositaliano.com/",
      "phone": "+1 407-365-4774",
      "takeaway": "yes",
      "delivery": "yes",
      "addr_state": "FL",
      "addr_city": "Oviedo",
      "addr_postcode": "32765",
      "addr_street": "Carrigan Avenue",
      "addr_housenumber": "100"
    },
    {
      "id": 55521,
      "geometry": "POINT (-82.215369 27.842055)",
      "poi_name": "Amici's Pizza & Pasta",
      "osm_id": 10196399209,
      "amenity": "restaurant",
      "cuisine": "pizza;pasta;sandwich;salad",
      "opening_hours": "Mo,We-Fr 11:00-21:00; Sa-Su 12:00-21:00",
      "website": "http://amicispizzapasta.com/",
      "phone": "+1 813 6431222",
      "takeaway": "yes",
      "delivery": "yes",
      "addr_state": "FL",
      "addr_city": "Lithia",
      "addr_postcode": "33547",
      "addr_street": "Churchview Drive",
      "addr_housenumber": "16132"
    },
    {
      "id": 55522,
      "geometry": "POINT (-82.214789 27.841904)",
      "poi_name": "Cherry's Bar & Grill",
      "osm_id": 10196399210,
      "amenity": "restaurant",
      "cuisine": "american",
      "website": "https://www.cherrysrestaurants.com/",
      "phone": "+1 813 3248912",
      "takeaway": "yes",
      "addr_state": "FL",
      "addr_city": "Lithia",
      "addr_postcode": "33547",
      "addr_street": "Churchview Drive",
      "addr_housenumber": "16144"
    },
    {
      "id": 79647,
      "geometry": "POINT (-82.429328 28.071904)",
      "poi_name": "Happi Wok",
      "osm_id": 821348111,
      "amenity": "restaurant",
      "cuisine": "chinese",
      "opening_hours": "Mo-Th 11:00-22:00; Fr-Sa 11:00-23:00; Su 12:00-22:00",
      "website": "https://www.happiwokfl.com/",
      "phone": "+1-813-971-8559",
      "takeaway": "yes",
      "outdoor_seating": "no",
      "delivery": "no",
      "addr_state": "FL",
      "addr_city": "Tampa",
      "addr_postcode": "33613",
      "addr_street": "University Plaza",
      "addr_housenumber": "13606"
    },
    {
      "id": 58873,
      "geometry": "POINT (-82.551162 28.724365)",
      "poi_name": "China Gourmet",
      "osm_id": 5401226517,
      "amenity": "restaurant",
      "cuisine": "chinese",
      "website": "https://chinagourmethomosassa.com/",
      "takeaway": "yes",
      "outdoor_seating": "no",
      "delivery": "no",
      "addr_state": "FL",
      "addr_city": "Homosassa",
      "addr_postcode": "34446",
      "addr_street": "Suncoast Boulevard",
      "addr_housenumber": "9435"
    },
    {
      "id": 62409,
      "geometry": "POINT (-82.350802 28.187237)",
      "poi_name": "Fresh Healthy Caf\u00e9",
      "osm_id": 5567555986,
      "amenity": "restaurant",
      "wheelchair": "yes",
      "website": "https://freshrestaurants.com/",
      "phone": "+1 813 973 3578",
      "takeaway": "yes",
      "addr_state": "FL",
      "addr_city": "Wesley Chapel",
      "addr_postcode": "33544",
      "addr_street": "Paseo Drive",
      "addr_housenumber": "28139"
    },
    {
      "id": 71422,
      "geometry": "POINT (-81.37513 28.512522)",
      "poi_name": "CAVA",
      "osm_id": 11390121669,
      "amenity": "restaurant",
      "opening_hours": "Mo-Su 10:45-13:00",
      "website": "https://cava.com/locations/sodo-fl",
      "phone": "(689) 698-4113",
      "takeaway": "yes",
      "addr_city": "Orlando",
      "addr_postcode": "32806",
      "addr_street": "236 E Michigan Street"
    },
    {
      "id": 76688,
      "geometry": "POINT (-82.322042 27.940511)",
      "poi_name": "Mahana Fresh",
      "osm_id": 9787404928,
      "amenity": "restaurant",
      "website": "https://www.mahanafresh.com/",
      "takeaway": "yes",
      "addr_state": "FL",
      "addr_city": "Brandon",
      "addr_postcode": "33511",
      "addr_street": "West Brandon Boulevard",
      "addr_housenumber": "2420"
    },
    {
      "id": 81346,
      "geometry": "POINT (-82.501517 28.029327)",
      "poi_name": "Iavarone's Steak House & Italian Grill",
      "osm_id": 1628870098,
      "amenity": "restaurant",
      "cuisine": "italian",
      "wheelchair": "yes",
      "opening_hours": "Tu-Su 11:00-22:00",
      "website": "https://iavaronessteakhouse.com/",
      "internet_access": "no",
      "phone": "+1-813-932-5241",
      "takeaway": "yes",
      "outdoor_seating": "yes",
      "delivery": "no",
      "addr_state": "FL",
      "addr_city": "Tampa",
      "addr_postcode": "33614",
      "addr_street": "West Humphrey Street",
      "addr_housenumber": "3617"
    },
    {
      "id": 81851,
      "geometry": "POINT (-80.798927 28.563312)",
      "poi_name": "El Leoncito",
      "osm_id": 1668185240,
      "amenity": "restaurant",
      "cuisine": "mexican;cuban",
      "description": "Mexican & Cuban Restaurant",
      "opening_hours": "Mo-Th,Su 11:00-21:30; Fr-Sa 11:00-22:00",
      "website": "https://elleoncito.com",
      "phone": "+1 321 267 1159",
      "takeaway": "yes",
      "delivery": "yes",
      "addr_state": "FL",
      "addr_city": "Titusville",
      "addr_postcode": "32780",
      "addr_street": "Washington Avenue",
      "addr_housenumber": "4280"
    },
    {
      "id": 82975,
      "geometry": "POINT (-82.72204 27.961208)",
      "poi_name": "Pattaya Thai",
      "osm_id": 1723545077,
      "amenity": "restaurant",
      "cuisine": "thai",
      "internet_access": "no",
      "phone": "+1-727-797-1069",
      "takeaway": "yes",
      "outdoor_seating": "no",
      "delivery": "no",
      "addr_state": "FL",
      "addr_city": "Clearwater",
      "addr_postcode": "33759",
      "addr_street": "Gulf to Bay Blvd",
      "addr_housenumber": "2794-2"
    },
    {
      "id": 82927,
      "geometry": "POINT (-82.503585 28.006608)",
      "poi_name": "Westshore Pizza",
      "osm_id": 1720885236,
      "amenity": "restaurant",
      "cuisine": "pizza",
      "takeaway": "yes",
      "delivery": "yes",
      "addr_state": "FL",
      "addr_city": "Tampa",
      "addr_postcode": "33614",
      "addr_street": "West Lambright Street",
      "addr_housenumber": "3742"
    },
    {
      "id": 83924,
      "geometry": "POINT (-82.769176 28.01894)",
      "poi_name": "Country Boy Family Restaurant",
      "osm_id": 1770946876,
      "amenity": "restaurant",
      "cuisine": "american",
      "takeaway": "yes",
      "outdoor_seating": "no",
      "addr_state": "FL",
      "addr_city": "Clearwater",
      "addr_postcode": "34698",
      "addr_street": "Lake Haven Rd"
    },
    {
      "id": 83276,
      "geometry": "POINT (-82.68429 27.892961)",
      "poi_name": "Little Greek",
      "osm_id": 1736831313,
      "amenity": "restaurant",
      "cuisine": "mediterranean",
      "phone": "+1 727 556 0120",
      "takeaway": "yes",
      "outdoor_seating": "yes",
      "addr_state": "FL",
      "addr_city": "Clearwater",
      "addr_postcode": "33762",
      "addr_street": "Ulmerton Rd, Suite 107",
      "addr_housenumber": "3700"
    },
    {
      "id": 83776,
      "geometry": "POINT (-82.74439 27.960046)",
      "poi_name": "McCabe's",
      "osm_id": 1766544550,
      "amenity": "restaurant",
      "cuisine": "american",
      "takeaway": "yes",
      "outdoor_seating": "no",
      "addr_state": "FL",
      "addr_city": "Clearwater",
      "addr_postcode": "33765",
      "addr_street": "Gulf to Bay Boulevard",
      "addr_housenumber": "2233"
    },
    {
      "id": 83777,
      "geometry": "POINT (-82.74277 27.960849)",
      "poi_name": "Mirage",
      "osm_id": 1766549648,
      "amenity": "restaurant",
      "cuisine": "persian",
      "website": "https://www.miragerestaurant.com/",
      "internet_access": "no",
      "phone": "+1-727-724-3604",
      "takeaway": "yes",
      "outdoor_seating": "yes",
      "addr_state": "FL",
      "addr_city": "Clearwater",
      "addr_postcode": "33759",
      "addr_street": "Gulf to Bay Boulevard",
      "addr_housenumber": "2284"
    },
    {
      "id": 83902,
      "geometry": "POINT (-82.451881 27.939802)",
      "poi_name": "Cafe Dufrain",
      "osm_id": 1770173651,
      "amenity": "restaurant",
      "cuisine": "american",
      "internet_access": "wlan",
      "takeaway": "yes",
      "outdoor_seating": "yes",
      "addr_state": "FL",
      "addr_city": "Tampa",
      "addr_postcode": "33602",
      "addr_street": "Harbour Post Dr"
    },
    {
      "id": 83903,
      "geometry": "POINT (-82.451468 27.939963)",
      "poi_name": "Watervue Grille",
      "osm_id": 1770173844,
      "amenity": "restaurant",
      "cuisine": "american",
      "opening_hours": "8-4PM, 5-10PM",
      "website": "http://watervuegrille.com/",
      "internet_access": "wlan",
      "phone": "+1 813-642-7980",
      "takeaway": "yes",
      "outdoor_seating": "yes",
      "addr_state": "FL",
      "addr_city": "Tampa",
      "addr_postcode": "33602",
      "addr_street": "Harbour Post Dr",
      "addr_housenumber": "700"
    },
    {
      "id": 83804,
      "geometry": "POINT (-82.7118 28.011818)",
      "poi_name": "Beef O'Brady's",
      "osm_id": 1768121251,
      "amenity": "restaurant",
      "cuisine": "american",
      "takeaway": "yes",
      "outdoor_seating": "no",
      "addr_state": "FL",
      "addr_city": "Clearwater",
      "addr_postcode": "33759",
      "addr_street": "Enterprise Rd"
    },
    {
      "id": 83806,
      "geometry": "POINT (-82.711806 28.011621)",
      "poi_name": "Rodie's Restaurant & Pancake House",
      "osm_id": 1768130951,
      "amenity": "restaurant",
      "cuisine": "american",
      "takeaway": "yes",
      "outdoor_seating": "no",
      "addr_state": "FL",
      "addr_city": "Clearwater",
      "addr_postcode": "33759",
      "addr_street": "McMullen Booth Road",
      "addr_housenumber": "2471"
    },
    {
      "id": 83807,
      "geometry": "POINT (-82.710846 28.011337)",
      "poi_name": "Ocean Blue Sushi",
      "osm_id": 1768132845,
      "amenity": "restaurant",
      "cuisine": "sushi",
      "takeaway": "yes",
      "outdoor_seating": "no",
      "addr_state": "FL",
      "addr_city": "Safety Harbor",
      "addr_postcode": "33759",
      "addr_street": "N McMullen Booth Rd",
      "addr_housenumber": "2475"
    },
    {
      "id": 83808,
      "geometry": "POINT (-82.727977 27.991133)",
      "poi_name": "Varsity Club",
      "osm_id": 1768135540,
      "amenity": "restaurant",
      "cuisine": "american",
      "internet_access": "no",
      "takeaway": "yes",
      "outdoor_seating": "no",
      "addr_state": "FL",
      "addr_city": "Clearwater",
      "addr_postcode": "33763",
      "addr_street": "US Highway 19 N",
      "addr_housenumber": "24145"
    },
    {
      "id": 83810,
      "geometry": "POINT (-82.711447 28.012571)",
      "poi_name": "China Taste",
      "osm_id": 1768172005,
      "amenity": "restaurant",
      "cuisine": "chinese",
      "takeaway": "yes",
      "outdoor_seating": "no",
      "addr_state": "FL",
      "addr_city": "Clearwater",
      "addr_postcode": "33759",
      "addr_street": "Enterprise Rd E"
    },
    {
      "id": 85050,
      "geometry": "POINT (-82.60871 28.010231)",
      "poi_name": "Cody's Roadhouse",
      "osm_id": 1834793952,
      "amenity": "restaurant",
      "cuisine": "american",
      "takeaway": "yes",
      "outdoor_seating": "yes",
      "addr_state": "FL",
      "addr_city": "Tampa",
      "addr_postcode": "33635",
      "addr_street": "West Hillsborough Avenue"
    },
    {
      "id": 83811,
      "geometry": "POINT (-82.7115 28.011322)",
      "poi_name": "Thai Spice",
      "osm_id": 1768174003,
      "amenity": "restaurant",
      "cuisine": "thai",
      "takeaway": "yes",
      "outdoor_seating": "no",
      "addr_state": "FL",
      "addr_city": "Clearwater",
      "addr_postcode": "33759",
      "addr_street": "N McMullen Booth Rd",
      "addr_housenumber": "2475"
    },
    {
      "id": 83812,
      "geometry": "POINT (-82.711294 28.011328)",
      "poi_name": "Pico Rojo",
      "osm_id": 1768175120,
      "amenity": "restaurant",
      "cuisine": "latin_american",
      "wheelchair": "yes",
      "website": "https://www.picorojo.com",
      "internet_access": "wlan",
      "phone": "727.474.3826",
      "takeaway": "yes",
      "outdoor_seating": "yes",
      "delivery": "no",
      "addr_state": "FL",
      "addr_city": "Clearwater",
      "addr_postcode": "33759",
      "addr_street": "McMullen Booth Road",
      "addr_housenumber": "2475"
    },
    {
      "id": 83813,
      "geometry": "POINT (-82.710959 28.011328)",
      "poi_name": "Laziz",
      "osm_id": 1768175320,
      "amenity": "restaurant",
      "cuisine": "indian",
      "takeaway": "yes",
      "outdoor_seating": "no",
      "addr_state": "FL",
      "addr_city": "Safety Harbor",
      "addr_postcode": "33759",
      "addr_street": "McMullen Booth Road",
      "addr_housenumber": "2475"
    },
    {
      "id": 83814,
      "geometry": "POINT (-82.710176 28.011214)",
      "poi_name": "Westshore Pizza",
      "osm_id": 1768176488,
      "amenity": "restaurant",
      "cuisine": "pizza",
      "takeaway": "yes",
      "outdoor_seating": "yes",
      "addr_state": "FL",
      "addr_city": "Safety Harbor",
      "addr_postcode": "33759",
      "addr_street": "N McMullen Booth Rd",
      "addr_housenumber": "2475"
    },
    {
      "id": 84804,
      "geometry": "POINT (-82.640316 27.87369)",
      "poi_name": "Skyway Jacks",
      "osm_id": 1817835850,
      "amenity": "restaurant",
      "cuisine": "diner",
      "internet_access": "wlan",
      "takeaway": "yes",
      "outdoor_seating": "yes",
      "addr_state": "FL",
      "addr_city": "Saint Petersburg",
      "addr_postcode": "33716",
      "addr_street": "4th Street North",
      "addr_housenumber": "11140"
    },
    {
      "id": 84805,
      "geometry": "POINT (-82.64017 27.874593)",
      "poi_name": "Cody's Roadhouse",
      "osm_id": 1817903442,
      "amenity": "restaurant",
      "cuisine": "american",
      "takeaway": "yes",
      "outdoor_seating": "no",
      "addr_state": "FL",
      "addr_city": "Saint Petersburg",
      "addr_postcode": "33716",
      "addr_street": "112th Avenue"
    },
    {
      "id": 84810,
      "geometry": "POINT (-82.640133 27.87256)",
      "poi_name": "Sushi Zen",
      "osm_id": 1818233651,
      "amenity": "restaurant",
      "cuisine": "sushi",
      "takeaway": "yes",
      "outdoor_seating": "no",
      "addr_state": "FL",
      "addr_city": "Saint Petersburg",
      "addr_postcode": "33716",
      "addr_street": "Saint Petersburg"
    },
    {
      "id": 84811,
      "geometry": "POINT (-82.640081 27.872518)",
      "poi_name": "China Fun",
      "osm_id": 1818234951,
      "amenity": "restaurant",
      "cuisine": "chinese",
      "takeaway": "yes",
      "outdoor_seating": "no",
      "addr_state": "FL",
      "addr_city": "Saint Petersburg",
      "addr_postcode": "33716",
      "addr_street": "4th Street North"
    },
    {
      "id": 84812,
      "geometry": "POINT (-82.639482 27.872403)",
      "poi_name": "Goodfellas Pizza & Wings",
      "osm_id": 1818238241,
      "amenity": "restaurant",
      "cuisine": "pizza",
      "takeaway": "yes",
      "outdoor_seating": "no",
      "addr_state": "FL",
      "addr_city": "Saint Petersburg",
      "addr_postcode": "33716",
      "addr_street": "4th Street North",
      "addr_housenumber": "11002"
    },
    {
      "id": 84813,
      "geometry": "POINT (-82.640171 27.874446)",
      "poi_name": "Thai Wok",
      "osm_id": 1818246472,
      "amenity": "restaurant",
      "cuisine": "thai",
      "takeaway": "yes",
      "outdoor_seating": "no",
      "addr_state": "FL",
      "addr_city": "Saint Petersburg",
      "addr_postcode": "33716",
      "addr_street": "112th Avenue"
    },
    {
      "id": 85112,
      "geometry": "POINT (-82.455324 27.947947)",
      "poi_name": "Oriental Express",
      "osm_id": 1837128071,
      "amenity": "restaurant",
      "cuisine": "chinese",
      "internet_access": "wlan",
      "takeaway": "yes",
      "outdoor_seating": "no",
      "addr_state": "FL",
      "addr_city": "Tampa",
      "addr_postcode": "33602",
      "addr_street": "Jackson Street"
    },
    {
      "id": 85004,
      "geometry": "POINT (-82.654933 28.035201)",
      "poi_name": "Suegra Tequila Cantina",
      "osm_id": 1832713470,
      "amenity": "restaurant",
      "cuisine": "mexican",
      "opening_hours": "Mo-Th 13:00-22:00;Fr-Sa 13:00-23:00;Su 17:00-21:00",
      "website": "https://suegratequilacantina.com/",
      "internet_access": "wlan",
      "phone": "+1 (813) 814-5800",
      "takeaway": "yes",
      "outdoor_seating": "yes",
      "addr_state": "FL",
      "addr_city": "Oldsmar",
      "addr_postcode": "34677",
      "addr_street": "Tampa Rd"
    },
    {
      "id": 85005,
      "geometry": "POINT (-82.654563 28.035124)",
      "poi_name": "Buffalo Wild Wings",
      "osm_id": 1832716971,
      "amenity": "restaurant",
      "cuisine": "wings",
      "takeaway": "yes",
      "outdoor_seating": "yes",
      "addr_state": "FL",
      "addr_city": "Oldsmar",
      "addr_postcode": "34677",
      "addr_street": "Tampa Rd",
      "addr_housenumber": "4058"
    },
    {
      "id": 85007,
      "geometry": "POINT (-82.647683 28.032287)",
      "poi_name": "Cuban Breezes",
      "osm_id": 1832725446,
      "amenity": "restaurant",
      "cuisine": "latin_american",
      "takeaway": "yes",
      "outdoor_seating": "yes",
      "addr_state": "FL",
      "addr_city": "Clearwater",
      "addr_postcode": "33635",
      "addr_street": "Race Track Road"
    },
    {
      "id": 85052,
      "geometry": "POINT (-82.578638 27.996999)",
      "poi_name": "Garden Grille",
      "osm_id": 1834813398,
      "amenity": "restaurant",
      "cuisine": "diner",
      "takeaway": "yes",
      "outdoor_seating": "no",
      "addr_state": "FL",
      "addr_city": "Tampa",
      "addr_postcode": "33635",
      "addr_street": "West Hillsborough Avenue"
    },
    {
      "id": 85053,
      "geometry": "POINT (-82.576107 27.997008)",
      "poi_name": "Lee Garden",
      "osm_id": 1834815657,
      "amenity": "restaurant",
      "cuisine": "chinese",
      "takeaway": "yes",
      "outdoor_seating": "no",
      "addr_state": "FL",
      "addr_city": "Tampa",
      "addr_postcode": "33615",
      "addr_street": "West Hillsborough Avenue"
    },
    {
      "id": 85086,
      "geometry": "POINT (-82.686824 27.894434)",
      "poi_name": "House of China",
      "osm_id": 1836070625,
      "amenity": "restaurant",
      "cuisine": "chinese",
      "takeaway": "yes",
      "outdoor_seating": "no",
      "addr_state": "FL",
      "addr_city": "Largo",
      "addr_postcode": "33762",
      "addr_street": "Ulmerton Road",
      "addr_housenumber": "3899"
    },
    {
      "id": 85088,
      "geometry": "POINT (-82.735588 27.961032)",
      "poi_name": "Oriental Super Buffet",
      "osm_id": 1836708306,
      "amenity": "restaurant",
      "cuisine": "chinese",
      "takeaway": "yes",
      "outdoor_seating": "no",
      "addr_state": "FL",
      "addr_city": "Clearwater",
      "addr_postcode": "33759",
      "addr_street": "Gulf to Bay Boulevard"
    },
    {
      "id": 85531,
      "geometry": "POINT (-82.61397 28.476468)",
      "poi_name": "Greek City Cafe",
      "osm_id": 1878597484,
      "amenity": "restaurant",
      "cuisine": "greek",
      "takeaway": "yes",
      "outdoor_seating": "yes",
      "addr_state": "FL",
      "addr_city": "Springhill",
      "addr_postcode": "34606",
      "addr_street": "Commercial Way",
      "addr_housenumber": "3125"
    },
    {
      "id": 85488,
      "geometry": "POINT (-82.642364 27.865729)",
      "poi_name": "Tijuana Flats",
      "osm_id": 1871949828,
      "amenity": "restaurant",
      "cuisine": "mexican",
      "phone": "+1 727 578 8970",
      "takeaway": "yes",
      "outdoor_seating": "no",
      "addr_state": "FL",
      "addr_city": "Saint Petersburg",
      "addr_postcode": "33716",
      "addr_street": "Roosevelt Boulevard North",
      "addr_housenumber": "10300"
    },
    {
      "id": 85489,
      "geometry": "POINT (-82.64555 27.866881)",
      "poi_name": "Estela's",
      "osm_id": 1871955673,
      "amenity": "restaurant",
      "cuisine": "mexican",
      "takeaway": "yes",
      "outdoor_seating": "yes",
      "addr_state": "FL",
      "addr_city": "Saint Petersburg",
      "addr_postcode": "33716",
      "addr_street": "Roosevelt Boulevard North"
    },
    {
      "id": 85491,
      "geometry": "POINT (-82.669411 27.894425)",
      "poi_name": "Lonni's",
      "osm_id": 1871977754,
      "amenity": "restaurant",
      "cuisine": "sandwich",
      "takeaway": "yes",
      "outdoor_seating": "no",
      "addr_state": "FL",
      "addr_city": "Saint PetersburgSaint PetersburgSaint Petersburg",
      "addr_postcode": "33729",
      "addr_street": "Ulmerton Road"
    },
    {
      "id": 85570,
      "geometry": "POINT (-82.626698 28.532467)",
      "poi_name": "Upper Deck",
      "osm_id": 1881740175,
      "amenity": "restaurant",
      "cuisine": "american",
      "takeaway": "yes",
      "outdoor_seating": "yes",
      "addr_state": "FL",
      "addr_postcode": "34607",
      "addr_street": "Shoal Line Blvd"
    },
    {
      "id": 85532,
      "geometry": "POINT (-82.614484 28.475968)",
      "poi_name": "Cody's Roadhouse",
      "osm_id": 1878598069,
      "amenity": "restaurant",
      "cuisine": "steak_house",
      "takeaway": "yes",
      "outdoor_seating": "no",
      "addr_city": "Springhill",
      "addr_postcode": "34606",
      "addr_street": "Commercial Way",
      "addr_housenumber": "3101"
    },
    {
      "id": 85533,
      "geometry": "POINT (-82.615016 28.475322)",
      "poi_name": "Chili's",
      "osm_id": 1878598871,
      "amenity": "restaurant",
      "cuisine": "tex-mex",
      "opening_hours": "Mo-Su 11:00-22:00; Fr,Sa 11:00-24:00",
      "takeaway": "yes",
      "official_name": "Chili's Grill & Bar",
      "outdoor_seating": "no",
      "addr_city": "Springhill",
      "addr_postcode": "34606",
      "addr_street": "Commercial Way",
      "addr_housenumber": "3085"
    },
    {
      "id": 86710,
      "geometry": "POINT (-82.729279 27.937724)",
      "poi_name": "Nick's Cafe",
      "osm_id": 1947767751,
      "amenity": "restaurant",
      "cuisine": "russian",
      "description": "Inside Harbourside Building",
      "wheelchair": "yes",
      "internet_access": "no",
      "phone": "+1-727-400-4773",
      "takeaway": "yes",
      "outdoor_seating": "no",
      "delivery": "no",
      "addr_state": "FL",
      "addr_city": "Clearwater",
      "addr_postcode": "33764",
      "addr_street": "US 19",
      "addr_housenumber": "18167"
    },
    {
      "id": 86758,
      "geometry": "POINT (-82.734583 28.016826)",
      "poi_name": "BJ's",
      "osm_id": 1950094824,
      "amenity": "restaurant",
      "cuisine": "american",
      "takeaway": "yes",
      "official_name": "BJ's Restaurant & Brewhouse",
      "outdoor_seating": "no",
      "addr_state": "FL",
      "addr_city": "Clearwater",
      "addr_postcode": "33761",
      "addr_street": "Countryside Blvd"
    },
    {
      "id": 86781,
      "geometry": "POINT (-82.70808 28.014009)",
      "poi_name": "Bonefish Grill",
      "osm_id": 1951456968,
      "amenity": "restaurant",
      "cuisine": "seafood",
      "internet_access": "no",
      "takeaway": "yes",
      "outdoor_seating": "no",
      "addr_state": "FL",
      "addr_city": "Clearwater",
      "addr_postcode": "34695",
      "addr_street": "McMullen Booth Road"
    },
    {
      "id": 86689,
      "geometry": "POINT (-82.514535 27.996548)",
      "poi_name": "Hooters",
      "osm_id": 1945954178,
      "amenity": "restaurant",
      "cuisine": "burger",
      "takeaway": "yes",
      "outdoor_seating": "yes",
      "addr_state": "FL",
      "addr_city": "Tampa",
      "addr_postcode": "33614",
      "addr_street": "West Hillsborough Avenue"
    },
    {
      "id": 86693,
      "geometry": "POINT (-82.726645 27.958798)",
      "poi_name": "Mario's Pizza",
      "osm_id": 1946243605,
      "amenity": "restaurant",
      "cuisine": "pizza",
      "takeaway": "yes",
      "outdoor_seating": "yes",
      "addr_state": "FL",
      "addr_city": "Clearwater",
      "addr_postcode": "33759",
      "addr_street": "Gulf to Bay Boulevard"
    },
    {
      "id": 86729,
      "geometry": "POINT (-82.638302 27.854754)",
      "poi_name": "Pizza Hut",
      "osm_id": 1948230445,
      "amenity": "restaurant",
      "cuisine": "pizza",
      "takeaway": "yes",
      "drive_through": "no",
      "outdoor_seating": "no",
      "delivery": "yes",
      "addr_state": "FL",
      "addr_city": "Saint Petersburg",
      "addr_postcode": "33702",
      "addr_street": "4th Street North"
    },
    {
      "id": 86830,
      "geometry": "POINT (-82.509698 27.995568)",
      "poi_name": "Applebee's",
      "osm_id": 1953450636,
      "amenity": "restaurant",
      "cuisine": "american",
      "internet_access": "no",
      "phone": "+1-813-872-9666",
      "takeaway": "yes",
      "official_name": "Applebee's Neighborhood Grill & Bar",
      "delivery": "no",
      "addr_state": "FL",
      "addr_city": "Tampa",
      "addr_postcode": "33614",
      "addr_street": "West Hillsborough Avenue",
      "addr_housenumber": "3920"
    },
    {
      "id": 86732,
      "geometry": "POINT (-82.727379 27.960092)",
      "poi_name": "The Hungry Greek",
      "osm_id": 1948341350,
      "amenity": "restaurant",
      "cuisine": "greek",
      "wheelchair": "limited",
      "takeaway": "yes",
      "outdoor_seating": "no",
      "delivery": "no",
      "addr_state": "FL",
      "addr_city": "Clearwater",
      "addr_postcode": "33759",
      "addr_street": "Gulf to Bay Boulevard",
      "addr_housenumber": "1860"
    },
    {
      "id": 90223,
      "geometry": "POINT (-82.438129 27.960164)",
      "poi_name": "Acropolis",
      "osm_id": 1985230521,
      "amenity": "restaurant",
      "cuisine": "greek",
      "wheelchair": "yes",
      "website": "https://acropolistaverna.com/ybor-city/",
      "internet_access": "wlan",
      "takeaway": "yes",
      "outdoor_seating": "yes",
      "toilets": "yes",
      "addr_state": "FL",
      "addr_city": "Tampa",
      "addr_postcode": "33605",
      "addr_street": "East 7th Avenue",
      "addr_housenumber": "1831"
    },
    {
      "id": 90603,
      "geometry": "POINT (-82.507421 27.945162)",
      "poi_name": "Larry's Giant Subs",
      "osm_id": 2003846482,
      "amenity": "restaurant",
      "cuisine": "american",
      "takeaway": "yes",
      "addr_state": "FL",
      "addr_city": "Tampa",
      "addr_postcode": "33609",
      "addr_street": "West Kennedy Blvd",
      "addr_housenumber": "3841"
    },
    {
      "id": 92757,
      "geometry": "POINT (-82.511209 28.025062)",
      "poi_name": "S\u00f4ng Huong",
      "osm_id": 2133231284,
      "amenity": "restaurant",
      "cuisine": "vietnamese",
      "website": "songhuongrestaurant.com",
      "takeaway": "yes",
      "outdoor_seating": "no",
      "addr_city": "Tampa",
      "addr_postcode": "33614",
      "addr_street": "West Waters Avenue",
      "addr_housenumber": "4034"
    },
    {
      "id": 90798,
      "geometry": "POINT (-82.64509 27.866893)",
      "poi_name": "Yummy Thai",
      "osm_id": 2018598380,
      "amenity": "restaurant",
      "cuisine": "thai",
      "description": "BTC payment via Menufy.",
      "website": "https://www.yummythaistpete.com",
      "takeaway": "yes",
      "outdoor_seating": "no",
      "addr_state": "FL",
      "addr_city": "Saint Petersburg",
      "addr_postcode": "33716",
      "addr_street": "Roosevelt Boulevard North",
      "addr_housenumber": "10466"
    },
    {
      "id": 95978,
      "geometry": "POINT (-81.45965 28.509892)",
      "poi_name": "Pie-Fection Orlando",
      "osm_id": 6417176039,
      "amenity": "restaurant",
      "cuisine": "pizza",
      "wheelchair": "yes",
      "opening_hours": "Tu-Th 17:00-23:00; Fr-Sa 16:00-24:00; Su  17:00-23:00",
      "website": "https://piefectionorlando.com",
      "phone": "+1-407-523-2200",
      "takeaway": "yes",
      "toilets": "yes",
      "addr_state": "FL",
      "addr_city": "Orlando",
      "addr_postcode": "32811",
      "addr_street": "Kirkman Road",
      "addr_housenumber": "3120 S"
    },
    {
      "id": 92920,
      "geometry": "POINT (-81.653989 30.303668)",
      "poi_name": "Maple Street Biscuit Company",
      "osm_id": 2141537223,
      "amenity": "restaurant",
      "cuisine": "breakfast",
      "wheelchair": "yes",
      "opening_hours": "Mo-Th 07:00-14:00; Fr-Sa 07:00-14:00, 17:00-21:00",
      "takeaway": "yes",
      "outdoor_seating": "yes",
      "addr_state": "FL",
      "addr_city": "Jacksonville",
      "addr_postcode": "32207",
      "addr_street": "San Marco Blvd",
      "addr_housenumber": "2004"
    },
    {
      "id": 94421,
      "geometry": "POINT (-82.503035 27.945011)",
      "poi_name": "Lemon Grass",
      "osm_id": 2243510890,
      "amenity": "restaurant",
      "cuisine": "thai",
      "website": "https://lemongrassbestthai.biz/",
      "takeaway": "yes",
      "outdoor_seating": "yes",
      "addr_state": "FL",
      "addr_city": "Tampa",
      "addr_postcode": "33609",
      "addr_street": "West Kennedy Boulevard",
      "addr_housenumber": "3635"
    },
    {
      "id": 94209,
      "geometry": "POINT (-82.47604 27.936273)",
      "poi_name": "Wine Exchange Bistro & Wine Bar",
      "osm_id": 2213984285,
      "amenity": "restaurant",
      "cuisine": "american",
      "website": "https://www.wineexchangetampa.com/",
      "internet_access": "wlan",
      "phone": "+1 (813) 254-9463",
      "takeaway": "yes",
      "outdoor_seating": "yes",
      "delivery": "no",
      "addr_city": "Tampa",
      "addr_postcode": "33606",
      "addr_street": "W Snow Ave",
      "addr_housenumber": "1609 "
    },
    {
      "id": 94549,
      "geometry": "POINT (-82.494323 27.916728)",
      "poi_name": "Yoko's Japanese Restaurant and Sushi Bar",
      "osm_id": 2253001143,
      "amenity": "restaurant",
      "cuisine": "japanese",
      "wheelchair": "no",
      "opening_hours": "Tu-Sa 10:00-22:00",
      "internet_access": "no",
      "takeaway": "yes",
      "outdoor_seating": "yes",
      "delivery": "no",
      "addr_city": "Tampa",
      "addr_postcode": "33629",
      "addr_street": "South Macdill Avenue",
      "addr_housenumber": "3217E"
    },
    {
      "id": 94550,
      "geometry": "POINT (-82.494279 27.9168)",
      "poi_name": "Osteria Natalina",
      "osm_id": 2253006097,
      "amenity": "restaurant",
      "cuisine": "italian",
      "wheelchair": "yes",
      "opening_hours": "Tu-Sa 10:30-22:30",
      "internet_access": "no",
      "phone": "813 831 1210",
      "takeaway": "yes",
      "outdoor_seating": "no",
      "delivery": "no",
      "addr_city": "Tampa",
      "addr_postcode": "33629",
      "addr_street": "South Macdill Avenue",
      "addr_housenumber": "3215"
    },
    {
      "id": 97226,
      "geometry": "POINT (-82.806788 29.613237)",
      "poi_name": "China Ace",
      "osm_id": 6468106926,
      "amenity": "restaurant",
      "cuisine": "chinese",
      "phone": "+1-352-658-8017",
      "takeaway": "yes",
      "addr_state": "FL",
      "addr_city": "Trenton",
      "addr_postcode": "32693",
      "addr_street": "East Wade Street",
      "addr_housenumber": "1122"
    },
    {
      "id": 96589,
      "geometry": "POINT (-82.309403 27.983165)",
      "poi_name": "Munchies Pizza & Wings",
      "osm_id": 6438987611,
      "amenity": "restaurant",
      "cuisine": "pizza",
      "website": "https://www.munchiespizzaandwings.com/",
      "phone": "+1 (813) 657-5600",
      "takeaway": "yes",
      "outdoor_seating": "no",
      "delivery": "yes",
      "addr_state": "FL",
      "addr_city": "Seffner",
      "addr_postcode": "33584",
      "addr_street": "East Doctor Martin Luther King Junior Boulevard",
      "addr_housenumber": "11208"
    },
    {
      "id": 105705,
      "geometry": "POINT (-80.928024 29.022705)",
      "poi_name": "Ruthy's Kozy Kitchen",
      "osm_id": 8641426822,
      "amenity": "restaurant",
      "cuisine": "southern;breakfast",
      "opening_hours": "Mo-Su 07:00-14:00",
      "phone": "(386)423-9656",
      "takeaway": "yes",
      "addr_state": "FL",
      "addr_city": "New Smyrna Beach",
      "addr_postcode": "32168",
      "addr_street": "Canal Street",
      "addr_housenumber": "618"
    },
    {
      "id": 106960,
      "geometry": "POINT (-82.244444 28.025694)",
      "poi_name": "Dover Restaurant",
      "osm_id": 3524820654,
      "amenity": "restaurant",
      "cuisine": "chinese",
      "phone": "+1 813 986 6941",
      "takeaway": "yes",
      "addr_state": "FL",
      "addr_city": "Dover",
      "addr_postcode": "33527",
      "addr_street": "Gore Road",
      "addr_housenumber": "12904"
    },
    {
      "id": 107670,
      "geometry": "POINT (-82.085924 29.59957)",
      "poi_name": "China House",
      "osm_id": 3573553771,
      "amenity": "restaurant",
      "cuisine": "chinese",
      "phone": "+1 352 481-5099",
      "takeaway": "yes",
      "addr_state": "FL",
      "addr_city": "Hawthorne",
      "addr_postcode": "32640",
      "addr_street": "SE US HWY 301",
      "addr_housenumber": "6005"
    },
    {
      "id": 108143,
      "geometry": "POINT (-80.608999 28.353923)",
      "poi_name": "Thai Fuku",
      "osm_id": 3597530250,
      "amenity": "restaurant",
      "cuisine": "thai",
      "wheelchair": "yes",
      "website": "https://www.thaifuku-cocoabeach.com/",
      "capacity": "96",
      "internet_access": "no",
      "phone": "3216133816",
      "takeaway": "yes",
      "drive_through": "no",
      "outdoor_seating": "no",
      "delivery": "no",
      "addr_state": "FL",
      "addr_city": "Cocoa Beach",
      "addr_postcode": "32931",
      "addr_street": "North Atlantic Avenue",
      "addr_housenumber": "3800"
    },
    {
      "id": 110467,
      "geometry": "POINT (-81.357053 28.597544)",
      "poi_name": "The Coop",
      "osm_id": 3704332799,
      "amenity": "restaurant",
      "cuisine": "regional",
      "takeaway": "yes",
      "addr_state": "FL",
      "addr_city": "Winter Park",
      "addr_postcode": "32789",
      "addr_street": "Morse Boulevard",
      "addr_housenumber": "610"
    },
    {
      "id": 109694,
      "geometry": "POINT (-81.68013 30.315029)",
      "poi_name": "Corner Taco",
      "osm_id": 3669524036,
      "amenity": "restaurant",
      "cuisine": "mexican",
      "opening_hours": "Mo-Th 11:00-21:00;Fr-Sa 11:00-22:00;Su 11:00-21:00",
      "website": "https://www.cornertaco.com/",
      "phone": "(904) 240-0412",
      "takeaway": "yes",
      "delivery": "yes",
      "addr_state": "FL",
      "addr_city": "Jacksonville",
      "addr_postcode": "32204",
      "addr_street": "Post Street",
      "addr_housenumber": "818"
    },
    {
      "id": 110945,
      "geometry": "POINT (-81.826138 30.1947)",
      "poi_name": "Aspendos Italian Cuisine and Pizza",
      "osm_id": 3725077802,
      "amenity": "restaurant",
      "cuisine": "italian",
      "opening_hours": "Mo-Th 11:00-22:00, Fr-Sa 10:00-00:00, Su 11:00-23:00",
      "website": "https://www.aspendositaliancuisine.com/",
      "phone": "+1 904 738 8079",
      "takeaway": "yes",
      "delivery": "yes",
      "addr_state": "FL",
      "addr_city": "Jacksonville",
      "addr_postcode": "32222",
      "addr_street": "Argyle Forest Boulevard STE C19",
      "addr_housenumber": "9542"
    },
    {
      "id": 120659,
      "geometry": "POINT (-80.381549 27.640234)",
      "poi_name": "Chive",
      "osm_id": 6717735112,
      "amenity": "restaurant",
      "cuisine": "american",
      "opening_hours": "Mo-Sa 11:00-22:00; Su 11:00-20:00",
      "website": "https://www.chiveverobeach.com/",
      "phone": "+1-772-999-5452",
      "takeaway": "yes",
      "outdoor_seating": "yes",
      "addr_state": "FL",
      "addr_city": "Vero Beach",
      "addr_postcode": "32960",
      "addr_street": "21st Street",
      "addr_housenumber": "390"
    },
    {
      "id": 122127,
      "geometry": "POINT (-81.496905 28.450417)",
      "poi_name": "Slate",
      "osm_id": 6789337625,
      "amenity": "restaurant",
      "cuisine": "american",
      "opening_hours": "Mo-Th 16:30-22:00; Fr 16:30-23:00; Sa 11:00-15:00, 16:30-23:00; Su 11:00-15:00, 16:30-21:00",
      "website": "https://slateorlando.com",
      "phone": "+1 407-500-7528",
      "takeaway": "yes",
      "outdoor_seating": "yes",
      "toilets": "yes",
      "addr_state": "FL",
      "addr_city": "Orlando",
      "addr_postcode": "32819",
      "addr_street": "Sand Lake Road",
      "addr_housenumber": "8323 West"
    },
    {
      "id": 131544,
      "geometry": "POINT (-82.405074 28.088648)",
      "poi_name": "Sake House",
      "osm_id": 9920280705,
      "amenity": "restaurant",
      "cuisine": "sushi",
      "wheelchair": "yes",
      "opening_hours": "Mo-Fr 11:30-02:00; Sa-Su 12:30-02:00",
      "internet_access": "wlan",
      "takeaway": "yes",
      "outdoor_seating": "yes",
      "toilets": "yes",
      "addr_state": "FL",
      "addr_city": "Tampa",
      "addr_postcode": "33647",
      "addr_street": "Amberly Drive",
      "addr_housenumber": "15311"
    },
    {
      "id": 122361,
      "geometry": "POINT (-80.704647 28.23017)",
      "poi_name": "EATz",
      "osm_id": 6797841579,
      "amenity": "restaurant",
      "cuisine": "sandwich;salad",
      "opening_hours": "Mo-Sa 11:00-14:45",
      "website": "https://www.eatz-eatery.com/",
      "phone": "+1-321-426-7575",
      "takeaway": "yes",
      "addr_state": "FL",
      "addr_city": "Melbourne",
      "addr_postcode": "32940",
      "addr_street": "North Wickham Road",
      "addr_housenumber": "7965"
    },
    {
      "id": 124283,
      "geometry": "POINT (-81.229442 29.551137)",
      "poi_name": "China One",
      "osm_id": 6909418947,
      "amenity": "restaurant",
      "cuisine": "chinese",
      "opening_hours": "Su-Mo 10:30-22:00, We-Th 10:30-22:00, Fr 10:30-22:30, Sa 10:45-22:30",
      "website": "http://www.chinaonepalmcoast.chinesemenu.com/",
      "phone": "+1 386 445 7188",
      "takeaway": "yes",
      "outdoor_seating": "no",
      "addr_state": "FL",
      "addr_city": "Palm Coast",
      "addr_postcode": "32137",
      "addr_street": "Palm Coast Parkway",
      "addr_housenumber": "1220"
    },
    {
      "id": 126830,
      "geometry": "POINT (-82.345394 29.652277)",
      "poi_name": "Tijuana Flats",
      "osm_id": 8001659240,
      "amenity": "restaurant",
      "cuisine": "mexican",
      "website": "https://www.tijuanaflats.com/locations/gainesville",
      "phone": "+1-352-692-3093",
      "takeaway": "yes",
      "drive_through": "no",
      "outdoor_seating": "no",
      "addr_state": "FL",
      "addr_city": "Gainesville",
      "addr_postcode": "32603",
      "addr_street": "West University Avenue",
      "addr_housenumber": "1720"
    },
    {
      "id": 134099,
      "geometry": "POINT (-82.526649 27.865833)",
      "poi_name": "Sal's Bodega",
      "osm_id": 10030505571,
      "amenity": "restaurant",
      "cuisine": "cuban",
      "wheelchair": "yes",
      "opening_hours": "Mo-Fr 09:00-21:00;Sa 11:00-20:00;Su 10:00-20:00",
      "shop": "convenience",
      "takeaway": "yes",
      "outdoor_seating": "no",
      "toilets": "yes",
      "addr_state": "FL",
      "addr_city": "Tampa",
      "addr_postcode": "33616",
      "addr_street": "Interbay Boulevard",
      "addr_housenumber": "8612"
    },
    {
      "id": 148211,
      "geometry": "POINT (-81.268499 28.648918)",
      "poi_name": "Thia Basil",
      "osm_id": 3936724894,
      "amenity": "restaurant",
      "cuisine": "thai",
      "opening_hours": "Mo-Fr 11:00-2:30 open \"lunch\" || Mo-Th17:30-21:30 open \"Dinner\" || Fr-Sa 17:00-22:00 open \"Dinner\"; Su closed",
      "website": "https://www.thaibasil.org/",
      "phone": "+1 407-699-8889",
      "takeaway": "yes",
      "outdoor_seating": "no",
      "delivery": "no",
      "addr_state": "FL",
      "addr_city": "Winter Springs",
      "addr_postcode": "32708",
      "addr_street": "Red Bug Lake Road",
      "addr_housenumber": "5800"
    },
    {
      "id": 141754,
      "geometry": "POINT (-82.574543 28.129818)",
      "poi_name": "Three Brothers New York Pizza",
      "osm_id": 6296773193,
      "amenity": "restaurant",
      "cuisine": "pizza",
      "opening_hours": "Mo-Th 11:00-21:00; Fr-Sa 11:00-22:00; Su 12:00-20:00",
      "website": "https://www.3brothersny.com/",
      "phone": "+1 (813) 920-0007",
      "takeaway": "yes",
      "outdoor_seating": "no",
      "delivery": "yes",
      "addr_state": "FL",
      "addr_city": "Odessa",
      "addr_postcode": "33556",
      "addr_street": "Gunn Highway",
      "addr_housenumber": "17773"
    },
    {
      "id": 146330,
      "geometry": "POINT (-81.346337 28.811963)",
      "poi_name": "Tijuana Flats",
      "osm_id": 7432101090,
      "amenity": "restaurant",
      "cuisine": "mexican",
      "takeaway": "yes",
      "outdoor_seating": "yes",
      "addr_state": "FL",
      "addr_city": "Sanford",
      "addr_postcode": "32771",
      "addr_street": "FL 46",
      "addr_housenumber": "5030"
    },
    {
      "id": 147137,
      "geometry": "POINT (-81.336177 28.810495)",
      "poi_name": "IHOP",
      "osm_id": 7508856590,
      "amenity": "restaurant",
      "cuisine": "breakfast;pancake",
      "opening_hours": "Su-Th 6:00-24:00; Fr-Sa 0:00-24:00",
      "internet_access": "wlan",
      "phone": "407-688-8300",
      "takeaway": "yes",
      "outdoor_seating": "no",
      "addr_state": "FL",
      "addr_city": "Sanford",
      "addr_postcode": "32771",
      "addr_street": "South Oregon Ave",
      "addr_housenumber": "111"
    },
    {
      "id": 148224,
      "geometry": "POINT (-81.268177 28.648695)",
      "poi_name": "Carrabba's Italian Grill",
      "osm_id": 3937041695,
      "amenity": "restaurant",
      "cuisine": "italian",
      "opening_hours": "Mo-Th 11:00-22:00; Fr-Sa 11:00-23:00; Su 11:00-21:00",
      "website": "https://www.carrabbas.com/locations/fl/winter-springs-%28oviedo%29",
      "phone": "(407) 696-6600",
      "takeaway": "yes",
      "delivery": "no",
      "addr_state": "FL",
      "addr_city": "Winter Springs",
      "addr_postcode": "32708",
      "addr_street": "Red Bug Lake Road",
      "addr_housenumber": "5820"
    },
    {
      "id": 149654,
      "geometry": "POINT (-81.680545 30.312028)",
      "poi_name": "Tamarind",
      "osm_id": 4018697711,
      "amenity": "restaurant",
      "cuisine": "thai",
      "takeaway": "yes",
      "outdoor_seating": "no",
      "addr_city": "Jacksonville",
      "addr_street": "Margaret Street"
    },
    {
      "id": 153063,
      "geometry": "POINT (-82.475956 27.936296)",
      "poi_name": "Bartaco",
      "osm_id": 4175035890,
      "amenity": "restaurant",
      "cuisine": "mexican",
      "wheelchair": "yes",
      "website": "www.bartaco.con",
      "internet_access": "wlan",
      "phone": "+1-813-258-8226",
      "takeaway": "yes",
      "outdoor_seating": "yes",
      "delivery": "no",
      "addr_city": "Tampa",
      "addr_postcode": "33606",
      "addr_street": "West Snow Avenue",
      "addr_housenumber": "1601"
    },
    {
      "id": 152450,
      "geometry": "POINT (-82.259107 27.937164)",
      "poi_name": "Sushi Ushi",
      "osm_id": 4145541790,
      "amenity": "restaurant",
      "cuisine": "japanese;sushi",
      "wheelchair": "yes",
      "opening_hours": "Tu-Th 11:00-15:00, 16:00-22:00; Fr-Sa 11:00-15:00, 16:00-23:00; Su 13:30-22:00",
      "website": "https://www.sushiushivalrico.com/",
      "internet_access": "no",
      "phone": "+1 (813) 662-0728",
      "takeaway": "yes",
      "outdoor_seating": "no",
      "delivery": "no",
      "addr_state": "FL",
      "addr_city": "Valrico",
      "addr_postcode": "33594",
      "addr_street": "FL 60",
      "addr_housenumber": "1713"
    },
    {
      "id": 155885,
      "geometry": "POINT (-81.775976 30.296603)",
      "poi_name": "Tokyo Sushi and Grill",
      "osm_id": 4633840264,
      "amenity": "restaurant",
      "cuisine": "japanese;sushi",
      "takeaway": "yes",
      "outdoor_seating": "no",
      "delivery": "no",
      "addr_state": "FL",
      "addr_city": "Jacksonville",
      "addr_postcode": "32221",
      "addr_street": "Normandy Boulevard",
      "addr_housenumber": "7749"
    },
    {
      "id": 155886,
      "geometry": "POINT (-81.776305 30.296452)",
      "poi_name": "Golden China",
      "osm_id": 4633840266,
      "amenity": "restaurant",
      "cuisine": "chinese",
      "takeaway": "yes",
      "delivery": "no",
      "addr_state": "FL",
      "addr_city": "Jacksonville",
      "addr_postcode": "32221",
      "addr_street": "Normandy Blvd #109",
      "addr_housenumber": "7749"
    },
    {
      "id": 157111,
      "geometry": "POINT (-81.200376 28.601779)",
      "poi_name": "Smoke & Donuts BBQ",
      "osm_id": 4687137242,
      "amenity": "restaurant",
      "cuisine": "barbecue",
      "opening_hours": "Mo-Fr 10:30-17:00",
      "phone": "321-352-7070",
      "takeaway": "yes",
      "outdoor_seating": "no",
      "addr_state": "FL",
      "addr_city": "Orlando",
      "addr_postcode": "32816",
      "addr_street": "Pegasus Circle",
      "addr_housenumber": "12715"
    },
    {
      "id": 156515,
      "geometry": "POINT (-81.719489 30.279173)",
      "poi_name": "Metro Diner",
      "osm_id": 4661466036,
      "amenity": "restaurant",
      "cuisine": "american",
      "description": "Local diner chain serving classic American breakfast & lunch fare in a warm atmosphere.",
      "website": "https://metrodiner.com/locations/florida/ortega/",
      "phone": "+1 904-999-4600",
      "takeaway": "yes",
      "outdoor_seating": "yes",
      "delivery": "no",
      "addr_state": "FL",
      "addr_city": "Jacksonville",
      "addr_postcode": "32210",
      "addr_street": "Roosevelt Boulevard",
      "addr_housenumber": "4495"
    },
    {
      "id": 156516,
      "geometry": "POINT (-81.719005 30.279986)",
      "poi_name": "Fuji Sushi West",
      "osm_id": 4661466050,
      "amenity": "restaurant",
      "cuisine": "japanese",
      "description": "Strip-mall Japanese fixture provides sushi rolls, familiar fare & tatami seating in a warm setting.",
      "takeaway": "yes",
      "outdoor_seating": "yes",
      "delivery": "no",
      "addr_state": "FL",
      "addr_city": "Jacksonville",
      "addr_postcode": "32210",
      "addr_street": "Roosevelt Blvd #314",
      "addr_housenumber": "4495"
    },
    {
      "id": 156520,
      "geometry": "POINT (-81.718184 30.281034)",
      "poi_name": "Okinawa Japanese Grill House & Sushi Bar",
      "osm_id": 4661466803,
      "amenity": "restaurant",
      "cuisine": "japanese",
      "takeaway": "yes",
      "delivery": "no",
      "addr_state": "FL",
      "addr_city": "Jacksonville",
      "addr_postcode": "32210",
      "addr_street": "Roosevelt Blvd #105",
      "addr_housenumber": "4403"
    },
    {
      "id": 159559,
      "geometry": "POINT (-81.212906 29.547663)",
      "poi_name": "Cantina Mr. Pancho Mexican Grill",
      "osm_id": 4797416196,
      "amenity": "restaurant",
      "cuisine": "mexican",
      "description": "Authentic Mexican Cuisine",
      "opening_hours": "Mo-Th 11:00-22:00; Fr-Sa 11:00-23:00; Su 11:00-21:00",
      "website": "https://mrpanchogrill.com/",
      "phone": "+1-386-447-3026",
      "takeaway": "yes",
      "addr_state": "FL",
      "addr_city": "Palm Coast",
      "addr_postcode": "32137",
      "addr_street": "Utility Drive",
      "addr_housenumber": "5"
    },
    {
      "id": 167838,
      "geometry": "POINT (-82.453462 27.927235)",
      "poi_name": "Margarita's Mexican Restaurant",
      "osm_id": 364132331,
      "amenity": "restaurant",
      "cuisine": "mexican",
      "opening_hours": "Su-Th 10:00-22:00; Fr-Sa 10:00-23:00",
      "website": "www.margaritasmexicanrestaurant.com/",
      "phone": "+1 (813) 251-0558",
      "takeaway": "yes",
      "outdoor_seating": "yes",
      "addr_state": "FL",
      "addr_city": "Tampa",
      "addr_postcode": "33606",
      "addr_street": "East Davis Boulevard",
      "addr_housenumber": "209"
    },
    {
      "id": 162627,
      "geometry": "POINT (-80.67561 27.999542)",
      "poi_name": "Fired Up Pizza",
      "osm_id": 4936743439,
      "amenity": "restaurant",
      "cuisine": "pizza",
      "takeaway": "yes",
      "outdoor_seating": "yes",
      "delivery": "no",
      "addr_state": "FL",
      "addr_city": "Palm Bay",
      "addr_postcode": "32907",
      "addr_street": "Malabar Road Southwest",
      "addr_housenumber": "195"
    },
    {
      "id": 163209,
      "geometry": "POINT (-81.75796 27.977635)",
      "poi_name": "Eagle Lake Family Diner",
      "osm_id": 9406568420,
      "amenity": "restaurant",
      "cuisine": "american",
      "wheelchair": "yes",
      "takeaway": "yes",
      "outdoor_seating": "yes",
      "addr_state": "FL",
      "addr_city": "Eagle Lake",
      "addr_postcode": "33839",
      "addr_street": "E Lake Ave",
      "addr_housenumber": "185"
    },
    {
      "id": 164226,
      "geometry": "POINT (-82.504026 28.083411)",
      "poi_name": "Ahi Asian Bistro",
      "osm_id": 9457301722,
      "amenity": "restaurant",
      "cuisine": "japanese;sushi;thai",
      "opening_hours": "Su 12:00-21:00; Tu-Fr 12:00-21:00; Sa 12:00-22:00",
      "website": "https://www.ahiasianbistro.com/",
      "phone": "+1 813-374-5756",
      "takeaway": "yes",
      "addr_state": "FL",
      "addr_street": "North Dale Mabry Hwy",
      "addr_housenumber": "14841"
    },
    {
      "id": 161324,
      "geometry": "POINT (-80.635673 27.997019)",
      "poi_name": "Bizzarro Pizzeria",
      "osm_id": 4875841179,
      "amenity": "restaurant",
      "cuisine": "pizza",
      "takeaway": "yes",
      "drive_through": "no",
      "outdoor_seating": "no",
      "delivery": "no",
      "addr_state": "FL",
      "addr_city": "Palm Bay",
      "addr_postcode": "32907",
      "addr_street": "Malabar Road Southeast",
      "addr_housenumber": "1150"
    },
    {
      "id": 167843,
      "geometry": "POINT (-82.47379 27.962971)",
      "poi_name": "Rick's on the River",
      "osm_id": 365331683,
      "amenity": "restaurant",
      "cuisine": "seafood",
      "takeaway": "yes",
      "outdoor_seating": "yes",
      "delivery": "no",
      "toilets": "yes",
      "addr_state": "FL",
      "addr_city": "Tampa",
      "addr_postcode": "33607",
      "addr_street": "North Willow Avenue",
      "addr_housenumber": "2305"
    },
    {
      "id": 170933,
      "geometry": "POINT (-82.442503 27.960399)",
      "poi_name": "New York New York",
      "osm_id": 2352858871,
      "amenity": "restaurant",
      "cuisine": "pizza",
      "description": "Best pizza in town",
      "wheelchair": "yes",
      "opening_hours": "24/7",
      "website": "https://www.nynypizzeria.com/Ybor_City.html",
      "phone": "+1 813-248-1845",
      "takeaway": "yes",
      "outdoor_seating": "yes",
      "delivery": "yes",
      "toilets": "yes",
      "addr_state": "FL",
      "addr_city": "Tampa",
      "addr_postcode": "33605",
      "addr_street": "East 7th Avenue",
      "addr_housenumber": "1512"
    },
    {
      "id": 168157,
      "geometry": "POINT (-82.466418 27.941373)",
      "poi_name": "Pizza Hut",
      "osm_id": 366011678,
      "amenity": "restaurant",
      "cuisine": "pizza",
      "takeaway": "yes",
      "outdoor_seating": "no",
      "addr_state": "FL",
      "addr_city": "Tampa",
      "addr_postcode": "33606",
      "addr_street": "W Platt St"
    },
    {
      "id": 168331,
      "geometry": "POINT (-82.440351 27.960382)",
      "poi_name": "Bernini",
      "osm_id": 386087935,
      "amenity": "restaurant",
      "cuisine": "italian",
      "wheelchair": "limited",
      "opening_hours": "Tu-Th 11:30-22:00; Fr-Sa 11:30-23:00; Su 11:00-21:00",
      "website": "https://berniniofybor.com/",
      "takeaway": "yes",
      "outdoor_seating": "yes",
      "toilets": "yes",
      "addr_state": "FL",
      "addr_city": "Tampa",
      "addr_postcode": "33605",
      "addr_street": "East 7th Avenue",
      "addr_housenumber": "1702"
    },
    {
      "id": 170226,
      "geometry": "POINT (-82.667622 27.894656)",
      "poi_name": "Burt's Burgers n' Beers",
      "osm_id": 2329354664,
      "amenity": "restaurant",
      "cuisine": "burger",
      "phone": "+1-727-828-9905",
      "takeaway": "yes",
      "outdoor_seating": "no",
      "addr_city": "Clearwater",
      "addr_street": "Ulmerton Road",
      "addr_housenumber": "2325"
    },
    {
      "id": 168227,
      "geometry": "POINT (-82.468829 27.941949)",
      "poi_name": "Boca - Kitchen, Bar and Restaurant",
      "osm_id": 368216277,
      "amenity": "restaurant",
      "cuisine": "american",
      "opening_hours": "11:00-00:00",
      "takeaway": "yes",
      "outdoor_seating": "yes",
      "delivery": "no",
      "addr_city": "Tampa",
      "addr_street": "West Platt Street",
      "addr_housenumber": "901"
    },
    {
      "id": 168795,
      "geometry": "POINT (-82.731419 27.99128)",
      "poi_name": "Acropol Inn",
      "osm_id": 2278585361,
      "amenity": "restaurant",
      "cuisine": "greek",
      "takeaway": "yes",
      "outdoor_seating": "no",
      "addr_city": "Clearwater",
      "addr_postcode": "33765",
      "addr_street": "Sunset Point Road",
      "addr_housenumber": "2552"
    },
    {
      "id": 171314,
      "geometry": "POINT (-82.483373 27.939222)",
      "poi_name": "Koto Japanese Steakhouse",
      "osm_id": 2371402663,
      "amenity": "restaurant",
      "cuisine": "japanese",
      "opening_hours": "Mo-Fr 11:30-14:45 \"Lunch\", Mo-We 17:00-22:30 \"Dinner\", Th,Fr 17:00-23:30 \"Dinner\"; Sa 15:00-23:30 \"Dinner\"",
      "website": "https://kotosteakhouse.com/home.html",
      "internet_access": "wired",
      "phone": "+1 813 964 6808",
      "takeaway": "yes",
      "outdoor_seating": "no",
      "delivery": "no",
      "addr_city": "Tampa",
      "addr_postcode": "33606",
      "addr_street": "South Howard Avenue",
      "addr_housenumber": "533"
    },
    {
      "id": 172804,
      "geometry": "POINT (-82.71008 27.979938)",
      "poi_name": "Paul's Chicago Pizza",
      "osm_id": 2414017154,
      "amenity": "restaurant",
      "cuisine": "pizza",
      "wheelchair": "yes",
      "website": "https://www.paulschicagopizza.com/",
      "phone": "+1-727-723-9777",
      "takeaway": "yes",
      "outdoor_seating": "no",
      "delivery": "yes",
      "addr_city": "Clearwater",
      "addr_postcode": "33759",
      "addr_street": "McMullen Booth Road",
      "addr_housenumber": "1500"
    },
    {
      "id": 172829,
      "geometry": "POINT (-82.583435 28.045438)",
      "poi_name": "Applebee's",
      "osm_id": 2415502979,
      "amenity": "restaurant",
      "cuisine": "american",
      "takeaway": "yes",
      "official_name": "Applebee's Neighborhood Grill & Bar",
      "addr_state": "FL",
      "addr_city": "Tampa",
      "addr_street": "Sheldon Road"
    },
    {
      "id": 178558,
      "geometry": "POINT (-82.599264 28.494581)",
      "poi_name": "Up 4 Breakfast",
      "osm_id": 10729819207,
      "amenity": "restaurant",
      "wheelchair": "yes",
      "opening_hours": "07:00-14:00",
      "website": "https://www.up4breakfast.com/",
      "internet_access": "no",
      "phone": "+1-351-686-4186",
      "takeaway": "yes",
      "outdoor_seating": "no",
      "toilets": "yes",
      "addr_state": "FL",
      "addr_city": "Spring Hill",
      "addr_postcode": "34608",
      "addr_street": "Commercial Way",
      "addr_housenumber": "4373"
    },
    {
      "id": 177712,
      "geometry": "POINT (-82.728073 28.006928)",
      "poi_name": "Green Mint Asian Grill",
      "osm_id": 2603616054,
      "amenity": "restaurant",
      "cuisine": "vietnamese",
      "website": "https://www.greenmintasiangrill.com/",
      "phone": "+1 727 726 4608",
      "takeaway": "yes",
      "outdoor_seating": "yes",
      "addr_city": "Clearwater",
      "addr_postcode": "33763",
      "addr_street": "US Highway 19 North",
      "addr_housenumber": "25821"
    },
    {
      "id": 180323,
      "geometry": "POINT (-81.429009 28.494441)",
      "poi_name": "Naradeva Thai Restaurant",
      "osm_id": 10798155546,
      "amenity": "restaurant",
      "cuisine": "thai;asian",
      "opening_hours": "Mo-Su 11:00-21:30",
      "website": "https://naradevathai.com",
      "phone": "+1-407-903-0300",
      "takeaway": "yes",
      "outdoor_seating": "no",
      "toilets": "yes",
      "addr_state": "FL",
      "addr_city": "Orlando",
      "addr_postcode": "32839",
      "addr_street": "Millenia Plaza Way",
      "addr_housenumber": "4696"
    },
    {
      "id": 180349,
      "geometry": "POINT (-81.45268 28.55105)",
      "poi_name": "OEC Taiwanese Cuisine",
      "osm_id": 10798192670,
      "amenity": "restaurant",
      "cuisine": "asian;taiwanese",
      "wheelchair": "yes",
      "opening_hours": "Tu-Su 11:00-21:00",
      "website": "https://oectaiwanesecuisinefl.kwickmenu.com",
      "phone": "+1-407-299-4256",
      "takeaway": "yes",
      "delivery": "yes",
      "toilets": "yes",
      "addr_state": "FL",
      "addr_city": "Orlando",
      "addr_postcode": "32808",
      "addr_street": "West Colonial Drive",
      "addr_housenumber": "5270"
    },
    {
      "id": 180355,
      "geometry": "POINT (-81.398329 28.472291)",
      "poi_name": "Star Korean BBQ",
      "osm_id": 10798197977,
      "amenity": "restaurant",
      "cuisine": "korean",
      "wheelchair": "yes",
      "opening_hours": "Mo-Sa 11:30-15:00, 16:00-22:00",
      "website": "https://starkbbq.com",
      "phone": "+1-407-412-6647",
      "takeaway": "yes",
      "outdoor_seating": "yes",
      "delivery": "yes",
      "toilets": "yes",
      "addr_state": "FL",
      "addr_city": "Orlando",
      "addr_postcode": "32809",
      "addr_street": "West Oak Ridge Road",
      "addr_housenumber": "1400"
    },
    {
      "id": 180359,
      "geometry": "POINT (-81.426204 28.44293)",
      "poi_name": "Sushi Tomi",
      "osm_id": 10798226091,
      "amenity": "restaurant",
      "cuisine": "sushi;japanese",
      "opening_hours": "Mo-Fr 11:30-14:00, 17:30-21:00; Sa 17:30-21:00",
      "website": "https://sushitomiorlando.com",
      "phone": "+1-407-352-8635",
      "takeaway": "yes",
      "outdoor_seating": "no",
      "toilets": "yes",
      "addr_state": "FL",
      "addr_city": "Orlando",
      "addr_postcode": "32819",
      "addr_street": "South John Young Parkway",
      "addr_housenumber": "8463"
    },
    {
      "id": 180361,
      "geometry": "POINT (-81.395433 28.469187)",
      "poi_name": "Gully Urban Indian eatery",
      "osm_id": 10798249232,
      "amenity": "restaurant",
      "cuisine": "indian",
      "opening_hours": "Su-Th 11:30-16:00, 17:00-21:30; Fr-Sa 11:30-16:00, 17:00-22:00",
      "website": "https://gullyfl.com",
      "phone": "+1-407-986-9864",
      "takeaway": "yes",
      "toilets": "yes",
      "addr_state": "FL",
      "addr_city": "Orlando",
      "addr_postcode": "32809",
      "addr_street": "Doss Avenue",
      "addr_housenumber": "1155"
    },
    {
      "id": 180362,
      "geometry": "POINT (-81.375289 28.497433)",
      "poi_name": "The Waterfront",
      "osm_id": 10798251609,
      "amenity": "restaurant",
      "cuisine": "seafood",
      "opening_hours": "Mo-Th 07:00-22:00; Fr 07:00-23:00; Sa 11:00-23:00; Su 11:00-22:00",
      "website": "https://thewaterfrontorlando.com",
      "phone": "+1-407-866-0468",
      "takeaway": "yes",
      "delivery": "yes",
      "toilets": "yes",
      "addr_state": "FL",
      "addr_city": "Orlando",
      "addr_postcode": "32806",
      "addr_street": "South Orange Avenue",
      "addr_housenumber": "4201"
    },
    {
      "id": 184937,
      "geometry": "POINT (-82.307749 27.93734)",
      "poi_name": "Brandon Burgers",
      "osm_id": 7821439936,
      "amenity": "restaurant",
      "cuisine": "burger",
      "opening_hours": "Mo-Su 10:30-21:30",
      "website": "https://www.brandonburgers.com/",
      "phone": "+1 813 409 2095",
      "takeaway": "yes",
      "outdoor_seating": "no",
      "addr_state": "FL",
      "addr_city": "Brandon",
      "addr_postcode": "33511",
      "addr_street": "West Brandon Boulevard",
      "addr_housenumber": "1513"
    },
    {
      "id": 180368,
      "geometry": "POINT (-81.45754 28.550973)",
      "poi_name": "Formosan Garden (aka Tammy's Teriyaki House)",
      "osm_id": 10798429666,
      "amenity": "restaurant",
      "cuisine": "asian;taiwanese;bubble_tea",
      "description": "Taiwanese restaurant.",
      "wheelchair": "yes",
      "opening_hours": "Mo-Sa 11:30-20:30",
      "website": "https://facebook.com/teriyakihousefl",
      "phone": "+1-321-281-8088",
      "takeaway": "yes",
      "toilets": "yes",
      "addr_state": "FL",
      "addr_city": "Orlando",
      "addr_postcode": "32808",
      "addr_street": "West Colonial Drive",
      "addr_housenumber": "5600"
    },
    {
      "id": 180369,
      "geometry": "POINT (-81.493644 28.450556)",
      "poi_name": "Dragonfly Robata Grill & Sushi",
      "osm_id": 10798488038,
      "amenity": "restaurant",
      "cuisine": "asian",
      "description": "Contemporary izakaya tapas-style dishes, sushi, & sake.",
      "opening_hours": "Su-Th 17:00-22:00; Fr-Sa 17:00-23:00",
      "website": "https://dragonflyrestaurants.com",
      "phone": "+1-407-370-3359",
      "takeaway": "yes",
      "outdoor_seating": "yes",
      "toilets": "yes",
      "addr_state": "FL",
      "addr_city": "Orlando",
      "addr_postcode": "32819",
      "addr_street": "Via Dellagio Way",
      "addr_housenumber": "7972"
    },
    {
      "id": 184159,
      "geometry": "POINT (-81.469507 28.67232)",
      "poi_name": "Sonny's BBQ",
      "osm_id": 7775951929,
      "amenity": "restaurant",
      "cuisine": "barbecue",
      "opening_hours": "Mo-Th,Su 10:45-21:35; Fr-Sa 10:45-22:05",
      "website": "https://www.sonnysbbq.com/locations/apopka",
      "internet_access": "wlan",
      "phone": "+1 407 814 8888",
      "takeaway": "yes",
      "toilets": "yes",
      "addr_state": "FL",
      "addr_city": "Apopka",
      "addr_street": "Semoran Boulevard",
      "addr_housenumber": "2210"
    },
    {
      "id": 189220,
      "geometry": "POINT (-82.458227 27.948693)",
      "poi_name": "Taco Bus",
      "osm_id": 1219942480,
      "amenity": "restaurant",
      "cuisine": "mexican",
      "takeaway": "yes",
      "addr_state": "FL",
      "addr_city": "Tampa",
      "addr_postcode": "33602",
      "addr_street": "E Madison St"
    },
    {
      "id": 185059,
      "geometry": "POINT (-81.051394 29.189555)",
      "poi_name": "Boundless",
      "osm_id": 7830453534,
      "amenity": "restaurant",
      "takeaway": "yes",
      "outdoor_seating": "yes",
      "addr_state": "FL",
      "addr_city": "Daytona Beach",
      "addr_postcode": "32114",
      "addr_street": "Aerospace Boulevard",
      "addr_housenumber": "201"
    },
    {
      "id": 187421,
      "geometry": "POINT (-82.505263 27.93275)",
      "poi_name": "Grillsmith",
      "osm_id": 1067070641,
      "amenity": "restaurant",
      "cuisine": "american",
      "takeaway": "yes",
      "outdoor_seating": "no",
      "addr_state": "FL",
      "addr_city": "Tampa",
      "addr_postcode": "33629",
      "addr_street": "W Jetton Ave"
    },
    {
      "id": 193630,
      "geometry": "POINT (-81.485042 28.450711)",
      "poi_name": "Steak On Fire | Steak Up",
      "osm_id": 1549958534,
      "amenity": "restaurant",
      "cuisine": "brazilian;steak_house",
      "wheelchair": "yes",
      "opening_hours": "Fr-Sa 11:00-22:00; Su-Th 11:00-21:00",
      "takeaway": "yes",
      "addr_state": "FL",
      "addr_city": "Orlando",
      "addr_postcode": "32819",
      "addr_street": "West Sand Lake Road",
      "addr_housenumber": "7541"
    },
    {
      "id": 193652,
      "geometry": "POINT (-81.503974 28.386091)",
      "poi_name": "Sofrito Latin Cafe",
      "osm_id": 1551589054,
      "amenity": "restaurant",
      "cuisine": "Latin",
      "wheelchair": "limited",
      "website": "https://www.sofritocafe.com",
      "phone": "+1 407-778-4205",
      "takeaway": "yes",
      "outdoor_seating": "yes",
      "addr_state": "FL",
      "addr_city": "Orlando",
      "addr_street": "Palm Parkway",
      "addr_housenumber": "8607"
    },
    {
      "id": 195504,
      "geometry": "POINT (-82.503175 27.952588)",
      "poi_name": "Bella Brava",
      "osm_id": 10309908827,
      "amenity": "restaurant",
      "cuisine": "italian",
      "wheelchair": "yes",
      "opening_hours": "Mo-Th 11:30-22:00; Fr 11:30-23:00; Sa 11:00-23:00; Su 11:00-22:00",
      "website": "https://bellabrava.com",
      "internet_access": "wlan",
      "takeaway": "yes",
      "outdoor_seating": "yes",
      "toilets": "yes",
      "addr_state": "FL",
      "addr_city": "Tampa",
      "addr_postcode": "33607",
      "addr_street": "Gramercy Lane",
      "addr_housenumber": "1015"
    },
    {
      "id": 202097,
      "geometry": "POINT (-82.582142 28.057358)",
      "poi_name": "Mellow Mushroom",
      "osm_id": 678969910,
      "amenity": "restaurant",
      "cuisine": "pizza",
      "takeaway": "yes",
      "outdoor_seating": "yes",
      "addr_state": "FL",
      "addr_city": "Tampa",
      "addr_postcode": "33635",
      "addr_street": "Sheldon Road",
      "addr_housenumber": "11955"
    },
    {
      "id": 195600,
      "geometry": "POINT (-82.478928 28.270966)",
      "poi_name": "San Jos\u00e9",
      "osm_id": 10313301859,
      "amenity": "restaurant",
      "cuisine": "mexican",
      "wheelchair": "yes",
      "internet_access": "no",
      "takeaway": "yes",
      "delivery": "no",
      "toilets": "yes",
      "addr_state": "FL",
      "addr_city": "Land O' Lakes",
      "addr_postcode": "34638",
      "addr_street": "Land O' Lakes Boulevard",
      "addr_housenumber": "7804"
    },
    {
      "id": 208155,
      "geometry": "POINT (-82.688274 27.990638)",
      "poi_name": "Bar Fly",
      "osm_id": 4976232930,
      "amenity": "restaurant",
      "cuisine": "seafood",
      "opening_hours": "Tu-Th 11:30-23:00; Fr,Sa 11:30-24:00; Su,Mo 11:30-22:00",
      "capacity": "120",
      "takeaway": "yes",
      "outdoor_seating": "yes",
      "addr_state": "FL",
      "addr_city": "Safety Harbor",
      "addr_postcode": "34695",
      "addr_street": "Main Street",
      "addr_housenumber": "100"
    },
    {
      "id": 202866,
      "geometry": "POINT (-81.371216 28.513278)",
      "poi_name": "Tin and Taco",
      "osm_id": 7053066430,
      "amenity": "restaurant",
      "cuisine": "mexican",
      "opening_hours": "Mo-Th, Su 11:00-22:00; Fr, Sa 11:00-24:00",
      "website": "https://tinandtaco.com",
      "phone": "+1-407-734-5988",
      "takeaway": "yes",
      "delivery": "yes",
      "toilets": "yes",
      "addr_state": "FL",
      "addr_city": "Orlando",
      "addr_postcode": "32806",
      "addr_street": "East Michigan Street",
      "addr_housenumber": "419"
    },
    {
      "id": 207820,
      "geometry": "POINT (-80.44945 27.639564)",
      "poi_name": "Big Apple",
      "osm_id": 4962241655,
      "amenity": "restaurant",
      "cuisine": "pizza",
      "opening_hours": "Mo-Sa 11:00-22:00; Su 12:00-22:00",
      "phone": "+1-772-569-8900",
      "takeaway": "yes",
      "outdoor_seating": "no",
      "delivery": "yes",
      "addr_state": "FL",
      "addr_city": "Vero Beach",
      "addr_postcode": "32966",
      "addr_street": "20th Street",
      "addr_housenumber": "5970"
    },
    {
      "id": 211056,
      "geometry": "POINT (-82.140829 28.667276)",
      "poi_name": "Darrell's Diner",
      "osm_id": 5138714303,
      "amenity": "restaurant",
      "opening_hours": "06:00-15:00",
      "takeaway": "yes",
      "outdoor_seating": "no",
      "toilets": "yes",
      "addr_state": "FL",
      "addr_city": "Bushnell",
      "addr_street": "County Road 608",
      "addr_housenumber": "2237"
    },
    {
      "id": 209611,
      "geometry": "POINT (-80.622993 27.99805)",
      "poi_name": "Siwon Tasty",
      "osm_id": 5046183945,
      "amenity": "restaurant",
      "cuisine": "chinese",
      "takeaway": "yes",
      "outdoor_seating": "no",
      "delivery": "yes",
      "addr_state": "FL",
      "addr_city": "Palm Bay",
      "addr_postcode": "32909",
      "addr_street": "Babcock Street Southeast",
      "addr_housenumber": "6050"
    },
    {
      "id": 212025,
      "geometry": "POINT (-82.761984 28.155314)",
      "poi_name": "Hellas Restaurant and Bakery",
      "osm_id": 5183531586,
      "amenity": "restaurant",
      "cuisine": "greek",
      "takeaway": "yes",
      "outdoor_seating": "yes",
      "delivery": "no",
      "addr_state": "FL",
      "addr_city": "Tarpon Springs",
      "addr_postcode": "34689",
      "addr_street": "Dodecanese Boulevard",
      "addr_housenumber": "785"
    },
    {
      "id": 211200,
      "geometry": "POINT (-82.324773 29.647236)",
      "poi_name": "Tamal",
      "osm_id": 5145285138,
      "amenity": "restaurant",
      "cuisine": "mexican",
      "takeaway": "yes",
      "addr_state": "FL",
      "addr_city": "Gainesville",
      "addr_postcode": "32601",
      "addr_street": "South Main Street",
      "addr_housenumber": "439"
    },
    {
      "id": 211286,
      "geometry": "POINT (-80.643205 27.998318)",
      "poi_name": "Sonny's BBQ",
      "osm_id": 5151752850,
      "amenity": "restaurant",
      "cuisine": "barbecue",
      "wheelchair": "yes",
      "opening_hours": "Su-We 11:00-21:30; Fr-Sa 11:00-22:00",
      "operator": "Sonny's BBQ",
      "website": "https://sonnysbbq.com",
      "phone": "+1-321-953-3997",
      "takeaway": "yes",
      "drive_through": "yes",
      "outdoor_seating": "no",
      "delivery": "no",
      "addr_state": "FL",
      "addr_city": "Palm Bay",
      "addr_postcode": "32907",
      "addr_street": "Malabar Road Southeast",
      "addr_housenumber": "1020"
    },
    {
      "id": 211478,
      "geometry": "POINT (-81.54084 28.318508)",
      "poi_name": "Wonderland Cookie Dough Co.",
      "osm_id": 5159654284,
      "amenity": "restaurant",
      "cuisine": "cookie_dough",
      "opening_hours": "Mo-Su 10:00-22:00",
      "website": "https://wonderlandcookiedough.com/",
      "phone": "407-964-1474",
      "takeaway": "yes",
      "outdoor_seating": "no",
      "addr_state": "FL",
      "addr_city": "Celebration",
      "addr_postcode": "34747",
      "addr_street": "Market Street",
      "addr_housenumber": "606"
    },
    {
      "id": 212015,
      "geometry": "POINT (-81.367245 28.36318)",
      "poi_name": "Mama Romano's",
      "osm_id": 5182877285,
      "amenity": "restaurant",
      "cuisine": "pizza",
      "wheelchair": "yes",
      "opening_hours": "Mo-Th 11:00-22:00; Fr,Sa 11:00-23:00; Su 12:00-22:00",
      "website": "https://mamaromanos.com/",
      "phone": "+1 321 352 8200",
      "takeaway": "yes",
      "outdoor_seating": "yes",
      "addr_state": "FL",
      "addr_city": "orlando",
      "addr_postcode": "32824",
      "addr_street": "Landstar Boulevard",
      "addr_housenumber": "13802"
    },
    {
      "id": 220086,
      "geometry": "POINT (-81.520719 30.21757)",
      "poi_name": "Maple street Biscuit company",
      "osm_id": 9358540596,
      "amenity": "restaurant",
      "opening_hours": "Mo-Su 07:00-14:00",
      "website": "https://www.maplestreetbiscuits.com/",
      "phone": "+19045516465",
      "takeaway": "yes",
      "addr_state": "FL",
      "addr_city": "Jacksonville",
      "addr_postcode": "32256",
      "addr_street": "Point Meadows Drive",
      "addr_housenumber": "8385"
    },
    {
      "id": 221117,
      "geometry": "POINT (-81.485434 28.386227)",
      "poi_name": "Q'Kenan",
      "osm_id": 10968086571,
      "amenity": "restaurant",
      "cuisine": "venezuelan",
      "wheelchair": "yes",
      "takeaway": "yes",
      "outdoor_seating": "yes",
      "toilets": "yes",
      "addr_state": "FL",
      "addr_city": "Orlando",
      "addr_postcode": "32821",
      "addr_street": "Vineland Avenue",
      "addr_housenumber": "8119"
    },
    {
      "id": 222155,
      "geometry": "POINT (-81.369713 28.540947)",
      "poi_name": "RusTeak - Thornton Park",
      "osm_id": 11007005531,
      "amenity": "restaurant",
      "cuisine": "american",
      "opening_hours": "Tu-Th 11:00-22:00; Fr-Sa 11:00-23:00; Su 10:30-14:30",
      "website": "https://rusteakthorntonpark.com",
      "phone": "+1-407-601-5219",
      "takeaway": "yes",
      "outdoor_seating": "yes",
      "delivery": "yes",
      "toilets": "yes",
      "addr_state": "FL",
      "addr_city": "Orlando",
      "addr_postcode": "32801",
      "addr_street": "South Eola Drive",
      "addr_housenumber": "101"
    },
    {
      "id": 222170,
      "geometry": "POINT (-82.48275 27.958782)",
      "poi_name": "Cafe Habana",
      "osm_id": 11007987065,
      "amenity": "restaurant",
      "cuisine": "cuban",
      "wheelchair": "yes",
      "phone": "+1 813-443-9438",
      "takeaway": "yes",
      "outdoor_seating": "yes",
      "toilets": "yes",
      "addr_state": "FL",
      "addr_city": "Tampa",
      "addr_postcode": "33607",
      "addr_street": "North Howard Avenue",
      "addr_housenumber": "1901"
    },
    {
      "id": 222158,
      "geometry": "POINT (-81.36529 28.55332)",
      "poi_name": "Chuan Lu Garden",
      "osm_id": 11007036004,
      "amenity": "restaurant",
      "cuisine": "chinese;asian",
      "opening_hours": "Mo-Su 11:00-22:00",
      "website": "https://chuanlugardenorlandofl.com",
      "phone": "+1-407-868-8709",
      "takeaway": "yes",
      "delivery": "yes",
      "toilets": "yes",
      "addr_state": "FL",
      "addr_city": "Orlando",
      "addr_postcode": "32803",
      "addr_street": "East Colonial Drive",
      "addr_housenumber": "1101"
    },
    {
      "id": 226357,
      "geometry": "POINT (-82.293462 28.766136)",
      "poi_name": "Robins Country Kitchen",
      "osm_id": 11157752142,
      "amenity": "restaurant",
      "cuisine": "regional",
      "opening_hours": "We-Mo 06:30-14:00",
      "operator": "Robin",
      "takeaway": "yes",
      "outdoor_seating": "yes",
      "delivery": "no",
      "addr_state": "FL",
      "addr_city": "Floral City",
      "addr_postcode": "34436",
      "addr_street": "S Florida Ave",
      "addr_housenumber": "6689"
    },
    {
      "id": 226358,
      "geometry": "POINT (-82.293354 28.766141)",
      "poi_name": "Robins Country Kitchen",
      "osm_id": 11157752143,
      "amenity": "restaurant",
      "cuisine": "regional",
      "opening_hours": "We-Mo 06:30-14:00",
      "operator": "Robin",
      "takeaway": "yes",
      "outdoor_seating": "yes",
      "delivery": "no",
      "addr_state": "FL",
      "addr_city": "Floral City",
      "addr_postcode": "34436",
      "addr_street": "S Florida Ave",
      "addr_housenumber": "6689"
    },
    {
      "id": 226359,
      "geometry": "POINT (-82.293359 28.766232)",
      "poi_name": "Robins Country Kitchen",
      "osm_id": 11157752144,
      "amenity": "restaurant",
      "cuisine": "regional",
      "opening_hours": "We-Mo 06:30-14:00",
      "operator": "Robin",
      "takeaway": "yes",
      "outdoor_seating": "yes",
      "delivery": "no",
      "addr_state": "FL",
      "addr_city": "Floral City",
      "addr_postcode": "34436",
      "addr_street": "S Florida Ave",
      "addr_housenumber": "6689"
    },
    {
      "id": 226360,
      "geometry": "POINT (-82.293467 28.766227)",
      "poi_name": "Robins Country Kitchen",
      "osm_id": 11157752145,
      "amenity": "restaurant",
      "cuisine": "regional",
      "opening_hours": "We-Mo 06:30-14:00",
      "operator": "Robin",
      "takeaway": "yes",
      "outdoor_seating": "yes",
      "delivery": "no",
      "addr_state": "FL",
      "addr_city": "Floral City",
      "addr_postcode": "34436",
      "addr_street": "S Florida Ave",
      "addr_housenumber": "6689"
    },
    {
      "id": 231455,
      "geometry": "POINT (-82.597127 28.043394)",
      "poi_name": "Catch 23",
      "osm_id": 4469149979,
      "amenity": "restaurant",
      "cuisine": "seafood",
      "opening_hours": "Mo-Th 16:30-21:30; Fr 16:30-22:30; Sa 11:30-22:30; Su 10:30-21:00",
      "takeaway": "yes",
      "delivery": "no",
      "addr_state": "FL",
      "addr_city": "Tampa",
      "addr_postcode": "33626",
      "addr_street": "Montague Street",
      "addr_housenumber": "10103"
    },
    {
      "id": 231014,
      "geometry": "POINT (-81.526532 30.2827)",
      "poi_name": "Greek Street Cafe",
      "osm_id": 4451902866,
      "amenity": "restaurant",
      "cuisine": "greek",
      "opening_hours": "Mo-Th 11:00-21:00; Fr-Sa 11:00-22:00",
      "phone": "1-(904)-503-0620",
      "takeaway": "yes",
      "delivery": "yes",
      "addr_state": "FL",
      "addr_city": "Jacksonville",
      "addr_postcode": "32224",
      "addr_street": "Saint Johns Bluff Road South",
      "addr_housenumber": "3546"
    },
    {
      "id": 231015,
      "geometry": "POINT (-81.526252 30.282706)",
      "poi_name": "Si Se\u00f1or Fresh Mex",
      "osm_id": 4451902867,
      "amenity": "restaurant",
      "cuisine": "mexican",
      "opening_hours": "Mo-Th 11:00-21:00; Fr-Su 11:00-22:00",
      "phone": "1-(904) 564-2444",
      "takeaway": "yes",
      "addr_state": "FL",
      "addr_city": "Jacksonville",
      "addr_postcode": "32224",
      "addr_street": "Saint Johns Bluff Road South",
      "addr_housenumber": "3546"
    },
    {
      "id": 231634,
      "geometry": "POINT (-82.592397 28.043202)",
      "poi_name": "Tijuana Flats",
      "osm_id": 4481840159,
      "amenity": "restaurant",
      "cuisine": "mexican",
      "opening_hours": "11:00-10:00",
      "takeaway": "yes",
      "delivery": "no",
      "addr_state": "FL",
      "addr_city": "Tampa",
      "addr_postcode": "33626",
      "addr_street": "West Linebaugh Avenue",
      "addr_housenumber": "9520"
    },
    {
      "id": 231636,
      "geometry": "POINT (-82.592311 28.042915)",
      "poi_name": "Tampa Pizza Company",
      "osm_id": 4481852668,
      "amenity": "restaurant",
      "cuisine": "pizza",
      "opening_hours": "11:00-10:30",
      "takeaway": "yes",
      "delivery": "yes",
      "addr_state": "FL",
      "addr_city": "Tampa",
      "addr_postcode": "33626",
      "addr_street": "West Linebaugh Avenue",
      "addr_housenumber": "9556"
    },
    {
      "id": 237553,
      "geometry": "POINT (-81.331665 28.806646)",
      "poi_name": "5th Element",
      "osm_id": 5838347285,
      "amenity": "restaurant",
      "cuisine": "indian",
      "opening_hours": "Mo-Fr 11:00-14:30; Sa-Su 11:00-15:00; Mo-Th 17:30-10:00; Fr-Sa 17:30-10:30",
      "website": "https://5thelementsanford.com",
      "phone": "+014075486777",
      "takeaway": "yes",
      "addr_state": "FL",
      "addr_city": "Sanford",
      "addr_postcode": "32771",
      "addr_street": "Rinehart Road",
      "addr_housenumber": "1133"
    },
    {
      "id": 232472,
      "geometry": "POINT (-81.26318 28.699483)",
      "poi_name": "Destiny's Big City Pizza",
      "osm_id": 4526653842,
      "amenity": "restaurant",
      "cuisine": "pizza;italian",
      "website": "https://destinysbigcitypizza.com/",
      "phone": "+1-407-542-5400",
      "takeaway": "yes",
      "delivery": "yes",
      "addr_state": "FL",
      "addr_city": "Winter Springs",
      "addr_postcode": "32708",
      "addr_street": "Tree Swallow Dr",
      "addr_housenumber": "1168"
    },
    {
      "id": 233006,
      "geometry": "POINT (-81.264612 28.645406)",
      "poi_name": "Stefano's Trattoria",
      "osm_id": 4553192479,
      "amenity": "restaurant",
      "cuisine": "pizza;sicilian",
      "opening_hours": "Mo-Sa 11:30-21:00; Su 12:00-20:30",
      "website": "https://stefanos-trattoria.com/",
      "phone": "+1 407-659-0101",
      "takeaway": "yes",
      "delivery": "no",
      "addr_state": "FL",
      "addr_city": "Winter Springs",
      "addr_postcode": "32708",
      "addr_street": "Tuskawilla Road",
      "addr_housenumber": "1425"
    },
    {
      "id": 233944,
      "geometry": "POINT (-82.272227 27.890923)",
      "poi_name": "Sushi Ninja",
      "osm_id": 4593089280,
      "amenity": "restaurant",
      "cuisine": "sushi",
      "opening_hours": "Mo-Th 11:30-21:00; Fr 11:30-22:00; Sa 16:30-22:00",
      "website": "http://www.sushininjafl.com/",
      "phone": "+1 (813) 662-3377",
      "takeaway": "yes",
      "outdoor_seating": "no",
      "addr_state": "FL",
      "addr_city": "Brandon",
      "addr_postcode": "33511",
      "addr_street": "East Bloomingdale Avenue",
      "addr_housenumber": "903"
    },
    {
      "id": 235645,
      "geometry": "POINT (-82.375938 28.227402)",
      "poi_name": "Amici Pizza",
      "osm_id": 5762205880,
      "amenity": "restaurant",
      "cuisine": "pizza",
      "wheelchair": "yes",
      "opening_hours": "Mo-Th 11:00-21:00; Fr,Sa 11:00-22:00; Su 13:00-21:00",
      "website": "https://www.amici-pizza.com/",
      "phone": "+1 813 973 9734",
      "takeaway": "yes",
      "outdoor_seating": "no",
      "addr_state": "FL",
      "addr_city": "Lutz",
      "addr_postcode": "33559",
      "addr_street": "Wesley Chapel Boulevard",
      "addr_housenumber": "26602"
    },
    {
      "id": 236201,
      "geometry": "POINT (-81.289016 28.90817)",
      "poi_name": "Fire on the Bayou",
      "osm_id": 5784984572,
      "amenity": "restaurant",
      "cuisine": "cajun;creole;seafood",
      "takeaway": "yes",
      "addr_state": "FL",
      "addr_city": "Orange City",
      "addr_postcode": "32763",
      "addr_street": "Town Center Drive",
      "addr_housenumber": "921"
    },
    {
      "id": 233086,
      "geometry": "POINT (-82.338728 29.652492)",
      "poi_name": "Piesanos",
      "osm_id": 4556020176,
      "amenity": "restaurant",
      "cuisine": "pizza",
      "wheelchair": "yes",
      "opening_hours": "Mo-Th 11:00-23:00, Fr-Sa 11:00-24:00, Su 11:00-22:00",
      "website": "https://piesanostogo.com/",
      "internet_access": "wlan",
      "phone": "+1-352-375-2337",
      "takeaway": "yes",
      "outdoor_seating": "no",
      "toilets": "yes",
      "addr_state": "FL",
      "addr_city": "Gainesville",
      "addr_postcode": "32601",
      "addr_street": "West University Avenue",
      "addr_housenumber": "1250"
    },
    {
      "id": 233851,
      "geometry": "POINT (-82.322371 27.939731)",
      "poi_name": "The Corner Bakery Cafe",
      "osm_id": 4589709677,
      "amenity": "restaurant",
      "cuisine": "sandwich",
      "opening_hours": "Mo-Fr 07:00-15:00; Sa,Su 08:00-15:00",
      "website": "https://www.cornerbakerycafe.com/",
      "internet_access": "wlan",
      "phone": "+1 (813) 982-3073",
      "takeaway": "yes",
      "outdoor_seating": "yes",
      "addr_state": "FL",
      "addr_city": "Brandon",
      "addr_postcode": "33511",
      "addr_street": "West Brandon Boulevard",
      "addr_housenumber": "2326"
    },
    {
      "id": 234655,
      "geometry": "POINT (-81.767378 30.300922)",
      "poi_name": "Golden Corral",
      "osm_id": 4631086400,
      "amenity": "restaurant",
      "cuisine": "american;buffet",
      "opening_hours": "11:00-21:00",
      "takeaway": "yes",
      "outdoor_seating": "no",
      "delivery": "no",
      "addr_state": "FL",
      "addr_city": "Jacksonville",
      "addr_postcode": "32205",
      "addr_street": "Memorial Park Road",
      "addr_housenumber": "1201"
    },
    {
      "id": 244040,
      "geometry": "POINT (-81.408862 30.287471)",
      "poi_name": "Donatos Pizza",
      "osm_id": 7697563730,
      "amenity": "restaurant",
      "cuisine": "pizza",
      "website": "https://www.donatos.com/",
      "takeaway": "yes",
      "addr_state": "FL",
      "addr_city": "Jacksonville Beach",
      "addr_street": "Beach Boulevard",
      "addr_housenumber": "1500"
    }
  ],
  "answer_type": "loc",
  "question_entities": {
    "[1]": {
      "main_category": "amenity",
      "sub_category": "restaurant",
      "poi_filter_desc": "takeout restaurant",
      "poi_filter_sql": "takeaway ILIKE '%yes%'"
    },
    "[2]": {
      "distance": 170000,
      "text": "170 kilometers"
    },
    "[3]": {
      "main_category": "tourism",
      "sub_category": "zoo",
      "display_name": "Central Florida Zoo & Botanical Gardens, Sanford, FL",
      "geo_wkt": "POINT (-81.314867 28.825462)",
      "poi": {
        "id": 9137,
        "geometry": "POINT (-81.314867 28.825462)",
        "poi_name": "Central Florida Zoo & Botanical Gardens",
        "osm_id": 3683164539,
        "tourism": "zoo",
        "fee": "yes",
        "addr_state": "FL",
        "addr_city": "Sanford",
        "addr_postcode": "32771",
        "addr_street": "W Seminole Blvd",
        "addr_housenumber": "3755"
      }
    }
  },
  "id": 426,
  "type": "range:non_spat_filter+loc"
}