{
  "question": "I'm searching for a caf\u00e9 within 30 kilometers radii from Independence Square, Maitland, FL, any suggestions where it is?",
  "sql": "SELECT * FROM pois\nWHERE ST_DWithin(pois.geometry, ST_GeomFromText('POINT (-81.365009 28.626852)',4326)::geography, 30000)\nAND amenity = 'cafe';\n",
  "answers": [
    {
      "id": 48657,
      "geometry": "POINT (-81.4801 28.450987)",
      "poi_name": "Bento Cafe",
      "osm_id": 3394471621,
      "amenity": "cafe",
      "addr_state": "FL",
      "addr_city": "Orlando",
      "addr_postcode": "32819"
    },
    {
      "id": 48993,
      "geometry": "POINT (-81.350583 28.594637)",
      "poi_name": "Starbucks",
      "osm_id": 3411776456,
      "amenity": "cafe",
      "cuisine": "coffee_shop",
      "opening_hours": "Mo-Th 06:00-20:00; Fr,Sa 06:00-21:00; Su 06:30-20:00",
      "takeaway": "yes",
      "drive_through": "no",
      "official_name": "Starbucks Coffee",
      "addr_state": "FL",
      "addr_city": "Winter Park",
      "addr_postcode": "32789",
      "addr_street": "South Park Avenue",
      "addr_housenumber": "400"
    },
    {
      "id": 66083,
      "geometry": "POINT (-81.309231 28.467979)",
      "poi_name": "Starbucks",
      "osm_id": 5728674453,
      "amenity": "cafe",
      "cuisine": "coffee_shop",
      "opening_hours": "Mo-Th 05:00-22:00; Fr 05:00-23:00; Sa 06:00-23:00; Su 06:00-22:00",
      "phone": "+1-407-854-6316",
      "takeaway": "yes",
      "official_name": "Starbucks Coffee",
      "outdoor_seating": "yes",
      "addr_city": "Orlando",
      "addr_street": "South Semoran Boulevard",
      "addr_housenumber": "6605"
    },
    {
      "id": 66384,
      "geometry": "POINT (-81.365418 28.36447)",
      "poi_name": "Starbucks",
      "osm_id": 11191881277,
      "amenity": "cafe",
      "cuisine": "coffee_shop",
      "wheelchair": "yes",
      "opening_hours": "Mo-Sa 5:30-21:00, Su 06:00-21:00",
      "takeaway": "yes",
      "official_name": "Starbucks Coffee",
      "addr_state": "FL",
      "addr_city": "Orlando",
      "addr_postcode": "32824",
      "addr_street": "Landstar Boulevard",
      "addr_housenumber": "13925"
    },
    {
      "id": 72888,
      "geometry": "POINT (-81.363944 28.552993)",
      "poi_name": "Chewy Boba Company",
      "osm_id": 11455406220,
      "amenity": "cafe",
      "cuisine": "bubble_tea",
      "opening_hours": "Mo-Su 11:00-21:00",
      "website": "https://chewyboba.com",
      "phone": "+1-407-897-1377",
      "addr_state": "FL",
      "addr_city": "Orlando",
      "addr_postcode": "32803",
      "addr_street": "East Colonial Drive",
      "addr_housenumber": "1212"
    },
    {
      "id": 72896,
      "geometry": "POINT (-81.35636 28.552947)",
      "poi_name": "Fluffy Fluffy Dessert Cafe",
      "osm_id": 11455481360,
      "amenity": "cafe",
      "opening_hours": "Mo-Su 10:00-20:00",
      "website": "https://fluffyfluffy.co",
      "phone": "+1-407-286-3979",
      "addr_state": "FL",
      "addr_city": "Orlando",
      "addr_postcode": "32803",
      "addr_street": "East Colonial Drive",
      "addr_housenumber": "2008"
    },
    {
      "id": 72901,
      "geometry": "POINT (-81.343189 28.552236)",
      "poi_name": "Quickly",
      "osm_id": 11455548781,
      "amenity": "cafe",
      "cuisine": "bubble_tea",
      "opening_hours": "Mo-Su 10:00-22:00",
      "website": "https://quicklybobasnowtogo.com",
      "phone": "+1-407-270-4570",
      "takeaway": "yes",
      "addr_state": "FL",
      "addr_city": "Orlando",
      "addr_postcode": "32803",
      "addr_street": "East Colonial Drive",
      "addr_housenumber": "3214"
    },
    {
      "id": 72902,
      "geometry": "POINT (-81.351512 28.543618)",
      "poi_name": "Pom Pom's Teahouse & Sandwicheria",
      "osm_id": 11455597457,
      "amenity": "cafe",
      "cuisine": "sandwich;dessert;tea",
      "opening_hours": "MTu-Th 11:00-23:00; Fr-Mo 11:00-17:00",
      "website": "https://pompomsteahouse.com",
      "phone": "+1-407-894-0865",
      "addr_state": "FL",
      "addr_city": "Orlando",
      "addr_postcode": "32803",
      "addr_street": "North Bumby Avenue",
      "addr_housenumber": "67"
    },
    {
      "id": 71899,
      "geometry": "POINT (-81.366058 28.553368)",
      "poi_name": "Lineage Coffee Roasting",
      "osm_id": 11405258271,
      "amenity": "cafe",
      "opening_hours": "Mo-Su 07:00-19:00",
      "website": "https://www.lineageroasting.com/",
      "phone": "+14072058096",
      "addr_city": "Orlando",
      "addr_postcode": "32803",
      "addr_street": "1011 E Colonial Dr"
    },
    {
      "id": 89292,
      "geometry": "POINT (-81.450783 28.551462)",
      "poi_name": "Bambu",
      "osm_id": 8837015158,
      "amenity": "cafe",
      "cuisine": "vietnamese;bubble_tea",
      "takeaway": "yes",
      "outdoor_seating": "no",
      "addr_state": "FL"
    },
    {
      "id": 101478,
      "geometry": "POINT (-81.535677 28.495652)",
      "poi_name": "Dixie Cream Cafe",
      "osm_id": 6631169330,
      "amenity": "cafe",
      "cuisine": "american",
      "wheelchair": "yes",
      "internet_access": "yes",
      "outdoor_seating": "yes",
      "addr_state": "FL",
      "addr_city": "Windermere",
      "addr_postcode": "34786",
      "addr_street": "Main Street",
      "addr_housenumber": "434"
    },
    {
      "id": 105141,
      "geometry": "POINT (-81.424217 28.366061)",
      "poi_name": "Starbucks",
      "osm_id": 8604433238,
      "amenity": "cafe",
      "cuisine": "coffee_shop",
      "opening_hours": "Mo-Su 05:30-21:00",
      "website": "https://www.starbucks.com/store-locator/store/9004/s-john-young-parkway-towne-pl-blvd-13851-s-john-young-parkway-orlando-fl-328375862-us",
      "internet_access": "wlan",
      "phone": "+1-407-859-7745",
      "takeaway": "yes",
      "official_name": "Starbucks Coffee",
      "outdoor_seating": "yes",
      "addr_state": "FL",
      "addr_city": "Orlando",
      "addr_postcode": "32837",
      "addr_street": "John Young Parkway",
      "addr_housenumber": "13851"
    },
    {
      "id": 104180,
      "geometry": "POINT (-81.213109 28.597198)",
      "poi_name": "Foxtail Coffee Company",
      "osm_id": 8554618377,
      "amenity": "cafe",
      "cuisine": "coffee_shop",
      "opening_hours": "Mo-Su 07:00-20:00",
      "website": "https://www.foxtailcoffee.com/university-drive-thru",
      "internet_access": "wlan",
      "phone": "+1-407-663-8699",
      "takeaway": "yes",
      "addr_state": "FL",
      "addr_city": "Orlando",
      "addr_postcode": "32817",
      "addr_street": "Collegiate Way",
      "addr_housenumber": "12001"
    },
    {
      "id": 116068,
      "geometry": "POINT (-81.268186 28.811369)",
      "poi_name": "The Collective Tea & Coffee Co.",
      "osm_id": 8927080810,
      "amenity": "cafe",
      "cuisine": "coffee_shop;tea",
      "description": "The Collective, a partnership between the Rosie Lee Tea Co. and Wavelength Coffee Co.",
      "website": "https://www.thecollectivesanford.com",
      "phone": "4077324617",
      "addr_state": "FL",
      "addr_city": "Sanford",
      "addr_postcode": "32771",
      "addr_street": "Park Avenue",
      "addr_housenumber": "108"
    },
    {
      "id": 106639,
      "geometry": "POINT (-81.451441 28.474466)",
      "poi_name": "Starbucks",
      "osm_id": 8691941868,
      "amenity": "cafe",
      "cuisine": "coffee_shop",
      "phone": "+1 407 363 5535",
      "takeaway": "yes",
      "official_name": "Starbucks Coffee",
      "addr_state": "FL",
      "addr_city": "Orlando",
      "addr_postcode": "32819",
      "addr_street": "International Drive"
    },
    {
      "id": 115996,
      "geometry": "POINT (-81.268443 28.810704)",
      "poi_name": "Palate Coffee Brewery",
      "osm_id": 8923068636,
      "amenity": "cafe",
      "cuisine": "coffee_shop",
      "description": "Palate Coffee Brewery is a quality mission based coffee shop located in Historical Downtown Sanford. All profits are dedicated to the abolishment of modern day slavery; human trafficking. At Palate the community becomes the heroes of our story.",
      "website": "https://www.sanfordcoffee.com/",
      "phone": "3213630661",
      "outdoor_seating": "yes",
      "addr_state": "FL",
      "addr_city": "Sanford",
      "addr_postcode": "32771",
      "addr_street": "W 2nd Street",
      "addr_housenumber": "105"
    },
    {
      "id": 116011,
      "geometry": "POINT (-81.265068 28.80768)",
      "poi_name": "Raw Press Juice Co.",
      "osm_id": 8923536920,
      "amenity": "cafe",
      "opening_hours": "Mo-Fr 08:00-18:00; Sa 10:00-17:00",
      "website": "https://rawpressjuiceco.com/",
      "phone": "4077252620",
      "outdoor_seating": "yes",
      "addr_state": "FL",
      "addr_city": "Sanford",
      "addr_postcode": "32771",
      "addr_street": "Sanford Avenue",
      "addr_housenumber": "516"
    },
    {
      "id": 120046,
      "geometry": "POINT (-81.352264 28.54924)",
      "poi_name": "Drunken Monkey",
      "osm_id": 9136300218,
      "amenity": "cafe",
      "cuisine": "coffee_shop;sandwich;dessert",
      "opening_hours": "Mo-Fr 07:00-20:00; Sa-Su 08:00-20:00",
      "website": "https://www.drunkenmonkeyorders.com",
      "phone": "+1-407-893-4994",
      "drive_through": "yes",
      "outdoor_seating": "yes",
      "addr_state": "FL",
      "addr_city": "Orlando",
      "addr_postcode": "32803",
      "addr_street": "North Bumby Avenue",
      "addr_housenumber": "444"
    },
    {
      "id": 116326,
      "geometry": "POINT (-81.269867 28.81236)",
      "poi_name": "Mahogany Coffee",
      "osm_id": 8938710004,
      "amenity": "cafe",
      "cuisine": "coffee_shop",
      "website": "https://www.henrysdepot.com/mahogany-coffee",
      "addr_state": "FL",
      "addr_city": "Sanford",
      "addr_postcode": "32771",
      "addr_street": "W 1st Street",
      "addr_housenumber": "212"
    },
    {
      "id": 116476,
      "geometry": "POINT (-81.269874 28.815078)",
      "poi_name": "Caff\u00e8 Di Riverwalk",
      "osm_id": 8944643359,
      "amenity": "cafe",
      "cuisine": "coffee_shop",
      "opening_hours": "Mo-Sa 08:00-14:00",
      "phone": "4073288792",
      "outdoor_seating": "yes",
      "addr_state": "FL",
      "addr_city": "Sanford",
      "addr_postcode": "32771",
      "addr_street": "West Seminole Boulevard",
      "addr_housenumber": "225"
    },
    {
      "id": 124319,
      "geometry": "POINT (-81.58863 28.549203)",
      "poi_name": "Lucky Straws Boba Tea",
      "osm_id": 6910773446,
      "amenity": "cafe",
      "cuisine": "bubble_tea;tea",
      "internet_access": "wlan",
      "phone": "(407) 877-2622",
      "outdoor_seating": "no",
      "addr_state": "FL",
      "addr_city": "Winter Garden",
      "addr_postcode": "34787",
      "addr_street": "W Colonial Dr",
      "addr_housenumber": "13750"
    },
    {
      "id": 135239,
      "geometry": "POINT (-81.20708 28.651893)",
      "poi_name": "Teapioca",
      "osm_id": 11509672158,
      "amenity": "cafe",
      "cuisine": "bubble_tea",
      "addr_state": "FL",
      "addr_city": "Oviedo",
      "addr_postcode": "32765"
    },
    {
      "id": 180345,
      "geometry": "POINT (-81.429246 28.494437)",
      "poi_name": "Ding Tea",
      "osm_id": 10798170456,
      "amenity": "cafe",
      "cuisine": "bubble_tea",
      "opening_hours": "Mo-Th, Su 11:00-21:00; Fr, Sa 11:00-21:30",
      "website": "https://dingteaorlando.com",
      "phone": "+1-407-203-8081",
      "takeaway": "yes",
      "drive_through": "no",
      "outdoor_seating": "no",
      "delivery": "yes",
      "toilets": "yes",
      "addr_state": "FL",
      "addr_city": "Orlando",
      "addr_postcode": "32839",
      "addr_street": "Millenia Plaza Way",
      "addr_housenumber": "4680"
    },
    {
      "id": 180262,
      "geometry": "POINT (-81.368613 28.542878)",
      "poi_name": "RareTea",
      "osm_id": 10796634645,
      "amenity": "cafe",
      "cuisine": "bubble_tea",
      "wheelchair": "yes",
      "opening_hours": "Su-Th 11:30-21:00, Fr-Sa 11:30-22:00",
      "website": "https://rareteaorlando.square.site",
      "phone": "(407) 237-9892",
      "drive_through": "no",
      "outdoor_seating": "yes",
      "delivery": "yes",
      "toilets": "yes",
      "addr_state": "FL",
      "addr_city": "Orlando",
      "addr_postcode": "32801",
      "addr_street": "N Summerlin Avenue",
      "addr_housenumber": "12"
    },
    {
      "id": 180263,
      "geometry": "POINT (-81.379374 28.542543)",
      "poi_name": "Mecatos Bakery & Cafe",
      "osm_id": 10796639852,
      "amenity": "cafe",
      "cuisine": "dessert;salad;sandwich;cake",
      "opening_hours": "Mo-Th 07:00-18:00, Fr 07:00-20:00, Sa-Su 08:00-20:00",
      "website": "https://mecatoscafe.com",
      "phone": "(407) 704-3841",
      "delivery": "yes",
      "addr_state": "FL",
      "addr_city": "Orlando",
      "addr_postcode": "32801",
      "addr_street": "North Orange Avenue",
      "addr_housenumber": "20"
    },
    {
      "id": 180348,
      "geometry": "POINT (-81.426206 28.442969)",
      "poi_name": "SpringTea",
      "osm_id": 10798187535,
      "amenity": "cafe",
      "cuisine": "bubble_tea;chinese;taiwanese;asian;juice;quick_bite",
      "wheelchair": "yes",
      "opening_hours": "Mo-Th, Su 11:00-21:00; Fr, Sa 11:00-22:00",
      "website": "https://springtea.business.site",
      "phone": "+1-407-413-5335",
      "takeaway": "yes",
      "drive_through": "no",
      "outdoor_seating": "no",
      "delivery": "yes",
      "toilets": "yes",
      "addr_state": "FL",
      "addr_city": "Orlando",
      "addr_postcode": "32819",
      "addr_street": "South John Young Parkway",
      "addr_housenumber": "8457"
    },
    {
      "id": 180356,
      "geometry": "POINT (-81.425991 28.445295)",
      "poi_name": "Picasso Moments Bakery, Cafe, & Boba Tea",
      "osm_id": 10798201739,
      "amenity": "cafe",
      "cuisine": "asian;sandwich;bubble_tea;dessert;cake;bakery;lunch;dinner;quick_bite;ramen",
      "opening_hours": "Mo-Sa 10:00-19:30; Su 10:00-18:00",
      "website": "https://picasso-moments-bakery.com",
      "internet_access": "wifi",
      "phone": "+1-407-203-8126",
      "takeaway": "yes",
      "drive_through": "no",
      "outdoor_seating": "yes",
      "delivery": "yes",
      "toilets": "yes",
      "addr_state": "FL",
      "addr_city": "Orlando",
      "addr_postcode": "32819",
      "addr_street": "South John Young Parkway",
      "addr_housenumber": "8231"
    },
    {
      "id": 180365,
      "geometry": "POINT (-81.449632 28.550889)",
      "poi_name": "The Tea Spot",
      "osm_id": 10798268224,
      "amenity": "cafe",
      "cuisine": "bubble_tea",
      "opening_hours": "Mo-Su 11:00-21:00",
      "website": "https://the-tea-spot.square.site",
      "internet_access": "wlan",
      "phone": "+1-407-995-6609",
      "takeaway": "yes",
      "outdoor_seating": "no",
      "delivery": "yes",
      "toilets": "yes",
      "addr_state": "FL",
      "addr_city": "Orlando",
      "addr_postcode": "32808",
      "addr_street": "West Colonial Drive",
      "addr_housenumber": "5078"
    },
    {
      "id": 180367,
      "geometry": "POINT (-81.376141 28.528808)",
      "poi_name": "Foxtail Coffee - SoDo North",
      "osm_id": 10798280017,
      "amenity": "cafe",
      "cuisine": "sandwich;american;coffee_shop;donut",
      "wheelchair": "yes",
      "opening_hours": "Mo-Su 06:00-18:00",
      "website": "https://foxtailcoffee.com",
      "internet_access": "wifi",
      "phone": "+1-407-930-1328",
      "takeaway": "yes",
      "outdoor_seating": "yes",
      "delivery": "yes",
      "toilets": "yes",
      "addr_state": "FL",
      "addr_city": "Orlando",
      "addr_postcode": "32806",
      "addr_street": "South Orange Avenue",
      "addr_housenumber": "1101"
    },
    {
      "id": 199192,
      "geometry": "POINT (-81.48968 28.4494)",
      "poi_name": "Planet Smoothie",
      "osm_id": 943636856,
      "amenity": "cafe",
      "opening_hours": "Mo-Fr 07:00-21:00; Su 09:00-20:00; Sa 08:00-20:00",
      "addr_state": "FL",
      "addr_city": "Orlando",
      "addr_street": "Sand Lake Road",
      "addr_housenumber": "7824"
    },
    {
      "id": 184276,
      "geometry": "POINT (-81.316772 28.625629)",
      "poi_name": "Starbucks",
      "osm_id": 7779477685,
      "amenity": "cafe",
      "cuisine": "coffee_shop",
      "opening_hours": "Mo-Sa 05:00-21:00; Su 05:30-21:00",
      "takeaway": "yes",
      "official_name": "Starbucks Coffee",
      "addr_city": "Winter Park",
      "addr_postcode": "32792",
      "addr_street": "State Road 436",
      "addr_housenumber": "2535"
    },
    {
      "id": 195438,
      "geometry": "POINT (-81.219071 28.597219)",
      "poi_name": "Lineage Cafe and Bakery",
      "osm_id": 10304904142,
      "amenity": "cafe",
      "cuisine": "coffee_shop",
      "opening_hours": "Mo-Sa 08:00-19:00",
      "website": "https://www.lineageroasting.com",
      "addr_state": "FL",
      "addr_city": "Orlando",
      "addr_postcode": "32817",
      "addr_street": "University Boulevard",
      "addr_housenumber": "11556"
    },
    {
      "id": 195991,
      "geometry": "POINT (-81.450956 28.550476)",
      "poi_name": "Meet Fresh",
      "osm_id": 10557018410,
      "amenity": "cafe",
      "cuisine": "bubble_tea;chinese;dessert",
      "opening_hours": "Su-Th 11:30-21:00; Fr-Sa 11:30-21:30",
      "website": "https://meetfresh.us/",
      "internet_access": "wlan",
      "phone": "+1-407-601-3165",
      "takeaway": "yes",
      "drive_through": "no",
      "outdoor_seating": "no",
      "toilets": "yes",
      "addr_state": "FL",
      "addr_city": "Orlando",
      "addr_postcode": "32808",
      "addr_street": "West Colonial Drive",
      "addr_housenumber": "5144"
    },
    {
      "id": 197728,
      "geometry": "POINT (-81.203838 28.656374)",
      "poi_name": "Starbucks",
      "osm_id": 10671529666,
      "amenity": "cafe",
      "cuisine": "coffee_shop",
      "takeaway": "yes",
      "official_name": "Starbucks Coffee",
      "addr_state": "FL",
      "addr_city": "Oviedo",
      "addr_postcode": "32765",
      "addr_street": "E Mitchell Hammock Road",
      "addr_housenumber": "305"
    },
    {
      "id": 185876,
      "geometry": "POINT (-81.207641 28.555765)",
      "poi_name": "Vespr Coffeebar",
      "osm_id": 7888513264,
      "amenity": "cafe",
      "cuisine": "coffee_shop",
      "addr_state": "FL",
      "addr_city": "Orlando",
      "addr_postcode": "32828",
      "addr_street": "N Alafaya Trail",
      "addr_housenumber": "626"
    },
    {
      "id": 199166,
      "geometry": "POINT (-81.378973 28.546357)",
      "poi_name": "Leo's Diner",
      "osm_id": 940735121,
      "amenity": "cafe",
      "addr_state": "FL",
      "addr_city": "Orlando",
      "addr_street": "North Orange Avenue",
      "addr_housenumber": "333"
    },
    {
      "id": 199167,
      "geometry": "POINT (-81.378973 28.546317)",
      "poi_name": "Dixie's Cafe",
      "osm_id": 940735123,
      "amenity": "cafe",
      "addr_state": "FL",
      "addr_city": "Orlando",
      "addr_street": "North Orange Avenue",
      "addr_housenumber": "331"
    },
    {
      "id": 199170,
      "geometry": "POINT (-81.377369 28.545293)",
      "poi_name": "Daily News Caf\u00e9",
      "osm_id": 940891046,
      "amenity": "cafe",
      "addr_state": "FL",
      "addr_city": "Orlando",
      "addr_street": "Magnolia Avenue",
      "addr_housenumber": "231"
    },
    {
      "id": 202295,
      "geometry": "POINT (-81.430276 28.493847)",
      "poi_name": "Starbucks",
      "osm_id": 7018490655,
      "amenity": "cafe",
      "cuisine": "coffee_shop",
      "takeaway": "yes",
      "official_name": "Starbucks Coffee",
      "outdoor_seating": "no",
      "addr_state": "FL",
      "addr_city": "Orlando",
      "addr_street": "Millenia Plaza Way",
      "addr_housenumber": "4750"
    },
    {
      "id": 208777,
      "geometry": "POINT (-81.381491 28.547122)",
      "poi_name": "Ace Cafe Orlando",
      "osm_id": 5005260621,
      "amenity": "cafe",
      "opening_hours": "Mo-We 11:00-21:00; Th 11:00-22:00; Fr-Sa 11:00-23:00; Su 10:00-21:00; PH off",
      "website": "https://acecafeusa.com/",
      "phone": "+1 407 996 6686",
      "addr_state": "FL",
      "addr_city": "Orlando",
      "addr_postcode": "32801",
      "addr_street": "Livingston Street",
      "addr_housenumber": "100"
    },
    {
      "id": 219111,
      "geometry": "POINT (-81.345716 28.567534)",
      "poi_name": "Lobos Coffee Roasters",
      "osm_id": 9316250835,
      "amenity": "cafe",
      "opening_hours": "6:30-22:00",
      "website": "https://loboscoffeeroasters.com/",
      "phone": "407-335-4185",
      "outdoor_seating": "yes",
      "addr_state": "FL",
      "addr_city": "Orlando",
      "addr_postcode": "32803",
      "addr_street": "Corrine Drive",
      "addr_housenumber": "3000"
    },
    {
      "id": 219112,
      "geometry": "POINT (-81.345185 28.567613)",
      "poi_name": "Bikes Beans & Bordeaux",
      "osm_id": 9316250836,
      "amenity": "cafe",
      "opening_hours": "8:00-20:00",
      "website": "https://b3cafe.square.site",
      "phone": "407-427-1440",
      "addr_state": "FL",
      "addr_city": "Orlando",
      "addr_postcode": "32803",
      "addr_street": "Corrine Drive",
      "addr_housenumber": "3022"
    },
    {
      "id": 220277,
      "geometry": "POINT (-81.457336 28.550965)",
      "poi_name": "Boba Queen",
      "osm_id": 9368232490,
      "amenity": "cafe",
      "cuisine": "bubble_tea",
      "description": "Cafe, Tea, Boba tea and quick bites.",
      "opening_hours": "Th-Tu 12:00-21:00",
      "website": "https://bobaqueen.business.site",
      "phone": "(407) 930-0277",
      "takeaway": "yes",
      "outdoor_seating": "no",
      "addr_city": "Orlando",
      "addr_postcode": "32808",
      "addr_street": "West Colonial Drive",
      "addr_housenumber": "5600"
    },
    {
      "id": 222154,
      "geometry": "POINT (-81.364328 28.552784)",
      "poi_name": "Matcha Cafe Maiko",
      "osm_id": 11007004668,
      "amenity": "cafe",
      "cuisine": "coffee_shop;dessert;ice_cream;tea",
      "opening_hours": "Su-Th 12:00-21:00; Fr-Sa 12:00-22:00",
      "website": "https://cafemaikoorl.com",
      "phone": "+1-407-730-9090",
      "takeaway": "yes",
      "drive_through": "no",
      "outdoor_seating": "yes",
      "addr_state": "FL",
      "addr_city": "Orlando",
      "addr_postcode": "32803",
      "addr_street": "North Mills Avenue",
      "addr_housenumber": "639"
    },
    {
      "id": 222162,
      "geometry": "POINT (-81.363087 28.553305)",
      "poi_name": "Haan Coffee",
      "osm_id": 11007474258,
      "amenity": "cafe",
      "cuisine": "coffee_shop;tea;dessert",
      "opening_hours": "Mo-Sa 07:00-19:00",
      "website": "https://www.haancoffee.com",
      "phone": "+1-407-906-5119",
      "outdoor_seating": "yes",
      "addr_state": "FL",
      "addr_city": "Orlando",
      "addr_postcode": "32803",
      "addr_street": "East Colonial Drive",
      "addr_housenumber": "1235"
    },
    {
      "id": 240794,
      "geometry": "POINT (-81.263315 28.618057)",
      "poi_name": "Starbucks",
      "osm_id": 5991389411,
      "amenity": "cafe",
      "cuisine": "coffee_shop",
      "internet_access": "yes",
      "takeaway": "yes",
      "official_name": "Starbucks Coffee",
      "outdoor_seating": "yes",
      "addr_state": "FL",
      "addr_city": "Oviedo",
      "addr_postcode": "32765",
      "addr_street": "Aloma Avenue",
      "addr_housenumber": "3607"
    }
  ],
  "answer_type": "loc",
  "question_entities": {
    "[1]": {
      "main_category": "amenity",
      "sub_category": "cafe"
    },
    "[2]": {
      "distance": 30000,
      "text": "30 kilometers"
    },
    "[3]": {
      "main_category": "leisure",
      "sub_category": "park",
      "display_name": "Independence Square, Maitland, FL",
      "geo_wkt": "POINT (-81.365009 28.626852)",
      "poi": {
        "id": 246668,
        "geometry": "POINT (-81.365009 28.626852)",
        "poi_name": "Independence Square",
        "osm_id": 8792787032,
        "leisure": "park",
        "operator": "City of Maitland",
        "addr_state": "FL",
        "addr_city": "Maitland",
        "addr_postcode": "32751",
        "addr_street": "Independence Lane",
        "addr_housenumber": "1776"
      }
    }
  },
  "id": 2014,
  "type": "range+loc"
}