{
  "question": "What's the separation to a caf\u00e9 from Procter Farm Preserve, Wendell, NC within 120 kilometers?",
  "sql": "SELECT *, ST_Distance(ST_GeomFromText('POINT (-78.390009 35.831172)',4326)::geography, pois.geometry) AS distance FROM pois\nWHERE ST_DWithin(pois.geometry, ST_GeomFromText('POINT (-78.390009 35.831172)',4326)::geography, 120000)\nAND amenity = 'cafe';\n",
  "answers": [
    {
      "id": 28464,
      "geometry": "POINT (-78.509969 35.977918)",
      "poi_name": "Wake Forest Coffee Company",
      "osm_id": 484177896,
      "amenity": "cafe",
      "cuisine": "coffee_shop",
      "opening_hours": "Su 08:00-20:00; Mo-Fr 06:30-20:00; Sa 08:00-20:00",
      "website": "https://wakeforestcoffee.com/",
      "internet_access": "yes",
      "phone": "(919) 554-8914",
      "outdoor_seating": "yes",
      "addr_state": "NC",
      "addr_city": "Wake Forest",
      "addr_postcode": "27587",
      "addr_street": "South White Street",
      "addr_housenumber": "156",
      "distance": 19554.76463372
    },
    {
      "id": 28753,
      "geometry": "POINT (-78.591885 35.821413)",
      "poi_name": "Starbucks",
      "osm_id": 8256226565,
      "amenity": "cafe",
      "cuisine": "coffee_shop",
      "takeaway": "yes",
      "official_name": "Starbucks Coffee",
      "distance": 18273.82223292
    },
    {
      "id": 31172,
      "geometry": "POINT (-78.645939 35.777546)",
      "poi_name": "Heirloom - Coffee, Tea, Sake",
      "osm_id": 8409103919,
      "amenity": "cafe",
      "opening_hours": "Mo-Tu 08:00-18:00, We-Su 08:00-16:00, We-Su 17:00-21:00",
      "website": "https://www.heirloombrewshop.com/",
      "internet_access": "wlan",
      "outdoor_seating": "yes",
      "addr_state": "NC",
      "addr_city": "Raleigh",
      "addr_postcode": "27603",
      "addr_street": "South West Street",
      "addr_housenumber": "219",
      "distance": 23885.4349949
    },
    {
      "id": 31180,
      "geometry": "POINT (-78.639632 35.778176)",
      "poi_name": "Raleigh Raw Juice Bar & Cafe",
      "osm_id": 8409195060,
      "amenity": "cafe",
      "distance": 23315.99426132
    },
    {
      "id": 31215,
      "geometry": "POINT (-78.646144 35.772576)",
      "poi_name": "Cold Off the Press",
      "osm_id": 8412005325,
      "amenity": "cafe",
      "distance": 24047.24430982
    },
    {
      "id": 31273,
      "geometry": "POINT (-77.406477 35.611282)",
      "poi_name": "Starbucks",
      "osm_id": 8416736295,
      "amenity": "cafe",
      "cuisine": "coffee_shop",
      "takeaway": "yes",
      "official_name": "Starbucks Coffee",
      "distance": 92273.31530669
    },
    {
      "id": 31333,
      "geometry": "POINT (-78.959368 35.959856)",
      "poi_name": "Starbucks",
      "osm_id": 8419557453,
      "amenity": "cafe",
      "cuisine": "coffee_shop",
      "takeaway": "yes",
      "official_name": "Starbucks Coffee",
      "distance": 53349.22488698
    },
    {
      "id": 33453,
      "geometry": "POINT (-78.850731 35.732154)",
      "poi_name": "Common Grounds Coffee House",
      "osm_id": 2668372864,
      "amenity": "cafe",
      "cuisine": "coffee_shop",
      "addr_state": "NC",
      "addr_city": "Apex",
      "addr_postcode": "27502",
      "addr_street": "North Salem Street",
      "addr_housenumber": "219",
      "distance": 43079.04545943
    },
    {
      "id": 34560,
      "geometry": "POINT (-78.99381 35.954328)",
      "poi_name": "Starbucks",
      "osm_id": 2701277011,
      "amenity": "cafe",
      "cuisine": "coffee_shop",
      "opening_hours": "Mo-Th 05:30-21:30; Fr-Sa 05:30-22:00; Su 06:00-21:00",
      "internet_access": "yes",
      "phone": "+1 919 493 2471",
      "takeaway": "yes",
      "official_name": "Starbucks Coffee",
      "addr_state": "NC",
      "addr_city": "Durham",
      "addr_postcode": "27707",
      "addr_street": "New Hope Commons Drive",
      "addr_housenumber": "5319",
      "distance": 56201.03596785
    },
    {
      "id": 36425,
      "geometry": "POINT (-79.062751 35.910013)",
      "poi_name": "Saturni",
      "osm_id": 2763321665,
      "amenity": "cafe",
      "addr_state": "NC",
      "addr_city": "Chapel Hill",
      "addr_postcode": "27516",
      "addr_street": "West Franklin Street",
      "addr_housenumber": "431",
      "distance": 61382.23242193
    },
    {
      "id": 38613,
      "geometry": "POINT (-78.741832 35.74615)",
      "poi_name": "Starbucks",
      "osm_id": 2871606686,
      "amenity": "cafe",
      "cuisine": "coffee_shop",
      "phone": "(919) 851-6439",
      "takeaway": "yes",
      "official_name": "Starbucks Coffee",
      "addr_state": "NC",
      "addr_city": "Cary",
      "addr_postcode": "27518",
      "addr_street": "Tryon Woods Drive",
      "addr_housenumber": "8204",
      "distance": 33175.5577417
    },
    {
      "id": 39442,
      "geometry": "POINT (-78.639665 35.773856)",
      "poi_name": "Starbucks",
      "osm_id": 2921397022,
      "amenity": "cafe",
      "cuisine": "coffee_shop",
      "opening_hours": "07:00-19:00",
      "phone": "+1-919-334-9894",
      "takeaway": "yes",
      "official_name": "Starbucks Coffee",
      "addr_state": "NC",
      "addr_city": "Raleigh",
      "addr_postcode": "27601",
      "addr_street": "Fayetteville Street",
      "addr_housenumber": "500",
      "distance": 23444.88847424
    },
    {
      "id": 40898,
      "geometry": "POINT (-79.319172 35.946613)",
      "poi_name": "Cup 22",
      "osm_id": 2985902749,
      "amenity": "cafe",
      "cuisine": "coffee_shop",
      "opening_hours": "Mo-Fr 07:00-17:00;Sa-Su 08:00-17:00",
      "internet_access": "yes",
      "addr_state": "NC",
      "addr_city": "Saxapahaw",
      "addr_postcode": "27340",
      "addr_street": "Saxapahaw-Bethlehem Church Road",
      "addr_housenumber": "1711",
      "distance": 84865.95669474
    },
    {
      "id": 42089,
      "geometry": "POINT (-78.901693 35.999416)",
      "poi_name": "Daisy Cakes",
      "osm_id": 3042465478,
      "amenity": "cafe",
      "addr_state": "NC",
      "addr_city": "Durham",
      "addr_postcode": "27701",
      "addr_street": "Foster Street",
      "addr_housenumber": "401",
      "distance": 49814.68601729
    },
    {
      "id": 44213,
      "geometry": "POINT (-78.925785 35.02904)",
      "poi_name": "Village Coffee House",
      "osm_id": 3150604169,
      "amenity": "cafe",
      "distance": 101425.58575318
    },
    {
      "id": 46152,
      "geometry": "POINT (-78.638984 35.774209)",
      "poi_name": "Crema",
      "osm_id": 3248742644,
      "amenity": "cafe",
      "cuisine": "coffee_shop;ice_cream;breakfast;sandwich",
      "opening_hours": "Mo-Fr 07:30-16:30",
      "website": "https://cremaandmore.com/",
      "phone": "+1 919 834 7279",
      "takeaway": "yes",
      "outdoor_seating": "yes",
      "addr_state": "NC",
      "addr_city": "Raleigh",
      "addr_postcode": "27601",
      "addr_street": "Fayetteville Street",
      "addr_housenumber": "421",
      "distance": 23374.9204964
    },
    {
      "id": 46201,
      "geometry": "POINT (-79.520566 36.068225)",
      "poi_name": "Starbucks",
      "osm_id": 3252523857,
      "amenity": "cafe",
      "cuisine": "coffee_shop",
      "takeaway": "yes",
      "official_name": "Starbucks Coffee",
      "addr_state": "NC",
      "addr_city": "Burlington",
      "addr_street": "University Drive",
      "addr_housenumber": "1447 A",
      "distance": 105335.92291098
    },
    {
      "id": 46622,
      "geometry": "POINT (-77.369773 35.581074)",
      "poi_name": "Egg Yolk Breakfast and Lunch Cafe",
      "osm_id": 3279250878,
      "amenity": "cafe",
      "cuisine": "sandwich",
      "opening_hours": "Mo-Sa 7:00-14:00; Su 8:00-14:00",
      "distance": 96407.63785483
    },
    {
      "id": 46629,
      "geometry": "POINT (-77.369716 35.580152)",
      "poi_name": "Village Point Market",
      "osm_id": 3279418632,
      "amenity": "cafe",
      "cuisine": "american",
      "distance": 96442.56401545
    },
    {
      "id": 47859,
      "geometry": "POINT (-78.670176 35.788398)",
      "poi_name": "Saxbys Coffee",
      "osm_id": 3353211810,
      "amenity": "cafe",
      "cuisine": "coffee_shop",
      "opening_hours": "Mo-Fr 6:30-22:00; Sa 8:00-22:00; Su 9:00-21:00",
      "website": "https://saxbyscoffee.com/",
      "internet_access": "wlan",
      "phone": "+1-919-977-0265",
      "addr_state": "NC",
      "addr_city": "Raleigh",
      "addr_postcode": "27607",
      "addr_street": "Hillsborough Street",
      "addr_housenumber": "2604",
      "distance": 25762.32806037
    },
    {
      "id": 48623,
      "geometry": "POINT (-78.846383 35.793734)",
      "poi_name": "Boba Baba Tea Cafe",
      "osm_id": 3391752475,
      "amenity": "cafe",
      "distance": 41454.21141009
    },
    {
      "id": 51479,
      "geometry": "POINT (-79.054066 35.908137)",
      "poi_name": "Espressoasis",
      "osm_id": 536179106,
      "amenity": "cafe",
      "cuisine": "coffee_shop",
      "opening_hours": "Mo-Fr 08:00-14:00",
      "distance": 60577.02778441
    },
    {
      "id": 51707,
      "geometry": "POINT (-78.940604 36.000866)",
      "poi_name": "Beyu Blue",
      "osm_id": 553748730,
      "amenity": "cafe",
      "distance": 53143.48999209
    },
    {
      "id": 51874,
      "geometry": "POINT (-79.055601 35.913402)",
      "poi_name": "Starbucks",
      "osm_id": 564718038,
      "amenity": "cafe",
      "cuisine": "coffee_shop",
      "opening_hours": "Mo-Sa 06:00-23:00;Su 06:30-21:00",
      "operator": "Starbucks",
      "internet_access": "wlan",
      "takeaway": "yes",
      "official_name": "Starbucks Coffee",
      "addr_state": "NC",
      "addr_city": "Chapel Hill",
      "addr_postcode": "27514",
      "addr_street": "East Franklin Street",
      "addr_housenumber": "103",
      "distance": 60797.22256344
    },
    {
      "id": 54513,
      "geometry": "POINT (-78.847341 35.66269)",
      "poi_name": "Starbucks",
      "osm_id": 10138327621,
      "amenity": "cafe",
      "cuisine": "coffee_shop",
      "opening_hours": "Mo-Su 05:30-21:00",
      "website": "https://www.starbucks.com/store-locator/store/116560/hwy-55-new-hill-road-185-grand-hill-place-holly-springs-nc-275404415-us",
      "internet_access": "wlan",
      "phone": "+1-919-557-3246",
      "takeaway": "yes",
      "drive_through": "yes",
      "official_name": "Starbucks Coffee",
      "outdoor_seating": "yes",
      "distance": 45393.92076264
    },
    {
      "id": 54917,
      "geometry": "POINT (-78.842077 35.857327)",
      "poi_name": "Starbucks",
      "osm_id": 10162403632,
      "amenity": "cafe",
      "cuisine": "coffee_shop",
      "takeaway": "yes",
      "official_name": "Starbucks Coffee",
      "distance": 40943.06697132
    },
    {
      "id": 54918,
      "geometry": "POINT (-78.842063 35.855802)",
      "poi_name": "Fount Coffee & Kitchen",
      "osm_id": 10162403633,
      "amenity": "cafe",
      "cuisine": "coffee_shop",
      "distance": 40930.54663586
    },
    {
      "id": 56238,
      "geometry": "POINT (-78.738522 35.408544)",
      "poi_name": "Starbucks",
      "osm_id": 10229168001,
      "amenity": "cafe",
      "cuisine": "coffee_shop",
      "takeaway": "yes",
      "official_name": "Starbucks Coffee",
      "distance": 56530.21307478
    },
    {
      "id": 56968,
      "geometry": "POINT (-77.594838 35.594685)",
      "poi_name": "Gorhams Cafe",
      "osm_id": 10255676603,
      "amenity": "cafe",
      "phone": "+12528144366",
      "addr_state": "NC",
      "addr_city": "Farmville",
      "addr_postcode": "27828",
      "addr_street": "South Fields Street",
      "addr_housenumber": "3569",
      "distance": 76589.16062004
    },
    {
      "id": 56971,
      "geometry": "POINT (-77.401259 35.545074)",
      "poi_name": "The Biscuit & The Bean Cafe",
      "osm_id": 10255723769,
      "amenity": "cafe",
      "phone": "+12523217425",
      "addr_state": "NC",
      "addr_city": "Winterville",
      "addr_postcode": "28590",
      "addr_street": "Beacon Drive",
      "addr_housenumber": "168",
      "distance": 94961.14703497
    },
    {
      "id": 56974,
      "geometry": "POINT (-78.889681 36.019894)",
      "poi_name": "Omie\u2019s Coffee",
      "osm_id": 10257225612,
      "amenity": "cafe",
      "cuisine": "coffee_shop",
      "addr_state": "NC",
      "addr_city": "Durham",
      "addr_postcode": "27704",
      "addr_street": "North Roxboro Street",
      "addr_housenumber": "2300",
      "distance": 49719.26117673
    },
    {
      "id": 61571,
      "geometry": "POINT (-78.74109 35.760564)",
      "poi_name": "Starbucks",
      "osm_id": 5523893932,
      "amenity": "cafe",
      "cuisine": "coffee_shop",
      "takeaway": "yes",
      "official_name": "Starbucks Coffee",
      "addr_state": "NC",
      "addr_city": "Cary",
      "addr_postcode": "27518",
      "addr_street": "Crossroads Boulevard",
      "addr_housenumber": "204",
      "distance": 32688.82899888
    },
    {
      "id": 62707,
      "geometry": "POINT (-78.466481 35.918156)",
      "poi_name": "The Coffee Lodge",
      "osm_id": 5583126739,
      "amenity": "cafe",
      "cuisine": "cafe",
      "phone": "+19194136733",
      "drive_through": "yes",
      "outdoor_seating": "yes",
      "addr_state": "NC",
      "addr_city": "Rolesville",
      "addr_postcode": "27571",
      "addr_street": "South Main Street",
      "addr_housenumber": "412",
      "distance": 11867.71413274
    },
    {
      "id": 64194,
      "geometry": "POINT (-78.958603 35.917772)",
      "poi_name": "Starbucks",
      "osm_id": 5643678986,
      "amenity": "cafe",
      "cuisine": "coffee_shop",
      "takeaway": "yes",
      "official_name": "Starbucks Coffee",
      "addr_state": "NC",
      "addr_city": "Durham",
      "distance": 52238.91746454
    },
    {
      "id": 64199,
      "geometry": "POINT (-78.957002 35.920549)",
      "poi_name": "Joe van Gogh",
      "osm_id": 5644388830,
      "amenity": "cafe",
      "website": "https://www.joevangogh.com/pages/south-durham-woodcroft",
      "addr_state": "NC",
      "addr_city": "Durham",
      "addr_postcode": "27713",
      "addr_street": "Hope Valley Road",
      "addr_housenumber": "4711",
      "distance": 52153.58662813
    },
    {
      "id": 66153,
      "geometry": "POINT (-79.062672 35.91028)",
      "poi_name": "Cat Tales Cat Caf\u00e9",
      "osm_id": 5731523887,
      "amenity": "cafe",
      "opening_hours": "Tu-Su 12:00+",
      "website": "https://cattalescatcafe.com",
      "phone": "+1-843-345-5289",
      "addr_state": "NC",
      "addr_city": "Chapel Hill",
      "addr_postcode": "27516",
      "addr_street": "West Franklin Street",
      "addr_housenumber": "431",
      "distance": 61379.3771229
    },
    {
      "id": 66187,
      "geometry": "POINT (-79.099988 36.075584)",
      "poi_name": "Cup-A-Joe",
      "osm_id": 5732093512,
      "amenity": "cafe",
      "cuisine": "coffee_shop",
      "opening_hours": "Mo-Su 07:00-15:00",
      "addr_state": "NC",
      "addr_city": "Hillsborough",
      "addr_postcode": "27278",
      "addr_street": "West King Street",
      "addr_housenumber": "112",
      "distance": 69556.41447731
    },
    {
      "id": 66236,
      "geometry": "POINT (-79.010722 35.905515)",
      "poi_name": "Quickly",
      "osm_id": 5732455974,
      "amenity": "cafe",
      "cuisine": "bubble_tea",
      "takeaway": "yes",
      "addr_state": "NC",
      "addr_city": "Chapel Hill",
      "addr_postcode": "27517",
      "addr_street": "Meadowmont Village Circle",
      "addr_housenumber": "503",
      "distance": 56662.15746714
    },
    {
      "id": 66638,
      "geometry": "POINT (-78.795817 35.875476)",
      "poi_name": "Starbucks",
      "osm_id": 11203269491,
      "amenity": "cafe",
      "cuisine": "coffee_shop",
      "opening_hours": "Mo-Su 04:30-19:30",
      "website": "https://www.rdu.com/starbucks-terminal-2/",
      "takeaway": "yes",
      "official_name": "Starbucks Coffee",
      "distance": 36984.93400457
    },
    {
      "id": 66641,
      "geometry": "POINT (-78.78969 35.874657)",
      "poi_name": "Starbucks",
      "osm_id": 11203284565,
      "amenity": "cafe",
      "cuisine": "coffee_shop",
      "website": "https://www.rdu.com/starbucks-terminal-1/",
      "takeaway": "yes",
      "official_name": "Starbucks Coffee",
      "distance": 36424.50857926
    },
    {
      "id": 71404,
      "geometry": "POINT (-78.798016 35.736706)",
      "poi_name": "Asali Cafe",
      "osm_id": 11388702621,
      "amenity": "cafe",
      "cuisine": "dessert;coffee_shop",
      "opening_hours": "Mo-Su 09:00-21:00",
      "website": "https://www.asalievents.com/",
      "phone": "919-362-7882",
      "addr_state": "NC",
      "addr_city": "Cary",
      "addr_postcode": "27511",
      "addr_street": "Edinburgh Dr",
      "addr_housenumber": "107",
      "distance": 38347.72551503
    },
    {
      "id": 67576,
      "geometry": "POINT (-78.800309 35.571066)",
      "poi_name": "Right Meow Cat Cafe",
      "osm_id": 11241332539,
      "amenity": "cafe",
      "website": "https://www.rightmeowcatcafe.com/",
      "addr_state": "NC",
      "addr_city": "Fuquay Varina",
      "addr_postcode": "27526",
      "addr_street": "South Main Street",
      "addr_housenumber": "913",
      "distance": 47029.26105373
    },
    {
      "id": 69148,
      "geometry": "POINT (-78.644698 35.775524)",
      "poi_name": "Black & White",
      "osm_id": 11296027077,
      "amenity": "cafe",
      "opening_hours": "Sa 09:00-18:00; Su 11:00-17:00; Mo-Fr 08:00-18:00",
      "distance": 23834.24508712
    },
    {
      "id": 69527,
      "geometry": "POINT (-78.849482 35.753938)",
      "poi_name": "Wake Zone",
      "osm_id": 11308748777,
      "amenity": "cafe",
      "cuisine": "coffee_shop",
      "internet_access": "wlan",
      "distance": 42410.76544212
    },
    {
      "id": 69810,
      "geometry": "POINT (-78.662688 35.789507)",
      "poi_name": "Cafe Carolina",
      "osm_id": 11331622864,
      "amenity": "cafe",
      "distance": 25074.2888109
    },
    {
      "id": 72697,
      "geometry": "POINT (-78.848189 35.661898)",
      "poi_name": "Rise Biscuits Donuts",
      "osm_id": 11443727569,
      "amenity": "cafe",
      "cuisine": "breakfast",
      "opening_hours": "Mo-Su 07:00-14:00",
      "website": "https://risebiscuitschicken.com/",
      "phone": "919-586-7343",
      "addr_postcode": "27540",
      "addr_street": "Grand Hill Place",
      "addr_housenumber": "169",
      "distance": 45500.199861
    },
    {
      "id": 75004,
      "geometry": "POINT (-78.283044 35.53649)",
      "poi_name": "Coffee On Raiford",
      "osm_id": 9707123546,
      "amenity": "cafe",
      "phone": "+19196349669",
      "addr_state": "NC",
      "addr_city": "Selma",
      "addr_postcode": "27576",
      "addr_street": "North Raiford Street",
      "addr_housenumber": "123",
      "distance": 34099.45039258
    },
    {
      "id": 75164,
      "geometry": "POINT (-78.817076 35.397926)",
      "poi_name": "Bubs and Spankie Coffee Co.",
      "osm_id": 9716754036,
      "amenity": "cafe",
      "cuisine": "coffee_shop",
      "phone": "+19102929837",
      "addr_state": "NC",
      "addr_city": "Lillington",
      "addr_postcode": "27546",
      "addr_street": "West Ivy Street",
      "addr_housenumber": "6",
      "distance": 61707.01991407
    },
    {
      "id": 81670,
      "geometry": "POINT (-79.066648 35.910773)",
      "poi_name": "Jessee's",
      "osm_id": 1655040653,
      "amenity": "cafe",
      "cuisine": "coffee_shop",
      "website": "http://jesseescoffee.com/",
      "internet_access": "yes",
      "addr_state": "NC",
      "addr_city": "Carrboro",
      "addr_postcode": "27510",
      "addr_street": "East Main Street",
      "addr_housenumber": "401",
      "distance": 61742.34834405
    },
    {
      "id": 75472,
      "geometry": "POINT (-78.683466 35.842273)",
      "poi_name": "Fiction Coffee",
      "osm_id": 9732756461,
      "amenity": "cafe",
      "outdoor_seating": "yes",
      "addr_state": "NC",
      "addr_city": "Raleigh",
      "addr_postcode": "27612",
      "addr_street": "Creedmoor Road",
      "addr_housenumber": "102",
      "distance": 26542.20404171
    },
    {
      "id": 78477,
      "geometry": "POINT (-78.938795 35.909665)",
      "poi_name": "Bean Traders",
      "osm_id": 748177715,
      "amenity": "cafe",
      "cuisine": "coffee_shop",
      "opening_hours": "Mo-Su 06:00-18:00",
      "internet_access": "wlan",
      "outdoor_seating": "yes",
      "addr_state": "NC",
      "addr_city": "Durham",
      "addr_postcode": "27713",
      "addr_street": "State Highway 54",
      "addr_housenumber": "105 W",
      "distance": 50320.75593897
    },
    {
      "id": 79957,
      "geometry": "POINT (-78.678668 35.887761)",
      "poi_name": "Starbucks",
      "osm_id": 839251195,
      "amenity": "cafe",
      "cuisine": "coffee_shop",
      "takeaway": "yes",
      "official_name": "Starbucks Coffee",
      "addr_state": "NC",
      "addr_city": "Raleigh",
      "addr_postcode": "27613",
      "addr_street": "Creedmoor Road",
      "addr_housenumber": "7498",
      "distance": 26818.01622026
    },
    {
      "id": 81606,
      "geometry": "POINT (-79.053069 35.905603)",
      "poi_name": "Friend's Cafe",
      "osm_id": 1650540188,
      "amenity": "cafe",
      "opening_hours": "Mo-Fr 07:30-16:00",
      "internet_access": "wlan",
      "distance": 60449.78742435
    },
    {
      "id": 86321,
      "geometry": "POINT (-79.072035 35.909836)",
      "poi_name": "Open Eye Cafe",
      "osm_id": 1926599961,
      "amenity": "cafe",
      "cuisine": "coffee_shop",
      "opening_hours": "Mo-Th 07:00-23:00; Fr,Sa 07:00-24:00; Su 08:00-23:00",
      "website": "https://openeyecafe.com/",
      "internet_access": "yes",
      "outdoor_seating": "yes",
      "addr_state": "NC",
      "addr_city": "Carrboro",
      "addr_postcode": "27510",
      "addr_street": "South Greensboro Street",
      "addr_housenumber": "101",
      "distance": 62209.60519958
    },
    {
      "id": 83425,
      "geometry": "POINT (-78.962351 35.074773)",
      "poi_name": "Starbucks",
      "osm_id": 1744505216,
      "amenity": "cafe",
      "cuisine": "coffee_shop",
      "wheelchair": "yes",
      "takeaway": "yes",
      "official_name": "Starbucks Coffee",
      "distance": 98703.7129418
    },
    {
      "id": 60754,
      "geometry": "POINT (-79.060638 35.911434)",
      "poi_name": "Cha House",
      "osm_id": 5478725311,
      "amenity": "cafe",
      "distance": 61215.59209741
    },
    {
      "id": 85382,
      "geometry": "POINT (-79.05438 35.90564)",
      "poi_name": "Atrium Cafe",
      "osm_id": 1862352694,
      "amenity": "cafe",
      "distance": 60567.58972388
    },
    {
      "id": 86521,
      "geometry": "POINT (-78.643294 35.836364)",
      "poi_name": "Keva Juice",
      "osm_id": 1936233953,
      "amenity": "cafe",
      "distance": 22892.1833101
    },
    {
      "id": 86522,
      "geometry": "POINT (-78.642749 35.83701)",
      "poi_name": "Starbucks",
      "osm_id": 1936235156,
      "amenity": "cafe",
      "cuisine": "coffee_shop",
      "takeaway": "yes",
      "official_name": "Starbucks Coffee",
      "distance": 22844.82252098
    },
    {
      "id": 86548,
      "geometry": "POINT (-78.642513 35.836251)",
      "poi_name": "Starbucks",
      "osm_id": 1937486104,
      "amenity": "cafe",
      "cuisine": "coffee_shop",
      "takeaway": "yes",
      "official_name": "Starbucks Coffee",
      "distance": 22821.37945713
    },
    {
      "id": 90196,
      "geometry": "POINT (-79.027024 35.932499)",
      "poi_name": "3CUPS",
      "osm_id": 1982192787,
      "amenity": "cafe",
      "website": "http://www.3cups.net/",
      "distance": 58609.54840492
    },
    {
      "id": 86574,
      "geometry": "POINT (-78.643078 35.839906)",
      "poi_name": "Starbucks",
      "osm_id": 1938640026,
      "amenity": "cafe",
      "cuisine": "coffee_shop",
      "takeaway": "yes",
      "official_name": "Starbucks Coffee",
      "distance": 22885.40918629
    },
    {
      "id": 86875,
      "geometry": "POINT (-79.050797 35.907737)",
      "poi_name": "Genomic Cafe",
      "osm_id": 1956714438,
      "amenity": "cafe",
      "website": "http://dining2014.csit.unc.edu/WheretoEat/GenomicCafe",
      "distance": 60278.65383521
    },
    {
      "id": 89036,
      "geometry": "POINT (-79.051377 36.272726)",
      "poi_name": "Flat River Cafe",
      "osm_id": 8818581417,
      "amenity": "cafe",
      "opening_hours": "Tu-Sa 06:00-14:00",
      "website": "https://hurdlemillsmarket.com/",
      "internet_access": "wlan",
      "phone": "3363648800",
      "addr_state": "NC",
      "addr_city": "Hurdle Mills",
      "addr_postcode": "27541",
      "addr_street": "Hurdle Mills Road",
      "addr_housenumber": "9580",
      "distance": 77147.05718257
    },
    {
      "id": 89840,
      "geometry": "POINT (-78.649997 35.786204)",
      "poi_name": "Iris Coffee Lab",
      "osm_id": 8865972717,
      "amenity": "cafe",
      "internet_access": "wlan",
      "addr_postcode": "27603",
      "addr_street": "Tucker Street",
      "addr_housenumber": "725",
      "distance": 24021.85116983
    },
    {
      "id": 91040,
      "geometry": "POINT (-78.852087 35.790292)",
      "poi_name": "Starbucks",
      "osm_id": 2036729055,
      "amenity": "cafe",
      "cuisine": "coffee_shop",
      "opening_hours": "Mo-Sa 07:00-20:00; Su 07:00-19:00",
      "takeaway": "yes",
      "official_name": "Starbucks Coffee",
      "distance": 42007.56307681
    },
    {
      "id": 90341,
      "geometry": "POINT (-79.054313 35.913522)",
      "poi_name": "1922",
      "osm_id": 1990604457,
      "amenity": "cafe",
      "addr_state": "NC",
      "addr_city": "Chapel Hill",
      "addr_postcode": "27514",
      "addr_street": "East Franklin Street",
      "addr_housenumber": "140",
      "distance": 60684.22212456
    },
    {
      "id": 92391,
      "geometry": "POINT (-78.826698 35.788999)",
      "poi_name": "Kung Fu Tea",
      "osm_id": 2118729725,
      "amenity": "cafe",
      "cuisine": "bubble_tea",
      "internet_access": "yes",
      "takeaway": "yes",
      "outdoor_seating": "no",
      "addr_state": "NC",
      "addr_city": "Cary",
      "addr_postcode": "27513",
      "addr_street": "High House Road",
      "addr_housenumber": "966",
      "distance": 39744.08919916
    },
    {
      "id": 94390,
      "geometry": "POINT (-78.827442 35.790702)",
      "poi_name": "La Farm Bakery",
      "osm_id": 2239164859,
      "amenity": "cafe",
      "opening_hours": "Mo-Sa 07:00-19:00;Su 07:00-17:00",
      "distance": 39788.68038327
    },
    {
      "id": 92947,
      "geometry": "POINT (-79.41948 35.157824)",
      "poi_name": "Starbucks",
      "osm_id": 2143118923,
      "amenity": "cafe",
      "cuisine": "coffee_shop",
      "takeaway": "yes",
      "drive_through": "yes",
      "official_name": "Starbucks Coffee",
      "addr_street": "Columbus Dr",
      "addr_housenumber": "110",
      "distance": 119608.89527594
    },
    {
      "id": 92456,
      "geometry": "POINT (-78.737952 35.761173)",
      "poi_name": "Coffee & Crepes",
      "osm_id": 2121961572,
      "amenity": "cafe",
      "cuisine": "crepe",
      "wheelchair": "limited",
      "opening_hours": "Mo-Fr 07:00-18:00; Sa 07:00-16:00; Su 09:00-16:00",
      "internet_access": "wlan",
      "outdoor_seating": "yes",
      "addr_state": "NC",
      "addr_city": "Cary",
      "addr_postcode": "27518",
      "addr_street": "Crossroads Boulevard",
      "addr_housenumber": "315",
      "distance": 32397.10795671
    },
    {
      "id": 92461,
      "geometry": "POINT (-78.87832 35.744756)",
      "poi_name": "Starbucks",
      "osm_id": 2121961594,
      "amenity": "cafe",
      "cuisine": "coffee_shop",
      "opening_hours": "08:00-20:00",
      "takeaway": "yes",
      "official_name": "Starbucks Coffee",
      "distance": 45174.6558821
    },
    {
      "id": 94391,
      "geometry": "POINT (-78.829776 35.789164)",
      "poi_name": "McCaf\u00e9",
      "osm_id": 2239164955,
      "amenity": "cafe",
      "cuisine": "coffee_shop",
      "takeaway": "yes",
      "distance": 40018.13365081
    },
    {
      "id": 94403,
      "geometry": "POINT (-78.848125 35.788514)",
      "poi_name": "Crema Coffee",
      "osm_id": 2240788252,
      "amenity": "cafe",
      "cuisine": "coffee_shop",
      "opening_hours": "Mo-Th 06:30-18:00;Fr 06:30-14:00;Sa 07:00-12:00",
      "addr_state": "NC",
      "addr_street": "High House Road",
      "addr_housenumber": "1983",
      "distance": 41673.966756
    },
    {
      "id": 94915,
      "geometry": "POINT (-78.667759 35.787828)",
      "poi_name": "Global Village Organic Coffee",
      "osm_id": 6380044105,
      "amenity": "cafe",
      "cuisine": "tea;coffee_shop",
      "opening_hours": "Su off; Mo-Th 07:00-18:00; Fr 07:00-16:00; Sa 08:00-14:00",
      "internet_access": "wlan",
      "outdoor_seating": "no",
      "addr_state": "NC",
      "addr_city": "Raleigh",
      "addr_postcode": "27607",
      "addr_street": "Hillsborough Street",
      "addr_housenumber": "2428",
      "distance": 25559.55960226
    },
    {
      "id": 96244,
      "geometry": "POINT (-78.781615 35.735898)",
      "poi_name": "New York Bages",
      "osm_id": 6424323431,
      "amenity": "cafe",
      "cuisine": "bagel",
      "distance": 36949.33825044
    },
    {
      "id": 101777,
      "geometry": "POINT (-78.456784 35.650204)",
      "poi_name": "The Cardinal Bar",
      "osm_id": 6643310171,
      "amenity": "cafe",
      "opening_hours": "Mo-Su 12:00-02:00",
      "addr_city": "Clayton",
      "addr_postcode": "27520",
      "addr_street": "East Second Street",
      "addr_housenumber": "408",
      "distance": 20967.96601246
    },
    {
      "id": 99673,
      "geometry": "POINT (-78.620203 35.866538)",
      "poi_name": "Starbucks",
      "osm_id": 6561325875,
      "amenity": "cafe",
      "cuisine": "coffee_shop",
      "takeaway": "yes",
      "official_name": "Starbucks Coffee",
      "distance": 21161.68909668
    },
    {
      "id": 100004,
      "geometry": "POINT (-78.580416 35.855701)",
      "poi_name": "Starbucks",
      "osm_id": 6571106908,
      "amenity": "cafe",
      "cuisine": "coffee_shop",
      "takeaway": "yes",
      "official_name": "Starbucks Coffee",
      "distance": 17415.63060976
    },
    {
      "id": 101305,
      "geometry": "POINT (-78.34643 35.511625)",
      "poi_name": "Tandoori Trail",
      "osm_id": 6621175706,
      "amenity": "cafe",
      "opening_hours": "Mo-Sa 11:00-21:00. Su 11:00-19:00",
      "phone": "+1 (919) 205-1668",
      "addr_state": "NC",
      "addr_city": "Smithfield",
      "addr_postcode": "27577",
      "addr_street": "East Market Street",
      "addr_housenumber": "227",
      "distance": 35673.48338618
    },
    {
      "id": 101710,
      "geometry": "POINT (-78.160258 35.464844)",
      "poi_name": "Milltown Java",
      "osm_id": 6640699320,
      "amenity": "cafe",
      "addr_city": "Princeton",
      "addr_postcode": "27569",
      "addr_street": "South Center Street",
      "addr_housenumber": "116",
      "distance": 45661.10049901
    },
    {
      "id": 101733,
      "geometry": "POINT (-78.548209 35.381373)",
      "poi_name": "Cornerstone Cafe & Coffee",
      "osm_id": 6641825889,
      "amenity": "cafe",
      "opening_hours": "Mo-Fr 09:00-20:00; Sa 08:00-14:00",
      "phone": "(919) 701-1600",
      "addr_state": "NC",
      "addr_city": "Benson",
      "addr_postcode": "27504",
      "addr_street": "West Main Street",
      "addr_housenumber": "101",
      "distance": 51923.82626449
    },
    {
      "id": 99901,
      "geometry": "POINT (-78.543063 35.966403)",
      "poi_name": "Starbucks",
      "osm_id": 6568292143,
      "amenity": "cafe",
      "cuisine": "coffee_shop",
      "takeaway": "yes",
      "official_name": "Starbucks Coffee",
      "distance": 20397.79501775
    },
    {
      "id": 100488,
      "geometry": "POINT (-78.427942 35.627317)",
      "poi_name": "Skylines Cafe",
      "osm_id": 6589647032,
      "amenity": "cafe",
      "opening_hours": "Mo-Su 11:00-21:00",
      "phone": "(919) 550-7619",
      "addr_state": "NC",
      "addr_city": "Clayton",
      "addr_postcode": "27527",
      "addr_street": "US 70 Bus E",
      "addr_housenumber": "8878",
      "distance": 22877.44021167
    },
    {
      "id": 101779,
      "geometry": "POINT (-78.458978 35.652848)",
      "poi_name": "Sherry's Signature Cheesecakes",
      "osm_id": 6643339259,
      "amenity": "cafe",
      "phone": "+19192700513",
      "addr_city": "Clayton",
      "addr_postcode": "27520",
      "addr_street": "East Main Street",
      "addr_housenumber": "120",
      "distance": 20746.02260583
    },
    {
      "id": 101735,
      "geometry": "POINT (-78.550962 35.37997)",
      "poi_name": "Glenda's Sweet Shoppe & Grille",
      "osm_id": 6641834239,
      "amenity": "cafe",
      "addr_city": "Benson",
      "addr_postcode": "27504",
      "addr_street": "South Wall Street",
      "addr_housenumber": "302",
      "distance": 52142.64918147
    },
    {
      "id": 102772,
      "geometry": "POINT (-78.635677 35.693606)",
      "poi_name": "Lorraine's Coffee House & Music",
      "osm_id": 8456137455,
      "amenity": "cafe",
      "cuisine": "coffee_shop",
      "opening_hours": "Mo-Tu 06:00-20:30; We 06:00-19:30; Th-Fi 06:00-21:30; Sa 08:00-21:30; Su 11:30-18:00",
      "website": "https://www.lorrainescoffeehouse.com/",
      "internet_access": "wlan",
      "addr_state": "NC",
      "addr_city": "Garner",
      "addr_postcode": "27529",
      "addr_street": "Timber Pointe Lane",
      "addr_housenumber": "101",
      "distance": 26954.66809481
    },
    {
      "id": 102542,
      "geometry": "POINT (-77.983821 35.497295)",
      "poi_name": "The Java Hut & Creamery",
      "osm_id": 6684316121,
      "amenity": "cafe",
      "addr_state": "NC",
      "addr_city": "Pikeville",
      "addr_postcode": "27863",
      "addr_street": "North E Railroad Street",
      "addr_housenumber": "109",
      "distance": 52200.66981637
    },
    {
      "id": 102852,
      "geometry": "POINT (-78.6601 35.885324)",
      "poi_name": "SOLA Coffee Cafe",
      "osm_id": 8462363798,
      "amenity": "cafe",
      "cuisine": "coffee_shop",
      "distance": 25124.93953192
    },
    {
      "id": 102008,
      "geometry": "POINT (-78.346587 35.511314)",
      "poi_name": "Gotham's Deli",
      "osm_id": 6653646373,
      "amenity": "cafe",
      "opening_hours": "Mo-Fr 07:00-18:00; Sa 10:00-14:00",
      "phone": "+19199349100",
      "addr_city": "Smithfield",
      "addr_postcode": "27577",
      "addr_street": "East Market Street",
      "addr_housenumber": "224",
      "distance": 35706.23545384
    },
    {
      "id": 102009,
      "geometry": "POINT (-78.346907 35.510119)",
      "poi_name": "SoDoSoPa",
      "osm_id": 6653654823,
      "amenity": "cafe",
      "opening_hours": "Mo-Sa 11:00-21:00",
      "phone": "9192051076",
      "addr_city": "Smithfield",
      "addr_postcode": "27577",
      "addr_street": "South Third Street",
      "addr_housenumber": "146",
      "distance": 35834.85521211
    },
    {
      "id": 119675,
      "geometry": "POINT (-78.313116 35.821713)",
      "poi_name": "The Creative Cup",
      "osm_id": 9114722033,
      "amenity": "cafe",
      "distance": 7026.95006614
    },
    {
      "id": 114207,
      "geometry": "POINT (-79.048001 35.910298)",
      "poi_name": "Alpine Bagel",
      "osm_id": 3872368080,
      "amenity": "cafe",
      "cuisine": "bagel",
      "distance": 60068.61112517
    },
    {
      "id": 118596,
      "geometry": "POINT (-79.013886 34.982745)",
      "poi_name": "Starbucks",
      "osm_id": 9054083994,
      "amenity": "cafe",
      "cuisine": "coffee_shop",
      "takeaway": "yes",
      "official_name": "Starbucks Coffee",
      "distance": 109872.38651728
    },
    {
      "id": 104958,
      "geometry": "POINT (-78.541017 35.942959)",
      "poi_name": "Starbucks",
      "osm_id": 8593054701,
      "amenity": "cafe",
      "cuisine": "coffee_shop",
      "takeaway": "yes",
      "official_name": "Starbucks Coffee",
      "distance": 18432.47266044
    },
    {
      "id": 107330,
      "geometry": "POINT (-78.655824 35.782902)",
      "poi_name": "Cutie Pies",
      "osm_id": 3552512650,
      "amenity": "cafe",
      "operator": "Cricket Wireless LLC",
      "website": "https://www.cutiepiesofraleigh.com/contact",
      "internet_access": "no",
      "phone": "+919-594-1909",
      "outdoor_seating": "no",
      "addr_state": "NC",
      "addr_city": "Raleigh",
      "addr_postcode": "27603",
      "addr_street": "Hillsborough Street",
      "addr_housenumber": "1213",
      "distance": 24614.83410237
    },
    {
      "id": 111524,
      "geometry": "POINT (-78.644248 35.778556)",
      "poi_name": "A Place at the Table",
      "osm_id": 3752759687,
      "amenity": "cafe",
      "cuisine": "coffee;tea;breakfast;lunch;pastry",
      "opening_hours": "Mo-Sa 07:00-14:00",
      "website": "https://tableraleigh.org/",
      "internet_access": "yes",
      "outdoor_seating": "yes",
      "addr_state": "NC",
      "addr_city": "Raleigh",
      "addr_postcode": "27601",
      "addr_street": "West Hargett Street",
      "addr_housenumber": "300",
      "distance": 23709.47867967
    },
    {
      "id": 115954,
      "geometry": "POINT (-77.96167 35.741172)",
      "poi_name": "Starbucks",
      "osm_id": 8920421723,
      "amenity": "cafe",
      "cuisine": "coffee_shop",
      "takeaway": "yes",
      "official_name": "Starbucks Coffee",
      "distance": 39991.42153683
    },
    {
      "id": 123170,
      "geometry": "POINT (-78.346444 35.510168)",
      "poi_name": "Under the Oak Cafe",
      "osm_id": 6838077083,
      "amenity": "cafe",
      "addr_city": "Smithfield",
      "addr_postcode": "27577",
      "addr_street": "South Third Street",
      "addr_housenumber": "135",
      "distance": 35834.0055636
    },
    {
      "id": 120180,
      "geometry": "POINT (-79.137181 35.45368)",
      "poi_name": "Starbucks",
      "osm_id": 9143691253,
      "amenity": "cafe",
      "cuisine": "coffee_shop",
      "takeaway": "yes",
      "official_name": "Starbucks Coffee",
      "distance": 79583.17454798
    },
    {
      "id": 124553,
      "geometry": "POINT (-78.5163 35.5685)",
      "poi_name": "C3 Cafe",
      "osm_id": 6919866540,
      "amenity": "cafe",
      "phone": "9199343551",
      "addr_street": "Cleveland Road",
      "addr_housenumber": "8246",
      "distance": 31305.50995983
    },
    {
      "id": 126332,
      "geometry": "POINT (-78.670718 35.783478)",
      "poi_name": "Starbucks",
      "osm_id": 6993756773,
      "amenity": "cafe",
      "cuisine": "coffee_shop",
      "takeaway": "yes",
      "official_name": "Starbucks Coffee",
      "outdoor_seating": "yes",
      "distance": 25917.21811706
    },
    {
      "id": 127671,
      "geometry": "POINT (-79.054022 35.902421)",
      "poi_name": "Saladelia",
      "osm_id": 8083291362,
      "amenity": "cafe",
      "opening_hours": "Mo-Fr 08:00-15:00",
      "distance": 60489.10934872
    },
    {
      "id": 126449,
      "geometry": "POINT (-78.623582 35.800065)",
      "poi_name": "Pine State Coffe",
      "osm_id": 7003585459,
      "amenity": "cafe",
      "cuisine": "coffee_shop",
      "opening_hours": "Tu-Su 07:00-19:00",
      "website": "https://www.pinestatecoffee.com/",
      "internet_access": "yes",
      "outdoor_seating": "yes",
      "addr_state": "NC",
      "addr_city": "Raleigh",
      "addr_postcode": "27604",
      "addr_street": "Automotive Way",
      "addr_housenumber": "1614",
      "distance": 21389.0506613
    },
    {
      "id": 126661,
      "geometry": "POINT (-78.708687 35.825294)",
      "poi_name": "Caribou Coffee",
      "osm_id": 7989975399,
      "amenity": "cafe",
      "cuisine": "coffee_shop",
      "opening_hours": "Mo-Su 06:00-20:00",
      "takeaway": "yes",
      "addr_state": "NC",
      "addr_city": "Raleigh",
      "addr_postcode": "27612",
      "addr_street": "Duraleigh Road",
      "addr_housenumber": "3300",
      "distance": 28802.75398667
    },
    {
      "id": 132160,
      "geometry": "POINT (-78.467075 35.92149)",
      "poi_name": "Black and White Coffee Roasters",
      "osm_id": 9945190174,
      "amenity": "cafe",
      "cuisine": "coffee_shop",
      "wheelchair": "yes",
      "opening_hours": "Mo-Sa 07:00-16:00; Su 08:00-15:00",
      "website": "https://blackwhiteroasters.com/",
      "internet_access": "wlan",
      "takeaway": "yes",
      "outdoor_seating": "yes",
      "addr_street": "Rogers Road",
      "addr_housenumber": "6320",
      "distance": 12200.83499192
    },
    {
      "id": 128877,
      "geometry": "POINT (-78.95249 35.066224)",
      "poi_name": "Bubble Tea",
      "osm_id": 8193323634,
      "amenity": "cafe",
      "cuisine": "bubble_tea",
      "distance": 99048.20198655
    },
    {
      "id": 130170,
      "geometry": "POINT (-79.023319 35.244095)",
      "poi_name": "Starbucks",
      "osm_id": 9857066281,
      "amenity": "cafe",
      "cuisine": "coffee_shop",
      "takeaway": "yes",
      "official_name": "Starbucks Coffee",
      "addr_state": "NC",
      "addr_city": "Cameron",
      "addr_postcode": "28326",
      "addr_street": "NC 24-87",
      "addr_housenumber": "2822",
      "distance": 86840.23401424
    },
    {
      "id": 133468,
      "geometry": "POINT (-78.98492 35.19108)",
      "poi_name": "Cactus Creek Coffee And Smoothie Bar",
      "osm_id": 9995457570,
      "amenity": "cafe",
      "cuisine": "coffee_shop",
      "addr_state": "NC",
      "addr_city": "Spring Lake",
      "addr_postcode": "28390",
      "addr_street": "North Bragg Boulevard",
      "addr_housenumber": "1530",
      "distance": 89196.97044129
    },
    {
      "id": 133242,
      "geometry": "POINT (-79.038681 35.256416)",
      "poi_name": "The Coffee Scene",
      "osm_id": 9983779221,
      "amenity": "cafe",
      "cuisine": "coffee_shop",
      "addr_state": "NC",
      "addr_city": "Cameron",
      "addr_postcode": "28326",
      "addr_street": "NC 24-87",
      "addr_housenumber": "1504",
      "distance": 86755.13007703
    },
    {
      "id": 134431,
      "geometry": "POINT (-78.532864 35.949441)",
      "poi_name": "Paul & Jack",
      "osm_id": 11469185469,
      "amenity": "cafe",
      "cuisine": "coffee_shop",
      "opening_hours": "Mo-Su 07:00-18:00",
      "phone": "+1-786-412-4599",
      "addr_postcode": "27587",
      "addr_street": "South Main Street",
      "addr_housenumber": "2010",
      "distance": 18400.26659997
    },
    {
      "id": 133587,
      "geometry": "POINT (-78.738295 35.757555)",
      "poi_name": "Starbucks",
      "osm_id": 9999755542,
      "amenity": "cafe",
      "cuisine": "coffee_shop",
      "takeaway": "yes",
      "official_name": "Starbucks Coffee",
      "distance": 32526.35555481
    },
    {
      "id": 133602,
      "geometry": "POINT (-77.821755 35.960969)",
      "poi_name": "Starbucks",
      "osm_id": 10000480950,
      "amenity": "cafe",
      "cuisine": "coffee_shop",
      "shop": "coffee",
      "takeaway": "yes",
      "official_name": "Starbucks Coffee",
      "distance": 53286.07809499
    },
    {
      "id": 134047,
      "geometry": "POINT (-78.509552 35.976176)",
      "poi_name": "Black & White Coffee Roasters",
      "osm_id": 10027882282,
      "amenity": "cafe",
      "cuisine": "coffee_shop",
      "opening_hours": "Mo-Sa 07:00-18:00",
      "website": "https://www.blackwhiteroasters.com",
      "internet_access": "yes",
      "phone": "+1-984-235-4027",
      "outdoor_seating": "yes",
      "addr_state": "NC",
      "addr_city": "Wake Forest",
      "addr_postcode": "27587",
      "addr_street": "Brooks Street",
      "addr_housenumber": "314",
      "distance": 19373.2396682
    },
    {
      "id": 144292,
      "geometry": "POINT (-78.497743 35.666465)",
      "poi_name": "Starbucks",
      "osm_id": 7256023240,
      "amenity": "cafe",
      "cuisine": "coffee_shop",
      "phone": "+19193590690",
      "takeaway": "yes",
      "official_name": "Starbucks Coffee",
      "addr_state": "NC",
      "addr_city": "Clayton",
      "addr_postcode": "27520",
      "addr_street": "US 70 Business West",
      "addr_housenumber": "13024",
      "distance": 20710.54715988
    },
    {
      "id": 141554,
      "geometry": "POINT (-78.995133 35.954502)",
      "poi_name": "Starbucks",
      "osm_id": 6289845889,
      "amenity": "cafe",
      "cuisine": "coffee_shop",
      "takeaway": "yes",
      "official_name": "Starbucks Coffee",
      "outdoor_seating": "no",
      "distance": 56321.54988255
    },
    {
      "id": 145133,
      "geometry": "POINT (-78.456771 36.103216)",
      "poi_name": "City Lunch Cafe",
      "osm_id": 7317282833,
      "amenity": "cafe",
      "addr_state": "NC",
      "addr_city": "Franklinton",
      "addr_postcode": "27525",
      "addr_street": "Main Street",
      "addr_housenumber": "5",
      "distance": 30780.43749554
    },
    {
      "id": 144857,
      "geometry": "POINT (-78.145893 35.58183)",
      "poi_name": "Carbon Coffee",
      "osm_id": 7291486985,
      "amenity": "cafe",
      "cuisine": "coffee_shop",
      "internet_access": "wlan",
      "distance": 35403.5387993
    },
    {
      "id": 145298,
      "geometry": "POINT (-77.466756 35.709652)",
      "poi_name": "Belvoir Barn Cafe",
      "osm_id": 7334911775,
      "amenity": "cafe",
      "phone": "(252) 752-6135",
      "addr_state": "NC",
      "addr_city": "Greenville",
      "addr_postcode": "27834",
      "addr_street": "NC-33",
      "addr_housenumber": "4206",
      "distance": 84566.00671943
    },
    {
      "id": 145132,
      "geometry": "POINT (-78.457138 36.103536)",
      "poi_name": "Sugar Grinders Creamery and Bakery",
      "osm_id": 7317282832,
      "amenity": "cafe",
      "addr_state": "NC",
      "addr_city": "Franklinton",
      "addr_postcode": "27525",
      "addr_street": "Main Street",
      "addr_housenumber": "2",
      "distance": 30821.72728678
    },
    {
      "id": 145795,
      "geometry": "POINT (-78.36966 35.782518)",
      "poi_name": "Aubreys and Peedies Grill",
      "osm_id": 7389671293,
      "amenity": "cafe",
      "phone": "(919) 365-5528",
      "addr_state": "NC",
      "addr_city": "Wendell",
      "addr_postcode": "27591",
      "addr_street": "North Main Street",
      "addr_housenumber": "38",
      "distance": 5703.08178767
    },
    {
      "id": 145432,
      "geometry": "POINT (-78.122863 35.593758)",
      "poi_name": "Second Street Coffee & Cafe",
      "osm_id": 7354637981,
      "amenity": "cafe",
      "phone": "19195885159",
      "addr_state": "NC",
      "addr_city": "Kenly",
      "addr_postcode": "27542",
      "addr_street": "East 2nd Street",
      "addr_housenumber": "102",
      "distance": 35753.05846337
    },
    {
      "id": 145450,
      "geometry": "POINT (-77.974845 35.543981)",
      "poi_name": "Capitol Cafe",
      "osm_id": 7358976904,
      "amenity": "cafe",
      "phone": "(919) 242-6811",
      "addr_state": "NC",
      "addr_city": "Fremont",
      "addr_postcode": "27830",
      "addr_street": "East Main Street",
      "addr_housenumber": "102",
      "distance": 49270.61315171
    },
    {
      "id": 145860,
      "geometry": "POINT (-78.671996 35.40779)",
      "poi_name": "Cornerstone Cafe & Coffee",
      "osm_id": 7393098342,
      "amenity": "cafe",
      "opening_hours": "Mo-Fr 09:00-20:00; Sa 09:00-14:00",
      "phone": "(910) 897-5600",
      "addr_state": "NC",
      "addr_city": "Coats",
      "addr_postcode": "27521",
      "addr_street": "East Main Street",
      "addr_housenumber": "16",
      "distance": 53472.21881934
    },
    {
      "id": 145796,
      "geometry": "POINT (-78.370123 35.781601)",
      "poi_name": "Everest Kitchen",
      "osm_id": 7389671315,
      "amenity": "cafe",
      "phone": "(919) 374-7049",
      "addr_state": "NC",
      "addr_city": "Wendell",
      "addr_postcode": "27591",
      "addr_street": "North Main Street",
      "addr_housenumber": "25",
      "distance": 5786.41907618
    },
    {
      "id": 145827,
      "geometry": "POINT (-78.666281 35.787463)",
      "poi_name": "M\u00f6ge Tee",
      "osm_id": 7392196386,
      "amenity": "cafe",
      "cuisine": "bubble_tea",
      "distance": 25436.10961688
    },
    {
      "id": 145833,
      "geometry": "POINT (-78.66939 35.788241)",
      "poi_name": "Starbucks",
      "osm_id": 7392217387,
      "amenity": "cafe",
      "cuisine": "coffee_shop",
      "takeaway": "yes",
      "official_name": "Starbucks Coffee",
      "distance": 25695.78355539
    },
    {
      "id": 146074,
      "geometry": "POINT (-79.067824 35.27767)",
      "poi_name": "Jitterbugz Cafe and Beanery",
      "osm_id": 7410655679,
      "amenity": "cafe",
      "cuisine": "coffee_shop",
      "phone": "(919) 499-5880",
      "addr_state": "NC",
      "addr_city": "Sanford",
      "addr_postcode": "27332",
      "addr_street": "Amarillo Lane",
      "addr_housenumber": "37",
      "distance": 86880.03934139
    },
    {
      "id": 146023,
      "geometry": "POINT (-78.615175 35.849244)",
      "poi_name": "Deja Brew Coffee House",
      "osm_id": 7406506930,
      "amenity": "cafe",
      "distance": 20441.2953196
    },
    {
      "id": 146089,
      "geometry": "POINT (-78.560784 35.79875)",
      "poi_name": "Starbucks",
      "osm_id": 7411505613,
      "amenity": "cafe",
      "cuisine": "coffee_shop",
      "takeaway": "yes",
      "official_name": "Starbucks Coffee",
      "distance": 15847.32519571
    },
    {
      "id": 146280,
      "geometry": "POINT (-78.782003 35.593222)",
      "poi_name": "Drive Bru",
      "osm_id": 7430113517,
      "amenity": "cafe",
      "cuisine": "coffee_shop",
      "opening_hours": "Mo-Fr 07:00-14:00; Sa 08:00-12:00; Su closed",
      "phone": "+1-607-745-2512",
      "outdoor_seating": "yes",
      "addr_state": "NC",
      "addr_city": "Fuquay-Varina",
      "addr_postcode": "27526",
      "addr_street": "East Broad Street",
      "addr_housenumber": "1013",
      "distance": 44218.33057789
    },
    {
      "id": 147040,
      "geometry": "POINT (-78.606898 35.320523)",
      "poi_name": "Inspirational Grounds Coffee House and Sweet Dreams Bakery",
      "osm_id": 7498166150,
      "amenity": "cafe",
      "phone": "(910) 230-0126",
      "addr_state": "NC",
      "addr_city": "Dunn",
      "addr_postcode": "28334",
      "addr_street": "North Ellis Avenue",
      "addr_housenumber": "1208",
      "distance": 59970.98773335
    },
    {
      "id": 146538,
      "geometry": "POINT (-78.525088 35.953352)",
      "poi_name": "Starbucks",
      "osm_id": 7454987399,
      "amenity": "cafe",
      "cuisine": "coffee_shop",
      "takeaway": "yes",
      "official_name": "Starbucks Coffee",
      "distance": 18235.190187
    },
    {
      "id": 147066,
      "geometry": "POINT (-78.654381 35.90095)",
      "poi_name": "Starbucks",
      "osm_id": 7502328919,
      "amenity": "cafe",
      "cuisine": "coffee_shop",
      "internet_access": "wlan",
      "takeaway": "yes",
      "official_name": "Starbucks Coffee",
      "addr_state": "NC",
      "addr_city": "Raleigh",
      "addr_postcode": "27615",
      "addr_street": "Strickland Road",
      "addr_housenumber": "9441",
      "distance": 25100.86804541
    },
    {
      "id": 156859,
      "geometry": "POINT (-78.704365 35.797374)",
      "poi_name": "Port City Java",
      "osm_id": 4675486921,
      "amenity": "cafe",
      "distance": 28656.19209341
    },
    {
      "id": 152106,
      "geometry": "POINT (-78.647666 35.785563)",
      "poi_name": "Cafe Helios",
      "osm_id": 4128436170,
      "amenity": "cafe",
      "distance": 23830.87831843
    },
    {
      "id": 154343,
      "geometry": "POINT (-78.930159 36.011581)",
      "poi_name": "Cocoa Cinnamon",
      "osm_id": 4233902047,
      "amenity": "cafe",
      "opening_hours": "Mo-Fr 07:00-18:00; Sa-Su 08:00-18:00",
      "website": "https://littlewaves.coffee/pages/old-west-durham",
      "internet_access": "wlan",
      "outdoor_seating": "yes",
      "addr_state": "NC",
      "addr_city": "Durham",
      "addr_postcode": "27705",
      "addr_street": "Hillsborough Road",
      "addr_housenumber": "2627",
      "distance": 52699.87773532
    },
    {
      "id": 155735,
      "geometry": "POINT (-78.511521 35.79635)",
      "poi_name": "Starbucks",
      "osm_id": 4299406373,
      "amenity": "cafe",
      "cuisine": "coffee_shop",
      "takeaway": "yes",
      "official_name": "Starbucks Coffee",
      "distance": 11641.56706556
    },
    {
      "id": 156878,
      "geometry": "POINT (-78.78274 35.771013)",
      "poi_name": "Caribou Coffee",
      "osm_id": 4675776565,
      "amenity": "cafe",
      "cuisine": "coffee_shop",
      "takeaway": "yes",
      "distance": 36120.82222046
    },
    {
      "id": 163594,
      "geometry": "POINT (-78.567839 35.866545)",
      "poi_name": "Starbucks",
      "osm_id": 9426538769,
      "amenity": "cafe",
      "cuisine": "coffee_shop",
      "takeaway": "yes",
      "official_name": "Starbucks Coffee",
      "distance": 16536.84832334
    },
    {
      "id": 160385,
      "geometry": "POINT (-78.770491 35.830825)",
      "poi_name": "Tropical Smoothie Caf\u00e9",
      "osm_id": 4833132847,
      "amenity": "cafe",
      "cuisine": "smoothie",
      "description": "Casual, health-conscious chain cafe featuring custom smoothies, sandwiches & wraps.",
      "opening_hours": "Mo-Fr 07:00-21:00; Sa 08:00-21:00; Su 10:30-21:00",
      "website": "https://www.tropicalsmoothiecafe.com/",
      "internet_access": "wlan",
      "phone": "(919)378-9333",
      "outdoor_seating": "yes",
      "addr_state": "NC",
      "addr_city": "Cary",
      "addr_postcode": "27513",
      "addr_street": "Bass Pro Ln",
      "addr_housenumber": "817",
      "distance": 34378.72391692
    },
    {
      "id": 159727,
      "geometry": "POINT (-78.880348 35.120628)",
      "poi_name": "Starbucks",
      "osm_id": 4804470303,
      "amenity": "cafe",
      "cuisine": "coffee_shop",
      "takeaway": "yes",
      "official_name": "Starbucks Coffee",
      "distance": 90527.11036949
    },
    {
      "id": 160726,
      "geometry": "POINT (-78.78026 35.787264)",
      "poi_name": "Brew",
      "osm_id": 4844340100,
      "amenity": "cafe",
      "opening_hours": "Mo-Fr 07:00-18:00; Sa 08:00-18:00; Su 09:00-17:00",
      "website": "http://brewcary.com/",
      "phone": "(919) 400-5473",
      "addr_state": "NC",
      "addr_city": "Cary",
      "addr_postcode": "27511",
      "addr_street": "E Chatham St",
      "addr_housenumber": "122",
      "distance": 35605.82950445
    },
    {
      "id": 166478,
      "geometry": "POINT (-78.919021 36.015811)",
      "poi_name": "Joe Van Gogh",
      "osm_id": 265610373,
      "amenity": "cafe",
      "wheelchair": "yes",
      "distance": 51953.58511516
    },
    {
      "id": 169702,
      "geometry": "POINT (-78.795136 35.798725)",
      "poi_name": "Starbucks",
      "osm_id": 2315429919,
      "amenity": "cafe",
      "cuisine": "coffee_shop",
      "takeaway": "yes",
      "drive_through": "yes",
      "official_name": "Starbucks Coffee",
      "addr_state": "NC",
      "addr_city": "Cary",
      "addr_postcode": "27513",
      "addr_street": "Northwest Maynard Road",
      "addr_housenumber": "1904",
      "distance": 36789.42882538
    },
    {
      "id": 166895,
      "geometry": "POINT (-78.601981 35.904829)",
      "poi_name": "Starbuck's Coffee",
      "osm_id": 318709615,
      "amenity": "cafe",
      "distance": 20815.46562406
    },
    {
      "id": 168909,
      "geometry": "POINT (-79.413813 35.153467)",
      "poi_name": "Granny's Donuts",
      "osm_id": 2285678260,
      "amenity": "cafe",
      "cuisine": "coffee_shop",
      "distance": 119513.18023946
    },
    {
      "id": 177040,
      "geometry": "POINT (-79.071583 35.910776)",
      "poi_name": "Market Street Coffee & Ice Cream",
      "osm_id": 2572497386,
      "amenity": "cafe",
      "cuisine": "coffee_shop",
      "website": "http://marketstcoffee.com/",
      "addr_state": "NC",
      "addr_city": "Carrboro",
      "addr_postcode": "27510",
      "addr_street": "East Weaver Street",
      "addr_housenumber": "100",
      "distance": 62183.50711124
    },
    {
      "id": 175505,
      "geometry": "POINT (-79.052384 35.962959)",
      "poi_name": "Joe Van Gogh",
      "osm_id": 2523800900,
      "amenity": "cafe",
      "opening_hours": "Mo-Su 6:30-17:30",
      "website": "https://www.joevangogh.com/pages/chapel-hill-timberlyne",
      "internet_access": "wlan",
      "phone": "+1-919-967-2002",
      "outdoor_seating": "yes",
      "addr_state": "NC",
      "addr_city": "Chapel Hill",
      "addr_postcode": "27514",
      "addr_street": "Weaver Dairy Road",
      "addr_housenumber": "1129",
      "distance": 61561.41693438
    },
    {
      "id": 175684,
      "geometry": "POINT (-78.847601 35.821631)",
      "poi_name": "Starbucks",
      "osm_id": 2532545958,
      "amenity": "cafe",
      "cuisine": "coffee_shop",
      "takeaway": "yes",
      "official_name": "Starbucks Coffee",
      "addr_state": "NC",
      "addr_city": "Morrisville",
      "addr_postcode": "27560",
      "addr_street": "Davis Drive",
      "addr_housenumber": "3608",
      "distance": 41361.90959598
    },
    {
      "id": 176756,
      "geometry": "POINT (-79.071393 35.911448)",
      "poi_name": "Oasis In Carr Mill",
      "osm_id": 2567480260,
      "amenity": "cafe",
      "opening_hours": "Mo-Fr 11:00-19:00; Sa 10:00-21:00; Su 10:00-18:00",
      "website": "https://oasisincarrmill.com/",
      "internet_access": "yes",
      "addr_state": "NC",
      "addr_city": "Carrboro",
      "addr_postcode": "27510",
      "addr_street": "North Greensboro Street",
      "addr_housenumber": "200",
      "distance": 62176.88945754
    },
    {
      "id": 174232,
      "geometry": "POINT (-78.676545 35.769643)",
      "poi_name": "Common Grounds Caf\u00e9 & Creamery",
      "osm_id": 2470635859,
      "amenity": "cafe",
      "wheelchair": "yes",
      "website": "https://www.ncsudining.com/locations/restaurants-cafes/hunt-library/",
      "internet_access": "wlan",
      "distance": 26784.69503341
    },
    {
      "id": 174233,
      "geometry": "POINT (-78.673856 35.771711)",
      "poi_name": "Port City Java Coffeehouse Caf\u00e9",
      "osm_id": 2470637788,
      "amenity": "cafe",
      "cuisine": "coffee_shop",
      "opening_hours": "Tu-Sa 07:30-15:00",
      "internet_access": "wlan",
      "distance": 26491.35486238
    },
    {
      "id": 188650,
      "geometry": "POINT (-78.707249 35.824857)",
      "poi_name": "Starbucks",
      "osm_id": 1171616246,
      "amenity": "cafe",
      "cuisine": "coffee_shop",
      "takeaway": "yes",
      "official_name": "Starbucks Coffee",
      "distance": 28674.0904673
    },
    {
      "id": 177185,
      "geometry": "POINT (-79.087041 35.915636)",
      "poi_name": "Johnny's",
      "osm_id": 2576603437,
      "amenity": "cafe",
      "cuisine": "coffee_shop",
      "website": "http://johnnysgonefishing.com/",
      "internet_access": "yes",
      "addr_state": "NC",
      "addr_city": "Carrboro",
      "addr_postcode": "27510",
      "addr_street": "West Main Street",
      "addr_housenumber": "901",
      "distance": 63640.92835649
    },
    {
      "id": 179922,
      "geometry": "POINT (-79.010902 34.981153)",
      "poi_name": "Starbucks",
      "osm_id": 10782195046,
      "amenity": "cafe",
      "cuisine": "coffee_shop",
      "takeaway": "yes",
      "official_name": "Starbucks Coffee",
      "distance": 109884.69940917
    },
    {
      "id": 186226,
      "geometry": "POINT (-77.632281 36.424924)",
      "poi_name": "Starbucks",
      "osm_id": 7920934067,
      "amenity": "cafe",
      "cuisine": "coffee_shop",
      "takeaway": "yes",
      "official_name": "Starbucks Coffee",
      "distance": 94831.24494212
    },
    {
      "id": 180712,
      "geometry": "POINT (-78.700056 35.663183)",
      "poi_name": "Smoothies+",
      "osm_id": 10815295048,
      "amenity": "cafe",
      "addr_state": "NC",
      "addr_city": "Raleigh",
      "addr_postcode": "27603",
      "addr_street": "Fayetteville Road",
      "addr_housenumber": "8105",
      "distance": 33673.0265811
    },
    {
      "id": 186279,
      "geometry": "POINT (-78.965728 35.075031)",
      "poi_name": "Dolce Aroma",
      "osm_id": 7924387030,
      "amenity": "cafe",
      "cuisine": "coffee_shop",
      "distance": 98841.10199657
    },
    {
      "id": 190237,
      "geometry": "POINT (-78.646583 35.804965)",
      "poi_name": "Third Place",
      "osm_id": 1278590483,
      "amenity": "cafe",
      "distance": 23368.25995139
    },
    {
      "id": 193231,
      "geometry": "POINT (-79.054406 35.913484)",
      "poi_name": "Carolina Coffee Shop",
      "osm_id": 1512497925,
      "amenity": "cafe",
      "opening_hours": "Sa-We 08:00-21:00, Th-Sa 08:00-24:00",
      "addr_state": "NC",
      "addr_city": "Chapel Hill",
      "addr_postcode": "27514",
      "addr_street": "East Franklin Street",
      "addr_housenumber": "138",
      "distance": 60691.87780346
    },
    {
      "id": 194969,
      "geometry": "POINT (-78.456584 36.103566)",
      "poi_name": "Mason x Main",
      "osm_id": 10290846431,
      "amenity": "cafe",
      "addr_state": "NC",
      "addr_city": "Franklinton",
      "addr_postcode": "27525",
      "addr_street": "North Main Street",
      "addr_housenumber": "2",
      "distance": 30815.17222458
    },
    {
      "id": 194679,
      "geometry": "POINT (-77.967627 35.974936)",
      "poi_name": "Corner Coffee Cafe",
      "osm_id": 10280564334,
      "amenity": "cafe",
      "phone": "+12523160442",
      "addr_state": "NC",
      "addr_city": "Nashville",
      "addr_postcode": "27856",
      "addr_street": "West Washington Street",
      "addr_housenumber": "201",
      "distance": 41332.21425892
    },
    {
      "id": 195530,
      "geometry": "POINT (-78.736492 35.406241)",
      "poi_name": "Creek Coffee",
      "osm_id": 10311160114,
      "amenity": "cafe",
      "phone": "+19108933337",
      "addr_state": "NC",
      "addr_city": "Lillington",
      "addr_postcode": "27546",
      "addr_street": "Marshbanks Street",
      "addr_housenumber": "75",
      "distance": 56640.52253592
    },
    {
      "id": 195254,
      "geometry": "POINT (-77.212542 36.331772)",
      "poi_name": "Grapevine Cafe",
      "osm_id": 10299232174,
      "amenity": "cafe",
      "addr_state": "NC",
      "addr_city": "Woodland",
      "addr_postcode": "27897",
      "addr_street": "East Main Street",
      "addr_housenumber": "109",
      "distance": 119720.08140736
    },
    {
      "id": 197679,
      "geometry": "POINT (-78.783624 35.78677)",
      "poi_name": "Kababish Cafe",
      "osm_id": 10665081827,
      "amenity": "cafe",
      "cuisine": "moroccan",
      "addr_state": "NC",
      "addr_city": "Cary",
      "addr_postcode": "27511",
      "addr_street": "West Chatham Street",
      "addr_housenumber": "201",
      "distance": 35914.70329037
    },
    {
      "id": 196235,
      "geometry": "POINT (-78.960703 35.901112)",
      "poi_name": "People's Coffee",
      "osm_id": 10570625706,
      "amenity": "cafe",
      "cuisine": "coffee_shop",
      "opening_hours": "Mo-Fr 07:00-17:00; Sa,Su 08:00-17:00",
      "website": "https://www.pplscoffee.com/",
      "addr_state": "NC",
      "addr_city": "Durham",
      "addr_postcode": "27713",
      "addr_street": "NC Highway 751",
      "addr_housenumber": "7830",
      "distance": 52123.5615953
    },
    {
      "id": 195671,
      "geometry": "POINT (-79.15041 35.45742)",
      "poi_name": "Brick City Boba",
      "osm_id": 10314842312,
      "amenity": "cafe",
      "phone": "+19192921748",
      "addr_state": "NC",
      "addr_city": "Sanford",
      "addr_postcode": "27332",
      "addr_street": "East Main Street",
      "addr_housenumber": "104",
      "distance": 80388.18992251
    },
    {
      "id": 198096,
      "geometry": "POINT (-77.995377 35.385376)",
      "poi_name": "B & G Grill",
      "osm_id": 10688356066,
      "amenity": "cafe",
      "phone": "+19197362036",
      "addr_state": "NC",
      "addr_city": "Goldsboro",
      "addr_postcode": "27530",
      "addr_street": "East Ash Street",
      "addr_housenumber": "110",
      "distance": 61032.69272752
    },
    {
      "id": 197897,
      "geometry": "POINT (-79.41691 35.343798)",
      "poi_name": "Buggy Town Coffee",
      "osm_id": 10681028928,
      "amenity": "cafe",
      "phone": "+19107222076",
      "addr_state": "NC",
      "addr_city": "Carthage",
      "addr_postcode": "28327",
      "addr_street": "South McNeill Street",
      "addr_housenumber": "201",
      "distance": 107636.87802577
    },
    {
      "id": 197999,
      "geometry": "POINT (-77.417809 35.470827)",
      "poi_name": "Spill the Beans Wine and Coffee",
      "osm_id": 10684428577,
      "amenity": "cafe",
      "phone": "+12025699168",
      "addr_state": "NC",
      "addr_city": "Ayden",
      "addr_postcode": "28513",
      "addr_street": "South Lee Street",
      "addr_housenumber": "4282",
      "distance": 96693.90307279
    },
    {
      "id": 198612,
      "geometry": "POINT (-78.503596 35.946892)",
      "poi_name": "NY Bagel",
      "osm_id": 904273145,
      "amenity": "cafe",
      "distance": 16433.0802234
    },
    {
      "id": 202027,
      "geometry": "POINT (-79.054428 35.903619)",
      "poi_name": "Tar Heel Coffee",
      "osm_id": 672573118,
      "amenity": "cafe",
      "distance": 60542.51729329
    },
    {
      "id": 201161,
      "geometry": "POINT (-79.053558 35.924276)",
      "poi_name": "Root Cellar",
      "osm_id": 616185745,
      "amenity": "cafe",
      "opening_hours": "Mo-Su 08:00-15:00",
      "website": "https://rootcellarchapelhill.com/",
      "internet_access": "yes",
      "phone": "+1 919 967 3663",
      "addr_state": "NC",
      "addr_city": "Chapel Hill",
      "addr_postcode": "27516;27514",
      "addr_street": "Martin Luther King Junior Boulevard",
      "addr_housenumber": "750",
      "distance": 60804.11889664
    },
    {
      "id": 198603,
      "geometry": "POINT (-78.564734 35.929458)",
      "poi_name": "Cafe Bongiorno",
      "osm_id": 904124147,
      "amenity": "cafe",
      "distance": 19179.80047438
    },
    {
      "id": 198604,
      "geometry": "POINT (-78.626052 35.893429)",
      "poi_name": "New York Bagel",
      "osm_id": 904137922,
      "amenity": "cafe",
      "distance": 22410.62509527
    },
    {
      "id": 199038,
      "geometry": "POINT (-79.177921 35.480862)",
      "poi_name": "Java Cafe Express",
      "osm_id": 933567589,
      "amenity": "cafe",
      "addr_state": "NC",
      "addr_street": "South Moore Street",
      "addr_housenumber": "120",
      "distance": 81247.86629557
    },
    {
      "id": 199602,
      "geometry": "POINT (-78.762602 35.771491)",
      "poi_name": "Starbucks",
      "osm_id": 975734100,
      "amenity": "cafe",
      "cuisine": "coffee_shop",
      "takeaway": "yes",
      "official_name": "Starbucks Coffee",
      "addr_state": "NC",
      "addr_city": "Cary",
      "addr_postcode": "27511",
      "addr_street": "Walnut Street",
      "addr_housenumber": "1107",
      "distance": 34323.24156482
    },
    {
      "id": 202028,
      "geometry": "POINT (-79.053457 35.901594)",
      "poi_name": "The Kind Cafe",
      "osm_id": 672573183,
      "amenity": "cafe",
      "distance": 60426.89238158
    },
    {
      "id": 202203,
      "geometry": "POINT (-78.925547 36.008172)",
      "poi_name": "Verde Cafe",
      "osm_id": 690642164,
      "amenity": "cafe",
      "distance": 52172.51121262
    },
    {
      "id": 202123,
      "geometry": "POINT (-78.770826 35.827078)",
      "poi_name": "Starbucks",
      "osm_id": 682372374,
      "amenity": "cafe",
      "cuisine": "coffee_shop",
      "opening_hours": "Mo-Fr 05:30-21:00; Sa 06:00-21:00; Su 06:30-21:00",
      "phone": "+1-919-677-6104",
      "takeaway": "yes",
      "official_name": "Starbucks Coffee",
      "addr_state": "NC",
      "addr_city": "Cary",
      "addr_postcode": "27513",
      "addr_street": "Weston Parkway",
      "addr_housenumber": "125",
      "distance": 34412.73321512
    },
    {
      "id": 203545,
      "geometry": "POINT (-77.850753 35.96267)",
      "poi_name": "The Honeybaked Ham",
      "osm_id": 7092233604,
      "amenity": "cafe",
      "distance": 50823.7705527
    },
    {
      "id": 204309,
      "geometry": "POINT (-77.941773 35.376481)",
      "poi_name": "Starbucks",
      "osm_id": 7122764314,
      "amenity": "cafe",
      "cuisine": "coffee_shop",
      "takeaway": "yes",
      "official_name": "Starbucks Coffee",
      "addr_state": "NC",
      "addr_city": "Goldsboro",
      "addr_postcode": "27534",
      "addr_street": "North Berkeley Boulevard",
      "addr_housenumber": "603",
      "distance": 64766.39927833
    },
    {
      "id": 204282,
      "geometry": "POINT (-78.91706 35.996988)",
      "poi_name": "Joe van Gogh",
      "osm_id": 7121023387,
      "amenity": "cafe",
      "website": "https://www.joevangogh.com/pages/durham-west-end",
      "internet_access": "yes",
      "outdoor_seating": "yes",
      "distance": 51006.13660222
    },
    {
      "id": 203934,
      "geometry": "POINT (-78.637084 35.775643)",
      "poi_name": "Sir Walter Coffee",
      "osm_id": 7105920248,
      "amenity": "cafe",
      "opening_hours": "Su-We 07:00-20:00; Th-Sa 07:00-24:00",
      "distance": 23166.7141439
    },
    {
      "id": 204938,
      "geometry": "POINT (-78.348267 35.654983)",
      "poi_name": "Hwy 42 Cafe & Hersey\u2019s Ice Cream & Coffee Shop",
      "osm_id": 7152019971,
      "amenity": "cafe",
      "cuisine": "coffee_shop;ice_cream;donut;sandwich",
      "opening_hours": "Mo-Sa 06:00-21:00; Su 07:00-21:00",
      "website": "https://www.hwy42cafe.com/",
      "phone": "+1-919-359-9897",
      "drive_through": "no",
      "outdoor_seating": "yes",
      "addr_state": "NC",
      "addr_city": "Clayton",
      "addr_postcode": "27527",
      "addr_street": "Flowers Crossroads Way",
      "addr_housenumber": "36",
      "distance": 19910.2206359
    },
    {
      "id": 205859,
      "geometry": "POINT (-78.387833 35.257692)",
      "poi_name": "Old Store Cafe",
      "osm_id": 7184871450,
      "amenity": "cafe",
      "phone": "+19199150639",
      "addr_state": "NC",
      "addr_city": "Newton Grove",
      "addr_postcode": "28366",
      "addr_street": "Johnston Highway",
      "addr_housenumber": "721",
      "distance": 63628.18994386
    },
    {
      "id": 206022,
      "geometry": "POINT (-79.384096 36.090924)",
      "poi_name": "Argy's Diner",
      "osm_id": 7193333458,
      "amenity": "cafe",
      "phone": "(336) 578-6166",
      "addr_state": "NC",
      "addr_city": "Haw River",
      "addr_postcode": "27258",
      "addr_street": "North Church Street",
      "addr_housenumber": "2628",
      "distance": 94191.89990795
    },
    {
      "id": 209709,
      "geometry": "POINT (-78.911619 36.713677)",
      "poi_name": "Windmill Farm Bake Shop",
      "osm_id": 5054341765,
      "amenity": "cafe",
      "addr_street": "Hupps Mill Plaza",
      "addr_housenumber": "2221",
      "distance": 108563.62795651
    },
    {
      "id": 206804,
      "geometry": "POINT (-78.455356 35.649714)",
      "poi_name": "Chefella's Cafe and Event Planning",
      "osm_id": 7228260014,
      "amenity": "cafe",
      "phone": "919-359-2884",
      "addr_state": "NC",
      "addr_city": "Clayton",
      "addr_postcode": "27520",
      "addr_street": "East Main Street",
      "addr_housenumber": "436",
      "distance": 20983.29980832
    },
    {
      "id": 206830,
      "geometry": "POINT (-78.32163 35.506138)",
      "poi_name": "Starbucks",
      "osm_id": 7228925305,
      "amenity": "cafe",
      "cuisine": "coffee_shop",
      "phone": "(919) 621-4996",
      "takeaway": "yes",
      "official_name": "Starbucks Coffee",
      "addr_state": "NC",
      "addr_city": "Smithfield",
      "addr_postcode": "27577",
      "addr_street": "South Equity Drive",
      "addr_housenumber": "110",
      "distance": 36590.97625942
    },
    {
      "id": 212991,
      "geometry": "POINT (-77.898586 36.567416)",
      "poi_name": "The Kitchen Table",
      "osm_id": 5229488313,
      "amenity": "cafe",
      "cuisine": "breakfast;lunch",
      "addr_state": "VA",
      "addr_city": "Gasburg",
      "addr_postcode": "23857",
      "addr_street": "Gasburg Road",
      "addr_housenumber": "4111",
      "distance": 92884.09313656
    },
    {
      "id": 210068,
      "geometry": "POINT (-79.058316 35.911932)",
      "poi_name": "Starbucks",
      "osm_id": 5076295871,
      "amenity": "cafe",
      "cuisine": "coffee_shop",
      "wheelchair": "yes",
      "opening_hours": "Mo-Su 07:00-24:00",
      "takeaway": "yes",
      "official_name": "Starbucks Coffee",
      "distance": 61016.05996323
    },
    {
      "id": 226472,
      "geometry": "POINT (-78.678258 35.770148)",
      "poi_name": "Social Fabric",
      "osm_id": 11161470206,
      "amenity": "cafe",
      "addr_street": "Main Campus Drive",
      "addr_housenumber": "1020",
      "distance": 26920.25821152
    },
    {
      "id": 214254,
      "geometry": "POINT (-79.488784 36.076189)",
      "poi_name": "Starbucks",
      "osm_id": 5267347594,
      "amenity": "cafe",
      "cuisine": "coffee_shop",
      "takeaway": "yes",
      "official_name": "Starbucks Coffee",
      "distance": 102787.30857449
    },
    {
      "id": 216714,
      "geometry": "POINT (-79.07946 35.913319)",
      "poi_name": "Lanza\u2019s Cafe",
      "osm_id": 9180800894,
      "amenity": "cafe",
      "distance": 62927.04051684
    },
    {
      "id": 217590,
      "geometry": "POINT (-79.067962 35.278458)",
      "poi_name": "THAT \u2018SNO HUT",
      "osm_id": 9233445631,
      "amenity": "cafe",
      "cuisine": "bubble_tea",
      "phone": "919-356-3666",
      "addr_state": "NC",
      "addr_city": "Sanford",
      "addr_postcode": "27332",
      "addr_street": "Amarillo Lane",
      "addr_housenumber": "68",
      "distance": 86826.98936097
    },
    {
      "id": 219983,
      "geometry": "POINT (-78.652413 35.72202)",
      "poi_name": "Starbucks",
      "osm_id": 9353733665,
      "amenity": "cafe",
      "cuisine": "coffee_shop",
      "takeaway": "yes",
      "official_name": "Starbucks Coffee",
      "distance": 26638.18078602
    },
    {
      "id": 226090,
      "geometry": "POINT (-78.873255 35.746903)",
      "poi_name": "Starbucks",
      "osm_id": 11148636784,
      "amenity": "cafe",
      "cuisine": "coffee_shop",
      "takeaway": "yes",
      "official_name": "Starbucks Coffee",
      "distance": 44676.32503894
    },
    {
      "id": 213778,
      "geometry": "POINT (-78.893953 35.07291)",
      "poi_name": "Broncos EcoGrounds",
      "osm_id": 5259357310,
      "amenity": "cafe",
      "distance": 95762.87720127
    },
    {
      "id": 222650,
      "geometry": "POINT (-78.613349 35.837825)",
      "poi_name": "Starbucks",
      "osm_id": 11028854359,
      "amenity": "cafe",
      "cuisine": "coffee_shop",
      "wheelchair": "yes",
      "opening_hours": "Mo-Th 05:00-20:00; Fr 05:00-20:30; Sa 06:00-20:30; Su 06:00-20:00",
      "operator": "Starbucks Coffee Company",
      "website": "https://www.starbucks.com/store-locator/store/1033544/",
      "internet_access": "wlan",
      "phone": "+1 984 292 0090",
      "takeaway": "yes",
      "drive_through": "yes",
      "outdoor_seating": "yes",
      "delivery": "yes",
      "addr_state": "NC",
      "addr_city": "Raleigh",
      "addr_postcode": "27609",
      "addr_street": "Wake Forest Road",
      "addr_housenumber": "4109",
      "distance": 20192.62343931
    },
    {
      "id": 226018,
      "geometry": "POINT (-78.771665 35.827068)",
      "poi_name": "Chelsea Cafe at Raleigh Brewing",
      "osm_id": 11146618706,
      "amenity": "cafe",
      "cuisine": "sandwich",
      "opening_hours": "Mo-Fr 16:00-20:00",
      "website": "https://www.chelseacafe-rtp.com",
      "phone": "+1 919-474-8698",
      "outdoor_seating": "yes",
      "addr_state": "NC",
      "addr_city": "Cary",
      "addr_postcode": "27513",
      "addr_street": "Renaissance Park Place",
      "addr_housenumber": "2036",
      "distance": 34488.54459757
    },
    {
      "id": 226020,
      "geometry": "POINT (-78.770437 35.830897)",
      "poi_name": "Meeple's Brew",
      "osm_id": 11146646662,
      "amenity": "cafe",
      "cuisine": "coffee_shop",
      "opening_hours": "Mo-Su 08:00-16:00",
      "website": "https://www.meeplesbrew.com",
      "phone": "+1 919-377-0061",
      "outdoor_seating": "yes",
      "addr_state": "NC",
      "addr_city": "Cary",
      "addr_postcode": "27513",
      "addr_street": "Bass Pro Lane",
      "addr_housenumber": "821",
      "distance": 34373.83918056
    },
    {
      "id": 226552,
      "geometry": "POINT (-77.384905 35.61258)",
      "poi_name": "Coffee and Spice",
      "osm_id": 11163259304,
      "amenity": "cafe",
      "opening_hours": "Tu-Fr 08:00-14:00; Sa 10:00-14:00,17:30-21:00; Su 11:00-15:00",
      "distance": 94119.13328179
    },
    {
      "id": 236219,
      "geometry": "POINT (-79.165338 35.754932)",
      "poi_name": "The Root Cellar Cafe & Catering",
      "osm_id": 5785396172,
      "amenity": "cafe",
      "addr_state": "NC",
      "addr_city": "Pittsboro",
      "addr_postcode": "27312",
      "addr_street": "Suttles Road",
      "addr_housenumber": "35",
      "distance": 70597.16057094
    },
    {
      "id": 229263,
      "geometry": "POINT (-78.795881 35.593949)",
      "poi_name": "BOLT Drinks and Coffee",
      "osm_id": 4374715987,
      "amenity": "cafe",
      "cuisine": "coffee_shop",
      "phone": "+19199096687",
      "addr_state": "NC",
      "addr_city": "Fuquay-Varina",
      "addr_postcode": "27526",
      "addr_street": "East Broad Street",
      "addr_housenumber": "400",
      "distance": 45184.81615602
    },
    {
      "id": 229763,
      "geometry": "POINT (-78.583091 35.697794)",
      "poi_name": "Starbucks",
      "osm_id": 4398946906,
      "amenity": "cafe",
      "cuisine": "coffee_shop",
      "opening_hours": "Mo-Fr 05:00-21:30; Sa,Su 05:30-21:30",
      "phone": "+19198195059",
      "takeaway": "yes",
      "official_name": "Starbucks Coffee",
      "addr_state": "NC",
      "addr_city": "Garner",
      "addr_postcode": "27529",
      "addr_street": "Cabela Drive",
      "addr_housenumber": "180",
      "distance": 22888.41439032
    },
    {
      "id": 231141,
      "geometry": "POINT (-78.819058 35.807228)",
      "poi_name": "Starbucks",
      "osm_id": 4457356190,
      "amenity": "cafe",
      "cuisine": "coffee_shop",
      "opening_hours": "Mo-Th 05:30-22:00; Fr-Su 06:00-23:00",
      "internet_access": "wlan",
      "phone": "+1 919 219 2205",
      "takeaway": "yes",
      "official_name": "Starbucks Coffee",
      "outdoor_seating": "no",
      "addr_state": "NC",
      "addr_city": "Morrisville",
      "addr_postcode": "27560",
      "addr_street": "Village Market Place",
      "addr_housenumber": "3037",
      "distance": 38863.64704973
    },
    {
      "id": 231682,
      "geometry": "POINT (-78.887316 35.846364)",
      "poi_name": "Starbucks",
      "osm_id": 4484280691,
      "amenity": "cafe",
      "cuisine": "coffee_shop",
      "opening_hours": "Mo-Fr 08:30-20:00, Tu-Su 05:00-22:00; Sa 05:30-22:00; Su 05:30-21:00",
      "phone": "+1 919 466 8062",
      "takeaway": "yes",
      "drive_through": "yes",
      "official_name": "Starbucks Coffee",
      "addr_state": "NC",
      "addr_city": "Cary",
      "addr_postcode": "27519",
      "addr_street": "Parkside Main Street",
      "addr_housenumber": "1015",
      "distance": 44961.66943343
    },
    {
      "id": 232196,
      "geometry": "POINT (-78.679959 35.857102)",
      "poi_name": "Starbucks",
      "osm_id": 4514634690,
      "amenity": "cafe",
      "cuisine": "coffee_shop",
      "wheelchair": "yes",
      "opening_hours": "Mo-Su 06:00-20:00",
      "operator": "Starbucks",
      "takeaway": "yes",
      "official_name": "Starbucks Coffee",
      "addr_state": "NC",
      "addr_city": "Raleigh",
      "addr_postcode": "27612",
      "addr_street": "West Millbrook Road",
      "addr_housenumber": "2051",
      "distance": 26351.8383636
    },
    {
      "id": 232821,
      "geometry": "POINT (-78.636871 35.776726)",
      "poi_name": "42 & Lawrence",
      "osm_id": 4544087503,
      "amenity": "cafe",
      "addr_state": "NC",
      "addr_city": "Raleigh",
      "addr_postcode": "27601",
      "addr_street": "East Martin Street",
      "addr_housenumber": "134",
      "distance": 23116.2696467
    },
    {
      "id": 232822,
      "geometry": "POINT (-78.663243 35.786567)",
      "poi_name": "Jubala Coffee",
      "osm_id": 4544100859,
      "amenity": "cafe",
      "opening_hours": "Mo-Fr 07:00-17:00; Sa-Su 08:00-17:00",
      "internet_access": "wlan",
      "addr_state": "NC",
      "addr_city": "Raleigh",
      "addr_postcode": "27607",
      "addr_street": "Hillsborough Street",
      "addr_housenumber": "2100",
      "distance": 25186.12706763
    },
    {
      "id": 233233,
      "geometry": "POINT (-78.858416 35.836244)",
      "poi_name": "Quickly",
      "osm_id": 4564412994,
      "amenity": "cafe",
      "cuisine": "bubble_tea",
      "opening_hours": "Su 12:00-20:00; Tu-Sa 11:30-20:00",
      "website": "http://www.quicklyusa.com/morrisvillenc.html",
      "phone": "+1 984 465 0347",
      "takeaway": "yes",
      "addr_state": "NC",
      "addr_city": "Morrisville",
      "addr_postcode": "27560",
      "addr_street": "Davis Drive",
      "addr_housenumber": "4141",
      "distance": 42325.5088086
    },
    {
      "id": 234572,
      "geometry": "POINT (-78.815222 35.805642)",
      "poi_name": "Starbucks",
      "osm_id": 4629340404,
      "amenity": "cafe",
      "cuisine": "coffee_shop",
      "takeaway": "yes",
      "official_name": "Starbucks Coffee",
      "distance": 38530.73475638
    },
    {
      "id": 234575,
      "geometry": "POINT (-78.847261 35.879243)",
      "poi_name": "Starbucks",
      "osm_id": 4629663688,
      "amenity": "cafe",
      "cuisine": "coffee_shop",
      "opening_hours": "05:00-21:00",
      "internet_access": "wlan",
      "takeaway": "yes",
      "official_name": "Starbucks Coffee",
      "outdoor_seating": "yes",
      "addr_state": "NC",
      "addr_city": "Durham",
      "addr_postcode": "27703",
      "addr_street": "Slater Road",
      "addr_housenumber": "1119",
      "distance": 41645.68171471
    },
    {
      "id": 227283,
      "geometry": "POINT (-78.900995 36.696482)",
      "poi_name": "Manna",
      "osm_id": 11186756126,
      "amenity": "cafe",
      "distance": 106432.48378819
    },
    {
      "id": 227285,
      "geometry": "POINT (-78.901029 36.696646)",
      "poi_name": "Cheers SoBo",
      "osm_id": 11186756129,
      "amenity": "cafe",
      "distance": 106450.24970539
    },
    {
      "id": 233260,
      "geometry": "POINT (-78.780748 35.912632)",
      "poi_name": "Starbucks",
      "osm_id": 4565492379,
      "amenity": "cafe",
      "cuisine": "coffee_shop",
      "opening_hours": "Mo-Th 5:30-22:00; Fr-Sa 5:30-22:30; Su 6:00-20:00",
      "takeaway": "yes",
      "official_name": "Starbucks Coffee",
      "outdoor_seating": "yes",
      "distance": 36426.55123804
    },
    {
      "id": 236227,
      "geometry": "POINT (-79.176985 35.726712)",
      "poi_name": "Davenport's Caf\u00e9 Diem",
      "osm_id": 5785411884,
      "amenity": "cafe",
      "phone": "+19197044239",
      "addr_state": "NC",
      "addr_city": "Pittsboro",
      "addr_postcode": "27312",
      "addr_street": "Hillsboro Street",
      "addr_housenumber": "439",
      "distance": 72091.74294242
    },
    {
      "id": 240421,
      "geometry": "POINT (-78.611544 35.705088)",
      "poi_name": "Raleigh Business Center",
      "osm_id": 5975458773,
      "amenity": "cafe",
      "addr_state": "NC",
      "addr_city": "Garner",
      "addr_postcode": "27529",
      "addr_street": "Plaza Circle",
      "addr_housenumber": "507",
      "distance": 24433.92857763
    },
    {
      "id": 239434,
      "geometry": "POINT (-79.50686 36.10116)",
      "poi_name": "Oak House",
      "osm_id": 5921685697,
      "amenity": "cafe",
      "cuisine": "snack;coffee_shop",
      "internet_access": "yes",
      "outdoor_seating": "no",
      "distance": 105101.49266467
    },
    {
      "id": 239450,
      "geometry": "POINT (-79.519967 36.066401)",
      "poi_name": "Starbucks",
      "osm_id": 5921961299,
      "amenity": "cafe",
      "cuisine": "coffee_shop",
      "internet_access": "no",
      "takeaway": "yes",
      "official_name": "Starbucks Coffee",
      "distance": 105234.4085419
    },
    {
      "id": 240796,
      "geometry": "POINT (-78.781433 35.786867)",
      "poi_name": "Esteemed Coffee",
      "osm_id": 5991480291,
      "amenity": "cafe",
      "cuisine": "coffee_shop",
      "website": "https://www.esteamedcoffee.com/menu",
      "drive_through": "no",
      "addr_state": "NC",
      "addr_city": "Cary",
      "addr_postcode": "27511",
      "addr_street": "South Academy Street",
      "addr_housenumber": "114",
      "distance": 35716.97572753
    },
    {
      "id": 241999,
      "geometry": "POINT (-78.784699 35.9084)",
      "poi_name": "Rise Biscuits & Donuts",
      "osm_id": 6049944185,
      "amenity": "cafe",
      "opening_hours": "Mo-Su 07:00-14:00",
      "website": "https://risebiscuitsdonuts.com",
      "distance": 36660.64087774
    },
    {
      "id": 242008,
      "geometry": "POINT (-78.784563 35.908801)",
      "poi_name": "Caribou Coffee",
      "osm_id": 6050166170,
      "amenity": "cafe",
      "cuisine": "coffee_shop",
      "opening_hours": "Mo-Th 06:00-21:30; Fr 06:00-22:00; Sa 06:30-22:00; Su 06:30-21:00",
      "takeaway": "yes",
      "distance": 36658.95465298
    },
    {
      "id": 242139,
      "geometry": "POINT (-78.879055 35.130457)",
      "poi_name": "Duck Donuts",
      "osm_id": 6056412942,
      "amenity": "cafe",
      "distance": 89519.60723539
    },
    {
      "id": 242546,
      "geometry": "POINT (-78.605836 35.684932)",
      "poi_name": "The Muse Coffee Co",
      "osm_id": 7577705280,
      "amenity": "cafe",
      "website": "https://themusecoffee.co/",
      "internet_access": "wlan",
      "phone": "+14342378878",
      "addr_state": "NC",
      "addr_city": "Garner",
      "addr_postcode": "27529",
      "addr_street": "Timber Drive",
      "addr_housenumber": "225",
      "distance": 25382.52567973
    },
    {
      "id": 244939,
      "geometry": "POINT (-78.657425 35.905182)",
      "poi_name": "Poppyseed Market",
      "osm_id": 7752477135,
      "amenity": "cafe",
      "distance": 25509.20909367
    }
  ],
  "answer_type": "distance",
  "question_entities": {
    "[1]": {
      "main_category": "amenity",
      "sub_category": "cafe"
    },
    "[2]": {
      "distance": 120000,
      "text": "120 kilometers"
    },
    "[3]": {
      "main_category": "leisure",
      "sub_category": "nature reserve",
      "display_name": "Procter Farm Preserve, Wendell, NC",
      "geo_wkt": "POINT (-78.390009 35.831172)",
      "poi": {
        "id": 247665,
        "geometry": "POINT (-78.390009 35.831172)",
        "poi_name": "Procter Farm Preserve",
        "osm_id": 8057386012,
        "leisure": "nature_reserve",
        "addr_state": "NC",
        "addr_city": "Wendell",
        "addr_postcode": "27591",
        "addr_street": "Doc Procter Road",
        "addr_housenumber": "7201"
      }
    }
  },
  "id": 745,
  "type": "range+distance"
}