{
  "question": "How far is a fast food restaurant from Myrtle Beach Safari Wild Encounters Tour, SC within a 130 kilometers distance?",
  "sql": "SELECT *, ST_Distance(ST_GeomFromText('POINT (-78.971427 33.696456)',4326)::geography, pois.geometry) AS distance FROM pois\nWHERE ST_DWithin(pois.geometry, ST_GeomFromText('POINT (-78.971427 33.696456)',4326)::geography, 130000)\nAND amenity = 'fast_food';\n",
  "answers": [
    {
      "id": 27646,
      "geometry": "POINT (-80.091553 32.999337)",
      "poi_name": "McDonald's",
      "osm_id": 440664352,
      "amenity": "fast_food",
      "cuisine": "burger",
      "website": "https://www.mcdonalds.com/us/en-us/location/sc/ladson/302-college-park-blvd/7341.html",
      "takeaway": "yes",
      "distance": 129804.37111262
    },
    {
      "id": 28583,
      "geometry": "POINT (-79.792881 32.860987)",
      "poi_name": "Panera Bread",
      "osm_id": 8243803319,
      "amenity": "fast_food",
      "cuisine": "sandwich;bakery",
      "takeaway": "yes",
      "distance": 120174.79948789
    },
    {
      "id": 30145,
      "geometry": "POINT (-77.873434 34.244916)",
      "poi_name": "Panda Express",
      "osm_id": 8334987900,
      "amenity": "fast_food",
      "cuisine": "chinese",
      "takeaway": "yes",
      "addr_street": "11 Van Campen Blvd, Wilmington, NC 28403",
      "distance": 118310.83831519
    },
    {
      "id": 30224,
      "geometry": "POINT (-77.891668 34.242995)",
      "poi_name": "McDonald's",
      "osm_id": 8343166701,
      "amenity": "fast_food",
      "cuisine": "burger",
      "website": "https://www.mcdonalds.com/us/en-us/location/nc/wilmington/4301-market-st/952.html",
      "takeaway": "yes",
      "distance": 116759.0500606
    },
    {
      "id": 30459,
      "geometry": "POINT (-77.905959 34.217254)",
      "poi_name": "Chick-fil-A",
      "osm_id": 8359329232,
      "amenity": "fast_food",
      "cuisine": "chicken",
      "takeaway": "yes",
      "distance": 114174.06528106
    },
    {
      "id": 30848,
      "geometry": "POINT (-79.777473 32.874482)",
      "poi_name": "Papa John's",
      "osm_id": 8388843674,
      "amenity": "fast_food",
      "cuisine": "pizza",
      "takeaway": "yes",
      "distance": 118103.3142454
    },
    {
      "id": 30849,
      "geometry": "POINT (-79.778479 32.874036)",
      "poi_name": "Domino's",
      "osm_id": 8388843675,
      "amenity": "fast_food",
      "cuisine": "pizza",
      "takeaway": "yes",
      "distance": 118201.19215192
    },
    {
      "id": 31419,
      "geometry": "POINT (-78.874946 33.696323)",
      "poi_name": "BurgerFi",
      "osm_id": 8423343790,
      "amenity": "fast_food",
      "cuisine": "burger",
      "phone": "+1-843-808-9118",
      "takeaway": "yes",
      "addr_state": "SC",
      "addr_city": "Myrtle Beach",
      "addr_postcode": "29577",
      "addr_street": "North Ocean Boulevard",
      "addr_housenumber": "1410",
      "distance": 8944.97449173
    },
    {
      "id": 31685,
      "geometry": "POINT (-78.769002 33.787109)",
      "poi_name": "Subway",
      "osm_id": 8441789262,
      "amenity": "fast_food",
      "cuisine": "sandwich",
      "takeaway": "yes",
      "distance": 21282.46316348
    },
    {
      "id": 31703,
      "geometry": "POINT (-79.800876 34.190257)",
      "poi_name": "Krispy Kreme",
      "osm_id": 8442480802,
      "amenity": "fast_food",
      "cuisine": "donut",
      "takeaway": "yes",
      "addr_state": "SC",
      "addr_city": "Florence",
      "addr_street": "West Palmetto Street",
      "distance": 94232.05121046
    },
    {
      "id": 31872,
      "geometry": "POINT (-78.680229 33.826683)",
      "poi_name": "Duck Donuts",
      "osm_id": 8452956722,
      "amenity": "fast_food",
      "cuisine": "donut",
      "takeaway": "yes",
      "distance": 30600.85945492
    },
    {
      "id": 32393,
      "geometry": "POINT (-78.832096 33.735358)",
      "poi_name": "KFC",
      "osm_id": 2625018121,
      "amenity": "fast_food",
      "cuisine": "chicken",
      "website": "https://locations.kfc.com/sc/myrtle-beach/6100-north-kings-highway",
      "takeaway": "yes",
      "distance": 13616.49477341
    },
    {
      "id": 34409,
      "geometry": "POINT (-78.96781 33.625976)",
      "poi_name": "Subway",
      "osm_id": 2699340428,
      "amenity": "fast_food",
      "cuisine": "sandwich",
      "takeaway": "yes",
      "distance": 7824.62800046
    },
    {
      "id": 35046,
      "geometry": "POINT (-79.021143 33.769303)",
      "poi_name": "Bojangles'",
      "osm_id": 2709626922,
      "amenity": "fast_food",
      "cuisine": "chicken",
      "takeaway": "yes",
      "official_name": "Bojangles' Famous Chicken 'n Biscuits",
      "addr_state": "SC",
      "addr_city": "Conway",
      "addr_postcode": "29526",
      "addr_street": "SC 544",
      "addr_housenumber": "1766",
      "distance": 9301.28891694
    },
    {
      "id": 35048,
      "geometry": "POINT (-79.020768 33.778012)",
      "poi_name": "McDonald's",
      "osm_id": 2709626927,
      "amenity": "fast_food",
      "cuisine": "burger",
      "website": "https://www.mcdonalds.com/us/en-us/location/sc/conway/1467-highway-544/27241.html",
      "takeaway": "yes",
      "distance": 10135.84255257
    },
    {
      "id": 35124,
      "geometry": "POINT (-79.065491 33.847477)",
      "poi_name": "McDonald's",
      "osm_id": 2711064498,
      "amenity": "fast_food",
      "cuisine": "burger",
      "website": "https://www.mcdonalds.com/us/en-us/location/sc/conway/1622-us-hwy-501/3464.html",
      "takeaway": "yes",
      "distance": 18881.66724202
    },
    {
      "id": 35125,
      "geometry": "POINT (-79.064858 33.846261)",
      "poi_name": "Bojangles'",
      "osm_id": 2711064505,
      "amenity": "fast_food",
      "cuisine": "chicken",
      "takeaway": "yes",
      "drive_through": "yes",
      "official_name": "Bojangles' Famous Chicken 'n Biscuits",
      "addr_state": "SC",
      "addr_city": "Conway",
      "addr_postcode": "29526",
      "addr_street": "Church Street",
      "addr_housenumber": "1615",
      "distance": 18734.95229656
    },
    {
      "id": 35126,
      "geometry": "POINT (-79.062096 33.845463)",
      "poi_name": "Hardee's",
      "osm_id": 2711064515,
      "amenity": "fast_food",
      "cuisine": "burger",
      "website": "https://locations.hardees.com/sc/conway/1506-church-st",
      "takeaway": "yes",
      "distance": 18539.22989461
    },
    {
      "id": 35127,
      "geometry": "POINT (-79.060873 33.843966)",
      "poi_name": "Pizza Inn",
      "osm_id": 2711064518,
      "amenity": "fast_food",
      "cuisine": "pizza",
      "takeaway": "yes",
      "addr_state": "SC",
      "addr_city": "Conway",
      "addr_postcode": "29526",
      "addr_street": "Church Street",
      "addr_housenumber": "1404",
      "distance": 18339.91770147
    },
    {
      "id": 35129,
      "geometry": "POINT (-79.066956 33.848306)",
      "poi_name": "Burger King",
      "osm_id": 2711064524,
      "amenity": "fast_food",
      "cuisine": "burger",
      "takeaway": "yes",
      "distance": 19025.94553193
    },
    {
      "id": 35467,
      "geometry": "POINT (-78.877983 33.693881)",
      "poi_name": "New York Pizza",
      "osm_id": 2722760500,
      "amenity": "fast_food",
      "cuisine": "pizza",
      "takeaway": "yes",
      "distance": 8668.19527041
    },
    {
      "id": 35531,
      "geometry": "POINT (-78.84271 33.727349)",
      "poi_name": "Domino's",
      "osm_id": 2724207008,
      "amenity": "fast_food",
      "cuisine": "pizza",
      "takeaway": "yes",
      "distance": 12413.75562222
    },
    {
      "id": 35536,
      "geometry": "POINT (-79.011598 33.588636)",
      "poi_name": "Subway",
      "osm_id": 2724276685,
      "amenity": "fast_food",
      "cuisine": "sandwich",
      "takeaway": "yes",
      "distance": 12526.1028393
    },
    {
      "id": 35537,
      "geometry": "POINT (-79.021776 33.597366)",
      "poi_name": "Papa John's",
      "osm_id": 2724276782,
      "amenity": "fast_food",
      "cuisine": "pizza",
      "takeaway": "yes",
      "distance": 11941.93277089
    },
    {
      "id": 35552,
      "geometry": "POINT (-78.979032 33.64629)",
      "poi_name": "Subway",
      "osm_id": 2724402187,
      "amenity": "fast_food",
      "cuisine": "sandwich",
      "takeaway": "yes",
      "distance": 5608.74656258
    },
    {
      "id": 35570,
      "geometry": "POINT (-78.982002 33.613211)",
      "poi_name": "Big Apple Bagels",
      "osm_id": 2724485448,
      "amenity": "fast_food",
      "cuisine": "bagel",
      "shop": "bakery",
      "takeaway": "yes",
      "distance": 9285.20206845
    },
    {
      "id": 35780,
      "geometry": "POINT (-78.894543 33.6821)",
      "poi_name": "Burger King",
      "osm_id": 2732305267,
      "amenity": "fast_food",
      "cuisine": "burger",
      "takeaway": "yes",
      "distance": 7304.34019676
    },
    {
      "id": 35788,
      "geometry": "POINT (-78.900545 33.678517)",
      "poi_name": "Papa John's",
      "osm_id": 2732312427,
      "amenity": "fast_food",
      "cuisine": "pizza",
      "takeaway": "yes",
      "distance": 6866.90876735
    },
    {
      "id": 35790,
      "geometry": "POINT (-78.901125 33.678108)",
      "poi_name": "Captain D's",
      "osm_id": 2732312437,
      "amenity": "fast_food",
      "cuisine": "seafood",
      "takeaway": "yes",
      "official_name": "Captain D's Seafood Kitchen",
      "distance": 6828.85052687
    },
    {
      "id": 35795,
      "geometry": "POINT (-78.902425 33.676573)",
      "poi_name": "Nathan's",
      "osm_id": 2732336354,
      "amenity": "fast_food",
      "cuisine": "hot_dog",
      "takeaway": "yes",
      "distance": 6767.48813557
    },
    {
      "id": 35796,
      "geometry": "POINT (-78.902648 33.676471)",
      "poi_name": "Scoop's Ice Cream",
      "osm_id": 2732336355,
      "amenity": "fast_food",
      "distance": 6751.66936068
    },
    {
      "id": 35798,
      "geometry": "POINT (-78.904214 33.67598)",
      "poi_name": "Arby's",
      "osm_id": 2732336362,
      "amenity": "fast_food",
      "cuisine": "sandwich",
      "takeaway": "yes",
      "addr_state": "SC",
      "distance": 6633.1197448
    },
    {
      "id": 35799,
      "geometry": "POINT (-78.904084 33.675198)",
      "poi_name": "Hungry Howie's",
      "osm_id": 2732336364,
      "amenity": "fast_food",
      "cuisine": "pizza",
      "takeaway": "yes",
      "distance": 6674.57733534
    },
    {
      "id": 35802,
      "geometry": "POINT (-78.905848 33.674686)",
      "poi_name": "Domino's",
      "osm_id": 2732340020,
      "amenity": "fast_food",
      "cuisine": "pizza",
      "takeaway": "yes",
      "distance": 6542.5813098
    },
    {
      "id": 35805,
      "geometry": "POINT (-78.909731 33.671083)",
      "poi_name": "Dairy Queen",
      "osm_id": 2732351036,
      "amenity": "fast_food",
      "cuisine": "ice_cream;burger",
      "takeaway": "yes",
      "distance": 6375.57576067
    },
    {
      "id": 35808,
      "geometry": "POINT (-79.045641 33.554749)",
      "poi_name": "Arby's",
      "osm_id": 2732526709,
      "amenity": "fast_food",
      "cuisine": "sandwich",
      "takeaway": "yes",
      "addr_state": "SC",
      "distance": 17159.81388634
    },
    {
      "id": 35809,
      "geometry": "POINT (-79.045879 33.554363)",
      "poi_name": "Chick-fil-A",
      "osm_id": 2732526712,
      "amenity": "fast_food",
      "cuisine": "chicken",
      "takeaway": "yes",
      "drive_through": "yes",
      "distance": 17207.8819261
    },
    {
      "id": 35814,
      "geometry": "POINT (-78.95952 33.759898)",
      "poi_name": "Quiznos",
      "osm_id": 2732583637,
      "amenity": "fast_food",
      "cuisine": "sandwich",
      "takeaway": "yes",
      "distance": 7122.80371886
    },
    {
      "id": 37501,
      "geometry": "POINT (-78.859544 34.155554)",
      "poi_name": "Subway",
      "osm_id": 2818133610,
      "amenity": "fast_food",
      "cuisine": "sandwich",
      "takeaway": "yes",
      "addr_city": "Tabor City",
      "addr_postcode": "28463",
      "distance": 51963.78290411
    },
    {
      "id": 37502,
      "geometry": "POINT (-78.859894 34.154626)",
      "poi_name": "Burger King",
      "osm_id": 2818133612,
      "amenity": "fast_food",
      "cuisine": "burger",
      "takeaway": "yes",
      "addr_city": "Tabor City",
      "addr_postcode": "28463",
      "distance": 51856.52176987
    },
    {
      "id": 37503,
      "geometry": "POINT (-78.868212 34.139948)",
      "poi_name": "McDonald's",
      "osm_id": 2818133614,
      "amenity": "fast_food",
      "cuisine": "burger",
      "website": "https://www.mcdonalds.com/us/en-us/location/nc/tabor-city/25-tabor-crossing/35021.html",
      "takeaway": "yes",
      "addr_city": "Tabor City",
      "addr_postcode": "28463",
      "distance": 50109.97146486
    },
    {
      "id": 37532,
      "geometry": "POINT (-78.999484 33.674993)",
      "poi_name": "Subway",
      "osm_id": 2819158183,
      "amenity": "fast_food",
      "cuisine": "sandwich",
      "takeaway": "yes",
      "distance": 3526.36423789
    },
    {
      "id": 38704,
      "geometry": "POINT (-79.368417 34.183054)",
      "poi_name": "Zaxby's",
      "osm_id": 2879123008,
      "amenity": "fast_food",
      "cuisine": "chicken",
      "takeaway": "yes",
      "official_name": "Zaxby's Chicken Fingers & Buffalo Wings",
      "addr_state": "SC",
      "addr_city": "Marion",
      "addr_postcode": "29571",
      "addr_street": "East Highway 76",
      "addr_housenumber": "2427",
      "distance": 65270.17203971
    },
    {
      "id": 38705,
      "geometry": "POINT (-79.366827 34.183609)",
      "poi_name": "McDonald's",
      "osm_id": 2879123009,
      "amenity": "fast_food",
      "cuisine": "burger",
      "website": "https://www.mcdonalds.com/us/en-us/location/sc/marion/2513-e-highway/12125.html",
      "takeaway": "yes",
      "distance": 65238.55812543
    },
    {
      "id": 38706,
      "geometry": "POINT (-79.365339 34.184991)",
      "poi_name": "Wendy's",
      "osm_id": 2879123010,
      "amenity": "fast_food",
      "cuisine": "burger",
      "takeaway": "yes",
      "drive_through": "yes",
      "addr_state": "SC",
      "addr_city": "Marion",
      "addr_postcode": "29571",
      "addr_street": "East Highway 76",
      "addr_housenumber": "2536",
      "distance": 65288.62158734
    },
    {
      "id": 39853,
      "geometry": "POINT (-79.833122 33.663582)",
      "poi_name": "McDonald's",
      "osm_id": 2942588470,
      "amenity": "fast_food",
      "cuisine": "burger",
      "website": "https://www.mcdonalds.com/us/en-us/location/sc/kingstree/102-n-longstreet-st/26608.html",
      "takeaway": "yes",
      "distance": 79987.68378868
    },
    {
      "id": 39854,
      "geometry": "POINT (-79.834234 33.664548)",
      "poi_name": "KFC",
      "osm_id": 2942588472,
      "amenity": "fast_food",
      "cuisine": "chicken",
      "website": "https://locations.kfc.com/sc/kingstree/201-n-longstreet-street",
      "takeaway": "yes",
      "distance": 80085.38302096
    },
    {
      "id": 39857,
      "geometry": "POINT (-80.226956 33.698085)",
      "poi_name": "Bojangles'",
      "osm_id": 2942760474,
      "amenity": "fast_food",
      "cuisine": "chicken",
      "takeaway": "yes",
      "official_name": "Bojangles' Famous Chicken 'n Biscuits",
      "addr_state": "SC",
      "addr_city": "Manning",
      "addr_postcode": "29102",
      "addr_street": "Paxville Highway",
      "addr_housenumber": "2004",
      "distance": 116401.00277884
    },
    {
      "id": 39858,
      "geometry": "POINT (-80.226096 33.697814)",
      "poi_name": "McDonald's",
      "osm_id": 2942760475,
      "amenity": "fast_food",
      "cuisine": "burger",
      "website": "https://www.mcdonalds.com/us/en-us/location/sc/manning/1960-paxville-hwy/34169.html",
      "takeaway": "yes",
      "distance": 116321.4310206
    },
    {
      "id": 39951,
      "geometry": "POINT (-80.214163 33.690017)",
      "poi_name": "Hardee's",
      "osm_id": 2952810015,
      "amenity": "fast_food",
      "cuisine": "burger",
      "website": "https://locations.hardees.com/sc/manning/102-sunset-drive",
      "takeaway": "yes",
      "distance": 115222.44524656
    },
    {
      "id": 39954,
      "geometry": "POINT (-80.225197 33.697709)",
      "poi_name": "Sonic",
      "osm_id": 2952845689,
      "amenity": "fast_food",
      "cuisine": "burger",
      "takeaway": "yes",
      "addr_state": "SC",
      "addr_city": "Manning",
      "addr_postcode": "29102",
      "addr_street": "Paxville Highway",
      "addr_housenumber": "1948",
      "distance": 116238.16932369
    },
    {
      "id": 39955,
      "geometry": "POINT (-80.225621 33.698404)",
      "poi_name": "Subway",
      "osm_id": 2952845690,
      "amenity": "fast_food",
      "cuisine": "sandwich",
      "takeaway": "yes",
      "distance": 116277.14642694
    },
    {
      "id": 39956,
      "geometry": "POINT (-80.222902 33.696425)",
      "poi_name": "Golden Chick",
      "osm_id": 2952854525,
      "amenity": "fast_food",
      "cuisine": "chicken",
      "takeaway": "yes",
      "distance": 116026.2175096
    },
    {
      "id": 40146,
      "geometry": "POINT (-79.808897 34.19245)",
      "poi_name": "Zaxby's",
      "osm_id": 2958556734,
      "amenity": "fast_food",
      "cuisine": "chicken",
      "takeaway": "yes",
      "official_name": "Zaxby's Chicken Fingers & Buffalo Wings",
      "distance": 94976.3186276
    },
    {
      "id": 40129,
      "geometry": "POINT (-79.806038 34.190038)",
      "poi_name": "Moe's Southwest Grill",
      "osm_id": 2958528015,
      "amenity": "fast_food",
      "cuisine": "mexican",
      "takeaway": "yes",
      "addr_state": "SC",
      "addr_city": "Florence",
      "distance": 94606.80746721
    },
    {
      "id": 40133,
      "geometry": "POINT (-79.837173 34.188126)",
      "poi_name": "Firehouse Subs",
      "osm_id": 2958542035,
      "amenity": "fast_food",
      "cuisine": "sandwich",
      "takeaway": "yes",
      "distance": 96849.59130972
    },
    {
      "id": 40134,
      "geometry": "POINT (-79.831352 34.18959)",
      "poi_name": "Chipotle",
      "osm_id": 2958542036,
      "amenity": "fast_food",
      "cuisine": "mexican",
      "takeaway": "yes",
      "official_name": "Chipotle Mexican Grill",
      "distance": 96496.82944212
    },
    {
      "id": 40135,
      "geometry": "POINT (-79.824201 34.188754)",
      "poi_name": "Arby's",
      "osm_id": 2958544167,
      "amenity": "fast_food",
      "cuisine": "sandwich",
      "takeaway": "yes",
      "addr_state": "SC",
      "distance": 95900.39523062
    },
    {
      "id": 40138,
      "geometry": "POINT (-79.808114 34.192438)",
      "poi_name": "KFC",
      "osm_id": 2958545468,
      "amenity": "fast_food",
      "cuisine": "chicken",
      "website": "https://locations.kfc.com/sc/florence/2060-w-evans-st",
      "takeaway": "yes",
      "distance": 94916.59439674
    },
    {
      "id": 40145,
      "geometry": "POINT (-79.806199 34.189816)",
      "poi_name": "Five Guys",
      "osm_id": 2958556733,
      "amenity": "fast_food",
      "cuisine": "burger",
      "takeaway": "yes",
      "official_name": "Five Guys Burgers and Fries",
      "addr_state": "SC",
      "addr_city": "Florence",
      "distance": 94604.78776826
    },
    {
      "id": 40699,
      "geometry": "POINT (-78.792182 33.778055)",
      "poi_name": "Burger King",
      "osm_id": 2979860567,
      "amenity": "fast_food",
      "cuisine": "burger",
      "takeaway": "yes",
      "distance": 18916.07478788
    },
    {
      "id": 41711,
      "geometry": "POINT (-79.01936 33.764903)",
      "poi_name": "Sonic",
      "osm_id": 3023834415,
      "amenity": "fast_food",
      "cuisine": "burger",
      "takeaway": "yes",
      "addr_state": "SC",
      "addr_city": "Conway",
      "addr_postcode": "29526",
      "addr_street": "SC 544",
      "addr_housenumber": "1927",
      "distance": 8796.07276788
    },
    {
      "id": 41712,
      "geometry": "POINT (-79.021634 33.78275)",
      "poi_name": "Little Caesars",
      "osm_id": 3023845442,
      "amenity": "fast_food",
      "cuisine": "pizza",
      "takeaway": "yes",
      "distance": 10642.3425989
    },
    {
      "id": 41713,
      "geometry": "POINT (-79.021667 33.782545)",
      "poi_name": "Jimmy John's",
      "osm_id": 3023845443,
      "amenity": "fast_food",
      "cuisine": "sandwich",
      "takeaway": "yes",
      "official_name": "Jimmy John's Gourmet Sandwiches",
      "addr_state": "SC",
      "addr_city": "Conway",
      "addr_postcode": "29526",
      "addr_street": "SC 544",
      "addr_housenumber": "1300",
      "distance": 10623.19666983
    },
    {
      "id": 41714,
      "geometry": "POINT (-79.021458 33.784141)",
      "poi_name": "Subway",
      "osm_id": 3023845444,
      "amenity": "fast_food",
      "cuisine": "sandwich",
      "takeaway": "yes",
      "addr_state": "SC",
      "addr_city": "Conway",
      "addr_postcode": "29526",
      "addr_street": "SC 544",
      "addr_housenumber": "1200A",
      "distance": 10774.24269967
    },
    {
      "id": 41715,
      "geometry": "POINT (-79.055421 33.849988)",
      "poi_name": "Subway",
      "osm_id": 3023867536,
      "amenity": "fast_food",
      "cuisine": "sandwich",
      "takeaway": "yes",
      "distance": 18722.69998671
    },
    {
      "id": 41721,
      "geometry": "POINT (-79.019037 33.971772)",
      "poi_name": "Hunt Brothers Pizza",
      "osm_id": 3023890103,
      "amenity": "fast_food",
      "distance": 30854.21182603
    },
    {
      "id": 41722,
      "geometry": "POINT (-79.048456 34.622103)",
      "poi_name": "Burger King",
      "osm_id": 3023957632,
      "amenity": "fast_food",
      "cuisine": "burger",
      "takeaway": "yes",
      "distance": 102923.05207363
    },
    {
      "id": 41726,
      "geometry": "POINT (-79.006343 34.666545)",
      "poi_name": "Chick-fil-A",
      "osm_id": 3023960258,
      "amenity": "fast_food",
      "cuisine": "chicken",
      "takeaway": "yes",
      "drive_through": "yes",
      "distance": 107655.92030031
    },
    {
      "id": 41728,
      "geometry": "POINT (-78.987924 34.812805)",
      "poi_name": "Taco Bell",
      "osm_id": 3023960269,
      "amenity": "fast_food",
      "cuisine": "tex-mex",
      "website": "https://locations.tacobell.com/nc/saint-pauls/1058-w--broad-street.html",
      "takeaway": "yes",
      "addr_city": "Saint Pauls",
      "addr_postcode": "28384",
      "addr_street": "West Broad Street",
      "addr_housenumber": "1058",
      "distance": 123842.56402563
    },
    {
      "id": 41729,
      "geometry": "POINT (-78.984443 34.80914)",
      "poi_name": "McDonald's",
      "osm_id": 3023960271,
      "amenity": "fast_food",
      "cuisine": "burger",
      "website": "https://www.mcdonalds.com/us/en-us/location/nc/st-pauls/921-w-broad-st/18972.html",
      "takeaway": "yes",
      "distance": 123432.54613498
    },
    {
      "id": 42067,
      "geometry": "POINT (-78.770803 33.786226)",
      "poi_name": "Wendy's",
      "osm_id": 3040266242,
      "amenity": "fast_food",
      "cuisine": "burger",
      "website": "http://wendys.com",
      "takeaway": "yes",
      "drive_through": "yes",
      "addr_street": "Kings Road",
      "addr_housenumber": "10840",
      "distance": 21089.17832672
    },
    {
      "id": 42243,
      "geometry": "POINT (-80.036341 32.939399)",
      "poi_name": "McDonald's",
      "osm_id": 3052695509,
      "amenity": "fast_food",
      "cuisine": "burger",
      "takeaway": "yes",
      "drive_through": "no",
      "distance": 129933.47122416
    },
    {
      "id": 42244,
      "geometry": "POINT (-80.036686 32.939911)",
      "poi_name": "Subway",
      "osm_id": 3052695511,
      "amenity": "fast_food",
      "cuisine": "sandwich",
      "website": "https://www.subway.com/",
      "takeaway": "yes",
      "distance": 129921.10352514
    },
    {
      "id": 42245,
      "geometry": "POINT (-80.036769 32.940068)",
      "poi_name": "No. 1 Kitchen",
      "osm_id": 3052695514,
      "amenity": "fast_food",
      "distance": 129915.66412614
    },
    {
      "id": 42299,
      "geometry": "POINT (-80.039566 32.945552)",
      "poi_name": "Larry's Giant Subs",
      "osm_id": 3054642603,
      "amenity": "fast_food",
      "distance": 129720.95058775
    },
    {
      "id": 42300,
      "geometry": "POINT (-80.039692 32.945808)",
      "poi_name": "Moe's Southwest Grill",
      "osm_id": 3054642605,
      "amenity": "fast_food",
      "cuisine": "mexican",
      "takeaway": "yes",
      "distance": 129711.6175255
    },
    {
      "id": 42821,
      "geometry": "POINT (-80.210957 33.696293)",
      "poi_name": "Sub Station II",
      "osm_id": 3081180861,
      "amenity": "fast_food",
      "cuisine": "sandwich",
      "distance": 114918.83428038
    },
    {
      "id": 42824,
      "geometry": "POINT (-80.206875 33.707538)",
      "poi_name": "Burger Chick",
      "osm_id": 3081212752,
      "amenity": "fast_food",
      "distance": 114539.49483066
    },
    {
      "id": 42830,
      "geometry": "POINT (-80.211814 33.688403)",
      "poi_name": "D&H Bar-B-Que",
      "osm_id": 3081238715,
      "amenity": "fast_food",
      "cuisine": "barbecue",
      "distance": 115007.0469533
    },
    {
      "id": 43924,
      "geometry": "POINT (-78.774444 33.783458)",
      "poi_name": "Charleys Philly Steaks",
      "osm_id": 3137582773,
      "amenity": "fast_food",
      "cuisine": "sandwich",
      "takeaway": "yes",
      "distance": 20647.41006425
    },
    {
      "id": 43925,
      "geometry": "POINT (-78.7745 33.783476)",
      "poi_name": "Craft Taco",
      "osm_id": 3137582774,
      "amenity": "fast_food",
      "cuisine": "mexican",
      "distance": 20643.71120271
    },
    {
      "id": 43926,
      "geometry": "POINT (-78.774567 33.783489)",
      "poi_name": "Five Guys",
      "osm_id": 3137582775,
      "amenity": "fast_food",
      "cuisine": "burger",
      "takeaway": "yes",
      "official_name": "Five Guys Burgers and Fries",
      "distance": 20638.91714869
    },
    {
      "id": 43927,
      "geometry": "POINT (-78.774626 33.783507)",
      "poi_name": "Famous Wok",
      "osm_id": 3137582776,
      "amenity": "fast_food",
      "distance": 20635.00706873
    },
    {
      "id": 43928,
      "geometry": "POINT (-78.774728 33.783677)",
      "poi_name": "Auntie Anne's",
      "osm_id": 3137582778,
      "amenity": "fast_food",
      "cuisine": "pretzel",
      "takeaway": "yes",
      "distance": 20635.44426266
    },
    {
      "id": 43930,
      "geometry": "POINT (-78.769754 33.78368)",
      "poi_name": "Bojangles'",
      "osm_id": 3137599738,
      "amenity": "fast_food",
      "cuisine": "chicken",
      "takeaway": "yes",
      "official_name": "Bojangles' Famous Chicken 'n Biscuits",
      "distance": 21043.82525543
    },
    {
      "id": 43932,
      "geometry": "POINT (-78.767834 33.783222)",
      "poi_name": "Papa John's",
      "osm_id": 3137599741,
      "amenity": "fast_food",
      "cuisine": "pizza",
      "takeaway": "yes",
      "distance": 21178.96280777
    },
    {
      "id": 43945,
      "geometry": "POINT (-78.893643 33.683693)",
      "poi_name": "Hardee's",
      "osm_id": 3137668424,
      "amenity": "fast_food",
      "cuisine": "burger",
      "website": "https://locations.hardees.com/sc/myrtle-beach/402-s-kings-hwy",
      "takeaway": "yes",
      "distance": 7349.70392749
    },
    {
      "id": 44071,
      "geometry": "POINT (-77.879044 34.228855)",
      "poi_name": "Bojangles'",
      "osm_id": 3143170774,
      "amenity": "fast_food",
      "cuisine": "chicken",
      "website": "https://www.bojangles.com/",
      "phone": "(910) 395-0262",
      "takeaway": "yes",
      "official_name": "Bojangles' Famous Chicken 'n Biscuits",
      "addr_state": "NC",
      "addr_city": "Wilmington",
      "addr_postcode": "28403",
      "addr_street": "South College Road",
      "addr_housenumber": "520",
      "distance": 116965.18739029
    },
    {
      "id": 44073,
      "geometry": "POINT (-77.866617 34.225741)",
      "poi_name": "Dunkin'",
      "osm_id": 3143305397,
      "amenity": "fast_food",
      "cuisine": "donut;coffee_shop",
      "takeaway": "yes",
      "addr_state": "NC",
      "addr_city": "Wilmington",
      "addr_postcode": "28403",
      "addr_street": "Cahill Drive",
      "distance": 117787.01022536
    },
    {
      "id": 44111,
      "geometry": "POINT (-77.885471 34.219102)",
      "poi_name": "McDonald's",
      "osm_id": 3144956229,
      "amenity": "fast_food",
      "cuisine": "burger",
      "website": "https://www.mcdonalds.com/us/en-us/location/nc/wilmington/822-s-college-rd/10472.html",
      "takeaway": "yes",
      "distance": 115912.94750076
    },
    {
      "id": 44167,
      "geometry": "POINT (-77.874087 34.22572)",
      "poi_name": "Einstein Bros. Bagels",
      "osm_id": 3147808331,
      "amenity": "fast_food",
      "cuisine": "bagel",
      "shop": "bakery",
      "takeaway": "yes",
      "distance": 117187.82956963
    },
    {
      "id": 44338,
      "geometry": "POINT (-79.825625 32.832505)",
      "poi_name": "Taco Bell",
      "osm_id": 3157232810,
      "amenity": "fast_food",
      "cuisine": "tex-mex",
      "website": "https://locations.tacobell.com/sc/mount-pleasant/1096-isle-of-palms-connector.html",
      "takeaway": "yes",
      "distance": 124561.25935808
    },
    {
      "id": 44481,
      "geometry": "POINT (-78.608102 34.624526)",
      "poi_name": "McDonald's",
      "osm_id": 3160178394,
      "amenity": "fast_food",
      "cuisine": "burger",
      "website": "https://www.mcdonalds.com/us/en-us/location/nc/elizabethtown/402-s-poplar-st/6563.html",
      "phone": "+19108622648",
      "takeaway": "yes",
      "addr_state": "NC",
      "addr_city": "Elizabethtown",
      "addr_postcode": "28337",
      "addr_street": "South Poplar Street",
      "addr_housenumber": "402",
      "distance": 108260.45690877
    },
    {
      "id": 44482,
      "geometry": "POINT (-78.606486 34.625864)",
      "poi_name": "KFC",
      "osm_id": 3160178398,
      "amenity": "fast_food",
      "cuisine": "chicken",
      "website": "https://locations.kfc.com/nc/elizabethtown/301-s-poplar-street",
      "takeaway": "yes",
      "addr_state": "NC",
      "addr_city": "Elizabethtown",
      "addr_postcode": "28337",
      "addr_street": "South Poplar Street",
      "addr_housenumber": "301",
      "distance": 108447.59412189
    },
    {
      "id": 44489,
      "geometry": "POINT (-79.760534 33.873761)",
      "poi_name": "Burger King",
      "osm_id": 3160536222,
      "amenity": "fast_food",
      "cuisine": "burger",
      "takeaway": "yes",
      "distance": 75684.07973959
    },
    {
      "id": 44490,
      "geometry": "POINT (-79.760141 33.87506)",
      "poi_name": "Hardee's",
      "osm_id": 3160536223,
      "amenity": "fast_food",
      "cuisine": "burger",
      "website": "https://locations.hardees.com/sc/lake-city/115-s-ron-mcnair-blvd",
      "takeaway": "yes",
      "distance": 75686.0064382
    },
    {
      "id": 44491,
      "geometry": "POINT (-79.760731 33.873078)",
      "poi_name": "KFC",
      "osm_id": 3160536228,
      "amenity": "fast_food",
      "cuisine": "chicken",
      "takeaway": "yes",
      "distance": 75682.32736586
    },
    {
      "id": 44492,
      "geometry": "POINT (-79.760275 33.875599)",
      "poi_name": "Domino's",
      "osm_id": 3160536235,
      "amenity": "fast_food",
      "cuisine": "pizza",
      "takeaway": "yes",
      "distance": 75713.42805169
    },
    {
      "id": 44493,
      "geometry": "POINT (-79.760516 33.877258)",
      "poi_name": "Captain D's",
      "osm_id": 3160536237,
      "amenity": "fast_food",
      "cuisine": "seafood",
      "takeaway": "yes",
      "official_name": "Captain D's Seafood Kitchen",
      "addr_state": "SC",
      "addr_city": "Lake City",
      "addr_postcode": "29560",
      "addr_street": "North Ron McNair Boulevard",
      "addr_housenumber": "120",
      "distance": 75782.76698728
    },
    {
      "id": 44495,
      "geometry": "POINT (-79.832835 33.662677)",
      "poi_name": "Hardee's",
      "osm_id": 3160542254,
      "amenity": "fast_food",
      "cuisine": "burger",
      "website": "https://locations.hardees.com/sc/kingstree/215-w-main-st",
      "takeaway": "yes",
      "distance": 79966.17767588
    },
    {
      "id": 44496,
      "geometry": "POINT (-79.834316 33.664996)",
      "poi_name": "Canton Express",
      "osm_id": 3160542256,
      "amenity": "fast_food",
      "distance": 80090.62828012
    },
    {
      "id": 44497,
      "geometry": "POINT (-79.833916 33.666052)",
      "poi_name": "Sonic",
      "osm_id": 3160542257,
      "amenity": "fast_food",
      "cuisine": "burger",
      "takeaway": "yes",
      "distance": 80048.10159834
    },
    {
      "id": 45037,
      "geometry": "POINT (-80.355988 33.868948)",
      "poi_name": "McDonald's",
      "osm_id": 3189029679,
      "amenity": "fast_food",
      "cuisine": "burger",
      "website": "https://www.mcdonalds.com/us/en-us/location/sc/sumter/1765-hwy-15-s/21509.html",
      "takeaway": "yes",
      "distance": 129655.46842175
    },
    {
      "id": 45038,
      "geometry": "POINT (-80.355976 33.867349)",
      "poi_name": "China Wok",
      "osm_id": 3189029743,
      "amenity": "fast_food",
      "cuisine": "chinese",
      "takeaway": "yes",
      "distance": 129629.50230396
    },
    {
      "id": 51238,
      "geometry": "POINT (-80.040545 33.00039)",
      "poi_name": "Subway",
      "osm_id": 524077004,
      "amenity": "fast_food",
      "cuisine": "sandwich",
      "takeaway": "yes",
      "distance": 125950.31814143
    },
    {
      "id": 51219,
      "geometry": "POINT (-80.06097 33.034813)",
      "poi_name": "Larry's Giant Subs",
      "osm_id": 521911780,
      "amenity": "fast_food",
      "distance": 125166.21272576
    },
    {
      "id": 51220,
      "geometry": "POINT (-80.060901 33.034798)",
      "poi_name": "Little Caesars",
      "osm_id": 521911802,
      "amenity": "fast_food",
      "cuisine": "pizza",
      "description": "Take out pizza",
      "website": "https://littlecaesars.com/en-us/store/7699/",
      "takeaway": "yes",
      "distance": 125161.97651552
    },
    {
      "id": 51733,
      "geometry": "POINT (-78.870775 33.726738)",
      "poi_name": "Zaxby's",
      "osm_id": 557391388,
      "amenity": "fast_food",
      "cuisine": "chicken",
      "takeaway": "yes",
      "official_name": "Zaxby's Chicken Fingers & Buffalo Wings",
      "distance": 9916.19124197
    },
    {
      "id": 51304,
      "geometry": "POINT (-80.065527 33.035489)",
      "poi_name": "UMI Japanese Cuisine",
      "osm_id": 530713403,
      "amenity": "fast_food",
      "distance": 125465.89709302
    },
    {
      "id": 51305,
      "geometry": "POINT (-80.062875 33.035288)",
      "poi_name": "Peking Gourmet",
      "osm_id": 530713417,
      "amenity": "fast_food",
      "distance": 125278.84698816
    },
    {
      "id": 51306,
      "geometry": "POINT (-80.060764 33.03477)",
      "poi_name": "Asia Express",
      "osm_id": 530713690,
      "amenity": "fast_food",
      "distance": 125153.51223917
    },
    {
      "id": 51308,
      "geometry": "POINT (-80.058559 33.030816)",
      "poi_name": "Chick-fil-A",
      "osm_id": 530713765,
      "amenity": "fast_food",
      "cuisine": "chicken",
      "takeaway": "yes",
      "drive_through": "yes",
      "distance": 125247.14900846
    },
    {
      "id": 51309,
      "geometry": "POINT (-80.056112 33.025134)",
      "poi_name": "Zaxby's",
      "osm_id": 530713939,
      "amenity": "fast_food",
      "cuisine": "chicken",
      "takeaway": "yes",
      "official_name": "Zaxby's Chicken Fingers & Buffalo Wings",
      "distance": 125438.88052608
    },
    {
      "id": 51668,
      "geometry": "POINT (-78.96416 33.755629)",
      "poi_name": "KFC",
      "osm_id": 550280646,
      "amenity": "fast_food",
      "cuisine": "chicken",
      "website": "https://locations.kfc.com/sc/myrtle-beach/1020-glen-forest-road",
      "takeaway": "yes",
      "distance": 6597.74645005
    },
    {
      "id": 51669,
      "geometry": "POINT (-78.968047 33.759776)",
      "poi_name": "Bojangles'",
      "osm_id": 550285750,
      "amenity": "fast_food",
      "cuisine": "chicken",
      "takeaway": "yes",
      "official_name": "Bojangles' Famous Chicken 'n Biscuits",
      "addr_state": "SC",
      "addr_city": "Myrtle Beach",
      "addr_postcode": "29579",
      "addr_street": "Renee Drive",
      "addr_housenumber": "3710",
      "distance": 7030.26474116
    },
    {
      "id": 51734,
      "geometry": "POINT (-78.870397 33.727052)",
      "poi_name": "McDonald's",
      "osm_id": 557391543,
      "amenity": "fast_food",
      "cuisine": "burger",
      "website": "https://www.mcdonalds.com/us/en-us/location/sc/myrtle-beach/3715-oleander-drive/26553.html",
      "takeaway": "yes",
      "distance": 9960.93948882
    },
    {
      "id": 54545,
      "geometry": "POINT (-80.126173 33.102499)",
      "poi_name": "Dunkin'",
      "osm_id": 10138706904,
      "amenity": "fast_food",
      "cuisine": "donut;coffee_shop",
      "opening_hours": "06:00-20:00",
      "website": "https://locations.dunkindonuts.com/en/sc/summerville/205-s-creek-drive/359017",
      "takeaway": "yes",
      "addr_state": "SC",
      "addr_city": "Summerville",
      "addr_postcode": "29486",
      "addr_street": "South Cross Creek Drive",
      "addr_housenumber": "205",
      "distance": 126014.5984309
    },
    {
      "id": 52984,
      "geometry": "POINT (-78.618644 34.632053)",
      "poi_name": "Burger King",
      "osm_id": 10058805384,
      "amenity": "fast_food",
      "cuisine": "burger",
      "takeaway": "yes",
      "distance": 108759.61691029
    },
    {
      "id": 52985,
      "geometry": "POINT (-78.620308 34.632304)",
      "poi_name": "Subway",
      "osm_id": 10058805387,
      "amenity": "fast_food",
      "cuisine": "sandwich",
      "takeaway": "yes",
      "distance": 108740.4001223
    },
    {
      "id": 52987,
      "geometry": "POINT (-78.616438 34.632284)",
      "poi_name": "Domino's",
      "osm_id": 10058805392,
      "amenity": "fast_food",
      "cuisine": "pizza",
      "takeaway": "yes",
      "distance": 108845.0832208
    },
    {
      "id": 53006,
      "geometry": "POINT (-78.606534 34.625412)",
      "poi_name": "Taco Bell",
      "osm_id": 10059585244,
      "amenity": "fast_food",
      "cuisine": "tex-mex",
      "website": "https://locations.tacobell.com/nc/elizabethtown/321-s--poplar-st.html",
      "takeaway": "yes",
      "distance": 108398.59379942
    },
    {
      "id": 53007,
      "geometry": "POINT (-78.606227 34.626376)",
      "poi_name": "Hardee's",
      "osm_id": 10059585246,
      "amenity": "fast_food",
      "cuisine": "burger",
      "website": "https://locations.hardees.com/nc/elizabethtown/213-s.-poplar-street",
      "takeaway": "yes",
      "distance": 108509.00553963
    },
    {
      "id": 53799,
      "geometry": "POINT (-78.884453 34.155295)",
      "poi_name": "Hunt Brothers Pizza",
      "osm_id": 10096738011,
      "amenity": "fast_food",
      "cuisine": "pizza",
      "takeaway": "yes",
      "distance": 51526.36847372
    },
    {
      "id": 55812,
      "geometry": "POINT (-78.810521 33.854259)",
      "poi_name": "Subway",
      "osm_id": 10208596978,
      "amenity": "fast_food",
      "cuisine": "sandwich",
      "takeaway": "yes",
      "addr_state": "SC",
      "addr_city": "Longs",
      "addr_postcode": "29568",
      "addr_street": "SC-90",
      "addr_housenumber": "7020",
      "distance": 22989.12941786
    },
    {
      "id": 58179,
      "geometry": "POINT (-78.27061 33.929605)",
      "poi_name": "Domino's",
      "osm_id": 5366751063,
      "amenity": "fast_food",
      "cuisine": "pizza",
      "takeaway": "yes",
      "addr_state": "NC",
      "addr_city": "Holden Beach",
      "addr_postcode": "28462",
      "addr_street": "Sabbath Home Road Southwest",
      "addr_housenumber": "1095",
      "distance": 69849.69651997
    },
    {
      "id": 58667,
      "geometry": "POINT (-79.828514 32.830249)",
      "poi_name": "Qdoba",
      "osm_id": 5391400722,
      "amenity": "fast_food",
      "cuisine": "mexican",
      "takeaway": "yes",
      "official_name": "Qdoba Mexican Grill",
      "addr_state": "SC",
      "addr_city": "Mount Pleasant",
      "addr_postcode": "29464",
      "addr_street": "Theater Drive",
      "addr_housenumber": "1333",
      "distance": 124926.36154831
    },
    {
      "id": 58224,
      "geometry": "POINT (-78.947705 33.733048)",
      "poi_name": "Dunkin'",
      "osm_id": 5368494049,
      "amenity": "fast_food",
      "cuisine": "donut;coffee_shop",
      "takeaway": "yes",
      "distance": 4616.04143089
    },
    {
      "id": 58679,
      "geometry": "POINT (-79.807258 32.878092)",
      "poi_name": "Subway",
      "osm_id": 5392815121,
      "amenity": "fast_food",
      "cuisine": "sandwich",
      "takeaway": "yes",
      "distance": 119581.08692122
    },
    {
      "id": 58668,
      "geometry": "POINT (-79.826021 32.830422)",
      "poi_name": "Marco's Pizza",
      "osm_id": 5391400822,
      "amenity": "fast_food",
      "cuisine": "pizza",
      "takeaway": "yes",
      "distance": 124763.1555828
    },
    {
      "id": 72582,
      "geometry": "POINT (-80.356168 33.591637)",
      "poi_name": "McDonald's",
      "osm_id": 11435730229,
      "amenity": "fast_food",
      "cuisine": "burger",
      "takeaway": "yes",
      "distance": 128984.15678432
    },
    {
      "id": 59598,
      "geometry": "POINT (-78.270772 33.929717)",
      "poi_name": "Surfers Cafe",
      "osm_id": 5434058413,
      "amenity": "fast_food",
      "cuisine": "burger;seafood",
      "drive_through": "no",
      "outdoor_seating": "no",
      "delivery": "no",
      "distance": 69840.32969958
    },
    {
      "id": 63438,
      "geometry": "POINT (-78.860183 33.759567)",
      "poi_name": "Dunkin'",
      "osm_id": 5615247872,
      "amenity": "fast_food",
      "cuisine": "donut;coffee_shop",
      "takeaway": "yes",
      "distance": 12461.72349933
    },
    {
      "id": 63659,
      "geometry": "POINT (-78.882208 33.717179)",
      "poi_name": "Auntie Anne's",
      "osm_id": 5625985350,
      "amenity": "fast_food",
      "cuisine": "pretzel",
      "takeaway": "yes",
      "distance": 8584.19159523
    },
    {
      "id": 63660,
      "geometry": "POINT (-78.880939 33.717353)",
      "poi_name": "Wahlburgers",
      "osm_id": 5625985361,
      "amenity": "fast_food",
      "cuisine": "burger",
      "takeaway": "yes",
      "distance": 8702.67580194
    },
    {
      "id": 66001,
      "geometry": "POINT (-78.860549 33.759232)",
      "poi_name": "Hungry Howie's",
      "osm_id": 5724123807,
      "amenity": "fast_food",
      "cuisine": "pizza",
      "takeaway": "yes",
      "distance": 12412.87486456
    },
    {
      "id": 66195,
      "geometry": "POINT (-78.969182 33.758146)",
      "poi_name": "Panera Bread",
      "osm_id": 5732113632,
      "amenity": "fast_food",
      "cuisine": "sandwich;bakery",
      "takeaway": "yes",
      "distance": 6845.61562017
    },
    {
      "id": 66196,
      "geometry": "POINT (-78.968978 33.757944)",
      "poi_name": "MOD Pizza",
      "osm_id": 5732113633,
      "amenity": "fast_food",
      "cuisine": "pizza",
      "takeaway": "yes",
      "distance": 6823.83668614
    },
    {
      "id": 66197,
      "geometry": "POINT (-78.967612 33.759275)",
      "poi_name": "McDonald's",
      "osm_id": 5732113634,
      "amenity": "fast_food",
      "cuisine": "burger",
      "website": "https://www.mcdonalds.com/us/en-us/location/sc/myrtle-beach/3730-renee-dr/26519.html",
      "takeaway": "yes",
      "distance": 6976.64531277
    },
    {
      "id": 69509,
      "geometry": "POINT (-79.480903 34.763831)",
      "poi_name": "Firehouse Subs",
      "osm_id": 11308502771,
      "amenity": "fast_food",
      "cuisine": "sandwich",
      "phone": "9103614180",
      "takeaway": "yes",
      "drive_through": "yes",
      "addr_state": "NC",
      "addr_city": "Laurinburg",
      "addr_postcode": "28352",
      "addr_street": "us 401 bypass north",
      "addr_housenumber": "890",
      "distance": 127365.07766009
    },
    {
      "id": 69512,
      "geometry": "POINT (-79.481202 34.760938)",
      "poi_name": "Chick-fil-A",
      "osm_id": 11308502776,
      "amenity": "fast_food",
      "cuisine": "chicken",
      "takeaway": "yes",
      "distance": 127077.25248396
    },
    {
      "id": 69514,
      "geometry": "POINT (-79.482245 34.755921)",
      "poi_name": "Cook Out",
      "osm_id": 11308502779,
      "amenity": "fast_food",
      "cuisine": "american",
      "takeaway": "yes",
      "distance": 126596.52719417
    },
    {
      "id": 69515,
      "geometry": "POINT (-79.482417 34.755409)",
      "poi_name": "Taco Bell",
      "osm_id": 11308502781,
      "amenity": "fast_food",
      "cuisine": "tex-mex",
      "website": "https://locations.tacobell.com/nc/laurinburg/1306-scotland-crossing.html",
      "takeaway": "yes",
      "distance": 126549.78350389
    },
    {
      "id": 69518,
      "geometry": "POINT (-79.200283 34.688248)",
      "poi_name": "Chick-fil-A",
      "osm_id": 11308525571,
      "amenity": "fast_food",
      "cuisine": "chicken",
      "takeaway": "yes",
      "distance": 112019.45554397
    },
    {
      "id": 69519,
      "geometry": "POINT (-79.198913 34.68489)",
      "poi_name": "KFC",
      "osm_id": 11308525572,
      "amenity": "fast_food",
      "cuisine": "chicken",
      "website": "https://locations.kfc.com/nc/pembroke/106-north-odum-street",
      "takeaway": "yes",
      "distance": 111629.90077123
    },
    {
      "id": 69520,
      "geometry": "POINT (-79.200405 34.68348)",
      "poi_name": "Cook Out",
      "osm_id": 11308525574,
      "amenity": "fast_food",
      "cuisine": "american",
      "takeaway": "yes",
      "distance": 111502.32512697
    },
    {
      "id": 69521,
      "geometry": "POINT (-79.20282 34.684315)",
      "poi_name": "McDonald's",
      "osm_id": 11308525575,
      "amenity": "fast_food",
      "cuisine": "burger",
      "website": "https://www.mcdonalds.com/us/en-us/location/nc/pembroke/801-west-third-street/31003.html",
      "takeaway": "yes",
      "distance": 111635.50414581
    },
    {
      "id": 69522,
      "geometry": "POINT (-79.203609 34.684765)",
      "poi_name": "Slim Chickens",
      "osm_id": 11308525576,
      "amenity": "fast_food",
      "cuisine": "chicken",
      "takeaway": "yes",
      "distance": 111698.45713287
    },
    {
      "id": 69523,
      "geometry": "POINT (-79.203776 34.684869)",
      "poi_name": "Dunkin'",
      "osm_id": 11308525577,
      "amenity": "fast_food",
      "cuisine": "donut;coffee_shop",
      "takeaway": "yes",
      "addr_state": "NC",
      "addr_city": "Pembroke",
      "addr_postcode": "28372",
      "addr_street": "West 3rd Street",
      "addr_housenumber": "807",
      "distance": 111712.68284068
    },
    {
      "id": 70912,
      "geometry": "POINT (-79.007213 34.640417)",
      "poi_name": "Chick-fil-A",
      "osm_id": 11376430992,
      "amenity": "fast_food",
      "cuisine": "chicken",
      "wheelchair": "yes",
      "takeaway": "yes",
      "outdoor_seating": "parklet",
      "distance": 104761.23835066
    },
    {
      "id": 72062,
      "geometry": "POINT (-79.806299 34.236339)",
      "poi_name": "Popeyes",
      "osm_id": 11410928767,
      "amenity": "fast_food",
      "cuisine": "chicken",
      "wheelchair": "yes",
      "takeaway": "yes",
      "official_name": "Popeyes Louisiana Kitchen",
      "distance": 97671.36241037
    },
    {
      "id": 74199,
      "geometry": "POINT (-80.096283 33.90348)",
      "poi_name": "Subway",
      "osm_id": 9670585000,
      "amenity": "fast_food",
      "cuisine": "sandwich",
      "takeaway": "yes",
      "drive_through": "yes",
      "distance": 106662.98859228
    },
    {
      "id": 74257,
      "geometry": "POINT (-79.289569 33.392572)",
      "poi_name": "Bojangles'",
      "osm_id": 9672215084,
      "amenity": "fast_food",
      "cuisine": "chicken",
      "opening_hours": "Mo-Su 06:00-21:00",
      "takeaway": "yes",
      "official_name": "Bojangles' Famous Chicken 'n Biscuits",
      "distance": 44822.727587
    },
    {
      "id": 80292,
      "geometry": "POINT (-78.642364 33.828266)",
      "poi_name": "Ice Cream Shop",
      "osm_id": 874337322,
      "amenity": "fast_food",
      "distance": 33809.30547565
    },
    {
      "id": 75338,
      "geometry": "POINT (-78.978493 34.80381)",
      "poi_name": "Domino's",
      "osm_id": 9724763569,
      "amenity": "fast_food",
      "cuisine": "pizza",
      "phone": "+19108859151",
      "takeaway": "yes",
      "addr_state": "NC",
      "addr_city": "St. Pauls",
      "addr_postcode": "28384",
      "addr_street": "South 5th Street",
      "addr_housenumber": "350",
      "distance": 122837.04273
    },
    {
      "id": 75777,
      "geometry": "POINT (-78.814448 33.75105)",
      "poi_name": "Jersey Mike's Subs",
      "osm_id": 9742654020,
      "amenity": "fast_food",
      "cuisine": "sandwich",
      "takeaway": "yes",
      "distance": 15759.08782643
    },
    {
      "id": 75780,
      "geometry": "POINT (-78.768855 33.789941)",
      "poi_name": "Chick-fil-A",
      "osm_id": 9742665839,
      "amenity": "fast_food",
      "cuisine": "chicken",
      "takeaway": "yes",
      "distance": 21444.30357721
    },
    {
      "id": 83639,
      "geometry": "POINT (-79.864242 32.810797)",
      "poi_name": "Subway",
      "osm_id": 1756291654,
      "amenity": "fast_food",
      "cuisine": "sandwich",
      "takeaway": "yes",
      "distance": 128724.53283759
    },
    {
      "id": 83020,
      "geometry": "POINT (-79.807623 34.188506)",
      "poi_name": "Schlotzsky's",
      "osm_id": 1726091440,
      "amenity": "fast_food",
      "cuisine": "sandwich",
      "website": "https://www.schlotzskys.com/",
      "phone": "+1-843-673-0777",
      "takeaway": "yes",
      "addr_state": "SC",
      "addr_city": "Florence",
      "addr_postcode": "29501",
      "addr_street": "West Palmetto Street",
      "addr_housenumber": "1935",
      "distance": 94628.81884084
    },
    {
      "id": 83658,
      "geometry": "POINT (-79.833646 34.174049)",
      "poi_name": "Bojangles'",
      "osm_id": 1757984889,
      "amenity": "fast_food",
      "cuisine": "chicken",
      "website": "https://www.bojangles.com/",
      "takeaway": "yes",
      "official_name": "Bojangles' Famous Chicken 'n Biscuits",
      "addr_state": "SC",
      "addr_city": "Florence",
      "addr_postcode": "29501",
      "addr_street": "Celebration Blvd",
      "addr_housenumber": "1224",
      "distance": 95712.79466336
    },
    {
      "id": 83659,
      "geometry": "POINT (-79.821308 34.193124)",
      "poi_name": "McDonald's",
      "osm_id": 1757984948,
      "amenity": "fast_food",
      "cuisine": "burger",
      "takeaway": "yes",
      "drive_through": "no",
      "addr_postcode": "29501",
      "addr_street": "Beltline Drive",
      "addr_housenumber": "230",
      "distance": 95956.51018345
    },
    {
      "id": 88704,
      "geometry": "POINT (-80.3577 33.587039)",
      "poi_name": "DQ Grill & Chill",
      "osm_id": 8792673035,
      "amenity": "fast_food",
      "cuisine": "ice_cream;burger",
      "takeaway": "yes",
      "distance": 129176.04032316
    },
    {
      "id": 84337,
      "geometry": "POINT (-79.85492 32.812598)",
      "poi_name": "McDonald's",
      "osm_id": 1784334537,
      "amenity": "fast_food",
      "cuisine": "burger",
      "website": "https://www.mcdonalds.com/us/en-us/location/sc/mount-pleasant/1533-johnny-dodds-blvd/5322.html",
      "takeaway": "yes",
      "drive_through": "yes",
      "distance": 128011.29441016
    },
    {
      "id": 86188,
      "geometry": "POINT (-80.087561 33.014386)",
      "poi_name": "Subway",
      "osm_id": 1922575203,
      "amenity": "fast_food",
      "cuisine": "sandwich",
      "takeaway": "yes",
      "distance": 128509.52349608
    },
    {
      "id": 86190,
      "geometry": "POINT (-80.08805 33.015157)",
      "poi_name": "Sonic",
      "osm_id": 1922585095,
      "amenity": "fast_food",
      "cuisine": "burger",
      "takeaway": "yes",
      "distance": 128495.56144322
    },
    {
      "id": 90257,
      "geometry": "POINT (-79.857012 32.812251)",
      "poi_name": "Papa John's",
      "osm_id": 1987815463,
      "amenity": "fast_food",
      "cuisine": "pizza",
      "takeaway": "yes",
      "distance": 128166.35540331
    },
    {
      "id": 90288,
      "geometry": "POINT (-79.855798 32.84059)",
      "poi_name": "Poke Bros.",
      "osm_id": 1988247972,
      "amenity": "fast_food",
      "cuisine": "poke",
      "opening_hours": "Mo-Su 11:00-21:00",
      "takeaway": "yes",
      "addr_state": "SC",
      "addr_city": "Mount Pleasant",
      "addr_postcode": "29464",
      "addr_street": "Long Point Road",
      "addr_housenumber": "644",
      "distance": 125695.04879124
    },
    {
      "id": 90290,
      "geometry": "POINT (-79.858869 32.840315)",
      "poi_name": "Wendy's",
      "osm_id": 1988247975,
      "amenity": "fast_food",
      "cuisine": "burger",
      "takeaway": "yes",
      "drive_through": "yes",
      "distance": 125905.86487628
    },
    {
      "id": 90291,
      "geometry": "POINT (-79.857761 32.840166)",
      "poi_name": "Moe's Southwest Grill",
      "osm_id": 1988247988,
      "amenity": "fast_food",
      "cuisine": "mexican",
      "takeaway": "yes",
      "distance": 125850.60861239
    },
    {
      "id": 90297,
      "geometry": "POINT (-79.786028 32.864476)",
      "poi_name": "McDonald's",
      "osm_id": 1988314888,
      "amenity": "fast_food",
      "cuisine": "burger",
      "website": "https://www.mcdonalds.com/us/en-us/location/sc/mount-pleasant/3060-ironclad-alley/32711.html",
      "takeaway": "yes",
      "drive_through": "yes",
      "distance": 119469.20465469
    },
    {
      "id": 90298,
      "geometry": "POINT (-79.796588 32.858731)",
      "poi_name": "Sonic",
      "osm_id": 1988314898,
      "amenity": "fast_food",
      "cuisine": "burger",
      "takeaway": "yes",
      "distance": 120588.23951066
    },
    {
      "id": 90260,
      "geometry": "POINT (-79.866027 32.812047)",
      "poi_name": "Chick-fil-A",
      "osm_id": 1987815478,
      "amenity": "fast_food",
      "cuisine": "chicken",
      "takeaway": "yes",
      "drive_through": "yes",
      "distance": 128726.06405472
    },
    {
      "id": 90302,
      "geometry": "POINT (-79.784132 32.865648)",
      "poi_name": "Chick-fil-A",
      "osm_id": 1988364711,
      "amenity": "fast_food",
      "cuisine": "chicken",
      "takeaway": "yes",
      "drive_through": "yes",
      "distance": 119256.34048791
    },
    {
      "id": 90274,
      "geometry": "POINT (-79.840605 32.823304)",
      "poi_name": "Bojangles'",
      "osm_id": 1987841448,
      "amenity": "fast_food",
      "cuisine": "chicken",
      "opening_hours": "Su 06:00-22:00; Mo-Sa 05:00-22:00",
      "operator": "Bojangles Restaurants, LLC.",
      "website": "https://locations.bojangles.com/sc/mt--pleasant/1644-hwy-17-north.html",
      "phone": "8432161398",
      "takeaway": "yes",
      "drive_through": "yes",
      "official_name": "Bojangles' Famous Chicken 'n Biscuits",
      "delivery": "yes",
      "addr_state": "SC",
      "addr_city": "Mount pleasant",
      "addr_postcode": "29464",
      "addr_street": "North Highway 17",
      "addr_housenumber": "1644",
      "distance": 126241.374854
    },
    {
      "id": 90277,
      "geometry": "POINT (-79.834827 32.828312)",
      "poi_name": "Five Guys",
      "osm_id": 1987846308,
      "amenity": "fast_food",
      "cuisine": "burger",
      "takeaway": "yes",
      "official_name": "Five Guys Burgers and Fries",
      "distance": 125468.52193643
    },
    {
      "id": 90278,
      "geometry": "POINT (-79.826791 32.831986)",
      "poi_name": "Jersey Mike's Subs",
      "osm_id": 1987846311,
      "amenity": "fast_food",
      "cuisine": "sandwich",
      "takeaway": "yes",
      "distance": 124675.1473427
    },
    {
      "id": 90281,
      "geometry": "POINT (-79.798252 32.85631)",
      "poi_name": "Jack's Cosmic Dogs",
      "osm_id": 1987851239,
      "amenity": "fast_food",
      "cuisine": "hot_dog",
      "takeaway": "yes",
      "distance": 120894.65555034
    },
    {
      "id": 90564,
      "geometry": "POINT (-78.01846 34.217433)",
      "poi_name": "Smithfield's Chicken and Barbeque",
      "osm_id": 2002859717,
      "amenity": "fast_food",
      "cuisine": "chicken",
      "distance": 105347.20618221
    },
    {
      "id": 90567,
      "geometry": "POINT (-78.019688 34.218414)",
      "poi_name": "Papa John's",
      "osm_id": 2002859881,
      "amenity": "fast_food",
      "cuisine": "pizza",
      "takeaway": "yes",
      "distance": 105311.60189328
    },
    {
      "id": 91691,
      "geometry": "POINT (-79.854824 32.843011)",
      "poi_name": "Subway",
      "osm_id": 2083735581,
      "amenity": "fast_food",
      "cuisine": "sandwich",
      "takeaway": "yes",
      "distance": 125432.06195464
    },
    {
      "id": 90623,
      "geometry": "POINT (-78.004909 34.236494)",
      "poi_name": "Mr. Frosty's",
      "osm_id": 2006628143,
      "amenity": "fast_food",
      "cuisine": "sandwich",
      "distance": 107551.37508282
    },
    {
      "id": 90625,
      "geometry": "POINT (-77.996428 34.233053)",
      "poi_name": "Bojangles'",
      "osm_id": 2006628147,
      "amenity": "fast_food",
      "cuisine": "chicken",
      "takeaway": "yes",
      "official_name": "Bojangles' Famous Chicken 'n Biscuits",
      "addr_state": "NC",
      "addr_city": "Leland",
      "addr_postcode": "28451",
      "addr_street": "Village Road Northeast",
      "addr_housenumber": "109",
      "distance": 107993.89455739
    },
    {
      "id": 90626,
      "geometry": "POINT (-77.995875 34.232698)",
      "poi_name": "Hardee's",
      "osm_id": 2006628148,
      "amenity": "fast_food",
      "cuisine": "burger",
      "website": "https://locations.hardees.com/nc/leland/101-village-rd-ne",
      "takeaway": "yes",
      "distance": 108014.99251352
    },
    {
      "id": 90629,
      "geometry": "POINT (-77.996553 34.234081)",
      "poi_name": "McDonald's",
      "osm_id": 2006628152,
      "amenity": "fast_food",
      "cuisine": "burger",
      "website": "https://www.mcdonalds.com/us/en-us/location/nc/leland/108-village-rd/5658.html",
      "takeaway": "yes",
      "drive_through": "yes",
      "distance": 108046.70710625
    },
    {
      "id": 90630,
      "geometry": "POINT (-77.996036 34.233864)",
      "poi_name": "KFC",
      "osm_id": 2006628153,
      "amenity": "fast_food",
      "cuisine": "chicken",
      "operator": "Yum! Brands",
      "website": "https://locations.kfc.com/nc/leland/104-village-road",
      "takeaway": "yes",
      "addr_state": "NC",
      "addr_city": "Leland",
      "addr_postcode": "28451",
      "addr_street": "Village Road Northeast",
      "addr_housenumber": "104",
      "distance": 108073.3670595
    },
    {
      "id": 90631,
      "geometry": "POINT (-77.995542 34.233798)",
      "poi_name": "Taco Bell",
      "osm_id": 2006628154,
      "amenity": "fast_food",
      "cuisine": "tex-mex",
      "website": "https://locations.tacobell.com/nc/leland/101-thomas-garst-lane.html",
      "takeaway": "yes",
      "distance": 108107.38420212
    },
    {
      "id": 90633,
      "geometry": "POINT (-77.99705 34.232064)",
      "poi_name": "Subway",
      "osm_id": 2006628177,
      "amenity": "fast_food",
      "cuisine": "sandwich",
      "takeaway": "yes",
      "distance": 107885.90225293
    },
    {
      "id": 96058,
      "geometry": "POINT (-78.988898 33.641551)",
      "poi_name": "Panda Express",
      "osm_id": 6419155666,
      "amenity": "fast_food",
      "cuisine": "chinese",
      "takeaway": "yes",
      "distance": 6301.78250593
    },
    {
      "id": 96059,
      "geometry": "POINT (-78.98897 33.641436)",
      "poi_name": "Tropical Smoothie Cafe",
      "osm_id": 6419155667,
      "amenity": "fast_food",
      "cuisine": "juice",
      "takeaway": "yes",
      "distance": 6315.77577094
    },
    {
      "id": 96061,
      "geometry": "POINT (-78.979108 33.646333)",
      "poi_name": "Little Caesars",
      "osm_id": 6419155835,
      "amenity": "fast_food",
      "cuisine": "pizza",
      "takeaway": "yes",
      "distance": 5604.89899242
    },
    {
      "id": 96063,
      "geometry": "POINT (-78.982883 33.652055)",
      "poi_name": "Which Wich?",
      "osm_id": 6419180013,
      "amenity": "fast_food",
      "cuisine": "sandwich",
      "takeaway": "yes",
      "distance": 5038.0469351
    },
    {
      "id": 96821,
      "geometry": "POINT (-79.033669 33.63096)",
      "poi_name": "Dunkin'",
      "osm_id": 6446505082,
      "amenity": "fast_food",
      "cuisine": "donut;coffee_shop",
      "takeaway": "yes",
      "addr_state": "SC",
      "addr_city": "Myrtle Beach",
      "addr_postcode": "29588",
      "addr_street": "SC 707",
      "addr_housenumber": "9497",
      "distance": 9278.92440309
    },
    {
      "id": 96745,
      "geometry": "POINT (-77.949046 34.239048)",
      "poi_name": "Subway",
      "osm_id": 6443078456,
      "amenity": "fast_food",
      "cuisine": "sandwich",
      "takeaway": "yes",
      "distance": 112027.01407694
    },
    {
      "id": 100503,
      "geometry": "POINT (-79.790985 32.862878)",
      "poi_name": "Not Just Franks",
      "osm_id": 6589781589,
      "amenity": "fast_food",
      "distance": 119900.14707479
    },
    {
      "id": 101531,
      "geometry": "POINT (-79.85598 32.842039)",
      "poi_name": "Chick-fil-A",
      "osm_id": 6632647228,
      "amenity": "fast_food",
      "cuisine": "chicken",
      "takeaway": "yes",
      "drive_through": "yes",
      "distance": 125584.41817651
    },
    {
      "id": 100940,
      "geometry": "POINT (-78.493709 34.654227)",
      "poi_name": "Hot Rod\u2019s Grill",
      "osm_id": 6605759956,
      "amenity": "fast_food",
      "cuisine": "burger",
      "phone": "+19108625300",
      "addr_city": "White Lake",
      "addr_postcode": "28337",
      "addr_street": "White Lake Dr",
      "addr_housenumber": "126",
      "distance": 115008.23182649
    },
    {
      "id": 103125,
      "geometry": "POINT (-78.050692 34.457584)",
      "poi_name": "Johnson Corner Grill",
      "osm_id": 8484158534,
      "amenity": "fast_food",
      "phone": "(910) 259-4367",
      "addr_state": "NC",
      "addr_city": "Currie",
      "addr_postcode": "28435",
      "addr_street": "US-421",
      "addr_housenumber": "9031",
      "distance": 119791.95202001
    },
    {
      "id": 101606,
      "geometry": "POINT (-78.485779 34.635958)",
      "poi_name": "Goldston's Sandwich Shop",
      "osm_id": 6635594692,
      "amenity": "fast_food",
      "cuisine": "burger",
      "addr_city": "Elizabethtown",
      "addr_postcode": "28337",
      "addr_street": "Alexander Street",
      "addr_housenumber": "174",
      "distance": 113427.20860573
    },
    {
      "id": 102554,
      "geometry": "POINT (-78.020064 33.919908)",
      "poi_name": "Spike's Dairy Bar",
      "osm_id": 6684555997,
      "amenity": "fast_food",
      "phone": "(910) 477-9117",
      "addr_state": "NC",
      "addr_city": "Southport",
      "addr_postcode": "28461",
      "addr_street": "North Howe Street",
      "addr_housenumber": "201",
      "distance": 91508.49172109
    },
    {
      "id": 102809,
      "geometry": "POINT (-79.765436 34.19409)",
      "poi_name": "Drive-In",
      "osm_id": 8459470397,
      "amenity": "fast_food",
      "distance": 91839.51150015
    },
    {
      "id": 102810,
      "geometry": "POINT (-79.824419 34.187384)",
      "poi_name": "Panera Bread",
      "osm_id": 8459470398,
      "amenity": "fast_food",
      "cuisine": "sandwich;bakery",
      "takeaway": "yes",
      "distance": 95831.07391815
    },
    {
      "id": 102811,
      "geometry": "POINT (-79.774188 34.193567)",
      "poi_name": "Jimmy John's",
      "osm_id": 8459470402,
      "amenity": "fast_food",
      "cuisine": "sandwich",
      "takeaway": "yes",
      "official_name": "Jimmy John's Gourmet Sandwiches",
      "distance": 92453.00448105
    },
    {
      "id": 102812,
      "geometry": "POINT (-79.759597 34.193945)",
      "poi_name": "KFC",
      "osm_id": 8459470403,
      "amenity": "fast_food",
      "cuisine": "chicken",
      "website": "https://locations.kfc.com/sc/florence/516-e-palmetto",
      "takeaway": "yes",
      "distance": 91399.05532549
    },
    {
      "id": 102813,
      "geometry": "POINT (-79.833264 34.188442)",
      "poi_name": "Taco Bell",
      "osm_id": 8459554130,
      "amenity": "fast_food",
      "cuisine": "tex-mex",
      "website": "https://locations.tacobell.com/sc/florence/2674-david-mcleod-blvd.html",
      "takeaway": "yes",
      "distance": 96570.86345655
    },
    {
      "id": 103202,
      "geometry": "POINT (-77.893275 34.390204)",
      "poi_name": "Paul's Place Famous Hotdogs",
      "osm_id": 8490267906,
      "amenity": "fast_food",
      "phone": "(910) 675-2345",
      "addr_state": "NC",
      "addr_city": "Rocky Point",
      "addr_postcode": "28457",
      "addr_street": "US 117 South",
      "addr_housenumber": "11725",
      "distance": 125826.79882494
    },
    {
      "id": 103203,
      "geometry": "POINT (-77.900105 34.35696)",
      "poi_name": "Subway",
      "osm_id": 8490367480,
      "amenity": "fast_food",
      "cuisine": "sandwich",
      "phone": "(910) 602-6211",
      "takeaway": "yes",
      "addr_state": "NC",
      "addr_city": "Castle Hayne",
      "addr_postcode": "28429",
      "addr_street": "Castle Hayne Road",
      "addr_housenumber": "6001",
      "distance": 123114.16156429
    },
    {
      "id": 103204,
      "geometry": "POINT (-77.900093 34.357154)",
      "poi_name": "Hwy 55 Burgers Shakes & Fries",
      "osm_id": 8490367481,
      "amenity": "fast_food",
      "phone": "(910) 675-1750",
      "addr_state": "NC",
      "addr_city": "Castle Hayne",
      "addr_postcode": "28429",
      "addr_street": "Castle Hayne Road",
      "addr_housenumber": "6001",
      "distance": 123127.80337804
    },
    {
      "id": 103213,
      "geometry": "POINT (-78.072211 34.533341)",
      "poi_name": "Subway",
      "osm_id": 8490778898,
      "amenity": "fast_food",
      "cuisine": "sandwich",
      "phone": "+19102839285",
      "takeaway": "yes",
      "addr_state": "NC",
      "addr_city": "Burgaw",
      "addr_postcode": "28425",
      "addr_street": "US-421",
      "addr_housenumber": "14531",
      "distance": 124498.73944745
    },
    {
      "id": 118029,
      "geometry": "POINT (-78.961524 33.632321)",
      "poi_name": "Duck Donuts",
      "osm_id": 9023400317,
      "amenity": "fast_food",
      "cuisine": "donut",
      "shop": "bakery",
      "takeaway": "yes",
      "distance": 7172.62632959
    },
    {
      "id": 117851,
      "geometry": "POINT (-78.96603 33.627435)",
      "poi_name": "Joey Doggs",
      "osm_id": 9014970020,
      "amenity": "fast_food",
      "distance": 7671.88210247
    },
    {
      "id": 117867,
      "geometry": "POINT (-79.039123 33.562859)",
      "poi_name": "Subway",
      "osm_id": 9015316022,
      "amenity": "fast_food",
      "cuisine": "sandwich",
      "takeaway": "yes",
      "distance": 16094.2521837
    },
    {
      "id": 118059,
      "geometry": "POINT (-78.878347 33.69333)",
      "poi_name": "Myrtle Beach Fries",
      "osm_id": 9023926424,
      "amenity": "fast_food",
      "distance": 8636.78676241
    },
    {
      "id": 118067,
      "geometry": "POINT (-78.881698 33.691306)",
      "poi_name": "Nathan's",
      "osm_id": 9023943919,
      "amenity": "fast_food",
      "cuisine": "hot_dog",
      "takeaway": "yes",
      "distance": 8338.74924224
    },
    {
      "id": 118068,
      "geometry": "POINT (-78.894676 33.679771)",
      "poi_name": "NY Kitchen Pizzeria",
      "osm_id": 9023943922,
      "amenity": "fast_food",
      "distance": 7353.11113532
    },
    {
      "id": 118069,
      "geometry": "POINT (-78.902413 33.672758)",
      "poi_name": "Fat Man's Dream Lounge",
      "osm_id": 9023952525,
      "amenity": "fast_food",
      "distance": 6918.15418342
    },
    {
      "id": 118075,
      "geometry": "POINT (-79.098375 33.483636)",
      "poi_name": "China Wok",
      "osm_id": 9024006917,
      "amenity": "fast_food",
      "cuisine": "chinese",
      "takeaway": "yes",
      "addr_state": "SC",
      "addr_city": "Pawleys Island",
      "addr_postcode": "29585",
      "addr_street": "Willbrook Boulevard",
      "addr_housenumber": "115",
      "distance": 26382.93496368
    },
    {
      "id": 107314,
      "geometry": "POINT (-78.507622 33.869258)",
      "poi_name": "Sunset Slush",
      "osm_id": 3552098232,
      "amenity": "fast_food",
      "cuisine": "ice_cream",
      "distance": 47039.24339631
    },
    {
      "id": 113666,
      "geometry": "POINT (-78.922873 33.701906)",
      "poi_name": "Chick-fil-A",
      "osm_id": 3842730991,
      "amenity": "fast_food",
      "cuisine": "chicken",
      "takeaway": "yes",
      "distance": 4541.847058
    },
    {
      "id": 113667,
      "geometry": "POINT (-78.922845 33.701843)",
      "poi_name": "Sbarro",
      "osm_id": 3842731521,
      "amenity": "fast_food",
      "cuisine": "pizza",
      "takeaway": "yes",
      "distance": 4543.50012399
    },
    {
      "id": 113668,
      "geometry": "POINT (-78.922812 33.701774)",
      "poi_name": "China Express",
      "osm_id": 3842733431,
      "amenity": "fast_food",
      "cuisine": "chinese",
      "distance": 4545.52891413
    },
    {
      "id": 113669,
      "geometry": "POINT (-78.922784 33.701708)",
      "poi_name": "Charleys Philly Steaks",
      "osm_id": 3842733432,
      "amenity": "fast_food",
      "cuisine": "sandwich",
      "takeaway": "yes",
      "distance": 4547.14947982
    },
    {
      "id": 113671,
      "geometry": "POINT (-78.925052 33.701841)",
      "poi_name": "Cinnabon",
      "osm_id": 3842782366,
      "amenity": "fast_food",
      "cuisine": "dessert",
      "takeaway": "yes",
      "distance": 4340.70731905
    },
    {
      "id": 116114,
      "geometry": "POINT (-80.031997 33.097237)",
      "poi_name": "Domino's",
      "osm_id": 8929416217,
      "amenity": "fast_food",
      "addr_street": "Foxbank Plantation Road",
      "addr_housenumber": "111-A",
      "distance": 118962.10169991
    },
    {
      "id": 118055,
      "geometry": "POINT (-78.871502 33.69939)",
      "poi_name": "Dunkin'",
      "osm_id": 9023926224,
      "amenity": "fast_food",
      "cuisine": "donut;coffee_shop",
      "takeaway": "yes",
      "distance": 9269.84214961
    },
    {
      "id": 118975,
      "geometry": "POINT (-78.019671 34.214635)",
      "poi_name": "Firehouse Subs",
      "osm_id": 9075086226,
      "amenity": "fast_food",
      "cuisine": "sandwich",
      "takeaway": "yes",
      "distance": 105084.73292302
    },
    {
      "id": 118541,
      "geometry": "POINT (-79.046461 33.554849)",
      "poi_name": "Hwy55",
      "osm_id": 9049451643,
      "amenity": "fast_food",
      "cuisine": "burger;fries;ice_cream",
      "takeaway": "yes",
      "official_name": "Hwy55 Burgers, Shakes & Fries",
      "distance": 17180.35256944
    },
    {
      "id": 118543,
      "geometry": "POINT (-79.046376 33.554987)",
      "poi_name": "Jersey Mike's Subs",
      "osm_id": 9049451646,
      "amenity": "fast_food",
      "cuisine": "sandwich",
      "takeaway": "yes",
      "distance": 17163.18406565
    },
    {
      "id": 126122,
      "geometry": "POINT (-77.828416 34.24191)",
      "poi_name": "Zo\u00ebs Kitchen",
      "osm_id": 6984183789,
      "amenity": "fast_food",
      "cuisine": "mediterranean",
      "takeaway": "yes",
      "distance": 121733.36864724
    },
    {
      "id": 121319,
      "geometry": "POINT (-77.921795 34.288329)",
      "poi_name": "McDonald's",
      "osm_id": 6753010785,
      "amenity": "fast_food",
      "cuisine": "burger",
      "opening_hours": "Mo-Su 09:00-18:00",
      "website": "https://www.mcdonalds.com/us/en-us/location/nc/wilmington/2541-castle-hayne-rd/13382.html",
      "internet_access": "wlan",
      "takeaway": "yes",
      "addr_street": "Castle Hayne Road",
      "distance": 117109.99979848
    },
    {
      "id": 123588,
      "geometry": "POINT (-79.003846 34.667242)",
      "poi_name": "Hardee's",
      "osm_id": 6864170782,
      "amenity": "fast_food",
      "cuisine": "burger",
      "website": "https://locations.hardees.com/nc/lumberton/101-jackson-court",
      "takeaway": "yes",
      "distance": 107726.54190554
    },
    {
      "id": 123591,
      "geometry": "POINT (-79.003305 34.666434)",
      "poi_name": "Panera Bread",
      "osm_id": 6864207690,
      "amenity": "fast_food",
      "cuisine": "sandwich;bakery",
      "takeaway": "yes",
      "distance": 107635.55650269
    },
    {
      "id": 121108,
      "geometry": "POINT (-79.831205 32.934081)",
      "poi_name": "Joey Tomatoes",
      "osm_id": 6743122258,
      "amenity": "fast_food",
      "cuisine": "italian",
      "distance": 116444.15093179
    },
    {
      "id": 126069,
      "geometry": "POINT (-77.827648 34.227374)",
      "poi_name": "Wendy's",
      "osm_id": 6983721756,
      "amenity": "fast_food",
      "cuisine": "burger",
      "takeaway": "yes",
      "distance": 121009.97716705
    },
    {
      "id": 126075,
      "geometry": "POINT (-77.830457 34.227092)",
      "poi_name": "McDonald's",
      "osm_id": 6983793988,
      "amenity": "fast_food",
      "cuisine": "burger",
      "website": "https://www.mcdonalds.com/us/en-us/location/nc/wilmington/1415-commonwealth-ave/11212.html",
      "takeaway": "yes",
      "distance": 120768.11694533
    },
    {
      "id": 126086,
      "geometry": "POINT (-77.894765 34.242342)",
      "poi_name": "Taco Bell",
      "osm_id": 6983895782,
      "amenity": "fast_food",
      "cuisine": "tex-mex",
      "website": "https://locations.tacobell.com/nc/wilmington/4101-market-st.html",
      "takeaway": "yes",
      "distance": 116477.19508805
    },
    {
      "id": 126089,
      "geometry": "POINT (-77.879151 34.245049)",
      "poi_name": "Chick-fil-A",
      "osm_id": 6983952317,
      "amenity": "fast_food",
      "cuisine": "chicken",
      "takeaway": "yes",
      "distance": 117865.61279674
    },
    {
      "id": 126090,
      "geometry": "POINT (-77.795658 34.295915)",
      "poi_name": "McDonald's",
      "osm_id": 6983959472,
      "amenity": "fast_food",
      "cuisine": "burger",
      "website": "https://www.mcdonalds.com/us/en-us/location/nc/wilmington/108-hays-lane/36579.html",
      "takeaway": "yes",
      "distance": 127361.80002929
    },
    {
      "id": 126094,
      "geometry": "POINT (-77.880244 34.244842)",
      "poi_name": "Dunkin'",
      "osm_id": 6983989627,
      "amenity": "fast_food",
      "cuisine": "donut;coffee_shop",
      "takeaway": "yes",
      "distance": 117767.36946704
    },
    {
      "id": 126099,
      "geometry": "POINT (-77.882543 34.243606)",
      "poi_name": "Arby's",
      "osm_id": 6984020691,
      "amenity": "fast_food",
      "cuisine": "sandwich",
      "takeaway": "yes",
      "distance": 117515.23585009
    },
    {
      "id": 126100,
      "geometry": "POINT (-77.888758 34.243559)",
      "poi_name": "Bojangles'",
      "osm_id": 6984020795,
      "amenity": "fast_food",
      "cuisine": "chicken",
      "takeaway": "yes",
      "official_name": "Bojangles' Famous Chicken 'n Biscuits",
      "addr_state": "NC",
      "addr_city": "Wilmington",
      "addr_postcode": "28405",
      "addr_street": "Market Street",
      "addr_housenumber": "4505",
      "distance": 117021.10119957
    },
    {
      "id": 126102,
      "geometry": "POINT (-77.893338 34.242451)",
      "poi_name": "Church's Chicken",
      "osm_id": 6984020847,
      "amenity": "fast_food",
      "cuisine": "chicken",
      "takeaway": "yes",
      "distance": 116596.05117059
    },
    {
      "id": 126108,
      "geometry": "POINT (-77.796535 34.296451)",
      "poi_name": "Tropical Smoothie Cafe",
      "osm_id": 6984050144,
      "amenity": "fast_food",
      "cuisine": "juice",
      "takeaway": "yes",
      "distance": 127323.48927362
    },
    {
      "id": 126109,
      "geometry": "POINT (-77.796484 34.296421)",
      "poi_name": "Papa Murphy's",
      "osm_id": 6984050145,
      "amenity": "fast_food",
      "cuisine": "pizza",
      "takeaway": "only",
      "official_name": "Papa Murphy's Take 'N' Bake Pizza",
      "addr_housenumber": "120",
      "distance": 127325.76581458
    },
    {
      "id": 126110,
      "geometry": "POINT (-77.79643 34.296381)",
      "poi_name": "Dunkin'",
      "osm_id": 6984050146,
      "amenity": "fast_food",
      "cuisine": "donut;coffee_shop",
      "takeaway": "yes",
      "addr_housenumber": "100",
      "distance": 127327.7741587
    },
    {
      "id": 126125,
      "geometry": "POINT (-77.944349 34.22464)",
      "poi_name": "Burger King",
      "osm_id": 6984183808,
      "amenity": "fast_food",
      "cuisine": "burger",
      "takeaway": "yes",
      "distance": 111552.50608718
    },
    {
      "id": 128258,
      "geometry": "POINT (-78.26995 33.922968)",
      "poi_name": "Subway",
      "osm_id": 8143292110,
      "amenity": "fast_food",
      "cuisine": "sandwich",
      "phone": "9108429920",
      "takeaway": "yes",
      "drive_through": "no",
      "addr_state": "NC",
      "addr_city": "Supply",
      "addr_postcode": "28462",
      "addr_street": "Holden Beach Road SW",
      "addr_housenumber": "3386",
      "distance": 69639.86778903
    },
    {
      "id": 126193,
      "geometry": "POINT (-78.983908 34.809986)",
      "poi_name": "Burger King",
      "osm_id": 6988276730,
      "amenity": "fast_food",
      "cuisine": "burger",
      "takeaway": "yes",
      "addr_city": "Saint Pauls",
      "addr_postcode": "28384",
      "addr_street": "West Broad Street",
      "addr_housenumber": "916",
      "distance": 123525.85945973
    },
    {
      "id": 126195,
      "geometry": "POINT (-78.978426 34.803899)",
      "poi_name": "Subway",
      "osm_id": 6988294505,
      "amenity": "fast_food",
      "cuisine": "sandwich",
      "takeaway": "yes",
      "addr_city": "Saint Pauls",
      "addr_postcode": "28384",
      "addr_street": "South Fifth Street",
      "addr_housenumber": "344",
      "distance": 122846.91667466
    },
    {
      "id": 131002,
      "geometry": "POINT (-78.987803 33.684924)",
      "poi_name": "Papa John's",
      "osm_id": 9898608827,
      "amenity": "fast_food",
      "cuisine": "pizza",
      "takeaway": "yes",
      "distance": 1985.34419946
    },
    {
      "id": 128901,
      "geometry": "POINT (-79.708492 32.940282)",
      "poi_name": "MIDDLETON & MAKER VILLAGE BBQ",
      "osm_id": 8195621306,
      "amenity": "fast_food",
      "cuisine": "barbecue",
      "addr_street": "North US 17",
      "addr_housenumber": "5105",
      "distance": 108369.75949082
    },
    {
      "id": 129731,
      "geometry": "POINT (-78.661429 34.489289)",
      "poi_name": "Subway",
      "osm_id": 9837034352,
      "amenity": "fast_food",
      "cuisine": "sandwich",
      "phone": "+19106470140",
      "takeaway": "yes",
      "addr_state": "NC",
      "addr_city": "Clarkton",
      "addr_postcode": "28433",
      "addr_street": "South W R Latham Street",
      "addr_housenumber": "10283",
      "distance": 92480.13078579
    },
    {
      "id": 129732,
      "geometry": "POINT (-78.662115 34.490395)",
      "poi_name": "Burger Shack",
      "osm_id": 9837034353,
      "amenity": "fast_food",
      "cuisine": "burger",
      "phone": "+19106470656",
      "addr_state": "NC",
      "addr_city": "Clarkton",
      "addr_postcode": "28433",
      "addr_street": "West Green Street",
      "addr_housenumber": "410",
      "distance": 92577.24852172
    },
    {
      "id": 130746,
      "geometry": "POINT (-79.797465 32.857917)",
      "poi_name": "Dunkin'",
      "osm_id": 9888727419,
      "amenity": "fast_food",
      "cuisine": "donut;coffee_shop",
      "takeaway": "yes",
      "distance": 120710.07918107
    },
    {
      "id": 129695,
      "geometry": "POINT (-78.48548 34.636229)",
      "poi_name": "Dairy Queen",
      "osm_id": 9836283949,
      "amenity": "fast_food",
      "cuisine": "ice_cream;burger",
      "phone": "+19108624064",
      "takeaway": "yes",
      "addr_state": "NC",
      "addr_city": "White Lake",
      "addr_postcode": "28337",
      "addr_street": "White Lake Drive",
      "addr_housenumber": "1608",
      "distance": 113465.64607332
    },
    {
      "id": 130495,
      "geometry": "POINT (-80.041705 33.000582)",
      "poi_name": "Popeyes",
      "osm_id": 9873900955,
      "amenity": "fast_food",
      "cuisine": "chicken",
      "takeaway": "yes",
      "official_name": "Popeyes Louisiana Kitchen",
      "distance": 126022.46941208
    },
    {
      "id": 132521,
      "geometry": "POINT (-79.366674 34.431942)",
      "poi_name": "Little Caesars",
      "osm_id": 9958036407,
      "amenity": "fast_food",
      "cuisine": "pizza",
      "website": "https://littlecaesars.com/en-us/store/11754/",
      "takeaway": "yes",
      "distance": 89370.09020857
    },
    {
      "id": 131061,
      "geometry": "POINT (-78.98522 33.652985)",
      "poi_name": "Firehouse Subs",
      "osm_id": 9900852276,
      "amenity": "fast_food",
      "cuisine": "sandwich",
      "takeaway": "yes",
      "distance": 4988.38996391
    },
    {
      "id": 132526,
      "geometry": "POINT (-79.372778 34.44132)",
      "poi_name": "Burger King",
      "osm_id": 9958056517,
      "amenity": "fast_food",
      "cuisine": "burger",
      "takeaway": "yes",
      "distance": 90549.0256696
    },
    {
      "id": 132530,
      "geometry": "POINT (-79.37123 34.438011)",
      "poi_name": "Taco Bell",
      "osm_id": 9958056530,
      "amenity": "fast_food",
      "cuisine": "tex-mex",
      "website": "https://locations.tacobell.com/sc/dillon/711-radford-blvd-.html",
      "takeaway": "yes",
      "distance": 90155.90813971
    },
    {
      "id": 132531,
      "geometry": "POINT (-79.370384 34.438208)",
      "poi_name": "Cook Out",
      "osm_id": 9958056531,
      "amenity": "fast_food",
      "cuisine": "american",
      "takeaway": "yes",
      "distance": 90143.92522557
    },
    {
      "id": 132532,
      "geometry": "POINT (-79.369888 34.437201)",
      "poi_name": "Zaxby's",
      "osm_id": 9958056532,
      "amenity": "fast_food",
      "cuisine": "chicken",
      "takeaway": "yes",
      "official_name": "Zaxby's Chicken Fingers & Buffalo Wings",
      "distance": 90023.39189029
    },
    {
      "id": 132533,
      "geometry": "POINT (-79.369713 34.436742)",
      "poi_name": "Wendy's",
      "osm_id": 9958056533,
      "amenity": "fast_food",
      "cuisine": "burger",
      "takeaway": "yes",
      "distance": 89970.36841376
    },
    {
      "id": 132534,
      "geometry": "POINT (-79.365095 34.423522)",
      "poi_name": "Domino's",
      "osm_id": 9958059717,
      "amenity": "fast_food",
      "cuisine": "pizza",
      "takeaway": "yes",
      "distance": 88459.04567315
    },
    {
      "id": 132539,
      "geometry": "POINT (-79.256828 34.199183)",
      "poi_name": "Burger King",
      "osm_id": 9958110302,
      "amenity": "fast_food",
      "cuisine": "burger",
      "takeaway": "yes",
      "distance": 61689.36843604
    },
    {
      "id": 132540,
      "geometry": "POINT (-79.25731 34.199238)",
      "poi_name": "KFC",
      "osm_id": 9958110303,
      "amenity": "fast_food",
      "cuisine": "chicken",
      "website": "https://locations.kfc.com/sc/mullins/253-w-mcintyre-street",
      "takeaway": "yes",
      "distance": 61713.950648
    },
    {
      "id": 132541,
      "geometry": "POINT (-79.258099 34.200068)",
      "poi_name": "Arby's",
      "osm_id": 9958110306,
      "amenity": "fast_food",
      "cuisine": "sandwich",
      "takeaway": "yes",
      "distance": 61828.26907996
    },
    {
      "id": 132542,
      "geometry": "POINT (-79.260451 34.199384)",
      "poi_name": "Subway",
      "osm_id": 9958110311,
      "amenity": "fast_food",
      "cuisine": "sandwich",
      "takeaway": "yes",
      "distance": 61853.44723288
    },
    {
      "id": 132543,
      "geometry": "POINT (-79.406165 33.911941)",
      "poi_name": "Subway",
      "osm_id": 9958144916,
      "amenity": "fast_food",
      "cuisine": "sandwich",
      "takeaway": "yes",
      "distance": 46816.01537866
    },
    {
      "id": 132550,
      "geometry": "POINT (-79.833572 33.664832)",
      "poi_name": "Burger King",
      "osm_id": 9958305802,
      "amenity": "fast_food",
      "cuisine": "burger",
      "takeaway": "yes",
      "distance": 80022.59421246
    },
    {
      "id": 132522,
      "geometry": "POINT (-79.365937 34.430245)",
      "poi_name": "Subway",
      "osm_id": 9958036409,
      "amenity": "fast_food",
      "cuisine": "sandwich",
      "takeaway": "yes",
      "distance": 89170.60297608
    },
    {
      "id": 132640,
      "geometry": "POINT (-78.728347 33.802628)",
      "poi_name": "Zaxby's",
      "osm_id": 9960757272,
      "amenity": "fast_food",
      "cuisine": "chicken",
      "takeaway": "yes",
      "official_name": "Zaxby's Chicken Fingers & Buffalo Wings",
      "distance": 25415.53998172
    },
    {
      "id": 132524,
      "geometry": "POINT (-79.365719 34.423166)",
      "poi_name": "KFC",
      "osm_id": 9958036416,
      "amenity": "fast_food",
      "cuisine": "chicken",
      "website": "https://locations.kfc.com/sc/dillon/808-highway-301-north",
      "takeaway": "yes",
      "distance": 88446.75930073
    },
    {
      "id": 133175,
      "geometry": "POINT (-80.240662 33.703117)",
      "poi_name": "Burger King",
      "osm_id": 9982334757,
      "amenity": "fast_food",
      "cuisine": "burger",
      "takeaway": "yes",
      "distance": 117670.45612164
    },
    {
      "id": 133231,
      "geometry": "POINT (-78.607143 34.626082)",
      "poi_name": "Jersey Mike's Subs",
      "osm_id": 9983281069,
      "amenity": "fast_food",
      "cuisine": "sandwich",
      "phone": "+19102474099",
      "takeaway": "yes",
      "addr_state": "NC",
      "addr_city": "Elizabethtown",
      "addr_postcode": "28337",
      "addr_street": "South Poplar Street",
      "addr_housenumber": "300",
      "distance": 108451.89975925
    },
    {
      "id": 133012,
      "geometry": "POINT (-79.786364 32.788486)",
      "poi_name": "Domino's",
      "osm_id": 9976123067,
      "amenity": "fast_food",
      "cuisine": "pizza",
      "takeaway": "yes",
      "distance": 126130.42106202
    },
    {
      "id": 145171,
      "geometry": "POINT (-78.828038 34.329908)",
      "poi_name": "Subway",
      "osm_id": 7321656843,
      "amenity": "fast_food",
      "cuisine": "sandwich",
      "phone": "(910) 654-6446",
      "takeaway": "yes",
      "addr_state": "NC",
      "addr_city": "Chadbourn",
      "addr_postcode": "28431",
      "addr_street": "North Brown Street",
      "addr_housenumber": "801",
      "distance": 71501.59584216
    },
    {
      "id": 136420,
      "geometry": "POINT (-77.894011 34.141156)",
      "poi_name": "Burger King",
      "osm_id": 11583451256,
      "amenity": "fast_food",
      "cuisine": "burger",
      "takeaway": "yes",
      "addr_street": "Carolina Beach Road",
      "addr_housenumber": "5325",
      "distance": 111172.53016274
    },
    {
      "id": 143453,
      "geometry": "POINT (-79.045101 34.622427)",
      "poi_name": "Subway",
      "osm_id": 6341002504,
      "amenity": "fast_food",
      "cuisine": "sandwich",
      "distance": 102937.98308374
    },
    {
      "id": 133750,
      "geometry": "POINT (-78.486847 33.8993)",
      "poi_name": "Joey O\u2019s Pizzeria",
      "osm_id": 10006736512,
      "amenity": "fast_food",
      "cuisine": "pizza",
      "opening_hours": "Th-Su 11:00-21:00",
      "phone": "(910) 575-3322",
      "addr_state": "NC",
      "addr_city": "Ocean Isle Beach",
      "addr_postcode": "28469",
      "addr_street": "Seaside Road Southwest",
      "addr_housenumber": "1637",
      "distance": 50198.04853488
    },
    {
      "id": 136712,
      "geometry": "POINT (-78.898589 33.680113)",
      "poi_name": "KFC",
      "osm_id": 11599029581,
      "amenity": "fast_food",
      "cuisine": "chicken",
      "opening_hours": "Mo-Th 10:30-22:00; Fr-Sa 10:30-23:00; Su 10:00-22:00",
      "takeaway": "yes",
      "addr_state": "SC",
      "addr_city": "Myrtle Beach",
      "addr_postcode": "29577",
      "addr_street": "South Kings Highway",
      "addr_housenumber": "900",
      "distance": 6992.65908406
    },
    {
      "id": 136731,
      "geometry": "POINT (-79.827994 34.165691)",
      "poi_name": "McDonald's",
      "osm_id": 11599346236,
      "amenity": "fast_food",
      "cuisine": "burger",
      "website": "https://www.mcdonalds.com/us/en-us/location/sc/florence/1389-celebration-blvd/32052.html",
      "internet_access": "wlan",
      "phone": "+1 843-667-9887",
      "takeaway": "yes",
      "drive_through": "yes",
      "addr_state": "SC",
      "addr_city": "Florence County",
      "addr_postcode": "29501",
      "addr_street": "Celebration Boulevard",
      "addr_housenumber": "1389",
      "distance": 94768.89669837
    },
    {
      "id": 136734,
      "geometry": "POINT (-79.655832 34.196749)",
      "poi_name": "McDonald's",
      "osm_id": 11599365940,
      "amenity": "fast_food",
      "cuisine": "burger",
      "website": "https://www.mcdonalds.com/us/en-us/location/sc/florence/4735-e-palmetto-street/37425.html",
      "internet_access": "wlan",
      "phone": "+1 843-673-9601",
      "takeaway": "yes",
      "drive_through": "yes",
      "addr_state": "SC",
      "addr_city": "Florence County",
      "addr_postcode": "29506",
      "addr_street": "East Palmetto Street",
      "addr_housenumber": "4735",
      "distance": 84156.28411974
    },
    {
      "id": 136736,
      "geometry": "POINT (-79.764381 34.164758)",
      "poi_name": "McDonald's",
      "osm_id": 11599373855,
      "amenity": "fast_food",
      "cuisine": "burger",
      "website": "https://www.mcdonalds.com/us/en-us/location/sc/florence/1540-s-irby-st/11799.html",
      "internet_access": "wlan",
      "phone": "+1 843-662-6762",
      "takeaway": "yes",
      "drive_through": "yes",
      "addr_state": "SC",
      "addr_city": "Florence County",
      "addr_postcode": "29505",
      "addr_street": "South Irby Street",
      "addr_housenumber": "1540",
      "distance": 89852.26130467
    },
    {
      "id": 140829,
      "geometry": "POINT (-77.891723 34.177052)",
      "poi_name": "Domino's",
      "osm_id": 6262330254,
      "amenity": "fast_food",
      "cuisine": "pizza",
      "takeaway": "yes",
      "distance": 113163.54276207
    },
    {
      "id": 145175,
      "geometry": "POINT (-78.825963 34.332487)",
      "poi_name": "Burger King",
      "osm_id": 7321677732,
      "amenity": "fast_food",
      "cuisine": "burger",
      "phone": "(910) 654-1757",
      "takeaway": "yes",
      "addr_state": "NC",
      "addr_city": "Chadbourn",
      "addr_postcode": "28431",
      "addr_street": "North Brown Street",
      "addr_housenumber": "1004",
      "distance": 71818.31986655
    },
    {
      "id": 151501,
      "geometry": "POINT (-79.475465 33.095128)",
      "poi_name": "Subway",
      "osm_id": 4102519593,
      "amenity": "fast_food",
      "cuisine": "sandwich",
      "takeaway": "yes",
      "distance": 81528.95862188
    },
    {
      "id": 145304,
      "geometry": "POINT (-77.923276 34.225805)",
      "poi_name": "Checkers",
      "osm_id": 7335698763,
      "amenity": "fast_food",
      "cuisine": "burger",
      "takeaway": "yes",
      "distance": 113280.99037263
    },
    {
      "id": 145305,
      "geometry": "POINT (-77.901614 34.215174)",
      "poi_name": "Hardee's",
      "osm_id": 7335698767,
      "amenity": "fast_food",
      "cuisine": "burger",
      "website": "https://locations.hardees.com/nc/wilmington/1420-floral-pkwy",
      "takeaway": "yes",
      "distance": 114405.50295294
    },
    {
      "id": 156855,
      "geometry": "POINT (-79.983783 33.209074)",
      "poi_name": "Domino's",
      "osm_id": 4675206219,
      "amenity": "fast_food",
      "cuisine": "pizza",
      "takeaway": "yes",
      "distance": 108539.63676304
    },
    {
      "id": 165229,
      "geometry": "POINT (-77.871834 34.220799)",
      "poi_name": "Mooyah",
      "osm_id": 9525095612,
      "amenity": "fast_food",
      "cuisine": "burger",
      "takeaway": "yes",
      "addr_state": "NC",
      "addr_city": "Wilmington",
      "addr_postcode": "28403",
      "distance": 117098.57827362
    },
    {
      "id": 159194,
      "geometry": "POINT (-79.048499 34.623068)",
      "poi_name": "McDonald's",
      "osm_id": 4782122759,
      "amenity": "fast_food",
      "cuisine": "burger",
      "website": "https://www.mcdonalds.com/us/en-us/location/nc/lumberton/2900-w-5th-st/4376.html",
      "takeaway": "yes",
      "distance": 103030.09277594
    },
    {
      "id": 159196,
      "geometry": "POINT (-80.242209 33.704689)",
      "poi_name": "Taco Bell",
      "osm_id": 4782122764,
      "amenity": "fast_food",
      "cuisine": "tex-mex",
      "website": "https://locations.tacobell.com/sc/manning/3014-paxville-highway.html",
      "takeaway": "yes",
      "distance": 117814.00167278
    },
    {
      "id": 161735,
      "geometry": "POINT (-79.702985 34.265812)",
      "poi_name": "McDonald's",
      "osm_id": 4898075890,
      "amenity": "fast_food",
      "cuisine": "burger",
      "website": "https://www.mcdonalds.com/us/en-us/location/sc/florence/2961-williston-rd/26825.html",
      "takeaway": "yes",
      "addr_state": "SC",
      "addr_city": "Florence",
      "addr_postcode": "29506",
      "addr_street": "North Williston Road",
      "addr_housenumber": "2961",
      "distance": 92509.80694323
    },
    {
      "id": 163205,
      "geometry": "POINT (-79.469295 34.760583)",
      "poi_name": "McDonald's",
      "osm_id": 9406492285,
      "amenity": "fast_food",
      "cuisine": "burger",
      "website": "https://www.mcdonalds.com/us/en-us/location/nc/laurinburg/1304-s-main-st/3257.html",
      "takeaway": "yes",
      "distance": 126639.26091989
    },
    {
      "id": 184840,
      "geometry": "POINT (-78.678233 33.830324)",
      "poi_name": "Taco Bell",
      "osm_id": 7816960217,
      "amenity": "fast_food",
      "cuisine": "tex-mex",
      "website": "https://locations.tacobell.com/sc/north-myrtle-beach/201-hwy-17-north.html",
      "takeaway": "yes",
      "distance": 30955.12513682
    },
    {
      "id": 166122,
      "geometry": "POINT (-79.370218 34.437852)",
      "poi_name": "Popeyes",
      "osm_id": 9575315417,
      "amenity": "fast_food",
      "cuisine": "chicken",
      "takeaway": "yes",
      "official_name": "Popeyes Louisiana Kitchen",
      "distance": 90101.64137474
    },
    {
      "id": 167039,
      "geometry": "POINT (-80.064151 33.036164)",
      "poi_name": "Arby's",
      "osm_id": 331110741,
      "amenity": "fast_food",
      "cuisine": "sandwich",
      "takeaway": "yes",
      "addr_state": "SC",
      "addr_city": "Goose Creek",
      "addr_postcode": "29445",
      "addr_street": "St James Ave",
      "distance": 125317.92015661
    },
    {
      "id": 167045,
      "geometry": "POINT (-80.002596 32.968897)",
      "poi_name": "McDonald's",
      "osm_id": 331112127,
      "amenity": "fast_food",
      "cuisine": "burger",
      "website": "https://www.mcdonalds.com/us/en-us/location/sc/goose-creek/1651-red-bank-rd/38378.html",
      "internet_access": "wlan",
      "phone": "+1 843-553-4954",
      "takeaway": "yes",
      "drive_through": "yes",
      "addr_state": "SC",
      "addr_city": "Berkeley County",
      "addr_postcode": "29445",
      "addr_street": "Red Bank Road",
      "addr_housenumber": "1651",
      "distance": 125409.97873567
    },
    {
      "id": 167054,
      "geometry": "POINT (-80.055786 33.024587)",
      "poi_name": "Papa John's",
      "osm_id": 331368803,
      "amenity": "fast_food",
      "cuisine": "pizza",
      "takeaway": "yes",
      "distance": 125450.7272205
    },
    {
      "id": 167055,
      "geometry": "POINT (-80.046337 33.008826)",
      "poi_name": "Domino's",
      "osm_id": 331371416,
      "amenity": "fast_food",
      "cuisine": "pizza",
      "takeaway": "yes",
      "distance": 125803.52688217
    },
    {
      "id": 167082,
      "geometry": "POINT (-79.975399 32.965623)",
      "poi_name": "Subway",
      "osm_id": 332703673,
      "amenity": "fast_food",
      "cuisine": "sandwich",
      "takeaway": "yes",
      "distance": 123721.43840616
    },
    {
      "id": 182023,
      "geometry": "POINT (-79.703105 34.27484)",
      "poi_name": "Taco Bell",
      "osm_id": 10875023430,
      "amenity": "fast_food",
      "cuisine": "tex-mex",
      "takeaway": "yes",
      "distance": 93201.72543931
    },
    {
      "id": 183893,
      "geometry": "POINT (-78.441607 33.903483)",
      "poi_name": "Little Caesars",
      "osm_id": 10949375216,
      "amenity": "fast_food",
      "cuisine": "pizza",
      "website": "https://littlecaesars.com/en-us/store/11407/",
      "takeaway": "yes",
      "distance": 54169.69870316
    },
    {
      "id": 165938,
      "geometry": "POINT (-78.138751 34.285493)",
      "poi_name": "Hardee's",
      "osm_id": 9566643931,
      "amenity": "fast_food",
      "cuisine": "burger",
      "website": "https://locations.hardees.com/nc/northwest/3678-maco-road",
      "takeaway": "yes",
      "addr_state": "NC",
      "addr_city": "Northwest",
      "addr_postcode": "28451",
      "addr_street": "Maco Road Northeast",
      "addr_housenumber": "3678",
      "distance": 100934.43526106
    },
    {
      "id": 165942,
      "geometry": "POINT (-78.138648 34.286752)",
      "poi_name": "Bojangles'",
      "osm_id": 9566762164,
      "amenity": "fast_food",
      "cuisine": "chicken",
      "takeaway": "yes",
      "official_name": "Bojangles' Famous Chicken 'n Biscuits",
      "addr_state": "NC",
      "addr_city": "Northwest",
      "addr_postcode": "28451",
      "addr_street": "Northwest Road Northeast",
      "addr_housenumber": "3707",
      "distance": 101031.73656238
    },
    {
      "id": 165943,
      "geometry": "POINT (-78.14009 34.285463)",
      "poi_name": "Subway",
      "osm_id": 9566779334,
      "amenity": "fast_food",
      "cuisine": "sandwich",
      "takeaway": "yes",
      "addr_state": "NC",
      "addr_city": "Northwest",
      "addr_postcode": "28451",
      "addr_street": "Maco Road Northeast",
      "addr_housenumber": "3675",
      "distance": 100838.01059608
    },
    {
      "id": 166807,
      "geometry": "POINT (-80.063743 33.035733)",
      "poi_name": "McDonald's",
      "osm_id": 313825456,
      "amenity": "fast_food",
      "cuisine": "burger",
      "website": "https://www.mcdonalds.com/us/en-us/location/sc/goose-creek/609-saint-james-ave/26985.html",
      "takeaway": "yes",
      "addr_city": "Goose Creek",
      "addr_postcode": "29445",
      "addr_street": "St James Ave",
      "addr_housenumber": "605",
      "distance": 125315.21127077
    },
    {
      "id": 167122,
      "geometry": "POINT (-80.063481 33.033796)",
      "poi_name": "McDonald's",
      "osm_id": 339430111,
      "amenity": "fast_food",
      "cuisine": "burger",
      "takeaway": "yes",
      "distance": 125422.15014642
    },
    {
      "id": 170330,
      "geometry": "POINT (-78.487315 33.898908)",
      "poi_name": "Hardee's",
      "osm_id": 2332370281,
      "amenity": "fast_food",
      "cuisine": "burger",
      "website": "https://locations.hardees.com/nc/ocean-isle-beach/1651-seaside-road-sw",
      "takeaway": "yes",
      "addr_state": "NC",
      "addr_city": "Ocean Isle Beach",
      "addr_postcode": "28469",
      "addr_street": "Dale Avenue Southwest",
      "addr_housenumber": "1651",
      "distance": 50139.88605537
    },
    {
      "id": 185859,
      "geometry": "POINT (-79.764704 34.171898)",
      "poi_name": "Burger King",
      "osm_id": 7888152106,
      "amenity": "fast_food",
      "cuisine": "burger",
      "takeaway": "yes",
      "distance": 90334.23083996
    },
    {
      "id": 188344,
      "geometry": "POINT (-79.854885 34.278119)",
      "poi_name": "Bojangles'",
      "osm_id": 1143856514,
      "amenity": "fast_food",
      "cuisine": "chicken",
      "takeaway": "yes",
      "official_name": "Bojangles' Famous Chicken 'n Biscuits",
      "addr_state": "SC",
      "addr_city": "Darlington",
      "addr_postcode": "29532",
      "addr_street": "South Main Street",
      "addr_housenumber": "1524",
      "distance": 104048.36355642
    },
    {
      "id": 187977,
      "geometry": "POINT (-80.075646 34.377638)",
      "poi_name": "D&S Sub Shop",
      "osm_id": 1120096516,
      "amenity": "fast_food",
      "distance": 126910.90351188
    },
    {
      "id": 188345,
      "geometry": "POINT (-79.856044 34.282002)",
      "poi_name": "McDonald's",
      "osm_id": 1143856774,
      "amenity": "fast_food",
      "cuisine": "burger",
      "website": "https://www.mcdonalds.com/us/en-us/location/sc/darlington/1501-s-main-st/20391.html",
      "takeaway": "yes",
      "addr_state": "SC",
      "addr_city": "Darlington",
      "addr_postcode": "29532",
      "addr_street": "South Main Street",
      "addr_housenumber": "1501",
      "distance": 104398.33721224
    },
    {
      "id": 188348,
      "geometry": "POINT (-79.860131 34.28335)",
      "poi_name": "Wendy's",
      "osm_id": 1143859164,
      "amenity": "fast_food",
      "cuisine": "burger",
      "wheelchair": "yes",
      "opening_hours": "Mo-Su 11:00-22:00",
      "website": "https://locations.wendys.com/united-states/sc/darlington/989-s-governor-williams-hwy",
      "internet_access": "wlan",
      "phone": "+1 843-395-0042",
      "takeaway": "yes",
      "drive_through": "yes",
      "addr_state": "SC",
      "addr_city": "Darlington",
      "addr_postcode": "29532",
      "addr_street": "South Governor Williams Highway",
      "addr_housenumber": "989",
      "distance": 104786.56930324
    },
    {
      "id": 188351,
      "geometry": "POINT (-79.888857 34.292219)",
      "poi_name": "Burger King",
      "osm_id": 1143985965,
      "amenity": "fast_food",
      "cuisine": "burger",
      "takeaway": "yes",
      "distance": 107477.65196998
    },
    {
      "id": 189513,
      "geometry": "POINT (-80.106947 33.046862)",
      "poi_name": "Hardee's",
      "osm_id": 1235104058,
      "amenity": "fast_food",
      "cuisine": "burger",
      "website": "https://locations.hardees.com/sc/summerville/2187-n-main-st",
      "takeaway": "yes",
      "distance": 127893.49071411
    },
    {
      "id": 188976,
      "geometry": "POINT (-80.038635 33.001628)",
      "poi_name": "Hardee's",
      "osm_id": 1194253606,
      "amenity": "fast_food",
      "cuisine": "burger",
      "website": "https://locations.hardees.com/sc/goose-creek/201-n-goose-creek-blvd",
      "takeaway": "yes",
      "addr_postcode": "29445",
      "addr_street": "N Goose Creek Blvd",
      "addr_housenumber": "201",
      "distance": 125725.15676476
    },
    {
      "id": 188879,
      "geometry": "POINT (-79.984999 32.902858)",
      "poi_name": "Subway / Aunt M's",
      "osm_id": 1191274625,
      "amenity": "fast_food",
      "distance": 129066.34496661
    },
    {
      "id": 189704,
      "geometry": "POINT (-79.923724 32.894785)",
      "poi_name": "Bojangles'",
      "osm_id": 1244573192,
      "amenity": "fast_food",
      "cuisine": "chicken",
      "takeaway": "yes",
      "official_name": "Bojangles' Famous Chicken 'n Biscuits",
      "distance": 125588.20685506
    },
    {
      "id": 189663,
      "geometry": "POINT (-80.087827 33.017502)",
      "poi_name": "Wendy's",
      "osm_id": 1242434086,
      "amenity": "fast_food",
      "cuisine": "burger",
      "takeaway": "yes",
      "drive_through": "yes",
      "distance": 128324.90704706
    },
    {
      "id": 190635,
      "geometry": "POINT (-80.062113 34.358196)",
      "poi_name": "Quiznos",
      "osm_id": 1309271026,
      "amenity": "fast_food",
      "cuisine": "sandwich",
      "phone": "+18439174689",
      "takeaway": "yes",
      "addr_street": "Retail Row",
      "addr_housenumber": "1215",
      "distance": 124636.04365764
    },
    {
      "id": 191817,
      "geometry": "POINT (-79.143256 33.430527)",
      "poi_name": "Ocean Dragon",
      "osm_id": 1397168510,
      "amenity": "fast_food",
      "cuisine": "chinese",
      "distance": 33534.19778941
    },
    {
      "id": 190729,
      "geometry": "POINT (-80.069613 34.367132)",
      "poi_name": "Cook Out",
      "osm_id": 1313563221,
      "amenity": "fast_food",
      "cuisine": "american",
      "phone": "+18433830161",
      "takeaway": "yes",
      "addr_housenumber": "626",
      "distance": 125775.92134481
    },
    {
      "id": 190665,
      "geometry": "POINT (-79.756312 34.197776)",
      "poi_name": "Moe's Southwest Grill",
      "osm_id": 1311008957,
      "amenity": "fast_food",
      "cuisine": "mexican",
      "takeaway": "yes",
      "distance": 91413.70862053
    },
    {
      "id": 192230,
      "geometry": "POINT (-80.040618 33.001126)",
      "poi_name": "Philly Cheesesteak",
      "osm_id": 1428214542,
      "amenity": "fast_food",
      "cuisine": "sandwich",
      "distance": 125905.30943813
    },
    {
      "id": 195644,
      "geometry": "POINT (-78.454004 33.900275)",
      "poi_name": "Beaches Burgers",
      "osm_id": 10313875458,
      "amenity": "fast_food",
      "phone": "+19105757777",
      "addr_state": "NC",
      "addr_city": "Ocean Isle Beach",
      "addr_postcode": "28469",
      "addr_street": "Beach Drive Southwest",
      "addr_housenumber": "6551",
      "distance": 52980.11038387
    },
    {
      "id": 193099,
      "geometry": "POINT (-80.046314 33.008549)",
      "poi_name": "Jersey Mike's Subs",
      "osm_id": 1496494491,
      "amenity": "fast_food",
      "cuisine": "sandwich",
      "takeaway": "yes",
      "distance": 125820.61148417
    },
    {
      "id": 194943,
      "geometry": "POINT (-79.299908 33.380161)",
      "poi_name": "KFC",
      "osm_id": 10290218885,
      "amenity": "fast_food",
      "cuisine": "chicken",
      "website": "https://locations.kfc.com/sc/georgetown/2130-highmarket-st",
      "takeaway": "yes",
      "distance": 46492.61674303
    },
    {
      "id": 194948,
      "geometry": "POINT (-79.290973 33.388658)",
      "poi_name": "Subway",
      "osm_id": 10290240411,
      "amenity": "fast_food",
      "cuisine": "sandwich",
      "takeaway": "yes",
      "distance": 45235.87606979
    },
    {
      "id": 194950,
      "geometry": "POINT (-79.288802 33.394884)",
      "poi_name": "Wendy's",
      "osm_id": 10290287449,
      "amenity": "fast_food",
      "cuisine": "burger",
      "takeaway": "yes",
      "distance": 44582.8482545
    },
    {
      "id": 194951,
      "geometry": "POINT (-79.290531 33.387894)",
      "poi_name": "Domino's",
      "osm_id": 10290287463,
      "amenity": "fast_food",
      "cuisine": "pizza",
      "takeaway": "yes",
      "distance": 45273.09188096
    },
    {
      "id": 194955,
      "geometry": "POINT (-79.552891 33.448594)",
      "poi_name": "McDonald's",
      "osm_id": 10290547236,
      "amenity": "fast_food",
      "cuisine": "burger",
      "website": "https://www.mcdonalds.com/us/en-us/location/sc/andrews/411-us-highway-521/19190.html",
      "takeaway": "yes",
      "distance": 60582.64287124
    },
    {
      "id": 194956,
      "geometry": "POINT (-79.553614 33.449206)",
      "poi_name": "Subway",
      "osm_id": 10290547237,
      "amenity": "fast_food",
      "cuisine": "sandwich",
      "takeaway": "yes",
      "distance": 60611.60510514
    },
    {
      "id": 194957,
      "geometry": "POINT (-79.554423 33.449007)",
      "poi_name": "Burger King",
      "osm_id": 10290547238,
      "amenity": "fast_food",
      "cuisine": "burger",
      "takeaway": "yes",
      "distance": 60688.56844422
    },
    {
      "id": 195114,
      "geometry": "POINT (-79.050448 34.621344)",
      "poi_name": "Hardee's",
      "osm_id": 10294709202,
      "amenity": "fast_food",
      "cuisine": "burger",
      "website": "https://locations.hardees.com/nc/lumberton/3007-w-5th-st",
      "phone": "(910) 738-1080",
      "takeaway": "yes",
      "addr_state": "NC",
      "addr_city": "Lumberton",
      "addr_postcode": "28358",
      "addr_street": "West 5th Street",
      "addr_housenumber": "3007",
      "distance": 102851.93889999
    },
    {
      "id": 195603,
      "geometry": "POINT (-78.448706 33.900736)",
      "poi_name": "The Dawg House Grill OIB",
      "osm_id": 10313306248,
      "amenity": "fast_food",
      "phone": "+19105798834",
      "addr_state": "NC",
      "addr_city": "Ocean Isle Beach",
      "addr_postcode": "28469",
      "addr_street": "Beach Drive Southwest",
      "addr_housenumber": "6415",
      "distance": 53445.78478471
    },
    {
      "id": 211137,
      "geometry": "POINT (-78.98284 33.650226)",
      "poi_name": "Panera Bread",
      "osm_id": 5141981111,
      "amenity": "fast_food",
      "cuisine": "sandwich;bakery",
      "takeaway": "yes",
      "distance": 5235.79064912
    },
    {
      "id": 202268,
      "geometry": "POINT (-79.20582 33.999372)",
      "poi_name": "McDonald's",
      "osm_id": 7015994301,
      "amenity": "fast_food",
      "cuisine": "burger",
      "website": "https://www.mcdonalds.com/us/en-us/location/sc/aynor/2595-hwy-501/33985.html",
      "takeaway": "yes",
      "drive_through": "yes",
      "distance": 39993.61263798
    },
    {
      "id": 206200,
      "geometry": "POINT (-79.168788 34.808344)",
      "poi_name": "KFC",
      "osm_id": 7200959362,
      "amenity": "fast_food",
      "cuisine": "chicken",
      "website": "https://locations.kfc.com/nc/red-springs/911-east-4th-street",
      "phone": "(910) 843-5957",
      "takeaway": "yes",
      "addr_state": "NC",
      "addr_city": "Red Springs",
      "addr_postcode": "28377",
      "addr_street": "East 4th Avenue",
      "addr_housenumber": "911",
      "distance": 124670.78065736
    },
    {
      "id": 206201,
      "geometry": "POINT (-79.179618 34.813967)",
      "poi_name": "Subway",
      "osm_id": 7201002363,
      "amenity": "fast_food",
      "cuisine": "sandwich",
      "phone": "(910) 843-8494",
      "takeaway": "yes",
      "addr_state": "NC",
      "addr_city": "Red Springs",
      "addr_postcode": "28377",
      "addr_street": "East 4th Avenue",
      "addr_housenumber": "221",
      "distance": 125436.45246424
    },
    {
      "id": 206535,
      "geometry": "POINT (-79.111713 34.503847)",
      "poi_name": "McDonald's",
      "osm_id": 7213753184,
      "amenity": "fast_food",
      "cuisine": "burger",
      "website": "https://www.mcdonalds.com/us/en-us/location/nc/fairmont/500-north-walnut-street/18901.html",
      "takeaway": "yes",
      "addr_state": "NC",
      "addr_city": "Fairmont",
      "addr_postcode": "28340",
      "addr_street": "North Walnut Street",
      "addr_housenumber": "500",
      "distance": 90489.85843255
    },
    {
      "id": 206536,
      "geometry": "POINT (-79.112598 34.503851)",
      "poi_name": "Fairmont Pizza Restaurant",
      "osm_id": 7213755885,
      "amenity": "fast_food",
      "cuisine": "pizza",
      "addr_state": "NC",
      "addr_city": "Fairmont",
      "addr_postcode": "28340",
      "addr_street": "North Walnut Street",
      "addr_housenumber": "501",
      "distance": 90502.06087885
    },
    {
      "id": 208373,
      "geometry": "POINT (-78.96262 33.753622)",
      "poi_name": "Taco Bell",
      "osm_id": 4988488021,
      "amenity": "fast_food",
      "cuisine": "tex-mex",
      "website": "https://locations.tacobell.com/sc/myrtle-beach/1050-glenforest-rd.html",
      "takeaway": "yes",
      "distance": 6393.01095771
    },
    {
      "id": 209751,
      "geometry": "POINT (-78.502804 33.945736)",
      "poi_name": "McDonald's",
      "osm_id": 5057348857,
      "amenity": "fast_food",
      "cuisine": "burger",
      "website": "https://www.mcdonalds.com/us/en-us/location/nc/sunset-beach/7105-ocean-hwy-sw/16312.html",
      "takeaway": "yes",
      "distance": 51446.03872876
    },
    {
      "id": 195886,
      "geometry": "POINT (-79.8492 34.16605)",
      "poi_name": "Domino's",
      "osm_id": 10552220573,
      "amenity": "fast_food",
      "cuisine": "pizza",
      "takeaway": "yes",
      "distance": 96434.79742501
    },
    {
      "id": 195887,
      "geometry": "POINT (-79.044565 34.623724)",
      "poi_name": "Domino's",
      "osm_id": 10552477169,
      "amenity": "fast_food",
      "cuisine": "pizza",
      "takeaway": "yes",
      "distance": 103078.33338721
    },
    {
      "id": 195888,
      "geometry": "POINT (-78.999901 34.638974)",
      "poi_name": "Taco Bell",
      "osm_id": 10552507425,
      "amenity": "fast_food",
      "cuisine": "tex-mex",
      "website": "https://locations.tacobell.com/nc/lumberton/2100-n-roberts-ave.html",
      "takeaway": "yes",
      "distance": 104582.14832847
    },
    {
      "id": 195889,
      "geometry": "POINT (-78.999289 34.638556)",
      "poi_name": "KFC",
      "osm_id": 10552507426,
      "amenity": "fast_food",
      "cuisine": "chicken",
      "website": "https://locations.kfc.com/nc/lumberton/2000-roberts-avenue",
      "takeaway": "yes",
      "distance": 104534.44512176
    },
    {
      "id": 195890,
      "geometry": "POINT (-79.000888 34.638512)",
      "poi_name": "Captain D's",
      "osm_id": 10552507427,
      "amenity": "fast_food",
      "cuisine": "seafood",
      "takeaway": "yes",
      "official_name": "Captain D's Seafood Kitchen",
      "distance": 104533.24845962
    },
    {
      "id": 195891,
      "geometry": "POINT (-79.000449 34.638157)",
      "poi_name": "Dunkin'",
      "osm_id": 10552507428,
      "amenity": "fast_food",
      "cuisine": "donut;coffee_shop",
      "takeaway": "yes",
      "distance": 104492.89051061
    },
    {
      "id": 195892,
      "geometry": "POINT (-79.005267 34.63963)",
      "poi_name": "Sonic",
      "osm_id": 10552507430,
      "amenity": "fast_food",
      "cuisine": "burger",
      "takeaway": "yes",
      "distance": 104668.44387333
    },
    {
      "id": 195893,
      "geometry": "POINT (-79.0058 34.639818)",
      "poi_name": "Bojangles'",
      "osm_id": 10552507431,
      "amenity": "fast_food",
      "cuisine": "chicken",
      "takeaway": "yes",
      "official_name": "Bojangles' Famous Chicken 'n Biscuits",
      "distance": 104690.8319126
    },
    {
      "id": 195894,
      "geometry": "POINT (-79.00757 34.639624)",
      "poi_name": "Jersey Mike's Subs",
      "osm_id": 10552507433,
      "amenity": "fast_food",
      "cuisine": "sandwich",
      "takeaway": "yes",
      "distance": 104674.36741081
    },
    {
      "id": 195895,
      "geometry": "POINT (-78.999626 34.641144)",
      "poi_name": "Popeyes",
      "osm_id": 10552507434,
      "amenity": "fast_food",
      "cuisine": "chicken",
      "takeaway": "yes",
      "official_name": "Popeyes Louisiana Kitchen",
      "distance": 104822.19965834
    },
    {
      "id": 203749,
      "geometry": "POINT (-77.829359 34.233928)",
      "poi_name": "Panera Bread",
      "osm_id": 7099205679,
      "amenity": "fast_food",
      "cuisine": "sandwich;bakery",
      "shop": "bakery",
      "takeaway": "yes",
      "distance": 121224.19643095
    },
    {
      "id": 203750,
      "geometry": "POINT (-77.82832 34.242621)",
      "poi_name": "Chipotle",
      "osm_id": 7099205689,
      "amenity": "fast_food",
      "cuisine": "mexican",
      "takeaway": "yes",
      "official_name": "Chipotle Mexican Grill",
      "addr_street": "International Drive",
      "addr_housenumber": "941",
      "distance": 121779.87485346
    },
    {
      "id": 203751,
      "geometry": "POINT (-77.81787 34.272745)",
      "poi_name": "Subway",
      "osm_id": 7099206736,
      "amenity": "fast_food",
      "cuisine": "sandwich",
      "takeaway": "yes",
      "addr_state": "NC",
      "addr_city": "Wilmington",
      "addr_postcode": "28411",
      "addr_street": "Market Street",
      "addr_housenumber": "7208",
      "distance": 124287.24562144
    },
    {
      "id": 203753,
      "geometry": "POINT (-77.817798 34.272833)",
      "poi_name": "Domino's",
      "osm_id": 7099208664,
      "amenity": "fast_food",
      "cuisine": "pizza",
      "takeaway": "yes",
      "addr_state": "NC",
      "addr_city": "Wilmington",
      "addr_postcode": "28411",
      "addr_street": "Market Street",
      "addr_housenumber": "7208",
      "distance": 124297.94234525
    },
    {
      "id": 203828,
      "geometry": "POINT (-77.872278 34.287605)",
      "poi_name": "Subway",
      "osm_id": 7100410918,
      "amenity": "fast_food",
      "cuisine": "sandwich",
      "takeaway": "yes",
      "distance": 120882.402128
    },
    {
      "id": 203830,
      "geometry": "POINT (-77.829122 34.237466)",
      "poi_name": "Chick-fil-A",
      "osm_id": 7100422737,
      "amenity": "fast_food",
      "cuisine": "chicken",
      "takeaway": "yes",
      "distance": 121434.76884402
    },
    {
      "id": 203831,
      "geometry": "POINT (-77.827344 34.235373)",
      "poi_name": "Chopt",
      "osm_id": 7100429482,
      "amenity": "fast_food",
      "cuisine": "salad",
      "takeaway": "yes",
      "distance": 121464.34844885
    },
    {
      "id": 206204,
      "geometry": "POINT (-79.174297 34.810634)",
      "poi_name": "Hardee's",
      "osm_id": 7201054575,
      "amenity": "fast_food",
      "cuisine": "burger",
      "website": "https://locations.hardees.com/nc/red-springs/610-e-4th-ave",
      "phone": "(910) 843-3745",
      "takeaway": "yes",
      "addr_state": "NC",
      "addr_city": "Red Springs",
      "addr_postcode": "28377",
      "addr_street": "East 4th Avenue",
      "addr_housenumber": "610",
      "distance": 124996.93617055
    },
    {
      "id": 206475,
      "geometry": "POINT (-78.707245 34.328993)",
      "poi_name": "Pigford's",
      "osm_id": 7212117319,
      "amenity": "fast_food",
      "addr_state": "NC",
      "addr_city": "Whiteville",
      "addr_postcode": "28472",
      "addr_street": "Jk Powell Boulevard",
      "addr_housenumber": "103",
      "distance": 74285.1314179
    },
    {
      "id": 206479,
      "geometry": "POINT (-78.712452 34.308437)",
      "poi_name": "McDonald's",
      "osm_id": 7212117338,
      "amenity": "fast_food",
      "cuisine": "burger",
      "website": "https://www.mcdonalds.com/us/en-us/location/nc/whiteville/1408-s-madison-st/3147.html",
      "takeaway": "yes",
      "addr_state": "NC",
      "addr_city": "Whiteville",
      "addr_postcode": "28472",
      "addr_street": "South Madison Street",
      "addr_housenumber": "1408",
      "distance": 71975.01512876
    },
    {
      "id": 206480,
      "geometry": "POINT (-78.713574 34.307038)",
      "poi_name": "Donut Shop",
      "osm_id": 7212117342,
      "amenity": "fast_food",
      "cuisine": "donut",
      "addr_state": "NC",
      "addr_city": "Whiteville",
      "addr_postcode": "28472",
      "addr_street": "South Madison Street",
      "addr_housenumber": "1602",
      "distance": 71794.20917468
    },
    {
      "id": 206482,
      "geometry": "POINT (-78.721973 34.300853)",
      "poi_name": "Burger King",
      "osm_id": 7212117354,
      "amenity": "fast_food",
      "cuisine": "burger",
      "takeaway": "yes",
      "addr_state": "NC",
      "addr_city": "Whiteville",
      "addr_postcode": "28472",
      "addr_street": "Columbus Corners Drive",
      "addr_housenumber": "101",
      "distance": 70891.65356264
    },
    {
      "id": 206483,
      "geometry": "POINT (-78.723008 34.300756)",
      "poi_name": "Hwy 55 Burgers Shakes & Fries",
      "osm_id": 7212117355,
      "amenity": "fast_food",
      "addr_state": "NC",
      "addr_city": "Whiteville",
      "addr_postcode": "28472",
      "addr_street": "Columbus Corners Drive",
      "addr_housenumber": "104",
      "distance": 70850.47677567
    },
    {
      "id": 206485,
      "geometry": "POINT (-78.704375 34.31949)",
      "poi_name": "Whataburger",
      "osm_id": 7212117364,
      "amenity": "fast_food",
      "cuisine": "burger",
      "takeaway": "yes",
      "addr_state": "NC",
      "addr_city": "Whiteville",
      "addr_postcode": "28472",
      "addr_street": "South Madison Street",
      "addr_housenumber": "917",
      "distance": 73379.46537673
    },
    {
      "id": 209323,
      "geometry": "POINT (-78.855791 33.759876)",
      "poi_name": "Marco's Pizza",
      "osm_id": 5032248246,
      "amenity": "fast_food",
      "cuisine": "pizza",
      "takeaway": "yes",
      "distance": 12819.29057346
    },
    {
      "id": 211239,
      "geometry": "POINT (-79.131508 33.43709)",
      "poi_name": "Dunkin'",
      "osm_id": 5148415738,
      "amenity": "fast_food",
      "cuisine": "donut;coffee_shop",
      "takeaway": "yes",
      "addr_state": "SC",
      "addr_city": "Pawleys Island",
      "addr_postcode": "29585",
      "addr_street": "Ocean Highway",
      "addr_housenumber": "10225",
      "distance": 32380.50686843
    },
    {
      "id": 211240,
      "geometry": "POINT (-79.13213 33.436834)",
      "poi_name": "Jimmy John's",
      "osm_id": 5148415739,
      "amenity": "fast_food",
      "cuisine": "sandwich",
      "takeaway": "yes",
      "official_name": "Jimmy John's Gourmet Sandwiches",
      "distance": 32432.28701131
    },
    {
      "id": 211241,
      "geometry": "POINT (-79.121275 33.448324)",
      "poi_name": "Sonic",
      "osm_id": 5148415751,
      "amenity": "fast_food",
      "cuisine": "burger",
      "takeaway": "yes",
      "distance": 30838.13283243
    },
    {
      "id": 211242,
      "geometry": "POINT (-79.104584 33.471153)",
      "poi_name": "Subway",
      "osm_id": 5148415757,
      "amenity": "fast_food",
      "cuisine": "sandwich",
      "takeaway": "yes",
      "distance": 27879.69955465
    },
    {
      "id": 211243,
      "geometry": "POINT (-79.104539 33.47098)",
      "poi_name": "Domino's",
      "osm_id": 5148415758,
      "amenity": "fast_food",
      "cuisine": "pizza",
      "takeaway": "yes",
      "distance": 27895.05013574
    },
    {
      "id": 211245,
      "geometry": "POINT (-78.92797 33.701206)",
      "poi_name": "Burger King",
      "osm_id": 5148415781,
      "amenity": "fast_food",
      "cuisine": "burger",
      "takeaway": "yes",
      "distance": 4063.17669761
    },
    {
      "id": 211138,
      "geometry": "POINT (-78.983076 33.650349)",
      "poi_name": "MOD Pizza",
      "osm_id": 5141981112,
      "amenity": "fast_food",
      "cuisine": "pizza",
      "takeaway": "yes",
      "distance": 5226.83546999
    },
    {
      "id": 211684,
      "geometry": "POINT (-78.959552 33.747756)",
      "poi_name": "Krispy Kreme",
      "osm_id": 5167902616,
      "amenity": "fast_food",
      "cuisine": "donut",
      "takeaway": "yes",
      "distance": 5795.55866527
    },
    {
      "id": 216958,
      "geometry": "POINT (-79.345184 34.183087)",
      "poi_name": "Subway",
      "osm_id": 9196152676,
      "amenity": "fast_food",
      "cuisine": "sandwich",
      "takeaway": "yes",
      "distance": 64090.1042609
    },
    {
      "id": 211713,
      "geometry": "POINT (-78.679898 33.827672)",
      "poi_name": "BurgerFi",
      "osm_id": 5169323102,
      "amenity": "fast_food",
      "cuisine": "burger",
      "phone": "(843) 491-6492",
      "takeaway": "yes",
      "addr_city": "North Myrtle Beach",
      "addr_postcode": "29582",
      "addr_street": "Main Street",
      "addr_housenumber": "801",
      "distance": 30679.66856427
    },
    {
      "id": 216718,
      "geometry": "POINT (-77.873642 34.242165)",
      "poi_name": "Checkers",
      "osm_id": 9180837238,
      "amenity": "fast_food",
      "cuisine": "burger",
      "takeaway": "yes",
      "distance": 118139.13539275
    },
    {
      "id": 216719,
      "geometry": "POINT (-77.873505 34.242097)",
      "poi_name": "Auntie Anne's",
      "osm_id": 9180837239,
      "amenity": "fast_food",
      "cuisine": "pretzel",
      "takeaway": "yes",
      "distance": 118146.19712594
    },
    {
      "id": 225436,
      "geometry": "POINT (-78.89071 33.686142)",
      "poi_name": "Krispy Kreme",
      "osm_id": 11126452643,
      "amenity": "fast_food",
      "cuisine": "donut",
      "takeaway": "yes",
      "distance": 7570.79292803
    },
    {
      "id": 217276,
      "geometry": "POINT (-80.066663 32.976009)",
      "poi_name": "Dunkin'",
      "osm_id": 9215104705,
      "amenity": "fast_food",
      "cuisine": "donut;coffee_shop",
      "takeaway": "yes",
      "distance": 129541.29698383
    },
    {
      "id": 217277,
      "geometry": "POINT (-80.066305 32.975882)",
      "poi_name": "Wendy's",
      "osm_id": 9215104706,
      "amenity": "fast_food",
      "cuisine": "burger",
      "takeaway": "yes",
      "distance": 129523.82775032
    },
    {
      "id": 219635,
      "geometry": "POINT (-78.859548 34.155653)",
      "poi_name": "Subway",
      "osm_id": 9339210030,
      "amenity": "fast_food",
      "cuisine": "sandwich",
      "takeaway": "yes",
      "distance": 51974.54599442
    },
    {
      "id": 222791,
      "geometry": "POINT (-78.861607 33.71164)",
      "poi_name": "Wendy's",
      "osm_id": 11035866883,
      "amenity": "fast_food",
      "cuisine": "burger",
      "opening_hours": "Mo-Sa 09:00-22:00; Su 11:00-22:00",
      "website": "https://locations.wendys.com/united-states/sc/myrtle-beach/3201-n-kings-hwy",
      "phone": "+1-843-448-4634",
      "takeaway": "yes",
      "addr_street": "North Kings Highway",
      "addr_housenumber": "3201",
      "distance": 10319.1013202
    },
    {
      "id": 217420,
      "geometry": "POINT (-79.316655 33.327654)",
      "poi_name": "Subway",
      "osm_id": 9220188737,
      "amenity": "fast_food",
      "cuisine": "sandwich",
      "takeaway": "yes",
      "addr_state": "SC",
      "addr_city": "Georgetown",
      "addr_postcode": "29440",
      "addr_street": "South Fraser Street",
      "addr_housenumber": "3462",
      "distance": 51981.00987387
    },
    {
      "id": 224922,
      "geometry": "POINT (-79.975374 32.965686)",
      "poi_name": "Panda Express",
      "osm_id": 11103545629,
      "amenity": "fast_food",
      "cuisine": "chinese",
      "takeaway": "yes",
      "distance": 123715.13491252
    },
    {
      "id": 231768,
      "geometry": "POINT (-79.048244 33.614972)",
      "poi_name": "Subway",
      "osm_id": 4486189595,
      "amenity": "fast_food",
      "cuisine": "sandwich",
      "takeaway": "yes",
      "addr_state": "SC",
      "addr_city": "Murrells Inlet",
      "addr_postcode": "29576",
      "addr_street": "SC 707",
      "addr_housenumber": "10799",
      "distance": 11508.8023092
    },
    {
      "id": 228457,
      "geometry": "POINT (-78.029993 33.942699)",
      "poi_name": "Tropical Smoothie Cafe",
      "osm_id": 4344212811,
      "amenity": "fast_food",
      "cuisine": "juice",
      "takeaway": "yes",
      "distance": 91336.57206583
    },
    {
      "id": 231416,
      "geometry": "POINT (-78.880695 33.695609)",
      "poi_name": "Mr. Sub",
      "osm_id": 4468143298,
      "amenity": "fast_food",
      "cuisine": "sandwich",
      "takeaway": "yes",
      "distance": 8412.55637329
    },
    {
      "id": 231420,
      "geometry": "POINT (-78.873999 33.70006)",
      "poi_name": "Cook Out",
      "osm_id": 4468143315,
      "amenity": "fast_food",
      "cuisine": "american",
      "takeaway": "yes",
      "delivery": "no",
      "distance": 9041.40730341
    },
    {
      "id": 231421,
      "geometry": "POINT (-78.873592 33.700385)",
      "poi_name": "Krispy Kreme",
      "osm_id": 4468143316,
      "amenity": "fast_food",
      "cuisine": "donut",
      "takeaway": "yes",
      "distance": 9080.69730788
    },
    {
      "id": 231425,
      "geometry": "POINT (-78.870706 33.702861)",
      "poi_name": "McDonald's",
      "osm_id": 4468143322,
      "amenity": "fast_food",
      "cuisine": "burger",
      "website": "https://www.mcdonalds.com/us/en-us/location/sc/myrtle-beach/2200-n-kings-hwy/2417.html",
      "takeaway": "yes",
      "distance": 9364.69151719
    },
    {
      "id": 231426,
      "geometry": "POINT (-78.869478 33.70397)",
      "poi_name": "Arby's",
      "osm_id": 4468143323,
      "amenity": "fast_food",
      "cuisine": "sandwich",
      "takeaway": "yes",
      "addr_state": "SC",
      "distance": 9488.14982064
    },
    {
      "id": 231772,
      "geometry": "POINT (-78.986884 33.644256)",
      "poi_name": "Chipotle",
      "osm_id": 4486210310,
      "amenity": "fast_food",
      "cuisine": "mexican",
      "takeaway": "yes",
      "official_name": "Chipotle Mexican Grill",
      "distance": 5964.60309817
    },
    {
      "id": 234821,
      "geometry": "POINT (-78.993251 33.602333)",
      "poi_name": "Firehouse Subs",
      "osm_id": 5737762479,
      "amenity": "fast_food",
      "cuisine": "sandwich",
      "takeaway": "yes",
      "distance": 10634.22439104
    },
    {
      "id": 233062,
      "geometry": "POINT (-79.999032 33.186913)",
      "poi_name": "Little Caesars",
      "osm_id": 4555761325,
      "amenity": "fast_food",
      "cuisine": "pizza",
      "website": "https://littlecaesars.com/en-us/store/8387/",
      "takeaway": "yes",
      "distance": 111012.61768761
    },
    {
      "id": 233065,
      "geometry": "POINT (-79.995414 33.193084)",
      "poi_name": "Captain D's",
      "osm_id": 4555783827,
      "amenity": "fast_food",
      "cuisine": "seafood",
      "takeaway": "yes",
      "official_name": "Captain D's Seafood Kitchen",
      "distance": 110372.52578114
    },
    {
      "id": 233081,
      "geometry": "POINT (-79.985492 33.2103)",
      "poi_name": "Subway",
      "osm_id": 4555885785,
      "amenity": "fast_food",
      "cuisine": "sandwich",
      "takeaway": "yes",
      "distance": 108609.25524891
    },
    {
      "id": 233089,
      "geometry": "POINT (-79.693761 33.285745)",
      "poi_name": "Subway",
      "osm_id": 4556087212,
      "amenity": "fast_food",
      "cuisine": "sandwich",
      "takeaway": "yes",
      "distance": 81124.59565089
    },
    {
      "id": 233090,
      "geometry": "POINT (-80.057608 33.157601)",
      "poi_name": "Subway",
      "osm_id": 4556099844,
      "amenity": "fast_food",
      "cuisine": "sandwich",
      "takeaway": "yes",
      "distance": 117370.11554768
    },
    {
      "id": 234861,
      "geometry": "POINT (-78.79165 33.778807)",
      "poi_name": "Dunkin'",
      "osm_id": 5739828758,
      "amenity": "fast_food",
      "cuisine": "donut;coffee_shop",
      "phone": "+1-843-497-7150",
      "takeaway": "yes",
      "addr_state": "SC",
      "addr_city": "Myrtle Beach",
      "addr_postcode": "29572",
      "addr_street": "North Kings Highway",
      "addr_housenumber": "9700",
      "distance": 18999.29977461
    },
    {
      "id": 234977,
      "geometry": "POINT (-79.02079 33.777301)",
      "poi_name": "Dunkin'",
      "osm_id": 5742155604,
      "amenity": "fast_food",
      "cuisine": "donut;coffee_shop",
      "takeaway": "yes",
      "addr_state": "SC",
      "addr_city": "Conway",
      "addr_postcode": "29526",
      "addr_street": "SC 544",
      "addr_housenumber": "1477",
      "distance": 10066.51508647
    },
    {
      "id": 234864,
      "geometry": "POINT (-78.785922 33.782918)",
      "poi_name": "Domino's",
      "osm_id": 5739828762,
      "amenity": "fast_food",
      "cuisine": "pizza",
      "takeaway": "yes",
      "distance": 19684.11915126
    },
    {
      "id": 235105,
      "geometry": "POINT (-79.028931 33.582849)",
      "poi_name": "Tropical Smoothie Cafe",
      "osm_id": 5745809088,
      "amenity": "fast_food",
      "cuisine": "juice",
      "takeaway": "yes",
      "distance": 13683.59374818
    },
    {
      "id": 236109,
      "geometry": "POINT (-79.014299 33.797093)",
      "poi_name": "Einstein Bros. Bagels",
      "osm_id": 5780287112,
      "amenity": "fast_food",
      "cuisine": "bagel",
      "takeaway": "yes",
      "distance": 11848.22831218
    },
    {
      "id": 245060,
      "geometry": "POINT (-79.802261 34.232785)",
      "poi_name": "Subway",
      "osm_id": 7762448831,
      "amenity": "fast_food",
      "cuisine": "sandwich",
      "takeaway": "yes",
      "distance": 97136.10886931
    },
    {
      "id": 242876,
      "geometry": "POINT (-77.899384 34.108604)",
      "poi_name": "Hwy 55 Burgers Shakes & Fries",
      "osm_id": 7605576119,
      "amenity": "fast_food",
      "distance": 109183.99838412
    },
    {
      "id": 242886,
      "geometry": "POINT (-77.867587 34.238608)",
      "poi_name": "Might as Well Bar and Grill",
      "osm_id": 7605980601,
      "amenity": "fast_food",
      "cuisine": "burger",
      "distance": 118421.00940009
    },
    {
      "id": 242888,
      "geometry": "POINT (-77.874931 34.234568)",
      "poi_name": "Wendy's",
      "osm_id": 7605980619,
      "amenity": "fast_food",
      "cuisine": "burger",
      "takeaway": "yes",
      "distance": 117610.82396211
    },
    {
      "id": 242891,
      "geometry": "POINT (-77.874357 34.232985)",
      "poi_name": "Jimmy John's",
      "osm_id": 7605980672,
      "amenity": "fast_food",
      "cuisine": "sandwich",
      "takeaway": "yes",
      "official_name": "Jimmy John's Gourmet Sandwiches",
      "distance": 117568.34977215
    },
    {
      "id": 242892,
      "geometry": "POINT (-77.874583 34.232554)",
      "poi_name": "Szechuan",
      "osm_id": 7605980673,
      "amenity": "fast_food",
      "takeaway": "yes",
      "distance": 117526.46143589
    }
  ],
  "answer_type": "distance",
  "question_entities": {
    "[1]": {
      "main_category": "amenity",
      "sub_category": "fast food restaurant"
    },
    "[2]": {
      "distance": 130000,
      "text": "130 kilometers"
    },
    "[3]": {
      "main_category": "tourism",
      "sub_category": "zoo",
      "display_name": "Myrtle Beach Safari Wild Encounters Tour, SC",
      "geo_wkt": "POINT (-78.971427 33.696456)",
      "poi": {
        "id": 10262,
        "geometry": "POINT (-78.971427 33.696456)",
        "poi_name": "Myrtle Beach Safari Wild Encounters Tour",
        "osm_id": 6762935375,
        "tourism": "zoo",
        "website": "https://myrtlebeachsafari.com",
        "phone": "+1 843-361-4552",
        "addr_state": "SC",
        "addr_postcode": "29588",
        "addr_street": "Folly Ranch Lane"
      }
    }
  },
  "id": 775,
  "type": "range+distance"
}