{
  "question": "Where can I find fast food restaurant in the direction of Outdoor Biological Research Facility, Vestal, NY within 140 kilometers from Colesville Branch, Nineveh, NY?",
  "sql": "WITH\n    angle AS (SELECT degrees(ST_Azimuth(ST_GeomFromText('POINT (-75.605033 42.187878)',4326)::geography, ST_GeomFromText('POINT (-75.978456 42.082185)',4326)::geography)) AS value)\nSELECT * FROM pois,angle\nWHERE amenity = 'fast_food'\nAND ST_DWithin(pois.geometry, ST_GeomFromText('POINT (-75.605033 42.187878)',4326)::geography, 140000)\nAND (degrees(ST_Azimuth(ST_GeomFromText('POINT (-75.605033 42.187878)',4326)::geography, pois.geometry)) BETWEEN angle.value - 22.5 AND angle.value + 22.5);\n",
  "answers": [
    {
      "id": 32167,
      "geometry": "POINT (-76.071441 42.110045)",
      "poi_name": "Subway",
      "osm_id": 2622862103,
      "amenity": "fast_food",
      "cuisine": "sandwich",
      "opening_hours": "24/7",
      "phone": "(607) 748-7833",
      "takeaway": "yes",
      "addr_city": "Endicott",
      "addr_postcode": "13760",
      "addr_street": "Union Center Maine Highway",
      "addr_housenumber": "1007",
      "value": 249.3051636617596
    },
    {
      "id": 32175,
      "geometry": "POINT (-76.054597 42.09607)",
      "poi_name": "McDonald's",
      "osm_id": 2622882764,
      "amenity": "fast_food",
      "cuisine": "burger",
      "opening_hours": "24/7",
      "website": "https://www.mcdonalds.com/us/en-us/location/ny/endicott/603-e-main-st/4860.html",
      "phone": "(607) 785-1999",
      "takeaway": "yes",
      "addr_city": "Endicott",
      "addr_postcode": "13760",
      "addr_street": "East Main Street",
      "addr_housenumber": "603",
      "value": 249.3051636617596
    },
    {
      "id": 32179,
      "geometry": "POINT (-76.047997 42.10259)",
      "poi_name": "Subway",
      "osm_id": 2622889303,
      "amenity": "fast_food",
      "cuisine": "sandwich",
      "wheelchair": "yes",
      "opening_hours": "Mo-Fr 10:00-21:00; Sa 10:00-20:00; Su 11:00-19:00",
      "website": "https://restaurants.subway.com/united-states/ny/endicott/61-washington-ave",
      "phone": "(607) 785-0443",
      "takeaway": "yes",
      "drive_through": "no",
      "addr_state": "NY",
      "addr_city": "Endicott",
      "addr_postcode": "13760",
      "addr_street": "Washington Avenue",
      "addr_housenumber": "61",
      "value": 249.3051636617596
    },
    {
      "id": 32180,
      "geometry": "POINT (-76.029788 42.106219)",
      "poi_name": "Subway",
      "osm_id": 2622889993,
      "amenity": "fast_food",
      "cuisine": "sandwich",
      "opening_hours": "07:00-21:00",
      "phone": "(607) 785-5006",
      "takeaway": "yes",
      "addr_city": "Endwell",
      "addr_postcode": "13760",
      "addr_street": "East Main Street",
      "addr_housenumber": "128",
      "value": 249.3051636617596
    },
    {
      "id": 32181,
      "geometry": "POINT (-76.029631 42.106061)",
      "poi_name": "Little Caesars",
      "osm_id": 2622890407,
      "amenity": "fast_food",
      "cuisine": "pizza",
      "website": "https://littlecaesars.com/en-us/store/7746/",
      "phone": "(607) 757-2717",
      "takeaway": "yes",
      "addr_city": "Endwell",
      "addr_postcode": "13760",
      "addr_street": "East Main Street",
      "addr_housenumber": "2901",
      "value": 249.3051636617596
    },
    {
      "id": 38955,
      "geometry": "POINT (-77.071901 41.776576)",
      "poi_name": "Arby's",
      "osm_id": 2894326411,
      "amenity": "fast_food",
      "cuisine": "sandwich",
      "takeaway": "yes",
      "addr_state": "PA",
      "value": 249.3051636617596
    },
    {
      "id": 101368,
      "geometry": "POINT (-75.952163 42.091891)",
      "poi_name": "Five Guys",
      "osm_id": 6624624084,
      "amenity": "fast_food",
      "cuisine": "burger",
      "opening_hours": "Mo-Su 11:00-22:00",
      "website": "https://restaurants.fiveguys.com/4700-vestal-pkwy-e",
      "phone": "+16077707005",
      "takeaway": "yes",
      "official_name": "Five Guys Burgers and Fries",
      "delivery": "yes",
      "addr_state": "NY",
      "addr_city": "Vestal",
      "addr_postcode": "13850",
      "addr_street": "Vestal Parkway East",
      "addr_housenumber": "4700",
      "value": 249.3051636617596
    },
    {
      "id": 88725,
      "geometry": "POINT (-75.936619 42.106461)",
      "poi_name": "KFC",
      "osm_id": 8793435865,
      "amenity": "fast_food",
      "cuisine": "chicken",
      "website": "https://locations.kfc.com/ny/binghamton/237-main-street",
      "takeaway": "yes",
      "addr_state": "NY",
      "addr_city": "Binghamton",
      "addr_postcode": "13905",
      "addr_street": "Main Street",
      "addr_housenumber": "237",
      "value": 249.3051636617596
    },
    {
      "id": 88728,
      "geometry": "POINT (-75.934956 42.10558)",
      "poi_name": "Nirchi's Pizza",
      "osm_id": 8793461771,
      "amenity": "fast_food",
      "cuisine": "pizza;subs;wings",
      "website": "https://www.nirchispizza.com/order-online/",
      "phone": "(607) 231-6561",
      "addr_state": "NY",
      "addr_city": "Binghamton",
      "addr_postcode": "13905",
      "addr_street": "Main Street",
      "addr_housenumber": "219",
      "value": 249.3051636617596
    },
    {
      "id": 88729,
      "geometry": "POINT (-75.929982 42.102942)",
      "poi_name": "Kennedy Fried Chicken",
      "osm_id": 8793465416,
      "amenity": "fast_food",
      "cuisine": "chicken",
      "website": "https://kfcbinghamton.com/",
      "phone": "(607) 235-7111",
      "addr_state": "NY",
      "addr_city": "Binghamton",
      "addr_postcode": "13905",
      "addr_street": "Main Street",
      "addr_housenumber": "159",
      "value": 249.3051636617596
    },
    {
      "id": 88730,
      "geometry": "POINT (-75.88981 42.118746)",
      "poi_name": "Pasquale's Deli",
      "osm_id": 8793469830,
      "amenity": "fast_food",
      "cuisine": "sandwich",
      "opening_hours": "Tu-Fr 06am:2pm",
      "website": "https://pasqualesdeliplus-com.3dcartstores.com/",
      "phone": "+16077738011",
      "addr_state": "NY",
      "addr_city": "Binghamton",
      "addr_postcode": "13904",
      "addr_street": "Broad Avenue",
      "addr_housenumber": "180",
      "value": 249.3051636617596
    },
    {
      "id": 88731,
      "geometry": "POINT (-75.940428 42.109249)",
      "poi_name": "Burger King",
      "osm_id": 8793472713,
      "amenity": "fast_food",
      "cuisine": "burger",
      "opening_hours": "Mo-Sa am06:00-11:00pm; Su 07:00am-11:00pm",
      "website": "https://www.bk.com/",
      "internet_access": "wlan",
      "phone": "6077973407",
      "takeaway": "yes",
      "drive_through": "yes",
      "addr_state": "NY",
      "addr_city": "Binghamton",
      "addr_postcode": "13905",
      "addr_street": "Main Street",
      "addr_housenumber": "290",
      "value": 249.3051636617596
    },
    {
      "id": 88733,
      "geometry": "POINT (-75.879714 42.104192)",
      "poi_name": "Burger King",
      "osm_id": 8793479585,
      "amenity": "fast_food",
      "cuisine": "burger",
      "opening_hours": "Mo-Su 06:00-23:00; Mo-Sa 06:00-23:00; Su 07:00-23:00",
      "website": "https://www.bk.com/",
      "internet_access": "wlan",
      "phone": "6077245121",
      "takeaway": "yes",
      "drive_through": "yes",
      "addr_state": "NY",
      "addr_city": "Binghamton",
      "addr_postcode": "13904",
      "addr_street": "Court Street",
      "addr_housenumber": "464",
      "value": 249.3051636617596
    },
    {
      "id": 88734,
      "geometry": "POINT (-75.934012 42.104994)",
      "poi_name": "Dunkin'",
      "osm_id": 8793480130,
      "amenity": "fast_food",
      "cuisine": "donut;coffee_shop",
      "takeaway": "yes",
      "addr_state": "NY",
      "addr_city": "Binghamton",
      "addr_postcode": "13905",
      "addr_street": "Main Street",
      "addr_housenumber": "211",
      "value": 249.3051636617596
    },
    {
      "id": 88736,
      "geometry": "POINT (-75.886053 42.107883)",
      "poi_name": "Subway",
      "osm_id": 8793491251,
      "amenity": "fast_food",
      "cuisine": "sandwich",
      "opening_hours": "Mo-Su 09:00-21:00",
      "website": "https://www.subway.com/en-us/",
      "phone": "+1 607-348-0350",
      "takeaway": "yes",
      "drive_through": "no",
      "addr_state": "NY",
      "addr_city": "Binghamton",
      "addr_postcode": "13904",
      "addr_street": "Robinson Street",
      "addr_housenumber": "193",
      "value": 249.3051636617596
    },
    {
      "id": 88740,
      "geometry": "POINT (-75.930254 42.103566)",
      "poi_name": "Popeyes",
      "osm_id": 8793501973,
      "amenity": "fast_food",
      "cuisine": "chicken",
      "website": "https://www.popeyes.com/",
      "phone": "(607) 203-1286",
      "takeaway": "yes",
      "official_name": "Popeyes Louisiana Kitchen",
      "addr_state": "NY",
      "addr_city": "Binghamton",
      "addr_postcode": "13905",
      "addr_street": "Main Street",
      "addr_housenumber": "164",
      "value": 249.3051636617596
    },
    {
      "id": 88741,
      "geometry": "POINT (-76.027775 42.129501)",
      "poi_name": "Chicken Chicks",
      "osm_id": 8793501985,
      "amenity": "fast_food",
      "cuisine": "wings",
      "drive_through": "no",
      "addr_state": "NY",
      "addr_city": "Endicott",
      "addr_postcode": "13760",
      "addr_street": "Hooper Road",
      "addr_housenumber": "800",
      "value": 249.3051636617596
    },
    {
      "id": 88744,
      "geometry": "POINT (-75.930698 42.103722)",
      "poi_name": "Wendy's",
      "osm_id": 8793520854,
      "amenity": "fast_food",
      "cuisine": "burger",
      "opening_hours": "Mo-Su 08:00-23:00",
      "website": "https://www.wendys.com/",
      "internet_access": "wlan",
      "phone": "6077235711",
      "takeaway": "yes",
      "addr_state": "NY",
      "addr_city": "Binghamton",
      "addr_postcode": "13905;13904",
      "addr_street": "Main Street",
      "addr_housenumber": "172",
      "value": 249.3051636617596
    },
    {
      "id": 158368,
      "geometry": "POINT (-75.913765 42.089627)",
      "poi_name": "Domino's",
      "osm_id": 4744998285,
      "amenity": "fast_food",
      "cuisine": "pizza",
      "opening_hours": "Su-Th 11:00-01:00, Fr-Sa 11:00-02:00",
      "takeaway": "yes",
      "drive_through": "no",
      "outdoor_seating": "no",
      "delivery": "yes",
      "addr_state": "NY",
      "addr_city": "Binghamton",
      "addr_postcode": "13903",
      "addr_street": "Vestal Avenue",
      "addr_housenumber": "1185",
      "value": 249.3051636617596
    },
    {
      "id": 158369,
      "geometry": "POINT (-75.914886 42.088994)",
      "poi_name": "Subway",
      "osm_id": 4744998286,
      "amenity": "fast_food",
      "cuisine": "sandwich",
      "opening_hours": "Mo-Fr 07:00-22:00; Sa 08:00-22:00; Su 09:00-21:00",
      "takeaway": "yes",
      "drive_through": "no",
      "outdoor_seating": "no",
      "delivery": "no",
      "addr_state": "NY",
      "addr_city": "Binghamton",
      "addr_postcode": "13903",
      "addr_street": "Vestal Avenue",
      "addr_housenumber": "1175",
      "value": 249.3051636617596
    },
    {
      "id": 176030,
      "geometry": "POINT (-77.069534 41.781164)",
      "poi_name": "KFC",
      "osm_id": 2550058052,
      "amenity": "fast_food",
      "cuisine": "chicken",
      "website": "https://locations.kfc.com/pa/mansfield/1320-south-main-street",
      "internet_access": "wlan",
      "phone": "+1-570-662-2558",
      "takeaway": "yes",
      "drive_through": "yes",
      "addr_state": "PA",
      "addr_city": "Mansfield",
      "addr_postcode": "16933",
      "addr_street": "South Main Street",
      "addr_housenumber": "1320",
      "value": 249.3051636617596
    },
    {
      "id": 235732,
      "geometry": "POINT (-75.913939 42.098864)",
      "poi_name": "Subway",
      "osm_id": 5764720218,
      "amenity": "fast_food",
      "cuisine": "sandwich",
      "takeaway": "yes",
      "addr_state": "NY",
      "addr_city": "Binghamton",
      "addr_postcode": "13901",
      "addr_street": "Court Street",
      "addr_housenumber": "35",
      "value": 249.3051636617596
    },
    {
      "id": 230600,
      "geometry": "POINT (-75.893088 42.162833)",
      "poi_name": "Arby's",
      "osm_id": 4432547573,
      "amenity": "fast_food",
      "cuisine": "sandwich",
      "addr_state": "NY",
      "value": 249.3051636617596
    },
    {
      "id": 238047,
      "geometry": "POINT (-75.977108 42.096239)",
      "poi_name": "Dunkin'",
      "osm_id": 5859860254,
      "amenity": "fast_food",
      "cuisine": "donut;coffee_shop",
      "takeaway": "yes",
      "addr_state": "NY",
      "addr_city": "Vestal",
      "addr_postcode": "13850",
      "addr_street": "Vestal Parkway East",
      "addr_housenumber": "4005",
      "value": 249.3051636617596
    }
  ],
  "answer_type": "loc",
  "question_entities": {
    "[2]": {
      "distance": 140000,
      "text": "140 kilometers"
    },
    "[3]": {
      "main_category": "tourism",
      "sub_category": "attraction",
      "display_name": "Colesville Branch, Nineveh, NY",
      "geo_wkt": "POINT (-75.605033 42.187878)",
      "poi": {
        "id": 13582,
        "geometry": "POINT (-75.605033 42.187878)",
        "poi_name": "Colesville Branch",
        "osm_id": 4119968989,
        "tourism": "attraction",
        "addr_state": "NY",
        "addr_city": "Nineveh",
        "addr_postcode": "13813",
        "addr_street": "East Windsor Road",
        "addr_housenumber": "1945"
      }
    },
    "[4]": {
      "main_category": "leisure",
      "sub_category": "garden",
      "display_name": "Outdoor Biological Research Facility, Vestal, NY",
      "geo_wkt": "POINT (-75.978456 42.082185)",
      "poi": {
        "id": 246670,
        "geometry": "POINT (-75.978456 42.082185)",
        "poi_name": "Outdoor Biological Research Facility",
        "osm_id": 8793514697,
        "leisure": "garden",
        "addr_state": "NY",
        "addr_city": "Vestal",
        "addr_postcode": "13850",
        "addr_street": "Bunn Hill Road",
        "addr_housenumber": "906"
      }
    },
    "[1]": {
      "main_category": "amenity",
      "sub_category": "fast_food"
    }
  },
  "id": 1253,
  "type": "range:towards+loc"
}