{
  "question": "Where can I find restaurant heading towards Beltzville State Park - Preacher's Camp Boat Launch, Lehighton, PA from Gemberling-Rex House, Schaefferstown, PA, within a radius of 120 kilometers?",
  "sql": "WITH\n    angle AS (SELECT degrees(ST_Azimuth(ST_GeomFromText('POINT (-76.293232 40.29829)',4326)::geography, ST_GeomFromText('POINT (-75.574758 40.874297)',4326)::geography)) AS value)\nSELECT * FROM pois,angle\nWHERE amenity = 'restaurant'\nAND ST_DWithin(pois.geometry, ST_GeomFromText('POINT (-76.293232 40.29829)',4326)::geography, 120000)\nAND (degrees(ST_Azimuth(ST_GeomFromText('POINT (-76.293232 40.29829)',4326)::geography, pois.geometry)) BETWEEN angle.value - 22.5 AND angle.value + 22.5);\n",
  "answers": [
    {
      "id": 32164,
      "geometry": "POINT (-75.349803 41.051617)",
      "poi_name": "Glen Lodge",
      "osm_id": 2622852323,
      "amenity": "restaurant",
      "addr_state": "PA",
      "addr_city": "Tannersville",
      "addr_postcode": "18372",
      "addr_street": "Resort Drive",
      "addr_housenumber": "225",
      "value": 43.326329384003095
    },
    {
      "id": 36681,
      "geometry": "POINT (-75.418455 40.657107)",
      "poi_name": "Dickey's Barbecue Pit",
      "osm_id": 2779166046,
      "amenity": "restaurant",
      "cuisine": "barbecue",
      "addr_state": "PA",
      "addr_city": "Bethlehem",
      "addr_postcode": "18017",
      "addr_street": "Schoenersville Road",
      "addr_housenumber": "3221",
      "value": 43.326329384003095
    },
    {
      "id": 42988,
      "geometry": "POINT (-75.496219 40.601373)",
      "poi_name": "Ritz Barbecue",
      "osm_id": 3090692879,
      "amenity": "restaurant",
      "wheelchair": "yes",
      "opening_hours": "Mo-Su 11:00-20:00; We-Sa 11:00-21:00",
      "website": "https://www.ritzbarbecue.com/",
      "addr_city": "Allentown",
      "addr_postcode": "18104",
      "addr_street": "North 17th Street",
      "addr_housenumber": "302",
      "value": 43.326329384003095
    },
    {
      "id": 52658,
      "geometry": "POINT (-76.010536 40.56184)",
      "poi_name": "J. A. Shau Buffet",
      "osm_id": 10040880632,
      "amenity": "restaurant",
      "cuisine": "chinese",
      "opening_hours": "Mo,We,Th 11:00-21:00; Fr,Sa 11:00-22:00; Su 11:00-21:00",
      "addr_city": "Hamburg",
      "addr_postcode": "19526",
      "addr_street": "Tilden Ridge Drive",
      "addr_housenumber": "1752",
      "value": 43.326329384003095
    },
    {
      "id": 57810,
      "geometry": "POINT (-76.1683 40.358969)",
      "poi_name": "Pizza Hut",
      "osm_id": 5352723901,
      "amenity": "restaurant",
      "cuisine": "pizza;wings",
      "opening_hours": "Su-Th 11:00-22:00; Fr-Sa 11:00-23:00",
      "phone": "6105892380",
      "takeaway": "only",
      "outdoor_seating": "no",
      "delivery": "yes",
      "addr_state": "PA",
      "addr_city": "Womelsdorf",
      "addr_postcode": "19567",
      "addr_street": "West Penn Avenue",
      "addr_housenumber": "1192",
      "value": 43.326329384003095
    },
    {
      "id": 58610,
      "geometry": "POINT (-75.210488 40.691589)",
      "poi_name": "Taylor Taco Shop",
      "osm_id": 5386696655,
      "amenity": "restaurant",
      "cuisine": "mexican",
      "website": "https://www.taylortaco.com/",
      "phone": "484.373.4477",
      "addr_state": "PA",
      "addr_city": "Easton",
      "addr_postcode": "18042",
      "addr_street": "Northampton Street",
      "addr_housenumber": "325",
      "value": 43.326329384003095
    },
    {
      "id": 64685,
      "geometry": "POINT (-75.378391 40.618828)",
      "poi_name": "Vegout Bethlehem",
      "osm_id": 5664659529,
      "amenity": "restaurant",
      "opening_hours": "Mo 10:00-20:00; We-Sa 10:00-20:00; Su 08:00-15:00",
      "website": "https://vegoutbethlehem.com/",
      "phone": "+1 610 419 0126",
      "addr_state": "PA",
      "addr_city": "Bethlehem",
      "addr_postcode": "18018",
      "addr_street": "East Church Street",
      "addr_housenumber": "1",
      "value": 43.326329384003095
    },
    {
      "id": 60699,
      "geometry": "POINT (-75.372838 41.12088)",
      "poi_name": "Sabor Caribe\u00f1o",
      "osm_id": 5476509513,
      "amenity": "restaurant",
      "cuisine": "caribbean",
      "addr_state": "PA",
      "addr_city": "Mount Pocono",
      "addr_postcode": "18344",
      "addr_street": "PA 940",
      "addr_housenumber": "3236",
      "value": 43.326329384003095
    },
    {
      "id": 60700,
      "geometry": "POINT (-75.37314 41.12076)",
      "poi_name": "Brother Bruno's",
      "osm_id": 5476523822,
      "amenity": "restaurant",
      "cuisine": "pizza",
      "takeaway": "yes",
      "outdoor_seating": "no",
      "addr_state": "PA",
      "addr_city": "Mount Pocono",
      "addr_postcode": "18344",
      "addr_street": "PA 940",
      "addr_housenumber": "3236",
      "value": 43.326329384003095
    },
    {
      "id": 64628,
      "geometry": "POINT (-75.335041 40.627724)",
      "poi_name": "Cherry's Caribbean Palace",
      "osm_id": 5661523169,
      "amenity": "restaurant",
      "cuisine": "regional",
      "opening_hours": "Mo-Sa 11:00-21:00",
      "website": "https://www.cherryscaribbeanpalace.com/",
      "phone": "+1 610 419 4456",
      "takeaway": "only",
      "addr_state": "PA",
      "addr_city": "Freemansburg",
      "addr_postcode": "18017",
      "addr_street": "Main Street",
      "addr_housenumber": "415",
      "value": 43.326329384003095
    },
    {
      "id": 64686,
      "geometry": "POINT (-75.382263 40.620362)",
      "poi_name": "The Flying Egg",
      "osm_id": 5664659530,
      "amenity": "restaurant",
      "opening_hours": "Mo-Fr 07:00-14:00; Sa-Su 08:00-15:00",
      "website": "https://www.theflyingeggbethlehem.com",
      "phone": "+1 610 625 2515",
      "addr_state": "PA",
      "addr_city": "Bethlehem",
      "addr_postcode": "18018",
      "addr_street": "Main Street",
      "addr_housenumber": "451",
      "value": 43.326329384003095
    },
    {
      "id": 75298,
      "geometry": "POINT (-75.347216 40.674049)",
      "poi_name": "China King",
      "osm_id": 9723503528,
      "amenity": "restaurant",
      "cuisine": "chinese",
      "addr_state": "PA",
      "addr_city": "Bethlehem",
      "addr_postcode": "18020",
      "addr_street": "Nazareth Pike",
      "addr_housenumber": "3827",
      "value": 43.326329384003095
    },
    {
      "id": 64867,
      "geometry": "POINT (-75.37898 40.622076)",
      "poi_name": "The Brick",
      "osm_id": 5675639654,
      "amenity": "restaurant",
      "cuisine": "pizza",
      "opening_hours": "Mo,We,Su 11:00-22:00; Th-Sa 11:00-23:00",
      "website": "https://www.thebrickpa.com/",
      "phone": "+1 610 419 1141",
      "outdoor_seating": "yes",
      "addr_state": "PA",
      "addr_city": "Bethlehem",
      "addr_postcode": "18108",
      "addr_street": "West Broad Street",
      "addr_housenumber": "1",
      "value": 43.326329384003095
    },
    {
      "id": 64869,
      "geometry": "POINT (-75.381832 40.621216)",
      "poi_name": "Urbano",
      "osm_id": 5675639656,
      "amenity": "restaurant",
      "cuisine": "mexican",
      "opening_hours": "Mo-Th 11:30-22:00; Fr-Sa 11:30-23:00; Su 11:00-22:00",
      "website": "https://www.urbanobethlehem.com",
      "phone": "+1 610 419 1736",
      "outdoor_seating": "yes",
      "addr_state": "PA",
      "addr_city": "Bethlehem",
      "addr_postcode": "18108",
      "addr_street": "Main Street",
      "addr_housenumber": "526",
      "value": 43.326329384003095
    },
    {
      "id": 75374,
      "geometry": "POINT (-75.394499 40.725809)",
      "poi_name": "The Bath Exchange",
      "osm_id": 9726460759,
      "amenity": "restaurant",
      "opening_hours": "Mo-Su 12:00-21:00",
      "website": "https://thebathexchange.com",
      "phone": "484-282-3366",
      "addr_state": "PA",
      "addr_city": "Bath",
      "addr_postcode": "18014",
      "addr_street": "W Main St",
      "addr_housenumber": "204",
      "value": 43.326329384003095
    },
    {
      "id": 66937,
      "geometry": "POINT (-75.390427 40.622607)",
      "poi_name": "Kinoa",
      "osm_id": 11216893663,
      "amenity": "restaurant",
      "cuisine": "peruvian",
      "opening_hours": "Tu-Th 11:00-19:00; Fr, Sa 11:00-20:00; Su 12:00-19:00",
      "website": "https://www.kinoaperuvianrestaurant.com/",
      "phone": "+1 610 419 0091",
      "takeaway": "yes",
      "delivery": "yes",
      "addr_state": "PA",
      "addr_city": "Bethlehem",
      "addr_postcode": "18018",
      "addr_street": "West Broad Street",
      "addr_housenumber": "518",
      "value": 43.326329384003095
    },
    {
      "id": 76017,
      "geometry": "POINT (-75.285513 40.656045)",
      "poi_name": "CJT Asian Cuisine",
      "osm_id": 9756023596,
      "amenity": "restaurant",
      "cuisine": "asian",
      "addr_state": "PA",
      "addr_city": "Easton",
      "addr_postcode": "18045",
      "addr_street": "Birkland Place",
      "addr_housenumber": "4402",
      "value": 43.326329384003095
    },
    {
      "id": 75968,
      "geometry": "POINT (-75.224439 40.989754)",
      "poi_name": "Rocking Crab Cajun Seafood & Bar",
      "osm_id": 9753423737,
      "amenity": "restaurant",
      "cuisine": "seafood",
      "opening_hours": "Tu-Sa 12:00-23:00; Su,Mo 12:00-22:00",
      "website": "https://rockingcrabusa.com",
      "phone": "570-664-8182",
      "addr_state": "PA",
      "addr_city": "Stroudsburg",
      "addr_postcode": "18360",
      "addr_street": "Stroud Mall Road",
      "addr_housenumber": "344",
      "value": 43.326329384003095
    },
    {
      "id": 76018,
      "geometry": "POINT (-75.285795 40.656054)",
      "poi_name": "Franks Pizza & Italian Restaurant",
      "osm_id": 9756023597,
      "amenity": "restaurant",
      "cuisine": "pizza",
      "addr_state": "PA",
      "addr_city": "Easton",
      "addr_postcode": "18045",
      "addr_street": "Birkland Place",
      "addr_housenumber": "4422",
      "value": 43.326329384003095
    },
    {
      "id": 77193,
      "geometry": "POINT (-75.391151 40.603458)",
      "poi_name": "Cuquita Restaurant",
      "osm_id": 9810977723,
      "amenity": "restaurant",
      "cuisine": "colombian",
      "addr_state": "PA",
      "addr_city": "Fountain Hill",
      "addr_postcode": "18015",
      "addr_street": "Broadway",
      "addr_housenumber": "960",
      "value": 43.326329384003095
    },
    {
      "id": 77995,
      "geometry": "POINT (-75.312269 40.731751)",
      "poi_name": "Bella Napoli",
      "osm_id": 735968814,
      "amenity": "restaurant",
      "cuisine": "pizza",
      "addr_state": "PA",
      "addr_city": "Nazareth",
      "addr_postcode": "18064",
      "addr_street": "Nazareth Pike",
      "addr_housenumber": "848",
      "value": 43.326329384003095
    },
    {
      "id": 79829,
      "geometry": "POINT (-75.378125 40.622396)",
      "poi_name": "The Melting Pot",
      "osm_id": 831649299,
      "amenity": "restaurant",
      "cuisine": "fondue",
      "opening_hours": "Mo-Th 17:00-22:00; Fr 17:00-23:00; Sa 16:00-23:00; Su 16:00-21:00",
      "website": "https://www.meltingpot.com/bethlehem/welcome",
      "phone": "+1-484-241-4939",
      "addr_state": "PA",
      "addr_city": "Bethlehem",
      "addr_postcode": "18018",
      "addr_street": "East Broad Street",
      "addr_housenumber": "1",
      "value": 43.326329384003095
    },
    {
      "id": 79831,
      "geometry": "POINT (-75.381326 40.622537)",
      "poi_name": "Edge Restaurant",
      "osm_id": 831649327,
      "amenity": "restaurant",
      "cuisine": "french;asian_fusion",
      "opening_hours": "Mo-Sa 16:00-02:00",
      "website": "https://edgerestaurant.net/",
      "phone": "+1-610-814-0100",
      "addr_state": "PA",
      "addr_city": "Bethlehem",
      "addr_postcode": "18018",
      "addr_street": "West Broad Street",
      "addr_housenumber": "74",
      "value": 43.326329384003095
    },
    {
      "id": 79833,
      "geometry": "POINT (-75.378048 40.62219)",
      "poi_name": "Billy's Downtown Diner",
      "osm_id": 831824189,
      "amenity": "restaurant",
      "cuisine": "diner",
      "opening_hours": "07:00-15:00",
      "website": "https://www.billysdiner.com/",
      "phone": "+1-610-867-0105",
      "addr_state": "PA",
      "addr_city": "Bethlehem",
      "addr_postcode": "18018",
      "addr_street": "East Broad Street",
      "addr_housenumber": "10",
      "value": 43.326329384003095
    },
    {
      "id": 79834,
      "geometry": "POINT (-75.376595 40.622404)",
      "poi_name": "The Other Fish",
      "osm_id": 831824198,
      "amenity": "restaurant",
      "cuisine": "japanese",
      "opening_hours": "Mo-Fr 11:30-14:00,Mo-Th 17:00-22:00, Fr-Sa 17:00-23:00",
      "website": "http://www.dineindie.com/TheOtherFish",
      "phone": "+1-484-821-1370",
      "addr_state": "PA",
      "addr_city": "Bethlehem",
      "addr_postcode": "18018",
      "addr_street": "East Broad Street",
      "addr_housenumber": "59",
      "value": 43.326329384003095
    },
    {
      "id": 79826,
      "geometry": "POINT (-75.382168 40.621793)",
      "poi_name": "Casa del Mofongo",
      "osm_id": 831649248,
      "amenity": "restaurant",
      "addr_state": "PA",
      "addr_city": "Bethlehem",
      "addr_postcode": "18108",
      "addr_street": "Main Street",
      "addr_housenumber": "553",
      "value": 43.326329384003095
    },
    {
      "id": 79827,
      "geometry": "POINT (-75.381275 40.622195)",
      "poi_name": "Apollo Grill",
      "osm_id": 831649279,
      "amenity": "restaurant",
      "cuisine": "mediterranean",
      "opening_hours": "Tu-Sa 11:00-22:00",
      "website": "https://www.apollogrill.com/",
      "phone": "+1-610-865-9600",
      "addr_state": "PA",
      "addr_city": "Bethlehem",
      "addr_postcode": "18018",
      "addr_street": "West Broad Street",
      "addr_housenumber": "85",
      "value": 43.326329384003095
    },
    {
      "id": 79828,
      "geometry": "POINT (-75.382188 40.622265)",
      "poi_name": "Fegley's Bethlehem Brew Works",
      "osm_id": 831649283,
      "amenity": "restaurant",
      "website": "http://www.thebrewworks.com/",
      "phone": "+1-610-882-1300",
      "outdoor_seating": "yes",
      "addr_city": "Bethlehem",
      "addr_postcode": "18018",
      "addr_street": "Main Street",
      "addr_housenumber": "569",
      "value": 43.326329384003095
    },
    {
      "id": 80895,
      "geometry": "POINT (-75.420756 40.659489)",
      "poi_name": "Feasta Italiana",
      "osm_id": 1585847873,
      "amenity": "restaurant",
      "addr_state": "PA",
      "addr_city": "Allentown",
      "addr_postcode": "18109",
      "addr_street": "Schoenersville Road",
      "addr_housenumber": "2400",
      "value": 43.326329384003095
    },
    {
      "id": 86971,
      "geometry": "POINT (-75.290535 40.652257)",
      "poi_name": "Ruby Tuesday",
      "osm_id": 1961335513,
      "amenity": "restaurant",
      "cuisine": "american",
      "website": "https://www.rubytuesday.com/",
      "addr_state": "PA",
      "addr_city": "Bethlehem",
      "addr_postcode": "18020",
      "addr_street": "Emrick Boulevardt",
      "addr_housenumber": "2102",
      "value": 43.326329384003095
    },
    {
      "id": 92552,
      "geometry": "POINT (-75.1671 40.699088)",
      "poi_name": "Key City Diner",
      "osm_id": 2125436071,
      "amenity": "restaurant",
      "cuisine": "american",
      "wheelchair": "yes",
      "website": "https://www.yelp.com/biz/key-city-diner-phillipsburg",
      "phone": "(908) 859-2373",
      "addr_city": "Phillipsburg",
      "addr_postcode": "08865",
      "addr_street": "U.S. Route 22/Memorial Parkway",
      "addr_housenumber": "985",
      "value": 43.326329384003095
    },
    {
      "id": 87650,
      "geometry": "POINT (-75.375804 40.61214)",
      "poi_name": "The Flying V Poutinerie",
      "osm_id": 8730005207,
      "amenity": "restaurant",
      "cuisine": "poutine",
      "opening_hours": "We 16:00-21:00; Th-Fr 12:00-21:00; Sa 11:00-21:00; Su 12:00-17:00",
      "website": "https://www.flyingvpoutinerie.com/",
      "phone": "+1 610 419 2530",
      "takeaway": "yes",
      "outdoor_seating": "yes",
      "addr_state": "PA",
      "addr_city": "Bethlehem",
      "addr_postcode": "18015",
      "addr_street": "East 3rd Street",
      "addr_housenumber": "201",
      "value": 43.326329384003095
    },
    {
      "id": 91581,
      "geometry": "POINT (-75.377942 40.62219)",
      "poi_name": "Hunan Inn",
      "osm_id": 2074694083,
      "amenity": "restaurant",
      "cuisine": "chinese",
      "opening_hours": "Mo-Th 11:00-22:30; Fr-Sa 11:00-23:00; Su 12:00-22:30",
      "phone": "+1-610-868-8878",
      "addr_state": "PA",
      "addr_city": "Bethlehem",
      "addr_postcode": "18018",
      "addr_street": "East Broad Street",
      "addr_housenumber": "14",
      "value": 43.326329384003095
    },
    {
      "id": 91582,
      "geometry": "POINT (-75.380686 40.621955)",
      "poi_name": "Voracious Deli & Catering",
      "osm_id": 2074841888,
      "amenity": "restaurant",
      "cuisine": "sandwich",
      "website": "https://voraciousdeliandcatering.com/",
      "phone": "+1 610 866 2912",
      "takeaway": "yes",
      "outdoor_seating": "yes",
      "delivery": "yes",
      "addr_state": "PA",
      "addr_city": "Bethlehem",
      "addr_postcode": "18018",
      "addr_street": "West Broad Street",
      "addr_housenumber": "77",
      "value": 43.326329384003095
    },
    {
      "id": 91500,
      "geometry": "POINT (-75.375193 40.622081)",
      "poi_name": "Francisco's Salvadore\u00f1o Restaurant",
      "osm_id": 2069763285,
      "amenity": "restaurant",
      "cuisine": "salvadoran",
      "opening_hours": "Su 14:00-21:00,Mo 10:00-21:00, We-Sa 10:00-21:00",
      "phone": "+1-610-866-3556",
      "addr_state": "PA",
      "addr_city": "Bethlehem",
      "addr_postcode": "18018",
      "addr_street": "East Broad Street",
      "addr_housenumber": "100",
      "value": 43.326329384003095
    },
    {
      "id": 96596,
      "geometry": "POINT (-75.086415 40.828244)",
      "poi_name": "Riverton Hotel",
      "osm_id": 6439153406,
      "amenity": "restaurant",
      "addr_state": "PA",
      "addr_city": "Bangor",
      "addr_postcode": "18013",
      "addr_street": "Martins Creek Belvidere Highway",
      "addr_housenumber": "7758",
      "value": 43.326329384003095
    },
    {
      "id": 97463,
      "geometry": "POINT (-75.469051 41.104468)",
      "poi_name": "Amadeo's Pizza",
      "osm_id": 6481138056,
      "amenity": "restaurant",
      "cuisine": "pizza",
      "addr_state": "PA",
      "addr_city": "Pocono Pines",
      "addr_postcode": "18350",
      "addr_street": "Route 940",
      "addr_housenumber": "1904",
      "value": 43.326329384003095
    },
    {
      "id": 100518,
      "geometry": "POINT (-75.470244 40.614507)",
      "poi_name": "Cafe Phuong",
      "osm_id": 6590078699,
      "amenity": "restaurant",
      "cuisine": "vietnamese",
      "addr_state": "PA",
      "addr_city": "Allentown",
      "addr_postcode": "18102",
      "addr_street": "North 4th Street",
      "addr_housenumber": "725",
      "value": 43.326329384003095
    },
    {
      "id": 97558,
      "geometry": "POINT (-75.40523 41.108622)",
      "poi_name": "Saucy's Caribbean Restaurant",
      "osm_id": 6483963769,
      "amenity": "restaurant",
      "addr_state": "PA",
      "addr_city": "Pocono Summit",
      "addr_postcode": "18346",
      "addr_street": "Route 940",
      "addr_housenumber": "2652",
      "value": 43.326329384003095
    },
    {
      "id": 108171,
      "geometry": "POINT (-75.210721 40.673205)",
      "poi_name": "Pino's Pizzeria & Restaurant",
      "osm_id": 3599665092,
      "amenity": "restaurant",
      "cuisine": "pizza",
      "addr_state": "PA",
      "addr_city": "Easton",
      "addr_postcode": "18042",
      "addr_street": "Line Street",
      "addr_housenumber": "230",
      "value": 43.326329384003095
    },
    {
      "id": 107905,
      "geometry": "POINT (-75.210552 40.691013)",
      "poi_name": "Aman's Artisan Indian Cuisine",
      "osm_id": 3583877067,
      "amenity": "restaurant",
      "cuisine": "indian",
      "opening_hours": "Mo, We, Th 11:30-13:30, 17:00-21:00; Fr 11:30-13:30, 17:00-21:30; Sa 11:30-14:00, 17:00-21:30; Su 12:00-14:00, 17:00-20:30",
      "website": "https://www.amanseaston.com/",
      "phone": "+1 484 298 0400",
      "addr_state": "PA",
      "addr_city": "Easton",
      "addr_postcode": "18042",
      "addr_street": "Northampton Street",
      "addr_housenumber": "336",
      "value": 43.326329384003095
    },
    {
      "id": 107926,
      "geometry": "POINT (-75.208567 40.691517)",
      "poi_name": "The Bayou Easton",
      "osm_id": 3584425321,
      "amenity": "restaurant",
      "cuisine": "american",
      "website": "https://dat-bayou.com/easton/",
      "phone": "+1 610 829 1700",
      "addr_state": "PA",
      "addr_city": "Easton",
      "addr_postcode": "18042",
      "addr_street": "Centre Square",
      "addr_housenumber": "64",
      "value": 43.326329384003095
    },
    {
      "id": 107928,
      "geometry": "POINT (-75.208243 40.69141)",
      "poi_name": "Sogo Fusion",
      "osm_id": 3584425323,
      "amenity": "restaurant",
      "cuisine": "asian",
      "website": "https://www.sogofusion.com/",
      "phone": "610.250.0198",
      "addr_state": "PA",
      "addr_city": "Easton",
      "addr_postcode": "18042",
      "addr_street": "Northampton Street",
      "addr_housenumber": "237",
      "value": 43.326329384003095
    },
    {
      "id": 120312,
      "geometry": "POINT (-75.208854 40.689962)",
      "poi_name": "Mesa Modern Mexican",
      "osm_id": 6699327200,
      "amenity": "restaurant",
      "cuisine": "mexican",
      "website": "https://www.mesamexican.com/",
      "phone": "610.829.2101",
      "outdoor_seating": "yes",
      "addr_state": "PA",
      "addr_city": "Easton",
      "addr_postcode": "18042",
      "addr_street": "South 3rd Street",
      "addr_housenumber": "42",
      "value": 43.326329384003095
    },
    {
      "id": 115297,
      "geometry": "POINT (-75.736044 40.773971)",
      "poi_name": "Lizard Creek Pub",
      "osm_id": 8888480127,
      "amenity": "restaurant",
      "cuisine": "burger;american",
      "phone": "(610) 377-2249",
      "addr_state": "PA",
      "addr_city": "Lehighton",
      "addr_postcode": "18235",
      "addr_street": "West Lizard Creek Road",
      "addr_housenumber": "1424",
      "value": 43.326329384003095
    },
    {
      "id": 115298,
      "geometry": "POINT (-75.693282 40.78674)",
      "poi_name": "East Penn Sporting Club",
      "osm_id": 8888503665,
      "amenity": "restaurant",
      "addr_state": "PA",
      "addr_city": "Lehighton",
      "addr_postcode": "18235",
      "addr_street": "Club LN",
      "addr_housenumber": "61",
      "value": 43.326329384003095
    },
    {
      "id": 124264,
      "geometry": "POINT (-75.435075 40.624578)",
      "poi_name": "Golden Gate Diner",
      "osm_id": 6907377691,
      "amenity": "restaurant",
      "addr_state": "PA",
      "addr_city": "Allentown",
      "addr_postcode": "18109",
      "addr_street": "Union Boulevard",
      "addr_housenumber": "1318",
      "value": 43.326329384003095
    },
    {
      "id": 124226,
      "geometry": "POINT (-75.423531 40.625612)",
      "poi_name": "China Moon",
      "osm_id": 6904094778,
      "amenity": "restaurant",
      "cuisine": "chinese",
      "addr_state": "PA",
      "addr_city": "Allentown",
      "addr_postcode": "18109",
      "addr_street": "Union Boulevard",
      "addr_housenumber": "2102",
      "value": 43.326329384003095
    },
    {
      "id": 124227,
      "geometry": "POINT (-75.423842 40.625586)",
      "poi_name": "Charles Pizza",
      "osm_id": 6904094780,
      "amenity": "restaurant",
      "cuisine": "pizza",
      "addr_state": "PA",
      "addr_city": "Allentown",
      "addr_postcode": "18109",
      "addr_street": "Union Boulevard",
      "addr_housenumber": "2102",
      "value": 43.326329384003095
    },
    {
      "id": 124230,
      "geometry": "POINT (-75.426809 40.621422)",
      "poi_name": "Al-Tanour Restaurant",
      "osm_id": 6904198062,
      "amenity": "restaurant",
      "addr_state": "PA",
      "addr_city": "Allentown",
      "addr_postcode": "18109",
      "addr_street": "Hanover Avenue",
      "addr_housenumber": "1916",
      "value": 43.326329384003095
    },
    {
      "id": 124265,
      "geometry": "POINT (-75.433639 40.624719)",
      "poi_name": "Pho's #!",
      "osm_id": 6907377699,
      "amenity": "restaurant",
      "cuisine": "vietnamese",
      "addr_state": "PA",
      "addr_city": "Allentown",
      "addr_postcode": "18109",
      "addr_street": "Union Boulevard",
      "addr_housenumber": "1500",
      "value": 43.326329384003095
    },
    {
      "id": 124268,
      "geometry": "POINT (-75.433554 40.618092)",
      "poi_name": "Big Woody's",
      "osm_id": 6907398987,
      "amenity": "restaurant",
      "addr_state": "PA",
      "addr_city": "Allentown",
      "addr_postcode": "18109",
      "addr_street": "Hanover Avenue",
      "addr_housenumber": "1302",
      "value": 43.326329384003095
    },
    {
      "id": 124269,
      "geometry": "POINT (-75.434751 40.61794)",
      "poi_name": "Chopsticks",
      "osm_id": 6907399007,
      "amenity": "restaurant",
      "cuisine": "chinese",
      "addr_state": "PA",
      "addr_city": "Allentown",
      "addr_postcode": "18109",
      "addr_street": "Hanover Avenue",
      "addr_housenumber": "1314",
      "value": 43.326329384003095
    },
    {
      "id": 124284,
      "geometry": "POINT (-75.437394 40.624879)",
      "poi_name": "Mangu Latin Restaurant",
      "osm_id": 6909493812,
      "amenity": "restaurant",
      "addr_state": "PA",
      "addr_city": "Allentown",
      "addr_postcode": "18109",
      "addr_street": "Union Boulevard",
      "addr_housenumber": "1139",
      "value": 43.326329384003095
    },
    {
      "id": 124376,
      "geometry": "POINT (-75.443194 40.616085)",
      "poi_name": "Mar & Tierra Restaurant",
      "osm_id": 6914168873,
      "amenity": "restaurant",
      "addr_state": "PA",
      "addr_city": "Allentown",
      "addr_postcode": "18109",
      "addr_street": "Hanover Avenue",
      "addr_housenumber": "760",
      "value": 43.326329384003095
    },
    {
      "id": 124285,
      "geometry": "POINT (-75.438408 40.624359)",
      "poi_name": "Great Wall",
      "osm_id": 6909493820,
      "amenity": "restaurant",
      "cuisine": "chinese",
      "addr_state": "PA",
      "addr_city": "Allentown",
      "addr_postcode": "18109",
      "addr_street": "Union Boulevard",
      "addr_housenumber": "1124",
      "value": 43.326329384003095
    },
    {
      "id": 124287,
      "geometry": "POINT (-75.440832 40.624522)",
      "poi_name": "East Side Family Restaurant",
      "osm_id": 6909493833,
      "amenity": "restaurant",
      "addr_state": "PA",
      "addr_city": "Allentown",
      "addr_postcode": "18109",
      "addr_street": "Union Boulevard",
      "addr_housenumber": "1019",
      "value": 43.326329384003095
    },
    {
      "id": 124429,
      "geometry": "POINT (-75.452591 40.620228)",
      "poi_name": "Bull & Bear",
      "osm_id": 6917211474,
      "amenity": "restaurant",
      "addr_state": "PA",
      "addr_city": "Allentown",
      "addr_postcode": "18109",
      "addr_street": "Union Boulevard",
      "addr_housenumber": "462",
      "value": 43.326329384003095
    },
    {
      "id": 124592,
      "geometry": "POINT (-75.459831 40.614933)",
      "poi_name": "Betza's",
      "osm_id": 6923695277,
      "amenity": "restaurant",
      "addr_state": "PA",
      "addr_city": "Allentown",
      "addr_postcode": "18109",
      "addr_street": "North Front Street",
      "addr_housenumber": "602",
      "value": 43.326329384003095
    },
    {
      "id": 124593,
      "geometry": "POINT (-75.462767 40.615764)",
      "poi_name": "Jack's Pizza",
      "osm_id": 6923701397,
      "amenity": "restaurant",
      "cuisine": "pizza",
      "addr_state": "PA",
      "addr_city": "Allentown",
      "addr_postcode": "18109",
      "addr_street": "Tilghman Street",
      "addr_housenumber": "155",
      "value": 43.326329384003095
    },
    {
      "id": 124594,
      "geometry": "POINT (-75.46416 40.615494)",
      "poi_name": "Saado's",
      "osm_id": 6923701401,
      "amenity": "restaurant",
      "addr_state": "PA",
      "addr_city": "Allentown",
      "addr_postcode": "18109",
      "addr_street": "Tilghman Street",
      "addr_housenumber": "189",
      "value": 43.326329384003095
    },
    {
      "id": 124852,
      "geometry": "POINT (-75.469992 40.607347)",
      "poi_name": "Ikee's Corner",
      "osm_id": 6935899820,
      "amenity": "restaurant",
      "addr_city": "Allentown",
      "addr_postcode": "18102",
      "addr_street": "North 5th Street",
      "addr_housenumber": "248",
      "value": 43.326329384003095
    },
    {
      "id": 124649,
      "geometry": "POINT (-75.462966 40.612407)",
      "poi_name": "Damascus",
      "osm_id": 6925565831,
      "amenity": "restaurant",
      "addr_state": "PA",
      "addr_city": "Allentown",
      "addr_postcode": "18109",
      "addr_street": "North 2nd Street",
      "addr_housenumber": "449",
      "value": 43.326329384003095
    },
    {
      "id": 124785,
      "geometry": "POINT (-75.47052 40.60022)",
      "poi_name": "Happy Sandwich",
      "osm_id": 6931245747,
      "amenity": "restaurant",
      "addr_state": "PA",
      "addr_city": "Allentown",
      "addr_postcode": "18101",
      "addr_street": "South 7th Street",
      "addr_housenumber": "123",
      "value": 43.326329384003095
    },
    {
      "id": 124787,
      "geometry": "POINT (-75.468992 40.602814)",
      "poi_name": "Tacos y Tequila",
      "osm_id": 6932056535,
      "amenity": "restaurant",
      "cuisine": "mexican",
      "addr_state": "PA",
      "addr_city": "Allentown",
      "addr_postcode": "18101",
      "addr_street": "Hamilton Street",
      "addr_housenumber": "530",
      "value": 43.326329384003095
    },
    {
      "id": 124788,
      "geometry": "POINT (-75.47187 40.603116)",
      "poi_name": "Queen City BBQ",
      "osm_id": 6932056548,
      "amenity": "restaurant",
      "addr_state": "PA",
      "addr_city": "Allentown",
      "addr_postcode": "18101",
      "addr_street": "North 7th Street",
      "addr_housenumber": "27",
      "value": 43.326329384003095
    },
    {
      "id": 124789,
      "geometry": "POINT (-75.474327 40.602985)",
      "poi_name": "Tu Mundo",
      "osm_id": 6932056551,
      "amenity": "restaurant",
      "addr_state": "PA",
      "addr_city": "Allentown",
      "addr_postcode": "18101",
      "addr_street": "North 8th Street",
      "addr_housenumber": "44",
      "value": 43.326329384003095
    },
    {
      "id": 124650,
      "geometry": "POINT (-75.46065 40.61147)",
      "poi_name": "El Castillo del Caribe",
      "osm_id": 6925565856,
      "amenity": "restaurant",
      "addr_city": "Allentown",
      "addr_postcode": "18102",
      "addr_street": "Ridge Avenue",
      "addr_housenumber": "346",
      "value": 43.326329384003095
    },
    {
      "id": 124683,
      "geometry": "POINT (-75.460748 40.606535)",
      "poi_name": "Aci Halal",
      "osm_id": 6925903766,
      "amenity": "restaurant",
      "addr_city": "Allentown",
      "addr_postcode": "18101",
      "addr_street": "North 2nd Street",
      "addr_housenumber": "34",
      "value": 43.326329384003095
    },
    {
      "id": 124686,
      "geometry": "POINT (-75.460961 40.605758)",
      "poi_name": "Tu Nueva Casa",
      "osm_id": 6925915957,
      "amenity": "restaurant",
      "addr_city": "Allentown",
      "addr_postcode": "18101",
      "addr_street": "Hamilton Street",
      "addr_housenumber": "223",
      "value": 43.326329384003095
    },
    {
      "id": 124688,
      "geometry": "POINT (-75.461524 40.605623)",
      "poi_name": "Sarandonga",
      "osm_id": 6925915962,
      "amenity": "restaurant",
      "addr_city": "Allentown",
      "addr_postcode": "18101",
      "addr_street": "Hamilton Street",
      "addr_housenumber": "223",
      "value": 43.326329384003095
    },
    {
      "id": 124883,
      "geometry": "POINT (-75.470403 40.613169)",
      "poi_name": "Sandwichera El Punto",
      "osm_id": 6937616360,
      "amenity": "restaurant",
      "addr_state": "PA",
      "addr_city": "Allentown",
      "addr_postcode": "18102",
      "addr_street": "Tilghman Street",
      "addr_housenumber": "410",
      "value": 43.326329384003095
    },
    {
      "id": 124901,
      "geometry": "POINT (-75.473963 40.611098)",
      "poi_name": "A1 Pizza & Mini Mart",
      "osm_id": 6939882553,
      "amenity": "restaurant",
      "addr_city": "Allentown",
      "addr_postcode": "18102",
      "addr_street": "North 6th Street",
      "addr_housenumber": "602",
      "value": 43.326329384003095
    },
    {
      "id": 126915,
      "geometry": "POINT (-75.749214 41.062481)",
      "poi_name": "IHOP",
      "osm_id": 8013840953,
      "amenity": "restaurant",
      "cuisine": "breakfast;pancake",
      "addr_state": "PA",
      "addr_city": "White Haven",
      "addr_postcode": "18661",
      "addr_street": "Route 534",
      "addr_housenumber": "2550",
      "value": 43.326329384003095
    },
    {
      "id": 126049,
      "geometry": "POINT (-75.490335 40.643392)",
      "poi_name": "Maza Middle Eastern",
      "osm_id": 6982908555,
      "amenity": "restaurant",
      "addr_state": "PA",
      "addr_city": "Whitehall",
      "addr_postcode": "18052",
      "addr_street": "Mickley Avenue",
      "addr_housenumber": "2449",
      "value": 43.326329384003095
    },
    {
      "id": 124940,
      "geometry": "POINT (-75.475859 40.611789)",
      "poi_name": "Hop Po",
      "osm_id": 6943100158,
      "amenity": "restaurant",
      "cuisine": "chinese",
      "addr_state": "PA",
      "addr_city": "Allentown",
      "addr_postcode": "18102",
      "addr_street": "North 7th Street",
      "addr_housenumber": "647",
      "value": 43.326329384003095
    },
    {
      "id": 124941,
      "geometry": "POINT (-75.47573 40.611105)",
      "poi_name": "Winston's",
      "osm_id": 6943100182,
      "amenity": "restaurant",
      "cuisine": "jamaican",
      "addr_state": "PA",
      "addr_city": "Allentown",
      "addr_postcode": "18102",
      "addr_street": "North 7th Street",
      "addr_housenumber": "619",
      "value": 43.326329384003095
    },
    {
      "id": 124945,
      "geometry": "POINT (-75.475763 40.610365)",
      "poi_name": "Rincon del Pueblo Restaurant",
      "osm_id": 6943158014,
      "amenity": "restaurant",
      "cuisine": "latin_american",
      "addr_state": "PA",
      "addr_city": "Allentown",
      "addr_postcode": "18102",
      "addr_street": "North 7th Street",
      "addr_housenumber": "546",
      "value": 43.326329384003095
    },
    {
      "id": 124947,
      "geometry": "POINT (-75.475192 40.609961)",
      "poi_name": "Casa Latina",
      "osm_id": 6943158022,
      "amenity": "restaurant",
      "cuisine": "latin_american",
      "addr_state": "PA",
      "addr_city": "Allentown",
      "addr_postcode": "18102",
      "addr_street": "North 7th Street",
      "addr_housenumber": "527",
      "value": 43.326329384003095
    },
    {
      "id": 124949,
      "geometry": "POINT (-75.475032 40.609634)",
      "poi_name": "New York Gyro",
      "osm_id": 6943158031,
      "amenity": "restaurant",
      "addr_state": "PA",
      "addr_city": "Allentown",
      "addr_postcode": "18102",
      "addr_street": "North 7th Street",
      "addr_housenumber": "513",
      "value": 43.326329384003095
    },
    {
      "id": 124950,
      "geometry": "POINT (-75.474878 40.609331)",
      "poi_name": "Happy Garden",
      "osm_id": 6943158040,
      "amenity": "restaurant",
      "cuisine": "chinese",
      "addr_state": "PA",
      "addr_city": "Allentown",
      "addr_postcode": "18102",
      "addr_street": "North 7th Street",
      "addr_housenumber": "501",
      "value": 43.326329384003095
    },
    {
      "id": 124954,
      "geometry": "POINT (-75.475088 40.608973)",
      "poi_name": "Pho Le",
      "osm_id": 6943186641,
      "amenity": "restaurant",
      "cuisine": "vietnamese",
      "addr_state": "PA",
      "addr_city": "Allentown",
      "addr_postcode": "18102",
      "addr_street": "North 7th Street",
      "addr_housenumber": "446",
      "value": 43.326329384003095
    },
    {
      "id": 124955,
      "geometry": "POINT (-75.474787 40.608362)",
      "poi_name": "Las Orquideas Colombian Bakery & Restaurant",
      "osm_id": 6943186645,
      "amenity": "restaurant",
      "addr_state": "PA",
      "addr_city": "Allentown",
      "addr_postcode": "18102",
      "addr_street": "North 7th Street",
      "addr_housenumber": "426",
      "value": 43.326329384003095
    },
    {
      "id": 124957,
      "geometry": "POINT (-75.473982 40.607406)",
      "poi_name": "China Wok",
      "osm_id": 6943186661,
      "amenity": "restaurant",
      "cuisine": "chinese",
      "addr_state": "PA",
      "addr_city": "Allentown",
      "addr_postcode": "18102",
      "addr_street": "North 7th Street",
      "addr_housenumber": "333",
      "value": 43.326329384003095
    },
    {
      "id": 127379,
      "geometry": "POINT (-75.679997 40.883738)",
      "poi_name": "Roadies Restaurant and Bar",
      "osm_id": 8060841147,
      "amenity": "restaurant",
      "addr_state": "PA",
      "addr_city": "Jim Thorpe",
      "addr_postcode": "18229",
      "addr_street": "Maury Road",
      "addr_housenumber": "325",
      "value": 43.326329384003095
    },
    {
      "id": 127175,
      "geometry": "POINT (-75.587106 41.059649)",
      "poi_name": "Louie's Prime",
      "osm_id": 8038493500,
      "amenity": "restaurant",
      "cuisine": "steak_house",
      "addr_state": "PA",
      "addr_city": "Lake Harmony",
      "addr_postcode": "18624",
      "addr_street": "Lake Harmony Road",
      "addr_housenumber": "244",
      "value": 43.326329384003095
    },
    {
      "id": 127177,
      "geometry": "POINT (-75.591186 41.060592)",
      "poi_name": "Piggy's",
      "osm_id": 8038556490,
      "amenity": "restaurant",
      "addr_state": "PA",
      "addr_city": "Lake Harmony",
      "addr_postcode": "18624",
      "addr_street": "North Lake Drive",
      "addr_housenumber": "16",
      "value": 43.326329384003095
    },
    {
      "id": 127534,
      "geometry": "POINT (-75.681139 40.904319)",
      "poi_name": "Trattoria 903",
      "osm_id": 8071779648,
      "amenity": "restaurant",
      "cuisine": "italian",
      "addr_state": "PA",
      "addr_city": "Jim Thorpe",
      "addr_postcode": "18229",
      "addr_street": "Route 903",
      "addr_housenumber": "874",
      "value": 43.326329384003095
    },
    {
      "id": 127536,
      "geometry": "POINT (-75.673806 40.911695)",
      "poi_name": "Julio's",
      "osm_id": 8071875787,
      "amenity": "restaurant",
      "cuisine": "pizza",
      "addr_state": "PA",
      "addr_city": "Jim Thorpe",
      "addr_postcode": "18229",
      "addr_street": "PA-903",
      "addr_housenumber": "995",
      "value": 43.326329384003095
    },
    {
      "id": 129603,
      "geometry": "POINT (-75.335271 40.626803)",
      "poi_name": "Portugalia BBQ",
      "osm_id": 9831810204,
      "amenity": "restaurant",
      "addr_state": "PA",
      "addr_city": "Freemansburg",
      "addr_postcode": "18017",
      "addr_street": "Main Street",
      "addr_housenumber": "324",
      "value": 43.326329384003095
    },
    {
      "id": 127917,
      "geometry": "POINT (-75.478073 40.662545)",
      "poi_name": "Slovak Center",
      "osm_id": 8109516030,
      "amenity": "restaurant",
      "addr_city": "North Catasauqua",
      "addr_postcode": "18032",
      "addr_street": "5th Street",
      "addr_housenumber": "1233",
      "value": 43.326329384003095
    },
    {
      "id": 128188,
      "geometry": "POINT (-75.20875 40.689271)",
      "poi_name": "Antonio's Pizzeria",
      "osm_id": 8132598528,
      "amenity": "restaurant",
      "phone": "+1 610 253 9977",
      "addr_state": "PA",
      "addr_city": "Easton",
      "addr_postcode": "18042",
      "addr_street": "South 3rd Street",
      "addr_housenumber": "114",
      "value": 43.326329384003095
    },
    {
      "id": 128190,
      "geometry": "POINT (-75.210286 40.68704)",
      "poi_name": "Great Wall",
      "osm_id": 8132598530,
      "amenity": "restaurant",
      "website": "https://www.greatwalleaston.com/",
      "phone": "+1 610 252 7700",
      "addr_state": "PA",
      "addr_city": "Easton",
      "addr_postcode": "18042",
      "addr_street": "Larry Holmes Drive",
      "addr_housenumber": "390",
      "value": 43.326329384003095
    },
    {
      "id": 128734,
      "geometry": "POINT (-75.208959 40.691919)",
      "poi_name": "Tandoor Grill",
      "osm_id": 8181529506,
      "amenity": "restaurant",
      "cuisine": "indian",
      "opening_hours": "Mo off; Tu-Su 11:00-22:00",
      "website": "https://tandoor-grill-restaurant.business.site/",
      "phone": "610.250.1922",
      "addr_state": "PA",
      "addr_city": "Easton",
      "addr_postcode": "18042",
      "addr_street": "North 3rd Street",
      "addr_housenumber": "9",
      "value": 43.326329384003095
    },
    {
      "id": 128735,
      "geometry": "POINT (-75.209373 40.691786)",
      "poi_name": "Ciao! Sandwich Shoppe",
      "osm_id": 8181529510,
      "amenity": "restaurant",
      "opening_hours": "11:00-16:00",
      "website": "https://www.eatatciao.com/",
      "phone": "610.510.0295",
      "addr_state": "PA",
      "addr_city": "Easton",
      "addr_postcode": "18042",
      "addr_street": "North 3rd Street",
      "addr_housenumber": "12",
      "value": 43.326329384003095
    },
    {
      "id": 128736,
      "geometry": "POINT (-75.209433 40.692186)",
      "poi_name": "Tokyo Sushi",
      "osm_id": 8181555386,
      "amenity": "restaurant",
      "cuisine": "sushi",
      "opening_hours": "Mo-Th 11:00-21:30; Fr-Sa 11:00-22:30; Su 12:00-21:00",
      "website": "https://www.tokyosushieastonpa.com/",
      "phone": "610.559.8888",
      "addr_state": "PA",
      "addr_city": "Easton",
      "addr_postcode": "18042",
      "addr_street": "North 3rd Street",
      "addr_housenumber": "22",
      "value": 43.326329384003095
    },
    {
      "id": 128737,
      "geometry": "POINT (-75.216334 40.690568)",
      "poi_name": "Daddy's Place",
      "osm_id": 8181555387,
      "amenity": "restaurant",
      "cuisine": "mediterranean",
      "website": "http://daddysplaceeaston.com",
      "phone": "610.438.4442",
      "addr_state": "PA",
      "addr_city": "Easton",
      "addr_postcode": "18042",
      "addr_street": "Northampton Street",
      "addr_housenumber": "650",
      "value": 43.326329384003095
    },
    {
      "id": 128738,
      "geometry": "POINT (-75.211313 40.691501)",
      "poi_name": "Angelo's Restaurant",
      "osm_id": 8181555389,
      "amenity": "restaurant",
      "cuisine": "american",
      "phone": "610.252.6956",
      "addr_state": "PA",
      "addr_city": "Easton",
      "addr_postcode": "18042",
      "addr_street": "North 4th Street",
      "addr_housenumber": "14",
      "value": 43.326329384003095
    },
    {
      "id": 128739,
      "geometry": "POINT (-75.221305 40.718198)",
      "poi_name": "Jasmine Japanese and Thai Restaurant",
      "osm_id": 8181626311,
      "amenity": "restaurant",
      "cuisine": "asian",
      "website": "http://www.jasminesushiandthai.com/",
      "phone": "610.438.8811",
      "addr_state": "PA",
      "addr_city": "Easton",
      "addr_postcode": "18040",
      "addr_street": "Sullivan Trail (Old Route 115)",
      "addr_housenumber": "1855",
      "value": 43.326329384003095
    },
    {
      "id": 128740,
      "geometry": "POINT (-75.214618 40.691105)",
      "poi_name": "Magic Wok",
      "osm_id": 8181626312,
      "amenity": "restaurant",
      "cuisine": "chinese",
      "website": "http://places.singleplatform.com/magic-wok-36/menu",
      "phone": "610.438.2083",
      "addr_state": "PA",
      "addr_city": "Easton",
      "addr_postcode": "18042",
      "addr_street": "Northampton Street",
      "addr_housenumber": "601",
      "value": 43.326329384003095
    },
    {
      "id": 128741,
      "geometry": "POINT (-75.213373 40.69087)",
      "poi_name": "Casa di Franco Pizzeria",
      "osm_id": 8181626315,
      "amenity": "restaurant",
      "cuisine": "pizza",
      "website": "https://www.casadifrancopizzeria.com/",
      "phone": "610.258.3268",
      "addr_state": "PA",
      "addr_city": "Easton",
      "addr_postcode": "18042",
      "addr_street": "Northampton Street",
      "addr_housenumber": "506",
      "value": 43.326329384003095
    },
    {
      "id": 128742,
      "geometry": "POINT (-75.218164 40.687939)",
      "poi_name": "My New Place Pizzeria & Italian Restaurant",
      "osm_id": 8181635617,
      "amenity": "restaurant",
      "cuisine": "pizza",
      "website": "https://www.mynewplacepizzeria1.com/",
      "phone": "610.253.3387",
      "addr_state": "PA",
      "addr_city": "Easton",
      "addr_postcode": "18042",
      "addr_street": "South 7th Street",
      "addr_housenumber": "153",
      "value": 43.326329384003095
    },
    {
      "id": 128743,
      "geometry": "POINT (-75.222659 40.690729)",
      "poi_name": "1001 Thai",
      "osm_id": 8181635619,
      "amenity": "restaurant",
      "cuisine": "thai",
      "website": "http://1001thai.com/",
      "phone": "610.252.1001",
      "addr_state": "PA",
      "addr_city": "Easton",
      "addr_postcode": "18042",
      "addr_street": "Northampton Street",
      "addr_housenumber": "1001",
      "value": 43.326329384003095
    },
    {
      "id": 128744,
      "geometry": "POINT (-75.224287 40.690347)",
      "poi_name": "Easton Taco & Rotisserie",
      "osm_id": 8181635622,
      "amenity": "restaurant",
      "cuisine": "mexican",
      "website": "http://www.eastontaco.com/",
      "phone": "610.438.0974",
      "addr_state": "PA",
      "addr_city": "Easton",
      "addr_postcode": "18042",
      "addr_street": "Northampton Street",
      "addr_housenumber": "1054",
      "value": 43.326329384003095
    },
    {
      "id": 128745,
      "geometry": "POINT (-75.22569 40.690571)",
      "poi_name": "Joe's Pizza",
      "osm_id": 8181635623,
      "amenity": "restaurant",
      "cuisine": "pizza",
      "website": "https://www.joespizzaofeaston.com/",
      "phone": "610.252.2342",
      "addr_state": "PA",
      "addr_city": "Easton",
      "addr_postcode": "18042",
      "addr_street": "Northampton Street",
      "addr_housenumber": "1133",
      "value": 43.326329384003095
    },
    {
      "id": 128746,
      "geometry": "POINT (-75.226481 40.690237)",
      "poi_name": "House of Chen",
      "osm_id": 8181635624,
      "amenity": "restaurant",
      "cuisine": "chinese",
      "website": "https://www.houseofcheneaston.com/",
      "phone": "610.330.6990",
      "addr_state": "PA",
      "addr_city": "Easton",
      "addr_postcode": "18042",
      "addr_street": "Northampton Street",
      "addr_housenumber": "1200",
      "value": 43.326329384003095
    },
    {
      "id": 128749,
      "geometry": "POINT (-75.209215 40.689134)",
      "poi_name": "Billy's Downtown Diner",
      "osm_id": 8181758596,
      "amenity": "restaurant",
      "website": "https://www.billysdiner.com/easton/",
      "phone": "610.438.3100",
      "addr_state": "PA",
      "addr_city": "Easton",
      "addr_postcode": "18042",
      "addr_street": "South 3rd Street",
      "addr_housenumber": "123",
      "value": 43.326329384003095
    },
    {
      "id": 128750,
      "geometry": "POINT (-75.21295 40.690632)",
      "poi_name": "The State Cafe and Grill",
      "osm_id": 8181767018,
      "amenity": "restaurant",
      "cuisine": "breakfast",
      "website": "http://www.thestatecafeandgrill.net/",
      "phone": "610.829.0188",
      "addr_state": "PA",
      "addr_city": "Easton",
      "addr_postcode": "18042",
      "addr_street": "South 5th Street",
      "addr_housenumber": "14",
      "value": 43.326329384003095
    },
    {
      "id": 128752,
      "geometry": "POINT (-75.206705 40.691193)",
      "poi_name": "Greek Meat Guy",
      "osm_id": 8181767027,
      "amenity": "restaurant",
      "cuisine": "greek",
      "phone": "610.252.2002",
      "takeaway": "yes",
      "outdoor_seating": "yes",
      "delivery": "yes",
      "addr_state": "PA",
      "addr_city": "Easton",
      "addr_postcode": "18042",
      "addr_street": "Northampton Street",
      "addr_housenumber": "154",
      "value": 43.326329384003095
    },
    {
      "id": 129081,
      "geometry": "POINT (-75.490286 40.642598)",
      "poi_name": "China Hut",
      "osm_id": 8210322223,
      "amenity": "restaurant",
      "cuisine": "chinese",
      "addr_state": "PA",
      "addr_city": "Whitehall",
      "addr_postcode": "18052",
      "addr_street": "MacArthur Road",
      "addr_housenumber": "2415",
      "value": 43.326329384003095
    },
    {
      "id": 129613,
      "geometry": "POINT (-75.339073 40.647436)",
      "poi_name": "Chopstix Express",
      "osm_id": 9832052223,
      "amenity": "restaurant",
      "cuisine": "chinese",
      "addr_state": "PA",
      "addr_city": "Bethlehem",
      "addr_postcode": "18017",
      "addr_street": "Easton Avenue",
      "addr_housenumber": "2910",
      "value": 43.326329384003095
    },
    {
      "id": 129946,
      "geometry": "POINT (-75.907602 41.003996)",
      "poi_name": "Purple Rose Cafe",
      "osm_id": 9847259138,
      "amenity": "restaurant",
      "addr_state": "PA",
      "addr_city": "Freeland",
      "addr_postcode": "18224",
      "addr_street": "PA 940",
      "addr_housenumber": "2202",
      "value": 43.326329384003095
    },
    {
      "id": 130405,
      "geometry": "POINT (-75.570762 40.768011)",
      "poi_name": "Berlinsville Hotel",
      "osm_id": 9870510768,
      "amenity": "restaurant",
      "addr_state": "PA",
      "addr_city": "Walnutport",
      "addr_postcode": "18088",
      "addr_street": "Lehigh Drive",
      "addr_housenumber": "4588",
      "value": 43.326329384003095
    },
    {
      "id": 130406,
      "geometry": "POINT (-75.539743 40.754236)",
      "poi_name": "Cherryville Pizza & Pub",
      "osm_id": 9870510769,
      "amenity": "restaurant",
      "cuisine": "pizza",
      "addr_state": "PA",
      "addr_city": "Cherryville",
      "addr_postcode": "18035",
      "addr_street": "Lehigh Drive",
      "addr_housenumber": "4209",
      "value": 43.326329384003095
    },
    {
      "id": 130534,
      "geometry": "POINT (-75.492026 40.673223)",
      "poi_name": "The Bacon Strip",
      "osm_id": 9875328298,
      "amenity": "restaurant",
      "addr_state": "PA",
      "addr_city": "Coplay",
      "addr_postcode": "18037",
      "addr_street": "North 2nd Street",
      "addr_housenumber": "18",
      "value": 43.326329384003095
    },
    {
      "id": 130535,
      "geometry": "POINT (-75.49271 40.674339)",
      "poi_name": "Vany's Pizza",
      "osm_id": 9875328310,
      "amenity": "restaurant",
      "cuisine": "pizza",
      "addr_state": "PA",
      "addr_city": "Coplay",
      "addr_postcode": "18037",
      "addr_street": "Chestnut Street",
      "addr_housenumber": "123",
      "value": 43.326329384003095
    },
    {
      "id": 130536,
      "geometry": "POINT (-75.493 40.674429)",
      "poi_name": "Samuel Owens Casual Family Dining",
      "osm_id": 9875328312,
      "amenity": "restaurant",
      "addr_state": "PA",
      "addr_city": "Coplay",
      "addr_postcode": "18037",
      "addr_street": "Chestnut Street",
      "addr_housenumber": "128",
      "value": 43.326329384003095
    },
    {
      "id": 136079,
      "geometry": "POINT (-75.30019 40.831583)",
      "poi_name": "American Lobster",
      "osm_id": 11559434952,
      "amenity": "restaurant",
      "cuisine": "seafood",
      "website": "https://www.american-lobster.com",
      "phone": "+1-610-881-4031",
      "addr_state": "PA",
      "addr_city": "Wind Gap",
      "addr_postcode": "18091",
      "addr_street": "Jacobsburg Road",
      "addr_housenumber": "1420",
      "value": 43.326329384003095
    },
    {
      "id": 138262,
      "geometry": "POINT (-75.470061 40.602468)",
      "poi_name": "Bell Hall",
      "osm_id": 6139345107,
      "amenity": "restaurant",
      "cuisine": "bar&grill",
      "addr_state": "PA",
      "addr_city": "Allentown",
      "addr_postcode": "18101",
      "addr_street": "West Hamilton Street",
      "addr_housenumber": "612",
      "value": 43.326329384003095
    },
    {
      "id": 138787,
      "geometry": "POINT (-75.388369 40.622592)",
      "poi_name": "Lester's Way Cafe",
      "osm_id": 6169323706,
      "amenity": "restaurant",
      "cuisine": "american",
      "opening_hours": "Mo-Fr 08:00-17:00; Sa 08:00-15:00",
      "phone": "+1 610 419 4814",
      "takeaway": "yes",
      "delivery": "yes",
      "addr_state": "PA",
      "addr_city": "Bethlehem",
      "addr_postcode": "18018",
      "addr_street": "West Broad Street",
      "addr_housenumber": "404",
      "value": 43.326329384003095
    },
    {
      "id": 138788,
      "geometry": "POINT (-75.389399 40.62261)",
      "poi_name": "Santoro's Franks & Chili",
      "osm_id": 6169323740,
      "amenity": "restaurant",
      "cuisine": "american",
      "opening_hours": "Mo-Sa 11:00-19:00",
      "website": "https://santorosfranks.com/",
      "phone": "+1 610 867-3000",
      "takeaway": "yes",
      "outdoor_seating": "yes",
      "delivery": "yes",
      "addr_state": "PA",
      "addr_city": "Bethlehem",
      "addr_postcode": "18018",
      "addr_street": "West Broad Street",
      "addr_housenumber": "432",
      "value": 43.326329384003095
    },
    {
      "id": 139589,
      "geometry": "POINT (-75.387122 40.607465)",
      "poi_name": "Sabor Dominicano de Lulu",
      "osm_id": 6204630832,
      "amenity": "restaurant",
      "addr_state": "PA",
      "addr_city": "Bethlehem",
      "addr_postcode": "18015",
      "addr_street": "Broadway",
      "addr_housenumber": "558",
      "value": 43.326329384003095
    },
    {
      "id": 139622,
      "geometry": "POINT (-75.384398 40.609131)",
      "poi_name": "Pete's Hot Dogs",
      "osm_id": 6206301358,
      "amenity": "restaurant",
      "addr_state": "PA",
      "addr_city": "Bethlehem",
      "addr_postcode": "18015",
      "addr_street": "Broadway",
      "addr_housenumber": "400",
      "value": 43.326329384003095
    },
    {
      "id": 139623,
      "geometry": "POINT (-75.384491 40.609384)",
      "poi_name": "Olive Branch",
      "osm_id": 6206301359,
      "amenity": "restaurant",
      "addr_state": "PA",
      "addr_city": "Bethlehem",
      "addr_postcode": "18015",
      "addr_street": "Broadway",
      "addr_housenumber": "355",
      "value": 43.326329384003095
    },
    {
      "id": 139624,
      "geometry": "POINT (-75.384351 40.60946)",
      "poi_name": "Thai Kitchen",
      "osm_id": 6206301361,
      "amenity": "restaurant",
      "addr_state": "PA",
      "addr_city": "Bethlehem",
      "addr_postcode": "18015",
      "addr_street": "Broadway",
      "addr_housenumber": "347",
      "value": 43.326329384003095
    },
    {
      "id": 139642,
      "geometry": "POINT (-75.378414 40.612095)",
      "poi_name": "Shang Wei Szechuan",
      "osm_id": 6206792389,
      "amenity": "restaurant",
      "cuisine": "chinese",
      "opening_hours": "Mo-Th 11:00-21:45; Fr-Sa 11:00-22:30; Su 11:30-21:45",
      "website": "https://www.shangweiszechuan.com/",
      "phone": "+1 610 882 1248",
      "takeaway": "yes",
      "delivery": "yes",
      "addr_state": "PA",
      "addr_city": "Bethlehem",
      "addr_postcode": "18015",
      "addr_street": "East 3rd Street",
      "addr_housenumber": "1",
      "value": 43.326329384003095
    },
    {
      "id": 139999,
      "geometry": "POINT (-75.381721 40.624305)",
      "poi_name": "Mexico Lindo",
      "osm_id": 6225481114,
      "amenity": "restaurant",
      "cuisine": "mexican",
      "opening_hours": "Su-Th 11:00-20:00; Fr-Sa 11:00-22:00",
      "phone": "+1 610 691 5141",
      "takeaway": "yes",
      "addr_state": "PA",
      "addr_city": "Bethlehem",
      "addr_postcode": "18018",
      "addr_street": "Main Street",
      "addr_housenumber": "720",
      "value": 43.326329384003095
    },
    {
      "id": 139883,
      "geometry": "POINT (-75.346817 40.640012)",
      "poi_name": "Buona Cucina",
      "osm_id": 6219840092,
      "amenity": "restaurant",
      "cuisine": "pizza",
      "addr_state": "PA",
      "addr_city": "Bethlehem",
      "addr_postcode": "18017",
      "addr_street": "Irene Street",
      "addr_housenumber": "1519",
      "value": 43.326329384003095
    },
    {
      "id": 139885,
      "geometry": "POINT (-75.348673 40.637716)",
      "poi_name": "La Borinquena",
      "osm_id": 6219855055,
      "amenity": "restaurant",
      "addr_state": "PA",
      "addr_city": "Bethlehem",
      "addr_postcode": "18017",
      "addr_street": "Stefko Boulevard",
      "addr_housenumber": "1880",
      "value": 43.326329384003095
    },
    {
      "id": 139760,
      "geometry": "POINT (-75.369234 40.610805)",
      "poi_name": "Jasmine Restaurant",
      "osm_id": 6215093534,
      "amenity": "restaurant",
      "addr_state": "PA",
      "addr_city": "Bethlehem",
      "addr_postcode": "18015",
      "addr_street": "East 4th Street",
      "addr_housenumber": "701",
      "value": 43.326329384003095
    },
    {
      "id": 139927,
      "geometry": "POINT (-75.372374 40.622375)",
      "poi_name": "Tre Scalini Ristorante",
      "osm_id": 6221940190,
      "amenity": "restaurant",
      "cuisine": "italian",
      "addr_state": "PA",
      "addr_city": "Bethlehem",
      "addr_postcode": "18018",
      "addr_street": "East Broad Street",
      "addr_housenumber": "221",
      "value": 43.326329384003095
    },
    {
      "id": 139928,
      "geometry": "POINT (-75.373464 40.622386)",
      "poi_name": "Sibris",
      "osm_id": 6221940194,
      "amenity": "restaurant",
      "addr_state": "PA",
      "addr_city": "Bethlehem",
      "addr_postcode": "18018",
      "addr_street": "East Broad Street",
      "addr_housenumber": "147",
      "value": 43.326329384003095
    },
    {
      "id": 140267,
      "geometry": "POINT (-75.41879 40.629116)",
      "poi_name": "Pho Viet Royal",
      "osm_id": 6238108286,
      "amenity": "restaurant",
      "cuisine": "vietnamese",
      "addr_state": "PA",
      "addr_city": "Bethlehem",
      "addr_postcode": "18018",
      "addr_street": "West Union Boulevard",
      "addr_housenumber": "2126",
      "value": 43.326329384003095
    },
    {
      "id": 142347,
      "geometry": "POINT (-75.410373 40.64909)",
      "poi_name": "Cactus Blue",
      "osm_id": 6311941164,
      "amenity": "restaurant",
      "cuisine": "mexican",
      "addr_state": "PA",
      "addr_city": "Bethlehem",
      "addr_postcode": "18017",
      "addr_street": "Schoenersville Road",
      "addr_housenumber": "2915",
      "value": 43.326329384003095
    },
    {
      "id": 142233,
      "geometry": "POINT (-75.423719 40.635441)",
      "poi_name": "Drake's Pizza",
      "osm_id": 6307326504,
      "amenity": "restaurant",
      "cuisine": "pizza",
      "addr_state": "PA",
      "addr_city": "Allentown",
      "addr_postcode": "18109",
      "addr_street": "Pennsylvania Avenue",
      "addr_housenumber": "1452",
      "value": 43.326329384003095
    },
    {
      "id": 142348,
      "geometry": "POINT (-75.410457 40.649178)",
      "poi_name": "Reunion",
      "osm_id": 6311941176,
      "amenity": "restaurant",
      "cuisine": "chinese",
      "addr_state": "PA",
      "addr_city": "Bethlehem",
      "addr_postcode": "18017",
      "addr_street": "Schoenersville Road",
      "addr_housenumber": "2915",
      "value": 43.326329384003095
    },
    {
      "id": 142355,
      "geometry": "POINT (-75.418387 40.65703)",
      "poi_name": "Asian Bistros II",
      "osm_id": 6311987074,
      "amenity": "restaurant",
      "cuisine": "asian",
      "addr_state": "PA",
      "addr_city": "Bethlehem",
      "addr_postcode": "18017",
      "addr_street": "Schoenersville Road",
      "addr_housenumber": "3219",
      "value": 43.326329384003095
    },
    {
      "id": 143011,
      "geometry": "POINT (-75.380178 40.623786)",
      "poi_name": "Darto's",
      "osm_id": 6327357707,
      "amenity": "restaurant",
      "addr_state": "PA",
      "addr_city": "Bethlehem",
      "addr_postcode": "18018",
      "addr_street": "West North Street",
      "addr_housenumber": "46",
      "value": 43.326329384003095
    },
    {
      "id": 143348,
      "geometry": "POINT (-75.364366 40.622265)",
      "poi_name": "Flama Tropical",
      "osm_id": 6337896496,
      "amenity": "restaurant",
      "cuisine": "latin_american",
      "addr_state": "PA",
      "addr_city": "Bethlehem",
      "addr_postcode": "18018",
      "addr_street": "East Broad Street",
      "addr_housenumber": "559",
      "value": 43.326329384003095
    },
    {
      "id": 143381,
      "geometry": "POINT (-75.370252 40.625946)",
      "poi_name": "Williams Spanish Restaurant",
      "osm_id": 6338848531,
      "amenity": "restaurant",
      "addr_state": "PA",
      "addr_city": "Bethlehem",
      "addr_postcode": "18018",
      "addr_street": "Linden Street",
      "addr_housenumber": "838",
      "value": 43.326329384003095
    },
    {
      "id": 143382,
      "geometry": "POINT (-75.369979 40.62594)",
      "poi_name": "D' William Restaurant",
      "osm_id": 6338848532,
      "amenity": "restaurant",
      "addr_state": "PA",
      "addr_city": "Bethlehem",
      "addr_postcode": "18018",
      "addr_street": "East Goepp Street",
      "addr_housenumber": "310",
      "value": 43.326329384003095
    },
    {
      "id": 143383,
      "geometry": "POINT (-75.370614 40.625815)",
      "poi_name": "China Star",
      "osm_id": 6338848537,
      "amenity": "restaurant",
      "cuisine": "chinese",
      "addr_state": "PA",
      "addr_city": "Bethlehem",
      "addr_postcode": "18018",
      "addr_street": "Linden Street",
      "addr_housenumber": "827",
      "value": 43.326329384003095
    },
    {
      "id": 143384,
      "geometry": "POINT (-75.370618 40.625761)",
      "poi_name": "Bella Latin Cuisine",
      "osm_id": 6338848538,
      "amenity": "restaurant",
      "addr_state": "PA",
      "addr_city": "Bethlehem",
      "addr_postcode": "18018",
      "addr_street": "Linden Street",
      "addr_housenumber": "825",
      "value": 43.326329384003095
    },
    {
      "id": 143385,
      "geometry": "POINT (-75.370624 40.625642)",
      "poi_name": "Aqui Es",
      "osm_id": 6338848539,
      "amenity": "restaurant",
      "cuisine": "mexican",
      "addr_state": "PA",
      "addr_city": "Bethlehem",
      "addr_postcode": "18018",
      "addr_street": "Linden Street",
      "addr_housenumber": "821",
      "value": 43.326329384003095
    },
    {
      "id": 143387,
      "geometry": "POINT (-75.370667 40.624586)",
      "poi_name": "Villa Vita",
      "osm_id": 6338872239,
      "amenity": "restaurant",
      "cuisine": "pizza",
      "addr_state": "PA",
      "addr_city": "Bethlehem",
      "addr_postcode": "18018",
      "addr_street": "Linden Street",
      "addr_housenumber": "739",
      "value": 43.326329384003095
    },
    {
      "id": 143349,
      "geometry": "POINT (-75.365663 40.626629)",
      "poi_name": "Adagio",
      "osm_id": 6337896519,
      "amenity": "restaurant",
      "addr_state": "PA",
      "addr_city": "Bethlehem",
      "addr_postcode": "18018",
      "addr_street": "Pembroke Road",
      "addr_housenumber": "530",
      "value": 43.326329384003095
    },
    {
      "id": 143481,
      "geometry": "POINT (-75.37554 40.630986)",
      "poi_name": "Wiz Kidz",
      "osm_id": 6342210664,
      "amenity": "restaurant",
      "addr_state": "PA",
      "addr_city": "Bethlehem",
      "addr_postcode": "18018",
      "addr_street": "East Elizabeth Avenue",
      "addr_housenumber": "65",
      "value": 43.326329384003095
    },
    {
      "id": 143549,
      "geometry": "POINT (-75.378511 40.626098)",
      "poi_name": "Johnnie Lustig's Frankfurters",
      "osm_id": 6344037673,
      "amenity": "restaurant",
      "addr_state": "PA",
      "addr_city": "Bethlehem",
      "addr_postcode": "18018",
      "addr_street": "North New Street",
      "addr_housenumber": "835",
      "value": 43.326329384003095
    },
    {
      "id": 143550,
      "geometry": "POINT (-75.381624 40.625795)",
      "poi_name": "Nick's Pizza",
      "osm_id": 6344037679,
      "amenity": "restaurant",
      "addr_state": "PA",
      "addr_city": "Bethlehem",
      "addr_postcode": "18018",
      "addr_street": "Main Street",
      "addr_housenumber": "822",
      "value": 43.326329384003095
    },
    {
      "id": 143553,
      "geometry": "POINT (-75.377446 40.6249)",
      "poi_name": "El Paisano Taqueria",
      "osm_id": 6344053007,
      "amenity": "restaurant",
      "cuisine": "mexican",
      "addr_state": "PA",
      "addr_city": "Bethlehem",
      "addr_postcode": "18018",
      "addr_street": "East Union Boulevard",
      "addr_housenumber": "22",
      "value": 43.326329384003095
    },
    {
      "id": 144167,
      "geometry": "POINT (-75.604878 40.803928)",
      "poi_name": "Hunan House",
      "osm_id": 6366484832,
      "amenity": "restaurant",
      "cuisine": "chinese;sushi",
      "addr_state": "PA",
      "addr_city": "Palmerton",
      "addr_postcode": "18071",
      "addr_street": "Delaware Avenue",
      "addr_housenumber": "493",
      "value": 43.326329384003095
    },
    {
      "id": 143445,
      "geometry": "POINT (-75.367249 40.633549)",
      "poi_name": "Ruby Cafe",
      "osm_id": 6340862871,
      "amenity": "restaurant",
      "addr_state": "PA",
      "addr_city": "Bethlehem",
      "addr_postcode": "18018",
      "addr_street": "Easton Avenue",
      "addr_housenumber": "1519",
      "value": 43.326329384003095
    },
    {
      "id": 143455,
      "geometry": "POINT (-75.374856 40.632381)",
      "poi_name": "Rudy's Diner Bar & Grill",
      "osm_id": 6341470179,
      "amenity": "restaurant",
      "addr_state": "PA",
      "addr_city": "Bethlehem",
      "addr_postcode": "18018",
      "addr_street": "Center Street",
      "addr_housenumber": "1406",
      "value": 43.326329384003095
    },
    {
      "id": 145987,
      "geometry": "POINT (-75.189199 40.688962)",
      "poi_name": "Buck's BBQ",
      "osm_id": 7403310772,
      "amenity": "restaurant",
      "addr_state": "NJ",
      "addr_city": "Phillipsburg",
      "addr_postcode": "08865",
      "addr_street": "Heckman Street",
      "addr_housenumber": "21",
      "value": 43.326329384003095
    },
    {
      "id": 145918,
      "geometry": "POINT (-75.175159 40.687686)",
      "poi_name": "Il Gaetano",
      "osm_id": 7398722436,
      "amenity": "restaurant",
      "cuisine": "italian",
      "addr_state": "NJ",
      "addr_city": "Phillipsburg",
      "addr_postcode": "08865",
      "addr_street": "Columbus Avenue",
      "addr_housenumber": "665",
      "value": 43.326329384003095
    },
    {
      "id": 145919,
      "geometry": "POINT (-75.175422 40.687288)",
      "poi_name": "Jack's Pizzeria",
      "osm_id": 7398722437,
      "amenity": "restaurant",
      "cuisine": "pizza",
      "addr_state": "NJ",
      "addr_city": "Phillipsburg",
      "addr_postcode": "08865",
      "addr_street": "Thomas Street",
      "addr_housenumber": "405",
      "value": 43.326329384003095
    },
    {
      "id": 145890,
      "geometry": "POINT (-75.620818 40.705742)",
      "poi_name": "Country View Diner",
      "osm_id": 7395189184,
      "amenity": "restaurant",
      "addr_state": "PA",
      "addr_city": "Slatington",
      "addr_postcode": "18080",
      "addr_street": "Route 873",
      "addr_housenumber": "6210",
      "value": 43.326329384003095
    },
    {
      "id": 145993,
      "geometry": "POINT (-75.199703 40.68882)",
      "poi_name": "Greek Meat Guy",
      "osm_id": 7403573229,
      "amenity": "restaurant",
      "cuisine": "greek",
      "addr_state": "NJ",
      "addr_city": "Phillipsburg",
      "addr_postcode": "08865",
      "addr_street": "South Main Street",
      "addr_housenumber": "150",
      "value": 43.326329384003095
    },
    {
      "id": 146030,
      "geometry": "POINT (-75.19075 40.695338)",
      "poi_name": "Just Subs & Just Pizza",
      "osm_id": 7406737166,
      "amenity": "restaurant",
      "addr_state": "NJ",
      "addr_city": "Phillipsburg",
      "addr_postcode": "08865",
      "addr_street": "Memorial Parkway",
      "addr_housenumber": "370",
      "value": 43.326329384003095
    },
    {
      "id": 146037,
      "geometry": "POINT (-75.190485 40.700952)",
      "poi_name": "Gabrielle's Pizza & Sub",
      "osm_id": 7407606770,
      "amenity": "restaurant",
      "cuisine": "pizza",
      "addr_state": "NJ",
      "addr_city": "Phillipsburg",
      "addr_postcode": "08865",
      "addr_street": "Belvidere Road",
      "addr_housenumber": "599",
      "value": 43.326329384003095
    },
    {
      "id": 146041,
      "geometry": "POINT (-75.196119 40.68663)",
      "poi_name": "Joe's Steak Shop",
      "osm_id": 7408085368,
      "amenity": "restaurant",
      "addr_state": "NJ",
      "addr_city": "Phillipsburg",
      "addr_postcode": "08865",
      "addr_street": "South Main Street",
      "addr_housenumber": "274",
      "value": 43.326329384003095
    },
    {
      "id": 146043,
      "geometry": "POINT (-75.189307 40.685226)",
      "poi_name": "Tom's Diner",
      "osm_id": 7409070199,
      "amenity": "restaurant",
      "addr_state": "NJ",
      "addr_city": "Phillipsburg",
      "addr_postcode": "08865",
      "addr_street": "South Main Street",
      "addr_housenumber": "473",
      "value": 43.326329384003095
    },
    {
      "id": 146045,
      "geometry": "POINT (-75.192538 40.686367)",
      "poi_name": "Red Chopsticks",
      "osm_id": 7409154696,
      "amenity": "restaurant",
      "cuisine": "chinese",
      "addr_state": "NJ",
      "addr_city": "Phillipsburg",
      "addr_postcode": "08865",
      "addr_street": "South Main Street",
      "addr_housenumber": "375",
      "value": 43.326329384003095
    },
    {
      "id": 145995,
      "geometry": "POINT (-75.201824 40.690349)",
      "poi_name": "SoMa Downtown Grill",
      "osm_id": 7403573266,
      "amenity": "restaurant",
      "addr_state": "NJ",
      "addr_city": "Phillipsburg",
      "addr_postcode": "08865",
      "addr_street": "South Main Street",
      "addr_housenumber": "62",
      "value": 43.326329384003095
    },
    {
      "id": 146047,
      "geometry": "POINT (-75.193194 40.686362)",
      "poi_name": "Rocco's Pizza",
      "osm_id": 7409154702,
      "amenity": "restaurant",
      "cuisine": "pizza",
      "addr_state": "NJ",
      "addr_city": "Phillipsburg",
      "addr_postcode": "08865",
      "addr_street": "South Main Street",
      "addr_housenumber": "360",
      "value": 43.326329384003095
    },
    {
      "id": 146187,
      "geometry": "POINT (-75.174055 40.697379)",
      "poi_name": "Pizza Hut",
      "osm_id": 7417383892,
      "amenity": "restaurant",
      "cuisine": "pizza",
      "addr_state": "NJ",
      "addr_city": "Phillipsburg",
      "addr_postcode": "08865",
      "addr_street": "Memorial Parkway",
      "addr_housenumber": "760",
      "value": 43.326329384003095
    },
    {
      "id": 146189,
      "geometry": "POINT (-75.175734 40.698798)",
      "poi_name": "China Fun",
      "osm_id": 7417383901,
      "amenity": "restaurant",
      "cuisine": "chinese",
      "addr_state": "NJ",
      "addr_city": "Phillipsburg",
      "addr_postcode": "08865",
      "addr_street": "Memorial Parkway",
      "addr_housenumber": "755",
      "value": 43.326329384003095
    },
    {
      "id": 146350,
      "geometry": "POINT (-75.078677 40.829928)",
      "poi_name": "Nonpareil du Monde",
      "osm_id": 7434562579,
      "amenity": "restaurant",
      "addr_state": "NJ",
      "addr_city": "Belvidere",
      "addr_postcode": "07823",
      "addr_street": "Water Street",
      "addr_housenumber": "251",
      "value": 43.326329384003095
    },
    {
      "id": 146351,
      "geometry": "POINT (-75.077563 40.829814)",
      "poi_name": "China Inn",
      "osm_id": 7434588119,
      "amenity": "restaurant",
      "cuisine": "chinese",
      "addr_city": "Belvidere",
      "addr_postcode": "07823",
      "addr_street": "Water Street",
      "addr_housenumber": "314",
      "value": 43.326329384003095
    },
    {
      "id": 146352,
      "geometry": "POINT (-75.075629 40.830322)",
      "poi_name": "Little John's",
      "osm_id": 7434588126,
      "amenity": "restaurant",
      "cuisine": "pizza",
      "addr_city": "Belvidere",
      "addr_postcode": "07823",
      "addr_street": "Water Street",
      "addr_housenumber": "401",
      "value": 43.326329384003095
    },
    {
      "id": 148447,
      "geometry": "POINT (-75.204952 40.865857)",
      "poi_name": "Blue Mesa",
      "osm_id": 3953714336,
      "amenity": "restaurant",
      "cuisine": "mexican",
      "addr_state": "PA",
      "addr_city": "Bangor",
      "addr_postcode": "18013",
      "addr_street": "Broadway",
      "addr_housenumber": "15",
      "value": 43.326329384003095
    },
    {
      "id": 148014,
      "geometry": "POINT (-75.382275 40.620063)",
      "poi_name": "1741 on the Terrace",
      "osm_id": 3924684307,
      "amenity": "restaurant",
      "addr_state": "PA",
      "addr_city": "Bethlehem",
      "addr_postcode": "18018",
      "addr_street": "Main Street",
      "addr_housenumber": "437",
      "value": 43.326329384003095
    },
    {
      "id": 160809,
      "geometry": "POINT (-75.479106 40.600038)",
      "poi_name": "Delicioso Pizza & Subs",
      "osm_id": 4848547211,
      "amenity": "restaurant",
      "cuisine": "pizza",
      "addr_city": "Allentown",
      "addr_postcode": "18101",
      "addr_street": "Hamilton Street",
      "addr_housenumber": "1032",
      "value": 43.326329384003095
    },
    {
      "id": 157824,
      "geometry": "POINT (-75.982475 40.555151)",
      "poi_name": "Russo's Pizza",
      "osm_id": 4726868474,
      "amenity": "restaurant",
      "cuisine": "pizza",
      "addr_state": "PA",
      "addr_city": "Hamburg",
      "addr_postcode": "19526",
      "addr_street": "South 4th Street",
      "addr_housenumber": "2",
      "value": 43.326329384003095
    },
    {
      "id": 157832,
      "geometry": "POINT (-75.983471 40.554956)",
      "poi_name": "Hop Poh",
      "osm_id": 4726941632,
      "amenity": "restaurant",
      "cuisine": "chinese",
      "addr_state": "PA",
      "addr_city": "Hamburg",
      "addr_postcode": "19526",
      "addr_street": "State Street",
      "addr_housenumber": "312",
      "value": 43.326329384003095
    },
    {
      "id": 157833,
      "geometry": "POINT (-75.983523 40.55516)",
      "poi_name": "Hecky's Sub Shop",
      "osm_id": 4726941636,
      "amenity": "restaurant",
      "cuisine": "sandwich",
      "website": "http://heckyssubshop.com",
      "phone": "6105624500",
      "addr_state": "PA",
      "addr_city": "Hamburg",
      "addr_postcode": "19526",
      "addr_street": "State Street",
      "addr_housenumber": "315",
      "value": 43.326329384003095
    },
    {
      "id": 155870,
      "geometry": "POINT (-75.475809 40.600934)",
      "poi_name": "904 West Restaurant & Lounge",
      "osm_id": 4633667495,
      "amenity": "restaurant",
      "addr_city": "Allentown",
      "addr_postcode": "18101",
      "addr_street": "Hamilton Street",
      "addr_housenumber": "904",
      "value": 43.326329384003095
    },
    {
      "id": 159695,
      "geometry": "POINT (-75.501171 40.603295)",
      "poi_name": "Henry's Salt of the Sea",
      "osm_id": 4802566804,
      "amenity": "restaurant",
      "cuisine": "seafood",
      "website": "https://henryssaltofthesea.com/",
      "phone": "+1 610 434-2628",
      "addr_state": "PA",
      "addr_city": "Allentown",
      "addr_postcode": "18104",
      "addr_street": "West Allen Street",
      "addr_housenumber": "1926",
      "value": 43.326329384003095
    },
    {
      "id": 173248,
      "geometry": "POINT (-75.174421 40.699587)",
      "poi_name": "Nicolosi's Pizza",
      "osm_id": 2432754639,
      "amenity": "restaurant",
      "cuisine": "pizza",
      "wheelchair": "yes",
      "website": "https://www.yelp.com/biz/nicolosis-pizza-phillipsburg",
      "phone": "(908) 859-0759",
      "addr_city": "Phillipsburg",
      "addr_postcode": "08865",
      "addr_street": "Memorial Parkway",
      "addr_housenumber": "755",
      "value": 43.326329384003095
    },
    {
      "id": 161533,
      "geometry": "POINT (-75.381868 40.620756)",
      "poi_name": "Tapas on Main",
      "osm_id": 4886201642,
      "amenity": "restaurant",
      "cuisine": "spanish",
      "website": "https://www.tapasonmain.com/",
      "phone": "+1-610-868-8903",
      "outdoor_seating": "yes",
      "addr_state": "PA",
      "addr_city": "Bethlehem",
      "addr_postcode": "18018",
      "addr_street": "Main Street",
      "addr_housenumber": "500",
      "value": 43.326329384003095
    },
    {
      "id": 161534,
      "geometry": "POINT (-75.382725 40.62201)",
      "poi_name": "Lu Taqueria",
      "osm_id": 4886201644,
      "amenity": "restaurant",
      "cuisine": "mexican",
      "opening_hours": "Mo-Th 14:00-22:00; Fr-Sa 14:00-24:00",
      "website": "https://www.lutaqueriapa.com/",
      "phone": "+1 610 419 0600",
      "takeaway": "yes",
      "delivery": "yes",
      "addr_state": "PA",
      "addr_city": "Bethlehem",
      "addr_postcode": "18018",
      "addr_street": "Main Street",
      "addr_housenumber": "559",
      "value": 43.326329384003095
    },
    {
      "id": 161535,
      "geometry": "POINT (-75.386372 40.622234)",
      "poi_name": "The Cafe",
      "osm_id": 4886201645,
      "amenity": "restaurant",
      "cuisine": "thai",
      "website": "https://thecafebethlehempa.com/",
      "phone": "+1-610-866-1686",
      "addr_state": "PA",
      "addr_city": "Bethlehem",
      "addr_postcode": "18018",
      "addr_street": "West Broad Street",
      "addr_housenumber": "221",
      "value": 43.326329384003095
    },
    {
      "id": 171073,
      "geometry": "POINT (-75.210795 40.691273)",
      "poi_name": "Hoza African Restaurant",
      "osm_id": 2359328499,
      "amenity": "restaurant",
      "cuisine": "african",
      "opening_hours": "Tu, Th 16:00-21:00; Fr 16:00-21:30; Sa, Su 12:00-20:30",
      "website": "https://www.hozarestaurant.com/",
      "phone": "+1 610 330 1000",
      "takeaway": "yes",
      "addr_state": "PA",
      "addr_city": "Easton",
      "addr_postcode": "18042",
      "addr_street": "Northampton Street",
      "addr_housenumber": "349",
      "value": 43.326329384003095
    },
    {
      "id": 160857,
      "geometry": "POINT (-75.469389 40.602989)",
      "poi_name": "Pizza Mart",
      "osm_id": 4850672920,
      "amenity": "restaurant",
      "addr_state": "PA",
      "addr_city": "Allentown",
      "addr_postcode": "18101",
      "addr_street": "Hamilton Street",
      "addr_housenumber": "539",
      "value": 43.326329384003095
    },
    {
      "id": 161529,
      "geometry": "POINT (-75.382167 40.621715)",
      "poi_name": "Touch Thai",
      "osm_id": 4885851952,
      "amenity": "restaurant",
      "cuisine": "thai",
      "website": "http://www.touchthaibethlehem.com/",
      "addr_state": "PA",
      "addr_city": "Bethlehem",
      "addr_postcode": "18018",
      "addr_street": "Main Street",
      "addr_housenumber": "549",
      "value": 43.326329384003095
    },
    {
      "id": 161530,
      "geometry": "POINT (-75.382213 40.621956)",
      "poi_name": "Stations Cafe",
      "osm_id": 4885851953,
      "amenity": "restaurant",
      "cuisine": "vietnamese;noodle;sandwich",
      "website": "http://www.stationscafe.com/",
      "phone": "+1-610-625-5200",
      "addr_state": "PA",
      "addr_city": "Bethlehem",
      "addr_postcode": "18018",
      "addr_street": "Main Street",
      "addr_housenumber": "559",
      "value": 43.326329384003095
    },
    {
      "id": 161531,
      "geometry": "POINT (-75.382217 40.620905)",
      "poi_name": "Thai Thai II",
      "osm_id": 4886201640,
      "amenity": "restaurant",
      "cuisine": "thai",
      "website": "http://thaithaiii.businesscatalyst.com/phone/index.html",
      "phone": "+1-610-868-1919",
      "addr_state": "PA",
      "addr_city": "Bethlehem",
      "addr_postcode": "18018",
      "addr_street": "Main Street",
      "addr_housenumber": "509",
      "value": 43.326329384003095
    },
    {
      "id": 161532,
      "geometry": "POINT (-75.38187 40.620811)",
      "poi_name": "cachette",
      "osm_id": 4886201641,
      "amenity": "restaurant",
      "cuisine": "french",
      "website": "http://cachettebethlehem.com/",
      "phone": "+1-610-625-2515",
      "outdoor_seating": "yes",
      "addr_state": "PA",
      "addr_city": "Bethlehem",
      "addr_postcode": "18018",
      "addr_street": "Main Street",
      "addr_housenumber": "504",
      "value": 43.326329384003095
    },
    {
      "id": 182908,
      "geometry": "POINT (-75.2676 40.670887)",
      "poi_name": "Marinelli's Pizza",
      "osm_id": 10910007775,
      "amenity": "restaurant",
      "cuisine": "pizza",
      "addr_state": "PA",
      "addr_city": "Easton",
      "addr_postcode": "18045",
      "addr_street": "Nicholas Street",
      "addr_housenumber": "3725",
      "value": 43.326329384003095
    },
    {
      "id": 178930,
      "geometry": "POINT (-75.252448 40.689709)",
      "poi_name": "Antonio's Pizzeria & Ice Cream",
      "osm_id": 10743605341,
      "amenity": "restaurant",
      "cuisine": "pizza",
      "addr_state": "PA",
      "addr_city": "Easton",
      "addr_postcode": "18045",
      "addr_street": "Nazareth Road",
      "addr_housenumber": "2437",
      "value": 43.326329384003095
    },
    {
      "id": 178933,
      "geometry": "POINT (-75.251634 40.689786)",
      "poi_name": "25th Asian House",
      "osm_id": 10743605347,
      "amenity": "restaurant",
      "cuisine": "chinese",
      "addr_state": "PA",
      "addr_city": "Easton",
      "addr_postcode": "18045",
      "addr_street": "Nazareth Road",
      "addr_housenumber": "2423",
      "value": 43.326329384003095
    },
    {
      "id": 182909,
      "geometry": "POINT (-75.269079 40.67072)",
      "poi_name": "Dr. Karla Stanz, DMD",
      "osm_id": 10910007780,
      "amenity": "restaurant",
      "cuisine": "chinese",
      "addr_state": "PA",
      "addr_city": "Easton",
      "addr_postcode": "18045",
      "addr_street": "Nicholas Street",
      "addr_housenumber": "3787",
      "value": 43.326329384003095
    },
    {
      "id": 191538,
      "geometry": "POINT (-75.704912 40.82723)",
      "poi_name": "Sapore Restaurant",
      "osm_id": 1373370413,
      "amenity": "restaurant",
      "cuisine": "italian",
      "website": "https://www.saporelehighton.com/",
      "phone": "610 377 5666",
      "addr_state": "PA",
      "addr_city": "Lehighton",
      "addr_postcode": "18235",
      "addr_street": "East Bridge Street",
      "addr_housenumber": "99",
      "value": 43.326329384003095
    },
    {
      "id": 187964,
      "geometry": "POINT (-75.672289 40.816522)",
      "poi_name": "Riverwalck Saloon",
      "osm_id": 1118854864,
      "amenity": "restaurant",
      "cuisine": "american",
      "website": "https://www.riverwalcksaloon.com/gallery",
      "phone": "610 852 2323",
      "takeaway": "yes",
      "outdoor_seating": "yes",
      "addr_state": "PA",
      "addr_city": "Parryville",
      "addr_postcode": "18244",
      "addr_street": "Centre Street",
      "addr_housenumber": "101",
      "value": 43.326329384003095
    },
    {
      "id": 186882,
      "geometry": "POINT (-75.982012 40.554546)",
      "poi_name": "1787 brewing company",
      "osm_id": 7952342669,
      "amenity": "restaurant",
      "opening_hours": "4-9 PM, 12-9 PM, 12-8 PM",
      "website": "https://1787brewingcompany.com/",
      "phone": "(484) 665-3032",
      "addr_state": "PA",
      "addr_city": "Hamburg",
      "addr_postcode": "19526",
      "addr_street": "South 4th Street",
      "addr_housenumber": "43",
      "value": 43.326329384003095
    },
    {
      "id": 191091,
      "geometry": "POINT (-75.379246 40.610338)",
      "poi_name": "Roasted Bethlehem",
      "osm_id": 1339057448,
      "amenity": "restaurant",
      "opening_hours": "Tu-Su 07:00-14:00",
      "website": "https://www.roastedbethlehem.com/",
      "phone": "+1 610 849 2673",
      "addr_state": "PA",
      "addr_city": "Bethlehem",
      "addr_postcode": "18015",
      "addr_street": "West 4th Street",
      "addr_housenumber": "22",
      "value": 43.326329384003095
    },
    {
      "id": 191093,
      "geometry": "POINT (-75.379943 40.610295)",
      "poi_name": "Goosey Gander",
      "osm_id": 1339057454,
      "amenity": "restaurant",
      "cuisine": "sandwich",
      "addr_city": "Bethlehem",
      "addr_street": "West 4th Street",
      "addr_housenumber": "102",
      "value": 43.326329384003095
    },
    {
      "id": 191546,
      "geometry": "POINT (-75.713822 40.822528)",
      "poi_name": "Pizza Hut",
      "osm_id": 1374076336,
      "amenity": "restaurant",
      "cuisine": "pizza",
      "internet_access": "yes",
      "takeaway": "yes",
      "delivery": "yes",
      "addr_state": "PA",
      "addr_city": "Lehighton",
      "addr_postcode": "18235",
      "addr_street": "Blakeslee Boulevard Drive East",
      "addr_housenumber": "127",
      "value": 43.326329384003095
    },
    {
      "id": 191539,
      "geometry": "POINT (-75.705956 40.825285)",
      "poi_name": "Beacon 443",
      "osm_id": 1373370427,
      "amenity": "restaurant",
      "cuisine": "american",
      "website": "http://www.beacon443.com/",
      "phone": "610 377 1782",
      "addr_state": "PA",
      "addr_city": "Lehighton",
      "addr_postcode": "18235",
      "addr_street": "Blakeslee Boulevard Drive East",
      "addr_housenumber": "35",
      "value": 43.326329384003095
    },
    {
      "id": 195855,
      "geometry": "POINT (-75.378725 40.611784)",
      "poi_name": "Zest Bar & Grille",
      "osm_id": 10543203153,
      "amenity": "restaurant",
      "opening_hours": "Tu-Th 16:00-21:30; Fr-Sa 16:00-22:00; Su 10:30-14:30",
      "website": "https://www.zestbethlehem.com/",
      "phone": "+1 610 419 4320",
      "outdoor_seating": "yes",
      "addr_state": "PA",
      "addr_city": "Bethlehem",
      "addr_postcode": "18015",
      "addr_street": "South New Street",
      "addr_housenumber": "306",
      "value": 43.326329384003095
    },
    {
      "id": 199861,
      "geometry": "POINT (-75.36828 40.632397)",
      "poi_name": "Martelucci'S Pizza",
      "osm_id": 993739560,
      "amenity": "restaurant",
      "cuisine": "italian",
      "addr_state": "PA",
      "addr_city": "Bethlehem",
      "addr_postcode": "18018",
      "addr_street": "Easton Avenue",
      "addr_housenumber": "1419",
      "value": 43.326329384003095
    },
    {
      "id": 197342,
      "geometry": "POINT (-75.479255 40.629524)",
      "poi_name": "Dunderbak's Market Cafe",
      "osm_id": 10635418734,
      "amenity": "restaurant",
      "cuisine": "german",
      "addr_state": "PA",
      "addr_city": "Whitehall",
      "addr_postcode": "18052",
      "addr_street": "Lehigh Valley Mall",
      "addr_housenumber": "121",
      "value": 43.326329384003095
    },
    {
      "id": 198592,
      "geometry": "POINT (-75.378285 40.63115)",
      "poi_name": "Carl's Corner",
      "osm_id": 904053577,
      "amenity": "restaurant",
      "cuisine": "sandwich",
      "addr_city": "Bethlehem",
      "addr_postcode": "18018",
      "addr_street": "W Elizabeth Ave",
      "addr_housenumber": "2",
      "value": 43.326329384003095
    },
    {
      "id": 198593,
      "geometry": "POINT (-75.377911 40.630878)",
      "poi_name": "Fratelli Pizza",
      "osm_id": 904053578,
      "amenity": "restaurant",
      "cuisine": "pizza",
      "addr_state": "PA",
      "addr_city": "Bethlehem",
      "addr_postcode": "18018",
      "addr_street": "North New Street",
      "addr_housenumber": "1230",
      "value": 43.326329384003095
    },
    {
      "id": 202998,
      "geometry": "POINT (-75.210268 40.691302)",
      "poi_name": "Three Oak",
      "osm_id": 7057402481,
      "amenity": "restaurant",
      "website": "https://www.threeoaksteakhouse.com/",
      "phone": "+1 610 559 5510",
      "addr_state": "PA",
      "addr_city": "Easton",
      "addr_postcode": "18042",
      "addr_street": "Northampton Street",
      "addr_housenumber": "323",
      "value": 43.326329384003095
    },
    {
      "id": 211436,
      "geometry": "POINT (-75.490212 40.64255)",
      "poi_name": "Pizza Hut",
      "osm_id": 5157429402,
      "amenity": "restaurant",
      "cuisine": "pizza",
      "outdoor_seating": "no",
      "delivery": "yes",
      "addr_state": "PA",
      "addr_city": "Whitehall",
      "addr_postcode": "18052",
      "addr_street": "MacArthur Road",
      "addr_housenumber": "2413",
      "value": 43.326329384003095
    },
    {
      "id": 204980,
      "geometry": "POINT (-75.391567 40.622643)",
      "poi_name": "Orizaba",
      "osm_id": 7152454624,
      "amenity": "restaurant",
      "cuisine": "mexican",
      "opening_hours": "Mo-Fr 11:00-21:00; Sa 11:00-22:00; Su 15:00-20:00",
      "website": "https://www.orizababethlehem.com/",
      "phone": "+1 484 893 4467",
      "addr_state": "PA",
      "addr_city": "Bethlehem",
      "addr_postcode": "18018",
      "addr_street": "West Broad Street",
      "addr_housenumber": "614",
      "value": 43.326329384003095
    },
    {
      "id": 210612,
      "geometry": "POINT (-75.223652 40.716916)",
      "poi_name": "Alfie's Kitchen",
      "osm_id": 5111653140,
      "amenity": "restaurant",
      "cuisine": "diner",
      "opening_hours": "Tu-Su 06:00-18:00",
      "capacity": "85",
      "outdoor_seating": "yes",
      "addr_state": "PA",
      "addr_city": "Easton",
      "addr_postcode": "18040",
      "addr_street": "Sullivan Trail (Old Route 115)",
      "value": 43.326329384003095
    },
    {
      "id": 211406,
      "geometry": "POINT (-75.496693 40.654802)",
      "poi_name": "Palace Pizza & Sports Bar",
      "osm_id": 5156089175,
      "amenity": "restaurant",
      "cuisine": "pizza;italian",
      "addr_city": "Whitehall",
      "addr_postcode": "18052",
      "addr_street": "Lehigh Street",
      "addr_housenumber": "3690",
      "value": 43.326329384003095
    },
    {
      "id": 211407,
      "geometry": "POINT (-75.496394 40.655091)",
      "poi_name": "Happy Garden",
      "osm_id": 5156089177,
      "amenity": "restaurant",
      "cuisine": "chinese",
      "opening_hours": "Mo-Th 11:00-21:30; Tu off; Fr,Sa 11:00-22:30; Su 12:00-21:30",
      "website": "https://www.happygardenwhitehall.com/",
      "takeaway": "only",
      "outdoor_seating": "no",
      "addr_city": "Whitehall",
      "addr_postcode": "18052",
      "value": 43.326329384003095
    },
    {
      "id": 211443,
      "geometry": "POINT (-75.488807 40.639169)",
      "poi_name": "Ferrara's Pizzeria",
      "osm_id": 5157595395,
      "amenity": "restaurant",
      "cuisine": "italian;pizza",
      "addr_state": "PA",
      "addr_city": "Whitehall",
      "addr_postcode": "18052",
      "addr_street": "MacArthur Road",
      "addr_housenumber": "2241",
      "value": 43.326329384003095
    },
    {
      "id": 211502,
      "geometry": "POINT (-75.486162 40.637765)",
      "poi_name": "Charles Pizza",
      "osm_id": 5160169650,
      "amenity": "restaurant",
      "cuisine": "pizza",
      "addr_state": "PA",
      "addr_city": "Whitehall",
      "addr_postcode": "18052",
      "addr_street": "Mickley Road",
      "addr_housenumber": "1190",
      "value": 43.326329384003095
    },
    {
      "id": 211507,
      "geometry": "POINT (-75.480465 40.63427)",
      "poi_name": "Joey G's",
      "osm_id": 5160211564,
      "amenity": "restaurant",
      "cuisine": "italian;pizza",
      "addr_state": "PA",
      "addr_city": "Whitehall",
      "addr_postcode": "18052",
      "addr_street": "Grape Street",
      "addr_housenumber": "1063",
      "value": 43.326329384003095
    },
    {
      "id": 211508,
      "geometry": "POINT (-75.480575 40.634449)",
      "poi_name": "Flaming Grill & Supreme Buffet",
      "osm_id": 5160211565,
      "amenity": "restaurant",
      "cuisine": "chinese;asian",
      "addr_state": "PA",
      "addr_city": "Whitehall",
      "addr_postcode": "18052",
      "addr_street": "Grape Street",
      "addr_housenumber": "1055",
      "value": 43.326329384003095
    },
    {
      "id": 213070,
      "geometry": "POINT (-75.587499 41.019707)",
      "poi_name": "Gagliano's",
      "osm_id": 5233866394,
      "amenity": "restaurant",
      "cuisine": "pizza",
      "opening_hours": "Mo-Su 08:30-21:00",
      "takeaway": "yes",
      "outdoor_seating": "no",
      "delivery": "yes",
      "addr_state": "PA",
      "addr_city": "Albrightsville",
      "addr_postcode": "18210",
      "addr_street": "PA 903",
      "addr_housenumber": "2809",
      "value": 43.326329384003095
    },
    {
      "id": 212217,
      "geometry": "POINT (-75.945794 40.758304)",
      "poi_name": "Leiby\u2019s Ice Cream House Restaurant",
      "osm_id": 5195384221,
      "amenity": "restaurant",
      "cuisine": "american",
      "phone": "(570) 225-7117",
      "addr_city": "Tamaqua",
      "addr_postcode": "18252",
      "addr_street": "W Penn Pike",
      "addr_housenumber": "848",
      "value": 43.326329384003095
    },
    {
      "id": 212596,
      "geometry": "POINT (-75.498979 40.605228)",
      "poi_name": "Nick's Diner",
      "osm_id": 5215243866,
      "amenity": "restaurant",
      "cuisine": "american;greek",
      "opening_hours": "Mo-Sa 06:00-21:00, Su 07:00-21:00",
      "addr_state": "PA",
      "addr_city": "Allentown",
      "addr_postcode": "18104",
      "addr_street": "Tilghman Street",
      "addr_housenumber": "1802",
      "value": 43.326329384003095
    },
    {
      "id": 215967,
      "geometry": "POINT (-75.374688 41.121004)",
      "poi_name": "Golden Dragon",
      "osm_id": 5319424393,
      "amenity": "restaurant",
      "cuisine": "chinese",
      "addr_state": "PA",
      "addr_city": "Mount Pocono",
      "addr_postcode": "18344",
      "addr_street": "PA 940",
      "addr_housenumber": "3236",
      "value": 43.326329384003095
    },
    {
      "id": 214121,
      "geometry": "POINT (-75.309377 40.739865)",
      "poi_name": "Rios Brazilian Steakhouse",
      "osm_id": 5265794486,
      "amenity": "restaurant",
      "wheelchair": "yes",
      "addr_city": "Nazareth",
      "addr_postcode": "18064",
      "addr_street": "South Broad Street",
      "addr_housenumber": "127",
      "value": 43.326329384003095
    },
    {
      "id": 214123,
      "geometry": "POINT (-75.298925 40.748997)",
      "poi_name": "Zanette's Nazareth Grill",
      "osm_id": 5265807589,
      "amenity": "restaurant",
      "wheelchair": "yes",
      "addr_city": "Nazareth",
      "addr_postcode": "18064",
      "addr_street": "East Lawn Road",
      "addr_housenumber": "208",
      "value": 43.326329384003095
    },
    {
      "id": 214126,
      "geometry": "POINT (-75.304058 40.74775)",
      "poi_name": "Sicily Pizza & Restaurant",
      "osm_id": 5265807745,
      "amenity": "restaurant",
      "website": "http://sicilypizza1.com/",
      "addr_city": "Nazareth",
      "addr_postcode": "18064",
      "addr_street": "East Lawn Road",
      "addr_housenumber": "18",
      "value": 43.326329384003095
    },
    {
      "id": 220566,
      "geometry": "POINT (-75.379604 40.62496)",
      "poi_name": "D & S Caribbean Kitchen",
      "osm_id": 9377956460,
      "amenity": "restaurant",
      "cuisine": "caribbean",
      "website": "https://d-skitchen.com/",
      "phone": "610 419 3435",
      "addr_state": "PA",
      "addr_city": "Bethlehem",
      "addr_postcode": "18018",
      "addr_street": "West Union Boulevard",
      "addr_housenumber": "31",
      "value": 43.326329384003095
    },
    {
      "id": 219228,
      "geometry": "POINT (-75.595388 40.64745)",
      "poi_name": "The Red Tomato Pizzeria",
      "osm_id": 9319487782,
      "amenity": "restaurant",
      "cuisine": "pizza",
      "opening_hours": "Su-Th 11:00-21:00; Fr,Sa 11:00-22:00",
      "website": "https://theredtomatopizzeria.com/home",
      "phone": "+1 610 398 8999",
      "takeaway": "yes",
      "addr_state": "PA",
      "addr_city": "Orefield",
      "addr_postcode": "18069",
      "addr_street": "Route 309",
      "addr_housenumber": "3640",
      "value": 43.326329384003095
    },
    {
      "id": 219867,
      "geometry": "POINT (-75.732623 40.814704)",
      "poi_name": "Chiu Kwan Kitchen",
      "osm_id": 9349850969,
      "amenity": "restaurant",
      "cuisine": "chinese",
      "addr_state": "PA",
      "addr_city": "Lehighton",
      "addr_postcode": "18235",
      "addr_street": "Blakeslee Boulevard Drive East",
      "addr_housenumber": "1241",
      "value": 43.326329384003095
    },
    {
      "id": 219868,
      "geometry": "POINT (-75.732362 40.81485)",
      "poi_name": "Pizza Como USA",
      "osm_id": 9349850972,
      "amenity": "restaurant",
      "cuisine": "pizza",
      "addr_state": "PA",
      "addr_city": "Lehighton",
      "addr_postcode": "18235",
      "addr_street": "Blakeslee Boulevard Drive East",
      "addr_housenumber": "1241",
      "value": 43.326329384003095
    },
    {
      "id": 236491,
      "geometry": "POINT (-75.296811 41.018932)",
      "poi_name": "New Star",
      "osm_id": 5794741809,
      "amenity": "restaurant",
      "cuisine": "chinese",
      "takeaway": "yes",
      "addr_state": "PA",
      "addr_city": "Bartonsville",
      "addr_postcode": "18321",
      "addr_street": "PA 611",
      "addr_housenumber": "3180",
      "value": 43.326329384003095
    },
    {
      "id": 224329,
      "geometry": "POINT (-75.627869 40.582689)",
      "poi_name": "Panda & Fish",
      "osm_id": 11077932954,
      "amenity": "restaurant",
      "cuisine": "chinese",
      "addr_state": "PA",
      "addr_city": "Fogelsville",
      "addr_postcode": "18051",
      "addr_street": "Main Street",
      "addr_housenumber": "7720",
      "value": 43.326329384003095
    },
    {
      "id": 224330,
      "geometry": "POINT (-75.627896 40.582766)",
      "poi_name": "Mediterranean Caf\u00e9 & Grill",
      "osm_id": 11077932955,
      "amenity": "restaurant",
      "addr_state": "PA",
      "addr_city": "Fogelsville",
      "addr_postcode": "18051",
      "addr_street": "Main Street",
      "addr_housenumber": "7720",
      "value": 43.326329384003095
    },
    {
      "id": 234604,
      "geometry": "POINT (-75.415633 40.796414)",
      "poi_name": "Point Phillips Hotel",
      "osm_id": 4630101343,
      "amenity": "restaurant",
      "cuisine": "american",
      "addr_state": "PA",
      "addr_city": "Bath",
      "addr_postcode": "18014",
      "addr_street": "Point Phillips Road",
      "addr_housenumber": "943",
      "value": 43.326329384003095
    },
    {
      "id": 235796,
      "geometry": "POINT (-75.158063 40.692887)",
      "poi_name": "Red Rose Diner",
      "osm_id": 5767336837,
      "amenity": "restaurant",
      "website": "https://www.redrosedinernj.com/",
      "phone": "+1 908-777-3636",
      "addr_state": "NJ",
      "addr_city": "Phillipsburg",
      "addr_postcode": "08865",
      "addr_street": "US-22",
      "addr_housenumber": "1102",
      "value": 43.326329384003095
    },
    {
      "id": 226382,
      "geometry": "POINT (-75.380387 40.62172)",
      "poi_name": "Steak & Steel Hibachi",
      "osm_id": 11158222087,
      "amenity": "restaurant",
      "cuisine": "japanese",
      "opening_hours": "Mo-Th 11:00-21:30; Fr,Sa 11:00-22:30; Su 11:00-21:00",
      "website": "https://www.steakandsteelpa.com/",
      "phone": "+1 610 849 2323",
      "takeaway": "yes",
      "delivery": "no",
      "addr_state": "PA",
      "addr_city": "Bethlehem",
      "addr_postcode": "18018",
      "addr_street": "West Walnut Street",
      "addr_housenumber": "44",
      "value": 43.326329384003095
    },
    {
      "id": 226560,
      "geometry": "POINT (-75.381091 40.622209)",
      "poi_name": "Birraholic",
      "osm_id": 11163392715,
      "amenity": "restaurant",
      "opening_hours": "Su, Tu-Th 11:00-20:45; Fr,Sa 11:00-22:45",
      "operator": "latin_american",
      "website": "https://order.toasttab.com/online/birriaholic",
      "phone": "+1 610 849 2505",
      "addr_state": "PA",
      "addr_city": "Bethlehem",
      "addr_postcode": "18018",
      "addr_street": "West Broad Street",
      "addr_housenumber": "81",
      "value": 43.326329384003095
    },
    {
      "id": 227757,
      "geometry": "POINT (-75.390367 40.622608)",
      "poi_name": "Broad Street Pizza",
      "osm_id": 4317500114,
      "amenity": "restaurant",
      "cuisine": "pizza",
      "addr_state": "PA",
      "addr_city": "Bethlehem",
      "addr_postcode": "18018",
      "addr_street": "West Broad Street",
      "addr_housenumber": "516",
      "value": 43.326329384003095
    },
    {
      "id": 227758,
      "geometry": "POINT (-75.390594 40.622612)",
      "poi_name": "Pho Bowl",
      "osm_id": 4317500124,
      "amenity": "restaurant",
      "cuisine": "thai",
      "opening_hours": "Tu-Sa 11:00-21:00; Su 11:00-20:00",
      "phone": "+1 610 419 4484",
      "takeaway": "yes",
      "delivery": "yes",
      "addr_state": "PA",
      "addr_city": "Bethlehem",
      "addr_postcode": "18108",
      "addr_street": "West Broad Street",
      "addr_housenumber": "524",
      "value": 43.326329384003095
    },
    {
      "id": 229347,
      "geometry": "POINT (-75.474698 40.601249)",
      "poi_name": "Venny's Pizza and Restaurant",
      "osm_id": 4378177580,
      "amenity": "restaurant",
      "cuisine": "pizza",
      "addr_city": "Allentown",
      "addr_postcode": "18101",
      "addr_street": "Hamilton Street",
      "addr_housenumber": "840",
      "value": 43.326329384003095
    },
    {
      "id": 234806,
      "geometry": "POINT (-75.380385 40.622179)",
      "poi_name": "Twisted Olive",
      "osm_id": 5737375767,
      "amenity": "restaurant",
      "opening_hours": "Mo 16:00-22:00; Tu-Sa 11:30-22:00",
      "website": "http://twistedolivebethlehem.com/",
      "phone": "+1 610 419 1200",
      "outdoor_seating": "yes",
      "addr_state": "PA",
      "addr_city": "Bethlehem",
      "addr_postcode": "18018",
      "addr_street": "West Broad Street",
      "addr_housenumber": "51",
      "value": 43.326329384003095
    },
    {
      "id": 236492,
      "geometry": "POINT (-75.29682 41.019045)",
      "poi_name": "Pizza Hut",
      "osm_id": 5794741810,
      "amenity": "restaurant",
      "cuisine": "pizza",
      "addr_state": "PA",
      "addr_city": "Bartonsville",
      "addr_postcode": "18321",
      "addr_street": "PA 611",
      "addr_housenumber": "3180",
      "value": 43.326329384003095
    },
    {
      "id": 236499,
      "geometry": "POINT (-75.403408 40.920812)",
      "poi_name": "Pizza Hut",
      "osm_id": 5794763602,
      "amenity": "restaurant",
      "cuisine": "pizza",
      "addr_state": "PA",
      "addr_city": "Brodheadsville",
      "addr_postcode": "18322",
      "addr_street": "US 209",
      "addr_housenumber": "1656",
      "value": 43.326329384003095
    },
    {
      "id": 237037,
      "geometry": "POINT (-75.961352 40.876769)",
      "poi_name": "Still Creek Tavern & Restaurant",
      "osm_id": 5816297078,
      "amenity": "restaurant",
      "addr_state": "PA",
      "addr_city": "Tamaqua",
      "addr_postcode": "18252",
      "addr_street": "Ben Titus Road",
      "addr_housenumber": "491",
      "value": 43.326329384003095
    },
    {
      "id": 236913,
      "geometry": "POINT (-75.302083 41.031846)",
      "poi_name": "Smuggler's Cove",
      "osm_id": 5811154759,
      "amenity": "restaurant",
      "cuisine": "seafood",
      "addr_state": "PA",
      "addr_city": "Tannersville",
      "addr_postcode": "18372",
      "addr_street": "PA 611",
      "addr_housenumber": "2972",
      "value": 43.326329384003095
    },
    {
      "id": 236914,
      "geometry": "POINT (-75.302232 41.031712)",
      "poi_name": "Vocelli Pizza",
      "osm_id": 5811154760,
      "amenity": "restaurant",
      "cuisine": "pizza",
      "takeaway": "yes",
      "delivery": "yes",
      "addr_state": "PA",
      "addr_city": "Tannersville",
      "addr_postcode": "18372",
      "addr_street": "PA 611",
      "addr_housenumber": "2972",
      "value": 43.326329384003095
    },
    {
      "id": 236779,
      "geometry": "POINT (-75.347362 40.673453)",
      "poi_name": "Hibachi Grill and Supreme Buffet",
      "osm_id": 5807665791,
      "amenity": "restaurant",
      "cuisine": "chinese",
      "addr_state": "PA",
      "addr_city": "Bethlehem",
      "addr_postcode": "18020",
      "addr_street": "Nazareth Pike",
      "addr_housenumber": "3811",
      "value": 43.326329384003095
    },
    {
      "id": 237049,
      "geometry": "POINT (-76.019525 40.841623)",
      "poi_name": "Rough Cut Barbecue",
      "osm_id": 5816742153,
      "amenity": "restaurant",
      "addr_state": "PA",
      "addr_city": "Tamaqua",
      "addr_postcode": "18252",
      "addr_street": "Fairview Street",
      "addr_housenumber": "456",
      "value": 43.326329384003095
    },
    {
      "id": 237051,
      "geometry": "POINT (-75.99269 40.835838)",
      "poi_name": "Basile Italian Delight Restaurant",
      "osm_id": 5816768229,
      "amenity": "restaurant",
      "cuisine": "italian",
      "addr_state": "PA",
      "addr_city": "Tamaqua",
      "addr_postcode": "18252",
      "addr_street": "Claremont Avenue",
      "addr_housenumber": "401",
      "value": 43.326329384003095
    },
    {
      "id": 237069,
      "geometry": "POINT (-75.980492 40.823071)",
      "poi_name": "Beacon Diner",
      "osm_id": 5818174880,
      "amenity": "restaurant",
      "addr_state": "PA",
      "addr_city": "Tamaqua",
      "addr_postcode": "18252",
      "addr_street": "Claremont Avenue",
      "addr_housenumber": "189",
      "value": 43.326329384003095
    },
    {
      "id": 237053,
      "geometry": "POINT (-75.98707 40.835645)",
      "poi_name": "China Buffet",
      "osm_id": 5816786972,
      "amenity": "restaurant",
      "addr_state": "PA",
      "addr_city": "Tamaqua",
      "addr_postcode": "18252",
      "addr_street": "Plaza Drive",
      "addr_housenumber": "45",
      "value": 43.326329384003095
    },
    {
      "id": 237166,
      "geometry": "POINT (-75.999462 40.685998)",
      "poi_name": "Marchiano's",
      "osm_id": 5821312784,
      "amenity": "restaurant",
      "addr_state": "PA",
      "addr_city": "New Ringgold",
      "addr_postcode": "17960",
      "addr_street": "South Railroad Street",
      "addr_housenumber": "2",
      "value": 43.326329384003095
    },
    {
      "id": 237190,
      "geometry": "POINT (-75.904897 40.823756)",
      "poi_name": "Tommy's Italian Specialty Shop",
      "osm_id": 5821612308,
      "amenity": "restaurant",
      "cuisine": "italian",
      "addr_state": "PA",
      "addr_city": "Coaldale",
      "addr_postcode": "18218",
      "addr_street": "East Phillips Street",
      "addr_housenumber": "109",
      "value": 43.326329384003095
    },
    {
      "id": 237198,
      "geometry": "POINT (-75.948955 40.803871)",
      "poi_name": "Sisters Cantina",
      "osm_id": 5821665804,
      "amenity": "restaurant",
      "cuisine": "mexican",
      "opening_hours": "Mo-Th 11:00-21:00, Fr-Sa 11:00-22:00, Su 12:00-21:00",
      "addr_state": "PA",
      "addr_city": "Tamaqua",
      "addr_postcode": "18252",
      "addr_street": "East Broad Street",
      "addr_housenumber": "1315",
      "value": 43.326329384003095
    },
    {
      "id": 237236,
      "geometry": "POINT (-75.904006 40.759934)",
      "poi_name": "Maggie's Kitchen",
      "osm_id": 5824323820,
      "amenity": "restaurant",
      "addr_state": "PA",
      "addr_city": "Tamaqua",
      "addr_postcode": "18252",
      "addr_street": "Penn Drive",
      "addr_housenumber": "749",
      "value": 43.326329384003095
    },
    {
      "id": 237200,
      "geometry": "POINT (-75.953148 40.802131)",
      "poi_name": "Grande Pizzeria",
      "osm_id": 5821677879,
      "amenity": "restaurant",
      "cuisine": "pizza",
      "addr_state": "PA",
      "addr_city": "Tamaqua",
      "addr_postcode": "18252",
      "addr_street": "East Broad Street",
      "addr_housenumber": "1211",
      "value": 43.326329384003095
    },
    {
      "id": 237212,
      "geometry": "POINT (-75.957746 40.774869)",
      "poi_name": "Buon Gusto Pizzeria",
      "osm_id": 5823376658,
      "amenity": "restaurant",
      "cuisine": "pizza",
      "addr_state": "PA",
      "addr_city": "Tamaqua",
      "addr_postcode": "18252",
      "addr_street": "West Penn Pike",
      "addr_housenumber": "565",
      "value": 43.326329384003095
    },
    {
      "id": 237290,
      "geometry": "POINT (-75.96868 40.797424)",
      "poi_name": "Luigi's Brick Oven Pizzeria",
      "osm_id": 5825343302,
      "amenity": "restaurant",
      "cuisine": "pizza",
      "addr_state": "PA",
      "addr_city": "Tamaqua",
      "addr_postcode": "18252",
      "addr_street": "East Broad Street",
      "addr_housenumber": "121",
      "value": 43.326329384003095
    },
    {
      "id": 237368,
      "geometry": "POINT (-75.970691 40.797097)",
      "poi_name": "La Dolce Casa",
      "osm_id": 5828096095,
      "amenity": "restaurant",
      "cuisine": "italian",
      "addr_state": "PA",
      "addr_city": "Tamaqua",
      "addr_postcode": "18252",
      "addr_street": "West Broad Street",
      "addr_housenumber": "16",
      "value": 43.326329384003095
    },
    {
      "id": 237393,
      "geometry": "POINT (-75.809739 40.707048)",
      "poi_name": "Thunderhead Lodge",
      "osm_id": 5829788859,
      "amenity": "restaurant",
      "cuisine": "pub",
      "opening_hours": "Mo,Th,Fr 16:00-21:00; Sa 12:00-21:00; Su 12:00-20:00",
      "website": "https://thunderheadlodgepa.com",
      "phone": "+1-610-248-0524",
      "outdoor_seating": "yes",
      "toilets": "yes",
      "addr_state": "PA",
      "addr_city": "Andreas",
      "addr_postcode": "18211",
      "addr_street": "West Penn Pike",
      "addr_housenumber": "2520",
      "value": 43.326329384003095
    },
    {
      "id": 237419,
      "geometry": "POINT (-76.060207 40.624526)",
      "poi_name": "It's Just Barbecue",
      "osm_id": 5830926869,
      "amenity": "restaurant",
      "addr_state": "PA",
      "addr_city": "Orwigsburg",
      "addr_postcode": "17961",
      "addr_street": "Beech Road",
      "addr_housenumber": "320",
      "value": 43.326329384003095
    },
    {
      "id": 237420,
      "geometry": "POINT (-76.024551 40.58249)",
      "poi_name": "Port Clinton Hotel",
      "osm_id": 5830935793,
      "amenity": "restaurant",
      "addr_city": "Port Clinton",
      "addr_postcode": "19549",
      "addr_street": "Centre Street",
      "addr_housenumber": "231",
      "value": 43.326329384003095
    },
    {
      "id": 237395,
      "geometry": "POINT (-75.85902 40.721329)",
      "poi_name": "Kings Pizza",
      "osm_id": 5829791669,
      "amenity": "restaurant",
      "cuisine": "pizza",
      "addr_state": "PA",
      "addr_city": "Andreas",
      "addr_postcode": "18211",
      "addr_street": "West Penn Pike",
      "addr_housenumber": "2083",
      "value": 43.326329384003095
    },
    {
      "id": 237396,
      "geometry": "POINT (-75.862017 40.721119)",
      "poi_name": "Romano's",
      "osm_id": 5829815242,
      "amenity": "restaurant",
      "cuisine": "italian",
      "addr_state": "PA",
      "addr_city": "New Ringgold",
      "addr_postcode": "17960",
      "addr_street": "West Penn Pike",
      "addr_housenumber": "2060",
      "value": 43.326329384003095
    },
    {
      "id": 237397,
      "geometry": "POINT (-75.868846 40.723608)",
      "poi_name": "Knepper's Inn",
      "osm_id": 5829815252,
      "amenity": "restaurant",
      "addr_state": "PA",
      "addr_city": "New Ringgold",
      "addr_postcode": "17960",
      "addr_street": "West Penn Pike",
      "addr_housenumber": "1986",
      "value": 43.326329384003095
    },
    {
      "id": 237409,
      "geometry": "POINT (-76.023954 40.678151)",
      "poi_name": "McKeansburg Hotel",
      "osm_id": 5830637892,
      "amenity": "restaurant",
      "addr_state": "PA",
      "addr_city": "New Ringgold",
      "addr_postcode": "17960",
      "addr_street": "Chestnut Street",
      "addr_housenumber": "1776",
      "value": 43.326329384003095
    },
    {
      "id": 237567,
      "geometry": "POINT (-76.108866 40.655056)",
      "poi_name": "The Brick House Grill",
      "osm_id": 5839155363,
      "amenity": "restaurant",
      "opening_hours": "Tu-Th 12:00-21:00; Fr,Sa 12:00-22:00; Su 12:00-20:00",
      "website": "https://www.bhgrill.com/",
      "addr_city": "Orwigsburg",
      "addr_postcode": "17961",
      "addr_street": "West Market Street",
      "addr_housenumber": "705",
      "value": 43.326329384003095
    },
    {
      "id": 237588,
      "geometry": "POINT (-76.082828 40.639194)",
      "poi_name": "Roman Delight",
      "osm_id": 5840019881,
      "amenity": "restaurant",
      "cuisine": "italian",
      "addr_state": "PA",
      "addr_city": "Orwigsburg",
      "addr_postcode": "17961",
      "addr_street": "Centre Turnpike",
      "addr_housenumber": "1240",
      "value": 43.326329384003095
    },
    {
      "id": 237589,
      "geometry": "POINT (-76.072159 40.637059)",
      "poi_name": "Russo's Pizza Den",
      "osm_id": 5840020997,
      "amenity": "restaurant",
      "cuisine": "pizza",
      "addr_city": "Orwigsburg",
      "addr_postcode": "17961",
      "addr_street": "Centre Turnpike",
      "addr_housenumber": "1353",
      "value": 43.326329384003095
    },
    {
      "id": 237863,
      "geometry": "POINT (-75.472876 40.602024)",
      "poi_name": "Chickie\u2019s & Pete\u2019s",
      "osm_id": 5851415241,
      "amenity": "restaurant",
      "opening_hours": "Tu-Fr 11:00-14:30",
      "addr_city": "Allentown",
      "addr_postcode": "18101",
      "addr_street": "Hamilton Street",
      "addr_housenumber": "701",
      "value": 43.326329384003095
    },
    {
      "id": 238420,
      "geometry": "POINT (-75.751701 40.862047)",
      "poi_name": "Cafe Arielle at the Stabin Museum",
      "osm_id": 5876944577,
      "amenity": "restaurant",
      "addr_state": "PA",
      "addr_city": "Jim Thorpe",
      "addr_postcode": "18229",
      "addr_street": "West Broadway",
      "addr_housenumber": "268",
      "value": 43.326329384003095
    },
    {
      "id": 238458,
      "geometry": "POINT (-75.667602 40.800237)",
      "poi_name": "Three Brothers Pizza",
      "osm_id": 5878795431,
      "amenity": "restaurant",
      "cuisine": "pizza",
      "addr_state": "PA",
      "addr_city": "Bowmanstown",
      "addr_postcode": "18071",
      "addr_street": "Lincoln Avenue",
      "addr_housenumber": "709",
      "value": 43.326329384003095
    },
    {
      "id": 238459,
      "geometry": "POINT (-75.666044 40.80013)",
      "poi_name": "Bowmanstown Diner",
      "osm_id": 5878796029,
      "amenity": "restaurant",
      "addr_state": "PA",
      "addr_city": "Bowmanstown",
      "addr_postcode": "18071",
      "addr_street": "White Street",
      "addr_housenumber": "642",
      "value": 43.326329384003095
    },
    {
      "id": 237960,
      "geometry": "POINT (-75.491751 40.67495)",
      "poi_name": "Binnies Hot Dogs & Family Restaurant",
      "osm_id": 5856774223,
      "amenity": "restaurant",
      "addr_state": "PA",
      "addr_city": "Coplay",
      "addr_postcode": "18037",
      "addr_street": "North Front Street",
      "addr_housenumber": "101",
      "value": 43.326329384003095
    },
    {
      "id": 237986,
      "geometry": "POINT (-75.965846 40.915144)",
      "poi_name": "Pizzette Pizzeria",
      "osm_id": 5857525871,
      "amenity": "restaurant",
      "cuisine": "pizza",
      "addr_state": "PA",
      "addr_city": "Tresckow",
      "addr_postcode": "18254",
      "addr_street": "East Market Street",
      "addr_housenumber": "1",
      "value": 43.326329384003095
    },
    {
      "id": 238094,
      "geometry": "POINT (-75.914167 40.928183)",
      "poi_name": "Angela & Adriana",
      "osm_id": 5861280806,
      "amenity": "restaurant",
      "cuisine": "italian",
      "addr_state": "PA",
      "addr_city": "Beaver Meadows",
      "addr_postcode": "18216",
      "addr_street": "Broad Street",
      "addr_housenumber": "14",
      "value": 43.326329384003095
    },
    {
      "id": 238253,
      "geometry": "POINT (-75.884989 40.831819)",
      "poi_name": "Marco's Pizza",
      "osm_id": 5869744696,
      "amenity": "restaurant",
      "cuisine": "pizza",
      "addr_state": "PA",
      "addr_city": "Lansford",
      "addr_postcode": "18232",
      "addr_street": "West Ridge Street",
      "addr_housenumber": "10",
      "value": 43.326329384003095
    },
    {
      "id": 238255,
      "geometry": "POINT (-75.888761 40.831127)",
      "poi_name": "Cabreras",
      "osm_id": 5869753558,
      "amenity": "restaurant",
      "addr_state": "PA",
      "addr_city": "Lansford",
      "addr_postcode": "18232",
      "addr_street": "West Ridge Street",
      "addr_housenumber": "161",
      "value": 43.326329384003095
    },
    {
      "id": 238370,
      "geometry": "POINT (-75.814676 40.863051)",
      "poi_name": "Rosetta's Pizza",
      "osm_id": 5874416273,
      "amenity": "restaurant",
      "addr_state": "PA",
      "addr_city": "Nesquehoning",
      "addr_postcode": "18240",
      "addr_street": "West Catawissa Street",
      "addr_housenumber": "209",
      "value": 43.326329384003095
    },
    {
      "id": 238375,
      "geometry": "POINT (-75.811881 40.867988)",
      "poi_name": "China Wok",
      "osm_id": 5874511853,
      "amenity": "restaurant",
      "addr_state": "PA",
      "addr_city": "Nesquehoning",
      "addr_postcode": "18240",
      "addr_street": "Locust Street",
      "addr_housenumber": "28",
      "value": 43.326329384003095
    },
    {
      "id": 238465,
      "geometry": "POINT (-75.700993 40.829525)",
      "poi_name": "Mario's",
      "osm_id": 5879375643,
      "amenity": "restaurant",
      "cuisine": "pizza",
      "addr_state": "PA",
      "addr_city": "Weissport",
      "addr_postcode": "18235",
      "addr_street": "Park Street",
      "addr_housenumber": "105",
      "value": 43.326329384003095
    },
    {
      "id": 238428,
      "geometry": "POINT (-75.737722 40.863654)",
      "poi_name": "Molly Maguires",
      "osm_id": 5876998307,
      "amenity": "restaurant",
      "addr_state": "PA",
      "addr_city": "Jim Thorpe",
      "addr_postcode": "18229",
      "addr_street": "Hazard Square",
      "addr_housenumber": "5",
      "value": 43.326329384003095
    },
    {
      "id": 238397,
      "geometry": "POINT (-75.429973 40.639386)",
      "poi_name": "Picasso Pizza",
      "osm_id": 5876415695,
      "amenity": "restaurant",
      "cuisine": "italian",
      "addr_state": "PA",
      "addr_city": "Allentown",
      "addr_postcode": "18109",
      "addr_street": "Catasauqua Road",
      "addr_housenumber": "1860",
      "value": 43.326329384003095
    },
    {
      "id": 238430,
      "geometry": "POINT (-75.739244 40.863563)",
      "poi_name": "Antonio's Pizza",
      "osm_id": 5877062698,
      "amenity": "restaurant",
      "cuisine": "pizza",
      "opening_hours": "Su-Th 10:30-22:00; Fr,Sa 10:30-23:00",
      "phone": "+1 570 325 3679",
      "takeaway": "yes",
      "delivery": "yes",
      "addr_state": "PA",
      "addr_city": "Jim Thorpe",
      "addr_postcode": "18229",
      "addr_street": "Broadway",
      "addr_housenumber": "43",
      "value": 43.326329384003095
    },
    {
      "id": 238400,
      "geometry": "POINT (-75.428852 40.640934)",
      "poi_name": "Ichiban Japanese Restaurant",
      "osm_id": 5876415699,
      "amenity": "restaurant",
      "cuisine": "japanese",
      "addr_state": "PA",
      "addr_city": "Allentown",
      "addr_postcode": "18109",
      "addr_street": "Catasauqua Road",
      "addr_housenumber": "1914",
      "value": 43.326329384003095
    },
    {
      "id": 238437,
      "geometry": "POINT (-75.731439 40.873841)",
      "poi_name": "East Mauch Chunk Eatery",
      "osm_id": 5877114597,
      "amenity": "restaurant",
      "addr_state": "PA",
      "addr_city": "Jim Thorpe",
      "addr_postcode": "18229",
      "addr_street": "Center Street",
      "addr_housenumber": "506",
      "value": 43.326329384003095
    },
    {
      "id": 238519,
      "geometry": "POINT (-75.795488 40.790716)",
      "poi_name": "Two Kings Pizza",
      "osm_id": 5882260711,
      "amenity": "restaurant",
      "cuisine": "pizza",
      "addr_state": "PA",
      "addr_city": "Lehighton",
      "addr_postcode": "18235",
      "addr_street": "Blakeslee Boulevard Drive West",
      "addr_housenumber": "1474",
      "value": 43.326329384003095
    },
    {
      "id": 238575,
      "geometry": "POINT (-75.718282 40.859196)",
      "poi_name": "The Bagel Bunch",
      "osm_id": 5883200878,
      "amenity": "restaurant",
      "addr_state": "PA",
      "addr_city": "Lehighton",
      "addr_postcode": "18235",
      "addr_street": "Mauch Chunk Street",
      "addr_housenumber": "300",
      "value": 43.326329384003095
    },
    {
      "id": 238709,
      "geometry": "POINT (-75.601142 40.805593)",
      "poi_name": "Siro's",
      "osm_id": 5891888091,
      "amenity": "restaurant",
      "cuisine": "italian",
      "addr_state": "PA",
      "addr_city": "Palmerton",
      "addr_postcode": "18071",
      "addr_street": "Delaware Avenue",
      "addr_housenumber": "623",
      "value": 43.326329384003095
    },
    {
      "id": 238712,
      "geometry": "POINT (-75.609249 40.80083)",
      "poi_name": "Papa Al's",
      "osm_id": 5891916205,
      "amenity": "restaurant",
      "cuisine": "italian",
      "addr_state": "PA",
      "addr_city": "Palmerton",
      "addr_postcode": "18071",
      "addr_street": "Lehigh Avenue",
      "addr_housenumber": "315",
      "value": 43.326329384003095
    },
    {
      "id": 238837,
      "geometry": "POINT (-75.710344 40.840839)",
      "poi_name": "Lorenzo Pizza Kitchen",
      "osm_id": 5895201600,
      "amenity": "restaurant",
      "cuisine": "pizza",
      "addr_state": "PA",
      "addr_city": "Lehighton",
      "addr_postcode": "18235",
      "addr_street": "North 1st Street",
      "addr_housenumber": "489",
      "value": 43.326329384003095
    },
    {
      "id": 238838,
      "geometry": "POINT (-75.709323 40.837364)",
      "poi_name": "China Ming",
      "osm_id": 5895228151,
      "amenity": "restaurant",
      "cuisine": "chinese",
      "addr_state": "PA",
      "addr_city": "Lehighton",
      "addr_postcode": "18235",
      "addr_street": "North First Street",
      "addr_housenumber": "306",
      "value": 43.326329384003095
    },
    {
      "id": 238932,
      "geometry": "POINT (-75.371628 40.612019)",
      "poi_name": "El Jefe's Taqueria",
      "osm_id": 5898000860,
      "amenity": "restaurant",
      "cuisine": "mexican",
      "opening_hours": "Mo-Su 08:00-03:00",
      "website": "https://www.eljefestaqueria.com/",
      "phone": "+1 610 419 2000",
      "addr_state": "PA",
      "addr_city": "Bethlehem",
      "addr_postcode": "18015",
      "addr_street": "East 3rd Street",
      "addr_housenumber": "506",
      "value": 43.326329384003095
    },
    {
      "id": 238938,
      "geometry": "POINT (-75.708804 40.833823)",
      "poi_name": "Diggity Dogs & More",
      "osm_id": 5898065611,
      "amenity": "restaurant",
      "addr_state": "PA",
      "addr_city": "Lehighton",
      "addr_postcode": "18235",
      "addr_street": "South First Street",
      "addr_housenumber": "116",
      "value": 43.326329384003095
    },
    {
      "id": 238939,
      "geometry": "POINT (-75.708768 40.833354)",
      "poi_name": "Alfie's Pizza",
      "osm_id": 5898065612,
      "amenity": "restaurant",
      "cuisine": "pizza",
      "opening_hours": "Mo-Su 10:30-23:00",
      "website": "https://alfiespizzaleightonpa.com/",
      "addr_city": "Lehighton",
      "addr_postcode": "18235",
      "addr_street": "South Street",
      "addr_housenumber": "136",
      "value": 43.326329384003095
    },
    {
      "id": 238940,
      "geometry": "POINT (-75.706637 40.825162)",
      "poi_name": "Bo Bo Garden II",
      "osm_id": 5898087204,
      "amenity": "restaurant",
      "cuisine": "chinese",
      "addr_city": "Lehighton",
      "addr_postcode": "18235",
      "addr_street": "Blakeslee Boulevard Drive East",
      "addr_housenumber": "48",
      "value": 43.326329384003095
    },
    {
      "id": 239403,
      "geometry": "POINT (-75.402812 40.921106)",
      "poi_name": "Wing Hua",
      "osm_id": 5920660606,
      "amenity": "restaurant",
      "cuisine": "chinese",
      "addr_state": "PA",
      "addr_city": "Brodheadsville",
      "addr_postcode": "18322",
      "addr_street": "Route 209",
      "addr_housenumber": "1656",
      "value": 43.326329384003095
    },
    {
      "id": 239105,
      "geometry": "POINT (-75.984564 40.828592)",
      "poi_name": "Two King's Pizzeria",
      "osm_id": 5905618603,
      "amenity": "restaurant",
      "cuisine": "pizza",
      "opening_hours": "Mo-Tu 10:30-21:00; We-Th 10:30-22:00; Fr,Sa 10:30-23:00; Su 11:00-21:00",
      "website": "https://www.twokingspizzeria.com/",
      "phone": "+1-570-668-5454",
      "addr_state": "PA",
      "addr_city": "Tamaqua",
      "addr_postcode": "18252",
      "addr_street": "Claremont Avenue",
      "addr_housenumber": "272",
      "value": 43.326329384003095
    },
    {
      "id": 239046,
      "geometry": "POINT (-75.570364 40.870667)",
      "poi_name": "Sunny's Pizza",
      "osm_id": 5902898451,
      "amenity": "restaurant",
      "cuisine": "pizza",
      "addr_state": "PA",
      "addr_city": "Lehighton",
      "addr_postcode": "18235",
      "addr_street": "Interchange Road",
      "addr_housenumber": "7720",
      "value": 43.326329384003095
    },
    {
      "id": 239602,
      "geometry": "POINT (-75.29502 40.651232)",
      "poi_name": "MOD Pizza",
      "osm_id": 5929427926,
      "amenity": "restaurant",
      "cuisine": "pizza",
      "opening_hours": "Su-Th 10:30-22:00; Fr-Sa 10:30-23:00",
      "website": "https://modpizza.com/locations/madison-farms/",
      "phone": "+1 484 935 0006",
      "addr_state": "PA",
      "addr_city": "Easton",
      "addr_postcode": "18045",
      "addr_street": "Freemansburg Avenue",
      "addr_housenumber": "4763",
      "value": 43.326329384003095
    },
    {
      "id": 239580,
      "geometry": "POINT (-75.297117 40.649912)",
      "poi_name": "Steak 'n Shake",
      "osm_id": 5927886796,
      "amenity": "restaurant",
      "cuisine": "burger",
      "opening_hours": "Mo-Su 10:00-22:00",
      "website": "https://www.steaknshake.com/locations/pa-bethlehem-freemansburg-avenue/",
      "takeaway": "yes",
      "addr_state": "PA",
      "addr_city": "Easton",
      "addr_postcode": "18045",
      "addr_street": "Freemansburg Avenue",
      "addr_housenumber": "4817",
      "value": 43.326329384003095
    },
    {
      "id": 240235,
      "geometry": "POINT (-75.247 40.993445)",
      "poi_name": "StephaNikos Mediterranean Cuisine",
      "osm_id": 5964261413,
      "amenity": "restaurant",
      "addr_state": "PA",
      "addr_city": "Stroudsburg",
      "addr_postcode": "18360",
      "addr_street": "North 9th Street",
      "addr_housenumber": "1535",
      "value": 43.326329384003095
    },
    {
      "id": 240236,
      "geometry": "POINT (-75.247275 40.993537)",
      "poi_name": "Soul Food Chess House",
      "osm_id": 5964261418,
      "amenity": "restaurant",
      "addr_state": "PA",
      "addr_city": "Stroudsburg",
      "addr_postcode": "18360",
      "addr_street": "North 9th Street",
      "addr_housenumber": "1539",
      "value": 43.326329384003095
    },
    {
      "id": 240237,
      "geometry": "POINT (-75.24774 40.994592)",
      "poi_name": "Five Star Chinese",
      "osm_id": 5964261434,
      "amenity": "restaurant",
      "addr_state": "PA",
      "addr_city": "Stroudsburg",
      "addr_postcode": "18360",
      "addr_street": "North 9th Street",
      "addr_housenumber": "1548",
      "value": 43.326329384003095
    },
    {
      "id": 240569,
      "geometry": "POINT (-75.19846 40.983972)",
      "poi_name": "Garlic",
      "osm_id": 5980436625,
      "amenity": "restaurant",
      "cuisine": "steak_house;seafood",
      "website": "https://garlicrestaurantbar.com/menu/",
      "phone": "+15704766555",
      "addr_state": "PA",
      "addr_city": "Stroudsburg",
      "addr_postcode": "18360",
      "addr_street": "Main Street",
      "addr_housenumber": "907",
      "value": 43.326329384003095
    },
    {
      "id": 243901,
      "geometry": "POINT (-75.41867 40.6593)",
      "poi_name": "Mi Chong's",
      "osm_id": 7685089157,
      "amenity": "restaurant",
      "cuisine": "chinese",
      "addr_state": "PA",
      "addr_city": "Bethlehem",
      "addr_postcode": "18017",
      "addr_street": "Schoenersville Road",
      "addr_housenumber": "3350",
      "value": 43.326329384003095
    },
    {
      "id": 243902,
      "geometry": "POINT (-75.418844 40.65946)",
      "poi_name": "Pinoy Kitchen & Grill",
      "osm_id": 7685089159,
      "amenity": "restaurant",
      "addr_state": "PA",
      "addr_city": "Bethlehem",
      "addr_postcode": "18017",
      "addr_street": "Schoenersville Road",
      "addr_housenumber": "3350",
      "value": 43.326329384003095
    },
    {
      "id": 243903,
      "geometry": "POINT (-75.526573 40.596048)",
      "poi_name": "Sumo Sushi and Japanese Restaurant",
      "osm_id": 7685098572,
      "amenity": "restaurant",
      "cuisine": "japanese",
      "addr_state": "PA",
      "addr_city": "Allentown",
      "addr_postcode": "18104",
      "addr_street": "Tilghman Street",
      "addr_housenumber": "3100",
      "value": 43.326329384003095
    },
    {
      "id": 243904,
      "geometry": "POINT (-75.526822 40.597155)",
      "poi_name": "Mi Chong's Kitchen",
      "osm_id": 7685098573,
      "amenity": "restaurant",
      "cuisine": "chinese",
      "addr_state": "PA",
      "addr_city": "Allentown",
      "addr_postcode": "18104",
      "addr_street": "Tilghman Street",
      "addr_housenumber": "3100",
      "value": 43.326329384003095
    },
    {
      "id": 242137,
      "geometry": "POINT (-75.208487 40.690789)",
      "poi_name": "Stoke Coal Fire Pizza & Bar",
      "osm_id": 6056301836,
      "amenity": "restaurant",
      "cuisine": "italian",
      "opening_hours": "Mo-Th,Su 12:00-22:00; Fr-Sa 12:00-24:00",
      "website": "https://www.stokecoalfirepizza.com/",
      "phone": "+1 610 829 1400",
      "outdoor_seating": "no",
      "addr_state": "PA",
      "addr_city": "Easton",
      "addr_postcode": "18042",
      "addr_street": "Lehns Court",
      "addr_housenumber": "1",
      "value": 43.326329384003095
    },
    {
      "id": 243837,
      "geometry": "POINT (-75.39919 40.63993)",
      "poi_name": "Fiamma",
      "osm_id": 7681823947,
      "amenity": "restaurant",
      "cuisine": "italian",
      "addr_state": "PA",
      "addr_city": "Bethlehem",
      "addr_postcode": "18017",
      "addr_street": "Schoenersville Road",
      "addr_housenumber": "2118",
      "value": 43.326329384003095
    }
  ],
  "answer_type": "loc",
  "question_entities": {
    "[2]": {
      "distance": 120000,
      "text": "120 kilometers"
    },
    "[3]": {
      "main_category": "tourism",
      "sub_category": "museum",
      "display_name": "Gemberling-Rex House, Schaefferstown, PA",
      "geo_wkt": "POINT (-76.293232 40.29829)",
      "poi": {
        "id": 8379,
        "geometry": "POINT (-76.293232 40.29829)",
        "poi_name": "Gemberling-Rex House",
        "osm_id": 6658080249,
        "description": "Restored 18th-century tavern and home. First floor is restored and available for tours. The museum hosts a special Colonial Tavern Lunch each December, complete with period-dress servers, cider, traditional fare.",
        "tourism": "museum",
        "operator": "Historic Schaefferstown, Inc",
        "website": "https://hsimuseum.org/museums/",
        "phone": "717-949-2244",
        "addr_state": "PA",
        "addr_city": "Schaefferstown",
        "addr_postcode": "17088",
        "addr_street": "North Market Street",
        "addr_housenumber": "106"
      }
    },
    "[4]": {
      "main_category": "leisure",
      "sub_category": "park",
      "display_name": "Beltzville State Park - Preacher's Camp Boat Launch, Lehighton, PA",
      "geo_wkt": "POINT (-75.574758 40.874297)",
      "poi": {
        "id": 247273,
        "geometry": "POINT (-75.574758 40.874297)",
        "poi_name": "Beltzville State Park - Preacher's Camp Boat Launch",
        "osm_id": 8888398847,
        "leisure": "park",
        "operator": "PA DCNR - Bureau of State Parks",
        "addr_state": "PA",
        "addr_city": "Lehighton",
        "addr_postcode": "18235",
        "addr_street": "Pohopoco Drive",
        "addr_housenumber": "2950"
      }
    },
    "[1]": {
      "main_category": "amenity",
      "sub_category": "restaurant"
    }
  },
  "id": 1224,
  "type": "range:towards+loc"
}