{
  "question": "What caf\u00e9 can I find along the way to Illahe Studios and Gallery, Ashland, OR within 140 kilometers from Barton County Park, OR?",
  "sql": "WITH\n    angle AS (SELECT degrees(ST_Azimuth(ST_GeomFromText('POINT (-123.337286 42.770675)',4326)::geography, ST_GeomFromText('POINT (-122.707752 42.19721)',4326)::geography)) AS value)\nSELECT * FROM pois,angle\nWHERE amenity = 'cafe'\nAND ST_DWithin(pois.geometry, ST_GeomFromText('POINT (-123.337286 42.770675)',4326)::geography, 140000)\nAND (degrees(ST_Azimuth(ST_GeomFromText('POINT (-123.337286 42.770675)',4326)::geography, pois.geometry)) BETWEEN angle.value - 22.5 AND angle.value + 22.5);\n",
  "answers": [
    {
      "id": 31961,
      "geometry": "POINT (-122.86906 42.325795)",
      "poi_name": "Bad Ass Coffee",
      "osm_id": 2615862344,
      "amenity": "cafe",
      "opening_hours": "Mo-Fr 07:00-19:00; Sa 08:00-16:00",
      "website": "https://badasscoffee.com/",
      "phone": "+1 541-282-9660",
      "addr_city": "Medford",
      "addr_street": "South Riverside Avenue",
      "addr_housenumber": "143",
      "value": 140.69184830221454
    },
    {
      "id": 39076,
      "geometry": "POINT (-122.862435 42.358333)",
      "poi_name": "Dutch Bros. Coffee",
      "osm_id": 2902135301,
      "amenity": "cafe",
      "cuisine": "coffee_shop",
      "takeaway": "only",
      "value": 140.69184830221454
    },
    {
      "id": 35679,
      "geometry": "POINT (-122.913669 42.369496)",
      "poi_name": "The Palms Cafe",
      "osm_id": 2728017940,
      "amenity": "cafe",
      "opening_hours": "Mo, Tu, Th-Su 06:00-14:00; We 06:00-15:00",
      "phone": "+1 541-664-9301",
      "addr_street": "South Front Street",
      "addr_housenumber": "501",
      "value": 140.69184830221454
    },
    {
      "id": 32509,
      "geometry": "POINT (-122.856739 42.364989)",
      "poi_name": "Spicers",
      "osm_id": 2627769894,
      "amenity": "cafe",
      "value": 140.69184830221454
    },
    {
      "id": 33896,
      "geometry": "POINT (-122.817134 42.329821)",
      "poi_name": "Good bean",
      "osm_id": 2686027463,
      "amenity": "cafe",
      "opening_hours": "Su-Sa 06:00-18:00",
      "internet_access": "wlan",
      "value": 140.69184830221454
    },
    {
      "id": 43450,
      "geometry": "POINT (-122.714806 42.196992)",
      "poi_name": "Coffee Window",
      "osm_id": 3113478229,
      "amenity": "cafe",
      "cuisine": "coffee_shop",
      "takeaway": "only",
      "value": 140.69184830221454
    },
    {
      "id": 41375,
      "geometry": "POINT (-123.168761 42.431999)",
      "poi_name": "Rogue express coffee",
      "osm_id": 3011827986,
      "amenity": "cafe",
      "value": 140.69184830221454
    },
    {
      "id": 84070,
      "geometry": "POINT (-122.715767 42.197766)",
      "poi_name": "Mix Sweet Shop",
      "osm_id": 1775592458,
      "amenity": "cafe",
      "website": "http://mixashland.com/",
      "phone": "+1 541-488-9885",
      "takeaway": "only",
      "outdoor_seating": "no",
      "addr_state": "OR",
      "addr_city": "Ashland",
      "addr_street": "North Main Street",
      "addr_housenumber": "57",
      "value": 140.69184830221454
    },
    {
      "id": 55442,
      "geometry": "POINT (-123.037874 42.239178)",
      "poi_name": "Code 3 coffee and snacks",
      "osm_id": 10187550051,
      "amenity": "cafe",
      "value": 140.69184830221454
    },
    {
      "id": 72213,
      "geometry": "POINT (-122.913279 42.369048)",
      "poi_name": "Mochi House",
      "osm_id": 11416056669,
      "amenity": "cafe",
      "value": 140.69184830221454
    },
    {
      "id": 84505,
      "geometry": "POINT (-122.693492 42.186506)",
      "poi_name": "Case Coffee Roasters",
      "osm_id": 1797435889,
      "amenity": "cafe",
      "opening_hours": "Mo-Fr 07:00-17:00; Sa-Su 08:00-16:00",
      "website": "https://www.casecoffeeroasters.com/",
      "addr_state": "OR",
      "addr_city": "Ashland",
      "addr_street": "Siskiyou Boulevard",
      "addr_housenumber": "1255",
      "value": 140.69184830221454
    },
    {
      "id": 84508,
      "geometry": "POINT (-122.695508 42.187584)",
      "poi_name": "Morning Glory",
      "osm_id": 1797435904,
      "amenity": "cafe",
      "opening_hours": "Mo-Su 08:00-13:30",
      "website": "http://morninggloryrestaurant.com",
      "phone": "+1 541-488-8636",
      "addr_state": "OR",
      "addr_city": "Ashland",
      "addr_street": "Siskiyou Boulevard",
      "addr_housenumber": "1149",
      "value": 140.69184830221454
    },
    {
      "id": 85624,
      "geometry": "POINT (-122.91137 42.366598)",
      "poi_name": "Dutch Bros. Coffee",
      "osm_id": 1884902904,
      "amenity": "cafe",
      "cuisine": "coffee_shop",
      "opening_hours": "Mo-Th, Su 05:00-22:00; Fr, Sa 05:00-23:00",
      "website": "https://dutchbros.com/",
      "takeaway": "only",
      "addr_street": "South Front Street",
      "addr_housenumber": "832",
      "value": 140.69184830221454
    },
    {
      "id": 84559,
      "geometry": "POINT (-122.707172 42.193328)",
      "poi_name": "Boulevard Cafe",
      "osm_id": 1799428009,
      "amenity": "cafe",
      "internet_access": "wlan",
      "addr_state": "OR",
      "addr_city": "Ashland",
      "addr_postcode": "97520",
      "addr_street": "Siskiyou Boulevard",
      "addr_housenumber": "555",
      "value": 140.69184830221454
    },
    {
      "id": 85551,
      "geometry": "POINT (-122.853786 42.31167)",
      "poi_name": "Yogurt Hut",
      "osm_id": 1880373764,
      "amenity": "cafe",
      "value": 140.69184830221454
    },
    {
      "id": 85799,
      "geometry": "POINT (-122.81577 42.457835)",
      "poi_name": "Sensational Sweets",
      "osm_id": 1897447963,
      "amenity": "cafe",
      "value": 140.69184830221454
    },
    {
      "id": 85754,
      "geometry": "POINT (-122.908989 42.37862)",
      "poi_name": "Dutch Bros. Coffee",
      "osm_id": 1892708076,
      "amenity": "cafe",
      "cuisine": "coffee_shop",
      "opening_hours": "24/7",
      "website": "https://dutchbros.com/",
      "takeaway": "only",
      "addr_street": "East Pine Street",
      "addr_housenumber": "1065",
      "value": 140.69184830221454
    },
    {
      "id": 92737,
      "geometry": "POINT (-122.688832 42.185055)",
      "poi_name": "HeartSong Nutrition",
      "osm_id": 2131800275,
      "amenity": "cafe",
      "opening_hours": "Mo-Fr 08:00-20:00; Sa 10:00-19:00; Su 11:00-18:00",
      "website": "https://www.facebook.com/HeartSongNutrition",
      "phone": "+1 541-708-0745",
      "addr_state": "OR",
      "addr_city": "Ashland",
      "addr_street": "Siskiyou Boulevard",
      "addr_housenumber": "1461",
      "value": 140.69184830221454
    },
    {
      "id": 86629,
      "geometry": "POINT (-122.871537 42.351477)",
      "poi_name": "Starbucks",
      "osm_id": 1941516487,
      "amenity": "cafe",
      "cuisine": "coffee_shop",
      "opening_hours": "07:00-19:00",
      "phone": "+1 541-779-6158",
      "takeaway": "yes",
      "official_name": "Starbucks Coffee",
      "addr_street": "Crater Lake Highway",
      "addr_housenumber": "2424",
      "value": 140.69184830221454
    },
    {
      "id": 90357,
      "geometry": "POINT (-122.963798 42.317288)",
      "poi_name": "Pony Espresso",
      "osm_id": 1991877657,
      "amenity": "cafe",
      "website": "http://ponyespressocafe.com",
      "phone": "+1 541-899-3757",
      "addr_street": "North 5th Street",
      "addr_housenumber": "545",
      "value": 140.69184830221454
    },
    {
      "id": 90358,
      "geometry": "POINT (-122.968656 42.314151)",
      "poi_name": "Good Bean Coffee",
      "osm_id": 1991877661,
      "amenity": "cafe",
      "opening_hours": "Mo-Sa 06:00-17:00; Su 07:00-17:00",
      "website": "https://www.goodbean.com/",
      "phone": "+1 541-899-8740",
      "addr_state": "OR",
      "addr_city": "Jacksonville",
      "addr_street": "South Oregon Street",
      "addr_housenumber": "165",
      "value": 140.69184830221454
    },
    {
      "id": 91878,
      "geometry": "POINT (-122.786582 42.243862)",
      "poi_name": "Downtowne Coffee House",
      "osm_id": 2092904404,
      "amenity": "cafe",
      "cuisine": "coffee_shop",
      "value": 140.69184830221454
    },
    {
      "id": 92292,
      "geometry": "POINT (-122.869648 42.340704)",
      "poi_name": "Ahuva Bagels",
      "osm_id": 2110787821,
      "amenity": "cafe",
      "opening_hours": "Mo-Fr 07:00-15:00; Sa 08:00-14:00",
      "website": "http://ahuvabagels.com/",
      "phone": "+1 541-776-2245",
      "addr_street": "Biddle Road",
      "addr_housenumber": "1130",
      "value": 140.69184830221454
    },
    {
      "id": 92364,
      "geometry": "POINT (-122.871504 42.326741)",
      "poi_name": "Organic Natural Cafe",
      "osm_id": 2116602998,
      "amenity": "cafe",
      "opening_hours": "Mo-Sa 9:00-17:00",
      "phone": "+1 541-773-2500",
      "addr_state": "OR",
      "addr_city": "Medford",
      "addr_postcode": "97501",
      "addr_street": "East Main Street",
      "addr_housenumber": "226",
      "value": 140.69184830221454
    },
    {
      "id": 92738,
      "geometry": "POINT (-122.737538 42.219332)",
      "poi_name": "The Human Bean",
      "osm_id": 2131800286,
      "amenity": "cafe",
      "cuisine": "coffee_shop",
      "takeaway": "yes",
      "value": 140.69184830221454
    },
    {
      "id": 105976,
      "geometry": "POINT (-122.818535 42.2826)",
      "poi_name": "Grass Shack Cafe",
      "osm_id": 8657046546,
      "amenity": "cafe",
      "cuisine": "hawaiian",
      "opening_hours": "We-Sa 12:00-20:00",
      "website": "https://grassshackcafe.com/",
      "phone": "+1-541-512-8969",
      "outdoor_seating": "yes",
      "addr_state": "OR",
      "addr_city": "Phoenix",
      "addr_postcode": "97535",
      "addr_street": "North Phoenix Road",
      "addr_housenumber": "205",
      "value": 140.69184830221454
    },
    {
      "id": 93583,
      "geometry": "POINT (-122.855473 42.314036)",
      "poi_name": "Starbucks",
      "osm_id": 2174597000,
      "amenity": "cafe",
      "cuisine": "coffee_shop",
      "takeaway": "yes",
      "official_name": "Starbucks Coffee",
      "value": 140.69184830221454
    },
    {
      "id": 107107,
      "geometry": "POINT (-122.70745 42.197959)",
      "poi_name": "Noble Coffee",
      "osm_id": 3536400166,
      "amenity": "cafe",
      "cuisine": "coffee_shop",
      "internet_access": "wlan",
      "addr_state": "OR",
      "addr_city": "Ashland",
      "addr_postcode": "97520",
      "addr_street": "4th Street",
      "addr_housenumber": "281",
      "value": 140.69184830221454
    },
    {
      "id": 122456,
      "geometry": "POINT (-122.78233 42.24536)",
      "poi_name": "Organic Grind",
      "osm_id": 6804465444,
      "amenity": "cafe",
      "description": "Organic Grind coffee and smoothies",
      "value": 140.69184830221454
    },
    {
      "id": 158378,
      "geometry": "POINT (-122.85852 42.362907)",
      "poi_name": "Starbucks",
      "osm_id": 4745695836,
      "amenity": "cafe",
      "cuisine": "coffee_shop",
      "opening_hours": "06:00-19:00",
      "phone": "+1-541-774-4340",
      "takeaway": "yes",
      "official_name": "Starbucks Coffee",
      "addr_state": "OR",
      "addr_city": "Medford",
      "addr_postcode": "97501",
      "addr_street": "Crater Lake Highway",
      "addr_housenumber": "3169",
      "value": 140.69184830221454
    },
    {
      "id": 145413,
      "geometry": "POINT (-122.706119 42.193547)",
      "poi_name": "Starbucks",
      "osm_id": 7348844017,
      "amenity": "cafe",
      "cuisine": "coffee_shop",
      "takeaway": "yes",
      "drive_through": "no",
      "official_name": "Starbucks Coffee",
      "value": 140.69184830221454
    },
    {
      "id": 143983,
      "geometry": "POINT (-122.854191 42.30917)",
      "poi_name": "Starbucks",
      "osm_id": 6357493654,
      "amenity": "cafe",
      "cuisine": "coffee_shop",
      "takeaway": "yes",
      "official_name": "Starbucks Coffee",
      "value": 140.69184830221454
    },
    {
      "id": 144664,
      "geometry": "POINT (-122.883035 42.345653)",
      "poi_name": "Starbucks",
      "osm_id": 7279969846,
      "amenity": "cafe",
      "cuisine": "coffee_shop",
      "takeaway": "yes",
      "official_name": "Starbucks Coffee",
      "value": 140.69184830221454
    },
    {
      "id": 168580,
      "geometry": "POINT (-122.825608 42.28256)",
      "poi_name": "The Human Bean",
      "osm_id": 2270142246,
      "amenity": "cafe",
      "cuisine": "coffee_shop",
      "takeaway": "yes",
      "value": 140.69184830221454
    },
    {
      "id": 169593,
      "geometry": "POINT (-123.037292 42.239585)",
      "poi_name": "My way cafe",
      "osm_id": 2309096298,
      "amenity": "cafe",
      "value": 140.69184830221454
    },
    {
      "id": 168948,
      "geometry": "POINT (-122.852935 42.421722)",
      "poi_name": "Dutch Bros. Coffee",
      "osm_id": 2287608740,
      "amenity": "cafe",
      "cuisine": "coffee_shop",
      "takeaway": "only",
      "value": 140.69184830221454
    },
    {
      "id": 168951,
      "geometry": "POINT (-122.852378 42.424003)",
      "poi_name": "The Human Bean",
      "osm_id": 2287608930,
      "amenity": "cafe",
      "cuisine": "coffee_shop",
      "takeaway": "yes",
      "value": 140.69184830221454
    },
    {
      "id": 171214,
      "geometry": "POINT (-123.167998 42.433245)",
      "poi_name": "Cottage",
      "osm_id": 2366154192,
      "amenity": "cafe",
      "value": 140.69184830221454
    },
    {
      "id": 170754,
      "geometry": "POINT (-122.855381 42.35125)",
      "poi_name": "Dutch Bros. Coffee",
      "osm_id": 2348609999,
      "amenity": "cafe",
      "cuisine": "coffee_shop",
      "takeaway": "only",
      "value": 140.69184830221454
    },
    {
      "id": 170756,
      "geometry": "POINT (-122.872344 42.326396)",
      "poi_name": "Sunrise cafe",
      "osm_id": 2348610002,
      "amenity": "cafe",
      "value": 140.69184830221454
    },
    {
      "id": 173594,
      "geometry": "POINT (-122.861038 42.368747)",
      "poi_name": "Mellelo",
      "osm_id": 2445325126,
      "amenity": "cafe",
      "value": 140.69184830221454
    },
    {
      "id": 171522,
      "geometry": "POINT (-122.965884 42.313423)",
      "poi_name": "Cerberus Coffee",
      "osm_id": 2377419233,
      "amenity": "cafe",
      "opening_hours": "Mo-Su 07:00-15:00",
      "website": "https://cerberuscoffeeco.com/",
      "addr_street": "East California Street",
      "addr_housenumber": "310",
      "value": 140.69184830221454
    },
    {
      "id": 171523,
      "geometry": "POINT (-122.872982 42.327149)",
      "poi_name": "Downtown grounds",
      "osm_id": 2377419238,
      "amenity": "cafe",
      "addr_city": "Medford",
      "value": 140.69184830221454
    },
    {
      "id": 171361,
      "geometry": "POINT (-122.736388 42.21865)",
      "poi_name": "Dutch Bros. Coffee",
      "osm_id": 2374003602,
      "amenity": "cafe",
      "cuisine": "coffee_shop",
      "takeaway": "only",
      "value": 140.69184830221454
    },
    {
      "id": 177466,
      "geometry": "POINT (-122.889506 42.312643)",
      "poi_name": "Dutch Bros. Coffee",
      "osm_id": 2589528356,
      "amenity": "cafe",
      "cuisine": "coffee_shop",
      "opening_hours": "Mo-Th 04:30-22:00; Fr 04:30-23:00; Sa 05:00-23:00; Su 05:00-22:00",
      "website": "https://www.dutchbros.com/",
      "takeaway": "only",
      "addr_street": "Stewart Road",
      "addr_housenumber": "1227",
      "value": 140.69184830221454
    },
    {
      "id": 174303,
      "geometry": "POINT (-122.816275 42.273641)",
      "poi_name": "Takeout",
      "osm_id": 2474782448,
      "amenity": "cafe",
      "value": 140.69184830221454
    },
    {
      "id": 174304,
      "geometry": "POINT (-122.711728 42.198639)",
      "poi_name": "Ashland Food Co-op",
      "osm_id": 2474782452,
      "amenity": "cafe",
      "value": 140.69184830221454
    },
    {
      "id": 179847,
      "geometry": "POINT (-122.968602 42.314272)",
      "poi_name": "Jefferson farm kitchen",
      "osm_id": 10779659981,
      "amenity": "cafe",
      "value": 140.69184830221454
    },
    {
      "id": 177557,
      "geometry": "POINT (-122.856279 42.373296)",
      "poi_name": "Dutch Bros. Coffee",
      "osm_id": 2592312572,
      "amenity": "cafe",
      "cuisine": "coffee_shop",
      "takeaway": "only",
      "value": 140.69184830221454
    },
    {
      "id": 177576,
      "geometry": "POINT (-122.885709 42.410673)",
      "poi_name": "Whiskey River Cafe&lounge",
      "osm_id": 2594257426,
      "amenity": "cafe",
      "value": 140.69184830221454
    },
    {
      "id": 185422,
      "geometry": "POINT (-122.687912 42.185729)",
      "poi_name": "Starbucks",
      "osm_id": 7855103685,
      "amenity": "cafe",
      "cuisine": "coffee_shop",
      "opening_hours": "Mo-Fr 05:30-18:30; Sa,Su 06:00-18:00",
      "takeaway": "yes",
      "official_name": "Starbucks Coffee",
      "outdoor_seating": "yes",
      "value": 140.69184830221454
    },
    {
      "id": 210054,
      "geometry": "POINT (-122.851584 42.30394)",
      "poi_name": "The Human Bean",
      "osm_id": 5074815865,
      "amenity": "cafe",
      "cuisine": "coffee_shop",
      "website": "https://www.facebook.com/thehumanbeanJC/",
      "takeaway": "yes",
      "addr_state": "OR",
      "addr_city": "Medford",
      "addr_postcode": "97501",
      "addr_street": "South Pacific Highway",
      "addr_housenumber": "2337",
      "value": 140.69184830221454
    },
    {
      "id": 204683,
      "geometry": "POINT (-122.861057 42.3601)",
      "poi_name": "Starbucks",
      "osm_id": 7139813066,
      "amenity": "cafe",
      "cuisine": "coffee_shop",
      "opening_hours": "Mo-Fr 05:00-20:30; Sa 05:00-21:00; Su 05:30-20:00",
      "internet_access": "wlan",
      "takeaway": "yes",
      "drive_through": "yes",
      "official_name": "Starbucks Coffee",
      "outdoor_seating": "yes",
      "addr_city": "Medford",
      "addr_postcode": "97504",
      "addr_street": "Delta Waters Road",
      "addr_housenumber": "1730",
      "value": 140.69184830221454
    },
    {
      "id": 220209,
      "geometry": "POINT (-122.662813 42.186897)",
      "poi_name": "Luna Caf\u00e9 and Mercantile",
      "osm_id": 9364894551,
      "amenity": "cafe",
      "website": "https://www.lunacafeashland.com",
      "value": 140.69184830221454
    },
    {
      "id": 225843,
      "geometry": "POINT (-122.927107 42.380474)",
      "poi_name": "Mellelo",
      "osm_id": 11140198711,
      "amenity": "cafe",
      "value": 140.69184830221454
    },
    {
      "id": 235091,
      "geometry": "POINT (-122.871918 42.326823)",
      "poi_name": "Solid ground coffee and tea",
      "osm_id": 5745603721,
      "amenity": "cafe",
      "cuisine": "coffee_shop",
      "opening_hours": "Su 09:00-14:00; Mo-Th 07:00-17:00; Fr, Sa 07:00-19:00",
      "addr_city": "Medford",
      "addr_street": "East Main Street",
      "addr_housenumber": "217",
      "value": 140.69184830221454
    },
    {
      "id": 215641,
      "geometry": "POINT (-122.712561 42.197075)",
      "poi_name": "Pony Espresso",
      "osm_id": 5307611390,
      "amenity": "cafe",
      "internet_access": "yes",
      "addr_state": "OR",
      "addr_city": "Ashland",
      "addr_street": "Lithia Way",
      "addr_housenumber": "175",
      "value": 140.69184830221454
    },
    {
      "id": 222869,
      "geometry": "POINT (-122.854898 42.312474)",
      "poi_name": "Rooted, Eat More Plants",
      "osm_id": 11038263086,
      "amenity": "cafe",
      "cuisine": "regional",
      "description": "Vegetarian cafe, always dairy-free, mostly vegan",
      "wheelchair": "yes",
      "opening_hours": "10:00-18:00",
      "website": "https://rootedmedford.com/",
      "phone": "+1 458-225-9861",
      "outdoor_seating": "yes",
      "addr_street": "Center Drive",
      "addr_housenumber": "1325",
      "value": 140.69184830221454
    }
  ],
  "answer_type": "name",
  "question_entities": {
    "[2]": {
      "distance": 140000,
      "text": "140 kilometers"
    },
    "[3]": {
      "main_category": "leisure",
      "sub_category": "park",
      "display_name": "Barton County Park, OR",
      "geo_wkt": "POINT (-123.337286 42.770675)",
      "poi": {
        "id": 253933,
        "geometry": "POINT (-123.337286 42.770675)",
        "poi_name": "Barton County Park",
        "osm_id": 357297384,
        "leisure": "park",
        "addr_state": "OR"
      }
    },
    "[4]": {
      "main_category": "tourism",
      "sub_category": "gallery",
      "display_name": "Illahe Studios and Gallery, Ashland, OR",
      "geo_wkt": "POINT (-122.707752 42.19721)",
      "poi": {
        "id": 7416,
        "geometry": "POINT (-122.707752 42.19721)",
        "poi_name": "Illahe Studios and Gallery",
        "osm_id": 2139664179,
        "tourism": "gallery",
        "addr_state": "OR",
        "addr_city": "Ashland",
        "addr_postcode": "97520",
        "addr_street": "4th Street",
        "addr_housenumber": "215"
      }
    },
    "[1]": {
      "main_category": "amenity",
      "sub_category": "cafe"
    }
  },
  "id": 1665,
  "type": "range:towards+name"
}