{
  "question": "What's the distance to a fast food restaurant from Research Psychiatric Center, Kansas City, MO within a 10 kilometers radius?",
  "sql": "SELECT *, ST_Distance(ST_GeomFromText('POINT (-94.560016 39.011403)',4326)::geography, pois.geometry) AS distance FROM pois\nWHERE ST_DWithin(pois.geometry, ST_GeomFromText('POINT (-94.560016 39.011403)',4326)::geography, 10000)\nAND amenity = 'fast_food';\n",
  "answers": [
    {
      "id": 28973,
      "geometry": "POINT (-94.664027 39.021467)",
      "poi_name": "Five Guys",
      "osm_id": 8270453294,
      "amenity": "fast_food",
      "cuisine": "burger",
      "takeaway": "yes",
      "official_name": "Five Guys Burgers and Fries",
      "addr_state": "KS",
      "addr_city": "Mission",
      "addr_postcode": "66202",
      "distance": 9077.00765769
    },
    {
      "id": 33493,
      "geometry": "POINT (-94.607249 38.970367)",
      "poi_name": "Five Guys",
      "osm_id": 2670074336,
      "amenity": "fast_food",
      "cuisine": "burger",
      "opening_hours": "Mo-Su 11:00-22:00",
      "takeaway": "yes",
      "drive_through": "no",
      "official_name": "Five Guys Burgers and Fries",
      "distance": 6123.67862697
    },
    {
      "id": 33495,
      "geometry": "POINT (-94.607703 38.982486)",
      "poi_name": "Subway",
      "osm_id": 2670074360,
      "amenity": "fast_food",
      "cuisine": "sandwich",
      "takeaway": "yes",
      "distance": 5231.81018766
    },
    {
      "id": 33498,
      "geometry": "POINT (-94.607728 38.985975)",
      "poi_name": "McDonald's",
      "osm_id": 2670074399,
      "amenity": "fast_food",
      "cuisine": "burger",
      "website": "https://www.mcdonalds.com/us/en-us/location/mo/kansas-city/7887-state-line-rd/1916.html",
      "takeaway": "yes",
      "drive_through": "yes",
      "distance": 5005.21612231
    },
    {
      "id": 33499,
      "geometry": "POINT (-94.607513 38.988397)",
      "poi_name": "Papa Murphy's",
      "osm_id": 2670074408,
      "amenity": "fast_food",
      "cuisine": "pizza",
      "takeaway": "only",
      "official_name": "Papa Murphy's Take 'N' Bake Pizza",
      "distance": 4842.74536006
    },
    {
      "id": 33502,
      "geometry": "POINT (-94.602919 39.0503)",
      "poi_name": "Papa John's",
      "osm_id": 2670074469,
      "amenity": "fast_food",
      "cuisine": "pizza",
      "phone": "931-0777",
      "takeaway": "yes",
      "distance": 5696.25339819
    },
    {
      "id": 33503,
      "geometry": "POINT (-94.602852 39.049742)",
      "poi_name": "Jimmy John's",
      "osm_id": 2670074473,
      "amenity": "fast_food",
      "cuisine": "sandwich",
      "takeaway": "yes",
      "official_name": "Jimmy John's Gourmet Sandwiches",
      "distance": 5645.70088078
    },
    {
      "id": 36342,
      "geometry": "POINT (-94.542562 38.99871)",
      "poi_name": "Krispy Krunchy Chicken",
      "osm_id": 2760119318,
      "amenity": "fast_food",
      "cuisine": "chicken",
      "website": "http://krispycrunchychickenkc.com/",
      "takeaway": "yes",
      "addr_street": "East Gregory Boulevard",
      "addr_housenumber": "3800",
      "distance": 2066.69538534
    },
    {
      "id": 38410,
      "geometry": "POINT (-94.576281 39.068636)",
      "poi_name": "Texas Tom's",
      "osm_id": 2863214475,
      "amenity": "fast_food",
      "distance": 6507.92412267
    },
    {
      "id": 38911,
      "geometry": "POINT (-94.593204 39.052882)",
      "poi_name": "Pie Five Pizza Co.",
      "osm_id": 2890468102,
      "amenity": "fast_food",
      "cuisine": "pizza",
      "distance": 5427.9810152
    },
    {
      "id": 39356,
      "geometry": "POINT (-94.596788 39.050205)",
      "poi_name": "Subway",
      "osm_id": 2918571595,
      "amenity": "fast_food",
      "cuisine": "sandwich",
      "takeaway": "yes",
      "distance": 5356.64126421
    },
    {
      "id": 48503,
      "geometry": "POINT (-94.593779 39.04207)",
      "poi_name": "Panera Bread",
      "osm_id": 3385402190,
      "amenity": "fast_food",
      "cuisine": "sandwich;bakery",
      "takeaway": "yes",
      "distance": 4487.61695892
    },
    {
      "id": 48515,
      "geometry": "POINT (-94.595018 39.04207)",
      "poi_name": "Eden Alley",
      "osm_id": 3385435341,
      "amenity": "fast_food",
      "distance": 4558.22855072
    },
    {
      "id": 54461,
      "geometry": "POINT (-94.473201 39.060989)",
      "poi_name": "Wendy's",
      "osm_id": 10135930820,
      "amenity": "fast_food",
      "cuisine": "burger",
      "takeaway": "yes",
      "distance": 9316.82830955
    },
    {
      "id": 54462,
      "geometry": "POINT (-94.472077 39.060865)",
      "poi_name": "Hi-Boy Burgers",
      "osm_id": 10135930835,
      "amenity": "fast_food",
      "cuisine": "burger",
      "distance": 9387.48673575
    },
    {
      "id": 54464,
      "geometry": "POINT (-94.471814 39.059384)",
      "poi_name": "Dixon's Famous Chili",
      "osm_id": 10135930983,
      "amenity": "fast_food",
      "website": "https://www.dixonschili.com/",
      "distance": 9310.96172696
    },
    {
      "id": 55993,
      "geometry": "POINT (-94.582 39.088885)",
      "poi_name": "Rockhill Pizza",
      "osm_id": 10220275845,
      "amenity": "fast_food",
      "cuisine": "pizza",
      "distance": 8809.76639472
    },
    {
      "id": 55242,
      "geometry": "POINT (-94.631864 39.00253)",
      "poi_name": "Goodcents Deli Fresh Subs",
      "osm_id": 10178749991,
      "amenity": "fast_food",
      "cuisine": "sandwich",
      "distance": 6300.81387206
    },
    {
      "id": 55245,
      "geometry": "POINT (-94.629893 39.003564)",
      "poi_name": "Chipotle",
      "osm_id": 10178750005,
      "amenity": "fast_food",
      "cuisine": "mexican",
      "takeaway": "yes",
      "official_name": "Chipotle Mexican Grill",
      "distance": 6114.77465228
    },
    {
      "id": 56004,
      "geometry": "POINT (-94.584546 39.091693)",
      "poi_name": "Pizza Shuttle",
      "osm_id": 10220496874,
      "amenity": "fast_food",
      "cuisine": "pizza",
      "website": "https://pizza-shuttle.com/",
      "addr_state": "MO",
      "addr_city": "Kansas City",
      "addr_postcode": "64108",
      "addr_street": "Baltimore Avenue",
      "addr_housenumber": "1801",
      "distance": 9162.92267349
    },
    {
      "id": 69809,
      "geometry": "POINT (-94.589789 39.052658)",
      "poi_name": "Dave's Hot Chicken",
      "osm_id": 11331582788,
      "amenity": "fast_food",
      "cuisine": "chicken",
      "opening_hours": "Su-Th 11:00-23:00; Fr-Sa 11:00-24:00",
      "website": "https://www.daveshotchicken.com/location/kansas-city-mo-broadway-blvd-westley-opening-soon/",
      "phone": "+1-816-710-8155",
      "takeaway": "yes",
      "drive_through": "no",
      "addr_state": "MO",
      "addr_city": "Kansas City",
      "addr_postcode": "64111",
      "addr_street": "Broadway Boulevard",
      "addr_housenumber": "4121",
      "distance": 5255.73049289
    },
    {
      "id": 84814,
      "geometry": "POINT (-94.535722 39.034009)",
      "poi_name": "Subway",
      "osm_id": 1818267550,
      "amenity": "fast_food",
      "cuisine": "sandwich",
      "takeaway": "yes",
      "addr_state": "MO",
      "addr_city": "Kansas City",
      "addr_postcode": "64130",
      "addr_street": "East Blue Parkway",
      "addr_housenumber": "4209",
      "distance": 3274.78964975
    },
    {
      "id": 80594,
      "geometry": "POINT (-94.556574 38.998265)",
      "poi_name": "Church's Chicken",
      "osm_id": 885776624,
      "amenity": "fast_food",
      "cuisine": "chicken",
      "opening_hours": "Su-Th 10:00-23:00; Fr-Sa 10:00-24:00",
      "takeaway": "yes",
      "addr_state": "MO",
      "addr_city": "Kansas City",
      "addr_street": "East Gregory Boulevard",
      "addr_housenumber": "2600",
      "distance": 1488.72585097
    },
    {
      "id": 84705,
      "geometry": "POINT (-94.498652 38.964638)",
      "poi_name": "Subway",
      "osm_id": 1809242787,
      "amenity": "fast_food",
      "cuisine": "sandwich",
      "takeaway": "yes",
      "drive_through": "yes",
      "distance": 7430.93810539
    },
    {
      "id": 84815,
      "geometry": "POINT (-94.535718 39.034366)",
      "poi_name": "Domino's",
      "osm_id": 1818267551,
      "amenity": "fast_food",
      "cuisine": "pizza",
      "website": "https://www.dominos.com/",
      "takeaway": "yes",
      "addr_postcode": "64130",
      "addr_street": "East Blue Parkway",
      "addr_housenumber": "4201",
      "distance": 3305.50324055
    },
    {
      "id": 85581,
      "geometry": "POINT (-94.583469 38.946666)",
      "poi_name": "Subway",
      "osm_id": 1883278499,
      "amenity": "fast_food",
      "cuisine": "sandwich",
      "takeaway": "yes",
      "distance": 7468.62902133
    },
    {
      "id": 85209,
      "geometry": "POINT (-94.581439 39.083303)",
      "poi_name": "Panera Bread",
      "osm_id": 1847698551,
      "amenity": "fast_food",
      "cuisine": "sandwich;bakery",
      "opening_hours": "Mo-Sa 06:00-19:30, Su 08:00-19:30",
      "website": "http://www.panerabread.com",
      "takeaway": "yes",
      "addr_postcode": "64108",
      "addr_street": "Grand Boulevard",
      "addr_housenumber": "2405",
      "distance": 8194.6507604
    },
    {
      "id": 85475,
      "geometry": "POINT (-94.475052 39.047979)",
      "poi_name": "Subway",
      "osm_id": 1870796686,
      "amenity": "fast_food",
      "cuisine": "sandwich",
      "takeaway": "yes",
      "distance": 8403.18669865
    },
    {
      "id": 84878,
      "geometry": "POINT (-94.537238 39.093657)",
      "poi_name": "Wendy's",
      "osm_id": 1823301133,
      "amenity": "fast_food",
      "cuisine": "burger",
      "takeaway": "yes",
      "drive_through": "yes",
      "distance": 9341.97660663
    },
    {
      "id": 84879,
      "geometry": "POINT (-94.540505 39.094583)",
      "poi_name": "Subway",
      "osm_id": 1823301138,
      "amenity": "fast_food",
      "cuisine": "sandwich",
      "takeaway": "yes",
      "distance": 9387.55320425
    },
    {
      "id": 85583,
      "geometry": "POINT (-94.583524 38.946664)",
      "poi_name": "Lamar's Donuts",
      "osm_id": 1883278504,
      "amenity": "fast_food",
      "cuisine": "donut",
      "distance": 7470.11466229
    },
    {
      "id": 90696,
      "geometry": "POINT (-94.590424 39.042087)",
      "poi_name": "Shake Shack",
      "osm_id": 2012648479,
      "amenity": "fast_food",
      "cuisine": "burger",
      "website": "https://shakeshack.com/location/country-club-plaza-mo",
      "takeaway": "yes",
      "addr_postcode": "64112",
      "addr_street": "Wyandotte Street",
      "addr_housenumber": "4704",
      "distance": 4305.42995973
    },
    {
      "id": 100933,
      "geometry": "POINT (-94.605596 39.057085)",
      "poi_name": "Chipotle",
      "osm_id": 6604823033,
      "amenity": "fast_food",
      "cuisine": "mexican",
      "takeaway": "yes",
      "official_name": "Chipotle Mexican Grill",
      "distance": 6426.10647761
    },
    {
      "id": 92884,
      "geometry": "POINT (-94.666566 38.993447)",
      "poi_name": "KFC",
      "osm_id": 2139266711,
      "amenity": "fast_food",
      "cuisine": "chicken",
      "takeaway": "yes",
      "distance": 9442.56186783
    },
    {
      "id": 93454,
      "geometry": "POINT (-94.664842 39.023315)",
      "poi_name": "Chipotle",
      "osm_id": 2166154974,
      "amenity": "fast_food",
      "cuisine": "mexican",
      "takeaway": "yes",
      "official_name": "Chipotle Mexican Grill",
      "distance": 9174.25998606
    },
    {
      "id": 96509,
      "geometry": "POINT (-94.50192 39.031578)",
      "poi_name": "Church's Chicken",
      "osm_id": 6434723169,
      "amenity": "fast_food",
      "cuisine": "chicken",
      "takeaway": "yes",
      "addr_street": "Eastwood Trafficway",
      "addr_housenumber": "7200",
      "distance": 5507.11715562
    },
    {
      "id": 106174,
      "geometry": "POINT (-94.629227 38.957814)",
      "poi_name": "Sarpino's Pizzeria",
      "osm_id": 8669062416,
      "amenity": "fast_food",
      "cuisine": "pizza",
      "opening_hours": "Su-Th 10:00-02:00, Fr-Sa 10:00-03:00",
      "website": "https://north-leawood.gosarpinos.com/ordering/intro",
      "phone": "+1-913-381-8888",
      "takeaway": "yes",
      "addr_state": "KS",
      "addr_city": "Leawood",
      "addr_postcode": "66206",
      "addr_street": "West 95th Street",
      "addr_housenumber": "3804",
      "distance": 8447.13808503
    },
    {
      "id": 186731,
      "geometry": "POINT (-94.630933 38.978978)",
      "poi_name": "Subway",
      "osm_id": 7946214927,
      "amenity": "fast_food",
      "cuisine": "sandwich",
      "takeaway": "yes",
      "distance": 7120.55326238
    },
    {
      "id": 112587,
      "geometry": "POINT (-94.643191 38.956664)",
      "poi_name": "Papa John's",
      "osm_id": 3797082847,
      "amenity": "fast_food",
      "cuisine": "pizza",
      "takeaway": "yes",
      "addr_state": "KS",
      "addr_city": "Overland Park",
      "addr_postcode": "66207",
      "addr_street": "West 95th Street",
      "addr_housenumber": "5665",
      "distance": 9426.81500326
    },
    {
      "id": 139940,
      "geometry": "POINT (-94.584981 39.090707)",
      "poi_name": "Town Topic",
      "osm_id": 6222342446,
      "amenity": "fast_food",
      "distance": 9065.37791144
    },
    {
      "id": 169016,
      "geometry": "POINT (-94.612105 39.056014)",
      "poi_name": "Five Guys",
      "osm_id": 2291762457,
      "amenity": "fast_food",
      "cuisine": "burger",
      "website": "https://restaurants.fiveguys.com/3930-rainbow-blvd",
      "phone": "+1-913-262-2500",
      "takeaway": "yes",
      "drive_through": "no",
      "official_name": "Five Guys Burgers and Fries",
      "addr_state": "KS",
      "addr_city": "Kansas City",
      "addr_postcode": "66103",
      "addr_street": "Rainbow Boulevard",
      "addr_housenumber": "3930",
      "distance": 6698.44261746
    },
    {
      "id": 164215,
      "geometry": "POINT (-94.60585 39.073274)",
      "poi_name": "Miranda's Mexican Food Truck",
      "osm_id": 9456251657,
      "amenity": "fast_food",
      "cuisine": "mexican",
      "opening_hours": "Mo-Th 11:00-20:00; Fr-Sa 11:00-22:00",
      "website": "https://mirandas-mexican-food-truck.business.site/",
      "phone": "+-816-695-8356",
      "drive_through": "no",
      "outdoor_seating": "yes",
      "addr_state": "MO",
      "addr_city": "Kansas City",
      "addr_postcode": "64108",
      "addr_street": "Southwest Boulevard",
      "addr_housenumber": "3029",
      "distance": 7932.50033789
    },
    {
      "id": 174321,
      "geometry": "POINT (-94.582557 39.09737)",
      "poi_name": "Chipotle",
      "osm_id": 2476115344,
      "amenity": "fast_food",
      "cuisine": "mexican",
      "takeaway": "yes",
      "official_name": "Chipotle Mexican Grill",
      "distance": 9741.16046267
    },
    {
      "id": 179932,
      "geometry": "POINT (-94.595139 38.983824)",
      "poi_name": "Papa John's",
      "osm_id": 10782525734,
      "amenity": "fast_food",
      "cuisine": "pizza",
      "takeaway": "yes",
      "addr_state": "MO",
      "addr_city": "Kansas City",
      "addr_postcode": "64114",
      "addr_street": "Wornall Road",
      "addr_housenumber": "7960",
      "distance": 4316.4228727
    },
    {
      "id": 186682,
      "geometry": "POINT (-94.612296 39.054747)",
      "poi_name": "Burger King",
      "osm_id": 7943407281,
      "amenity": "fast_food",
      "cuisine": "burger",
      "takeaway": "yes",
      "distance": 6606.48824329
    },
    {
      "id": 186683,
      "geometry": "POINT (-94.612173 39.055374)",
      "poi_name": "Taco Bell",
      "osm_id": 7943407282,
      "amenity": "fast_food",
      "cuisine": "tex-mex",
      "website": "https://locations.tacobell.com/ks/kansas-city/3948-rainbow-blvd.html",
      "takeaway": "yes",
      "distance": 6650.12539603
    },
    {
      "id": 194235,
      "geometry": "POINT (-94.582555 39.082323)",
      "poi_name": "Pak Ling Express",
      "osm_id": 10266528771,
      "amenity": "fast_food",
      "cuisine": "chinese",
      "website": "https://www.crowncenter.com/listings/pak-ling-express",
      "distance": 8111.42525038
    },
    {
      "id": 200321,
      "geometry": "POINT (-94.526946 38.952699)",
      "poi_name": "Hardee's",
      "osm_id": 1032606800,
      "amenity": "fast_food",
      "cuisine": "burger",
      "website": "https://locations.hardees.com/mo/kansas-city/5373-east-bannister-road",
      "takeaway": "yes",
      "drive_through": "yes",
      "addr_street": "Bannister Rd",
      "addr_housenumber": "5373",
      "distance": 7119.13183118
    },
    {
      "id": 196444,
      "geometry": "POINT (-94.607039 39.05745)",
      "poi_name": "Panera Bread",
      "osm_id": 10578194634,
      "amenity": "fast_food",
      "cuisine": "sandwich;bakery",
      "takeaway": "yes",
      "distance": 6535.23259134
    },
    {
      "id": 200232,
      "geometry": "POINT (-94.630065 38.957143)",
      "poi_name": "McDonald's",
      "osm_id": 1028301148,
      "amenity": "fast_food",
      "cuisine": "burger",
      "website": "https://www.mcdonalds.com/us/en-us/location/ks/leawood/3860-w-95th/11978.html",
      "takeaway": "yes",
      "distance": 8551.22004235
    },
    {
      "id": 207791,
      "geometry": "POINT (-94.630925 38.978023)",
      "poi_name": "Panera Bread",
      "osm_id": 4960806752,
      "amenity": "fast_food",
      "cuisine": "sandwich",
      "opening_hours": "Mo-Sa 06:00-21:00; Su 07:00-20:00",
      "takeaway": "yes",
      "distance": 7174.18774486
    },
    {
      "id": 204900,
      "geometry": "POINT (-94.464047 38.985136)",
      "poi_name": "Popeyes",
      "osm_id": 7149717871,
      "amenity": "fast_food",
      "cuisine": "chicken",
      "takeaway": "yes",
      "official_name": "Popeyes Louisiana Kitchen",
      "distance": 8810.22921497
    },
    {
      "id": 208408,
      "geometry": "POINT (-94.593856 39.053242)",
      "poi_name": "Raising Cane's",
      "osm_id": 4989083160,
      "amenity": "fast_food",
      "cuisine": "chicken",
      "opening_hours": "Mo-Su 10:00-22:00",
      "takeaway": "yes",
      "official_name": "Raising Cane's Chicken Fingers",
      "distance": 5491.77012896
    },
    {
      "id": 208986,
      "geometry": "POINT (-94.611594 39.050536)",
      "poi_name": "McDonald's",
      "osm_id": 5017684723,
      "amenity": "fast_food",
      "cuisine": "burger",
      "website": "https://www.mcdonalds.com/us/en-us/location/ks/kansas-city/4215-rainbow-boulevard/4056.html",
      "internet_access": "wlan",
      "takeaway": "yes",
      "distance": 6230.54090047
    },
    {
      "id": 211960,
      "geometry": "POINT (-94.581207 39.08467)",
      "poi_name": "Jimmy John's",
      "osm_id": 5180976076,
      "amenity": "fast_food",
      "cuisine": "sandwich",
      "phone": "+1-816-421-8900",
      "takeaway": "yes",
      "drive_through": "no",
      "official_name": "Jimmy John's Gourmet Sandwiches",
      "outdoor_seating": "yes",
      "delivery": "yes",
      "addr_state": "MO",
      "addr_city": "Kansas City",
      "addr_postcode": "64108",
      "addr_street": "Grand Boulevard",
      "addr_housenumber": "1103",
      "distance": 8338.12312741
    },
    {
      "id": 218172,
      "geometry": "POINT (-94.652144 39.022001)",
      "poi_name": "Fluffy Fresh Donuts",
      "osm_id": 9264581079,
      "amenity": "fast_food",
      "cuisine": "donut",
      "distance": 8065.11255953
    },
    {
      "id": 227109,
      "geometry": "POINT (-94.632673 39.029828)",
      "poi_name": "Einstein Bros. Bagels",
      "osm_id": 11180337473,
      "amenity": "fast_food",
      "cuisine": "bagel",
      "opening_hours": "Mo-Su 06:00-14:00",
      "website": "https://locations.einsteinbros.com/us/ks/fairway/4050-shawnee-mission-pkwy",
      "shop": "bakery",
      "internet_access": "wlan",
      "phone": "+1-913-384-1900",
      "takeaway": "yes",
      "drive_through": "no",
      "addr_state": "KS",
      "addr_city": "Roeland Park",
      "addr_postcode": "66205",
      "addr_street": "Shawnee Mission Parkway",
      "addr_housenumber": "4050",
      "distance": 6616.2773015
    },
    {
      "id": 208438,
      "geometry": "POINT (-94.591402 39.041605)",
      "poi_name": "Potbelly",
      "osm_id": 4991317193,
      "amenity": "fast_food",
      "cuisine": "sandwich",
      "takeaway": "yes",
      "official_name": "Potbelly Sandwich Works",
      "distance": 4316.03924443
    },
    {
      "id": 212656,
      "geometry": "POINT (-94.580052 39.089894)",
      "poi_name": "Papa John's",
      "osm_id": 5217047741,
      "amenity": "fast_food",
      "cuisine": "pizza",
      "takeaway": "yes",
      "distance": 8884.73444239
    },
    {
      "id": 232418,
      "geometry": "POINT (-94.469545 38.9928)",
      "poi_name": "Papa John's",
      "osm_id": 4523817602,
      "amenity": "fast_food",
      "cuisine": "pizza",
      "takeaway": "yes",
      "distance": 8104.4763176
    },
    {
      "id": 232648,
      "geometry": "POINT (-94.586002 39.062454)",
      "poi_name": "Panchos",
      "osm_id": 4536755040,
      "amenity": "fast_food",
      "cuisine": "mexican",
      "distance": 6097.77908634
    }
  ],
  "answer_type": "distance",
  "question_entities": {
    "[1]": {
      "main_category": "amenity",
      "sub_category": "fast food restaurant"
    },
    "[2]": {
      "distance": 10000,
      "text": "10 kilometers"
    },
    "[3]": {
      "main_category": "amenity",
      "sub_category": "hospital",
      "display_name": "Research Psychiatric Center, Kansas City, MO",
      "geo_wkt": "POINT (-94.560016 39.011403)",
      "poi": {
        "id": 182512,
        "geometry": "POINT (-94.560016 39.011403)",
        "poi_name": "Research Psychiatric Center",
        "osm_id": 10894596657,
        "amenity": "hospital",
        "wheelchair": "yes",
        "website": "https://hcamidwest.com/locations/research-psychiatric-center",
        "phone": "+1 816 444 8161",
        "healthcare": "hospital",
        "addr_state": "MO",
        "addr_city": "Kansas City",
        "addr_postcode": "64130",
        "addr_street": "East 63rd Street",
        "addr_housenumber": "2323"
      }
    }
  },
  "id": 757,
  "type": "range+distance"
}