{
  "question": "Seeking a chicken restaurant, ideally within 80 kilometers of J.C. Lore Oyster House, Solomons, MD. Can you find one for me?",
  "sql": "SELECT * FROM pois\nWHERE ST_DWithin(pois.geometry, ST_GeomFromText('POINT (-76.46077 38.324335)',4326)::geography, 80000)\nAND amenity = 'restaurant'\nAND cuisine ILIKE '%chicken%';\n",
  "answers": [
    {
      "id": 33366,
      "geometry": "POINT (-76.660198 38.716111)",
      "poi_name": "Chesapeake Grille & Deli",
      "osm_id": 2663457970,
      "amenity": "restaurant",
      "cuisine": "regional;burger;chicken;seafood;pasta",
      "wheelchair": "yes",
      "opening_hours": "Mo-Th,Su 11:00-21:00; Fr,Sa 11:00-22:00",
      "website": "https://eatchesapeake.com",
      "internet_access": "wlan",
      "phone": "+1 410 286 5939",
      "takeaway": "yes",
      "outdoor_seating": "yes",
      "delivery": "yes",
      "addr_state": "MD",
      "addr_city": "Dunkirk",
      "addr_postcode": "20754",
      "addr_street": "Southern Maryland Boulevard",
      "addr_housenumber": "10092"
    },
    {
      "id": 39149,
      "geometry": "POINT (-77.001084 38.875195)",
      "poi_name": "Nando's",
      "osm_id": 2906355784,
      "amenity": "restaurant",
      "cuisine": "chicken;portuguese",
      "wheelchair": "yes",
      "toilets": "yes"
    },
    {
      "id": 61370,
      "geometry": "POINT (-77.133497 38.810734)",
      "poi_name": "Emma's Chicken",
      "osm_id": 5514947245,
      "amenity": "restaurant",
      "cuisine": "chicken",
      "addr_state": "VA",
      "addr_city": "Alexandria",
      "addr_postcode": "22304",
      "addr_street": "South Van Dorn Street",
      "addr_housenumber": "279"
    },
    {
      "id": 70743,
      "geometry": "POINT (-77.268151 38.63557)",
      "poi_name": "Rocco Chicken",
      "osm_id": 11372381064,
      "amenity": "restaurant",
      "cuisine": "chicken"
    },
    {
      "id": 128516,
      "geometry": "POINT (-77.085917 38.749952)",
      "poi_name": "Capital Chicken",
      "osm_id": 8167063463,
      "amenity": "restaurant",
      "cuisine": "peruvian;fast_food;chicken;latin_american",
      "opening_hours": "Mo-Sa 11:00-21:00",
      "phone": "+1 571-777-5767",
      "takeaway": "yes",
      "addr_state": "VA",
      "addr_city": "Alexandria",
      "addr_postcode": "22306",
      "addr_street": "Richmond Highway",
      "addr_housenumber": "7698"
    },
    {
      "id": 90498,
      "geometry": "POINT (-77.015286 38.783966)",
      "poi_name": "Nando's",
      "osm_id": 1998093339,
      "amenity": "restaurant",
      "cuisine": "chicken;portuguese",
      "addr_postcode": "20745",
      "addr_street": "American Way",
      "addr_housenumber": "191"
    },
    {
      "id": 96150,
      "geometry": "POINT (-76.993194 38.726407)",
      "poi_name": "Silvestre Chicken",
      "osm_id": 6421541606,
      "amenity": "restaurant",
      "cuisine": "chicken",
      "opening_hours": "Mo-Su 11:00-21:00",
      "addr_city": "Fort Washington",
      "addr_postcode": "20744",
      "addr_street": "Swan Creek Road East",
      "addr_housenumber": "954"
    },
    {
      "id": 104197,
      "geometry": "POINT (-77.120626 38.724153)",
      "poi_name": "Wing Zone",
      "osm_id": 8554710499,
      "amenity": "restaurant",
      "cuisine": "wings;burger;chicken;fried_chicken",
      "opening_hours": "Mo-Su 11:00-23:00",
      "website": "https://www.wingzone.com/alexandria-richmond-hwy/",
      "phone": "+1 703-844-3889",
      "addr_state": "VA",
      "addr_city": "Alexandria",
      "addr_postcode": "22309",
      "addr_street": "Richmond Highway",
      "addr_housenumber": "8634"
    },
    {
      "id": 118315,
      "geometry": "POINT (-77.06314 38.86315)",
      "poi_name": "Nando's",
      "osm_id": 9039212577,
      "amenity": "restaurant",
      "cuisine": "chicken;portuguese",
      "opening_hours": "Mo-Th 10:30-22:00; Fr-Sa 10:30-23:00; Su 10:30-22:00",
      "website": "https://www.nandosperiperi.com/find/pentagon-row",
      "phone": "+1 571-858-9953"
    },
    {
      "id": 127738,
      "geometry": "POINT (-77.082447 38.769275)",
      "poi_name": "Bonchon Chicken",
      "osm_id": 8089926041,
      "amenity": "restaurant",
      "cuisine": "chicken;korean;sushi",
      "opening_hours": "Mo-Th 11:00-11:30, Fr-Sa 11:00-02:00, Su 11:00-10:30",
      "website": "https://bonchon.com/locations-menus",
      "phone": "+1 703-347-7665",
      "addr_state": "VA",
      "addr_city": "Groveton",
      "addr_postcode": "22306",
      "addr_street": "Richmond Highway",
      "addr_housenumber": "6852"
    },
    {
      "id": 208130,
      "geometry": "POINT (-76.99755 38.900033)",
      "poi_name": "Farmbird",
      "osm_id": 4974355668,
      "amenity": "restaurant",
      "cuisine": "chicken",
      "wheelchair": "yes",
      "website": "http://www.farmbird.com"
    },
    {
      "id": 160842,
      "geometry": "POINT (-77.0118 38.900399)",
      "poi_name": "District Rico",
      "osm_id": 4849916356,
      "amenity": "restaurant",
      "cuisine": "chicken;peruvian",
      "opening_hours": "Mo-Sa 10:30-21:00, Su 11:00-20:00",
      "takeaway": "yes",
      "outdoor_seating": "no",
      "addr_state": "DC",
      "addr_city": "Washington",
      "addr_postcode": "20001",
      "addr_street": "H Street Northwest",
      "addr_housenumber": "91"
    },
    {
      "id": 203222,
      "geometry": "POINT (-76.211128 38.772218)",
      "poi_name": "Sam's Pizza Restaurant",
      "osm_id": 7070669881,
      "amenity": "restaurant",
      "cuisine": "pizza;italian;burger;sandwich;chicken;greek",
      "phone": "+1-410-745-5955",
      "addr_state": "MD",
      "addr_city": "Saint Michaels",
      "addr_postcode": "21663",
      "addr_street": "South Talbot Street",
      "addr_housenumber": "1110"
    },
    {
      "id": 172343,
      "geometry": "POINT (-77.287379 38.628734)",
      "poi_name": "Nando's",
      "osm_id": 2400546621,
      "amenity": "restaurant",
      "cuisine": "chicken;portuguese"
    },
    {
      "id": 227323,
      "geometry": "POINT (-76.847122 38.922255)",
      "poi_name": "Nando's",
      "osm_id": 11188081236,
      "amenity": "restaurant",
      "cuisine": "chicken;portuguese",
      "opening_hours": "Su-Th 10:30-22:00; Fr,Sa 10:30-23:00",
      "outdoor_seating": "yes",
      "addr_state": "MD",
      "addr_city": "Lanham",
      "addr_postcode": "20706",
      "addr_street": "Campus Way North",
      "addr_housenumber": "2700"
    },
    {
      "id": 211006,
      "geometry": "POINT (-77.007666 38.878253)",
      "poi_name": "Bonchon Chicken",
      "osm_id": 5135556248,
      "amenity": "restaurant",
      "cuisine": "chicken;korean;sushi",
      "wheelchair": "yes",
      "opening_hours": "Mo-Th 11:30-21:30, Fr-Sa 11:30-23:00, Su 11:30-21:30",
      "website": "https://bonchon.com/",
      "takeaway": "yes",
      "outdoor_seating": "yes",
      "addr_state": "DC",
      "addr_city": "Washington",
      "addr_postcode": "20003",
      "addr_street": "Half Street Southeast",
      "addr_housenumber": "1015"
    },
    {
      "id": 227327,
      "geometry": "POINT (-76.847135 38.922244)",
      "poi_name": "Nando's",
      "osm_id": 11188152524,
      "amenity": "restaurant",
      "cuisine": "chicken;portuguese"
    },
    {
      "id": 228465,
      "geometry": "POINT (-76.592447 38.552416)",
      "poi_name": "Golden Chicken and Japanese Grill",
      "osm_id": 4344633330,
      "amenity": "restaurant",
      "cuisine": "chicken;japanese",
      "wheelchair": "yes",
      "opening_hours": "Mo-Th 10:30-21:00; Fr-Sa 10:30-22:00; Su 11:00-21:00",
      "website": "http://mygoldenchicken.com",
      "internet_access": "no",
      "phone": "+1 410 535 5984",
      "takeaway": "yes",
      "outdoor_seating": "no",
      "delivery": "no",
      "toilets": "yes",
      "addr_street": "North Solomons Island Road",
      "addr_housenumber": "537"
    },
    {
      "id": 244536,
      "geometry": "POINT (-77.163032 38.742358)",
      "poi_name": "Peri Peri Original",
      "osm_id": 7729144496,
      "amenity": "restaurant",
      "cuisine": "chicken",
      "opening_hours": "Mo-Th 11:00-22:00; Fr,Sa 11:00-23:00; Su 12:00-22:00",
      "website": "https://www.periperioriginal.com/",
      "phone": "+1 703-337-2399"
    },
    {
      "id": 244541,
      "geometry": "POINT (-77.165786 38.740943)",
      "poi_name": "Chi Mc Chicken & Beer",
      "osm_id": 7729207688,
      "amenity": "restaurant",
      "cuisine": "chicken",
      "opening_hours": "Mo-Sa 11:00-21:00; Su 12:00-19:00",
      "website": "https://chimcusa.com/",
      "phone": "+1 571-257-6688"
    },
    {
      "id": 244542,
      "geometry": "POINT (-77.125932 38.719882)",
      "poi_name": "Su Pollo",
      "osm_id": 7729215734,
      "amenity": "restaurant",
      "cuisine": "chicken;peruvian",
      "website": "http://www.supollorestaurant.com/",
      "phone": "+1 703-799-6577",
      "addr_state": "VA",
      "addr_city": "Alexandria",
      "addr_postcode": "22309",
      "addr_street": "Richmond Highway",
      "addr_housenumber": "8741"
    },
    {
      "id": 239691,
      "geometry": "POINT (-76.613594 38.616569)",
      "poi_name": "Old Town Cafe",
      "osm_id": 5935373734,
      "amenity": "restaurant",
      "cuisine": "american;chicken;sandwich",
      "opening_hours": "Mo-We 10:00-19:00;Th 10:00-20:00;Fr-Sa 10:00-21:00;Su 11:00-18:00",
      "phone": "+1 410 535 2355",
      "takeaway": "yes",
      "outdoor_seating": "yes",
      "delivery": "no",
      "addr_state": "MD",
      "addr_city": "Huntingtown",
      "addr_postcode": "20639",
      "addr_street": "Old Town Road",
      "addr_housenumber": "3930"
    },
    {
      "id": 245082,
      "geometry": "POINT (-77.084218 38.757795)",
      "poi_name": "El Pollo Primero Inc",
      "osm_id": 7765743293,
      "amenity": "restaurant",
      "cuisine": "chicken",
      "phone": "+1 703-765-0093",
      "addr_state": "VA",
      "addr_city": "Alexandria",
      "addr_postcode": "22306",
      "addr_street": "Richmond Highway",
      "addr_housenumber": "7324"
    }
  ],
  "answer_type": "name",
  "question_entities": {
    "[1]": {
      "main_category": "amenity",
      "sub_category": "restaurant",
      "poi_filter_desc": "chicken restaurant",
      "poi_filter_sql": "cuisine ILIKE '%chicken%'"
    },
    "[2]": {
      "distance": 80000,
      "text": "80 kilometers"
    },
    "[3]": {
      "main_category": "tourism",
      "sub_category": "museum",
      "display_name": "J.C. Lore Oyster House, Solomons, MD",
      "geo_wkt": "POINT (-76.46077 38.324335)",
      "poi": {
        "id": 1342,
        "geometry": "POINT (-76.46077 38.324335)",
        "poi_name": "J.C. Lore Oyster House",
        "osm_id": 2946330133,
        "tourism": "museum",
        "wheelchair": "limited",
        "opening_hours": "closed",
        "website": "http://www.calvertmarinemuseum.com/191/Lore-Oyster-House",
        "phone": "+1-410-326-2042",
        "addr_state": "MD",
        "addr_city": "Solomons",
        "addr_postcode": "20688",
        "addr_street": "South Solomons Island Road"
      }
    }
  },
  "id": 555,
  "type": "range:non_spat_filter+name"
}