{
  "question": "Which gallery is located to the southeast of UCLA Extension, Woodland Hills, CA, within a radius of 50 kilometers?",
  "sql": "\nWITH origin AS  (SELECT ST_GeomFromText('POINT (-118.601019 34.178993)',4326)::geography AS geometry)\nSELECT * FROM pois, origin\nWHERE ST_DWithin(pois.geometry, ST_GeomFromText('POINT (-118.601019 34.178993)',4326)::geography, 50000)\nAND tourism = 'gallery'\nAND degrees(ST_Azimuth(origin.geometry, pois.geometry)) BETWEEN 112.5 AND 157.5;\n",
  "answers": [
    {
      "id": 2630,
      "geometry": "POINT (-118.601019 34.178993)",
      "poi_name": "Morono Kiang Gallery",
      "osm_id": 536322268,
      "tourism": "gallery"
    },
    {
      "id": 2666,
      "geometry": "POINT (-118.601019 34.178993)",
      "poi_name": "NORBERTELLEN GALLERY",
      "osm_id": 543989751,
      "tourism": "gallery"
    },
    {
      "id": 2667,
      "geometry": "POINT (-118.601019 34.178993)",
      "poi_name": "Continental Gallery",
      "osm_id": 543989799,
      "tourism": "gallery"
    },
    {
      "id": 2668,
      "geometry": "POINT (-118.601019 34.178993)",
      "poi_name": "Crack Gallery",
      "osm_id": 543989864,
      "tourism": "gallery",
      "wheelchair": "limited"
    },
    {
      "id": 2670,
      "geometry": "POINT (-118.601019 34.178993)",
      "poi_name": "Julie Rico Gallery",
      "osm_id": 543989942,
      "amenity": "arts_centre",
      "tourism": "gallery"
    },
    {
      "id": 2671,
      "geometry": "POINT (-118.601019 34.178993)",
      "poi_name": "Arty",
      "osm_id": 543990045,
      "tourism": "gallery"
    },
    {
      "id": 2672,
      "geometry": "POINT (-118.601019 34.178993)",
      "poi_name": "Rooftop Gallery",
      "osm_id": 543990058,
      "tourism": "gallery"
    },
    {
      "id": 2673,
      "geometry": "POINT (-118.601019 34.178993)",
      "poi_name": "The Last Laugh",
      "osm_id": 543990082,
      "tourism": "gallery"
    },
    {
      "id": 2674,
      "geometry": "POINT (-118.601019 34.178993)",
      "poi_name": "Fifty/ 24LA Gallery",
      "osm_id": 543990097,
      "tourism": "gallery"
    },
    {
      "id": 2675,
      "geometry": "POINT (-118.601019 34.178993)",
      "poi_name": "Compact Space",
      "osm_id": 543990111,
      "tourism": "gallery"
    },
    {
      "id": 2676,
      "geometry": "POINT (-118.601019 34.178993)",
      "poi_name": "Ground Floor Gallery at Santee Court",
      "osm_id": 543990163,
      "tourism": "gallery"
    },
    {
      "id": 2677,
      "geometry": "POINT (-118.601019 34.178993)",
      "poi_name": "The Hive",
      "osm_id": 543990188,
      "tourism": "gallery",
      "wheelchair": "yes"
    },
    {
      "id": 2678,
      "geometry": "POINT (-118.601019 34.178993)",
      "poi_name": "G727",
      "osm_id": 543990216,
      "tourism": "gallery"
    },
    {
      "id": 2679,
      "geometry": "POINT (-118.601019 34.178993)",
      "poi_name": "Infusion Gallery",
      "osm_id": 543990236,
      "tourism": "gallery"
    },
    {
      "id": 2680,
      "geometry": "POINT (-118.601019 34.178993)",
      "poi_name": "7+FIG Art Space",
      "osm_id": 543990271,
      "tourism": "gallery"
    },
    {
      "id": 2682,
      "geometry": "POINT (-118.601019 34.178993)",
      "poi_name": "PYO Gallery",
      "osm_id": 543990327,
      "tourism": "gallery"
    },
    {
      "id": 2683,
      "geometry": "POINT (-118.601019 34.178993)",
      "poi_name": "The Landing Party",
      "osm_id": 543990380,
      "tourism": "gallery"
    },
    {
      "id": 2684,
      "geometry": "POINT (-118.601019 34.178993)",
      "poi_name": "Phantom Galleries LA",
      "osm_id": 543990434,
      "tourism": "gallery"
    },
    {
      "id": 2685,
      "geometry": "POINT (-118.601019 34.178993)",
      "poi_name": "Gallery 1927 at the Fine Arts Building",
      "osm_id": 543990451,
      "tourism": "gallery"
    },
    {
      "id": 3010,
      "geometry": "POINT (-118.601019 34.178993)",
      "poi_name": "Los Angeles Central Library Getty Gallery",
      "osm_id": 10128527537,
      "tourism": "gallery",
      "fee": "no",
      "opening_hours": "Mo-Th 10:00-20:00; Fr-Sa 09:30-17:30; Su 13:00-17:00",
      "operator": "Los Angeles Public Library",
      "website": "https://www.lapl.org/branches/central-library",
      "internet_access": "wlan"
    },
    {
      "id": 5136,
      "geometry": "POINT (-118.601019 34.178993)",
      "poi_name": "Bo Bridges Gallery",
      "osm_id": 9773757140,
      "tourism": "gallery"
    },
    {
      "id": 8138,
      "geometry": "POINT (-118.601019 34.178993)",
      "poi_name": "Dion Gallery",
      "osm_id": 6573354976,
      "tourism": "gallery",
      "fee": "no",
      "addr_street": "South Catalina Avenue",
      "addr_housenumber": "1907\u00bd"
    },
    {
      "id": 11312,
      "geometry": "POINT (-118.601019 34.178993)",
      "poi_name": "Potter's Ensemble",
      "osm_id": 9925801736,
      "tourism": "gallery",
      "addr_street": "Aviation Boulevard",
      "addr_housenumber": "1093"
    },
    {
      "id": 13990,
      "geometry": "POINT (-118.601019 34.178993)",
      "poi_name": "Diego Cardoso",
      "osm_id": 4209859291,
      "tourism": "gallery",
      "operator": "Diego Cardoso",
      "website": "http://www.cardosoart.com/",
      "addr_state": "CA",
      "addr_city": "Los Angeles",
      "addr_postcode": "90014",
      "addr_street": "South Los Angeles Street",
      "addr_housenumber": "738 #4"
    },
    {
      "id": 19808,
      "geometry": "POINT (-118.601019 34.178993)",
      "poi_name": "The Graff Lab",
      "osm_id": 10884029114,
      "tourism": "gallery",
      "website": "https://thegrafflab.com/",
      "addr_state": "CA",
      "addr_city": "Los Angeles",
      "addr_postcode": "90015",
      "addr_street": "Venice Boulevard",
      "addr_housenumber": "1038"
    },
    {
      "id": 19903,
      "geometry": "POINT (-118.601019 34.178993)",
      "poi_name": "Ten Women Gallery",
      "osm_id": 10938996392,
      "tourism": "gallery"
    },
    {
      "id": 21469,
      "geometry": "POINT (-118.601019 34.178993)",
      "poi_name": "Benjamin Creme Museum",
      "osm_id": 10276554663,
      "tourism": "gallery"
    },
    {
      "id": 21838,
      "geometry": "POINT (-118.601019 34.178993)",
      "poi_name": "The LA Art Box",
      "osm_id": 10692302505,
      "tourism": "gallery",
      "website": "https://thelaartbox.com/",
      "phone": "+13236128112",
      "addr_postcode": "90046",
      "addr_street": "Melrose Avenue",
      "addr_housenumber": "8020"
    },
    {
      "id": 2702,
      "geometry": "POINT (-118.601019 34.178993)",
      "poi_name": "LA Artcore Center",
      "osm_id": 557235952,
      "tourism": "gallery"
    },
    {
      "id": 3053,
      "geometry": "POINT (-118.601019 34.178993)",
      "poi_name": "Ernie Wolfe Gallery",
      "osm_id": 10147976883,
      "tourism": "gallery"
    },
    {
      "id": 3054,
      "geometry": "POINT (-118.601019 34.178993)",
      "poi_name": "Turkana",
      "osm_id": 10147976884,
      "tourism": "gallery"
    },
    {
      "id": 9960,
      "geometry": "POINT (-118.601019 34.178993)",
      "poi_name": "ONE Gallery, West Hollywood",
      "osm_id": 9080893920,
      "tourism": "gallery",
      "website": "https://www.onearchives.org/",
      "addr_state": "CA",
      "addr_city": "West Hollywood",
      "addr_postcode": "90069",
      "addr_street": "North Robertson Boulevard",
      "addr_housenumber": "626"
    },
    {
      "id": 12121,
      "geometry": "POINT (-118.601019 34.178993)",
      "poi_name": "Track 16 Gallery 1",
      "osm_id": 6197156485,
      "tourism": "gallery",
      "opening_hours": "We-Sa 12:00-18:00",
      "website": "https://www.track16.com/",
      "phone": "1-310-815-8080",
      "addr_state": "CA",
      "addr_city": "Los Angeles",
      "addr_postcode": "90015",
      "addr_street": "Maple Avenue",
      "addr_housenumber": "1206"
    },
    {
      "id": 12345,
      "geometry": "POINT (-118.601019 34.178993)",
      "poi_name": "Michael",
      "osm_id": 6304371756,
      "tourism": "gallery",
      "website": "https://galeriemichael.com/"
    },
    {
      "id": 13860,
      "geometry": "POINT (-118.601019 34.178993)",
      "poi_name": "Hauser & Wirth",
      "osm_id": 4160635189,
      "tourism": "gallery",
      "website": "https://www.hauserwirth.com",
      "phone": "+1-213-943-1620",
      "addr_street": "East 3rd Street",
      "addr_housenumber": "901"
    },
    {
      "id": 13861,
      "geometry": "POINT (-118.601019 34.178993)",
      "poi_name": "EDA Gallery",
      "osm_id": 4160944256,
      "tourism": "gallery",
      "operator": "UCLA Design | Media Arts Department"
    },
    {
      "id": 13862,
      "geometry": "POINT (-118.601019 34.178993)",
      "poi_name": "UCLA New Wight Gallery",
      "osm_id": 4160944257,
      "tourism": "gallery",
      "operator": "UCLA Arts"
    },
    {
      "id": 19399,
      "geometry": "POINT (-118.601019 34.178993)",
      "poi_name": "Art + Practice",
      "osm_id": 10744564551,
      "tourism": "gallery",
      "fee": "no",
      "opening_hours": "Tu-Sa 11:00-17:00",
      "website": "https://artandpractice.org/"
    },
    {
      "id": 23365,
      "geometry": "POINT (-118.601019 34.178993)",
      "poi_name": "Art on Scene",
      "osm_id": 5145895714,
      "tourism": "gallery",
      "opening_hours": "Tu-Sa 11:00-16:00",
      "website": "http://artonscene.com",
      "phone": "+1-424-335-0288",
      "artwork_type": "painting",
      "addr_state": "CA",
      "addr_city": "West Hollywood",
      "addr_postcode": "90069",
      "addr_street": "West Sunset Boulevard",
      "addr_housenumber": "8521"
    },
    {
      "id": 24320,
      "geometry": "POINT (-118.601019 34.178993)",
      "poi_name": "Bruce Lurie Gallery",
      "osm_id": 11004370904,
      "tourism": "gallery",
      "addr_state": "CA",
      "addr_city": "Pacific Palisades",
      "addr_postcode": "90272",
      "addr_street": "Via de la Paz",
      "addr_housenumber": "873"
    },
    {
      "id": 25170,
      "geometry": "POINT (-118.601019 34.178993)",
      "poi_name": "photographers'gallery.com",
      "osm_id": 4416411806,
      "tourism": "gallery"
    }
  ],
  "answer_type": "name",
  "question_entities": {
    "[1]": {
      "main_category": "tourism",
      "sub_category": "gallery"
    },
    "[2]": {
      "distance": 50000,
      "text": "50 kilometers"
    },
    "[3]": {
      "main_category": "amenity",
      "sub_category": "university",
      "display_name": "UCLA Extension, Woodland Hills, CA",
      "geo_wkt": "POINT (-118.601019 34.178993)",
      "poi": {
        "id": 106494,
        "geometry": "POINT (-118.601019 34.178993)",
        "poi_name": "UCLA Extension",
        "osm_id": 8682927461,
        "amenity": "university",
        "operator": "UCLA",
        "website": "https://www.uclaextension.edu/locations/woodland-hills",
        "addr_state": "CA",
        "addr_city": "Woodland Hills",
        "addr_postcode": "91367",
        "addr_street": "Oxnard Street",
        "addr_housenumber": "21650"
      }
    },
    "[4]": {
      "direction_desc": "southeast",
      "direction_predicate": "degrees(ST_Azimuth(origin.geometry, pois.geometry)) BETWEEN 112.5 AND 157.5"
    }
  },
  "id": 2676,
  "type": "range:direction+name"
}