{
  "question": "Could you locate a restaurant with outdoor seating available within a 130 kilometers radius originating from Flippo Gallery, Hanover County, VA?",
  "sql": "SELECT * FROM pois\nWHERE ST_DWithin(pois.geometry, ST_GeomFromText('POINT (-77.479706 37.76135)',4326)::geography, 130000)\nAND amenity = 'restaurant'\nAND outdoor_seating ILIKE '%yes%';\n",
  "answers": [
    {
      "id": 33366,
      "geometry": "POINT (-76.660198 38.716111)",
      "poi_name": "Chesapeake Grille & Deli",
      "osm_id": 2663457970,
      "amenity": "restaurant",
      "cuisine": "regional;burger;chicken;seafood;pasta",
      "wheelchair": "yes",
      "opening_hours": "Mo-Th,Su 11:00-21:00; Fr,Sa 11:00-22:00",
      "website": "https://eatchesapeake.com",
      "internet_access": "wlan",
      "phone": "+1 410 286 5939",
      "takeaway": "yes",
      "outdoor_seating": "yes",
      "delivery": "yes",
      "addr_state": "MD",
      "addr_city": "Dunkirk",
      "addr_postcode": "20754",
      "addr_street": "Southern Maryland Boulevard",
      "addr_housenumber": "10092"
    },
    {
      "id": 36850,
      "geometry": "POINT (-77.094322 38.887006)",
      "poi_name": "Circa",
      "osm_id": 2788369922,
      "amenity": "restaurant",
      "cuisine": "american",
      "wheelchair": "yes",
      "opening_hours": "Mo-Th 11:00-22:00; Fr 11:00-23:00; Sa 10:30-23:00; Su 10:30-21:00",
      "website": "https://www.circabistros.com/location/clarendon/",
      "phone": "+1 703-522-3010",
      "outdoor_seating": "yes",
      "toilets": "yes",
      "addr_state": "VA",
      "addr_city": "Arlington",
      "addr_postcode": "22201",
      "addr_street": "Clarendon Boulevard",
      "addr_housenumber": "3010"
    },
    {
      "id": 36851,
      "geometry": "POINT (-77.094616 38.887339)",
      "poi_name": "Four Sisters Grill",
      "osm_id": 2788370115,
      "amenity": "restaurant",
      "cuisine": "vietnamese",
      "opening_hours": "Mo-Su 11:00-21:00",
      "website": "https://www.foursistersgrill.com/",
      "phone": "+1 703-243-9020",
      "outdoor_seating": "yes",
      "addr_state": "VA",
      "addr_city": "Arlington",
      "addr_postcode": "22201",
      "addr_street": "Clarendon Boulevard",
      "addr_housenumber": "3035"
    },
    {
      "id": 36879,
      "geometry": "POINT (-77.094912 38.885498)",
      "poi_name": "Lyon Hall",
      "osm_id": 2789338895,
      "amenity": "restaurant",
      "cuisine": "french",
      "opening_hours": "Mo-Th 16:00-21:30; Fr 11:30-22:30; Sa 10:00-22:30; Su 10:00-21:30",
      "website": "http://lyonhallarlington.com",
      "phone": "+1-703-741-7636",
      "takeaway": "yes",
      "outdoor_seating": "yes",
      "addr_state": "VA",
      "addr_city": "Arlington",
      "addr_postcode": "22201",
      "addr_street": "Washington Boulevard",
      "addr_housenumber": "3100"
    },
    {
      "id": 36880,
      "geometry": "POINT (-77.095978 38.886182)",
      "poi_name": "Bar Bao",
      "osm_id": 2789338898,
      "amenity": "restaurant",
      "cuisine": "asian",
      "wheelchair": "yes",
      "opening_hours": "Mo-Th 11:00-24:00; Fr-Sa 11:00-02:00; Su 11:00-22:00",
      "website": "http://barbao.com/",
      "phone": "+1-703-600-0500",
      "outdoor_seating": "yes",
      "addr_state": "VA",
      "addr_city": "Arlington",
      "addr_postcode": "22201",
      "addr_street": "Clarendon Boulevard",
      "addr_housenumber": "3100"
    },
    {
      "id": 40478,
      "geometry": "POINT (-76.600124 38.556067)",
      "poi_name": "Salsarita's Fresh Cantina",
      "osm_id": 2971038446,
      "amenity": "restaurant",
      "cuisine": "mexican",
      "wheelchair": "yes",
      "opening_hours": "Mo-Sa 11:00-21:00; Su 11:00-20:00; Jan 1,Dec 25 off; Dec 24 11:00-16:00; Dec 31 11:00-18:00",
      "website": "https://salsaritas.com/locations/?loc=Prince%20Frederick,%20MD,%20USA&viewMode=map",
      "internet_access": "wlan",
      "phone": "+1 410 535 5580",
      "takeaway": "yes",
      "outdoor_seating": "yes",
      "delivery": "yes",
      "toilets": "yes",
      "addr_city": "Prince Frederick",
      "addr_postcode": "20678",
      "addr_street": "Costley Way",
      "addr_housenumber": "906"
    },
    {
      "id": 41885,
      "geometry": "POINT (-76.584111 38.533608)",
      "poi_name": "Three Brothers Italian Restaurant",
      "osm_id": 3029801379,
      "amenity": "restaurant",
      "cuisine": "italian;sandwich;pizza",
      "wheelchair": "yes",
      "opening_hours": "Mo-Th 11:00-21:00; Fr-Sa 11:00-21:30; Su 11:00-20:00",
      "website": "https://www.threebrothersprincefrederick.com/",
      "internet_access": "no",
      "phone": "+1 410 414 3344",
      "takeaway": "yes",
      "outdoor_seating": "yes",
      "delivery": "yes",
      "addr_state": "MD",
      "addr_city": "Prince Frederick",
      "addr_postcode": "20678",
      "addr_street": "Sherry Lane",
      "addr_housenumber": "65"
    },
    {
      "id": 42106,
      "geometry": "POINT (-77.114553 38.88009)",
      "poi_name": "Mussel Bar & Grille",
      "osm_id": 3044498408,
      "amenity": "restaurant",
      "cuisine": "belgian",
      "wheelchair": "yes",
      "opening_hours": "Mo-Fr 11:30-22:00; Sa-Su 15:00-22:00",
      "website": "https://www.musselbar.com/locations/arlington/",
      "phone": "+1-703-841-2337",
      "outdoor_seating": "yes",
      "addr_state": "VA",
      "addr_city": "Arlington",
      "addr_postcode": "22203",
      "addr_street": "North Glebe Road",
      "addr_housenumber": "800"
    },
    {
      "id": 42653,
      "geometry": "POINT (-77.455898 37.544679)",
      "poi_name": "Crazy Thai",
      "osm_id": 3074376683,
      "amenity": "restaurant",
      "cuisine": "thai",
      "description": "Local eatery serving a menu of classic Thai dishes, including curries & noodles, in a casual space.",
      "website": "https://www.facebook.com/crazythairva",
      "phone": "+1 804-716-8445",
      "takeaway": "yes",
      "outdoor_seating": "yes",
      "addr_state": "VA",
      "addr_city": "Richmond City",
      "addr_postcode": "23220",
      "addr_street": "West Cary Street",
      "addr_housenumber": "1100"
    },
    {
      "id": 42654,
      "geometry": "POINT (-77.458847 37.545556)",
      "poi_name": "Little Mexico",
      "osm_id": 3074376688,
      "amenity": "restaurant",
      "opening_hours": "Mo-Th 11:00-22:00; Fr 11:00-22:30; Sa 11:00-22:00; Su 11:00-21:00",
      "website": "https://www.littlemexicova.com/",
      "takeaway": "yes",
      "outdoor_seating": "yes",
      "delivery": "yes",
      "addr_state": "VA",
      "addr_city": "Richmond",
      "addr_postcode": "23220",
      "addr_street": "West Cary Street",
      "addr_housenumber": "1328"
    },
    {
      "id": 45749,
      "geometry": "POINT (-76.591423 38.546363)",
      "poi_name": "Gordy's",
      "osm_id": 3227318415,
      "amenity": "restaurant",
      "cuisine": "american;tex-mex;wings",
      "wheelchair": "yes",
      "opening_hours": "Mo-Th, Su 11:30-20:30; Fr, Sa 11:30-21:30",
      "website": "https://www.gordysplace.com/",
      "phone": "+1 410 535 2428",
      "takeaway": "only",
      "outdoor_seating": "yes",
      "delivery": "no",
      "toilets": "yes",
      "addr_state": "MD",
      "addr_city": "Prince Frederick",
      "addr_postcode": "20678",
      "addr_street": "West Dares Beach Road",
      "addr_housenumber": "135"
    },
    {
      "id": 51909,
      "geometry": "POINT (-77.062604 38.863603)",
      "poi_name": "Basic Burger",
      "osm_id": 565625973,
      "amenity": "restaurant",
      "cuisine": "burger",
      "opening_hours": "Mo-Th 12:00-21:00; Fr-Sa 12:00-22:00; Su 11:00-20:00",
      "website": "http://basicburger.com",
      "phone": "+1 703-248-9333",
      "outdoor_seating": "yes",
      "addr_state": "VA",
      "addr_city": "Arlington",
      "addr_postcode": "22202",
      "addr_street": "South Joyce Street",
      "addr_housenumber": "1101"
    },
    {
      "id": 57395,
      "geometry": "POINT (-77.550489 38.734203)",
      "poi_name": "Foster's Grille",
      "osm_id": 5335451013,
      "amenity": "restaurant",
      "cuisine": "burger",
      "takeaway": "yes",
      "outdoor_seating": "yes",
      "addr_state": "VA",
      "addr_city": "Bristow",
      "addr_postcode": "20136",
      "addr_street": "Bristow Center Drive",
      "addr_housenumber": "10266"
    },
    {
      "id": 57884,
      "geometry": "POINT (-77.399103 38.881077)",
      "poi_name": "Mission BBQ",
      "osm_id": 5355019921,
      "amenity": "restaurant",
      "cuisine": "barbecue",
      "wheelchair": "yes",
      "opening_hours": "Mo-Sa 11:00-21:00; Su 11:30-20:00",
      "website": "https://mission-bbq.com/",
      "phone": "+1 571-325-0975",
      "outdoor_seating": "yes",
      "delivery": "yes",
      "toilets": "yes",
      "addr_state": "VA",
      "addr_city": "Fairfax",
      "addr_postcode": "22033",
      "addr_street": "Route 50",
      "addr_housenumber": "13067"
    },
    {
      "id": 58088,
      "geometry": "POINT (-77.386797 38.780626)",
      "poi_name": "Trattoria Villagio",
      "osm_id": 5363946409,
      "amenity": "restaurant",
      "cuisine": "italian",
      "website": "https://trattoriavillagio.com/",
      "phone": "+1-703-543-2030",
      "takeaway": "yes",
      "outdoor_seating": "yes",
      "addr_state": "VA",
      "addr_city": "Clifton",
      "addr_postcode": "20124",
      "addr_street": "Main Street",
      "addr_housenumber": "7145"
    },
    {
      "id": 59632,
      "geometry": "POINT (-77.641274 38.844537)",
      "poi_name": "LNB Taphouse & Grille",
      "osm_id": 5435848791,
      "amenity": "restaurant",
      "cuisine": "american",
      "opening_hours": "Mo-Th 12:00-21:00; Fr-Sa 12:00-23:00; Su 12:00-21:00",
      "website": "https://www.lnbtaphouseandgrille.com/",
      "phone": "+1-703-754-1166",
      "outdoor_seating": "yes",
      "addr_state": "VA",
      "addr_city": "Haymarket",
      "addr_postcode": "20169",
      "addr_street": "Merchants View Square",
      "addr_housenumber": "5351"
    },
    {
      "id": 59983,
      "geometry": "POINT (-77.50673 38.239282)",
      "poi_name": "Salsaritas",
      "osm_id": 5451274590,
      "amenity": "restaurant",
      "cuisine": "mexican",
      "takeaway": "yes",
      "outdoor_seating": "yes",
      "delivery": "no",
      "addr_state": "VA",
      "addr_city": "Fredericksburg",
      "addr_postcode": "22407",
      "addr_street": "Southpoint Parkway",
      "addr_housenumber": "10117"
    },
    {
      "id": 61210,
      "geometry": "POINT (-77.506251 38.236673)",
      "poi_name": "Dickey's Barbecue Pit",
      "osm_id": 5503790567,
      "amenity": "restaurant",
      "cuisine": "barbecue",
      "capacity": "30",
      "takeaway": "yes",
      "outdoor_seating": "yes",
      "delivery": "no",
      "addr_state": "VA",
      "addr_city": "Fredericksburg",
      "addr_postcode": "22407",
      "addr_street": "Southpoint Parkway",
      "addr_housenumber": "10008"
    },
    {
      "id": 61213,
      "geometry": "POINT (-77.507115 38.241036)",
      "poi_name": "China King",
      "osm_id": 5503918597,
      "amenity": "restaurant",
      "cuisine": "chinese",
      "takeaway": "no",
      "outdoor_seating": "yes",
      "delivery": "yes",
      "addr_state": "VA",
      "addr_city": "Fredericksburg",
      "addr_postcode": "22407",
      "addr_street": "Southpoint Parkway",
      "addr_housenumber": "10211"
    },
    {
      "id": 63109,
      "geometry": "POINT (-77.639105 38.844784)",
      "poi_name": "Eugene's Sausage & Fries",
      "osm_id": 5600349268,
      "amenity": "restaurant",
      "opening_hours": "Su-Th 10:30-20:00; Fr-Sa 10:30-21:00",
      "website": "https://eatateugenes.com/",
      "phone": "+1-571-261-9737",
      "takeaway": "yes",
      "outdoor_seating": "yes",
      "addr_state": "VA",
      "addr_city": "Haymarket",
      "addr_postcode": "20169",
      "addr_street": "Merchants View Square",
      "addr_housenumber": "5551"
    },
    {
      "id": 64071,
      "geometry": "POINT (-77.47367 37.550514)",
      "poi_name": "Pizza and Beer of Richmond",
      "osm_id": 5640492424,
      "amenity": "restaurant",
      "cuisine": "pizza",
      "opening_hours": "Su-Th 11:00-22:00; Fr-Sa 11:00-23:00",
      "operator": "Eat Restaurant Partners",
      "website": "https://www.pbrva.com/",
      "internet_access": "wlan",
      "phone": "+1-804-242-0889",
      "takeaway": "yes",
      "outdoor_seating": "yes",
      "delivery": "yes",
      "addr_state": "VA",
      "addr_city": "Richmond City",
      "addr_postcode": "23220",
      "addr_street": "West Cary Street",
      "addr_housenumber": "2553"
    },
    {
      "id": 69969,
      "geometry": "POINT (-77.638882 38.813239)",
      "poi_name": "Parrando's Tex-Mex Grill",
      "osm_id": 11339188750,
      "amenity": "restaurant",
      "cuisine": "tex-mex",
      "outdoor_seating": "yes",
      "addr_state": "VA",
      "addr_city": "Haymarket",
      "addr_postcode": "20169",
      "addr_street": "Washington Street",
      "addr_housenumber": "15125"
    },
    {
      "id": 70641,
      "geometry": "POINT (-77.10778 38.87946)",
      "poi_name": "Taco Bamba",
      "osm_id": 11369515747,
      "amenity": "restaurant",
      "cuisine": "mexican",
      "wheelchair": "yes",
      "opening_hours": "Su-Th 09:00-21:00; Fr-Sa 09:00-22:00",
      "website": "https://www.tacobamba.com/location/taco-bamba-taqueria-ballston/",
      "phone": "+1-571-777-1477",
      "takeaway": "yes",
      "outdoor_seating": "yes",
      "addr_state": "VA",
      "addr_city": "Arlington",
      "addr_postcode": "22203",
      "addr_street": "Wilson Boulevard",
      "addr_housenumber": "4000"
    },
    {
      "id": 72026,
      "geometry": "POINT (-77.306199 38.846593)",
      "poi_name": "Courtside Thai Cusine",
      "osm_id": 11409156088,
      "amenity": "restaurant",
      "cuisine": "thai",
      "website": "https://courtsidethai.com",
      "phone": "+1 703-223-5400",
      "outdoor_seating": "yes",
      "addr_state": "VA",
      "addr_city": "Fairfax",
      "addr_postcode": "22030",
      "addr_street": "Chain Bridge Road",
      "addr_housenumber": "3981"
    },
    {
      "id": 73254,
      "geometry": "POINT (-76.721639 37.282358)",
      "poi_name": "Bonanza",
      "osm_id": 9622349572,
      "amenity": "restaurant",
      "outdoor_seating": "yes",
      "addr_state": "VA",
      "addr_city": "Williamsburg",
      "addr_postcode": "23185",
      "addr_street": "Monticello Avenue",
      "addr_housenumber": "200"
    },
    {
      "id": 76157,
      "geometry": "POINT (-77.094636 38.886028)",
      "poi_name": "Smokecraft Modern Barbecue",
      "osm_id": 9762699721,
      "amenity": "restaurant",
      "cuisine": "barbecue",
      "opening_hours": "Mo-Th 11:00-22:00; Fr 11:00-24:00; Sa 10:00-24:00; Su 10:00-22:00",
      "website": "https://www.smokecraftbbq.com/",
      "phone": "+1 571-312-8791",
      "outdoor_seating": "yes",
      "addr_state": "VA",
      "addr_city": "Arlington",
      "addr_postcode": "22201",
      "addr_street": "North Highland Street",
      "addr_housenumber": "1051"
    },
    {
      "id": 77418,
      "geometry": "POINT (-77.230592 38.870191)",
      "poi_name": "Urbano",
      "osm_id": 9821308296,
      "amenity": "restaurant",
      "cuisine": "mexican",
      "opening_hours": "Su-Th 11:00-23:00; Fr-Sa 11:00-00:00",
      "website": "https://www.urbano116.com/mosaic",
      "phone": "+1 571-282-3358",
      "outdoor_seating": "yes",
      "addr_state": "VA",
      "addr_city": "Fairfax",
      "addr_postcode": "22031",
      "addr_street": "District Avenue",
      "addr_housenumber": "2985"
    },
    {
      "id": 77419,
      "geometry": "POINT (-77.231194 38.869825)",
      "poi_name": "Pupatella",
      "osm_id": 9821370993,
      "amenity": "restaurant",
      "cuisine": "pizza",
      "opening_hours": "Su-Th 11:30-21:00; Fr-Sa 11:30-22:00",
      "website": "https://www.pupatella.com/",
      "phone": "+1 571-378-1896",
      "outdoor_seating": "yes",
      "addr_state": "VA",
      "addr_city": "Fairfax",
      "addr_postcode": "22031",
      "addr_street": "District Avenue",
      "addr_housenumber": "2980"
    },
    {
      "id": 80007,
      "geometry": "POINT (-77.304935 38.847534)",
      "poi_name": "Old Dominion Pizza Company",
      "osm_id": 844292001,
      "amenity": "restaurant",
      "cuisine": "pizza",
      "opening_hours": "Su-Th 11:00-21:00; Fr-Sa 11:00-22:00",
      "website": "https://www.olddominionpizza.com/location/fairfax-city/",
      "phone": "+1 571-407-5218",
      "outdoor_seating": "yes",
      "addr_state": "VA",
      "addr_city": "Fairfax",
      "addr_postcode": "22030",
      "addr_street": "University Drive",
      "addr_housenumber": "3950"
    },
    {
      "id": 80305,
      "geometry": "POINT (-77.058249 38.803975)",
      "poi_name": "Laporta's",
      "osm_id": 875506954,
      "amenity": "restaurant",
      "cuisine": "italian",
      "website": "http://www.laportas.net/",
      "phone": "+1 703-683-6313",
      "outdoor_seating": "yes",
      "addr_state": "VA",
      "addr_city": "Alexandria",
      "addr_postcode": "22314",
      "addr_street": "Duke Street",
      "addr_housenumber": "1600"
    },
    {
      "id": 80311,
      "geometry": "POINT (-77.058004 38.823441)",
      "poi_name": "Rosemarino d'Italia",
      "osm_id": 875529354,
      "amenity": "restaurant",
      "cuisine": "italian",
      "opening_hours": "Mo-Th, Su 16:30-21:30; Fr, Sa 16:30-22:00",
      "website": "https://rosemarinoditalia.com/",
      "phone": "+1 703-299-8906",
      "outdoor_seating": "yes",
      "addr_state": "VA",
      "addr_city": "Alexandria",
      "addr_postcode": "22301",
      "addr_street": "Mount Vernon Avenue",
      "addr_housenumber": "1905"
    },
    {
      "id": 83096,
      "geometry": "POINT (-77.044962 38.804638)",
      "poi_name": "Le Madeleine",
      "osm_id": 1728146257,
      "amenity": "restaurant",
      "cuisine": "french",
      "website": "https://lamadeleine.com/locations/alexandria",
      "phone": "+1 703-739-2854",
      "outdoor_seating": "yes",
      "restaurant": "cafe",
      "addr_state": "VA",
      "addr_city": "Alexandria",
      "addr_postcode": "22314",
      "addr_street": "King Street",
      "addr_housenumber": "500"
    },
    {
      "id": 90912,
      "geometry": "POINT (-77.056719 38.741693)",
      "poi_name": "Roseina's",
      "osm_id": 2026415483,
      "amenity": "restaurant",
      "cuisine": "american",
      "takeaway": "yes",
      "outdoor_seating": "yes",
      "addr_state": "VA",
      "addr_city": "Alexandria",
      "addr_postcode": "22308",
      "addr_street": "Shenandoah Road",
      "addr_housenumber": "1307"
    },
    {
      "id": 110851,
      "geometry": "POINT (-77.22944 38.871863)",
      "poi_name": "Matchbox",
      "osm_id": 3720825780,
      "amenity": "restaurant",
      "cuisine": "pizza",
      "website": "https://www.matchboxrestaurants.com/merrifield/",
      "outdoor_seating": "yes",
      "addr_state": "VA",
      "addr_city": "Fairfax",
      "addr_postcode": "22031",
      "addr_street": "District Avenue",
      "addr_housenumber": "2911"
    },
    {
      "id": 98920,
      "geometry": "POINT (-77.582516 37.649317)",
      "poi_name": "Hondos",
      "osm_id": 6535436280,
      "amenity": "restaurant",
      "cuisine": "steak_house",
      "opening_hours": "Mo-Fr 11:00-14:30,16:30-22:00; Sa 16:30-22:00; Su 10:00-14:00,16:30-21:00",
      "website": "https://hondossteakhouse.com/",
      "phone": "+1 804-968-4323",
      "outdoor_seating": "yes",
      "addr_state": "VA",
      "addr_street": "Cox Road",
      "addr_housenumber": "4120"
    },
    {
      "id": 106610,
      "geometry": "POINT (-76.586329 38.536554)",
      "poi_name": "Captain Jon's Subs and Bakery",
      "osm_id": 8691535808,
      "amenity": "restaurant",
      "opening_hours": "Mo-Sa 10:00-18:30",
      "outdoor_seating": "yes",
      "addr_state": "MD",
      "addr_city": "Prince Frederick",
      "addr_postcode": "20678",
      "addr_street": "South Solomons Island Road South",
      "addr_housenumber": "86"
    },
    {
      "id": 110852,
      "geometry": "POINT (-77.230053 38.872534)",
      "poi_name": "True Food Kitchen",
      "osm_id": 3720825789,
      "amenity": "restaurant",
      "cuisine": "american",
      "website": "https://www.truefoodkitchen.com/",
      "takeaway": "yes",
      "outdoor_seating": "yes",
      "addr_state": "VA",
      "addr_city": "Fairfax",
      "addr_postcode": "22031",
      "addr_street": "District Avenue",
      "addr_housenumber": "2910"
    },
    {
      "id": 111128,
      "geometry": "POINT (-77.112491 38.879433)",
      "poi_name": "Bangkok Bistro",
      "osm_id": 3732378166,
      "amenity": "restaurant",
      "cuisine": "thai",
      "wheelchair": "yes",
      "opening_hours": "Mo-Su 11:00-22:00",
      "phone": "+1 703-243-9669",
      "outdoor_seating": "yes",
      "addr_state": "VA",
      "addr_street": "North Glebe Road",
      "addr_housenumber": "715"
    },
    {
      "id": 111129,
      "geometry": "POINT (-77.109852 38.882584)",
      "poi_name": "Rus Uz",
      "osm_id": 3732378171,
      "amenity": "restaurant",
      "cuisine": "russian;uzbek",
      "opening_hours": "Mo-Su 12:00-22:00",
      "website": "https://rusuz.com/",
      "phone": "+1-571-312-4086",
      "outdoor_seating": "yes",
      "addr_state": "VA",
      "addr_city": "Arlington",
      "addr_postcode": "22201",
      "addr_street": "North Randolph Street",
      "addr_housenumber": "1000"
    },
    {
      "id": 111130,
      "geometry": "POINT (-77.11698 38.883853)",
      "poi_name": "Ser",
      "osm_id": 3732378172,
      "amenity": "restaurant",
      "cuisine": "spanish",
      "opening_hours": "Mo-Su 11:30-22:00",
      "website": "https://ser-restaurant.com/",
      "phone": "+1 703-746-9822",
      "outdoor_seating": "yes",
      "addr_state": "VA",
      "addr_city": "Arlington",
      "addr_postcode": "22201",
      "addr_street": "North Glebe Road",
      "addr_housenumber": "1110"
    },
    {
      "id": 127023,
      "geometry": "POINT (-77.085492 38.880907)",
      "poi_name": "Paisano's Pizza",
      "osm_id": 8019495042,
      "amenity": "restaurant",
      "cuisine": "pizza",
      "opening_hours": "Su-Th 11:00-22:00, Fr-Sa 11:00-23:00",
      "website": "https://www.paisanospizza.com/",
      "phone": "+1 703-528-1000",
      "takeaway": "yes",
      "outdoor_seating": "yes",
      "delivery": "yes",
      "addr_state": "VA",
      "addr_city": "Arlington",
      "addr_postcode": "22201",
      "addr_street": "North Pershing Drive",
      "addr_housenumber": "2201"
    },
    {
      "id": 122937,
      "geometry": "POINT (-77.638631 38.8126)",
      "poi_name": "Eugene's & Ethyl's",
      "osm_id": 6828904440,
      "amenity": "restaurant",
      "outdoor_seating": "yes",
      "addr_state": "VA",
      "addr_city": "Haymarket",
      "addr_postcode": "20169",
      "addr_street": "Washington Street",
      "addr_housenumber": "15111"
    },
    {
      "id": 127024,
      "geometry": "POINT (-77.085886 38.880795)",
      "poi_name": "Bonchon Chicken",
      "osm_id": 8019495043,
      "amenity": "restaurant",
      "cuisine": "chicken;korean;sushi",
      "opening_hours": "Su-Th 11:30-21:30, Fr-Sa 11:30-23:00",
      "website": "https://bonchon.com/korean-fried-chicken-Arlington-N-Pershing-Dr-VA/",
      "phone": "+1 703-528-1011",
      "outdoor_seating": "yes",
      "addr_state": "VA",
      "addr_city": "Arlington",
      "addr_postcode": "22201",
      "addr_street": "North Pershing Drive",
      "addr_housenumber": "2209"
    },
    {
      "id": 127027,
      "geometry": "POINT (-77.086424 38.88048)",
      "poi_name": "Eastern Carryout and Cafe",
      "osm_id": 8019631722,
      "amenity": "restaurant",
      "cuisine": "asian",
      "opening_hours": "Mo-Th 11:00-23:00, Fr-Sa 11:00-23:30, Su 12:00-22:30",
      "website": "http://www.easterncarryoutarl.com/",
      "phone": "+1 703-807-2121",
      "takeaway": "yes",
      "outdoor_seating": "yes",
      "delivery": "yes",
      "addr_state": "VA",
      "addr_city": "Arlington",
      "addr_postcode": "22201",
      "addr_street": "North Pershing Drive",
      "addr_housenumber": "2300"
    },
    {
      "id": 127028,
      "geometry": "POINT (-77.086158 38.880467)",
      "poi_name": "El Fuego",
      "osm_id": 8019631724,
      "amenity": "restaurant",
      "cuisine": "peruvian",
      "opening_hours": "Su-Mo 11:00-20:00, Tu-Sa 11:00-21:00",
      "website": "http://elfuegoperuvianfood.com/",
      "phone": "+1 703-888-1265",
      "takeaway": "yes",
      "outdoor_seating": "yes",
      "delivery": "yes",
      "addr_state": "VA",
      "addr_city": "Arlington",
      "addr_postcode": "22201",
      "addr_street": "North Pershing Drive",
      "addr_housenumber": "2300"
    },
    {
      "id": 128348,
      "geometry": "POINT (-77.047499 38.805251)",
      "poi_name": "Murphy's Grand Irish Pub",
      "osm_id": 8150476317,
      "amenity": "restaurant",
      "cuisine": "burger;fries;fish_and_chips",
      "website": "https://murphyspub.com",
      "phone": "+1 703-548-1717",
      "outdoor_seating": "yes",
      "addr_state": "VA",
      "addr_city": "Alexandria",
      "addr_postcode": "22314",
      "addr_street": "King Street",
      "addr_housenumber": "713"
    },
    {
      "id": 131397,
      "geometry": "POINT (-76.591569 37.605381)",
      "poi_name": "Chad's Dad's BBQ Plus",
      "osm_id": 9913723194,
      "amenity": "restaurant",
      "cuisine": "barbecue;sandwich;burger;breakfast;chicken;ribs",
      "website": "https://www.facebook.com/Chadsdadsbbq",
      "phone": "+18048322877",
      "outdoor_seating": "yes",
      "addr_state": "VA",
      "addr_city": "Saluda",
      "addr_postcode": "23149",
      "addr_street": "General Puller Highway",
      "addr_housenumber": "1051"
    },
    {
      "id": 138638,
      "geometry": "POINT (-76.740441 37.280738)",
      "poi_name": "Paul's Deli & Neighborhood Restaurant",
      "osm_id": 6160189647,
      "amenity": "restaurant",
      "cuisine": "american",
      "outdoor_seating": "yes",
      "addr_state": "VA",
      "addr_city": "Williamsburg",
      "addr_postcode": "23188",
      "addr_street": "New Town Avenue",
      "addr_housenumber": "4345"
    },
    {
      "id": 138507,
      "geometry": "POINT (-76.72444 37.287926)",
      "poi_name": "Revolution Golf and Grille",
      "osm_id": 6152700242,
      "amenity": "restaurant",
      "cuisine": "american",
      "opening_hours": "Su-Th 11:00-21:00; Fr-Sa 11:00-22:00",
      "website": "http://www.revolutiongolfandgrille.com/",
      "phone": "757-645-4711",
      "outdoor_seating": "yes",
      "delivery": "no",
      "addr_state": "VA",
      "addr_city": "Williamsburg",
      "addr_postcode": "23185",
      "addr_street": "High Street",
      "addr_housenumber": "1430"
    },
    {
      "id": 138961,
      "geometry": "POINT (-78.496117 38.032728)",
      "poi_name": "The Ridley",
      "osm_id": 6176835631,
      "amenity": "restaurant",
      "outdoor_seating": "yes",
      "addr_state": "VA",
      "addr_city": "Charlottesville",
      "addr_postcode": "22903",
      "addr_street": "West Main Street",
      "addr_housenumber": "1106"
    },
    {
      "id": 144220,
      "geometry": "POINT (-77.444194 37.541396)",
      "poi_name": "The Patio Thai Restaurant",
      "osm_id": 7251394688,
      "amenity": "restaurant",
      "cuisine": "thai",
      "wheelchair": "no",
      "website": "https://www.patiothairva.com/",
      "phone": "+1 804-644-2328",
      "takeaway": "yes",
      "outdoor_seating": "yes",
      "delivery": "yes",
      "addr_state": "VA",
      "addr_city": "Richmond City",
      "addr_postcode": "23219",
      "addr_street": "East Cary Street",
      "addr_housenumber": "103"
    },
    {
      "id": 140013,
      "geometry": "POINT (-77.040949 38.804)",
      "poi_name": "Urbane 116",
      "osm_id": 6226211833,
      "amenity": "restaurant",
      "cuisine": "mexican",
      "website": "https://www.urbano116.com/",
      "phone": "+1 571-970-5148",
      "outdoor_seating": "yes",
      "addr_state": "VA",
      "addr_city": "Alexandria",
      "addr_postcode": "22314",
      "addr_street": "King Street",
      "addr_housenumber": "116"
    },
    {
      "id": 148096,
      "geometry": "POINT (-78.489553 38.031499)",
      "poi_name": "Maya Restaurant",
      "osm_id": 3928062057,
      "amenity": "restaurant",
      "cuisine": "regional",
      "opening_hours": "Mo-Sa 16:30-21:00",
      "website": "https://www.maya-restaurant.com/",
      "phone": "(434) 979-6292",
      "outdoor_seating": "yes",
      "addr_state": "VA",
      "addr_city": "Charlottesville",
      "addr_postcode": "22903",
      "addr_street": "West Main Street",
      "addr_housenumber": "633"
    },
    {
      "id": 154097,
      "geometry": "POINT (-76.635997 38.29218)",
      "poi_name": "Slice House II",
      "osm_id": 4223078097,
      "amenity": "restaurant",
      "cuisine": "pizza",
      "capacity": "50",
      "takeaway": "yes",
      "outdoor_seating": "yes",
      "addr_state": "MD",
      "addr_city": "Leonardtown",
      "addr_postcode": "20650",
      "addr_street": "Washington Street",
      "addr_housenumber": "22745"
    },
    {
      "id": 154079,
      "geometry": "POINT (-76.498096 38.293793)",
      "poi_name": "Blue Wind Gourmet",
      "osm_id": 4223068282,
      "amenity": "restaurant",
      "opening_hours": "Mo-Su 09:30-19:30",
      "website": "https://www.bluewindgourmet.com/",
      "phone": "+1-301-737-2714",
      "takeaway": "yes",
      "outdoor_seating": "yes",
      "delivery": "no",
      "addr_state": "MD",
      "addr_city": "Lexington Park",
      "addr_postcode": "20653",
      "addr_street": "Gunston Drive",
      "addr_housenumber": "22803"
    },
    {
      "id": 157024,
      "geometry": "POINT (-77.298768 38.882448)",
      "poi_name": "Famous Dave's",
      "osm_id": 4682147620,
      "amenity": "restaurant",
      "cuisine": "barbecue",
      "takeaway": "yes",
      "outdoor_seating": "yes",
      "addr_state": "VA",
      "addr_city": "Oakton",
      "addr_postcode": "22124",
      "addr_street": "Chain Bridge Road",
      "addr_housenumber": "2910"
    },
    {
      "id": 154919,
      "geometry": "POINT (-77.432891 37.533718)",
      "poi_name": "Southern Railway Taphouse",
      "osm_id": 4261299593,
      "amenity": "restaurant",
      "cuisine": "american",
      "description": "Clubby gastropub presenting a long list of craft beers, American eats, and live music",
      "opening_hours": "Mo 11:30-22:00; Tu 11:30-23:00; We,Th 11:30-24:00; Fr 11:30-24:00; Sa 00:00-02:00,12:00-24:00; Su 00:00-02:00,11:00-22:00",
      "website": "https://srtaphouse.com/",
      "phone": "+1 804-308-8350",
      "outdoor_seating": "yes",
      "addr_state": "VA",
      "addr_city": "Richmond City",
      "addr_postcode": "23219",
      "addr_street": "South 14th Street",
      "addr_housenumber": "100"
    },
    {
      "id": 158848,
      "geometry": "POINT (-78.481208 38.02885)",
      "poi_name": "The Bebedero",
      "osm_id": 4765105629,
      "amenity": "restaurant",
      "cuisine": "mexican",
      "opening_hours": "Tu,We 11:00-22:00; Th 11:00-12:00; Fr 11:00-14:00; Sa 10:00-14:00; Su 10:00-21:00",
      "outdoor_seating": "yes",
      "addr_state": "VA",
      "addr_city": "Charlottesville",
      "addr_postcode": "22902",
      "addr_street": "West Main Street",
      "addr_housenumber": "225"
    },
    {
      "id": 160616,
      "geometry": "POINT (-77.085883 38.880503)",
      "poi_name": "Astor Mediterranean",
      "osm_id": 4840369886,
      "amenity": "restaurant",
      "cuisine": "mediterranean",
      "opening_hours": "Mo-Sa 11:00-22:30; Su 11:00-21:30",
      "website": "https://www.astorfoods.com/",
      "phone": "+1-703-465-2306",
      "takeaway": "yes",
      "outdoor_seating": "yes",
      "addr_state": "VA",
      "addr_city": "Arlington",
      "addr_postcode": "22201",
      "addr_street": "North Pershing Drive",
      "addr_housenumber": "2300"
    },
    {
      "id": 169732,
      "geometry": "POINT (-77.550806 38.732519)",
      "poi_name": "Thai Peppers",
      "osm_id": 2317045485,
      "amenity": "restaurant",
      "cuisine": "thai",
      "takeaway": "yes",
      "outdoor_seating": "yes",
      "addr_state": "VA",
      "addr_city": "Bristow",
      "addr_postcode": "20136",
      "addr_street": "Bristow Center Drive",
      "addr_housenumber": "10406"
    },
    {
      "id": 171062,
      "geometry": "POINT (-77.087266 38.889831)",
      "poi_name": "Fire Works",
      "osm_id": 2359045725,
      "amenity": "restaurant",
      "cuisine": "pizza",
      "description": "Fire Works is a pizzeria and bar serving wood-fired pizzas and craft beer",
      "opening_hours": "Mo-Su 11:00-23:00",
      "website": "https://www.fireworkspizza.com/arlington",
      "phone": "+1 703-527-8700",
      "takeaway": "yes",
      "outdoor_seating": "yes",
      "addr_state": "VA",
      "addr_city": "Arlington",
      "addr_postcode": "22201",
      "addr_street": "Clarendon Boulevard",
      "addr_housenumber": "2350"
    },
    {
      "id": 170619,
      "geometry": "POINT (-78.515828 38.025707)",
      "poi_name": "Guadalajara",
      "osm_id": 2342361938,
      "amenity": "restaurant",
      "cuisine": "mexican",
      "wheelchair": "yes",
      "opening_hours": "Mo-Fr 11:00-22:00; Sa 11:30-22:00; Su 11:30-21:00",
      "takeaway": "yes",
      "outdoor_seating": "yes",
      "addr_city": "Charlottesville",
      "addr_postcode": "22903",
      "addr_street": "Fontaine Avenue",
      "addr_housenumber": "2206"
    },
    {
      "id": 192287,
      "geometry": "POINT (-77.261134 38.870276)",
      "poi_name": "Glory Days Grill",
      "osm_id": 1432642456,
      "amenity": "restaurant",
      "cuisine": "american",
      "website": "https://www.glorydaysgrill.com/locations/virginia/fairfax/",
      "takeaway": "yes",
      "outdoor_seating": "yes",
      "addr_state": "VA",
      "addr_city": "Fairfax",
      "addr_postcode": "22031",
      "addr_street": "Nutley Street",
      "addr_housenumber": "3061"
    },
    {
      "id": 174384,
      "geometry": "POINT (-77.375725 38.926129)",
      "poi_name": "Glory Days Grill",
      "osm_id": 2479151684,
      "amenity": "restaurant",
      "cuisine": "american",
      "website": "https://www.glorydaysgrill.com/locations/virginia/reston-herndon-at-fox-mill-shopping-center/",
      "phone": "+1 703-390-5555",
      "takeaway": "yes",
      "outdoor_seating": "yes",
      "delivery": "no",
      "addr_state": "VA",
      "addr_city": "Herndon",
      "addr_postcode": "20171",
      "addr_street": "John Milton Drive",
      "addr_housenumber": "2567"
    },
    {
      "id": 197732,
      "geometry": "POINT (-77.083498 38.863625)",
      "poi_name": "Sabores",
      "osm_id": 10671672814,
      "amenity": "restaurant",
      "cuisine": "spanish;tapas",
      "opening_hours": "Mo-Fr 15:00-22:00; Sa 15:00-22:00; Su 15:00-21:00",
      "website": "https://www.saboresva.com/",
      "phone": "+1-571-970-1253",
      "outdoor_seating": "yes",
      "addr_state": "VA",
      "addr_city": "Arlington",
      "addr_postcode": "22204",
      "addr_street": "Columbia Pike",
      "addr_housenumber": "2401"
    },
    {
      "id": 193433,
      "geometry": "POINT (-77.10841 38.880125)",
      "poi_name": "Rustico",
      "osm_id": 1537737046,
      "amenity": "restaurant",
      "cuisine": "american;pizza",
      "wheelchair": "yes",
      "opening_hours": "Mo-We 11:30-21:00; Th 11:30-22:00; Fr 11:30-23:00; Sa 11:00-23:00; Su 11:00-21:00",
      "website": "https://www.rusticorestaurant.com/ballston",
      "phone": "+1 571-384-1820",
      "outdoor_seating": "yes",
      "addr_state": "VA",
      "addr_city": "Arlington",
      "addr_postcode": "22217",
      "addr_street": "Wilson Boulevard",
      "addr_housenumber": "4075"
    },
    {
      "id": 205217,
      "geometry": "POINT (-77.467508 37.548626)",
      "poi_name": "Olio",
      "osm_id": 7160377604,
      "amenity": "restaurant",
      "opening_hours": "Mo-Sa 11:00-15:00",
      "website": "https://www.oliorichmond.com/",
      "phone": "+1 804-775-9597",
      "takeaway": "yes",
      "outdoor_seating": "yes",
      "addr_state": "VA",
      "addr_city": "Richmond City",
      "addr_postcode": "23220",
      "addr_street": "West Cary Street",
      "addr_housenumber": "2028"
    },
    {
      "id": 208527,
      "geometry": "POINT (-77.006414 38.871252)",
      "poi_name": "The Salt Line",
      "osm_id": 4995098730,
      "amenity": "restaurant",
      "cuisine": "seafood",
      "wheelchair": "yes",
      "opening_hours": "Mo-Fr 15:00-22:30, Sa-Su 11:00-22:30",
      "phone": "+1-202-506-2368",
      "outdoor_seating": "yes",
      "addr_state": "DC",
      "addr_city": "Washington",
      "addr_postcode": "20003",
      "addr_street": "Potomac Avenue Southeast",
      "addr_housenumber": "79"
    },
    {
      "id": 214195,
      "geometry": "POINT (-77.640864 38.844636)",
      "poi_name": "Tony's New York Pizza",
      "osm_id": 5266848358,
      "amenity": "restaurant",
      "cuisine": "italian;pizza",
      "opening_hours": "Mo-Su 11:00-23:00",
      "website": "https://tonysnewyorkpizza.com/locations/haymarket/",
      "phone": "+1-571-248-6290",
      "takeaway": "yes",
      "outdoor_seating": "yes",
      "delivery": "no",
      "addr_state": "VA",
      "addr_city": "Haymarket",
      "addr_postcode": "20169",
      "addr_street": "Merchants View Square",
      "addr_housenumber": "5361"
    },
    {
      "id": 213689,
      "geometry": "POINT (-77.472792 38.751086)",
      "poi_name": "Zandra's Taqueria",
      "osm_id": 5257651590,
      "amenity": "restaurant",
      "cuisine": "mexican",
      "opening_hours": "Su-Th 11:30-20:00; Fr-Sa 11:30-13:00",
      "website": "zandrastacos.com",
      "outdoor_seating": "yes",
      "addr_state": "VA",
      "addr_city": "Manassas",
      "addr_postcode": "20110",
      "addr_street": "Center Street",
      "addr_housenumber": "9114"
    },
    {
      "id": 215778,
      "geometry": "POINT (-77.477132 37.551786)",
      "poi_name": "Mom's Siam",
      "osm_id": 5312686521,
      "amenity": "restaurant",
      "wheelchair": "yes",
      "opening_hours": "Su-Th 11:00-22:00; Fr-Sa 11:00-23:00",
      "website": "http://www.momsiam.com/",
      "phone": "+1 804-359-7606",
      "outdoor_seating": "yes",
      "delivery": "yes",
      "addr_state": "VA",
      "addr_city": "Richmond City",
      "addr_postcode": "23220",
      "addr_street": "West Cary Street",
      "addr_housenumber": "2811"
    },
    {
      "id": 214387,
      "geometry": "POINT (-77.640372 38.813797)",
      "poi_name": "Foster's Grill",
      "osm_id": 5271083905,
      "amenity": "restaurant",
      "cuisine": "burger;american",
      "opening_hours": "Mo-Su 11:00-21:00",
      "website": "https://www.fostersgrille.com/store/haymarket/",
      "phone": "+1 571-261-5959",
      "takeaway": "yes",
      "outdoor_seating": "yes",
      "delivery": "no",
      "addr_state": "VA",
      "addr_city": "Haymarket",
      "addr_postcode": "20169",
      "addr_street": "Costello Way",
      "addr_housenumber": "4418"
    },
    {
      "id": 219355,
      "geometry": "POINT (-77.085113 38.80887)",
      "poi_name": "Glory Days Grill",
      "osm_id": 9325920236,
      "amenity": "restaurant",
      "cuisine": "american",
      "wheelchair": "yes",
      "website": "https://www.glorydaysgrill.com/locations/virginia/alexandria-commons/",
      "phone": "+1 703-567-1577",
      "outdoor_seating": "yes",
      "addr_state": "VA",
      "addr_city": "Alexandria",
      "addr_postcode": "22314",
      "addr_street": "Duke Street",
      "addr_housenumber": "3141"
    },
    {
      "id": 224803,
      "geometry": "POINT (-76.697996 37.268799)",
      "poi_name": "The Social Terrace",
      "osm_id": 11099525456,
      "amenity": "restaurant",
      "cuisine": "american;pizza;salad",
      "opening_hours": "Su-Th 16:00-21:00, Fr-Sa 16:00-22:00",
      "website": "https://www.colonialwilliamsburghotels.com/dining/the-social-terrace/",
      "internet_access": "yes",
      "phone": "+1 855-318-3996",
      "outdoor_seating": "yes",
      "addr_state": "Virginia",
      "addr_city": "Williamsburg",
      "addr_postcode": "23185",
      "addr_street": "Francis Street East",
      "addr_housenumber": "136"
    },
    {
      "id": 219690,
      "geometry": "POINT (-77.04939 38.859088)",
      "poi_name": "Tacombi",
      "osm_id": 9342262223,
      "amenity": "restaurant",
      "cuisine": "mexican",
      "opening_hours": "Mo-We,Su 11:00-22:00; Th-Sa 11:00-23:00",
      "website": "https://www.tacombi.com/",
      "phone": "+1 571-312-0868",
      "outdoor_seating": "yes",
      "addr_state": "VA",
      "addr_street": "Crystal Drive",
      "addr_housenumber": "1550"
    },
    {
      "id": 222887,
      "geometry": "POINT (-76.704499 37.268254)",
      "poi_name": "Museum Cafe",
      "osm_id": 11039891410,
      "amenity": "restaurant",
      "cuisine": "american;cafe",
      "opening_hours": "Mo-Su 11:00-15:00",
      "website": "https://www.colonialwilliamsburghotels.com/dining/museum-cafe/",
      "phone": "+1 855 318 9795",
      "outdoor_seating": "yes",
      "addr_state": "VA",
      "addr_city": "Williamsburg",
      "addr_postcode": "23185",
      "addr_street": "Francis St W",
      "addr_housenumber": "326"
    },
    {
      "id": 223744,
      "geometry": "POINT (-77.822636 37.523082)",
      "poi_name": "Monterrey Burrito Company",
      "osm_id": 11062566535,
      "amenity": "restaurant",
      "cuisine": "mexican",
      "wheelchair": "yes",
      "opening_hours": "Mo-Sa 10:00-22:00; Su 10:00-21:00",
      "website": "https://monterreyburrito.com/",
      "phone": "+1-804-376-7173",
      "takeaway": "yes",
      "drive_through": "yes",
      "outdoor_seating": "yes",
      "delivery": "yes",
      "toilets": "yes",
      "addr_state": "VA",
      "addr_city": "Powhatan",
      "addr_postcode": "23139",
      "addr_street": "Anderson Highway",
      "addr_housenumber": "2544"
    },
    {
      "id": 235926,
      "geometry": "POINT (-77.231212 38.869373)",
      "poi_name": "Nando's",
      "osm_id": 5773460135,
      "amenity": "restaurant",
      "cuisine": "chicken;portuguese",
      "opening_hours": "Su-Th 11:00-22:00; Fr-Sa 11:00-23:00",
      "takeaway": "yes",
      "outdoor_seating": "yes",
      "delivery": "yes",
      "addr_state": "VA",
      "addr_city": "Fairfax",
      "addr_postcode": "22031",
      "addr_street": "District Avenue",
      "addr_housenumber": "2987"
    },
    {
      "id": 225197,
      "geometry": "POINT (-76.699081 37.267639)",
      "poi_name": "Gold Course Clubhouse Grill",
      "osm_id": 11114840893,
      "amenity": "restaurant",
      "cuisine": "american;burger;salad;sandwich;barbecue;meat",
      "wheelchair": "yes",
      "website": "https://www.colonialwilliamsburghotels.com/dining/gold-course-clubhouse-grille/",
      "phone": "+1 855 318 5868",
      "outdoor_seating": "yes",
      "addr_state": "VA",
      "addr_city": "Williamsburg",
      "addr_postcode": "23185",
      "addr_street": "South England Street",
      "addr_housenumber": "401"
    },
    {
      "id": 235397,
      "geometry": "POINT (-77.230668 38.870038)",
      "poi_name": "Sisters Thai",
      "osm_id": 5754687061,
      "amenity": "restaurant",
      "cuisine": "thai",
      "takeaway": "yes",
      "outdoor_seating": "yes",
      "delivery": "yes",
      "addr_state": "VA",
      "addr_city": "Fairfax",
      "addr_postcode": "22031",
      "addr_street": "District Avenue",
      "addr_housenumber": "2985"
    },
    {
      "id": 234339,
      "geometry": "POINT (-77.663842 38.784619)",
      "poi_name": "Brooklyn Brothers Pizza",
      "osm_id": 4616907060,
      "amenity": "restaurant",
      "cuisine": "pizza",
      "phone": "+1-703-753-6663",
      "takeaway": "yes",
      "outdoor_seating": "yes",
      "delivery": "yes",
      "addr_state": "VA",
      "addr_city": "Gainesville",
      "addr_postcode": "20155",
      "addr_street": "Crescent Park Drive",
      "addr_housenumber": "8010"
    },
    {
      "id": 236207,
      "geometry": "POINT (-77.228058 38.882225)",
      "poi_name": "Inca Social",
      "osm_id": 5785166292,
      "amenity": "restaurant",
      "cuisine": "peruvian",
      "website": "https://incasocial.com/",
      "phone": "+1-703-488-7640",
      "outdoor_seating": "yes",
      "addr_state": "VA",
      "addr_city": "Vienna",
      "addr_postcode": "22180",
      "addr_street": "Avenir Place",
      "addr_housenumber": "2670"
    },
    {
      "id": 237549,
      "geometry": "POINT (-77.459864 37.546946)",
      "poi_name": "Beauvine Burger Concept",
      "osm_id": 5838105091,
      "amenity": "restaurant",
      "cuisine": "burger",
      "website": "https://www.beauvineburger.com/",
      "phone": "+1 804-592-5592",
      "takeaway": "yes",
      "outdoor_seating": "yes",
      "addr_state": "VA",
      "addr_city": "Richmond",
      "addr_postcode": "23220",
      "addr_street": "West Main Street",
      "addr_housenumber": "1501"
    },
    {
      "id": 243986,
      "geometry": "POINT (-77.457037 37.546209)",
      "poi_name": "The Pit and the Peel Rooftop",
      "osm_id": 7690715610,
      "amenity": "restaurant",
      "cuisine": "health_food",
      "opening_hours": "Mo-Fr 07:00-21:00; Sa-Su 08:00-21:00",
      "website": "https://thepitandthepeel.com/",
      "phone": "+1 804-368-3880",
      "outdoor_seating": "yes",
      "addr_state": "VA",
      "addr_city": "Richmond",
      "addr_postcode": "23220",
      "addr_street": "West Main Street",
      "addr_housenumber": "1210"
    },
    {
      "id": 239691,
      "geometry": "POINT (-76.613594 38.616569)",
      "poi_name": "Old Town Cafe",
      "osm_id": 5935373734,
      "amenity": "restaurant",
      "cuisine": "american;chicken;sandwich",
      "opening_hours": "Mo-We 10:00-19:00;Th 10:00-20:00;Fr-Sa 10:00-21:00;Su 11:00-18:00",
      "phone": "+1 410 535 2355",
      "takeaway": "yes",
      "outdoor_seating": "yes",
      "delivery": "no",
      "addr_state": "MD",
      "addr_city": "Huntingtown",
      "addr_postcode": "20639",
      "addr_street": "Old Town Road",
      "addr_housenumber": "3930"
    }
  ],
  "answer_type": "loc",
  "question_entities": {
    "[1]": {
      "main_category": "amenity",
      "sub_category": "restaurant",
      "poi_filter_desc": "restaurant with outdoor seating",
      "poi_filter_sql": "outdoor_seating ILIKE '%yes%'"
    },
    "[2]": {
      "distance": 130000,
      "text": "130 kilometers"
    },
    "[3]": {
      "main_category": "tourism",
      "sub_category": "gallery",
      "display_name": "Flippo Gallery, Hanover County, VA",
      "geo_wkt": "POINT (-77.479706 37.76135)",
      "poi": {
        "id": 10489,
        "geometry": "POINT (-77.479706 37.76135)",
        "poi_name": "Flippo Gallery",
        "osm_id": 6886622634,
        "tourism": "gallery",
        "opening_hours": "Mo-Fr 10:00-16:00",
        "addr_state": "VA",
        "addr_city": "Hanover County",
        "addr_postcode": "23005",
        "addr_street": "North Center Street",
        "addr_housenumber": "211"
      }
    }
  },
  "id": 495,
  "type": "range:non_spat_filter+loc"
}