{
  "question": "Where can I find caf\u00e9 heading towards Colonial Inn, Pine Hill, NY from Winnakee Nature Preserve, Hyde Park, NY, within a radius of 140 kilometers?",
  "sql": "WITH\n    angle AS (SELECT degrees(ST_Azimuth(ST_GeomFromText('POINT (-73.930261 41.778758)',4326)::geography, ST_GeomFromText('POINT (-74.480808 42.132913)',4326)::geography)) AS value)\nSELECT * FROM pois,angle\nWHERE amenity = 'cafe'\nAND ST_DWithin(pois.geometry, ST_GeomFromText('POINT (-73.930261 41.778758)',4326)::geography, 140000)\nAND (degrees(ST_Azimuth(ST_GeomFromText('POINT (-73.930261 41.778758)',4326)::geography, pois.geometry)) BETWEEN angle.value - 22.5 AND angle.value + 22.5);\n",
  "answers": [
    {
      "id": 31763,
      "geometry": "POINT (-74.08243 41.844384)",
      "poi_name": "Garden House",
      "osm_id": 8446182662,
      "amenity": "cafe",
      "cuisine": "mediterranean;pizza",
      "outdoor_seating": "yes",
      "addr_state": "NY",
      "addr_city": "Rosendale",
      "addr_postcode": "12472",
      "addr_street": "Hardenburgh Lane",
      "addr_housenumber": "4",
      "value": 310.93868086751263
    },
    {
      "id": 31769,
      "geometry": "POINT (-74.112092 42.037692)",
      "poi_name": "Nana's Creative Cafe",
      "osm_id": 8446197565,
      "amenity": "cafe",
      "cuisine": "breakfast;sandwich;coffee_shop",
      "opening_hours": "Mo-Fr 08:00-15:00",
      "website": "https://www.nanaswoodstock.com",
      "phone": "+1-845-679-8400",
      "addr_state": "NY",
      "addr_city": "Woodstock",
      "addr_postcode": "12498",
      "addr_street": "Mill Hill Road",
      "addr_housenumber": "98",
      "value": 310.93868086751263
    },
    {
      "id": 185631,
      "geometry": "POINT (-74.202837 41.973646)",
      "poi_name": "Fruition Chocolate",
      "osm_id": 7872820056,
      "amenity": "cafe",
      "opening_hours": "Mo-Su 09:00-17:00",
      "website": "https://www.fruitionchocolateworks.com",
      "shop": "chocolate",
      "phone": "+1-845-657-6717",
      "outdoor_seating": "only",
      "addr_city": "Shokan",
      "addr_postcode": "12481",
      "addr_street": "State Route 28",
      "addr_housenumber": "3091",
      "value": 310.93868086751263
    },
    {
      "id": 116046,
      "geometry": "POINT (-74.112779 42.038763)",
      "poi_name": "Caffe",
      "osm_id": 8925280553,
      "amenity": "cafe",
      "opening_hours": "Mo,We-Su 07:00-16:00",
      "addr_city": "Woodstock",
      "addr_postcode": "12498",
      "addr_street": "Mill Hill Road",
      "addr_housenumber": "81",
      "value": 310.93868086751263
    },
    {
      "id": 206529,
      "geometry": "POINT (-74.119075 42.040587)",
      "poi_name": "Little Apple Caf\u00e9",
      "osm_id": 7213431015,
      "amenity": "cafe",
      "cuisine": "sandwich;snack;health_food",
      "opening_hours": "Mo-Su 11:00-17:00",
      "website": "https://littleapplelove.com",
      "phone": "+1-845-684-5605",
      "takeaway": "yes",
      "outdoor_seating": "only",
      "addr_state": "NY",
      "addr_city": "Woodstock",
      "addr_postcode": "12498",
      "addr_street": "Tinker Street",
      "addr_housenumber": "21",
      "value": 310.93868086751263
    },
    {
      "id": 222105,
      "geometry": "POINT (-74.120192 42.040309)",
      "poi_name": "Caf\u00e9 Espresso",
      "osm_id": 11006081731,
      "amenity": "cafe",
      "opening_hours": "Th-Sa 11:00-17:00; Su 11:00-16:00",
      "outdoor_seating": "yes",
      "addr_city": "Woodstock",
      "addr_postcode": "12498",
      "addr_street": "Tinker Street",
      "addr_housenumber": "59",
      "value": 310.93868086751263
    },
    {
      "id": 235026,
      "geometry": "POINT (-75.062901 42.452935)",
      "poi_name": "The Yellow Deli",
      "osm_id": 5743010753,
      "amenity": "cafe",
      "cuisine": "sandwich;coffee_shop",
      "internet_access": "wlan",
      "addr_state": "NY",
      "addr_city": "Oneonta",
      "addr_postcode": "13820",
      "addr_street": "Main Street",
      "addr_housenumber": "134",
      "value": 310.93868086751263
    },
    {
      "id": 238368,
      "geometry": "POINT (-74.307132 42.062423)",
      "poi_name": "Maeve's Place",
      "osm_id": 5874402976,
      "amenity": "cafe",
      "cuisine": "coffee_shop;breakfast;sandwich",
      "opening_hours": "Mo,Th-Su 08:00-16:00",
      "website": "https://maevesplace.com",
      "outdoor_seating": "yes",
      "addr_state": "NY",
      "addr_city": "Phoenicia",
      "addr_postcode": "12464",
      "addr_street": "Route 28",
      "addr_housenumber": "5569",
      "value": 310.93868086751263
    },
    {
      "id": 244470,
      "geometry": "POINT (-74.648945 42.148022)",
      "poi_name": "Cafe Margierite",
      "osm_id": 7726522348,
      "amenity": "cafe",
      "cuisine": "breakfast;coffee_shop",
      "opening_hours": "Mo 08:00-14:00; Fr-Su 08:00-15:00",
      "website": "https://www.cafemarguerite.com",
      "phone": "+1-917-306-9562",
      "addr_city": "Margaretville",
      "addr_postcode": "12455",
      "addr_street": "Main Street",
      "addr_housenumber": "746",
      "value": 310.93868086751263
    }
  ],
  "answer_type": "loc",
  "question_entities": {
    "[2]": {
      "distance": 140000,
      "text": "140 kilometers"
    },
    "[3]": {
      "main_category": "leisure",
      "sub_category": "nature reserve",
      "display_name": "Winnakee Nature Preserve, hyde park, NY",
      "geo_wkt": "POINT (-73.930261 41.778758)",
      "poi": {
        "id": 248876,
        "geometry": "POINT (-73.930261 41.778758)",
        "poi_name": "Winnakee Nature Preserve",
        "osm_id": 4895666625,
        "leisure": "nature_reserve",
        "addr_state": "NY",
        "addr_city": "hyde park",
        "addr_postcode": "12538",
        "addr_street": "Van Dam Road",
        "addr_housenumber": "3"
      }
    },
    "[4]": {
      "main_category": "tourism",
      "sub_category": "hotel",
      "display_name": "Colonial Inn, Pine Hill, NY",
      "geo_wkt": "POINT (-74.480808 42.132913)",
      "poi": {
        "id": 21466,
        "geometry": "POINT (-74.480808 42.132913)",
        "poi_name": "Colonial Inn",
        "osm_id": 10276282818,
        "tourism": "hotel",
        "addr_state": "NY",
        "addr_city": "Pine Hill",
        "addr_postcode": "12465",
        "addr_street": "Main Street",
        "addr_housenumber": "307"
      }
    },
    "[1]": {
      "main_category": "amenity",
      "sub_category": "cafe"
    }
  },
  "id": 1292,
  "type": "range:towards+loc"
}