{
  "question": "Could you help me locate a university that's within 160 kilometers from House of Air, San Francisco, CA?",
  "sql": "SELECT * FROM pois\nWHERE ST_DWithin(pois.geometry, ST_GeomFromText('POINT (-122.468617 37.804932)',4326)::geography, 160000)\nAND amenity = 'university';\n",
  "answers": [
    {
      "id": 104359,
      "geometry": "POINT (-121.941 37.414064)",
      "poi_name": "Cogswell University of Silicon Valley",
      "osm_id": 8566442104,
      "amenity": "university",
      "addr_state": "CA",
      "addr_city": "San Jose",
      "addr_postcode": "95134",
      "addr_street": "Baypointe Parkway",
      "addr_housenumber": "191"
    },
    {
      "id": 134959,
      "geometry": "POINT (-121.889552 37.33709)",
      "poi_name": "Northeastern University Silicon Valley",
      "osm_id": 11498164632,
      "amenity": "university",
      "operator": "Northeastern University",
      "website": "https://siliconvalley.northeastern.edu/",
      "addr_state": "CA",
      "addr_city": "San Jose",
      "addr_street": "East Santa Clara Street",
      "addr_housenumber": "75"
    },
    {
      "id": 134960,
      "geometry": "POINT (-121.88974 37.337486)",
      "poi_name": "Northeastern University Silicon Valley",
      "osm_id": 11498164633,
      "amenity": "university",
      "operator": "Northeastern University",
      "website": "https://siliconvalley.northeastern.edu/",
      "addr_state": "CA",
      "addr_city": "San Jose",
      "addr_street": "North 2nd Street",
      "addr_housenumber": "4"
    },
    {
      "id": 135738,
      "geometry": "POINT (-121.879994 37.33896)",
      "poi_name": "San Jose State University",
      "osm_id": 11532853730,
      "amenity": "university",
      "website": "https://www.sjsu.edu/",
      "addr_state": "CA",
      "addr_city": "San Jose",
      "addr_postcode": "95112",
      "addr_street": "Washington Sq",
      "addr_housenumber": "1"
    },
    {
      "id": 137144,
      "geometry": "POINT (-121.788421 38.532932)",
      "poi_name": "Cal Aggie Flying Farmers",
      "osm_id": 6086793587,
      "amenity": "university",
      "website": "https://calaggieflyers.com/",
      "phone": "+1-530-752-3067",
      "addr_state": "CA",
      "addr_city": "Davis",
      "addr_postcode": "95616",
      "addr_street": "Airport Road",
      "addr_housenumber": "1"
    },
    {
      "id": 163683,
      "geometry": "POINT (-121.891721 37.393132)",
      "poi_name": "Five Branches University",
      "osm_id": 9429750441,
      "amenity": "university",
      "addr_city": "San Jose",
      "addr_postcode": "95131",
      "addr_street": "Lundy Avenue",
      "addr_housenumber": "1885"
    },
    {
      "id": 167728,
      "geometry": "POINT (-122.253167 37.868383)",
      "poi_name": "The Wright Institute",
      "osm_id": 358858264,
      "amenity": "university",
      "website": "https://www.wi.edu",
      "internet_access": "yes",
      "wikidata": "Q8038222",
      "addr_state": "CA",
      "addr_city": "Berkeley",
      "addr_postcode": "94704",
      "addr_street": "Durant Avenue",
      "addr_housenumber": "2728"
    },
    {
      "id": 170556,
      "geometry": "POINT (-122.32492 37.563516)",
      "poi_name": "Draper University of Heroes",
      "osm_id": 2340793043,
      "amenity": "university",
      "description": "Draper University is a school for innovators.",
      "website": "https://www.draperuniversity.com/",
      "addr_city": "San Mateo",
      "addr_postcode": "94401",
      "addr_street": "East 3rd Avenue",
      "addr_housenumber": "44"
    },
    {
      "id": 168221,
      "geometry": "POINT (-122.51442 37.980756)",
      "poi_name": "Saint Thomas Hall",
      "osm_id": 368173066,
      "amenity": "university",
      "addr_state": "CA"
    },
    {
      "id": 177404,
      "geometry": "POINT (-121.452732 38.552978)",
      "poi_name": "UC Davis School of Medicine",
      "osm_id": 2588232405,
      "amenity": "university",
      "wheelchair": "yes",
      "wikidata": "Q7864165",
      "addr_city": "Sacramento",
      "addr_postcode": "95817",
      "addr_street": "X Street",
      "addr_housenumber": "4610"
    },
    {
      "id": 175610,
      "geometry": "POINT (-122.007704 37.383462)",
      "poi_name": "Nine Star University of Health Sciences",
      "osm_id": 2527515400,
      "amenity": "university",
      "addr_city": "Sunnyvale",
      "addr_street": "De Guigne Drive",
      "addr_housenumber": "441"
    },
    {
      "id": 242800,
      "geometry": "POINT (-121.786342 37.257214)",
      "poi_name": "Northeastern University Silicon Valley",
      "osm_id": 7598925167,
      "amenity": "university",
      "operator": "Northeastern University",
      "website": "https://bayarea.northeastern.edu/",
      "addr_state": "CA",
      "addr_city": "San Jose",
      "addr_postcode": "95138",
      "addr_street": "Silver Creek Valley Road",
      "addr_housenumber": "6024"
    }
  ],
  "answer_type": "loc",
  "question_entities": {
    "[1]": {
      "main_category": "amenity",
      "sub_category": "university"
    },
    "[2]": {
      "distance": 160000,
      "text": "160 kilometers"
    },
    "[3]": {
      "main_category": "tourism",
      "sub_category": "theme park",
      "display_name": "House of Air, San Francisco, CA",
      "geo_wkt": "POINT (-122.468617 37.804932)",
      "poi": {
        "id": 14569,
        "geometry": "POINT (-122.468617 37.804932)",
        "poi_name": "House of Air",
        "osm_id": 4659836677,
        "tourism": "theme_park",
        "opening_hours": "Su-Mo 10:00-20:00; Tu-Th 14:00-21:00; Fr-Sa 10:00-22:00",
        "website": "https://www.houseofair.com/",
        "phone": "+1 (415) 345-9675",
        "wikidata": "Q5914641",
        "addr_state": "CA",
        "addr_city": "San Francisco",
        "addr_postcode": "94129",
        "addr_street": "Mason Street",
        "addr_housenumber": "926"
      }
    }
  },
  "id": 2083,
  "type": "range+loc"
}