{
  "question": "Is it possible to locate a Sushi restaurant, preferably within 170 kilometers from Southern National Motorsport Park, Lucama, NC?",
  "sql": "SELECT * FROM pois\nWHERE ST_DWithin(pois.geometry, ST_GeomFromText('POINT (-78.060871 35.61119)',4326)::geography, 170000)\nAND amenity = 'restaurant'\nAND cuisine ILIKE '%Sushi%';\n",
  "answers": [
    {
      "id": 28043,
      "geometry": "POINT (-78.937649 35.910195)",
      "poi_name": "Shiki Sushi",
      "osm_id": 462242410,
      "amenity": "restaurant",
      "cuisine": "japanese;sushi",
      "opening_hours": "Su-Th 11:00-22:00; Fr-Sa 11:00-23:00",
      "website": "https://shikitasu.com/shiki-southpoint",
      "phone": "+1-919-484-4108",
      "takeaway": "yes",
      "outdoor_seating": "no",
      "delivery": "yes",
      "addr_state": "NC",
      "addr_city": "Durham",
      "addr_postcode": "27713",
      "addr_street": "State Highway 54",
      "addr_housenumber": "207"
    },
    {
      "id": 31499,
      "geometry": "POINT (-79.82501 36.103011)",
      "poi_name": "Mimi Kitchen",
      "osm_id": 8427449578,
      "amenity": "restaurant",
      "cuisine": "sushi",
      "opening_hours": "Mo-Fr 11:00-22:30; Sa 12:00-22:30",
      "phone": "+1-336-288-8480",
      "addr_state": "NC",
      "addr_city": "Greensboro",
      "addr_postcode": "27408",
      "addr_street": "Battleground Avenue",
      "addr_housenumber": "2403-05"
    },
    {
      "id": 41403,
      "geometry": "POINT (-78.910368 36.000163)",
      "poi_name": "Mount Fuji",
      "osm_id": 3012933271,
      "amenity": "restaurant",
      "cuisine": "sushi",
      "wheelchair": "yes",
      "opening_hours": "Mo-Th 9:00-17:30; Fr 9:00-13:00",
      "website": "http://www.pulleywatson.com",
      "phone": "+1-919-682-9691",
      "addr_state": "NC",
      "addr_city": "Durham",
      "addr_postcode": "27701",
      "addr_street": "West Main Street",
      "addr_housenumber": "905"
    },
    {
      "id": 46115,
      "geometry": "POINT (-78.640379 35.837136)",
      "poi_name": "The Cowfish",
      "osm_id": 3247194284,
      "amenity": "restaurant",
      "cuisine": "burger;sushi",
      "opening_hours": "Su-Th 11:00-22:00; Fr-Sa 11:00-24:00",
      "addr_state": "NC",
      "addr_city": "Raleigh",
      "addr_postcode": "27609",
      "addr_street": "Six Forks Road",
      "addr_housenumber": "4208"
    },
    {
      "id": 47239,
      "geometry": "POINT (-79.790802 36.068026)",
      "poi_name": "Hibachi Cafe",
      "osm_id": 3314317054,
      "amenity": "restaurant",
      "cuisine": "sushi",
      "opening_hours": "Mo-We 11:00-21:30; Th-Sa 11:00-22:30; Su 12:00-21:30",
      "website": "http://hibachicafegso.com/",
      "phone": "(336) 272-3005",
      "addr_state": "NC",
      "addr_city": "Greensboro",
      "addr_street": "South Elm Street",
      "addr_housenumber": "362"
    },
    {
      "id": 69511,
      "geometry": "POINT (-79.479727 34.764008)",
      "poi_name": "little fuji grill",
      "osm_id": 11308502773,
      "amenity": "restaurant",
      "cuisine": "sushi",
      "addr_state": "NC",
      "addr_city": "Laurinburg",
      "addr_street": "us 401 N",
      "addr_housenumber": "894"
    },
    {
      "id": 66208,
      "geometry": "POINT (-79.053309 35.962332)",
      "poi_name": "OiShii",
      "osm_id": 5732184502,
      "amenity": "restaurant",
      "cuisine": "sushi",
      "opening_hours": "Mo 17:00-21:00; Tu-Fr 11:30-14:00, 17:00-21:30; Sa 17:00-21:30; Su 17:00-21:00",
      "website": "http://oishiiroll.com/",
      "phone": "+1-919-932-7002",
      "takeaway": "yes",
      "addr_state": "NC",
      "addr_city": "Chapel Hill",
      "addr_postcode": "27514",
      "addr_street": "Weaver Dairy Road",
      "addr_housenumber": "1129"
    },
    {
      "id": 146683,
      "geometry": "POINT (-78.777461 35.592323)",
      "poi_name": "Dan Sushi & Hibachi",
      "osm_id": 7471679120,
      "amenity": "restaurant",
      "cuisine": "sushi",
      "addr_state": "NC",
      "addr_city": "Fuquay-Varina",
      "addr_postcode": "27526",
      "addr_street": "North Main Street",
      "addr_housenumber": "1313"
    },
    {
      "id": 152636,
      "geometry": "POINT (-78.920801 36.006578)",
      "poi_name": "Vine Sushi & Thai",
      "osm_id": 4152134890,
      "amenity": "restaurant",
      "cuisine": "japanese;salad;sushi",
      "opening_hours": "Mo-Th 11:00-22:30; Fr-Sa 11:00-23:00; Su 12:00-22:00",
      "internet_access": "wlan",
      "delivery": "yes",
      "addr_state": "NC",
      "addr_city": "Durham",
      "addr_postcode": "27705",
      "addr_street": "Broad Street",
      "addr_housenumber": "607"
    },
    {
      "id": 168609,
      "geometry": "POINT (-78.811116 35.78605)",
      "poi_name": "Oiso Sushi and Korean",
      "osm_id": 2272176281,
      "amenity": "restaurant",
      "cuisine": "asian;korean;sushi",
      "opening_hours": "Mo-Th 11:00-14:00,17:00-21:00; Fr-Sa 11:00-14:00,17:00-21:30; Su off",
      "website": "https://www.oisosushi.com/",
      "phone": "+1 919 655 5133",
      "takeaway": "yes",
      "addr_state": "NC",
      "addr_city": "Cary",
      "addr_postcode": "27513",
      "addr_street": "Northwest Maynard Road",
      "addr_housenumber": "1305"
    },
    {
      "id": 185535,
      "geometry": "POINT (-78.623876 35.873185)",
      "poi_name": "Poke Burri Raleigh",
      "osm_id": 7863099985,
      "amenity": "restaurant",
      "cuisine": "sushi",
      "opening_hours": "Mo-Sa 11:00-21:00",
      "website": "https://www.pokeburri.com/locations/poke-burri-raleigh",
      "phone": "+1-919-615-4016",
      "takeaway": "yes",
      "drive_through": "no",
      "outdoor_seating": "no",
      "delivery": "yes",
      "addr_state": "NC",
      "addr_city": "Raleigh",
      "addr_postcode": "27615",
      "addr_street": "Falls of Neuse Road",
      "addr_housenumber": "6613"
    },
    {
      "id": 198324,
      "geometry": "POINT (-78.712403 35.859355)",
      "poi_name": "Waraji Japanese Restaurant",
      "osm_id": 10698211835,
      "amenity": "restaurant",
      "cuisine": "japanese;sushi",
      "opening_hours": "Mo-Th 11:30-14:00,17:00-21:00; Fr 11:30-14:00,17:00-21:30; Sa 11:30-15:00,17:00-21:30; Su 12:00-14:00,17:00-21:00",
      "website": "https://www.warajijapaneserestaurant.com/",
      "phone": "919-783-1883",
      "addr_state": "NC",
      "addr_city": "Raleigh",
      "addr_postcode": "27612",
      "addr_street": "Duraleigh Road",
      "addr_housenumber": "5910"
    },
    {
      "id": 232455,
      "geometry": "POINT (-78.88468 35.74616)",
      "poi_name": "Sushi Iwa",
      "osm_id": 4525581719,
      "amenity": "restaurant",
      "cuisine": "asian;sushi",
      "website": "http://sushiiwa.org/",
      "phone": "+1 919 387 7022",
      "takeaway": "yes",
      "outdoor_seating": "yes",
      "addr_state": "NC",
      "addr_city": "Apex",
      "addr_postcode": "27502",
      "addr_street": "Creekside Landing Drive",
      "addr_housenumber": "2026"
    },
    {
      "id": 242238,
      "geometry": "POINT (-78.541357 35.941927)",
      "poi_name": "Mizu House",
      "osm_id": 6064553567,
      "amenity": "restaurant",
      "cuisine": "japanese;sushi;steak_house;seafood;italian",
      "website": "https://mizuhouse.com",
      "addr_state": "NC",
      "addr_city": "Wake Forest",
      "addr_postcode": "27587",
      "addr_street": "Wakefield Common Drive",
      "addr_housenumber": "10750"
    }
  ],
  "answer_type": "loc",
  "question_entities": {
    "[1]": {
      "main_category": "amenity",
      "sub_category": "restaurant",
      "poi_filter_desc": "Sushi restaurant",
      "poi_filter_sql": "cuisine ILIKE '%Sushi%'"
    },
    "[2]": {
      "distance": 170000,
      "text": "170 kilometers"
    },
    "[3]": {
      "main_category": "leisure",
      "sub_category": "stadium",
      "display_name": "Southern National Motorsport Park, Lucama, NC",
      "geo_wkt": "POINT (-78.060871 35.61119)",
      "poi": {
        "id": 248769,
        "geometry": "POINT (-78.060871 35.61119)",
        "poi_name": "Southern National Motorsport Park",
        "osm_id": 4773889332,
        "leisure": "stadium",
        "sport": "motor",
        "wikidata": "Q7570163",
        "addr_state": "NC",
        "addr_city": "Lucama",
        "addr_postcode": "27851",
        "addr_street": "Newsome Mill Road",
        "addr_housenumber": "8071"
      }
    }
  },
  "id": 475,
  "type": "range:non_spat_filter+loc"
}