{
  "question": "Could you help me find the location of an american restaurant, preferably within an 80 kilometers radius of University of Wisconsin-River Falls Hudson Center, Hudson, WI?",
  "sql": "SELECT * FROM pois\nWHERE ST_DWithin(pois.geometry, ST_GeomFromText('POINT (-92.72049 44.954815)',4326)::geography, 80000)\nAND amenity = 'restaurant'\nAND cuisine ILIKE '%american%';\n",
  "answers": [
    {
      "id": 27849,
      "geometry": "POINT (-93.236403 44.980004)",
      "poi_name": "Annie's Parlour",
      "osm_id": 453899741,
      "amenity": "restaurant",
      "cuisine": "american",
      "opening_hours": "Su-Th 11:00-23:00; Fr-Sa 11:00-00:00",
      "website": "https://www.facebook.com/dinkytownannies/",
      "phone": "+1-612-379-0744",
      "outdoor_seating": "yes",
      "addr_state": "MN",
      "addr_city": "Minneapolis",
      "addr_postcode": "55414",
      "addr_street": "Southeast 14th Avenue",
      "addr_housenumber": "313"
    },
    {
      "id": 31315,
      "geometry": "POINT (-93.221082 44.948545)",
      "poi_name": "Galapagos Bar and Grill",
      "osm_id": 8418928982,
      "amenity": "restaurant",
      "cuisine": "latin_american;ecuadorian",
      "opening_hours": "Mo-Th 11:00-22:00; Fr-Su 07:30-22:00",
      "phone": "+1 612-259-8380",
      "addr_state": "MN",
      "addr_city": "Minneapolis",
      "addr_postcode": "55406",
      "addr_street": "East Lake Street",
      "addr_housenumber": "3508"
    },
    {
      "id": 33406,
      "geometry": "POINT (-93.267082 44.885348)",
      "poi_name": "Minneapolis Richfield Post 435 American Legion",
      "osm_id": 2665600328,
      "amenity": "restaurant",
      "cuisine": "american",
      "opening_hours": "Su 10:00-24:00, Mo-Th 08:00-24:00, Fr-Sa 08:00-01:00",
      "capacity": "250",
      "addr_city": "Richfield",
      "addr_postcode": "55423",
      "addr_street": "Portland Avenue South",
      "addr_housenumber": "6501"
    },
    {
      "id": 33536,
      "geometry": "POINT (-93.301536 44.948244)",
      "poi_name": "Lake & Irving",
      "osm_id": 2672364350,
      "amenity": "restaurant",
      "cuisine": "american",
      "opening_hours": "Mo-Th 16:00-22:00; Fr-Sa 11:00-22:00; Su 11:00-21:00",
      "website": "https://www.lakeandirving.com/",
      "phone": "+1 (612)-354-2453",
      "addr_city": "Minneapolis",
      "addr_postcode": "55408",
      "addr_street": "West Lake Street",
      "addr_housenumber": "1513"
    },
    {
      "id": 34156,
      "geometry": "POINT (-93.327316 44.870319)",
      "poi_name": "Pinstripes",
      "osm_id": 2696844764,
      "amenity": "restaurant",
      "cuisine": "american",
      "sport": "10pin",
      "website": "https://pinstripes.com/",
      "phone": "+1 952 835 6440",
      "addr_city": "Edina",
      "addr_postcode": "55435",
      "addr_street": "Gallagher Drive",
      "addr_housenumber": "3849"
    },
    {
      "id": 34157,
      "geometry": "POINT (-93.326461 44.867234)",
      "poi_name": "Q. Cumbers",
      "osm_id": 2696853426,
      "amenity": "restaurant",
      "cuisine": "american",
      "website": "https://www.qcumbers.com/",
      "phone": "+1 952 831 0235",
      "outdoor_seating": "no",
      "addr_city": "Edina",
      "addr_postcode": "55435",
      "addr_street": "France Avenue South",
      "addr_housenumber": "7465"
    },
    {
      "id": 34352,
      "geometry": "POINT (-93.323613 44.876758)",
      "poi_name": "Pittsburgh Blue",
      "osm_id": 2699074991,
      "amenity": "restaurant",
      "cuisine": "american",
      "website": "https://www.pittsburghbluesteak.com/",
      "phone": "+1 952 567 2700",
      "addr_city": "Edina",
      "addr_postcode": "55435"
    },
    {
      "id": 34444,
      "geometry": "POINT (-93.325484 44.876856)",
      "poi_name": "Good Earth",
      "osm_id": 2700273263,
      "amenity": "restaurant",
      "cuisine": "american",
      "website": "https://goodearthmn.com/",
      "phone": "+1 952 925 1001",
      "addr_city": "Edina",
      "addr_postcode": "55435"
    },
    {
      "id": 34446,
      "geometry": "POINT (-93.326844 44.876943)",
      "poi_name": "Crave",
      "osm_id": 2700279437,
      "amenity": "restaurant",
      "cuisine": "american",
      "website": "https://craveamerica.com/",
      "phone": "+1 952 697 6000",
      "addr_city": "Edina",
      "addr_postcode": "55435"
    },
    {
      "id": 34453,
      "geometry": "POINT (-93.325164 44.879345)",
      "poi_name": "The Cheesecake Factory",
      "osm_id": 2700302193,
      "amenity": "restaurant",
      "cuisine": "american",
      "website": "https://www.thecheesecakefactory.com/",
      "phone": "+1 952 653 3333",
      "addr_state": "MN",
      "addr_city": "Edina",
      "addr_postcode": "55435",
      "addr_street": "Southdale Center"
    },
    {
      "id": 34459,
      "geometry": "POINT (-93.326118 44.880472)",
      "poi_name": "Ruby Tuesday",
      "osm_id": 2700304866,
      "amenity": "restaurant",
      "cuisine": "american",
      "website": "https://www.rubytuesday.com",
      "phone": "+1 952 928 9906",
      "addr_state": "MN",
      "addr_city": "Edina",
      "addr_postcode": "55435",
      "addr_street": "Southdale Center"
    },
    {
      "id": 36070,
      "geometry": "POINT (-92.932933 44.951385)",
      "poi_name": "The Machine Shed",
      "osm_id": 2747699473,
      "amenity": "restaurant",
      "cuisine": "american",
      "opening_hours": "Su-Th 07:00-20:00; Fr-Sa 07:00-21:00",
      "website": "http://www.machineshed.com",
      "phone": "+1-651-735-7436",
      "addr_state": "MN",
      "addr_city": "Lake Elmo",
      "addr_postcode": "55042",
      "addr_street": "Hudson Boulevard North",
      "addr_housenumber": "8515"
    },
    {
      "id": 38654,
      "geometry": "POINT (-92.75676 44.97538)",
      "poi_name": "Black Rooster Bistro",
      "osm_id": 2874637722,
      "amenity": "restaurant",
      "cuisine": "american",
      "opening_hours": "We-Su 11:00-22:00",
      "website": "https://www.blackroosterbistro.com/",
      "addr_city": "Hudson",
      "addr_postcode": "54016",
      "addr_street": "Second Street",
      "addr_housenumber": "516"
    },
    {
      "id": 43495,
      "geometry": "POINT (-93.307246 44.860556)",
      "poi_name": "Applebee's",
      "osm_id": 3115458471,
      "amenity": "restaurant",
      "cuisine": "american",
      "website": "https://www.applebees.com/",
      "phone": "+1 952 881 8845",
      "official_name": "Applebee's Neighborhood Grill & Bar",
      "addr_state": "MN",
      "addr_city": "Bloomington",
      "addr_postcode": "55431",
      "addr_street": "Southtown Center",
      "addr_housenumber": "7901"
    },
    {
      "id": 44766,
      "geometry": "POINT (-93.308889 44.881499)",
      "poi_name": "Hope's Silver Spoon Restaurant",
      "osm_id": 3175444406,
      "amenity": "restaurant",
      "cuisine": "chinese;american",
      "website": "https://www.facebook.com/HopesSilverSpoon",
      "phone": "+1 612 866 4981",
      "addr_state": "MN",
      "addr_city": "Richfield",
      "addr_postcode": "55423",
      "addr_street": "Penn Avenue South",
      "addr_housenumber": "6700"
    },
    {
      "id": 45934,
      "geometry": "POINT (-93.3259 44.880843)",
      "poi_name": "Macy's Lakeshore Grill",
      "osm_id": 3236780011,
      "amenity": "restaurant",
      "cuisine": "american",
      "website": "http://macysrestaurants.com",
      "phone": "+1 952 924 6727",
      "addr_state": "MN",
      "addr_city": "Edina",
      "addr_postcode": "55435",
      "addr_street": "Southdale Center"
    },
    {
      "id": 45938,
      "geometry": "POINT (-93.355311 44.853081)",
      "poi_name": "Kincaid's",
      "osm_id": 3236958316,
      "amenity": "restaurant",
      "cuisine": "american",
      "website": "https://kincaids.com",
      "phone": "+1 952 921 2255",
      "addr_state": "MN",
      "addr_city": "Bloomington",
      "addr_postcode": "55437",
      "addr_street": "Normandale Lake Boulevard",
      "addr_housenumber": "8400"
    },
    {
      "id": 48274,
      "geometry": "POINT (-93.285572 44.971509)",
      "poi_name": "The Third Bird",
      "osm_id": 3374112804,
      "amenity": "restaurant",
      "cuisine": "new_american",
      "phone": "+1 612 767 9495",
      "takeaway": "no",
      "delivery": "no",
      "addr_state": "MN",
      "addr_city": "Minneapolis",
      "addr_street": "Harmon Place",
      "addr_housenumber": "1612"
    },
    {
      "id": 48717,
      "geometry": "POINT (-93.30693 44.974691)",
      "poi_name": "La Mesa",
      "osm_id": 3397599697,
      "amenity": "restaurant",
      "cuisine": "regional;latin_american",
      "website": "https://www.lamesampls.com/",
      "phone": "+16122598943",
      "addr_state": "MN",
      "addr_city": "Minneapolis",
      "addr_postcode": "55405",
      "addr_street": "Cedar Lake Road South",
      "addr_housenumber": "230"
    },
    {
      "id": 50014,
      "geometry": "POINT (-93.292617 44.961521)",
      "poi_name": "The Lowry",
      "osm_id": 3461721648,
      "amenity": "restaurant",
      "cuisine": "american",
      "opening_hours": "06:30-02:00",
      "phone": "+1-612-341-2112",
      "addr_state": "MN",
      "addr_city": "Minneapolis",
      "addr_postcode": "55405",
      "addr_street": "Hennepin Avenue South",
      "addr_housenumber": "2112"
    },
    {
      "id": 51303,
      "geometry": "POINT (-93.3767 44.745347)",
      "poi_name": "Buffalo Wild Wings Grill & Bar",
      "osm_id": 530289132,
      "amenity": "restaurant",
      "cuisine": "chicken;american",
      "addr_state": "MN"
    },
    {
      "id": 51691,
      "geometry": "POINT (-93.290136 44.9485)",
      "poi_name": "Bryant-Lake Bowl",
      "osm_id": 550910340,
      "amenity": "restaurant",
      "cuisine": "american",
      "description": "Funky alley & bar hosts DJs plus music & theater performers while serving a simple American menu.",
      "sport": "10pin",
      "website": "https://www.bryantlakebowl.com/",
      "wikidata": "Q4980544",
      "addr_state": "MN",
      "addr_city": "Minneapolis",
      "addr_postcode": "55408",
      "addr_street": "West Lake Street",
      "addr_housenumber": "810"
    },
    {
      "id": 52301,
      "geometry": "POINT (-93.226799 44.926752)",
      "poi_name": "Chris & Rob's",
      "osm_id": 576903446,
      "amenity": "restaurant",
      "cuisine": "american",
      "website": "http://www.chrisandrobs.com",
      "internet_access": "wlan",
      "addr_state": "MN",
      "addr_city": "Minneapolis",
      "addr_postcode": "55406",
      "addr_street": "East 42nd Street",
      "addr_housenumber": "3101"
    },
    {
      "id": 51828,
      "geometry": "POINT (-93.176807 44.934159)",
      "poi_name": "Estelle",
      "osm_id": 563291045,
      "amenity": "restaurant",
      "cuisine": "american",
      "opening_hours": "Mo-Th 17:00-21:00; Fr-Sa 17:00-22:00; Su 17:00-21:00",
      "website": "https://estellestp.com/",
      "phone": "+1 651-330-9648",
      "addr_state": "MN",
      "addr_city": "Saint Paul",
      "addr_postcode": "55105",
      "addr_street": "Saint Clair Avenue",
      "addr_housenumber": "1806"
    },
    {
      "id": 53322,
      "geometry": "POINT (-93.287221 44.967183)",
      "poi_name": "P.S. Steak",
      "osm_id": 10075791519,
      "amenity": "restaurant",
      "cuisine": "steak_house;american;fine_dining",
      "website": "https://www.psmpls.com/",
      "phone": "(612) 886-1620",
      "addr_state": "MN",
      "addr_city": "Minneapolis",
      "addr_street": "Groveland Avenue",
      "addr_housenumber": "510"
    },
    {
      "id": 62643,
      "geometry": "POINT (-93.243391 44.649949)",
      "poi_name": "Babes Music Bar",
      "osm_id": 5579501552,
      "amenity": "restaurant",
      "cuisine": "american",
      "description": "A downtown music bar",
      "wheelchair": "yes",
      "website": "https://www.babesmusicbar.com/",
      "addr_state": "MN",
      "addr_city": "Lakeville",
      "addr_postcode": "55044",
      "addr_street": "Holyoke",
      "addr_housenumber": "20685"
    },
    {
      "id": 76943,
      "geometry": "POINT (-92.487259 45.577671)",
      "poi_name": "Red Maple Eatery",
      "osm_id": 9797448330,
      "amenity": "restaurant",
      "cuisine": "american",
      "opening_hours": "Th-Tu 07:00-14:00; We closed",
      "website": "https://redmapleeatery.com/",
      "phone": "+1 715 472 8987",
      "addr_state": "WI",
      "addr_city": "Luck",
      "addr_postcode": "54853",
      "addr_street": "Robertson Road",
      "addr_housenumber": "12"
    },
    {
      "id": 79048,
      "geometry": "POINT (-93.297209 44.948196)",
      "poi_name": "Libertine",
      "osm_id": 770584902,
      "amenity": "restaurant",
      "cuisine": "american",
      "opening_hours": "Mo-Th 16:00-24:00; Fr 16:00-24:00; Sa 10:00-02:00; Su 10:00-24:00; PH closed",
      "website": "https://www.libertinempls.com/",
      "addr_state": "MN",
      "addr_city": "Minneapolis",
      "addr_postcode": "55408",
      "addr_street": "Hennepin Avenue South",
      "addr_housenumber": "3001"
    },
    {
      "id": 79132,
      "geometry": "POINT (-93.187189 44.945335)",
      "poi_name": "Gus Gus",
      "osm_id": 774942210,
      "amenity": "restaurant",
      "cuisine": "american",
      "opening_hours": "Tu-Th 16:00-21:00; Fr-Sa 16:00-22:00; Su 10:00-14:00",
      "website": "https://www.gusgusmn.com/",
      "phone": "+1-651-645-4128",
      "addr_state": "MN",
      "addr_city": "Saint Paul",
      "addr_postcode": "55104",
      "addr_street": "Cleveland Avenue North",
      "addr_housenumber": "128"
    },
    {
      "id": 81116,
      "geometry": "POINT (-93.235474 44.981153)",
      "poi_name": "Kaf\u00e9 421",
      "osm_id": 1607151322,
      "amenity": "restaurant",
      "cuisine": "mediterranean;american",
      "opening_hours": "Mo-Th 11:00-21:00; Fr-Sa 11:00-22:00; Su 12:00-21:00",
      "website": "https://www.kafe421.com",
      "phone": "+1-612-623-4900",
      "addr_state": "MN",
      "addr_city": "Minneapolis",
      "addr_postcode": "55414",
      "addr_street": "Southeast 14th Avenue",
      "addr_housenumber": "421"
    },
    {
      "id": 82852,
      "geometry": "POINT (-93.145686 44.992213)",
      "poi_name": "Key's Cafe",
      "osm_id": 1715471774,
      "amenity": "restaurant",
      "cuisine": "breakfast;brunch;american;coffee;pie;cookie;cake",
      "opening_hours": "Mo-Tu 06:30-20:00; We-Fr 06:30-21:00; Sa 07:00-21:00; Su 07:00-20:00",
      "website": "https://keyscafe.com/",
      "phone": "+1-651-487-5397",
      "addr_state": "MN",
      "addr_city": "Roseville",
      "addr_postcode": "55113",
      "addr_street": "Lexington Avenue North",
      "addr_housenumber": "1682"
    },
    {
      "id": 84943,
      "geometry": "POINT (-93.247072 45.007738)",
      "poi_name": "Half Fancy",
      "osm_id": 1827532773,
      "amenity": "restaurant",
      "cuisine": "american",
      "opening_hours": "Su 09:00-16:00; Mo 09:00-22:00; Tu-We 15:00-22:00; Th 15:00-00:00; Fr-Sa 09:00-00:00",
      "website": "https://halffancy.com/",
      "phone": "612-315-2340",
      "addr_state": "MN",
      "addr_city": "Minneapolis",
      "addr_street": "Central Avenue Northeast",
      "addr_housenumber": "1851"
    },
    {
      "id": 83542,
      "geometry": "POINT (-93.290462 44.937863)",
      "poi_name": "Cafe WYRD",
      "osm_id": 1749103305,
      "amenity": "restaurant",
      "cuisine": "regional;burger;sandwich;american;coffee_shop",
      "wheelchair": "yes",
      "opening_hours": "Mo-Su 08:00-14:30",
      "website": "https://www.gigisuptown.com",
      "phone": "+1-612-825-0818",
      "outdoor_seating": "yes",
      "addr_state": "MN",
      "addr_city": "Minneapolis",
      "addr_postcode": "55408",
      "addr_street": "West 36th Street",
      "addr_housenumber": "822"
    },
    {
      "id": 88835,
      "geometry": "POINT (-93.179929 44.791177)",
      "poi_name": "Mason Jar Kitchen",
      "osm_id": 8803871768,
      "amenity": "restaurant",
      "cuisine": "american",
      "opening_hours": "Su-Th 08:00-20:00; Fr-Sa 08:00-21:00",
      "website": "https://masonjar.kitchen/",
      "phone": "+1 651 340 7809",
      "addr_state": "MN",
      "addr_city": "Eagan",
      "addr_postcode": "55122",
      "addr_street": "Cliff Road",
      "addr_housenumber": "1565"
    },
    {
      "id": 88948,
      "geometry": "POINT (-93.1668 44.93319)",
      "poi_name": "Chip's Clubhouse",
      "osm_id": 8810084264,
      "amenity": "restaurant",
      "cuisine": "american",
      "opening_hours": "We-Sa 17:00-21:00; Su 10:00-14:00,17:00-20:00",
      "website": "https://visitchips.com/",
      "phone": "+1-651-330-1617",
      "addr_state": "MN",
      "addr_city": "Saint Paul",
      "addr_postcode": "55105",
      "addr_street": "Snelling Avenue",
      "addr_housenumber": "272"
    },
    {
      "id": 91893,
      "geometry": "POINT (-93.267547 44.973343)",
      "poi_name": "Normandy Kitchen",
      "osm_id": 2093784239,
      "amenity": "restaurant",
      "cuisine": "american",
      "addr_city": "Minneapolis"
    },
    {
      "id": 90079,
      "geometry": "POINT (-93.287808 44.74461)",
      "poi_name": "Applebee's",
      "osm_id": 1976900918,
      "amenity": "restaurant",
      "cuisine": "american",
      "official_name": "Applebee's Neighborhood Grill & Bar",
      "addr_state": "MN",
      "addr_postcode": "55306",
      "addr_street": "Burnsville Center",
      "addr_housenumber": "2152"
    },
    {
      "id": 90254,
      "geometry": "POINT (-92.28442 44.462418)",
      "poi_name": "Lake House on Pepin",
      "osm_id": 1987666269,
      "amenity": "restaurant",
      "cuisine": "american",
      "wheelchair": "yes",
      "takeaway": "yes",
      "addr_state": "MN",
      "addr_city": "Lake City",
      "addr_postcode": "55041",
      "addr_street": "N Lakeshore Drive",
      "addr_housenumber": "1702"
    },
    {
      "id": 96520,
      "geometry": "POINT (-93.464814 44.904148)",
      "poi_name": "The Copper Cow Kitchen & Bar",
      "osm_id": 6434775876,
      "amenity": "restaurant",
      "cuisine": "american",
      "opening_hours": "Mo-Th 11:00-22:00; Fr 11:00-23:00; Sa 09:00-23:00; Su 09:00-22:00",
      "website": "https://www.coppercowkitchen.com/",
      "takeaway": "yes",
      "outdoor_seating": "no",
      "delivery": "no",
      "addr_state": "MN",
      "addr_city": "Minnetonka",
      "addr_postcode": "55345",
      "addr_street": "Eden Prairie Road",
      "addr_housenumber": "5445"
    },
    {
      "id": 95026,
      "geometry": "POINT (-93.566622 44.9035)",
      "poi_name": "Jake O' Connors Public House",
      "osm_id": 6384109586,
      "amenity": "restaurant",
      "cuisine": "irish;american",
      "outdoor_seating": "yes",
      "addr_state": "MN",
      "addr_city": "Excelsior",
      "addr_postcode": "55331",
      "addr_street": "Water Street",
      "addr_housenumber": "200"
    },
    {
      "id": 95028,
      "geometry": "POINT (-93.565189 44.90403)",
      "poi_name": "Haskell's Port of Excelsior",
      "osm_id": 6384109610,
      "amenity": "restaurant",
      "cuisine": "bar&grill;american",
      "outdoor_seating": "yes",
      "addr_state": "MN",
      "addr_city": "Excelsior",
      "addr_postcode": "55331",
      "addr_street": "Water Street",
      "addr_housenumber": "1"
    },
    {
      "id": 95044,
      "geometry": "POINT (-93.566542 44.902937)",
      "poi_name": "Coalition",
      "osm_id": 6384347263,
      "amenity": "restaurant",
      "cuisine": "american",
      "addr_state": "MN",
      "addr_city": "Excelsior",
      "addr_postcode": "55331",
      "addr_street": "Water Street",
      "addr_housenumber": "227"
    },
    {
      "id": 106586,
      "geometry": "POINT (-93.411246 44.924308)",
      "poi_name": "Hoagie's Family Restaurant",
      "osm_id": 8690947759,
      "amenity": "restaurant",
      "cuisine": "american;breakfast;diner",
      "addr_state": "MN",
      "addr_city": "Hopkins",
      "addr_postcode": "55343",
      "addr_street": "Mainstreet",
      "addr_housenumber": "824"
    },
    {
      "id": 164815,
      "geometry": "POINT (-93.284054 44.725143)",
      "poi_name": "BUCK '54 BAR & GRILL",
      "osm_id": 9501992026,
      "amenity": "restaurant",
      "cuisine": "bar&grill;american",
      "opening_hours": "Mo-Fr 14:00-22:00, Sa-Su 11:00-22:00",
      "website": "https://buckhill.com/",
      "phone": "+1 (952) 435-7174",
      "addr_state": "MN",
      "addr_city": "Burnsville",
      "addr_postcode": "55306",
      "addr_street": "Buck Hill Road",
      "addr_housenumber": "15400"
    },
    {
      "id": 110803,
      "geometry": "POINT (-93.279864 44.974818)",
      "poi_name": "Butcher & the Boar",
      "osm_id": 3717850749,
      "amenity": "restaurant",
      "cuisine": "american",
      "opening_hours": "Mo-Sa 17:00-22:00; Su 17:00-21:00",
      "website": "https://butcherandtheboar.com/",
      "phone": "+1-612-238-8888",
      "takeaway": "no",
      "delivery": "no",
      "addr_state": "MN",
      "addr_city": "Minneapolis",
      "addr_postcode": "55403",
      "addr_street": "Hennepin Avenue",
      "addr_housenumber": "1121"
    },
    {
      "id": 149016,
      "geometry": "POINT (-93.348999 44.966561)",
      "poi_name": "Yard House",
      "osm_id": 3993037346,
      "amenity": "restaurant",
      "cuisine": "american",
      "addr_state": "MN",
      "addr_city": "Saint Louis Park",
      "addr_postcode": "55416",
      "addr_street": "Park Place Boulevard",
      "addr_housenumber": "1665"
    },
    {
      "id": 164436,
      "geometry": "POINT (-93.305539 45.245841)",
      "poi_name": "White Rabbit Kitchen",
      "osm_id": 9471720769,
      "amenity": "restaurant",
      "cuisine": "american;regional;chicken",
      "opening_hours": "Tu-Sa 11:00-20:00",
      "website": "https://whiterabbitkitchenmn.com/",
      "phone": "(763) 270-5975",
      "addr_state": "MN",
      "addr_city": "Andover",
      "addr_postcode": "55304",
      "addr_street": "Bluebird Street Northwest",
      "addr_housenumber": "15190"
    },
    {
      "id": 156983,
      "geometry": "POINT (-93.228541 44.957219)",
      "poi_name": "Cafe Racer",
      "osm_id": 4679998418,
      "amenity": "restaurant",
      "cuisine": "latin_american",
      "website": "http://www.caferacermn.com/",
      "phone": "+1-612-208-1695",
      "outdoor_seating": "yes",
      "addr_state": "MN",
      "addr_city": "Minneapolis",
      "addr_postcode": "55406",
      "addr_street": "East 25th Street",
      "addr_housenumber": "2929"
    },
    {
      "id": 164823,
      "geometry": "POINT (-93.209286 44.727611)",
      "poi_name": "Celts Craft House",
      "osm_id": 9501992057,
      "amenity": "restaurant",
      "cuisine": "american",
      "website": "https://celtscrafthouse.com/",
      "phone": "+1 (952) 683-1533",
      "addr_state": "MN",
      "addr_city": "Apple Valley",
      "addr_postcode": "55124",
      "addr_street": "153rd Street West",
      "addr_housenumber": "7083"
    },
    {
      "id": 170913,
      "geometry": "POINT (-93.30518 45.246419)",
      "poi_name": "Beef 'O' Brady's",
      "osm_id": 2352310612,
      "amenity": "restaurant",
      "cuisine": "american",
      "addr_state": "MN",
      "addr_city": "Andover",
      "addr_postcode": "55304",
      "addr_street": "Bluebird Street Northwest",
      "addr_housenumber": "15190"
    },
    {
      "id": 165330,
      "geometry": "POINT (-93.305475 45.248471)",
      "poi_name": "Mrs. Taco",
      "osm_id": 9528370242,
      "amenity": "restaurant",
      "cuisine": "mexican;latin_american",
      "website": "https://www.tastytacomn.com/",
      "phone": "(763) 273-4975",
      "addr_state": "MN",
      "addr_city": "Andover",
      "addr_postcode": "55304",
      "addr_street": "154th Avenue Northwest",
      "addr_housenumber": "1574"
    },
    {
      "id": 170864,
      "geometry": "POINT (-93.197748 44.964591)",
      "poi_name": "Keys Caf\u00e9 & Bakery",
      "osm_id": 2351672714,
      "amenity": "restaurant",
      "cuisine": "regional;american;cafe;breakfast;pastry",
      "wheelchair": "limited",
      "opening_hours": "Mo-Fr 06:30-15:00; Sa 07:00-14:00; Su 08:30-14:00",
      "website": "http://www.keyscafe.com/st-paul-mn-raymond-ave/",
      "phone": "+1-651-646-5756",
      "addr_state": "MN",
      "addr_city": "Saint Paul",
      "addr_postcode": "55114",
      "addr_street": "Raymond Avenue",
      "addr_housenumber": "767"
    },
    {
      "id": 171226,
      "geometry": "POINT (-93.326069 44.912733)",
      "poi_name": "Red Cow",
      "osm_id": 2366371487,
      "amenity": "restaurant",
      "cuisine": "american",
      "opening_hours": "Mo-Fr 11:00-01:00; Sa,Su 09:00-01:00",
      "website": "https://redcowmn.com/",
      "phone": "+1-612-767-4411",
      "addr_state": "MN",
      "addr_city": "Minneapolis",
      "addr_postcode": "55410",
      "addr_street": "West 50th Street",
      "addr_housenumber": "3624"
    },
    {
      "id": 177197,
      "geometry": "POINT (-93.278177 44.934272)",
      "poi_name": "Cocina Latina",
      "osm_id": 2577336563,
      "amenity": "restaurant",
      "cuisine": "latin_american",
      "opening_hours": "Mo 11:00-21:00; Tu-Th 11:00-22:00; Fr 10:30-22:00; Sa-Su 10:00-22:00",
      "website": "https://www.cocinalatinamn.com",
      "phone": "+1 612 354 2971",
      "addr_city": "Minneapolis",
      "addr_postcode": "55409",
      "addr_street": "Nicollet Avenue South",
      "addr_housenumber": "3764"
    },
    {
      "id": 182379,
      "geometry": "POINT (-93.247575 45.012915)",
      "poi_name": "Francis Burger Joint",
      "osm_id": 10891390209,
      "amenity": "restaurant",
      "cuisine": "burger;american",
      "addr_state": "MN",
      "addr_city": "Minneapolis",
      "addr_postcode": "55418",
      "addr_street": "Central Avenue Northeast",
      "addr_housenumber": "2422"
    },
    {
      "id": 188038,
      "geometry": "POINT (-92.993852 44.608891)",
      "poi_name": "Little Oscar's",
      "osm_id": 1125406138,
      "amenity": "restaurant",
      "cuisine": "american",
      "phone": "+1-651-437-6327",
      "addr_state": "MN",
      "addr_city": "Hampton",
      "addr_postcode": "55031",
      "addr_street": "Emery Avenue",
      "addr_housenumber": "23470"
    },
    {
      "id": 192373,
      "geometry": "POINT (-92.998358 45.275218)",
      "poi_name": "Applebee's",
      "osm_id": 1438101260,
      "amenity": "restaurant",
      "cuisine": "american",
      "official_name": "Applebee's Neighborhood Grill & Bar",
      "addr_state": "MN"
    },
    {
      "id": 193612,
      "geometry": "POINT (-93.170522 44.939948)",
      "poi_name": "French Meadow Bakery",
      "osm_id": 1547972584,
      "amenity": "restaurant",
      "cuisine": "coffee_shop;american",
      "opening_hours": "Su-Th 07:00-21:00; Fr-Sa 07:00-23:00",
      "website": "https://www.opentable.com/r/french-meadow-cafe-grand-ave-saint-paul",
      "phone": "+1-612-870-7855",
      "outdoor_seating": "yes",
      "addr_state": "MN",
      "addr_city": "Saint Paul",
      "addr_postcode": "55105",
      "addr_street": "Grand Avenue",
      "addr_housenumber": "1662"
    },
    {
      "id": 196796,
      "geometry": "POINT (-92.584937 44.569924)",
      "poi_name": "Applebee's",
      "osm_id": 10596830033,
      "amenity": "restaurant",
      "cuisine": "american",
      "official_name": "Applebee's Neighborhood Grill & Bar",
      "addr_state": "MN",
      "addr_city": "Red Wing",
      "addr_postcode": "55066",
      "addr_street": "Tyler Road North",
      "addr_housenumber": "156"
    },
    {
      "id": 198876,
      "geometry": "POINT (-93.235955 44.980725)",
      "poi_name": "Tony's Diner",
      "osm_id": 923857176,
      "amenity": "restaurant",
      "cuisine": "american",
      "opening_hours": "Mo-Sa 08:00-22:00; Su 08:00-15:00",
      "phone": "+1 612 378 4730",
      "addr_state": "MN",
      "addr_city": "Minneapolis",
      "addr_postcode": "55414",
      "addr_street": "Southeast 4th Street",
      "addr_housenumber": "1327"
    },
    {
      "id": 200295,
      "geometry": "POINT (-93.430552 44.851018)",
      "poi_name": "Applebee's",
      "osm_id": 1030294708,
      "amenity": "restaurant",
      "cuisine": "american",
      "official_name": "Applebee's Neighborhood Grill & Bar",
      "addr_state": "MN"
    },
    {
      "id": 200314,
      "geometry": "POINT (-93.262807 44.915453)",
      "poi_name": "Creekside Supperclub",
      "osm_id": 1031679858,
      "amenity": "restaurant",
      "cuisine": "american",
      "opening_hours": "Tu-Th 16:00-22:00; Fr-Sa 16:00-00:00; Su 16:00-22:00",
      "website": "https://www.creeksidemn.com/",
      "phone": "+1-612-354-3675",
      "addr_state": "MN",
      "addr_city": "Minneapolis",
      "addr_postcode": "55417",
      "addr_street": "Chicago Avenue South",
      "addr_housenumber": "4820"
    },
    {
      "id": 201540,
      "geometry": "POINT (-93.147533 44.992602)",
      "poi_name": "Original Malt Shop",
      "osm_id": 637711312,
      "amenity": "restaurant",
      "cuisine": "american;ice_cream",
      "opening_hours": "Mo-Th 11:00-20:00; Fr-Sa 11:00-21:00; Su 11:30-20:00",
      "website": "https://originalmaltshop.com/",
      "phone": "+1-651-488-0241",
      "addr_state": "MN",
      "addr_city": "Roseville",
      "addr_postcode": "55113",
      "addr_street": "Larpenteur Avenue West",
      "addr_housenumber": "1125"
    },
    {
      "id": 200816,
      "geometry": "POINT (-93.291005 44.924887)",
      "poi_name": "Tenant",
      "osm_id": 598415817,
      "amenity": "restaurant",
      "cuisine": "american",
      "opening_hours": "Tu-Sa 18:00-22:00",
      "website": "http://tenantmpls.com/",
      "phone": "+1-612-827-8111",
      "takeaway": "no",
      "addr_state": "MN",
      "addr_city": "Minneapolis",
      "addr_postcode": "55419",
      "addr_street": "Bryant Avenue South",
      "addr_housenumber": "4300"
    },
    {
      "id": 202076,
      "geometry": "POINT (-93.477435 44.921042)",
      "poi_name": "Duke'S On 7",
      "osm_id": 677214256,
      "amenity": "restaurant",
      "cuisine": "american;brunch",
      "website": "https://www.dukeson7.com/",
      "phone": "+1-952-767-2320",
      "addr_state": "MN",
      "addr_city": "Minnetonka",
      "addr_postcode": "55345",
      "addr_street": "MN-7",
      "addr_housenumber": "15600"
    },
    {
      "id": 204530,
      "geometry": "POINT (-93.372244 45.032525)",
      "poi_name": "Papa's Cafe",
      "osm_id": 7131395394,
      "amenity": "restaurant",
      "cuisine": "american",
      "addr_state": "MN",
      "addr_city": "New Hope",
      "addr_postcode": "55428",
      "addr_street": "42nd Avenue North",
      "addr_housenumber": "7181"
    },
    {
      "id": 203633,
      "geometry": "POINT (-92.906411 44.508098)",
      "poi_name": "Mill Street Tavern",
      "osm_id": 7096042073,
      "amenity": "restaurant",
      "cuisine": "american",
      "website": "http://www.millstreettavern.com/",
      "phone": "+1 507 263 9429",
      "addr_city": "Cannon Falls",
      "addr_postcode": "55009",
      "addr_street": "Mill Street West",
      "addr_housenumber": "410"
    },
    {
      "id": 203636,
      "geometry": "POINT (-92.90603 44.487716)",
      "poi_name": "Falls Landing",
      "osm_id": 7096091791,
      "amenity": "restaurant",
      "cuisine": "american",
      "website": "https://www.fallslandingmn.com/",
      "phone": "+1 651 829 1640",
      "addr_city": "Cannon Falls",
      "addr_postcode": "55009",
      "addr_street": "4th Street South",
      "addr_housenumber": "1223"
    },
    {
      "id": 203637,
      "geometry": "POINT (-92.905932 44.506655)",
      "poi_name": "Chuggers Bar & Grill",
      "osm_id": 7096119872,
      "amenity": "restaurant",
      "cuisine": "american",
      "phone": "+1 507 263 0680",
      "addr_city": "Cannon Falls",
      "addr_postcode": "55009",
      "addr_street": "4th Street South",
      "addr_housenumber": "104"
    },
    {
      "id": 203638,
      "geometry": "POINT (-92.905528 44.50651)",
      "poi_name": "Brewster's Bar & Grill",
      "osm_id": 7096119873,
      "amenity": "restaurant",
      "cuisine": "american",
      "phone": "+1 507 263 5020",
      "addr_city": "Cannon Falls",
      "addr_postcode": "55009",
      "addr_street": "4th Street South",
      "addr_housenumber": "115"
    },
    {
      "id": 203639,
      "geometry": "POINT (-92.905179 44.507785)",
      "poi_name": "Nick's Downtown Diner",
      "osm_id": 7096119874,
      "amenity": "restaurant",
      "cuisine": "american",
      "website": "https://www.nicksdowntowndiner.com/",
      "phone": "+1 507 263 0003",
      "addr_city": "Cannon Falls",
      "addr_postcode": "55009",
      "addr_street": "West Mill Street",
      "addr_housenumber": "331"
    },
    {
      "id": 205392,
      "geometry": "POINT (-93.383457 45.034646)",
      "poi_name": "Hy-Vee Market Grille",
      "osm_id": 7167535493,
      "amenity": "restaurant",
      "cuisine": "american",
      "takeaway": "yes",
      "outdoor_seating": "yes",
      "addr_state": "MN",
      "addr_city": "New Hope",
      "addr_postcode": "55428",
      "addr_street": "42nd Avenue North",
      "addr_housenumber": "8200"
    },
    {
      "id": 228105,
      "geometry": "POINT (-93.384992 44.936825)",
      "poi_name": "Applebee's",
      "osm_id": 4331102003,
      "amenity": "restaurant",
      "cuisine": "american",
      "website": "https://restaurants.applebees.com/en-us/mn/st-louis-park/8312-state-hwy-7-77061?utm_source=google&utm_medium=organic&utm_campaign=google_my_business&utm_term=77061&utm_content=website",
      "phone": "+19529336701",
      "official_name": "Applebee's Neighborhood Grill & Bar",
      "addr_state": "MN",
      "addr_city": "Saint Louis Park",
      "addr_postcode": "55426",
      "addr_street": "Minnesota State Highway 7",
      "addr_housenumber": "8312"
    },
    {
      "id": 206032,
      "geometry": "POINT (-93.549632 45.19708)",
      "poi_name": "Country Pride",
      "osm_id": 7194124717,
      "amenity": "restaurant",
      "cuisine": "american",
      "addr_state": "MN",
      "addr_city": "Rogers",
      "addr_postcode": "55374"
    },
    {
      "id": 217951,
      "geometry": "POINT (-93.441077 45.098622)",
      "poi_name": "Three Squares Restaurant",
      "osm_id": 9250398699,
      "amenity": "restaurant",
      "cuisine": "american",
      "operator": "Blue Plate Restaurant Company",
      "website": "https://www.3squaresrestaurant.com/",
      "phone": "+1-763-425-3330",
      "takeaway": "yes",
      "outdoor_seating": "yes",
      "addr_state": "MN",
      "addr_city": "Maple Grove",
      "addr_postcode": "55369",
      "addr_street": "Arbor Lakes Parkway North",
      "addr_housenumber": "12690"
    },
    {
      "id": 206311,
      "geometry": "POINT (-93.170546 44.955398)",
      "poi_name": "Denny's",
      "osm_id": 7205080253,
      "amenity": "restaurant",
      "cuisine": "american",
      "opening_hours": "24/7",
      "website": "https://locations.dennys.com/MN/SAINT-PAUL/249297",
      "phone": "+1-651-340-2972",
      "addr_state": "MN",
      "addr_city": "Saint Paul",
      "addr_postcode": "55104",
      "addr_street": "University Avenue",
      "addr_housenumber": "1664"
    },
    {
      "id": 212842,
      "geometry": "POINT (-93.19582 44.982623)",
      "poi_name": "Colossal Cafe",
      "osm_id": 5223530495,
      "amenity": "restaurant",
      "cuisine": "breakfast;american",
      "opening_hours": "07:00-15:00",
      "phone": "+1-651-797-4027",
      "addr_state": "MN",
      "addr_city": "Saint Paul",
      "addr_postcode": "55108",
      "addr_street": "Como Avenue",
      "addr_housenumber": "2315"
    },
    {
      "id": 225777,
      "geometry": "POINT (-93.044388 44.85483)",
      "poi_name": "Cahill Diner",
      "osm_id": 11139434614,
      "amenity": "restaurant",
      "cuisine": "american",
      "opening_hours": "Mo-Su 07:00-14:00",
      "website": "https://cahilldiner.com/",
      "phone": "+1-651-455-4408",
      "addr_state": "MN",
      "addr_city": "Inver Grove Heights",
      "addr_postcode": "55076",
      "addr_street": "Cahill Avenue",
      "addr_housenumber": "6504"
    },
    {
      "id": 234348,
      "geometry": "POINT (-93.27807 44.956348)",
      "poi_name": "Icehouse",
      "osm_id": 4617524792,
      "amenity": "restaurant",
      "cuisine": "american",
      "description": "Late-night 2-story fixture offers American cuisine, drinks & live music in an industrial-chic space.",
      "website": "https://www.icehousempls.com/",
      "phone": "+1-612-276-6523",
      "addr_state": "MN",
      "addr_city": "Minneapolis",
      "addr_postcode": "55404",
      "addr_street": "Nicollet Avenue South",
      "addr_housenumber": "2528"
    },
    {
      "id": 237942,
      "geometry": "POINT (-93.385712 44.976001)",
      "poi_name": "Three One Six Bar + Grill",
      "osm_id": 5854629919,
      "amenity": "restaurant",
      "cuisine": "bar&grill;grill;american",
      "opening_hours": "Mo-Su 08:00-22:00",
      "outdoor_seating": "yes",
      "addr_state": "MN",
      "addr_city": "Golden Valley",
      "addr_postcode": "55426",
      "addr_street": "Brookview Parkway",
      "addr_housenumber": "316"
    },
    {
      "id": 238525,
      "geometry": "POINT (-93.166392 44.946417)",
      "poi_name": "Neighborhood Cafe",
      "osm_id": 5882601645,
      "amenity": "restaurant",
      "cuisine": "coffee_shop;american",
      "opening_hours": "Tu-Sa 06:30-21:00, Su-Mo 06:30-15:00",
      "phone": "+1-651-644-8887",
      "addr_state": "MN",
      "addr_city": "Saint Paul",
      "addr_postcode": "55104",
      "addr_street": "Selby Avenue",
      "addr_housenumber": "1570"
    }
  ],
  "answer_type": "loc",
  "question_entities": {
    "[1]": {
      "main_category": "amenity",
      "sub_category": "restaurant",
      "poi_filter_desc": "american restaurant",
      "poi_filter_sql": "cuisine ILIKE '%american%'"
    },
    "[2]": {
      "distance": 80000,
      "text": "80 kilometers"
    },
    "[3]": {
      "main_category": "amenity",
      "sub_category": "university",
      "display_name": "University of Wisconsin-River Falls Hudson Center, Hudson, WI",
      "geo_wkt": "POINT (-92.72049 44.954815)",
      "poi": {
        "id": 187290,
        "geometry": "POINT (-92.72049 44.954815)",
        "poi_name": "University of Wisconsin-River Falls Hudson Center",
        "osm_id": 1050485267,
        "amenity": "university",
        "operator": "University of Wisconsin-River Falls",
        "website": "https://www.uwrf.edu/HudsonCenter/",
        "addr_state": "WI",
        "addr_city": "Hudson",
        "addr_postcode": "54016",
        "addr_street": "Hanley Road",
        "addr_housenumber": "2501"
      }
    }
  },
  "id": 409,
  "type": "range:non_spat_filter+loc"
}