{
  "question": "What's the heading towards a caf\u00e9 from Delmar Depot Museum, IA within 90 kilometers?",
  "sql": "SELECT *, degrees(ST_Azimuth(ST_GeomFromText('POINT (-90.606944 42.002327)',4326)::geography, pois.geometry)) AS angle FROM pois\nWHERE ST_DWithin(pois.geometry, ST_GeomFromText('POINT (-90.606944 42.002327)',4326)::geography, 90000)\nAND amenity = 'cafe';\n",
  "answers": [
    {
      "id": 74454,
      "geometry": "POINT (-90.577297 41.508214)",
      "poi_name": "NEST Cafe",
      "osm_id": 9681020796,
      "amenity": "cafe",
      "angle": 177.41766899687585
    },
    {
      "id": 31880,
      "geometry": "POINT (-91.534446 41.656772)",
      "poi_name": "The Encounter Cafe",
      "osm_id": 8454601472,
      "amenity": "cafe",
      "website": "https://theencountercafe.com/",
      "phone": "+1-319-519-2044",
      "addr_state": "IA",
      "addr_city": "Iowa City",
      "addr_postcode": "52240",
      "addr_street": "South Clinton Street",
      "addr_housenumber": "376",
      "angle": 243.8303392133659
    },
    {
      "id": 34080,
      "geometry": "POINT (-91.534459 41.658195)",
      "poi_name": "Starbucks",
      "osm_id": 2693566961,
      "amenity": "cafe",
      "cuisine": "coffee_shop",
      "takeaway": "yes",
      "official_name": "Starbucks Coffee",
      "addr_city": "Iowa City",
      "addr_postcode": "52240",
      "addr_street": "South Clinton Street",
      "addr_housenumber": "228",
      "angle": 243.92464209503856
    },
    {
      "id": 34635,
      "geometry": "POINT (-90.478145 42.734164)",
      "poi_name": "Badger Brothers Coffee",
      "osm_id": 2702421904,
      "amenity": "cafe",
      "cuisine": "coffee_shop",
      "opening_hours": "Mo-Fr 06:30-19:00; Sa,Su 08:00-19:00",
      "website": "https://badgerbroscoffee.com/",
      "internet_access": "yes",
      "phone": "+1 608 348-7764",
      "toilets": "unisex",
      "addr_city": "Platteville",
      "addr_postcode": "53818",
      "addr_street": "East Main Street",
      "addr_housenumber": "10",
      "angle": 7.392186175044822
    },
    {
      "id": 46342,
      "geometry": "POINT (-90.521186 41.53802)",
      "poi_name": "Dunn Brothers",
      "osm_id": 3259210601,
      "amenity": "cafe",
      "cuisine": "coffee_shop",
      "angle": 172.0989595602568
    },
    {
      "id": 55420,
      "geometry": "POINT (-90.743703 42.515677)",
      "poi_name": "Sun Tea",
      "osm_id": 10186611151,
      "amenity": "cafe",
      "cuisine": "bubble_tea",
      "addr_state": "IA",
      "addr_city": "Dubuque",
      "addr_postcode": "52002",
      "addr_street": "Asbury Road",
      "addr_housenumber": "4840",
      "angle": 348.85189450333075
    },
    {
      "id": 58836,
      "geometry": "POINT (-90.188503 41.843797)",
      "poi_name": "392 Caffe",
      "osm_id": 5399783106,
      "amenity": "cafe",
      "cuisine": "coffee_shop;sandwich",
      "opening_hours": "Mo-Fr 07:00-17:00; Sa 07:00-14:00; Su 08:00-14:00",
      "website": "https://www.392caffe.com/",
      "internet_access": "wlan",
      "phone": "+1-563-484-0392",
      "outdoor_seating": "no",
      "addr_state": "IA",
      "addr_city": "Clinton",
      "addr_postcode": "52732",
      "addr_street": "South 2nd Street",
      "addr_housenumber": "216",
      "angle": 116.75870835399667
    },
    {
      "id": 73834,
      "geometry": "POINT (-91.640672 42.047794)",
      "poi_name": "Cruz's Cafe",
      "osm_id": 9656362178,
      "amenity": "cafe",
      "opening_hours": "Mo-Su 06:30-14:00",
      "website": "https://cruzscafe.com/",
      "phone": "+1-319-320-2424",
      "addr_street": "Boyson Road",
      "addr_housenumber": "568 ste 190",
      "angle": 273.7219031728496
    },
    {
      "id": 165358,
      "geometry": "POINT (-91.535449 41.659707)",
      "poi_name": "T'spoons",
      "osm_id": 9530832542,
      "amenity": "cafe",
      "angle": 244.04929628881197
    },
    {
      "id": 31661,
      "geometry": "POINT (-90.744165 42.517063)",
      "poi_name": "Starbucks",
      "osm_id": 8440851840,
      "amenity": "cafe",
      "cuisine": "coffee_shop",
      "takeaway": "yes",
      "official_name": "Starbucks Coffee",
      "angle": 348.84481869808366
    },
    {
      "id": 68976,
      "geometry": "POINT (-90.749176 42.51447)",
      "poi_name": "Jumble Coffee Co.",
      "osm_id": 11290176608,
      "amenity": "cafe",
      "cuisine": "coffee_shop",
      "angle": 348.39092810084014
    },
    {
      "id": 72324,
      "geometry": "POINT (-89.965258 41.808672)",
      "poi_name": "Royalty Nutrition",
      "osm_id": 11421724659,
      "amenity": "cafe",
      "addr_state": "IL",
      "addr_city": "Morrison",
      "addr_postcode": "61270",
      "addr_street": "East Main Street",
      "addr_housenumber": "205",
      "angle": 111.78374599025918
    },
    {
      "id": 74455,
      "geometry": "POINT (-90.578566 41.507941)",
      "poi_name": "Awake Coffee Company",
      "osm_id": 9681020798,
      "amenity": "cafe",
      "cuisine": "coffee_shop",
      "angle": 177.52944781852338
    },
    {
      "id": 81742,
      "geometry": "POINT (-91.128597 41.770881)",
      "poi_name": "A Place to Land",
      "osm_id": 1661232897,
      "amenity": "cafe",
      "cuisine": "coffee_shop",
      "angle": 239.4746688251978
    },
    {
      "id": 75802,
      "geometry": "POINT (-91.661466 41.964184)",
      "poi_name": "Cafe Saint Pio",
      "osm_id": 9745444632,
      "amenity": "cafe",
      "opening_hours": "Mo-Sa 07:00-16:00; Su 07:00-14:00",
      "website": "https://cafe-saint-pio.business.site/",
      "phone": "+1-319-200-1000",
      "addr_state": "IA",
      "addr_city": "Cedar Rapids",
      "addr_postcode": "52404",
      "addr_street": "16th Avenue Southwest",
      "addr_housenumber": "99",
      "angle": 267.57726374506143
    },
    {
      "id": 80474,
      "geometry": "POINT (-91.639128 42.048476)",
      "poi_name": "Scooter's",
      "osm_id": 878258628,
      "amenity": "cafe",
      "cuisine": "coffee_shop",
      "angle": 273.77703907626557
    },
    {
      "id": 76921,
      "geometry": "POINT (-90.663183 42.486939)",
      "poi_name": "Starbucks",
      "osm_id": 9796961759,
      "amenity": "cafe",
      "cuisine": "coffee_shop",
      "phone": "+1-563-583-6148",
      "takeaway": "yes",
      "official_name": "Starbucks Coffee",
      "outdoor_seating": "no",
      "addr_state": "IA",
      "addr_city": "Dubuque",
      "addr_postcode": "52003",
      "addr_street": "South Locust Street",
      "addr_housenumber": "400",
      "angle": 355.09066780827357
    },
    {
      "id": 78744,
      "geometry": "POINT (-91.532542 41.659926)",
      "poi_name": "Java House",
      "osm_id": 761867191,
      "amenity": "cafe",
      "cuisine": "coffee_shop",
      "opening_hours": "Mo-Sa 06:00-23:00; Su 07:00-23:00",
      "internet_access": "wlan",
      "addr_state": "IA",
      "addr_city": "Iowa City",
      "addr_postcode": "52240",
      "addr_street": "East Washington Street",
      "addr_housenumber": "211",
      "angle": 243.9914397368995
    },
    {
      "id": 80448,
      "geometry": "POINT (-91.651675 42.036759)",
      "poi_name": "Starbucks",
      "osm_id": 878258461,
      "amenity": "cafe",
      "cuisine": "coffee_shop",
      "takeaway": "yes",
      "official_name": "Starbucks Coffee",
      "angle": 272.8803181385835
    },
    {
      "id": 95291,
      "geometry": "POINT (-90.720182 42.494753)",
      "poi_name": "Jumble Coffee Company",
      "osm_id": 6391749666,
      "amenity": "cafe",
      "cuisine": "coffee_shop",
      "description": "Drive Up Coffee Stand",
      "addr_state": "IA",
      "addr_city": "Dubuque",
      "addr_postcode": "52002",
      "addr_street": "Wacker Drive",
      "addr_housenumber": "820",
      "angle": 350.3424790581171
    },
    {
      "id": 109329,
      "geometry": "POINT (-90.556974 41.497752)",
      "poi_name": "CoolBeanz Coffee House",
      "osm_id": 3657887340,
      "amenity": "cafe",
      "cuisine": "coffee_shop",
      "internet_access": "yes",
      "addr_state": "IL",
      "addr_city": "Rock Island",
      "addr_postcode": "61201",
      "addr_street": "30th Street",
      "addr_housenumber": "1325",
      "angle": 175.74193351059793
    },
    {
      "id": 100353,
      "geometry": "POINT (-90.599232 41.583992)",
      "poi_name": "Dunn Brothers Coffee",
      "osm_id": 6582656821,
      "amenity": "cafe",
      "cuisine": "coffee_shop",
      "takeaway": "yes",
      "angle": 179.2069962750214
    },
    {
      "id": 108643,
      "geometry": "POINT (-91.532486 41.659927)",
      "poi_name": "Heirloom Salad Company",
      "osm_id": 3631648558,
      "amenity": "cafe",
      "cuisine": "sandwich",
      "opening_hours": "07:00-20:00",
      "addr_state": "IA",
      "addr_city": "Iowa City",
      "addr_postcode": "52240",
      "addr_street": "East Washington Street",
      "addr_housenumber": "211",
      "angle": 243.99014452328407
    },
    {
      "id": 106138,
      "geometry": "POINT (-91.58277 42.032762)",
      "poi_name": "Starbucks",
      "osm_id": 8666129885,
      "amenity": "cafe",
      "cuisine": "coffee_shop",
      "internet_access": "yes",
      "phone": "+1-319-440-8799",
      "takeaway": "yes",
      "official_name": "Starbucks Coffee",
      "addr_state": "IA",
      "addr_city": "Marion",
      "addr_postcode": "52302",
      "addr_street": "7th Avenue",
      "addr_housenumber": "2791",
      "angle": 272.721528312113
    },
    {
      "id": 127113,
      "geometry": "POINT (-90.526642 41.468888)",
      "poi_name": "Caribou Coffee",
      "osm_id": 8026911849,
      "amenity": "cafe",
      "cuisine": "coffee_shop",
      "wheelchair": "yes",
      "website": "https://locations.cariboucoffee.com/us/il/moline/750-42nd-avenue-drive",
      "phone": "+1-309-757-1085",
      "takeaway": "yes",
      "addr_state": "IL",
      "addr_city": "Moline",
      "addr_postcode": "61265",
      "addr_street": "42nd Avenue Drive",
      "addr_housenumber": "750",
      "angle": 173.54002476849766
    },
    {
      "id": 124446,
      "geometry": "POINT (-91.657912 41.97022)",
      "poi_name": "Brewhemia",
      "osm_id": 6918308837,
      "amenity": "cafe",
      "cuisine": "coffee_shop",
      "opening_hours": "Tu-Su 08:00-14:00",
      "website": "https://brewhemia.com",
      "phone": "+1-319-364-0802",
      "addr_street": "3rd Street Southeast",
      "addr_housenumber": "1202",
      "angle": 268.00677808473847
    },
    {
      "id": 113506,
      "geometry": "POINT (-91.425432 41.925819)",
      "poi_name": "Zamora's Market",
      "osm_id": 3836478968,
      "amenity": "cafe",
      "wheelchair": "yes",
      "opening_hours": "Mo-Fr 08:00-24:00; Sa 11:00-24:00; Su 13:00-24:00",
      "operator": "Bon App\u00e9tit",
      "website": "https://www.cornellcollege.edu/dining-services/hours-of-operation.shtml",
      "angle": 263.13488997839596
    },
    {
      "id": 128623,
      "geometry": "POINT (-89.650738 42.304629)",
      "poi_name": "Dotty's",
      "osm_id": 8174727326,
      "amenity": "cafe",
      "angle": 66.66023535051272
    },
    {
      "id": 128559,
      "geometry": "POINT (-89.619617 42.298434)",
      "poi_name": "9 East Coffee",
      "osm_id": 8169463472,
      "amenity": "cafe",
      "cuisine": "coffee_shop",
      "angle": 67.71833124544706
    },
    {
      "id": 130788,
      "geometry": "POINT (-91.673317 41.973945)",
      "poi_name": "Groundswell Cafe",
      "osm_id": 9891543531,
      "amenity": "cafe",
      "opening_hours": "Tu-Sa 07:00-14:00",
      "website": "https://groundswell.hub25.org/",
      "phone": "+1-319-200-2791",
      "addr_street": "3rd Avenue Southwest",
      "addr_housenumber": "201",
      "angle": 268.31357958266534
    },
    {
      "id": 129903,
      "geometry": "POINT (-90.131176 41.887232)",
      "poi_name": "The Pour On 84",
      "osm_id": 9846068339,
      "amenity": "cafe",
      "opening_hours": "Mo-Fr 05:00-18:00;Sa 07:00-18:00; Su 08:00-18:00",
      "phone": "+1-563-357-7586",
      "addr_state": "IL",
      "addr_city": "Fulton",
      "addr_postcode": "61252",
      "addr_street": "Penrose Road",
      "addr_housenumber": "6046",
      "angle": 107.7951723758275
    },
    {
      "id": 130433,
      "geometry": "POINT (-91.346241 41.671263)",
      "poi_name": "The serving Cafe",
      "osm_id": 9871391102,
      "amenity": "cafe",
      "addr_state": "IA",
      "addr_city": "West Branch",
      "addr_postcode": "52538",
      "addr_street": "East Main Street",
      "addr_housenumber": "106",
      "angle": 239.3334519703025
    },
    {
      "id": 132612,
      "geometry": "POINT (-91.537249 41.658301)",
      "poi_name": "Devlin Family Cafe",
      "osm_id": 9959365131,
      "amenity": "cafe",
      "website": "https://dining.uiowa.edu/locations/devlin-family-cafe",
      "phone": "+1-319-335-1175",
      "addr_state": "IA",
      "addr_city": "Iowa City",
      "addr_postcode": "52242",
      "addr_street": "South Madison Street",
      "addr_housenumber": "240",
      "angle": 244.00103866926588
    },
    {
      "id": 159920,
      "geometry": "POINT (-91.520831 41.651801)",
      "poi_name": "Deluxe Cakes and Pastries",
      "osm_id": 4811685750,
      "amenity": "cafe",
      "cuisine": "bakery",
      "opening_hours": "Mo-Su 08:00-17:30",
      "website": "https://www.deluxecakesandpastries.com",
      "internet_access": "yes",
      "phone": "+1-319-338-5000",
      "outdoor_seating": "yes",
      "addr_state": "IA",
      "addr_city": "Iowa City",
      "addr_postcode": "52240",
      "addr_street": "South Summit Street",
      "addr_housenumber": "812",
      "angle": 243.15609551209647
    },
    {
      "id": 155964,
      "geometry": "POINT (-90.568095 41.587803)",
      "poi_name": "Von Maur Cafeteria",
      "osm_id": 4636297616,
      "amenity": "cafe",
      "angle": 175.97533181043264
    },
    {
      "id": 143343,
      "geometry": "POINT (-90.460755 41.590732)",
      "poi_name": "Coffee Hound",
      "osm_id": 6336841437,
      "amenity": "cafe",
      "cuisine": "coffee_shop",
      "website": "https://qccoffeehound.com/",
      "addr_state": "IA",
      "addr_city": "Bettendorf",
      "addr_postcode": "52722",
      "addr_street": "Middle Road",
      "addr_housenumber": "6900",
      "angle": 165.06711649612168
    },
    {
      "id": 183962,
      "geometry": "POINT (-91.562116 41.682759)",
      "poi_name": "Coffee Emporium",
      "osm_id": 10955947235,
      "amenity": "cafe",
      "cuisine": "coffee_shop",
      "wheelchair": "yes",
      "website": "https://www.coffeeemporiumia.com/",
      "phone": "+1-319-351-5922",
      "addr_state": "IA",
      "addr_city": "Coralville",
      "addr_postcode": "52241",
      "addr_street": "East 2nd Avenue",
      "addr_housenumber": "925",
      "angle": 246.21440813857674
    },
    {
      "id": 183591,
      "geometry": "POINT (-90.57369 41.52083)",
      "poi_name": "Cafe One Eleven",
      "osm_id": 10936962951,
      "amenity": "cafe",
      "description": "Cafe inside the DoubleTree by Hilton",
      "website": "https://www.hilton.com/en/hotels/mlididt-doubletree-davenport/dining/",
      "addr_street": "East 2nd Street",
      "addr_housenumber": "111",
      "angle": 177.0287780693731
    },
    {
      "id": 161579,
      "geometry": "POINT (-91.533303 41.657034)",
      "poi_name": "Fair Grounds",
      "osm_id": 4888647415,
      "amenity": "cafe",
      "cuisine": "bakery;coffee_shop",
      "internet_access": "wlan",
      "addr_state": "IA",
      "addr_city": "Iowa City",
      "addr_postcode": "52240",
      "addr_street": "South Dubuque Street",
      "addr_housenumber": "345",
      "angle": 243.81901643814612
    },
    {
      "id": 197317,
      "geometry": "POINT (-90.571286 41.653776)",
      "poi_name": "Cody Road Coffee",
      "osm_id": 10633408686,
      "amenity": "cafe",
      "cuisine": "coffee_shop",
      "opening_hours": "Mo-Fr 06:00-20:00",
      "website": "https://www.codyrdcoffee.com/",
      "internet_access": "wlan",
      "phone": "+1-563-285-4100",
      "outdoor_seating": "yes",
      "addr_state": "IA",
      "addr_city": "Eldridge",
      "addr_postcode": "52748",
      "addr_street": "South 9th Avenue",
      "addr_housenumber": "205",
      "angle": 175.61248259672112
    },
    {
      "id": 184793,
      "geometry": "POINT (-90.557803 41.557323)",
      "poi_name": "Starbucks",
      "osm_id": 7815076616,
      "amenity": "cafe",
      "cuisine": "coffee_shop",
      "takeaway": "yes",
      "official_name": "Starbucks Coffee",
      "angle": 175.258490765467
    },
    {
      "id": 185269,
      "geometry": "POINT (-90.570126 41.443854)",
      "poi_name": "Starbucks",
      "osm_id": 7841634046,
      "amenity": "cafe",
      "cuisine": "coffee_shop",
      "takeaway": "yes",
      "official_name": "Starbucks Coffee",
      "angle": 177.16016294227722
    },
    {
      "id": 186162,
      "geometry": "POINT (-91.545338 41.661938)",
      "poi_name": "EMRB Cafe",
      "osm_id": 7914887111,
      "amenity": "cafe",
      "angle": 244.43953926079928
    },
    {
      "id": 186163,
      "geometry": "POINT (-91.537341 41.665066)",
      "poi_name": "Fire Up Late Night Grill",
      "osm_id": 7914887112,
      "amenity": "cafe",
      "angle": 244.45144460494143
    },
    {
      "id": 186164,
      "geometry": "POINT (-91.538124 41.659642)",
      "poi_name": "Food For Thought Cafe",
      "osm_id": 7914887113,
      "amenity": "cafe",
      "angle": 244.11121366501226
    },
    {
      "id": 186165,
      "geometry": "POINT (-91.535606 41.663416)",
      "poi_name": "Pat's Diner",
      "osm_id": 7914887116,
      "amenity": "cafe",
      "angle": 244.29910315661576
    },
    {
      "id": 186166,
      "geometry": "POINT (-91.535773 41.663355)",
      "poi_name": "Pat's Too",
      "osm_id": 7914887117,
      "amenity": "cafe",
      "angle": 244.29915966654343
    },
    {
      "id": 186167,
      "geometry": "POINT (-91.538358 41.663051)",
      "poi_name": "River Room Cafe",
      "osm_id": 7914887118,
      "amenity": "cafe",
      "angle": 244.34260413576143
    },
    {
      "id": 186168,
      "geometry": "POINT (-91.551331 41.662549)",
      "poi_name": "The Filling Station",
      "osm_id": 7914887119,
      "amenity": "cafe",
      "angle": 244.6245683727391
    },
    {
      "id": 187808,
      "geometry": "POINT (-91.417267 41.922235)",
      "poi_name": "Big Creek Market",
      "osm_id": 1105698537,
      "amenity": "cafe",
      "website": "https://www.facebook.com/bigcreekmarketia/",
      "shop": "convenience",
      "phone": "+1-319-895-8393",
      "angle": 262.7272847407112
    },
    {
      "id": 193360,
      "geometry": "POINT (-91.572571 42.03735)",
      "poi_name": "Starbucks",
      "osm_id": 1527868043,
      "amenity": "cafe",
      "cuisine": "coffee_shop",
      "operator": "Starbucks",
      "takeaway": "yes",
      "official_name": "Starbucks Coffee",
      "angle": 273.10776788286296
    },
    {
      "id": 186181,
      "geometry": "POINT (-91.538234 41.662848)",
      "poi_name": "The Java House",
      "osm_id": 7917425578,
      "amenity": "cafe",
      "cuisine": "coffee_shop",
      "addr_state": "IA",
      "addr_city": "Iowa City",
      "addr_postcode": "52242",
      "addr_street": "North Madison Street",
      "addr_housenumber": "125",
      "angle": 244.32606878406747
    },
    {
      "id": 205461,
      "geometry": "POINT (-90.14902 41.864723)",
      "poi_name": "Steam Anchor Coffee & Cafe",
      "osm_id": 7170287091,
      "amenity": "cafe",
      "website": "https://www.steamanchor.com/",
      "phone": "+1-815-208-7074",
      "addr_state": "IL",
      "addr_city": "Fulton",
      "addr_postcode": "61252",
      "addr_street": "17th Street",
      "addr_housenumber": "1310",
      "angle": 111.76832147444506
    },
    {
      "id": 203957,
      "geometry": "POINT (-90.006971 42.350211)",
      "poi_name": "Stella's Cafe & Catering",
      "osm_id": 7107736491,
      "amenity": "cafe",
      "angle": 51.861472886643696
    },
    {
      "id": 210947,
      "geometry": "POINT (-91.531404 41.663428)",
      "poi_name": "The High Ground Cafe",
      "osm_id": 5130951993,
      "amenity": "cafe",
      "angle": 244.19594489145223
    },
    {
      "id": 213101,
      "geometry": "POINT (-89.632 42.273335)",
      "poi_name": "Donuts Delite",
      "osm_id": 5235796401,
      "amenity": "cafe",
      "angle": 69.1938631367205
    },
    {
      "id": 213150,
      "geometry": "POINT (-89.630906 42.279289)",
      "poi_name": "Higher Grounds",
      "osm_id": 5237439602,
      "amenity": "cafe",
      "angle": 68.8025278220312
    },
    {
      "id": 220306,
      "geometry": "POINT (-91.627024 42.02577)",
      "poi_name": "Java Jack",
      "osm_id": 9368748705,
      "amenity": "cafe",
      "cuisine": "coffee_shop",
      "website": "https://www.facebook.com/javajackcoffee/",
      "phone": "+1-319-202-5178",
      "angle": 272.1064524751379
    },
    {
      "id": 214631,
      "geometry": "POINT (-90.476986 42.734562)",
      "poi_name": "Owl Cafe",
      "osm_id": 5276505741,
      "amenity": "cafe",
      "cuisine": "coffee_shop",
      "addr_city": "Platteville",
      "addr_postcode": "53818",
      "addr_street": "North 2nd Street",
      "addr_housenumber": "80",
      "angle": 7.453897997431454
    },
    {
      "id": 215005,
      "geometry": "POINT (-90.663077 42.503482)",
      "poi_name": "Wayfarer Coffee",
      "osm_id": 5284809443,
      "amenity": "cafe",
      "cuisine": "small_plates;coffee_shop",
      "website": "https://www.wayfarercoffee.com/",
      "addr_state": "IA",
      "addr_city": "Dubuque",
      "addr_postcode": "52001",
      "addr_street": "Washington Street",
      "addr_housenumber": "955",
      "angle": 355.2621432749846
    },
    {
      "id": 221727,
      "geometry": "POINT (-90.434362 41.443737)",
      "poi_name": "The Treehouse Snack Shack",
      "osm_id": 10985209366,
      "amenity": "cafe",
      "shop": "kiosk",
      "angle": 166.91003875404263
    },
    {
      "id": 229280,
      "geometry": "POINT (-91.544009 41.662973)",
      "poi_name": "Java House Coffee",
      "osm_id": 4374974658,
      "amenity": "cafe",
      "cuisine": "salad",
      "addr_state": "IA",
      "addr_city": "Iowa City",
      "addr_postcode": "52242",
      "addr_street": "Newton Road",
      "addr_housenumber": "159",
      "angle": 244.47553396963986
    },
    {
      "id": 237398,
      "geometry": "POINT (-90.232653 42.572614)",
      "poi_name": "Crooked Canvass Coffeehouse",
      "osm_id": 5829870057,
      "amenity": "cafe",
      "cuisine": "coffee_shop",
      "angle": 25.855233670942916
    },
    {
      "id": 233560,
      "geometry": "POINT (-90.506589 41.575997)",
      "poi_name": "Dunn Brothers Coffee",
      "osm_id": 4579370610,
      "amenity": "cafe",
      "cuisine": "coffee_shop",
      "internet_access": "wlan",
      "takeaway": "yes",
      "addr_city": "Davenport",
      "addr_postcode": "52807",
      "addr_street": "East 53rd Street",
      "addr_housenumber": "4520",
      "angle": 169.97545240664533
    },
    {
      "id": 241955,
      "geometry": "POINT (-91.538184 41.657665)",
      "poi_name": "Power Cafe",
      "osm_id": 6047220889,
      "amenity": "cafe",
      "opening_hours": "Mo-Fr 07:00-23:00; Sa,Su 08:00-23:00; PH off",
      "website": "https://dining.uiowa.edu/locations/power-cafe",
      "phone": "+1-319-384-3427",
      "outdoor_seating": "no",
      "addr_state": "IA",
      "addr_city": "Iowa City",
      "addr_postcode": "52242",
      "addr_street": "South Madison Street",
      "addr_housenumber": "309",
      "angle": 243.98226486623238
    }
  ],
  "answer_type": "angle",
  "question_entities": {
    "[1]": {
      "main_category": "amenity",
      "sub_category": "cafe"
    },
    "[2]": {
      "distance": 90000,
      "text": "90 kilometers"
    },
    "[3]": {
      "main_category": "tourism",
      "sub_category": "museum",
      "display_name": "Delmar Depot Museum, IA",
      "geo_wkt": "POINT (-90.606944 42.002327)",
      "poi": {
        "id": 17045,
        "geometry": "POINT (-90.606944 42.002327)",
        "poi_name": "Delmar Depot Museum",
        "osm_id": 367089348,
        "tourism": "museum",
        "addr_state": "IA"
      }
    }
  },
  "id": 1034,
  "type": "range+angle"
}