{
  "question": "Within a radius of 10 kilometers, where can I find  a restaurant along the way to Saint Thomas Hall, CA from Strawberry Hill, San Francisco, CA?",
  "sql": "WITH\n    angle AS (SELECT degrees(ST_Azimuth(ST_GeomFromText('POINT (-122.475512 37.768668)',4326)::geography, ST_GeomFromText('POINT (-122.51442 37.980756)',4326)::geography)) AS value)\nSELECT * FROM pois,angle\nWHERE amenity = 'restaurant'\nAND ST_DWithin(pois.geometry, ST_GeomFromText('POINT (-122.475512 37.768668)',4326)::geography, 10000)\nAND (degrees(ST_Azimuth(ST_GeomFromText('POINT (-122.475512 37.768668)',4326)::geography, pois.geometry)) BETWEEN angle.value - 22.5 AND angle.value + 22.5);\n",
  "answers": [
    {
      "id": 33180,
      "geometry": "POINT (-122.476787 37.776794)",
      "poi_name": "Wen Chang Dumplings",
      "osm_id": 2655525593,
      "amenity": "restaurant",
      "cuisine": "asian",
      "wheelchair": "yes",
      "opening_hours": "Tu-Su 16:00-21:00; Tu-Su 11:30-14:30",
      "website": "https://wenchangusa.com/",
      "phone": "+1 415-702-6156",
      "addr_city": "San Francisco",
      "addr_postcode": "94121",
      "addr_street": "Balboa Street",
      "addr_housenumber": "1650",
      "value": 351.7381532917735
    },
    {
      "id": 33181,
      "geometry": "POINT (-122.478281 37.77676)",
      "poi_name": "Han Il Kwan",
      "osm_id": 2655525613,
      "amenity": "restaurant",
      "cuisine": "korean",
      "website": "https://www.facebook.com/pages/Han-Il-Kwan-Korean-Restaurant/116350931710296",
      "addr_city": "San Francisco",
      "addr_postcode": "94121-3131",
      "addr_street": "Balboa Street",
      "addr_housenumber": "1802",
      "value": 351.7381532917735
    },
    {
      "id": 33182,
      "geometry": "POINT (-122.482999 37.783706)",
      "poi_name": "Pizzetta 211",
      "osm_id": 2655525620,
      "amenity": "restaurant",
      "cuisine": "pizza",
      "website": "https://pizzetta211.com/",
      "phone": "415 379 9880",
      "addr_city": "San Francisco",
      "addr_postcode": "94121",
      "addr_street": "23rd Avenue",
      "addr_housenumber": "211",
      "value": 351.7381532917735
    },
    {
      "id": 83853,
      "geometry": "POINT (-122.476576 37.780656)",
      "poi_name": "Hong Kong Lounge",
      "osm_id": 1769223517,
      "amenity": "restaurant",
      "cuisine": "chinese",
      "opening_hours": "Mo-Fr 10:30-14:30,17:00-20:30; Sa-Su 10:00-14:30,17:00-20:30",
      "phone": "+1 415 668 8836",
      "outdoor_seating": "no",
      "delivery": "no",
      "addr_state": "CA",
      "addr_city": "San Francisco",
      "addr_postcode": "94121",
      "addr_street": "Geary Boulevard",
      "addr_housenumber": "5322",
      "value": 351.7381532917735
    },
    {
      "id": 84871,
      "geometry": "POINT (-122.476618 37.780267)",
      "poi_name": "Buffalo Burgers",
      "osm_id": 1822506136,
      "amenity": "restaurant",
      "opening_hours": "Mo-Su 11:00-22:00",
      "phone": "+1 415 668 1267",
      "wikidata": "Q64166160",
      "addr_city": "San Francisco",
      "addr_postcode": "94121",
      "addr_street": "Geary Boulevard",
      "addr_housenumber": "5317",
      "value": 351.7381532917735
    },
    {
      "id": 84872,
      "geometry": "POINT (-122.479133 37.780543)",
      "poi_name": "Gaspare's",
      "osm_id": 1822506137,
      "amenity": "restaurant",
      "cuisine": "italian",
      "website": "https://www.gasparespizza.com/",
      "addr_state": "CA",
      "addr_city": "San Francisco",
      "addr_postcode": "94121",
      "addr_street": "Geary Boulevard",
      "addr_housenumber": "5546",
      "value": 351.7381532917735
    },
    {
      "id": 84873,
      "geometry": "POINT (-122.478079 37.780587)",
      "poi_name": "Gordo Taqueria",
      "osm_id": 1822506138,
      "amenity": "restaurant",
      "cuisine": "mexican",
      "wheelchair": "yes",
      "opening_hours": "Su-We 10:00-21:00; Th-Sa 10:00-22:00",
      "website": "https://gordotaqueria.co/",
      "outdoor_seating": "no",
      "addr_state": "CA",
      "addr_city": "San Francisco",
      "addr_street": "Geary Boulevard",
      "addr_housenumber": "5450",
      "value": 351.7381532917735
    },
    {
      "id": 101516,
      "geometry": "POINT (-122.482053 37.780034)",
      "poi_name": "An Chi",
      "osm_id": 6632478613,
      "amenity": "restaurant",
      "cuisine": "vietnamese",
      "opening_hours": "We-Mo 10:30-21:00; Tu off",
      "phone": "+1 415 702 9986",
      "takeaway": "yes",
      "addr_state": "CA",
      "addr_city": "San Francisco",
      "addr_postcode": "94121",
      "addr_street": "Geary Boulevard",
      "addr_housenumber": "5827",
      "value": 351.7381532917735
    },
    {
      "id": 106938,
      "geometry": "POINT (-122.481915 37.783677)",
      "poi_name": "Firehouse Pizzeria",
      "osm_id": 3524453921,
      "amenity": "restaurant",
      "cuisine": "pizza",
      "opening_hours": "Daily: 11:30am-10:00pm",
      "website": "http://firehousepizzeriasf.com/",
      "capacity": "0",
      "phone": "+1 (415) 221-7603",
      "takeaway": "only",
      "delivery": "yes",
      "addr_state": "CA",
      "addr_city": "San Francisco",
      "addr_postcode": "94121",
      "addr_street": "California Street",
      "addr_housenumber": "6001",
      "value": 351.7381532917735
    },
    {
      "id": 115129,
      "geometry": "POINT (-122.485107 37.858306)",
      "poi_name": "Fast Food Francais",
      "osm_id": 3912186536,
      "amenity": "restaurant",
      "cuisine": "french",
      "opening_hours": "Mo-Fr 11:30-22:00; Sa-Su 10:00-22:00",
      "phone": "+1 415 887 9047",
      "delivery": "yes",
      "addr_state": "CA",
      "addr_city": "Sausalito",
      "addr_postcode": "94965",
      "addr_street": "Caledonia Street",
      "addr_housenumber": "39",
      "value": 351.7381532917735
    },
    {
      "id": 163414,
      "geometry": "POINT (-122.476918 37.78064)",
      "poi_name": "Super Pan",
      "osm_id": 9416858436,
      "amenity": "restaurant",
      "cuisine": "japanese;ramen;hotpot",
      "description": "Japanese teppan, ramen, and hot pot",
      "opening_hours": "Mo,We-Su 11:30-20:00; Tu off",
      "website": "https://superpansanfrancisco.com/",
      "phone": "+1 415 6685354",
      "takeaway": "yes",
      "delivery": "yes",
      "addr_state": "CA",
      "addr_city": "San Francisco",
      "addr_street": "Geary Boulevard",
      "addr_housenumber": "5344",
      "value": 351.7381532917735
    },
    {
      "id": 120409,
      "geometry": "POINT (-122.483157 37.779992)",
      "poi_name": "Tommy\u2019s Mexican Restaurant",
      "osm_id": 6701950549,
      "amenity": "restaurant",
      "cuisine": "mexican",
      "opening_hours": "We-Mo 12:00-23:00",
      "website": "https://www.tommystequila.com/",
      "phone": "+14153874747",
      "addr_state": "CA",
      "addr_city": "San Francisco",
      "addr_postcode": "94121",
      "addr_street": "Geary Boulevard",
      "addr_housenumber": "5929",
      "value": 351.7381532917735
    },
    {
      "id": 120410,
      "geometry": "POINT (-122.483211 37.779978)",
      "poi_name": "Khan Toke Thai House",
      "osm_id": 6701950551,
      "amenity": "restaurant",
      "cuisine": "thai",
      "opening_hours": "Th-Su 15:00-21:00",
      "website": "https://www.khantokethaisf.com/",
      "phone": "+14156686654",
      "addr_state": "CA",
      "addr_city": "San Francisco",
      "addr_postcode": "94121",
      "addr_street": "Geary Boulevard",
      "addr_housenumber": "5933",
      "value": 351.7381532917735
    },
    {
      "id": 218151,
      "geometry": "POINT (-122.484518 37.781915)",
      "poi_name": "Fiorella Clement",
      "osm_id": 9262392423,
      "amenity": "restaurant",
      "cuisine": "pizza",
      "opening_hours": "Mo-Th 17:30-21:00; Fr 17:00-22:00; Sa 16:30-22:00; Su 16:30-21:30",
      "website": "http://www.fiorella-sf.com/",
      "phone": "+1 415 340 3049",
      "addr_state": "CA",
      "addr_city": "San Francisco",
      "addr_postcode": "94121",
      "addr_street": "Clement Street",
      "addr_housenumber": "2339",
      "value": 351.7381532917735
    },
    {
      "id": 201971,
      "geometry": "POINT (-122.478571 37.853576)",
      "poi_name": "The Trident",
      "osm_id": 669137812,
      "amenity": "restaurant",
      "cuisine": "seafood;burger",
      "wikidata": "Q7770212",
      "addr_state": "CA",
      "addr_city": "Sausalito",
      "addr_postcode": "94965",
      "addr_street": "Bridgeway",
      "addr_housenumber": "558",
      "value": 351.7381532917735
    },
    {
      "id": 233385,
      "geometry": "POINT (-122.478285 37.782181)",
      "poi_name": "Tia Margarita",
      "osm_id": 4571199077,
      "amenity": "restaurant",
      "cuisine": "mexican",
      "addr_state": "CA",
      "addr_city": "San Francisco",
      "addr_postcode": "94121",
      "addr_street": "19th Avenue",
      "addr_housenumber": "300",
      "value": 351.7381532917735
    },
    {
      "id": 234365,
      "geometry": "POINT (-122.481678 37.780043)",
      "poi_name": "HoDaLa",
      "osm_id": 4618133795,
      "amenity": "restaurant",
      "cuisine": "taiwanese;bubble_tea",
      "opening_hours": "We-Mo 12:00-22:00",
      "website": "https://www.hodalausa.com/",
      "phone": "+14157029510",
      "outdoor_seating": "no",
      "addr_state": "CA",
      "addr_city": "San Francisco",
      "addr_postcode": "94121",
      "addr_street": "Geary Boulevard",
      "addr_housenumber": "5801",
      "value": 351.7381532917735
    }
  ],
  "answer_type": "loc",
  "question_entities": {
    "[2]": {
      "distance": 10000,
      "text": "10 kilometers"
    },
    "[3]": {
      "main_category": "tourism",
      "sub_category": "viewpoint",
      "display_name": "Strawberry Hill, San Francisco, CA",
      "geo_wkt": "POINT (-122.475512 37.768668)",
      "poi": {
        "id": 6747,
        "geometry": "POINT (-122.475512 37.768668)",
        "poi_name": "Strawberry Hill",
        "osm_id": 1948074360,
        "tourism": "viewpoint",
        "internet_access": "no",
        "addr_state": "CA",
        "addr_city": "San Francisco"
      }
    },
    "[4]": {
      "main_category": "amenity",
      "sub_category": "university",
      "display_name": "Saint Thomas Hall, CA",
      "geo_wkt": "POINT (-122.51442 37.980756)",
      "poi": {
        "id": 168221,
        "geometry": "POINT (-122.51442 37.980756)",
        "poi_name": "Saint Thomas Hall",
        "osm_id": 368173066,
        "amenity": "university",
        "addr_state": "CA"
      }
    },
    "[1]": {
      "main_category": "amenity",
      "sub_category": "restaurant"
    }
  },
  "id": 1222,
  "type": "range:towards+loc"
}