{
  "question": "How distant is a hospital from Taylor's Aquarium, Dunn, NC within a range of 130 kilometers?",
  "sql": "SELECT *, ST_Distance(ST_GeomFromText('POINT (-78.589533 35.200429)',4326)::geography, pois.geometry) AS distance FROM pois\nWHERE ST_DWithin(pois.geometry, ST_GeomFromText('POINT (-78.589533 35.200429)',4326)::geography, 130000)\nAND amenity = 'hospital';\n",
  "answers": [
    {
      "id": 134743,
      "geometry": "POINT (-79.050471 35.964573)",
      "poi_name": "UNC Plastic and Reconstructive Surgery",
      "osm_id": 11484310269,
      "amenity": "hospital",
      "website": "https://www.med.unc.edu/surgery/plastic",
      "phone": "984-215-6350",
      "addr_postcode": "27514",
      "addr_street": "Vilcom Center Drive",
      "addr_housenumber": "55, suite 110",
      "distance": 94516.82282888
    },
    {
      "id": 66151,
      "geometry": "POINT (-79.054792 35.902765)",
      "poi_name": "Taylor Hall",
      "osm_id": 5731521330,
      "amenity": "hospital",
      "healthcare": "hospital",
      "addr_state": "NC",
      "addr_city": "Chapel Hill",
      "addr_postcode": "27514",
      "addr_street": "Mason Farm Road",
      "addr_housenumber": "109",
      "distance": 88610.55360508
    },
    {
      "id": 82944,
      "geometry": "POINT (-78.54123 35.947567)",
      "poi_name": "Rex Healthcare of Wakfield",
      "osm_id": 1722442117,
      "amenity": "hospital",
      "website": "https://www.rexhealth.com/rh/hospitals-locations/profile/?id=277",
      "phone": "+1 919 570 7500",
      "emergency": "no",
      "addr_state": "NC",
      "addr_city": "Raleigh",
      "addr_postcode": "27614",
      "addr_street": "Governor Manly Way",
      "addr_housenumber": "11200",
      "distance": 83011.38794537
    },
    {
      "id": 100899,
      "geometry": "POINT (-78.491815 34.653104)",
      "poi_name": "Bladen Medical Associates",
      "osm_id": 6604059257,
      "amenity": "hospital",
      "healthcare": "clinic",
      "emergency": "yes",
      "addr_state": "NC",
      "addr_city": "White Lake",
      "addr_street": "White Lake Drive",
      "addr_housenumber": "273",
      "distance": 61372.76269293
    },
    {
      "id": 120658,
      "geometry": "POINT (-78.589136 35.784654)",
      "poi_name": "Wakemed Heart Center",
      "osm_id": 6717727139,
      "amenity": "hospital",
      "healthcare": "hospital",
      "addr_state": "NC",
      "addr_city": "Raleigh",
      "addr_postcode": "27610",
      "addr_street": "New Bern Avenue",
      "addr_housenumber": "3000",
      "distance": 64819.58800208
    },
    {
      "id": 123167,
      "geometry": "POINT (-78.488696 35.636483)",
      "poi_name": "Dr. Amy Salter, OD",
      "osm_id": 6837924476,
      "amenity": "hospital",
      "distance": 49238.59388983
    },
    {
      "id": 123168,
      "geometry": "POINT (-78.503131 35.63146)",
      "poi_name": "Smithfield Heart & Vascular",
      "osm_id": 6837948917,
      "amenity": "hospital",
      "distance": 48461.70742561
    },
    {
      "id": 123169,
      "geometry": "POINT (-78.507621 35.627366)",
      "poi_name": "Gabriel Manor Assisted Living Center",
      "osm_id": 6837996484,
      "amenity": "hospital",
      "phone": "(919) 359-3878",
      "healthcare": "hospital",
      "addr_state": "NC",
      "addr_city": "Clayton",
      "addr_postcode": "27520",
      "addr_street": "Johnson Estate Rd",
      "addr_housenumber": "84",
      "distance": 47948.56578404
    },
    {
      "id": 167557,
      "geometry": "POINT (-78.703262 35.818116)",
      "poi_name": "UNC REX Healthcare",
      "osm_id": 357814276,
      "amenity": "hospital",
      "operator": "UNC Health Care",
      "website": "http://www.rexhealth.com/",
      "phone": "+1 919 784 3100",
      "healthcare": "hospital",
      "emergency": "yes",
      "wikidata": "Q7319213",
      "addr_state": "NC",
      "addr_city": "Raleigh",
      "addr_postcode": "27607",
      "addr_street": "Lake Boone Trail",
      "addr_housenumber": "4420",
      "distance": 69304.60732139
    },
    {
      "id": 167440,
      "geometry": "POINT (-79.364922 34.421371)",
      "poi_name": "McLeod Dillon",
      "osm_id": 357117809,
      "amenity": "hospital",
      "website": "https://www.mcleodhealth.org/mcleod-dillon/mcleod-health-dillon-has-a-strong-history-in-the-dillon-community.html",
      "phone": "+1 843 774 4111",
      "healthcare": "hospital",
      "emergency": "yes",
      "addr_state": "SC",
      "addr_city": "Dillon",
      "addr_postcode": "29536",
      "addr_street": "East Jackson Street",
      "addr_housenumber": "301",
      "distance": 111815.50914036
    },
    {
      "id": 167441,
      "geometry": "POINT (-78.89847 34.05753)",
      "poi_name": "McLeod Loris",
      "osm_id": 357117853,
      "amenity": "hospital",
      "opening_hours": "24/7",
      "website": "https://www.mcleodhealth.org/mcleod-loris/about-mcleod-loris.html",
      "phone": "+1 843 716 7000",
      "healthcare": "hospital",
      "emergency": "yes",
      "addr_city": "Loris",
      "addr_postcode": "29569",
      "addr_street": "Mitchell Street",
      "addr_housenumber": "3655",
      "distance": 129912.24909509
    },
    {
      "id": 236223,
      "geometry": "POINT (-79.090682 35.836555)",
      "poi_name": "UNC Pediatrics & Internal Medicine",
      "osm_id": 5785411018,
      "amenity": "hospital",
      "wheelchair": "yes",
      "operator": "UNC",
      "phone": "+1 984 215 5900",
      "healthcare": "hospital",
      "emergency": "no",
      "addr_state": "NC",
      "addr_city": "Chapel Hill",
      "addr_postcode": "27516",
      "addr_street": "Knox Way",
      "addr_housenumber": "118",
      "distance": 83950.57942034
    },
    {
      "id": 181087,
      "geometry": "POINT (-78.942325 36.00994)",
      "poi_name": "Veritas Collaborative Eating Disorder Treatment Center",
      "osm_id": 10832140430,
      "amenity": "hospital",
      "website": "https://veritascollaborative.com/locations/north-carolina/durham-nc-adult-eating-disorder-treatment-center",
      "phone": "+1 919 908 9730",
      "addr_city": "Durham",
      "addr_postcode": "27705",
      "addr_street": "Douglas Street",
      "addr_housenumber": "615",
      "distance": 95335.56471617
    },
    {
      "id": 181090,
      "geometry": "POINT (-77.818865 35.975103)",
      "poi_name": "PAM Health Long-Term Acute Care Hospital",
      "osm_id": 10832174297,
      "amenity": "hospital",
      "website": "https://pamhealth.com/facilities/find-facility/specialty-hospitals/PAM-Specialty-Hospital-of-Rocky-Mount",
      "phone": "+1 252 451 2300",
      "addr_city": "Rocky Mount",
      "addr_postcode": "27804",
      "addr_street": "Noell Lane",
      "addr_housenumber": "1051",
      "distance": 110751.36210459
    },
    {
      "id": 181092,
      "geometry": "POINT (-78.840919 35.918225)",
      "poi_name": "Veritas Collaborative, Llc",
      "osm_id": 10832180448,
      "amenity": "hospital",
      "phone": "+1 919 908 9730",
      "distance": 82836.975067
    },
    {
      "id": 181093,
      "geometry": "POINT (-78.063714 34.260758)",
      "poi_name": "Carolina Dunes Behavioral Health",
      "osm_id": 10832186226,
      "amenity": "hospital",
      "website": "https://sbcwilmington.com",
      "phone": "+1 910 371 2500",
      "addr_city": "Leland",
      "addr_postcode": "28451",
      "addr_street": "Mercantile Drive",
      "addr_housenumber": "2050",
      "distance": 114828.83322342
    },
    {
      "id": 181094,
      "geometry": "POINT (-78.449446 36.330865)",
      "poi_name": "Maria Parham Health",
      "osm_id": 10832193337,
      "amenity": "hospital",
      "website": "https://www.mariaparham.com/",
      "phone": "+1 252 436 1100",
      "emergency": "yes",
      "distance": 126065.21758026
    },
    {
      "id": 181095,
      "geometry": "POINT (-79.002433 35.145995)",
      "poi_name": "Womack Army Medical Center",
      "osm_id": 10832193884,
      "amenity": "hospital",
      "website": "https://womack.tricare.mil",
      "phone": "+1 910 907 9262",
      "wikidata": "Q8030615",
      "distance": 38094.99634335
    },
    {
      "id": 181098,
      "geometry": "POINT (-78.669803 35.327363)",
      "poi_name": "Good Hope Hospital, Inc",
      "osm_id": 10832198020,
      "amenity": "hospital",
      "phone": "+1 910 230 4011",
      "addr_city": "Erwin",
      "addr_postcode": "28339",
      "addr_street": "Denim Drive",
      "addr_housenumber": "410",
      "distance": 15864.24615797
    },
    {
      "id": 181099,
      "geometry": "POINT (-78.815788 35.902753)",
      "poi_name": "Triangle Springs",
      "osm_id": 10832198022,
      "amenity": "hospital",
      "phone": "+1 919 746 8900",
      "distance": 80578.53342463
    },
    {
      "id": 181101,
      "geometry": "POINT (-78.561408 35.678034)",
      "poi_name": "Strategic Behavioral Center - Garner",
      "osm_id": 10832213517,
      "amenity": "hospital",
      "website": "https://sbcraleigh.com",
      "phone": "+1 919 800 4400",
      "addr_city": "Garner",
      "addr_postcode": "27529",
      "addr_street": "Waterfield Road",
      "addr_housenumber": "3200",
      "distance": 53051.1442526
    },
    {
      "id": 195426,
      "geometry": "POINT (-78.703359 35.819392)",
      "poi_name": "North Carolina Heart & Vascular Hospital",
      "osm_id": 10304703981,
      "amenity": "hospital",
      "phone": "(919) 784-3100",
      "healthcare": "hospital",
      "addr_state": "NC",
      "addr_city": "Raleigh",
      "addr_postcode": "27607",
      "addr_street": "Lake Boone Trail",
      "addr_housenumber": "4420",
      "distance": 69445.86138445
    },
    {
      "id": 195427,
      "geometry": "POINT (-78.701044 35.815056)",
      "poi_name": "Rex Bariatrics",
      "osm_id": 10304704589,
      "amenity": "hospital",
      "phone": "(919) 784-7874",
      "healthcare": "hospital",
      "addr_state": "NC",
      "addr_city": "Raleigh",
      "addr_postcode": "27607",
      "addr_street": "Lake Boone Trail",
      "addr_housenumber": "4207",
      "distance": 68939.12134946
    },
    {
      "id": 195430,
      "geometry": "POINT (-78.701767 35.81502)",
      "poi_name": "Triangle Disc Care",
      "osm_id": 10304752327,
      "amenity": "hospital",
      "phone": "(919) 571-2515",
      "healthcare": "hospital",
      "addr_state": "NC",
      "addr_city": "Raleigh",
      "addr_postcode": "27607",
      "addr_street": "Lake Boone Trail",
      "addr_housenumber": "4301",
      "distance": 68944.79187192
    },
    {
      "id": 195431,
      "geometry": "POINT (-78.701055 35.817378)",
      "poi_name": "Mid-Carolina Obstetrics & Gynecology",
      "osm_id": 10304759115,
      "amenity": "hospital",
      "phone": "(919) 781-5510",
      "healthcare": "hospital",
      "addr_state": "NC",
      "addr_city": "Raleigh",
      "addr_postcode": "27607",
      "addr_street": "Lake Boone Trail",
      "addr_housenumber": "4414",
      "distance": 69194.1017517
    },
    {
      "id": 195432,
      "geometry": "POINT (-78.703766 35.818434)",
      "poi_name": "UNC REX Hospital Emergency Department",
      "osm_id": 10304770226,
      "amenity": "hospital",
      "phone": "(919) 784-1615",
      "healthcare": "hospital",
      "addr_state": "NC",
      "addr_city": "Raleigh",
      "addr_postcode": "27607",
      "addr_street": "Lake Boone Trail",
      "addr_housenumber": "4420",
      "distance": 69346.27876729
    },
    {
      "id": 195433,
      "geometry": "POINT (-78.701624 35.814746)",
      "poi_name": "Wake Radiology UNC REX Healthcare - West Raleigh Breast Imaging",
      "osm_id": 10304774396,
      "amenity": "hospital",
      "phone": "(919) 781-6707",
      "healthcare": "hospital",
      "addr_state": "NC",
      "addr_city": "Raleigh",
      "addr_postcode": "27607",
      "addr_street": "Lake Boone Trail",
      "addr_housenumber": "4301",
      "distance": 68912.81891226
    },
    {
      "id": 195434,
      "geometry": "POINT (-78.700447 35.814611)",
      "poi_name": "Glaucoma and Cataract Associates of North Carolina, P.C.",
      "osm_id": 10304783410,
      "amenity": "hospital",
      "phone": "(919) 659-8436",
      "healthcare": "hospital",
      "addr_state": "NC",
      "addr_city": "Raleigh",
      "addr_postcode": "27607",
      "addr_street": "Lake Boone Trail",
      "addr_housenumber": "4201",
      "distance": 68882.30893588
    },
    {
      "id": 195435,
      "geometry": "POINT (-78.589113 35.784756)",
      "poi_name": "WakeMed Cardiovascular & Thoracic Surgery",
      "osm_id": 10304812051,
      "amenity": "hospital",
      "phone": "(919) 231-6333",
      "healthcare": "hospital",
      "addr_state": "NC",
      "addr_city": "Raleigh",
      "addr_postcode": "27610",
      "addr_street": "New Bern Avenue",
      "addr_housenumber": "3000",
      "distance": 64830.92880696
    },
    {
      "id": 168205,
      "geometry": "POINT (-77.92946 34.194225)",
      "poi_name": "Wilmington Treatment Center",
      "osm_id": 367908049,
      "amenity": "hospital",
      "website": "https://www.wilmingtontreatment.com/",
      "phone": "+1 910 758 2023",
      "healthcare": "hospital",
      "emergency": "no",
      "addr_state": "NC",
      "addr_city": "Wilmington",
      "addr_postcode": "28401",
      "addr_street": "Troy Drive",
      "addr_housenumber": "2520",
      "distance": 126953.11459513
    },
    {
      "id": 234287,
      "geometry": "POINT (-78.020143 35.394778)",
      "poi_name": "Cherry Hospital",
      "osm_id": 4614766058,
      "amenity": "hospital",
      "website": "https://www.ncdhhs.gov/divisions/dsohf/cherry-hospital",
      "phone": "+1 919 947 7000",
      "healthcare": "hospital",
      "emergency": "no",
      "addr_state": "NC",
      "addr_city": "Goldsboro",
      "addr_postcode": "27530",
      "addr_street": "West Ash Street",
      "addr_housenumber": "1401",
      "distance": 56098.91838556
    }
  ],
  "answer_type": "distance",
  "question_entities": {
    "[1]": {
      "main_category": "amenity",
      "sub_category": "hospital"
    },
    "[2]": {
      "distance": 130000,
      "text": "130 kilometers"
    },
    "[3]": {
      "main_category": "tourism",
      "sub_category": "aquarium",
      "display_name": "Taylor's Aquarium, Dunn, NC",
      "geo_wkt": "POINT (-78.589533 35.200429)",
      "poi": {
        "id": 24624,
        "geometry": "POINT (-78.589533 35.200429)",
        "poi_name": "Taylor's Aquarium",
        "osm_id": 11141985607,
        "tourism": "aquarium",
        "phone": "+19105675377",
        "addr_state": "NC",
        "addr_city": "Dunn",
        "addr_postcode": "28334",
        "addr_street": "North Spring Branch Road",
        "addr_housenumber": "590"
      }
    }
  },
  "id": 710,
  "type": "range+distance"
}