{
  "question": "Where can I find a fast food restaurant positioned towards the northeast of ECPI University Denver, Centennial, CO, within a radius of 40 kilometers?",
  "sql": "\nWITH origin AS  (SELECT ST_GeomFromText('POINT (-104.860994 39.595547)',4326)::geography AS geometry)\nSELECT * FROM pois, origin\nWHERE ST_DWithin(pois.geometry, ST_GeomFromText('POINT (-104.860994 39.595547)',4326)::geography, 40000)\nAND amenity = 'fast_food'\nAND degrees(ST_Azimuth(origin.geometry, pois.geometry)) BETWEEN 22.5 AND 67.5;\n",
  "answers": [
    {
      "id": 50454,
      "geometry": "POINT (-104.860994 39.595547)",
      "poi_name": "Sonic",
      "osm_id": 3485509043,
      "amenity": "fast_food",
      "cuisine": "burger",
      "opening_hours": "Su-Th 07:00-23:00; Fr,Sa 07:00-24:00",
      "website": "https://www.sonicdrivein.com/",
      "phone": "+1-303-400-7055",
      "takeaway": "yes",
      "outdoor_seating": "yes",
      "addr_state": "CO",
      "addr_city": "Aurora",
      "addr_postcode": "80013",
      "addr_street": "East Hampden Avenue",
      "addr_housenumber": "18501"
    },
    {
      "id": 50456,
      "geometry": "POINT (-104.860994 39.595547)",
      "poi_name": "Pizza Hut + Wing Street",
      "osm_id": 3485602354,
      "amenity": "fast_food",
      "cuisine": "pizza",
      "website": "https://www.pizzahut.com/",
      "phone": "+1-303-680-1397",
      "addr_state": "CO",
      "addr_city": "Aurora",
      "addr_postcode": "80013",
      "addr_street": "East Hampden Avenue",
      "addr_housenumber": "18187"
    },
    {
      "id": 50457,
      "geometry": "POINT (-104.860994 39.595547)",
      "poi_name": "Einstein Bros. Bagels",
      "osm_id": 3485602364,
      "amenity": "fast_food",
      "cuisine": "bagel",
      "website": "https://www.einsteinbros.com/",
      "phone": "+1-303-586-8137",
      "takeaway": "yes",
      "addr_state": "CO",
      "addr_city": "Aurora",
      "addr_postcode": "80013",
      "addr_street": "East Hampden Avenue",
      "addr_housenumber": "18191"
    },
    {
      "id": 50460,
      "geometry": "POINT (-104.860994 39.595547)",
      "poi_name": "Domino's",
      "osm_id": 3485752580,
      "amenity": "fast_food",
      "cuisine": "pizza",
      "website": "https://www.dominos.com/",
      "phone": "+1-303-693-7696",
      "takeaway": "yes",
      "addr_state": "CO",
      "addr_city": "Aurora",
      "addr_postcode": "80013",
      "addr_street": "East Hampden Avenue",
      "addr_housenumber": "18511"
    },
    {
      "id": 50462,
      "geometry": "POINT (-104.860994 39.595547)",
      "poi_name": "Yo Craze Frozen Yogurt",
      "osm_id": 3485752584,
      "amenity": "fast_food",
      "cuisine": "ice_cream",
      "phone": "+1-303-699-9644",
      "addr_state": "CO",
      "addr_city": "Aurora",
      "addr_postcode": "80013",
      "addr_street": "East Hampden Avenue",
      "addr_housenumber": "18801"
    },
    {
      "id": 39672,
      "geometry": "POINT (-104.860994 39.595547)",
      "poi_name": "Carl's Jr.",
      "osm_id": 2933940388,
      "amenity": "fast_food",
      "cuisine": "burger",
      "opening_hours": "Mo-We 06:00-24:00, Th-Sa 06:00-01:00, Su 07:00-24:00",
      "website": "https://locations.carlsjr.com/co/aurora/2240-s-chambers-st",
      "phone": "+1-720-748-3101",
      "takeaway": "yes",
      "addr_city": "Aurora",
      "addr_postcode": "80013",
      "addr_street": "South Chambers Road",
      "addr_housenumber": "2240"
    },
    {
      "id": 107615,
      "geometry": "POINT (-104.860994 39.595547)",
      "poi_name": "DQ + Orange Julius",
      "osm_id": 3570552793,
      "amenity": "fast_food",
      "cuisine": "ice_cream",
      "opening_hours": "Su-Sa 11:00-22:00",
      "website": "https://www.dairyqueen.com/",
      "phone": "+1-303-755-0852",
      "addr_city": "Aurora",
      "addr_postcode": "80014",
      "addr_street": "South Chambers Road",
      "addr_housenumber": "2197"
    },
    {
      "id": 107445,
      "geometry": "POINT (-104.860994 39.595547)",
      "poi_name": "Chipotle",
      "osm_id": 3561940510,
      "amenity": "fast_food",
      "cuisine": "mexican",
      "opening_hours": "11:00-22:00",
      "website": "https://www.chipotle.com/",
      "phone": "+1-720-747-9542",
      "takeaway": "yes",
      "official_name": "Chipotle Mexican Grill",
      "addr_city": "Aurora",
      "addr_postcode": "80014",
      "addr_street": "East Iliff Avenue",
      "addr_housenumber": "15280"
    },
    {
      "id": 107569,
      "geometry": "POINT (-104.860994 39.595547)",
      "poi_name": "Subway",
      "osm_id": 3567372754,
      "amenity": "fast_food",
      "cuisine": "sandwich",
      "opening_hours": "Mo-Fr 07:00-22:00, Sa 08:00-22:00, Su 09:00-22:00",
      "website": "https://www.subway.com/",
      "phone": "+1-303-597-0597",
      "takeaway": "yes",
      "addr_city": "Aurora",
      "addr_postcode": "80014",
      "addr_street": "East Iliff Avenue",
      "addr_housenumber": "15220"
    },
    {
      "id": 119723,
      "geometry": "POINT (-104.860994 39.595547)",
      "poi_name": "Marco's Pizza",
      "osm_id": 9119025958,
      "amenity": "fast_food",
      "cuisine": "pizza",
      "opening_hours": "Mo-Su 10:30-21:00",
      "operator": "Marco's Pizza",
      "phone": "+1-720-708-4922",
      "takeaway": "yes",
      "addr_state": "CO",
      "addr_city": "Aurora",
      "addr_postcode": "80015",
      "addr_street": "East Quincy Avenue",
      "addr_housenumber": "21699"
    },
    {
      "id": 107878,
      "geometry": "POINT (-104.860994 39.595547)",
      "poi_name": "Subway",
      "osm_id": 3582264698,
      "amenity": "fast_food",
      "cuisine": "sandwich",
      "opening_hours": "Mo-Su 08:00-21:00",
      "website": "https://restaurants.subway.com/united-states/co/aurora/16950-e-iliff-ave",
      "phone": "+1-303-750-3002",
      "takeaway": "yes",
      "drive_through": "no",
      "addr_state": "CO",
      "addr_city": "Aurora",
      "addr_postcode": "80013",
      "addr_street": "East Iliff Avenue",
      "addr_housenumber": "16950"
    },
    {
      "id": 155228,
      "geometry": "POINT (-104.860994 39.595547)",
      "poi_name": "L&L Hawaiian Mixplate",
      "osm_id": 4275009180,
      "amenity": "fast_food",
      "cuisine": "hawaiian",
      "takeaway": "yes",
      "addr_state": "CO",
      "addr_city": "Aurora",
      "addr_postcode": "80015",
      "addr_street": "South Chambers Road",
      "addr_housenumber": "5650"
    },
    {
      "id": 152392,
      "geometry": "POINT (-104.860994 39.595547)",
      "poi_name": "Subway",
      "osm_id": 4141846860,
      "amenity": "fast_food",
      "cuisine": "sandwich",
      "opening_hours": "Su-Sa 07:00-21:00",
      "website": "https://www.subway.com/",
      "phone": "+1-303-766-6881",
      "takeaway": "yes",
      "addr_state": "CO",
      "addr_city": "Aurora",
      "addr_postcode": "80013",
      "addr_street": "South Tower Road",
      "addr_housenumber": "3504"
    },
    {
      "id": 165169,
      "geometry": "POINT (-104.860994 39.595547)",
      "poi_name": "Wingstop",
      "osm_id": 9522218770,
      "amenity": "fast_food",
      "cuisine": "wings",
      "takeaway": "yes",
      "addr_state": "CO",
      "addr_city": "Aurora",
      "addr_postcode": "80015",
      "addr_street": "Quincy Avenue",
      "addr_housenumber": "16891"
    },
    {
      "id": 164563,
      "geometry": "POINT (-104.860994 39.595547)",
      "poi_name": "Blackjack Pizza",
      "osm_id": 9482873164,
      "amenity": "fast_food",
      "cuisine": "pizza",
      "takeaway": "yes",
      "addr_state": "CO",
      "addr_city": "Aurora",
      "addr_postcode": "80015",
      "addr_street": "East Quincy Avenue",
      "addr_housenumber": "16961"
    },
    {
      "id": 159894,
      "geometry": "POINT (-104.860994 39.595547)",
      "poi_name": "Jamba Juice",
      "osm_id": 4810800038,
      "amenity": "fast_food",
      "cuisine": "juice",
      "takeaway": "yes",
      "addr_state": "CO",
      "addr_city": "Denver",
      "addr_postcode": "80249",
      "addr_street": "Pe\u00f1a Boulevard",
      "addr_housenumber": "8500"
    },
    {
      "id": 159896,
      "geometry": "POINT (-104.860994 39.595547)",
      "poi_name": "Subway",
      "osm_id": 4810800041,
      "amenity": "fast_food",
      "cuisine": "sandwich",
      "takeaway": "yes",
      "addr_state": "CO",
      "addr_city": "Denver",
      "addr_postcode": "80249",
      "addr_street": "Pe\u00f1a Boulevard",
      "addr_housenumber": "8500"
    },
    {
      "id": 159902,
      "geometry": "POINT (-104.860994 39.595547)",
      "poi_name": "Ingredients",
      "osm_id": 4810826271,
      "amenity": "fast_food",
      "addr_state": "CO",
      "addr_city": "Denver",
      "addr_postcode": "80249",
      "addr_street": "Pe\u00f1a Boulevard",
      "addr_housenumber": "8300"
    },
    {
      "id": 190840,
      "geometry": "POINT (-104.860994 39.595547)",
      "poi_name": "Dairy Queen",
      "osm_id": 1318370696,
      "amenity": "fast_food",
      "cuisine": "ice_cream;burger",
      "website": "https://www.dairyqueen.com/",
      "phone": "+1-303-766-9735",
      "takeaway": "yes",
      "addr_state": "CO",
      "addr_city": "Aurora",
      "addr_postcode": "80013",
      "addr_street": "East Hampden Avenue",
      "addr_housenumber": "18121"
    },
    {
      "id": 190140,
      "geometry": "POINT (-104.860994 39.595547)",
      "poi_name": "Taco Bell",
      "osm_id": 1271583375,
      "amenity": "fast_food",
      "cuisine": "tex-mex",
      "opening_hours": "Su-Th 07:00-02:00, Fr-Sa 07:00-03:00",
      "website": "https://locations.tacobell.com/co/aurora/3554-s-tower-road.html",
      "phone": "+1-720-870-2884",
      "takeaway": "yes",
      "addr_state": "CO",
      "addr_city": "Aurora",
      "addr_postcode": "80013",
      "addr_street": "South Tower Road",
      "addr_housenumber": "3554"
    },
    {
      "id": 190141,
      "geometry": "POINT (-104.860994 39.595547)",
      "poi_name": "Wendy's",
      "osm_id": 1271583399,
      "amenity": "fast_food",
      "cuisine": "burger",
      "opening_hours": "Su-Th 10:00-01:00, Fr-Sa 10:00-02:00",
      "website": "https://www.wendys.com/",
      "phone": "+1-720-876-2058",
      "takeaway": "yes",
      "drive_through": "yes",
      "addr_state": "CO",
      "addr_city": "Aurora",
      "addr_postcode": "80013",
      "addr_street": "East Hampden Avenue",
      "addr_housenumber": "18700"
    },
    {
      "id": 172716,
      "geometry": "POINT (-104.860994 39.595547)",
      "poi_name": "Panda Express",
      "osm_id": 2411370102,
      "amenity": "fast_food",
      "cuisine": "chinese",
      "takeaway": "yes",
      "addr_state": "CO",
      "addr_city": "Aurora",
      "addr_postcode": "80015",
      "addr_street": "East Quincy Avenue",
      "addr_housenumber": "16891"
    },
    {
      "id": 190179,
      "geometry": "POINT (-104.860994 39.595547)",
      "poi_name": "McDonald's",
      "osm_id": 1272751952,
      "amenity": "fast_food",
      "cuisine": "burger",
      "website": "https://www.mcdonalds.com/us/en-us/location/co/aurora/18181-e-hampden-ave/22588.html",
      "phone": "+1-303-680-4197",
      "takeaway": "yes",
      "addr_state": "CO",
      "addr_city": "Aurora",
      "addr_postcode": "80013",
      "addr_street": "East Hampden Avenue",
      "addr_housenumber": "18181"
    },
    {
      "id": 190711,
      "geometry": "POINT (-104.860994 39.595547)",
      "poi_name": "Jersey Mike's Subs",
      "osm_id": 1312601423,
      "amenity": "fast_food",
      "cuisine": "sandwich",
      "opening_hours": "10:00-21:00",
      "website": "https://www.jerseymikes.com/",
      "phone": "+1-720-381-0919",
      "takeaway": "yes",
      "addr_state": "CO",
      "addr_city": "Aurora",
      "addr_postcode": "80013",
      "addr_street": "South Tower Road",
      "addr_housenumber": "3571"
    },
    {
      "id": 197705,
      "geometry": "POINT (-104.860994 39.595547)",
      "poi_name": "Subway",
      "osm_id": 10670049977,
      "amenity": "fast_food",
      "cuisine": "sandwich",
      "takeaway": "yes",
      "addr_state": "CO",
      "addr_city": "Aurora",
      "addr_postcode": "80015",
      "addr_street": "East Quincy Avenue",
      "addr_housenumber": "19330"
    },
    {
      "id": 224407,
      "geometry": "POINT (-104.860994 39.595547)",
      "poi_name": "A&W",
      "osm_id": 11080855588,
      "amenity": "fast_food",
      "cuisine": "burger",
      "website": "https://awrestaurants.com/locations/colorado/aurora/16901-east-quincy/",
      "takeaway": "yes",
      "addr_state": "CO",
      "addr_city": "Aurora",
      "addr_postcode": "80015",
      "addr_street": "East Quincy Avenue",
      "addr_housenumber": "16901"
    },
    {
      "id": 222001,
      "geometry": "POINT (-104.860994 39.595547)",
      "poi_name": "Parlor Doughnuts",
      "osm_id": 11001557875,
      "amenity": "fast_food",
      "cuisine": "donut",
      "addr_state": "CO",
      "addr_city": "Aurora",
      "addr_postcode": "80015",
      "addr_street": "South Parker Road",
      "addr_housenumber": "5001"
    },
    {
      "id": 223015,
      "geometry": "POINT (-104.860994 39.595547)",
      "poi_name": "Coloradough Pizza",
      "osm_id": 11044001983,
      "amenity": "fast_food",
      "cuisine": "pizza",
      "addr_state": "CO",
      "addr_city": "Aurora",
      "addr_postcode": "80015",
      "addr_street": "East Smoky Hill Road",
      "addr_housenumber": "15430"
    },
    {
      "id": 224338,
      "geometry": "POINT (-104.860994 39.595547)",
      "poi_name": "Subway",
      "osm_id": 11078690711,
      "amenity": "fast_food",
      "cuisine": "sandwich",
      "takeaway": "yes",
      "addr_state": "CO",
      "addr_city": "Aurora",
      "addr_postcode": "80015",
      "addr_street": "South Buckley Road",
      "addr_housenumber": "4343"
    },
    {
      "id": 224340,
      "geometry": "POINT (-104.860994 39.595547)",
      "poi_name": "We Knead Donut",
      "osm_id": 11078817582,
      "amenity": "fast_food",
      "cuisine": "donut",
      "addr_state": "CO",
      "addr_city": "Aurora",
      "addr_postcode": "80013",
      "addr_street": "South Buckley Road",
      "addr_housenumber": "4225"
    },
    {
      "id": 224342,
      "geometry": "POINT (-104.860994 39.595547)",
      "poi_name": "Jimmy John's",
      "osm_id": 11078870760,
      "amenity": "fast_food",
      "cuisine": "sandwich",
      "takeaway": "yes",
      "official_name": "Jimmy John's Gourmet Sandwiches",
      "addr_state": "CO",
      "addr_city": "Aurora",
      "addr_postcode": "80015",
      "addr_street": "South Buckley Road",
      "addr_housenumber": "4261"
    },
    {
      "id": 224343,
      "geometry": "POINT (-104.860994 39.595547)",
      "poi_name": "Little Caesars",
      "osm_id": 11078870761,
      "amenity": "fast_food",
      "cuisine": "pizza",
      "website": "https://littlecaesars.com/en-us/store/8863/",
      "takeaway": "yes",
      "addr_state": "CO",
      "addr_city": "Aurora",
      "addr_postcode": "80013",
      "addr_street": "South Buckley Road",
      "addr_housenumber": "4261"
    },
    {
      "id": 204843,
      "geometry": "POINT (-104.860994 39.595547)",
      "poi_name": "Einstein Bros. Bagels",
      "osm_id": 7143860802,
      "amenity": "fast_food",
      "cuisine": "bagel",
      "opening_hours": "Mo-Sa 05:00-18:00; Su 06:00-18:00",
      "phone": "+1-720-634-9990",
      "takeaway": "yes",
      "addr_state": "CO",
      "addr_city": "Aurora",
      "addr_postcode": "80014",
      "addr_street": "South Parker Road",
      "addr_housenumber": "4090"
    },
    {
      "id": 222272,
      "geometry": "POINT (-104.860994 39.595547)",
      "poi_name": "Subway",
      "osm_id": 11012314261,
      "amenity": "fast_food",
      "cuisine": "sandwich",
      "takeaway": "yes",
      "addr_state": "CO",
      "addr_city": "Aurora",
      "addr_postcode": "80015",
      "addr_street": "South Parker Road",
      "addr_housenumber": "5648"
    },
    {
      "id": 228274,
      "geometry": "POINT (-104.860994 39.595547)",
      "poi_name": "Dunkin'",
      "osm_id": 4337911849,
      "amenity": "fast_food",
      "cuisine": "donut;coffee_shop",
      "opening_hours": "24/7",
      "takeaway": "yes",
      "addr_state": "CO",
      "addr_city": "Denver",
      "addr_postcode": "80249",
      "addr_street": "Pe\u00f1a Boulevard",
      "addr_housenumber": "7680"
    },
    {
      "id": 228275,
      "geometry": "POINT (-104.860994 39.595547)",
      "poi_name": "Schlotzsky's",
      "osm_id": 4337920217,
      "amenity": "fast_food",
      "cuisine": "sandwich",
      "opening_hours": "Mo-Su 07:00-22:00",
      "website": "https://locations.schlotzskys.com/co/denver/76804-n-wenatchee-st",
      "phone": "+1-303-363-4830",
      "takeaway": "yes",
      "addr_state": "CO",
      "addr_city": "Denver",
      "addr_postcode": "80249",
      "addr_street": "Wenatchee Street",
      "addr_housenumber": "7684"
    },
    {
      "id": 228276,
      "geometry": "POINT (-104.860994 39.595547)",
      "poi_name": "Tia's Authentic Mexican Eats",
      "osm_id": 4337920220,
      "amenity": "fast_food",
      "cuisine": "mexican",
      "opening_hours": "Mo-Su 07:00-22:00",
      "operator": "Fresquez Companies",
      "takeaway": "yes",
      "drive_through": "no",
      "addr_state": "CO",
      "addr_city": "Denver",
      "addr_postcode": "80249",
      "addr_street": "Wenatchee Street",
      "addr_housenumber": "7684"
    },
    {
      "id": 236379,
      "geometry": "POINT (-104.860994 39.595547)",
      "poi_name": "Twisters",
      "osm_id": 5791287863,
      "amenity": "fast_food",
      "cuisine": "burger",
      "opening_hours": "Mo-Su 06:00-20:00",
      "website": "https://www.mytwisters.com/restaurants/buckley/",
      "phone": "+1-303-369-7690",
      "takeaway": "yes",
      "drive_through": "yes",
      "official_name": "Twisters Burgers & Burritos",
      "addr_state": "CO",
      "addr_city": "Aurora",
      "addr_postcode": "80017",
      "addr_street": "South Buckley Road",
      "addr_housenumber": "1750"
    },
    {
      "id": 237563,
      "geometry": "POINT (-104.860994 39.595547)",
      "poi_name": "Chipotle",
      "osm_id": 5839049145,
      "amenity": "fast_food",
      "cuisine": "mexican",
      "website": "https://chipotle.com/",
      "takeaway": "yes",
      "official_name": "Chipotle Mexican Grill",
      "addr_state": "CO",
      "addr_city": "Aurora",
      "addr_postcode": "80013",
      "addr_street": "South Buckley Road",
      "addr_housenumber": "4205"
    }
  ],
  "answer_type": "loc",
  "question_entities": {
    "[1]": {
      "main_category": "amenity",
      "sub_category": "fast food restaurant"
    },
    "[2]": {
      "distance": 40000,
      "text": "40 kilometers"
    },
    "[3]": {
      "main_category": "amenity",
      "sub_category": "university",
      "display_name": "ECPI University Denver, Centennial, CO",
      "geo_wkt": "POINT (-104.860994 39.595547)",
      "poi": {
        "id": 70277,
        "geometry": "POINT (-104.860994 39.595547)",
        "poi_name": "ECPI University Denver",
        "osm_id": 11356406020,
        "amenity": "university",
        "addr_state": "CO",
        "addr_city": "Centennial",
        "addr_postcode": "80111",
        "addr_street": "South Kenton Street",
        "addr_housenumber": "6675"
      }
    },
    "[4]": {
      "direction_desc": "northeast",
      "direction_predicate": "degrees(ST_Azimuth(origin.geometry, pois.geometry)) BETWEEN 22.5 AND 67.5"
    }
  },
  "id": 27,
  "type": "range:direction+loc"
}