{
  "question": "What restaurant can I find within 50 kilometers from Adventure Sports in Hershey, Hershey, PA towards Rosenberg Gallery, MD?",
  "sql": "WITH\n    angle AS (SELECT degrees(ST_Azimuth(ST_GeomFromText('POINT (-76.62265 40.236123)',4326)::geography, ST_GeomFromText('POINT (-76.595613 39.408752)',4326)::geography)) AS value)\nSELECT * FROM pois,angle\nWHERE amenity = 'restaurant'\nAND ST_DWithin(pois.geometry, ST_GeomFromText('POINT (-76.62265 40.236123)',4326)::geography, 50000)\nAND (degrees(ST_Azimuth(ST_GeomFromText('POINT (-76.62265 40.236123)',4326)::geography, pois.geometry)) BETWEEN angle.value - 22.5 AND angle.value + 22.5);\n",
  "answers": [
    {
      "id": 33023,
      "geometry": "POINT (-76.667607 39.957496)",
      "poi_name": "Ironwoods",
      "osm_id": 2646689025,
      "amenity": "restaurant",
      "cuisine": "american",
      "wheelchair": "limited",
      "addr_city": "York",
      "addr_postcode": "17402",
      "addr_street": "Mount Rose Avenue",
      "addr_housenumber": "2700",
      "value": 178.54791325132098
    },
    {
      "id": 33024,
      "geometry": "POINT (-76.668007 39.95741)",
      "poi_name": "Knicker's Pub",
      "osm_id": 2646689030,
      "amenity": "restaurant",
      "addr_city": "York",
      "addr_postcode": "17402",
      "addr_street": "Mount Rose Avenue",
      "addr_housenumber": "2700",
      "value": 178.54791325132098
    },
    {
      "id": 58475,
      "geometry": "POINT (-76.686576 39.931259)",
      "poi_name": "IHOP",
      "osm_id": 5378358035,
      "amenity": "restaurant",
      "cuisine": "breakfast;pancake",
      "addr_postcode": "17402",
      "addr_street": "Pauline Drive",
      "addr_housenumber": "108",
      "value": 178.54791325132098
    },
    {
      "id": 41872,
      "geometry": "POINT (-76.685873 39.925228)",
      "poi_name": "Bubba D's Pizza And Wings",
      "osm_id": 3028053763,
      "amenity": "restaurant",
      "cuisine": "pizza",
      "website": "https://www.bubbadspizza.com/",
      "phone": "+1-717-885-0779",
      "takeaway": "yes",
      "delivery": "yes",
      "addr_state": "PA",
      "addr_city": "York",
      "addr_postcode": "17402",
      "addr_street": "South Queen Street",
      "addr_housenumber": "2230",
      "value": 178.54791325132098
    },
    {
      "id": 58684,
      "geometry": "POINT (-76.584024 40.139153)",
      "poi_name": "Hokkaido Sushi and Hibachi",
      "osm_id": 5393717655,
      "amenity": "restaurant",
      "cuisine": "sushi;asian",
      "opening_hours": "Su 12:00-21:30; Mo-Th 11:00-15:00,16:00-22:00; Fr,Sa 11:00-22:00",
      "takeaway": "yes",
      "delivery": "no",
      "addr_state": "PA",
      "addr_city": "Elizabethtown",
      "addr_postcode": "17022",
      "addr_street": "South Market Street",
      "addr_housenumber": "1623",
      "value": 178.54791325132098
    },
    {
      "id": 58717,
      "geometry": "POINT (-76.679568 39.956356)",
      "poi_name": "Nina's Pizza",
      "osm_id": 5394723758,
      "amenity": "restaurant",
      "cuisine": "pizza",
      "opening_hours": "Mo-Th 11:00-21:00; Fr,Sa 11:00-22:00; Su 12:00-21:00",
      "website": "https://www.ninospizzayorkpa.com/",
      "phone": "+1-717-840-6900",
      "takeaway": "yes",
      "addr_state": "PA",
      "addr_city": "York",
      "addr_postcode": "17402",
      "addr_street": "Greensprings Drive",
      "addr_housenumber": "1214",
      "value": 178.54791325132098
    },
    {
      "id": 58718,
      "geometry": "POINT (-76.679595 39.956422)",
      "poi_name": "Sweet House Chinese Restaurant",
      "osm_id": 5394723763,
      "amenity": "restaurant",
      "cuisine": "chinese",
      "opening_hours": "Mo-Th 11:00-21:00; Fr-Sa 11:00-20:00; Su 12:00-21:00",
      "phone": "+1-717-755-3313",
      "takeaway": "yes",
      "delivery": "no",
      "addr_city": "York",
      "addr_postcode": "17402",
      "addr_street": "Greensprings Drive",
      "addr_housenumber": "1208",
      "value": 178.54791325132098
    },
    {
      "id": 68886,
      "geometry": "POINT (-76.727347 39.962122)",
      "poi_name": "Marcello's Pizza",
      "osm_id": 11287332165,
      "amenity": "restaurant",
      "cuisine": "pizza",
      "opening_hours": "Mo-Th 11:00-21:00; Fr-Sa 11:00-22:00",
      "addr_state": "PA",
      "addr_city": "York",
      "addr_postcode": "17401",
      "addr_street": "South George Street",
      "addr_housenumber": "7",
      "value": 178.54791325132098
    },
    {
      "id": 63146,
      "geometry": "POINT (-76.680864 39.960318)",
      "poi_name": "Parma Pizza & Grill",
      "osm_id": 5601038836,
      "amenity": "restaurant",
      "cuisine": "pizza",
      "website": "https://parmapizzaandgrill.com/",
      "addr_state": "PA",
      "addr_city": "York",
      "addr_postcode": "17403",
      "addr_street": "Haines Road",
      "addr_housenumber": "1041",
      "value": 178.54791325132098
    },
    {
      "id": 68792,
      "geometry": "POINT (-76.729479 39.961796)",
      "poi_name": "Mesa Moreira",
      "osm_id": 11284674905,
      "amenity": "restaurant",
      "cuisine": "portuguese",
      "wheelchair": "yes",
      "opening_hours": "Tu - Su 11:00-22:00",
      "website": "https://mesamoreira.com/",
      "phone": "(717) 650-1499",
      "outdoor_seating": "yes",
      "delivery": "yes",
      "addr_state": "PA",
      "addr_city": "York",
      "addr_postcode": "17401",
      "addr_street": "West Market Street",
      "addr_housenumber": "58",
      "value": 178.54791325132098
    },
    {
      "id": 68793,
      "geometry": "POINT (-76.727512 39.961758)",
      "poi_name": "Hamir's Indian Fusion",
      "osm_id": 11284674917,
      "amenity": "restaurant",
      "cuisine": "indian",
      "wheelchair": "yes",
      "opening_hours": "Mo-Fr 11:00-21:00; Sa 14:00-21:00",
      "website": "https://hamirs.com/",
      "internet_access": "wlan",
      "phone": "+17174304173",
      "addr_state": "PA",
      "addr_city": "York",
      "addr_postcode": "17401",
      "addr_street": "South George Street",
      "addr_housenumber": "24",
      "value": 178.54791325132098
    },
    {
      "id": 68794,
      "geometry": "POINT (-76.727534 39.961804)",
      "poi_name": "LettUsKnow",
      "osm_id": 11284674918,
      "amenity": "restaurant",
      "cuisine": "health_food",
      "wheelchair": "yes",
      "opening_hours": "Mo-Fr 11:00-14:00",
      "website": "http://places.singleplatform.com/lettusknow-0/menu?ref=google",
      "phone": "+17177798981",
      "addr_state": "PA",
      "addr_city": "York",
      "addr_postcode": "17401",
      "addr_street": "South George Street",
      "addr_housenumber": "22",
      "value": 178.54791325132098
    },
    {
      "id": 68807,
      "geometry": "POINT (-76.729104 39.962161)",
      "poi_name": "ROOST Uncommon Kitchen",
      "osm_id": 11285205188,
      "amenity": "restaurant",
      "cuisine": "breakfast",
      "wheelchair": "yes",
      "opening_hours": "We-Mo 08:00-14:00",
      "website": "https://www.roostuncommonkitchen.com/",
      "phone": "+17178486576",
      "addr_state": "PA",
      "addr_city": "York",
      "addr_postcode": "17401",
      "addr_street": "West Market Street",
      "addr_housenumber": "35",
      "value": 178.54791325132098
    },
    {
      "id": 68808,
      "geometry": "POINT (-76.729008 39.962183)",
      "poi_name": "Archetype Pizza",
      "osm_id": 11285205189,
      "amenity": "restaurant",
      "cuisine": "pizza",
      "wheelchair": "yes",
      "opening_hours": "Mo 11:00-22:00; We-Fr 11:00-22:00; Sa 16:00-22:00; Su 16:00-21:00",
      "website": "https://archetypeyork.com/",
      "phone": "+17172198081",
      "addr_state": "PA",
      "addr_city": "York",
      "addr_postcode": "17401",
      "addr_street": "West Market Street",
      "addr_housenumber": "33",
      "value": 178.54791325132098
    },
    {
      "id": 68809,
      "geometry": "POINT (-76.728816 39.96224)",
      "poi_name": "The Fig & Barrel Pub",
      "osm_id": 11285205190,
      "amenity": "restaurant",
      "wheelchair": "yes",
      "opening_hours": "Mo-Th 16:00-23:00, Fr 16:00-02:00, Sa 10:00-02:00, Su 10:00-15:00",
      "website": "https://figandbarrel.com/",
      "phone": "+17178500080",
      "addr_state": "PA",
      "addr_city": "York",
      "addr_postcode": "17401",
      "addr_street": "West Market Street",
      "addr_housenumber": "25",
      "value": 178.54791325132098
    },
    {
      "id": 68810,
      "geometry": "POINT (-76.728089 39.962671)",
      "poi_name": "Iron Horse York",
      "osm_id": 11285205195,
      "amenity": "restaurant",
      "cuisine": "american",
      "opening_hours": "Tu-Th 11:00-22:00; Fr-Sa 11:00-23:00",
      "website": "https://www.ironhorseyork.com/menus/",
      "phone": "+17178464766",
      "value": 178.54791325132098
    },
    {
      "id": 63911,
      "geometry": "POINT (-76.669972 39.975265)",
      "poi_name": "Fiesta Mexico",
      "osm_id": 5635316869,
      "amenity": "restaurant",
      "cuisine": "mexican",
      "addr_state": "PA",
      "addr_postcode": "17402",
      "addr_street": "East Market Street",
      "addr_housenumber": "2818",
      "value": 178.54791325132098
    },
    {
      "id": 68857,
      "geometry": "POINT (-76.727912 39.963106)",
      "poi_name": "Revival Social Club",
      "osm_id": 11286900940,
      "amenity": "restaurant",
      "cuisine": "american",
      "wheelchair": "yes",
      "opening_hours": "Tu-Fr 11:00-22:00; Sa 16:30-22:00; Su 10:00-14:00",
      "website": "https://www.revivalsocialclubyork.com/",
      "phone": "+17174302981",
      "addr_state": "PA",
      "addr_city": "York",
      "addr_postcode": "17401",
      "addr_street": "North George Street",
      "addr_housenumber": "19",
      "value": 178.54791325132098
    },
    {
      "id": 71107,
      "geometry": "POINT (-76.739206 39.984832)",
      "poi_name": "Great Wall",
      "osm_id": 11382226160,
      "amenity": "restaurant",
      "cuisine": "chinese",
      "value": 178.54791325132098
    },
    {
      "id": 83141,
      "geometry": "POINT (-76.664388 39.958615)",
      "poi_name": "Sweet Willows",
      "osm_id": 1730605137,
      "amenity": "restaurant",
      "cuisine": "ice_cream",
      "addr_city": "York",
      "addr_postcode": "17402",
      "addr_street": "East Prospect Road",
      "addr_housenumber": "2812",
      "value": 178.54791325132098
    },
    {
      "id": 81838,
      "geometry": "POINT (-76.689825 39.933587)",
      "poi_name": "South York Diner",
      "osm_id": 1668099684,
      "amenity": "restaurant",
      "cuisine": "american",
      "website": "https://www.yelp.com/biz/south-york-diner-york",
      "addr_postcode": "17403",
      "addr_street": "South Queen Street",
      "addr_housenumber": "2149",
      "value": 178.54791325132098
    },
    {
      "id": 82190,
      "geometry": "POINT (-76.672849 39.976118)",
      "poi_name": "Chuck E. Cheese",
      "osm_id": 1686470433,
      "amenity": "restaurant",
      "cuisine": "pizza",
      "leisure": "amusement_arcade",
      "website": "https://locations.chuckecheese.com/us/pa/york/2801-e.-market-st.",
      "addr_city": "York",
      "addr_postcode": "17402",
      "addr_street": "East Market Street",
      "addr_housenumber": "2801",
      "value": 178.54791325132098
    },
    {
      "id": 82193,
      "geometry": "POINT (-76.709167 39.88291)",
      "poi_name": "Paesano's Pizza",
      "osm_id": 1686617769,
      "amenity": "restaurant",
      "cuisine": "pizza",
      "wheelchair": "yes",
      "opening_hours": "Tu-Su 11:00-21:30",
      "website": "https://www.yelp.com/biz/paesano-pizza-jacobus",
      "addr_state": "PA",
      "addr_city": "Jacobus",
      "addr_postcode": "17407",
      "addr_street": "North Main Street",
      "addr_housenumber": "35",
      "value": 178.54791325132098
    },
    {
      "id": 83142,
      "geometry": "POINT (-76.699 39.95933)",
      "poi_name": "Marisol's Pizza Shop",
      "osm_id": 1730609328,
      "amenity": "restaurant",
      "cuisine": "ice_cream;pizza;gyros;wings",
      "addr_state": "PA",
      "addr_city": "York",
      "addr_postcode": "17403",
      "addr_street": "Mount Rose Avenue",
      "addr_housenumber": "1305",
      "value": 178.54791325132098
    },
    {
      "id": 83143,
      "geometry": "POINT (-76.691367 39.94072)",
      "poi_name": "Mitsuru-Ya",
      "osm_id": 1730612568,
      "amenity": "restaurant",
      "cuisine": "sushi",
      "addr_city": "York",
      "addr_postcode": "17403",
      "addr_street": "Springwood Road",
      "addr_housenumber": "2023",
      "value": 178.54791325132098
    },
    {
      "id": 90831,
      "geometry": "POINT (-76.559951 40.054719)",
      "poi_name": "The Railroad House Inn",
      "osm_id": 2020534761,
      "amenity": "restaurant",
      "cuisine": "american",
      "wheelchair": "limited",
      "value": 178.54791325132098
    },
    {
      "id": 90832,
      "geometry": "POINT (-76.562295 40.055757)",
      "poi_name": "Nick's Bistro",
      "osm_id": 2020536389,
      "amenity": "restaurant",
      "opening_hours": "Mo-Su 11:00-00:00",
      "addr_state": "PA",
      "addr_city": "Marietta",
      "addr_postcode": "17547",
      "addr_street": "West Market Street",
      "addr_housenumber": "324",
      "value": 178.54791325132098
    },
    {
      "id": 90833,
      "geometry": "POINT (-76.555506 40.056534)",
      "poi_name": "Parma Pizza",
      "osm_id": 2020548548,
      "amenity": "restaurant",
      "cuisine": "pizza",
      "value": 178.54791325132098
    },
    {
      "id": 90796,
      "geometry": "POINT (-76.582333 40.137017)",
      "poi_name": "Metro Express",
      "osm_id": 2018304277,
      "amenity": "restaurant",
      "cuisine": "pizza",
      "value": 178.54791325132098
    },
    {
      "id": 90972,
      "geometry": "POINT (-76.566781 40.102648)",
      "poi_name": "Cameron Estate Inn & Restaurant",
      "osm_id": 2030896684,
      "amenity": "restaurant",
      "website": "https://www.cameronestateinn.com/",
      "addr_postcode": "17552",
      "addr_street": "Mansion Lane",
      "addr_housenumber": "1855",
      "value": 178.54791325132098
    },
    {
      "id": 92126,
      "geometry": "POINT (-76.605244 40.151674)",
      "poi_name": "P&J Pizza",
      "osm_id": 2104788917,
      "amenity": "restaurant",
      "cuisine": "pizza",
      "opening_hours": "Mo-Th 11:00-22:00; Fr-Sa 11:00-23:00; Su 12:00-20:00",
      "phone": "717-367-9681",
      "addr_housenumber": "22",
      "value": 178.54791325132098
    },
    {
      "id": 92086,
      "geometry": "POINT (-76.605222 40.15059)",
      "poi_name": "E Yuan",
      "osm_id": 2103983636,
      "amenity": "restaurant",
      "cuisine": "chinese",
      "opening_hours": "Tu-Th 11:00-22:00; Fr-Sa 11:00-22:30; Su 12:00-22:00",
      "website": "http://www.etowneyuan.com/",
      "phone": "717-367-1200",
      "addr_city": "Elizabethtown",
      "addr_postcode": "17022",
      "addr_street": "South Market Street",
      "addr_housenumber": "39",
      "value": 178.54791325132098
    },
    {
      "id": 92087,
      "geometry": "POINT (-76.603896 40.148013)",
      "poi_name": "Brothers Pizza-Elizabethtown",
      "osm_id": 2104324979,
      "amenity": "restaurant",
      "cuisine": "pizza",
      "website": "https://brotherspizzaetown.com/",
      "phone": "(717)367-5878",
      "addr_street": "South Market Street",
      "addr_housenumber": "256",
      "value": 178.54791325132098
    },
    {
      "id": 107171,
      "geometry": "POINT (-76.617752 39.896448)",
      "poi_name": "Fortune Garden",
      "osm_id": 3540398533,
      "amenity": "restaurant",
      "cuisine": "chinese;sushi",
      "addr_state": "PA",
      "addr_city": "Red Lion",
      "addr_postcode": "17356",
      "addr_street": "West Broadway",
      "addr_housenumber": "760",
      "value": 178.54791325132098
    },
    {
      "id": 101379,
      "geometry": "POINT (-76.657702 39.979357)",
      "poi_name": "El Serrano",
      "osm_id": 6625018119,
      "amenity": "restaurant",
      "cuisine": "mexican;peruvian;tapas",
      "opening_hours": "Mo-Su 11:00-21:00",
      "value": 178.54791325132098
    },
    {
      "id": 145065,
      "geometry": "POINT (-76.686406 39.931335)",
      "poi_name": "JJ Panda",
      "osm_id": 7306989838,
      "amenity": "restaurant",
      "value": 178.54791325132098
    },
    {
      "id": 107464,
      "geometry": "POINT (-76.604298 39.9013)",
      "poi_name": "Golden Crust",
      "osm_id": 3562458003,
      "amenity": "restaurant",
      "cuisine": "italian",
      "addr_state": "PA",
      "addr_city": "Red Lion",
      "addr_postcode": "17356",
      "addr_street": "East Broadway",
      "addr_housenumber": "59",
      "value": 178.54791325132098
    },
    {
      "id": 108827,
      "geometry": "POINT (-76.728903 39.964074)",
      "poi_name": "Tutoni's",
      "osm_id": 3636030521,
      "amenity": "restaurant",
      "opening_hours": "Mo-Sa 16:00-21:00; Su off",
      "phone": "+1 717-885-5169",
      "addr_state": "PA",
      "addr_city": "York",
      "addr_postcode": "17401",
      "addr_street": "North George Street",
      "addr_housenumber": "108",
      "value": 178.54791325132098
    },
    {
      "id": 108020,
      "geometry": "POINT (-76.721236 39.947266)",
      "poi_name": "Deli Delicious",
      "osm_id": 3590356667,
      "amenity": "restaurant",
      "website": "http://delidelicious.com",
      "addr_state": "PA",
      "addr_city": "York",
      "addr_postcode": "17403",
      "addr_street": "South George Street",
      "addr_housenumber": "966",
      "value": 178.54791325132098
    },
    {
      "id": 108021,
      "geometry": "POINT (-76.721185 39.947179)",
      "poi_name": "Kissho Sushi",
      "osm_id": 3590358486,
      "amenity": "restaurant",
      "cuisine": "japanese",
      "website": "https://kisshosushi.com/",
      "addr_state": "PA",
      "addr_city": "York",
      "addr_postcode": "17403",
      "addr_street": "South George Street",
      "addr_housenumber": "970",
      "value": 178.54791325132098
    },
    {
      "id": 110549,
      "geometry": "POINT (-76.671999 39.990269)",
      "poi_name": "Red Robin",
      "osm_id": 3708389135,
      "amenity": "restaurant",
      "cuisine": "burger",
      "website": "http://redrobin.com",
      "official_name": "Red Robin Gourmet Burgers and Brews",
      "addr_state": "PA",
      "addr_city": "York",
      "addr_postcode": "17402",
      "addr_street": "Mount Zion Road",
      "addr_housenumber": "1500",
      "value": 178.54791325132098
    },
    {
      "id": 136801,
      "geometry": "POINT (-76.538178 39.965136)",
      "poi_name": "Becky's Kitchen",
      "osm_id": 6071452667,
      "amenity": "restaurant",
      "addr_state": "PA",
      "addr_city": "York",
      "addr_postcode": "17406",
      "addr_street": "East Prospect Road",
      "addr_housenumber": "5188",
      "value": 178.54791325132098
    },
    {
      "id": 175285,
      "geometry": "POINT (-76.644208 39.900829)",
      "poi_name": "Roma's Italian Restaurant",
      "osm_id": 2512193679,
      "amenity": "restaurant",
      "cuisine": "pizza",
      "addr_city": "Dallastown",
      "addr_postcode": "17313",
      "addr_street": "East Main Street",
      "addr_housenumber": "2",
      "value": 178.54791325132098
    },
    {
      "id": 152039,
      "geometry": "POINT (-76.718745 39.96185)",
      "poi_name": "El Casero Restaurant",
      "osm_id": 4124135807,
      "amenity": "restaurant",
      "addr_street": "East Princess Street",
      "addr_housenumber": "350",
      "value": 178.54791325132098
    },
    {
      "id": 174129,
      "geometry": "POINT (-76.676345 39.975189)",
      "poi_name": "Red Lobster",
      "osm_id": 2465650878,
      "amenity": "restaurant",
      "cuisine": "seafood",
      "addr_state": "PA",
      "addr_city": "York",
      "addr_postcode": "17402",
      "addr_street": "East Market Street",
      "addr_housenumber": "2555",
      "value": 178.54791325132098
    },
    {
      "id": 175216,
      "geometry": "POINT (-76.629742 39.920047)",
      "poi_name": "Pizza Hut",
      "osm_id": 2508888436,
      "amenity": "restaurant",
      "cuisine": "pizza",
      "opening_hours": "Mo-Th,Su 10:00-24:00, Fr,Sa 10:00-25:00",
      "phone": "+1 717-244-2632",
      "addr_state": "PA",
      "addr_city": "Red Lion",
      "addr_postcode": "17356",
      "addr_street": "Cape Horn Road",
      "addr_housenumber": "3121",
      "value": 178.54791325132098
    },
    {
      "id": 172450,
      "geometry": "POINT (-76.668024 39.983173)",
      "poi_name": "LongHorn Steakhouse",
      "osm_id": 2402954349,
      "amenity": "restaurant",
      "cuisine": "steak_house",
      "addr_city": "York",
      "addr_postcode": "17402",
      "addr_street": "Concord Road",
      "addr_housenumber": "2901",
      "value": 178.54791325132098
    },
    {
      "id": 172462,
      "geometry": "POINT (-76.692251 39.933082)",
      "poi_name": "Infinito's Pizza Buffet",
      "osm_id": 2403622385,
      "amenity": "restaurant",
      "cuisine": "pizza",
      "addr_city": "York",
      "addr_street": "South Queen Street",
      "addr_housenumber": "2134",
      "value": 178.54791325132098
    },
    {
      "id": 172463,
      "geometry": "POINT (-76.694234 39.940399)",
      "poi_name": "Nittany Pizza",
      "osm_id": 2403622387,
      "amenity": "restaurant",
      "cuisine": "pizza",
      "addr_city": "York",
      "addr_postcode": "17403",
      "addr_street": "Springwood Road",
      "addr_housenumber": "2073",
      "value": 178.54791325132098
    },
    {
      "id": 172473,
      "geometry": "POINT (-76.682211 39.932986)",
      "poi_name": "My Sweet Cup",
      "osm_id": 2404202510,
      "amenity": "restaurant",
      "cuisine": "ice_cream",
      "addr_city": "York",
      "addr_postcode": "17402",
      "addr_street": "Pauline Drive",
      "addr_housenumber": "231",
      "value": 178.54791325132098
    },
    {
      "id": 172904,
      "geometry": "POINT (-76.683044 39.932572)",
      "poi_name": "Valentino's Italian Restaurant",
      "osm_id": 2419077037,
      "amenity": "restaurant",
      "cuisine": "italian",
      "addr_city": "York",
      "addr_postcode": "17402",
      "addr_street": "Pauline Drive",
      "addr_housenumber": "205",
      "value": 178.54791325132098
    },
    {
      "id": 173075,
      "geometry": "POINT (-76.682007 39.912186)",
      "poi_name": "Tapenade Bistro",
      "osm_id": 2424316202,
      "amenity": "restaurant",
      "cuisine": "american",
      "addr_city": "York",
      "addr_postcode": "17403",
      "addr_street": "South Queen Street",
      "addr_housenumber": "2509",
      "value": 178.54791325132098
    },
    {
      "id": 173076,
      "geometry": "POINT (-76.681022 39.911945)",
      "poi_name": "Corner Stable",
      "osm_id": 2424316207,
      "amenity": "restaurant",
      "cuisine": "american",
      "addr_city": "York",
      "addr_postcode": "17402",
      "addr_street": "South Queen Street",
      "addr_housenumber": "2575",
      "value": 178.54791325132098
    },
    {
      "id": 174182,
      "geometry": "POINT (-76.703342 40.06269)",
      "poi_name": "Marcello's Pizza",
      "osm_id": 2469325032,
      "amenity": "restaurant",
      "cuisine": "pizza",
      "addr_city": "Mount Wolf",
      "addr_postcode": "17347",
      "addr_street": "Center Street",
      "addr_housenumber": "467",
      "value": 178.54791325132098
    },
    {
      "id": 175286,
      "geometry": "POINT (-76.65435 39.90625)",
      "poi_name": "Glad Crab",
      "osm_id": 2512193680,
      "amenity": "restaurant",
      "cuisine": "seafood",
      "opening_hours": "10:00-01:45",
      "website": "http://gladcrab.ypaconsulting.com/",
      "phone": "+1-717-244-763",
      "addr_state": "PA",
      "addr_city": "Dallastown",
      "addr_postcode": "17313",
      "addr_street": "South Queen Street",
      "addr_housenumber": "3086",
      "value": 178.54791325132098
    },
    {
      "id": 175386,
      "geometry": "POINT (-76.678164 39.973586)",
      "poi_name": "Mexitaly",
      "osm_id": 2518166466,
      "amenity": "restaurant",
      "cuisine": "fusion",
      "phone": "+1-717-600-8226",
      "addr_city": "York",
      "addr_postcode": "17402",
      "addr_street": "East Market Street",
      "addr_housenumber": "2440",
      "value": 178.54791325132098
    },
    {
      "id": 175663,
      "geometry": "POINT (-76.704913 39.941719)",
      "poi_name": "Vito's Pizza & Beer",
      "osm_id": 2531550690,
      "amenity": "restaurant",
      "cuisine": "pizza",
      "addr_city": "York",
      "addr_postcode": "17402",
      "addr_street": "South Queen Street",
      "addr_housenumber": "1734",
      "value": 178.54791325132098
    },
    {
      "id": 177119,
      "geometry": "POINT (-76.702882 39.86307)",
      "poi_name": "Mamma's Pizza",
      "osm_id": 2574552039,
      "amenity": "restaurant",
      "cuisine": "pizza",
      "opening_hours": "Mo-Sa 11:00-16:00 open \"lunch (counter service) only\",Mo-Sa 16:00-22:00; Su 12:00-22:00",
      "website": "https://mammaspizzaofloganville.com/",
      "phone": "+1-717-428-3026",
      "addr_city": "Loganville",
      "addr_postcode": "17342",
      "addr_street": "North Main Street",
      "addr_housenumber": "215",
      "value": 178.54791325132098
    },
    {
      "id": 177896,
      "geometry": "POINT (-76.669626 39.983192)",
      "poi_name": "The Deli of Italy",
      "osm_id": 2610107943,
      "amenity": "restaurant",
      "cuisine": "italian",
      "website": "http://deliofitaly.co",
      "addr_city": "York",
      "addr_postcode": "17402",
      "addr_street": "Concord Road",
      "addr_housenumber": "2809",
      "value": 178.54791325132098
    },
    {
      "id": 177387,
      "geometry": "POINT (-76.623464 39.894877)",
      "poi_name": "Great American Saloon",
      "osm_id": 2588138004,
      "amenity": "restaurant",
      "cuisine": "american",
      "phone": "+1-717-246-9548",
      "addr_city": "Red Lion",
      "addr_postcode": "17356",
      "addr_street": "Dairyland Square",
      "addr_housenumber": "20",
      "value": 178.54791325132098
    },
    {
      "id": 177388,
      "geometry": "POINT (-76.623392 39.895096)",
      "poi_name": "Lion's Pride Restaurant",
      "osm_id": 2588138005,
      "amenity": "restaurant",
      "cuisine": "burger",
      "addr_city": "Red Lion",
      "addr_postcode": "17356",
      "addr_street": "Dairyland Square",
      "addr_housenumber": "20",
      "value": 178.54791325132098
    },
    {
      "id": 177360,
      "geometry": "POINT (-76.752765 39.939792)",
      "poi_name": "Glen Grille",
      "osm_id": 2586286038,
      "amenity": "restaurant",
      "value": 178.54791325132098
    },
    {
      "id": 185063,
      "geometry": "POINT (-76.763313 39.95345)",
      "poi_name": "Lattuca's",
      "osm_id": 7830767643,
      "amenity": "restaurant",
      "cuisine": "pizza",
      "opening_hours": "Mo-Th 11:00-21:00; Fr-Sa 11:00-22:00; Su 16:00-21:00; Mo closed \"Until after Labor Day 2020\"",
      "takeaway": "yes",
      "outdoor_seating": "yes",
      "toilets": "yes",
      "value": 178.54791325132098
    },
    {
      "id": 198916,
      "geometry": "POINT (-76.598665 40.172677)",
      "poi_name": "T.J. Rockwell's",
      "osm_id": 924475630,
      "amenity": "restaurant",
      "website": "https://www.tjrockwells.com/",
      "phone": "717-367-5544",
      "addr_city": "Elizabethtown",
      "addr_street": "Mount Gretna Road",
      "addr_housenumber": "800",
      "value": 178.54791325132098
    },
    {
      "id": 191837,
      "geometry": "POINT (-76.467635 39.866501)",
      "poi_name": "Roma's Pizza",
      "osm_id": 1399407746,
      "amenity": "restaurant",
      "addr_street": "Delta Rd",
      "value": 178.54791325132098
    },
    {
      "id": 191838,
      "geometry": "POINT (-76.464605 39.864246)",
      "poi_name": "Tresa's Pizza",
      "osm_id": 1399408087,
      "amenity": "restaurant",
      "addr_street": "Delta Rd",
      "value": 178.54791325132098
    },
    {
      "id": 191839,
      "geometry": "POINT (-76.456066 39.858371)",
      "poi_name": "Collinsville Drive In",
      "osm_id": 1399408727,
      "amenity": "restaurant",
      "addr_street": "Delta Rd",
      "value": 178.54791325132098
    },
    {
      "id": 207625,
      "geometry": "POINT (-76.661759 40.089208)",
      "poi_name": "Little Italy",
      "osm_id": 4954926333,
      "amenity": "restaurant",
      "cuisine": "italian",
      "addr_street": "River Road",
      "value": 178.54791325132098
    },
    {
      "id": 199232,
      "geometry": "POINT (-76.523209 39.96983)",
      "poi_name": "Pizzatown USA",
      "osm_id": 946401204,
      "amenity": "restaurant",
      "value": 178.54791325132098
    },
    {
      "id": 202255,
      "geometry": "POINT (-76.653578 39.981876)",
      "poi_name": "Marino\u2019s Pizza & Pasta",
      "osm_id": 7015447886,
      "amenity": "restaurant",
      "cuisine": "italian",
      "addr_postcode": "17402",
      "addr_street": "East Market Street",
      "addr_housenumber": "3595",
      "value": 178.54791325132098
    },
    {
      "id": 233934,
      "geometry": "POINT (-76.569165 40.061367)",
      "poi_name": "Marco's Restaurant & Pizzeria",
      "osm_id": 4592581898,
      "amenity": "restaurant",
      "cuisine": "italian;pizza",
      "website": "https://marcos-pizza.net/",
      "phone": "717-426-2210",
      "outdoor_seating": "no",
      "addr_state": "PA",
      "addr_city": "Marietta",
      "addr_postcode": "17547",
      "addr_street": "River Road",
      "addr_housenumber": "1410",
      "value": 178.54791325132098
    },
    {
      "id": 228426,
      "geometry": "POINT (-76.615913 40.00181)",
      "poi_name": "Hellamshire",
      "osm_id": 4343456915,
      "amenity": "restaurant",
      "cuisine": "diner",
      "value": 178.54791325132098
    },
    {
      "id": 231787,
      "geometry": "POINT (-76.728286 39.963064)",
      "poi_name": "Neama's Egyptian Food",
      "osm_id": 4487534343,
      "amenity": "restaurant",
      "value": 178.54791325132098
    },
    {
      "id": 229342,
      "geometry": "POINT (-76.609779 40.003719)",
      "poi_name": "Jim and Nena's Pizzeria Hallam",
      "osm_id": 4377981267,
      "amenity": "restaurant",
      "opening_hours": "Mo-Sa 11:00-22:00; Su 16:00-21:00",
      "takeaway": "yes",
      "delivery": "yes",
      "addr_state": "PA",
      "addr_city": "Hallam",
      "addr_postcode": "17406",
      "addr_street": "West Market Street",
      "addr_housenumber": "299",
      "value": 178.54791325132098
    },
    {
      "id": 229967,
      "geometry": "POINT (-76.681994 39.933051)",
      "poi_name": "Isaac's Famous Grilled Sandwiches",
      "osm_id": 4408445438,
      "amenity": "restaurant",
      "cuisine": "sandwich",
      "value": 178.54791325132098
    },
    {
      "id": 229968,
      "geometry": "POINT (-76.699798 39.910055)",
      "poi_name": "First Wok",
      "osm_id": 4408453151,
      "amenity": "restaurant",
      "cuisine": "chinese",
      "wheelchair": "limited",
      "opening_hours": "Mo-Th 11:00-21:30, Fr 11:00-22:00, Sa 11:30-22:00, Su 11:30-21:30",
      "value": 178.54791325132098
    },
    {
      "id": 236260,
      "geometry": "POINT (-76.692042 39.934924)",
      "poi_name": "Noodles & Company",
      "osm_id": 5787626404,
      "amenity": "restaurant",
      "cuisine": "pasta",
      "opening_hours": "Su-We 11:00-21:00; Th-Sa 11:00-22:00",
      "phone": "+1-717-699-2220",
      "addr_state": "PA",
      "addr_city": "York",
      "addr_postcode": "17403",
      "addr_street": "South Queen Street",
      "addr_housenumber": "2108",
      "value": 178.54791325132098
    },
    {
      "id": 236478,
      "geometry": "POINT (-76.709846 39.843474)",
      "poi_name": "Brown Bean Cafe",
      "osm_id": 5794536321,
      "amenity": "restaurant",
      "value": 178.54791325132098
    }
  ],
  "answer_type": "name",
  "question_entities": {
    "[2]": {
      "distance": 50000,
      "text": "50 kilometers"
    },
    "[3]": {
      "main_category": "tourism",
      "sub_category": "theme park",
      "display_name": "Adventure Sports in Hershey, Hershey, PA",
      "geo_wkt": "POINT (-76.62265 40.236123)",
      "poi": {
        "id": 18427,
        "geometry": "POINT (-76.62265 40.236123)",
        "poi_name": "Adventure Sports in Hershey",
        "osm_id": 2295840835,
        "tourism": "theme_park",
        "website": "https://www.adventurehershey.com/",
        "phone": "717.533.7479",
        "addr_state": "PA",
        "addr_city": "Hershey",
        "addr_postcode": "17033",
        "addr_street": "Elizabethtown Road",
        "addr_housenumber": "3010"
      }
    },
    "[4]": {
      "main_category": "tourism",
      "sub_category": "gallery",
      "display_name": "Rosenberg Gallery, MD",
      "geo_wkt": "POINT (-76.595613 39.408752)",
      "poi": {
        "id": 17459,
        "geometry": "POINT (-76.595613 39.408752)",
        "poi_name": "Rosenberg Gallery",
        "osm_id": 367796198,
        "tourism": "gallery",
        "addr_state": "MD"
      }
    },
    "[1]": {
      "main_category": "amenity",
      "sub_category": "restaurant"
    }
  },
  "id": 1675,
  "type": "range:towards+name"
}