{
  "question": "Could you track down a steak house that is conveniently situated within 180 kilometers from Pontiac Hotel, San Francisco, CA?",
  "sql": "SELECT * FROM pois\nWHERE ST_DWithin(pois.geometry, ST_GeomFromText('POINT (-122.408349 37.780362)',4326)::geography, 180000)\nAND amenity = 'restaurant'\nAND cuisine ILIKE '%steak_house%';\n",
  "answers": [
    {
      "id": 28383,
      "geometry": "POINT (-122.422534 37.806159)",
      "poi_name": "McCormick & Kuleto's",
      "osm_id": 477129154,
      "amenity": "restaurant",
      "cuisine": "seafood;steak_house;pasta",
      "opening_hours": "Su 11:30-21:00; Mo-Th 15:30-21:00; Fr-Sa 11:30-22:00",
      "website": "https://www.mccormickandschmicks.com/location/mccormick-kuletos-san-francisco-ca/",
      "phone": "+1 415 929 1730",
      "outdoor_seating": "no",
      "addr_state": "CA",
      "addr_city": "San Francisco",
      "addr_postcode": "94109",
      "addr_street": "North Point Street",
      "addr_housenumber": "900"
    },
    {
      "id": 38272,
      "geometry": "POINT (-122.14943 39.153928)",
      "poi_name": "Louis Cairo's",
      "osm_id": 2853878952,
      "amenity": "restaurant",
      "cuisine": "steak_house",
      "takeaway": "yes",
      "outdoor_seating": "yes",
      "delivery": "no",
      "addr_city": "Williams"
    },
    {
      "id": 46297,
      "geometry": "POINT (-121.969473 37.404358)",
      "poi_name": "Bourbon Steak & Pub",
      "osm_id": 3257678728,
      "amenity": "restaurant",
      "cuisine": "steak_house;pub;bar&grill",
      "description": "Inside Levi's stadium"
    },
    {
      "id": 48223,
      "geometry": "POINT (-121.175412 38.678506)",
      "poi_name": "Sutter Street Steakhouse",
      "osm_id": 3371832117,
      "amenity": "restaurant",
      "cuisine": "steak_house",
      "opening_hours": "Mo closed; Tu-Th 16:30-21:00; Fr-Sa 16:30-22:00; Su 16:30-21:00"
    },
    {
      "id": 58221,
      "geometry": "POINT (-121.953366 37.416749)",
      "poi_name": "Rok Steakhouse and Grill",
      "osm_id": 5368467505,
      "amenity": "restaurant",
      "cuisine": "steak_house",
      "wheelchair": "yes",
      "opening_hours": "Mo-Su 11:00-21:00; Fr 11:00-22:00",
      "website": "https://www.roksteakhouse.com/",
      "outdoor_seating": "yes",
      "toilets": "yes",
      "addr_state": "CA",
      "addr_city": "San Jose",
      "addr_postcode": "95134",
      "addr_street": "North 1st Street",
      "addr_housenumber": "4130"
    },
    {
      "id": 74071,
      "geometry": "POINT (-121.996755 37.811939)",
      "poi_name": "Forbes Mill Steakhouse",
      "osm_id": 9665176753,
      "amenity": "restaurant",
      "cuisine": "steak_house",
      "addr_street": "Sycamore Valley Road",
      "addr_housenumber": "200"
    },
    {
      "id": 63303,
      "geometry": "POINT (-122.408778 37.788366)",
      "poi_name": "Morton's The Steakhouse",
      "osm_id": 5608474721,
      "amenity": "restaurant",
      "cuisine": "steak_house",
      "opening_hours": "Mo-Su 16:00-20:00+"
    },
    {
      "id": 65826,
      "geometry": "POINT (-121.329333 38.661028)",
      "poi_name": "Sizzler",
      "osm_id": 5714427183,
      "amenity": "restaurant",
      "cuisine": "steak_house",
      "website": "https://sizzler.com/locations/sizzler-madison-ave/"
    },
    {
      "id": 68970,
      "geometry": "POINT (-122.425724 37.801355)",
      "poi_name": "Bobo\u2019s",
      "osm_id": 11289957766,
      "amenity": "restaurant",
      "cuisine": "steak_house;seafood"
    },
    {
      "id": 74101,
      "geometry": "POINT (-122.403714 37.796486)",
      "poi_name": "Roka Akor",
      "osm_id": 9667113769,
      "amenity": "restaurant",
      "cuisine": "japanese;sushi;steak_house",
      "wheelchair": "yes",
      "website": "https://www.rokaakor.com/san-francisco/",
      "phone": "+1 415 362 8887"
    },
    {
      "id": 77170,
      "geometry": "POINT (-121.977325 37.381943)",
      "poi_name": "Fleming's",
      "osm_id": 9809848185,
      "amenity": "restaurant",
      "cuisine": "steak_house",
      "addr_state": "CA",
      "addr_city": "Santa Clara",
      "addr_postcode": "95050",
      "addr_street": "Augustine Drive",
      "addr_housenumber": "2762"
    },
    {
      "id": 82586,
      "geometry": "POINT (-121.124646 38.65649)",
      "poi_name": "Land Ocean",
      "osm_id": 1704696544,
      "amenity": "restaurant",
      "cuisine": "steak_house"
    },
    {
      "id": 86134,
      "geometry": "POINT (-121.968923 38.521645)",
      "poi_name": "Buckhorn Steakhouse",
      "osm_id": 1919078193,
      "amenity": "restaurant",
      "cuisine": "steak_house",
      "website": "https://www.buckhornsteakhouse.com/",
      "phone": "+1 530-795-4503",
      "takeaway": "yes",
      "outdoor_seating": "yes"
    },
    {
      "id": 83298,
      "geometry": "POINT (-121.269833 38.678801)",
      "poi_name": "Black Angus",
      "osm_id": 1737788562,
      "amenity": "restaurant",
      "cuisine": "steak_house"
    },
    {
      "id": 85243,
      "geometry": "POINT (-121.98823 37.213807)",
      "poi_name": "The Cats",
      "osm_id": 1851158658,
      "amenity": "restaurant",
      "cuisine": "steak_house"
    },
    {
      "id": 99271,
      "geometry": "POINT (-122.286101 38.30022)",
      "poi_name": "Cole's Chop House",
      "osm_id": 6546306978,
      "amenity": "restaurant",
      "cuisine": "steak_house",
      "website": "https://www.coleschophouse.com/",
      "addr_postcode": "94559",
      "addr_street": "Main Street",
      "addr_housenumber": "1122"
    },
    {
      "id": 88019,
      "geometry": "POINT (-122.40964 37.787064)",
      "poi_name": "Mastro's Steakhouse",
      "osm_id": 8758527004,
      "amenity": "restaurant",
      "cuisine": "steak_house",
      "opening_hours": "Su-Th 17:00-21:00; Fr-Sa 17:00-22:00",
      "website": "https://www.mastrosrestaurants.com/location/mastros-steakhouse-san-francisco",
      "phone": "+1 415-363-9539",
      "addr_state": "CA",
      "addr_city": "San Francisco",
      "addr_postcode": "94102",
      "addr_street": "Geary Street",
      "addr_housenumber": "399"
    },
    {
      "id": 88470,
      "geometry": "POINT (-121.517878 36.57025)",
      "poi_name": "Georgie's Steakhouse",
      "osm_id": 8784734132,
      "amenity": "restaurant",
      "cuisine": "steak_house"
    },
    {
      "id": 92728,
      "geometry": "POINT (-122.062829 37.897146)",
      "poi_name": "Fleming's",
      "osm_id": 2131764355,
      "amenity": "restaurant",
      "cuisine": "steak_house",
      "official_name": "Fleming's Prime Steakhouse & Wine Bar"
    },
    {
      "id": 92730,
      "geometry": "POINT (-122.061091 37.896033)",
      "poi_name": "Ruth's Chris Steak House",
      "osm_id": 2131764361,
      "amenity": "restaurant",
      "cuisine": "american;steak_house"
    },
    {
      "id": 92733,
      "geometry": "POINT (-122.063183 37.89921)",
      "poi_name": "Galpao Gaucho Brazilian Steakhouse",
      "osm_id": 2131769448,
      "amenity": "restaurant",
      "cuisine": "brazilian;steak_house",
      "addr_street": "North California Boulevard",
      "addr_housenumber": "1444"
    },
    {
      "id": 92740,
      "geometry": "POINT (-122.465489 37.740855)",
      "poi_name": "BullsHead Restaurant",
      "osm_id": 2131859543,
      "amenity": "restaurant",
      "cuisine": "steak_house;american",
      "description": "Steakhouse plus butcher shop",
      "opening_hours": "Mo,Tu 11:00-21:30; Su 11:00-21:00; We-Sa 11:00-22:00",
      "website": "https://www.bullsheadsf.com/",
      "shop": "butcher",
      "phone": "+1-415-665-4350",
      "takeaway": "yes"
    },
    {
      "id": 93914,
      "geometry": "POINT (-121.94759 37.323035)",
      "poi_name": "Yard House San Jose",
      "osm_id": 2192745275,
      "amenity": "restaurant",
      "cuisine": "steak_house",
      "addr_city": "San Jose",
      "addr_postcode": "95128",
      "addr_street": "Santana Row",
      "addr_housenumber": "300"
    },
    {
      "id": 88253,
      "geometry": "POINT (-121.442536 36.505262)",
      "poi_name": "Carlitos Steakhouse",
      "osm_id": 8775509974,
      "amenity": "restaurant",
      "cuisine": "steak_house"
    },
    {
      "id": 92130,
      "geometry": "POINT (-121.81657 37.699338)",
      "poi_name": "Cattleman's",
      "osm_id": 2104803488,
      "amenity": "restaurant",
      "cuisine": "steak_house"
    },
    {
      "id": 112977,
      "geometry": "POINT (-122.019288 37.322578)",
      "poi_name": "Galpao Gaucho Brazilian Steakhouse",
      "osm_id": 3812900208,
      "amenity": "restaurant",
      "cuisine": "steak_house",
      "addr_postcode": "95014-2456",
      "addr_street": "Stevens Creek Boulevard",
      "addr_housenumber": "19780"
    },
    {
      "id": 106047,
      "geometry": "POINT (-122.403501 37.769696)",
      "poi_name": "Niku",
      "osm_id": 8660767270,
      "amenity": "restaurant",
      "cuisine": "steak_house",
      "addr_street": "Division Street",
      "addr_housenumber": "61"
    },
    {
      "id": 111328,
      "geometry": "POINT (-121.949734 37.320349)",
      "poi_name": "Fogo de Ch\u00e3o",
      "osm_id": 3742044276,
      "amenity": "restaurant",
      "cuisine": "brazilian;steak_house",
      "operator": "Fogo De Chao LCC",
      "website": "http://www.fogodechao.com/locations/sanjose/",
      "addr_state": "CA",
      "addr_city": "San Jose",
      "addr_postcode": "95128",
      "addr_street": "Santana Row",
      "addr_housenumber": "377"
    },
    {
      "id": 101638,
      "geometry": "POINT (-120.422463 37.954206)",
      "poi_name": "Willow Steakhouse and",
      "osm_id": 6636016786,
      "amenity": "restaurant",
      "cuisine": "steak_house",
      "website": "https://www.thewillowsteakhouse.com/"
    },
    {
      "id": 115250,
      "geometry": "POINT (-121.959145 37.762638)",
      "poi_name": "LB Steak",
      "osm_id": 8883337542,
      "amenity": "restaurant",
      "cuisine": "steak_house",
      "opening_hours": "Mo-Th 16:00-21:00; Fr-Sa 16:00-22:00; Su 16:00-21:00"
    },
    {
      "id": 147602,
      "geometry": "POINT (-122.092393 37.089678)",
      "poi_name": "Aroma",
      "osm_id": 7549859839,
      "amenity": "restaurant",
      "cuisine": "steak_house",
      "website": "https://aromarestaurant831.com/",
      "phone": "+1-831-609-6596",
      "outdoor_seating": "yes",
      "addr_city": "Ben Lomond",
      "addr_postcode": "95005",
      "addr_street": "Highway 9",
      "addr_housenumber": "9600"
    },
    {
      "id": 121468,
      "geometry": "POINT (-122.287957 38.298393)",
      "poi_name": "Charles Palmer Steak",
      "osm_id": 6762934313,
      "amenity": "restaurant",
      "cuisine": "steak_house"
    },
    {
      "id": 121473,
      "geometry": "POINT (-122.487345 37.613364)",
      "poi_name": "Ash's Vallemar Station",
      "osm_id": 6763077122,
      "amenity": "restaurant",
      "cuisine": "steak_house",
      "opening_hours": "Mo-Th 11:30-23:00; Fr 11:30-24:00; Sa 00:00-01:00,09:30-24:00; Su 09:30-23:00",
      "website": "https://www.vallemarstation.com/",
      "phone": "+1-650-359-7411"
    },
    {
      "id": 132404,
      "geometry": "POINT (-122.509065 37.873664)",
      "poi_name": "Show de Carnes Brazilian Steakhouse",
      "osm_id": 9953402605,
      "amenity": "restaurant",
      "cuisine": "steak_house;brazilian",
      "addr_state": "CA",
      "addr_city": "Sausalito",
      "addr_postcode": "94965",
      "addr_street": "Donahue Street",
      "addr_housenumber": "196"
    },
    {
      "id": 132215,
      "geometry": "POINT (-121.975869 37.775154)",
      "poi_name": "Gaucho Brazilian Steakhouse",
      "osm_id": 9946559517,
      "amenity": "restaurant",
      "cuisine": "steak_house",
      "website": "https://www.gauchonight.com",
      "phone": "+19255606556"
    },
    {
      "id": 140774,
      "geometry": "POINT (-122.027275 36.973157)",
      "poi_name": "Alderwood",
      "osm_id": 6260271466,
      "amenity": "restaurant",
      "cuisine": "steak_house"
    },
    {
      "id": 166988,
      "geometry": "POINT (-123.228148 39.261314)",
      "poi_name": "Broiler Steakhouse",
      "osm_id": 323028708,
      "amenity": "restaurant",
      "cuisine": "steak_house"
    },
    {
      "id": 162380,
      "geometry": "POINT (-122.11006 37.652096)",
      "poi_name": "Sizzler",
      "osm_id": 4929114422,
      "amenity": "restaurant",
      "cuisine": "steak_house",
      "website": "https://sizzler.com/locations/sizzler-hayward/"
    },
    {
      "id": 162867,
      "geometry": "POINT (-121.808435 37.313557)",
      "poi_name": "Sizzler",
      "osm_id": 9387092479,
      "amenity": "restaurant",
      "cuisine": "steak_house",
      "website": "https://sizzler.com/locations/sizzler-san-jose/",
      "addr_state": "CA",
      "addr_city": "San Jose",
      "addr_postcode": "95121",
      "addr_street": "Aborn Square",
      "addr_housenumber": "2910"
    },
    {
      "id": 165339,
      "geometry": "POINT (-122.400256 37.785033)",
      "poi_name": "Fogo de Ch\u00e3o",
      "osm_id": 9528990699,
      "amenity": "restaurant",
      "cuisine": "brazilian;steak_house",
      "opening_hours": "Mo-Fr 10:30-14:00 open \"Lunch\", Mo-Th 16:30-22:00 open \"Dinner\", Fr 16:30-22:30 open \"Dinner\", Sa 14:00-22:30 open \"Dinner\", Su 14:00-21:00 open \"Dinner\", Sa-Su 11:30-14:00 open \"Brunch\"",
      "website": "https://fogodechao.com/location/san-francisco/",
      "phone": "+1 415 4270004",
      "addr_state": "CA",
      "addr_city": "San Francisco",
      "addr_street": "3rd Street",
      "addr_housenumber": "201"
    },
    {
      "id": 195628,
      "geometry": "POINT (-121.933538 37.289011)",
      "poi_name": "Kyoto Palace Japenese Steakhouse",
      "osm_id": 10313799594,
      "amenity": "restaurant",
      "cuisine": "japanese;steak_house",
      "website": "https://kyotopalace.com/",
      "phone": "+1-408-377-6456",
      "addr_state": "CA",
      "addr_city": "Campbell",
      "addr_postcode": "95008",
      "addr_street": "South Bascom Avenue",
      "addr_housenumber": "1875"
    },
    {
      "id": 173463,
      "geometry": "POINT (-121.882581 37.70274)",
      "poi_name": "Black Angus",
      "osm_id": 2440016675,
      "amenity": "restaurant",
      "cuisine": "steak_house"
    },
    {
      "id": 191953,
      "geometry": "POINT (-121.499034 38.578466)",
      "poi_name": "Morton's The Steakhouse",
      "osm_id": 1408668926,
      "amenity": "restaurant",
      "cuisine": "steak_house"
    },
    {
      "id": 180114,
      "geometry": "POINT (-121.944476 37.286927)",
      "poi_name": "Willard Hicks",
      "osm_id": 10791093774,
      "amenity": "restaurant",
      "cuisine": "steak_house",
      "addr_state": "CA",
      "addr_city": "Campbell",
      "addr_postcode": "95008",
      "addr_street": "East Campbell Avenue",
      "addr_housenumber": "280"
    },
    {
      "id": 216392,
      "geometry": "POINT (-121.217505 38.628862)",
      "poi_name": "Rudy's Hideaway Lobster House",
      "osm_id": 9170192696,
      "amenity": "restaurant",
      "cuisine": "seafood;steak_house;bar&grill"
    },
    {
      "id": 203129,
      "geometry": "POINT (-121.651884 37.127645)",
      "poi_name": "Trail Dust",
      "osm_id": 7064889337,
      "amenity": "restaurant",
      "cuisine": "steak_house"
    },
    {
      "id": 204585,
      "geometry": "POINT (-121.272016 38.680564)",
      "poi_name": "Texas Roadhouse",
      "osm_id": 7132373073,
      "amenity": "restaurant",
      "cuisine": "steak_house"
    },
    {
      "id": 221567,
      "geometry": "POINT (-122.393198 37.602204)",
      "poi_name": "Sixteen Mile House",
      "osm_id": 10981827514,
      "amenity": "restaurant",
      "cuisine": "steak_house;seafood",
      "outdoor_seating": "yes",
      "addr_street": "Broadway",
      "addr_housenumber": "448"
    },
    {
      "id": 219187,
      "geometry": "POINT (-121.825918 37.382051)",
      "poi_name": "The Drying Shed",
      "osm_id": 9316634541,
      "amenity": "restaurant",
      "cuisine": "steak_house",
      "operator": "Emerald Green Corporation",
      "addr_state": "CA",
      "addr_city": "San Jose",
      "addr_postcode": "95127",
      "addr_street": "Toyon Avenue",
      "addr_housenumber": "402"
    },
    {
      "id": 223009,
      "geometry": "POINT (-122.403614 37.792245)",
      "poi_name": "The Vault Steakhouse",
      "osm_id": 11043335424,
      "amenity": "restaurant",
      "cuisine": "steak_house",
      "opening_hours": "Tu-Sa 16:00-21:00",
      "website": "https://www.vaultsteakhouse.com/",
      "phone": "+1 415-508-4675",
      "addr_state": "CA",
      "addr_city": "San Francisco",
      "addr_postcode": "94104",
      "addr_street": "California Street",
      "addr_housenumber": "555"
    },
    {
      "id": 237672,
      "geometry": "POINT (-122.459785 38.291934)",
      "poi_name": "Sonoma Grille",
      "osm_id": 5842702386,
      "amenity": "restaurant",
      "cuisine": "steak_house;seafood;barbecue;grill",
      "wikidata": "Q64965656"
    },
    {
      "id": 223092,
      "geometry": "POINT (-122.403779 37.791545)",
      "poi_name": "Latin Steak House",
      "osm_id": 11046934817,
      "amenity": "restaurant",
      "cuisine": "steak_house",
      "opening_hours": "Mo-Th 11:30-22:00; Fr 11:30-01:30; Sa 17:00-01:30",
      "website": "https://www.latinsteakhousesf.com/",
      "phone": "+1 415-874-9966",
      "addr_state": "CA",
      "addr_city": "San Francisco",
      "addr_postcode": "94104",
      "addr_street": "Belden Place",
      "addr_housenumber": "56"
    },
    {
      "id": 233814,
      "geometry": "POINT (-122.30312 38.321835)",
      "poi_name": "Sizzler",
      "osm_id": 4588462312,
      "amenity": "restaurant",
      "cuisine": "steak_house"
    }
  ],
  "answer_type": "name",
  "question_entities": {
    "[1]": {
      "main_category": "amenity",
      "sub_category": "restaurant",
      "poi_filter_desc": "steak house",
      "poi_filter_sql": "cuisine ILIKE '%steak_house%'"
    },
    "[2]": {
      "distance": 180000,
      "text": "180 kilometers"
    },
    "[3]": {
      "main_category": "tourism",
      "sub_category": "hotel",
      "display_name": "Pontiac Hotel, San Francisco, CA",
      "geo_wkt": "POINT (-122.408349 37.780362)",
      "poi": {
        "id": 2335,
        "geometry": "POINT (-122.408349 37.780362)",
        "poi_name": "Pontiac Hotel",
        "osm_id": 3399173220,
        "tourism": "hotel",
        "addr_state": "CA",
        "addr_city": "San Francisco",
        "addr_postcode": "94103",
        "addr_street": "Minna Street",
        "addr_housenumber": "509"
      }
    }
  },
  "id": 549,
  "type": "range:non_spat_filter+name"
}