{
  "question": "Can you find me a restaurant with outdoor seating within 120 kilometers from Broadbent Arena, Louisville, KY?",
  "sql": "SELECT * FROM pois\nWHERE ST_DWithin(pois.geometry, ST_GeomFromText('POINT (-85.745629 38.200638)',4326)::geography, 120000)\nAND amenity = 'restaurant'\nAND outdoor_seating ILIKE '%yes%';\n",
  "answers": [
    {
      "id": 44488,
      "geometry": "POINT (-84.52481 37.995101)",
      "poi_name": "The Bronte Bistro",
      "osm_id": 3160526909,
      "amenity": "restaurant",
      "cuisine": "regional;american",
      "opening_hours": "Mo-Th 10:00-21:00, Fr-Sa 10:00-22:00, Su 10:00-18:00",
      "outdoor_seating": "yes"
    },
    {
      "id": 48073,
      "geometry": "POINT (-85.694655 38.254341)",
      "poi_name": "Parlour",
      "osm_id": 3364290673,
      "amenity": "restaurant",
      "cuisine": "pizza",
      "opening_hours": "Su 11:00-22:00; Mo-We 15:00-22:00; Th-Sa 11:00-23:00",
      "website": "https://eatparlourpizza.com/",
      "phone": "+1 502-895-9400",
      "takeaway": "yes",
      "outdoor_seating": "yes",
      "toilets": "yes",
      "addr_state": "KY",
      "addr_city": "Louisville",
      "addr_postcode": "40206",
      "addr_street": "Frankfort Avenue",
      "addr_housenumber": "2636"
    },
    {
      "id": 48076,
      "geometry": "POINT (-85.693293 38.254525)",
      "poi_name": "Caspian Grill",
      "osm_id": 3364290692,
      "amenity": "restaurant",
      "cuisine": "mediterranean;persian",
      "website": "http://louisvillecaspiangrill.com/",
      "phone": "+1 502-290-6050",
      "takeaway": "yes",
      "outdoor_seating": "yes",
      "addr_state": "KY",
      "addr_city": "Louisville",
      "addr_postcode": "40206",
      "addr_street": "Frankfort Avenue",
      "addr_housenumber": "2716"
    },
    {
      "id": 49676,
      "geometry": "POINT (-85.571848 38.263398)",
      "poi_name": "El Rio Grande Mexican Restaurant",
      "osm_id": 3445815407,
      "amenity": "restaurant",
      "cuisine": "mexican",
      "opening_hours": "Mo-Th 11:00-22:00; Fr-Sa 11:00-23:00; Su 11:00-21:00",
      "website": "http://www.mexicanrestaurantlouisville.com/",
      "phone": "+1-502-632-2403",
      "outdoor_seating": "yes",
      "delivery": "no",
      "addr_state": "KY",
      "addr_city": "Louisville",
      "addr_postcode": "40223",
      "addr_street": "Forest Green Boulevard",
      "addr_housenumber": "10001"
    },
    {
      "id": 63595,
      "geometry": "POINT (-85.69499 38.254097)",
      "poi_name": "Red Hog",
      "osm_id": 5624467444,
      "amenity": "restaurant",
      "description": "Louisville's first whole animal butcher shop and restaurant",
      "opening_hours": "Tu-Sa 16:00-23:00",
      "website": "http://redhogartisanmeat.com",
      "phone": "5023840795",
      "outdoor_seating": "yes",
      "addr_street": "Frankfort Avenue",
      "addr_housenumber": "2622"
    },
    {
      "id": 64352,
      "geometry": "POINT (-85.701019 38.253433)",
      "poi_name": "Ramiro\u2019s Cantina",
      "osm_id": 5649559522,
      "amenity": "restaurant",
      "cuisine": "mexican",
      "opening_hours": "Mo-Fr 11:00-22:00; Sa-Su 11:00-23:00",
      "website": "https://ramiroscantina.com/",
      "phone": "+1 502 895 3333",
      "outdoor_seating": "yes",
      "addr_state": "KY",
      "addr_city": "Louisville",
      "addr_postcode": "40206",
      "addr_street": "Frankfort Avenue",
      "addr_housenumber": "2350"
    },
    {
      "id": 120798,
      "geometry": "POINT (-85.710499 38.222948)",
      "poi_name": "80/20 @ Kaelin's",
      "osm_id": 6724263273,
      "amenity": "restaurant",
      "cuisine": "burger",
      "opening_hours": "Mo-Th 11:00-22:00, Fr-Sa 11:00-23:00; Su 11:00-21:00",
      "website": "https://8020atkaelins.com",
      "phone": "1.502.200.8020",
      "outdoor_seating": "yes",
      "addr_postcode": "40205",
      "addr_street": "Newburg Road",
      "addr_housenumber": "1801"
    },
    {
      "id": 101920,
      "geometry": "POINT (-84.524582 37.995036)",
      "poi_name": "Palmers",
      "osm_id": 6649029783,
      "amenity": "restaurant",
      "cuisine": "american",
      "outdoor_seating": "yes"
    },
    {
      "id": 137953,
      "geometry": "POINT (-84.502396 38.031122)",
      "poi_name": "Fresh Food Company",
      "osm_id": 6124300947,
      "amenity": "restaurant",
      "opening_hours": "Su-Th 07:00-22:00, Fr 07:00-20:00, Sa 10:00-20:00",
      "takeaway": "yes",
      "outdoor_seating": "yes",
      "delivery": "no",
      "addr_state": "KY",
      "addr_city": "Lexington",
      "addr_postcode": "40506",
      "addr_street": "Hilltop Avenue",
      "addr_housenumber": "440"
    },
    {
      "id": 137955,
      "geometry": "POINT (-84.501771 38.031184)",
      "poi_name": "Aqua Sushi",
      "osm_id": 6124300949,
      "amenity": "restaurant",
      "cuisine": "sushi",
      "opening_hours": "Mo-Fr 11:00-20:00",
      "website": "https://uky.campusdish.com/LocationsAndMenus/AquaSushi",
      "takeaway": "yes",
      "outdoor_seating": "yes",
      "delivery": "no",
      "addr_state": "KY",
      "addr_city": "Lexington",
      "addr_postcode": "40508",
      "addr_street": "Hilltop Avenue",
      "addr_housenumber": "440"
    },
    {
      "id": 159420,
      "geometry": "POINT (-85.732827 38.254244)",
      "poi_name": "Pho Ba Luu",
      "osm_id": 4792216812,
      "amenity": "restaurant",
      "cuisine": "vietnamese",
      "opening_hours": "Mo-Th 11:00-15:00 \"lunch\", 17:00-21:00 \"dinner\"; Fr 11:00-15:00 \"lunch\", 17:00-22:00 \"dinner\"; Sa 17:00-22:00; Su closed",
      "takeaway": "yes",
      "outdoor_seating": "yes",
      "delivery": "no",
      "addr_street": "East Main Street",
      "addr_housenumber": "1019"
    },
    {
      "id": 139943,
      "geometry": "POINT (-84.498061 38.049805)",
      "poi_name": "Courtyard Deli",
      "osm_id": 6222899021,
      "amenity": "restaurant",
      "cuisine": "regional;sandwich;american;soup",
      "opening_hours": "Mo-Su 10:00-14:00",
      "capacity": "50",
      "takeaway": "yes",
      "outdoor_seating": "yes",
      "delivery": "yes",
      "addr_state": "KY",
      "addr_city": "Lexington",
      "addr_postcode": "40507",
      "addr_street": "Church Street",
      "addr_housenumber": "351"
    },
    {
      "id": 146610,
      "geometry": "POINT (-85.692461 38.254622)",
      "poi_name": "Porcini",
      "osm_id": 7461437484,
      "amenity": "restaurant",
      "cuisine": "italian",
      "wheelchair": "yes",
      "opening_hours": "Mo-Sa 17:30+",
      "website": "https://porcinilouisville.com/",
      "phone": "+1 502 894 8686",
      "outdoor_seating": "yes"
    },
    {
      "id": 242282,
      "geometry": "POINT (-85.736554 38.238554)",
      "poi_name": "Hammerheads",
      "osm_id": 6065597388,
      "amenity": "restaurant",
      "website": "http://louisvillehammerheads.com/",
      "takeaway": "yes",
      "outdoor_seating": "yes"
    },
    {
      "id": 242397,
      "geometry": "POINT (-85.568962 38.312498)",
      "poi_name": "Joy Luck",
      "osm_id": 6069185522,
      "amenity": "restaurant",
      "cuisine": "asian",
      "outdoor_seating": "yes"
    }
  ],
  "answer_type": "name",
  "question_entities": {
    "[1]": {
      "main_category": "amenity",
      "sub_category": "restaurant",
      "poi_filter_desc": "restaurant with outdoor seating",
      "poi_filter_sql": "outdoor_seating ILIKE '%yes%'"
    },
    "[2]": {
      "distance": 120000,
      "text": "120 kilometers"
    },
    "[3]": {
      "main_category": "leisure",
      "sub_category": "stadium",
      "display_name": "Broadbent Arena, Louisville, KY",
      "geo_wkt": "POINT (-85.745629 38.200638)",
      "poi": {
        "id": 245703,
        "geometry": "POINT (-85.745629 38.200638)",
        "poi_name": "Broadbent Arena",
        "osm_id": 3418007532,
        "leisure": "stadium",
        "wikidata": "Q4972040",
        "addr_state": "KY",
        "addr_city": "Louisville",
        "addr_postcode": "40209",
        "addr_street": "Broadbent Drive",
        "addr_housenumber": "3100"
      }
    }
  },
  "id": 596,
  "type": "range:non_spat_filter+name"
}