{
  "question": "What restaurant is located within 160 kilometers in the northwest direction of Bay Drive Park, Okee, WI?",
  "sql": "\nWITH origin AS  (SELECT ST_GeomFromText('POINT (-89.564374 43.366447)',4326)::geography AS geometry)\nSELECT * FROM pois, origin\nWHERE ST_DWithin(pois.geometry, ST_GeomFromText('POINT (-89.564374 43.366447)',4326)::geography, 160000)\nAND amenity = 'restaurant'\nAND degrees(ST_Azimuth(origin.geometry, pois.geometry)) BETWEEN 292.5 AND 337.5;\n",
  "answers": [
    {
      "id": 44533,
      "geometry": "POINT (-89.564374 43.366447)",
      "poi_name": "Hot Dog Avenue",
      "osm_id": 3163722236,
      "amenity": "restaurant",
      "cuisine": "fast_food"
    },
    {
      "id": 40617,
      "geometry": "POINT (-89.564374 43.366447)",
      "poi_name": "Coney Island Hot Dogs",
      "osm_id": 2974301915,
      "amenity": "restaurant",
      "cuisine": "american",
      "website": "https://www.coneyislandhotdog.com/",
      "addr_city": "West Salem",
      "addr_postcode": "54669",
      "addr_street": "Buol Road",
      "addr_housenumber": "83"
    },
    {
      "id": 51930,
      "geometry": "POINT (-89.564374 43.366447)",
      "poi_name": "Drugan's Supper Club",
      "osm_id": 566340531,
      "amenity": "restaurant"
    },
    {
      "id": 69951,
      "geometry": "POINT (-89.564374 43.366447)",
      "poi_name": "Cornucopia Room",
      "osm_id": 11338679806,
      "amenity": "restaurant"
    },
    {
      "id": 68494,
      "geometry": "POINT (-89.564374 43.366447)",
      "poi_name": "Hiawatha Clubhouse Restaurant",
      "osm_id": 11271854529,
      "amenity": "restaurant",
      "cuisine": "american",
      "website": "https://www.golfhiawatha.com/",
      "phone": "+16083725589",
      "addr_state": "WI",
      "addr_city": "Tomah",
      "addr_postcode": "54660",
      "addr_street": "Ellsworth Avenue",
      "addr_housenumber": "10229"
    },
    {
      "id": 79263,
      "geometry": "POINT (-89.564374 43.366447)",
      "poi_name": "Applebee's",
      "osm_id": 791953229,
      "amenity": "restaurant",
      "cuisine": "american",
      "official_name": "Applebee's Neighborhood Grill & Bar"
    },
    {
      "id": 79275,
      "geometry": "POINT (-89.564374 43.366447)",
      "poi_name": "Pizza Pub",
      "osm_id": 792161776,
      "amenity": "restaurant",
      "cuisine": "pizza"
    },
    {
      "id": 79276,
      "geometry": "POINT (-89.564374 43.366447)",
      "poi_name": "Mr. Pancake Restaurant",
      "osm_id": 792161789,
      "amenity": "restaurant"
    },
    {
      "id": 79277,
      "geometry": "POINT (-89.564374 43.366447)",
      "poi_name": "Howie's Resterant",
      "osm_id": 792181770,
      "amenity": "restaurant"
    },
    {
      "id": 79303,
      "geometry": "POINT (-89.564374 43.366447)",
      "poi_name": "Los Nopales Restaurant",
      "osm_id": 793826424,
      "amenity": "restaurant",
      "cuisine": "mexican"
    },
    {
      "id": 79257,
      "geometry": "POINT (-89.564374 43.366447)",
      "poi_name": "Brat House Grill",
      "osm_id": 790821728,
      "amenity": "restaurant"
    },
    {
      "id": 79258,
      "geometry": "POINT (-89.564374 43.366447)",
      "poi_name": "BJ's Resterant",
      "osm_id": 790824023,
      "amenity": "restaurant",
      "opening_hours": "07:00-12:00",
      "phone": "+1-608-254-6278"
    },
    {
      "id": 79307,
      "geometry": "POINT (-89.564374 43.366447)",
      "poi_name": "Four Star Resterant",
      "osm_id": 793839080,
      "amenity": "restaurant"
    },
    {
      "id": 79259,
      "geometry": "POINT (-89.564374 43.366447)",
      "poi_name": "Ponderosa Steakhouse",
      "osm_id": 790834603,
      "amenity": "restaurant",
      "cuisine": "american;steak;buffet"
    },
    {
      "id": 79261,
      "geometry": "POINT (-89.564374 43.366447)",
      "poi_name": "Paul Bunyon's Famous Restarant",
      "osm_id": 791819767,
      "amenity": "restaurant"
    },
    {
      "id": 79309,
      "geometry": "POINT (-89.564374 43.366447)",
      "poi_name": "Log Cabin Family Resterant",
      "osm_id": 793847412,
      "amenity": "restaurant",
      "website": "https://www.logcabin-baraboo.com/",
      "phone": "+1 608-356-8034",
      "addr_state": "WI",
      "addr_city": "Baraboo",
      "addr_postcode": "53913",
      "addr_street": "8th Street",
      "addr_housenumber": "1215"
    },
    {
      "id": 79310,
      "geometry": "POINT (-89.564374 43.366447)",
      "poi_name": "Peking Buffet",
      "osm_id": 793851750,
      "amenity": "restaurant",
      "cuisine": "chinese"
    },
    {
      "id": 102436,
      "geometry": "POINT (-89.564374 43.366447)",
      "poi_name": "Canyon Ridge Tap Room",
      "osm_id": 6681665486,
      "amenity": "restaurant"
    },
    {
      "id": 80222,
      "geometry": "POINT (-89.564374 43.366447)",
      "poi_name": "Pizza Corral",
      "osm_id": 864278706,
      "amenity": "restaurant",
      "cuisine": "pizza"
    },
    {
      "id": 80224,
      "geometry": "POINT (-89.564374 43.366447)",
      "poi_name": "Kate's North Drive-In",
      "osm_id": 864279356,
      "amenity": "restaurant"
    },
    {
      "id": 80227,
      "geometry": "POINT (-89.564374 43.366447)",
      "poi_name": "B.A. Burrito",
      "osm_id": 864279553,
      "amenity": "restaurant",
      "cuisine": "mexican",
      "addr_city": "Holmen",
      "addr_postcode": "54636",
      "addr_street": "Holmen Drive",
      "addr_housenumber": "500"
    },
    {
      "id": 85425,
      "geometry": "POINT (-89.564374 43.366447)",
      "poi_name": "Pizza Hut",
      "osm_id": 1867172263,
      "amenity": "restaurant",
      "cuisine": "pizza"
    },
    {
      "id": 89953,
      "geometry": "POINT (-89.564374 43.366447)",
      "poi_name": "Cheeze Factory Restaurant",
      "osm_id": 8872424735,
      "amenity": "restaurant",
      "cuisine": "italian",
      "website": "https://cheezefactoryrestaurant.com/",
      "phone": "+1 608 448 4804",
      "addr_state": "WI",
      "addr_city": "Baraboo",
      "addr_postcode": "53913",
      "addr_street": "Oak Street",
      "addr_housenumber": "618"
    },
    {
      "id": 100306,
      "geometry": "POINT (-89.564374 43.366447)",
      "poi_name": "Monk's Bar & Grill",
      "osm_id": 6581145462,
      "amenity": "restaurant"
    },
    {
      "id": 101179,
      "geometry": "POINT (-89.564374 43.366447)",
      "poi_name": "La Cocina on Broadway",
      "osm_id": 6612630972,
      "amenity": "restaurant",
      "cuisine": "mexican"
    },
    {
      "id": 101182,
      "geometry": "POINT (-89.564374 43.366447)",
      "poi_name": "Marco's Pizza",
      "osm_id": 6612941083,
      "amenity": "restaurant",
      "cuisine": "pizza"
    },
    {
      "id": 101185,
      "geometry": "POINT (-89.564374 43.366447)",
      "poi_name": "China Inn",
      "osm_id": 6614500033,
      "amenity": "restaurant",
      "cuisine": "chinese"
    },
    {
      "id": 102443,
      "geometry": "POINT (-89.564374 43.366447)",
      "poi_name": "Klondike Pizza Kitchen",
      "osm_id": 6681739752,
      "amenity": "restaurant",
      "cuisine": "pizza"
    },
    {
      "id": 102449,
      "geometry": "POINT (-89.564374 43.366447)",
      "poi_name": "Tommyknockers Food & Spirits",
      "osm_id": 6681739763,
      "amenity": "restaurant"
    },
    {
      "id": 102450,
      "geometry": "POINT (-89.564374 43.366447)",
      "poi_name": "Wild Canyon Cafe",
      "osm_id": 6681739764,
      "amenity": "restaurant"
    },
    {
      "id": 102454,
      "geometry": "POINT (-89.564374 43.366447)",
      "poi_name": "Thirsty Buffalo Bar& Grill",
      "osm_id": 6681779078,
      "amenity": "restaurant"
    },
    {
      "id": 102455,
      "geometry": "POINT (-89.564374 43.366447)",
      "poi_name": "Giddy Up Pub",
      "osm_id": 6681779079,
      "amenity": "restaurant"
    },
    {
      "id": 109652,
      "geometry": "POINT (-89.564374 43.366447)",
      "poi_name": "La Valle Family Restaurant",
      "osm_id": 3668782664,
      "amenity": "restaurant"
    },
    {
      "id": 113745,
      "geometry": "POINT (-89.564374 43.366447)",
      "poi_name": "The Bog",
      "osm_id": 3844161892,
      "amenity": "restaurant"
    },
    {
      "id": 124438,
      "geometry": "POINT (-89.564374 43.366447)",
      "poi_name": "Mac's Mac and Cheese",
      "osm_id": 6917291658,
      "amenity": "restaurant",
      "opening_hours": "10:30-21:00",
      "website": "http://macandcheeseshop.com/",
      "phone": "+1-608-844-0077"
    },
    {
      "id": 121618,
      "geometry": "POINT (-89.564374 43.366447)",
      "poi_name": "Crooked Pint Ale House",
      "osm_id": 6770632449,
      "amenity": "restaurant",
      "cuisine": "american",
      "addr_street": "WI 16",
      "addr_housenumber": "9348"
    },
    {
      "id": 127121,
      "geometry": "POINT (-89.564374 43.366447)",
      "poi_name": "Noodles & Company",
      "osm_id": 8032751879,
      "amenity": "restaurant",
      "cuisine": "pasta",
      "takeaway": "yes"
    },
    {
      "id": 151781,
      "geometry": "POINT (-89.564374 43.366447)",
      "poi_name": "Foxhole Pub",
      "osm_id": 4113154597,
      "amenity": "restaurant",
      "addr_state": "WI",
      "addr_city": "Sparta",
      "addr_postcode": "54656",
      "addr_street": "Angelo Road",
      "addr_housenumber": "1215"
    },
    {
      "id": 135088,
      "geometry": "POINT (-89.564374 43.366447)",
      "poi_name": "Big Al's Too Pizza",
      "osm_id": 11504665022,
      "amenity": "restaurant",
      "cuisine": "pizza",
      "phone": "+1-608-783-0444",
      "addr_city": "Onalaska",
      "addr_postcode": "54650",
      "addr_street": "10th Avenue South",
      "addr_housenumber": "103"
    },
    {
      "id": 142402,
      "geometry": "POINT (-89.564374 43.366447)",
      "poi_name": "Tug's Kitchen",
      "osm_id": 6313527195,
      "amenity": "restaurant",
      "cuisine": "american"
    },
    {
      "id": 143220,
      "geometry": "POINT (-89.564374 43.366447)",
      "poi_name": "Pizza Lab",
      "osm_id": 6332213954,
      "amenity": "restaurant",
      "cuisine": "pizza"
    },
    {
      "id": 145280,
      "geometry": "POINT (-89.564374 43.366447)",
      "poi_name": "1878 Restaurant",
      "osm_id": 7331705284,
      "amenity": "restaurant",
      "cuisine": "american",
      "opening_hours": "\"Call for hours\"",
      "website": "https://threebearsresort.com/",
      "phone": "+1-608-378-2500",
      "addr_state": "WI",
      "addr_city": "Warrens",
      "addr_postcode": "54666",
      "addr_street": "Yogi Circle",
      "addr_housenumber": "701"
    },
    {
      "id": 147759,
      "geometry": "POINT (-89.564374 43.366447)",
      "poi_name": "Denny's",
      "osm_id": 7560414537,
      "amenity": "restaurant",
      "cuisine": "american"
    },
    {
      "id": 130042,
      "geometry": "POINT (-89.564374 43.366447)",
      "poi_name": "Snack Bar",
      "osm_id": 9851910863,
      "amenity": "restaurant"
    },
    {
      "id": 147310,
      "geometry": "POINT (-89.564374 43.366447)",
      "poi_name": "Denny's",
      "osm_id": 7523497806,
      "amenity": "restaurant",
      "cuisine": "american"
    },
    {
      "id": 177585,
      "geometry": "POINT (-89.564374 43.366447)",
      "poi_name": "Noodles & Company",
      "osm_id": 2594726454,
      "amenity": "restaurant",
      "cuisine": "pasta"
    },
    {
      "id": 172700,
      "geometry": "POINT (-89.564374 43.366447)",
      "poi_name": "Island View Restaurant and Lounge",
      "osm_id": 2411143216,
      "amenity": "restaurant",
      "website": "https://www.northernbayresort.com/dining/island-view-resturant-a-lounge"
    },
    {
      "id": 172710,
      "geometry": "POINT (-89.564374 43.366447)",
      "poi_name": "Lakeside Waterfront Restaurant and Bar",
      "osm_id": 2411281421,
      "amenity": "restaurant",
      "cuisine": "american",
      "website": "https://lakesidecastlerock.com/",
      "addr_state": "WI",
      "addr_city": "Friendship",
      "addr_postcode": "53934",
      "addr_street": "Dakota Lane",
      "addr_housenumber": "1947"
    },
    {
      "id": 156530,
      "geometry": "POINT (-89.564374 43.366447)",
      "poi_name": "UW Cafe",
      "osm_id": 4663495229,
      "amenity": "restaurant"
    },
    {
      "id": 160541,
      "geometry": "POINT (-89.564374 43.366447)",
      "poi_name": "The Keg",
      "osm_id": 4837941127,
      "amenity": "restaurant",
      "cuisine": "steak_house"
    },
    {
      "id": 163451,
      "geometry": "POINT (-89.564374 43.366447)",
      "poi_name": "Playa Azul",
      "osm_id": 9419677871,
      "amenity": "restaurant",
      "cuisine": "seafood"
    },
    {
      "id": 178937,
      "geometry": "POINT (-89.564374 43.366447)",
      "poi_name": "Reedsburg Family Restaurant",
      "osm_id": 10743669325,
      "amenity": "restaurant"
    },
    {
      "id": 178729,
      "geometry": "POINT (-89.564374 43.366447)",
      "poi_name": "Il Luigi Italian Cuisine & Bakery",
      "osm_id": 10737468830,
      "amenity": "restaurant",
      "cuisine": "italian",
      "website": "https://www.illuigiitaliancuisine.com/",
      "phone": "+1-608-519-3550",
      "addr_city": "Onalaska",
      "addr_postcode": "54650",
      "addr_street": "Sand Lake Road",
      "addr_housenumber": "235"
    },
    {
      "id": 178938,
      "geometry": "POINT (-89.564374 43.366447)",
      "poi_name": "Golden Buffet",
      "osm_id": 10743669326,
      "amenity": "restaurant",
      "cuisine": "chinese"
    },
    {
      "id": 178939,
      "geometry": "POINT (-89.564374 43.366447)",
      "poi_name": "Pizza Ranch",
      "osm_id": 10743669330,
      "amenity": "restaurant",
      "cuisine": "pizza"
    },
    {
      "id": 188884,
      "geometry": "POINT (-89.564374 43.366447)",
      "poi_name": "China Buffet",
      "osm_id": 1191694486,
      "amenity": "restaurant",
      "cuisine": "chinese"
    },
    {
      "id": 181489,
      "geometry": "POINT (-89.564374 43.366447)",
      "poi_name": "Body Shop Bar & Grill",
      "osm_id": 10853281724,
      "amenity": "restaurant"
    },
    {
      "id": 183739,
      "geometry": "POINT (-89.564374 43.366447)",
      "poi_name": "Portofino Bay",
      "osm_id": 10943246798,
      "amenity": "restaurant"
    },
    {
      "id": 218217,
      "geometry": "POINT (-89.564374 43.366447)",
      "poi_name": "Taphouse Twenty",
      "osm_id": 9268187711,
      "amenity": "restaurant",
      "cuisine": "american"
    },
    {
      "id": 199940,
      "geometry": "POINT (-89.564374 43.366447)",
      "poi_name": "Sparta Family Resturant",
      "osm_id": 996930396,
      "amenity": "restaurant",
      "cuisine": "american",
      "addr_postcode": "54656",
      "addr_street": "Avon Rd",
      "addr_housenumber": "741"
    },
    {
      "id": 200536,
      "geometry": "POINT (-89.564374 43.366447)",
      "poi_name": "Red Pines Bar & Grill",
      "osm_id": 594595238,
      "amenity": "restaurant"
    },
    {
      "id": 200792,
      "geometry": "POINT (-89.564374 43.366447)",
      "poi_name": "Perkins",
      "osm_id": 597551580,
      "amenity": "restaurant",
      "cuisine": "american",
      "official_name": "Perkins Restaurant and Bakery"
    },
    {
      "id": 203194,
      "geometry": "POINT (-89.564374 43.366447)",
      "poi_name": "Perkins",
      "osm_id": 7069222686,
      "amenity": "restaurant",
      "cuisine": "american",
      "opening_hours": "Mo-Su 06:00-22:00",
      "website": "https://www.perkinsrestaurants.com/",
      "phone": "608-374-0550",
      "official_name": "Perkins Restaurant and Bakery",
      "addr_state": "WI",
      "addr_city": "Tomah",
      "addr_postcode": "54660",
      "addr_street": "East McCoy Boulevard",
      "addr_housenumber": "1015"
    },
    {
      "id": 207841,
      "geometry": "POINT (-89.564374 43.366447)",
      "poi_name": "Driftless Glen Distillery",
      "osm_id": 4962778867,
      "amenity": "restaurant",
      "cuisine": "american;burger",
      "opening_hours": "Mo-Tu,Su 11:00-20:00;We-Th 11:00-21:00;Fr-Sa 11:00-22:00;PH closed",
      "internet_access": "wlan",
      "takeaway": "yes",
      "outdoor_seating": "yes",
      "delivery": "no",
      "toilets": "yes",
      "addr_city": "Baraboo",
      "addr_postcode": "53913",
      "addr_street": "Water Street",
      "addr_housenumber": "300"
    },
    {
      "id": 208748,
      "geometry": "POINT (-89.564374 43.366447)",
      "poi_name": "Denny's",
      "osm_id": 5003462274,
      "amenity": "restaurant",
      "cuisine": "american"
    },
    {
      "id": 212072,
      "geometry": "POINT (-89.564374 43.366447)",
      "poi_name": "Mulligans at Christmas Mountain",
      "osm_id": 5187824072,
      "amenity": "restaurant",
      "website": "https://www.christmasmountainvillage.com/restaurant",
      "addr_state": "WI",
      "addr_city": "Wisconsin Dells",
      "addr_postcode": "53965",
      "addr_street": "Christmas Mountain Road",
      "addr_housenumber": "S944"
    },
    {
      "id": 213513,
      "geometry": "POINT (-89.564374 43.366447)",
      "poi_name": "T-Jo's Pizza & Sandwich Shop",
      "osm_id": 5253080381,
      "amenity": "restaurant",
      "cuisine": "pizza;sandwich",
      "description": "T-Jo's Pizza & Sandwich shop in Holmen WI.",
      "opening_hours": "Mo-Su 16:00-22:00",
      "takeaway": "yes",
      "outdoor_seating": "no",
      "delivery": "no",
      "addr_state": "WI",
      "addr_city": "Holmen",
      "addr_postcode": "54636",
      "addr_street": "State Street",
      "addr_housenumber": "105"
    },
    {
      "id": 214695,
      "geometry": "POINT (-89.564374 43.366447)",
      "poi_name": "El Vallarta",
      "osm_id": 5278188337,
      "amenity": "restaurant",
      "cuisine": "mexican",
      "opening_hours": "Mo-Th 11:00-21:00; Fr-Sa 11:00-21:30; Su 11:00-20:30",
      "outdoor_seating": "no",
      "delivery": "no",
      "addr_state": "WI",
      "addr_city": "Sparta",
      "addr_postcode": "54656",
      "addr_street": "North Black River Street",
      "addr_housenumber": "223"
    },
    {
      "id": 200554,
      "geometry": "POINT (-89.564374 43.366447)",
      "poi_name": "Brice Prairie Bar & Grill",
      "osm_id": 595516666,
      "amenity": "restaurant"
    },
    {
      "id": 200555,
      "geometry": "POINT (-89.564374 43.366447)",
      "poi_name": "Emma's",
      "osm_id": 595516667,
      "amenity": "restaurant"
    },
    {
      "id": 228396,
      "geometry": "POINT (-89.564374 43.366447)",
      "poi_name": "Champions Bar & Grill",
      "osm_id": 4341748766,
      "amenity": "restaurant"
    },
    {
      "id": 230676,
      "geometry": "POINT (-89.564374 43.366447)",
      "poi_name": "The Pizza Oven",
      "osm_id": 4434963307,
      "amenity": "restaurant",
      "cuisine": "pizza",
      "opening_hours": "Su-We 16:00-21:00; Th-Su 11:00-21:00",
      "website": "http://thepizzaovenwi.com",
      "phone": "+1-608-399-3300",
      "takeaway": "yes",
      "delivery": "yes",
      "addr_state": "WI",
      "addr_city": "West Salem",
      "addr_postcode": "54669",
      "addr_street": "WI 16",
      "addr_housenumber": "920"
    },
    {
      "id": 243886,
      "geometry": "POINT (-89.564374 43.366447)",
      "poi_name": "Copper Oak Steakhouse",
      "osm_id": 7684127714,
      "amenity": "restaurant"
    },
    {
      "id": 232179,
      "geometry": "POINT (-89.564374 43.366447)",
      "poi_name": "Arrowhead (In Airport)",
      "osm_id": 4513849095,
      "amenity": "restaurant"
    },
    {
      "id": 243887,
      "geometry": "POINT (-89.564374 43.366447)",
      "poi_name": "Stand Rock Buffet",
      "osm_id": 7684127715,
      "amenity": "restaurant"
    },
    {
      "id": 243894,
      "geometry": "POINT (-89.564374 43.366447)",
      "poi_name": "Black River Falls Buffet",
      "osm_id": 7685015062,
      "amenity": "restaurant"
    },
    {
      "id": 243895,
      "geometry": "POINT (-89.564374 43.366447)",
      "poi_name": "Black River Bistro",
      "osm_id": 7685015063,
      "amenity": "restaurant"
    }
  ],
  "answer_type": "name",
  "question_entities": {
    "[1]": {
      "main_category": "amenity",
      "sub_category": "restaurant"
    },
    "[2]": {
      "distance": 160000,
      "text": "160 kilometers"
    },
    "[3]": {
      "main_category": "leisure",
      "sub_category": "park",
      "display_name": "Bay Drive Park, Okee, WI",
      "geo_wkt": "POINT (-89.564374 43.366447)",
      "poi": {
        "id": 246302,
        "geometry": "POINT (-89.564374 43.366447)",
        "poi_name": "Bay Drive Park",
        "osm_id": 11271846680,
        "leisure": "park",
        "operator": "Town of Lodi",
        "addr_state": "WI",
        "addr_city": "Okee",
        "addr_street": "Bay Drive",
        "addr_housenumber": "W11370"
      }
    },
    "[4]": {
      "direction_desc": "northwest",
      "direction_predicate": "degrees(ST_Azimuth(origin.geometry, pois.geometry)) BETWEEN 292.5 AND 337.5"
    }
  },
  "id": 2624,
  "type": "range:direction+name"
}