{
  "question": "Which caf\u00e9 is available towards Proghorn Nature Area, Aurora, CO within 80 kilometers from Joy Burns Arena, CO?",
  "sql": "WITH\n    angle AS (SELECT degrees(ST_Azimuth(ST_GeomFromText('POINT (-104.961111 39.6825)',4326)::geography, ST_GeomFromText('POINT (-104.674157 39.63892)',4326)::geography)) AS value)\nSELECT * FROM pois,angle\nWHERE amenity = 'cafe'\nAND ST_DWithin(pois.geometry, ST_GeomFromText('POINT (-104.961111 39.6825)',4326)::geography, 80000)\nAND (degrees(ST_Azimuth(ST_GeomFromText('POINT (-104.961111 39.6825)',4326)::geography, pois.geometry)) BETWEEN angle.value - 22.5 AND angle.value + 22.5);\n",
  "answers": [
    {
      "id": 36252,
      "geometry": "POINT (-104.86809 39.685936)",
      "poi_name": "Starbucks",
      "osm_id": 2757731993,
      "amenity": "cafe",
      "cuisine": "coffee_shop",
      "opening_hours": "Mo-Su 05:30-19:00",
      "website": "https://www.starbucks.com/store-locator/store/13097/safeway-aurora-2612-1677-s-havana-aurora-co-800125007-us",
      "phone": "+1-303-481-2279",
      "takeaway": "yes",
      "official_name": "Starbucks Coffee",
      "addr_state": "CO",
      "addr_city": "Aurora",
      "addr_postcode": "80012",
      "addr_street": "South Havana Street",
      "addr_housenumber": "1677",
      "value": 101.02494071000737
    },
    {
      "id": 36165,
      "geometry": "POINT (-104.873034 39.653338)",
      "poi_name": "Starbucks",
      "osm_id": 2752892213,
      "amenity": "cafe",
      "cuisine": "coffee_shop",
      "phone": "+1-303-369-5081",
      "takeaway": "yes",
      "official_name": "Starbucks Coffee",
      "addr_state": "CO",
      "addr_city": "Denver",
      "addr_postcode": "80231",
      "addr_street": "East Hampden Avenue",
      "addr_housenumber": "9925",
      "value": 101.02494071000737
    },
    {
      "id": 63470,
      "geometry": "POINT (-104.838477 39.658023)",
      "poi_name": "Grace French Cafe",
      "osm_id": 5616338017,
      "amenity": "cafe",
      "cuisine": "french;coffee",
      "opening_hours": "Mo-Fr 08:30-17:30, Sa-Su closed",
      "website": "https://www.gracefrenchcafe.com/",
      "phone": "+1-720-747-0000",
      "addr_state": "CO",
      "addr_city": "Aurora",
      "addr_postcode": "80014",
      "addr_street": "South Vaughn Way",
      "addr_housenumber": "3191",
      "value": 101.02494071000737
    },
    {
      "id": 36728,
      "geometry": "POINT (-104.9 39.654501)",
      "poi_name": "Starbucks",
      "osm_id": 2782396520,
      "amenity": "cafe",
      "cuisine": "coffee_shop",
      "takeaway": "yes",
      "official_name": "Starbucks Coffee",
      "addr_state": "CO",
      "addr_city": "Denver",
      "addr_postcode": "80231",
      "addr_street": "East Hampden Avenue",
      "addr_housenumber": "7777",
      "value": 101.02494071000737
    },
    {
      "id": 36824,
      "geometry": "POINT (-104.914483 39.666238)",
      "poi_name": "Starbucks",
      "osm_id": 2786796080,
      "amenity": "cafe",
      "cuisine": "coffee_shop",
      "opening_hours": "Mo-Su 06:00-18:00",
      "phone": "+1-303-691-8870",
      "takeaway": "yes",
      "official_name": "Starbucks Coffee",
      "addr_state": "CO",
      "addr_city": "Denver",
      "addr_postcode": "80222",
      "addr_street": "East Yale Avenue",
      "addr_housenumber": "6440",
      "value": 101.02494071000737
    },
    {
      "id": 43652,
      "geometry": "POINT (-104.864898 39.681539)",
      "poi_name": "Snowl Snow Bowl",
      "osm_id": 3125184700,
      "amenity": "cafe",
      "cuisine": "ice_cream",
      "opening_hours": "May-Oct Mo-Sa 11:00-23:00, Su 11:00-21:30; Nov-Apr Su 11:00-21:30, Fr-Sa 11:00-23:00, Mo-Th 12:00-22:30",
      "website": "https://www.snowlcafe.com/",
      "internet_access": "wlan",
      "phone": "+1-720-542-9902",
      "addr_state": "CO",
      "addr_city": "Aurora",
      "addr_postcode": "80014",
      "addr_street": "South Havana Street",
      "addr_housenumber": "1930",
      "value": 101.02494071000737
    },
    {
      "id": 49995,
      "geometry": "POINT (-104.898755 39.681154)",
      "poi_name": "Alchemy Coffee & Bike Shop",
      "osm_id": 3458876432,
      "amenity": "cafe",
      "cuisine": "coffee_shop",
      "website": "https://alchemybicycles.com/",
      "phone": "+1-720-535-4444",
      "addr_city": "Denver",
      "addr_postcode": "80231",
      "addr_street": "East Cherry Creek South Drive",
      "addr_housenumber": "7700",
      "value": 101.02494071000737
    },
    {
      "id": 50212,
      "geometry": "POINT (-104.889953 39.674558)",
      "poi_name": "Even Better Cafe",
      "osm_id": 3472385141,
      "amenity": "cafe",
      "opening_hours": "Mo-Sa 06:00-18:00",
      "phone": "+1-720-535-7240",
      "addr_city": "Denver",
      "addr_postcode": "80231",
      "addr_street": "East Iliff Avenue",
      "addr_housenumber": "8450",
      "value": 101.02494071000737
    },
    {
      "id": 52922,
      "geometry": "POINT (-104.862549 39.667047)",
      "poi_name": "Devil and Angel",
      "osm_id": 10054965018,
      "amenity": "cafe",
      "cuisine": "bubble_tea;donut;ice_cream",
      "opening_hours": "Su-Th 12:00-21:00; Fr-Sa 12:00-22:00",
      "website": "https://devilnangel.com/",
      "phone": "+1-303-997-5350",
      "addr_postcode": "80014",
      "value": 101.02494071000737
    },
    {
      "id": 64074,
      "geometry": "POINT (-104.94024 39.672806)",
      "poi_name": "From The Ground Up",
      "osm_id": 5640722653,
      "amenity": "cafe",
      "cuisine": "coffee_shop",
      "addr_street": "South Colorado Boulevard",
      "addr_housenumber": "2418",
      "value": 101.02494071000737
    },
    {
      "id": 76862,
      "geometry": "POINT (-104.793306 39.674084)",
      "poi_name": "Dutch Bros. Coffee",
      "osm_id": 9795703539,
      "amenity": "cafe",
      "cuisine": "coffee_shop",
      "wheelchair": "yes",
      "opening_hours": "Mo-Su 05:00-23:00",
      "website": "https://locations.dutchbros.com/dutch-bros-coffee-2f08173b30fe",
      "takeaway": "only",
      "addr_state": "CO",
      "addr_city": "Aurora",
      "addr_postcode": "80013",
      "addr_street": "East Iliff Avenue",
      "addr_housenumber": "16705",
      "value": 101.02494071000737
    },
    {
      "id": 67031,
      "geometry": "POINT (-104.790067 39.704419)",
      "poi_name": "Ziggi's Coffee",
      "osm_id": 11219673974,
      "amenity": "cafe",
      "cuisine": "coffee_shop",
      "value": 101.02494071000737
    },
    {
      "id": 72858,
      "geometry": "POINT (-104.86369 39.667192)",
      "poi_name": "Mocha",
      "osm_id": 11451540816,
      "amenity": "cafe",
      "cuisine": "dessert",
      "website": "https://www.mochausa.com/",
      "value": 101.02494071000737
    },
    {
      "id": 65792,
      "geometry": "POINT (-104.863092 39.674353)",
      "poi_name": "HiRa cafe",
      "osm_id": 5712523654,
      "amenity": "cafe",
      "cuisine": "ethiopian;pastry;coffee_shop;breakfast",
      "website": "https://hiracafe.com/",
      "addr_state": "CO",
      "addr_city": "Aurora",
      "addr_postcode": "80014",
      "addr_street": "East Iliff Avenue",
      "addr_housenumber": "10782",
      "value": 101.02494071000737
    },
    {
      "id": 94966,
      "geometry": "POINT (-104.866741 39.67437)",
      "poi_name": "Coco",
      "osm_id": 6382134909,
      "amenity": "cafe",
      "cuisine": "bubble_tea",
      "opening_hours": "Mo-Sa 09:30-18:30; Su 11:00-17:00",
      "phone": "+1-303-284-2959",
      "takeaway": "yes",
      "addr_state": "CO",
      "addr_city": "Aurora",
      "addr_postcode": "80014",
      "addr_street": "South Havana Street",
      "addr_housenumber": "2353",
      "value": 101.02494071000737
    },
    {
      "id": 77000,
      "geometry": "POINT (-104.865633 39.675876)",
      "poi_name": "Coffee Story",
      "osm_id": 9800657517,
      "amenity": "cafe",
      "cuisine": "coffee_shop",
      "opening_hours": "Mo-Su 08:00-21:00",
      "website": "https://coffeestoryco.com/",
      "internet_access": "wlan",
      "phone": "+1-720-609-2971",
      "addr_postcode": "80014",
      "addr_street": "South Havana Street",
      "addr_housenumber": "2222",
      "value": 101.02494071000737
    },
    {
      "id": 83407,
      "geometry": "POINT (-104.86967 39.674284)",
      "poi_name": "Starbucks",
      "osm_id": 1743778737,
      "amenity": "cafe",
      "cuisine": "coffee_shop",
      "phone": "+1-303-695-5239",
      "takeaway": "yes",
      "official_name": "Starbucks Coffee",
      "addr_state": "CO",
      "addr_city": "Denver",
      "addr_postcode": "80231",
      "addr_street": "South Parker Road",
      "addr_housenumber": "2300",
      "value": 101.02494071000737
    },
    {
      "id": 90902,
      "geometry": "POINT (-104.870138 39.675146)",
      "poi_name": "Lamar's Donuts",
      "osm_id": 2025829649,
      "amenity": "cafe",
      "cuisine": "coffee_shop",
      "opening_hours": "Mo-Sa 05:00-17:00, Su 06:00-17:00",
      "website": "https://lamars.com/",
      "phone": "+1-303-743-8585",
      "addr_state": "CO",
      "addr_city": "Aurora",
      "addr_postcode": "80247",
      "addr_street": "East Iliff Avenue",
      "addr_housenumber": "10001",
      "value": 101.02494071000737
    },
    {
      "id": 107559,
      "geometry": "POINT (-104.810382 39.674244)",
      "poi_name": "The French Press",
      "osm_id": 3567316271,
      "amenity": "cafe",
      "cuisine": "coffee_shop",
      "opening_hours": "Mo-Fr 06:30-15:00, Sa-Su 07:00-15:00",
      "website": "https://www.myfrenchpress.com/",
      "phone": "+1-303-369-3111",
      "addr_city": "Aurora",
      "addr_postcode": "80014",
      "addr_street": "East Iliff Avenue",
      "addr_housenumber": "15290",
      "value": 101.02494071000737
    },
    {
      "id": 103572,
      "geometry": "POINT (-104.721705 39.581732)",
      "poi_name": "Starbucks",
      "osm_id": 8511346668,
      "amenity": "cafe",
      "cuisine": "coffee_shop",
      "internet_access": "no",
      "takeaway": "yes",
      "official_name": "Starbucks Coffee",
      "outdoor_seating": "no",
      "value": 101.02494071000737
    },
    {
      "id": 118783,
      "geometry": "POINT (-104.810776 39.633212)",
      "poi_name": "Forest Coffee & Ice creams Denver",
      "osm_id": 9064157844,
      "amenity": "cafe",
      "cuisine": "coffee_shop",
      "internet_access": "yes",
      "outdoor_seating": "yes",
      "addr_state": "CO",
      "addr_city": "Aurora",
      "addr_postcode": "80015",
      "addr_street": "East Smoky Hill Road",
      "addr_housenumber": "15285",
      "value": 101.02494071000737
    },
    {
      "id": 109900,
      "geometry": "POINT (-104.723711 39.575781)",
      "poi_name": "Heritage Cafe",
      "osm_id": 3678127410,
      "amenity": "cafe",
      "value": 101.02494071000737
    },
    {
      "id": 121412,
      "geometry": "POINT (-104.862292 39.665772)",
      "poi_name": "Volcano Tea House",
      "osm_id": 6760643922,
      "amenity": "cafe",
      "cuisine": "tea",
      "addr_state": "CO",
      "addr_city": "Aurora",
      "addr_postcode": "80014",
      "addr_street": "South Parker Road",
      "value": 101.02494071000737
    },
    {
      "id": 128577,
      "geometry": "POINT (-104.901927 39.681648)",
      "poi_name": "MORU Coffee",
      "osm_id": 8171695038,
      "amenity": "cafe",
      "cuisine": "coffee_shop",
      "website": "https://www.morucoffee.com/",
      "internet_access": "yes",
      "value": 101.02494071000737
    },
    {
      "id": 123523,
      "geometry": "POINT (-104.844796 39.66151)",
      "poi_name": "Starbucks",
      "osm_id": 6859355195,
      "amenity": "cafe",
      "cuisine": "coffee_shop",
      "takeaway": "yes",
      "official_name": "Starbucks Coffee",
      "addr_state": "CO",
      "addr_city": "Aurora",
      "addr_postcode": "80014",
      "addr_street": "South Peoria Street",
      "addr_housenumber": "3050",
      "value": 101.02494071000737
    },
    {
      "id": 162844,
      "geometry": "POINT (-104.837172 39.696021)",
      "poi_name": "Paprika Cafe",
      "osm_id": 4944133021,
      "amenity": "cafe",
      "addr_state": "CO",
      "addr_city": "Aurora",
      "addr_postcode": "80012",
      "addr_street": "East Mississippi Avenue",
      "addr_housenumber": "13160",
      "value": 101.02494071000737
    },
    {
      "id": 134147,
      "geometry": "POINT (-104.845448 39.697656)",
      "poi_name": "Wonder Tea",
      "osm_id": 10032439917,
      "amenity": "cafe",
      "cuisine": "bubble_tea",
      "opening_hours": "Mo-Su 11:00-21:00",
      "phone": "+1-303-362-0512",
      "addr_street": "East Mississippi Avenue",
      "addr_housenumber": "141",
      "value": 101.02494071000737
    },
    {
      "id": 140644,
      "geometry": "POINT (-104.867406 39.688772)",
      "poi_name": "Ifka Cafe",
      "osm_id": 6254873125,
      "amenity": "cafe",
      "phone": "+1-303-745-3770",
      "addr_state": "CO",
      "addr_city": "Aurora",
      "addr_postcode": "80012",
      "addr_street": "South Havana Street",
      "addr_housenumber": "1535",
      "value": 101.02494071000737
    },
    {
      "id": 140772,
      "geometry": "POINT (-104.709118 39.601737)",
      "poi_name": "Starbucks",
      "osm_id": 6260113423,
      "amenity": "cafe",
      "cuisine": "coffee_shop",
      "takeaway": "yes",
      "official_name": "Starbucks Coffee",
      "outdoor_seating": "no",
      "value": 101.02494071000737
    },
    {
      "id": 140773,
      "geometry": "POINT (-104.708448 39.602625)",
      "poi_name": "Wine Experience Cafe",
      "osm_id": 6260124148,
      "amenity": "cafe",
      "value": 101.02494071000737
    },
    {
      "id": 152929,
      "geometry": "POINT (-104.850786 39.660069)",
      "poi_name": "The Donut House",
      "osm_id": 4168570277,
      "amenity": "cafe",
      "cuisine": "coffee_shop",
      "opening_hours": "Mo-Fr 05:00-21:00, Sa-Su 06:00-21:00",
      "phone": "+1-303-337-2771",
      "addr_state": "CO",
      "addr_city": "Aurora",
      "addr_postcode": "80014",
      "addr_street": "South Parker Road",
      "addr_housenumber": "3124",
      "value": 101.02494071000737
    },
    {
      "id": 173137,
      "geometry": "POINT (-104.913243 39.676479)",
      "poi_name": "Starbucks",
      "osm_id": 2427442539,
      "amenity": "cafe",
      "cuisine": "coffee_shop",
      "phone": "+1-303-504-4600",
      "takeaway": "yes",
      "official_name": "Starbucks Coffee",
      "addr_state": "CO",
      "addr_city": "Denver",
      "addr_postcode": "80222",
      "addr_street": "South Monaco Parkway",
      "addr_housenumber": "2223",
      "value": 101.02494071000737
    },
    {
      "id": 164781,
      "geometry": "POINT (-104.431836 39.742411)",
      "poi_name": "Ziggi's Coffee",
      "osm_id": 9500011958,
      "amenity": "cafe",
      "cuisine": "coffee_shop",
      "addr_state": "CO",
      "addr_city": "Bennett",
      "addr_postcode": "80102",
      "addr_street": "Marketplace Drive",
      "addr_housenumber": "111",
      "value": 101.02494071000737
    },
    {
      "id": 164548,
      "geometry": "POINT (-104.435446 39.742986)",
      "poi_name": "Starbucks",
      "osm_id": 9482497629,
      "amenity": "cafe",
      "cuisine": "coffee_shop",
      "takeaway": "yes",
      "official_name": "Starbucks Coffee",
      "value": 101.02494071000737
    },
    {
      "id": 165213,
      "geometry": "POINT (-104.866862 39.672233)",
      "poi_name": "Sharetea",
      "osm_id": 9523022422,
      "amenity": "cafe",
      "cuisine": "bubble_tea",
      "opening_hours": "Mo-Su 11:00-21:30",
      "website": "https://www.1992sharetea.com/usa",
      "shop": "tea",
      "phone": "+1-303-658-0381",
      "takeaway": "yes",
      "addr_state": "CO",
      "addr_city": "Aurora",
      "addr_postcode": "80014",
      "addr_street": "South Havana Street",
      "addr_housenumber": "2495",
      "value": 101.02494071000737
    },
    {
      "id": 183694,
      "geometry": "POINT (-104.845982 39.697584)",
      "poi_name": "Kung Fu Tea",
      "osm_id": 10941956969,
      "amenity": "cafe",
      "cuisine": "bubble_tea",
      "shop": "tea",
      "takeaway": "yes",
      "value": 101.02494071000737
    },
    {
      "id": 194953,
      "geometry": "POINT (-104.788645 39.637528)",
      "poi_name": "Endless Grind Coffee",
      "osm_id": 10290362828,
      "amenity": "cafe",
      "cuisine": "coffee_shop",
      "addr_state": "CO",
      "addr_city": "Aurora",
      "addr_postcode": "80015",
      "addr_street": "East Quincy Avenue",
      "addr_housenumber": "17070",
      "value": 101.02494071000737
    },
    {
      "id": 190839,
      "geometry": "POINT (-104.773132 39.652208)",
      "poi_name": "Starbucks",
      "osm_id": 1318370692,
      "amenity": "cafe",
      "cuisine": "coffee_shop",
      "opening_hours": "Mo-Fr 04:30-22:30, Sa-Su 05:00-22:30",
      "internet_access": "wlan",
      "phone": "+1-303-680-1137",
      "takeaway": "yes",
      "official_name": "Starbucks Coffee",
      "addr_state": "CO",
      "addr_city": "Aurora",
      "addr_postcode": "80013",
      "addr_street": "South Tower Road",
      "addr_housenumber": "3551",
      "value": 101.02494071000737
    },
    {
      "id": 209990,
      "geometry": "POINT (-104.865352 39.691731)",
      "poi_name": "Starbucks",
      "osm_id": 5070574488,
      "amenity": "cafe",
      "cuisine": "coffee_shop",
      "takeaway": "yes",
      "official_name": "Starbucks Coffee",
      "value": 101.02494071000737
    },
    {
      "id": 198387,
      "geometry": "POINT (-104.75257 39.611169)",
      "poi_name": "Kung Fu Tea",
      "osm_id": 10702077905,
      "amenity": "cafe",
      "cuisine": "bubble_tea",
      "takeaway": "yes",
      "addr_state": "CO",
      "addr_city": "Centennial",
      "addr_postcode": "80015",
      "addr_street": "East Smoky Hill Road",
      "addr_housenumber": "20209",
      "value": 101.02494071000737
    },
    {
      "id": 214940,
      "geometry": "POINT (-104.875152 39.675364)",
      "poi_name": "Sonder Coffee & Tea",
      "osm_id": 5283324060,
      "amenity": "cafe",
      "cuisine": "coffee_shop",
      "opening_hours": "Mo-Su 06:30-18:30",
      "website": "https://sondercoffee.co/",
      "phone": "+1-720-295-4674",
      "addr_state": "CO",
      "addr_city": "Denver",
      "addr_postcode": "80231",
      "addr_street": "East Iliff Avenue",
      "addr_housenumber": "9731",
      "value": 101.02494071000737
    },
    {
      "id": 213004,
      "geometry": "POINT (-104.325632 39.738594)",
      "poi_name": "Strasburg Espress",
      "osm_id": 5229711621,
      "amenity": "cafe",
      "value": 101.02494071000737
    },
    {
      "id": 229025,
      "geometry": "POINT (-104.87 39.673295)",
      "poi_name": "Grounds for Dismissal Coffee",
      "osm_id": 4363720357,
      "amenity": "cafe",
      "cuisine": "breakfast;coffee_shop;lunch",
      "opening_hours": "Mo-Fr 07:00-13:30",
      "website": "https://gfdcoffee.com",
      "phone": "+1-720-437-1120",
      "outdoor_seating": "yes",
      "addr_state": "CO",
      "addr_city": "Denver",
      "addr_postcode": "80231",
      "addr_street": "East Harvard Avenue",
      "addr_housenumber": "10065",
      "value": 101.02494071000737
    },
    {
      "id": 222000,
      "geometry": "POINT (-104.822586 39.624886)",
      "poi_name": "New Day Cafe",
      "osm_id": 11001557874,
      "amenity": "cafe",
      "addr_state": "CO",
      "addr_city": "Aurora",
      "addr_postcode": "80015",
      "addr_street": "South Parker Road",
      "addr_housenumber": "5001",
      "value": 101.02494071000737
    },
    {
      "id": 239765,
      "geometry": "POINT (-104.724408 39.579933)",
      "poi_name": "Starbucks",
      "osm_id": 5939234027,
      "amenity": "cafe",
      "cuisine": "coffee_shop",
      "takeaway": "yes",
      "official_name": "Starbucks Coffee",
      "addr_state": "CO",
      "addr_city": "Aurora",
      "addr_postcode": "80016",
      "addr_street": "South Gartrell Road",
      "addr_housenumber": "7400",
      "value": 101.02494071000737
    },
    {
      "id": 233987,
      "geometry": "POINT (-104.846605 39.675222)",
      "poi_name": "Beantree Coffee",
      "osm_id": 4595256158,
      "amenity": "cafe",
      "opening_hours": "Mo-Sa 06:30-20:30; Su 07:00-20:00",
      "website": "https://www.facebook.com/BeanTree-coffee-213488708765557/",
      "internet_access": "wlan",
      "phone": "+1-303-396-6178",
      "outdoor_seating": "yes",
      "addr_state": "CO",
      "addr_city": "Aurora",
      "addr_postcode": "80014",
      "addr_street": "East Iliff Avenue",
      "addr_housenumber": "12101",
      "value": 101.02494071000737
    },
    {
      "id": 240090,
      "geometry": "POINT (-104.687388 39.587216)",
      "poi_name": "Starbucks",
      "osm_id": 5955467562,
      "amenity": "cafe",
      "cuisine": "coffee_shop",
      "internet_access": "yes",
      "takeaway": "yes",
      "official_name": "Starbucks Coffee",
      "outdoor_seating": "yes",
      "addr_state": "CO",
      "addr_city": "Aurora",
      "addr_postcode": "80016",
      "addr_street": "East Smoky Hill Road",
      "addr_housenumber": "25701",
      "value": 101.02494071000737
    }
  ],
  "answer_type": "name",
  "question_entities": {
    "[2]": {
      "distance": 80000,
      "text": "80 kilometers"
    },
    "[3]": {
      "main_category": "leisure",
      "sub_category": "stadium",
      "display_name": "Joy Burns Arena, CO",
      "geo_wkt": "POINT (-104.961111 39.6825)",
      "poi": {
        "id": 265350,
        "geometry": "POINT (-104.961111 39.6825)",
        "poi_name": "Joy Burns Arena",
        "osm_id": 366396382,
        "leisure": "stadium",
        "addr_state": "CO"
      }
    },
    "[4]": {
      "main_category": "leisure",
      "sub_category": "nature reserve",
      "display_name": "Proghorn Nature Area, Aurora, CO",
      "geo_wkt": "POINT (-104.674157 39.63892)",
      "poi": {
        "id": 266925,
        "geometry": "POINT (-104.674157 39.63892)",
        "poi_name": "Proghorn Nature Area",
        "osm_id": 11135148290,
        "leisure": "nature_reserve",
        "addr_state": "CO",
        "addr_city": "Aurora",
        "addr_postcode": "80016",
        "addr_street": "East Quincy Avenue",
        "addr_housenumber": "27800"
      }
    },
    "[1]": {
      "main_category": "amenity",
      "sub_category": "cafe"
    }
  },
  "id": 1661,
  "type": "range:towards+name"
}