{
  "question": "Where can I find a Sushi restaurant within 180 kilometers from 366th Medical Group - Mountain Home Airforce Base Medical Facility, Mountain Home Afb, ID?",
  "sql": "SELECT * FROM pois\nWHERE ST_DWithin(pois.geometry, ST_GeomFromText('POINT (-115.850283 43.065168)',4326)::geography, 180000)\nAND amenity = 'restaurant'\nAND cuisine ILIKE '%Sushi%';\n",
  "answers": [
    {
      "id": 29263,
      "geometry": "POINT (-116.2061 43.643384)",
      "poi_name": "Lulu's Pizza",
      "osm_id": 8291819796,
      "amenity": "restaurant",
      "cuisine": "pizza;sushi",
      "website": "http://ilovelulus.com/",
      "phone": "+1-208-387-4992",
      "addr_state": "ID",
      "addr_city": "Boise",
      "addr_postcode": "83702",
      "addr_street": "North Bogus Basin Road",
      "addr_housenumber": "2594"
    },
    {
      "id": 29952,
      "geometry": "POINT (-116.285727 43.613957)",
      "poi_name": "Sushi Bros",
      "osm_id": 8331633353,
      "amenity": "restaurant",
      "cuisine": "sushi",
      "website": "https://sushi-bros.com/",
      "addr_state": "ID",
      "addr_city": "Boise",
      "addr_postcode": "83704",
      "addr_street": "North Milwaukee Street",
      "addr_housenumber": "997"
    },
    {
      "id": 29959,
      "geometry": "POINT (-116.285172 43.618571)",
      "poi_name": "IOU Sushi",
      "osm_id": 8331633489,
      "amenity": "restaurant",
      "cuisine": "sushi",
      "addr_state": "ID",
      "addr_city": "Boise",
      "addr_postcode": "83704",
      "addr_street": "North Milwaukee Street",
      "addr_housenumber": "1517"
    },
    {
      "id": 29965,
      "geometry": "POINT (-116.290452 43.619705)",
      "poi_name": "Island Sushi & Ramen",
      "osm_id": 8331639862,
      "amenity": "restaurant",
      "cuisine": "sushi;ramen",
      "addr_state": "ID",
      "addr_city": "Boise",
      "addr_postcode": "83704",
      "addr_street": "West Fairview Avenue",
      "addr_housenumber": "8716"
    },
    {
      "id": 116311,
      "geometry": "POINT (-116.352012 43.663473)",
      "poi_name": "Sakura Sushi",
      "osm_id": 8936792808,
      "amenity": "restaurant",
      "cuisine": "sushi",
      "addr_state": "ID",
      "addr_city": "Eagle",
      "addr_postcode": "83616",
      "addr_street": "East Chinden Boulevard",
      "addr_housenumber": "3210"
    },
    {
      "id": 66623,
      "geometry": "POINT (-116.572326 43.546559)",
      "poi_name": "Superb Sushi Thai Fusion",
      "osm_id": 11201397670,
      "amenity": "restaurant",
      "cuisine": "sushi",
      "opening_hours": "Mo-Sa 11:30-14:30,16:30-20:30",
      "website": "https://superbthaisushinampa.carrd.co/",
      "phone": "+12089266399",
      "delivery": "no",
      "addr_state": "ID",
      "addr_city": "Nampa",
      "addr_postcode": "83686",
      "addr_street": "12th Avenue Road",
      "addr_housenumber": "2306"
    },
    {
      "id": 85735,
      "geometry": "POINT (-116.419078 43.490854)",
      "poi_name": "RiceWorks Sushi & Asioan Street Food",
      "osm_id": 1890798495,
      "amenity": "restaurant",
      "cuisine": "asian;sushi",
      "addr_state": "ID",
      "addr_city": "Kuna",
      "addr_postcode": "83634",
      "addr_street": "West Main Street",
      "addr_housenumber": "482"
    },
    {
      "id": 106239,
      "geometry": "POINT (-116.349372 43.621211)",
      "poi_name": "Kona Grill",
      "osm_id": 8672345800,
      "amenity": "restaurant",
      "cuisine": "sushi;cocktails",
      "addr_state": "ID",
      "addr_city": "Meridian",
      "addr_postcode": "83646",
      "addr_street": "East Longwing Lane",
      "addr_housenumber": "3573"
    },
    {
      "id": 172386,
      "geometry": "POINT (-116.564972 43.574229)",
      "poi_name": "Pacific Sushi",
      "osm_id": 2401069332,
      "amenity": "restaurant",
      "cuisine": "sushi",
      "opening_hours": "Mo-Th 11:00-14:30,16:30-21:30, Fr-Sa 11:00-21:00",
      "phone": "+12084675737",
      "delivery": "no",
      "addr_state": "ID",
      "addr_city": "Nampa",
      "addr_postcode": "83651",
      "addr_street": "12th Avenue South",
      "addr_housenumber": "624"
    },
    {
      "id": 179084,
      "geometry": "POINT (-116.605614 43.609322)",
      "poi_name": "City Buffet",
      "osm_id": 10746936394,
      "amenity": "restaurant",
      "cuisine": "sushi;mongolian_grill;chinese;american",
      "opening_hours": "Su-Th 11:00-21:30, Fr-Sa 11:00-22:30",
      "website": "https://boisecitybuffet.com",
      "phone": "+1 208-466-9099",
      "addr_state": "ID",
      "addr_city": "Nampa",
      "addr_postcode": "83651",
      "addr_street": "Caldwell Boulevard",
      "addr_housenumber": "2102"
    },
    {
      "id": 205005,
      "geometry": "POINT (-116.393155 43.600441)",
      "poi_name": "Shige Sushi Express",
      "osm_id": 7153077402,
      "amenity": "restaurant",
      "cuisine": "sushi",
      "addr_state": "ID",
      "addr_city": "Meridian",
      "addr_postcode": "83642",
      "addr_street": "South Meridian Road",
      "addr_housenumber": "520"
    }
  ],
  "answer_type": "loc",
  "question_entities": {
    "[1]": {
      "main_category": "amenity",
      "sub_category": "restaurant",
      "poi_filter_desc": "Sushi restaurant",
      "poi_filter_sql": "cuisine ILIKE '%Sushi%'"
    },
    "[2]": {
      "distance": 180000,
      "text": "180 kilometers"
    },
    "[3]": {
      "main_category": "amenity",
      "sub_category": "hospital",
      "display_name": "366th Medical Group - Mountain Home Airforce Base Medical Facility, Mountain Home Afb, ID",
      "geo_wkt": "POINT (-115.850283 43.065168)",
      "poi": {
        "id": 181995,
        "geometry": "POINT (-115.850283 43.065168)",
        "poi_name": "366th Medical Group - Mountain Home Airforce Base Medical Facility",
        "osm_id": 10874450099,
        "amenity": "hospital",
        "website": "https://mountainhome.tricare.mil",
        "phone": "+1 208 828 7900",
        "healthcare": "hospital",
        "addr_state": "ID",
        "addr_city": "Mountain Home Afb",
        "addr_postcode": "83648-1000",
        "addr_street": "Hope Drive",
        "addr_housenumber": "90"
      }
    }
  },
  "id": 437,
  "type": "range:non_spat_filter+loc"
}