{
  "question": "Which fast food restaurant can I find towards Glenhill Farmhouse, Erie, PA within 30 kilometers from Artlore Studio, Erie, PA?",
  "sql": "WITH\n    angle AS (SELECT degrees(ST_Azimuth(ST_GeomFromText('POINT (-80.163447 42.101358)',4326)::geography, ST_GeomFromText('POINT (-79.985748 42.119196)',4326)::geography)) AS value)\nSELECT * FROM pois,angle\nWHERE amenity = 'fast_food'\nAND ST_DWithin(pois.geometry, ST_GeomFromText('POINT (-80.163447 42.101358)',4326)::geography, 30000)\nAND (degrees(ST_Azimuth(ST_GeomFromText('POINT (-80.163447 42.101358)',4326)::geography, pois.geometry)) BETWEEN angle.value - 22.5 AND angle.value + 22.5);\n",
  "answers": [
    {
      "id": 48281,
      "geometry": "POINT (-80.050789 42.108363)",
      "poi_name": "Arby's",
      "osm_id": 3374410647,
      "amenity": "fast_food",
      "cuisine": "sandwich",
      "takeaway": "yes",
      "addr_state": "PA",
      "addr_city": "Erie",
      "addr_postcode": "16504",
      "addr_street": "Pine Avenue",
      "addr_housenumber": "3720",
      "value": 82.26246407825893
    },
    {
      "id": 48219,
      "geometry": "POINT (-80.043932 42.123652)",
      "poi_name": "Burger King",
      "osm_id": 3371382444,
      "amenity": "fast_food",
      "cuisine": "burger",
      "takeaway": "yes",
      "addr_state": "PA",
      "addr_city": "Erie",
      "addr_postcode": "16503",
      "addr_street": "Broad Street",
      "addr_housenumber": "2526",
      "value": 82.26246407825893
    },
    {
      "id": 48220,
      "geometry": "POINT (-80.043118 42.123093)",
      "poi_name": "McDonald's",
      "osm_id": 3371387406,
      "amenity": "fast_food",
      "cuisine": "burger",
      "website": "https://www.mcdonalds.com/us/en-us/location/pa/erie/2529-broad-st/1505.html",
      "takeaway": "yes",
      "addr_state": "PA",
      "addr_city": "Erie",
      "addr_postcode": "16503",
      "addr_street": "Broad Street",
      "addr_housenumber": "2529",
      "value": 82.26246407825893
    },
    {
      "id": 48237,
      "geometry": "POINT (-80.0734 42.127054)",
      "poi_name": "KFC",
      "osm_id": 3372582919,
      "amenity": "fast_food",
      "cuisine": "chicken",
      "website": "https://locations.kfc.com/pa/erie/1116-parade-street",
      "takeaway": "yes",
      "addr_state": "PA",
      "addr_city": "Erie",
      "addr_postcode": "16503",
      "addr_street": "Parade Street",
      "addr_housenumber": "1116",
      "value": 82.26246407825893
    },
    {
      "id": 48380,
      "geometry": "POINT (-79.968095 42.158814)",
      "poi_name": "Subway",
      "osm_id": 3380507450,
      "amenity": "fast_food",
      "cuisine": "sandwich",
      "takeaway": "yes",
      "addr_state": "PA",
      "addr_city": "Harborcreek",
      "addr_postcode": "16421",
      "addr_street": "Buffalo Road",
      "addr_housenumber": "5741",
      "value": 82.26246407825893
    },
    {
      "id": 48352,
      "geometry": "POINT (-80.012544 42.151896)",
      "poi_name": "Dairy Queen",
      "osm_id": 3379135355,
      "amenity": "fast_food",
      "cuisine": "ice_cream;burger",
      "takeaway": "yes",
      "addr_state": "PA",
      "addr_city": "Erie",
      "addr_postcode": "16511",
      "addr_street": "Iroquois Avenue",
      "addr_housenumber": "4219",
      "value": 82.26246407825893
    },
    {
      "id": 48356,
      "geometry": "POINT (-80.003032 42.14678)",
      "poi_name": "KFC",
      "osm_id": 3379135829,
      "amenity": "fast_food",
      "cuisine": "chicken",
      "website": "https://locations.kfc.com/pa/erie/4410-buffalo-road",
      "takeaway": "yes",
      "addr_state": "PA",
      "addr_city": "Erie",
      "addr_postcode": "16510",
      "addr_street": "Buffalo Road",
      "addr_housenumber": "4410",
      "value": 82.26246407825893
    },
    {
      "id": 48358,
      "geometry": "POINT (-80.004928 42.145928)",
      "poi_name": "Arby's",
      "osm_id": 3379153167,
      "amenity": "fast_food",
      "cuisine": "sandwich",
      "takeaway": "yes",
      "addr_state": "PA",
      "addr_city": "Erie",
      "addr_postcode": "16510",
      "addr_street": "Buffalo Road",
      "addr_housenumber": "4310",
      "value": 82.26246407825893
    },
    {
      "id": 48282,
      "geometry": "POINT (-80.035235 42.107057)",
      "poi_name": "Dairy Queen",
      "osm_id": 3374410652,
      "amenity": "fast_food",
      "cuisine": "ice_cream;burger",
      "takeaway": "yes",
      "addr_state": "PA",
      "addr_city": "Erie",
      "addr_postcode": "16504",
      "addr_street": "Pine Avenue",
      "addr_housenumber": "4501",
      "value": 82.26246407825893
    },
    {
      "id": 122275,
      "geometry": "POINT (-80.13375 42.103636)",
      "poi_name": "Arby's",
      "osm_id": 6794898367,
      "amenity": "fast_food",
      "cuisine": "sandwich",
      "takeaway": "yes",
      "addr_state": "PA",
      "addr_city": "Erie",
      "addr_postcode": "16505",
      "addr_street": "West 12th Street",
      "addr_housenumber": "2325",
      "value": 82.26246407825893
    },
    {
      "id": 48440,
      "geometry": "POINT (-80.01448 42.140243)",
      "poi_name": "Domino's",
      "osm_id": 3382416048,
      "amenity": "fast_food",
      "cuisine": "pizza",
      "takeaway": "yes",
      "addr_state": "PA",
      "addr_city": "Erie",
      "addr_postcode": "16510",
      "addr_street": "Buffalo Road",
      "addr_housenumber": "3303",
      "value": 82.26246407825893
    },
    {
      "id": 92142,
      "geometry": "POINT (-80.146666 42.102361)",
      "poi_name": "McDonald's",
      "osm_id": 2104914050,
      "amenity": "fast_food",
      "cuisine": "burger",
      "website": "https://www.mcdonalds.com/us/en-us/location/pa/erie/909-peninsula-dr/375.html",
      "takeaway": "yes",
      "addr_state": "PA",
      "addr_city": "Erie",
      "addr_postcode": "16505",
      "addr_street": "Peninsula Drive",
      "addr_housenumber": "909",
      "value": 82.26246407825893
    },
    {
      "id": 76485,
      "geometry": "POINT (-80.065681 42.11666)",
      "poi_name": "Chester's",
      "osm_id": 9779484766,
      "amenity": "fast_food",
      "cuisine": "chicken",
      "takeaway": "yes",
      "addr_state": "PA",
      "addr_city": "Erie",
      "addr_postcode": "16503",
      "addr_street": "Parade Street",
      "addr_housenumber": "2401",
      "value": 82.26246407825893
    },
    {
      "id": 90002,
      "geometry": "POINT (-80.136537 42.102618)",
      "poi_name": "Chick-fil-A",
      "osm_id": 8875440557,
      "amenity": "fast_food",
      "cuisine": "chicken",
      "takeaway": "yes",
      "addr_state": "PA",
      "addr_city": "Erie",
      "addr_postcode": "16505",
      "addr_street": "West 12th Street",
      "addr_housenumber": "2519",
      "value": 82.26246407825893
    },
    {
      "id": 103651,
      "geometry": "POINT (-80.07359 42.10648)",
      "poi_name": "Dee's Delicatessen",
      "osm_id": 8517852412,
      "amenity": "fast_food",
      "cuisine": "sandwich",
      "addr_state": "PA",
      "addr_city": "Erie",
      "addr_postcode": "16508",
      "addr_street": "Glenwood Park Avenue",
      "addr_housenumber": "3049",
      "value": 82.26246407825893
    },
    {
      "id": 122278,
      "geometry": "POINT (-80.13191 42.104164)",
      "poi_name": "Wendy's",
      "osm_id": 6795217474,
      "amenity": "fast_food",
      "cuisine": "burger",
      "takeaway": "yes",
      "drive_through": "yes",
      "addr_state": "PA",
      "addr_city": "Erie",
      "addr_postcode": "16505",
      "addr_street": "West 12th Street",
      "addr_housenumber": "2207",
      "value": 82.26246407825893
    },
    {
      "id": 147871,
      "geometry": "POINT (-80.064995 42.11469)",
      "poi_name": "Mighty Fine Donuts",
      "osm_id": 7567745739,
      "amenity": "fast_food",
      "cuisine": "donut",
      "addr_state": "PA",
      "addr_city": "Erie",
      "addr_postcode": "16504",
      "addr_street": "Parade Street",
      "addr_housenumber": "2612",
      "value": 82.26246407825893
    },
    {
      "id": 127573,
      "geometry": "POINT (-79.860387 42.206884)",
      "poi_name": "Dairy Queen",
      "osm_id": 8072613792,
      "amenity": "fast_food",
      "cuisine": "ice_cream;burger",
      "takeaway": "yes",
      "addr_state": "PA",
      "addr_city": "North East",
      "addr_postcode": "16428",
      "addr_street": "West Main Street",
      "addr_housenumber": "10362",
      "value": 82.26246407825893
    },
    {
      "id": 147826,
      "geometry": "POINT (-80.004479 42.14481)",
      "poi_name": "Panera Bread",
      "osm_id": 7564260123,
      "amenity": "fast_food",
      "cuisine": "sandwich;bakery",
      "takeaway": "yes",
      "addr_state": "PA",
      "addr_city": "Erie",
      "addr_postcode": "16510",
      "addr_street": "Buffalo Road",
      "addr_housenumber": "4299",
      "value": 82.26246407825893
    },
    {
      "id": 147828,
      "geometry": "POINT (-80.12972 42.10403)",
      "poi_name": "Moe's Southwest Grill",
      "osm_id": 7564313078,
      "amenity": "fast_food",
      "cuisine": "mexican",
      "takeaway": "yes",
      "addr_state": "PA",
      "addr_city": "Erie",
      "addr_postcode": "16505",
      "addr_street": "West 12th Street",
      "addr_housenumber": "2187",
      "value": 82.26246407825893
    },
    {
      "id": 147829,
      "geometry": "POINT (-80.129546 42.103904)",
      "poi_name": "Jersey Mike's Subs",
      "osm_id": 7564313079,
      "amenity": "fast_food",
      "cuisine": "sandwich",
      "takeaway": "yes",
      "addr_state": "PA",
      "addr_city": "Erie",
      "addr_postcode": "16505",
      "addr_street": "Pittsburgh Avenue",
      "addr_housenumber": "1215",
      "value": 82.26246407825893
    },
    {
      "id": 147830,
      "geometry": "POINT (-80.099386 42.127158)",
      "poi_name": "Krispy Krunchy Chicken",
      "osm_id": 7564332100,
      "amenity": "fast_food",
      "cuisine": "chicken",
      "takeaway": "yes",
      "addr_state": "PA",
      "addr_city": "Erie",
      "addr_postcode": "16507",
      "addr_street": "West 4th Street",
      "addr_housenumber": "556",
      "value": 82.26246407825893
    },
    {
      "id": 147842,
      "geometry": "POINT (-80.000424 42.146081)",
      "poi_name": "Subway",
      "osm_id": 7566524630,
      "amenity": "fast_food",
      "cuisine": "sandwich",
      "takeaway": "yes",
      "addr_state": "PA",
      "addr_city": "Erie",
      "addr_postcode": "16510",
      "addr_street": "Buffalo Road",
      "addr_housenumber": "4415",
      "value": 82.26246407825893
    },
    {
      "id": 147843,
      "geometry": "POINT (-80.004542 42.146137)",
      "poi_name": "McDonald's",
      "osm_id": 7566541945,
      "amenity": "fast_food",
      "cuisine": "burger",
      "website": "https://www.mcdonalds.com/us/en-us/location/pa/erie/4316-buffalo-rd/3423.html",
      "takeaway": "yes",
      "addr_state": "PA",
      "addr_city": "Erie",
      "addr_postcode": "16510",
      "addr_street": "Buffalo Road",
      "addr_housenumber": "4316",
      "value": 82.26246407825893
    },
    {
      "id": 147844,
      "geometry": "POINT (-80.002499 42.146005)",
      "poi_name": "Burger King",
      "osm_id": 7566566580,
      "amenity": "fast_food",
      "cuisine": "burger",
      "takeaway": "yes",
      "addr_state": "PA",
      "addr_city": "Erie",
      "addr_postcode": "16510",
      "addr_street": "Buffalo Road",
      "addr_housenumber": "4405",
      "value": 82.26246407825893
    },
    {
      "id": 147845,
      "geometry": "POINT (-80.006386 42.145188)",
      "poi_name": "Wendy's",
      "osm_id": 7566569700,
      "amenity": "fast_food",
      "cuisine": "burger",
      "takeaway": "yes",
      "addr_state": "PA",
      "addr_city": "Erie",
      "addr_postcode": "16510",
      "addr_street": "Buffalo Road",
      "addr_housenumber": "4186",
      "value": 82.26246407825893
    },
    {
      "id": 130214,
      "geometry": "POINT (-80.049912 42.118395)",
      "poi_name": "Fit Style Nutrition",
      "osm_id": 9860427421,
      "amenity": "fast_food",
      "cuisine": "juice",
      "addr_state": "PA",
      "addr_city": "Erie",
      "addr_postcode": "16504",
      "addr_street": "East 28th Street",
      "addr_housenumber": "971",
      "value": 82.26246407825893
    },
    {
      "id": 147377,
      "geometry": "POINT (-80.001243 42.149112)",
      "poi_name": "Little Caesars",
      "osm_id": 7527771447,
      "amenity": "fast_food",
      "cuisine": "pizza",
      "takeaway": "yes",
      "addr_state": "PA",
      "addr_city": "Erie",
      "addr_postcode": "16510",
      "addr_street": "Buffalo Road",
      "addr_housenumber": "4490",
      "value": 82.26246407825893
    },
    {
      "id": 147379,
      "geometry": "POINT (-80.083458 42.095578)",
      "poi_name": "Little Caesars",
      "osm_id": 7527800836,
      "amenity": "fast_food",
      "cuisine": "pizza",
      "website": "https://littlecaesars.com/en-us/store/2498/",
      "takeaway": "yes",
      "addr_state": "PA",
      "addr_city": "Erie",
      "addr_postcode": "16508",
      "addr_street": "West 38th Street",
      "addr_housenumber": "725",
      "value": 82.26246407825893
    },
    {
      "id": 147893,
      "geometry": "POINT (-80.079571 42.12457)",
      "poi_name": "Taco Bell",
      "osm_id": 7570139944,
      "amenity": "fast_food",
      "cuisine": "tex-mex",
      "website": "https://locations.tacobell.com/pa/erie/118-e-12th-st.html",
      "takeaway": "yes",
      "addr_state": "PA",
      "addr_city": "Erie",
      "addr_postcode": "16501",
      "addr_street": "East 12th Street",
      "addr_housenumber": "118",
      "value": 82.26246407825893
    },
    {
      "id": 147894,
      "geometry": "POINT (-80.080908 42.121378)",
      "poi_name": "Domino's",
      "osm_id": 7570144149,
      "amenity": "fast_food",
      "cuisine": "pizza",
      "takeaway": "yes",
      "addr_state": "PA",
      "addr_city": "Erie",
      "addr_postcode": "16501",
      "addr_street": "Turnpike Street",
      "addr_housenumber": "1402",
      "value": 82.26246407825893
    },
    {
      "id": 147895,
      "geometry": "POINT (-80.079303 42.123731)",
      "poi_name": "Wendy's",
      "osm_id": 7570171697,
      "amenity": "fast_food",
      "cuisine": "burger",
      "takeaway": "yes",
      "addr_state": "PA",
      "addr_city": "Erie",
      "addr_postcode": "16501",
      "addr_street": "East 12th Street",
      "addr_housenumber": "105",
      "value": 82.26246407825893
    },
    {
      "id": 147898,
      "geometry": "POINT (-80.085378 42.130063)",
      "poi_name": "Jimmy John's",
      "osm_id": 7570254587,
      "amenity": "fast_food",
      "cuisine": "sandwich",
      "takeaway": "yes",
      "official_name": "Jimmy John's Gourmet Sandwiches",
      "addr_state": "PA",
      "addr_city": "Erie",
      "addr_postcode": "16501",
      "addr_street": "State Street",
      "addr_housenumber": "515",
      "value": 82.26246407825893
    },
    {
      "id": 147899,
      "geometry": "POINT (-80.08579 42.1308)",
      "poi_name": "Subway",
      "osm_id": 7570266250,
      "amenity": "fast_food",
      "cuisine": "sandwich",
      "takeaway": "yes",
      "addr_state": "PA",
      "addr_city": "Erie",
      "addr_postcode": "16501",
      "addr_street": "State Street",
      "addr_housenumber": "425",
      "value": 82.26246407825893
    },
    {
      "id": 242529,
      "geometry": "POINT (-80.106733 42.100599)",
      "poi_name": "Subway",
      "osm_id": 7576461325,
      "amenity": "fast_food",
      "cuisine": "sandwich",
      "takeaway": "yes",
      "addr_state": "PA",
      "addr_city": "Erie",
      "addr_postcode": "16508",
      "addr_street": "West 26th Street",
      "addr_housenumber": "1522",
      "value": 82.26246407825893
    },
    {
      "id": 159689,
      "geometry": "POINT (-80.137587 42.102408)",
      "poi_name": "Dunkin'",
      "osm_id": 4802532573,
      "amenity": "fast_food",
      "cuisine": "donut;coffee_shop",
      "takeaway": "yes",
      "addr_state": "PA",
      "addr_city": "Erie",
      "addr_postcode": "16505",
      "addr_street": "West 12th Street",
      "addr_housenumber": "2545",
      "value": 82.26246407825893
    },
    {
      "id": 159836,
      "geometry": "POINT (-80.131641 42.105405)",
      "poi_name": "Chipotle",
      "osm_id": 4809869244,
      "amenity": "fast_food",
      "cuisine": "mexican",
      "takeaway": "yes",
      "official_name": "Chipotle Mexican Grill",
      "addr_state": "PA",
      "addr_city": "Erie",
      "addr_postcode": "16505",
      "addr_street": "West 12th Street",
      "addr_housenumber": "2204",
      "value": 82.26246407825893
    },
    {
      "id": 159837,
      "geometry": "POINT (-80.140821 42.102161)",
      "poi_name": "KFC",
      "osm_id": 4809869248,
      "amenity": "fast_food",
      "cuisine": "chicken",
      "website": "https://locations.kfc.com/pa/erie/2656-west-12th-street",
      "takeaway": "yes",
      "addr_state": "PA",
      "addr_city": "Erie",
      "addr_postcode": "16505",
      "addr_street": "West 12th Street",
      "addr_housenumber": "2656",
      "value": 82.26246407825893
    },
    {
      "id": 182136,
      "geometry": "POINT (-80.005837 42.144254)",
      "poi_name": "Chipotle",
      "osm_id": 10878780837,
      "amenity": "fast_food",
      "cuisine": "mexican",
      "opening_hours": "Mo-Su 10:45-22:00",
      "website": "https://locations.chipotle.com",
      "phone": "+1 (303) 595-4000",
      "takeaway": "yes",
      "official_name": "Chipotle Mexican Grill",
      "addr_state": "PA",
      "addr_city": "Erie",
      "addr_postcode": "16510",
      "addr_street": "Buffalo Road",
      "addr_housenumber": "4165",
      "value": 82.26246407825893
    },
    {
      "id": 185834,
      "geometry": "POINT (-79.92473 42.140918)",
      "poi_name": "Subway",
      "osm_id": 7887487693,
      "amenity": "fast_food",
      "cuisine": "sandwich",
      "takeaway": "yes",
      "addr_state": "PA",
      "addr_city": "Erie",
      "addr_postcode": "16510",
      "addr_street": "Depot Road",
      "addr_housenumber": "4050",
      "value": 82.26246407825893
    },
    {
      "id": 205712,
      "geometry": "POINT (-80.085163 42.122779)",
      "poi_name": "McDonald's",
      "osm_id": 7178328273,
      "amenity": "fast_food",
      "cuisine": "burger",
      "website": "https://www.mcdonalds.com/us/en-us/location/pa/erie/1115-sassafras-st/1897.html",
      "takeaway": "yes",
      "drive_through": "yes",
      "outdoor_seating": "no",
      "delivery": "no",
      "addr_state": "PA",
      "addr_city": "Erie",
      "addr_postcode": "16501",
      "addr_street": "Sassafras Street",
      "addr_housenumber": "1115",
      "value": 82.26246407825893
    },
    {
      "id": 169219,
      "geometry": "POINT (-80.135113 42.101541)",
      "poi_name": "Panera Bread",
      "osm_id": 2295317092,
      "amenity": "fast_food",
      "cuisine": "sandwich;bakery",
      "phone": "+1 814 833-9101",
      "takeaway": "yes",
      "addr_state": "PA",
      "addr_city": "Erie",
      "addr_postcode": "16505",
      "addr_street": "West 12th Street",
      "addr_housenumber": "2501",
      "value": 82.26246407825893
    },
    {
      "id": 182167,
      "geometry": "POINT (-80.0235 42.11777)",
      "poi_name": "Taco Bell",
      "osm_id": 10879375189,
      "amenity": "fast_food",
      "cuisine": "tex-mex",
      "website": "https://locations.tacobell.com/pa/erie/2007-e-38th-street.html",
      "takeaway": "yes",
      "addr_state": "PA",
      "addr_city": "Erie",
      "addr_postcode": "16510",
      "addr_street": "East 38th Street",
      "addr_housenumber": "2007",
      "value": 82.26246407825893
    },
    {
      "id": 185412,
      "geometry": "POINT (-80.139027 42.102609)",
      "poi_name": "Popeyes",
      "osm_id": 7854994563,
      "amenity": "fast_food",
      "cuisine": "chicken",
      "takeaway": "yes",
      "official_name": "Popeyes Louisiana Kitchen",
      "addr_state": "PA",
      "addr_city": "Erie",
      "addr_postcode": "16505",
      "addr_street": "West 12th Street",
      "addr_housenumber": "2600",
      "value": 82.26246407825893
    },
    {
      "id": 185413,
      "geometry": "POINT (-80.143382 42.10523)",
      "poi_name": "Subway",
      "osm_id": 7854999555,
      "amenity": "fast_food",
      "cuisine": "sandwich",
      "takeaway": "yes",
      "addr_state": "PA",
      "addr_city": "Erie",
      "addr_postcode": "16505",
      "addr_street": "West 8th Street",
      "addr_housenumber": "2665",
      "value": 82.26246407825893
    },
    {
      "id": 185893,
      "geometry": "POINT (-80.144703 42.100875)",
      "poi_name": "Domino's",
      "osm_id": 7890338371,
      "amenity": "fast_food",
      "cuisine": "pizza",
      "takeaway": "yes",
      "addr_state": "PA",
      "addr_city": "Erie",
      "addr_postcode": "16505",
      "addr_street": "Peninsula Drive",
      "addr_housenumber": "1101",
      "value": 82.26246407825893
    },
    {
      "id": 242453,
      "geometry": "POINT (-80.082704 42.122712)",
      "poi_name": "Arby's",
      "osm_id": 7571688004,
      "amenity": "fast_food",
      "cuisine": "sandwich",
      "takeaway": "yes",
      "addr_state": "PA",
      "addr_city": "Erie",
      "addr_postcode": "16501",
      "addr_street": "West 12th Street",
      "addr_housenumber": "101",
      "value": 82.26246407825893
    },
    {
      "id": 242464,
      "geometry": "POINT (-80.032359 42.108128)",
      "poi_name": "Little Caesars",
      "osm_id": 7572869959,
      "amenity": "fast_food",
      "cuisine": "pizza",
      "opening_hours": "Mo-Su 11:00-22:00",
      "website": "https://littlecaesars.com/en-us/store/2505/",
      "phone": "+1 (814) 825-9434",
      "takeaway": "yes",
      "addr_state": "PA",
      "addr_city": "Erie",
      "addr_postcode": "16504",
      "addr_street": "East Grandview Boulevard",
      "addr_housenumber": "1332",
      "value": 82.26246407825893
    },
    {
      "id": 242469,
      "geometry": "POINT (-80.083293 42.095014)",
      "poi_name": "Papa John's",
      "osm_id": 7573265557,
      "amenity": "fast_food",
      "cuisine": "pizza",
      "takeaway": "yes",
      "addr_state": "PA",
      "addr_city": "Erie",
      "addr_postcode": "16509",
      "addr_street": "Peach Street",
      "addr_housenumber": "3870",
      "value": 82.26246407825893
    },
    {
      "id": 242470,
      "geometry": "POINT (-80.084476 42.09102)",
      "poi_name": "Burger King",
      "osm_id": 7573281377,
      "amenity": "fast_food",
      "cuisine": "burger",
      "takeaway": "yes",
      "addr_state": "PA",
      "addr_city": "Erie",
      "addr_postcode": "16509",
      "addr_street": "Peach Street",
      "addr_housenumber": "4205",
      "value": 82.26246407825893
    },
    {
      "id": 242471,
      "geometry": "POINT (-80.085242 42.08982)",
      "poi_name": "Taco Bell",
      "osm_id": 7573290546,
      "amenity": "fast_food",
      "cuisine": "tex-mex",
      "website": "https://locations.tacobell.com/pa/erie/4305-peach-street.html",
      "takeaway": "yes",
      "addr_state": "PA",
      "addr_city": "Erie",
      "addr_postcode": "16509",
      "addr_street": "Peach Street",
      "addr_housenumber": "4305",
      "value": 82.26246407825893
    },
    {
      "id": 242472,
      "geometry": "POINT (-80.084118 42.09206)",
      "poi_name": "Arby's",
      "osm_id": 7573292081,
      "amenity": "fast_food",
      "cuisine": "sandwich",
      "takeaway": "yes",
      "addr_state": "PA",
      "addr_city": "Erie",
      "addr_postcode": "16509",
      "addr_street": "Peach Street",
      "addr_housenumber": "4105",
      "value": 82.26246407825893
    },
    {
      "id": 242474,
      "geometry": "POINT (-80.085483 42.089322)",
      "poi_name": "McDonald's",
      "osm_id": 7573305924,
      "amenity": "fast_food",
      "cuisine": "burger",
      "website": "https://www.mcdonalds.com/us/en-us/location/pa/erie/4319-peach-st/110.html",
      "takeaway": "yes",
      "addr_state": "PA",
      "addr_city": "Erie",
      "addr_postcode": "16509",
      "addr_street": "Peach Street",
      "addr_housenumber": "4319",
      "value": 82.26246407825893
    },
    {
      "id": 242477,
      "geometry": "POINT (-80.08432 42.093101)",
      "poi_name": "Panera Bread",
      "osm_id": 7573345230,
      "amenity": "fast_food",
      "cuisine": "sandwich;bakery",
      "takeaway": "yes",
      "addr_state": "PA",
      "addr_city": "Erie",
      "addr_postcode": "16509",
      "addr_street": "Peach Street",
      "addr_housenumber": "4014",
      "value": 82.26246407825893
    },
    {
      "id": 242490,
      "geometry": "POINT (-80.081562 42.098178)",
      "poi_name": "Dairy Queen",
      "osm_id": 7573509939,
      "amenity": "fast_food",
      "cuisine": "ice_cream;burger",
      "takeaway": "yes",
      "addr_state": "PA",
      "addr_city": "Erie",
      "addr_postcode": "16508",
      "addr_street": "Peach Street",
      "addr_housenumber": "3710",
      "value": 82.26246407825893
    },
    {
      "id": 242605,
      "geometry": "POINT (-80.07302 42.128217)",
      "poi_name": "Little Caesars",
      "osm_id": 7581099079,
      "amenity": "fast_food",
      "cuisine": "pizza",
      "website": "https://littlecaesars.com/en-us/store/2499/",
      "takeaway": "yes",
      "addr_state": "PA",
      "addr_city": "Erie",
      "addr_postcode": "16503",
      "addr_street": "Parade Street",
      "addr_housenumber": "1025",
      "value": 82.26246407825893
    },
    {
      "id": 244347,
      "geometry": "POINT (-80.00837 42.094705)",
      "poi_name": "Wendy's",
      "osm_id": 7716985124,
      "amenity": "fast_food",
      "cuisine": "burger",
      "takeaway": "yes",
      "addr_state": "PA",
      "addr_city": "Erie",
      "addr_postcode": "16509",
      "addr_street": "Wattsburg Road",
      "addr_housenumber": "5902",
      "value": 82.26246407825893
    },
    {
      "id": 242815,
      "geometry": "POINT (-80.005411 42.144499)",
      "poi_name": "Taco Bell",
      "osm_id": 7600690444,
      "amenity": "fast_food",
      "cuisine": "american;mexican",
      "opening_hours": "Mo-Su 08:00-02:00",
      "website": "https://locations.tacobell.com/pa/erie/4225-buffalo-road.html",
      "phone": "+1 (814) 899-7910",
      "takeaway": "yes",
      "addr_state": "PA",
      "addr_city": "Erie",
      "addr_postcode": "16510",
      "addr_street": "Buffalo Road",
      "addr_housenumber": "4225",
      "value": 82.26246407825893
    },
    {
      "id": 242828,
      "geometry": "POINT (-80.126465 42.112067)",
      "poi_name": "Little Caesars",
      "osm_id": 7601070189,
      "amenity": "fast_food",
      "cuisine": "pizza",
      "website": "https://littlecaesars.com/en-us/store/2501/",
      "takeaway": "yes",
      "addr_state": "PA",
      "addr_city": "Erie",
      "addr_postcode": "16505",
      "addr_street": "West 8th Street",
      "addr_housenumber": "1904",
      "value": 82.26246407825893
    },
    {
      "id": 242662,
      "geometry": "POINT (-80.033276 42.1141)",
      "poi_name": "Marco's Pizza",
      "osm_id": 7590359977,
      "amenity": "fast_food",
      "cuisine": "pizza",
      "takeaway": "yes",
      "addr_state": "PA",
      "addr_city": "Erie",
      "addr_postcode": "16504",
      "addr_street": "East 38th Street",
      "addr_housenumber": "1509",
      "value": 82.26246407825893
    },
    {
      "id": 242663,
      "geometry": "POINT (-80.033647 42.113968)",
      "poi_name": "Subway",
      "osm_id": 7590359978,
      "amenity": "fast_food",
      "cuisine": "sandwich",
      "takeaway": "yes",
      "addr_state": "PA",
      "addr_city": "Erie",
      "addr_postcode": "16504",
      "addr_street": "East 38th Street",
      "addr_housenumber": "1501",
      "value": 82.26246407825893
    },
    {
      "id": 242665,
      "geometry": "POINT (-80.029595 42.11551)",
      "poi_name": "Papa John's",
      "osm_id": 7590381936,
      "amenity": "fast_food",
      "cuisine": "pizza",
      "takeaway": "yes",
      "addr_state": "PA",
      "addr_city": "Erie",
      "addr_postcode": "16510",
      "addr_street": "East 38th Street",
      "addr_housenumber": "1713",
      "value": 82.26246407825893
    },
    {
      "id": 242769,
      "geometry": "POINT (-80.133467 42.108506)",
      "poi_name": "Jimmy John's",
      "osm_id": 7596915739,
      "amenity": "fast_food",
      "cuisine": "sandwich",
      "takeaway": "yes",
      "official_name": "Jimmy John's Gourmet Sandwiches",
      "addr_state": "PA",
      "addr_city": "Erie",
      "addr_postcode": "16505",
      "addr_street": "Pittsburgh Avenue",
      "addr_housenumber": "821",
      "value": 82.26246407825893
    },
    {
      "id": 244003,
      "geometry": "POINT (-80.145746 42.09931)",
      "poi_name": "Taco Bell",
      "osm_id": 7692614250,
      "amenity": "fast_food",
      "cuisine": "tex-mex",
      "website": "https://locations.tacobell.com/pa/erie/2909-w-12th-street.html",
      "takeaway": "yes",
      "addr_state": "PA",
      "addr_city": "Erie",
      "addr_postcode": "16505",
      "addr_street": "West 12th Street",
      "addr_housenumber": "2909",
      "value": 82.26246407825893
    },
    {
      "id": 244192,
      "geometry": "POINT (-80.087064 42.128022)",
      "poi_name": "Chick-fil-A",
      "osm_id": 7707419244,
      "amenity": "fast_food",
      "cuisine": "chicken",
      "takeaway": "yes",
      "addr_state": "PA",
      "addr_city": "Erie",
      "addr_postcode": "16501",
      "addr_street": "West 7th Street",
      "addr_housenumber": "124",
      "value": 82.26246407825893
    },
    {
      "id": 244641,
      "geometry": "POINT (-79.840713 42.213892)",
      "poi_name": "Burger King",
      "osm_id": 7734114209,
      "amenity": "fast_food",
      "cuisine": "burger",
      "takeaway": "yes",
      "addr_state": "PA",
      "addr_city": "North East",
      "addr_postcode": "16428",
      "addr_street": "West Main Street",
      "addr_housenumber": "99",
      "value": 82.26246407825893
    },
    {
      "id": 244642,
      "geometry": "POINT (-79.840786 42.213412)",
      "poi_name": "Little Caesars",
      "osm_id": 7734131192,
      "amenity": "fast_food",
      "cuisine": "pizza",
      "website": "https://littlecaesars.com/en-us/store/2502/",
      "takeaway": "yes",
      "addr_state": "PA",
      "addr_city": "North East",
      "addr_postcode": "16428",
      "addr_street": "West Main Street",
      "addr_housenumber": "109",
      "value": 82.26246407825893
    }
  ],
  "answer_type": "name",
  "question_entities": {
    "[2]": {
      "distance": 30000,
      "text": "30 kilometers"
    },
    "[3]": {
      "main_category": "tourism",
      "sub_category": "gallery",
      "display_name": "Artlore Studio, Erie, PA",
      "geo_wkt": "POINT (-80.163447 42.101358)",
      "poi": {
        "id": 26836,
        "geometry": "POINT (-80.163447 42.101358)",
        "poi_name": "Artlore Studio",
        "osm_id": 7574244111,
        "tourism": "gallery",
        "addr_state": "PA",
        "addr_city": "Erie",
        "addr_postcode": "16505",
        "addr_street": "West Lake Road",
        "addr_housenumber": "3406"
      }
    },
    "[4]": {
      "main_category": "tourism",
      "sub_category": "viewpoint",
      "display_name": "Glenhill Farmhouse, Erie, PA",
      "geo_wkt": "POINT (-79.985748 42.119196)",
      "poi": {
        "id": 241,
        "geometry": "POINT (-79.985748 42.119196)",
        "poi_name": "Glenhill Farmhouse",
        "osm_id": 8255522795,
        "tourism": "viewpoint",
        "opening_hours": "Mo-Fr 08:00-17:00",
        "operator": "Penn State Behrend",
        "addr_state": "PA",
        "addr_city": "Erie",
        "addr_postcode": "16563",
        "addr_street": "College Drive",
        "addr_housenumber": "4701"
      }
    },
    "[1]": {
      "main_category": "amenity",
      "sub_category": "fast_food"
    }
  },
  "id": 1611,
  "type": "range:towards+name"
}