{
  "question": "I'm searching for a university within 160 kilometers radii from Greene Naftali Gallery, New York, NY, any suggestions where it is?",
  "sql": "SELECT * FROM pois\nWHERE ST_DWithin(pois.geometry, ST_GeomFromText('POINT (-74.003585 40.74977)',4326)::geography, 160000)\nAND amenity = 'university';\n",
  "answers": [
    {
      "id": 34678,
      "geometry": "POINT (-73.990094 40.748387)",
      "poi_name": "CUNY School of Professional Studies",
      "osm_id": 2703449228,
      "amenity": "university",
      "operator": "City University of New York",
      "addr_state": "NY",
      "addr_city": "New York",
      "addr_postcode": "10001",
      "addr_street": "West 31st Street",
      "addr_housenumber": "119"
    },
    {
      "id": 35073,
      "geometry": "POINT (-73.983176 40.770074)",
      "poi_name": "New York Institute of Technology",
      "osm_id": 2710082455,
      "amenity": "university",
      "addr_state": "NY",
      "addr_city": "New York",
      "addr_postcode": "10023",
      "addr_street": "West 61st Street",
      "addr_housenumber": "26"
    },
    {
      "id": 35095,
      "geometry": "POINT (-73.993669 40.736284)",
      "poi_name": "Student Study Center",
      "osm_id": 2710177862,
      "amenity": "university",
      "operator": "The New School",
      "addr_city": "New York",
      "addr_postcode": "10011",
      "addr_street": "5th Avenue",
      "addr_housenumber": "90"
    },
    {
      "id": 39110,
      "geometry": "POINT (-75.129394 40.086172)",
      "poi_name": "Salus University",
      "osm_id": 2903322114,
      "amenity": "university",
      "website": "https://www.salus.edu/",
      "phone": "+1-215-780-1400",
      "wikidata": "Q7406311",
      "addr_state": "PA",
      "addr_city": "Elkins Park",
      "addr_postcode": "19027",
      "addr_street": "Old York Road",
      "addr_housenumber": "8360"
    },
    {
      "id": 57741,
      "geometry": "POINT (-75.192951 39.952747)",
      "poi_name": "Jaffe",
      "osm_id": 5349684421,
      "amenity": "university",
      "wheelchair": "yes",
      "addr_city": "Philadelphia",
      "addr_postcode": "19104",
      "addr_street": "Woodland Walk",
      "addr_housenumber": "3405"
    },
    {
      "id": 63022,
      "geometry": "POINT (-74.197392 40.946212)",
      "poi_name": "Science Hall East",
      "osm_id": 5597728216,
      "amenity": "university",
      "addr_state": "NJ",
      "addr_city": "Wayne",
      "addr_postcode": "07470",
      "addr_street": "Pompton Road",
      "addr_housenumber": "300"
    },
    {
      "id": 63023,
      "geometry": "POINT (-74.197766 40.946744)",
      "poi_name": "Science Hall West",
      "osm_id": 5597728217,
      "amenity": "university",
      "addr_state": "NJ",
      "addr_city": "Wayne",
      "addr_postcode": "07470",
      "addr_street": "Pompton Road",
      "addr_housenumber": "300"
    },
    {
      "id": 63024,
      "geometry": "POINT (-74.19993 40.945873)",
      "poi_name": "Speert Hall",
      "osm_id": 5597729522,
      "amenity": "university",
      "addr_state": "NJ",
      "addr_city": "Wayne",
      "addr_postcode": "07470",
      "addr_street": "Pompton Road",
      "addr_housenumber": "300"
    },
    {
      "id": 63245,
      "geometry": "POINT (-74.222716 40.96713)",
      "poi_name": "Russ Berrie Institute for Professional Sales",
      "osm_id": 5605978384,
      "amenity": "university",
      "addr_state": "NJ",
      "addr_city": "Wayne",
      "addr_postcode": "07470",
      "addr_street": "Valley Road",
      "addr_housenumber": "1600"
    },
    {
      "id": 63246,
      "geometry": "POINT (-74.222484 40.967732)",
      "poi_name": "Role Play Bldg",
      "osm_id": 5605978385,
      "amenity": "university",
      "addr_state": "NJ",
      "addr_city": "Wayne",
      "addr_postcode": "07470",
      "addr_street": "Valley Road",
      "addr_housenumber": "1600"
    },
    {
      "id": 63247,
      "geometry": "POINT (-74.222565 40.967502)",
      "poi_name": "William Paterson University School of Continuing and Professional Education",
      "osm_id": 5605978386,
      "amenity": "university",
      "addr_state": "NJ",
      "addr_city": "Wayne",
      "addr_postcode": "07470",
      "addr_street": "Valley Road",
      "addr_housenumber": "1600"
    },
    {
      "id": 126962,
      "geometry": "POINT (-73.542555 41.052229)",
      "poi_name": "UCONN Stamford Dorms",
      "osm_id": 8014918079,
      "amenity": "university",
      "addr_state": "CT",
      "addr_city": "Stamford",
      "addr_postcode": "06901",
      "addr_street": "Washington Boulevard",
      "addr_housenumber": "914"
    },
    {
      "id": 138346,
      "geometry": "POINT (-73.041211 41.554134)",
      "poi_name": "Post University",
      "osm_id": 6142691782,
      "amenity": "university",
      "addr_state": "CT",
      "addr_city": "Waterbury",
      "addr_postcode": "06702",
      "addr_street": "Bank Street",
      "addr_housenumber": "140"
    },
    {
      "id": 158187,
      "geometry": "POINT (-73.999408 40.730677)",
      "poi_name": "New York University School of Law",
      "osm_id": 4738808806,
      "amenity": "university",
      "wheelchair": "yes",
      "operator": "New York University",
      "wikidata": "Q846173",
      "addr_state": "NY",
      "addr_city": "New York",
      "addr_postcode": "10012",
      "addr_street": "Washington Square South",
      "addr_housenumber": "40"
    },
    {
      "id": 158346,
      "geometry": "POINT (-73.995686 40.728648)",
      "poi_name": "Courant Institute of Mathematical Sciences",
      "osm_id": 4743911217,
      "amenity": "university",
      "internet_access": "no",
      "wikidata": "Q946028",
      "addr_state": "NY",
      "addr_city": "New York",
      "addr_postcode": "10012",
      "addr_street": "Mercer Street",
      "addr_housenumber": "251"
    },
    {
      "id": 167503,
      "geometry": "POINT (-73.983102 40.773839)",
      "poi_name": "The Juilliard School",
      "osm_id": 357607753,
      "amenity": "university",
      "website": "https://www.juilliard.edu/",
      "internet_access": "wlan",
      "phone": "+1-212-799-5000",
      "wikidata": "Q503246",
      "addr_state": "NY",
      "addr_city": "New York",
      "addr_postcode": "10023-6588",
      "addr_street": "Lincoln Center Plaza",
      "addr_housenumber": "60"
    },
    {
      "id": 167509,
      "geometry": "POINT (-73.427778 40.752778)",
      "poi_name": "Farmingdale State College (SUNY)",
      "osm_id": 357615813,
      "amenity": "university",
      "operator": "State of New York",
      "website": "https://www.farmingdale.edu/",
      "phone": "631-420-2000",
      "official_name": "Farmingdale State College (SUNY)",
      "addr_state": "NY",
      "addr_city": "Farmingdale",
      "addr_postcode": "11735-1021",
      "addr_street": "Broad Hollow Road",
      "addr_housenumber": "2350"
    },
    {
      "id": 168213,
      "geometry": "POINT (-73.995715 40.728699)",
      "poi_name": "NYU Courant Institute of Mathematical Sciences",
      "osm_id": 368055987,
      "amenity": "university",
      "internet_access": "wlan",
      "phone": "+12129983315",
      "wikidata": "Q946028",
      "addr_state": "NY",
      "addr_city": "New York",
      "addr_street": "Mercer Street",
      "addr_housenumber": "251"
    },
    {
      "id": 172590,
      "geometry": "POINT (-73.995675 40.750536)",
      "poi_name": "Touro College",
      "osm_id": 2407444755,
      "amenity": "university",
      "website": "https://www.touro.edu/",
      "wikidata": "Q7669715",
      "addr_city": "New York",
      "addr_postcode": "10001",
      "addr_street": "West 31st Street",
      "addr_housenumber": "320"
    },
    {
      "id": 228324,
      "geometry": "POINT (-73.989774 40.739706)",
      "poi_name": "Stanford in New York Center",
      "osm_id": 4338958231,
      "amenity": "university",
      "operator": "The Board of Trustees of the Leland Stanford Junior University",
      "website": "https://undergrad.stanford.edu/stanford-in-new-york",
      "phone": "(212) 768-2905",
      "addr_state": "NY",
      "addr_city": "New York",
      "addr_postcode": "10010",
      "addr_street": "Broadway",
      "addr_housenumber": "915"
    },
    {
      "id": 232217,
      "geometry": "POINT (-73.988988 40.755324)",
      "poi_name": "CUNY Graduate School of Journalism",
      "osm_id": 4515559287,
      "amenity": "university",
      "operator": "City University of New York (CUNY)",
      "website": "https://www.journalism.cuny.edu/",
      "phone": "+1 646 758 7700",
      "wikidata": "Q14706210",
      "addr_state": "NY",
      "addr_city": "New York",
      "addr_postcode": "10018",
      "addr_street": "West 40th Street",
      "addr_housenumber": "219"
    }
  ],
  "answer_type": "loc",
  "question_entities": {
    "[1]": {
      "main_category": "amenity",
      "sub_category": "university"
    },
    "[2]": {
      "distance": 160000,
      "text": "160 kilometers"
    },
    "[3]": {
      "main_category": "tourism",
      "sub_category": "gallery",
      "display_name": "Greene Naftali Gallery, New York, NY",
      "geo_wkt": "POINT (-74.003585 40.74977)",
      "poi": {
        "id": 19655,
        "geometry": "POINT (-74.003585 40.74977)",
        "poi_name": "Greene Naftali Gallery",
        "osm_id": 10859974145,
        "tourism": "gallery",
        "opening_hours": "Tu-Sa 10:00-18:00",
        "website": "https://greenenaftaligallery.com",
        "phone": "+1-212-463-7770",
        "addr_state": "NY",
        "addr_city": "New York",
        "addr_postcode": "10001",
        "addr_street": "West 26th Street",
        "addr_housenumber": "508"
      }
    }
  },
  "id": 2015,
  "type": "range+loc"
}