{
  "question": "Where can I find restaurant as you progress towards Yellow River Game Ranch, Lilburn, GA within 130 kilometers from Centennial High School Football Stadium, Roswell, GA?",
  "sql": "WITH\n    angle AS (SELECT degrees(ST_Azimuth(ST_GeomFromText('POINT (-84.292979 34.007322)',4326)::geography, ST_GeomFromText('POINT (-84.087955 33.833501)',4326)::geography)) AS value)\nSELECT * FROM pois,angle\nWHERE amenity = 'restaurant'\nAND ST_DWithin(pois.geometry, ST_GeomFromText('POINT (-84.292979 34.007322)',4326)::geography, 130000)\nAND (degrees(ST_Azimuth(ST_GeomFromText('POINT (-84.292979 34.007322)',4326)::geography, pois.geometry)) BETWEEN angle.value - 22.5 AND angle.value + 22.5);\n",
  "answers": [
    {
      "id": 28733,
      "geometry": "POINT (-84.256939 33.968856)",
      "poi_name": "Royal Bistro",
      "osm_id": 8255274471,
      "amenity": "restaurant",
      "cuisine": "thai",
      "website": "https://www.royal-bistro.com/",
      "phone": "+1-678-404-7733",
      "addr_state": "GA",
      "addr_city": "Peachtree Corners",
      "addr_postcode": "30092",
      "addr_street": "Spalding Drive",
      "addr_housenumber": "6365",
      "value": 135.42467996044232
    },
    {
      "id": 44306,
      "geometry": "POINT (-83.168233 33.549943)",
      "poi_name": "Hilltop Grocery",
      "osm_id": 3155516262,
      "amenity": "restaurant",
      "cuisine": "regional",
      "opening_hours": "06:00-21:00",
      "capacity": "20",
      "addr_state": "GA",
      "addr_city": "Greensboro",
      "addr_postcode": "30642",
      "addr_street": "Martin Luther King Junior Drive",
      "addr_housenumber": "2071",
      "value": 135.42467996044232
    },
    {
      "id": 33429,
      "geometry": "POINT (-83.90921 33.845327)",
      "poi_name": "Johnny's Pizza",
      "osm_id": 2667199446,
      "amenity": "restaurant",
      "cuisine": "pizza",
      "addr_state": "GA",
      "addr_city": "Loganville",
      "addr_postcode": "30052",
      "addr_street": "Atlanta Highway",
      "addr_housenumber": "4132",
      "value": 135.42467996044232
    },
    {
      "id": 48710,
      "geometry": "POINT (-84.219087 33.969901)",
      "poi_name": "My Friends' Place",
      "osm_id": 3397017794,
      "amenity": "restaurant",
      "cuisine": "sandwich",
      "opening_hours": "Mo-Fr 07:00-15:00, Sa 11:00-14:00",
      "website": "https://myfriendsplacedeli.com/",
      "takeaway": "yes",
      "addr_state": "GA",
      "addr_city": "Norcross",
      "addr_postcode": "30092",
      "addr_street": "Peachtree Parkway Northwest",
      "addr_housenumber": "5450",
      "value": 135.42467996044232
    },
    {
      "id": 48627,
      "geometry": "POINT (-84.219543 33.971839)",
      "poi_name": "Kool Runnings",
      "osm_id": 3392636263,
      "amenity": "restaurant",
      "cuisine": "jamaican",
      "opening_hours": "Mo-Th 11:00-22:00; Fr -Sa 11:00-24:00; Su 11:00-21:00",
      "website": "https://koolrunningsrestaurant.com/",
      "phone": "+1-770-441-0207",
      "takeaway": "yes",
      "addr_state": "GA",
      "addr_city": "Norcross",
      "addr_postcode": "30092",
      "addr_street": "Peachtree Parkway Northwest",
      "addr_housenumber": "5450",
      "value": 135.42467996044232
    },
    {
      "id": 48709,
      "geometry": "POINT (-84.219087 33.969767)",
      "poi_name": "Samui Thai Cuisine",
      "osm_id": 3397017793,
      "amenity": "restaurant",
      "cuisine": "thai",
      "website": "http://samuithaicuisine-ga.com/",
      "addr_state": "GA",
      "addr_city": "Norcross",
      "addr_postcode": "30092",
      "addr_street": "Peachtree Parkway Northwest",
      "addr_housenumber": "5450",
      "value": 135.42467996044232
    },
    {
      "id": 75957,
      "geometry": "POINT (-84.174512 33.925018)",
      "poi_name": "Las Islitas Mexican Bar & Grill",
      "osm_id": 9753311871,
      "amenity": "restaurant",
      "opening_hours": "Mo-Th, Su 10:00-22:00, Fr, Sa 10:00-23:30",
      "website": "https://lasislitasmexicanbargrill.business.site",
      "phone": "470-545-2629",
      "addr_state": "GA",
      "addr_city": "Norcross",
      "addr_postcode": "30093",
      "addr_street": "5125 Willow Oak Trail NW",
      "value": 135.42467996044232
    },
    {
      "id": 99917,
      "geometry": "POINT (-83.713298 33.794409)",
      "poi_name": "Your Pie",
      "osm_id": 6568335402,
      "amenity": "restaurant",
      "cuisine": "pizza",
      "website": "https://yourpie.com/stores/monroe/",
      "phone": "+1-678-635-8715",
      "takeaway": "yes",
      "addr_state": "GA",
      "addr_city": "Monroe",
      "addr_postcode": "30655",
      "addr_street": "South Broad Street",
      "addr_housenumber": "110",
      "value": 135.42467996044232
    },
    {
      "id": 99453,
      "geometry": "POINT (-83.85996 33.596986)",
      "poi_name": "Mystic Grill",
      "osm_id": 6552122477,
      "amenity": "restaurant",
      "cuisine": "steak_house;burger",
      "website": "https://mysticgrill.restaurant/",
      "phone": "+1-770-728-1670",
      "addr_state": "GA",
      "addr_city": "Covington",
      "addr_postcode": "30014",
      "addr_street": "Clark Street Southwest",
      "addr_housenumber": "1116",
      "value": 135.42467996044232
    },
    {
      "id": 99919,
      "geometry": "POINT (-83.713139 33.795294)",
      "poi_name": "Amici Italian Cafe",
      "osm_id": 6568374773,
      "amenity": "restaurant",
      "cuisine": "pizza;italian;wings",
      "opening_hours": "Su-We 11:00-21:00, Th-Sa 11:00-22:00",
      "website": "https://amici-cafe.com/locations/monroe/",
      "phone": "+1-770-266-6803",
      "addr_state": "GA",
      "addr_city": "Monroe",
      "addr_postcode": "30655",
      "addr_street": "North Broad Street",
      "addr_housenumber": "116",
      "value": 135.42467996044232
    },
    {
      "id": 99960,
      "geometry": "POINT (-83.713421 33.794962)",
      "poi_name": "Little Italy Peppino's Pizzeria",
      "osm_id": 6568988888,
      "amenity": "restaurant",
      "cuisine": "pizza",
      "opening_hours": "Tu-Sa 11:00-22:00, Su 12:00-22:00",
      "phone": "+1-770-207-0048",
      "addr_state": "GA",
      "addr_city": "Monroe",
      "addr_postcode": "30655",
      "addr_street": "North Broad Street",
      "addr_housenumber": "105",
      "value": 135.42467996044232
    },
    {
      "id": 99961,
      "geometry": "POINT (-83.715131 33.658343)",
      "poi_name": "Hot Rods Diner",
      "osm_id": 6569017420,
      "amenity": "restaurant",
      "phone": "+1-770-464-3464",
      "addr_state": "GA",
      "addr_city": "Social Circle",
      "addr_postcode": "30025",
      "addr_street": "North Cherokee Road",
      "addr_housenumber": "294",
      "value": 135.42467996044232
    },
    {
      "id": 100186,
      "geometry": "POINT (-83.718973 33.655972)",
      "poi_name": "Willy's Mex Mex Grill",
      "osm_id": 6577827259,
      "amenity": "restaurant",
      "cuisine": "mexican",
      "opening_hours": "Mo-Sa 11:00-22:30, Su 11:00-22:00",
      "phone": "+1-770-464-2600",
      "addr_state": "GA",
      "addr_city": "Social Circle",
      "addr_postcode": "30025",
      "addr_street": "South Cherokee Road",
      "addr_housenumber": "123",
      "value": 135.42467996044232
    },
    {
      "id": 100187,
      "geometry": "POINT (-83.719316 33.655536)",
      "poi_name": "Hong Kong Garden",
      "osm_id": 6577834072,
      "amenity": "restaurant",
      "cuisine": "chinese",
      "opening_hours": "Mo-Sa 11:00-22:00",
      "addr_state": "GA",
      "addr_city": "Social Circle",
      "addr_postcode": "30025",
      "addr_street": "South Cherokee Road",
      "addr_housenumber": "157",
      "value": 135.42467996044232
    },
    {
      "id": 100195,
      "geometry": "POINT (-83.71282 33.793751)",
      "poi_name": "South on Broad",
      "osm_id": 6577947865,
      "amenity": "restaurant",
      "cuisine": "regional",
      "opening_hours": "Tu-Th 11:30-15:00, 17:00-22:00; Fr-Sa 11:30-15:00, 17:00-23:00",
      "website": "https://www.southonbroadmonroe.com",
      "phone": "+1-678-635-6201",
      "outdoor_seating": "yes",
      "addr_state": "GA",
      "addr_city": "Monroe",
      "addr_postcode": "30655",
      "addr_street": "South Broad Street",
      "addr_housenumber": "137",
      "value": 135.42467996044232
    },
    {
      "id": 100391,
      "geometry": "POINT (-83.858987 33.596974)",
      "poi_name": "Lucky Day",
      "osm_id": 6583044345,
      "amenity": "restaurant",
      "cuisine": "mexican",
      "phone": "470-441-9227",
      "addr_state": "GA",
      "addr_city": "Covington",
      "addr_postcode": "30014",
      "addr_street": "Floyd Street Northeast",
      "addr_housenumber": "1113",
      "value": 135.42467996044232
    },
    {
      "id": 100392,
      "geometry": "POINT (-83.859252 33.596682)",
      "poi_name": "City Pharmacy",
      "osm_id": 6583044357,
      "amenity": "restaurant",
      "opening_hours": "Tu-Th 16:00-21:00, Fr 16:00-22:00, Sa 11:00-22:00, Su 11:00-21:00",
      "website": "https://www.citypharmacycov.com/",
      "phone": "+1-470-441-5092",
      "addr_state": "GA",
      "addr_city": "Covington",
      "addr_postcode": "30014",
      "addr_street": "Church Street",
      "addr_housenumber": "1105",
      "value": 135.42467996044232
    },
    {
      "id": 100202,
      "geometry": "POINT (-83.740834 33.794476)",
      "poi_name": "Tokyo Sushi & Hibachi",
      "osm_id": 6578537676,
      "amenity": "restaurant",
      "cuisine": "japanese;sushi",
      "opening_hours": "Mo-Th 11:30-21:30, Fr 11:30-22:00, Sa 12:00-22:00, Su 12:00-21:30",
      "phone": "+1-770-207-1134",
      "addr_state": "GA",
      "addr_city": "Monroe",
      "addr_postcode": "30655",
      "addr_street": "West Spring Street",
      "addr_housenumber": "1946",
      "value": 135.42467996044232
    },
    {
      "id": 102722,
      "geometry": "POINT (-83.715656 33.800633)",
      "poi_name": "Kcalabash",
      "osm_id": 6695026749,
      "amenity": "restaurant",
      "cuisine": "jamaican;burger",
      "opening_hours": "Tu-Sa 11:30-21:00; Su 10:00-18:00",
      "phone": "+1-678-635-6103",
      "addr_state": "GA",
      "addr_city": "Monroe",
      "addr_postcode": "30655",
      "addr_street": "North Broad Street",
      "addr_housenumber": "407",
      "value": 135.42467996044232
    },
    {
      "id": 117594,
      "geometry": "POINT (-84.208168 33.855046)",
      "poi_name": "Honey Joe Cafe",
      "osm_id": 9001603553,
      "amenity": "restaurant",
      "cuisine": "southern;american;breakfast;lunch",
      "website": "https://www.honeyjoecafe.com/",
      "phone": "7704918330",
      "addr_state": "GA",
      "addr_city": "Tucker",
      "addr_postcode": "30084",
      "addr_street": "Lawrenceville Highway",
      "addr_housenumber": "4349",
      "value": 135.42467996044232
    },
    {
      "id": 120711,
      "geometry": "POINT (-83.684096 33.30382)",
      "poi_name": "Taqueria La Eskina",
      "osm_id": 6720117223,
      "amenity": "restaurant",
      "cuisine": "mexican",
      "opening_hours": "Mo-Th 11:00-09:00, Fr 11:00-10:00, Sa 12:00-10:00, Su closed",
      "phone": "+1-762-435-7156",
      "addr_state": "GA",
      "addr_city": "Monticello",
      "addr_postcode": "31064",
      "addr_street": "West Washington Street",
      "addr_housenumber": "107",
      "value": 135.42467996044232
    },
    {
      "id": 140049,
      "geometry": "POINT (-83.859939 33.595905)",
      "poi_name": "Your Pie",
      "osm_id": 6228340785,
      "amenity": "restaurant",
      "cuisine": "pizza;sandwich",
      "opening_hours": "Su-Th 11:00-21:00, Fr-Sa 11:00-22:00",
      "website": "https://yourpie.com/stores/covington/",
      "phone": "+1-470-327-2799",
      "addr_state": "GA",
      "addr_city": "Covington",
      "addr_postcode": "30014",
      "addr_street": "Washington Street Southwest",
      "addr_housenumber": "1115",
      "value": 135.42467996044232
    },
    {
      "id": 147832,
      "geometry": "POINT (-84.121035 33.901847)",
      "poi_name": "Pizza Hut",
      "osm_id": 7564429724,
      "amenity": "restaurant",
      "cuisine": "pizza",
      "addr_state": "GA",
      "addr_city": "Lilburn",
      "addr_postcode": "30047",
      "addr_street": "Lawrenceville Highway",
      "addr_housenumber": "4230",
      "value": 135.42467996044232
    },
    {
      "id": 162460,
      "geometry": "POINT (-84.214451 33.852702)",
      "poi_name": "The Local 7",
      "osm_id": 4931682649,
      "amenity": "restaurant",
      "addr_state": "GA",
      "addr_city": "Tucker",
      "addr_postcode": "30084",
      "addr_street": "Main Street",
      "addr_housenumber": "2316",
      "value": 135.42467996044232
    },
    {
      "id": 163002,
      "geometry": "POINT (-84.107298 33.711061)",
      "poi_name": "Waylow Street Tacos",
      "osm_id": 9395598155,
      "amenity": "restaurant",
      "cuisine": "mexican",
      "phone": "+1 678 201 8016",
      "addr_state": "GA",
      "addr_city": "Lithonia",
      "addr_street": "Main Street",
      "addr_housenumber": "6941",
      "value": 135.42467996044232
    },
    {
      "id": 173587,
      "geometry": "POINT (-84.013136 33.594665)",
      "poi_name": "Los Charros Mexican Restaurant",
      "osm_id": 2445249888,
      "amenity": "restaurant",
      "cuisine": "mexican",
      "wheelchair": "yes",
      "opening_hours": "Mo-Th 11:00-22:00; Fr,Sa 11:00-22:30; Su 11:30-22:00",
      "website": "http://www.loscharrosonline.com/",
      "phone": "+1 770 483-5408",
      "addr_state": "GA",
      "addr_city": "Conyers",
      "addr_postcode": "30013",
      "value": 135.42467996044232
    },
    {
      "id": 173591,
      "geometry": "POINT (-84.016544 33.548757)",
      "poi_name": "World of Wings",
      "osm_id": 2445256505,
      "amenity": "restaurant",
      "cuisine": "chicken",
      "opening_hours": "Mo-Th 11:00-21:30; Fr-Sa 11:00-22:00; Su 12:00-20:00",
      "phone": "+1-770-787-4417",
      "addr_city": "Covington",
      "addr_postcode": "30016",
      "addr_street": "Highway 20 S",
      "addr_housenumber": "5340",
      "value": 135.42467996044232
    },
    {
      "id": 184476,
      "geometry": "POINT (-84.278534 33.991245)",
      "poi_name": "Waffle House",
      "osm_id": 7793061602,
      "amenity": "restaurant",
      "cuisine": "american",
      "opening_hours": "24/7",
      "addr_state": "GA",
      "addr_city": "Alpharetta",
      "addr_postcode": "30022",
      "addr_street": "Holcomb Bridge Road",
      "addr_housenumber": "2850",
      "value": 135.42467996044232
    },
    {
      "id": 185216,
      "geometry": "POINT (-84.274028 33.987414)",
      "poi_name": "di Paolo",
      "osm_id": 7838424648,
      "amenity": "restaurant",
      "cuisine": "italian",
      "opening_hours": "Tu-Th 17:30-21:00; Fr-Sa 17:30-22:00; Su 17:30-21:00",
      "website": "https://www.dipaolorestaurant.com/",
      "phone": "+1-770-587-1051",
      "addr_state": "GA",
      "addr_city": "Roswell",
      "addr_postcode": "30075",
      "addr_street": "Holcomb Bridge Road",
      "addr_housenumber": "8560",
      "value": 135.42467996044232
    },
    {
      "id": 186815,
      "geometry": "POINT (-84.27086 33.988049)",
      "poi_name": "taste... a seasonal bistro",
      "osm_id": 7947152351,
      "amenity": "restaurant",
      "cuisine": "american",
      "opening_hours": "Mo-Fr 11:00-18:00; PH unknown",
      "website": "https://www.taste-bistro.com/",
      "phone": "+1-770-284-0805",
      "addr_state": "GA",
      "addr_city": "Alpharetta",
      "addr_postcode": "30022",
      "addr_street": "Holcomb Bridge Road",
      "addr_housenumber": "8465",
      "value": 135.42467996044232
    },
    {
      "id": 186817,
      "geometry": "POINT (-84.269834 33.987664)",
      "poi_name": "Yummy Top",
      "osm_id": 7947152360,
      "amenity": "restaurant",
      "cuisine": "chinese",
      "addr_state": "GA",
      "addr_city": "Alpharetta",
      "addr_postcode": "30022",
      "addr_street": "Holcomb Bridge Road",
      "addr_housenumber": "8465",
      "value": 135.42467996044232
    },
    {
      "id": 186803,
      "geometry": "POINT (-84.274303 33.990011)",
      "poi_name": "Jamaican Deli",
      "osm_id": 7946461397,
      "amenity": "restaurant",
      "cuisine": "caribbean",
      "opening_hours": "Mo-Fr 12:00-17:00",
      "website": "https://jamaicandeli.com/",
      "phone": "+1-678-353-6130",
      "addr_state": "GA",
      "addr_city": "Roswell",
      "addr_postcode": "30076",
      "addr_street": "Holcomb Bridge Road",
      "addr_housenumber": "2880",
      "value": 135.42467996044232
    },
    {
      "id": 200908,
      "geometry": "POINT (-84.0789 33.834272)",
      "poi_name": "Bay Breeze Seafood",
      "osm_id": 600242041,
      "amenity": "restaurant",
      "addr_state": "GA",
      "addr_city": "Lilburn",
      "addr_postcode": "30047",
      "addr_street": "Stone Mountain Highway",
      "addr_housenumber": "4300",
      "value": 135.42467996044232
    },
    {
      "id": 205409,
      "geometry": "POINT (-83.275456 33.414989)",
      "poi_name": "Bone Island Grill",
      "osm_id": 7167783237,
      "amenity": "restaurant",
      "cuisine": "chicken;seafood;burger;sandwich",
      "opening_hours": "We-Su 04:00-21:00",
      "website": "https://www.boneislandgrillhouse.com/",
      "phone": "+1-706-991-1999",
      "addr_state": "GA",
      "addr_city": "Eatonton",
      "addr_postcode": "31024",
      "addr_street": "Greensboro Road",
      "addr_housenumber": "920",
      "value": 135.42467996044232
    },
    {
      "id": 233973,
      "geometry": "POINT (-84.217114 33.977021)",
      "poi_name": "Noble Fin",
      "osm_id": 4594531147,
      "amenity": "restaurant",
      "cuisine": "seafood",
      "phone": "+1-770-599-7979",
      "addr_state": "GA",
      "addr_city": "Peachtree Corners",
      "addr_postcode": "30092",
      "addr_street": "Peachtree Parkway Northwest",
      "addr_housenumber": "5260",
      "value": 135.42467996044232
    },
    {
      "id": 242834,
      "geometry": "POINT (-84.015986 33.871804)",
      "poi_name": "Stevi B's Pizza Buffet",
      "osm_id": 7603120093,
      "amenity": "restaurant",
      "cuisine": "pizza",
      "description": "pizza buffet and togo",
      "opening_hours": "Fr,Sa 11:00-21:00; Su-Th 11:00-20:00",
      "takeaway": "yes",
      "addr_state": "GA",
      "addr_city": "Snellville",
      "addr_postcode": "30078",
      "value": 135.42467996044232
    }
  ],
  "answer_type": "loc",
  "question_entities": {
    "[2]": {
      "distance": 130000,
      "text": "130 kilometers"
    },
    "[3]": {
      "main_category": "leisure",
      "sub_category": "stadium",
      "display_name": "Centennial High School Football Stadium, Roswell, GA",
      "geo_wkt": "POINT (-84.292979 34.007322)",
      "poi": {
        "id": 262496,
        "geometry": "POINT (-84.292979 34.007322)",
        "poi_name": "Centennial High School Football Stadium",
        "osm_id": 358784376,
        "leisure": "stadium",
        "fee": "9 USD",
        "sport": "american_football",
        "addr_state": "GA",
        "addr_city": "Roswell",
        "addr_postcode": "30076"
      }
    },
    "[4]": {
      "main_category": "tourism",
      "sub_category": "zoo",
      "display_name": "Yellow River Game Ranch, Lilburn, GA",
      "geo_wkt": "POINT (-84.087955 33.833501)",
      "poi": {
        "id": 5592,
        "geometry": "POINT (-84.087955 33.833501)",
        "poi_name": "Yellow River Game Ranch",
        "osm_id": 827126721,
        "tourism": "zoo",
        "opening_hours": "Sep Mo[1]-May Mo[-1]: Mo-Fr 10:00-17:00; Sa-Su 10:00-18:00; May Mo[-1]-Sep Mo[1]: Mo-Su 10:00-18:00",
        "website": "https://www.yellowrivergameranch.com/",
        "phone": "+1 (770) 972-6643",
        "zoo": "petting_zoo",
        "addr_state": "GA",
        "addr_city": "Lilburn",
        "addr_postcode": "30047",
        "addr_street": "US 78",
        "addr_housenumber": "4525"
      }
    },
    "[1]": {
      "main_category": "amenity",
      "sub_category": "restaurant"
    }
  },
  "id": 1213,
  "type": "range:towards+loc"
}