{
  "question": "What restaurant can I find positioned within 140 kilometers towards the west of State Line Ruritan Club, Antrim Township, PA?",
  "sql": "\nWITH origin AS  (SELECT ST_GeomFromText('POINT (-77.723185 39.721476)',4326)::geography AS geometry)\nSELECT * FROM pois, origin\nWHERE ST_DWithin(pois.geometry, ST_GeomFromText('POINT (-77.723185 39.721476)',4326)::geography, 140000)\nAND amenity = 'restaurant'\nAND degrees(ST_Azimuth(origin.geometry, pois.geometry)) BETWEEN 247.5 AND 292.5;\n",
  "answers": [
    {
      "id": 31687,
      "geometry": "POINT (-77.723185 39.721476)",
      "poi_name": "Toasted Goat",
      "osm_id": 8441895870,
      "amenity": "restaurant",
      "phone": "+1 240 558 9463",
      "addr_state": "MD",
      "addr_city": "Frostburg",
      "addr_postcode": "21532",
      "addr_street": "West Main Street",
      "addr_housenumber": "11"
    },
    {
      "id": 32191,
      "geometry": "POINT (-77.723185 39.721476)",
      "poi_name": "Tahoe Lodge",
      "osm_id": 2622898061,
      "amenity": "restaurant"
    },
    {
      "id": 43457,
      "geometry": "POINT (-77.723185 39.721476)",
      "poi_name": "Geatz's",
      "osm_id": 3113606231,
      "amenity": "restaurant"
    },
    {
      "id": 71030,
      "geometry": "POINT (-77.723185 39.721476)",
      "poi_name": "Dexter's Laburgertory",
      "osm_id": 11379809688,
      "amenity": "restaurant"
    },
    {
      "id": 58407,
      "geometry": "POINT (-77.723185 39.721476)",
      "poi_name": "Yamato Steak House of Japan",
      "osm_id": 5373915793,
      "amenity": "restaurant",
      "cuisine": "japanese;hibachi;sushi;steak_house",
      "website": "https://www.yamatosteakhousejapanpa.com/",
      "phone": "814-443-6888",
      "takeaway": "yes",
      "outdoor_seating": "no",
      "delivery": "no",
      "addr_state": "PA",
      "addr_city": "Somerset",
      "addr_postcode": "15501",
      "addr_street": "North Center Avenue",
      "addr_housenumber": "1606"
    },
    {
      "id": 63290,
      "geometry": "POINT (-77.723185 39.721476)",
      "poi_name": "Penn Alps",
      "osm_id": 5608316142,
      "amenity": "restaurant",
      "cuisine": "american",
      "wheelchair": "limited",
      "website": "https://www.pennalps.com/",
      "outdoor_seating": "no"
    },
    {
      "id": 97464,
      "geometry": "POINT (-77.723185 39.721476)",
      "poi_name": "Fox\u2019s Den Pizza",
      "osm_id": 6481187897,
      "amenity": "restaurant",
      "cuisine": "pizza"
    },
    {
      "id": 76689,
      "geometry": "POINT (-77.723185 39.721476)",
      "poi_name": "The Rooster's Nest",
      "osm_id": 9787486585,
      "amenity": "restaurant",
      "opening_hours": "Mo-Th 11:00-20:00; Fr 08:00-21:00; Sa 06:00-21:00; Su 06:00-20:00",
      "website": "https://theroostersnestmd.com",
      "phone": "+1-301-895-5168",
      "addr_state": "MD",
      "addr_city": "Grantsville",
      "addr_postcode": "21536",
      "addr_street": "National Pike",
      "addr_housenumber": "12336"
    },
    {
      "id": 76950,
      "geometry": "POINT (-77.723185 39.721476)",
      "poi_name": "Jin\u2019s Asian Cuisine",
      "osm_id": 9797547347,
      "amenity": "restaurant",
      "cuisine": "chinese"
    },
    {
      "id": 83969,
      "geometry": "POINT (-77.723185 39.721476)",
      "poi_name": "Georgie's Pizza",
      "osm_id": 1771825588,
      "amenity": "restaurant",
      "cuisine": "italian"
    },
    {
      "id": 83970,
      "geometry": "POINT (-77.723185 39.721476)",
      "poi_name": "Mi Ranchito",
      "osm_id": 1771832040,
      "amenity": "restaurant",
      "cuisine": "mexican"
    },
    {
      "id": 87299,
      "geometry": "POINT (-77.723185 39.721476)",
      "poi_name": "IHOP",
      "osm_id": 8706755634,
      "amenity": "restaurant",
      "cuisine": "breakfast;pancake"
    },
    {
      "id": 97465,
      "geometry": "POINT (-77.723185 39.721476)",
      "poi_name": "City Lights",
      "osm_id": 6481187912,
      "amenity": "restaurant",
      "cuisine": "american",
      "phone": "+1 301 722 9800",
      "addr_state": "MD",
      "addr_city": "Cumberland",
      "addr_postcode": "21502",
      "addr_street": "Baltimore Street",
      "addr_housenumber": "59"
    },
    {
      "id": 97466,
      "geometry": "POINT (-77.723185 39.721476)",
      "poi_name": "Kline\u2019s Restaurant",
      "osm_id": 6481187926,
      "amenity": "restaurant"
    },
    {
      "id": 97467,
      "geometry": "POINT (-77.723185 39.721476)",
      "poi_name": "Gianni\u2019s Pizza & Wings",
      "osm_id": 6481187928,
      "amenity": "restaurant",
      "cuisine": "pizza"
    },
    {
      "id": 107193,
      "geometry": "POINT (-77.723185 39.721476)",
      "poi_name": "Fatboy's Pizza Shack",
      "osm_id": 3541573195,
      "amenity": "restaurant",
      "cuisine": "pizza"
    },
    {
      "id": 97490,
      "geometry": "POINT (-77.723185 39.721476)",
      "poi_name": "Curtis Famous Weiners",
      "osm_id": 6481830212,
      "amenity": "restaurant",
      "cuisine": "burger"
    },
    {
      "id": 97491,
      "geometry": "POINT (-77.723185 39.721476)",
      "poi_name": "Ristorante Ottaviani",
      "osm_id": 6481830217,
      "amenity": "restaurant",
      "cuisine": "indian"
    },
    {
      "id": 97492,
      "geometry": "POINT (-77.723185 39.721476)",
      "poi_name": "Sammies",
      "osm_id": 6481830226,
      "amenity": "restaurant",
      "cuisine": "american"
    },
    {
      "id": 97493,
      "geometry": "POINT (-77.723185 39.721476)",
      "poi_name": "The Culinaire Caf\u00e9",
      "osm_id": 6481830239,
      "amenity": "restaurant",
      "cuisine": "american"
    },
    {
      "id": 103294,
      "geometry": "POINT (-77.723185 39.721476)",
      "poi_name": "Dedi's Kitchen",
      "osm_id": 8493698114,
      "amenity": "restaurant",
      "addr_state": "MD",
      "addr_city": "Frostburg",
      "addr_postcode": "21532",
      "addr_street": "East Main Street",
      "addr_housenumber": "167"
    },
    {
      "id": 107194,
      "geometry": "POINT (-77.723185 39.721476)",
      "poi_name": "Eastern Express",
      "osm_id": 3541573196,
      "amenity": "restaurant",
      "cuisine": "chinese"
    },
    {
      "id": 107195,
      "geometry": "POINT (-77.723185 39.721476)",
      "poi_name": "Shogun",
      "osm_id": 3541573198,
      "amenity": "restaurant",
      "cuisine": "sushi"
    },
    {
      "id": 107208,
      "geometry": "POINT (-77.723185 39.721476)",
      "poi_name": "Fox's Pizza",
      "osm_id": 3544699053,
      "amenity": "restaurant",
      "cuisine": "pizza"
    },
    {
      "id": 107729,
      "geometry": "POINT (-77.723185 39.721476)",
      "poi_name": "Uno Chicago Grill",
      "osm_id": 3575276206,
      "amenity": "restaurant",
      "cuisine": "pizza",
      "website": "https://deepcreekuno.com/",
      "phone": "+1 301 387 4866",
      "addr_state": "MD",
      "addr_city": "Oakland",
      "addr_postcode": "21550",
      "addr_street": "Garrett Highway",
      "addr_housenumber": "19746"
    },
    {
      "id": 137461,
      "geometry": "POINT (-77.723185 39.721476)",
      "poi_name": "Lot 12 Public House",
      "osm_id": 6100730558,
      "amenity": "restaurant"
    },
    {
      "id": 117382,
      "geometry": "POINT (-77.723185 39.721476)",
      "poi_name": "Dutch\u2019s at Silver Tree",
      "osm_id": 8991432146,
      "amenity": "restaurant"
    },
    {
      "id": 134638,
      "geometry": "POINT (-77.723185 39.721476)",
      "poi_name": "Helen's",
      "osm_id": 11479470113,
      "amenity": "restaurant"
    },
    {
      "id": 137348,
      "geometry": "POINT (-77.723185 39.721476)",
      "poi_name": "Fox's Pizza Den",
      "osm_id": 6094264862,
      "amenity": "restaurant",
      "cuisine": "pizza"
    },
    {
      "id": 130988,
      "geometry": "POINT (-77.723185 39.721476)",
      "poi_name": "The Hornet's Nest",
      "osm_id": 9897854625,
      "amenity": "restaurant"
    },
    {
      "id": 137290,
      "geometry": "POINT (-77.723185 39.721476)",
      "poi_name": "Mountainside Restaurant",
      "osm_id": 6091489835,
      "amenity": "restaurant"
    },
    {
      "id": 157069,
      "geometry": "POINT (-77.723185 39.721476)",
      "poi_name": "Grand China Buffet",
      "osm_id": 4684543306,
      "amenity": "restaurant",
      "cuisine": "chinese"
    },
    {
      "id": 137439,
      "geometry": "POINT (-77.723185 39.721476)",
      "poi_name": "Mountaineer Sports Bar & Grill",
      "osm_id": 6097758022,
      "amenity": "restaurant"
    },
    {
      "id": 153328,
      "geometry": "POINT (-77.723185 39.721476)",
      "poi_name": "Schoolhouse Kitchen",
      "osm_id": 4190448308,
      "amenity": "restaurant"
    },
    {
      "id": 139230,
      "geometry": "POINT (-77.723185 39.721476)",
      "poi_name": "Olde Towne Bakery & Cafe",
      "osm_id": 6188040241,
      "amenity": "restaurant"
    },
    {
      "id": 148377,
      "geometry": "POINT (-77.723185 39.721476)",
      "poi_name": "Avalanche Lodge",
      "osm_id": 3949335358,
      "amenity": "restaurant"
    },
    {
      "id": 148378,
      "geometry": "POINT (-77.723185 39.721476)",
      "poi_name": "Clock Tower Restaurant",
      "osm_id": 3949358681,
      "amenity": "restaurant"
    },
    {
      "id": 148379,
      "geometry": "POINT (-77.723185 39.721476)",
      "poi_name": "Glaciers Pub",
      "osm_id": 3949358682,
      "amenity": "restaurant"
    },
    {
      "id": 148380,
      "geometry": "POINT (-77.723185 39.721476)",
      "poi_name": "Sunrise Sunset Cafe",
      "osm_id": 3949358683,
      "amenity": "restaurant"
    },
    {
      "id": 149708,
      "geometry": "POINT (-77.723185 39.721476)",
      "poi_name": "Panda Restaurant Chinese Food",
      "osm_id": 4020803580,
      "amenity": "restaurant"
    },
    {
      "id": 213309,
      "geometry": "POINT (-77.723185 39.721476)",
      "poi_name": "JJ's & Sons Pizzeria",
      "osm_id": 5246282781,
      "amenity": "restaurant",
      "description": "Fresh Dough Pizza",
      "phone": "+1 301 777 3994",
      "addr_street": "North Centre Street",
      "addr_housenumber": "158"
    },
    {
      "id": 183132,
      "geometry": "POINT (-77.723185 39.721476)",
      "poi_name": "Lindy's",
      "osm_id": 10916896430,
      "amenity": "restaurant"
    },
    {
      "id": 183281,
      "geometry": "POINT (-77.723185 39.721476)",
      "poi_name": "Hank's Diner",
      "osm_id": 10922260762,
      "amenity": "restaurant"
    },
    {
      "id": 161985,
      "geometry": "POINT (-77.723185 39.721476)",
      "poi_name": "Rock City Caf\u00e9",
      "osm_id": 4909237021,
      "amenity": "restaurant",
      "cuisine": "american",
      "phone": "8149261009",
      "addr_postcode": "15557",
      "addr_street": "Main Street",
      "addr_housenumber": "671"
    },
    {
      "id": 234530,
      "geometry": "POINT (-77.723185 39.721476)",
      "poi_name": "Bella Napoli",
      "osm_id": 4627224478,
      "amenity": "restaurant",
      "cuisine": "pizza"
    },
    {
      "id": 237690,
      "geometry": "POINT (-77.723185 39.721476)",
      "poi_name": "Rio Grande Mexican Restaurant",
      "osm_id": 5843255239,
      "amenity": "restaurant",
      "cuisine": "mexican",
      "opening_hours": "Mo-Sa 11:00-22:00; Su 11:00-21:00",
      "website": "https://www.riograndecumberland.com/",
      "phone": "+1-240-362-7311",
      "addr_state": "MD",
      "addr_city": "Cumberland",
      "addr_postcode": "21502",
      "addr_street": "National Highway",
      "addr_housenumber": "1217"
    },
    {
      "id": 218137,
      "geometry": "POINT (-77.723185 39.721476)",
      "poi_name": "Gianni's Pizza and Wings",
      "osm_id": 9261658274,
      "amenity": "restaurant",
      "cuisine": "pizza"
    }
  ],
  "answer_type": "name",
  "question_entities": {
    "[1]": {
      "main_category": "amenity",
      "sub_category": "restaurant"
    },
    "[2]": {
      "distance": 140000,
      "text": "140 kilometers"
    },
    "[3]": {
      "main_category": "leisure",
      "sub_category": "park",
      "display_name": "State Line Ruritan Club, Antrim Township, PA",
      "geo_wkt": "POINT (-77.723185 39.721476)",
      "poi": {
        "id": 248750,
        "geometry": "POINT (-77.723185 39.721476)",
        "poi_name": "State Line Ruritan Club",
        "osm_id": 4747537536,
        "leisure": "park",
        "description": "Park Closed Dusk to Dawn.",
        "website": "https://statelineruritan.com/",
        "addr_state": "PA",
        "addr_city": "Antrim Township",
        "addr_postcode": "17268",
        "addr_street": "Park Rd",
        "addr_housenumber": "15841"
      }
    },
    "[4]": {
      "direction_desc": "west",
      "direction_predicate": "degrees(ST_Azimuth(origin.geometry, pois.geometry)) BETWEEN 247.5 AND 292.5"
    }
  },
  "id": 2608,
  "type": "range:direction+name"
}