{
  "question": "Where can I find a steak house within 120 kilometers from Coastal Living LLC\u200e, Brielle, NJ?",
  "sql": "SELECT * FROM pois\nWHERE ST_DWithin(pois.geometry, ST_GeomFromText('POINT (-74.059149 40.107405)',4326)::geography, 120000)\nAND amenity = 'restaurant'\nAND cuisine ILIKE '%steak_house%';\n",
  "answers": [
    {
      "id": 35318,
      "geometry": "POINT (-73.988859 40.760047)",
      "poi_name": "Frankie and Johnie's Steakhouse",
      "osm_id": 2717293865,
      "amenity": "restaurant",
      "cuisine": "steak_house",
      "opening_hours": "Su 15:30-21:30; Tu 16:30-23:30; We-Sa 12:00-22:30, 16:30-23:30",
      "website": "https://frankieandjohnnies.com/",
      "phone": "+1 212-997-9494",
      "delivery": "no",
      "addr_city": "New York",
      "addr_postcode": "10036",
      "addr_street": "West 46th Street",
      "addr_housenumber": "320"
    },
    {
      "id": 37986,
      "geometry": "POINT (-73.949602 40.714623)",
      "poi_name": "Destefano's Steakhouse",
      "osm_id": 2840742311,
      "amenity": "restaurant",
      "cuisine": "steak_house",
      "website": "https://deesteakhouse.com",
      "phone": "+17183842836",
      "addr_state": "NY",
      "addr_city": "Brooklyn",
      "addr_postcode": "11211",
      "addr_street": "Lorimer Street",
      "addr_housenumber": "593"
    },
    {
      "id": 44651,
      "geometry": "POINT (-74.071782 40.902311)",
      "poi_name": "LongHorn Steakhouse",
      "osm_id": 3167876217,
      "amenity": "restaurant",
      "cuisine": "steak_house",
      "phone": "201-587-0673",
      "addr_state": "NJ",
      "addr_city": "Rochelle Park",
      "addr_postcode": "07662",
      "addr_street": "Route 17 North",
      "addr_housenumber": "160"
    },
    {
      "id": 47150,
      "geometry": "POINT (-73.766341 41.032282)",
      "poi_name": "Morton's The Steakhouse",
      "osm_id": 3310063580,
      "amenity": "restaurant",
      "cuisine": "steak_house",
      "website": "https://www.mortons.com/",
      "phone": "+1 914 683 6101",
      "addr_city": "White Plains",
      "addr_postcode": "10601",
      "addr_street": "Mamaroneck Avenue",
      "addr_housenumber": "5"
    },
    {
      "id": 55396,
      "geometry": "POINT (-74.274045 40.258882)",
      "poi_name": "Charkol",
      "osm_id": 10185029441,
      "amenity": "restaurant",
      "cuisine": "steak_house",
      "opening_hours": "Mo-Su 11:30am-10:00pm (reservations strongly encourage)",
      "website": "https://www.charkol.com/",
      "phone": "7327807427",
      "wikidata": "Q115214128",
      "addr_state": "NJ",
      "addr_city": "Freehold",
      "addr_postcode": "07728",
      "addr_street": "South Street",
      "addr_housenumber": "38"
    },
    {
      "id": 56544,
      "geometry": "POINT (-74.454668 40.614755)",
      "poi_name": "Texas Roadhouse",
      "osm_id": 10240451990,
      "amenity": "restaurant",
      "cuisine": "steak_house",
      "addr_state": "NJ",
      "addr_city": "North Plainfield",
      "addr_postcode": "07060",
      "addr_street": "Route 22",
      "addr_housenumber": "1258"
    },
    {
      "id": 61894,
      "geometry": "POINT (-74.221592 40.955501)",
      "poi_name": "Umi Japanese Steakhouse",
      "osm_id": 5541420284,
      "amenity": "restaurant",
      "cuisine": "japanese;sushi;steak_house",
      "addr_state": "NJ",
      "addr_city": "Wayne",
      "addr_postcode": "07470",
      "addr_street": "Paterson-Hamburg Turnpike",
      "addr_housenumber": "697"
    },
    {
      "id": 65018,
      "geometry": "POINT (-73.676554 40.658766)",
      "poi_name": "Osaka",
      "osm_id": 5682911263,
      "amenity": "restaurant",
      "cuisine": "japanese;steak_house",
      "phone": "(516) 596-4432",
      "addr_state": "NY",
      "addr_city": "Lynbrook",
      "addr_postcode": "11563",
      "addr_street": "Merrick Road",
      "addr_housenumber": "429"
    },
    {
      "id": 69807,
      "geometry": "POINT (-73.78953 40.73972)",
      "poi_name": "Tokyo",
      "osm_id": 11331444160,
      "amenity": "restaurant",
      "cuisine": "japanese;sushi;steak_house",
      "phone": "+1-718-463-2999",
      "addr_state": "NY",
      "addr_city": "Fresh Meadows",
      "addr_postcode": "11365",
      "addr_street": "Horace Harding Expressway",
      "addr_housenumber": "184-12"
    },
    {
      "id": 73665,
      "geometry": "POINT (-73.980351 40.299188)",
      "poi_name": "Salt Steakhouse",
      "osm_id": 9649305044,
      "amenity": "restaurant",
      "cuisine": "steak_house",
      "website": "https://www.saltlb.com/",
      "phone": "7328137258",
      "addr_state": "NJ",
      "addr_city": "Long Branch",
      "addr_postcode": "08701",
      "addr_street": "Morris Avenue",
      "addr_housenumber": "15"
    },
    {
      "id": 74476,
      "geometry": "POINT (-73.970191 40.749211)",
      "poi_name": "Tudor City Steakhouse",
      "osm_id": 9681503388,
      "amenity": "restaurant",
      "cuisine": "steak_house",
      "addr_state": "NY",
      "addr_city": "New York",
      "addr_postcode": "10017",
      "addr_street": "Tudor City Place",
      "addr_housenumber": "45"
    },
    {
      "id": 87641,
      "geometry": "POINT (-73.985318 40.755548)",
      "poi_name": "Charlie Palmer Steak",
      "osm_id": 8729437331,
      "amenity": "restaurant",
      "cuisine": "steak_house",
      "addr_state": "NY",
      "addr_city": "New York",
      "addr_street": "West 42nd Street",
      "addr_housenumber": "135"
    },
    {
      "id": 90197,
      "geometry": "POINT (-74.443308 40.496177)",
      "poi_name": "Steakhouse 85",
      "osm_id": 1982193491,
      "amenity": "restaurant",
      "cuisine": "steak_house",
      "description": "Steakhouse with a surf 'n' turf menu in an upscale space with live jazz on some nights.",
      "website": "https://www.steakhouse85.com/",
      "phone": "+1-732-247-8585",
      "outdoor_seating": "no",
      "addr_state": "NJ",
      "addr_city": "New Brunswick",
      "addr_postcode": "08901",
      "addr_street": "Church Street",
      "addr_housenumber": "85"
    },
    {
      "id": 90923,
      "geometry": "POINT (-73.903879 40.906708)",
      "poi_name": "Riverdale Steak House",
      "osm_id": 2027166578,
      "amenity": "restaurant",
      "cuisine": "steak_house",
      "internet_access": "wlan",
      "addr_state": "NY",
      "addr_city": "Bronx",
      "addr_postcode": "10471",
      "addr_street": "Riverdale Avenue",
      "addr_housenumber": "5700"
    },
    {
      "id": 93784,
      "geometry": "POINT (-75.165508 39.950945)",
      "poi_name": "Del Frisco's Double Eagle Steakhouse",
      "osm_id": 2186349324,
      "amenity": "restaurant",
      "cuisine": "steak_house",
      "opening_hours": "Mo-We 17:00-21:00; Th-Fr 17:00-22:00; Sa 16:00-22:00; Su 16:00-21:00",
      "website": "https://www.delfriscos.com/location/del-friscos-double-eagle-steakhouse-philadelphia-pa",
      "phone": "+1 215-246-0533",
      "addr_state": "PA",
      "addr_city": "Philadelphia",
      "addr_postcode": "19102",
      "addr_street": "Chestnut Street",
      "addr_housenumber": "1428-1432"
    },
    {
      "id": 94643,
      "geometry": "POINT (-73.991433 40.741035)",
      "poi_name": "Coten",
      "osm_id": 6371628985,
      "amenity": "restaurant",
      "cuisine": "steak_house",
      "website": "https://www.cotenyc.com",
      "phone": "+12124017986",
      "addr_state": "NY",
      "addr_city": "New York",
      "addr_postcode": "10010",
      "addr_street": "West 22nd Street",
      "addr_housenumber": "16"
    },
    {
      "id": 115814,
      "geometry": "POINT (-74.241745 40.961705)",
      "poi_name": "Volino's Meat Market Steak House",
      "osm_id": 8913521694,
      "amenity": "restaurant",
      "cuisine": "steak_house",
      "addr_state": "NJ",
      "addr_city": "Wayne",
      "addr_postcode": "07470",
      "addr_street": "Berdan Avenue",
      "addr_housenumber": "37"
    },
    {
      "id": 113261,
      "geometry": "POINT (-74.171486 40.914855)",
      "poi_name": "Hamilton & Ward Steakhouse",
      "osm_id": 3827424896,
      "amenity": "restaurant",
      "cuisine": "steak_house",
      "website": "http://www.hamiltonandward.com",
      "takeaway": "yes",
      "outdoor_seating": "no",
      "addr_state": "NJ",
      "addr_city": "Paterson",
      "addr_postcode": "07505",
      "addr_street": "Ward Street",
      "addr_housenumber": "101"
    },
    {
      "id": 117548,
      "geometry": "POINT (-74.300424 40.872875)",
      "poi_name": "Prime 94 steakhouse & grill",
      "osm_id": 8999719369,
      "amenity": "restaurant",
      "cuisine": "steak_house",
      "wheelchair": "yes",
      "opening_hours": "Su 12:00-21:00; Mo-Th 11:00-22:00; Fr-Sa 11:00-23:00",
      "website": "https://www.prime94steakhouse.com/",
      "internet_access": "wlan",
      "phone": "+1 (973) 575-4555",
      "addr_state": "NJ",
      "addr_city": "Fairfield",
      "addr_postcode": "07004",
      "addr_street": "Fairfield Road",
      "addr_housenumber": "94"
    },
    {
      "id": 117716,
      "geometry": "POINT (-73.964988 40.634887)",
      "poi_name": "The Ox Tavern",
      "osm_id": 9007398490,
      "amenity": "restaurant",
      "cuisine": "burger;american;steak_house",
      "wheelchair": "yes",
      "opening_hours": "Mo-Sa 16:00-23:00; Su 11:00-15:30,16:00-23:00",
      "website": "https://www.theoxtavern.com/",
      "phone": "+1-718-284-0005",
      "takeaway": "yes",
      "outdoor_seating": "yes",
      "delivery": "yes",
      "addr_state": "NY",
      "addr_city": "Brooklyn",
      "addr_postcode": "11230",
      "addr_street": "Newkirk Avenue",
      "addr_housenumber": "1301"
    },
    {
      "id": 122284,
      "geometry": "POINT (-73.971257 40.756149)",
      "poi_name": "Empire Steakhouse",
      "osm_id": 6795570589,
      "amenity": "restaurant",
      "cuisine": "steak_house",
      "website": "https://www.empiresteakhousenyc.com/midtown-east",
      "phone": "+1-212-582-6900",
      "delivery": "yes",
      "addr_state": "NY",
      "addr_city": "New York",
      "addr_postcode": "10022",
      "addr_street": "East 50th Street",
      "addr_housenumber": "151"
    },
    {
      "id": 138728,
      "geometry": "POINT (-75.12408 40.105571)",
      "poi_name": "LongHorn Steakhouse",
      "osm_id": 6166449565,
      "amenity": "restaurant",
      "cuisine": "steak_house",
      "opening_hours": "Su-Th 11:00-22:00; Fr-Sa 11:00-24:00",
      "official_name": "Chili's Grill & Bar",
      "outdoor_seating": "no",
      "addr_state": "PA",
      "addr_city": "Jenkintown",
      "addr_postcode": "19046",
      "addr_street": "Old York Road",
      "addr_housenumber": "817"
    },
    {
      "id": 135117,
      "geometry": "POINT (-73.790172 40.726422)",
      "poi_name": "Nikko Hibachi",
      "osm_id": 11505167584,
      "amenity": "restaurant",
      "cuisine": "sushi;steak_house",
      "addr_state": "NY",
      "addr_city": "Fresh Meadows",
      "addr_postcode": "11366",
      "addr_street": "Union Turnpike",
      "addr_housenumber": "177-21"
    },
    {
      "id": 154826,
      "geometry": "POINT (-73.978021 40.755513)",
      "poi_name": "Wolfgang's Steakhouse",
      "osm_id": 4257874050,
      "amenity": "restaurant",
      "cuisine": "steak_house",
      "addr_city": "New York",
      "addr_street": "East 46th Street",
      "addr_housenumber": "46"
    },
    {
      "id": 162775,
      "geometry": "POINT (-74.275531 40.984231)",
      "poi_name": "Wayne Steakhouse",
      "osm_id": 4940878442,
      "amenity": "restaurant",
      "cuisine": "steak_house",
      "addr_state": "NJ",
      "addr_city": "Wayne",
      "addr_postcode": "07470",
      "addr_street": "Paterson-Hamburg Turnpike",
      "addr_housenumber": "2230"
    },
    {
      "id": 177076,
      "geometry": "POINT (-73.975676 40.754603)",
      "poi_name": "Bobby Van's Steakhouse - Park Ave",
      "osm_id": 2573054489,
      "amenity": "restaurant",
      "cuisine": "steak_house",
      "website": "https://www.bobbyvans.com/park-ave.html",
      "phone": "(212) 867-5490",
      "addr_city": "New York",
      "addr_postcode": "10169",
      "addr_street": "Park Avenue",
      "addr_housenumber": "230"
    },
    {
      "id": 174475,
      "geometry": "POINT (-73.962556 40.709866)",
      "poi_name": "Peter Luger Steak House",
      "osm_id": 2483716076,
      "amenity": "restaurant",
      "cuisine": "steak_house",
      "wheelchair": "yes",
      "opening_hours": "Mo-Th 11:45-21:45; Fr-Sa 11:45-22:45; Su 12:45-21:45",
      "website": "https://peterluger.com/",
      "phone": "+1-718-387-7400",
      "wikidata": "Q586599",
      "addr_city": "Brooklyn",
      "addr_postcode": "11211",
      "addr_street": "Broadway",
      "addr_housenumber": "178"
    },
    {
      "id": 191191,
      "geometry": "POINT (-73.970952 40.755255)",
      "poi_name": "Smith & Wollensky",
      "osm_id": 1346386984,
      "amenity": "restaurant",
      "cuisine": "steak_house",
      "website": "https://www.smithandwollenskynyc.com/",
      "wikidata": "Q2295313",
      "addr_city": "New York",
      "addr_postcode": "10022",
      "addr_street": "3rd Avenue",
      "addr_housenumber": "797"
    },
    {
      "id": 186829,
      "geometry": "POINT (-74.221758 40.127619)",
      "poi_name": "Texas Roadhouse",
      "osm_id": 7948747934,
      "amenity": "restaurant",
      "cuisine": "steak_house",
      "opening_hours": "Su 12:00-22:00; Mo-Th 16:00-22:00; Fr 16:00-23:00; Sa 12:00-23:00",
      "website": "https://www.texasroadhouse.com/",
      "phone": "+1 732-886-7427",
      "addr_state": "NJ",
      "addr_city": "Howell",
      "addr_postcode": "07731",
      "addr_street": "US 9",
      "addr_housenumber": "5309"
    },
    {
      "id": 187592,
      "geometry": "POINT (-75.384788 40.090048)",
      "poi_name": "Morton's The Steakhouse",
      "osm_id": 1081167258,
      "amenity": "restaurant",
      "cuisine": "steak_house",
      "opening_hours": "Mo-Th,Su 16:00-21:00; Fr-Sa 16:00-22:00",
      "website": "https://www.mortons.com/location/mortons-the-steakhouse-king-of-prussia-pa",
      "phone": "+1 610-491-1900",
      "addr_state": "PA",
      "addr_city": "King of Prussia",
      "addr_postcode": "19406",
      "addr_street": "West DeKalb Pike",
      "addr_housenumber": "640"
    },
    {
      "id": 188324,
      "geometry": "POINT (-74.708248 40.839913)",
      "poi_name": "Market Tavern",
      "osm_id": 1140338384,
      "amenity": "restaurant",
      "cuisine": "steak_house;seafood",
      "website": "https://markettavernflanders.com/",
      "phone": "+1-973-584-2345",
      "addr_state": "NJ",
      "addr_city": "Flanders",
      "addr_postcode": "07836",
      "addr_street": "US 206",
      "addr_housenumber": "240"
    },
    {
      "id": 208902,
      "geometry": "POINT (-74.275897 39.70629)",
      "poi_name": "Element Restaurant & Bar",
      "osm_id": 5010485382,
      "amenity": "restaurant",
      "cuisine": "american;steak_house;seafood",
      "addr_state": "NJ",
      "addr_city": "Manahawkin",
      "addr_postcode": "08050",
      "addr_street": "Barnegat Road",
      "addr_housenumber": "635"
    },
    {
      "id": 206433,
      "geometry": "POINT (-73.628847 40.863928)",
      "poi_name": "Tokyo Steak Ramen",
      "osm_id": 7209268003,
      "amenity": "restaurant",
      "cuisine": "japanese;steak_house;ramen",
      "addr_state": "NY",
      "addr_city": "Glen Cove",
      "addr_postcode": "11542",
      "addr_street": "Glen Street",
      "addr_housenumber": "63"
    },
    {
      "id": 208905,
      "geometry": "POINT (-74.220689 39.67402)",
      "poi_name": "The Old Causeway Steak & Oyster House",
      "osm_id": 5010485388,
      "amenity": "restaurant",
      "cuisine": "steak_house;seafood",
      "opening_hours": "Mo-Su 11:30-24:00",
      "website": "https://www.oldcauseway.com",
      "phone": "+1 609-488-1327",
      "addr_state": "NJ",
      "addr_city": "Manahawkin",
      "addr_postcode": "08050",
      "addr_street": "East Bay Avenue",
      "addr_housenumber": "1201"
    },
    {
      "id": 210888,
      "geometry": "POINT (-73.97036 40.76072)",
      "poi_name": "American Cut Steakhouse Midtown",
      "osm_id": 5126143714,
      "amenity": "restaurant",
      "cuisine": "steak_house;modern",
      "opening_hours": "Mo-Th 17:00-22:00; Fr-Sa 17:00-23:00",
      "website": "https://www.americancutsteakhouse.com/midtown",
      "phone": "+1 212-388-5277",
      "addr_state": "NY",
      "addr_city": "New York",
      "addr_postcode": "10022",
      "addr_street": "East 56th Street",
      "addr_housenumber": "109"
    },
    {
      "id": 215082,
      "geometry": "POINT (-73.2251 40.727719)",
      "poi_name": "J&R's Islip Steak House",
      "osm_id": 5286966515,
      "amenity": "restaurant",
      "cuisine": "steak_house",
      "description": "J&R\u2019s Islip Steak House is serving up great steaks & burgers for almost a decade. Best known for our marinated steaks & our premium burgers.",
      "opening_hours": "Mo-Fr 11:30-22:00; Sa 10:30-23:00; Su 11:30-22:00",
      "website": "https://jandrsislip.com/",
      "phone": "+1-631-277-5677",
      "addr_state": "NY",
      "addr_city": "Islip",
      "addr_postcode": "11751",
      "addr_street": "Main Street",
      "addr_housenumber": "116"
    },
    {
      "id": 215027,
      "geometry": "POINT (-73.987345 40.805959)",
      "poi_name": "Flaming\u2019s Prime Steakhouse & Wine",
      "osm_id": 5285124522,
      "amenity": "restaurant",
      "cuisine": "steak_house",
      "addr_state": "NJ",
      "addr_city": "Edgewater",
      "addr_postcode": "07020",
      "addr_street": "The Promenade",
      "addr_housenumber": "90"
    },
    {
      "id": 217367,
      "geometry": "POINT (-75.211864 40.009302)",
      "poi_name": "LongHorn Steakhouse",
      "osm_id": 9217310511,
      "amenity": "restaurant",
      "cuisine": "steak_house",
      "opening_hours": "Su-Th 11:00-22:00; Fr-Sa 11:00-23:00",
      "website": "https://www.longhornsteakhouse.com/locations/pa/bala-cynwyd/bala-cynwyd/5586",
      "phone": "+1-610-667-5060",
      "addr_state": "PA",
      "addr_city": "Bala Cynwyd",
      "addr_postcode": "19004",
      "addr_street": "City Avenue",
      "addr_housenumber": "555"
    },
    {
      "id": 240221,
      "geometry": "POINT (-75.00124 40.153212)",
      "poi_name": "Samarkand Steakhouse",
      "osm_id": 5963145680,
      "amenity": "restaurant",
      "cuisine": "steak_house",
      "opening_hours": "Mo-Su 11:00-23:00",
      "website": "https://www.samarkandsteakhouse.com/",
      "phone": "+1-267-288-5077",
      "outdoor_seating": "no",
      "delivery": "yes",
      "addr_state": "PA",
      "addr_city": "Feasterville-Trevose",
      "addr_postcode": "19053",
      "addr_street": "Bustleton Pike",
      "addr_housenumber": "1135"
    },
    {
      "id": 231654,
      "geometry": "POINT (-75.158919 39.977288)",
      "poi_name": "The New Barber's Hall",
      "osm_id": 4483041319,
      "amenity": "restaurant",
      "cuisine": "steak_house",
      "addr_city": "Philadelphia",
      "addr_street": "West Oxford Street",
      "addr_housenumber": "1403"
    },
    {
      "id": 233767,
      "geometry": "POINT (-74.343594 40.922628)",
      "poi_name": "Rails Steakhouse",
      "osm_id": 4586316541,
      "amenity": "restaurant",
      "cuisine": "steak_house",
      "addr_state": "NJ",
      "addr_city": "Towaco",
      "addr_postcode": "07082",
      "addr_street": "Whitehall Road",
      "addr_housenumber": "10"
    }
  ],
  "answer_type": "loc",
  "question_entities": {
    "[1]": {
      "main_category": "amenity",
      "sub_category": "restaurant",
      "poi_filter_desc": "steak house",
      "poi_filter_sql": "cuisine ILIKE '%steak_house%'"
    },
    "[2]": {
      "distance": 120000,
      "text": "120 kilometers"
    },
    "[3]": {
      "main_category": "tourism",
      "sub_category": "attraction",
      "display_name": "Coastal Living LLC\u200e, Brielle, NJ",
      "geo_wkt": "POINT (-74.059149 40.107405)",
      "poi": {
        "id": 22225,
        "geometry": "POINT (-74.059149 40.107405)",
        "poi_name": "Coastal Living LLC\u200e",
        "osm_id": 608975837,
        "tourism": "attraction",
        "shop": "department_store",
        "phone": "(732) 292-1866\u200e",
        "addr_state": "NJ",
        "addr_city": "Brielle",
        "addr_street": "605 Higgins Avenue"
      }
    }
  },
  "id": 403,
  "type": "range:non_spat_filter+loc"
}