{
  "question": "Where can I find a fast food restaurant east of the University of Tennessee Health Science Center, Memphis, TN, within a radius of 180 kilometers?",
  "sql": "\nWITH origin AS  (SELECT ST_GeomFromText('POINT (-90.031353 35.139317)',4326)::geography AS geometry)\nSELECT * FROM pois, origin\nWHERE ST_DWithin(pois.geometry, ST_GeomFromText('POINT (-90.031353 35.139317)',4326)::geography, 180000)\nAND amenity = 'fast_food'\nAND degrees(ST_Azimuth(origin.geometry, pois.geometry)) BETWEEN 67.5 AND 112.5;\n",
  "answers": [
    {
      "id": 37804,
      "geometry": "POINT (-90.031353 35.139317)",
      "poi_name": "Schlotzsky's",
      "osm_id": 2830339696,
      "amenity": "fast_food",
      "cuisine": "sandwich",
      "phone": "+1-901-763-0741",
      "takeaway": "yes",
      "drive_through": "no",
      "addr_state": "TN",
      "addr_city": "Memphis",
      "addr_postcode": "38117",
      "addr_street": "Poplar Avenue",
      "addr_housenumber": "4758"
    },
    {
      "id": 88601,
      "geometry": "POINT (-90.031353 35.139317)",
      "poi_name": "Subway",
      "osm_id": 8787861352,
      "amenity": "fast_food",
      "cuisine": "sandwich",
      "website": "https://subway.com/en-US/",
      "phone": "+1-901-382-4146",
      "takeaway": "yes",
      "drive_through": "no",
      "addr_state": "TN",
      "addr_city": "Memphis",
      "addr_postcode": "38134",
      "addr_street": "Macon Road",
      "addr_housenumber": "6188"
    },
    {
      "id": 126013,
      "geometry": "POINT (-90.031353 35.139317)",
      "poi_name": "McDonald's",
      "osm_id": 6982077094,
      "amenity": "fast_food",
      "cuisine": "burger",
      "wheelchair": "yes",
      "website": "https://www.mcdonalds.com/us/en-us/location/tn/memphis/1325-ridgeway-road/10225.html",
      "internet_access": "wlan",
      "takeaway": "yes",
      "drive_through": "yes",
      "addr_state": "TN",
      "addr_city": "Memphis",
      "addr_postcode": "38119",
      "addr_street": "Ridgeway Road",
      "addr_housenumber": "1325"
    },
    {
      "id": 170849,
      "geometry": "POINT (-90.031353 35.139317)",
      "poi_name": "Moe's Southwest Grill",
      "osm_id": 2351373221,
      "amenity": "fast_food",
      "cuisine": "mexican",
      "opening_hours": "Mo-Su 11:00-21:00",
      "website": "https://www.moes.com/find-a-moes/tennessee/cordova/215",
      "phone": "+19017375058",
      "takeaway": "yes",
      "drive_through": "no",
      "addr_state": "TN",
      "addr_city": "Cordova",
      "addr_postcode": "38018",
      "addr_street": "North Germantown Parkway",
      "addr_housenumber": "465"
    },
    {
      "id": 136733,
      "geometry": "POINT (-90.031353 35.139317)",
      "poi_name": "McDonald's",
      "osm_id": 11599359538,
      "amenity": "fast_food",
      "cuisine": "burger",
      "website": "https://www.mcdonalds.com/us/en-us/location/tn/selmer/621-mulberry-ave/17160.html",
      "internet_access": "wlan",
      "phone": "+1 731-645-4488",
      "takeaway": "yes",
      "drive_through": "yes",
      "addr_state": "TN",
      "addr_city": "McNairy County",
      "addr_postcode": "38375",
      "addr_street": "Mulberry Avenue",
      "addr_housenumber": "621"
    },
    {
      "id": 184236,
      "geometry": "POINT (-90.031353 35.139317)",
      "poi_name": "Taco Bell",
      "osm_id": 7778008603,
      "amenity": "fast_food",
      "cuisine": "tex-mex",
      "website": "https://locations.tacobell.com/tn/arlington/9821-us-hwy-64.html",
      "phone": "+1-901-384-7577",
      "takeaway": "yes",
      "drive_through": "yes",
      "addr_state": "TN",
      "addr_city": "Memphis",
      "addr_postcode": "38002",
      "addr_street": "US 64",
      "addr_housenumber": "8033"
    },
    {
      "id": 205556,
      "geometry": "POINT (-90.031353 35.139317)",
      "poi_name": "McDonald's",
      "osm_id": 7173029332,
      "amenity": "fast_food",
      "cuisine": "burger",
      "opening_hours": "Mo-Fr 05:00-24:00; Sa 00:00-24:00; Su 04:00-24:00",
      "website": "https://www.mcdonalds.com/us/en-us/location/ms/iuka/1712-battleground-drive/34260.html",
      "phone": "+1-662-424-9588",
      "takeaway": "yes",
      "drive_through": "yes",
      "addr_state": "MS",
      "addr_city": "Iuka",
      "addr_postcode": "38852",
      "addr_street": "Battleground Drive",
      "addr_housenumber": "1712"
    },
    {
      "id": 219835,
      "geometry": "POINT (-90.031353 35.139317)",
      "poi_name": "Chicken Salad Chick",
      "osm_id": 9347871229,
      "amenity": "fast_food",
      "cuisine": "chicken",
      "takeaway": "yes",
      "addr_state": "TN",
      "addr_city": "Memphis",
      "addr_postcode": "38133",
      "addr_street": "Stage Road",
      "addr_housenumber": "8361"
    },
    {
      "id": 221316,
      "geometry": "POINT (-90.031353 35.139317)",
      "poi_name": "Chick-fil-A",
      "osm_id": 10971369592,
      "amenity": "fast_food",
      "cuisine": "chicken",
      "opening_hours": "Mo-Sa 06:00-22:00",
      "operator": "Grant Gibbs",
      "website": "https://www.chick-fil-a.com/locations/tn/collierville",
      "phone": "+19018531786",
      "takeaway": "yes",
      "drive_through": "yes",
      "addr_state": "TN",
      "addr_city": "Collierville",
      "addr_postcode": "38017",
      "addr_street": "West Poplar Avenue",
      "addr_housenumber": "1036"
    },
    {
      "id": 243767,
      "geometry": "POINT (-90.031353 35.139317)",
      "poi_name": "Burger King",
      "osm_id": 7678030747,
      "amenity": "fast_food",
      "cuisine": "burger",
      "website": "https://bk.com",
      "phone": "+1-901-381-2801",
      "takeaway": "yes",
      "drive_through": "yes",
      "addr_state": "TN",
      "addr_city": "Memphis",
      "addr_postcode": "38133",
      "addr_street": "Whitten Road",
      "addr_housenumber": "1920"
    }
  ],
  "answer_type": "loc",
  "question_entities": {
    "[1]": {
      "main_category": "amenity",
      "sub_category": "fast food restaurant"
    },
    "[2]": {
      "distance": 180000,
      "text": "180 kilometers"
    },
    "[3]": {
      "main_category": "amenity",
      "sub_category": "university",
      "display_name": "The University of Tennessee Health Science Center, Memphis, TN",
      "geo_wkt": "POINT (-90.031353 35.139317)",
      "poi": {
        "id": 30527,
        "geometry": "POINT (-90.031353 35.139317)",
        "poi_name": "The University of Tennessee Health Science Center",
        "osm_id": 8364364991,
        "amenity": "university",
        "wikidata": "Q7896420",
        "addr_state": "TN",
        "addr_city": "Memphis",
        "addr_postcode": "38163"
      }
    },
    "[4]": {
      "direction_desc": "east",
      "direction_predicate": "degrees(ST_Azimuth(origin.geometry, pois.geometry)) BETWEEN 67.5 AND 112.5"
    }
  },
  "id": 10,
  "type": "range:direction+loc"
}