{
  "question": "Where can I find a fast food restaurant within 170 kilometers drive from Adventist Health Hanford - Birth Center, Hanford, CA?",
  "sql": "SELECT * FROM pois\nWHERE ST_DWithin(pois.geometry, ST_GeomFromText('POINT (-119.667716 36.322848)',4326)::geography, 170000)\nAND amenity = 'fast_food';\n",
  "answers": [
    {
      "id": 36778,
      "geometry": "POINT (-119.786452 36.78013)",
      "poi_name": "Panda Express",
      "osm_id": 2784724427,
      "amenity": "fast_food",
      "cuisine": "chinese",
      "takeaway": "yes",
      "addr_city": "Fresno",
      "addr_postcode": "93726",
      "addr_street": "East Hunter Avenue",
      "addr_housenumber": "2045"
    },
    {
      "id": 39567,
      "geometry": "POINT (-120.862108 37.057373)",
      "poi_name": "A&W",
      "osm_id": 2928382056,
      "amenity": "fast_food",
      "cuisine": "burger",
      "website": "https://awrestaurants.com/locations/california/los-banos/748-west-pacheco-boulevard/",
      "takeaway": "yes",
      "addr_state": "CA",
      "addr_city": "Los Banos",
      "addr_postcode": "93635",
      "addr_street": "West Pacheco Boulevard",
      "addr_housenumber": "748"
    },
    {
      "id": 40097,
      "geometry": "POINT (-120.848603 37.516176)",
      "poi_name": "Burger King",
      "osm_id": 2957269575,
      "amenity": "fast_food",
      "cuisine": "burger",
      "opening_hours": "6:00-23:00",
      "takeaway": "yes",
      "addr_city": "Turlock",
      "addr_postcode": "95382",
      "addr_street": "Geer Road",
      "addr_housenumber": "2590"
    },
    {
      "id": 42325,
      "geometry": "POINT (-118.966462 37.645086)",
      "poi_name": "Nik-N-Willie's Pizza-n-Subs",
      "osm_id": 3055633857,
      "amenity": "fast_food",
      "addr_city": "Mammoth Lakes",
      "addr_street": "Old Mammmoth Road",
      "addr_housenumber": "100"
    },
    {
      "id": 44698,
      "geometry": "POINT (-120.849812 37.410254)",
      "poi_name": "Fail's Donuts",
      "osm_id": 3171712592,
      "amenity": "fast_food",
      "cuisine": "donut",
      "addr_city": "Hilmar",
      "addr_postcode": "95324",
      "addr_street": "North Lander Avenue",
      "addr_housenumber": "8414"
    },
    {
      "id": 45642,
      "geometry": "POINT (-118.421774 37.37675)",
      "poi_name": "Subway",
      "osm_id": 3222184795,
      "amenity": "fast_food",
      "cuisine": "sandwich",
      "phone": "+1 760 873 7827",
      "takeaway": "yes",
      "addr_state": "CA",
      "addr_city": "Bishop",
      "addr_postcode": "93514"
    },
    {
      "id": 50592,
      "geometry": "POINT (-119.66415 36.845513)",
      "poi_name": "McDonald's",
      "osm_id": 3493796030,
      "amenity": "fast_food",
      "cuisine": "burger",
      "website": "https://www.mcdonalds.com/us/en-us/location/ca/clovis/2654-alluvial-ave/33093.html",
      "takeaway": "yes",
      "addr_state": "CA",
      "addr_city": "Clovis",
      "addr_street": "East Alluvial Avenue",
      "addr_housenumber": "2654"
    },
    {
      "id": 52216,
      "geometry": "POINT (-120.642032 35.249339)",
      "poi_name": "Jersey Mike's Subs",
      "osm_id": 573859956,
      "amenity": "fast_food",
      "cuisine": "sandwich",
      "opening_hours": "10:00-21:00",
      "website": "https://www.jerseymikes.com/20202",
      "takeaway": "yes",
      "drive_through": "no",
      "delivery": "no",
      "addr_state": "CA",
      "addr_city": "San Luis Obispo",
      "addr_postcode": "93401",
      "addr_street": "Broad Street",
      "addr_housenumber": "3940-1"
    },
    {
      "id": 53333,
      "geometry": "POINT (-119.273711 35.500577)",
      "poi_name": "Shafter Donuts",
      "osm_id": 10076040531,
      "amenity": "fast_food",
      "cuisine": "donut",
      "addr_state": "CA",
      "addr_city": "Shafter",
      "addr_postcode": "93263",
      "addr_street": "State Avenue",
      "addr_housenumber": "301"
    },
    {
      "id": 53490,
      "geometry": "POINT (-119.275398 35.502275)",
      "poi_name": "Burger Factory",
      "osm_id": 10082686566,
      "amenity": "fast_food",
      "cuisine": "burger",
      "addr_state": "CA",
      "addr_city": "Shafter",
      "addr_postcode": "93263",
      "addr_street": "Central Avenue",
      "addr_housenumber": "313"
    },
    {
      "id": 53491,
      "geometry": "POINT (-119.275533 35.502175)",
      "poi_name": "Subway",
      "osm_id": 10082686572,
      "amenity": "fast_food",
      "cuisine": "sandwich",
      "takeaway": "yes",
      "addr_state": "CA",
      "addr_city": "Shafter",
      "addr_postcode": "93263",
      "addr_street": "Central Avenue",
      "addr_housenumber": "301"
    },
    {
      "id": 55510,
      "geometry": "POINT (-120.65958 35.290655)",
      "poi_name": "Ziggy's",
      "osm_id": 10195974706,
      "amenity": "fast_food",
      "cuisine": "american;mexican;ice_cream",
      "opening_hours": "Mo-Su 11:00-21:00",
      "website": "https://www.eatziggys.com/",
      "phone": "+18054394399",
      "takeaway": "yes",
      "drive_through": "no",
      "addr_state": "CA",
      "addr_city": "San Luis Obispo",
      "addr_postcode": "93405",
      "addr_street": "California Boulevard",
      "addr_housenumber": "594"
    },
    {
      "id": 83258,
      "geometry": "POINT (-118.063577 36.605693)",
      "poi_name": "Subway",
      "osm_id": 1736561253,
      "amenity": "fast_food",
      "cuisine": "sandwich",
      "opening_hours": "Mo-Su 09:00-20:00",
      "website": "https://restaurants.subway.com/united-states/ca/lone-pine/101-north-main-street",
      "internet_access": "wlan",
      "phone": "+1 (760) 876-1860",
      "takeaway": "yes",
      "outdoor_seating": "no",
      "addr_state": "CA",
      "addr_city": "Lone Pine",
      "addr_postcode": "93545",
      "addr_street": "North Main Street",
      "addr_housenumber": "101"
    },
    {
      "id": 84428,
      "geometry": "POINT (-119.726851 36.838073)",
      "poi_name": "Farmer Boys",
      "osm_id": 1791241435,
      "amenity": "fast_food",
      "cuisine": "burger",
      "takeaway": "yes",
      "addr_state": "CA",
      "addr_city": "Clovis"
    },
    {
      "id": 85535,
      "geometry": "POINT (-119.019275 35.339178)",
      "poi_name": "Casa Burger Drive In",
      "osm_id": 1878636159,
      "amenity": "fast_food",
      "cuisine": "burger",
      "phone": "+1-661-831-6392",
      "addr_state": "CA",
      "addr_city": "Bakersfield",
      "addr_postcode": "93304",
      "addr_street": "Ming Avenue",
      "addr_housenumber": "1435"
    },
    {
      "id": 85536,
      "geometry": "POINT (-119.01313 35.329951)",
      "poi_name": "Frosty King",
      "osm_id": 1878637654,
      "amenity": "fast_food",
      "cuisine": "burger",
      "website": "http://www.urbanspoon.com/r/86/811325/restaurant/Frosty-King-Bakersfield",
      "addr_state": "CA",
      "addr_city": "Bakersfield",
      "addr_postcode": "93304",
      "addr_street": "South Chester Avenue",
      "addr_housenumber": "2625"
    },
    {
      "id": 92395,
      "geometry": "POINT (-121.019739 37.31017)",
      "poi_name": "Little Caesars",
      "osm_id": 2118748289,
      "amenity": "fast_food",
      "cuisine": "pizza",
      "website": "https://littlecaesars.com/en-us/store/7832/",
      "takeaway": "yes",
      "addr_state": "CA",
      "addr_city": "Newman",
      "addr_postcode": "95360",
      "addr_street": "N Street",
      "addr_housenumber": "1925 C"
    },
    {
      "id": 92991,
      "geometry": "POINT (-120.849566 37.475382)",
      "poi_name": "Jack in the Box",
      "osm_id": 2143525871,
      "amenity": "fast_food",
      "cuisine": "burger",
      "takeaway": "yes",
      "drive_through": "yes",
      "addr_city": "Turlock",
      "addr_postcode": "95380",
      "addr_street": "Lander Avenue",
      "addr_housenumber": "1951"
    },
    {
      "id": 100656,
      "geometry": "POINT (-119.048145 36.079298)",
      "poi_name": "Wingstop",
      "osm_id": 6594911872,
      "amenity": "fast_food",
      "cuisine": "wings",
      "takeaway": "yes",
      "addr_state": "CA",
      "addr_city": "Porterville",
      "addr_postcode": "93257"
    },
    {
      "id": 100638,
      "geometry": "POINT (-119.041082 36.080106)",
      "poi_name": "Jack in the Box",
      "osm_id": 6594791862,
      "amenity": "fast_food",
      "cuisine": "burger",
      "takeaway": "yes",
      "drive_through": "yes",
      "addr_state": "CA",
      "addr_city": "Porterville",
      "addr_postcode": "93257"
    },
    {
      "id": 100641,
      "geometry": "POINT (-119.04563 36.079935)",
      "poi_name": "Little Caesars",
      "osm_id": 6594791872,
      "amenity": "fast_food",
      "cuisine": "pizza",
      "website": "https://littlecaesars.com/en-us/store/3784/",
      "takeaway": "yes",
      "addr_state": "CA",
      "addr_city": "Porterville",
      "addr_postcode": "93257"
    },
    {
      "id": 100642,
      "geometry": "POINT (-119.045666 36.079842)",
      "poi_name": "Subway",
      "osm_id": 6594791874,
      "amenity": "fast_food",
      "cuisine": "sandwich",
      "takeaway": "yes",
      "addr_state": "CA",
      "addr_city": "Porterville",
      "addr_postcode": "93257"
    },
    {
      "id": 100644,
      "geometry": "POINT (-119.046535 36.080129)",
      "poi_name": "Panera Bread",
      "osm_id": 6594791876,
      "amenity": "fast_food",
      "cuisine": "sandwich;bakery",
      "takeaway": "yes",
      "addr_state": "CA",
      "addr_city": "Porterville",
      "addr_postcode": "93257"
    },
    {
      "id": 100646,
      "geometry": "POINT (-119.047253 36.079914)",
      "poi_name": "McDonald's",
      "osm_id": 6594791878,
      "amenity": "fast_food",
      "cuisine": "burger",
      "website": "https://www.mcdonalds.com/us/en-us/location/ca/porterville/1355-w-henderson-ave/12057.html",
      "takeaway": "yes",
      "addr_state": "CA",
      "addr_city": "Porterville",
      "addr_postcode": "93257"
    },
    {
      "id": 100647,
      "geometry": "POINT (-119.048228 36.080175)",
      "poi_name": "Jamba",
      "osm_id": 6594791879,
      "amenity": "fast_food",
      "cuisine": "juice",
      "takeaway": "yes",
      "addr_state": "CA",
      "addr_city": "Porterville",
      "addr_postcode": "93257"
    },
    {
      "id": 101769,
      "geometry": "POINT (-119.397549 35.400289)",
      "poi_name": "Subway",
      "osm_id": 6642716480,
      "amenity": "fast_food",
      "cuisine": "sandwich",
      "wheelchair": "yes",
      "takeaway": "yes",
      "addr_state": "CA",
      "addr_city": "Buttonwillow",
      "addr_postcode": "93206",
      "addr_street": "Tracy Avenue",
      "addr_housenumber": "20673"
    },
    {
      "id": 113888,
      "geometry": "POINT (-120.643254 35.139432)",
      "poi_name": "Wooly's",
      "osm_id": 3855417157,
      "amenity": "fast_food",
      "cuisine": "american",
      "opening_hours": "Su-Th 10:00-20:00; Fr-Sa 10:00-21:00",
      "website": "https://woolyspismobeach.com/",
      "phone": "+1 (805) 295-5100",
      "addr_city": "Pismo Beach",
      "addr_street": "Pomeroy",
      "addr_housenumber": "101"
    },
    {
      "id": 111356,
      "geometry": "POINT (-119.729063 36.838723)",
      "poi_name": "El Pollo Loco",
      "osm_id": 3743500690,
      "amenity": "fast_food",
      "cuisine": "mexican",
      "takeaway": "yes",
      "addr_state": "CA",
      "addr_city": "Clovis"
    },
    {
      "id": 111357,
      "geometry": "POINT (-119.729034 36.83801)",
      "poi_name": "Jamba",
      "osm_id": 3743500726,
      "amenity": "fast_food",
      "cuisine": "juice",
      "takeaway": "yes",
      "addr_state": "CA",
      "addr_city": "Clovis"
    },
    {
      "id": 111358,
      "geometry": "POINT (-119.728903 36.838004)",
      "poi_name": "Subway",
      "osm_id": 3743500727,
      "amenity": "fast_food",
      "cuisine": "sandwich",
      "takeaway": "yes",
      "addr_state": "CA",
      "addr_city": "Clovis"
    },
    {
      "id": 125425,
      "geometry": "POINT (-120.474513 37.318736)",
      "poi_name": "Long John Silver's",
      "osm_id": 6959356768,
      "amenity": "fast_food",
      "cuisine": "seafood",
      "wheelchair": "yes",
      "website": "https://www.ljsilvers.com/",
      "takeaway": "yes",
      "addr_city": "Merced",
      "addr_postcode": "95348",
      "addr_street": "West Olive Avenue",
      "addr_housenumber": "360"
    },
    {
      "id": 125426,
      "geometry": "POINT (-120.474057 37.318596)",
      "poi_name": "Carl's Jr.",
      "osm_id": 6959356769,
      "amenity": "fast_food",
      "cuisine": "burger",
      "description": "Fast Food",
      "website": "https://locations.carlsjr.com/ca/merced/300-w-olive-ave",
      "takeaway": "yes",
      "addr_city": "Merced",
      "addr_postcode": "95348",
      "addr_street": "West Olive Avenue",
      "addr_housenumber": "300"
    },
    {
      "id": 125428,
      "geometry": "POINT (-120.9998 37.259372)",
      "poi_name": "McDonald's",
      "osm_id": 6959368150,
      "amenity": "fast_food",
      "cuisine": "burger",
      "website": "https://www.mcdonalds.com/us/en-us/location/ca/gustine/430-first-avenue/22228.html",
      "takeaway": "yes",
      "addr_city": "Gustine",
      "addr_postcode": "95322",
      "addr_street": "1st Avenue",
      "addr_housenumber": "430"
    },
    {
      "id": 130054,
      "geometry": "POINT (-119.412609 36.546572)",
      "poi_name": "A&W",
      "osm_id": 9852455207,
      "amenity": "fast_food",
      "cuisine": "burger",
      "phone": "+15593155191",
      "takeaway": "yes",
      "drive_through": "yes",
      "addr_state": "CA",
      "addr_city": "Dinuba",
      "addr_postcode": "93618",
      "addr_street": "West El Monte Way",
      "addr_housenumber": "1405"
    },
    {
      "id": 131883,
      "geometry": "POINT (-119.701454 36.808909)",
      "poi_name": "Togo's",
      "osm_id": 9934027610,
      "amenity": "fast_food",
      "cuisine": "sandwich",
      "takeaway": "yes",
      "addr_state": "CA",
      "addr_city": "Clovis",
      "addr_postcode": "93612",
      "addr_street": "Clovis Avenue",
      "addr_housenumber": "1928"
    },
    {
      "id": 149345,
      "geometry": "POINT (-119.699548 36.792933)",
      "poi_name": "McDonald's",
      "osm_id": 4004486092,
      "amenity": "fast_food",
      "cuisine": "burger",
      "opening_hours": "24/7",
      "website": "https://www.mcdonalds.com/us/en-us/location/ca/fresno/5608-e-ashlan/17546.html",
      "takeaway": "yes",
      "drive_through": "yes",
      "delivery": "no",
      "addr_state": "CA",
      "addr_city": "Fresno",
      "addr_postcode": "93727",
      "addr_street": "East Ashlan Avenue",
      "addr_housenumber": "5608"
    },
    {
      "id": 149368,
      "geometry": "POINT (-119.675305 36.809013)",
      "poi_name": "Taco Bell",
      "osm_id": 4005055088,
      "amenity": "fast_food",
      "cuisine": "tex-mex",
      "opening_hours": "PH,Mo-Su 06:00-11:00",
      "website": "https://locations.tacobell.com/ca/clovis/2131-east-shaw.html",
      "takeaway": "yes",
      "addr_city": "Clovis",
      "addr_street": "Shaw Avenue"
    },
    {
      "id": 149369,
      "geometry": "POINT (-119.674237 36.808944)",
      "poi_name": "Foster's Freeze",
      "osm_id": 4005055089,
      "amenity": "fast_food",
      "cuisine": "burger;ice_cream",
      "opening_hours": "PH,Mo-Su 09:00-23:00",
      "addr_city": "Clovis",
      "addr_street": "Shaw Avenue"
    },
    {
      "id": 150287,
      "geometry": "POINT (-119.31551 36.356984)",
      "poi_name": "A&W",
      "osm_id": 4048873872,
      "amenity": "fast_food",
      "cuisine": "burger",
      "website": "https://awrestaurants.com/locations/california/visalia/2124-west-riggin-avenue/",
      "takeaway": "yes",
      "addr_state": "CA",
      "addr_city": "Visalia",
      "addr_postcode": "93291",
      "addr_street": "West Riggin Avenue",
      "addr_housenumber": "2124"
    },
    {
      "id": 150288,
      "geometry": "POINT (-120.688559 35.640066)",
      "poi_name": "A&W",
      "osm_id": 4048889159,
      "amenity": "fast_food",
      "cuisine": "burger",
      "addr_state": "CA",
      "addr_city": "Paso Robles",
      "addr_postcode": "93446",
      "addr_street": "Riverside Avenue",
      "addr_housenumber": "2405"
    },
    {
      "id": 150289,
      "geometry": "POINT (-120.688521 35.639934)",
      "poi_name": "KFC",
      "osm_id": 4048889160,
      "amenity": "fast_food",
      "cuisine": "chicken",
      "website": "https://locations.kfc.com/ca/paso-robles/2405-riverside-drive",
      "addr_state": "CA",
      "addr_city": "Paso Robles",
      "addr_postcode": "93446",
      "addr_street": "Riverside Avenue",
      "addr_housenumber": "2405"
    },
    {
      "id": 150290,
      "geometry": "POINT (-120.665146 35.483969)",
      "poi_name": "A&W",
      "osm_id": 4048894459,
      "amenity": "fast_food",
      "cuisine": "burger",
      "takeaway": "yes",
      "addr_state": "CA",
      "addr_city": "Atascadero",
      "addr_postcode": "93422",
      "addr_street": "Morro Road",
      "addr_housenumber": "6435"
    },
    {
      "id": 151574,
      "geometry": "POINT (-119.682617 36.79547)",
      "poi_name": "Jack in the Box",
      "osm_id": 4106086326,
      "amenity": "fast_food",
      "cuisine": "burger",
      "opening_hours": "24 hours",
      "takeaway": "yes",
      "drive_through": "yes",
      "addr_city": "Clovis",
      "addr_postcode": "93611",
      "addr_street": "Fowler Avenue",
      "addr_housenumber": "3120"
    },
    {
      "id": 151575,
      "geometry": "POINT (-119.682907 36.794318)",
      "poi_name": "Panda Express",
      "osm_id": 4106086327,
      "amenity": "fast_food",
      "cuisine": "chinese",
      "takeaway": "yes",
      "drive_through": "no",
      "addr_city": "Clovis",
      "addr_postcode": "93611",
      "addr_street": "Fowler Avenue",
      "addr_housenumber": "3170"
    },
    {
      "id": 150366,
      "geometry": "POINT (-119.671279 36.326828)",
      "poi_name": "A&W",
      "osm_id": 4052461491,
      "amenity": "fast_food",
      "cuisine": "burger",
      "takeaway": "yes",
      "addr_state": "CA",
      "addr_city": "Hanford",
      "addr_postcode": "93230",
      "addr_street": "West Lacey Boulevard",
      "addr_housenumber": "1675"
    },
    {
      "id": 150367,
      "geometry": "POINT (-119.718539 36.80819)",
      "poi_name": "A&W",
      "osm_id": 4052464834,
      "amenity": "fast_food",
      "cuisine": "burger",
      "opening_hours": "Mo-Su 10:30-22:00",
      "website": "https://awrestaurants.com/locations/california/clovis/406-w-shaw-ave/",
      "takeaway": "yes",
      "addr_state": "CA",
      "addr_city": "Clovis",
      "addr_postcode": "93612",
      "addr_street": "West Shaw Avenue",
      "addr_housenumber": "406"
    },
    {
      "id": 150368,
      "geometry": "POINT (-119.718541 36.808075)",
      "poi_name": "Long John Silver's",
      "osm_id": 4052464835,
      "amenity": "fast_food",
      "cuisine": "seafood",
      "opening_hours": "Mo-Su 10:30-22:00",
      "takeaway": "yes",
      "addr_state": "CA",
      "addr_city": "Clovis",
      "addr_postcode": "93612",
      "addr_street": "West Shaw Avenue",
      "addr_housenumber": "406"
    },
    {
      "id": 150374,
      "geometry": "POINT (-120.862113 37.057294)",
      "poi_name": "KFC",
      "osm_id": 4052489589,
      "amenity": "fast_food",
      "cuisine": "chicken",
      "website": "https://locations.kfc.com/ca/los-banos/748-west-pacheco-boulevard",
      "takeaway": "yes",
      "addr_state": "CA",
      "addr_city": "Los Banos",
      "addr_postcode": "93635",
      "addr_street": "West Pacheco Boulevard",
      "addr_housenumber": "748"
    },
    {
      "id": 150375,
      "geometry": "POINT (-120.472088 37.318384)",
      "poi_name": "KFC",
      "osm_id": 4052498489,
      "amenity": "fast_food",
      "cuisine": "chicken",
      "website": "https://locations.kfc.com/ca/merced/180-west-olive-avenue",
      "takeaway": "yes",
      "addr_state": "CA",
      "addr_city": "Merced",
      "addr_postcode": "95348",
      "addr_street": "West Olive Avenue",
      "addr_housenumber": "180"
    },
    {
      "id": 150376,
      "geometry": "POINT (-120.472093 37.318273)",
      "poi_name": "A&W",
      "osm_id": 4052498490,
      "amenity": "fast_food",
      "cuisine": "burger",
      "website": "https://awrestaurants.com/locations/california/merced/180-west-olive-avenue/",
      "takeaway": "yes",
      "addr_state": "CA",
      "addr_city": "Merced",
      "addr_postcode": "95348",
      "addr_street": "West Olive Avenue",
      "addr_housenumber": "108"
    },
    {
      "id": 164795,
      "geometry": "POINT (-120.835021 37.055894)",
      "poi_name": "Domino's",
      "osm_id": 9501259992,
      "amenity": "fast_food",
      "cuisine": "pizza",
      "takeaway": "yes",
      "addr_city": "Los Banos",
      "addr_postcode": "93635",
      "addr_street": "South Mercey Springs Road",
      "addr_housenumber": "1460"
    },
    {
      "id": 164020,
      "geometry": "POINT (-119.790854 36.842922)",
      "poi_name": "Little Caesars",
      "osm_id": 9446619019,
      "amenity": "fast_food",
      "cuisine": "pizza",
      "website": "https://littlecaesars.com/en-us/store/9428/",
      "takeaway": "yes",
      "addr_state": "CA",
      "addr_city": "Pinedale",
      "addr_postcode": "93650",
      "addr_street": "North Blackstone Avenue",
      "addr_housenumber": "7315"
    },
    {
      "id": 168482,
      "geometry": "POINT (-120.673083 35.293903)",
      "poi_name": "Five Guys",
      "osm_id": 2261957372,
      "amenity": "fast_food",
      "cuisine": "burger",
      "opening_hours": "Mo-Su 11:00-22:00",
      "website": "https://www.fiveguys.com/Menu",
      "phone": "(805) 439-3622",
      "takeaway": "yes",
      "drive_through": "no",
      "official_name": "Five Guys Burgers and Fries",
      "addr_state": "CA",
      "addr_city": "San Luis Obispo",
      "addr_postcode": "93405",
      "addr_street": "Foothill Boulevard",
      "addr_housenumber": "763"
    },
    {
      "id": 169048,
      "geometry": "POINT (-120.685408 35.252567)",
      "poi_name": "El Pollo Loco",
      "osm_id": 2293070345,
      "amenity": "fast_food",
      "cuisine": "mexican",
      "takeaway": "yes",
      "addr_state": "CA",
      "addr_city": "San Luis Obispo",
      "addr_postcode": "93405",
      "addr_street": "Los Osos Valley Road",
      "addr_housenumber": "11982"
    },
    {
      "id": 172892,
      "geometry": "POINT (-120.662687 35.279831)",
      "poi_name": "The Habit Burger Grill",
      "osm_id": 2418372541,
      "amenity": "fast_food",
      "cuisine": "burger",
      "website": "https://www.habitburger.com/",
      "phone": "(805) 542-0105",
      "takeaway": "yes",
      "addr_city": "San Luis Obispo",
      "addr_postcode": "93401",
      "addr_street": "Higuera Street",
      "addr_housenumber": "839"
    },
    {
      "id": 172124,
      "geometry": "POINT (-120.668885 35.293632)",
      "poi_name": "Kona's Deli",
      "osm_id": 2396485350,
      "amenity": "fast_food",
      "cuisine": "sandwich",
      "wheelchair": "yes",
      "opening_hours": "10:30-19:00",
      "phone": "805-546-0369",
      "takeaway": "yes",
      "drive_through": "no",
      "delivery": "yes",
      "addr_city": "San Luis Obispo",
      "addr_street": "Foothill Boulevard",
      "addr_housenumber": "977"
    },
    {
      "id": 171919,
      "geometry": "POINT (-120.648783 35.260954)",
      "poi_name": "Eddie's Grill",
      "osm_id": 2390199015,
      "amenity": "fast_food",
      "cuisine": "burger",
      "wheelchair": "yes",
      "phone": "+1-805-752-1228",
      "drive_through": "no",
      "addr_state": "CA",
      "addr_city": "San Luis Obispo",
      "addr_postcode": "93401",
      "addr_street": "Broad Street",
      "addr_housenumber": "3212"
    },
    {
      "id": 174200,
      "geometry": "POINT (-119.658678 35.616991)",
      "poi_name": "Arby's",
      "osm_id": 2469511692,
      "amenity": "fast_food",
      "cuisine": "sandwich",
      "capacity": "60",
      "takeaway": "yes",
      "addr_state": "CA",
      "addr_city": "Lost Hills",
      "addr_street": "Paso Robles Highway",
      "addr_housenumber": "21948"
    },
    {
      "id": 173807,
      "geometry": "POINT (-120.661062 35.277645)",
      "poi_name": "Bings Bao Buns",
      "osm_id": 2456191339,
      "amenity": "fast_food",
      "cuisine": "asian",
      "opening_hours": "21:00-1:00",
      "operator": "Private Parties Only",
      "takeaway": "only",
      "drive_through": "no",
      "outdoor_seating": "no",
      "delivery": "no",
      "addr_state": "CA",
      "addr_city": "San Luis Obispo",
      "addr_postcode": "93401",
      "addr_street": "Chorro Street",
      "addr_housenumber": "1345"
    },
    {
      "id": 173822,
      "geometry": "POINT (-120.84786 37.521601)",
      "poi_name": "Wingstop",
      "osm_id": 2457129836,
      "amenity": "fast_food",
      "cuisine": "wings",
      "takeaway": "yes",
      "addr_city": "Turlock",
      "addr_postcode": "95382",
      "addr_street": "Geer Road",
      "addr_housenumber": "3106"
    },
    {
      "id": 175580,
      "geometry": "POINT (-120.62634 36.639096)",
      "poi_name": "McDonald's",
      "osm_id": 2527019141,
      "amenity": "fast_food",
      "cuisine": "burger",
      "website": "https://www.mcdonalds.com/us/en-us/location/ca/firebaugh/46330-panoche-road/16753.html",
      "takeaway": "yes",
      "drive_through": "yes",
      "addr_state": "CA",
      "addr_city": "Firebaugh",
      "addr_postcode": "93622",
      "addr_street": "West Panoche Road",
      "addr_housenumber": "46330"
    },
    {
      "id": 175644,
      "geometry": "POINT (-119.298 36.332195)",
      "poi_name": "A&W",
      "osm_id": 2529640618,
      "amenity": "fast_food",
      "cuisine": "burger",
      "takeaway": "yes",
      "addr_state": "CA",
      "addr_city": "Visalia",
      "addr_postcode": "93291",
      "addr_street": "North Willis Street",
      "addr_housenumber": "301"
    },
    {
      "id": 179092,
      "geometry": "POINT (-119.272417 35.500803)",
      "poi_name": "Little Caesars",
      "osm_id": 10746993474,
      "amenity": "fast_food",
      "cuisine": "pizza",
      "website": "https://littlecaesars.com/en-us/store/7995/",
      "phone": "(661) 746-4444",
      "takeaway": "yes",
      "addr_state": "CA",
      "addr_city": "Shafter",
      "addr_postcode": "93263",
      "addr_street": "Central Valley Highway",
      "addr_housenumber": "701"
    },
    {
      "id": 181318,
      "geometry": "POINT (-120.467003 37.332489)",
      "poi_name": "Panda Express",
      "osm_id": 10840531597,
      "amenity": "fast_food",
      "cuisine": "chinese",
      "wheelchair": "yes",
      "opening_hours": "Mo-Su 10:00-22:00",
      "website": "pandaexpress.com",
      "phone": "+1-209-354-8199",
      "takeaway": "yes",
      "drive_through": "yes",
      "addr_state": "CA",
      "addr_city": "Merced",
      "addr_postcode": "95340",
      "addr_street": "East Yosemite Avenue",
      "addr_housenumber": "165"
    },
    {
      "id": 186455,
      "geometry": "POINT (-119.910686 36.835705)",
      "poi_name": "Jersey Mike's Subs",
      "osm_id": 7929815569,
      "amenity": "fast_food",
      "cuisine": "sandwich",
      "takeaway": "yes",
      "addr_state": "CA",
      "addr_city": "Fresno",
      "addr_street": "North Riverside Drive",
      "addr_housenumber": "6709"
    },
    {
      "id": 186456,
      "geometry": "POINT (-119.910951 36.835978)",
      "poi_name": "Chronic Tacos",
      "osm_id": 7929815570,
      "amenity": "fast_food",
      "cuisine": "tex-mex",
      "addr_state": "CA",
      "addr_city": "Fresno",
      "addr_street": "North Riverside Drive",
      "addr_housenumber": "6717"
    },
    {
      "id": 193519,
      "geometry": "POINT (-120.662892 35.301177)",
      "poi_name": "Health Snacks",
      "osm_id": 1542001449,
      "amenity": "fast_food",
      "operator": "Cal Poly Campus Dining",
      "website": "https://www.calpolydining.com/tutaco/",
      "phone": "+1-805-756-5135",
      "takeaway": "only",
      "drive_through": "no",
      "outdoor_seating": "no",
      "delivery": "no",
      "addr_state": "CA",
      "addr_city": "San Luis Obispo",
      "addr_postcode": "93407"
    },
    {
      "id": 216670,
      "geometry": "POINT (-119.60516 36.327504)",
      "poi_name": "Subway",
      "osm_id": 9178827630,
      "amenity": "fast_food",
      "cuisine": "sandwich",
      "opening_hours": "Mo-Fr 08:00-21:00; Sa 09:00-21:00; Su 09:00-20:00",
      "website": "https://restaurants.subway.com/united-states/ca/hanford/2453-e-lacey-blvd",
      "phone": "+1 559 585 1510",
      "takeaway": "yes",
      "drive_through": "no",
      "addr_state": "CA",
      "addr_city": "Hanford",
      "addr_postcode": "93230",
      "addr_street": "East Lacey Boulevard",
      "addr_housenumber": "2453"
    },
    {
      "id": 215056,
      "geometry": "POINT (-120.665396 35.486862)",
      "poi_name": "Subway",
      "osm_id": 5286340326,
      "amenity": "fast_food",
      "cuisine": "sandwich",
      "takeaway": "yes",
      "addr_state": "CA",
      "addr_city": "Atascadero",
      "addr_postcode": "93422",
      "addr_street": "El Camino Real",
      "addr_housenumber": "6917"
    },
    {
      "id": 217418,
      "geometry": "POINT (-119.734175 36.735441)",
      "poi_name": "Romeo's Pizza and Subs",
      "osm_id": 9220095214,
      "amenity": "fast_food",
      "cuisine": "pizza",
      "addr_state": "CA",
      "addr_city": "Fresno",
      "addr_postcode": "93727",
      "addr_street": "East Kings Canyon Road",
      "addr_housenumber": "4846"
    },
    {
      "id": 221829,
      "geometry": "POINT (-119.188028 35.531142)",
      "poi_name": "Taco Bell",
      "osm_id": 10992431441,
      "amenity": "fast_food",
      "cuisine": "tex-mex",
      "website": "https://locations.tacobell.com/ca/bakersfield/17047-zachary-ave.html",
      "takeaway": "yes",
      "addr_state": "CA",
      "addr_city": "Bakersfield",
      "addr_postcode": "93308",
      "addr_street": "Zachary Avenue",
      "addr_housenumber": "17047"
    },
    {
      "id": 221830,
      "geometry": "POINT (-119.187911 35.531352)",
      "poi_name": "Cinnabon",
      "osm_id": 10992431442,
      "amenity": "fast_food",
      "cuisine": "dessert",
      "takeaway": "yes",
      "addr_state": "CA",
      "addr_city": "Bakersfield",
      "addr_postcode": "93308",
      "addr_street": "Zachary Avenue",
      "addr_housenumber": "17047"
    },
    {
      "id": 223185,
      "geometry": "POINT (-120.87423 37.056321)",
      "poi_name": "The Habit Burger Grill",
      "osm_id": 11048393115,
      "amenity": "fast_food",
      "cuisine": "burger",
      "website": "https://www.habitburger.com/",
      "takeaway": "yes",
      "drive_through": "yes",
      "addr_city": "Los Banos",
      "addr_postcode": "93635",
      "addr_street": "West Pacheco Boulevard",
      "addr_housenumber": "1335"
    },
    {
      "id": 224853,
      "geometry": "POINT (-119.718904 36.76437)",
      "poi_name": "Quiznos",
      "osm_id": 11101316851,
      "amenity": "fast_food",
      "cuisine": "sandwich",
      "takeaway": "yes",
      "addr_state": "CA",
      "addr_city": "Fresno",
      "addr_street": "North Peach Avenue"
    },
    {
      "id": 224854,
      "geometry": "POINT (-119.718807 36.764366)",
      "poi_name": "Little Caesars",
      "osm_id": 11101316853,
      "amenity": "fast_food",
      "cuisine": "pizza",
      "website": "https://littlecaesars.com/en-us/store/11216/",
      "takeaway": "only",
      "addr_state": "CA",
      "addr_city": "Fresno",
      "addr_street": "North Peach Avenue"
    },
    {
      "id": 232966,
      "geometry": "POINT (-119.910513 36.834597)",
      "poi_name": "Five Guys",
      "osm_id": 4551369994,
      "amenity": "fast_food",
      "cuisine": "burger",
      "takeaway": "yes",
      "official_name": "Five Guys Burgers and Fries",
      "addr_state": "CA",
      "addr_city": "Fresno",
      "addr_street": "North Riverside Drive",
      "addr_housenumber": "6623"
    },
    {
      "id": 239573,
      "geometry": "POINT (-119.019266 35.36383)",
      "poi_name": "Bravos Char Burgers Bakersfield",
      "osm_id": 5927795104,
      "amenity": "fast_food",
      "cuisine": "burger",
      "opening_hours": "Mo-Sa 07:00-20:00",
      "drive_through": "no",
      "outdoor_seating": "no",
      "addr_state": "CA",
      "addr_city": "Bakersfield",
      "addr_postcode": "93304",
      "addr_street": "Chester Avenue",
      "addr_housenumber": "701"
    },
    {
      "id": 238475,
      "geometry": "POINT (-120.425192 34.924112)",
      "poi_name": "Chick-fil-A",
      "osm_id": 5879662992,
      "amenity": "fast_food",
      "cuisine": "chicken",
      "takeaway": "yes",
      "drive_through": "yes",
      "addr_state": "CA",
      "addr_city": "Santa Maria",
      "addr_postcode": "93454",
      "addr_street": "East Betteravia Road",
      "addr_housenumber": "605"
    }
  ],
  "answer_type": "loc",
  "question_entities": {
    "[1]": {
      "main_category": "amenity",
      "sub_category": "fast food restaurant"
    },
    "[2]": {
      "distance": 170000,
      "text": "170 kilometers"
    },
    "[3]": {
      "main_category": "amenity",
      "sub_category": "hospital",
      "display_name": "Adventist Health Hanford - Birth Center, Hanford, CA",
      "geo_wkt": "POINT (-119.667716 36.322848)",
      "poi": {
        "id": 97009,
        "geometry": "POINT (-119.667716 36.322848)",
        "poi_name": "Adventist Health Hanford - Birth Center",
        "osm_id": 6456309411,
        "amenity": "hospital",
        "operator": "Adventist Health",
        "healthcare": "hospital",
        "emergency": "no",
        "addr_state": "CA",
        "addr_city": "Hanford",
        "addr_postcode": "93230",
        "addr_street": "Mall Drive",
        "addr_housenumber": "115"
      }
    }
  },
  "id": 2002,
  "type": "range+loc"
}