{
  "question": "Which restaurant is available towards Nokomis Naturescape Garden, Minneapolis, MN within 140 kilometers from Magnetic Originals, Minneapolis, MN?",
  "sql": "WITH\n    angle AS (SELECT degrees(ST_Azimuth(ST_GeomFromText('POINT (-93.297652 44.948093)',4326)::geography, ST_GeomFromText('POINT (-93.234364 44.913029)',4326)::geography)) AS value)\nSELECT * FROM pois,angle\nWHERE amenity = 'restaurant'\nAND ST_DWithin(pois.geometry, ST_GeomFromText('POINT (-93.297652 44.948093)',4326)::geography, 140000)\nAND (degrees(ST_Azimuth(ST_GeomFromText('POINT (-93.297652 44.948093)',4326)::geography, pois.geometry)) BETWEEN angle.value - 22.5 AND angle.value + 22.5);\n",
  "answers": [
    {
      "id": 43788,
      "geometry": "POINT (-93.247142 44.927086)",
      "poi_name": "Pupuseria La Palmera",
      "osm_id": 3130720240,
      "amenity": "restaurant",
      "cuisine": "salvadoran",
      "addr_city": "Minneapolis",
      "addr_postcode": "55407",
      "addr_street": "Cedar Avenue South",
      "addr_housenumber": "4157",
      "value": 127.9299751900637
    },
    {
      "id": 27938,
      "geometry": "POINT (-92.232088 43.989287)",
      "poi_name": "Country Cafe",
      "osm_id": 459661984,
      "amenity": "restaurant",
      "cuisine": "american",
      "phone": "+1-507-545-2260",
      "addr_state": "MN",
      "addr_city": "Eyota",
      "addr_postcode": "55934",
      "addr_street": "South Front Street SW",
      "addr_housenumber": "215",
      "value": 127.9299751900637
    },
    {
      "id": 27946,
      "geometry": "POINT (-93.162643 44.830079)",
      "poi_name": "Old Chicago",
      "osm_id": 460005308,
      "amenity": "restaurant",
      "cuisine": "pizza",
      "official_name": "Old Chicago Pizza & Taproom",
      "value": 127.9299751900637
    },
    {
      "id": 33001,
      "geometry": "POINT (-93.139207 44.900158)",
      "poi_name": "Boun Giorno",
      "osm_id": 2645052459,
      "amenity": "restaurant",
      "cuisine": "italian",
      "opening_hours": "Mo-Sa unknown; Su closed",
      "capacity": "50",
      "addr_city": "Lilydale",
      "value": 127.9299751900637
    },
    {
      "id": 33002,
      "geometry": "POINT (-93.139354 44.900089)",
      "poi_name": "Osteria I Nonni",
      "osm_id": 2645052749,
      "amenity": "restaurant",
      "cuisine": "italian",
      "capacity": "80",
      "addr_city": "Lilydale",
      "addr_postcode": "55118",
      "value": 127.9299751900637
    },
    {
      "id": 39264,
      "geometry": "POINT (-92.559831 44.564264)",
      "poi_name": "Godfather's Pizza",
      "osm_id": 2912759369,
      "amenity": "restaurant",
      "cuisine": "pizza",
      "addr_postcode": "55066",
      "addr_street": "2000 OLD WEST MAIN STREET",
      "addr_housenumber": "2000",
      "value": 127.9299751900637
    },
    {
      "id": 43284,
      "geometry": "POINT (-92.501088 44.06396)",
      "poi_name": "Noodles & Company",
      "osm_id": 3104150323,
      "amenity": "restaurant",
      "cuisine": "pasta",
      "opening_hours": "Mo-Su 10:30-22:00",
      "addr_city": "Rochester",
      "addr_postcode": "55901",
      "addr_street": "Marketplace Drive Northwest",
      "addr_housenumber": "3944",
      "value": 127.9299751900637
    },
    {
      "id": 34652,
      "geometry": "POINT (-93.278172 44.935773)",
      "poi_name": "Butter Bakery Cafe",
      "osm_id": 2702825871,
      "amenity": "restaurant",
      "cuisine": "sandwich",
      "opening_hours": "Mo-Fr 07:00-19:00; Sa 08:00-15:00",
      "website": "https://butterbakerycafe.com/",
      "addr_street": "Nicollet Avenue South",
      "addr_housenumber": "3700",
      "value": 127.9299751900637
    },
    {
      "id": 39325,
      "geometry": "POINT (-92.481556 44.021845)",
      "poi_name": "Canadian Honker",
      "osm_id": 2917329959,
      "amenity": "restaurant",
      "value": 127.9299751900637
    },
    {
      "id": 39345,
      "geometry": "POINT (-93.158075 44.837546)",
      "poi_name": "Red's Savoy Pizza",
      "osm_id": 2918106172,
      "amenity": "restaurant",
      "cuisine": "pizza",
      "website": "https://www.savoypizza.com/",
      "addr_postcode": "55121",
      "addr_street": "Denmark Avenue",
      "addr_housenumber": "3250",
      "value": 127.9299751900637
    },
    {
      "id": 43671,
      "geometry": "POINT (-92.261922 44.483017)",
      "poi_name": "The Stockholm Pie Company",
      "osm_id": 3126895733,
      "amenity": "restaurant",
      "website": "http://www.stockholmpiecompany.com/",
      "phone": "+1 715 442 5505",
      "addr_street": "Spring Street",
      "addr_housenumber": "N2030",
      "value": 127.9299751900637
    },
    {
      "id": 47630,
      "geometry": "POINT (-92.514446 44.077795)",
      "poi_name": "Texas Roadhouse",
      "osm_id": 3338148102,
      "amenity": "restaurant",
      "cuisine": "steak_house",
      "value": 127.9299751900637
    },
    {
      "id": 45861,
      "geometry": "POINT (-93.252619 44.934248)",
      "poi_name": "Mama Shelia's Soulfood Kitchen",
      "osm_id": 3233745598,
      "amenity": "restaurant",
      "website": "https://mamasheilas.com/",
      "value": 127.9299751900637
    },
    {
      "id": 46766,
      "geometry": "POINT (-92.957724 44.833021)",
      "poi_name": "Noodles & Company",
      "osm_id": 3288132052,
      "amenity": "restaurant",
      "cuisine": "pasta",
      "value": 127.9299751900637
    },
    {
      "id": 46544,
      "geometry": "POINT (-93.246797 44.917677)",
      "poi_name": "Carbone's Pizzeria",
      "osm_id": 3271280107,
      "amenity": "restaurant",
      "cuisine": "pizza",
      "opening_hours": "Su-Th 11:00-22:00, Fr-Sa 11:00-23:00",
      "website": "https://www.carbonespizzeria.com/",
      "phone": "+1 612 724 0063",
      "addr_state": "MN",
      "addr_city": "Minneapolis",
      "addr_postcode": "55407",
      "addr_street": "Cedar Avenue South",
      "addr_housenumber": "4705",
      "value": 127.9299751900637
    },
    {
      "id": 56016,
      "geometry": "POINT (-92.463911 44.023201)",
      "poi_name": "Michael\u2019s",
      "osm_id": 10220768917,
      "amenity": "restaurant",
      "cuisine": "seafood;steak_house",
      "addr_postcode": "55902",
      "addr_street": "South Broadway Avenue",
      "value": 127.9299751900637
    },
    {
      "id": 51814,
      "geometry": "POINT (-93.187561 44.91822)",
      "poi_name": "Highland Grill",
      "osm_id": 561443422,
      "amenity": "restaurant",
      "addr_street": "Cleveland Avenue South",
      "addr_housenumber": "771",
      "value": 127.9299751900637
    },
    {
      "id": 49365,
      "geometry": "POINT (-93.223452 44.898578)",
      "poi_name": "Las Teresitas",
      "osm_id": 3428182039,
      "amenity": "restaurant",
      "cuisine": "mexican",
      "website": "http://www.lasteresita.com",
      "addr_city": "Minneapolis",
      "addr_postcode": "55417",
      "addr_street": "34th Avenue South",
      "addr_housenumber": "5748",
      "value": 127.9299751900637
    },
    {
      "id": 50581,
      "geometry": "POINT (-93.278194 44.925428)",
      "poi_name": "The Lowbrow",
      "osm_id": 3492421562,
      "amenity": "restaurant",
      "cuisine": "burger",
      "website": "https://thelowbrowmpls.com/",
      "phone": "+1 612 208 0720",
      "outdoor_seating": "yes",
      "addr_city": "Minneapolis",
      "addr_postcode": "55409",
      "addr_street": "Nicollet Avenue South",
      "addr_housenumber": "4244",
      "value": 127.9299751900637
    },
    {
      "id": 52301,
      "geometry": "POINT (-93.226799 44.926752)",
      "poi_name": "Chris & Rob's",
      "osm_id": 576903446,
      "amenity": "restaurant",
      "cuisine": "american",
      "website": "http://www.chrisandrobs.com",
      "internet_access": "wlan",
      "addr_state": "MN",
      "addr_city": "Minneapolis",
      "addr_postcode": "55406",
      "addr_street": "East 42nd Street",
      "addr_housenumber": "3101",
      "value": 127.9299751900637
    },
    {
      "id": 59559,
      "geometry": "POINT (-93.278121 44.941217)",
      "poi_name": "Ramen Kazama",
      "osm_id": 5431508546,
      "amenity": "restaurant",
      "cuisine": "japanese",
      "website": "https://www.ramenkazama.com/",
      "addr_postcode": "55408",
      "addr_street": "Nicollet Avenue South",
      "addr_housenumber": "3400",
      "value": 127.9299751900637
    },
    {
      "id": 66067,
      "geometry": "POINT (-92.961534 44.832586)",
      "poi_name": "Bella Pizza",
      "osm_id": 5727134405,
      "amenity": "restaurant",
      "value": 127.9299751900637
    },
    {
      "id": 60562,
      "geometry": "POINT (-93.212196 44.882783)",
      "poi_name": "Stone Arch",
      "osm_id": 5470913523,
      "amenity": "restaurant",
      "cuisine": "american",
      "value": 127.9299751900637
    },
    {
      "id": 60564,
      "geometry": "POINT (-93.213444 44.885555)",
      "poi_name": "LoLo",
      "osm_id": 5470939320,
      "amenity": "restaurant",
      "cuisine": "american",
      "opening_hours": "05:00-21:00",
      "value": 127.9299751900637
    },
    {
      "id": 62030,
      "geometry": "POINT (-92.6457 44.205469)",
      "poi_name": "Betty Sue's Better Brew Cafe",
      "osm_id": 5548878701,
      "amenity": "restaurant",
      "cuisine": "coffee_shop",
      "addr_city": "Pine Island, MN 55963",
      "addr_street": "N Main Street",
      "addr_housenumber": "301",
      "value": 127.9299751900637
    },
    {
      "id": 62341,
      "geometry": "POINT (-92.266164 44.450232)",
      "poi_name": "Port 104",
      "osm_id": 5565066966,
      "amenity": "restaurant",
      "addr_state": "MN",
      "addr_city": "Lake City",
      "addr_postcode": "55041",
      "addr_street": "N Washington St",
      "addr_housenumber": "104",
      "value": 127.9299751900637
    },
    {
      "id": 62342,
      "geometry": "POINT (-92.265837 44.449102)",
      "poi_name": "Fiesta Jalisco",
      "osm_id": 5565072355,
      "amenity": "restaurant",
      "cuisine": "mexican",
      "addr_state": "MN",
      "addr_city": "Lake City",
      "addr_postcode": "55041",
      "addr_street": "S Lakeshore Dr",
      "addr_housenumber": "117",
      "value": 127.9299751900637
    },
    {
      "id": 63892,
      "geometry": "POINT (-92.452272 44.05898)",
      "poi_name": "BB's Pizzaria",
      "osm_id": 5633949712,
      "amenity": "restaurant",
      "cuisine": "pizza",
      "value": 127.9299751900637
    },
    {
      "id": 66069,
      "geometry": "POINT (-92.929676 44.815656)",
      "poi_name": "Cassini's Pizza",
      "osm_id": 5727184899,
      "amenity": "restaurant",
      "value": 127.9299751900637
    },
    {
      "id": 70025,
      "geometry": "POINT (-92.469466 44.005491)",
      "poi_name": "Kumo Sushi",
      "osm_id": 11341592966,
      "amenity": "restaurant",
      "cuisine": "sushi",
      "addr_state": "MN",
      "addr_street": "Crossroads Drive Southwest",
      "value": 127.9299751900637
    },
    {
      "id": 67100,
      "geometry": "POINT (-93.211052 44.884679)",
      "poi_name": "Peoples Organic",
      "osm_id": 11223168098,
      "amenity": "restaurant",
      "value": 127.9299751900637
    },
    {
      "id": 67101,
      "geometry": "POINT (-93.210908 44.884649)",
      "poi_name": "The Cook & The Ox",
      "osm_id": 11223168099,
      "amenity": "restaurant",
      "value": 127.9299751900637
    },
    {
      "id": 67103,
      "geometry": "POINT (-93.210749 44.884708)",
      "poi_name": "Leeann Chin",
      "osm_id": 11223168101,
      "amenity": "restaurant",
      "value": 127.9299751900637
    },
    {
      "id": 67104,
      "geometry": "POINT (-93.212064 44.883666)",
      "poi_name": "Hissho Sushi",
      "osm_id": 11223168104,
      "amenity": "restaurant",
      "cuisine": "sushi",
      "value": 127.9299751900637
    },
    {
      "id": 73315,
      "geometry": "POINT (-92.512048 44.017718)",
      "poi_name": "Shawnee Dining Room",
      "osm_id": 9625594559,
      "amenity": "restaurant",
      "cuisine": "fine_dining",
      "operator": "Rochester Golf & Country Club",
      "website": "https://www.rgcc.org/dining/shawnee-dining-room",
      "phone": "+1 507 282 2708",
      "addr_state": "MN",
      "addr_city": "Rochester",
      "addr_postcode": "55902",
      "addr_street": "Country Club Road SW",
      "addr_housenumber": "3100",
      "value": 127.9299751900637
    },
    {
      "id": 76713,
      "geometry": "POINT (-92.892113 44.738861)",
      "poi_name": "Hey Yu & Song Tea",
      "osm_id": 9789282196,
      "amenity": "restaurant",
      "cuisine": "chinese;tea;milk_tea",
      "opening_hours": "Mo-Su 10:30-21:30",
      "website": "https://www.heyyusongtea.com/",
      "phone": "+1 (651) 346-1378",
      "addr_state": "MN",
      "addr_city": "Hastings",
      "addr_postcode": "55033",
      "addr_street": "North Frontage Road",
      "addr_housenumber": "1741",
      "value": 127.9299751900637
    },
    {
      "id": 73680,
      "geometry": "POINT (-92.451583 44.059923)",
      "poi_name": "Chip Shots (opening April 9th)",
      "osm_id": 9650227489,
      "amenity": "restaurant",
      "value": 127.9299751900637
    },
    {
      "id": 81241,
      "geometry": "POINT (-92.931143 44.521023)",
      "poi_name": "Cannon Golf Club",
      "osm_id": 1617213682,
      "amenity": "restaurant",
      "cuisine": "american",
      "value": 127.9299751900637
    },
    {
      "id": 80805,
      "geometry": "POINT (-92.462558 44.005437)",
      "poi_name": "Denny's",
      "osm_id": 897617177,
      "amenity": "restaurant",
      "cuisine": "american",
      "value": 127.9299751900637
    },
    {
      "id": 77930,
      "geometry": "POINT (-93.187565 44.918358)",
      "poi_name": "Cleveland Wok",
      "osm_id": 728154079,
      "amenity": "restaurant",
      "cuisine": "chinese",
      "value": 127.9299751900637
    },
    {
      "id": 77931,
      "geometry": "POINT (-93.187201 44.918611)",
      "poi_name": "Vina",
      "osm_id": 728154088,
      "amenity": "restaurant",
      "cuisine": "vietnamese",
      "value": 127.9299751900637
    },
    {
      "id": 77933,
      "geometry": "POINT (-93.186995 44.920324)",
      "poi_name": "Punch Neapolitan Pizza",
      "osm_id": 728154115,
      "amenity": "restaurant",
      "cuisine": "pizza",
      "value": 127.9299751900637
    },
    {
      "id": 80496,
      "geometry": "POINT (-92.515758 44.07716)",
      "poi_name": "Buffalo Wild Wings",
      "osm_id": 878883843,
      "amenity": "restaurant",
      "cuisine": "wings",
      "addr_state": "MN",
      "value": 127.9299751900637
    },
    {
      "id": 80497,
      "geometry": "POINT (-92.505645 44.073054)",
      "poi_name": "Carlos O'Kelly's",
      "osm_id": 879112749,
      "amenity": "restaurant",
      "cuisine": "mexican",
      "addr_postcode": "55901",
      "addr_street": "West Frontage Road NW (Hwy 52 N)",
      "addr_housenumber": "4825",
      "value": 127.9299751900637
    },
    {
      "id": 80670,
      "geometry": "POINT (-92.486638 44.038881)",
      "poi_name": "Godfather's Pizza",
      "osm_id": 891888434,
      "amenity": "restaurant",
      "cuisine": "pizza",
      "value": 127.9299751900637
    },
    {
      "id": 82081,
      "geometry": "POINT (-92.48859 44.066718)",
      "poi_name": "Wong's Cafe",
      "osm_id": 1681230226,
      "amenity": "restaurant",
      "cuisine": "chinese",
      "website": "https://www.wongscafemenu.com/",
      "phone": "+1-507-288-3730",
      "addr_state": "MN",
      "addr_city": "Rochester",
      "addr_postcode": "55901",
      "addr_street": "18th Avenue Northwest",
      "addr_housenumber": "4180",
      "value": 127.9299751900637
    },
    {
      "id": 81361,
      "geometry": "POINT (-92.464676 44.023344)",
      "poi_name": "Victoria's Ristorante & Wine Bar",
      "osm_id": 1630139085,
      "amenity": "restaurant",
      "cuisine": "italian",
      "opening_hours": "Mo-Su 10:30-22:00",
      "website": "https://www.victoriasmn.com/",
      "phone": "+1-507-280-6232",
      "addr_state": "MN",
      "addr_city": "Rochester",
      "addr_postcode": "55902",
      "addr_street": "1st Avenue SW",
      "addr_housenumber": "7",
      "value": 127.9299751900637
    },
    {
      "id": 81295,
      "geometry": "POINT (-92.905395 44.508075)",
      "poi_name": "Dudley's Pizza",
      "osm_id": 1619705786,
      "amenity": "restaurant",
      "cuisine": "pizza",
      "value": 127.9299751900637
    },
    {
      "id": 82252,
      "geometry": "POINT (-92.47969 44.031772)",
      "poi_name": "Danny's Pizza",
      "osm_id": 1689737390,
      "amenity": "restaurant",
      "cuisine": "pizza",
      "addr_postcode": "55901",
      "addr_street": "7th Street Northwest",
      "addr_housenumber": "1105",
      "value": 127.9299751900637
    },
    {
      "id": 82675,
      "geometry": "POINT (-92.480301 44.030888)",
      "poi_name": "Hunan Garden",
      "osm_id": 1707818949,
      "amenity": "restaurant",
      "cuisine": "chinese",
      "addr_postcode": "55901",
      "addr_street": "7th Street Northwest",
      "addr_housenumber": "1120",
      "value": 127.9299751900637
    },
    {
      "id": 82676,
      "geometry": "POINT (-92.480618 44.031771)",
      "poi_name": "Taqueria El Sueno",
      "osm_id": 1707821773,
      "amenity": "restaurant",
      "cuisine": "mexican",
      "addr_postcode": "55901",
      "addr_street": "7th Street Northwest",
      "addr_housenumber": "1203",
      "value": 127.9299751900637
    },
    {
      "id": 82908,
      "geometry": "POINT (-93.165293 44.827204)",
      "poi_name": "Ho Ting",
      "osm_id": 1719957704,
      "amenity": "restaurant",
      "cuisine": "chinese",
      "value": 127.9299751900637
    },
    {
      "id": 82665,
      "geometry": "POINT (-92.479926 44.02879)",
      "poi_name": "Asian Kitchen",
      "osm_id": 1707802207,
      "amenity": "restaurant",
      "cuisine": "japanese",
      "addr_postcode": "55901",
      "addr_street": "Civic Center Drive Northwest",
      "addr_housenumber": "1117",
      "value": 127.9299751900637
    },
    {
      "id": 82666,
      "geometry": "POINT (-92.479883 44.028532)",
      "poi_name": "Soriya Cuisine",
      "osm_id": 1707802212,
      "amenity": "restaurant",
      "cuisine": "thai",
      "addr_postcode": "55901",
      "addr_street": "Civic Center Drive Northwest",
      "addr_housenumber": "1123",
      "value": 127.9299751900637
    },
    {
      "id": 82865,
      "geometry": "POINT (-92.488333 44.061017)",
      "poi_name": "Pho Tai",
      "osm_id": 1715707529,
      "amenity": "restaurant",
      "cuisine": "vietnamese",
      "addr_postcode": "55901",
      "addr_street": "37th Street Northwest",
      "addr_housenumber": "1726",
      "value": 127.9299751900637
    },
    {
      "id": 85898,
      "geometry": "POINT (-92.486226 44.022326)",
      "poi_name": "Cherry Berry",
      "osm_id": 1907712390,
      "amenity": "restaurant",
      "cuisine": "ice_cream",
      "value": 127.9299751900637
    },
    {
      "id": 83106,
      "geometry": "POINT (-92.489626 44.034095)",
      "poi_name": "John Hardy's Bar-B-Q",
      "osm_id": 1728484947,
      "amenity": "restaurant",
      "cuisine": "american",
      "website": "https://www.johnhardysbbq.com/locations.html",
      "addr_postcode": "55901",
      "addr_street": "West Frontage Road NW",
      "addr_housenumber": "929",
      "value": 127.9299751900637
    },
    {
      "id": 83566,
      "geometry": "POINT (-92.522035 44.052228)",
      "poi_name": "Nile Restaurant",
      "osm_id": 1751874571,
      "amenity": "restaurant",
      "cuisine": "international",
      "addr_postcode": "55901",
      "addr_street": "Commerce Drive Northwest",
      "addr_housenumber": "2711",
      "value": 127.9299751900637
    },
    {
      "id": 83567,
      "geometry": "POINT (-92.521764 44.052389)",
      "poi_name": "Happy China",
      "osm_id": 1751874584,
      "amenity": "restaurant",
      "cuisine": "chinese",
      "addr_postcode": "55901",
      "addr_street": "Commerce Drive Northwest",
      "addr_housenumber": "2711",
      "value": 127.9299751900637
    },
    {
      "id": 84893,
      "geometry": "POINT (-92.464306 44.019874)",
      "poi_name": "The Loop",
      "osm_id": 1824646990,
      "amenity": "restaurant",
      "addr_city": "Rochester",
      "value": 127.9299751900637
    },
    {
      "id": 83267,
      "geometry": "POINT (-92.486671 44.040419)",
      "poi_name": "Wong's Cafe",
      "osm_id": 1736772830,
      "amenity": "restaurant",
      "cuisine": "chinese",
      "website": "http://www.wongscafe.com/Chinese/Restaurant.html",
      "addr_postcode": "55901",
      "addr_street": "East Frontage Road Northwest",
      "addr_housenumber": "1654",
      "value": 127.9299751900637
    },
    {
      "id": 83268,
      "geometry": "POINT (-92.488516 44.039162)",
      "poi_name": "Dos Amigos II",
      "osm_id": 1736781159,
      "amenity": "restaurant",
      "cuisine": "mexican",
      "website": "http://www.dosamigosminnesota.com/",
      "addr_postcode": "55901",
      "addr_street": "West Frontage Road Northwest",
      "addr_housenumber": "1611",
      "value": 127.9299751900637
    },
    {
      "id": 83305,
      "geometry": "POINT (-92.507929 44.042042)",
      "poi_name": "Club Cafe & Deli",
      "osm_id": 1737954255,
      "amenity": "restaurant",
      "cuisine": "american",
      "website": "http://www.rochesterathleticclub.com/component/content/96.html?task=view",
      "addr_postcode": "55901",
      "addr_street": "19th Street Northwest",
      "addr_housenumber": "3100",
      "value": 127.9299751900637
    },
    {
      "id": 83481,
      "geometry": "POINT (-92.523812 44.05289)",
      "poi_name": "North Mr. Pizza",
      "osm_id": 1747070963,
      "amenity": "restaurant",
      "cuisine": "pizza",
      "opening_hours": "Su-Th 11:00-22:00,Fr-Sa 11:00-23:00",
      "website": "https://www.northmrpizza.com/default.asp",
      "phone": "+1-507-252-9400; +1-507-216-8753",
      "addr_city": "Rochester",
      "addr_postcode": "55901",
      "addr_street": "28th Street Northwest",
      "addr_housenumber": "4040",
      "value": 127.9299751900637
    },
    {
      "id": 88153,
      "geometry": "POINT (-93.187602 44.919614)",
      "poi_name": "Agra Culture Kitchen",
      "osm_id": 8769392797,
      "amenity": "restaurant",
      "cuisine": "sandwich;salad",
      "website": "https://www.agra-culture.com/",
      "phone": "+16517887009",
      "addr_street": "Cleveland Avenue South",
      "addr_housenumber": "721",
      "value": 127.9299751900637
    },
    {
      "id": 86276,
      "geometry": "POINT (-92.486239 44.021911)",
      "poi_name": "Toppers Pizza",
      "osm_id": 1924566235,
      "amenity": "restaurant",
      "cuisine": "pizza",
      "value": 127.9299751900637
    },
    {
      "id": 90254,
      "geometry": "POINT (-92.28442 44.462418)",
      "poi_name": "Lake House on Pepin",
      "osm_id": 1987666269,
      "amenity": "restaurant",
      "cuisine": "american",
      "wheelchair": "yes",
      "takeaway": "yes",
      "addr_state": "MN",
      "addr_city": "Lake City",
      "addr_postcode": "55041",
      "addr_street": "N Lakeshore Drive",
      "addr_housenumber": "1702",
      "value": 127.9299751900637
    },
    {
      "id": 102664,
      "geometry": "POINT (-92.480754 44.004165)",
      "poi_name": "The Compadres",
      "osm_id": 6689921428,
      "amenity": "restaurant",
      "cuisine": "mexican",
      "value": 127.9299751900637
    },
    {
      "id": 93200,
      "geometry": "POINT (-92.031253 44.383195)",
      "poi_name": "Stacy's Kitchen",
      "osm_id": 2155386070,
      "amenity": "restaurant",
      "opening_hours": "We-Su,Mo 07:00-14:00",
      "value": 127.9299751900637
    },
    {
      "id": 95332,
      "geometry": "POINT (-92.501544 44.062735)",
      "poi_name": "Leeann Chin",
      "osm_id": 6392045672,
      "amenity": "restaurant",
      "cuisine": "chinese",
      "value": 127.9299751900637
    },
    {
      "id": 91707,
      "geometry": "POINT (-93.252098 44.926403)",
      "poi_name": "Mei Inn",
      "osm_id": 2084714532,
      "amenity": "restaurant",
      "cuisine": "chinese",
      "website": "https://www.meiinn.com/",
      "addr_street": "Bloomington Avenue South",
      "addr_housenumber": "4215",
      "value": 127.9299751900637
    },
    {
      "id": 93995,
      "geometry": "POINT (-92.95983 44.836868)",
      "poi_name": "Sushi Cafe",
      "osm_id": 2198059716,
      "amenity": "restaurant",
      "cuisine": "sushi",
      "value": 127.9299751900637
    },
    {
      "id": 95116,
      "geometry": "POINT (-93.21159 44.88371)",
      "poi_name": "Chili's",
      "osm_id": 6387471981,
      "amenity": "restaurant",
      "cuisine": "tex-mex",
      "official_name": "Chili's Grill & Bar",
      "value": 127.9299751900637
    },
    {
      "id": 95122,
      "geometry": "POINT (-93.21133 44.883475)",
      "poi_name": "Settebello",
      "osm_id": 6387487899,
      "amenity": "restaurant",
      "value": 127.9299751900637
    },
    {
      "id": 95127,
      "geometry": "POINT (-93.212273 44.882139)",
      "poi_name": "Shoyu",
      "osm_id": 6387495097,
      "amenity": "restaurant",
      "value": 127.9299751900637
    },
    {
      "id": 95129,
      "geometry": "POINT (-93.212784 44.882149)",
      "poi_name": "Mimosa",
      "osm_id": 6387500891,
      "amenity": "restaurant",
      "value": 127.9299751900637
    },
    {
      "id": 95283,
      "geometry": "POINT (-92.462758 44.023314)",
      "poi_name": "Pittsburgh Blue Steakhouse",
      "osm_id": 6391735409,
      "amenity": "restaurant",
      "cuisine": "steak_house",
      "addr_city": "Rochester",
      "value": 127.9299751900637
    },
    {
      "id": 98926,
      "geometry": "POINT (-92.478602 44.028556)",
      "poi_name": "Nupa Mediterranean Cuisine",
      "osm_id": 6535539099,
      "amenity": "restaurant",
      "phone": "+1-507-206-5044",
      "addr_state": "MN",
      "addr_city": "Rochester",
      "addr_street": "Civic Center Drive Northwest",
      "addr_housenumber": "1035",
      "value": 127.9299751900637
    },
    {
      "id": 102352,
      "geometry": "POINT (-93.24771 44.917187)",
      "poi_name": "ie - Italian Eatery",
      "osm_id": 6680084946,
      "amenity": "restaurant",
      "cuisine": "italian",
      "opening_hours": "Mo-Th 16:00-23:00; Fr-Sa 16:00-00:00; Su 16:00+",
      "website": "https://www.italianeatery.com/",
      "phone": "+1-612-223-8504",
      "addr_street": "Cedar Avenue South",
      "addr_housenumber": "4724",
      "value": 127.9299751900637
    },
    {
      "id": 103981,
      "geometry": "POINT (-92.251923 44.130216)",
      "poi_name": "O'Neill's Pizza Pub",
      "osm_id": 8537385209,
      "amenity": "restaurant",
      "cuisine": "pizza",
      "value": 127.9299751900637
    },
    {
      "id": 102896,
      "geometry": "POINT (-93.170433 44.902654)",
      "poi_name": "Five Star Cafe",
      "osm_id": 8463924061,
      "amenity": "restaurant",
      "cuisine": "coffee_shop;eritrean",
      "website": "https://www.facebook.com/FiveStarcafeMN/",
      "phone": "+1-651-696-0909",
      "addr_state": "MN",
      "addr_city": "Saint Paul",
      "addr_postcode": "55116",
      "addr_street": "7th Street West",
      "addr_housenumber": "2469",
      "value": 127.9299751900637
    },
    {
      "id": 103249,
      "geometry": "POINT (-91.966957 44.628578)",
      "poi_name": "Alex's Pizza",
      "osm_id": 8492348848,
      "amenity": "restaurant",
      "cuisine": "pizza",
      "value": 127.9299751900637
    },
    {
      "id": 103528,
      "geometry": "POINT (-93.262339 44.937893)",
      "poi_name": "Jakeeno's",
      "osm_id": 8507932585,
      "amenity": "restaurant",
      "cuisine": "pizza",
      "addr_city": "Minneapolis",
      "addr_postcode": "55407",
      "addr_street": "Chicago Avenue",
      "addr_housenumber": "3551",
      "value": 127.9299751900637
    },
    {
      "id": 106741,
      "geometry": "POINT (-92.482491 44.021767)",
      "poi_name": "Tonic",
      "osm_id": 3513641442,
      "amenity": "restaurant",
      "value": 127.9299751900637
    },
    {
      "id": 104719,
      "geometry": "POINT (-93.262316 44.934957)",
      "poi_name": "Smoke in the Pit",
      "osm_id": 8583953706,
      "amenity": "restaurant",
      "cuisine": "barbecue",
      "website": "https://smokeinthepit.com/",
      "addr_state": "MN",
      "addr_city": "Minneapolis",
      "addr_postcode": "55407",
      "addr_street": "Chicago Avenue South",
      "addr_housenumber": "3733",
      "value": 127.9299751900637
    },
    {
      "id": 104458,
      "geometry": "POINT (-92.261477 44.48286)",
      "poi_name": "Palate",
      "osm_id": 8570111817,
      "amenity": "restaurant",
      "value": 127.9299751900637
    },
    {
      "id": 111318,
      "geometry": "POINT (-92.228902 43.988299)",
      "poi_name": "Burt's Hometown Pizza and Grill",
      "osm_id": 3740998972,
      "amenity": "restaurant",
      "cuisine": "pizza",
      "value": 127.9299751900637
    },
    {
      "id": 107404,
      "geometry": "POINT (-93.16087 44.830785)",
      "poi_name": "Persis",
      "osm_id": 3559943611,
      "amenity": "restaurant",
      "cuisine": "indian",
      "value": 127.9299751900637
    },
    {
      "id": 107410,
      "geometry": "POINT (-93.231859 44.92653)",
      "poi_name": "Bill's Garden Chinese Gourmet",
      "osm_id": 3560061121,
      "amenity": "restaurant",
      "cuisine": "chinese",
      "opening_hours": "Mo-Fr 10:30-21:00; Sa 11:00-21:30",
      "phone": "+1 612 721 4565",
      "takeaway": "yes",
      "addr_city": "Minneapolis",
      "addr_postcode": "55406",
      "addr_street": "28th Avenue South",
      "addr_housenumber": "4209",
      "value": 127.9299751900637
    },
    {
      "id": 110021,
      "geometry": "POINT (-92.485034 44.003249)",
      "poi_name": "Wildwood Sports Bar & Grill",
      "osm_id": 3684263626,
      "amenity": "restaurant",
      "cuisine": "american",
      "value": 127.9299751900637
    },
    {
      "id": 112540,
      "geometry": "POINT (-92.526291 44.065413)",
      "poi_name": "Wahlburgers",
      "osm_id": 3795835415,
      "amenity": "restaurant",
      "cuisine": "burger",
      "opening_hours": "Mo-Su 11:00-21:00",
      "website": "https://wahlburgers.com/location-details/hy-vee-rochester",
      "phone": "+1 507 292 6012",
      "addr_state": "MN",
      "addr_city": "Rochester",
      "addr_postcode": "55901",
      "addr_street": "West Circle Drive NW",
      "addr_housenumber": "4221",
      "value": 127.9299751900637
    },
    {
      "id": 121121,
      "geometry": "POINT (-93.219758 44.928887)",
      "poi_name": "All Square",
      "osm_id": 6743289723,
      "amenity": "restaurant",
      "cuisine": "american",
      "opening_hours": "We-Su 11:00-19:00",
      "addr_postcode": "55406",
      "addr_street": "Minnehaha Avenue",
      "addr_housenumber": "4047",
      "value": 127.9299751900637
    },
    {
      "id": 119274,
      "geometry": "POINT (-92.4628 44.019835)",
      "poi_name": "Mango Thai",
      "osm_id": 9094659688,
      "amenity": "restaurant",
      "cuisine": "thai",
      "value": 127.9299751900637
    },
    {
      "id": 121079,
      "geometry": "POINT (-93.252744 44.908637)",
      "poi_name": "Hot Plate",
      "osm_id": 6742295235,
      "amenity": "restaurant",
      "cuisine": "american",
      "opening_hours": "Mo-Th 08:00-13:00; Fr-Su 08:00-14:00",
      "website": "https://hotplate.co/",
      "phone": "+1-612-824-4794",
      "addr_street": "Bloomington Avenue South",
      "addr_housenumber": "5204",
      "value": 127.9299751900637
    },
    {
      "id": 121191,
      "geometry": "POINT (-92.46256 44.025989)",
      "poi_name": "Hollandberry Pannekoeken",
      "osm_id": 6744825003,
      "amenity": "restaurant",
      "cuisine": "dutch",
      "phone": "+1-507-287-0722",
      "addr_state": "MN",
      "addr_city": "Rochester",
      "addr_postcode": "55906",
      "addr_street": "North Broadway Avenue",
      "addr_housenumber": "214",
      "value": 127.9299751900637
    },
    {
      "id": 113144,
      "geometry": "POINT (-92.852342 44.744524)",
      "poi_name": "Lock and Dam",
      "osm_id": 3821674294,
      "amenity": "restaurant",
      "cuisine": "italian;american;mexican",
      "website": "http://bellavista.bellavistahastings.com/",
      "addr_street": "2nd Street East",
      "addr_housenumber": "101",
      "value": 127.9299751900637
    },
    {
      "id": 119587,
      "geometry": "POINT (-92.451996 44.060302)",
      "poi_name": "Purple Goat",
      "osm_id": 9108409527,
      "amenity": "restaurant",
      "value": 127.9299751900637
    },
    {
      "id": 120550,
      "geometry": "POINT (-92.441876 44.007878)",
      "poi_name": "Toppers Pizza",
      "osm_id": 6710740654,
      "amenity": "restaurant",
      "cuisine": "pizza",
      "value": 127.9299751900637
    },
    {
      "id": 120552,
      "geometry": "POINT (-92.442014 44.009821)",
      "poi_name": "Opa! Opa!",
      "osm_id": 6710740664,
      "amenity": "restaurant",
      "value": 127.9299751900637
    },
    {
      "id": 120554,
      "geometry": "POINT (-92.441621 44.010071)",
      "poi_name": "El Carambas",
      "osm_id": 6710740666,
      "amenity": "restaurant",
      "cuisine": "mexican",
      "value": 127.9299751900637
    },
    {
      "id": 121987,
      "geometry": "POINT (-92.503865 44.064994)",
      "poi_name": "China Star",
      "osm_id": 6782767567,
      "amenity": "restaurant",
      "cuisine": "chinese",
      "value": 127.9299751900637
    },
    {
      "id": 127238,
      "geometry": "POINT (-93.21237 44.921684)",
      "poi_name": "Okome House",
      "osm_id": 8044709841,
      "amenity": "restaurant",
      "cuisine": "japanese",
      "wheelchair": "yes",
      "opening_hours": "Tu-Su 16:30-20:00",
      "website": "https://okome.house/",
      "phone": "+1-612-354-2423",
      "outdoor_seating": "yes",
      "addr_state": "MN",
      "addr_city": "Minneapolis",
      "addr_postcode": "55406",
      "addr_street": "42nd Avenue South",
      "addr_housenumber": "4457",
      "value": 127.9299751900637
    },
    {
      "id": 123441,
      "geometry": "POINT (-93.262826 44.916002)",
      "poi_name": "Pizza Hut",
      "osm_id": 6854439433,
      "amenity": "restaurant",
      "cuisine": "pizza",
      "addr_state": "MN",
      "addr_city": "Minneapolis",
      "addr_postcode": "55417",
      "addr_street": "Chicago Avenue South",
      "addr_housenumber": "4800",
      "value": 127.9299751900637
    },
    {
      "id": 123863,
      "geometry": "POINT (-91.863831 44.229317)",
      "poi_name": "The Cove",
      "osm_id": 6885827242,
      "amenity": "restaurant",
      "cuisine": "american",
      "wheelchair": "yes",
      "opening_hours": "Th-Fr 15:00-02:00; Sa-Su 09:00-02:00",
      "phone": "+1-608-248-2683",
      "takeaway": "yes",
      "outdoor_seating": "yes",
      "addr_state": "WI",
      "addr_city": "Buffalo City",
      "addr_postcode": "54622",
      "addr_street": "South River Road",
      "addr_housenumber": "175",
      "value": 127.9299751900637
    },
    {
      "id": 127120,
      "geometry": "POINT (-92.462175 44.040293)",
      "poi_name": "Fiesta Cafe",
      "osm_id": 8032651075,
      "amenity": "restaurant",
      "cuisine": "mexican",
      "value": 127.9299751900637
    },
    {
      "id": 123492,
      "geometry": "POINT (-92.463698 44.019127)",
      "poi_name": "Bleu Duck Kitchen",
      "osm_id": 6858803401,
      "amenity": "restaurant",
      "phone": "+1 507 258 4663",
      "addr_state": "MN",
      "addr_city": "Rochester",
      "addr_postcode": "55902",
      "addr_street": "4th Street Southwest",
      "addr_housenumber": "14",
      "value": 127.9299751900637
    },
    {
      "id": 126921,
      "geometry": "POINT (-92.515578 44.077027)",
      "poi_name": "China King",
      "osm_id": 8014374554,
      "amenity": "restaurant",
      "value": 127.9299751900637
    },
    {
      "id": 158488,
      "geometry": "POINT (-93.153723 44.834083)",
      "poi_name": "Solos",
      "osm_id": 4750056458,
      "amenity": "restaurant",
      "value": 127.9299751900637
    },
    {
      "id": 132893,
      "geometry": "POINT (-92.464907 43.998747)",
      "poi_name": "Crooked Pint Ale House",
      "osm_id": 9970693671,
      "amenity": "restaurant",
      "cuisine": "american",
      "value": 127.9299751900637
    },
    {
      "id": 132894,
      "geometry": "POINT (-92.464761 43.998955)",
      "poi_name": "Green Mill On-the-Go",
      "osm_id": 9970693672,
      "amenity": "restaurant",
      "cuisine": "pizza",
      "value": 127.9299751900637
    },
    {
      "id": 137527,
      "geometry": "POINT (-92.463242 44.025176)",
      "poi_name": "Cameo",
      "osm_id": 6104221224,
      "amenity": "restaurant",
      "cuisine": "american",
      "addr_city": "Rochester",
      "value": 127.9299751900637
    },
    {
      "id": 137528,
      "geometry": "POINT (-92.463913 44.026455)",
      "poi_name": "Tilda's Pizzeria",
      "osm_id": 6104221225,
      "amenity": "restaurant",
      "cuisine": "pizza",
      "value": 127.9299751900637
    },
    {
      "id": 137529,
      "geometry": "POINT (-92.464208 44.026415)",
      "poi_name": "The Redwood Room",
      "osm_id": 6104221226,
      "amenity": "restaurant",
      "value": 127.9299751900637
    },
    {
      "id": 138930,
      "geometry": "POINT (-93.262303 44.934046)",
      "poi_name": "Dragon Wok",
      "osm_id": 6174781855,
      "amenity": "restaurant",
      "cuisine": "asian",
      "website": "http://www.dragonwokdelivery.com",
      "addr_street": "East 38th Street",
      "addr_housenumber": "805",
      "value": 127.9299751900637
    },
    {
      "id": 145295,
      "geometry": "POINT (-91.916929 44.324232)",
      "poi_name": "Empire Room",
      "osm_id": 7333805116,
      "amenity": "restaurant",
      "value": 127.9299751900637
    },
    {
      "id": 145296,
      "geometry": "POINT (-91.916753 44.323991)",
      "poi_name": "Alfresco Pizzeria",
      "osm_id": 7333839786,
      "amenity": "restaurant",
      "cuisine": "pizza",
      "value": 127.9299751900637
    },
    {
      "id": 151514,
      "geometry": "POINT (-93.278154 44.934343)",
      "poi_name": "Kyatchi",
      "osm_id": 4102990301,
      "amenity": "restaurant",
      "cuisine": "sushi",
      "opening_hours": "Mo-Fr 16:00-24:00",
      "website": "http://www.kyatchi.com/",
      "phone": "+1-612-236-4429",
      "addr_state": "MN",
      "addr_city": "Minneapolis",
      "addr_postcode": "55409",
      "addr_street": "Nicollet Avenue South",
      "addr_housenumber": "3758",
      "value": 127.9299751900637
    },
    {
      "id": 151515,
      "geometry": "POINT (-93.27773 44.934243)",
      "poi_name": "Nighthawks Diner & Bar",
      "osm_id": 4102990312,
      "amenity": "restaurant",
      "cuisine": "regional",
      "description": "Modern takes on classic diner fare, plus wine and local brews.",
      "wheelchair": "yes",
      "opening_hours": "Mo-Sa 11:00-23:00",
      "website": "https://nighthawksmpls.com/",
      "internet_access": "wlan",
      "phone": "+1-612-248-8111",
      "takeaway": "yes",
      "outdoor_seating": "yes",
      "delivery": "no",
      "addr_state": "MN",
      "addr_city": "Minneapolis",
      "addr_postcode": "55409",
      "addr_street": "Nicollet Avenue South",
      "addr_housenumber": "3753",
      "value": 127.9299751900637
    },
    {
      "id": 129407,
      "geometry": "POINT (-92.452 44.056717)",
      "poi_name": "Jenpachi",
      "osm_id": 8241812510,
      "amenity": "restaurant",
      "cuisine": "japanese",
      "phone": "+1 507 292 1688",
      "addr_state": "MN",
      "addr_city": "Rochester",
      "addr_postcode": "55906",
      "addr_street": "Wellner Drive Northeast",
      "addr_housenumber": "3160",
      "value": 127.9299751900637
    },
    {
      "id": 144671,
      "geometry": "POINT (-93.214872 44.883481)",
      "poi_name": "Zona Cocina",
      "osm_id": 7280120027,
      "amenity": "restaurant",
      "value": 127.9299751900637
    },
    {
      "id": 145905,
      "geometry": "POINT (-92.475705 44.206297)",
      "poi_name": "The Pondy Restaurant & Bar",
      "osm_id": 7396503578,
      "amenity": "restaurant",
      "value": 127.9299751900637
    },
    {
      "id": 154574,
      "geometry": "POINT (-93.262443 44.916444)",
      "poi_name": "Bagu Sushi & Thai",
      "osm_id": 4244605294,
      "amenity": "restaurant",
      "cuisine": "sushi;thai",
      "website": "https://bagusushi.com/",
      "phone": "+1 (612) 823-5254",
      "addr_state": "MN",
      "addr_city": "Minneapolis",
      "addr_postcode": "55407",
      "addr_street": "Chicago Avenue South",
      "addr_housenumber": "4741",
      "value": 127.9299751900637
    },
    {
      "id": 156755,
      "geometry": "POINT (-92.46498 44.01802)",
      "poi_name": "Pasquale's Neighborhood Pizzeria",
      "osm_id": 4669738133,
      "amenity": "restaurant",
      "cuisine": "pizza",
      "value": 127.9299751900637
    },
    {
      "id": 157342,
      "geometry": "POINT (-92.462761 44.020388)",
      "poi_name": "Terza",
      "osm_id": 4704117929,
      "amenity": "restaurant",
      "value": 127.9299751900637
    },
    {
      "id": 157343,
      "geometry": "POINT (-92.460322 44.023732)",
      "poi_name": "Kabab Restaurant",
      "osm_id": 4704136361,
      "amenity": "restaurant",
      "cuisine": "kebab",
      "value": 127.9299751900637
    },
    {
      "id": 157345,
      "geometry": "POINT (-92.46793 44.023638)",
      "poi_name": "CB3 Burgers & Brew",
      "osm_id": 4704144812,
      "amenity": "restaurant",
      "cuisine": "burger",
      "addr_city": "Rochester",
      "value": 127.9299751900637
    },
    {
      "id": 164284,
      "geometry": "POINT (-93.183512 44.924831)",
      "poi_name": "The Pulse",
      "osm_id": 9461036661,
      "amenity": "restaurant",
      "cuisine": "pizza",
      "value": 127.9299751900637
    },
    {
      "id": 159379,
      "geometry": "POINT (-92.463491 43.954988)",
      "poi_name": "Noodles & Company",
      "osm_id": 4790577662,
      "amenity": "restaurant",
      "cuisine": "pasta",
      "opening_hours": "Mo-Su 10:30-21:00",
      "value": 127.9299751900637
    },
    {
      "id": 159381,
      "geometry": "POINT (-92.461445 43.955539)",
      "poi_name": "Rooster's Too!",
      "osm_id": 4790577665,
      "amenity": "restaurant",
      "cuisine": "american",
      "outdoor_seating": "yes",
      "value": 127.9299751900637
    },
    {
      "id": 159773,
      "geometry": "POINT (-93.288508 44.939776)",
      "poi_name": "Vo's Vietnamese Restaurant",
      "osm_id": 4806273388,
      "amenity": "restaurant",
      "cuisine": "vietnamese",
      "opening_hours": "11:00-21:00",
      "website": "https://vosvietnamese.com/",
      "phone": "+1-612-584-3630",
      "takeaway": "yes",
      "outdoor_seating": "yes",
      "delivery": "no",
      "addr_state": "MN",
      "addr_city": "Minneapolis",
      "addr_postcode": "55408",
      "addr_street": "Lyndale Avenue South",
      "addr_housenumber": "3450",
      "value": 127.9299751900637
    },
    {
      "id": 164298,
      "geometry": "POINT (-93.187893 44.918097)",
      "poi_name": "Ichiddo Ramen",
      "osm_id": 9461819211,
      "amenity": "restaurant",
      "cuisine": "japanese",
      "value": 127.9299751900637
    },
    {
      "id": 164327,
      "geometry": "POINT (-93.139174 44.803798)",
      "poi_name": "Oryza Poke & Ramen",
      "osm_id": 9464286595,
      "amenity": "restaurant",
      "cuisine": "ramen;hawaiian",
      "website": "https://oryzapokeramen.aiyaorder.us/#/",
      "phone": "651-493-3242",
      "addr_state": "MN",
      "addr_city": "Eagan",
      "addr_postcode": "55123",
      "addr_street": "Diffley Road",
      "addr_housenumber": "1016",
      "value": 127.9299751900637
    },
    {
      "id": 165623,
      "geometry": "POINT (-91.659108 44.5686)",
      "poi_name": "McT's",
      "osm_id": 9546482482,
      "amenity": "restaurant",
      "cuisine": "pizza;burger;american",
      "value": 127.9299751900637
    },
    {
      "id": 170775,
      "geometry": "POINT (-92.172595 44.154257)",
      "poi_name": "Tarasco's",
      "osm_id": 2348998717,
      "amenity": "restaurant",
      "value": 127.9299751900637
    },
    {
      "id": 168724,
      "geometry": "POINT (-93.284153 44.93396)",
      "poi_name": "Rincon 38",
      "osm_id": 2276060844,
      "amenity": "restaurant",
      "cuisine": "tapas",
      "website": "https://www.rincon38.com",
      "phone": "+1-612-824-4052",
      "outdoor_seating": "yes",
      "addr_city": "Minneapolis",
      "addr_postcode": "55409",
      "addr_street": "Grand Avenue South",
      "addr_housenumber": "3801",
      "value": 127.9299751900637
    },
    {
      "id": 172825,
      "geometry": "POINT (-92.892128 44.738958)",
      "poi_name": "Eddie Cheng",
      "osm_id": 2415163819,
      "amenity": "restaurant",
      "cuisine": "chinese",
      "value": 127.9299751900637
    },
    {
      "id": 172226,
      "geometry": "POINT (-92.853264 44.73483)",
      "poi_name": "Tokyo Grill",
      "osm_id": 2397905736,
      "amenity": "restaurant",
      "cuisine": "japanese",
      "value": 127.9299751900637
    },
    {
      "id": 172227,
      "geometry": "POINT (-92.852197 44.73393)",
      "poi_name": "Fortune Cookie",
      "osm_id": 2397907496,
      "amenity": "restaurant",
      "cuisine": "chinese",
      "value": 127.9299751900637
    },
    {
      "id": 172228,
      "geometry": "POINT (-92.852266 44.734449)",
      "poi_name": "Dairy Queen/Orange Julius",
      "osm_id": 2397909513,
      "amenity": "restaurant",
      "cuisine": "ice_cream",
      "value": 127.9299751900637
    },
    {
      "id": 177093,
      "geometry": "POINT (-92.904503 44.846553)",
      "poi_name": "Carbone's Pizzeria",
      "osm_id": 2573494099,
      "amenity": "restaurant",
      "cuisine": "pizza",
      "website": "https://www.carbonespizza.net/cottagegrove/",
      "phone": "+1-651-459-6666",
      "addr_city": "Cottage Grove",
      "addr_postcode": "55016",
      "addr_street": "Jorgensen Lane South",
      "addr_housenumber": "7155",
      "value": 127.9299751900637
    },
    {
      "id": 177102,
      "geometry": "POINT (-92.960202 44.83296)",
      "poi_name": "Lisu's Thai Taste",
      "osm_id": 2574330404,
      "amenity": "restaurant",
      "cuisine": "pizza",
      "phone": "+1-651-459-7663",
      "addr_city": "Cottage Grove",
      "addr_postcode": "55016",
      "addr_street": "East Point Douglas Road South",
      "addr_housenumber": "7145",
      "value": 127.9299751900637
    },
    {
      "id": 177103,
      "geometry": "POINT (-92.956276 44.828744)",
      "poi_name": "Rocco's Pizza",
      "osm_id": 2574333612,
      "amenity": "restaurant",
      "cuisine": "pizza",
      "website": "https://www.roccospizza.com/",
      "phone": "+1-651-459-5575",
      "addr_state": "MN",
      "addr_city": "Cottage Grove",
      "addr_postcode": "55016",
      "addr_street": "East Point Douglas Road South",
      "addr_housenumber": "7422",
      "value": 127.9299751900637
    },
    {
      "id": 177105,
      "geometry": "POINT (-92.929712 44.816107)",
      "poi_name": "Ho King Restaurant",
      "osm_id": 2574345633,
      "amenity": "restaurant",
      "cuisine": "chinese",
      "phone": "+1-651-458-1111",
      "addr_city": "Cottage Grove",
      "addr_postcode": "55016",
      "addr_street": "East Point Douglas Road South",
      "addr_housenumber": "8711",
      "value": 127.9299751900637
    },
    {
      "id": 177106,
      "geometry": "POINT (-92.968862 44.831472)",
      "poi_name": "Pizza Hut",
      "osm_id": 2574349860,
      "amenity": "restaurant",
      "cuisine": "pizza",
      "phone": "+1-651-458-3000",
      "addr_city": "Cottage Grove",
      "addr_postcode": "55016",
      "addr_street": "80th Street South",
      "addr_housenumber": "6990",
      "value": 127.9299751900637
    },
    {
      "id": 177107,
      "geometry": "POINT (-92.968738 44.831551)",
      "poi_name": "Bella Pizza",
      "osm_id": 2574351949,
      "amenity": "restaurant",
      "cuisine": "pizza",
      "website": "http://bellapizzamn.com/",
      "phone": "+1-651-769-8355",
      "addr_city": "Cottage Grove",
      "addr_postcode": "55016",
      "addr_street": "Hadley Avenue South",
      "addr_housenumber": "8118",
      "value": 127.9299751900637
    },
    {
      "id": 177108,
      "geometry": "POINT (-92.956988 44.83407)",
      "poi_name": "Tom Moy Cafe",
      "osm_id": 2574356664,
      "amenity": "restaurant",
      "cuisine": "chinese",
      "phone": "+1-651-459-9119",
      "addr_city": "Cottage Grove",
      "addr_postcode": "55016",
      "addr_street": "80th Street South",
      "addr_housenumber": "7420",
      "value": 127.9299751900637
    },
    {
      "id": 185060,
      "geometry": "POINT (-92.263893 44.448331)",
      "poi_name": "Dux Ice Cream Coffee & more",
      "osm_id": 7830500986,
      "amenity": "restaurant",
      "value": 127.9299751900637
    },
    {
      "id": 177197,
      "geometry": "POINT (-93.278177 44.934272)",
      "poi_name": "Cocina Latina",
      "osm_id": 2577336563,
      "amenity": "restaurant",
      "cuisine": "latin_american",
      "opening_hours": "Mo 11:00-21:00; Tu-Th 11:00-22:00; Fr 10:30-22:00; Sa-Su 10:00-22:00",
      "website": "https://www.cocinalatinamn.com",
      "phone": "+1 612 354 2971",
      "addr_city": "Minneapolis",
      "addr_postcode": "55409",
      "addr_street": "Nicollet Avenue South",
      "addr_housenumber": "3764",
      "value": 127.9299751900637
    },
    {
      "id": 187330,
      "geometry": "POINT (-93.125803 44.738557)",
      "poi_name": "Carbonne's Pizza",
      "osm_id": 1055528118,
      "amenity": "restaurant",
      "cuisine": "pizza",
      "value": 127.9299751900637
    },
    {
      "id": 189337,
      "geometry": "POINT (-93.121305 44.884406)",
      "poi_name": "Tommy Chicago's",
      "osm_id": 1228009387,
      "amenity": "restaurant",
      "value": 127.9299751900637
    },
    {
      "id": 188038,
      "geometry": "POINT (-92.993852 44.608891)",
      "poi_name": "Little Oscar's",
      "osm_id": 1125406138,
      "amenity": "restaurant",
      "cuisine": "american",
      "phone": "+1-651-437-6327",
      "addr_state": "MN",
      "addr_city": "Hampton",
      "addr_postcode": "55031",
      "addr_street": "Emery Avenue",
      "addr_housenumber": "23470",
      "value": 127.9299751900637
    },
    {
      "id": 191522,
      "geometry": "POINT (-92.521999 44.052738)",
      "poi_name": "Carbone's Pizza",
      "osm_id": 1371784946,
      "amenity": "restaurant",
      "cuisine": "pizza",
      "addr_postcode": "55901",
      "addr_street": "Commerce Drive Northwest",
      "addr_housenumber": "2723",
      "value": 127.9299751900637
    },
    {
      "id": 191440,
      "geometry": "POINT (-92.484428 44.005124)",
      "poi_name": "Star Ocean Buffet",
      "osm_id": 1368109461,
      "amenity": "restaurant",
      "value": 127.9299751900637
    },
    {
      "id": 191125,
      "geometry": "POINT (-92.506037 44.077311)",
      "poi_name": "Newt's Hamburgers",
      "osm_id": 1342226333,
      "amenity": "restaurant",
      "cuisine": "burger",
      "addr_postcode": "55901",
      "addr_street": "East Frontage Road Northwest",
      "addr_housenumber": "5231",
      "value": 127.9299751900637
    },
    {
      "id": 191524,
      "geometry": "POINT (-92.522944 44.044193)",
      "poi_name": "Zen Fusion Hibachi & Lounge",
      "osm_id": 1371785042,
      "amenity": "restaurant",
      "cuisine": "japanese",
      "addr_state": "MN",
      "addr_city": "Rochester",
      "addr_postcode": "55901",
      "addr_street": "Superior Drive NW",
      "addr_housenumber": "2043",
      "value": 127.9299751900637
    },
    {
      "id": 191753,
      "geometry": "POINT (-92.455806 43.973589)",
      "poi_name": "Whistle Binkies on the Lake",
      "osm_id": 1390824318,
      "amenity": "restaurant",
      "cuisine": "american",
      "website": "https://www.whistlebinkiespub.com/index.shtml",
      "addr_postcode": "55904",
      "addr_street": "Wood Lake Drive Southeast",
      "addr_housenumber": "247",
      "value": 127.9299751900637
    },
    {
      "id": 193224,
      "geometry": "POINT (-92.459667 44.18018)",
      "poi_name": "Uncle John's Bar & Grill",
      "osm_id": 1510841801,
      "amenity": "restaurant",
      "cuisine": "american",
      "value": 127.9299751900637
    },
    {
      "id": 193069,
      "geometry": "POINT (-92.465744 44.003801)",
      "poi_name": "Prescott's Grill",
      "osm_id": 1493865597,
      "amenity": "restaurant",
      "cuisine": "american",
      "value": 127.9299751900637
    },
    {
      "id": 192369,
      "geometry": "POINT (-92.462283 43.958533)",
      "poi_name": "Fat Willy's",
      "osm_id": 1437873438,
      "amenity": "restaurant",
      "cuisine": "burger",
      "website": "http://www.fatwillysburgers.com/",
      "addr_postcode": "55904",
      "addr_street": "Maine Avenue Southeast",
      "addr_housenumber": "4325",
      "value": 127.9299751900637
    },
    {
      "id": 193085,
      "geometry": "POINT (-92.462481 44.013845)",
      "poi_name": "Pizza Hut/Wing Street",
      "osm_id": 1494682995,
      "amenity": "restaurant",
      "cuisine": "american",
      "value": 127.9299751900637
    },
    {
      "id": 193359,
      "geometry": "POINT (-92.46839 44.01735)",
      "poi_name": "Twigs",
      "osm_id": 1527322733,
      "amenity": "restaurant",
      "cuisine": "american",
      "value": 127.9299751900637
    },
    {
      "id": 193286,
      "geometry": "POINT (-92.444557 44.009126)",
      "poi_name": "Zadeo's Pizza",
      "osm_id": 1517361857,
      "amenity": "restaurant",
      "cuisine": "pizza",
      "value": 127.9299751900637
    },
    {
      "id": 193628,
      "geometry": "POINT (-92.463678 44.022252)",
      "poi_name": "BB's Express",
      "osm_id": 1549713130,
      "amenity": "restaurant",
      "cuisine": "pizza;pasta;salad",
      "addr_city": "Rochester",
      "value": 127.9299751900637
    },
    {
      "id": 196796,
      "geometry": "POINT (-92.584937 44.569924)",
      "poi_name": "Applebee's",
      "osm_id": 10596830033,
      "amenity": "restaurant",
      "cuisine": "american",
      "official_name": "Applebee's Neighborhood Grill & Bar",
      "addr_state": "MN",
      "addr_city": "Red Wing",
      "addr_postcode": "55066",
      "addr_street": "Tyler Road North",
      "addr_housenumber": "156",
      "value": 127.9299751900637
    },
    {
      "id": 195314,
      "geometry": "POINT (-92.488624 44.066718)",
      "poi_name": "Cantonese Wong's Cafe",
      "osm_id": 10300334294,
      "amenity": "restaurant",
      "cuisine": "asian",
      "opening_hours": "Tu-Sa 11:00-21:00, Su 11:00-20:00",
      "website": "https://www.wongscafemenu.com",
      "phone": "507-288-3730",
      "addr_state": "MN",
      "addr_city": "Rochester",
      "addr_postcode": "55901",
      "addr_street": "18th Ave NW",
      "addr_housenumber": "4180",
      "value": 127.9299751900637
    },
    {
      "id": 196459,
      "geometry": "POINT (-92.474241 44.000412)",
      "poi_name": "First Meeting Noodle",
      "osm_id": 10579785237,
      "amenity": "restaurant",
      "cuisine": "chinese",
      "value": 127.9299751900637
    },
    {
      "id": 196574,
      "geometry": "POINT (-91.66055 44.568143)",
      "poi_name": "Mondovi Family Restaurant",
      "osm_id": 10587435087,
      "amenity": "restaurant",
      "value": 127.9299751900637
    },
    {
      "id": 198860,
      "geometry": "POINT (-92.484698 44.02889)",
      "poi_name": "Famous Dave's",
      "osm_id": 922124087,
      "amenity": "restaurant",
      "cuisine": "barbecue",
      "addr_postcode": "55901",
      "addr_street": "16th Avenue Northwest",
      "addr_housenumber": "435",
      "value": 127.9299751900637
    },
    {
      "id": 197050,
      "geometry": "POINT (-92.490175 44.036077)",
      "poi_name": "The Guild Tavern & Social House",
      "osm_id": 10609212508,
      "amenity": "restaurant",
      "cuisine": "american",
      "operator": "Colonial Lanes",
      "value": 127.9299751900637
    },
    {
      "id": 198634,
      "geometry": "POINT (-92.9089 44.49558)",
      "poi_name": "Rancho Loco Grill & Bar",
      "osm_id": 906268437,
      "amenity": "restaurant",
      "cuisine": "mexican",
      "website": "https://rancholocomn.com/",
      "phone": "+1-507-263-2307",
      "addr_state": "MN",
      "addr_city": "Cannon Falls",
      "addr_postcode": "55009",
      "addr_street": "64th Avenue Path",
      "addr_housenumber": "31303",
      "value": 127.9299751900637
    },
    {
      "id": 198646,
      "geometry": "POINT (-92.522248 44.046709)",
      "poi_name": "Rooster's Barn & Grill",
      "osm_id": 907694902,
      "amenity": "restaurant",
      "cuisine": "american",
      "addr_postcode": "55901",
      "addr_street": "Superior Drive Northwest",
      "addr_housenumber": "2280",
      "value": 127.9299751900637
    },
    {
      "id": 198657,
      "geometry": "POINT (-92.430952 44.049585)",
      "poi_name": "Nick-N-Willy's Pizza",
      "osm_id": 909908028,
      "amenity": "restaurant",
      "cuisine": "pizza",
      "value": 127.9299751900637
    },
    {
      "id": 198537,
      "geometry": "POINT (-92.464231 44.021002)",
      "poi_name": "Newt's",
      "osm_id": 898358960,
      "amenity": "restaurant",
      "wheelchair": "no",
      "addr_city": "Rochester",
      "value": 127.9299751900637
    },
    {
      "id": 198709,
      "geometry": "POINT (-93.156962 44.831847)",
      "poi_name": "Kyoto Sushi and Hibachi",
      "osm_id": 914122310,
      "amenity": "restaurant",
      "cuisine": "sushi",
      "value": 127.9299751900637
    },
    {
      "id": 198945,
      "geometry": "POINT (-92.501008 44.063759)",
      "poi_name": "Pi Woodfired Pizza",
      "osm_id": 925431965,
      "amenity": "restaurant",
      "cuisine": "pizza",
      "opening_hours": "Mo-Su 11:0-21:00",
      "website": "https://www.live4pi.com/",
      "phone": "+1-507-424-3885",
      "addr_postcode": "55901",
      "addr_street": "Marketplace Drive Northwest",
      "addr_housenumber": "3932",
      "value": 127.9299751900637
    },
    {
      "id": 198946,
      "geometry": "POINT (-92.500561 44.0632)",
      "poi_name": "Applebee's",
      "osm_id": 925431970,
      "amenity": "restaurant",
      "cuisine": "american",
      "official_name": "Applebee's Neighborhood Grill & Bar",
      "addr_state": "MN",
      "value": 127.9299751900637
    },
    {
      "id": 203633,
      "geometry": "POINT (-92.906411 44.508098)",
      "poi_name": "Mill Street Tavern",
      "osm_id": 7096042073,
      "amenity": "restaurant",
      "cuisine": "american",
      "website": "http://www.millstreettavern.com/",
      "phone": "+1 507 263 9429",
      "addr_city": "Cannon Falls",
      "addr_postcode": "55009",
      "addr_street": "Mill Street West",
      "addr_housenumber": "410",
      "value": 127.9299751900637
    },
    {
      "id": 201814,
      "geometry": "POINT (-93.189489 44.917156)",
      "poi_name": "Noodles & Company",
      "osm_id": 660909449,
      "amenity": "restaurant",
      "cuisine": "pasta",
      "value": 127.9299751900637
    },
    {
      "id": 201818,
      "geometry": "POINT (-93.185376 44.917599)",
      "poi_name": "Leean Chin",
      "osm_id": 660909481,
      "amenity": "restaurant",
      "cuisine": "asian",
      "value": 127.9299751900637
    },
    {
      "id": 198826,
      "geometry": "POINT (-92.478574 44.004943)",
      "poi_name": "Applebee's",
      "osm_id": 920873936,
      "amenity": "restaurant",
      "cuisine": "american",
      "official_name": "Applebee's Neighborhood Grill & Bar",
      "addr_state": "MN",
      "value": 127.9299751900637
    },
    {
      "id": 199306,
      "geometry": "POINT (-92.294783 44.244851)",
      "poi_name": "Millville Cafe",
      "osm_id": 954611915,
      "amenity": "restaurant",
      "value": 127.9299751900637
    },
    {
      "id": 199669,
      "geometry": "POINT (-93.284536 44.933826)",
      "poi_name": "Grand Cafe",
      "osm_id": 980049795,
      "amenity": "restaurant",
      "opening_hours": "Tu-Sa 17:00-22:00,Su 10:00-13:00,17:00-21:00",
      "website": "https://www.grandcafemn.com/",
      "phone": "+1 612 8228260",
      "addr_street": "Grand Avenue South",
      "addr_housenumber": "3804",
      "value": 127.9299751900637
    },
    {
      "id": 199670,
      "geometry": "POINT (-93.278122 44.933972)",
      "poi_name": "Petite Le\u00f3n",
      "osm_id": 980049799,
      "amenity": "restaurant",
      "website": "http://www.blackbirdmpls.com",
      "phone": "+1 612 823 4790",
      "outdoor_seating": "yes",
      "addr_state": "MN",
      "addr_city": "Minneapolis",
      "addr_postcode": "55409",
      "addr_street": "Nicollet Avenue South",
      "addr_housenumber": "3800",
      "value": 127.9299751900637
    },
    {
      "id": 200314,
      "geometry": "POINT (-93.262807 44.915453)",
      "poi_name": "Creekside Supperclub",
      "osm_id": 1031679858,
      "amenity": "restaurant",
      "cuisine": "american",
      "opening_hours": "Tu-Th 16:00-22:00; Fr-Sa 16:00-00:00; Su 16:00-22:00",
      "website": "https://www.creeksidemn.com/",
      "phone": "+1-612-354-3675",
      "addr_state": "MN",
      "addr_city": "Minneapolis",
      "addr_postcode": "55417",
      "addr_street": "Chicago Avenue South",
      "addr_housenumber": "4820",
      "value": 127.9299751900637
    },
    {
      "id": 200324,
      "geometry": "POINT (-92.502805 44.066564)",
      "poi_name": "Broadway Bar & Pizza",
      "osm_id": 1033850110,
      "amenity": "restaurant",
      "cuisine": "pizza",
      "opening_hours": "Mo-Su 11:00-22:00",
      "website": "http://www.broadwaypizzarochester.com/",
      "phone": "+1-507-208-4111",
      "addr_postcode": "55901",
      "addr_street": "West Frontage Road Northwest",
      "addr_housenumber": "4144",
      "value": 127.9299751900637
    },
    {
      "id": 203635,
      "geometry": "POINT (-92.907518 44.495735)",
      "poi_name": "Great China",
      "osm_id": 7096058842,
      "amenity": "restaurant",
      "cuisine": "chinese",
      "phone": "+1 507 263 8868",
      "addr_state": "MN",
      "addr_city": "Cannon Falls",
      "addr_postcode": "55009",
      "value": 127.9299751900637
    },
    {
      "id": 203636,
      "geometry": "POINT (-92.90603 44.487716)",
      "poi_name": "Falls Landing",
      "osm_id": 7096091791,
      "amenity": "restaurant",
      "cuisine": "american",
      "website": "https://www.fallslandingmn.com/",
      "phone": "+1 651 829 1640",
      "addr_city": "Cannon Falls",
      "addr_postcode": "55009",
      "addr_street": "4th Street South",
      "addr_housenumber": "1223",
      "value": 127.9299751900637
    },
    {
      "id": 203637,
      "geometry": "POINT (-92.905932 44.506655)",
      "poi_name": "Chuggers Bar & Grill",
      "osm_id": 7096119872,
      "amenity": "restaurant",
      "cuisine": "american",
      "phone": "+1 507 263 0680",
      "addr_city": "Cannon Falls",
      "addr_postcode": "55009",
      "addr_street": "4th Street South",
      "addr_housenumber": "104",
      "value": 127.9299751900637
    },
    {
      "id": 203638,
      "geometry": "POINT (-92.905528 44.50651)",
      "poi_name": "Brewster's Bar & Grill",
      "osm_id": 7096119873,
      "amenity": "restaurant",
      "cuisine": "american",
      "phone": "+1 507 263 5020",
      "addr_city": "Cannon Falls",
      "addr_postcode": "55009",
      "addr_street": "4th Street South",
      "addr_housenumber": "115",
      "value": 127.9299751900637
    },
    {
      "id": 203639,
      "geometry": "POINT (-92.905179 44.507785)",
      "poi_name": "Nick's Downtown Diner",
      "osm_id": 7096119874,
      "amenity": "restaurant",
      "cuisine": "american",
      "website": "https://www.nicksdowntowndiner.com/",
      "phone": "+1 507 263 0003",
      "addr_city": "Cannon Falls",
      "addr_postcode": "55009",
      "addr_street": "West Mill Street",
      "addr_housenumber": "331",
      "value": 127.9299751900637
    },
    {
      "id": 204675,
      "geometry": "POINT (-93.170295 44.836161)",
      "poi_name": "Punch Pizza",
      "osm_id": 7139515915,
      "amenity": "restaurant",
      "cuisine": "pizza",
      "value": 127.9299751900637
    },
    {
      "id": 204676,
      "geometry": "POINT (-93.170334 44.836274)",
      "poi_name": "Hawaii Poke Bowl",
      "osm_id": 7139515916,
      "amenity": "restaurant",
      "value": 127.9299751900637
    },
    {
      "id": 204677,
      "geometry": "POINT (-93.170375 44.83638)",
      "poi_name": "Rusy Taco",
      "osm_id": 7139515917,
      "amenity": "restaurant",
      "cuisine": "mexican",
      "value": 127.9299751900637
    },
    {
      "id": 214963,
      "geometry": "POINT (-93.247162 44.93444)",
      "poi_name": "Lucy's Market & Carry-out",
      "osm_id": 5284189658,
      "amenity": "restaurant",
      "cuisine": "ethiopian",
      "website": "https://www.lucymarket.com/",
      "phone": "+1 612 886 3748",
      "addr_postcode": "55407",
      "addr_street": "Cedar Avenue South",
      "addr_housenumber": "3749",
      "value": 127.9299751900637
    },
    {
      "id": 206333,
      "geometry": "POINT (-92.467537 44.023648)",
      "poi_name": "Yum! Pok\u00e9 Hawaiian",
      "osm_id": 7206192274,
      "amenity": "restaurant",
      "cuisine": "sushi",
      "addr_city": "Rochester",
      "value": 127.9299751900637
    },
    {
      "id": 213180,
      "geometry": "POINT (-92.263482 44.447207)",
      "poi_name": "Big Bear Pizzeria & Deli",
      "osm_id": 5239692907,
      "amenity": "restaurant",
      "cuisine": "pizza",
      "website": "https://www.bigbearpizzeria.com/",
      "phone": "+1-651-345-2102",
      "takeaway": "yes",
      "delivery": "yes",
      "addr_state": "MN",
      "addr_city": "Lake City",
      "addr_postcode": "55041",
      "addr_street": "South Lakeshore Drive",
      "addr_housenumber": "402",
      "value": 127.9299751900637
    },
    {
      "id": 206465,
      "geometry": "POINT (-92.46375 44.022397)",
      "poi_name": "Jerk King",
      "osm_id": 7212042243,
      "amenity": "restaurant",
      "cuisine": "caribbean",
      "value": 127.9299751900637
    },
    {
      "id": 206633,
      "geometry": "POINT (-92.462367 44.023104)",
      "poi_name": "Benedict's",
      "osm_id": 7220613075,
      "amenity": "restaurant",
      "cuisine": "breakfast",
      "addr_city": "Rochester",
      "value": 127.9299751900637
    },
    {
      "id": 207848,
      "geometry": "POINT (-93.297176 44.947702)",
      "poi_name": "Roat Osha",
      "osm_id": 4962971717,
      "amenity": "restaurant",
      "cuisine": "thai",
      "opening_hours": "Mo-Th 11:30-00:00; Fr 11:00-01:00; Sa 12:00-01:00; Su 12:00-00:00",
      "website": "http://roatoshathai.com",
      "takeaway": "yes",
      "outdoor_seating": "yes",
      "addr_state": "MN",
      "addr_city": "Minneapolis",
      "addr_postcode": "55408",
      "addr_street": "Hennepin Avenue South",
      "addr_housenumber": "3001",
      "value": 127.9299751900637
    },
    {
      "id": 217218,
      "geometry": "POINT (-93.037115 44.888989)",
      "poi_name": "The Coop",
      "osm_id": 9212448660,
      "amenity": "restaurant",
      "cuisine": "burger;chicken;barbecue",
      "description": "Small, family owned restaurant that has been in business for nearly 70 years. Specializes in chicken dishes.",
      "wheelchair": "yes",
      "opening_hours": "Mo-Su 11:00-20:00",
      "website": "https://thecooprestaurant.com/",
      "capacity": "12",
      "internet_access": "no",
      "phone": "+1-651-455-7566",
      "takeaway": "yes",
      "outdoor_seating": "yes",
      "delivery": "no",
      "addr_state": "MN",
      "addr_city": "South St Paul",
      "addr_postcode": "55075",
      "addr_street": "3rd Avenue South",
      "addr_housenumber": "157",
      "value": 127.9299751900637
    },
    {
      "id": 219522,
      "geometry": "POINT (-92.480673 44.029897)",
      "poi_name": "Rosati's Piza",
      "osm_id": 9334705371,
      "amenity": "restaurant",
      "cuisine": "pizza",
      "value": 127.9299751900637
    },
    {
      "id": 217808,
      "geometry": "POINT (-92.448431 44.058261)",
      "poi_name": "Tavern 22",
      "osm_id": 9243715387,
      "amenity": "restaurant",
      "value": 127.9299751900637
    },
    {
      "id": 231663,
      "geometry": "POINT (-93.04447 44.856042)",
      "poi_name": "Bierstube",
      "osm_id": 4483213430,
      "amenity": "restaurant",
      "value": 127.9299751900637
    },
    {
      "id": 225777,
      "geometry": "POINT (-93.044388 44.85483)",
      "poi_name": "Cahill Diner",
      "osm_id": 11139434614,
      "amenity": "restaurant",
      "cuisine": "american",
      "opening_hours": "Mo-Su 07:00-14:00",
      "website": "https://cahilldiner.com/",
      "phone": "+1-651-455-4408",
      "addr_state": "MN",
      "addr_city": "Inver Grove Heights",
      "addr_postcode": "55076",
      "addr_street": "Cahill Avenue",
      "addr_housenumber": "6504",
      "value": 127.9299751900637
    },
    {
      "id": 226420,
      "geometry": "POINT (-92.464312 44.019621)",
      "poi_name": "Fuzzy's Italian Ice",
      "osm_id": 11159910216,
      "amenity": "restaurant",
      "cuisine": "dessert",
      "opening_hours": "Mo-Sa 11:00-22:00",
      "website": "https://www.facebook.com/people/Fuzzys-Italian-ice/100090230384826/",
      "phone": "507-206-4020",
      "addr_state": "MN",
      "addr_city": "Rochester",
      "addr_postcode": "55902",
      "addr_street": "1st Avenue Southwest",
      "addr_housenumber": "318",
      "value": 127.9299751900637
    },
    {
      "id": 230868,
      "geometry": "POINT (-93.048961 44.887589)",
      "poi_name": "Angelo's Italian Restaurant",
      "osm_id": 4443137562,
      "amenity": "restaurant",
      "cuisine": "italian;pizza",
      "opening_hours": "Mo-Th 11:00-21:00; Sa 16:00-22:00; Su 16:00-21:00",
      "website": "https://www.sspangelos.com",
      "phone": "+1-651-450-1270",
      "takeaway": "yes",
      "outdoor_seating": "no",
      "delivery": "yes",
      "addr_state": "MN",
      "addr_city": "South St Paul",
      "addr_postcode": "55075",
      "addr_street": "Southview Boulevard",
      "addr_housenumber": "1203",
      "value": 127.9299751900637
    },
    {
      "id": 231123,
      "geometry": "POINT (-92.851531 44.744583)",
      "poi_name": "El Mexican Restaurant of Hastings",
      "osm_id": 4456304766,
      "amenity": "restaurant",
      "cuisine": "mexican",
      "website": "http://elmexicanrestaurants.com",
      "phone": "+1-651-437-5002",
      "addr_state": "MN",
      "addr_city": "Hastings",
      "addr_postcode": "55033",
      "addr_street": "2nd Street East",
      "addr_housenumber": "119",
      "value": 127.9299751900637
    },
    {
      "id": 226688,
      "geometry": "POINT (-92.541984 44.563354)",
      "poi_name": "The Mac Shack & Specialties",
      "osm_id": 11165626055,
      "amenity": "restaurant",
      "website": "https://let-me-cheese-u.ueniweb.com/?utm_campaign=gmb",
      "phone": "(651) 212-6728",
      "addr_street": "Main St",
      "addr_housenumber": "930",
      "value": 127.9299751900637
    },
    {
      "id": 229947,
      "geometry": "POINT (-93.215832 44.883705)",
      "poi_name": "Hi-Lo Diner",
      "osm_id": 4407652232,
      "amenity": "restaurant",
      "cuisine": "american",
      "value": 127.9299751900637
    },
    {
      "id": 229952,
      "geometry": "POINT (-93.208997 44.884326)",
      "poi_name": "Pei Wei",
      "osm_id": 4407652250,
      "amenity": "restaurant",
      "cuisine": "asian",
      "value": 127.9299751900637
    },
    {
      "id": 236469,
      "geometry": "POINT (-92.47464 44.000587)",
      "poi_name": "Buffalo Wild Wings",
      "osm_id": 5794397246,
      "amenity": "restaurant",
      "cuisine": "wings",
      "opening_hours": "Mo-Su 11:00-22:00",
      "phone": "+1 507 322 0501",
      "addr_state": "MN",
      "addr_city": "Rochester",
      "addr_postcode": "55902",
      "addr_street": "16th Street SW",
      "addr_housenumber": "793",
      "value": 127.9299751900637
    },
    {
      "id": 232971,
      "geometry": "POINT (-92.515895 44.077301)",
      "poi_name": "Hyperabad Indian Grill",
      "osm_id": 4551477114,
      "amenity": "restaurant",
      "cuisine": "indian",
      "website": "http://www.tinnrestaurants.com/#home",
      "addr_city": "Rochester",
      "addr_postcode": "55901",
      "addr_street": "55th Street Northwest",
      "addr_housenumber": "3462",
      "value": 127.9299751900637
    },
    {
      "id": 235060,
      "geometry": "POINT (-93.210078 44.885005)",
      "poi_name": "Republic MSP",
      "osm_id": 5744508821,
      "amenity": "restaurant",
      "value": 127.9299751900637
    },
    {
      "id": 235062,
      "geometry": "POINT (-93.205748 44.882843)",
      "poi_name": "Twins Grill & Bar",
      "osm_id": 5744532322,
      "amenity": "restaurant",
      "value": 127.9299751900637
    },
    {
      "id": 235065,
      "geometry": "POINT (-93.20088 44.880707)",
      "poi_name": "Godfather's Pizza",
      "osm_id": 5744547321,
      "amenity": "restaurant",
      "cuisine": "pizza",
      "value": 127.9299751900637
    },
    {
      "id": 239541,
      "geometry": "POINT (-92.80273 44.749177)",
      "poi_name": "Muddy Waters",
      "osm_id": 5925193200,
      "amenity": "restaurant",
      "cuisine": "american",
      "value": 127.9299751900637
    },
    {
      "id": 241933,
      "geometry": "POINT (-92.461016 44.038429)",
      "poi_name": "Grandma's Kitchen",
      "osm_id": 6045502679,
      "amenity": "restaurant",
      "cuisine": "american",
      "opening_hours": "Mo-Su 06:00-14:00",
      "value": 127.9299751900637
    },
    {
      "id": 241934,
      "geometry": "POINT (-92.461042 44.038641)",
      "poi_name": "Great Wall",
      "osm_id": 6045502680,
      "amenity": "restaurant",
      "cuisine": "chinese",
      "value": 127.9299751900637
    },
    {
      "id": 243466,
      "geometry": "POINT (-93.262827 44.916351)",
      "poi_name": "Pizza Biga",
      "osm_id": 7651142712,
      "amenity": "restaurant",
      "cuisine": "pizza",
      "website": "http://pizzabiga.com/pizzabiga/",
      "phone": "+1 (612)823-7333",
      "addr_state": "MN",
      "addr_city": "Minneapolis",
      "addr_postcode": "55407",
      "addr_street": "Chicago Avenue South",
      "addr_housenumber": "4762",
      "value": 127.9299751900637
    },
    {
      "id": 243354,
      "geometry": "POINT (-92.468515 44.005607)",
      "poi_name": "Nupa Mediterranean",
      "osm_id": 7641464814,
      "amenity": "restaurant",
      "cuisine": "mediterranean",
      "value": 127.9299751900637
    },
    {
      "id": 243978,
      "geometry": "POINT (-93.263183 44.91603)",
      "poi_name": "R.A.MacSammy's Elbow Room",
      "osm_id": 7690319804,
      "amenity": "restaurant",
      "website": "https://www.ramacsammys.com/",
      "phone": "+1 612 584 1593",
      "addr_state": "MN",
      "addr_city": "Minneapolis",
      "addr_postcode": "55417",
      "addr_street": "East 48th Street",
      "addr_housenumber": "735",
      "value": 127.9299751900637
    }
  ],
  "answer_type": "name",
  "question_entities": {
    "[2]": {
      "distance": 140000,
      "text": "140 kilometers"
    },
    "[3]": {
      "main_category": "tourism",
      "sub_category": "gallery",
      "display_name": "Magnetic Originals, Minneapolis, MN",
      "geo_wkt": "POINT (-93.297652 44.948093)",
      "poi": {
        "id": 3286,
        "geometry": "POINT (-93.297652 44.948093)",
        "poi_name": "Magnetic Originals",
        "osm_id": 5338231281,
        "tourism": "gallery",
        "website": "https://www.magnetdude.com",
        "addr_state": "MN",
        "addr_city": "Minneapolis",
        "addr_postcode": "55408",
        "addr_street": "Hennepin Avenue South",
        "addr_housenumber": "3001"
      }
    },
    "[4]": {
      "main_category": "leisure",
      "sub_category": "garden",
      "display_name": "Nokomis Naturescape Garden, Minneapolis, MN",
      "geo_wkt": "POINT (-93.234364 44.913029)",
      "poi": {
        "id": 248857,
        "geometry": "POINT (-93.234364 44.913029)",
        "poi_name": "Nokomis Naturescape Garden",
        "osm_id": 4865581364,
        "leisure": "garden",
        "website": "https://www.facebook.com/NokomisNaturescape/?fref=ts",
        "phone": "+1 612 727 3562",
        "addr_state": "MN",
        "addr_city": "Minneapolis",
        "addr_postcode": "55417",
        "addr_street": "East Lake Nokomis Parkway",
        "addr_housenumber": "5000"
      }
    },
    "[1]": {
      "main_category": "amenity",
      "sub_category": "restaurant"
    }
  },
  "id": 1659,
  "type": "range:towards+name"
}