{
  "question": "How far is a caf\u00e9 from Snail Garden, Lake Jackson, TX within an 80 kilometers distance?",
  "sql": "SELECT *, ST_Distance(ST_GeomFromText('POINT (-95.452235 29.043376)',4326)::geography, pois.geometry) AS distance FROM pois\nWHERE ST_DWithin(pois.geometry, ST_GeomFromText('POINT (-95.452235 29.043376)',4326)::geography, 80000)\nAND amenity = 'cafe';\n",
  "answers": [
    {
      "id": 28928,
      "geometry": "POINT (-95.750903 29.548503)",
      "poi_name": "Starbucks",
      "osm_id": 8267827504,
      "amenity": "cafe",
      "cuisine": "coffee_shop",
      "takeaway": "yes",
      "official_name": "Starbucks Coffee",
      "distance": 63061.77585596
    },
    {
      "id": 30982,
      "geometry": "POINT (-95.402303 29.717974)",
      "poi_name": "Rice Coffeehouse",
      "osm_id": 8398624573,
      "amenity": "cafe",
      "cuisine": "coffee_shop",
      "opening_hours": "Mo-Th 08:00-19:00; Fr 08:00-17:00; Su 14:00-19:00",
      "website": "https://coffeehouse.rice.edu/",
      "distance": 74930.75084142
    },
    {
      "id": 30986,
      "geometry": "POINT (-95.401864 29.717855)",
      "poi_name": "Ambassador Cafe",
      "osm_id": 8398624593,
      "amenity": "cafe",
      "website": "https://dining.rice.edu/ambassador-chinese-cafe",
      "distance": 74920.39490016
    },
    {
      "id": 31930,
      "geometry": "POINT (-95.468307 29.707271)",
      "poi_name": "Starbucks",
      "osm_id": 2614136116,
      "amenity": "cafe",
      "cuisine": "coffee_shop",
      "takeaway": "yes",
      "official_name": "Starbucks Coffee",
      "distance": 73603.96163241
    },
    {
      "id": 34149,
      "geometry": "POINT (-95.486354 29.705182)",
      "poi_name": "Honduras Maya Cafe & Bar",
      "osm_id": 2696705132,
      "amenity": "cafe",
      "distance": 73430.63151294
    },
    {
      "id": 37991,
      "geometry": "POINT (-95.407349 29.753412)",
      "poi_name": "Brasserie 19",
      "osm_id": 2840975401,
      "amenity": "cafe",
      "addr_state": "TX",
      "addr_city": "Houston",
      "addr_postcode": "77019",
      "addr_street": "West Gray Street",
      "addr_housenumber": "1962",
      "distance": 78822.56874162
    },
    {
      "id": 39456,
      "geometry": "POINT (-95.454847 29.747666)",
      "poi_name": "Starbucks",
      "osm_id": 2922351167,
      "amenity": "cafe",
      "cuisine": "coffee_shop",
      "internet_access": "wlan",
      "takeaway": "yes",
      "official_name": "Starbucks Coffee",
      "addr_postcode": "77027",
      "addr_street": "San Felipe Street",
      "addr_housenumber": "4520",
      "distance": 78065.58681329
    },
    {
      "id": 47600,
      "geometry": "POINT (-95.376728 29.746571)",
      "poi_name": "Starbucks",
      "osm_id": 3335371394,
      "amenity": "cafe",
      "cuisine": "coffee_shop",
      "wheelchair": "yes",
      "opening_hours": "Mo-Sa 05:00-21:00; Su 06:00-21:00",
      "internet_access": "wlan",
      "takeaway": "yes",
      "official_name": "Starbucks Coffee",
      "outdoor_seating": "yes",
      "delivery": "no",
      "toilets": "yes",
      "addr_state": "TX",
      "addr_city": "Houston",
      "addr_postcode": "77006",
      "addr_street": "Louisiana Street",
      "addr_housenumber": "2625",
      "distance": 78287.53730271
    },
    {
      "id": 47602,
      "geometry": "POINT (-95.374535 29.748813)",
      "poi_name": "Starbucks",
      "osm_id": 3335384117,
      "amenity": "cafe",
      "cuisine": "coffee_shop",
      "internet_access": "wlan",
      "takeaway": "yes",
      "official_name": "Starbucks Coffee",
      "addr_state": "TX",
      "addr_city": "Houston",
      "addr_postcode": "77006",
      "addr_street": "Louisiana Street",
      "addr_housenumber": "2225",
      "distance": 78555.16257673
    },
    {
      "id": 50971,
      "geometry": "POINT (-95.512503 29.684159)",
      "poi_name": "Caribbean Cuisine",
      "osm_id": 498326886,
      "amenity": "cafe",
      "cuisine": "international",
      "addr_city": "Houston",
      "addr_postcode": "77074",
      "addr_street": "Bissonnet Street",
      "addr_housenumber": "7433",
      "distance": 71266.15656886
    },
    {
      "id": 52958,
      "geometry": "POINT (-95.458907 29.672471)",
      "poi_name": "Starbucks",
      "osm_id": 10056974955,
      "amenity": "cafe",
      "cuisine": "coffee_shop",
      "opening_hours": "Mo-Su 06:00-20:00",
      "website": "https://www.starbucks.com/store-locator/store/12533/randalls-houston-1041-4800-w-bellefort-houston-tx-770353498-us",
      "internet_access": "wlan",
      "phone": "+1-713-721-0011",
      "takeaway": "yes",
      "official_name": "Starbucks Coffee",
      "outdoor_seating": "yes",
      "addr_state": "TX",
      "addr_city": "Houston",
      "addr_postcode": "77035",
      "addr_street": "West Bellfort Street",
      "addr_housenumber": "4800",
      "distance": 69732.97893794
    },
    {
      "id": 63192,
      "geometry": "POINT (-95.415166 29.695905)",
      "poi_name": "Starbucks",
      "osm_id": 5604621733,
      "amenity": "cafe",
      "cuisine": "coffee_shop",
      "takeaway": "yes",
      "official_name": "Starbucks Coffee",
      "outdoor_seating": "no",
      "addr_state": "TX",
      "addr_city": "Houston",
      "addr_postcode": "77030",
      "addr_street": "Kirby Drive",
      "addr_housenumber": "7747",
      "distance": 72417.01757481
    },
    {
      "id": 58146,
      "geometry": "POINT (-94.827973 29.270927)",
      "poi_name": "Starbucks",
      "osm_id": 5365375285,
      "amenity": "cafe",
      "cuisine": "coffee_shop",
      "wheelchair": "yes",
      "opening_hours": "Mo-Fr 05:00-21:30; Sa-Su 05:00-22:00",
      "internet_access": "wlan",
      "takeaway": "yes",
      "official_name": "Starbucks Coffee",
      "outdoor_seating": "yes",
      "addr_street": "61st Street",
      "addr_housenumber": "2808",
      "distance": 65763.67657941
    },
    {
      "id": 63210,
      "geometry": "POINT (-95.41857 29.692943)",
      "poi_name": "Starbucks",
      "osm_id": 5604621795,
      "amenity": "cafe",
      "cuisine": "coffee_shop",
      "takeaway": "yes",
      "official_name": "Starbucks Coffee",
      "addr_state": "TX",
      "addr_city": "Houston",
      "addr_postcode": "77025",
      "addr_street": "South Main Street",
      "addr_housenumber": "8500",
      "distance": 72073.35324434
    },
    {
      "id": 65572,
      "geometry": "POINT (-95.386627 29.744267)",
      "poi_name": "Fix Coffeebar",
      "osm_id": 5703182723,
      "amenity": "cafe",
      "cuisine": "coffee;beer;wine",
      "opening_hours": "Mo-Fr 07:00-20:00, Sa-Su 08:00-20:00",
      "website": "https://fixhtx.com/",
      "internet_access": "yes",
      "phone": "+1-832-807-4562",
      "addr_state": "TX",
      "addr_city": "Houston",
      "addr_postcode": "77006",
      "addr_street": "Westheimer Road",
      "addr_housenumber": "415",
      "distance": 77948.97909375
    },
    {
      "id": 67507,
      "geometry": "POINT (-95.11469 29.488184)",
      "poi_name": "Bao's Cafe",
      "osm_id": 11237334172,
      "amenity": "cafe",
      "distance": 59219.43676934
    },
    {
      "id": 67108,
      "geometry": "POINT (-95.38065 29.7447)",
      "poi_name": "Starbucks",
      "osm_id": 11223332239,
      "amenity": "cafe",
      "cuisine": "coffee_shop",
      "takeaway": "yes",
      "official_name": "Starbucks Coffee",
      "distance": 78046.29977846
    },
    {
      "id": 68119,
      "geometry": "POINT (-95.522445 29.738776)",
      "poi_name": "Your Cup Of Tea & Tr\u00e9sors",
      "osm_id": 11261608921,
      "amenity": "cafe",
      "opening_hours": "Mo-Fr 11:00-15:00; Sa-Su \"Private Parties\"",
      "addr_street": "Fondren Road",
      "addr_housenumber": "2620",
      "distance": 77380.35481447
    },
    {
      "id": 70596,
      "geometry": "POINT (-95.4642 29.739108)",
      "poi_name": "Starbucks",
      "osm_id": 11367522378,
      "amenity": "cafe",
      "cuisine": "coffee_shop",
      "wheelchair": "yes",
      "internet_access": "wlan",
      "takeaway": "yes",
      "official_name": "Starbucks Coffee",
      "outdoor_seating": "no",
      "distance": 77125.23784363
    },
    {
      "id": 68965,
      "geometry": "POINT (-95.083503 29.446718)",
      "poi_name": "One Tea",
      "osm_id": 11289861871,
      "amenity": "cafe",
      "distance": 57301.11177121
    },
    {
      "id": 69425,
      "geometry": "POINT (-95.32739 29.73071)",
      "poi_name": "Coral Sword",
      "osm_id": 11304353667,
      "amenity": "cafe",
      "distance": 77143.49384476
    },
    {
      "id": 71892,
      "geometry": "POINT (-95.544909 29.705442)",
      "poi_name": "The Teahouse",
      "osm_id": 11404866960,
      "amenity": "cafe",
      "cuisine": "bubble_tea",
      "wheelchair": "yes",
      "distance": 73934.15873965
    },
    {
      "id": 73163,
      "geometry": "POINT (-95.537519 29.738493)",
      "poi_name": "Starbucks",
      "osm_id": 9611730329,
      "amenity": "cafe",
      "cuisine": "coffee_shop",
      "opening_hours": "Mo-Su 06:00-21:00",
      "phone": "+1-713-783-0733",
      "takeaway": "yes",
      "official_name": "Starbucks Coffee",
      "addr_state": "TX",
      "addr_city": "Houston",
      "addr_postcode": "77063",
      "addr_street": "Westheimer Road",
      "addr_housenumber": "9660",
      "distance": 77491.80003629
    },
    {
      "id": 73164,
      "geometry": "POINT (-95.537345 29.738491)",
      "poi_name": "Signature Cafe",
      "osm_id": 9611730330,
      "amenity": "cafe",
      "cuisine": "coffee_shop",
      "opening_hours": "Mo-We 08:00-17:00, Th-Fr 08:00-18:00, Sa 08:00-17:00, Su 09:30-16:00",
      "addr_state": "TX",
      "addr_city": "Houston",
      "addr_postcode": "77063",
      "addr_street": "Westheimer Road",
      "addr_housenumber": "9660",
      "distance": 77489.77123967
    },
    {
      "id": 73169,
      "geometry": "POINT (-95.537664 29.738506)",
      "poi_name": "The Teahouse",
      "osm_id": 9611895939,
      "amenity": "cafe",
      "cuisine": "bubble_tea",
      "opening_hours": "Mo-Fr 11:00-19:00, Sa-Su 11:00-20:00",
      "website": "https://www.teahousebeverage.com/",
      "phone": "+1-832-668-5966",
      "outdoor_seating": "no",
      "addr_state": "TX",
      "addr_city": "Houston",
      "addr_postcode": "77063",
      "addr_street": "Westheimer Road",
      "addr_housenumber": "9664",
      "distance": 77494.66837459
    },
    {
      "id": 76891,
      "geometry": "POINT (-94.867881 29.24456)",
      "poi_name": "Seawall Coffee Company",
      "osm_id": 9795905561,
      "amenity": "cafe",
      "distance": 61075.83081673
    },
    {
      "id": 73483,
      "geometry": "POINT (-95.574405 29.599648)",
      "poi_name": "The Prairie Table",
      "osm_id": 9634990867,
      "amenity": "cafe",
      "cuisine": "coffee_shop",
      "opening_hours": "Mo-Fr 09:00-18:00",
      "website": "https://www.theprairietable.com",
      "phone": "+1-346-297-4014",
      "addr_state": "TX",
      "addr_city": "Missouri City",
      "addr_postcode": "77459",
      "addr_street": "Musselburgh Court",
      "addr_housenumber": "1307",
      "distance": 62789.45071992
    },
    {
      "id": 76893,
      "geometry": "POINT (-94.870463 29.261183)",
      "poi_name": "Sugar Bean Coffee & Cream",
      "osm_id": 9795905564,
      "amenity": "cafe",
      "distance": 61536.954848
    },
    {
      "id": 79581,
      "geometry": "POINT (-95.460606 29.74123)",
      "poi_name": "Starbucks",
      "osm_id": 815022059,
      "amenity": "cafe",
      "cuisine": "coffee_shop",
      "wheelchair": "yes",
      "opening_hours": "Mo-Fr 04:30-02:30; Sa-Su 05:00-02:30",
      "internet_access": "wlan",
      "takeaway": "yes",
      "drive_through": "yes",
      "official_name": "Starbucks Coffee",
      "outdoor_seating": "yes",
      "addr_state": "TX",
      "addr_city": "Houston",
      "addr_street": "Post Oak Boulevard",
      "addr_housenumber": "2521",
      "distance": 77355.99079391
    },
    {
      "id": 94756,
      "geometry": "POINT (-95.44598 29.741935)",
      "poi_name": "Sprinkles Cupcakes",
      "osm_id": 6374953396,
      "amenity": "cafe",
      "cuisine": "dessert;cupcake",
      "outdoor_seating": "yes",
      "addr_street": "Westheimer Road",
      "addr_housenumber": "4014",
      "distance": 77432.26216294
    },
    {
      "id": 86244,
      "geometry": "POINT (-95.12278 29.677806)",
      "poi_name": "Starbucks",
      "osm_id": 1924280269,
      "amenity": "cafe",
      "cuisine": "coffee_shop",
      "takeaway": "yes",
      "official_name": "Starbucks Coffee",
      "addr_postcode": "77536",
      "addr_street": "Center Street",
      "addr_housenumber": "3705",
      "distance": 77255.50107716
    },
    {
      "id": 87166,
      "geometry": "POINT (-95.401227 29.709639)",
      "poi_name": "Starbucks",
      "osm_id": 1975476340,
      "amenity": "cafe",
      "cuisine": "coffee_shop",
      "internet_access": "wlan",
      "takeaway": "yes",
      "official_name": "Starbucks Coffee",
      "addr_state": "TX",
      "addr_city": "Houston",
      "addr_postcode": "77030",
      "addr_street": "Fannin Street",
      "addr_housenumber": "6600",
      "distance": 74015.7510004
    },
    {
      "id": 87168,
      "geometry": "POINT (-95.401571 29.709998)",
      "poi_name": "JuiceLand",
      "osm_id": 1975485015,
      "amenity": "cafe",
      "distance": 74053.19283716
    },
    {
      "id": 91216,
      "geometry": "POINT (-95.462114 29.688872)",
      "poi_name": "Starbucks",
      "osm_id": 2051347349,
      "amenity": "cafe",
      "cuisine": "coffee_shop",
      "internet_access": "wlan",
      "takeaway": "yes",
      "official_name": "Starbucks Coffee",
      "outdoor_seating": "yes",
      "addr_state": "TX",
      "addr_city": "Houston",
      "addr_street": "Meyerland Plaza",
      "addr_housenumber": "710",
      "distance": 71554.35763413
    },
    {
      "id": 94297,
      "geometry": "POINT (-95.622389 29.596126)",
      "poi_name": "Starbucks",
      "osm_id": 2225388454,
      "amenity": "cafe",
      "cuisine": "coffee_shop",
      "opening_hours": "Su-Th 05:30-21:30; Fr,Sa 05:30-23:00",
      "takeaway": "yes",
      "official_name": "Starbucks Coffee",
      "distance": 63457.70076807
    },
    {
      "id": 102977,
      "geometry": "POINT (-95.415292 29.715694)",
      "poi_name": "Black Walnut Cafe",
      "osm_id": 8474060317,
      "amenity": "cafe",
      "addr_state": "TX",
      "addr_city": "Houston",
      "addr_postcode": "77005",
      "addr_street": "Morningside Drive",
      "addr_housenumber": "5510",
      "distance": 74607.38373947
    },
    {
      "id": 96553,
      "geometry": "POINT (-95.460102 29.749384)",
      "poi_name": "Merchant",
      "osm_id": 6437114364,
      "amenity": "cafe",
      "cuisine": "italian",
      "wheelchair": "yes",
      "internet_access": "wlan",
      "takeaway": "yes",
      "outdoor_seating": "yes",
      "toilets": "yes",
      "addr_street": "Post Oak Boulevard",
      "addr_housenumber": "1707",
      "distance": 78259.25993029
    },
    {
      "id": 97834,
      "geometry": "POINT (-95.424988 29.704886)",
      "poi_name": "Starbucks",
      "osm_id": 6496768936,
      "amenity": "cafe",
      "cuisine": "coffee_shop",
      "takeaway": "yes",
      "distance": 73370.82869976
    },
    {
      "id": 105091,
      "geometry": "POINT (-95.753593 29.544873)",
      "poi_name": "Starbucks",
      "osm_id": 8600644701,
      "amenity": "cafe",
      "cuisine": "coffee_shop",
      "wheelchair": "yes",
      "opening_hours": "Su-Sa 05:00-21:00; PH off",
      "internet_access": "wlan",
      "takeaway": "yes",
      "official_name": "Starbucks Coffee",
      "addr_state": "TX",
      "addr_city": "Rosenberg",
      "addr_street": "Southwest Freeway",
      "addr_housenumber": "24406",
      "distance": 62826.48220247
    },
    {
      "id": 102988,
      "geometry": "POINT (-95.417562 29.71766)",
      "poi_name": "Teahouse Tapioca and Tea",
      "osm_id": 8474235841,
      "amenity": "cafe",
      "phone": "+1-832-530-4112",
      "addr_state": "TX",
      "addr_city": "Houston",
      "addr_street": "Rice Boulevard",
      "addr_housenumber": "2518B",
      "distance": 74814.85301435
    },
    {
      "id": 104940,
      "geometry": "POINT (-95.627838 29.596157)",
      "poi_name": "Starbucks",
      "osm_id": 8591858833,
      "amenity": "cafe",
      "cuisine": "coffee_shop",
      "takeaway": "yes",
      "official_name": "Starbucks Coffee",
      "distance": 63600.89875289
    },
    {
      "id": 108855,
      "geometry": "POINT (-95.388299 29.738387)",
      "poi_name": "Siphon Coffee",
      "osm_id": 3637431631,
      "amenity": "cafe",
      "website": "https://siphoncoffeehouston.com/",
      "internet_access": "yes",
      "phone": "+1-281-974-4422",
      "outdoor_seating": "yes",
      "addr_state": "TX",
      "addr_city": "Houston",
      "addr_postcode": "77006",
      "addr_street": "West Alabama Street",
      "addr_housenumber": "701",
      "distance": 77286.21202185
    },
    {
      "id": 105624,
      "geometry": "POINT (-95.059283 29.425018)",
      "poi_name": "Starbucks",
      "osm_id": 8637006894,
      "amenity": "cafe",
      "cuisine": "coffee_shop",
      "opening_hours": "Mo-Su 11:00-19:00",
      "phone": "+1 281 337 2354",
      "takeaway": "yes",
      "official_name": "Starbucks Coffee",
      "addr_state": "TX",
      "addr_city": "Texas City",
      "addr_postcode": "77591",
      "addr_street": "Gulf Freeway",
      "addr_housenumber": "5885",
      "distance": 56998.04361573
    },
    {
      "id": 106128,
      "geometry": "POINT (-95.400868 29.717911)",
      "poi_name": "Little Kitchen HTX",
      "osm_id": 8666012094,
      "amenity": "cafe",
      "opening_hours": "Mo-Fr 07:30-19:00; Sa, Su 09:00-17:00",
      "website": "https://www.littlekitchenhtx.com",
      "phone": "+1-713-348-2279",
      "distance": 74932.98170959
    },
    {
      "id": 107014,
      "geometry": "POINT (-95.374696 29.750527)",
      "poi_name": "Starbucks",
      "osm_id": 3529370900,
      "amenity": "cafe",
      "cuisine": "coffee_shop",
      "wheelchair": "yes",
      "opening_hours": "Mo-Th,Sa 05:30-19:30; Fr 05:30-20:00; Su 06:00-19:30",
      "takeaway": "only",
      "official_name": "Starbucks Coffee",
      "addr_state": "TX",
      "addr_city": "Houston",
      "addr_street": "Smith Street",
      "addr_housenumber": "2101",
      "distance": 78742.73456882
    },
    {
      "id": 111263,
      "geometry": "POINT (-95.156972 29.578269)",
      "poi_name": "Starbucks",
      "osm_id": 3739511604,
      "amenity": "cafe",
      "cuisine": "coffee_shop",
      "takeaway": "yes",
      "official_name": "Starbucks Coffee",
      "distance": 65862.09415256
    },
    {
      "id": 109963,
      "geometry": "POINT (-95.337239 29.722533)",
      "poi_name": "The Nook Cafe",
      "osm_id": 3679718633,
      "amenity": "cafe",
      "distance": 76102.43564639
    },
    {
      "id": 113099,
      "geometry": "POINT (-95.330945 29.734543)",
      "poi_name": "Chocolate Wasted Ice Cream",
      "osm_id": 3818254202,
      "amenity": "cafe",
      "cuisine": "ice_cream",
      "addr_state": "TX",
      "addr_city": "Houston",
      "addr_street": "Telephone Road",
      "addr_housenumber": "724",
      "distance": 77509.89447945
    },
    {
      "id": 111995,
      "geometry": "POINT (-95.126204 29.551668)",
      "poi_name": "Starbucks",
      "osm_id": 3774122725,
      "amenity": "cafe",
      "cuisine": "coffee_shop",
      "takeaway": "yes",
      "official_name": "Starbucks Coffee",
      "distance": 64633.86235204
    },
    {
      "id": 112613,
      "geometry": "POINT (-95.354953 29.752708)",
      "poi_name": "AHH, Coffee!",
      "osm_id": 3797613673,
      "amenity": "cafe",
      "distance": 79189.03710043
    },
    {
      "id": 112664,
      "geometry": "POINT (-95.297774 29.697808)",
      "poi_name": "Starbucks",
      "osm_id": 3799590576,
      "amenity": "cafe",
      "cuisine": "coffee_shop",
      "takeaway": "yes",
      "official_name": "Starbucks Coffee",
      "addr_state": "TX",
      "addr_city": "Houston",
      "addr_street": "Gulfgate Center",
      "addr_housenumber": "1450",
      "distance": 74072.3875599
    },
    {
      "id": 117974,
      "geometry": "POINT (-95.584485 29.579885)",
      "poi_name": "Ding Tea",
      "osm_id": 9021372880,
      "amenity": "cafe",
      "cuisine": "bubble_tea",
      "takeaway": "yes",
      "distance": 60839.15734756
    },
    {
      "id": 117713,
      "geometry": "POINT (-95.484666 29.736937)",
      "poi_name": "NU Ice & Drinks",
      "osm_id": 9007346053,
      "amenity": "cafe",
      "cuisine": "bubble_tea;ice_cream",
      "addr_state": "TX",
      "addr_city": "Houston",
      "addr_street": "Westheimer Road",
      "addr_housenumber": "5901",
      "distance": 76940.31480941
    },
    {
      "id": 121970,
      "geometry": "POINT (-95.676624 29.588999)",
      "poi_name": "OG Tea",
      "osm_id": 6781830920,
      "amenity": "cafe",
      "distance": 64285.59784095
    },
    {
      "id": 121226,
      "geometry": "POINT (-95.65149 29.574776)",
      "poi_name": "Cougar Corner",
      "osm_id": 6747280661,
      "amenity": "cafe",
      "cuisine": "coffee_shop;sandwich",
      "description": "Located on the first floor of Brazos Hall near the bookstore.",
      "website": "https://dineoncampus.com/uhsl/cougar-corner-coffee-shop",
      "internet_access": "wlan",
      "outdoor_seating": "yes",
      "distance": 61999.98775911
    },
    {
      "id": 124477,
      "geometry": "POINT (-95.388786 29.559387)",
      "poi_name": "Sharetea",
      "osm_id": 6918758026,
      "amenity": "cafe",
      "cuisine": "bubble_tea",
      "internet_access": "yes",
      "takeaway": "yes",
      "distance": 57526.2819061
    },
    {
      "id": 123801,
      "geometry": "POINT (-95.369359 29.750978)",
      "poi_name": "Mademoiselle Louise",
      "osm_id": 6879700338,
      "amenity": "cafe",
      "cuisine": "coffee_shop",
      "addr_state": "TX",
      "addr_city": "Houston",
      "addr_street": "Main Street",
      "addr_housenumber": "1725",
      "distance": 78843.65222799
    },
    {
      "id": 123803,
      "geometry": "POINT (-95.367944 29.751902)",
      "poi_name": "Slowdrip TX",
      "osm_id": 6879700341,
      "amenity": "cafe",
      "cuisine": "coffee_shop",
      "opening_hours": "07:00-19:00",
      "internet_access": "wlan",
      "outdoor_seating": "yes",
      "addr_state": "TX",
      "addr_city": "Houston",
      "addr_street": "Main Street",
      "addr_housenumber": "1625",
      "distance": 78959.65331729
    },
    {
      "id": 124481,
      "geometry": "POINT (-95.390215 29.546529)",
      "poi_name": "Ding Tea",
      "osm_id": 6918759631,
      "amenity": "cafe",
      "cuisine": "bubble_tea",
      "distance": 56094.42655576
    },
    {
      "id": 127284,
      "geometry": "POINT (-95.453044 29.744943)",
      "poi_name": "Starbucks",
      "osm_id": 8049554354,
      "amenity": "cafe",
      "cuisine": "coffee_shop",
      "takeaway": "yes",
      "official_name": "Starbucks Coffee",
      "distance": 77763.34181843
    },
    {
      "id": 130039,
      "geometry": "POINT (-95.389873 29.717224)",
      "poi_name": "Ginger Kale",
      "osm_id": 9851839617,
      "amenity": "cafe",
      "distance": 74935.6150122
    },
    {
      "id": 129932,
      "geometry": "POINT (-95.567934 29.735198)",
      "poi_name": "Starbucks",
      "osm_id": 9847083778,
      "amenity": "cafe",
      "cuisine": "coffee_shop",
      "takeaway": "yes",
      "official_name": "Starbucks Coffee",
      "distance": 77501.11472129
    },
    {
      "id": 129935,
      "geometry": "POINT (-95.26428 29.602433)",
      "poi_name": "Starbucks",
      "osm_id": 9847166070,
      "amenity": "cafe",
      "cuisine": "coffee_shop",
      "takeaway": "yes",
      "official_name": "Starbucks Coffee",
      "distance": 64599.95003039
    },
    {
      "id": 130253,
      "geometry": "POINT (-95.084712 29.466428)",
      "poi_name": "Starbucks",
      "osm_id": 9861925804,
      "amenity": "cafe",
      "cuisine": "coffee_shop",
      "takeaway": "yes",
      "official_name": "Starbucks Coffee",
      "distance": 58948.17276791
    },
    {
      "id": 130255,
      "geometry": "POINT (-95.567695 29.565537)",
      "poi_name": "Starbucks",
      "osm_id": 9861962116,
      "amenity": "cafe",
      "cuisine": "coffee_shop",
      "wheelchair": "yes",
      "internet_access": "wlan",
      "takeaway": "yes",
      "drive_through": "no",
      "official_name": "Starbucks Coffee",
      "outdoor_seating": "no",
      "delivery": "no",
      "toilets": "yes",
      "distance": 58953.71268339
    },
    {
      "id": 132755,
      "geometry": "POINT (-95.092894 29.469874)",
      "poi_name": "Starbucks",
      "osm_id": 9966567236,
      "amenity": "cafe",
      "cuisine": "coffee_shop",
      "takeaway": "yes",
      "official_name": "Starbucks Coffee",
      "addr_postcode": "77573",
      "distance": 58776.005616
    },
    {
      "id": 130782,
      "geometry": "POINT (-95.413155 29.691772)",
      "poi_name": "The Teahouse",
      "osm_id": 9890954446,
      "amenity": "cafe",
      "cuisine": "tea",
      "opening_hours": "Mo-Sa 10:00-23:00; Su 10:00-22:00",
      "website": "https://teahousebeverage.com/",
      "phone": "+1-346-212-2134",
      "addr_state": "TX",
      "addr_city": "Houston",
      "addr_postcode": "77054",
      "addr_street": "Kirby Drive",
      "addr_housenumber": "8224",
      "distance": 71969.46316111
    },
    {
      "id": 132295,
      "geometry": "POINT (-94.829963 29.269744)",
      "poi_name": "Starbucks",
      "osm_id": 9949931055,
      "amenity": "cafe",
      "cuisine": "coffee_shop",
      "takeaway": "yes",
      "official_name": "Starbucks Coffee",
      "distance": 65534.89280858
    },
    {
      "id": 132299,
      "geometry": "POINT (-94.824259 29.268868)",
      "poi_name": "Starbucks",
      "osm_id": 9950032046,
      "amenity": "cafe",
      "cuisine": "coffee_shop",
      "takeaway": "yes",
      "official_name": "Starbucks Coffee",
      "distance": 66011.38940225
    },
    {
      "id": 132756,
      "geometry": "POINT (-95.152276 29.537416)",
      "poi_name": "Starbucks",
      "osm_id": 9966615449,
      "amenity": "cafe",
      "cuisine": "coffee_shop",
      "takeaway": "yes",
      "official_name": "Starbucks Coffee",
      "distance": 62032.88450688
    },
    {
      "id": 133110,
      "geometry": "POINT (-95.474548 29.705145)",
      "poi_name": "Dandelion Cafe",
      "osm_id": 9980649064,
      "amenity": "cafe",
      "cuisine": "american;coffee_shop",
      "opening_hours": "Mo-Sa 07:00-16:00; Su 08:00-15:00",
      "website": "https://www.dandelionhouston.com/",
      "internet_access": "yes",
      "phone": "+1-832-988-9210",
      "outdoor_seating": "yes",
      "addr_state": "TX",
      "addr_city": "Bellaire",
      "addr_postcode": "77401",
      "addr_street": "Bellaire Boulevard",
      "addr_housenumber": "5405",
      "distance": 73383.79474465
    },
    {
      "id": 134161,
      "geometry": "POINT (-95.391712 29.751307)",
      "poi_name": "Canary Coffee House",
      "osm_id": 11458360069,
      "amenity": "cafe",
      "cuisine": "coffee_shop",
      "opening_hours": "Mo-Sa 07:00-19:00; Su 08:00-15:00",
      "website": "https://www.canaryhtx.com/",
      "internet_access": "wlan",
      "phone": "+1 (832) 301-3712",
      "addr_postcode": "77006",
      "addr_street": "Montrose Boulevard",
      "addr_housenumber": "1953 Unit A",
      "distance": 78688.30993533
    },
    {
      "id": 134932,
      "geometry": "POINT (-95.122559 29.577362)",
      "poi_name": "Art of Coffee",
      "osm_id": 11496109153,
      "amenity": "cafe",
      "cuisine": "coffee_shop",
      "website": "https://www.artofcoffeetx.com/",
      "distance": 67296.85880392
    },
    {
      "id": 143809,
      "geometry": "POINT (-95.350687 29.758646)",
      "poi_name": "Tout Suite",
      "osm_id": 6351362485,
      "amenity": "cafe",
      "cuisine": "coffee_shop",
      "addr_state": "TX",
      "addr_city": "Houston",
      "addr_street": "Commerce Street",
      "addr_housenumber": "2001",
      "distance": 79892.51357706
    },
    {
      "id": 135354,
      "geometry": "POINT (-95.504067 29.737181)",
      "poi_name": "Starbucks",
      "osm_id": 11512590184,
      "amenity": "cafe",
      "cuisine": "coffee_shop",
      "takeaway": "yes",
      "official_name": "Starbucks Coffee",
      "distance": 77067.27350836
    },
    {
      "id": 136259,
      "geometry": "POINT (-95.363442 29.758561)",
      "poi_name": "Starbucks",
      "osm_id": 11574858057,
      "amenity": "cafe",
      "cuisine": "coffee_shop",
      "takeaway": "yes",
      "official_name": "Starbucks Coffee",
      "distance": 79739.96880645
    },
    {
      "id": 136639,
      "geometry": "POINT (-95.469012 29.705126)",
      "poi_name": "Juiceland",
      "osm_id": 11593133021,
      "amenity": "cafe",
      "distance": 73367.71293619
    },
    {
      "id": 139586,
      "geometry": "POINT (-95.392534 29.712341)",
      "poi_name": "Twiga Caf\u00e9",
      "osm_id": 6204461289,
      "amenity": "cafe",
      "cuisine": "american;burger;salad;chicken;pizza",
      "outdoor_seating": "yes",
      "addr_state": "TX",
      "addr_city": "Houston",
      "addr_postcode": "77030",
      "addr_street": "Hermann Park Drive",
      "addr_housenumber": "6200",
      "distance": 74375.59476964
    },
    {
      "id": 139587,
      "geometry": "POINT (-95.391972 29.711671)",
      "poi_name": "Albert and Hazel Herzstein Trading Post",
      "osm_id": 6204461382,
      "amenity": "cafe",
      "addr_state": "TX",
      "addr_city": "Houston",
      "addr_postcode": "77030",
      "addr_street": "Hermann Park Drive",
      "addr_housenumber": "6200",
      "distance": 74305.85233335
    },
    {
      "id": 150935,
      "geometry": "POINT (-95.3907 29.744992)",
      "poi_name": "SouthSide Espresso",
      "osm_id": 4074332967,
      "amenity": "cafe",
      "cuisine": "coffee_shop",
      "opening_hours": "Mo-Fr 06:30-21:00; Sa 07:30-21:00; Su 07:30-19:00",
      "website": "https://www.southsideespresso.com/",
      "internet_access": "yes",
      "phone": "+1-713-942-9990",
      "addr_state": "TX",
      "addr_city": "Houston",
      "addr_postcode": "77006",
      "addr_street": "Westheimer Road",
      "addr_housenumber": "904",
      "distance": 77997.8132012
    },
    {
      "id": 157511,
      "geometry": "POINT (-95.462105 29.68877)",
      "poi_name": "Berripop Frozen Yogurt",
      "osm_id": 4711368241,
      "amenity": "cafe",
      "cuisine": "ice_cream",
      "addr_state": "TX",
      "addr_city": "Houston",
      "addr_street": "Meyerland Plaza",
      "addr_housenumber": "713",
      "distance": 71543.05161417
    },
    {
      "id": 154191,
      "geometry": "POINT (-95.526052 29.602003)",
      "poi_name": "Shipley Donuts",
      "osm_id": 4227549131,
      "amenity": "cafe",
      "cuisine": "donut",
      "addr_state": "TX",
      "addr_city": "Missouri City",
      "addr_postcode": "77489",
      "addr_street": "Texas Parkway",
      "addr_housenumber": "1701",
      "distance": 62332.55448752
    },
    {
      "id": 155518,
      "geometry": "POINT (-95.389879 29.717396)",
      "poi_name": "Pinewood Cafe",
      "osm_id": 4288727593,
      "amenity": "cafe",
      "cuisine": "sandwich",
      "phone": "+1-713-429-5238",
      "addr_state": "TX",
      "addr_city": "Houston",
      "distance": 74954.59785177
    },
    {
      "id": 158130,
      "geometry": "POINT (-95.419809 29.761765)",
      "poi_name": "The Teahouse",
      "osm_id": 4736456635,
      "amenity": "cafe",
      "cuisine": "tea",
      "addr_state": "TX",
      "addr_city": "Houston",
      "addr_street": "Memorial Drive",
      "addr_housenumber": "5710",
      "distance": 79690.20666525
    },
    {
      "id": 158959,
      "geometry": "POINT (-95.134676 29.545152)",
      "poi_name": "Kolache Factory",
      "osm_id": 4770537553,
      "amenity": "cafe",
      "cuisine": "breakfast",
      "distance": 63602.37785785
    },
    {
      "id": 158962,
      "geometry": "POINT (-95.149822 29.556441)",
      "poi_name": "Starbucks",
      "osm_id": 4770537556,
      "amenity": "cafe",
      "cuisine": "coffee_shop",
      "takeaway": "yes",
      "official_name": "Starbucks Coffee",
      "addr_state": "TX",
      "addr_city": "Webster",
      "distance": 64009.93863574
    },
    {
      "id": 162650,
      "geometry": "POINT (-95.745368 29.663903)",
      "poi_name": "Starbucks",
      "osm_id": 4937805190,
      "amenity": "cafe",
      "cuisine": "coffee_shop",
      "takeaway": "yes",
      "official_name": "Starbucks Coffee",
      "addr_state": "TX",
      "addr_city": "Richmond",
      "addr_postcode": "77406",
      "addr_street": "West Grand Parkway South",
      "addr_housenumber": "7770 - A",
      "distance": 74437.55337278
    },
    {
      "id": 161228,
      "geometry": "POINT (-95.466568 29.741021)",
      "poi_name": "Starbucks",
      "osm_id": 4870638521,
      "amenity": "cafe",
      "cuisine": "coffee_shop",
      "opening_hours": "Mo-Fr 06:00-15:30; Sa-Su 07:00-13:00",
      "internet_access": "wlan",
      "takeaway": "yes",
      "official_name": "Starbucks Coffee",
      "distance": 77341.08141449
    },
    {
      "id": 163752,
      "geometry": "POINT (-95.517386 29.734828)",
      "poi_name": "Starbucks",
      "osm_id": 9434507267,
      "amenity": "cafe",
      "cuisine": "coffee_shop",
      "takeaway": "yes",
      "official_name": "Starbucks Coffee",
      "distance": 76902.59931195
    },
    {
      "id": 164191,
      "geometry": "POINT (-95.152322 29.652393)",
      "poi_name": "Starbucks",
      "osm_id": 9454440242,
      "amenity": "cafe",
      "cuisine": "coffee_shop",
      "takeaway": "yes",
      "official_name": "Starbucks Coffee",
      "distance": 73519.22304094
    },
    {
      "id": 163926,
      "geometry": "POINT (-95.399064 29.540626)",
      "poi_name": "Marq'E Donuts & Coffee",
      "osm_id": 9441778731,
      "amenity": "cafe",
      "cuisine": "coffee_shop;donut;tacos",
      "addr_street": "Magnolia Parkway",
      "addr_housenumber": "11540",
      "distance": 55357.03224547
    },
    {
      "id": 163999,
      "geometry": "POINT (-95.383041 29.553797)",
      "poi_name": "Starbucks",
      "osm_id": 9446290400,
      "amenity": "cafe",
      "cuisine": "coffee_shop",
      "takeaway": "yes",
      "official_name": "Starbucks Coffee",
      "distance": 56973.42620374
    },
    {
      "id": 164001,
      "geometry": "POINT (-95.022447 29.538959)",
      "poi_name": "Starbucks",
      "osm_id": 9446323868,
      "amenity": "cafe",
      "cuisine": "coffee_shop",
      "takeaway": "yes",
      "official_name": "Starbucks Coffee",
      "distance": 69001.93776952
    },
    {
      "id": 165117,
      "geometry": "POINT (-95.410258 29.741317)",
      "poi_name": "The Teahouse",
      "osm_id": 9518263140,
      "amenity": "cafe",
      "cuisine": "bubble_tea",
      "wheelchair": "yes",
      "opening_hours": "Mo-Sa 10:00-24:00; Su 12:00-24:00",
      "outdoor_seating": "no",
      "addr_state": "TX",
      "addr_city": "Houston",
      "addr_street": "Westheimer Road",
      "addr_housenumber": "2089",
      "distance": 77468.64046433
    },
    {
      "id": 165124,
      "geometry": "POINT (-95.409305 29.741291)",
      "poi_name": "Starbucks",
      "osm_id": 9518889975,
      "amenity": "cafe",
      "cuisine": "coffee_shop",
      "takeaway": "yes",
      "official_name": "Starbucks Coffee",
      "distance": 77470.68472731
    },
    {
      "id": 172605,
      "geometry": "POINT (-95.440367 29.70546)",
      "poi_name": "Starbucks",
      "osm_id": 2408157598,
      "amenity": "cafe",
      "cuisine": "coffee_shop",
      "takeaway": "yes",
      "official_name": "Starbucks Coffee",
      "addr_state": "TX",
      "addr_city": "Houston",
      "addr_street": "Bellaire Boulevard",
      "addr_housenumber": "4001",
      "distance": 73395.74200682
    },
    {
      "id": 165464,
      "geometry": "POINT (-95.627039 29.732247)",
      "poi_name": "Starbucks",
      "osm_id": 9536809069,
      "amenity": "cafe",
      "cuisine": "coffee_shop",
      "takeaway": "yes",
      "official_name": "Starbucks Coffee",
      "distance": 78218.68286129
    },
    {
      "id": 165472,
      "geometry": "POINT (-95.773916 29.572492)",
      "poi_name": "Papa Joe's New York Style Deli",
      "osm_id": 9537681545,
      "amenity": "cafe",
      "cuisine": "jewish",
      "wheelchair": "yes",
      "opening_hours": "Mo-Sa 10:00-20:00",
      "shop": "deli",
      "takeaway": "yes",
      "outdoor_seating": "no",
      "addr_street": "Avenue H",
      "addr_housenumber": "5192B",
      "distance": 66454.20830184
    },
    {
      "id": 171669,
      "geometry": "POINT (-95.498275 29.716591)",
      "poi_name": "Starbucks",
      "osm_id": 2383851268,
      "amenity": "cafe",
      "cuisine": "coffee_shop",
      "internet_access": "yes",
      "takeaway": "yes",
      "official_name": "Starbucks Coffee",
      "addr_city": "Houston",
      "addr_postcode": "77081",
      "addr_street": "Hillcroft Avenue",
      "addr_housenumber": "6001",
      "distance": 74754.31946845
    },
    {
      "id": 172530,
      "geometry": "POINT (-95.427617 29.728194)",
      "poi_name": "Starbucks",
      "osm_id": 2405569053,
      "amenity": "cafe",
      "cuisine": "coffee_shop",
      "takeaway": "yes",
      "official_name": "Starbucks Coffee",
      "addr_state": "TX",
      "addr_city": "Houston",
      "addr_street": "Buffalo Speedway",
      "addr_housenumber": "5115",
      "distance": 75944.3177932
    },
    {
      "id": 175227,
      "geometry": "POINT (-95.419826 29.729703)",
      "poi_name": "Corner Bakery",
      "osm_id": 2509551201,
      "amenity": "cafe",
      "cuisine": "coffee_shop",
      "takeaway": "yes",
      "distance": 76139.04745717
    },
    {
      "id": 178727,
      "geometry": "POINT (-95.452607 29.045507)",
      "poi_name": "Brew n Bake",
      "osm_id": 10737431738,
      "amenity": "cafe",
      "opening_hours": "Mo-Fr 06:30-21:00; Sa 07:00-21:00",
      "internet_access": "wlan",
      "outdoor_seating": "yes",
      "addr_street": "Oyster Creek Drive",
      "addr_housenumber": "145",
      "distance": 238.97286375
    },
    {
      "id": 178876,
      "geometry": "POINT (-95.378115 29.752515)",
      "poi_name": "Minuti Coffee",
      "osm_id": 10742475965,
      "amenity": "cafe",
      "addr_state": "TX",
      "addr_city": "Houston",
      "addr_postcode": "77002",
      "addr_street": "Gray Street",
      "addr_housenumber": "114",
      "distance": 78931.188668
    },
    {
      "id": 181138,
      "geometry": "POINT (-95.422648 29.733355)",
      "poi_name": "Slowpokes",
      "osm_id": 10833850505,
      "amenity": "cafe",
      "addr_postcode": "77098",
      "addr_street": "Richmond Avenue",
      "addr_housenumber": "2925",
      "distance": 76532.70442328
    },
    {
      "id": 179594,
      "geometry": "POINT (-95.41035 29.747274)",
      "poi_name": "The Hot Bagel Shop",
      "osm_id": 10769680508,
      "amenity": "cafe",
      "distance": 78127.55143782
    },
    {
      "id": 179616,
      "geometry": "POINT (-95.547683 29.705318)",
      "poi_name": "Don Cafe",
      "osm_id": 10771397296,
      "amenity": "cafe",
      "cuisine": "vietnamese",
      "opening_hours": "Mo-Su 08:00-19:00",
      "phone": "+1 (713) 777-9500",
      "addr_state": "TX",
      "addr_city": "Houston",
      "addr_postcode": "77036",
      "addr_street": "Bellaire Boulevard",
      "addr_housenumber": "9000",
      "distance": 73953.8621387
    },
    {
      "id": 181654,
      "geometry": "POINT (-95.430807 29.727452)",
      "poi_name": "Starbucks",
      "osm_id": 10858959005,
      "amenity": "cafe",
      "cuisine": "coffee_shop",
      "takeaway": "yes",
      "official_name": "Starbucks Coffee",
      "distance": 75852.99652218
    },
    {
      "id": 183490,
      "geometry": "POINT (-95.358648 29.750807)",
      "poi_name": "Starbucks",
      "osm_id": 10933108966,
      "amenity": "cafe",
      "cuisine": "coffee_shop",
      "takeaway": "yes",
      "official_name": "Starbucks Coffee",
      "distance": 78937.69116303
    },
    {
      "id": 182823,
      "geometry": "POINT (-95.62569 29.590993)",
      "poi_name": "Kokee Tea",
      "osm_id": 10905693109,
      "amenity": "cafe",
      "cuisine": "bubble_tea",
      "distance": 62993.65132577
    },
    {
      "id": 183235,
      "geometry": "POINT (-95.625396 29.59285)",
      "poi_name": "Starbucks",
      "osm_id": 10919869145,
      "amenity": "cafe",
      "cuisine": "coffee_shop",
      "takeaway": "yes",
      "official_name": "Starbucks Coffee",
      "distance": 63184.3019811
    },
    {
      "id": 187141,
      "geometry": "POINT (-95.659578 29.607858)",
      "poi_name": "Starbucks",
      "osm_id": 7975229412,
      "amenity": "cafe",
      "cuisine": "coffee_shop",
      "takeaway": "yes",
      "official_name": "Starbucks Coffee",
      "distance": 65729.27245346
    },
    {
      "id": 187621,
      "geometry": "POINT (-95.125859 29.532687)",
      "poi_name": "Enlighten Coffee Roasters",
      "osm_id": 1086344290,
      "amenity": "cafe",
      "website": "https://enlightencoffee.com/",
      "addr_state": "TX",
      "addr_city": "Webster",
      "addr_street": "West NASA Parkway",
      "addr_housenumber": "800",
      "distance": 62826.7546015
    },
    {
      "id": 189453,
      "geometry": "POINT (-95.781318 29.565373)",
      "poi_name": "Shipley Donuts",
      "osm_id": 1234229401,
      "amenity": "cafe",
      "distance": 66104.09955167
    },
    {
      "id": 192699,
      "geometry": "POINT (-95.482412 29.760105)",
      "poi_name": "Starbucks",
      "osm_id": 1474266869,
      "amenity": "cafe",
      "cuisine": "coffee_shop",
      "opening_hours": "Mo-Sa 05:30-19:00; Su 06:00-18:30",
      "takeaway": "yes",
      "official_name": "Starbucks Coffee",
      "addr_state": "TX",
      "addr_city": "Houston",
      "addr_street": "Woodway Drive",
      "addr_housenumber": "5767",
      "distance": 79497.94739848
    },
    {
      "id": 191935,
      "geometry": "POINT (-95.442356 29.721283)",
      "poi_name": "Z Pizza",
      "osm_id": 1406368108,
      "amenity": "cafe",
      "cuisine": "pizza",
      "distance": 75146.80305809
    },
    {
      "id": 192489,
      "geometry": "POINT (-95.394942 29.732461)",
      "poi_name": "Black Hole",
      "osm_id": 1455044828,
      "amenity": "cafe",
      "internet_access": "wlan",
      "addr_state": "TX",
      "addr_city": "Houston",
      "addr_postcode": "77006",
      "addr_street": "Graustark Street",
      "addr_housenumber": "5404",
      "distance": 76581.9167586
    },
    {
      "id": 192700,
      "geometry": "POINT (-95.41727 29.761085)",
      "poi_name": "Starbucks",
      "osm_id": 1474266873,
      "amenity": "cafe",
      "cuisine": "coffee_shop",
      "opening_hours": "Mo-Sa 05:00-19:00; Su 05:30-19:00",
      "internet_access": "yes",
      "takeaway": "yes",
      "drive_through": "no",
      "official_name": "Starbucks Coffee",
      "outdoor_seating": "yes",
      "addr_state": "TX",
      "addr_city": "Houston",
      "addr_street": "Memorial Drive",
      "addr_housenumber": "5535A",
      "distance": 79624.97841901
    },
    {
      "id": 195463,
      "geometry": "POINT (-95.389914 29.72631)",
      "poi_name": "Cafe Leonelli",
      "osm_id": 10307659701,
      "amenity": "cafe",
      "website": "https://www.cafeleonelli.com/",
      "outdoor_seating": "yes",
      "distance": 75939.22743448
    },
    {
      "id": 195569,
      "geometry": "POINT (-95.118671 29.55486)",
      "poi_name": "The Teahouse",
      "osm_id": 10312225975,
      "amenity": "cafe",
      "cuisine": "bubble_tea",
      "website": "https://the-teahouse-clearlake.business.site/",
      "outdoor_seating": "yes",
      "distance": 65302.392826
    },
    {
      "id": 195578,
      "geometry": "POINT (-95.265858 29.599177)",
      "poi_name": "Starbucks",
      "osm_id": 10312375060,
      "amenity": "cafe",
      "cuisine": "coffee_shop",
      "takeaway": "yes",
      "official_name": "Starbucks Coffee",
      "addr_state": "TX",
      "addr_city": "Houston",
      "addr_postcode": "77075",
      "addr_street": "Pearland Parkway",
      "addr_housenumber": "10501",
      "distance": 64210.5676207
    },
    {
      "id": 196499,
      "geometry": "POINT (-95.568601 29.703538)",
      "poi_name": "Long Coffee",
      "osm_id": 10582824875,
      "amenity": "cafe",
      "opening_hours": "Fr-Sa 08:00-23:00, Mo-Th,Su 08:00-22:00",
      "website": "https://www.longcoffeeus.com/",
      "phone": "+1-281-983-5700",
      "addr_state": "TX",
      "addr_city": "Houston",
      "addr_postcode": "77072",
      "addr_street": "Bellaire Boulevard;\u0110\u1ea1i L\u1ed9 S\u00e0ig\u00f2n",
      "addr_housenumber": "10611",
      "distance": 74040.68966534
    },
    {
      "id": 195817,
      "geometry": "POINT (-95.790319 29.697897)",
      "poi_name": "Minuti Coffee",
      "osm_id": 10541923275,
      "amenity": "cafe",
      "cuisine": "coffee_shop",
      "website": "https://minuticoffee.com",
      "internet_access": "wlan",
      "phone": "+1-281-762-0371",
      "addr_state": "TX",
      "addr_city": "Richmond",
      "addr_postcode": "77406",
      "addr_street": "Katy Gaston Road",
      "addr_housenumber": "7115",
      "distance": 79628.37658257
    },
    {
      "id": 195976,
      "geometry": "POINT (-95.377783 29.752262)",
      "poi_name": "CoCo Fresh Tea & Juice",
      "osm_id": 10555514839,
      "amenity": "cafe",
      "cuisine": "bubble_tea",
      "takeaway": "yes",
      "addr_street": "Gray Street",
      "addr_housenumber": "218",
      "distance": 78906.26597954
    },
    {
      "id": 196165,
      "geometry": "POINT (-95.388098 29.744211)",
      "poi_name": "La Sicilia",
      "osm_id": 10566811308,
      "amenity": "cafe",
      "opening_hours": "Mo-Tu off; We-Sa 08:00-15:00; Su 09:00-14:00",
      "addr_state": "TX",
      "addr_city": "Houston",
      "addr_postcode": "77006",
      "addr_street": "Westheimer Road",
      "addr_housenumber": "515",
      "distance": 77931.18198141
    },
    {
      "id": 196501,
      "geometry": "POINT (-95.569705 29.703004)",
      "poi_name": "Kravin Fruit Bar",
      "osm_id": 10582824878,
      "amenity": "cafe",
      "cuisine": "bubble_tea",
      "opening_hours": "Mo-Su 10:00-22:00",
      "website": "https://www.kravinhouston.com/",
      "internet_access": "wlan",
      "phone": "+12815305728",
      "addr_state": "TX",
      "addr_city": "Houston",
      "addr_postcode": "77072",
      "addr_street": "Bellaire Boulevard;\u0110\u1ea1i L\u1ed9 S\u00e0ig\u00f2n",
      "addr_housenumber": "10623",
      "distance": 73998.54793873
    },
    {
      "id": 196504,
      "geometry": "POINT (-95.569158 29.702624)",
      "poi_name": "Hangout Fruit Juices & Bites",
      "osm_id": 10582824882,
      "amenity": "cafe",
      "cuisine": "coffee_shop;bubble_tea;juice;snack",
      "opening_hours": "Mo-Su 11:00-22:30",
      "website": "https://hangoutfruitjuicebites.com/",
      "phone": "+12817412522",
      "addr_state": "TX",
      "addr_city": "Houston",
      "addr_postcode": "77072",
      "addr_street": "Bellaire Boulevard;\u0110\u1ea1i L\u1ed9 S\u00e0ig\u00f2n",
      "addr_housenumber": "10613",
      "distance": 73948.82626514
    },
    {
      "id": 196508,
      "geometry": "POINT (-95.568595 29.702667)",
      "poi_name": "Teaholic",
      "osm_id": 10582824886,
      "amenity": "cafe",
      "cuisine": "coffee_shop;bubble_tea;snack",
      "opening_hours": "Mo-Su 11:00-22:00",
      "internet_access": "yes",
      "phone": "+18322436902",
      "outdoor_seating": "yes",
      "addr_state": "TX",
      "addr_city": "Houston",
      "addr_postcode": "77072",
      "addr_street": "Bellaire Boulevard;\u0110\u1ea1i L\u1ed9 S\u00e0ig\u00f2n",
      "addr_housenumber": "10613",
      "distance": 73945.11674591
    },
    {
      "id": 196509,
      "geometry": "POINT (-95.568471 29.702661)",
      "poi_name": "Bambu",
      "osm_id": 10582824887,
      "amenity": "cafe",
      "cuisine": "vietnamese;bubble_tea",
      "opening_hours": "Mo-Su 09:00-23:00",
      "website": "https://www.drinkbambu.com/",
      "internet_access": "yes",
      "phone": "+18323283900",
      "takeaway": "yes",
      "outdoor_seating": "yes",
      "addr_state": "TX",
      "addr_city": "Houston",
      "addr_postcode": "77072",
      "addr_street": "Bellaire Boulevard;\u0110\u1ea1i L\u1ed9 S\u00e0ig\u00f2n",
      "addr_housenumber": "10613",
      "distance": 73942.63427596
    },
    {
      "id": 197441,
      "geometry": "POINT (-95.152257 29.537413)",
      "poi_name": "Starbucks",
      "osm_id": 10648750485,
      "amenity": "cafe",
      "cuisine": "coffee_shop",
      "takeaway": "yes",
      "official_name": "Starbucks Coffee",
      "distance": 62033.42075296
    },
    {
      "id": 203491,
      "geometry": "POINT (-95.365292 29.753559)",
      "poi_name": "Perk Coffee Shop",
      "osm_id": 7089701312,
      "amenity": "cafe",
      "opening_hours": "Mo-Th 07:15-14:00; Fr 07:15-13:30",
      "distance": 79169.42940565
    },
    {
      "id": 198676,
      "geometry": "POINT (-95.486472 29.748201)",
      "poi_name": "Fountain View Cafe",
      "osm_id": 912088391,
      "amenity": "cafe",
      "distance": 78195.13607744
    },
    {
      "id": 198679,
      "geometry": "POINT (-94.792282 29.304914)",
      "poi_name": "MOD Coffeehouse",
      "osm_id": 912525224,
      "amenity": "cafe",
      "cuisine": "coffee_shop",
      "wheelchair": "yes",
      "opening_hours": "07:00-22:00",
      "website": "https://www.modcoffeehouse.com/",
      "internet_access": "yes",
      "phone": "+1 409 765-5659",
      "addr_state": "TX",
      "addr_city": "Galveston",
      "addr_postcode": "77550",
      "addr_street": "Postoffice Street",
      "addr_housenumber": "2126",
      "distance": 70438.41655273
    },
    {
      "id": 203283,
      "geometry": "POINT (-95.587092 29.549664)",
      "poi_name": "Republic Roots Coffee + Juice Co.",
      "osm_id": 7075942811,
      "amenity": "cafe",
      "addr_state": "TX",
      "addr_city": "Sugar Land",
      "addr_street": "University Boulevard",
      "addr_housenumber": "18721",
      "distance": 57626.65473379
    },
    {
      "id": 203286,
      "geometry": "POINT (-95.582849 29.582165)",
      "poi_name": "Mango Hut",
      "osm_id": 7076217079,
      "amenity": "cafe",
      "distance": 61052.95418641
    },
    {
      "id": 204934,
      "geometry": "POINT (-95.712928 29.657814)",
      "poi_name": "Starbucks",
      "osm_id": 7151982817,
      "amenity": "cafe",
      "cuisine": "coffee_shop",
      "takeaway": "yes",
      "official_name": "Starbucks Coffee",
      "distance": 72657.9899519
    },
    {
      "id": 203446,
      "geometry": "POINT (-95.467646 29.723322)",
      "poi_name": "Starbucks",
      "osm_id": 7087365623,
      "amenity": "cafe",
      "cuisine": "coffee_shop",
      "opening_hours": "Mo-Su 05:30-21:00; PH closed \"check website/app\"",
      "internet_access": "wlan",
      "takeaway": "yes",
      "official_name": "Starbucks Coffee",
      "outdoor_seating": "yes",
      "delivery": "no",
      "toilets": "yes",
      "addr_state": "TX",
      "addr_city": "Houston",
      "addr_street": "South Rice Avenue",
      "addr_housenumber": "5409",
      "distance": 75381.55965322
    },
    {
      "id": 204880,
      "geometry": "POINT (-95.499827 29.749654)",
      "poi_name": "Starbucks",
      "osm_id": 7147677577,
      "amenity": "cafe",
      "cuisine": "coffee_shop",
      "opening_hours": "06:00 - 20:00",
      "takeaway": "yes",
      "official_name": "Starbucks Coffee",
      "addr_street": "South Voss Road",
      "addr_housenumber": "1655",
      "distance": 78421.62514923
    },
    {
      "id": 206508,
      "geometry": "POINT (-95.476222 29.737503)",
      "poi_name": "Coffee Mill",
      "osm_id": 7212933124,
      "amenity": "cafe",
      "distance": 76973.82717878
    },
    {
      "id": 206393,
      "geometry": "POINT (-95.466273 29.749021)",
      "poi_name": "Starbucks",
      "osm_id": 7207414753,
      "amenity": "cafe",
      "cuisine": "coffee_shop",
      "takeaway": "yes",
      "official_name": "Starbucks Coffee",
      "addr_street": "San Felipe Street",
      "addr_housenumber": "5161",
      "distance": 78227.24268446
    },
    {
      "id": 207132,
      "geometry": "POINT (-95.447559 29.741422)",
      "poi_name": "Starbucks",
      "osm_id": 7237854042,
      "amenity": "cafe",
      "cuisine": "coffee_shop",
      "takeaway": "yes",
      "official_name": "Starbucks Coffee",
      "addr_street": "Westheimer Road",
      "addr_housenumber": "4081",
      "distance": 77374.28188371
    },
    {
      "id": 219624,
      "geometry": "POINT (-94.799503 29.304066)",
      "poi_name": "Red Light Coffee Roasters",
      "osm_id": 9337572848,
      "amenity": "cafe",
      "cuisine": "coffee_shop",
      "opening_hours": "Mo-Su 07:00-19:00",
      "website": "https://redlightcoffeeroasters.com/",
      "phone": "(409) 220-3189",
      "outdoor_seating": "yes",
      "addr_state": "TX",
      "addr_city": "Galveston",
      "addr_postcode": "77550",
      "addr_street": "Market Street - Avenue D",
      "addr_housenumber": "2728",
      "distance": 69760.05985545
    },
    {
      "id": 213985,
      "geometry": "POINT (-95.376171 29.731083)",
      "poi_name": "Cafe 4212",
      "osm_id": 5263007753,
      "amenity": "cafe",
      "addr_state": "TX",
      "addr_city": "Houston",
      "addr_postcode": "77004",
      "addr_street": "Almeda Road",
      "addr_housenumber": "4212",
      "distance": 76583.69164475
    },
    {
      "id": 230099,
      "geometry": "POINT (-95.631878 29.584912)",
      "poi_name": "Tea House and Coffee",
      "osm_id": 4414028008,
      "amenity": "cafe",
      "distance": 62509.71846636
    },
    {
      "id": 229986,
      "geometry": "POINT (-95.230928 29.425147)",
      "poi_name": "Shipley's Donuts",
      "osm_id": 4409977134,
      "amenity": "cafe",
      "cuisine": "donut",
      "distance": 47470.87897984
    },
    {
      "id": 226635,
      "geometry": "POINT (-95.131486 29.54746)",
      "poi_name": "Kung Fu Tea",
      "osm_id": 11164398882,
      "amenity": "cafe",
      "cuisine": "bubble_tea",
      "takeaway": "yes",
      "distance": 63976.4089955
    },
    {
      "id": 226640,
      "geometry": "POINT (-95.128881 29.548033)",
      "poi_name": "Cafe Dew",
      "osm_id": 11164398891,
      "amenity": "cafe",
      "distance": 64155.38753181
    },
    {
      "id": 227761,
      "geometry": "POINT (-95.417392 29.715692)",
      "poi_name": "Starbucks",
      "osm_id": 4317541824,
      "amenity": "cafe",
      "cuisine": "coffee_shop",
      "takeaway": "yes",
      "official_name": "Starbucks Coffee",
      "outdoor_seating": "yes",
      "addr_state": "TX",
      "addr_city": "Houston",
      "addr_postcode": "77005",
      "addr_street": "Amherst Street",
      "addr_housenumber": "2531",
      "distance": 74597.60655194
    },
    {
      "id": 227927,
      "geometry": "POINT (-95.360129 29.75158)",
      "poi_name": "Starbucks",
      "osm_id": 4322377711,
      "amenity": "cafe",
      "cuisine": "coffee_shop",
      "takeaway": "yes",
      "official_name": "Starbucks Coffee",
      "distance": 79006.42225304
    },
    {
      "id": 230911,
      "geometry": "POINT (-95.36673 29.755633)",
      "poi_name": "Starbucks",
      "osm_id": 4446394698,
      "amenity": "cafe",
      "cuisine": "coffee_shop",
      "wheelchair": "yes",
      "internet_access": "wlan",
      "takeaway": "yes",
      "official_name": "Starbucks Coffee",
      "outdoor_seating": "no",
      "addr_state": "TX",
      "addr_city": "Houston",
      "addr_street": "Dallas Street",
      "addr_housenumber": "914",
      "distance": 79383.31268144
    },
    {
      "id": 232628,
      "geometry": "POINT (-95.520008 29.73639)",
      "poi_name": "Java Coffee & Tea Co.",
      "osm_id": 4535586640,
      "amenity": "cafe",
      "cuisine": "coffee_shop",
      "website": "http://javacoffeeandtea.net",
      "phone": "+1-713-974-0443",
      "addr_state": "TX",
      "addr_city": "Houston",
      "addr_postcode": "77063",
      "addr_street": "Fondren Road",
      "addr_housenumber": "2727",
      "distance": 77096.39762064
    },
    {
      "id": 231818,
      "geometry": "POINT (-95.073268 29.529063)",
      "poi_name": "Starbucks",
      "osm_id": 4490864289,
      "amenity": "cafe",
      "cuisine": "coffee_shop",
      "takeaway": "yes",
      "official_name": "Starbucks Coffee",
      "addr_state": "TX",
      "addr_city": "League City",
      "distance": 65223.1543439
    },
    {
      "id": 235623,
      "geometry": "POINT (-95.743402 29.602341)",
      "poi_name": "Mugz Coffee Bar",
      "osm_id": 5760943324,
      "amenity": "cafe",
      "addr_state": "TX",
      "addr_city": "Richmond",
      "addr_postcode": "77406",
      "addr_street": "FM 359",
      "addr_housenumber": "503",
      "distance": 68106.29199168
    }
  ],
  "answer_type": "distance",
  "question_entities": {
    "[1]": {
      "main_category": "amenity",
      "sub_category": "cafe"
    },
    "[2]": {
      "distance": 80000,
      "text": "80 kilometers"
    },
    "[3]": {
      "main_category": "leisure",
      "sub_category": "garden",
      "display_name": "Snail Garden, Lake Jackson, TX",
      "geo_wkt": "POINT (-95.452235 29.043376)",
      "poi": {
        "id": 248645,
        "geometry": "POINT (-95.452235 29.043376)",
        "poi_name": "Snail Garden",
        "osm_id": 4714529268,
        "leisure": "garden",
        "addr_state": "TX",
        "addr_city": "Lake Jackson",
        "addr_postcode": "77566",
        "addr_street": "West Way Street"
      }
    }
  },
  "id": 724,
  "type": "range+distance"
}